{"type": "FeatureCollection", "features": [{"type": "Feature", "geometry": {"type": "Polygon", "coordinates": [[[-98.2088378, 34.8853349], [-98.2085753, 34.8853124], [-98.2085245, 34.8853081], [-98.2085637, 34.8851368], [-98.2087236, 34.8851743], [-98.2088672, 34.8852546], [-98.2088378, 34.8853349]]]}, "properties": {"osm_id": 696994149, "building": "pavilion", "name": "", "height": null, "height_m": null, "levels": null, "tract_id": "40015162300", "tract_name": "1623", "tags": {"building": "pavilion"}}}, {"type": "Feature", "geometry": {"type": "Polygon", "coordinates": [[[-98.2076141, 34.8866733], [-98.207526, 34.8866144], [-98.2075912, 34.8865635], [-98.2076761, 34.8866331], [-98.2076141, 34.8866733]]]}, "properties": {"osm_id": 696994151, "building": "yes", "name": "", "height": null, "height_m": null, "levels": null, "tract_id": "40015162300", "tract_name": "1623", "tags": {"amenity": "toilets", "building": "yes"}}}, {"type": "Feature", "geometry": {"type": "Polygon", "coordinates": [[[-98.1113046, 34.8761213], [-98.1113051, 34.8760864], [-98.1112416, 34.8760857], [-98.1112411, 34.8761207], [-98.1113046, 34.8761213]]]}, "properties": {"osm_id": 942364233, "building": "yes", "name": "", "height": null, "height_m": null, "levels": null, "tract_id": "40015162300", "tract_name": "1623", "tags": {"building": "yes"}}}, {"type": "Feature", "geometry": {"type": "Polygon", "coordinates": [[[-98.1400265, 34.9339416], [-98.1400265, 34.9338631], [-98.1399376, 34.9338631], [-98.1399376, 34.9339416], [-98.1400265, 34.9339416]]]}, "properties": {"osm_id": 1058227518, "building": "yes", "name": "", "height": null, "height_m": null, "levels": null, "tract_id": "40015162300", "tract_name": "1623", "tags": {"addr:city": "Cement", "addr:housenumber": "202", "addr:postcode": "73017", "addr:state": "OK", "addr:street": "North Main Street", "building": "yes", "telecom": "exchange"}}}, {"type": "Feature", "geometry": {"type": "Polygon", "coordinates": [[[-98.141287, 34.9309829], [-98.1410815, 34.9309822], [-98.1410836, 34.9305864], [-98.1412891, 34.9305872], [-98.141287, 34.9309829]]]}, "properties": {"osm_id": 1323571614, "building": "yes", "name": "", "height": null, "height_m": null, "levels": null, "tract_id": "40015162300", "tract_name": "1623", "tags": {"building": "yes"}}}, {"type": "Feature", "geometry": {"type": "Polygon", "coordinates": [[[-98.1409539, 34.9309737], [-98.1404548, 34.9309756], [-98.1404526, 34.9306067], [-98.1409518, 34.9306047], [-98.1409539, 34.9309737]]]}, "properties": {"osm_id": 1323571615, "building": "yes", "name": "", "height": null, "height_m": null, "levels": null, "tract_id": "40015162300", "tract_name": "1623", "tags": {"building": "yes"}}}, {"type": "Feature", "geometry": {"type": "Polygon", "coordinates": [[[-98.1400466, 34.9308724], [-98.1390155, 34.9308756], [-98.1390152, 34.9308166], [-98.1387523, 34.9308174], [-98.1387513, 34.9306095], [-98.1390215, 34.9306087], [-98.1390217, 34.9306553], [-98.1390904, 34.9306551], [-98.1390905, 34.9306819], [-98.1394852, 34.9306807], [-98.1394849, 34.9306174], [-98.1392129, 34.9306182], [-98.1392126, 34.9305356], [-98.1393192, 34.9305353], [-98.1393189, 34.930471], [-98.1394849, 34.9304706], [-98.1394844, 34.9303453], [-98.1398327, 34.9303443], [-98.1398344, 34.9307267], [-98.1398837, 34.9307266], [-98.1398826, 34.9304961], [-98.1400448, 34.9304956], [-98.1400466, 34.9308724]]]}, "properties": {"osm_id": 1323571616, "building": "yes", "name": "", "height": null, "height_m": null, "levels": null, "tract_id": "40015162300", "tract_name": "1623", "tags": {"building": "yes"}}}, {"type": "Feature", "geometry": {"type": "Polygon", "coordinates": [[[-98.1388797, 34.9305291], [-98.1386818, 34.9305286], [-98.138682, 34.9304717], [-98.1386435, 34.9304716], [-98.1386452, 34.9300408], [-98.1388912, 34.9300414], [-98.1388906, 34.9301884], [-98.1389201, 34.9301885], [-98.138919, 34.9304611], [-98.13888, 34.930461], [-98.1388797, 34.9305291]]]}, "properties": {"osm_id": 1323571617, "building": "yes", "name": "", "height": null, "height_m": null, "levels": null, "tract_id": "40015162300", "tract_name": "1623", "tags": {"building": "yes"}}}, {"type": "Feature", "geometry": {"type": "Polygon", "coordinates": [[[-98.138858, 34.9310952], [-98.1386794, 34.9310998], [-98.1386716, 34.9308983], [-98.1388503, 34.9308937], [-98.138858, 34.9310952]]]}, "properties": {"osm_id": 1323571618, "building": "yes", "name": "", "height": null, "height_m": null, "levels": null, "tract_id": "40015162300", "tract_name": "1623", "tags": {"building": "yes"}}}]}