{"type": "FeatureCollection", "features": [{"type": "Feature", "geometry": {"type": "Polygon", "coordinates": [[[-96.276822, 36.1879839], [-96.2768718, 36.1879125], [-96.276667, 36.1878194], [-96.2766172, 36.1878908], [-96.276822, 36.1879839]]]}, "properties": {"osm_id": 14941281, "building": "yes", "name": "", "height": null, "height_m": null, "levels": null, "tract_id": "40117957200", "tract_name": "9572", "tags": {"building": "yes"}}}, {"type": "Feature", "geometry": {"type": "Polygon", "coordinates": [[[-96.2757684, 36.1884869], [-96.27589, 36.1882292], [-96.2757728, 36.1881931], [-96.2756511, 36.1884508], [-96.2757684, 36.1884869]]]}, "properties": {"osm_id": 14941426, "building": "yes", "name": "", "height": null, "height_m": null, "levels": null, "tract_id": "40117957200", "tract_name": "9572", "tags": {"building": "yes"}}}, {"type": "Feature", "geometry": {"type": "Polygon", "coordinates": [[[-96.3807364, 36.2183098], [-96.380641, 36.2183282], [-96.3805974, 36.2181803], [-96.3806928, 36.218162], [-96.3807364, 36.2183098]]]}, "properties": {"osm_id": 231046872, "building": "yes", "name": "", "height": null, "height_m": null, "levels": null, "tract_id": "40117957200", "tract_name": "9572", "tags": {"addr:city": "Cleveland", "addr:country": "US", "addr:housenumber": "574", "addr:postcode": "74060", "addr:street": "North Buckeye Trail", "building": "yes"}}}, {"type": "Feature", "geometry": {"type": "Polygon", "coordinates": [[[-96.2857525, 36.2052107], [-96.2858744, 36.2053544], [-96.2857637, 36.2054156], [-96.285756, 36.2054065], [-96.2857293, 36.2054212], [-96.2856675, 36.2053484], [-96.2856926, 36.2053345], [-96.2856642, 36.2053011], [-96.2856331, 36.2053182], [-96.285609, 36.2052899], [-96.2857525, 36.2052107]]]}, "properties": {"osm_id": 238733236, "building": "yes", "name": "Tank n Tummy", "height": null, "height_m": null, "levels": null, "tract_id": "40117957200", "tract_name": "9572", "tags": {"addr:city": "Cleveland", "addr:country": "US", "addr:housenumber": "1127", "addr:state": "OK", "addr:street": "West Peninsula North Drive", "building": "yes", "check_date": "2025-05-23", "name": "Tank n Tummy", "shop": "convenience", "source": "Bing"}}}, {"type": "Feature", "geometry": {"type": "Polygon", "coordinates": [[[-96.2859576, 36.205295], [-96.2858919, 36.2053312], [-96.2858144, 36.2052395], [-96.2858801, 36.2052034], [-96.2859576, 36.205295]]]}, "properties": {"osm_id": 238733237, "building": "roof", "name": "Phillips 66", "height": null, "height_m": null, "levels": null, "tract_id": "40117957200", "tract_name": "9572", "tags": {"addr:city": "Cleveland", "addr:country": "US", "addr:housenumber": "1127", "addr:state": "OK", "addr:street": "West Peninsula North Drive", "amenity": "fuel", "building": "roof", "name": "Phillips 66", "source": "Bing"}}}, {"type": "Feature", "geometry": {"type": "Polygon", "coordinates": [[[-96.3158552, 36.2178818], [-96.3159445, 36.2178805], [-96.3159453, 36.217914], [-96.3158559, 36.2179153], [-96.3158552, 36.2178818]]]}, "properties": {"osm_id": 264956648, "building": "yes", "name": "", "height": null, "height_m": null, "levels": null, "tract_id": "40117957200", "tract_name": "9572", "tags": {"building": "yes"}}}, {"type": "Feature", "geometry": {"type": "Polygon", "coordinates": [[[-96.3157601, 36.217816], [-96.3157594, 36.21775], [-96.3157138, 36.2177503], [-96.3157145, 36.2178163], [-96.3157601, 36.217816]]]}, "properties": {"osm_id": 264956649, "building": "yes", "name": "", "height": null, "height_m": null, "levels": null, "tract_id": "40117957200", "tract_name": "9572", "tags": {"building": "yes"}}}, {"type": "Feature", "geometry": {"type": "Polygon", "coordinates": [[[-96.2792244, 36.1631966], [-96.2791176, 36.1631917], [-96.2791332, 36.1629665], [-96.2792401, 36.1629714], [-96.2792244, 36.1631966]]]}, "properties": {"osm_id": 292425034, "building": "yes", "name": "", "height": null, "height_m": null, "levels": null, "tract_id": "40117957200", "tract_name": "9572", "tags": {"building": "yes", "source": "bing"}}}, {"type": "Feature", "geometry": {"type": "Polygon", "coordinates": [[[-96.2787816, 36.1636258], [-96.2786452, 36.1636136], [-96.2786818, 36.1633476], [-96.2788182, 36.1633598], [-96.2787816, 36.1636258]]]}, "properties": {"osm_id": 292425036, "building": "yes", "name": "", "height": null, "height_m": null, "levels": null, "tract_id": "40117957200", "tract_name": "9572", "tags": {"building": "yes", "source": "bing"}}}, {"type": "Feature", "geometry": {"type": "Polygon", "coordinates": [[[-96.3176157, 36.2007453], [-96.3173844, 36.2008385], [-96.3173588, 36.200797], [-96.31759, 36.2007038], [-96.3176157, 36.2007453]]]}, "properties": {"osm_id": 985472061, "building": "yes", "name": "", "height": null, "height_m": null, "levels": null, "tract_id": "40117957200", "tract_name": "9572", "tags": {"building": "yes"}}}, {"type": "Feature", "geometry": {"type": "Polygon", "coordinates": [[[-96.31758, 36.2006396], [-96.3173503, 36.2007077], [-96.3173325, 36.2006686], [-96.3175622, 36.2006005], [-96.31758, 36.2006396]]]}, "properties": {"osm_id": 985472062, "building": "yes", "name": "", "height": null, "height_m": null, "levels": null, "tract_id": "40117957200", "tract_name": "9572", "tags": {"building": "yes"}}}, {"type": "Feature", "geometry": {"type": "Polygon", "coordinates": [[[-96.3176015, 36.2005405], [-96.3173406, 36.2005045], [-96.3173492, 36.2004642], [-96.3176101, 36.2005003], [-96.3176015, 36.2005405]]]}, "properties": {"osm_id": 985472063, "building": "yes", "name": "", "height": null, "height_m": null, "levels": null, "tract_id": "40117957200", "tract_name": "9572", "tags": {"building": "yes"}}}, {"type": "Feature", "geometry": {"type": "Polygon", "coordinates": [[[-96.3182767, 36.2005768], [-96.318247, 36.2006111], [-96.3180895, 36.2005221], [-96.3181192, 36.2004878], [-96.3182767, 36.2005768]]]}, "properties": {"osm_id": 985472064, "building": "yes", "name": "", "height": null, "height_m": null, "levels": null, "tract_id": "40117957200", "tract_name": "9572", "tags": {"building": "yes"}}}, {"type": "Feature", "geometry": {"type": "Polygon", "coordinates": [[[-96.3184735, 36.1999005], [-96.3184251, 36.1999503], [-96.3184412, 36.1999604], [-96.3184239, 36.1999782], [-96.3183381, 36.1999239], [-96.3184038, 36.1998564], [-96.3184735, 36.1999005]]]}, "properties": {"osm_id": 985472065, "building": "yes", "name": "", "height": null, "height_m": null, "levels": null, "tract_id": "40117957200", "tract_name": "9572", "tags": {"building": "yes"}}}, {"type": "Feature", "geometry": {"type": "Polygon", "coordinates": [[[-96.3184457, 36.2008436], [-96.3183987, 36.2008266], [-96.3184676, 36.2007021], [-96.3185147, 36.200719], [-96.3184457, 36.2008436]]]}, "properties": {"osm_id": 985472066, "building": "yes", "name": "", "height": null, "height_m": null, "levels": null, "tract_id": "40117957200", "tract_name": "9572", "tags": {"building": "yes"}}}, {"type": "Feature", "geometry": {"type": "Polygon", "coordinates": [[[-96.423377, 36.2246729], [-96.4232193, 36.2246711], [-96.4232193, 36.224656], [-96.4231981, 36.2246558], [-96.4231976, 36.2246709], [-96.4231166, 36.2246694], [-96.4231161, 36.2247131], [-96.4233758, 36.2247161], [-96.423377, 36.2246729]]]}, "properties": {"osm_id": 987360684, "building": "yes", "name": "", "height": null, "height_m": null, "levels": null, "tract_id": "40117957200", "tract_name": "9572", "tags": {"building": "yes"}}}, {"type": "Feature", "geometry": {"type": "Polygon", "coordinates": [[[-96.4237933, 36.2247942], [-96.4237946, 36.2247445], [-96.4237266, 36.2247439], [-96.4237273, 36.2247934], [-96.4237933, 36.2247942]]]}, "properties": {"osm_id": 987360685, "building": "yes", "name": "", "height": null, "height_m": null, "levels": null, "tract_id": "40117957200", "tract_name": "9572", "tags": {"building": "yes"}}}, {"type": "Feature", "geometry": {"type": "Polygon", "coordinates": [[[-96.3322181, 36.2147452], [-96.332041, 36.2147495], [-96.332039, 36.2146944], [-96.3320043, 36.2146952], [-96.3320019, 36.2146331], [-96.3322136, 36.2146279], [-96.3322181, 36.2147452]]]}, "properties": {"osm_id": 1082611389, "building": "yes", "name": "", "height": null, "height_m": null, "levels": null, "tract_id": "40117957200", "tract_name": "9572", "tags": {"building": "yes"}}}, {"type": "Feature", "geometry": {"type": "Polygon", "coordinates": [[[-96.3321617, 36.2144444], [-96.3321668, 36.2144916], [-96.3320273, 36.2145014], [-96.3320223, 36.2144541], [-96.3321617, 36.2144444]]]}, "properties": {"osm_id": 1082611390, "building": "yes", "name": "", "height": null, "height_m": null, "levels": null, "tract_id": "40117957200", "tract_name": "9572", "tags": {"building": "yes"}}}, {"type": "Feature", "geometry": {"type": "Polygon", "coordinates": [[[-96.3322138, 36.214102], [-96.3322053, 36.2140283], [-96.3319972, 36.214044], [-96.3320057, 36.2141177], [-96.3322138, 36.214102]]]}, "properties": {"osm_id": 1082611391, "building": "yes", "name": "", "height": null, "height_m": null, "levels": null, "tract_id": "40117957200", "tract_name": "9572", "tags": {"building": "yes", "source": "microsoft/BuildingFootprints"}}}, {"type": "Feature", "geometry": {"type": "Polygon", "coordinates": [[[-96.3321472, 36.2153992], [-96.3322415, 36.2153927], [-96.3322183, 36.2151733], [-96.3320905, 36.2151821], [-96.3321, 36.2152721], [-96.3321335, 36.2152698], [-96.3321472, 36.2153992]]]}, "properties": {"osm_id": 1082611392, "building": "yes", "name": "", "height": null, "height_m": null, "levels": null, "tract_id": "40117957200", "tract_name": "9572", "tags": {"building": "yes", "source": "microsoft/BuildingFootprints"}}}, {"type": "Feature", "geometry": {"type": "Polygon", "coordinates": [[[-96.3318335, 36.215636], [-96.3318361, 36.2156981], [-96.3318752, 36.215697], [-96.331878, 36.215764], [-96.331953, 36.2157619], [-96.3319476, 36.2156329], [-96.3318335, 36.215636]]]}, "properties": {"osm_id": 1082611393, "building": "yes", "name": "", "height": null, "height_m": null, "levels": null, "tract_id": "40117957200", "tract_name": "9572", "tags": {"building": "yes", "source": "microsoft/BuildingFootprints"}}}, {"type": "Feature", "geometry": {"type": "Polygon", "coordinates": [[[-96.3311608, 36.2152551], [-96.3312654, 36.2152693], [-96.331287, 36.2151658], [-96.3311825, 36.2151515], [-96.3311608, 36.2152551]]]}, "properties": {"osm_id": 1082611394, "building": "yes", "name": "", "height": null, "height_m": null, "levels": null, "tract_id": "40117957200", "tract_name": "9572", "tags": {"building": "yes", "source": "microsoft/BuildingFootprints"}}}, {"type": "Feature", "geometry": {"type": "Polygon", "coordinates": [[[-96.3244437, 36.2009808], [-96.3243806, 36.2009797], [-96.3243814, 36.2009505], [-96.3244444, 36.2009515], [-96.3244437, 36.2009808]]]}, "properties": {"osm_id": 1082616998, "building": "yes", "name": "", "height": null, "height_m": null, "levels": null, "tract_id": "40117957200", "tract_name": "9572", "tags": {"building": "yes"}}}, {"type": "Feature", "geometry": {"type": "Polygon", "coordinates": [[[-96.3244665, 36.2010522], [-96.3243712, 36.2010457], [-96.3243751, 36.2010092], [-96.3244703, 36.2010157], [-96.3244665, 36.2010522]]]}, "properties": {"osm_id": 1082616999, "building": "yes", "name": "", "height": null, "height_m": null, "levels": null, "tract_id": "40117957200", "tract_name": "9572", "tags": {"building": "yes"}}}, {"type": "Feature", "geometry": {"type": "Polygon", "coordinates": [[[-96.3251587, 36.1985653], [-96.3249683, 36.1985694], [-96.3249645, 36.1984553], [-96.3251549, 36.1984512], [-96.3251587, 36.1985653]]]}, "properties": {"osm_id": 1082617000, "building": "yes", "name": "", "height": null, "height_m": null, "levels": null, "tract_id": "40117957200", "tract_name": "9572", "tags": {"building": "yes"}}}, {"type": "Feature", "geometry": {"type": "Polygon", "coordinates": [[[-96.328821, 36.2001496], [-96.3288385, 36.2001107], [-96.3288641, 36.2001181], [-96.3288467, 36.2001571], [-96.328821, 36.2001496]]]}, "properties": {"osm_id": 1082617002, "building": "yes", "name": "", "height": null, "height_m": null, "levels": null, "tract_id": "40117957200", "tract_name": "9572", "tags": {"building": "yes"}}}, {"type": "Feature", "geometry": {"type": "Polygon", "coordinates": [[[-96.3289753, 36.2002351], [-96.3289561, 36.2003005], [-96.3289857, 36.2003061], [-96.3289418, 36.2004561], [-96.3287903, 36.2004272], [-96.328834, 36.2002779], [-96.3288507, 36.2002811], [-96.32887, 36.200215], [-96.3289753, 36.2002351]]]}, "properties": {"osm_id": 1082617004, "building": "yes", "name": "", "height": null, "height_m": null, "levels": null, "tract_id": "40117957200", "tract_name": "9572", "tags": {"building": "yes"}}}, {"type": "Feature", "geometry": {"type": "Polygon", "coordinates": [[[-96.3291471, 36.1998922], [-96.3290061, 36.1998632], [-96.3289711, 36.1999752], [-96.3291111, 36.2000042], [-96.3291471, 36.1998922]]]}, "properties": {"osm_id": 1082617007, "building": "yes", "name": "", "height": null, "height_m": null, "levels": null, "tract_id": "40117957200", "tract_name": "9572", "tags": {"building": "yes", "source": "microsoft/BuildingFootprints"}}}, {"type": "Feature", "geometry": {"type": "Polygon", "coordinates": [[[-96.326652, 36.2023], [-96.326329, 36.202285], [-96.326321, 36.202393], [-96.326645, 36.202407], [-96.326652, 36.2023]]]}, "properties": {"osm_id": 1082617008, "building": "yes", "name": "", "height": null, "height_m": null, "levels": null, "tract_id": "40117957200", "tract_name": "9572", "tags": {"building": "yes", "source": "microsoft/BuildingFootprints"}}}, {"type": "Feature", "geometry": {"type": "Polygon", "coordinates": [[[-96.3244896, 36.2011585], [-96.3244979, 36.2010958], [-96.3243975, 36.2010871], [-96.3243773, 36.2012394], [-96.3244291, 36.2012438], [-96.324441, 36.2011543], [-96.3244896, 36.2011585]]]}, "properties": {"osm_id": 1082617009, "building": "yes", "name": "", "height": null, "height_m": null, "levels": null, "tract_id": "40117957200", "tract_name": "9572", "tags": {"building": "yes", "source": "microsoft/BuildingFootprints"}}}, {"type": "Feature", "geometry": {"type": "Polygon", "coordinates": [[[-96.327544, 36.202467], [-96.327339, 36.202451], [-96.327333, 36.202504], [-96.327538, 36.20252], [-96.327544, 36.202467]]]}, "properties": {"osm_id": 1082617010, "building": "yes", "name": "", "height": null, "height_m": null, "levels": null, "tract_id": "40117957200", "tract_name": "9572", "tags": {"building": "yes", "source": "microsoft/BuildingFootprints"}}}, {"type": "Feature", "geometry": {"type": "Polygon", "coordinates": [[[-96.3278696, 36.2008232], [-96.3277272, 36.2007566], [-96.3276332, 36.2008878], [-96.3277391, 36.2009374], [-96.3277806, 36.2008803], [-96.3278162, 36.2008972], [-96.3278696, 36.2008232]]]}, "properties": {"osm_id": 1082617011, "building": "yes", "name": "", "height": null, "height_m": null, "levels": null, "tract_id": "40117957200", "tract_name": "9572", "tags": {"building": "yes", "source": "microsoft/BuildingFootprints"}}}, {"type": "Feature", "geometry": {"type": "Polygon", "coordinates": [[[-96.3313884, 36.2016556], [-96.3313884, 36.2017236], [-96.3315144, 36.2017236], [-96.3315144, 36.2016556], [-96.3313884, 36.2016556]]]}, "properties": {"osm_id": 1082617012, "building": "yes", "name": "", "height": null, "height_m": null, "levels": null, "tract_id": "40117957200", "tract_name": "9572", "tags": {"building": "yes", "source": "microsoft/BuildingFootprints"}}}, {"type": "Feature", "geometry": {"type": "Polygon", "coordinates": [[[-96.3277488, 36.2006421], [-96.3277028, 36.2007051], [-96.3277818, 36.2007421], [-96.3278268, 36.2006791], [-96.3277488, 36.2006421]]]}, "properties": {"osm_id": 1082617013, "building": "yes", "name": "", "height": null, "height_m": null, "levels": null, "tract_id": "40117957200", "tract_name": "9572", "tags": {"building": "yes", "source": "microsoft/BuildingFootprints"}}}, {"type": "Feature", "geometry": {"type": "Polygon", "coordinates": [[[-96.3315313, 36.2014173], [-96.3316589, 36.2014262], [-96.3316681, 36.2013405], [-96.3315405, 36.2013316], [-96.3315313, 36.2014173]]]}, "properties": {"osm_id": 1082617014, "building": "yes", "name": "", "height": null, "height_m": null, "levels": null, "tract_id": "40117957200", "tract_name": "9572", "tags": {"building": "yes", "source": "microsoft/BuildingFootprints"}}}, {"type": "Feature", "geometry": {"type": "Polygon", "coordinates": [[[-96.3246296, 36.1984663], [-96.3246296, 36.1986113], [-96.3248746, 36.1986113], [-96.3248746, 36.1984663], [-96.3246296, 36.1984663]]]}, "properties": {"osm_id": 1082617015, "building": "yes", "name": "", "height": null, "height_m": null, "levels": null, "tract_id": "40117957200", "tract_name": "9572", "tags": {"building": "yes", "source": "microsoft/BuildingFootprints"}}}, {"type": "Feature", "geometry": {"type": "Polygon", "coordinates": [[[-96.327008, 36.202618], [-96.327151, 36.202624], [-96.327166, 36.202394], [-96.327023, 36.202388], [-96.327008, 36.202618]]]}, "properties": {"osm_id": 1082617016, "building": "yes", "name": "", "height": null, "height_m": null, "levels": null, "tract_id": "40117957200", "tract_name": "9572", "tags": {"building": "yes", "source": "microsoft/BuildingFootprints"}}}, {"type": "Feature", "geometry": {"type": "Polygon", "coordinates": [[[-96.3268232, 36.2025021], [-96.3267483, 36.2024994], [-96.3267386, 36.2026712], [-96.3268135, 36.202674], [-96.3268232, 36.2025021]]]}, "properties": {"osm_id": 1082617017, "building": "yes", "name": "", "height": null, "height_m": null, "levels": null, "tract_id": "40117957200", "tract_name": "9572", "tags": {"building": "yes", "source": "microsoft/BuildingFootprints"}}}, {"type": "Feature", "geometry": {"type": "Polygon", "coordinates": [[[-96.3316375, 36.198554], [-96.3316261, 36.1983592], [-96.3314203, 36.1983673], [-96.3314306, 36.1985612], [-96.3316375, 36.198554]]]}, "properties": {"osm_id": 1082617018, "building": "yes", "name": "", "height": null, "height_m": null, "levels": null, "tract_id": "40117957200", "tract_name": "9572", "tags": {"building": "yes", "source": "microsoft/BuildingFootprints"}}}, {"type": "Feature", "geometry": {"type": "Polygon", "coordinates": [[[-96.3278764, 36.2002702], [-96.3277965, 36.2002958], [-96.3278231, 36.2003481], [-96.3279029, 36.2003215], [-96.3278764, 36.2002702]]]}, "properties": {"osm_id": 1082617019, "building": "yes", "name": "", "height": null, "height_m": null, "levels": null, "tract_id": "40117957200", "tract_name": "9572", "tags": {"building": "yes", "source": "microsoft/BuildingFootprints"}}}, {"type": "Feature", "geometry": {"type": "Polygon", "coordinates": [[[-96.331652, 36.201566], [-96.331652, 36.201733], [-96.331698, 36.201733], [-96.331698, 36.201566], [-96.331652, 36.201566]]]}, "properties": {"osm_id": 1082617020, "building": "yes", "name": "", "height": null, "height_m": null, "levels": null, "tract_id": "40117957200", "tract_name": "9572", "tags": {"building": "yes", "source": "microsoft/BuildingFootprints"}}}, {"type": "Feature", "geometry": {"type": "Polygon", "coordinates": [[[-96.3309661, 36.1983446], [-96.3309571, 36.1985086], [-96.3311321, 36.1985146], [-96.3311401, 36.1983816], [-96.3310891, 36.1983796], [-96.3310901, 36.1983496], [-96.3309661, 36.1983446]]]}, "properties": {"osm_id": 1082617021, "building": "yes", "name": "", "height": null, "height_m": null, "levels": null, "tract_id": "40117957200", "tract_name": "9572", "tags": {"building": "yes", "source": "microsoft/BuildingFootprints"}}}, {"type": "Feature", "geometry": {"type": "Polygon", "coordinates": [[[-96.3285365, 36.1993903], [-96.3283457, 36.1993829], [-96.3283364, 36.1995497], [-96.3284303, 36.1995524], [-96.3284293, 36.1995754], [-96.3285262, 36.1995792], [-96.3285365, 36.1993903]]]}, "properties": {"osm_id": 1082617022, "building": "yes", "name": "", "height": null, "height_m": null, "levels": null, "tract_id": "40117957200", "tract_name": "9572", "tags": {"building": "yes", "source": "microsoft/BuildingFootprints"}}}, {"type": "Feature", "geometry": {"type": "Polygon", "coordinates": [[[-96.3518552, 36.2265788], [-96.3518617, 36.2266397], [-96.3518496, 36.2266405], [-96.3518534, 36.2266752], [-96.3517201, 36.2266845], [-96.3517164, 36.2266498], [-96.3516914, 36.2266516], [-96.3516849, 36.2265907], [-96.3518552, 36.2265788]]]}, "properties": {"osm_id": 1326142691, "building": "detached", "name": "", "height": null, "height_m": null, "levels": null, "tract_id": "40117957200", "tract_name": "9572", "tags": {"addr:housenumber": "2545", "addr:street": "West Lakeshore Drive", "building": "detached"}}}, {"type": "Feature", "geometry": {"type": "Polygon", "coordinates": [[[-96.2907356, 36.1883904], [-96.2906071, 36.1884888], [-96.290662, 36.1885355], [-96.2907905, 36.1884372], [-96.2907356, 36.1883904]]]}, "properties": {"osm_id": 1326357047, "building": "yes", "name": "", "height": null, "height_m": null, "levels": null, "tract_id": "40117957200", "tract_name": "9572", "tags": {"building": "yes"}}}, {"type": "Feature", "geometry": {"type": "Polygon", "coordinates": [[[-96.2909274, 36.1885636], [-96.2908072, 36.1886556], [-96.2908621, 36.1887023], [-96.2909823, 36.1886104], [-96.2909274, 36.1885636]]]}, "properties": {"osm_id": 1326357048, "building": "yes", "name": "", "height": null, "height_m": null, "levels": null, "tract_id": "40117957200", "tract_name": "9572", "tags": {"building": "yes"}}}, {"type": "Feature", "geometry": {"type": "Polygon", "coordinates": [[[-96.2907195, 36.1886134], [-96.290591, 36.1887117], [-96.2906459, 36.1887585], [-96.2907744, 36.1886601], [-96.2907195, 36.1886134]]]}, "properties": {"osm_id": 1326357049, "building": "yes", "name": "", "height": null, "height_m": null, "levels": null, "tract_id": "40117957200", "tract_name": "9572", "tags": {"building": "yes"}}}, {"type": "Feature", "geometry": {"type": "Polygon", "coordinates": [[[-96.2906404, 36.188556], [-96.2905118, 36.1886544], [-96.2905667, 36.1887011], [-96.2906953, 36.1886028], [-96.2906404, 36.188556]]]}, "properties": {"osm_id": 1326357050, "building": "yes", "name": "", "height": null, "height_m": null, "levels": null, "tract_id": "40117957200", "tract_name": "9572", "tags": {"building": "yes"}}}, {"type": "Feature", "geometry": {"type": "Polygon", "coordinates": [[[-96.2860839, 36.1925028], [-96.2860867, 36.1926024], [-96.2861617, 36.192601], [-96.2861589, 36.1925015], [-96.2860839, 36.1925028]]]}, "properties": {"osm_id": 1326357057, "building": "yes", "name": "", "height": null, "height_m": null, "levels": null, "tract_id": "40117957200", "tract_name": "9572", "tags": {"building": "yes"}}}, {"type": "Feature", "geometry": {"type": "Polygon", "coordinates": [[[-96.2861665, 36.1920859], [-96.2860657, 36.1920838], [-96.2860599, 36.1922655], [-96.2861607, 36.1922676], [-96.2861665, 36.1920859]]]}, "properties": {"osm_id": 1326357058, "building": "yes", "name": "", "height": null, "height_m": null, "levels": null, "tract_id": "40117957200", "tract_name": "9572", "tags": {"building": "yes"}}}, {"type": "Feature", "geometry": {"type": "Polygon", "coordinates": [[[-96.2882791, 36.1892287], [-96.2883437, 36.1892543], [-96.2883836, 36.1891888], [-96.288319, 36.1891632], [-96.2882791, 36.1892287]]]}, "properties": {"osm_id": 1326357059, "building": "yes", "name": "", "height": null, "height_m": null, "levels": null, "tract_id": "40117957200", "tract_name": "9572", "tags": {"building": "yes"}}}, {"type": "Feature", "geometry": {"type": "Polygon", "coordinates": [[[-96.2894032, 36.1875414], [-96.2893997, 36.1874635], [-96.2888174, 36.1874803], [-96.2888209, 36.1875582], [-96.2894032, 36.1875414]]]}, "properties": {"osm_id": 1326357060, "building": "industrial", "name": "", "height": null, "height_m": null, "levels": null, "tract_id": "40117957200", "tract_name": "9572", "tags": {"building": "industrial"}}}, {"type": "Feature", "geometry": {"type": "Polygon", "coordinates": [[[-96.2909253, 36.1884041], [-96.2910513, 36.1884487], [-96.2910857, 36.1883854], [-96.2909597, 36.1883408], [-96.2909253, 36.1884041]]]}, "properties": {"osm_id": 1326357061, "building": "yes", "name": "", "height": null, "height_m": null, "levels": null, "tract_id": "40117957200", "tract_name": "9572", "tags": {"building": "yes"}}}, {"type": "Feature", "geometry": {"type": "Polygon", "coordinates": [[[-96.2842354, 36.1922211], [-96.2843588, 36.1922186], [-96.284352, 36.191998], [-96.2842287, 36.1920004], [-96.2842354, 36.1922211]]]}, "properties": {"osm_id": 1326357062, "building": "yes", "name": "", "height": null, "height_m": null, "levels": null, "tract_id": "40117957200", "tract_name": "9572", "tags": {"building": "yes"}}}, {"type": "Feature", "geometry": {"type": "Polygon", "coordinates": [[[-96.2847288, 36.1928547], [-96.2848521, 36.1928529], [-96.2848503, 36.192772], [-96.2849227, 36.1927709], [-96.284921, 36.1926952], [-96.2847253, 36.1926981], [-96.2847288, 36.1928547]]]}, "properties": {"osm_id": 1326357063, "building": "yes", "name": "", "height": null, "height_m": null, "levels": null, "tract_id": "40117957200", "tract_name": "9572", "tags": {"building": "yes"}}}, {"type": "Feature", "geometry": {"type": "Polygon", "coordinates": [[[-96.2857527, 36.1914712], [-96.2855201, 36.1914583], [-96.2855126, 36.1915468], [-96.2856373, 36.1915537], [-96.2856301, 36.1916378], [-96.285738, 36.1916438], [-96.2857527, 36.1914712]]]}, "properties": {"osm_id": 1326357064, "building": "yes", "name": "", "height": null, "height_m": null, "levels": null, "tract_id": "40117957200", "tract_name": "9572", "tags": {"building": "yes"}}}, {"type": "Feature", "geometry": {"type": "Polygon", "coordinates": [[[-96.2861151, 36.1914325], [-96.2860642, 36.1914313], [-96.2860653, 36.1913989], [-96.2859447, 36.1913961], [-96.2859438, 36.1914221], [-96.2859009, 36.1914211], [-96.2858971, 36.1915314], [-96.2861115, 36.1915363], [-96.2861151, 36.1914325]]]}, "properties": {"osm_id": 1326357065, "building": "yes", "name": "", "height": null, "height_m": null, "levels": null, "tract_id": "40117957200", "tract_name": "9572", "tags": {"building": "yes"}}}, {"type": "Feature", "geometry": {"type": "Polygon", "coordinates": [[[-96.2906007, 36.1885554], [-96.2905458, 36.1885086], [-96.2904461, 36.1885847], [-96.290501, 36.1886315], [-96.2906007, 36.1885554]]]}, "properties": {"osm_id": 1326357066, "building": "yes", "name": "", "height": null, "height_m": null, "levels": null, "tract_id": "40117957200", "tract_name": "9572", "tags": {"building": "yes"}}}, {"type": "Feature", "geometry": {"type": "Polygon", "coordinates": [[[-96.2863374, 36.1927082], [-96.2863337, 36.1927925], [-96.2864006, 36.1927944], [-96.2864017, 36.1927694], [-96.2864917, 36.192772], [-96.2864943, 36.1927127], [-96.2863374, 36.1927082]]]}, "properties": {"osm_id": 1326357067, "building": "yes", "name": "", "height": null, "height_m": null, "levels": null, "tract_id": "40117957200", "tract_name": "9572", "tags": {"building": "yes"}}}, {"type": "Feature", "geometry": {"type": "Polygon", "coordinates": [[[-96.2829778, 36.1924814], [-96.2832399, 36.1925154], [-96.2832556, 36.1924364], [-96.2829936, 36.1924024], [-96.2829778, 36.1924814]]]}, "properties": {"osm_id": 1326357068, "building": "yes", "name": "", "height": null, "height_m": null, "levels": null, "tract_id": "40117957200", "tract_name": "9572", "tags": {"building": "yes"}}}, {"type": "Feature", "geometry": {"type": "Polygon", "coordinates": [[[-96.2854993, 36.1920154], [-96.2853895, 36.1920119], [-96.2853907, 36.1919882], [-96.2852424, 36.1919834], [-96.285236, 36.1921131], [-96.2853726, 36.1921175], [-96.2853742, 36.192085], [-96.2854957, 36.1920889], [-96.2854993, 36.1920154]]]}, "properties": {"osm_id": 1326357069, "building": "yes", "name": "", "height": null, "height_m": null, "levels": null, "tract_id": "40117957200", "tract_name": "9572", "tags": {"building": "yes"}}}, {"type": "Feature", "geometry": {"type": "Polygon", "coordinates": [[[-96.2904566, 36.1884305], [-96.2904004, 36.1883862], [-96.2902998, 36.1884691], [-96.290356, 36.1885135], [-96.2904566, 36.1884305]]]}, "properties": {"osm_id": 1326357070, "building": "yes", "name": "", "height": null, "height_m": null, "levels": null, "tract_id": "40117957200", "tract_name": "9572", "tags": {"building": "yes"}}}, {"type": "Feature", "geometry": {"type": "Polygon", "coordinates": [[[-96.290477, 36.1884517], [-96.2903696, 36.1885297], [-96.2904223, 36.188577], [-96.2905297, 36.1884991], [-96.290477, 36.1884517]]]}, "properties": {"osm_id": 1326357071, "building": "yes", "name": "", "height": null, "height_m": null, "levels": null, "tract_id": "40117957200", "tract_name": "9572", "tags": {"building": "yes"}}}, {"type": "Feature", "geometry": {"type": "Polygon", "coordinates": [[[-96.2863547, 36.1923297], [-96.2864911, 36.192336], [-96.2864987, 36.1922281], [-96.2863624, 36.1922218], [-96.2863547, 36.1923297]]]}, "properties": {"osm_id": 1326357072, "building": "yes", "name": "", "height": null, "height_m": null, "levels": null, "tract_id": "40117957200", "tract_name": "9572", "tags": {"building": "yes"}}}, {"type": "Feature", "geometry": {"type": "Polygon", "coordinates": [[[-96.2866763, 36.1924063], [-96.2868488, 36.1924016], [-96.2868439, 36.192287], [-96.286717, 36.1922905], [-96.2867183, 36.1923229], [-96.2866728, 36.1923242], [-96.2866763, 36.1924063]]]}, "properties": {"osm_id": 1326357073, "building": "yes", "name": "", "height": null, "height_m": null, "levels": null, "tract_id": "40117957200", "tract_name": "9572", "tags": {"building": "yes"}}}, {"type": "Feature", "geometry": {"type": "Polygon", "coordinates": [[[-96.2838159, 36.191988], [-96.2836105, 36.1919844], [-96.2836079, 36.1920796], [-96.2838133, 36.1920832], [-96.2838159, 36.191988]]]}, "properties": {"osm_id": 1326357074, "building": "yes", "name": "", "height": null, "height_m": null, "levels": null, "tract_id": "40117957200", "tract_name": "9572", "tags": {"building": "yes"}}}, {"type": "Feature", "geometry": {"type": "Polygon", "coordinates": [[[-96.2893541, 36.1878975], [-96.2893478, 36.1877277], [-96.2889405, 36.1877376], [-96.2889468, 36.1879073], [-96.2893541, 36.1878975]]]}, "properties": {"osm_id": 1326357075, "building": "industrial", "name": "", "height": null, "height_m": null, "levels": null, "tract_id": "40117957200", "tract_name": "9572", "tags": {"building": "industrial"}}}, {"type": "Feature", "geometry": {"type": "Polygon", "coordinates": [[[-96.2853893, 36.1925664], [-96.285445, 36.1926353], [-96.2855128, 36.1925997], [-96.2854571, 36.1925307], [-96.2853893, 36.1925664]]]}, "properties": {"osm_id": 1326357076, "building": "yes", "name": "", "height": null, "height_m": null, "levels": null, "tract_id": "40117957200", "tract_name": "9572", "tags": {"building": "yes"}}}, {"type": "Feature", "geometry": {"type": "Polygon", "coordinates": [[[-96.2882996, 36.1890498], [-96.2882247, 36.1890092], [-96.2881757, 36.189068], [-96.288095, 36.1890243], [-96.2880383, 36.1890925], [-96.2882349, 36.1891991], [-96.2882846, 36.1891394], [-96.2882435, 36.1891171], [-96.2882996, 36.1890498]]]}, "properties": {"osm_id": 1326357077, "building": "detached", "name": "", "height": null, "height_m": null, "levels": null, "tract_id": "40117957200", "tract_name": "9572", "tags": {"building": "detached"}}}, {"type": "Feature", "geometry": {"type": "Polygon", "coordinates": [[[-96.2836719, 36.1927123], [-96.2836698, 36.1927989], [-96.2838146, 36.1928012], [-96.2838167, 36.1927146], [-96.2836719, 36.1927123]]]}, "properties": {"osm_id": 1326357078, "building": "yes", "name": "", "height": null, "height_m": null, "levels": null, "tract_id": "40117957200", "tract_name": "9572", "tags": {"building": "yes"}}}, {"type": "Feature", "geometry": {"type": "Polygon", "coordinates": [[[-96.2908002, 36.1884408], [-96.2906716, 36.1885391], [-96.2907265, 36.1885859], [-96.2908551, 36.1884875], [-96.2908002, 36.1884408]]]}, "properties": {"osm_id": 1326357079, "building": "yes", "name": "", "height": null, "height_m": null, "levels": null, "tract_id": "40117957200", "tract_name": "9572", "tags": {"building": "yes"}}}, {"type": "Feature", "geometry": {"type": "Polygon", "coordinates": [[[-96.286723, 36.1926982], [-96.2867175, 36.1928354], [-96.2868231, 36.1928381], [-96.2868286, 36.192701], [-96.286723, 36.1926982]]]}, "properties": {"osm_id": 1326357080, "building": "yes", "name": "", "height": null, "height_m": null, "levels": null, "tract_id": "40117957200", "tract_name": "9572", "tags": {"building": "yes"}}}, {"type": "Feature", "geometry": {"type": "Polygon", "coordinates": [[[-96.2901707, 36.1883475], [-96.2902236, 36.188393], [-96.2903332, 36.1883098], [-96.2902803, 36.1882644], [-96.2901707, 36.1883475]]]}, "properties": {"osm_id": 1326357081, "building": "yes", "name": "", "height": null, "height_m": null, "levels": null, "tract_id": "40117957200", "tract_name": "9572", "tags": {"building": "yes"}}}, {"type": "Feature", "geometry": {"type": "Polygon", "coordinates": [[[-96.3589171, 36.1640935], [-96.3589099, 36.1639976], [-96.3589478, 36.1639958], [-96.3589453, 36.163963], [-96.3589039, 36.163965], [-96.3589031, 36.1639539], [-96.3587292, 36.1639623], [-96.3586898, 36.1639418], [-96.358661, 36.1639656], [-96.3586714, 36.1641055], [-96.3589171, 36.1640935]]]}, "properties": {"osm_id": 1331410851, "building": "industrial", "name": "Hutchmot", "height": null, "height_m": null, "levels": null, "tract_id": "40117957200", "tract_name": "9572", "tags": {"building": "industrial", "name": "Hutchmot", "shop": "car_repair"}}}, {"type": "Feature", "geometry": {"type": "Polygon", "coordinates": [[[-96.3592216, 36.1636273], [-96.3592094, 36.1636583], [-96.3591333, 36.1636677], [-96.3591431, 36.1637198], [-96.3590626, 36.1637297], [-96.3590534, 36.1636807], [-96.3590765, 36.1636778], [-96.3590628, 36.1636046], [-96.3592005, 36.1635877], [-96.3592216, 36.1636273]]]}, "properties": {"osm_id": 1331717167, "building": "house", "name": "", "height": null, "height_m": null, "levels": null, "tract_id": "40117957200", "tract_name": "9572", "tags": {"building": "house"}}}, {"type": "Feature", "geometry": {"type": "Polygon", "coordinates": [[[-96.3482602, 36.2185383], [-96.3482142, 36.2185979], [-96.3482636, 36.2186227], [-96.3481771, 36.2187348], [-96.3481371, 36.2187147], [-96.3480246, 36.2188606], [-96.3479052, 36.2188007], [-96.3479733, 36.2187123], [-96.3479098, 36.2186804], [-96.3480867, 36.2184511], [-96.3482602, 36.2185383]]]}, "properties": {"osm_id": 1333501083, "building": "yes", "name": "", "height": null, "height_m": null, "levels": null, "tract_id": "40117957200", "tract_name": "9572", "tags": {"building": "yes"}}}, {"type": "Feature", "geometry": {"type": "Polygon", "coordinates": [[[-96.3483055, 36.2185144], [-96.3484233, 36.2183588], [-96.3482607, 36.2182786], [-96.3482241, 36.218327], [-96.3481595, 36.2182952], [-96.3481247, 36.2183412], [-96.3482003, 36.2183784], [-96.3481539, 36.2184397], [-96.3483055, 36.2185144]]]}, "properties": {"osm_id": 1333501084, "building": "yes", "name": "", "height": null, "height_m": null, "levels": null, "tract_id": "40117957200", "tract_name": "9572", "tags": {"building": "yes"}}}, {"type": "Feature", "geometry": {"type": "Polygon", "coordinates": [[[-96.3459051, 36.219001], [-96.3458404, 36.219147], [-96.3454998, 36.2190487], [-96.345475, 36.2191047], [-96.3453721, 36.219075], [-96.3453963, 36.2190202], [-96.3452413, 36.2189755], [-96.3452608, 36.2189315], [-96.3452512, 36.2189288], [-96.3452832, 36.2188567], [-96.3453975, 36.2188896], [-96.3454108, 36.2188595], [-96.3454704, 36.2188767], [-96.345481, 36.2188529], [-96.3455595, 36.2188756], [-96.3455468, 36.2189043], [-96.3455762, 36.2189128], [-96.3455643, 36.2189397], [-96.3457251, 36.218986], [-96.3457396, 36.2189533], [-96.3459051, 36.219001]]]}, "properties": {"osm_id": 1333501085, "building": "yes", "name": "", "height": null, "height_m": null, "levels": null, "tract_id": "40117957200", "tract_name": "9572", "tags": {"building": "yes"}}}, {"type": "Feature", "geometry": {"type": "Polygon", "coordinates": [[[-96.3453331, 36.2187072], [-96.3452536, 36.2186912], [-96.3452777, 36.2186131], [-96.3453571, 36.2186291], [-96.3453331, 36.2187072]]]}, "properties": {"osm_id": 1333501086, "building": "yes", "name": "", "height": null, "height_m": null, "levels": null, "tract_id": "40117957200", "tract_name": "9572", "tags": {"building": "yes"}}}, {"type": "Feature", "geometry": {"type": "Polygon", "coordinates": [[[-96.3370373, 36.215639], [-96.3368243, 36.2156321], [-96.3368248, 36.2156233], [-96.3367891, 36.2156222], [-96.3367932, 36.2155402], [-96.3368384, 36.2155417], [-96.3368394, 36.2155221], [-96.3370428, 36.2155287], [-96.3370373, 36.215639]]]}, "properties": {"osm_id": 1333501090, "building": "yes", "name": "", "height": null, "height_m": null, "levels": null, "tract_id": "40117957200", "tract_name": "9572", "tags": {"building": "yes"}}}, {"type": "Feature", "geometry": {"type": "Polygon", "coordinates": [[[-96.3365873, 36.2155377], [-96.3364488, 36.2155342], [-96.3364472, 36.2155735], [-96.336341, 36.2155708], [-96.3363373, 36.2156644], [-96.3364424, 36.2156671], [-96.3364429, 36.2156567], [-96.3364717, 36.2156575], [-96.3364744, 36.2156671], [-96.3365153, 36.2156681], [-96.3365157, 36.2156598], [-96.3365825, 36.2156615], [-96.3365873, 36.2155377]]]}, "properties": {"osm_id": 1333501091, "building": "detached", "name": "", "height": null, "height_m": null, "levels": null, "tract_id": "40117957200", "tract_name": "9572", "tags": {"building": "detached"}}}, {"type": "Feature", "geometry": {"type": "Polygon", "coordinates": [[[-96.3365106, 36.2153238], [-96.3363975, 36.2153225], [-96.3364004, 36.2151656], [-96.3365135, 36.215167], [-96.3365106, 36.2153238]]]}, "properties": {"osm_id": 1333501092, "building": "yes", "name": "", "height": null, "height_m": null, "levels": null, "tract_id": "40117957200", "tract_name": "9572", "tags": {"building": "yes"}}}, {"type": "Feature", "geometry": {"type": "Polygon", "coordinates": [[[-96.3387044, 36.2087919], [-96.338498, 36.2087854], [-96.3385022, 36.2086982], [-96.3387087, 36.2087047], [-96.3387044, 36.2087919]]]}, "properties": {"osm_id": 1333501095, "building": "yes", "name": "", "height": null, "height_m": null, "levels": null, "tract_id": "40117957200", "tract_name": "9572", "tags": {"building": "yes"}}}, {"type": "Feature", "geometry": {"type": "Polygon", "coordinates": [[[-96.3391173, 36.2086354], [-96.3390026, 36.2086308], [-96.3390069, 36.2085603], [-96.3390384, 36.2085616], [-96.3390403, 36.2085291], [-96.339086, 36.2085309], [-96.3390843, 36.2085583], [-96.3391219, 36.2085597], [-96.3391173, 36.2086354]]]}, "properties": {"osm_id": 1333501096, "building": "yes", "name": "", "height": null, "height_m": null, "levels": null, "tract_id": "40117957200", "tract_name": "9572", "tags": {"building": "yes"}}}, {"type": "Feature", "geometry": {"type": "Polygon", "coordinates": [[[-96.3391305, 36.2089834], [-96.3391162, 36.208983], [-96.339116, 36.2089903], [-96.3390854, 36.2089896], [-96.339085, 36.2090005], [-96.3390337, 36.2089993], [-96.3390342, 36.2089853], [-96.3389951, 36.2089844], [-96.3389971, 36.2089289], [-96.3391098, 36.2089315], [-96.339109, 36.2089536], [-96.3391315, 36.2089541], [-96.3391305, 36.2089834]]]}, "properties": {"osm_id": 1333501097, "building": "yes", "name": "", "height": null, "height_m": null, "levels": null, "tract_id": "40117957200", "tract_name": "9572", "tags": {"building": "yes"}}}, {"type": "Feature", "geometry": {"type": "Polygon", "coordinates": [[[-96.3403033, 36.2056374], [-96.3403033, 36.2055526], [-96.3401737, 36.2055525], [-96.3401737, 36.2056374], [-96.3403033, 36.2056374]]]}, "properties": {"osm_id": 1333501099, "building": "yes", "name": "", "height": null, "height_m": null, "levels": null, "tract_id": "40117957200", "tract_name": "9572", "tags": {"building": "yes"}}}, {"type": "Feature", "geometry": {"type": "Polygon", "coordinates": [[[-96.3403919, 36.2058676], [-96.3403326, 36.2058673], [-96.340334, 36.2056806], [-96.3403932, 36.2056809], [-96.3403919, 36.2058676]]]}, "properties": {"osm_id": 1333501100, "building": "yes", "name": "", "height": null, "height_m": null, "levels": null, "tract_id": "40117957200", "tract_name": "9572", "tags": {"building": "yes"}}}]}