{"type": "FeatureCollection", "features": [{"type": "Feature", "geometry": {"type": "Polygon", "coordinates": [[[-98.9897191, 35.2914086], [-98.9894765, 35.2914065], [-98.9894799, 35.2911394], [-98.9897225, 35.2911415], [-98.9897191, 35.2914086]]]}, "properties": {"osm_id": 256015205, "building": "yes", "name": "", "height": null, "height_m": null, "levels": null, "tract_id": "40149965100", "tract_name": "9651", "tags": {"amenity": "courthouse", "building": "yes", "source": "Bing"}}}, {"type": "Feature", "geometry": {"type": "Polygon", "coordinates": [[[-98.9944017, 35.3124748], [-98.9941925, 35.312477], [-98.9941844, 35.3123599], [-98.9941777, 35.3123172], [-98.9943802, 35.3123183], [-98.9943842, 35.3123511], [-98.994399, 35.3123479], [-98.9944017, 35.3124748]]]}, "properties": {"osm_id": 521083133, "building": "yes", "name": "", "height": null, "height_m": null, "levels": null, "tract_id": "40149965100", "tract_name": "9651", "tags": {"building": "yes"}}}, {"type": "Feature", "geometry": {"type": "Polygon", "coordinates": [[[-98.988754, 35.290842], [-98.9887524, 35.2907133], [-98.9884364, 35.2907159], [-98.9884379, 35.2908445], [-98.988754, 35.290842]]]}, "properties": {"osm_id": 761611912, "building": "yes", "name": "Washita Theatre", "height": null, "height_m": null, "levels": null, "tract_id": "40149965100", "tract_name": "9651", "tags": {"addr:city": "Cordell", "addr:housenumber": "111", "addr:postcode": "73632", "addr:state": "OK", "addr:street": "South Market Street", "amenity": "cinema", "building": "yes", "name": "Washita Theatre", "screen": "1", "wikidata": "Q43191958"}}}, {"type": "Feature", "geometry": {"type": "Polygon", "coordinates": [[[-98.9906876, 35.2922232], [-98.9906894, 35.2920917], [-98.9905776, 35.2920906], [-98.990577, 35.2921319], [-98.9904299, 35.2921305], [-98.9904287, 35.2922208], [-98.9906876, 35.2922232]]]}, "properties": {"osm_id": 1058626694, "building": "yes", "name": "", "height": null, "height_m": null, "levels": null, "tract_id": "40149965100", "tract_name": "9651", "tags": {"addr:city": "Cordell", "addr:housenumber": "118", "addr:postcode": "73632", "addr:state": "OK", "addr:street": "North College Street", "building": "yes", "telecom": "exchange"}}}, {"type": "Feature", "geometry": {"type": "Polygon", "coordinates": [[[-98.9898199, 35.2926445], [-98.9896222, 35.2926477], [-98.9896195, 35.2925381], [-98.9898172, 35.2925349], [-98.9898199, 35.2926445]]]}, "properties": {"osm_id": 1196135600, "building": "yes", "name": "Washita County Museum", "height": null, "height_m": null, "levels": null, "tract_id": "40149965100", "tract_name": "9651", "tags": {"addr:city": "Cordell", "addr:housenumber": "115", "addr:postcode": "73632", "addr:state": "OK", "addr:street": "East 1st Street", "building": "yes", "name": "Washita County Museum", "tourism": "museum"}}}, {"type": "Feature", "geometry": {"type": "Polygon", "coordinates": [[[-98.9888256, 35.3098937], [-98.9888257, 35.3098418], [-98.9887873, 35.3098418], [-98.9887871, 35.3098937], [-98.9888256, 35.3098937]]]}, "properties": {"osm_id": 1211902338, "building": "yes", "name": "", "height": null, "height_m": null, "levels": null, "tract_id": "40149965100", "tract_name": "9651", "tags": {"building": "yes"}}}, {"type": "Feature", "geometry": {"type": "Polygon", "coordinates": [[[-98.988939, 35.3098988], [-98.9888754, 35.3098982], [-98.9888749, 35.3099296], [-98.9889385, 35.3099302], [-98.988939, 35.3098988]]]}, "properties": {"osm_id": 1211902339, "building": "yes", "name": "", "height": null, "height_m": null, "levels": null, "tract_id": "40149965100", "tract_name": "9651", "tags": {"building": "yes"}}}, {"type": "Feature", "geometry": {"type": "Polygon", "coordinates": [[[-98.9908656, 35.2915441], [-98.9908656, 35.2914061], [-98.9907496, 35.2914061], [-98.9906927, 35.2914607], [-98.9906927, 35.2914733], [-98.9905988, 35.2914733], [-98.9905988, 35.2914602], [-98.9904337, 35.2914602], [-98.9904337, 35.291613], [-98.9906629, 35.291613], [-98.9906629, 35.2915441], [-98.9908656, 35.2915441]]]}, "properties": {"osm_id": 1289233500, "building": "civic", "name": "", "height": null, "height_m": null, "levels": null, "tract_id": "40149965100", "tract_name": "9651", "tags": {"addr:city": "Cordell", "addr:housenumber": "105", "addr:postcode": "73632", "addr:state": "OK", "addr:street": "West Main Street", "building": "civic", "emergency": "psap"}}}, {"type": "Feature", "geometry": {"type": "Polygon", "coordinates": [[[-98.9910192, 35.2916409], [-98.9910202, 35.2914082], [-98.9909344, 35.2914085], [-98.9909317, 35.2916402], [-98.9910192, 35.2916409]]]}, "properties": {"osm_id": 1289233501, "building": "retail", "name": "", "height": null, "height_m": null, "levels": null, "tract_id": "40149965100", "tract_name": "9651", "tags": {"building": "retail"}}}, {"type": "Feature", "geometry": {"type": "Polygon", "coordinates": [[[-98.9910202, 35.2914082], [-98.9911038, 35.2914077], [-98.9910999, 35.2916552], [-98.9910191, 35.291655], [-98.9910192, 35.2916409], [-98.9910202, 35.2914082]]]}, "properties": {"osm_id": 1289233502, "building": "retail", "name": "", "height": null, "height_m": null, "levels": null, "tract_id": "40149965100", "tract_name": "9651", "tags": {"building": "retail"}}}, {"type": "Feature", "geometry": {"type": "Polygon", "coordinates": [[[-98.9911038, 35.2914077], [-98.9911888, 35.2914072], [-98.9911863, 35.2916992], [-98.9910992, 35.2916983], [-98.9910999, 35.2916552], [-98.9911038, 35.2914077]]]}, "properties": {"osm_id": 1289233503, "building": "retail", "name": "", "height": null, "height_m": null, "levels": null, "tract_id": "40149965100", "tract_name": "9651", "tags": {"building": "retail"}}}, {"type": "Feature", "geometry": {"type": "Polygon", "coordinates": [[[-98.9911888, 35.2914072], [-98.9914434, 35.2914086], [-98.9914407, 35.2917381], [-98.9912842, 35.2917372], [-98.9912839, 35.291772], [-98.9912169, 35.2917716], [-98.9912171, 35.2917388], [-98.991186, 35.2917386], [-98.9911863, 35.2916992], [-98.9911888, 35.2914072]]]}, "properties": {"osm_id": 1289233504, "building": "retail", "name": "", "height": null, "height_m": null, "levels": null, "tract_id": "40149965100", "tract_name": "9651", "tags": {"building": "retail"}}}, {"type": "Feature", "geometry": {"type": "Polygon", "coordinates": [[[-98.9698115, 35.2947349], [-98.9697347, 35.2947944], [-98.9701838, 35.29518], [-98.9702605, 35.2951205], [-98.9698115, 35.2947349]]]}, "properties": {"osm_id": 1320913069, "building": "hangar", "name": "", "height": null, "height_m": null, "levels": null, "tract_id": "40149965100", "tract_name": "9651", "tags": {"building": "hangar"}}}, {"type": "Feature", "geometry": {"type": "Polygon", "coordinates": [[[-98.969532, 35.2949454], [-98.9694552, 35.295005], [-98.9699939, 35.2954576], [-98.9700678, 35.2954013], [-98.969532, 35.2949454]]]}, "properties": {"osm_id": 1320913070, "building": "hangar", "name": "", "height": null, "height_m": null, "levels": null, "tract_id": "40149965100", "tract_name": "9651", "tags": {"building": "hangar"}}}, {"type": "Feature", "geometry": {"type": "Polygon", "coordinates": [[[-98.9694377, 35.2955774], [-98.9693161, 35.2956744], [-98.9694592, 35.2957939], [-98.9695808, 35.295697], [-98.9694377, 35.2955774]]]}, "properties": {"osm_id": 1320913071, "building": "yes", "name": "", "height": null, "height_m": null, "levels": null, "tract_id": "40149965100", "tract_name": "9651", "tags": {"building": "yes"}}}, {"type": "Feature", "geometry": {"type": "Polygon", "coordinates": [[[-98.9695477, 35.2954043], [-98.9694257, 35.2955029], [-98.9696176, 35.295661], [-98.9697396, 35.2955624], [-98.9695477, 35.2954043]]]}, "properties": {"osm_id": 1320913072, "building": "yes", "name": "", "height": null, "height_m": null, "levels": null, "tract_id": "40149965100", "tract_name": "9651", "tags": {"building": "yes"}}}, {"type": "Feature", "geometry": {"type": "Polygon", "coordinates": [[[-98.9864248, 35.304966], [-98.9859796, 35.304966], [-98.9859796, 35.3045555], [-98.9864248, 35.3045555], [-98.9864248, 35.304966]]]}, "properties": {"osm_id": 1362439120, "building": "retail", "name": "", "height": null, "height_m": 3.0, "levels": 1, "tract_id": "40149965100", "tract_name": "9651", "tags": {"building": "retail", "building:levels": "1", "roof:levels": "0", "roof:shape": "flat", "shop": "yes"}}}, {"type": "Feature", "geometry": {"type": "Polygon", "coordinates": [[[-98.9864646, 35.3055177], [-98.9859501, 35.3055165], [-98.9859515, 35.305105], [-98.9864659, 35.3051061], [-98.9864646, 35.3055177]]]}, "properties": {"osm_id": 1362439121, "building": "retail", "name": "Cordell Ace Hardware", "height": null, "height_m": 3.0, "levels": 1, "tract_id": "40149965100", "tract_name": "9651", "tags": {"addr:city": "Cordell", "addr:housenumber": "1415", "addr:postcode": "73632-2013", "addr:state": "OK", "addr:street": "North Glenn English Street", "brand": "Ace Hardware", "brand:wikidata": "Q4672981", "building": "retail", "building:levels": "1", "name": "Cordell Ace Hardware", "opening_hours": "Mo-Sa 08:00-18:00; Su 12:00-18:00", "phone": "+1 580-832-2582", "ref": "16216", "roof:levels": "0", "roof:shape": "flat", "shop": "doityourself"}}}, {"type": "Feature", "geometry": {"type": "Polygon", "coordinates": [[[-98.9772436, 35.2970888], [-98.9772416, 35.2968803], [-98.9773314, 35.2968797], [-98.9773317, 35.2969124], [-98.977332, 35.2969415], [-98.9773541, 35.2969414], [-98.9773555, 35.297088], [-98.9772436, 35.2970888]]]}, "properties": {"osm_id": 1363784245, "building": "detached", "name": "", "height": null, "height_m": null, "levels": null, "tract_id": "40149965100", "tract_name": "9651", "tags": {"building": "detached"}}}, {"type": "Feature", "geometry": {"type": "Polygon", "coordinates": [[[-98.9849563, 35.2932358], [-98.9848637, 35.2932361], [-98.9848635, 35.2931789], [-98.9848853, 35.2931788], [-98.9848845, 35.2930245], [-98.9848627, 35.2930245], [-98.9848624, 35.2929723], [-98.984955, 35.292972], [-98.9849553, 35.2930388], [-98.9849896, 35.2930387], [-98.9849903, 35.2931645], [-98.9849559, 35.2931647], [-98.9849563, 35.2932358]]]}, "properties": {"osm_id": 1363784249, "building": "yes", "name": "", "height": null, "height_m": null, "levels": null, "tract_id": "40149965100", "tract_name": "9651", "tags": {"building": "yes"}}}, {"type": "Feature", "geometry": {"type": "Polygon", "coordinates": [[[-98.9765, 35.297439], [-98.9764953, 35.2972037], [-98.976642, 35.2972017], [-98.9766427, 35.2972332], [-98.9768211, 35.2972309], [-98.9768251, 35.2974347], [-98.9765, 35.297439]]]}, "properties": {"osm_id": 1363784252, "building": "church", "name": "Calvary Baptist Church", "height": null, "height_m": null, "levels": null, "tract_id": "40149965100", "tract_name": "9651", "tags": {"amenity": "place_of_worship", "building": "church", "denomination": "baptist", "ele": "474", "gnis:feature_id": "1782780", "name": "Calvary Baptist Church", "religion": "christian"}}}, {"type": "Feature", "geometry": {"type": "Polygon", "coordinates": [[[-98.9758542, 35.2925046], [-98.9754251, 35.2925037], [-98.9754264, 35.2920866], [-98.9758556, 35.2920875], [-98.9758542, 35.2925046]]]}, "properties": {"osm_id": 1363784270, "building": "retail", "name": "Tractor Supply Company", "height": null, "height_m": null, "levels": null, "tract_id": "40149965100", "tract_name": "9651", "tags": {"addr:city": "Cordell", "addr:housenumber": "1301", "addr:postcode": "73632", "addr:state": "OK", "addr:street": "East Main Street", "brand": "Tractor Supply Company", "brand:wikidata": "Q15109925", "building": "retail", "name": "Tractor Supply Company", "opening_hours": "Mo-Sa 08:00-21:00; Su 09:00-19:00", "phone": "+1 580-832-5585", "ref": "2108", "roof:colour": "beige", "roof:shape": "flat", "shop": "country_store"}}}, {"type": "Feature", "geometry": {"type": "Polygon", "coordinates": [[[-98.8639907, 35.1901515], [-98.8639068, 35.1901511], [-98.8639075, 35.1900377], [-98.8639914, 35.190038], [-98.8639907, 35.1901515]]]}, "properties": {"osm_id": 1364043552, "building": "yes", "name": "", "height": null, "height_m": null, "levels": null, "tract_id": "40149965100", "tract_name": "9651", "tags": {"building": "yes"}}}, {"type": "Feature", "geometry": {"type": "Polygon", "coordinates": [[[-98.8638827, 35.1901405], [-98.8636621, 35.1901416], [-98.8636613, 35.1900363], [-98.8638819, 35.1900353], [-98.8638827, 35.1901405]]]}, "properties": {"osm_id": 1364043553, "building": "church", "name": "Sharon Church", "height": null, "height_m": null, "levels": null, "tract_id": "40149965100", "tract_name": "9651", "tags": {"amenity": "place_of_worship", "building": "church", "ele": "483", "gnis:feature_id": "1097957", "name": "Sharon Church", "religion": "christian"}}}]}