{"type": "FeatureCollection", "features": [{"type": "Feature", "geometry": {"type": "Polygon", "coordinates": [[[-95.9169084, 36.1183059], [-95.9169602, 36.1180673], [-95.9169669, 36.1180365], [-95.9166224, 36.1179877], [-95.9165639, 36.1182571], [-95.9169084, 36.1183059]]]}, "properties": {"osm_id": 159402845, "building": "office", "name": "Legacy Plaza West", "height": null, "height_m": null, "levels": null, "tract_id": "40143007000", "tract_name": "70", "tags": {"addr:city": "Tulsa", "addr:country": "US", "addr:housenumber": "5330", "addr:postcode": "74135", "addr:state": "OK", "addr:street": "East 31st Street South", "building": "office", "name": "Legacy Plaza West"}}}, {"type": "Feature", "geometry": {"type": "Polygon", "coordinates": [[[-95.9153506, 36.1183192], [-95.9154103, 36.118033], [-95.9150565, 36.1179849], [-95.9149968, 36.118271], [-95.9153506, 36.1183192]]]}, "properties": {"osm_id": 159402853, "building": "office", "name": "", "height": null, "height_m": 6.0, "levels": 2, "tract_id": "40143007000", "tract_name": "70", "tags": {"addr:city": "Tulsa", "addr:country": "US", "addr:housenumber": "5350", "addr:postcode": "74135", "addr:state": "OK", "addr:street": "East 31st Street South", "building": "office", "building:levels": "2", "roof:levels": "1", "roof:shape": "flat"}}}, {"type": "Feature", "geometry": {"type": "Polygon", "coordinates": [[[-95.915639, 36.1181778], [-95.9156994, 36.1179015], [-95.9160454, 36.1179524], [-95.9160293, 36.1180391], [-95.9162734, 36.1180792], [-95.916213, 36.1183554], [-95.9158482, 36.1183024], [-95.9158684, 36.1182102], [-95.915639, 36.1181778]]]}, "properties": {"osm_id": 159402878, "building": "office", "name": "", "height": null, "height_m": null, "levels": null, "tract_id": "40143007000", "tract_name": "70", "tags": {"addr:city": "Tulsa", "addr:country": "US", "addr:housenumber": "5340", "addr:postcode": "74135", "addr:state": "OK", "addr:street": "East 31st Street South", "building": "office"}}}, {"type": "Feature", "geometry": {"type": "Polygon", "coordinates": [[[-95.9128453, 36.1112428], [-95.9128469, 36.1110254], [-95.9128507, 36.1105223], [-95.9127463, 36.110522], [-95.9127477, 36.1105545], [-95.9126122, 36.1105589], [-95.9126106, 36.1109275], [-95.9124218, 36.1109262], [-95.9124108, 36.1106198], [-95.9124349, 36.1106198], [-95.9124376, 36.110453], [-95.9121777, 36.1104505], [-95.9121855, 36.1110445], [-95.9121308, 36.1110464], [-95.9121375, 36.1113216], [-95.912325, 36.1113251], [-95.9123317, 36.1111215], [-95.912616, 36.111116], [-95.9126216, 36.1112479], [-95.9128453, 36.1112428]]]}, "properties": {"osm_id": 189169679, "building": "school", "name": "", "height": null, "height_m": null, "levels": null, "tract_id": "40143007000", "tract_name": "70", "tags": {"building": "school", "source": "Bing"}}}, {"type": "Feature", "geometry": {"type": "Polygon", "coordinates": [[[-95.9077006, 36.1165407], [-95.9075649, 36.1163726], [-95.9077672, 36.1162661], [-95.9079029, 36.1164342], [-95.9077006, 36.1165407]]]}, "properties": {"osm_id": 234851056, "building": "commercial", "name": "Sisemore, Weisz & Associates", "height": null, "height_m": null, "levels": null, "tract_id": "40143007000", "tract_name": "70", "tags": {"addr:city": "Tulsa", "addr:country": "US", "addr:housenumber": "6111", "addr:postcode": "74135", "addr:state": "OK", "addr:street": "East 32nd Place South", "building": "commercial", "name": "Sisemore, Weisz & Associates"}}}, {"type": "Feature", "geometry": {"type": "Polygon", "coordinates": [[[-95.9202005, 36.1066789], [-95.919854, 36.1066807], [-95.9198542, 36.1066981], [-95.9194996, 36.1066997], [-95.9194991, 36.106633], [-95.9192226, 36.1066342], [-95.9192229, 36.1066779], [-95.9191296, 36.1066783], [-95.9191298, 36.1067044], [-95.9188056, 36.1067057], [-95.9188055, 36.1066863], [-95.9184525, 36.1066876], [-95.918452, 36.106597], [-95.9184224, 36.1065971], [-95.918421, 36.1063636], [-95.918533, 36.1063632], [-95.9185327, 36.1063153], [-95.9186554, 36.1063148], [-95.9186553, 36.106295], [-95.9200108, 36.1062888], [-95.9200109, 36.1063105], [-95.920127, 36.1063099], [-95.9201273, 36.1063574], [-95.9202328, 36.1063568], [-95.9202346, 36.1065872], [-95.9201998, 36.1065874], [-95.9202005, 36.1066789]]]}, "properties": {"osm_id": 252808951, "building": "retail", "name": "AMC Southroads 20", "height": null, "height_m": null, "levels": null, "tract_id": "40143007000", "tract_name": "70", "tags": {"addr:city": "Tulsa", "addr:country": "US", "addr:housenumber": "4923", "addr:postcode": "74135", "addr:state": "OK", "addr:street": "East 41st Street South", "amenity": "cinema", "brand": "AMC", "brand:wikidata": "Q294721", "building": "retail", "check_date": "2024-12-11", "name": "AMC Southroads 20", "screen": "20", "website": "https://www.amctheatres.com/movie-theatres/tulsa/amc-southroads-20", "wikidata": "Q43194765"}}}, {"type": "Feature", "geometry": {"type": "Polygon", "coordinates": [[[-95.9174682, 36.106131], [-95.9171039, 36.106134], [-95.9170995, 36.1058493], [-95.9174646, 36.1058456], [-95.9174682, 36.106131]]]}, "properties": {"osm_id": 252808953, "building": "retail", "name": "", "height": null, "height_m": 3.0, "levels": 1, "tract_id": "40143007000", "tract_name": "70", "tags": {"addr:city": "Tulsa", "addr:housenumber": "5301", "addr:postcode": "74135", "addr:state": "OK", "addr:street": "East 41st Street South", "building": "retail", "building:levels": "1", "disused:shop": "party", "roof:levels": "0"}}}, {"type": "Feature", "geometry": {"type": "Polygon", "coordinates": [[[-95.9171051, 36.1062251], [-95.9167249, 36.1062253], [-95.9167248, 36.1063228], [-95.9167034, 36.1063704], [-95.9166337, 36.1063704], [-95.9166344, 36.1058499], [-95.9166339, 36.1058181], [-95.9169282, 36.1058182], [-95.9169282, 36.1058507], [-95.9170995, 36.1058493], [-95.9171039, 36.106134], [-95.9171051, 36.1062251]]]}, "properties": {"osm_id": 252808954, "building": "retail", "name": "Planet Fitness", "height": null, "height_m": null, "levels": null, "tract_id": "40143007000", "tract_name": "70", "tags": {"addr:housenumber": "5313", "addr:street": "East 41st Street South", "brand": "Planet Fitness", "brand:wikidata": "Q7201095", "building": "retail", "check_date": "2025-05-27", "leisure": "fitness_centre", "name": "Planet Fitness", "opening_hours": "Mo-Th 00:00-24:00; Fr 00:00-22:00; Sa-Su 07:00-19:00", "phone": "+1 918-238-1890", "website": "https://www.planetfitness.com/gyms/tulsa-e-41st-st-ok"}}}, {"type": "Feature", "geometry": {"type": "Polygon", "coordinates": [[[-95.9166337, 36.1063704], [-95.9166335, 36.1064462], [-95.9165453, 36.1064461], [-95.9165453, 36.1063962], [-95.9160845, 36.1063958], [-95.9160853, 36.1058494], [-95.9166344, 36.1058499], [-95.9166337, 36.1063704]]]}, "properties": {"osm_id": 252808955, "building": "retail", "name": "", "height": null, "height_m": null, "levels": null, "tract_id": "40143007000", "tract_name": "70", "tags": {"building": "retail", "shop": "vacant"}}}, {"type": "Feature", "geometry": {"type": "Polygon", "coordinates": [[[-95.9115189, 36.1052143], [-95.9111595, 36.1052153], [-95.9111582, 36.104925], [-95.9115176, 36.1049239], [-95.9115189, 36.1052143]]]}, "properties": {"osm_id": 537840515, "building": "office", "name": "Commerce Tower", "height": null, "height_m": null, "levels": null, "tract_id": "40143007000", "tract_name": "70", "tags": {"addr:city": "Tulsa", "addr:country": "US", "addr:housenumber": "5801", "addr:postcode": "74135", "addr:state": "OK", "addr:street": "East 41st Street South", "building": "office", "name": "Commerce Tower"}}}, {"type": "Feature", "geometry": {"type": "Polygon", "coordinates": [[[-95.9205863, 36.1133617], [-95.9205481, 36.1133504], [-95.9205621, 36.1133194], [-95.9206004, 36.1133307], [-95.9205863, 36.1133617]]]}, "properties": {"osm_id": 908049019, "building": "yes", "name": "", "height": null, "height_m": null, "levels": null, "tract_id": "40143007000", "tract_name": "70", "tags": {"building": "yes"}}}, {"type": "Feature", "geometry": {"type": "Polygon", "coordinates": [[[-95.9209717, 36.1182756], [-95.920971, 36.1179474], [-95.9211136, 36.1179472], [-95.921311, 36.1179469], [-95.9213117, 36.1182752], [-95.9209717, 36.1182756]]]}, "properties": {"osm_id": 1006327783, "building": "yes", "name": "Climb Tulsa", "height": null, "height_m": null, "levels": null, "tract_id": "40143007000", "tract_name": "70", "tags": {"addr:city": "Tulsa", "addr:country": "US", "addr:housenumber": "4923", "addr:postcode": "74135", "addr:state": "OK", "addr:street": "East 32nd Street South", "building": "yes", "building:colour": "teal", "check_date": "2023-12-06", "climbing:boulder": "yes", "climbing:sport": "yes", "leisure": "sports_centre", "name": "Climb Tulsa", "opening_hours": "Mo-Fr 10:00-22:00; Sa 09:00-22:00; Su 10:00-20:00", "phone": "+1 918-439-4400", "sport": "climbing", "website": "https://climbtulsa.com"}}}, {"type": "Feature", "geometry": {"type": "Polygon", "coordinates": [[[-95.9052533, 36.1049336], [-95.9051487, 36.1049336], [-95.9051487, 36.1047104], [-95.9052533, 36.1047104], [-95.9052533, 36.1049336]]]}, "properties": {"osm_id": 1009499016, "building": "yes", "name": "You Suck Vapes", "height": null, "height_m": null, "levels": null, "tract_id": "40143007000", "tract_name": "70", "tags": {"addr:housenumber": "4050", "addr:street": "South Sheridan Road", "building": "yes", "facebook": "https://www.facebook.com/YousuckvapesSheridan/", "name": "You Suck Vapes", "phone": "+1 539 215-6390", "shop": "e-cigarette"}}}, {"type": "Feature", "geometry": {"type": "Polygon", "coordinates": [[[-95.9136446, 36.1046649], [-95.9140461, 36.104663], [-95.9140499, 36.1051933], [-95.913816, 36.1051944], [-95.9138162, 36.1052221], [-95.9136486, 36.1052229], [-95.9136446, 36.1046649]]]}, "properties": {"osm_id": 1009499021, "building": "retail", "name": "", "height": null, "height_m": 3.0, "levels": 1, "tract_id": "40143007000", "tract_name": "70", "tags": {"building": "retail", "building:levels": "1", "roof:levels": "0"}}}, {"type": "Feature", "geometry": {"type": "Polygon", "coordinates": [[[-95.9217202, 36.1046398], [-95.9217215, 36.104732], [-95.921741, 36.104732], [-95.9217419, 36.1047499], [-95.9217698, 36.1047492], [-95.9217706, 36.1047538], [-95.9217791, 36.1047538], [-95.9217795, 36.1048096], [-95.9217711, 36.1048099], [-95.921772, 36.1048989], [-95.9219317, 36.1048964], [-95.921933, 36.1048532], [-95.9218888, 36.1047585], [-95.9219781, 36.1047574], [-95.9219759, 36.1046384], [-95.921918, 36.1046391], [-95.921918, 36.1046569], [-95.9217985, 36.1046575], [-95.9217985, 36.1046401], [-95.9217202, 36.1046398]]]}, "properties": {"osm_id": 1014440894, "building": "retail", "name": "BancFirst", "height": null, "height_m": 3.0, "levels": 1, "tract_id": "40143007000", "tract_name": "70", "tags": {"addr:city": "Tulsa", "addr:country": "US", "addr:housenumber": "4901", "addr:postcode": "74135", "addr:state": "OK", "addr:street": "East 41st Street South", "amenity": "bank", "building": "retail", "building:colour": "tan", "building:levels": "1", "check_date": "2024-11-29", "name": "BancFirst", "opening_hours": "Mo-Fr 09:00-17:00; PH off", "phone": "+1 918-664-6660", "roof:levels": "0", "roof:shape": "flat", "website": "https://05362locator.wave2.io/?closeclick=1&lon=-95.921901&lat=36.104677", "wheelchair": "yes"}}}, {"type": "Feature", "geometry": {"type": "Polygon", "coordinates": [[[-95.9219164, 36.1052638], [-95.9219179, 36.1049867], [-95.921766, 36.1049862], [-95.9217657, 36.1050396], [-95.9217494, 36.1050395], [-95.9217488, 36.1051401], [-95.9217648, 36.1051402], [-95.9217641, 36.1052632], [-95.9219164, 36.1052638]]]}, "properties": {"osm_id": 1014440897, "building": "retail", "name": "Schlotzsky's", "height": null, "height_m": 3.0, "levels": 1, "tract_id": "40143007000", "tract_name": "70", "tags": {"addr:city": "Tulsa", "addr:housenumber": "4905", "addr:postcode": "74135", "addr:state": "OK", "addr:street": "East 41st Street South", "air_conditioning": "yes", "amenity": "fast_food", "brand": "Schlotzsky's", "brand:wikidata": "Q2244796", "building": "retail", "building:colour": "white", "building:levels": "1", "check_date": "2024-12-09", "cuisine": "sandwich", "drive_through": "yes", "indoor_seating": "yes", "name": "Schlotzsky's", "opening_hours": "Mo-Su 10:00-22:00", "outdoor_seating": "yes", "payment:cash": "yes", "payment:credit_cards": "yes", "payment:debit_cards": "yes", "phone": "+1-918-289-0003", "roof:levels": "0", "roof:shape": "flat", "smoking": "no", "takeaway": "yes", "website": "https://locations.schlotzskys.com/ok/tulsa/4905-e-41st-street", "wheelchair": "yes"}}}, {"type": "Feature", "geometry": {"type": "Polygon", "coordinates": [[[-95.9199206, 36.1047602], [-95.9196359, 36.1047605], [-95.9196359, 36.1047348], [-95.919596, 36.1047348], [-95.9195959, 36.1046951], [-95.91961, 36.1046951], [-95.9196099, 36.1046342], [-95.9196434, 36.1046341], [-95.9196434, 36.104612], [-95.9198908, 36.1046117], [-95.9198909, 36.1046637], [-95.9199204, 36.1046637], [-95.9199206, 36.1047602]]]}, "properties": {"osm_id": 1014440905, "building": "yes", "name": "Chick-fil-A", "height": null, "height_m": null, "levels": null, "tract_id": "40143007000", "tract_name": "70", "tags": {"addr:city": "Tulsa", "addr:housenumber": "4933", "addr:postcode": "74135", "addr:state": "OK", "addr:street": "East 41st Street South", "air_conditioning": "yes", "amenity": "fast_food", "branch": "Southroads Shopping Center", "brand": "Chick-fil-A", "brand:wikidata": "Q491516", "building": "yes", "check_date": "2024-12-11", "cuisine": "chicken", "delivery": "yes", "drive_through": "yes", "indoor_seating": "yes", "internet_access": "wlan", "name": "Chick-fil-A", "opening_hours": "Mo-Sa 06:00-22:00; Su off", "outdoor_seating": "no", "payment:cash": "yes", "payment:credit_cards": "yes", "payment:debit_cards": "yes", "phone": "+1 918-622-7815", "ref": "03253", "smoking": "no", "takeaway": "yes", "website": "https://www.chick-fil-a.com/locations/ok/southroads-shopping-center", "wheelchair": "yes"}}}, {"type": "Feature", "geometry": {"type": "Polygon", "coordinates": [[[-95.9186897, 36.1045773], [-95.9182544, 36.1045759], [-95.9182561, 36.1048961], [-95.9186932, 36.1048933], [-95.9186897, 36.1045773]]]}, "properties": {"osm_id": 1014440909, "building": "yes", "name": "Old Navy", "height": null, "height_m": null, "levels": null, "tract_id": "40143007000", "tract_name": "70", "tags": {"addr:housenumber": "5201", "addr:street": "East 41st Street South", "brand": "Old Navy", "brand:wikidata": "Q2735242", "building": "yes", "check_date": "2024-12-11", "name": "Old Navy", "opening_hours": "Mo-Th 09:00-21:00; Fr-Sa 09:00-22:00; Su 10:00-21:00", "payment:cash": "yes", "payment:credit_cards": "yes", "payment:debit_cards": "yes", "phone": "+1 918-627-4015", "shop": "clothes", "website": "https://oldnavy.gap.com/stores/ok/tulsa/oldnavy-5739.html", "wheelchair": "yes"}}}, {"type": "Feature", "geometry": {"type": "Polygon", "coordinates": [[[-95.9050522, 36.1178323], [-95.9052418, 36.1178322], [-95.9053104, 36.1178321], [-95.9053102, 36.1176673], [-95.9050709, 36.1176674], [-95.9050709, 36.1176863], [-95.9050521, 36.1176863], [-95.9050522, 36.1178323]]]}, "properties": {"osm_id": 1060137011, "building": "retail", "name": "Smart Pawn & Jewelry", "height": null, "height_m": null, "levels": null, "tract_id": "40143007000", "tract_name": "70", "tags": {"building": "retail", "check_date": "2023-04-29", "name": "Smart Pawn & Jewelry", "shop": "pawnbroker"}}}, {"type": "Feature", "geometry": {"type": "Polygon", "coordinates": [[[-95.9050522, 36.1178323], [-95.9050518, 36.1179529], [-95.9050516, 36.1180091], [-95.905052, 36.1180525], [-95.9050524, 36.1180953], [-95.9050749, 36.1180952], [-95.9050749, 36.1181197], [-95.9053023, 36.1181196], [-95.9053022, 36.1180373], [-95.905242, 36.1180373], [-95.9052419, 36.1178748], [-95.9052418, 36.1178322], [-95.9050522, 36.1178323]]]}, "properties": {"osm_id": 1060137012, "building": "retail", "name": "", "height": null, "height_m": null, "levels": null, "tract_id": "40143007000", "tract_name": "70", "tags": {"building": "retail"}}}, {"type": "Feature", "geometry": {"type": "Polygon", "coordinates": [[[-95.9051614, 36.1170904], [-95.9050254, 36.1170908], [-95.905024, 36.1167376], [-95.9051601, 36.1167373], [-95.9051614, 36.1170904]]]}, "properties": {"osm_id": 1070112626, "building": "industrial", "name": "Same Day Automotive Repair", "height": null, "height_m": null, "levels": null, "tract_id": "40143007000", "tract_name": "70", "tags": {"addr:housenumber": "3220", "addr:postcode": "74145", "addr:street": "South Sheridan Road", "building": "industrial", "name": "Same Day Automotive Repair", "opening_hours": "Mo-Fr 07:30-18:00; Sa 08:30-15:30,08:30-15:00", "payment:credit_cards": "yes", "payment:debit_cards": "yes", "phone": "+1-918-384-0028", "shop": "car_repair", "website": "https://samedayautorepair.com/", "wheelchair": "yes"}}}, {"type": "Feature", "geometry": {"type": "Polygon", "coordinates": [[[-95.9059635, 36.1084317], [-95.9063772, 36.108139], [-95.9064036, 36.1081634], [-95.9066438, 36.1079934], [-95.9062737, 36.1076518], [-95.9060446, 36.1078138], [-95.90616, 36.1079203], [-95.9057351, 36.108221], [-95.9059635, 36.1084317]]]}, "properties": {"osm_id": 1071382697, "building": "retail", "name": "Millennial Church", "height": null, "height_m": null, "levels": null, "tract_id": "40143007000", "tract_name": "70", "tags": {"addr:city": "Tulsa", "addr:country": "US", "addr:housenumber": "6355", "addr:postcode": "74135", "addr:state": "OK", "addr:street": "East Skelly Drive South", "amenity": "place_of_worship", "building": "retail", "name": "Millennial Church", "religion": "christian"}}}, {"type": "Feature", "geometry": {"type": "Polygon", "coordinates": [[[-95.9187649, 36.1155649], [-95.9187676, 36.1155948], [-95.9186724, 36.1156027], [-95.918645, 36.1156192], [-95.9186399, 36.1155742], [-95.9187649, 36.1155649]]]}, "properties": {"osm_id": 1087974648, "building": "yes", "name": "", "height": null, "height_m": null, "levels": null, "tract_id": "40143007000", "tract_name": "70", "tags": {"building": "yes"}}}, {"type": "Feature", "geometry": {"type": "Polygon", "coordinates": [[[-95.9174969, 36.1160918], [-95.9175243, 36.1160738], [-95.9175665, 36.1161155], [-95.9175391, 36.1161336], [-95.9174969, 36.1160918]]]}, "properties": {"osm_id": 1087974654, "building": "yes", "name": "", "height": null, "height_m": null, "levels": null, "tract_id": "40143007000", "tract_name": "70", "tags": {"building": "yes"}}}, {"type": "Feature", "geometry": {"type": "Polygon", "coordinates": [[[-95.9178828, 36.1159456], [-95.9179069, 36.1159746], [-95.9178766, 36.115991], [-95.9178711, 36.1159844], [-95.9178099, 36.1160176], [-95.9177913, 36.1159952], [-95.9178828, 36.1159456]]]}, "properties": {"osm_id": 1087974658, "building": "yes", "name": "", "height": null, "height_m": null, "levels": null, "tract_id": "40143007000", "tract_name": "70", "tags": {"building": "yes"}}}, {"type": "Feature", "geometry": {"type": "Polygon", "coordinates": [[[-95.9164019, 36.1156772], [-95.9163818, 36.1156523], [-95.9164057, 36.1156397], [-95.9164258, 36.1156646], [-95.9164019, 36.1156772]]]}, "properties": {"osm_id": 1087974667, "building": "yes", "name": "", "height": null, "height_m": null, "levels": null, "tract_id": "40143007000", "tract_name": "70", "tags": {"building": "yes"}}}, {"type": "Feature", "geometry": {"type": "Polygon", "coordinates": [[[-95.9163794, 36.1157183], [-95.9163228, 36.115753], [-95.9163014, 36.1157302], [-95.9163581, 36.1156956], [-95.9163794, 36.1157183]]]}, "properties": {"osm_id": 1087974668, "building": "yes", "name": "", "height": null, "height_m": null, "levels": null, "tract_id": "40143007000", "tract_name": "70", "tags": {"building": "yes"}}}, {"type": "Feature", "geometry": {"type": "Polygon", "coordinates": [[[-95.9161474, 36.1156932], [-95.9161092, 36.1156539], [-95.9161306, 36.1156403], [-95.9161688, 36.1156796], [-95.9161474, 36.1156932]]]}, "properties": {"osm_id": 1087974669, "building": "yes", "name": "", "height": null, "height_m": null, "levels": null, "tract_id": "40143007000", "tract_name": "70", "tags": {"building": "yes"}}}, {"type": "Feature", "geometry": {"type": "Polygon", "coordinates": [[[-95.9160851, 36.1156384], [-95.9160452, 36.115594], [-95.9160733, 36.1155775], [-95.9161132, 36.1156219], [-95.9160851, 36.1156384]]]}, "properties": {"osm_id": 1087974670, "building": "yes", "name": "", "height": null, "height_m": null, "levels": null, "tract_id": "40143007000", "tract_name": "70", "tags": {"building": "yes"}}}, {"type": "Feature", "geometry": {"type": "Polygon", "coordinates": [[[-95.9175016, 36.1161593], [-95.9174594, 36.1161214], [-95.9174894, 36.1160995], [-95.9175316, 36.1161375], [-95.9175016, 36.1161593]]]}, "properties": {"osm_id": 1087974673, "building": "yes", "name": "", "height": null, "height_m": null, "levels": null, "tract_id": "40143007000", "tract_name": "70", "tags": {"building": "yes"}}}, {"type": "Feature", "geometry": {"type": "Polygon", "coordinates": [[[-95.9183653, 36.1174777], [-95.9183562, 36.117499], [-95.9183213, 36.1174893], [-95.9183304, 36.117468], [-95.9183653, 36.1174777]]]}, "properties": {"osm_id": 1087974678, "building": "yes", "name": "", "height": null, "height_m": null, "levels": null, "tract_id": "40143007000", "tract_name": "70", "tags": {"building": "yes"}}}, {"type": "Feature", "geometry": {"type": "Polygon", "coordinates": [[[-95.9181983, 36.1173144], [-95.9182339, 36.1173327], [-95.9182111, 36.1173617], [-95.9181755, 36.1173434], [-95.9181983, 36.1173144]]]}, "properties": {"osm_id": 1087974681, "building": "yes", "name": "", "height": null, "height_m": null, "levels": null, "tract_id": "40143007000", "tract_name": "70", "tags": {"building": "yes"}}}, {"type": "Feature", "geometry": {"type": "Polygon", "coordinates": [[[-95.9182623, 36.1173133], [-95.9182895, 36.1173278], [-95.9182674, 36.1173549], [-95.9182402, 36.1173404], [-95.9182623, 36.1173133]]]}, "properties": {"osm_id": 1087974682, "building": "yes", "name": "", "height": null, "height_m": null, "levels": null, "tract_id": "40143007000", "tract_name": "70", "tags": {"building": "yes"}}}, {"type": "Feature", "geometry": {"type": "Polygon", "coordinates": [[[-95.918115, 36.1170832], [-95.9181409, 36.1170523], [-95.9181742, 36.1170705], [-95.9181382, 36.1171135], [-95.9181332, 36.1171108], [-95.9181049, 36.1170953], [-95.918115, 36.1170832]]]}, "properties": {"osm_id": 1087974684, "building": "yes", "name": "", "height": null, "height_m": null, "levels": null, "tract_id": "40143007000", "tract_name": "70", "tags": {"building": "yes"}}}, {"type": "Feature", "geometry": {"type": "Polygon", "coordinates": [[[-95.9171254, 36.1170162], [-95.9171149, 36.1170305], [-95.9170901, 36.1170186], [-95.9171006, 36.1170043], [-95.9171254, 36.1170162]]]}, "properties": {"osm_id": 1087974687, "building": "yes", "name": "", "height": null, "height_m": null, "levels": null, "tract_id": "40143007000", "tract_name": "70", "tags": {"building": "yes"}}}, {"type": "Feature", "geometry": {"type": "Polygon", "coordinates": [[[-95.9172468, 36.1170856], [-95.9172362, 36.1171035], [-95.9171704, 36.117078], [-95.9171811, 36.1170601], [-95.9172468, 36.1170856]]]}, "properties": {"osm_id": 1087974688, "building": "yes", "name": "", "height": null, "height_m": null, "levels": null, "tract_id": "40143007000", "tract_name": "70", "tags": {"building": "yes"}}}, {"type": "Feature", "geometry": {"type": "Polygon", "coordinates": [[[-95.9170108, 36.1169409], [-95.9169931, 36.1169736], [-95.9169609, 36.1169622], [-95.9169786, 36.1169296], [-95.9170108, 36.1169409]]]}, "properties": {"osm_id": 1087974690, "building": "yes", "name": "", "height": null, "height_m": null, "levels": null, "tract_id": "40143007000", "tract_name": "70", "tags": {"building": "yes"}}}, {"type": "Feature", "geometry": {"type": "Polygon", "coordinates": [[[-95.9170926, 36.1169729], [-95.9170591, 36.1170251], [-95.9169995, 36.1170002], [-95.9170329, 36.116948], [-95.9170926, 36.1169729]]]}, "properties": {"osm_id": 1087974691, "building": "yes", "name": "", "height": null, "height_m": null, "levels": null, "tract_id": "40143007000", "tract_name": "70", "tags": {"building": "yes"}}}, {"type": "Feature", "geometry": {"type": "Polygon", "coordinates": [[[-95.9150594, 36.1160239], [-95.9151094, 36.1160445], [-95.9150487, 36.1161406], [-95.9150075, 36.1161236], [-95.9150347, 36.1160806], [-95.9150259, 36.1160769], [-95.9150594, 36.1160239]]]}, "properties": {"osm_id": 1087974710, "building": "yes", "name": "", "height": null, "height_m": null, "levels": null, "tract_id": "40143007000", "tract_name": "70", "tags": {"building": "yes"}}}, {"type": "Feature", "geometry": {"type": "Polygon", "coordinates": [[[-95.9147946, 36.1159155], [-95.9148363, 36.1159335], [-95.9148047, 36.1159812], [-95.9147631, 36.1159632], [-95.9147946, 36.1159155]]]}, "properties": {"osm_id": 1087974711, "building": "yes", "name": "", "height": null, "height_m": null, "levels": null, "tract_id": "40143007000", "tract_name": "70", "tags": {"building": "yes"}}}, {"type": "Feature", "geometry": {"type": "Polygon", "coordinates": [[[-95.9149448, 36.1174588], [-95.9149434, 36.1176608], [-95.9149577, 36.1176609], [-95.9149571, 36.1177438], [-95.9148249, 36.1177432], [-95.9148256, 36.1176543], [-95.9148341, 36.1176543], [-95.9148355, 36.1174583], [-95.9149448, 36.1174588]]]}, "properties": {"osm_id": 1087974755, "building": "yes", "name": "", "height": null, "height_m": null, "levels": null, "tract_id": "40143007000", "tract_name": "70", "tags": {"building": "yes"}}}, {"type": "Feature", "geometry": {"type": "Polygon", "coordinates": [[[-95.9183168, 36.1184173], [-95.9182397, 36.1184181], [-95.9182392, 36.1183854], [-95.9183163, 36.1183846], [-95.9183168, 36.1184173]]]}, "properties": {"osm_id": 1087974764, "building": "yes", "name": "", "height": null, "height_m": null, "levels": null, "tract_id": "40143007000", "tract_name": "70", "tags": {"building": "yes"}}}, {"type": "Feature", "geometry": {"type": "Polygon", "coordinates": [[[-95.9181271, 36.1156714], [-95.9181151, 36.1156446], [-95.9181803, 36.1156256], [-95.9181794, 36.1156235], [-95.9181471, 36.1155511], [-95.918007, 36.1155919], [-95.9180046, 36.1155866], [-95.9179383, 36.1156059], [-95.9179586, 36.1156514], [-95.9179436, 36.1156558], [-95.9179601, 36.1156928], [-95.9180508, 36.1156664], [-95.9180616, 36.1156905], [-95.9181271, 36.1156714]]]}, "properties": {"osm_id": 1087974778, "building": "yes", "name": "", "height": null, "height_m": null, "levels": null, "tract_id": "40143007000", "tract_name": "70", "tags": {"addr:city": "Tulsa", "addr:country": "US", "addr:housenumber": "5321", "addr:postcode": "74135", "addr:state": "OK", "addr:street": "East 33rd Street South", "building": "yes", "source": "microsoft/BuildingFootprints;INCOG"}}}, {"type": "Feature", "geometry": {"type": "Polygon", "coordinates": [[[-95.9178094, 36.1158445], [-95.917763, 36.1157729], [-95.9178241, 36.1157471], [-95.9177858, 36.115688], [-95.9177365, 36.1157089], [-95.9177214, 36.1156855], [-95.9176218, 36.1157276], [-95.9177216, 36.1158816], [-95.9178094, 36.1158445]]]}, "properties": {"osm_id": 1087974779, "building": "yes", "name": "", "height": null, "height_m": null, "levels": null, "tract_id": "40143007000", "tract_name": "70", "tags": {"addr:city": "Tulsa", "addr:country": "US", "addr:housenumber": "5327", "addr:postcode": "74135", "addr:state": "OK", "addr:street": "East 33rd Street South", "building": "yes", "source": "microsoft/BuildingFootprints;INCOG"}}}, {"type": "Feature", "geometry": {"type": "Polygon", "coordinates": [[[-95.9171674, 36.1160181], [-95.9172357, 36.1160734], [-95.9172305, 36.1160776], [-95.9173594, 36.1161821], [-95.9174606, 36.1161006], [-95.9172634, 36.1159408], [-95.9171674, 36.1160181]]]}, "properties": {"osm_id": 1087974781, "building": "yes", "name": "", "height": null, "height_m": null, "levels": null, "tract_id": "40143007000", "tract_name": "70", "tags": {"addr:city": "Tulsa", "addr:country": "US", "addr:housenumber": "5347", "addr:postcode": "74135", "addr:state": "OK", "addr:street": "East 33rd Street South", "building": "yes", "source": "microsoft/BuildingFootprints;INCOG"}}}, {"type": "Feature", "geometry": {"type": "Polygon", "coordinates": [[[-95.9181773, 36.1164217], [-95.9181703, 36.1162885], [-95.9181124, 36.1162905], [-95.918113, 36.116302], [-95.9179916, 36.1163062], [-95.9179947, 36.1163638], [-95.9180122, 36.1163632], [-95.918013, 36.1163775], [-95.9180521, 36.1163762], [-95.9180539, 36.1164108], [-95.9180991, 36.1164092], [-95.9180999, 36.1164243], [-95.9181773, 36.1164217]]]}, "properties": {"osm_id": 1087974783, "building": "yes", "name": "", "height": null, "height_m": null, "levels": null, "tract_id": "40143007000", "tract_name": "70", "tags": {"building": "yes", "source": "microsoft/BuildingFootprints"}}}, {"type": "Feature", "geometry": {"type": "Polygon", "coordinates": [[[-95.9171219, 36.1153667], [-95.9170839, 36.1153914], [-95.9170644, 36.1153718], [-95.9170211, 36.1153998], [-95.9170377, 36.1154165], [-95.9169875, 36.1154491], [-95.9170363, 36.1154982], [-95.9170482, 36.1154904], [-95.9170689, 36.1155112], [-95.9171056, 36.1154874], [-95.917114, 36.1154959], [-95.9171679, 36.115461], [-95.917155, 36.1154481], [-95.9171841, 36.1154292], [-95.9171219, 36.1153667]]]}, "properties": {"osm_id": 1087974784, "building": "yes", "name": "", "height": null, "height_m": null, "levels": null, "tract_id": "40143007000", "tract_name": "70", "tags": {"addr:city": "Tulsa", "addr:country": "US", "addr:housenumber": "5342", "addr:postcode": "74135", "addr:state": "OK", "addr:street": "East 33rd Street South", "building": "yes", "source": "microsoft/BuildingFootprints;INCOG"}}}, {"type": "Feature", "geometry": {"type": "Polygon", "coordinates": [[[-95.9149555, 36.1173501], [-95.9149543, 36.1171687], [-95.9148097, 36.1171693], [-95.9148109, 36.1173513], [-95.9147877, 36.1173514], [-95.9147883, 36.1174433], [-95.9149374, 36.1174427], [-95.9149367, 36.1173502], [-95.9149555, 36.1173501]]]}, "properties": {"osm_id": 1087974787, "building": "yes", "name": "", "height": null, "height_m": null, "levels": null, "tract_id": "40143007000", "tract_name": "70", "tags": {"building": "yes", "source": "microsoft/BuildingFootprints"}}}, {"type": "Feature", "geometry": {"type": "Polygon", "coordinates": [[[-95.9189189, 36.1175628], [-95.9189007, 36.1175049], [-95.9188856, 36.117508], [-95.9188607, 36.1174286], [-95.9187391, 36.1174536], [-95.9187823, 36.1175909], [-95.9189189, 36.1175628]]]}, "properties": {"osm_id": 1087974788, "building": "yes", "name": "", "height": null, "height_m": null, "levels": null, "tract_id": "40143007000", "tract_name": "70", "tags": {"building": "yes", "source": "microsoft/BuildingFootprints"}}}, {"type": "Feature", "geometry": {"type": "Polygon", "coordinates": [[[-95.9177749, 36.1162488], [-95.917722, 36.1163143], [-95.9178468, 36.11638], [-95.9179213, 36.1162878], [-95.9178527, 36.1162516], [-95.917831, 36.1162784], [-95.9177749, 36.1162488]]]}, "properties": {"osm_id": 1087974789, "building": "yes", "name": "", "height": null, "height_m": null, "levels": null, "tract_id": "40143007000", "tract_name": "70", "tags": {"building": "yes", "source": "microsoft/BuildingFootprints"}}}, {"type": "Feature", "geometry": {"type": "Polygon", "coordinates": [[[-95.91649, 36.11668], [-95.916585, 36.116713], [-95.916617, 36.116653], [-95.916522, 36.11662], [-95.91649, 36.11668]]]}, "properties": {"osm_id": 1087974790, "building": "yes", "name": "", "height": null, "height_m": null, "levels": null, "tract_id": "40143007000", "tract_name": "70", "tags": {"building": "yes", "source": "microsoft/BuildingFootprints"}}}, {"type": "Feature", "geometry": {"type": "Polygon", "coordinates": [[[-95.915546, 36.115888], [-95.915727, 36.115967], [-95.915767, 36.115907], [-95.915706, 36.115881], [-95.915726, 36.11585], [-95.915606, 36.115798], [-95.915546, 36.115888]]]}, "properties": {"osm_id": 1087974791, "building": "yes", "name": "", "height": null, "height_m": null, "levels": null, "tract_id": "40143007000", "tract_name": "70", "tags": {"building": "yes", "source": "microsoft/BuildingFootprints"}}}, {"type": "Feature", "geometry": {"type": "Polygon", "coordinates": [[[-95.9186446, 36.1172816], [-95.9185782, 36.1172757], [-95.9185813, 36.117253], [-95.9184507, 36.1172413], [-95.9184403, 36.1173173], [-95.9185228, 36.1173247], [-95.9185184, 36.1173566], [-95.9185589, 36.1173602], [-95.9185605, 36.1173485], [-95.9186345, 36.1173551], [-95.9186446, 36.1172816]]]}, "properties": {"osm_id": 1087974792, "building": "yes", "name": "", "height": null, "height_m": null, "levels": null, "tract_id": "40143007000", "tract_name": "70", "tags": {"building": "yes", "source": "microsoft/BuildingFootprints"}}}, {"type": "Feature", "geometry": {"type": "Polygon", "coordinates": [[[-95.9166332, 36.116442], [-95.9166623, 36.1164533], [-95.9166521, 36.1164703], [-95.9167142, 36.1164946], [-95.9166954, 36.1165258], [-95.9167297, 36.1165392], [-95.9167263, 36.1165448], [-95.9167682, 36.1165612], [-95.9168708, 36.1163901], [-95.9168013, 36.1163629], [-95.9167868, 36.1163871], [-95.9166891, 36.1163489], [-95.9166332, 36.116442]]]}, "properties": {"osm_id": 1087974793, "building": "yes", "name": "", "height": null, "height_m": null, "levels": null, "tract_id": "40143007000", "tract_name": "70", "tags": {"building": "yes", "source": "microsoft/BuildingFootprints"}}}, {"type": "Feature", "geometry": {"type": "Polygon", "coordinates": [[[-95.9151177, 36.1156424], [-95.9150446, 36.1157732], [-95.9151383, 36.1158073], [-95.9151629, 36.1157633], [-95.9152294, 36.1157876], [-95.915221, 36.1158026], [-95.9152535, 36.1158144], [-95.9152849, 36.1157582], [-95.9152237, 36.1157359], [-95.9152491, 36.1156904], [-95.9151177, 36.1156424]]]}, "properties": {"osm_id": 1087974794, "building": "yes", "name": "", "height": null, "height_m": null, "levels": null, "tract_id": "40143007000", "tract_name": "70", "tags": {"building": "yes", "source": "microsoft/BuildingFootprints"}}}, {"type": "Feature", "geometry": {"type": "Polygon", "coordinates": [[[-95.9150862, 36.1168521], [-95.9150391, 36.1168499], [-95.9150348, 36.1169084], [-95.9150819, 36.1169106], [-95.9150862, 36.1168521]]]}, "properties": {"osm_id": 1087974796, "building": "yes", "name": "", "height": null, "height_m": null, "levels": null, "tract_id": "40143007000", "tract_name": "70", "tags": {"building": "yes", "source": "microsoft/BuildingFootprints"}}}, {"type": "Feature", "geometry": {"type": "Polygon", "coordinates": [[[-95.9185234, 36.1154487], [-95.9185442, 36.1156313], [-95.9186456, 36.1156238], [-95.918645, 36.1156192], [-95.9186399, 36.1155742], [-95.9187649, 36.1155649], [-95.9187693, 36.1155646], [-95.9187565, 36.1154521], [-95.9186177, 36.1154624], [-95.9186154, 36.1154418], [-95.9185234, 36.1154487]]]}, "properties": {"osm_id": 1087974798, "building": "yes", "name": "", "height": null, "height_m": null, "levels": null, "tract_id": "40143007000", "tract_name": "70", "tags": {"addr:city": "Tulsa", "addr:country": "US", "addr:housenumber": "5307", "addr:postcode": "74135", "addr:state": "OK", "addr:street": "East 33rd Street South", "building": "yes", "source": "microsoft/BuildingFootprints;INCOG"}}}, {"type": "Feature", "geometry": {"type": "Polygon", "coordinates": [[[-95.918835, 36.117423], [-95.918833, 36.117363], [-95.918752, 36.117364], [-95.918754, 36.117425], [-95.918835, 36.117423]]]}, "properties": {"osm_id": 1087974799, "building": "yes", "name": "", "height": null, "height_m": null, "levels": null, "tract_id": "40143007000", "tract_name": "70", "tags": {"building": "yes", "source": "microsoft/BuildingFootprints"}}}, {"type": "Feature", "geometry": {"type": "Polygon", "coordinates": [[[-95.9182607, 36.1155155], [-95.9182727, 36.1155622], [-95.9182538, 36.1155654], [-95.9182641, 36.1156052], [-95.9183759, 36.1155863], [-95.918384, 36.1156177], [-95.9184359, 36.1156089], [-95.9184098, 36.1155082], [-95.9183763, 36.1155139], [-95.9183692, 36.1154865], [-95.9183, 36.1154982], [-95.9183027, 36.1155084], [-95.9182607, 36.1155155]]]}, "properties": {"osm_id": 1087974801, "building": "yes", "name": "", "height": null, "height_m": null, "levels": null, "tract_id": "40143007000", "tract_name": "70", "tags": {"addr:city": "Tulsa", "addr:country": "US", "addr:housenumber": "5315", "addr:postcode": "74135", "addr:state": "OK", "addr:street": "East 33rd Street South", "building": "yes", "source": "microsoft/BuildingFootprints;INCOG"}}}, {"type": "Feature", "geometry": {"type": "Polygon", "coordinates": [[[-95.9182237, 36.117272], [-95.9182893, 36.117305], [-95.9183502, 36.117226], [-95.9183212, 36.1172114], [-95.9183322, 36.1171971], [-95.9182194, 36.1171403], [-95.9181689, 36.1172058], [-95.9182451, 36.1172442], [-95.9182237, 36.117272]]]}, "properties": {"osm_id": 1087974803, "building": "yes", "name": "", "height": null, "height_m": null, "levels": null, "tract_id": "40143007000", "tract_name": "70", "tags": {"building": "yes", "source": "microsoft/BuildingFootprints"}}}, {"type": "Feature", "geometry": {"type": "Polygon", "coordinates": [[[-95.9176612, 36.1168321], [-95.917628, 36.116883], [-95.9175183, 36.1168363], [-95.917467, 36.116915], [-95.9176501, 36.1169928], [-95.9177345, 36.1168633], [-95.9176612, 36.1168321]]]}, "properties": {"osm_id": 1087974804, "building": "yes", "name": "", "height": null, "height_m": null, "levels": null, "tract_id": "40143007000", "tract_name": "70", "tags": {"building": "yes", "source": "microsoft/BuildingFootprints"}}}, {"type": "Feature", "geometry": {"type": "Polygon", "coordinates": [[[-95.9176843, 36.1161635], [-95.9176412, 36.1161413], [-95.9175599, 36.1162441], [-95.9176023, 36.116266], [-95.917612, 36.1162538], [-95.9177161, 36.1163075], [-95.917768, 36.1162418], [-95.9176646, 36.1161885], [-95.9176843, 36.1161635]]]}, "properties": {"osm_id": 1087974806, "building": "yes", "name": "", "height": null, "height_m": null, "levels": null, "tract_id": "40143007000", "tract_name": "70", "tags": {"building": "yes", "source": "microsoft/BuildingFootprints"}}}, {"type": "Feature", "geometry": {"type": "Polygon", "coordinates": [[[-95.9166487, 36.1162693], [-95.9164912, 36.1162107], [-95.9164168, 36.1163412], [-95.9164372, 36.1163488], [-95.916404, 36.116407], [-95.9165411, 36.116458], [-95.9166487, 36.1162693]]]}, "properties": {"osm_id": 1087974808, "building": "yes", "name": "", "height": null, "height_m": null, "levels": null, "tract_id": "40143007000", "tract_name": "70", "tags": {"building": "yes", "source": "microsoft/BuildingFootprints"}}}, {"type": "Feature", "geometry": {"type": "Polygon", "coordinates": [[[-95.914623, 36.117846], [-95.914623, 36.117955], [-95.914749, 36.117955], [-95.914749, 36.117937], [-95.914835, 36.117937], [-95.914835, 36.117909], [-95.914892, 36.117909], [-95.914892, 36.117883], [-95.914944, 36.117883], [-95.914944, 36.1177784], [-95.9148797, 36.1177784], [-95.9148797, 36.1178022], [-95.9148248, 36.1178022], [-95.9148248, 36.117825], [-95.91479, 36.117825], [-95.91479, 36.117846], [-95.914623, 36.117846]]]}, "properties": {"osm_id": 1087974810, "building": "yes", "name": "", "height": null, "height_m": null, "levels": null, "tract_id": "40143007000", "tract_name": "70", "tags": {"building": "yes", "source": "microsoft/BuildingFootprints"}}}, {"type": "Feature", "geometry": {"type": "Polygon", "coordinates": [[[-95.9170454, 36.1164775], [-95.9170021, 36.1164588], [-95.9170151, 36.1164391], [-95.9169525, 36.1164121], [-95.9169412, 36.1164292], [-95.9169309, 36.1164248], [-95.9169093, 36.1164575], [-95.9168934, 36.1164506], [-95.9168645, 36.1164942], [-95.9169851, 36.1165463], [-95.9169753, 36.1165611], [-95.9170542, 36.1165952], [-95.917089, 36.1165427], [-95.9170853, 36.1165411], [-95.9170215, 36.1165136], [-95.9170454, 36.1164775]]]}, "properties": {"osm_id": 1087974811, "building": "yes", "name": "", "height": null, "height_m": null, "levels": null, "tract_id": "40143007000", "tract_name": "70", "tags": {"building": "yes", "source": "microsoft/BuildingFootprints"}}}, {"type": "Feature", "geometry": {"type": "Polygon", "coordinates": [[[-95.914841, 36.1156671], [-95.9149381, 36.1156885], [-95.9149317, 36.1157075], [-95.9150141, 36.1157256], [-95.9150332, 36.1156687], [-95.9150477, 36.1156719], [-95.9150707, 36.1156035], [-95.9150166, 36.1155916], [-95.9150057, 36.1156239], [-95.9149606, 36.115614], [-95.9149659, 36.1155981], [-95.9148954, 36.1155826], [-95.9148902, 36.115598], [-95.9148767, 36.1155951], [-95.9148654, 36.1156287], [-95.9148547, 36.1156263], [-95.914841, 36.1156671]]]}, "properties": {"osm_id": 1087974812, "building": "yes", "name": "", "height": null, "height_m": null, "levels": null, "tract_id": "40143007000", "tract_name": "70", "tags": {"building": "yes", "source": "microsoft/BuildingFootprints"}}}, {"type": "Feature", "geometry": {"type": "Polygon", "coordinates": [[[-95.916636, 36.1157309], [-95.9166676, 36.1157561], [-95.9166893, 36.1157383], [-95.9167256, 36.1157673], [-95.9168361, 36.1156769], [-95.9167698, 36.115624], [-95.9166903, 36.115689], [-95.9166332, 36.1156435], [-95.9165522, 36.1157097], [-95.916548, 36.1157064], [-95.9165004, 36.1157454], [-95.9165601, 36.115793], [-95.916636, 36.1157309]]]}, "properties": {"osm_id": 1087974814, "building": "yes", "name": "", "height": null, "height_m": null, "levels": null, "tract_id": "40143007000", "tract_name": "70", "tags": {"addr:city": "Tulsa", "addr:country": "US", "addr:housenumber": "5352", "addr:postcode": "74135", "addr:state": "OK", "addr:street": "East 33rd Street South", "building": "yes", "source": "microsoft/BuildingFootprints;INCOG"}}}, {"type": "Feature", "geometry": {"type": "Polygon", "coordinates": [[[-95.9175439, 36.1159332], [-95.9175145, 36.1159021], [-95.9176092, 36.1158436], [-95.9175534, 36.1157847], [-95.9174596, 36.1158426], [-95.9174458, 36.1158281], [-95.9173546, 36.1158844], [-95.9173926, 36.1159246], [-95.9173787, 36.1159332], [-95.9174084, 36.1159645], [-95.9174556, 36.1159353], [-95.9174869, 36.1159684], [-95.9175439, 36.1159332]]]}, "properties": {"osm_id": 1087974816, "building": "yes", "name": "", "height": null, "height_m": null, "levels": null, "tract_id": "40143007000", "tract_name": "70", "tags": {"addr:city": "Tulsa", "addr:country": "US", "addr:housenumber": "5341", "addr:postcode": "74135", "addr:state": "OK", "addr:street": "East 33rd Street South", "building": "yes", "source": "microsoft/BuildingFootprints;INCOG"}}}, {"type": "Feature", "geometry": {"type": "Polygon", "coordinates": [[[-95.9171204, 36.1165362], [-95.9170471, 36.1166386], [-95.9172415, 36.1167294], [-95.9173148, 36.1166271], [-95.9171204, 36.1165362]]]}, "properties": {"osm_id": 1087974817, "building": "yes", "name": "", "height": null, "height_m": null, "levels": null, "tract_id": "40143007000", "tract_name": "70", "tags": {"building": "yes", "source": "microsoft/BuildingFootprints"}}}, {"type": "Feature", "geometry": {"type": "Polygon", "coordinates": [[[-95.9164562, 36.1161658], [-95.9163953, 36.1161406], [-95.9163886, 36.1161512], [-95.9163797, 36.1161475], [-95.9163918, 36.1161284], [-95.9163206, 36.116099], [-95.9162384, 36.1162285], [-95.916278, 36.1162449], [-95.9162693, 36.1162587], [-95.9163096, 36.1162753], [-95.916305, 36.1162825], [-95.9163661, 36.1163078], [-95.9164562, 36.1161658]]]}, "properties": {"osm_id": 1087974820, "building": "yes", "name": "", "height": null, "height_m": null, "levels": null, "tract_id": "40143007000", "tract_name": "70", "tags": {"building": "yes", "source": "microsoft/BuildingFootprints"}}}, {"type": "Feature", "geometry": {"type": "Polygon", "coordinates": [[[-95.9159296, 36.1161613], [-95.9161011, 36.1162307], [-95.9161176, 36.116204], [-95.9161715, 36.1162258], [-95.916272, 36.1160638], [-95.9162034, 36.116036], [-95.9161949, 36.1160496], [-95.9161402, 36.1160275], [-95.9161533, 36.1160064], [-95.9160677, 36.1159718], [-95.9160342, 36.1160258], [-95.9160149, 36.116018], [-95.9159876, 36.116062], [-95.9161486, 36.1161272], [-95.9161204, 36.1161726], [-95.9160376, 36.1161391], [-95.9160505, 36.1161183], [-95.9159752, 36.1160878], [-95.9159296, 36.1161613]]]}, "properties": {"osm_id": 1087974821, "building": "yes", "name": "", "height": null, "height_m": null, "levels": null, "tract_id": "40143007000", "tract_name": "70", "tags": {"building": "yes", "source": "microsoft/BuildingFootprints"}}}, {"type": "Feature", "geometry": {"type": "Polygon", "coordinates": [[[-95.9179437, 36.1169853], [-95.9178698, 36.1169468], [-95.9178843, 36.1169286], [-95.9178243, 36.1168973], [-95.9178128, 36.1169118], [-95.9177973, 36.1169038], [-95.9177725, 36.1169349], [-95.9177607, 36.1169288], [-95.9177304, 36.1169668], [-95.9178127, 36.1170097], [-95.9178002, 36.1170253], [-95.9178789, 36.1170664], [-95.9179437, 36.1169853]]]}, "properties": {"osm_id": 1087974822, "building": "yes", "name": "", "height": null, "height_m": null, "levels": null, "tract_id": "40143007000", "tract_name": "70", "tags": {"building": "yes", "source": "microsoft/BuildingFootprints"}}}, {"type": "Feature", "geometry": {"type": "Polygon", "coordinates": [[[-95.918482, 36.116165], [-95.9184219, 36.1162115], [-95.9183761, 36.116173], [-95.9183099, 36.1162242], [-95.9184175, 36.1163149], [-95.9184422, 36.1162958], [-95.9184526, 36.1163046], [-95.9184979, 36.1162695], [-95.9185238, 36.1162913], [-95.9185801, 36.1162477], [-95.918482, 36.116165]]]}, "properties": {"osm_id": 1087974823, "building": "yes", "name": "", "height": null, "height_m": null, "levels": null, "tract_id": "40143007000", "tract_name": "70", "tags": {"building": "yes", "source": "microsoft/BuildingFootprints"}}}, {"type": "Feature", "geometry": {"type": "Polygon", "coordinates": [[[-95.9185211, 36.1158364], [-95.9185079, 36.115949], [-95.9184869, 36.1159474], [-95.9184836, 36.1159754], [-95.9184367, 36.1159718], [-95.9184294, 36.1160345], [-95.9185961, 36.1160472], [-95.9186033, 36.1159861], [-95.9185758, 36.115984], [-95.9185786, 36.1159594], [-95.918636, 36.1159638], [-95.9186451, 36.115886], [-95.9186211, 36.1158842], [-95.9186258, 36.1158444], [-95.9185211, 36.1158364]]]}, "properties": {"osm_id": 1087974824, "building": "yes", "name": "", "height": null, "height_m": null, "levels": null, "tract_id": "40143007000", "tract_name": "70", "tags": {"building": "yes", "source": "microsoft/BuildingFootprints"}}}, {"type": "Feature", "geometry": {"type": "Polygon", "coordinates": [[[-95.9175088, 36.1167757], [-95.9174459, 36.1167484], [-95.9174631, 36.1167226], [-95.9174166, 36.1167024], [-95.9174272, 36.1166864], [-95.9173639, 36.116659], [-95.9173562, 36.1166704], [-95.9173459, 36.116666], [-95.9173236, 36.1166996], [-95.917312, 36.1166946], [-95.917287, 36.1167322], [-95.9174449, 36.1168008], [-95.9174375, 36.1168119], [-95.9174741, 36.1168278], [-95.9175088, 36.1167757]]]}, "properties": {"osm_id": 1087974825, "building": "yes", "name": "", "height": null, "height_m": null, "levels": null, "tract_id": "40143007000", "tract_name": "70", "tags": {"building": "yes", "source": "microsoft/BuildingFootprints"}}}, {"type": "Feature", "geometry": {"type": "Polygon", "coordinates": [[[-95.916189, 36.1154503], [-95.9161388, 36.1154718], [-95.9161453, 36.1154817], [-95.9161136, 36.1154952], [-95.9161023, 36.1154781], [-95.9160202, 36.1155132], [-95.916063, 36.1155785], [-95.9160923, 36.115566], [-95.9161319, 36.1156264], [-95.9162666, 36.1155687], [-95.916189, 36.1154503]]]}, "properties": {"osm_id": 1087974827, "building": "yes", "name": "", "height": null, "height_m": null, "levels": null, "tract_id": "40143007000", "tract_name": "70", "tags": {"building": "yes", "source": "microsoft/BuildingFootprints"}}}, {"type": "Feature", "geometry": {"type": "Polygon", "coordinates": [[[-95.9179462, 36.1170856], [-95.9180237, 36.117128], [-95.9180061, 36.117149], [-95.9180401, 36.1171676], [-95.9180365, 36.1171719], [-95.9180807, 36.1171961], [-95.9180965, 36.1171773], [-95.9180835, 36.1171701], [-95.9181332, 36.1171108], [-95.9181049, 36.1170953], [-95.918115, 36.1170832], [-95.9180006, 36.1170207], [-95.9179462, 36.1170856]]]}, "properties": {"osm_id": 1087974828, "building": "yes", "name": "", "height": null, "height_m": null, "levels": null, "tract_id": "40143007000", "tract_name": "70", "tags": {"building": "yes", "source": "microsoft/BuildingFootprints"}}}, {"type": "Feature", "geometry": {"type": "Polygon", "coordinates": [[[-95.9165086, 36.1155153], [-95.9164774, 36.1154479], [-95.9163646, 36.115482], [-95.9163594, 36.1154707], [-95.9162855, 36.1154929], [-95.9163287, 36.1155863], [-95.9164455, 36.115551], [-95.9164342, 36.1155267], [-95.9164629, 36.1155181], [-95.9164674, 36.1155277], [-95.9165086, 36.1155153]]]}, "properties": {"osm_id": 1087974829, "building": "yes", "name": "", "height": null, "height_m": null, "levels": null, "tract_id": "40143007000", "tract_name": "70", "tags": {"building": "yes", "source": "microsoft/BuildingFootprints"}}}, {"type": "Feature", "geometry": {"type": "Polygon", "coordinates": [[[-95.9138284, 36.1064196], [-95.913828, 36.1063089], [-95.9136598, 36.1063095], [-95.9136601, 36.10642], [-95.9138284, 36.1064196]]]}, "properties": {"osm_id": 1100885363, "building": "retail", "name": "", "height": null, "height_m": 3.0, "levels": 1, "tract_id": "40143007000", "tract_name": "70", "tags": {"building": "retail", "building:levels": "1", "shop": "yes"}}}, {"type": "Feature", "geometry": {"type": "Polygon", "coordinates": [[[-95.9192094, 36.1149996], [-95.9192757, 36.1149727], [-95.9192983, 36.115009], [-95.9193454, 36.1149898], [-95.9193002, 36.1149172], [-95.9192745, 36.1149277], [-95.9192335, 36.114862], [-95.9192613, 36.1148507], [-95.9192172, 36.1147798], [-95.9191209, 36.114819], [-95.9191629, 36.1148864], [-95.9191437, 36.1148942], [-95.9192094, 36.1149996]]]}, "properties": {"osm_id": 1116299382, "building": "yes", "name": "", "height": null, "height_m": null, "levels": null, "tract_id": "40143007000", "tract_name": "70", "tags": {"addr:city": "Tulsa", "addr:country": "US", "addr:housenumber": "5124", "addr:postcode": "74135", "addr:state": "OK", "addr:street": "East 33rd Street South", "building": "yes", "source": "microsoft/BuildingFootprints;INCOG"}}}, {"type": "Feature", "geometry": {"type": "Polygon", "coordinates": [[[-95.9190316, 36.1146154], [-95.9191041, 36.1146081], [-95.919116, 36.1146849], [-95.9191993, 36.1146765], [-95.9191874, 36.1145997], [-95.9192217, 36.1145962], [-95.9192065, 36.1144981], [-95.9191643, 36.1145023], [-95.919158, 36.1144618], [-95.9190101, 36.1144768], [-95.9190316, 36.1146154]]]}, "properties": {"osm_id": 1116299383, "building": "yes", "name": "", "height": null, "height_m": null, "levels": null, "tract_id": "40143007000", "tract_name": "70", "tags": {"building": "yes", "source": "microsoft/BuildingFootprints"}}}, {"type": "Feature", "geometry": {"type": "Polygon", "coordinates": [[[-95.9190746, 36.1141765], [-95.9189499, 36.1141856], [-95.9189618, 36.1142927], [-95.9189727, 36.1142919], [-95.9189828, 36.114382], [-95.9190768, 36.1143752], [-95.9190697, 36.1143118], [-95.9190896, 36.1143104], [-95.9190746, 36.1141765]]]}, "properties": {"osm_id": 1116299384, "building": "yes", "name": "", "height": null, "height_m": null, "levels": null, "tract_id": "40143007000", "tract_name": "70", "tags": {"building": "yes", "source": "microsoft/BuildingFootprints"}}}, {"type": "Feature", "geometry": {"type": "Polygon", "coordinates": [[[-95.9190969, 36.1140729], [-95.9190874, 36.1139143], [-95.918937, 36.1139202], [-95.9189398, 36.1139656], [-95.9189546, 36.113965], [-95.9189589, 36.1140368], [-95.9190157, 36.1140346], [-95.9190187, 36.1140847], [-95.9190701, 36.1140827], [-95.9190726, 36.1141234], [-95.9192351, 36.114117], [-95.9192305, 36.1140414], [-95.9191573, 36.1140443], [-95.9191589, 36.1140704], [-95.9190969, 36.1140729]]]}, "properties": {"osm_id": 1116299385, "building": "yes", "name": "", "height": null, "height_m": null, "levels": null, "tract_id": "40143007000", "tract_name": "70", "tags": {"building": "yes", "source": "microsoft/BuildingFootprints"}}}, {"type": "Feature", "geometry": {"type": "Polygon", "coordinates": [[[-95.9195995, 36.1140968], [-95.9195638, 36.1140299], [-95.9195379, 36.1140389], [-95.9195096, 36.113986], [-95.9193659, 36.1140361], [-95.9193987, 36.1140974], [-95.9193592, 36.1141112], [-95.9193904, 36.1141696], [-95.9195995, 36.1140968]]]}, "properties": {"osm_id": 1116299386, "building": "detached", "name": "", "height": null, "height_m": null, "levels": null, "tract_id": "40143007000", "tract_name": "70", "tags": {"addr:city": "Tulsa", "addr:country": "US", "addr:housenumber": "3375", "addr:postcode": "74135", "addr:state": "OK", "addr:street": "South Braden Avenue East", "building": "detached"}}}, {"type": "Feature", "geometry": {"type": "Polygon", "coordinates": [[[-95.9192812, 36.1136367], [-95.9192819, 36.1137277], [-95.919416, 36.113727], [-95.9194158, 36.1137041], [-95.919479, 36.1137038], [-95.9194793, 36.1137376], [-95.9195678, 36.1137372], [-95.9195671, 36.1136353], [-95.9192812, 36.1136367]]]}, "properties": {"osm_id": 1116299387, "building": "detached", "name": "", "height": null, "height_m": null, "levels": null, "tract_id": "40143007000", "tract_name": "70", "tags": {"addr:city": "Tulsa", "addr:country": "US", "addr:housenumber": "5107", "addr:postcode": "74135", "addr:state": "OK", "addr:street": "East 35th Street South", "building": "detached"}}}, {"type": "Feature", "geometry": {"type": "Polygon", "coordinates": [[[-95.918992, 36.1137363], [-95.9190548, 36.1137347], [-95.9190569, 36.1137889], [-95.9191105, 36.1137875], [-95.9191048, 36.1136382], [-95.9189161, 36.1136428], [-95.9189184, 36.1137034], [-95.9189907, 36.1137016], [-95.918992, 36.1137363]]]}, "properties": {"osm_id": 1116299388, "building": "detached", "name": "", "height": null, "height_m": null, "levels": null, "tract_id": "40143007000", "tract_name": "70", "tags": {"addr:city": "Tulsa", "addr:country": "US", "addr:housenumber": "5115", "addr:postcode": "74135", "addr:state": "OK", "addr:street": "East 35th Street South", "building": "detached"}}}, {"type": "Feature", "geometry": {"type": "Polygon", "coordinates": [[[-95.9195952, 36.1149265], [-95.9194557, 36.1149278], [-95.9194561, 36.1149544], [-95.9194571, 36.1150275], [-95.919551, 36.1150266], [-95.9195508, 36.1150102], [-95.9196017, 36.1150097], [-95.9196013, 36.1149806], [-95.9197032, 36.1149797], [-95.919702, 36.1148909], [-95.9195947, 36.1148919], [-95.9195952, 36.1149265]]]}, "properties": {"osm_id": 1116299389, "building": "yes", "name": "", "height": null, "height_m": null, "levels": null, "tract_id": "40143007000", "tract_name": "70", "tags": {"addr:city": "Tulsa", "addr:country": "US", "addr:housenumber": "5110", "addr:postcode": "74135", "addr:state": "OK", "addr:street": "East 33rd Street South", "building": "yes", "source": "microsoft/BuildingFootprints;INCOG"}}}, {"type": "Feature", "geometry": {"type": "Polygon", "coordinates": [[[-95.9197758, 36.1150107], [-95.9198562, 36.1150087], [-95.9198554, 36.1149871], [-95.9200028, 36.1149834], [-95.9199996, 36.114899], [-95.9197718, 36.1149047], [-95.9197758, 36.1150107]]]}, "properties": {"osm_id": 1116299390, "building": "yes", "name": "", "height": null, "height_m": null, "levels": null, "tract_id": "40143007000", "tract_name": "70", "tags": {"addr:city": "Tulsa", "addr:country": "US", "addr:housenumber": "5102", "addr:postcode": "74135", "addr:state": "OK", "addr:street": "East 33rd Street South", "building": "yes", "source": "microsoft/BuildingFootprints;INCOG"}}}, {"type": "Feature", "geometry": {"type": "Polygon", "coordinates": [[[-95.9183781, 36.1149668], [-95.9183798, 36.1150361], [-95.9186131, 36.1150323], [-95.9186113, 36.114963], [-95.9183781, 36.1149668]]]}, "properties": {"osm_id": 1116299391, "building": "yes", "name": "", "height": null, "height_m": null, "levels": null, "tract_id": "40143007000", "tract_name": "70", "tags": {"addr:city": "Tulsa", "addr:country": "US", "addr:housenumber": "5304", "addr:postcode": "74135", "addr:state": "OK", "addr:street": "East 33rd Street South", "building": "yes", "source": "microsoft/BuildingFootprints;INCOG"}}}, {"type": "Feature", "geometry": {"type": "Polygon", "coordinates": [[[-95.9182902, 36.1141769], [-95.9182926, 36.1142189], [-95.9183141, 36.1142181], [-95.9183201, 36.1143219], [-95.9183909, 36.1143192], [-95.9183888, 36.1142836], [-95.9184236, 36.1142823], [-95.9184172, 36.114172], [-95.9182902, 36.1141769]]]}, "properties": {"osm_id": 1116299392, "building": "yes", "name": "", "height": null, "height_m": null, "levels": null, "tract_id": "40143007000", "tract_name": "70", "tags": {"building": "yes", "source": "microsoft/BuildingFootprints"}}}, {"type": "Feature", "geometry": {"type": "Polygon", "coordinates": [[[-95.9183094, 36.1146612], [-95.9183223, 36.1147052], [-95.918401, 36.1146901], [-95.9184092, 36.1147179], [-95.9184992, 36.1147006], [-95.9184754, 36.1146195], [-95.9185109, 36.1146126], [-95.9184763, 36.1144948], [-95.9183685, 36.1145155], [-95.9184059, 36.1146427], [-95.9183094, 36.1146612]]]}, "properties": {"osm_id": 1116299393, "building": "yes", "name": "", "height": null, "height_m": null, "levels": null, "tract_id": "40143007000", "tract_name": "70", "tags": {"building": "yes", "source": "microsoft/BuildingFootprints"}}}, {"type": "Feature", "geometry": {"type": "Polygon", "coordinates": [[[-95.9183733, 36.11395], [-95.9182714, 36.1139516], [-95.9182752, 36.1141119], [-95.9184066, 36.1141099], [-95.9184046, 36.1140275], [-95.9183751, 36.114028], [-95.9183733, 36.11395]]]}, "properties": {"osm_id": 1116299394, "building": "yes", "name": "", "height": null, "height_m": null, "levels": null, "tract_id": "40143007000", "tract_name": "70", "tags": {"building": "yes", "source": "microsoft/BuildingFootprints"}}}, {"type": "Feature", "geometry": {"type": "Polygon", "coordinates": [[[-95.9182667, 36.113768], [-95.9182675, 36.1137962], [-95.91823, 36.1137968], [-95.9182317, 36.1138584], [-95.9182731, 36.1138577], [-95.9182743, 36.1139], [-95.9183816, 36.1138981], [-95.9183778, 36.1137659], [-95.9182667, 36.113768]]]}, "properties": {"osm_id": 1116299395, "building": "yes", "name": "", "height": null, "height_m": null, "levels": null, "tract_id": "40143007000", "tract_name": "70", "tags": {"building": "yes", "source": "microsoft/BuildingFootprints"}}}, {"type": "Feature", "geometry": {"type": "Polygon", "coordinates": [[[-95.9174524, 36.1145234], [-95.9175945, 36.1145249], [-95.9175958, 36.1144503], [-95.917628, 36.1144506], [-95.917629, 36.1143866], [-95.9175727, 36.114386], [-95.9175732, 36.1143525], [-95.9174633, 36.1143513], [-95.9174615, 36.1144607], [-95.9174534, 36.1144606], [-95.9174524, 36.1145234]]]}, "properties": {"osm_id": 1116299396, "building": "yes", "name": "", "height": null, "height_m": null, "levels": null, "tract_id": "40143007000", "tract_name": "70", "tags": {"building": "yes", "source": "microsoft/BuildingFootprints"}}}, {"type": "Feature", "geometry": {"type": "Polygon", "coordinates": [[[-95.9175164, 36.1142993], [-95.9176236, 36.1142972], [-95.9176178, 36.1141045], [-95.9175106, 36.1141066], [-95.9175164, 36.1142993]]]}, "properties": {"osm_id": 1116299397, "building": "yes", "name": "", "height": null, "height_m": null, "levels": null, "tract_id": "40143007000", "tract_name": "70", "tags": {"building": "yes", "source": "microsoft/BuildingFootprints"}}}, {"type": "Feature", "geometry": {"type": "Polygon", "coordinates": [[[-95.9176217, 36.1137783], [-95.9175773, 36.113778], [-95.9175778, 36.1137303], [-95.9174947, 36.1137297], [-95.9174933, 36.113851], [-95.9175362, 36.1138513], [-95.9175353, 36.1139293], [-95.9176614, 36.1139303], [-95.917662, 36.1138718], [-95.9176206, 36.1138715], [-95.9176217, 36.1137783]]]}, "properties": {"osm_id": 1116299398, "building": "yes", "name": "", "height": null, "height_m": null, "levels": null, "tract_id": "40143007000", "tract_name": "70", "tags": {"building": "yes", "source": "microsoft/BuildingFootprints"}}}, {"type": "Feature", "geometry": {"type": "Polygon", "coordinates": [[[-95.9178791, 36.1138317], [-95.9178991, 36.113832], [-95.9178999, 36.1137985], [-95.9178276, 36.1137973], [-95.9178266, 36.1138319], [-95.9177918, 36.1138313], [-95.9177896, 36.1139158], [-95.9178769, 36.1139173], [-95.9178791, 36.1138317]]]}, "properties": {"osm_id": 1116299399, "building": "yes", "name": "", "height": null, "height_m": null, "levels": null, "tract_id": "40143007000", "tract_name": "70", "tags": {"building": "yes", "source": "microsoft/BuildingFootprints"}}}, {"type": "Feature", "geometry": {"type": "Polygon", "coordinates": [[[-95.9181768, 36.1136333], [-95.9183873, 36.113628], [-95.918384, 36.1135414], [-95.9181187, 36.1135481], [-95.9181205, 36.1135935], [-95.9181752, 36.1135921], [-95.9181768, 36.1136333]]]}, "properties": {"osm_id": 1116299400, "building": "detached", "name": "", "height": null, "height_m": null, "levels": null, "tract_id": "40143007000", "tract_name": "70", "tags": {"addr:city": "Tulsa", "addr:country": "US", "addr:housenumber": "5309", "addr:postcode": "74135", "addr:state": "OK", "addr:street": "East 35th Street South", "building": "detached"}}}, {"type": "Feature", "geometry": {"type": "Polygon", "coordinates": [[[-95.9177177, 36.1136648], [-95.9177191, 36.1135878], [-95.91768, 36.1135873], [-95.9176805, 36.1135592], [-95.9174981, 36.1135571], [-95.9174963, 36.1136633], [-95.9176131, 36.1136646], [-95.9176128, 36.1136831], [-95.9176611, 36.1136836], [-95.9176614, 36.1136641], [-95.9177177, 36.1136648]]]}, "properties": {"osm_id": 1116299401, "building": "detached", "name": "", "height": null, "height_m": null, "levels": null, "tract_id": "40143007000", "tract_name": "70", "tags": {"building": "detached", "source": "microsoft/BuildingFootprints"}}}, {"type": "Feature", "geometry": {"type": "Polygon", "coordinates": [[[-95.9173529, 36.1147284], [-95.917316, 36.1148046], [-95.9173986, 36.1148307], [-95.9174295, 36.1147668], [-95.9173935, 36.1147554], [-95.9174435, 36.114652], [-95.9173714, 36.1146292], [-95.9173273, 36.1147203], [-95.9173529, 36.1147284]]]}, "properties": {"osm_id": 1116299402, "building": "yes", "name": "", "height": null, "height_m": null, "levels": null, "tract_id": "40143007000", "tract_name": "70", "tags": {"building": "yes", "source": "microsoft/BuildingFootprints"}}}, {"type": "Feature", "geometry": {"type": "Polygon", "coordinates": [[[-95.9170831, 36.1149835], [-95.9170691, 36.1149676], [-95.9169959, 36.1150095], [-95.9171098, 36.1151393], [-95.9172455, 36.1150617], [-95.917231, 36.1150451], [-95.9172899, 36.1150114], [-95.9172045, 36.114914], [-95.9170831, 36.1149835]]]}, "properties": {"osm_id": 1116299403, "building": "yes", "name": "", "height": null, "height_m": null, "levels": null, "tract_id": "40143007000", "tract_name": "70", "tags": {"building": "yes", "source": "microsoft/BuildingFootprints"}}}, {"type": "Feature", "geometry": {"type": "Polygon", "coordinates": [[[-95.9167329, 36.1152836], [-95.9168012, 36.1153657], [-95.9168113, 36.1153602], [-95.9168324, 36.1153856], [-95.9168833, 36.115358], [-95.9168479, 36.1153155], [-95.9170114, 36.1152267], [-95.9169573, 36.1151617], [-95.9167329, 36.1152836]]]}, "properties": {"osm_id": 1116299404, "building": "yes", "name": "", "height": null, "height_m": null, "levels": null, "tract_id": "40143007000", "tract_name": "70", "tags": {"building": "yes", "source": "microsoft/BuildingFootprints"}}}, {"type": "Feature", "geometry": {"type": "Polygon", "coordinates": [[[-95.916487, 36.1153565], [-95.916586, 36.1154525], [-95.9167396, 36.1153491], [-95.9166406, 36.1152532], [-95.916487, 36.1153565]]]}, "properties": {"osm_id": 1116299405, "building": "yes", "name": "", "height": null, "height_m": null, "levels": null, "tract_id": "40143007000", "tract_name": "70", "tags": {"building": "yes", "source": "microsoft/BuildingFootprints"}}}, {"type": "Feature", "geometry": {"type": "Polygon", "coordinates": [[[-95.9174595, 36.1153082], [-95.9174053, 36.1152222], [-95.9171965, 36.115308], [-95.9172485, 36.1153906], [-95.9172869, 36.1153749], [-95.9173161, 36.1154213], [-95.9173779, 36.1153959], [-95.9173508, 36.1153529], [-95.9174595, 36.1153082]]]}, "properties": {"osm_id": 1116299406, "building": "yes", "name": "", "height": null, "height_m": null, "levels": null, "tract_id": "40143007000", "tract_name": "70", "tags": {"addr:city": "Tulsa", "addr:country": "US", "addr:housenumber": "5336", "addr:postcode": "74135", "addr:state": "OK", "addr:street": "East 33rd Street South", "building": "yes", "source": "microsoft/BuildingFootprints;INCOG"}}}, {"type": "Feature", "geometry": {"type": "Polygon", "coordinates": [[[-95.9175716, 36.1150943], [-95.9176278, 36.1151967], [-95.9177197, 36.1151638], [-95.9177346, 36.115191], [-95.9178243, 36.1151589], [-95.9177532, 36.1150293], [-95.9175716, 36.1150943]]]}, "properties": {"osm_id": 1116299407, "building": "yes", "name": "", "height": null, "height_m": null, "levels": null, "tract_id": "40143007000", "tract_name": "70", "tags": {"addr:city": "Tulsa", "addr:country": "US", "addr:housenumber": "5326", "addr:postcode": "74135", "addr:state": "OK", "addr:street": "East 33rd Street South", "building": "yes", "source": "microsoft/BuildingFootprints;INCOG"}}}, {"type": "Feature", "geometry": {"type": "Polygon", "coordinates": [[[-95.9182582, 36.1149391], [-95.9181674, 36.1149552], [-95.9181747, 36.114982], [-95.9179802, 36.1150165], [-95.9180063, 36.1151127], [-95.9182916, 36.1150622], [-95.9182582, 36.1149391]]]}, "properties": {"osm_id": 1116299408, "building": "yes", "name": "", "height": null, "height_m": null, "levels": null, "tract_id": "40143007000", "tract_name": "70", "tags": {"addr:city": "Tulsa", "addr:country": "US", "addr:housenumber": "5318", "addr:postcode": "74135", "addr:state": "OK", "addr:street": "East 33rd Street South", "building": "yes", "source": "microsoft/BuildingFootprints;INCOG"}}}, {"type": "Feature", "geometry": {"type": "Polygon", "coordinates": [[[-95.9209482, 36.114887], [-95.9208932, 36.1148865], [-95.9208938, 36.1148454], [-95.9208334, 36.1148449], [-95.9208329, 36.1148774], [-95.9207834, 36.1148769], [-95.9207819, 36.1149861], [-95.9208825, 36.1149869], [-95.9208822, 36.1150056], [-95.9209466, 36.1150062], [-95.9209482, 36.114887]]]}, "properties": {"osm_id": 1116299409, "building": "yes", "name": "", "height": null, "height_m": null, "levels": null, "tract_id": "40143007000", "tract_name": "70", "tags": {"addr:city": "Tulsa", "addr:country": "US", "addr:housenumber": "5002", "addr:postcode": "74135", "addr:state": "OK", "addr:street": "East 33rd Street South", "building": "yes", "source": "microsoft/BuildingFootprints;INCOG"}}}, {"type": "Feature", "geometry": {"type": "Polygon", "coordinates": [[[-95.9207066, 36.1149213], [-95.9204546, 36.1149253], [-95.9204567, 36.1150085], [-95.9206068, 36.1150061], [-95.9206067, 36.1150017], [-95.9207086, 36.1150001], [-95.9207066, 36.1149213]]]}, "properties": {"osm_id": 1116299410, "building": "yes", "name": "", "height": null, "height_m": null, "levels": null, "tract_id": "40143007000", "tract_name": "70", "tags": {"addr:city": "Tulsa", "addr:country": "US", "addr:housenumber": "5012", "addr:postcode": "74135", "addr:state": "OK", "addr:street": "East 33rd Street South", "building": "yes", "source": "microsoft/BuildingFootprints;INCOG"}}}, {"type": "Feature", "geometry": {"type": "Polygon", "coordinates": [[[-95.9203497, 36.114889], [-95.9203108, 36.1148886], [-95.9203119, 36.1148301], [-95.9201576, 36.1148283], [-95.9201565, 36.1148898], [-95.9201217, 36.1148894], [-95.9201197, 36.1149977], [-95.9203477, 36.1150003], [-95.9203497, 36.114889]]]}, "properties": {"osm_id": 1116299411, "building": "yes", "name": "", "height": null, "height_m": null, "levels": null, "tract_id": "40143007000", "tract_name": "70", "tags": {"addr:city": "Tulsa", "addr:country": "US", "addr:housenumber": "5020", "addr:postcode": "74135", "addr:state": "OK", "addr:street": "East 33rd Street South", "building": "yes", "source": "microsoft/BuildingFootprints;INCOG"}}}, {"type": "Feature", "geometry": {"type": "Polygon", "coordinates": [[[-95.9201414, 36.1145163], [-95.9203221, 36.1145209], [-95.9203254, 36.1144386], [-95.9203548, 36.1144394], [-95.9203585, 36.1143455], [-95.9201483, 36.1143401], [-95.9201414, 36.1145163]]]}, "properties": {"osm_id": 1116299412, "building": "detached", "name": "", "height": null, "height_m": null, "levels": null, "tract_id": "40143007000", "tract_name": "70", "tags": {"addr:city": "Tulsa", "addr:country": "US", "addr:housenumber": "3355", "addr:postcode": "74135", "addr:state": "OK", "addr:street": "South Braden Avenue East", "building": "detached"}}}, {"type": "Feature", "geometry": {"type": "Polygon", "coordinates": [[[-95.9206229, 36.1146518], [-95.9206241, 36.1146184], [-95.9205786, 36.1146174], [-95.9205751, 36.1147157], [-95.9207371, 36.1147194], [-95.9207394, 36.1146544], [-95.9206229, 36.1146518]]]}, "properties": {"osm_id": 1116299413, "building": "yes", "name": "", "height": null, "height_m": null, "levels": null, "tract_id": "40143007000", "tract_name": "70", "tags": {"building": "yes", "source": "microsoft/BuildingFootprints"}}}, {"type": "Feature", "geometry": {"type": "Polygon", "coordinates": [[[-95.9208433, 36.1144753], [-95.9206583, 36.1144763], [-95.9206586, 36.1145195], [-95.9206596, 36.1146396], [-95.9208446, 36.1146386], [-95.9208433, 36.1144753]]]}, "properties": {"osm_id": 1116299414, "building": "detached", "name": "", "height": null, "height_m": null, "levels": null, "tract_id": "40143007000", "tract_name": "70", "tags": {"addr:city": "Tulsa", "addr:country": "US", "addr:housenumber": "3317", "addr:postcode": "74135", "addr:state": "OK", "addr:street": "South Allegheny Avenue East", "building": "detached"}}}, {"type": "Feature", "geometry": {"type": "Polygon", "coordinates": [[[-95.9207327, 36.1141096], [-95.9207343, 36.1142071], [-95.920658, 36.1142079], [-95.9206577, 36.1141884], [-95.9205999, 36.114189], [-95.9206016, 36.1142952], [-95.9206606, 36.1142946], [-95.9206601, 36.1142621], [-95.9207351, 36.1142613], [-95.9207365, 36.1143436], [-95.9208035, 36.1143429], [-95.9208019, 36.1142454], [-95.9208368, 36.1142451], [-95.9208354, 36.1141605], [-95.9208346, 36.1141086], [-95.9207327, 36.1141096]]]}, "properties": {"osm_id": 1116299415, "building": "detached", "name": "", "height": null, "height_m": null, "levels": null, "tract_id": "40143007000", "tract_name": "70", "tags": {"addr:city": "Tulsa", "addr:country": "US", "addr:housenumber": "3333", "addr:postcode": "74135", "addr:state": "OK", "addr:street": "South Allegheny Avenue East", "building": "detached"}}}, {"type": "Feature", "geometry": {"type": "Polygon", "coordinates": [[[-95.921406, 36.1140198], [-95.9215347, 36.1140176], [-95.921533, 36.1139569], [-95.9214902, 36.1139577], [-95.9214876, 36.1138645], [-95.9213858, 36.1138663], [-95.9213889, 36.1139811], [-95.9214049, 36.1139808], [-95.921406, 36.1140198]]]}, "properties": {"osm_id": 1116299416, "building": "detached", "name": "", "height": null, "height_m": null, "levels": null, "tract_id": "40143007000", "tract_name": "70", "tags": {"addr:city": "Tulsa", "addr:country": "US", "addr:housenumber": "3336", "addr:postcode": "74135", "addr:state": "OK", "addr:street": "South Allegheny Avenue East", "building": "detached"}}}, {"type": "Feature", "geometry": {"type": "Polygon", "coordinates": [[[-95.9215966, 36.1140077], [-95.9215958, 36.1140388], [-95.9215047, 36.1140374], [-95.9215034, 36.1140886], [-95.921667, 36.1140912], [-95.921669, 36.1140089], [-95.9215966, 36.1140077]]]}, "properties": {"osm_id": 1116299417, "building": "detached", "name": "", "height": null, "height_m": null, "levels": null, "tract_id": "40143007000", "tract_name": "70", "tags": {"building": "detached", "source": "microsoft/BuildingFootprints"}}}, {"type": "Feature", "geometry": {"type": "Polygon", "coordinates": [[[-95.9213852, 36.1141652], [-95.9213847, 36.1142745], [-95.9214036, 36.1142746], [-95.9214034, 36.1143103], [-95.9215115, 36.1143107], [-95.9215118, 36.1142422], [-95.9215387, 36.1142422], [-95.9215391, 36.1141657], [-95.9213852, 36.1141652]]]}, "properties": {"osm_id": 1116299418, "building": "detached", "name": "", "height": null, "height_m": null, "levels": null, "tract_id": "40143007000", "tract_name": "70", "tags": {"addr:city": "Tulsa", "addr:country": "US", "addr:housenumber": "3330", "addr:postcode": "74135", "addr:state": "OK", "addr:street": "South Allegheny Avenue East", "building": "detached"}}}, {"type": "Feature", "geometry": {"type": "Polygon", "coordinates": [[[-95.9215618, 36.114189], [-95.9216631, 36.1141845], [-95.9216609, 36.1141293], [-95.9215595, 36.1141327], [-95.9215618, 36.114189]]]}, "properties": {"osm_id": 1116299419, "building": "shed", "name": "", "height": null, "height_m": null, "levels": null, "tract_id": "40143007000", "tract_name": "70", "tags": {"building": "shed", "source": "microsoft/BuildingFootprints"}}}, {"type": "Feature", "geometry": {"type": "Polygon", "coordinates": [[[-95.921518, 36.1143458], [-95.9214044, 36.1143459], [-95.9214046, 36.114501], [-95.9214992, 36.1145009], [-95.9214991, 36.1144435], [-95.9215493, 36.1144435], [-95.9215493, 36.1144094], [-95.9215181, 36.1144094], [-95.921518, 36.1143458]]]}, "properties": {"osm_id": 1116299420, "building": "detached", "name": "", "height": null, "height_m": null, "levels": null, "tract_id": "40143007000", "tract_name": "70", "tags": {"addr:city": "Tulsa", "addr:country": "US", "addr:housenumber": "3324", "addr:postcode": "74135", "addr:state": "OK", "addr:street": "South Allegheny Avenue East", "building": "detached"}}}, {"type": "Feature", "geometry": {"type": "Polygon", "coordinates": [[[-95.9214259, 36.1145455], [-95.9214242, 36.1146373], [-95.921392, 36.1146369], [-95.9213908, 36.1147011], [-95.9215865, 36.1147035], [-95.9215895, 36.1145475], [-95.9214259, 36.1145455]]]}, "properties": {"osm_id": 1116299421, "building": "detached", "name": "", "height": null, "height_m": null, "levels": null, "tract_id": "40143007000", "tract_name": "70", "tags": {"addr:city": "Tulsa", "addr:country": "US", "addr:housenumber": "3318", "addr:postcode": "74135", "addr:state": "OK", "addr:street": "South Allegheny Avenue East", "building": "detached"}}}, {"type": "Feature", "geometry": {"type": "Polygon", "coordinates": [[[-95.9213869, 36.1149057], [-95.9215291, 36.1149066], [-95.9215299, 36.1148098], [-95.9214804, 36.1148096], [-95.9214808, 36.1147597], [-95.9213882, 36.1147592], [-95.9213869, 36.1149057]]]}, "properties": {"osm_id": 1116299422, "building": "detached", "name": "", "height": null, "height_m": null, "levels": null, "tract_id": "40143007000", "tract_name": "70", "tags": {"addr:city": "Tulsa", "addr:country": "US", "addr:housenumber": "3312", "addr:postcode": "74135", "addr:state": "OK", "addr:street": "South Allegheny Avenue East", "building": "detached"}}}, {"type": "Feature", "geometry": {"type": "Polygon", "coordinates": [[[-95.9217557, 36.1140844], [-95.9217606, 36.1144926], [-95.9220203, 36.1144905], [-95.9220187, 36.1143583], [-95.9220051, 36.1143584], [-95.9220033, 36.1142024], [-95.9220149, 36.1142023], [-95.9220134, 36.1140823], [-95.9217557, 36.1140844]]]}, "properties": {"osm_id": 1116299423, "building": "office", "name": "", "height": null, "height_m": 3.0, "levels": 1, "tract_id": "40143007000", "tract_name": "70", "tags": {"addr:city": "Tulsa", "addr:country": "US", "addr:housenumber": "3315", "addr:postcode": "74135", "addr:state": "OK", "addr:street": "South Yale Avenue East", "building": "office", "building:colour": "brown", "building:levels": "1", "roof:colour": "lightgrey", "roof:levels": "0", "roof:shape": "hipped"}}}, {"type": "Feature", "geometry": {"type": "Polygon", "coordinates": [[[-95.9220646, 36.1145741], [-95.9218742, 36.1145774], [-95.9218772, 36.11469], [-95.9220675, 36.1146868], [-95.9220646, 36.1145741]]]}, "properties": {"osm_id": 1116299424, "building": "detached", "name": "", "height": null, "height_m": 3.0, "levels": 1, "tract_id": "40143007000", "tract_name": "70", "tags": {"addr:city": "Tulsa", "addr:country": "US", "addr:housenumber": "3309", "addr:postcode": "74135", "addr:state": "OK", "addr:street": "South Yale Avenue East", "building": "detached", "building:colour": "white", "building:levels": "1", "disused:healthcare": "midwife", "roof:colour": "#938870", "roof:levels": "0", "roof:shape": "gabled"}}}, {"type": "Feature", "geometry": {"type": "Polygon", "coordinates": [[[-95.9219044, 36.1148887], [-95.9219327, 36.1148887], [-95.9219327, 36.1149759], [-95.9219506, 36.1149876], [-95.9220257, 36.1149876], [-95.9220256, 36.1148913], [-95.922037, 36.1148913], [-95.922037, 36.1148131], [-95.9219043, 36.1148132], [-95.9219044, 36.1148887]]]}, "properties": {"osm_id": 1116299425, "building": "retail", "name": "", "height": null, "height_m": 3.0, "levels": 1, "tract_id": "40143007000", "tract_name": "70", "tags": {"addr:housenumber": "3303", "addr:street": "South Yale Avenue East", "building": "retail", "building:colour": "white", "building:levels": "1", "roof:levels": "0", "roof:shape": "flat", "shop": "vacant"}}}, {"type": "Feature", "geometry": {"type": "Polygon", "coordinates": [[[-95.9220808, 36.1137064], [-95.922082, 36.1134825], [-95.9218972, 36.1134819], [-95.921899, 36.1131775], [-95.9217662, 36.113177], [-95.9217637, 36.1136187], [-95.921875, 36.1137056], [-95.9220808, 36.1137064]]]}, "properties": {"osm_id": 1116299426, "building": "office", "name": "Hospice of Green Country", "height": null, "height_m": 3.0, "levels": 1, "tract_id": "40143007000", "tract_name": "70", "tags": {"addr:city": "Tulsa", "addr:country": "US", "addr:housenumber": "3501", "addr:postcode": "74135", "addr:state": "OK", "addr:street": "South Yale Avenue East", "building": "office", "building:colour": "white", "building:levels": "1", "check_date": "2024-11-29", "healthcare": "hospice", "name": "Hospice of Green Country", "roof:colour": "grey", "roof:levels": "0", "roof:shape": "hipped", "website": "https://www.hospiceofgreencountry.org/", "wheelchair": "yes"}}}, {"type": "Feature", "geometry": {"type": "Polygon", "coordinates": [[[-95.9215308, 36.1135889], [-95.9215925, 36.113588], [-95.9215908, 36.1135057], [-95.9213977, 36.1135083], [-95.9214013, 36.1136773], [-95.9215326, 36.1136755], [-95.9215308, 36.1135889]]]}, "properties": {"osm_id": 1116299427, "building": "detached", "name": "", "height": null, "height_m": null, "levels": null, "tract_id": "40143007000", "tract_name": "70", "tags": {"addr:city": "Tulsa", "addr:country": "US", "addr:housenumber": "3350", "addr:postcode": "74135", "addr:state": "OK", "addr:street": "South Allegheny Avenue East", "building": "detached"}}}, {"type": "Feature", "geometry": {"type": "Polygon", "coordinates": [[[-95.9216379, 36.1134794], [-95.9216368, 36.1133581], [-95.9215751, 36.1133585], [-95.9215746, 36.1133065], [-95.921454, 36.1133073], [-95.9214549, 36.1134091], [-95.9213584, 36.1134097], [-95.9213591, 36.1134811], [-95.9216379, 36.1134794]]]}, "properties": {"osm_id": 1116299428, "building": "detached", "name": "", "height": null, "height_m": null, "levels": null, "tract_id": "40143007000", "tract_name": "70", "tags": {"addr:city": "Tulsa", "addr:country": "US", "addr:housenumber": "3360", "addr:postcode": "74135", "addr:state": "OK", "addr:street": "South Allegheny Avenue East", "building": "detached"}}}, {"type": "Feature", "geometry": {"type": "Polygon", "coordinates": [[[-95.9215522, 36.1131355], [-95.9215323, 36.1131223], [-95.9214484, 36.1132046], [-95.9214959, 36.1132363], [-95.9215068, 36.1132256], [-95.9215376, 36.1132461], [-95.9215317, 36.1132518], [-95.9215489, 36.1132633], [-95.921593, 36.1132645], [-95.9216101, 36.1132326], [-95.9216003, 36.113226], [-95.9216338, 36.1131934], [-95.9216236, 36.1131866], [-95.9217136, 36.1130989], [-95.9217048, 36.1130931], [-95.9217179, 36.1130803], [-95.9216956, 36.1130654], [-95.9217149, 36.1130466], [-95.9216722, 36.1130181], [-95.9215522, 36.1131355]]]}, "properties": {"osm_id": 1116299429, "building": "detached", "name": "", "height": null, "height_m": null, "levels": null, "tract_id": "40143007000", "tract_name": "70", "tags": {"addr:city": "Tulsa", "addr:country": "US", "addr:housenumber": "3364", "addr:postcode": "74135", "addr:state": "OK", "addr:street": "South Allegheny Avenue East", "building": "detached"}}}, {"type": "Feature", "geometry": {"type": "Polygon", "coordinates": [[[-95.9221603, 36.1129467], [-95.9219831, 36.1129457], [-95.9219828, 36.1129782], [-95.9217851, 36.1129771], [-95.921784, 36.113099], [-95.921967, 36.1131001], [-95.9219667, 36.1131304], [-95.9220805, 36.113131], [-95.9220802, 36.1131545], [-95.9221584, 36.113155], [-95.9221603, 36.1129467]]]}, "properties": {"osm_id": 1116299430, "building": "detached", "name": "", "height": null, "height_m": 3.0, "levels": 1, "tract_id": "40143007000", "tract_name": "70", "tags": {"addr:city": "Tulsa", "addr:country": "US", "addr:housenumber": "3366", "addr:postcode": "74135", "addr:state": "OK", "addr:street": "South Allegheny Avenue East", "building": "detached", "building:colour": "tan", "building:levels": "1", "roof:colour": "white", "roof:levels": "0", "roof:shape": "gabled", "source": "microsoft/BuildingFootprints"}}}, {"type": "Feature", "geometry": {"type": "Polygon", "coordinates": [[[-95.9193825, 36.1154328], [-95.9192256, 36.1154347], [-95.9192272, 36.1155204], [-95.9192057, 36.1155207], [-95.9192065, 36.1155627], [-95.9193594, 36.1155609], [-95.9193581, 36.1154894], [-95.9193836, 36.1154891], [-95.9193825, 36.1154328]]]}, "properties": {"osm_id": 1116299431, "building": "yes", "name": "", "height": null, "height_m": null, "levels": null, "tract_id": "40143007000", "tract_name": "70", "tags": {"building": "yes", "source": "microsoft/BuildingFootprints"}}}, {"type": "Feature", "geometry": {"type": "Polygon", "coordinates": [[[-95.9218164, 36.1080732], [-95.9218152, 36.1081338], [-95.9218662, 36.1081345], [-95.9218641, 36.1082385], [-95.9220143, 36.1082404], [-95.9220176, 36.1080758], [-95.9218164, 36.1080732]]]}, "properties": {"osm_id": 1145692772, "building": "detached", "name": "", "height": null, "height_m": 3.0, "levels": 1, "tract_id": "40143007000", "tract_name": "70", "tags": {"addr:city": "Tulsa", "addr:country": "US", "addr:housenumber": "3775", "addr:postcode": "74135", "addr:state": "OK", "addr:street": "South Yale Avenue East", "building": "detached", "building:colour": "brown", "building:levels": "1", "roof:colour": "#938870", "roof:levels": "0", "roof:shape": "gabled"}}}, {"type": "Feature", "geometry": {"type": "Polygon", "coordinates": [[[-95.9220187, 36.1078927], [-95.9218256, 36.1078907], [-95.9218238, 36.1080012], [-95.9219097, 36.108002], [-95.9219088, 36.1080562], [-95.9220161, 36.1080573], [-95.9220187, 36.1078927]]]}, "properties": {"osm_id": 1145692773, "building": "detached", "name": "", "height": null, "height_m": 3.0, "levels": 1, "tract_id": "40143007000", "tract_name": "70", "tags": {"addr:city": "Tulsa", "addr:country": "US", "addr:housenumber": "3779", "addr:postcode": "74135", "addr:state": "OK", "addr:street": "South Yale Avenue East", "building": "detached", "building:colour": "brown", "building:levels": "1", "roof:colour": "#938870", "roof:levels": "0", "roof:shape": "gabled"}}}, {"type": "Feature", "geometry": {"type": "Polygon", "coordinates": [[[-95.921911, 36.1074363], [-95.921872, 36.1073013], [-95.9217266, 36.1073288], [-95.9217083, 36.1072656], [-95.9216309, 36.1072803], [-95.9216782, 36.1074437], [-95.9217519, 36.1074297], [-95.9217473, 36.1074139], [-95.9218039, 36.1074032], [-95.9218185, 36.1074538], [-95.921911, 36.1074363]]]}, "properties": {"osm_id": 1145692774, "building": "detached", "name": "", "height": null, "height_m": 3.0, "levels": 1, "tract_id": "40143007000", "tract_name": "70", "tags": {"addr:city": "Tulsa", "addr:country": "US", "addr:housenumber": "4910", "addr:postcode": "74135", "addr:state": "OK", "addr:street": "East 38th Place South", "building": "detached", "building:levels": "1", "roof:levels": "0", "roof:shape": "gabled"}}}, {"type": "Feature", "geometry": {"type": "Polygon", "coordinates": [[[-95.9218184, 36.1077022], [-95.921821, 36.1077729], [-95.9218813, 36.1077714], [-95.9218849, 36.107871], [-95.9220055, 36.1078682], [-95.9219994, 36.1076979], [-95.9218184, 36.1077022]]]}, "properties": {"osm_id": 1145692775, "building": "detached", "name": "", "height": null, "height_m": 3.0, "levels": 1, "tract_id": "40143007000", "tract_name": "70", "tags": {"addr:city": "Tulsa", "addr:country": "US", "addr:housenumber": "3787", "addr:postcode": "74135", "addr:state": "OK", "addr:street": "South Yale Avenue East", "building": "detached", "building:colour": "brown", "building:levels": "1", "roof:colour": "grey", "roof:levels": "0", "roof:shape": "gabled"}}}, {"type": "Feature", "geometry": {"type": "Polygon", "coordinates": [[[-95.9219836, 36.1073652], [-95.9219863, 36.1074475], [-95.9221646, 36.1074436], [-95.9221592, 36.1072812], [-95.9220748, 36.107283], [-95.9220774, 36.1073632], [-95.9219836, 36.1073652]]]}, "properties": {"osm_id": 1145692776, "building": "detached", "name": "", "height": null, "height_m": 3.0, "levels": 1, "tract_id": "40143007000", "tract_name": "70", "tags": {"addr:city": "Tulsa", "addr:country": "US", "addr:housenumber": "4906", "addr:postcode": "74135", "addr:state": "OK", "addr:street": "East 38th Place South", "building": "detached", "building:colour": "brown", "building:levels": "1", "roof:colour": "grey", "roof:levels": "0", "roof:shape": "gabled"}}}, {"type": "Feature", "geometry": {"type": "Polygon", "coordinates": [[[-95.9222186, 36.1184451], [-95.9222149, 36.1185167], [-95.9220982, 36.1185172], [-95.9220681, 36.1185421], [-95.9219158, 36.1185411], [-95.9219134, 36.1184463], [-95.9222186, 36.1184451]]]}, "properties": {"osm_id": 1146054870, "building": "retail", "name": "", "height": null, "height_m": 3.0, "levels": 1, "tract_id": "40143007000", "tract_name": "70", "tags": {"addr:city": "Tulsa", "addr:country": "US", "addr:housenumber": "3101", "addr:postcode": "74135", "addr:state": "OK", "addr:street": "South Yale Avenue East", "building": "retail", "building:colour": "tan", "building:levels": "1", "disused:office": "accountant", "roof:levels": "0", "roof:shape": "flat"}}}, {"type": "Feature", "geometry": {"type": "Polygon", "coordinates": [[[-95.9214827, 36.1180747], [-95.9214793, 36.1178374], [-95.9217782, 36.1178347], [-95.9217799, 36.1179554], [-95.921634, 36.1179568], [-95.9216356, 36.1180733], [-95.9214827, 36.1180747]]]}, "properties": {"osm_id": 1146054872, "building": "yes", "name": "State Farm", "height": null, "height_m": null, "levels": null, "tract_id": "40143007000", "tract_name": "70", "tags": {"addr:city": "Tulsa", "addr:country": "US", "addr:housenumber": "3125", "addr:postcode": "74135", "addr:state": "OK", "addr:street": "South Yale Avenue East", "brand": "State Farm", "brand:wikidata": "Q2007336", "building": "yes", "check_date": "2024-05-29", "name": "State Farm", "office": "insurance", "phone": "+1 918 742 3131"}}}, {"type": "Feature", "geometry": {"type": "Polygon", "coordinates": [[[-95.9219463, 36.1180171], [-95.9221244, 36.1180177], [-95.9221251, 36.1178798], [-95.9219427, 36.1178793], [-95.9219425, 36.1179131], [-95.9218755, 36.1179129], [-95.9218751, 36.1179896], [-95.9219464, 36.1179898], [-95.9219463, 36.1180171]]]}, "properties": {"osm_id": 1146054947, "building": "retail", "name": "Livi Lee & Company", "height": null, "height_m": 3.0, "levels": 1, "tract_id": "40143007000", "tract_name": "70", "tags": {"addr:city": "Tulsa", "addr:country": "US", "addr:housenumber": "3121", "addr:postcode": "74135", "addr:state": "OK", "addr:street": "South Yale Avenue East", "amenity": "fast_food", "building": "retail", "building:colour": "beige", "building:levels": "1", "cuisine": "donut", "indoor_seating": "yes", "name": "Livi Lee & Company", "opening_hours": "Mo-Sa 05:00-12:00+; Su 06:00-12:00+", "outdoor_seating": "no", "roof:colour": "aqua", "roof:levels": "0", "roof:shape": "quadruple_saltbox"}}}, {"type": "Feature", "geometry": {"type": "Polygon", "coordinates": [[[-95.9171062, 36.1063159], [-95.9171074, 36.1064083], [-95.9174716, 36.1064053], [-95.9174705, 36.1063129], [-95.9171062, 36.1063159]]]}, "properties": {"osm_id": 1187968277, "building": "retail", "name": "", "height": null, "height_m": null, "levels": null, "tract_id": "40143007000", "tract_name": "70", "tags": {"building": "retail", "shop": "vacant"}}}, {"type": "Feature", "geometry": {"type": "Polygon", "coordinates": [[[-95.9171051, 36.1062251], [-95.9171062, 36.1063159], [-95.9174705, 36.1063129], [-95.9174693, 36.1062221], [-95.9171051, 36.1062251]]]}, "properties": {"osm_id": 1187968278, "building": "retail", "name": "", "height": null, "height_m": null, "levels": null, "tract_id": "40143007000", "tract_name": "70", "tags": {"building": "retail", "hairdresser": "barber", "shop": "hairdresser"}}}, {"type": "Feature", "geometry": {"type": "Polygon", "coordinates": [[[-95.9171039, 36.106134], [-95.9171051, 36.1062251], [-95.9174693, 36.1062221], [-95.9174682, 36.106131], [-95.9171039, 36.106134]]]}, "properties": {"osm_id": 1187968279, "building": "retail", "name": "", "height": null, "height_m": null, "levels": null, "tract_id": "40143007000", "tract_name": "70", "tags": {"building": "retail", "shop": "vacant"}}}, {"type": "Feature", "geometry": {"type": "Polygon", "coordinates": [[[-95.9140624, 36.1058111], [-95.914062, 36.1056745], [-95.9138925, 36.1056758], [-95.9138925, 36.1058127], [-95.9140624, 36.1058111]]]}, "properties": {"osm_id": 1187968290, "building": "retail", "name": "", "height": null, "height_m": 3.0, "levels": 1, "tract_id": "40143007000", "tract_name": "70", "tags": {"building": "retail", "building:levels": "1", "shop": "yes"}}}, {"type": "Feature", "geometry": {"type": "Polygon", "coordinates": [[[-95.9140628, 36.1059477], [-95.9140624, 36.1058111], [-95.9138925, 36.1058127], [-95.9138924, 36.1059496], [-95.9140628, 36.1059477]]]}, "properties": {"osm_id": 1187968291, "building": "retail", "name": "", "height": null, "height_m": 3.0, "levels": 1, "tract_id": "40143007000", "tract_name": "70", "tags": {"building": "retail", "building:levels": "1", "shop": "yes"}}}, {"type": "Feature", "geometry": {"type": "Polygon", "coordinates": [[[-95.9140632, 36.1060843], [-95.9140628, 36.1059477], [-95.9138924, 36.1059496], [-95.9138924, 36.1060865], [-95.9140632, 36.1060843]]]}, "properties": {"osm_id": 1187968292, "building": "retail", "name": "", "height": null, "height_m": 3.0, "levels": 1, "tract_id": "40143007000", "tract_name": "70", "tags": {"building": "retail", "building:levels": "1", "shop": "yes"}}}, {"type": "Feature", "geometry": {"type": "Polygon", "coordinates": [[[-95.9140632, 36.1060843], [-95.9138924, 36.1060865], [-95.9138954, 36.1063628], [-95.9139447, 36.1063627], [-95.9139452, 36.1064148], [-95.9140642, 36.1064145], [-95.9140632, 36.1060843]]]}, "properties": {"osm_id": 1187968293, "building": "retail", "name": "", "height": null, "height_m": 3.0, "levels": 1, "tract_id": "40143007000", "tract_name": "70", "tags": {"building": "retail", "building:levels": "1", "shop": "yes"}}}, {"type": "Feature", "geometry": {"type": "Polygon", "coordinates": [[[-95.9138261, 36.1056764], [-95.9138257, 36.1055393], [-95.9136576, 36.1055382], [-95.913658, 36.1056758], [-95.9138261, 36.1056764]]]}, "properties": {"osm_id": 1187968294, "building": "retail", "name": "", "height": null, "height_m": 3.0, "levels": 1, "tract_id": "40143007000", "tract_name": "70", "tags": {"building": "retail", "building:levels": "1", "shop": "yes"}}}, {"type": "Feature", "geometry": {"type": "Polygon", "coordinates": [[[-95.9138265, 36.1058134], [-95.9138261, 36.1056764], [-95.913658, 36.1056758], [-95.9136584, 36.1058134], [-95.9138265, 36.1058134]]]}, "properties": {"osm_id": 1187968295, "building": "retail", "name": "", "height": null, "height_m": 3.0, "levels": 1, "tract_id": "40143007000", "tract_name": "70", "tags": {"building": "retail", "building:levels": "1", "shop": "yes"}}}, {"type": "Feature", "geometry": {"type": "Polygon", "coordinates": [[[-95.9138269, 36.1059505], [-95.9138265, 36.1058134], [-95.9136584, 36.1058134], [-95.9136588, 36.105951], [-95.9138269, 36.1059505]]]}, "properties": {"osm_id": 1187968296, "building": "retail", "name": "", "height": null, "height_m": 3.0, "levels": 1, "tract_id": "40143007000", "tract_name": "70", "tags": {"building": "retail", "building:levels": "1", "shop": "yes"}}}, {"type": "Feature", "geometry": {"type": "Polygon", "coordinates": [[[-95.9138277, 36.1061983], [-95.9138274, 36.1060876], [-95.9136591, 36.1060887], [-95.9136594, 36.1061991], [-95.9138277, 36.1061983]]]}, "properties": {"osm_id": 1187968297, "building": "retail", "name": "", "height": null, "height_m": 3.0, "levels": 1, "tract_id": "40143007000", "tract_name": "70", "tags": {"building": "retail", "building:levels": "1", "shop": "yes"}}}, {"type": "Feature", "geometry": {"type": "Polygon", "coordinates": [[[-95.913828, 36.1063089], [-95.9138277, 36.1061983], [-95.9136594, 36.1061991], [-95.9136598, 36.1063095], [-95.913828, 36.1063089]]]}, "properties": {"osm_id": 1187968298, "building": "retail", "name": "", "height": null, "height_m": 3.0, "levels": 1, "tract_id": "40143007000", "tract_name": "70", "tags": {"building": "retail", "building:levels": "1", "shop": "yes"}}}, {"type": "Feature", "geometry": {"type": "Polygon", "coordinates": [[[-95.9138274, 36.1060876], [-95.9138269, 36.1059505], [-95.9136588, 36.105951], [-95.9136591, 36.1060887], [-95.9138274, 36.1060876]]]}, "properties": {"osm_id": 1187968299, "building": "retail", "name": "", "height": null, "height_m": 3.0, "levels": 1, "tract_id": "40143007000", "tract_name": "70", "tags": {"building": "retail", "building:levels": "1", "shop": "yes"}}}, {"type": "Feature", "geometry": {"type": "Polygon", "coordinates": [[[-95.9138253, 36.1053995], [-95.9138249, 36.1052596], [-95.9136569, 36.10526], [-95.9136572, 36.1053991], [-95.9138253, 36.1053995]]]}, "properties": {"osm_id": 1187968300, "building": "retail", "name": "Desi Wok", "height": null, "height_m": 3.0, "levels": 1, "tract_id": "40143007000", "tract_name": "70", "tags": {"addr:city": "Tulsa", "addr:housenumber": "3966", "addr:postcode": "74135", "addr:state": "OK", "addr:street": "South Hudson Avenue", "amenity": "restaurant", "building": "retail", "building:levels": "1", "check_date": "2023-11-27", "cuisine": "indian", "email": "desiwoktulsa@gmail.com", "name": "Desi Wok", "opening_hours": "Mo-Su 11:00-21:00", "phone": "+1 918-621-6565", "website": "https://www.desiwok.net", "website:menu": "https://desiwok.net/menu/"}}}, {"type": "Feature", "geometry": {"type": "Polygon", "coordinates": [[[-95.9138257, 36.1055393], [-95.9138253, 36.1053995], [-95.9136572, 36.1053991], [-95.9136576, 36.1055382], [-95.9138257, 36.1055393]]]}, "properties": {"osm_id": 1187968301, "building": "retail", "name": "", "height": null, "height_m": 3.0, "levels": 1, "tract_id": "40143007000", "tract_name": "70", "tags": {"building": "retail", "building:levels": "1", "shop": "yes"}}}, {"type": "Feature", "geometry": {"type": "Polygon", "coordinates": [[[-95.9147466, 36.104925], [-95.9146365, 36.1049254], [-95.9146352, 36.104713], [-95.9147453, 36.1047126], [-95.9147466, 36.104925]]]}, "properties": {"osm_id": 1187968332, "building": "retail", "name": "AT&T", "height": null, "height_m": null, "levels": null, "tract_id": "40143007000", "tract_name": "70", "tags": {"addr:housenumber": "5505", "addr:street": "East 41st Street South", "brand": "AT&T", "brand:wikidata": "Q298594", "building": "retail", "check_date": "2023-11-27", "name": "AT&T", "opening_hours": "Mo-Sa 09:00-20:00; Su 11:00-18:00", "phone": "+1 918-270-2002", "shop": "mobile_phone", "wheelchair": "yes"}}}, {"type": "Feature", "geometry": {"type": "Polygon", "coordinates": [[[-95.9148563, 36.1049246], [-95.9147466, 36.104925], [-95.9147453, 36.1047126], [-95.914855, 36.1047122], [-95.9148563, 36.1049246]]]}, "properties": {"osm_id": 1187968333, "building": "retail", "name": "uBreakiFix", "height": null, "height_m": null, "levels": null, "tract_id": "40143007000", "tract_name": "70", "tags": {"addr:housenumber": "5503", "addr:street": "East 41st Street South", "brand": "uBreakiFix", "brand:wikidata": "Q53685733", "building": "retail", "check_date": "2023-11-27", "craft": "electronics_repair", "electronics_repair": "computer;phone", "name": "uBreakiFix", "opening_hours": "Mo-Fr 10:00-19:00; Sa-Su off", "phone": "+1 918-984-4584", "website": "https://www.ubreakifix.com/locations/tulsapromenade"}}}, {"type": "Feature", "geometry": {"type": "Polygon", "coordinates": [[[-95.9146383, 36.105218], [-95.9146365, 36.1049254], [-95.9147466, 36.104925], [-95.9148563, 36.1049246], [-95.9149045, 36.1049244], [-95.9149062, 36.105217], [-95.9146383, 36.105218]]]}, "properties": {"osm_id": 1187968334, "building": "retail", "name": "", "height": null, "height_m": null, "levels": null, "tract_id": "40143007000", "tract_name": "70", "tags": {"building": "retail", "shop": "yes"}}}, {"type": "Feature", "geometry": {"type": "Polygon", "coordinates": [[[-95.914966, 36.1049241], [-95.9149045, 36.1049244], [-95.9148563, 36.1049246], [-95.914855, 36.1047122], [-95.9149647, 36.1047117], [-95.914966, 36.1049241]]]}, "properties": {"osm_id": 1187968335, "building": "retail", "name": "Cool Greens", "height": null, "height_m": null, "levels": null, "tract_id": "40143007000", "tract_name": "70", "tags": {"addr:housenumber": "5501", "addr:street": "East 41st Street South", "amenity": "restaurant", "building": "retail", "check_date": "2023-11-27", "cuisine": "salad", "diet:vegan": "yes", "diet:vegetarian": "yes", "name": "Cool Greens", "opening_hours": "Mo-Sa 10:30-21:00; Su 10:30-19:00", "phone": "+1 918-878-7600", "website": "https://coolgreens.com/locations/ok-tulsa/"}}}, {"type": "Feature", "geometry": {"type": "Polygon", "coordinates": [[[-95.9149062, 36.105217], [-95.9149066, 36.1054895], [-95.9146382, 36.1054938], [-95.9146383, 36.105218], [-95.9149062, 36.105217]]]}, "properties": {"osm_id": 1187968336, "building": "retail", "name": "", "height": null, "height_m": null, "levels": null, "tract_id": "40143007000", "tract_name": "70", "tags": {"building": "retail", "shop": "yes"}}}, {"type": "Feature", "geometry": {"type": "Polygon", "coordinates": [[[-95.9146382, 36.1054938], [-95.9149066, 36.1054895], [-95.9149441, 36.1054895], [-95.9149449, 36.1057647], [-95.914639, 36.1057647], [-95.9146382, 36.1054938]]]}, "properties": {"osm_id": 1187968337, "building": "retail", "name": "", "height": null, "height_m": null, "levels": null, "tract_id": "40143007000", "tract_name": "70", "tags": {"building": "retail", "shop": "yes"}}}, {"type": "Feature", "geometry": {"type": "Polygon", "coordinates": [[[-95.9149449, 36.1057647], [-95.9149457, 36.1060412], [-95.9146398, 36.1060418], [-95.914639, 36.1057647], [-95.9149449, 36.1057647]]]}, "properties": {"osm_id": 1187968338, "building": "retail", "name": "K. Renee Uniform Outlet", "height": null, "height_m": null, "levels": null, "tract_id": "40143007000", "tract_name": "70", "tags": {"building": "retail", "name": "K. Renee Uniform Outlet", "shop": "clothes"}}}, {"type": "Feature", "geometry": {"type": "Polygon", "coordinates": [[[-95.9146398, 36.1060418], [-95.9149457, 36.1060412], [-95.914946, 36.1061512], [-95.9146402, 36.1061518], [-95.9146398, 36.1060418]]]}, "properties": {"osm_id": 1187968339, "building": "retail", "name": "", "height": null, "height_m": null, "levels": null, "tract_id": "40143007000", "tract_name": "70", "tags": {"building": "retail", "shop": "yes"}}}, {"type": "Feature", "geometry": {"type": "Polygon", "coordinates": [[[-95.914946, 36.1061512], [-95.9149468, 36.1064202], [-95.914641, 36.1064208], [-95.9146402, 36.1061518], [-95.914946, 36.1061512]]]}, "properties": {"osm_id": 1187968340, "building": "retail", "name": "The Blossom Shoppe", "height": null, "height_m": null, "levels": null, "tract_id": "40143007000", "tract_name": "70", "tags": {"addr:city": "Tulsa", "addr:housenumber": "5565", "addr:postcode": "74135", "addr:state": "OK", "addr:street": "East 41st Street South", "addr:unit": "A", "building": "retail", "email": "okieflowergirl@gmail.com", "name": "The Blossom Shoppe", "opening_hours": "Mo-Fr 09:00-17:00; Sa 09:00-13:00", "phone": "+1-918-663-3030", "shop": "florist", "website": "https://tulsablossom.com/"}}}, {"type": "Feature", "geometry": {"type": "Polygon", "coordinates": [[[-95.9165803, 36.1045733], [-95.9165803, 36.1046459], [-95.9165937, 36.1046459], [-95.9165937, 36.1049152], [-95.9166064, 36.1049152], [-95.9166064, 36.1049807], [-95.9166064, 36.1050642], [-95.9164643, 36.1050642], [-95.9164643, 36.1049807], [-95.9164643, 36.1049136], [-95.916481, 36.1049136], [-95.916481, 36.1047857], [-95.9163301, 36.1047857], [-95.9163301, 36.1045733], [-95.9165803, 36.1045733]]]}, "properties": {"osm_id": 1187968345, "building": "commercial", "name": "Chase", "height": null, "height_m": null, "levels": null, "tract_id": "40143007000", "tract_name": "70", "tags": {"addr:city": "Tulsa", "addr:country": "US", "addr:housenumber": "5307", "addr:postcode": "74135", "addr:state": "OK", "addr:street": "East 41st Street South", "amenity": "bank", "atm": "yes", "brand": "Chase", "brand:wikidata": "Q524629", "building": "commercial", "check_date": "2024-09-17", "drive_through": "yes", "name": "Chase", "opening_hours": "Mo-Fr 09:00-17:00; Sa 09:00-13:00; Su off", "phone": "+1 918-280-7950", "source": "INCOG", "website": "https://locator.chase.com/ok/tulsa/5307-e-41st-st"}}}, {"type": "Feature", "geometry": {"type": "Polygon", "coordinates": [[[-95.9216096, 36.1157664], [-95.9221435, 36.1157651], [-95.922142, 36.1153706], [-95.9216081, 36.115372], [-95.9216096, 36.1157664]]]}, "properties": {"osm_id": 1188371602, "building": "yes", "name": "Saied Music Company", "height": null, "height_m": null, "levels": null, "tract_id": "40143007000", "tract_name": "70", "tags": {"addr:city": "Tulsa", "addr:country": "US", "addr:housenumber": "3259", "addr:postcode": "74135", "addr:state": "OK", "addr:street": "South Yale Avenue East", "building": "yes", "check_date": "2024-12-02", "name": "Saied Music Company", "opening_hours": "Mo-Fr 10:00-18:00; Sa 09:00-18:00; Su off", "phone": "+1 918-742-5541", "shop": "musical_instrument", "website": "https://saiedmusic.com/locations/tulsa-midtown/"}}}, {"type": "Feature", "geometry": {"type": "Polygon", "coordinates": [[[-95.914062, 36.1056745], [-95.9140559, 36.1052607], [-95.9138834, 36.105263], [-95.9138925, 36.1056758], [-95.914062, 36.1056745]]]}, "properties": {"osm_id": 1206236948, "building": "yes", "name": "Ricardos", "height": null, "height_m": null, "levels": null, "tract_id": "40143007000", "tract_name": "70", "tags": {"addr:city": "Tulsa", "addr:housenumber": "5629", "addr:postcode": "74135", "addr:state": "OK", "addr:street": "East 41st Street South", "air_conditioning": "yes", "amenity": "restaurant", "bar": "yes", "building": "yes", "check_date": "2023-11-27", "cuisine": "mexican", "email": "thomas@ricardostulsa.com", "name": "Ricardos", "opening_hours": "Mo-Th 11:00-21:00; Fr-Sa 11:00-22:00", "phone": "+1 918-622-2668", "takeaway": "yes", "website": "https://www.ricardostulsa.com", "website:menu": "https://ricardostulsa.com/our-menu/"}}}, {"type": "Feature", "geometry": {"type": "Polygon", "coordinates": [[[-95.9056575, 36.1185823], [-95.9056454, 36.1177075], [-95.9056451, 36.1176794], [-95.9055153, 36.1176783], [-95.9055165, 36.1177084], [-95.9055178, 36.1177398], [-95.9054891, 36.1177408], [-95.9054954, 36.1185601], [-95.9055253, 36.1185601], [-95.9055253, 36.1185803], [-95.9056575, 36.1185823]]]}, "properties": {"osm_id": 1216500047, "building": "yes", "name": "", "height": null, "height_m": null, "levels": null, "tract_id": "40143007000", "tract_name": "70", "tags": {"building": "yes", "layer": "-1"}}}, {"type": "Feature", "geometry": {"type": "Polygon", "coordinates": [[[-95.9199322, 36.1144544], [-95.9198561, 36.1144264], [-95.9198669, 36.1144071], [-95.9198346, 36.1143952], [-95.919829, 36.1144053], [-95.9198438, 36.1144107], [-95.9198142, 36.1144631], [-95.9197314, 36.1144327], [-95.919742, 36.114414], [-95.9197262, 36.1144082], [-95.9197363, 36.1143902], [-95.9197549, 36.114397], [-95.9197672, 36.1143752], [-95.9197517, 36.1143695], [-95.9197563, 36.1143614], [-95.9197276, 36.1143508], [-95.9198039, 36.1142156], [-95.91997, 36.1142768], [-95.9199605, 36.1142935], [-95.9200123, 36.1143126], [-95.9199322, 36.1144544]]]}, "properties": {"osm_id": 1231865695, "building": "detached", "name": "", "height": null, "height_m": null, "levels": null, "tract_id": "40143007000", "tract_name": "70", "tags": {"addr:city": "Tulsa", "addr:country": "US", "addr:housenumber": "3363", "addr:postcode": "74135", "addr:state": "OK", "addr:street": "South Braden Avenue East", "building": "detached"}}}, {"type": "Feature", "geometry": {"type": "Polygon", "coordinates": [[[-95.9216694, 36.1142424], [-95.9215889, 36.1142412], [-95.9215898, 36.1142057], [-95.9216702, 36.1142069], [-95.9216694, 36.1142424]]]}, "properties": {"osm_id": 1231865697, "building": "shed", "name": "", "height": null, "height_m": null, "levels": null, "tract_id": "40143007000", "tract_name": "70", "tags": {"building": "shed"}}}, {"type": "Feature", "geometry": {"type": "Polygon", "coordinates": [[[-95.9217367, 36.1144836], [-95.9216871, 36.1144829], [-95.9216877, 36.1144548], [-95.9217373, 36.1144555], [-95.9217367, 36.1144836]]]}, "properties": {"osm_id": 1231865698, "building": "shed", "name": "", "height": null, "height_m": null, "levels": null, "tract_id": "40143007000", "tract_name": "70", "tags": {"building": "shed"}}}, {"type": "Feature", "geometry": {"type": "Polygon", "coordinates": [[[-95.9216823, 36.1145108], [-95.9216329, 36.1145111], [-95.9216327, 36.1144812], [-95.921682, 36.1144809], [-95.9216823, 36.1145108]]]}, "properties": {"osm_id": 1231865699, "building": "shed", "name": "", "height": null, "height_m": null, "levels": null, "tract_id": "40143007000", "tract_name": "70", "tags": {"building": "shed"}}}, {"type": "Feature", "geometry": {"type": "Polygon", "coordinates": [[[-95.9215105, 36.1151351], [-95.9214596, 36.1151362], [-95.9214589, 36.1151139], [-95.9215098, 36.1151129], [-95.9215105, 36.1151351]]]}, "properties": {"osm_id": 1231865700, "building": "shed", "name": "", "height": null, "height_m": null, "levels": null, "tract_id": "40143007000", "tract_name": "70", "tags": {"building": "shed"}}}, {"type": "Feature", "geometry": {"type": "Polygon", "coordinates": [[[-95.9215095, 36.1150903], [-95.9214225, 36.1150914], [-95.9214208, 36.1150041], [-95.9214012, 36.1150044], [-95.9214003, 36.114956], [-95.9215519, 36.1149541], [-95.9215528, 36.1150005], [-95.9215078, 36.1150011], [-95.9215095, 36.1150903]]]}, "properties": {"osm_id": 1231865701, "building": "detached", "name": "", "height": null, "height_m": null, "levels": null, "tract_id": "40143007000", "tract_name": "70", "tags": {"addr:city": "Tulsa", "addr:country": "US", "addr:housenumber": "3304", "addr:postcode": "74135", "addr:state": "OK", "addr:street": "South Allegheny Avenue East", "building": "detached"}}}, {"type": "Feature", "geometry": {"type": "Polygon", "coordinates": [[[-95.9217349, 36.1140856], [-95.9216788, 36.1140849], [-95.9216801, 36.1140141], [-95.9217363, 36.1140148], [-95.9217349, 36.1140856]]]}, "properties": {"osm_id": 1231865704, "building": "shed", "name": "", "height": null, "height_m": null, "levels": null, "tract_id": "40143007000", "tract_name": "70", "tags": {"building": "shed"}}}, {"type": "Feature", "geometry": {"type": "Polygon", "coordinates": [[[-95.9200981, 36.1128224], [-95.9199997, 36.112823], [-95.9199981, 36.1126582], [-95.9199005, 36.1126588], [-95.9198997, 36.1125735], [-95.919989, 36.112573], [-95.9199888, 36.1125531], [-95.9201046, 36.1125524], [-95.9201053, 36.1126329], [-95.9202147, 36.1126323], [-95.9202156, 36.1127324], [-95.9200973, 36.1127331], [-95.9200981, 36.1128224]]]}, "properties": {"osm_id": 1231865709, "building": "detached", "name": "", "height": null, "height_m": null, "levels": null, "tract_id": "40143007000", "tract_name": "70", "tags": {"addr:city": "Tulsa", "addr:country": "US", "addr:housenumber": "3529", "addr:postcode": "74135", "addr:state": "OK", "addr:street": "South Braden Avenue East", "building": "detached"}}}, {"type": "Feature", "geometry": {"type": "Polygon", "coordinates": [[[-95.9193043, 36.1128384], [-95.9192855, 36.1127806], [-95.9193092, 36.1127756], [-95.919283, 36.1126952], [-95.9192535, 36.1127014], [-95.9192523, 36.1126977], [-95.919158, 36.1127176], [-95.9191235, 36.1126112], [-95.9193289, 36.1125677], [-95.9193949, 36.1127714], [-95.9193862, 36.1127732], [-95.9194007, 36.1128179], [-95.9193043, 36.1128384]]]}, "properties": {"osm_id": 1231865710, "building": "detached", "name": "", "height": null, "height_m": null, "levels": null, "tract_id": "40143007000", "tract_name": "70", "tags": {"addr:city": "Tulsa", "addr:country": "US", "addr:housenumber": "5120", "addr:postcode": "74135", "addr:state": "OK", "addr:street": "East 35th Street South", "building": "detached"}}}, {"type": "Feature", "geometry": {"type": "Polygon", "coordinates": [[[-95.919337, 36.1129237], [-95.9194795, 36.1129276], [-95.9194816, 36.1128773], [-95.9193391, 36.1128734], [-95.919337, 36.1129237]]]}, "properties": {"osm_id": 1231865711, "building": "shed", "name": "", "height": null, "height_m": null, "levels": null, "tract_id": "40143007000", "tract_name": "70", "tags": {"building": "shed"}}}, {"type": "Feature", "geometry": {"type": "Polygon", "coordinates": [[[-95.9195181, 36.1127252], [-95.9194743, 36.1127258], [-95.9194732, 36.112669], [-95.919517, 36.1126684], [-95.9195181, 36.1127252]]]}, "properties": {"osm_id": 1231865712, "building": "shed", "name": "", "height": null, "height_m": null, "levels": null, "tract_id": "40143007000", "tract_name": "70", "tags": {"building": "shed"}}}, {"type": "Feature", "geometry": {"type": "Polygon", "coordinates": [[[-95.9195297, 36.1127239], [-95.9195735, 36.1127242], [-95.919574, 36.1126692], [-95.9195302, 36.1126689], [-95.9195297, 36.1127239]]]}, "properties": {"osm_id": 1231865713, "building": "shed", "name": "", "height": null, "height_m": null, "levels": null, "tract_id": "40143007000", "tract_name": "70", "tags": {"building": "shed"}}}, {"type": "Feature", "geometry": {"type": "Polygon", "coordinates": [[[-95.9188036, 36.1131989], [-95.9187237, 36.1131999], [-95.9187235, 36.113191], [-95.9186595, 36.1131918], [-95.9186593, 36.1131811], [-95.9186018, 36.1131818], [-95.9186, 36.1130919], [-95.9188085, 36.1130893], [-95.9188102, 36.1131778], [-95.9188032, 36.1131779], [-95.9188036, 36.1131989]]]}, "properties": {"osm_id": 1231865715, "building": "detached", "name": "", "height": null, "height_m": null, "levels": null, "tract_id": "40143007000", "tract_name": "70", "tags": {"addr:city": "Tulsa", "addr:country": "US", "addr:housenumber": "5136", "addr:postcode": "74135", "addr:state": "OK", "addr:street": "East 35th Street South", "building": "detached"}}}, {"type": "Feature", "geometry": {"type": "Polygon", "coordinates": [[[-95.9182042, 36.1131796], [-95.9181994, 36.1130198], [-95.9182956, 36.1130179], [-95.9182976, 36.1130818], [-95.9184863, 36.1130781], [-95.9184894, 36.1131789], [-95.9184061, 36.1131806], [-95.9184059, 36.1131755], [-95.9183795, 36.113176], [-95.9183801, 36.1131974], [-95.9183274, 36.1131984], [-95.9183267, 36.1131772], [-95.9182042, 36.1131796]]]}, "properties": {"osm_id": 1231865716, "building": "detached", "name": "", "height": null, "height_m": null, "levels": null, "tract_id": "40143007000", "tract_name": "70", "tags": {"addr:city": "Tulsa", "addr:country": "US", "addr:housenumber": "5138", "addr:postcode": "74135", "addr:state": "OK", "addr:street": "East 35th Street South", "building": "detached"}}}, {"type": "Feature", "geometry": {"type": "Polygon", "coordinates": [[[-95.9194026, 36.1124896], [-95.9194011, 36.1124637], [-95.9194442, 36.1124621], [-95.9194457, 36.112488], [-95.9194026, 36.1124896]]]}, "properties": {"osm_id": 1231865719, "building": "shed", "name": "", "height": null, "height_m": null, "levels": null, "tract_id": "40143007000", "tract_name": "70", "tags": {"building": "shed"}}}, {"type": "Feature", "geometry": {"type": "Polygon", "coordinates": [[[-95.9194848, 36.1124331], [-95.9193046, 36.1124318], [-95.9193007, 36.112298], [-95.9194841, 36.1122974], [-95.9194848, 36.1124331]]]}, "properties": {"osm_id": 1231865720, "building": "yes", "name": "", "height": null, "height_m": null, "levels": null, "tract_id": "40143007000", "tract_name": "70", "tags": {"building": "yes"}}}, {"type": "Feature", "geometry": {"type": "Polygon", "coordinates": [[[-95.9192303, 36.1138469], [-95.9192302, 36.1138333], [-95.9192502, 36.1138332], [-95.91925, 36.1137915], [-95.9191742, 36.1137918], [-95.9191745, 36.1138471], [-95.9192303, 36.1138469]]]}, "properties": {"osm_id": 1231865722, "building": "yes", "name": "", "height": null, "height_m": null, "levels": null, "tract_id": "40143007000", "tract_name": "70", "tags": {"building": "yes"}}}, {"type": "Feature", "geometry": {"type": "Polygon", "coordinates": [[[-95.9193382, 36.1138566], [-95.9192986, 36.1138567], [-95.9192985, 36.113831], [-95.9193381, 36.1138309], [-95.9193382, 36.1138566]]]}, "properties": {"osm_id": 1231865723, "building": "shed", "name": "", "height": null, "height_m": null, "levels": null, "tract_id": "40143007000", "tract_name": "70", "tags": {"building": "shed"}}}, {"type": "Feature", "geometry": {"type": "Polygon", "coordinates": [[[-95.9193512, 36.1149862], [-95.9193563, 36.1150038], [-95.9193847, 36.1149984], [-95.9193794, 36.114981], [-95.9193512, 36.1149862]]]}, "properties": {"osm_id": 1231865725, "building": "shed", "name": "", "height": null, "height_m": null, "levels": null, "tract_id": "40143007000", "tract_name": "70", "tags": {"building": "shed"}}}, {"type": "Feature", "geometry": {"type": "Polygon", "coordinates": [[[-95.9203126, 36.1101981], [-95.9202745, 36.1101983], [-95.9202741, 36.1101292], [-95.9203122, 36.1101291], [-95.9203126, 36.1101981]]]}, "properties": {"osm_id": 1231865742, "building": "yes", "name": "", "height": null, "height_m": null, "levels": null, "tract_id": "40143007000", "tract_name": "70", "tags": {"building": "yes"}}}, {"type": "Feature", "geometry": {"type": "Polygon", "coordinates": [[[-95.9205822, 36.1099787], [-95.9205359, 36.1099815], [-95.9205335, 36.1099558], [-95.9205798, 36.109953], [-95.9205822, 36.1099787]]]}, "properties": {"osm_id": 1231865743, "building": "yes", "name": "", "height": null, "height_m": null, "levels": null, "tract_id": "40143007000", "tract_name": "70", "tags": {"building": "yes"}}}, {"type": "Feature", "geometry": {"type": "Polygon", "coordinates": [[[-95.9215279, 36.1106519], [-95.9215267, 36.1106222], [-95.921555, 36.1106214], [-95.9215561, 36.1106512], [-95.9215279, 36.1106519]]]}, "properties": {"osm_id": 1231865760, "building": "yes", "name": "", "height": null, "height_m": null, "levels": null, "tract_id": "40143007000", "tract_name": "70", "tags": {"building": "yes"}}}, {"type": "Feature", "geometry": {"type": "Polygon", "coordinates": [[[-95.9209785, 36.111283], [-95.9209353, 36.1114018], [-95.9208292, 36.1113869], [-95.9208578, 36.1113231], [-95.9208128, 36.1113049], [-95.9207476, 36.1113574], [-95.9205951, 36.1112511], [-95.9206593, 36.1112044], [-95.9206279, 36.1111749], [-95.9205414, 36.1111963], [-95.9204769, 36.1110454], [-95.9205673, 36.1110275], [-95.9205651, 36.1109844], [-95.9204636, 36.1109727], [-95.9204966, 36.1108128], [-95.9205925, 36.1108258], [-95.9206105, 36.1107917], [-95.9205372, 36.1107456], [-95.9205987, 36.1106877], [-95.9206451, 36.1106442], [-95.9206596, 36.1106199], [-95.9206615, 36.1106168], [-95.9206645, 36.1105616], [-95.9206581, 36.1105614], [-95.9206587, 36.1105506], [-95.9206628, 36.1104748], [-95.9206408, 36.1104576], [-95.9206232, 36.1104722], [-95.9206019, 36.1104555], [-95.9205911, 36.1104471], [-95.9206118, 36.1104299], [-95.9205951, 36.1104169], [-95.9204687, 36.1104171], [-95.9204686, 36.1103863], [-95.9204041, 36.1103864], [-95.9204035, 36.1101343], [-95.9205112, 36.1101341], [-95.920511, 36.1100179], [-95.9207595, 36.1100158], [-95.9207631, 36.1101374], [-95.9207633, 36.1102165], [-95.9208425, 36.1102164], [-95.9208426, 36.1102336], [-95.9208426, 36.1102546], [-95.920919, 36.1102545], [-95.920919, 36.1102377], [-95.9209798, 36.1102377], [-95.9209797, 36.1103025], [-95.9209837, 36.1103025], [-95.9209817, 36.110553], [-95.9210659, 36.1105535], [-95.9210653, 36.1106324], [-95.920971, 36.1106557], [-95.9209441, 36.1106802], [-95.9209015, 36.1107189], [-95.9208601, 36.1107564], [-95.920931, 36.1108073], [-95.9208788, 36.1108547], [-95.9208496, 36.1108338], [-95.9208238, 36.1108573], [-95.9208319, 36.1108667], [-95.9208148, 36.110902], [-95.9207973, 36.1109058], [-95.9207852, 36.1109624], [-95.9207956, 36.1109667], [-95.9207997, 36.111006], [-95.9207916, 36.1110127], [-95.9208148, 36.1110669], [-95.9208302, 36.1110677], [-95.920858, 36.1111016], [-95.9208493, 36.1111112], [-95.920912, 36.1111482], [-95.9209133, 36.1111503], [-95.9208798, 36.1112182], [-95.9209351, 36.111236], [-95.9209512, 36.1112033], [-95.9209608, 36.111193], [-95.9209736, 36.1111902], [-95.9209866, 36.1111943], [-95.9209944, 36.1112052], [-95.9209822, 36.1112537], [-95.9209977, 36.1112559], [-95.9209888, 36.1112841], [-95.9209785, 36.111283]]]}, "properties": {"osm_id": 1231865776, "building": "school", "name": "Little Light House", "height": null, "height_m": null, "levels": null, "tract_id": "40143007000", "tract_name": "70", "tags": {"building": "school", "description": "Special Education School", "name": "Little Light House"}}}, {"type": "Feature", "geometry": {"type": "Polygon", "coordinates": [[[-95.9209015, 36.1107189], [-95.9209426, 36.1107524], [-95.9209939, 36.1107017], [-95.9209441, 36.1106802], [-95.9209015, 36.1107189]]]}, "properties": {"osm_id": 1231865777, "building": "roof", "name": "", "height": null, "height_m": null, "levels": null, "tract_id": "40143007000", "tract_name": "70", "tags": {"building": "roof", "layer": "1"}}}, {"type": "Feature", "geometry": {"type": "Polygon", "coordinates": [[[-95.9216248, 36.1102427], [-95.9216908, 36.1102712], [-95.9217257, 36.1102183], [-95.9216654, 36.1101923], [-95.9217601, 36.1101512], [-95.9218659, 36.1101985], [-95.9219578, 36.1100642], [-95.9218037, 36.1099954], [-95.9217872, 36.1100196], [-95.9217309, 36.1099944], [-95.9216467, 36.1100332], [-95.921636, 36.1100179], [-95.9214288, 36.1101133], [-95.9214396, 36.1101286], [-95.9213581, 36.1101661], [-95.9213593, 36.1102101], [-95.9213502, 36.1102102], [-95.9213543, 36.1103589], [-95.9215388, 36.1103556], [-95.921536, 36.1102558], [-95.9216138, 36.1102166], [-95.9216358, 36.1102261], [-95.9216248, 36.1102427]]]}, "properties": {"osm_id": 1231865778, "building": "yes", "name": "Junior League of Tulsa", "height": null, "height_m": null, "levels": null, "tract_id": "40143007000", "tract_name": "70", "tags": {"addr:city": "Tulsa", "addr:country": "US", "addr:housenumber": "3633", "addr:postcode": "74135", "addr:state": "OK", "addr:street": "South Yale Avenue East", "building": "yes", "building:colour": "tan", "check_date": "2024-12-23", "name": "Junior League of Tulsa", "office": "association"}}}, {"type": "Feature", "geometry": {"type": "Polygon", "coordinates": [[[-95.9191721, 36.1119787], [-95.9193831, 36.1119788], [-95.9193833, 36.1118325], [-95.9193036, 36.1118324], [-95.9193036, 36.1118203], [-95.9191495, 36.1118201], [-95.9191495, 36.1118308], [-95.9190582, 36.1118308], [-95.9190581, 36.1119614], [-95.9191721, 36.1119615], [-95.9191721, 36.1119787]]]}, "properties": {"osm_id": 1231865793, "building": "detached", "name": "", "height": null, "height_m": null, "levels": null, "tract_id": "40143007000", "tract_name": "70", "tags": {"building": "detached"}}}, {"type": "Feature", "geometry": {"type": "Polygon", "coordinates": [[[-95.918773, 36.1119498], [-95.9187732, 36.1119343], [-95.9188653, 36.1119351], [-95.9188668, 36.1118187], [-95.9187777, 36.1118179], [-95.9187773, 36.1118461], [-95.9187148, 36.1118456], [-95.9187151, 36.1118275], [-95.9185956, 36.1118265], [-95.918594, 36.1119483], [-95.918773, 36.1119498]]]}, "properties": {"osm_id": 1231865794, "building": "detached", "name": "", "height": null, "height_m": null, "levels": null, "tract_id": "40143007000", "tract_name": "70", "tags": {"building": "detached"}}}, {"type": "Feature", "geometry": {"type": "Polygon", "coordinates": [[[-95.9185891, 36.1121865], [-95.9185438, 36.1121865], [-95.9185438, 36.1121582], [-95.9185891, 36.1121582], [-95.9185891, 36.1121865]]]}, "properties": {"osm_id": 1231865795, "building": "detached", "name": "", "height": null, "height_m": null, "levels": null, "tract_id": "40143007000", "tract_name": "70", "tags": {"building": "detached"}}}, {"type": "Feature", "geometry": {"type": "Polygon", "coordinates": [[[-95.9181305, 36.1124997], [-95.9182489, 36.1124988], [-95.9182488, 36.112489], [-95.918306, 36.1124886], [-95.9183043, 36.112341], [-95.9183365, 36.1123155], [-95.918374, 36.1123465], [-95.918444, 36.1122911], [-95.9183407, 36.1122059], [-95.9182752, 36.1122578], [-95.9182842, 36.1122652], [-95.9182305, 36.1123077], [-95.9182307, 36.1123246], [-95.9181949, 36.1123249], [-95.9181961, 36.1124288], [-95.9181297, 36.1124293], [-95.9181305, 36.1124997]]]}, "properties": {"osm_id": 1231865797, "building": "detached", "name": "", "height": null, "height_m": null, "levels": null, "tract_id": "40143007000", "tract_name": "70", "tags": {"building": "detached"}}}, {"type": "Feature", "geometry": {"type": "Polygon", "coordinates": [[[-95.9184755, 36.1122282], [-95.9183829, 36.1122285], [-95.9183826, 36.1121554], [-95.9184751, 36.1121551], [-95.9184755, 36.1122282]]]}, "properties": {"osm_id": 1231865798, "building": "yes", "name": "", "height": null, "height_m": null, "levels": null, "tract_id": "40143007000", "tract_name": "70", "tags": {"building": "yes"}}}, {"type": "Feature", "geometry": {"type": "Polygon", "coordinates": [[[-95.9186316, 36.11268], [-95.9187301, 36.11268], [-95.9187301, 36.1125852], [-95.9186316, 36.1125852], [-95.9186316, 36.11268]]]}, "properties": {"osm_id": 1231865800, "building": "yes", "name": "", "height": null, "height_m": null, "levels": null, "tract_id": "40143007000", "tract_name": "70", "tags": {"building": "yes"}}}, {"type": "Feature", "geometry": {"type": "Polygon", "coordinates": [[[-95.9181371, 36.1127069], [-95.9183566, 36.112706], [-95.9183562, 36.1126377], [-95.9183252, 36.1126378], [-95.9183251, 36.1126189], [-95.9183338, 36.1126189], [-95.9183334, 36.1125357], [-95.9181712, 36.1125362], [-95.9181716, 36.1126096], [-95.9182133, 36.1126095], [-95.9182135, 36.1126381], [-95.9181367, 36.1126384], [-95.9181371, 36.1127069]]]}, "properties": {"osm_id": 1231865801, "building": "detached", "name": "", "height": null, "height_m": null, "levels": null, "tract_id": "40143007000", "tract_name": "70", "tags": {"building": "detached"}}}, {"type": "Feature", "geometry": {"type": "Polygon", "coordinates": [[[-95.9182306, 36.1119656], [-95.9182639, 36.1119654], [-95.9182638, 36.1119522], [-95.9183857, 36.1119514], [-95.9183846, 36.1118376], [-95.918166, 36.111839], [-95.918167, 36.1119511], [-95.9182304, 36.1119507], [-95.9182306, 36.1119656]]]}, "properties": {"osm_id": 1231865802, "building": "detached", "name": "", "height": null, "height_m": null, "levels": null, "tract_id": "40143007000", "tract_name": "70", "tags": {"building": "detached"}}}, {"type": "Feature", "geometry": {"type": "Polygon", "coordinates": [[[-95.9179102, 36.1142222], [-95.9178748, 36.1142229], [-95.9178735, 36.1141847], [-95.9179089, 36.1141839], [-95.9179102, 36.1142222]]]}, "properties": {"osm_id": 1231865815, "building": "shed", "name": "", "height": null, "height_m": null, "levels": null, "tract_id": "40143007000", "tract_name": "70", "tags": {"building": "shed"}}}, {"type": "Feature", "geometry": {"type": "Polygon", "coordinates": [[[-95.9180573, 36.1147329], [-95.9180227, 36.1147338], [-95.9180204, 36.1146813], [-95.9180551, 36.1146803], [-95.9180573, 36.1147329]]]}, "properties": {"osm_id": 1231865818, "building": "yes", "name": "", "height": null, "height_m": null, "levels": null, "tract_id": "40143007000", "tract_name": "70", "tags": {"building": "yes"}}}, {"type": "Feature", "geometry": {"type": "Polygon", "coordinates": [[[-95.9065674, 36.1051521], [-95.9063522, 36.1051535], [-95.9063504, 36.1049663], [-95.9059509, 36.1049688], [-95.9059486, 36.1047166], [-95.9060352, 36.1047161], [-95.9061764, 36.1047152], [-95.9061762, 36.1046913], [-95.9062634, 36.1046907], [-95.9063556, 36.1046901], [-95.9063559, 36.1047198], [-95.9064997, 36.1047189], [-95.9065633, 36.1047185], [-95.9065674, 36.1051521]]]}, "properties": {"osm_id": 1235652095, "building": "retail", "name": "", "height": null, "height_m": null, "levels": null, "tract_id": "40143007000", "tract_name": "70", "tags": {"building": "retail"}}}, {"type": "Feature", "geometry": {"type": "Polygon", "coordinates": [[[-95.9059009, 36.1049724], [-95.905899, 36.1047171], [-95.9058233, 36.1047173], [-95.9056623, 36.1047178], [-95.9053863, 36.1047185], [-95.9053166, 36.1047187], [-95.9053194, 36.1049731], [-95.9059009, 36.1049724]]]}, "properties": {"osm_id": 1235652096, "building": "retail", "name": "", "height": null, "height_m": null, "levels": null, "tract_id": "40143007000", "tract_name": "70", "tags": {"addr:city": "Tulsa", "addr:country": "US", "addr:housenumber": "6337", "addr:postcode": "74135", "addr:state": "OK", "addr:street": "East 41st Street South", "building": "retail"}}}, {"type": "Feature", "geometry": {"type": "Polygon", "coordinates": [[[-95.9070867, 36.1049969], [-95.9070839, 36.1047861], [-95.9066522, 36.1047838], [-95.9066494, 36.1048083], [-95.9065735, 36.1048099], [-95.9065792, 36.1049969], [-95.9070867, 36.1049969]]]}, "properties": {"osm_id": 1235652097, "building": "industrial", "name": "Trident Collison Repair", "height": null, "height_m": null, "levels": null, "tract_id": "40143007000", "tract_name": "70", "tags": {"addr:city": "Tulsa", "addr:country": "US", "addr:housenumber": "6335", "addr:postcode": "74135", "addr:state": "OK", "addr:street": "East 41st Street South", "building": "industrial", "name": "Trident Collison Repair", "opening_hours": "Mo-Fr 12:00-20:00; Sa 11:00-20:00; Su 12:00-18:00", "phone": "+1-918-439-4444", "shop": "car_repair"}}}, {"type": "Feature", "geometry": {"type": "Polygon", "coordinates": [[[-95.9073359, 36.1048883], [-95.9073335, 36.1047096], [-95.9072352, 36.1047104], [-95.9071595, 36.1047111], [-95.9071621, 36.1048899], [-95.9073359, 36.1048883]]]}, "properties": {"osm_id": 1235652098, "building": "industrial", "name": "Tulsa Airsoft", "height": null, "height_m": null, "levels": null, "tract_id": "40143007000", "tract_name": "70", "tags": {"addr:city": "Tulsa", "addr:country": "US", "addr:housenumber": "6323", "addr:postcode": "74135", "addr:state": "OK", "addr:street": "East 41st Street South", "building": "industrial", "name": "Tulsa Airsoft", "opening_hours": "Mo-Fr 12:00-20:00; Sa 11:00-20:00; Su 12:00-18:00", "shop": "sports"}}}, {"type": "Feature", "geometry": {"type": "Polygon", "coordinates": [[[-95.9072515, 36.1054179], [-95.9072467, 36.1050528], [-95.9072622, 36.1050527], [-95.9072605, 36.1049159], [-95.907122, 36.1049171], [-95.9071231, 36.1050032], [-95.906579, 36.1050077], [-95.9065802, 36.1051064], [-95.9066616, 36.1051058], [-95.9066657, 36.1054224], [-95.9067958, 36.1054213], [-95.9067964, 36.1054671], [-95.9070473, 36.1054649], [-95.9070467, 36.1054197], [-95.9072515, 36.1054179]]]}, "properties": {"osm_id": 1235652099, "building": "industrial", "name": "Tulsa Airsoft", "height": null, "height_m": null, "levels": null, "tract_id": "40143007000", "tract_name": "70", "tags": {"addr:city": "Tulsa", "addr:state": "OK", "addr:street": "East 41st Street South", "building": "industrial", "leisure": "sports_centre", "name": "Tulsa Airsoft", "opening_hours": "We,Fr 17:30-21:00; Sa 11:30-18:00; Su 13:30-17:00; Mo-Tu,Th off", "sport": "airsoft"}}}, {"type": "Feature", "geometry": {"type": "Polygon", "coordinates": [[[-95.9048892, 36.1055868], [-95.9048844, 36.1052781], [-95.9049474, 36.1052775], [-95.9049476, 36.105289], [-95.905306, 36.1052855], [-95.9053103, 36.1055666], [-95.9049562, 36.1055701], [-95.9049564, 36.1055862], [-95.9048892, 36.1055868]]]}, "properties": {"osm_id": 1235652100, "building": "yes", "name": "", "height": null, "height_m": null, "levels": null, "tract_id": "40143007000", "tract_name": "70", "tags": {"building": "yes"}}}, {"type": "Feature", "geometry": {"type": "Polygon", "coordinates": [[[-95.9048559, 36.1057041], [-95.9048553, 36.105641], [-95.9048721, 36.1056409], [-95.904872, 36.1056278], [-95.9051023, 36.1056262], [-95.9051032, 36.1057098], [-95.9048746, 36.1057113], [-95.9048746, 36.1057039], [-95.9048559, 36.1057041]]]}, "properties": {"osm_id": 1235652101, "building": "yes", "name": "", "height": null, "height_m": null, "levels": null, "tract_id": "40143007000", "tract_name": "70", "tags": {"building": "yes"}}}, {"type": "Feature", "geometry": {"type": "Polygon", "coordinates": [[[-95.9048722, 36.1057744], [-95.90489, 36.1057743], [-95.90489, 36.1057659], [-95.9051256, 36.1057649], [-95.9051261, 36.1058483], [-95.9048916, 36.1058493], [-95.9048915, 36.1058432], [-95.9048727, 36.1058433], [-95.9048722, 36.1057744]]]}, "properties": {"osm_id": 1235652102, "building": "yes", "name": "", "height": null, "height_m": null, "levels": null, "tract_id": "40143007000", "tract_name": "70", "tags": {"building": "yes"}}}, {"type": "Feature", "geometry": {"type": "Polygon", "coordinates": [[[-95.9052864, 36.1060553], [-95.905285, 36.1058852], [-95.9049412, 36.105887], [-95.9049426, 36.1060571], [-95.9052864, 36.1060553]]]}, "properties": {"osm_id": 1235652103, "building": "yes", "name": "", "height": null, "height_m": null, "levels": null, "tract_id": "40143007000", "tract_name": "70", "tags": {"building": "yes"}}}, {"type": "Feature", "geometry": {"type": "Polygon", "coordinates": [[[-95.9104727, 36.1136153], [-95.9103801, 36.1136066], [-95.91039, 36.1135382], [-95.9102947, 36.1135292], [-95.9102753, 36.1136639], [-95.9104632, 36.1136816], [-95.9104727, 36.1136153]]]}, "properties": {"osm_id": 1284472035, "building": "detached", "name": "", "height": null, "height_m": null, "levels": null, "tract_id": "40143007000", "tract_name": "70", "tags": {"addr:city": "Tulsa", "addr:country": "US", "addr:housenumber": "5917", "addr:postcode": "74135", "addr:state": "OK", "addr:street": "East 35th Street South", "building": "detached"}}}, {"type": "Feature", "geometry": {"type": "Polygon", "coordinates": [[[-95.9062423, 36.113534], [-95.9055798, 36.1135341], [-95.9055798, 36.1136598], [-95.9054752, 36.1136598], [-95.9054752, 36.1135818], [-95.9052606, 36.1135819], [-95.9052606, 36.1136252], [-95.9051641, 36.1136252], [-95.9051642, 36.1139936], [-95.9052634, 36.1139936], [-95.9052634, 36.1140369], [-95.905478, 36.1140368], [-95.905478, 36.1139588], [-95.9055826, 36.1139588], [-95.9055826, 36.1140856], [-95.9061405, 36.1140854], [-95.9061406, 36.1141667], [-95.9062425, 36.1141667], [-95.9062425, 36.1140865], [-95.90639, 36.1140865], [-95.9063899, 36.1137485], [-95.9062424, 36.1137485], [-95.9062423, 36.113534]]]}, "properties": {"osm_id": 1284472037, "building": "retail", "name": "Ford", "height": null, "height_m": null, "levels": null, "tract_id": "40143007000", "tract_name": "70", "tags": {"brand": "Ford", "brand:wikidata": "Q44294", "building": "retail", "name": "Ford", "operator": "Fowler Ford", "shop": "car"}}}, {"type": "Feature", "geometry": {"type": "Polygon", "coordinates": [[[-95.9107199, 36.1135725], [-95.9106282, 36.1135646], [-95.9106199, 36.1136275], [-95.9105233, 36.1136191], [-95.9105142, 36.1136877], [-95.9107025, 36.1137039], [-95.9107199, 36.1135725]]]}, "properties": {"osm_id": 1284472039, "building": "detached", "name": "", "height": null, "height_m": null, "levels": null, "tract_id": "40143007000", "tract_name": "70", "tags": {"addr:city": "Tulsa", "addr:country": "US", "addr:housenumber": "5909", "addr:postcode": "74135", "addr:state": "OK", "addr:street": "East 35th Street South", "building": "detached"}}}, {"type": "Feature", "geometry": {"type": "Polygon", "coordinates": [[[-95.9100247, 36.113524], [-95.9100205, 36.1136604], [-95.9102135, 36.1136643], [-95.9102156, 36.1135964], [-95.9101191, 36.1135944], [-95.9101212, 36.1135259], [-95.9100247, 36.113524]]]}, "properties": {"osm_id": 1284472040, "building": "detached", "name": "", "height": null, "height_m": null, "levels": null, "tract_id": "40143007000", "tract_name": "70", "tags": {"addr:city": "Tulsa", "addr:country": "US", "addr:housenumber": "5923", "addr:postcode": "74135", "addr:state": "OK", "addr:street": "East 35th Street South", "building": "detached"}}}, {"type": "Feature", "geometry": {"type": "Polygon", "coordinates": [[[-95.9123938, 36.1141387], [-95.9123652, 36.1141221], [-95.9123776, 36.1141081], [-95.9123347, 36.1140831], [-95.912322, 36.1140973], [-95.9122794, 36.1140725], [-95.9122922, 36.1140583], [-95.9122517, 36.1140347], [-95.9122393, 36.1140487], [-95.9122083, 36.1140307], [-95.912136, 36.1141116], [-95.9123215, 36.1142197], [-95.9123938, 36.1141387]]]}, "properties": {"osm_id": 1284472041, "building": "semi", "name": "", "height": null, "height_m": null, "levels": null, "tract_id": "40143007000", "tract_name": "70", "tags": {"addr:city": "Tulsa", "addr:country": "US", "addr:housenumber": "5813", "addr:postcode": "74135", "addr:state": "OK", "addr:street": "East 35th Street South", "building": "semi"}}}, {"type": "Feature", "geometry": {"type": "Polygon", "coordinates": [[[-95.911719, 36.1138149], [-95.9116654, 36.1137938], [-95.9116608, 36.1138016], [-95.9115903, 36.1137739], [-95.911595, 36.1137662], [-95.9115498, 36.1137484], [-95.9115042, 36.1138239], [-95.9116735, 36.1138905], [-95.911719, 36.1138149]]]}, "properties": {"osm_id": 1284472045, "building": "semi", "name": "", "height": null, "height_m": null, "levels": null, "tract_id": "40143007000", "tract_name": "70", "tags": {"addr:city": "Tulsa", "addr:country": "US", "addr:housenumber": "5829", "addr:postcode": "74135", "addr:state": "OK", "addr:street": "East 35th Street South", "building": "semi"}}}, {"type": "Feature", "geometry": {"type": "Polygon", "coordinates": [[[-95.9097794, 36.1135234], [-95.9097745, 36.1136706], [-95.9099502, 36.1136744], [-95.9099551, 36.1135272], [-95.9097794, 36.1135234]]]}, "properties": {"osm_id": 1284472046, "building": "detached", "name": "", "height": null, "height_m": null, "levels": null, "tract_id": "40143007000", "tract_name": "70", "tags": {"addr:city": "Tulsa", "addr:country": "US", "addr:housenumber": "5929", "addr:postcode": "74135", "addr:state": "OK", "addr:street": "East 35th Street South", "building": "detached"}}}, {"type": "Feature", "geometry": {"type": "Polygon", "coordinates": [[[-95.9090331, 36.1136575], [-95.9092476, 36.1136547], [-95.9092449, 36.1135204], [-95.9090304, 36.1135232], [-95.9090331, 36.1136575]]]}, "properties": {"osm_id": 1284472049, "building": "detached", "name": "", "height": null, "height_m": null, "levels": null, "tract_id": "40143007000", "tract_name": "70", "tags": {"addr:city": "Tulsa", "addr:country": "US", "addr:housenumber": "5947", "addr:postcode": "74135", "addr:state": "OK", "addr:street": "East 35th Street South", "building": "detached"}}}, {"type": "Feature", "geometry": {"type": "Polygon", "coordinates": [[[-95.9114802, 36.1137439], [-95.9114042, 36.113719], [-95.9113874, 36.1137524], [-95.9112838, 36.1137184], [-95.9112314, 36.1138226], [-95.911411, 36.1138815], [-95.9114802, 36.1137439]]]}, "properties": {"osm_id": 1284472050, "building": "detached", "name": "", "height": null, "height_m": null, "levels": null, "tract_id": "40143007000", "tract_name": "70", "tags": {"addr:city": "Tulsa", "addr:country": "US", "addr:housenumber": "5837", "addr:postcode": "74135", "addr:state": "OK", "addr:street": "East 35th Street South", "building": "detached"}}}, {"type": "Feature", "geometry": {"type": "Polygon", "coordinates": [[[-95.9123343, 36.1142636], [-95.9124874, 36.1144265], [-95.9125903, 36.1143633], [-95.9124372, 36.1142004], [-95.9123343, 36.1142636]]]}, "properties": {"osm_id": 1284472051, "building": "detached", "name": "", "height": null, "height_m": null, "levels": null, "tract_id": "40143007000", "tract_name": "70", "tags": {"addr:city": "Tulsa", "addr:country": "US", "addr:housenumber": "5807", "addr:postcode": "74135", "addr:state": "OK", "addr:street": "East 35th Street South", "building": "detached"}}}, {"type": "Feature", "geometry": {"type": "Polygon", "coordinates": [[[-95.909641, 36.1136858], [-95.909744, 36.1136845], [-95.9097406, 36.1135155], [-95.909541, 36.1135181], [-95.9095432, 36.1136265], [-95.9096398, 36.1136252], [-95.909641, 36.1136858]]]}, "properties": {"osm_id": 1284472052, "building": "detached", "name": "", "height": null, "height_m": null, "levels": null, "tract_id": "40143007000", "tract_name": "70", "tags": {"addr:city": "Tulsa", "addr:country": "US", "addr:housenumber": "5935", "addr:postcode": "74135", "addr:state": "OK", "addr:street": "East 35th Street South", "building": "detached"}}}, {"type": "Feature", "geometry": {"type": "Polygon", "coordinates": [[[-95.9109481, 36.1137568], [-95.9109651, 36.1136746], [-95.9108618, 36.1136607], [-95.9108753, 36.1135953], [-95.9107944, 36.1135844], [-95.9107612, 36.1137454], [-95.9108395, 36.1137559], [-95.9108423, 36.1137425], [-95.9109481, 36.1137568]]]}, "properties": {"osm_id": 1284472053, "building": "detached", "name": "", "height": null, "height_m": null, "levels": null, "tract_id": "40143007000", "tract_name": "70", "tags": {"addr:city": "Tulsa", "addr:country": "US", "addr:housenumber": "5903", "addr:postcode": "74135", "addr:state": "OK", "addr:street": "East 35th Street South", "building": "detached"}}}, {"type": "Feature", "geometry": {"type": "Polygon", "coordinates": [[[-95.9121736, 36.1140185], [-95.9119951, 36.1139303], [-95.9119245, 36.1140237], [-95.912103, 36.1141118], [-95.9121736, 36.1140185]]]}, "properties": {"osm_id": 1284472054, "building": "detached", "name": "", "height": null, "height_m": null, "levels": null, "tract_id": "40143007000", "tract_name": "70", "tags": {"addr:city": "Tulsa", "addr:country": "US", "addr:housenumber": "5819", "addr:postcode": "74135", "addr:state": "OK", "addr:street": "East 35th Street South", "building": "detached"}}}, {"type": "Feature", "geometry": {"type": "Polygon", "coordinates": [[[-95.908722, 36.1135877], [-95.9085232, 36.1135168], [-95.9084792, 36.1135973], [-95.908678, 36.1136682], [-95.908722, 36.1135877]]]}, "properties": {"osm_id": 1284472057, "building": "detached", "name": "", "height": null, "height_m": null, "levels": null, "tract_id": "40143007000", "tract_name": "70", "tags": {"addr:city": "Tulsa", "addr:country": "US", "addr:housenumber": "5957", "addr:postcode": "74135", "addr:state": "OK", "addr:street": "East 35th Street South", "building": "detached"}}}, {"type": "Feature", "geometry": {"type": "Polygon", "coordinates": [[[-95.9087778, 36.1136019], [-95.9087702, 36.1137], [-95.908813, 36.1137022], [-95.9088107, 36.1137316], [-95.9088658, 36.1137343], [-95.9088681, 36.1137041], [-95.9089709, 36.1137093], [-95.9089785, 36.113612], [-95.9087778, 36.1136019]]]}, "properties": {"osm_id": 1284472060, "building": "detached", "name": "", "height": null, "height_m": null, "levels": null, "tract_id": "40143007000", "tract_name": "70", "tags": {"addr:city": "Tulsa", "addr:country": "US", "addr:housenumber": "5953", "addr:postcode": "74135", "addr:state": "OK", "addr:street": "East 35th Street South", "building": "detached"}}}, {"type": "Feature", "geometry": {"type": "Polygon", "coordinates": [[[-95.9111623, 36.1138124], [-95.9112035, 36.1136653], [-95.9111633, 36.113658], [-95.9111595, 36.1136714], [-95.9111398, 36.1136679], [-95.9111436, 36.1136544], [-95.9110631, 36.1136397], [-95.9110219, 36.1137868], [-95.9111623, 36.1138124]]]}, "properties": {"osm_id": 1284472062, "building": "detached", "name": "", "height": null, "height_m": null, "levels": null, "tract_id": "40143007000", "tract_name": "70", "tags": {"addr:city": "Tulsa", "addr:country": "US", "addr:housenumber": "5843", "addr:postcode": "74135", "addr:state": "OK", "addr:street": "East 35th Street South", "building": "detached"}}}, {"type": "Feature", "geometry": {"type": "Polygon", "coordinates": [[[-95.912822, 36.1143894], [-95.9127428, 36.114388], [-95.9127447, 36.1143195], [-95.9126684, 36.1143182], [-95.9126666, 36.1143844], [-95.9125808, 36.1143829], [-95.9125779, 36.1144877], [-95.9126583, 36.1144892], [-95.9126587, 36.1144762], [-95.9127445, 36.1144777], [-95.9127438, 36.1145015], [-95.9128189, 36.1145029], [-95.912822, 36.1143894]]]}, "properties": {"osm_id": 1284472064, "building": "detached", "name": "", "height": null, "height_m": null, "levels": null, "tract_id": "40143007000", "tract_name": "70", "tags": {"addr:city": "Tulsa", "addr:country": "US", "addr:housenumber": "5803", "addr:postcode": "74135", "addr:state": "OK", "addr:street": "East 35th Street South", "building": "detached"}}}, {"type": "Feature", "geometry": {"type": "Polygon", "coordinates": [[[-95.9057982, 36.1142239], [-95.9053852, 36.1142263], [-95.9053868, 36.1144126], [-95.9057984, 36.1144102], [-95.9057976, 36.1143214], [-95.9058393, 36.1143211], [-95.9058387, 36.1142518], [-95.9057985, 36.114252], [-95.9057982, 36.1142239]]]}, "properties": {"osm_id": 1284472066, "building": "yes", "name": "Ford", "height": null, "height_m": null, "levels": null, "tract_id": "40143007000", "tract_name": "70", "tags": {"brand": "Ford", "brand:wikidata": "Q44294", "building": "yes", "name": "Ford", "shop": "car_repair"}}}, {"type": "Feature", "geometry": {"type": "Polygon", "coordinates": [[[-95.9119549, 36.1139103], [-95.911878, 36.1138774], [-95.9118461, 36.113926], [-95.9118048, 36.1139084], [-95.911821, 36.1138836], [-95.9117493, 36.1138529], [-95.9116549, 36.1139968], [-95.9118375, 36.1140749], [-95.9118844, 36.1140034], [-95.9118917, 36.1140065], [-95.9119549, 36.1139103]]]}, "properties": {"osm_id": 1284472068, "building": "detached", "name": "", "height": null, "height_m": null, "levels": null, "tract_id": "40143007000", "tract_name": "70", "tags": {"addr:city": "Tulsa", "addr:country": "US", "addr:housenumber": "5825", "addr:postcode": "74135", "addr:state": "OK", "addr:street": "East 35th Street South", "building": "detached"}}}, {"type": "Feature", "geometry": {"type": "Polygon", "coordinates": [[[-95.9078441, 36.1050868], [-95.9077066, 36.1051795], [-95.907704, 36.1049134], [-95.9077315, 36.1049134], [-95.9077247, 36.1047845], [-95.9079708, 36.1047813], [-95.9079715, 36.1048474], [-95.9078629, 36.1049189], [-95.9078354, 36.1049199], [-95.9078441, 36.1050868]]]}, "properties": {"osm_id": 1302279329, "building": "retail", "name": "Hustler Hollywood", "height": null, "height_m": null, "levels": null, "tract_id": "40143007000", "tract_name": "70", "tags": {"addr:city": "Tulsa", "addr:country": "US", "addr:housenumber": "6321", "addr:postcode": "74135", "addr:state": "OK", "addr:street": "East 41st Street South", "amenity": "stripclub", "building": "retail", "name": "Hustler Hollywood"}}}, {"type": "Feature", "geometry": {"type": "Polygon", "coordinates": [[[-95.9052097, 36.1066185], [-95.9052097, 36.1067837], [-95.9051205, 36.1067837], [-95.9051205, 36.1068363], [-95.9047826, 36.1068363], [-95.9047826, 36.1066185], [-95.9052097, 36.1066185]]]}, "properties": {"osm_id": 1308692907, "building": "retail", "name": "", "height": null, "height_m": null, "levels": null, "tract_id": "40143007000", "tract_name": "70", "tags": {"building": "retail", "shop": "vacant"}}}, {"type": "Feature", "geometry": {"type": "Polygon", "coordinates": [[[-95.9053592, 36.1064213], [-95.9049448, 36.1064191], [-95.9049457, 36.1063108], [-95.9053601, 36.106313], [-95.9053592, 36.1064213]]]}, "properties": {"osm_id": 1308692909, "building": "yes", "name": "Zip's Car Wash", "height": null, "height_m": null, "levels": null, "tract_id": "40143007000", "tract_name": "70", "tags": {"amenity": "car_wash", "automated": "yes", "building": "yes", "name": "Zip's Car Wash"}}}, {"type": "Feature", "geometry": {"type": "Polygon", "coordinates": [[[-95.905095, 36.1088716], [-95.9049592, 36.1088712], [-95.9049596, 36.1087936], [-95.9049602, 36.1086744], [-95.9049605, 36.1086051], [-95.9049608, 36.1085395], [-95.9049612, 36.1084566], [-95.905097, 36.108457], [-95.905095, 36.1088716]]]}, "properties": {"osm_id": 1308692916, "building": "retail", "name": "", "height": null, "height_m": null, "levels": null, "tract_id": "40143007000", "tract_name": "70", "tags": {"building": "retail"}}}, {"type": "Feature", "geometry": {"type": "Polygon", "coordinates": [[[-95.9051205, 36.1185316], [-95.9051184, 36.1183778], [-95.9050755, 36.1183782], [-95.9050751, 36.1183511], [-95.904992, 36.1183518], [-95.9049924, 36.11838], [-95.9049468, 36.1183804], [-95.9049488, 36.118532], [-95.904981, 36.1185317], [-95.9049818, 36.1185935], [-95.905081, 36.1185926], [-95.9050802, 36.118532], [-95.9051205, 36.1185316]]]}, "properties": {"osm_id": 1310968734, "building": "retail", "name": "Communication Federal Credit Union", "height": null, "height_m": null, "levels": null, "tract_id": "40143007000", "tract_name": "70", "tags": {"amenity": "bank", "building": "retail", "name": "Communication Federal Credit Union"}}}, {"type": "Feature", "geometry": {"type": "Polygon", "coordinates": [[[-95.9215, 36.1174874], [-95.921507, 36.1177783], [-95.9217583, 36.1177783], [-95.9217583, 36.1177347], [-95.9217221, 36.1177076], [-95.9217185, 36.1176561], [-95.9217905, 36.1176018], [-95.9220754, 36.1175991], [-95.9221103, 36.1175736], [-95.922111, 36.1175135], [-95.9220754, 36.1174859], [-95.9215, 36.1174874]]]}, "properties": {"osm_id": 1311801665, "building": "retail", "name": "", "height": null, "height_m": 3.0, "levels": 1, "tract_id": "40143007000", "tract_name": "70", "tags": {"building": "retail", "building:levels": "1", "roof:colour": "white", "roof:shape": "flat"}}}, {"type": "Feature", "geometry": {"type": "Polygon", "coordinates": [[[-95.9085208, 36.1080618], [-95.9087011, 36.1082286], [-95.9084196, 36.1084274], [-95.9086978, 36.1086845], [-95.9083666, 36.1089183], [-95.9080885, 36.1086612], [-95.9079827, 36.1087358], [-95.9078023, 36.1085691], [-95.9085208, 36.1080618]]]}, "properties": {"osm_id": 1389428882, "building": "office", "name": "", "height": null, "height_m": null, "levels": null, "tract_id": "40143007000", "tract_name": "70", "tags": {"addr:city": "Tulsa", "addr:country": "US", "addr:housenumber": "6128", "addr:postcode": "74135", "addr:state": "OK", "addr:street": "East 38th Street South", "building": "office"}}}, {"type": "Feature", "geometry": {"type": "Polygon", "coordinates": [[[-95.908282, 36.1070022], [-95.9082344, 36.1070354], [-95.907869, 36.1066939], [-95.9079169, 36.1066604], [-95.9078638, 36.1066107], [-95.9080043, 36.1065127], [-95.9080573, 36.1065623], [-95.9080928, 36.1065375], [-95.9084583, 36.1068791], [-95.9084224, 36.1069041], [-95.9084374, 36.1069182], [-95.9082969, 36.1070162], [-95.908282, 36.1070022]]]}, "properties": {"osm_id": 1389428885, "building": "office", "name": "Skyline East", "height": null, "height_m": 24.0, "levels": 8, "tract_id": "40143007000", "tract_name": "70", "tags": {"building": "office", "building:levels": "8", "name": "Skyline East", "roof:levels": "1", "roof:shape": "flat"}}}]}