{"type": "FeatureCollection", "features": [{"type": "Feature", "geometry": {"type": "Polygon", "coordinates": [[[-95.8633176, 36.1251557], [-95.8633176, 36.1250853], [-95.8633344, 36.1250853], [-95.8633344, 36.1249379], [-95.8636918, 36.1249379], [-95.8636918, 36.1250853], [-95.8637092, 36.1250853], [-95.8637092, 36.1252207], [-95.8638668, 36.1252207], [-95.8638668, 36.1255104], [-95.8638474, 36.1255104], [-95.8638474, 36.125564], [-95.8637729, 36.125564], [-95.8637729, 36.1255841], [-95.86338, 36.1255841], [-95.86338, 36.1254991], [-95.8633391, 36.1254991], [-95.8633391, 36.1255126], [-95.8631594, 36.1255126], [-95.8631594, 36.1254216], [-95.8624466, 36.1254216], [-95.8624466, 36.1252006], [-95.8625163, 36.1252006], [-95.8625163, 36.125114], [-95.86257, 36.125114], [-95.86257, 36.1250804], [-95.8626303, 36.1250804], [-95.8626303, 36.1247749], [-95.8627369, 36.1247749], [-95.8627369, 36.1247614], [-95.8627986, 36.1247614], [-95.8627986, 36.1247749], [-95.8629696, 36.1247749], [-95.8629696, 36.125102], [-95.863144, 36.125102], [-95.863144, 36.1251557], [-95.8633176, 36.1251557]]]}, "properties": {"osm_id": 1175585653, "building": "school", "name": "", "height": null, "height_m": null, "levels": null, "tract_id": "40143007314", "tract_name": "73.14", "tags": {"building": "school"}}}, {"type": "Feature", "geometry": {"type": "Polygon", "coordinates": [[[-95.8681266, 36.1193775], [-95.8681275, 36.1194559], [-95.8680127, 36.1194567], [-95.8680142, 36.1195876], [-95.8679402, 36.1195881], [-95.8679372, 36.1193183], [-95.8680128, 36.1193178], [-95.8680135, 36.1193784], [-95.8681266, 36.1193775]]]}, "properties": {"osm_id": 1179617220, "building": "roof", "name": "", "height": null, "height_m": null, "levels": null, "tract_id": "40143007314", "tract_name": "73.14", "tags": {"building": "roof", "layer": "1"}}}, {"type": "Feature", "geometry": {"type": "Polygon", "coordinates": [[[-95.8682577, 36.1192677], [-95.8683933, 36.1192667], [-95.8684238, 36.1192397], [-95.8684259, 36.1194337], [-95.8683915, 36.119434], [-95.868392, 36.1194841], [-95.868425, 36.1195114], [-95.8682234, 36.1195128], [-95.8682228, 36.1194552], [-95.8681275, 36.1194559], [-95.8681266, 36.1193775], [-95.8681746, 36.1193772], [-95.8681738, 36.119301], [-95.8682026, 36.1193008], [-95.8682019, 36.1192431], [-95.8682575, 36.1192427], [-95.8682577, 36.1192677]]]}, "properties": {"osm_id": 1179617221, "building": "commercial", "name": "Arvest Bank", "height": null, "height_m": null, "levels": null, "tract_id": "40143007314", "tract_name": "73.14", "tags": {"addr:city": "Tulsa", "addr:country": "US", "addr:housenumber": "9701", "addr:postcode": "74146", "addr:state": "OK", "addr:street": "East 31st Street South", "amenity": "bank", "atm": "yes", "brand": "Arvest Bank", "brand:wikidata": "Q4802393", "building": "commercial", "drive_through": "yes", "name": "Arvest Bank", "opening_hours": "Mo-Fr 09:00-17:00", "phone": "+19186311000"}}}, {"type": "Feature", "geometry": {"type": "Polygon", "coordinates": [[[-95.8694646, 36.1192512], [-95.8694646, 36.1192387], [-95.8694784, 36.1192387], [-95.8694784, 36.1192352], [-95.8697435, 36.1192344], [-95.8697435, 36.1192379], [-95.8697575, 36.1192379], [-95.8697583, 36.1194045], [-95.869714, 36.1194046], [-95.8697157, 36.1197847], [-95.8691662, 36.1197863], [-95.869166, 36.1197495], [-95.8689631, 36.1197501], [-95.868963, 36.11974], [-95.8689579, 36.11974], [-95.8689573, 36.1195981], [-95.8689624, 36.1195981], [-95.8689623, 36.1195854], [-95.8689757, 36.1195853], [-95.8689757, 36.1195808], [-95.8691511, 36.1195802], [-95.8691511, 36.1195848], [-95.8691653, 36.1195848], [-95.8691654, 36.1196149], [-95.8695039, 36.1196139], [-95.869503, 36.1194052], [-95.8694653, 36.1194053], [-95.8694653, 36.1193934], [-95.8694602, 36.1193934], [-95.8694595, 36.1192512], [-95.8694646, 36.1192512]]]}, "properties": {"osm_id": 1179617255, "building": "retail", "name": "", "height": null, "height_m": 3.0, "levels": 1, "tract_id": "40143007314", "tract_name": "73.14", "tags": {"building": "retail", "building:levels": "1", "roof:levels": "0", "roof:shape": "flat"}}}, {"type": "Feature", "geometry": {"type": "Polygon", "coordinates": [[[-95.8610827, 36.1257761], [-95.8611357, 36.1257993], [-95.8611466, 36.125804], [-95.8611053, 36.1258658], [-95.8610943, 36.125861], [-95.8610666, 36.1259024], [-95.8610136, 36.1258793], [-95.8610827, 36.1257761]]]}, "properties": {"osm_id": 1188635074, "building": "commercial", "name": "", "height": null, "height_m": null, "levels": null, "tract_id": "40143007314", "tract_name": "73.14", "tags": {"building": "commercial"}}}, {"type": "Feature", "geometry": {"type": "Polygon", "coordinates": [[[-95.8610136, 36.1258793], [-95.8610666, 36.1259024], [-95.8609842, 36.1260256], [-95.8609312, 36.1260024], [-95.8610136, 36.1258793]]]}, "properties": {"osm_id": 1188635075, "building": "commercial", "name": "", "height": null, "height_m": null, "levels": null, "tract_id": "40143007314", "tract_name": "73.14", "tags": {"building": "commercial"}}}, {"type": "Feature", "geometry": {"type": "Polygon", "coordinates": [[[-95.8675398, 36.1197257], [-95.8672725, 36.1197239], [-95.8672747, 36.1194205], [-95.8675354, 36.1194188], [-95.8675398, 36.1197257]]]}, "properties": {"osm_id": 1191893409, "building": "retail", "name": "Dollar General", "height": null, "height_m": null, "levels": null, "tract_id": "40143007314", "tract_name": "73.14", "tags": {"addr:city": "Tulsa", "addr:country": "US", "addr:housenumber": "9717", "addr:postcode": "74146", "addr:state": "OK", "addr:street": "East 31st Street South", "brand": "Dollar General", "brand:wikidata": "Q145168", "building": "retail", "name": "Dollar General", "opening_hours": "Mo-Su 08:00-22:00", "phone": "+15392155360", "shop": "variety_store", "website": "https://www.dollargeneral.com/store-directory/ok/tulsa/7519"}}}, {"type": "Feature", "geometry": {"type": "Polygon", "coordinates": [[[-95.8665614, 36.1194502], [-95.8664143, 36.1194502], [-95.8664056, 36.1192366], [-95.8665576, 36.1192366], [-95.8665585, 36.1193337], [-95.8665845, 36.1193322], [-95.8665864, 36.1193865], [-95.8665604, 36.1193865], [-95.8665614, 36.1194502]]]}, "properties": {"osm_id": 1191893410, "building": "retail", "name": "Cheapest Auto Insurance", "height": null, "height_m": null, "levels": null, "tract_id": "40143007314", "tract_name": "73.14", "tags": {"addr:city": "Tulsa", "addr:country": "US", "addr:housenumber": "9747", "addr:postcode": "74146", "addr:state": "OK", "addr:street": "East 31st Street South", "building": "retail", "name": "Cheapest Auto Insurance", "office": "insurance", "opening_hours": "Mo-Fr 09:00-17:00, Sa 10:00-14:00", "phone": "+19189990085", "website": "https://www.aautoandhomeinsurance.com/tulsa-ok/"}}}, {"type": "Feature", "geometry": {"type": "Polygon", "coordinates": [[[-95.8656636, 36.1193711], [-95.8654625, 36.1193711], [-95.8654625, 36.1192714], [-95.865661, 36.1192703], [-95.8656636, 36.1193711]]]}, "properties": {"osm_id": 1191893411, "building": "detached", "name": "Taxes For Less", "height": null, "height_m": null, "levels": null, "tract_id": "40143007314", "tract_name": "73.14", "tags": {"addr:city": "Tulsa", "addr:country": "US", "addr:housenumber": "10101", "addr:postcode": "74146", "addr:state": "OK", "addr:street": "East 31st Street South", "building": "detached", "check_date": "2022-11-14", "name": "Taxes For Less", "office": "tax_advisor", "opening_hours": "Mo-Fr 10:00-17:00", "phone": "+19186228000"}}}, {"type": "Feature", "geometry": {"type": "Polygon", "coordinates": [[[-95.8611745, 36.1281253], [-95.8611739, 36.1281455], [-95.8611458, 36.1281449], [-95.8611464, 36.1281248], [-95.8611745, 36.1281253]]]}, "properties": {"osm_id": 1197840806, "building": "yes", "name": "", "height": null, "height_m": null, "levels": null, "tract_id": "40143007314", "tract_name": "73.14", "tags": {"building": "yes"}}}, {"type": "Feature", "geometry": {"type": "Polygon", "coordinates": [[[-95.8610947, 36.1281226], [-95.8610941, 36.1280907], [-95.8611296, 36.1280902], [-95.8611303, 36.1281221], [-95.8610947, 36.1281226]]]}, "properties": {"osm_id": 1197840807, "building": "yes", "name": "", "height": null, "height_m": null, "levels": null, "tract_id": "40143007314", "tract_name": "73.14", "tags": {"building": "yes"}}}, {"type": "Feature", "geometry": {"type": "Polygon", "coordinates": [[[-95.861025, 36.1278464], [-95.8610247, 36.1278131], [-95.8610503, 36.1278129], [-95.8610507, 36.1278462], [-95.861025, 36.1278464]]]}, "properties": {"osm_id": 1197840808, "building": "yes", "name": "", "height": null, "height_m": null, "levels": null, "tract_id": "40143007314", "tract_name": "73.14", "tags": {"building": "yes"}}}, {"type": "Feature", "geometry": {"type": "Polygon", "coordinates": [[[-95.8609586, 36.1265617], [-95.8609782, 36.1265855], [-95.860942, 36.126605], [-95.8609224, 36.1265812], [-95.8609586, 36.1265617]]]}, "properties": {"osm_id": 1197840809, "building": "yes", "name": "", "height": null, "height_m": null, "levels": null, "tract_id": "40143007314", "tract_name": "73.14", "tags": {"building": "yes"}}}, {"type": "Feature", "geometry": {"type": "Polygon", "coordinates": [[[-95.8616923, 36.1247659], [-95.8615365, 36.1246932], [-95.8614825, 36.1247686], [-95.8615659, 36.1248076], [-95.8615432, 36.1248393], [-95.8616156, 36.1248731], [-95.8616923, 36.1247659]]]}, "properties": {"osm_id": 1197840822, "building": "detached", "name": "", "height": null, "height_m": null, "levels": null, "tract_id": "40143007314", "tract_name": "73.14", "tags": {"addr:city": "Tulsa", "addr:country": "US", "addr:housenumber": "10310", "addr:postcode": "74129", "addr:state": "OK", "addr:street": "East 25th Place South", "building": "detached"}}}, {"type": "Feature", "geometry": {"type": "Polygon", "coordinates": [[[-95.8609859, 36.1278145], [-95.8609828, 36.1277116], [-95.8609185, 36.1277129], [-95.8609179, 36.1276945], [-95.8608365, 36.1276961], [-95.8608369, 36.1277112], [-95.8607897, 36.1277122], [-95.8607948, 36.1278821], [-95.8608876, 36.1278803], [-95.8608871, 36.127863], [-95.8609444, 36.1278618], [-95.860943, 36.1278153], [-95.8609859, 36.1278145]]]}, "properties": {"osm_id": 1197840826, "building": "detached", "name": "", "height": null, "height_m": null, "levels": null, "tract_id": "40143007314", "tract_name": "73.14", "tags": {"addr:city": "Tulsa", "addr:country": "US", "addr:housenumber": "10245", "addr:postcode": "74129", "addr:state": "OK", "addr:street": "East 24th Street South", "building": "detached"}}}, {"type": "Feature", "geometry": {"type": "Polygon", "coordinates": [[[-95.8604885, 36.1247007], [-95.8603918, 36.1246395], [-95.8603692, 36.1246627], [-95.8603213, 36.1246324], [-95.8602367, 36.1247197], [-95.8603813, 36.1248111], [-95.8604885, 36.1247007]]]}, "properties": {"osm_id": 1197840828, "building": "detached", "name": "", "height": null, "height_m": null, "levels": null, "tract_id": "40143007314", "tract_name": "73.14", "tags": {"building": "detached", "source": "microsoft/BuildingFootprints"}}}, {"type": "Feature", "geometry": {"type": "Polygon", "coordinates": [[[-95.8603002, 36.1278822], [-95.8605202, 36.1278799], [-95.8605192, 36.1278171], [-95.8604709, 36.1278176], [-95.8604696, 36.127731], [-95.8603435, 36.1277322], [-95.860345, 36.1278254], [-95.8602994, 36.1278259], [-95.8603002, 36.1278822]]]}, "properties": {"osm_id": 1197840830, "building": "detached", "name": "", "height": null, "height_m": null, "levels": null, "tract_id": "40143007314", "tract_name": "73.14", "tags": {"building": "detached", "source": "microsoft/BuildingFootprints"}}}, {"type": "Feature", "geometry": {"type": "Polygon", "coordinates": [[[-95.8612708, 36.124661], [-95.8613679, 36.1247129], [-95.8613519, 36.1247325], [-95.8614219, 36.1247698], [-95.8615243, 36.1246446], [-95.8614057, 36.1245814], [-95.8613903, 36.1246002], [-95.8613417, 36.1245743], [-95.8612708, 36.124661]]]}, "properties": {"osm_id": 1197840831, "building": "detached", "name": "", "height": null, "height_m": null, "levels": null, "tract_id": "40143007314", "tract_name": "73.14", "tags": {"addr:city": "Tulsa", "addr:country": "US", "addr:housenumber": "10316", "addr:postcode": "74129", "addr:state": "OK", "addr:street": "East 25th Place South", "building": "detached"}}}, {"type": "Feature", "geometry": {"type": "Polygon", "coordinates": [[[-95.8608035, 36.1271218], [-95.8608058, 36.1271965], [-95.8608514, 36.1271956], [-95.8608545, 36.1272952], [-95.8609686, 36.1272929], [-95.8609633, 36.1271186], [-95.8608035, 36.1271218]]]}, "properties": {"osm_id": 1197840832, "building": "detached", "name": "", "height": null, "height_m": null, "levels": null, "tract_id": "40143007314", "tract_name": "73.14", "tags": {"building": "detached", "source": "microsoft/BuildingFootprints"}}}, {"type": "Feature", "geometry": {"type": "Polygon", "coordinates": [[[-95.8603402, 36.1265919], [-95.8604169, 36.1266064], [-95.8603992, 36.1266674], [-95.8605157, 36.1266894], [-95.8605527, 36.1265621], [-95.8603595, 36.1265255], [-95.8603402, 36.1265919]]]}, "properties": {"osm_id": 1197840833, "building": "detached", "name": "", "height": null, "height_m": null, "levels": null, "tract_id": "40143007314", "tract_name": "73.14", "tags": {"building": "detached", "source": "microsoft/BuildingFootprints"}}}, {"type": "Feature", "geometry": {"type": "Polygon", "coordinates": [[[-95.8613164, 36.127801], [-95.861354, 36.1278004], [-95.8613552, 36.1278567], [-95.8614772, 36.127855], [-95.8614735, 36.1276888], [-95.86143, 36.1276895], [-95.8614298, 36.1276804], [-95.8613547, 36.1276815], [-95.8613549, 36.1276906], [-95.8612908, 36.1276915], [-95.8612926, 36.1277706], [-95.8613157, 36.1277703], [-95.8613164, 36.127801]]]}, "properties": {"osm_id": 1197840834, "building": "detached", "name": "", "height": null, "height_m": null, "levels": null, "tract_id": "40143007314", "tract_name": "73.14", "tags": {"addr:city": "Tulsa", "addr:country": "US", "addr:housenumber": "10235", "addr:postcode": "74129", "addr:state": "OK", "addr:street": "East 24th Street South", "building": "detached"}}}, {"type": "Feature", "geometry": {"type": "Polygon", "coordinates": [[[-95.8613764, 36.1272886], [-95.8613787, 36.1273842], [-95.8614844, 36.1273826], [-95.8614859, 36.1274462], [-95.8615652, 36.127445], [-95.8615614, 36.1272858], [-95.8613764, 36.1272886]]]}, "properties": {"osm_id": 1197840835, "building": "detached", "name": "", "height": null, "height_m": null, "levels": null, "tract_id": "40143007314", "tract_name": "73.14", "tags": {"addr:city": "Tulsa", "addr:country": "US", "addr:housenumber": "10234", "addr:postcode": "74129", "addr:state": "OK", "addr:street": "East 24th Street South", "building": "detached"}}}, {"type": "Feature", "geometry": {"type": "Polygon", "coordinates": [[[-95.861112, 36.1250424], [-95.8612641, 36.1251302], [-95.8613444, 36.1250394], [-95.8611923, 36.1249517], [-95.861112, 36.1250424]]]}, "properties": {"osm_id": 1197840837, "building": "detached", "name": "", "height": null, "height_m": null, "levels": null, "tract_id": "40143007314", "tract_name": "73.14", "tags": {"addr:city": "Tulsa", "addr:country": "US", "addr:housenumber": "10311", "addr:postcode": "74129", "addr:state": "OK", "addr:street": "East 25th Place South", "building": "detached"}}}, {"type": "Feature", "geometry": {"type": "Polygon", "coordinates": [[[-95.8614941, 36.1281623], [-95.861389, 36.1281043], [-95.8613224, 36.128183], [-95.8612918, 36.1281661], [-95.8612461, 36.1282202], [-95.8613706, 36.1282889], [-95.8614008, 36.1282533], [-95.8614119, 36.1282595], [-95.8614941, 36.1281623]]]}, "properties": {"osm_id": 1197840841, "building": "detached", "name": "", "height": null, "height_m": null, "levels": null, "tract_id": "40143007314", "tract_name": "73.14", "tags": {"building": "detached", "source": "microsoft/BuildingFootprints"}}}, {"type": "Feature", "geometry": {"type": "Polygon", "coordinates": [[[-95.8604996, 36.1271165], [-95.8604958, 36.1269519], [-95.8603215, 36.1269545], [-95.8603232, 36.1270281], [-95.8602991, 36.1270285], [-95.8602999, 36.1270653], [-95.8603723, 36.1270642], [-95.8603735, 36.1271184], [-95.8604996, 36.1271165]]]}, "properties": {"osm_id": 1197840842, "building": "detached", "name": "", "height": null, "height_m": null, "levels": null, "tract_id": "40143007314", "tract_name": "73.14", "tags": {"building": "detached", "source": "microsoft/BuildingFootprints"}}}, {"type": "Feature", "geometry": {"type": "Polygon", "coordinates": [[[-95.8608343, 36.1282153], [-95.8608368, 36.1283063], [-95.8609993, 36.1283034], [-95.860995, 36.1281442], [-95.8608727, 36.1281464], [-95.8608746, 36.1282146], [-95.8608343, 36.1282153]]]}, "properties": {"osm_id": 1197840846, "building": "detached", "name": "", "height": null, "height_m": null, "levels": null, "tract_id": "40143007314", "tract_name": "73.14", "tags": {"building": "detached", "source": "microsoft/BuildingFootprints"}}}, {"type": "Feature", "geometry": {"type": "Polygon", "coordinates": [[[-95.8608508, 36.1269368], [-95.8608533, 36.1270353], [-95.8608066, 36.1270361], [-95.8608083, 36.1270989], [-95.8609799, 36.1270959], [-95.8609756, 36.1269346], [-95.8608508, 36.1269368]]]}, "properties": {"osm_id": 1197840851, "building": "detached", "name": "", "height": null, "height_m": null, "levels": null, "tract_id": "40143007314", "tract_name": "73.14", "tags": {"building": "detached", "source": "microsoft/BuildingFootprints"}}}, {"type": "Feature", "geometry": {"type": "Polygon", "coordinates": [[[-95.8604511, 36.1271484], [-95.8603209, 36.1271505], [-95.8603245, 36.1272999], [-95.8605057, 36.127297], [-95.8605042, 36.1272364], [-95.8604533, 36.1272372], [-95.8604511, 36.1271484]]]}, "properties": {"osm_id": 1197840853, "building": "detached", "name": "", "height": null, "height_m": null, "levels": null, "tract_id": "40143007314", "tract_name": "73.14", "tags": {"building": "detached", "source": "microsoft/BuildingFootprints"}}}, {"type": "Feature", "geometry": {"type": "Polygon", "coordinates": [[[-95.8607966, 36.1268341], [-95.8607987, 36.1269099], [-95.8609745, 36.1269067], [-95.8609704, 36.1267626], [-95.8608429, 36.126765], [-95.8608448, 36.1268332], [-95.8607966, 36.1268341]]]}, "properties": {"osm_id": 1197840858, "building": "detached", "name": "", "height": null, "height_m": null, "levels": null, "tract_id": "40143007314", "tract_name": "73.14", "tags": {"building": "detached", "source": "microsoft/BuildingFootprints"}}}, {"type": "Feature", "geometry": {"type": "Polygon", "coordinates": [[[-95.8615875, 36.1269068], [-95.8615657, 36.1269334], [-95.8614961, 36.1268961], [-95.861423, 36.1269853], [-95.8615703, 36.127064], [-95.8616651, 36.1269483], [-95.8615875, 36.1269068]]]}, "properties": {"osm_id": 1197840863, "building": "detached", "name": "", "height": null, "height_m": null, "levels": null, "tract_id": "40143007314", "tract_name": "73.14", "tags": {"addr:city": "Tulsa", "addr:country": "US", "addr:housenumber": "10153", "addr:postcode": "74129", "addr:state": "OK", "addr:street": "East 24th Place South", "building": "detached"}}}, {"type": "Feature", "geometry": {"type": "Polygon", "coordinates": [[[-95.8611084, 36.1245312], [-95.8611802, 36.124567], [-95.8611442, 36.124614], [-95.8612121, 36.124648], [-95.8613153, 36.1245131], [-95.8611755, 36.1244434], [-95.8611084, 36.1245312]]]}, "properties": {"osm_id": 1197840866, "building": "detached", "name": "", "height": null, "height_m": null, "levels": null, "tract_id": "40143007314", "tract_name": "73.14", "tags": {"addr:city": "Tulsa", "addr:country": "US", "addr:housenumber": "10322", "addr:postcode": "74129", "addr:state": "OK", "addr:street": "East 25th Place South", "building": "detached"}}}, {"type": "Feature", "geometry": {"type": "Polygon", "coordinates": [[[-95.8611526, 36.1272885], [-95.8611542, 36.1273947], [-95.861232, 36.1273939], [-95.8612329, 36.1274491], [-95.8613321, 36.1274482], [-95.8613291, 36.127251], [-95.8612486, 36.1272518], [-95.8612492, 36.1272876], [-95.8611526, 36.1272885]]]}, "properties": {"osm_id": 1197840872, "building": "detached", "name": "", "height": null, "height_m": null, "levels": null, "tract_id": "40143007314", "tract_name": "73.14", "tags": {"addr:city": "Tulsa", "addr:country": "US", "addr:housenumber": "10240", "addr:postcode": "74129", "addr:state": "OK", "addr:street": "East 24th Street South", "building": "detached"}}}, {"type": "Feature", "geometry": {"type": "Polygon", "coordinates": [[[-95.860473, 36.1275475], [-95.8603416, 36.1275453], [-95.8603377, 36.1276947], [-95.8605184, 36.1276978], [-95.8605206, 36.1276133], [-95.8604713, 36.1276125], [-95.860473, 36.1275475]]]}, "properties": {"osm_id": 1197840874, "building": "detached", "name": "", "height": null, "height_m": null, "levels": null, "tract_id": "40143007314", "tract_name": "73.14", "tags": {"building": "detached", "source": "microsoft/BuildingFootprints"}}}, {"type": "Feature", "geometry": {"type": "Polygon", "coordinates": [[[-95.8610071, 36.1248459], [-95.8609169, 36.1249556], [-95.8609942, 36.1249971], [-95.8609707, 36.1250256], [-95.8610433, 36.1250646], [-95.8611626, 36.1249195], [-95.8610993, 36.1248855], [-95.861064, 36.1249284], [-95.8610277, 36.1249089], [-95.8610574, 36.1248728], [-95.8610071, 36.1248459]]]}, "properties": {"osm_id": 1197840875, "building": "detached", "name": "", "height": null, "height_m": null, "levels": null, "tract_id": "40143007314", "tract_name": "73.14", "tags": {"addr:city": "Tulsa", "addr:country": "US", "addr:housenumber": "10317", "addr:postcode": "74129", "addr:state": "OK", "addr:street": "East 25th Place South", "building": "detached"}}}, {"type": "Feature", "geometry": {"type": "Polygon", "coordinates": [[[-95.8609671, 36.1243307], [-95.8609079, 36.1244011], [-95.8609997, 36.1244514], [-95.8609529, 36.124507], [-95.8610208, 36.1245443], [-95.8611268, 36.1244183], [-95.8609671, 36.1243307]]]}, "properties": {"osm_id": 1197840877, "building": "detached", "name": "", "height": null, "height_m": null, "levels": null, "tract_id": "40143007314", "tract_name": "73.14", "tags": {"addr:city": "Tulsa", "addr:country": "US", "addr:housenumber": "10328", "addr:postcode": "74129", "addr:state": "OK", "addr:street": "East 25th Place South", "building": "detached"}}}, {"type": "Feature", "geometry": {"type": "Polygon", "coordinates": [[[-95.8603814, 36.1244129], [-95.8602205, 36.1244157], [-95.8602221, 36.1244785], [-95.8601725, 36.1244793], [-95.8601738, 36.1245291], [-95.8602207, 36.1245283], [-95.8602223, 36.12459], [-95.8603363, 36.1245881], [-95.8603337, 36.1244896], [-95.8603833, 36.1244887], [-95.8603814, 36.1244129]]]}, "properties": {"osm_id": 1197840879, "building": "detached", "name": "", "height": null, "height_m": null, "levels": null, "tract_id": "40143007314", "tract_name": "73.14", "tags": {"building": "detached", "source": "microsoft/BuildingFootprints"}}}, {"type": "Feature", "geometry": {"type": "Polygon", "coordinates": [[[-95.8611232, 36.127755], [-95.8610509, 36.1277564], [-95.8610541, 36.1278636], [-95.8611624, 36.1278614], [-95.8611634, 36.127895], [-95.861224, 36.1278938], [-95.8612181, 36.1276978], [-95.8611216, 36.1276998], [-95.8611232, 36.127755]]]}, "properties": {"osm_id": 1197840881, "building": "detached", "name": "", "height": null, "height_m": null, "levels": null, "tract_id": "40143007314", "tract_name": "73.14", "tags": {"addr:city": "Tulsa", "addr:country": "US", "addr:housenumber": "10241", "addr:postcode": "74129", "addr:state": "OK", "addr:street": "East 24th Street South", "building": "detached"}}}, {"type": "Feature", "geometry": {"type": "Polygon", "coordinates": [[[-95.8604636, 36.1274361], [-95.8604617, 36.1273375], [-95.8603276, 36.1273392], [-95.8603308, 36.1275027], [-95.860512, 36.1275005], [-95.8605108, 36.1274355], [-95.8604636, 36.1274361]]]}, "properties": {"osm_id": 1197840886, "building": "detached", "name": "", "height": null, "height_m": null, "levels": null, "tract_id": "40143007314", "tract_name": "73.14", "tags": {"building": "detached", "source": "microsoft/BuildingFootprints"}}}, {"type": "Feature", "geometry": {"type": "Polygon", "coordinates": [[[-95.8613783, 36.1268202], [-95.8613162, 36.1267655], [-95.8612012, 36.1268508], [-95.8613548, 36.126986], [-95.8614387, 36.1269239], [-95.8613471, 36.1268433], [-95.8613783, 36.1268202]]]}, "properties": {"osm_id": 1197840888, "building": "detached", "name": "", "height": null, "height_m": null, "levels": null, "tract_id": "40143007314", "tract_name": "73.14", "tags": {"addr:city": "Tulsa", "addr:country": "US", "addr:housenumber": "10157", "addr:postcode": "74129", "addr:state": "OK", "addr:street": "East 24th Place South", "building": "detached"}}}, {"type": "Feature", "geometry": {"type": "Polygon", "coordinates": [[[-95.8608091, 36.1273592], [-95.8608111, 36.1274621], [-95.8610739, 36.1274587], [-95.8610719, 36.1273558], [-95.8608091, 36.1273592]]]}, "properties": {"osm_id": 1197840891, "building": "detached", "name": "", "height": null, "height_m": null, "levels": null, "tract_id": "40143007314", "tract_name": "73.14", "tags": {"addr:city": "Tulsa", "addr:country": "US", "addr:housenumber": "10244", "addr:postcode": "74129", "addr:state": "OK", "addr:street": "East 24th Street South", "building": "detached"}}}, {"type": "Feature", "geometry": {"type": "Polygon", "coordinates": [[[-95.8611613, 36.1265881], [-95.8610475, 36.1264538], [-95.8609434, 36.1265113], [-95.8610571, 36.1266456], [-95.8611613, 36.1265881]]]}, "properties": {"osm_id": 1197840892, "building": "detached", "name": "", "height": null, "height_m": null, "levels": null, "tract_id": "40143007314", "tract_name": "73.14", "tags": {"addr:city": "Tulsa", "addr:country": "US", "addr:housenumber": "10167", "addr:postcode": "74129", "addr:state": "OK", "addr:street": "East 24th Place South", "building": "detached"}}}, {"type": "Feature", "geometry": {"type": "Polygon", "coordinates": [[[-95.8611822, 36.1266178], [-95.8610675, 36.1266815], [-95.8611708, 36.1268028], [-95.861299, 36.1267316], [-95.8612549, 36.1266798], [-95.8612414, 36.1266873], [-95.8611822, 36.1266178]]]}, "properties": {"osm_id": 1197840893, "building": "detached", "name": "", "height": null, "height_m": null, "levels": null, "tract_id": "40143007314", "tract_name": "73.14", "tags": {"addr:city": "Tulsa", "addr:country": "US", "addr:housenumber": "10163", "addr:postcode": "74129", "addr:state": "OK", "addr:street": "East 24th Place South", "building": "detached"}}}, {"type": "Feature", "geometry": {"type": "Polygon", "coordinates": [[[-95.8615491, 36.1251314], [-95.8614826, 36.1250986], [-95.861466, 36.1251207], [-95.86138, 36.1250784], [-95.8612762, 36.1252157], [-95.8614286, 36.1252908], [-95.8615491, 36.1251314]]]}, "properties": {"osm_id": 1197840894, "building": "detached", "name": "", "height": null, "height_m": null, "levels": null, "tract_id": "40143007314", "tract_name": "73.14", "tags": {"addr:city": "Tulsa", "addr:country": "US", "addr:housenumber": "10307", "addr:postcode": "74129", "addr:state": "OK", "addr:street": "East 25th Place South", "building": "detached"}}}, {"type": "Feature", "geometry": {"type": "Polygon", "coordinates": [[[-95.8610309, 36.1279917], [-95.8609451, 36.1279926], [-95.8609446, 36.1279622], [-95.8608159, 36.1279635], [-95.8608183, 36.1281206], [-95.8610329, 36.1281184], [-95.8610309, 36.1279917]]]}, "properties": {"osm_id": 1197840895, "building": "detached", "name": "", "height": null, "height_m": null, "levels": null, "tract_id": "40143007314", "tract_name": "73.14", "tags": {"building": "detached", "source": "microsoft/BuildingFootprints"}}}, {"type": "Feature", "geometry": {"type": "Polygon", "coordinates": [[[-95.8606376, 36.1263761], [-95.8604978, 36.1263473], [-95.8604446, 36.1265156], [-95.8605844, 36.1265444], [-95.8606376, 36.1263761]]]}, "properties": {"osm_id": 1197840896, "building": "detached", "name": "", "height": null, "height_m": null, "levels": null, "tract_id": "40143007314", "tract_name": "73.14", "tags": {"building": "detached", "source": "microsoft/BuildingFootprints"}}}, {"type": "Feature", "geometry": {"type": "Polygon", "coordinates": [[[-95.8608102, 36.1247362], [-95.8607479, 36.1248187], [-95.86082, 36.1248543], [-95.8607968, 36.124885], [-95.8608929, 36.1249324], [-95.8609785, 36.1248191], [-95.8608102, 36.1247362]]]}, "properties": {"osm_id": 1197840897, "building": "detached", "name": "", "height": null, "height_m": null, "levels": null, "tract_id": "40143007314", "tract_name": "73.14", "tags": {"addr:city": "Tulsa", "addr:country": "US", "addr:housenumber": "10323", "addr:postcode": "74129", "addr:state": "OK", "addr:street": "East 25th Place South", "building": "detached"}}}, {"type": "Feature", "geometry": {"type": "Polygon", "coordinates": [[[-95.8608436, 36.1284973], [-95.860999, 36.1284925], [-95.8609975, 36.1284622], [-95.8610377, 36.128461], [-95.8610346, 36.1283961], [-95.8610105, 36.1283968], [-95.8610073, 36.1283298], [-95.8608841, 36.1283336], [-95.8608886, 36.1284288], [-95.8608404, 36.1284303], [-95.8608436, 36.1284973]]]}, "properties": {"osm_id": 1197840899, "building": "detached", "name": "", "height": null, "height_m": null, "levels": null, "tract_id": "40143007314", "tract_name": "73.14", "tags": {"building": "detached", "source": "microsoft/BuildingFootprints"}}}, {"type": "Feature", "geometry": {"type": "Polygon", "coordinates": [[[-95.8602928, 36.1282381], [-95.8603528, 36.1282371], [-95.8603534, 36.128262], [-95.8604392, 36.1282607], [-95.8604397, 36.1282834], [-95.8605352, 36.128282], [-95.8605331, 36.128191], [-95.8605063, 36.1281914], [-95.8605044, 36.1281135], [-95.8603526, 36.1281158], [-95.8603542, 36.1281829], [-95.8602915, 36.1281839], [-95.8602928, 36.1282381]]]}, "properties": {"osm_id": 1197840901, "building": "detached", "name": "", "height": null, "height_m": null, "levels": null, "tract_id": "40143007314", "tract_name": "73.14", "tags": {"building": "detached", "source": "microsoft/BuildingFootprints"}}}, {"type": "Feature", "geometry": {"type": "Polygon", "coordinates": [[[-95.8605159, 36.1280677], [-95.8605139, 36.1280027], [-95.8604666, 36.1280037], [-95.860464, 36.127916], [-95.8603353, 36.1279185], [-95.8603381, 36.1280106], [-95.8602925, 36.1280115], [-95.8602944, 36.1280721], [-95.8605159, 36.1280677]]]}, "properties": {"osm_id": 1197840902, "building": "detached", "name": "", "height": null, "height_m": null, "levels": null, "tract_id": "40143007314", "tract_name": "73.14", "tags": {"building": "detached", "source": "microsoft/BuildingFootprints"}}}, {"type": "Feature", "geometry": {"type": "Polygon", "coordinates": [[[-95.8605431, 36.1284566], [-95.8605465, 36.1283613], [-95.8604902, 36.12836], [-95.8604919, 36.1283124], [-95.8603686, 36.1283095], [-95.8603635, 36.1284524], [-95.8605431, 36.1284566]]]}, "properties": {"osm_id": 1197840905, "building": "detached", "name": "", "height": null, "height_m": null, "levels": null, "tract_id": "40143007314", "tract_name": "73.14", "tags": {"building": "detached", "source": "microsoft/BuildingFootprints"}}}, {"type": "Feature", "geometry": {"type": "Polygon", "coordinates": [[[-95.8614151, 36.1264521], [-95.8614891, 36.1264088], [-95.8614725, 36.1263904], [-95.8615412, 36.1263502], [-95.8614622, 36.126262], [-95.8613822, 36.1263088], [-95.8613701, 36.1262953], [-95.8613075, 36.1263319], [-95.8614151, 36.1264521]]]}, "properties": {"osm_id": 1197840907, "building": "detached", "name": "", "height": null, "height_m": null, "levels": null, "tract_id": "40143007314", "tract_name": "73.14", "tags": {"building": "detached", "source": "microsoft/BuildingFootprints"}}}, {"type": "Feature", "geometry": {"type": "Polygon", "coordinates": [[[-95.8604913, 36.126809], [-95.8604431, 36.1268096], [-95.8604421, 36.126762], [-95.8603134, 36.1267637], [-95.8603161, 36.126898], [-95.8604931, 36.1268956], [-95.8604913, 36.126809]]]}, "properties": {"osm_id": 1197840909, "building": "detached", "name": "", "height": null, "height_m": null, "levels": null, "tract_id": "40143007314", "tract_name": "73.14", "tags": {"building": "detached", "source": "microsoft/BuildingFootprints"}}}, {"type": "Feature", "geometry": {"type": "Polygon", "coordinates": [[[-95.8607114, 36.1247827], [-95.860535, 36.1247001], [-95.8604275, 36.1248499], [-95.8604994, 36.1248836], [-95.8605396, 36.1248275], [-95.8605707, 36.1248421], [-95.8605453, 36.1248774], [-95.8606187, 36.1249118], [-95.8607114, 36.1247827]]]}, "properties": {"osm_id": 1197840912, "building": "detached", "name": "", "height": null, "height_m": null, "levels": null, "tract_id": "40143007314", "tract_name": "73.14", "tags": {"addr:city": "Tulsa", "addr:country": "US", "addr:housenumber": "10329", "addr:postcode": "74129", "addr:state": "OK", "addr:street": "East 25th Place South", "building": "detached"}}}, {"type": "Feature", "geometry": {"type": "Polygon", "coordinates": [[[-95.8614365, 36.1284792], [-95.8614069, 36.1284294], [-95.8614138, 36.1284267], [-95.8613904, 36.1283875], [-95.861415, 36.1283779], [-95.8613739, 36.128309], [-95.8612209, 36.1283686], [-95.8612728, 36.1284555], [-95.8612866, 36.1284502], [-95.8613291, 36.128521], [-95.8614365, 36.1284792]]]}, "properties": {"osm_id": 1197840913, "building": "detached", "name": "", "height": null, "height_m": null, "levels": null, "tract_id": "40143007314", "tract_name": "73.14", "tags": {"building": "detached", "source": "microsoft/BuildingFootprints"}}}, {"type": "Feature", "geometry": {"type": "Polygon", "coordinates": [[[-95.8610675, 36.1329243], [-95.8610674, 36.1329763], [-95.8610359, 36.1329763], [-95.8609575, 36.1329762], [-95.8608792, 36.1329761], [-95.8608009, 36.132976], [-95.860801, 36.1329239], [-95.8608011, 36.1328719], [-95.8610676, 36.1328722], [-95.8610675, 36.1329243]]]}, "properties": {"osm_id": 1240050269, "building": "retail", "name": "D Hall's Investments", "height": null, "height_m": null, "levels": null, "tract_id": "40143007314", "tract_name": "73.14", "tags": {"addr:city": "Tulsa", "addr:housenumber": "10392", "addr:postcode": "74129", "addr:street": "East 21st Street South", "building": "retail", "name": "D Hall's Investments", "office": "financial_advisor"}}}, {"type": "Feature", "geometry": {"type": "Polygon", "coordinates": [[[-95.8610678, 36.1327682], [-95.8610677, 36.1328202], [-95.8610676, 36.1328722], [-95.8608011, 36.1328719], [-95.8608012, 36.1328199], [-95.8608013, 36.1327678], [-95.8610678, 36.1327682]]]}, "properties": {"osm_id": 1240050270, "building": "retail", "name": "Standridge Chiropractic", "height": null, "height_m": null, "levels": null, "tract_id": "40143007314", "tract_name": "73.14", "tags": {"addr:city": "Tulsa", "addr:housenumber": "10390", "addr:postcode": "74129", "addr:street": "East 21st Street South", "building": "retail", "healthcare": "alternative", "healthcare:speciality": "chiropractic", "name": "Standridge Chiropractic", "note": "Dr. Travis Standridge", "phone": "+1 918 665 7077"}}}, {"type": "Feature", "geometry": {"type": "Polygon", "coordinates": [[[-95.861068, 36.1326641], [-95.8610679, 36.1327161], [-95.8610678, 36.1327682], [-95.8608013, 36.1327678], [-95.8608014, 36.1327158], [-95.8608015, 36.1326637], [-95.861068, 36.1326641]]]}, "properties": {"osm_id": 1240050271, "building": "retail", "name": "Prime Time Nutrition", "height": null, "height_m": null, "levels": null, "tract_id": "40143007314", "tract_name": "73.14", "tags": {"addr:city": "Tulsa", "addr:housenumber": "10388", "addr:postcode": "74129", "addr:street": "East 21st Street South", "building": "retail", "fixme": "verify type of store", "name": "Prime Time Nutrition", "opening_hours": "Mo-Fr 08:00-19:30, Sa 09:00-18:00", "shop": "grocery"}}}, {"type": "Feature", "geometry": {"type": "Polygon", "coordinates": [[[-95.8608792, 36.1329761], [-95.8608009, 36.132976], [-95.8608006, 36.1331466], [-95.8608789, 36.1331467], [-95.8608792, 36.1329761]]]}, "properties": {"osm_id": 1240050273, "building": "retail", "name": "", "height": null, "height_m": null, "levels": null, "tract_id": "40143007314", "tract_name": "73.14", "tags": {"addr:city": "Tulsa", "addr:postcode": "74129", "addr:street": "East 21st Street South", "building": "retail", "note": "Need to verify type of store and if still in business. The only information I have is two signs on top: \"Another Creation\" and \"Achieve With Us Staffing.\"", "shop": "yes"}}}, {"type": "Feature", "geometry": {"type": "Polygon", "coordinates": [[[-95.8609575, 36.1329762], [-95.8608792, 36.1329761], [-95.8608789, 36.1331467], [-95.8609572, 36.1331468], [-95.8609575, 36.1329762]]]}, "properties": {"osm_id": 1240050274, "building": "retail", "name": "Cox Communications", "height": null, "height_m": null, "levels": null, "tract_id": "40143007314", "tract_name": "73.14", "tags": {"addr:city": "Tulsa", "addr:postcode": "74129", "addr:street": "East 21st Street South", "building": "retail", "name": "Cox Communications", "office": "telecommunication"}}}, {"type": "Feature", "geometry": {"type": "Polygon", "coordinates": [[[-95.8610359, 36.1329763], [-95.8609575, 36.1329762], [-95.8609572, 36.1331468], [-95.8610355, 36.1331469], [-95.8610359, 36.1329763]]]}, "properties": {"osm_id": 1240050275, "building": "retail", "name": "Farmers Insurance", "height": null, "height_m": null, "levels": null, "tract_id": "40143007314", "tract_name": "73.14", "tags": {"addr:city": "Tulsa", "addr:postcode": "74129", "addr:street": "East 21st Street South", "brand": "Farmers Insurance", "brand:wikidata": "Q1396863", "building": "retail", "name": "Farmers Insurance", "office": "insurance"}}}, {"type": "Feature", "geometry": {"type": "Polygon", "coordinates": [[[-95.8617823, 36.1330965], [-95.8617824, 36.1331516], [-95.8617825, 36.1332068], [-95.8616139, 36.133207], [-95.8616138, 36.1331518], [-95.8616137, 36.1330967], [-95.8617823, 36.1330965]]]}, "properties": {"osm_id": 1240050276, "building": "retail", "name": "Tulsa Lock & Key", "height": null, "height_m": 3.0, "levels": 1, "tract_id": "40143007314", "tract_name": "73.14", "tags": {"addr:city": "Tulsa", "addr:housenumber": "10314", "addr:postcode": "74129", "addr:street": "East 21st Street South", "building": "retail", "building:levels": "1", "craft": "locksmith", "name": "Tulsa Lock & Key", "note": "They may plan to stay open longer than 5 hours per week if they can find an employee.", "opening_hours": "Tu 08:30-11:00; Th 08:30-11:00", "phone": "+1 918 664 5010", "roof:levels": "0", "roof:shape": "flat"}}}, {"type": "Feature", "geometry": {"type": "Polygon", "coordinates": [[[-95.8617822, 36.1330413], [-95.8617823, 36.1330965], [-95.8616137, 36.1330967], [-95.8616136, 36.1330415], [-95.8617822, 36.1330413]]]}, "properties": {"osm_id": 1240050278, "building": "retail", "name": "Toro Taxes Services", "height": null, "height_m": 3.0, "levels": 1, "tract_id": "40143007314", "tract_name": "73.14", "tags": {"addr:city": "Tulsa", "addr:housenumber": "10318", "addr:postcode": "74129", "addr:street": "East 21st Street South", "building": "retail", "building:levels": "1", "name": "Toro Taxes Services", "office": "tax_advisor", "phone": "+1 918 932 8085", "roof:levels": "0", "roof:shape": "flat"}}}, {"type": "Feature", "geometry": {"type": "Polygon", "coordinates": [[[-95.8617821, 36.1329862], [-95.8617822, 36.1330413], [-95.8616136, 36.1330415], [-95.8616135, 36.1329864], [-95.8617821, 36.1329862]]]}, "properties": {"osm_id": 1240050279, "building": "retail", "name": "MedSupport Transportation", "height": null, "height_m": 3.0, "levels": 1, "tract_id": "40143007314", "tract_name": "73.14", "tags": {"addr:city": "Tulsa", "addr:housenumber": "10320", "addr:postcode": "74129", "addr:street": "East 21st Street South", "building": "retail", "building:levels": "1", "name": "MedSupport Transportation", "office": "yes", "phone": "+1 918 627 5111", "roof:levels": "0", "roof:shape": "flat"}}}, {"type": "Feature", "geometry": {"type": "Polygon", "coordinates": [[[-95.861782, 36.132931], [-95.8617821, 36.1329862], [-95.8616135, 36.1329864], [-95.8616134, 36.1329312], [-95.861782, 36.132931]]]}, "properties": {"osm_id": 1240050280, "building": "retail", "name": "Professional Bankruptcy", "height": null, "height_m": 3.0, "levels": 1, "tract_id": "40143007314", "tract_name": "73.14", "tags": {"addr:city": "Tulsa", "addr:housenumber": "10322", "addr:postcode": "74129", "addr:street": "East 21st Street South", "building": "retail", "building:levels": "1", "name": "Professional Bankruptcy", "office": "accountant", "roof:levels": "0", "roof:shape": "flat"}}}, {"type": "Feature", "geometry": {"type": "Polygon", "coordinates": [[[-95.8617819, 36.1328758], [-95.861782, 36.132931], [-95.8616134, 36.1329312], [-95.8616133, 36.132876], [-95.8617819, 36.1328758]]]}, "properties": {"osm_id": 1240050281, "building": "retail", "name": "Shirley's Employment Services", "height": null, "height_m": 3.0, "levels": 1, "tract_id": "40143007314", "tract_name": "73.14", "tags": {"addr:city": "Tulsa", "addr:housenumber": "10324", "addr:postcode": "74129", "addr:street": "East 21st Street South", "building": "retail", "building:levels": "1", "name": "Shirley's Employment Services", "office": "employment_agency", "opening_hours": "Mo-Fr 08:00-14:00", "phone": "+1 918 742 2100", "roof:levels": "0", "roof:shape": "flat"}}}, {"type": "Feature", "geometry": {"type": "Polygon", "coordinates": [[[-95.8617818, 36.1328207], [-95.8617819, 36.1328758], [-95.8616133, 36.132876], [-95.8616131, 36.1328209], [-95.8617818, 36.1328207]]]}, "properties": {"osm_id": 1240050282, "building": "retail", "name": "Est\u00e9tica Mia", "height": null, "height_m": 3.0, "levels": 1, "tract_id": "40143007314", "tract_name": "73.14", "tags": {"addr:city": "Tulsa", "addr:housenumber": "10326", "addr:postcode": "74129", "addr:street": "East 21st Street South", "building": "retail", "building:levels": "1", "name": "Est\u00e9tica Mia", "opening_hours": "Mo-Sa 12:00-18:00", "roof:levels": "0", "roof:shape": "flat", "shop": "beauty"}}}, {"type": "Feature", "geometry": {"type": "Polygon", "coordinates": [[[-95.8617817, 36.1327655], [-95.8617818, 36.1328207], [-95.8616131, 36.1328209], [-95.861613, 36.1327657], [-95.8617817, 36.1327655]]]}, "properties": {"osm_id": 1240050283, "building": "retail", "name": "", "height": null, "height_m": 3.0, "levels": 1, "tract_id": "40143007314", "tract_name": "73.14", "tags": {"addr:city": "Tulsa", "addr:housenumber": "10328", "addr:postcode": "74129", "addr:street": "East 21st Street South", "building": "retail", "building:levels": "1", "roof:levels": "0", "roof:shape": "flat", "shop": "vacant"}}}, {"type": "Feature", "geometry": {"type": "Polygon", "coordinates": [[[-95.8617816, 36.1327104], [-95.8617817, 36.1327655], [-95.861613, 36.1327657], [-95.8616129, 36.1327106], [-95.8617816, 36.1327104]]]}, "properties": {"osm_id": 1240050284, "building": "retail", "name": "Living Power Church", "height": null, "height_m": 3.0, "levels": 1, "tract_id": "40143007314", "tract_name": "73.14", "tags": {"addr:city": "Tulsa", "addr:housenumber": "10330", "addr:postcode": "74129", "addr:street": "East 21st Street South", "amenity": "place_of_worship", "building": "retail", "building:levels": "1", "description": "Power Service 10am, Bible Study 9am", "name": "Living Power Church", "religion": "christian", "roof:levels": "0", "roof:shape": "flat", "service_times": "Su 10:00"}}}, {"type": "Feature", "geometry": {"type": "Polygon", "coordinates": [[[-95.8617814, 36.1326], [-95.8617815, 36.1326552], [-95.8617816, 36.1327104], [-95.8616129, 36.1327106], [-95.8616128, 36.1326554], [-95.8616127, 36.1326002], [-95.8616126, 36.1325451], [-95.8616125, 36.1324899], [-95.8616124, 36.1324348], [-95.8617811, 36.1324346], [-95.8617812, 36.1324897], [-95.8617813, 36.1325449], [-95.8617814, 36.1326]]]}, "properties": {"osm_id": 1240050285, "building": "retail", "name": "Specialty Prosthetics and Orthotics Tulsa", "height": null, "height_m": 3.0, "levels": 1, "tract_id": "40143007314", "tract_name": "73.14", "tags": {"addr:city": "Tulsa", "addr:housenumber": "10338", "addr:postcode": "74129", "addr:street": "East 21st Street South", "building": "retail", "building:levels": "1", "name": "Specialty Prosthetics and Orthotics Tulsa", "phone": "+1 918 832 7768", "roof:levels": "0", "roof:shape": "flat", "short_name": "S.P.O.T."}}}, {"type": "Feature", "geometry": {"type": "Polygon", "coordinates": [[[-95.8617806, 36.1321588], [-95.8617807, 36.1322139], [-95.8617808, 36.1322691], [-95.8617809, 36.1323242], [-95.861781, 36.1323794], [-95.8617811, 36.1324346], [-95.8616124, 36.1324348], [-95.8616123, 36.1323796], [-95.8616122, 36.1323244], [-95.8616121, 36.1322693], [-95.861612, 36.1322141], [-95.8616119, 36.132159], [-95.8617806, 36.1321588]]]}, "properties": {"osm_id": 1240050290, "building": "retail", "name": "Kid's Dental", "height": null, "height_m": 3.0, "levels": 1, "tract_id": "40143007314", "tract_name": "73.14", "tags": {"addr:city": "Tulsa", "addr:housenumber": "10342", "addr:postcode": "74129", "addr:street": "East 21st Street South", "amenity": "dentist", "building": "retail", "building:levels": "1", "name": "Kid's Dental", "phone": "+1 918 895 8090", "roof:levels": "0", "roof:shape": "flat", "service_times": "Mo-Th 09:00-18:00; Fri 09:00+"}}}, {"type": "Feature", "geometry": {"type": "Polygon", "coordinates": [[[-95.8617805, 36.1321036], [-95.8617806, 36.1321588], [-95.8616119, 36.132159], [-95.8616118, 36.1321038], [-95.8617805, 36.1321036]]]}, "properties": {"osm_id": 1240050293, "building": "retail", "name": "Molly Maid", "height": null, "height_m": 3.0, "levels": 1, "tract_id": "40143007314", "tract_name": "73.14", "tags": {"addr:city": "Tulsa", "addr:housenumber": "10350", "addr:postcode": "74129", "addr:street": "East 21st Street South", "building": "retail", "building:levels": "1", "name": "Molly Maid", "note": "It's the office of a cleaning service.", "office": "yes", "roof:levels": "0", "roof:shape": "flat"}}}, {"type": "Feature", "geometry": {"type": "Polygon", "coordinates": [[[-95.8617804, 36.1320703], [-95.8617805, 36.1321036], [-95.8616118, 36.1321038], [-95.8616117, 36.1320705], [-95.8617804, 36.1320703]]]}, "properties": {"osm_id": 1240050294, "building": "retail", "name": "Albert's All Lighting and Design", "height": null, "height_m": 3.0, "levels": 1, "tract_id": "40143007314", "tract_name": "73.14", "tags": {"addr:city": "Tulsa", "addr:housenumber": "10352", "addr:postcode": "74129", "addr:street": "East 21st Street South", "building": "retail", "building:levels": "1", "name": "Albert's All Lighting and Design", "office": "architect", "roof:levels": "0", "roof:shape": "flat"}}}, {"type": "Feature", "geometry": {"type": "Polygon", "coordinates": [[[-95.8670492, 36.1324088], [-95.8669092, 36.1324711], [-95.8670949, 36.1327434], [-95.8672348, 36.1326812], [-95.8670492, 36.1324088]]]}, "properties": {"osm_id": 1306981468, "building": "apartments", "name": "", "height": null, "height_m": null, "levels": null, "tract_id": "40143007314", "tract_name": "73.14", "tags": {"building": "apartments"}}}, {"type": "Feature", "geometry": {"type": "Polygon", "coordinates": [[[-95.8672924, 36.1327555], [-95.8671527, 36.1328183], [-95.8673399, 36.1330899], [-95.8674795, 36.1330272], [-95.8672924, 36.1327555]]]}, "properties": {"osm_id": 1306981469, "building": "apartments", "name": "", "height": null, "height_m": null, "levels": null, "tract_id": "40143007314", "tract_name": "73.14", "tags": {"building": "apartments"}}}, {"type": "Feature", "geometry": {"type": "Polygon", "coordinates": [[[-95.8667692, 36.1329685], [-95.8667701, 36.1330976], [-95.867155, 36.1330957], [-95.867154, 36.1329667], [-95.8667692, 36.1329685]]]}, "properties": {"osm_id": 1306981470, "building": "apartments", "name": "", "height": null, "height_m": null, "levels": null, "tract_id": "40143007314", "tract_name": "73.14", "tags": {"building": "apartments"}}}, {"type": "Feature", "geometry": {"type": "Polygon", "coordinates": [[[-95.8669198, 36.1325905], [-95.86676, 36.1325933], [-95.8667683, 36.1329041], [-95.8669281, 36.1329013], [-95.8669198, 36.1325905]]]}, "properties": {"osm_id": 1306981471, "building": "apartments", "name": "", "height": null, "height_m": null, "levels": null, "tract_id": "40143007314", "tract_name": "73.14", "tags": {"building": "apartments"}}}, {"type": "Feature", "geometry": {"type": "Polygon", "coordinates": [[[-95.8666623, 36.1325082], [-95.8665026, 36.1325109], [-95.8665108, 36.1328217], [-95.8666706, 36.132819], [-95.8666623, 36.1325082]]]}, "properties": {"osm_id": 1306981472, "building": "apartments", "name": "", "height": null, "height_m": null, "levels": null, "tract_id": "40143007314", "tract_name": "73.14", "tags": {"building": "apartments"}}}, {"type": "Feature", "geometry": {"type": "Polygon", "coordinates": [[[-95.8664069, 36.1325639], [-95.8662471, 36.1325635], [-95.8662459, 36.1328743], [-95.8664057, 36.1328747], [-95.8664069, 36.1325639]]]}, "properties": {"osm_id": 1306981473, "building": "apartments", "name": "", "height": null, "height_m": null, "levels": null, "tract_id": "40143007314", "tract_name": "73.14", "tags": {"building": "apartments"}}}, {"type": "Feature", "geometry": {"type": "Polygon", "coordinates": [[[-95.8666348, 36.1330993], [-95.8666354, 36.1329702], [-95.8662505, 36.1329692], [-95.86625, 36.1330982], [-95.8666348, 36.1330993]]]}, "properties": {"osm_id": 1306981474, "building": "apartments", "name": "", "height": null, "height_m": null, "levels": null, "tract_id": "40143007314", "tract_name": "73.14", "tags": {"building": "apartments"}}}, {"type": "Feature", "geometry": {"type": "Polygon", "coordinates": [[[-95.8639223, 36.1312364], [-95.8638509, 36.1312102], [-95.8637987, 36.1313032], [-95.863851, 36.1313224], [-95.8638438, 36.1313352], [-95.8639639, 36.1313793], [-95.8640095, 36.1312981], [-95.8639943, 36.1312925], [-95.8640245, 36.1312387], [-95.8639387, 36.1312072], [-95.8639223, 36.1312364]]]}, "properties": {"osm_id": 1306981584, "building": "detached", "name": "", "height": null, "height_m": null, "levels": null, "tract_id": "40143007314", "tract_name": "73.14", "tags": {"building": "detached"}}}, {"type": "Feature", "geometry": {"type": "Polygon", "coordinates": [[[-95.8625496, 36.1316408], [-95.8626741, 36.1317108], [-95.8627501, 36.1316225], [-95.8626256, 36.1315525], [-95.8625496, 36.1316408]]]}, "properties": {"osm_id": 1306981585, "building": "detached", "name": "", "height": null, "height_m": null, "levels": null, "tract_id": "40143007314", "tract_name": "73.14", "tags": {"building": "detached"}}}, {"type": "Feature", "geometry": {"type": "Polygon", "coordinates": [[[-95.861906, 36.1312362], [-95.8618982, 36.1312632], [-95.8618122, 36.131247], [-95.8617804, 36.1313571], [-95.8619644, 36.1313918], [-95.8619954, 36.1312846], [-95.8619822, 36.1312821], [-95.8619909, 36.1312523], [-95.861906, 36.1312362]]]}, "properties": {"osm_id": 1306981586, "building": "detached", "name": "", "height": null, "height_m": null, "levels": null, "tract_id": "40143007314", "tract_name": "73.14", "tags": {"building": "detached"}}}, {"type": "Feature", "geometry": {"type": "Polygon", "coordinates": [[[-95.8633441, 36.1311221], [-95.863568, 36.131228], [-95.8636216, 36.131154], [-95.8635341, 36.1311126], [-95.8635555, 36.131083], [-95.8634904, 36.1310522], [-95.8634737, 36.1310752], [-95.8634024, 36.1310416], [-95.8633441, 36.1311221]]]}, "properties": {"osm_id": 1306981587, "building": "detached", "name": "", "height": null, "height_m": null, "levels": null, "tract_id": "40143007314", "tract_name": "73.14", "tags": {"building": "detached"}}}, {"type": "Feature", "geometry": {"type": "Polygon", "coordinates": [[[-95.8681462, 36.1309493], [-95.8681542, 36.1313759], [-95.8683286, 36.1313738], [-95.8683205, 36.1309471], [-95.8681462, 36.1309493]]]}, "properties": {"osm_id": 1306981588, "building": "apartments", "name": "", "height": null, "height_m": null, "levels": null, "tract_id": "40143007314", "tract_name": "73.14", "tags": {"building": "apartments"}}}, {"type": "Feature", "geometry": {"type": "Polygon", "coordinates": [[[-95.8630323, 36.1319149], [-95.8631756, 36.1320018], [-95.8632433, 36.1319289], [-95.8631, 36.1318421], [-95.8630323, 36.1319149]]]}, "properties": {"osm_id": 1306981589, "building": "detached", "name": "", "height": null, "height_m": null, "levels": null, "tract_id": "40143007314", "tract_name": "73.14", "tags": {"building": "detached"}}}, {"type": "Feature", "geometry": {"type": "Polygon", "coordinates": [[[-95.863863, 36.1331556], [-95.8637208, 36.1331564], [-95.8637221, 36.1333037], [-95.8638643, 36.1333029], [-95.863863, 36.1331556]]]}, "properties": {"osm_id": 1306981590, "building": "detached", "name": "", "height": null, "height_m": null, "levels": null, "tract_id": "40143007314", "tract_name": "73.14", "tags": {"building": "detached"}}}, {"type": "Feature", "geometry": {"type": "Polygon", "coordinates": [[[-95.8632249, 36.1310862], [-95.8632878, 36.1310103], [-95.8630924, 36.1309045], [-95.8630373, 36.1309709], [-95.8631043, 36.1310071], [-95.8630963, 36.1310166], [-95.8632249, 36.1310862]]]}, "properties": {"osm_id": 1306981591, "building": "detached", "name": "", "height": null, "height_m": null, "levels": null, "tract_id": "40143007314", "tract_name": "73.14", "tags": {"building": "detached"}}}, {"type": "Feature", "geometry": {"type": "Polygon", "coordinates": [[[-95.8642949, 36.1314228], [-95.8643914, 36.1314211], [-95.8643882, 36.1313063], [-95.8642434, 36.131309], [-95.8642461, 36.1314064], [-95.8642944, 36.1314055], [-95.8642949, 36.1314228]]]}, "properties": {"osm_id": 1306981592, "building": "detached", "name": "", "height": null, "height_m": null, "levels": null, "tract_id": "40143007314", "tract_name": "73.14", "tags": {"building": "detached"}}}, {"type": "Feature", "geometry": {"type": "Polygon", "coordinates": [[[-95.867945, 36.1305216], [-95.8682427, 36.1305185], [-95.8682409, 36.1304037], [-95.8679432, 36.1304068], [-95.867945, 36.1305216]]]}, "properties": {"osm_id": 1306981593, "building": "apartments", "name": "", "height": null, "height_m": null, "levels": null, "tract_id": "40143007314", "tract_name": "73.14", "tags": {"building": "apartments"}}}, {"type": "Feature", "geometry": {"type": "Polygon", "coordinates": [[[-95.8623256, 36.1313616], [-95.8623072, 36.1313937], [-95.8622409, 36.1313689], [-95.8621919, 36.1314546], [-95.8622339, 36.1314703], [-95.8622216, 36.1314917], [-95.8623199, 36.1315284], [-95.8623995, 36.1313891], [-95.8623256, 36.1313616]]]}, "properties": {"osm_id": 1306981594, "building": "detached", "name": "", "height": null, "height_m": null, "levels": null, "tract_id": "40143007314", "tract_name": "73.14", "tags": {"building": "detached"}}}, {"type": "Feature", "geometry": {"type": "Polygon", "coordinates": [[[-95.8636519, 36.132817], [-95.8636464, 36.1329599], [-95.8637737, 36.1329631], [-95.8637792, 36.1328202], [-95.8636519, 36.132817]]]}, "properties": {"osm_id": 1306981595, "building": "detached", "name": "", "height": null, "height_m": null, "levels": null, "tract_id": "40143007314", "tract_name": "73.14", "tags": {"building": "detached"}}}, {"type": "Feature", "geometry": {"type": "Polygon", "coordinates": [[[-95.862867, 36.1318266], [-95.863017, 36.1319067], [-95.8630734, 36.1318378], [-95.8629234, 36.1317577], [-95.862867, 36.1318266]]]}, "properties": {"osm_id": 1306981596, "building": "detached", "name": "", "height": null, "height_m": null, "levels": null, "tract_id": "40143007314", "tract_name": "73.14", "tags": {"building": "detached"}}}, {"type": "Feature", "geometry": {"type": "Polygon", "coordinates": [[[-95.8641857, 36.1325156], [-95.8641881, 36.1325871], [-95.864373, 36.1325832], [-95.8643707, 36.1325118], [-95.8641857, 36.1325156]]]}, "properties": {"osm_id": 1306981597, "building": "detached", "name": "", "height": null, "height_m": null, "levels": null, "tract_id": "40143007314", "tract_name": "73.14", "tags": {"building": "detached"}}}, {"type": "Feature", "geometry": {"type": "Polygon", "coordinates": [[[-95.8640202, 36.131372], [-95.8640651, 36.1313794], [-95.8640609, 36.131396], [-95.8641653, 36.1314133], [-95.8641933, 36.1313031], [-95.8640439, 36.1312784], [-95.8640202, 36.131372]]]}, "properties": {"osm_id": 1306981598, "building": "detached", "name": "", "height": null, "height_m": null, "levels": null, "tract_id": "40143007314", "tract_name": "73.14", "tags": {"building": "detached"}}}, {"type": "Feature", "geometry": {"type": "Polygon", "coordinates": [[[-95.8642321, 36.1327174], [-95.8642308, 36.132804], [-95.8643595, 36.1328053], [-95.8643617, 36.1326624], [-95.8642678, 36.1326614], [-95.864267, 36.1327178], [-95.8642321, 36.1327174]]]}, "properties": {"osm_id": 1306981599, "building": "detached", "name": "", "height": null, "height_m": null, "levels": null, "tract_id": "40143007314", "tract_name": "73.14", "tags": {"building": "detached"}}}, {"type": "Feature", "geometry": {"type": "Polygon", "coordinates": [[[-95.8627203, 36.131724], [-95.862764, 36.1317469], [-95.8627542, 36.1317591], [-95.8628409, 36.1318044], [-95.8629131, 36.1317144], [-95.8627827, 36.1316462], [-95.8627203, 36.131724]]]}, "properties": {"osm_id": 1306981600, "building": "detached", "name": "", "height": null, "height_m": null, "levels": null, "tract_id": "40143007314", "tract_name": "73.14", "tags": {"building": "detached"}}}, {"type": "Feature", "geometry": {"type": "Polygon", "coordinates": [[[-95.8638172, 36.132992], [-95.8637126, 36.1329912], [-95.863711, 36.1331276], [-95.8638156, 36.1331285], [-95.8638172, 36.132992]]]}, "properties": {"osm_id": 1306981601, "building": "detached", "name": "", "height": null, "height_m": null, "levels": null, "tract_id": "40143007314", "tract_name": "73.14", "tags": {"building": "detached"}}}, {"type": "Feature", "geometry": {"type": "Polygon", "coordinates": [[[-95.8677422, 36.1307508], [-95.8678763, 36.1307499], [-95.867874, 36.1305095], [-95.8677399, 36.1305103], [-95.8677422, 36.1307508]]]}, "properties": {"osm_id": 1306981602, "building": "apartments", "name": "", "height": null, "height_m": null, "levels": null, "tract_id": "40143007314", "tract_name": "73.14", "tags": {"building": "apartments"}}}, {"type": "Feature", "geometry": {"type": "Polygon", "coordinates": [[[-95.8636678, 36.1326434], [-95.8636427, 36.1327817], [-95.8637328, 36.1327924], [-95.863758, 36.1326541], [-95.8636678, 36.1326434]]]}, "properties": {"osm_id": 1306981603, "building": "detached", "name": "", "height": null, "height_m": null, "levels": null, "tract_id": "40143007314", "tract_name": "73.14", "tags": {"building": "detached"}}}, {"type": "Feature", "geometry": {"type": "Polygon", "coordinates": [[[-95.8636754, 36.1311223], [-95.8636315, 36.1312018], [-95.8637018, 36.1312271], [-95.8636699, 36.1312849], [-95.8637572, 36.1313164], [-95.8638514, 36.1311457], [-95.8637878, 36.1311228], [-95.8637694, 36.1311561], [-95.8636754, 36.1311223]]]}, "properties": {"osm_id": 1306981604, "building": "detached", "name": "", "height": null, "height_m": null, "levels": null, "tract_id": "40143007314", "tract_name": "73.14", "tags": {"building": "detached"}}}, {"type": "Feature", "geometry": {"type": "Polygon", "coordinates": [[[-95.8680773, 36.130901], [-95.8686084, 36.1309022], [-95.8686089, 36.130762], [-95.8680778, 36.1307608], [-95.8680773, 36.130901]]]}, "properties": {"osm_id": 1306981605, "building": "apartments", "name": "", "height": null, "height_m": null, "levels": null, "tract_id": "40143007314", "tract_name": "73.14", "tags": {"building": "apartments"}}}, {"type": "Feature", "geometry": {"type": "Polygon", "coordinates": [[[-95.8633727, 36.132096], [-95.8634136, 36.1320294], [-95.8633941, 36.1320216], [-95.8634116, 36.1319931], [-95.8633466, 36.131967], [-95.8633337, 36.131988], [-95.8632483, 36.1319537], [-95.8632027, 36.1320279], [-95.8633727, 36.132096]]]}, "properties": {"osm_id": 1306981606, "building": "detached", "name": "", "height": null, "height_m": null, "levels": null, "tract_id": "40143007314", "tract_name": "73.14", "tags": {"building": "detached"}}}, {"type": "Feature", "geometry": {"type": "Polygon", "coordinates": [[[-95.8639836, 36.13217], [-95.8638185, 36.1321538], [-95.8638072, 36.1322286], [-95.8639723, 36.1322448], [-95.8639836, 36.13217]]]}, "properties": {"osm_id": 1306981607, "building": "detached", "name": "", "height": null, "height_m": null, "levels": null, "tract_id": "40143007314", "tract_name": "73.14", "tags": {"building": "detached"}}}, {"type": "Feature", "geometry": {"type": "Polygon", "coordinates": [[[-95.8641451, 36.1321731], [-95.8641444, 36.1321506], [-95.8640252, 36.1321532], [-95.8640288, 36.1322614], [-95.8641882, 36.1322579], [-95.8641853, 36.1321723], [-95.8641451, 36.1321731]]]}, "properties": {"osm_id": 1306981608, "building": "detached", "name": "", "height": null, "height_m": null, "levels": null, "tract_id": "40143007314", "tract_name": "73.14", "tags": {"building": "detached"}}}, {"type": "Feature", "geometry": {"type": "Polygon", "coordinates": [[[-95.8634484, 36.1320318], [-95.8634059, 36.1321088], [-95.8635569, 36.132163], [-95.8635993, 36.132086], [-95.8634484, 36.1320318]]]}, "properties": {"osm_id": 1306981609, "building": "detached", "name": "", "height": null, "height_m": null, "levels": null, "tract_id": "40143007314", "tract_name": "73.14", "tags": {"building": "detached"}}}, {"type": "Feature", "geometry": {"type": "Polygon", "coordinates": [[[-95.8643057, 36.1321424], [-95.8642294, 36.1321439], [-95.8642329, 36.1322578], [-95.8644098, 36.1322542], [-95.8644067, 36.1321503], [-95.8643745, 36.132151], [-95.8643735, 36.1321172], [-95.864305, 36.1321186], [-95.8643057, 36.1321424]]]}, "properties": {"osm_id": 1306981610, "building": "detached", "name": "", "height": null, "height_m": null, "levels": null, "tract_id": "40143007314", "tract_name": "73.14", "tags": {"building": "detached"}}}, {"type": "Feature", "geometry": {"type": "Polygon", "coordinates": [[[-95.8620104, 36.1313908], [-95.8620533, 36.1314048], [-95.8620453, 36.1314207], [-95.8621432, 36.1314525], [-95.8621953, 36.1313482], [-95.8620546, 36.1313024], [-95.8620104, 36.1313908]]]}, "properties": {"osm_id": 1306981611, "building": "detached", "name": "", "height": null, "height_m": null, "levels": null, "tract_id": "40143007314", "tract_name": "73.14", "tags": {"building": "detached"}}}, {"type": "Feature", "geometry": {"type": "Polygon", "coordinates": [[[-95.8677228, 36.1310389], [-95.8678607, 36.1310404], [-95.8678647, 36.1308021], [-95.8677268, 36.1308006], [-95.8677228, 36.1310389]]]}, "properties": {"osm_id": 1306981612, "building": "apartments", "name": "", "height": null, "height_m": null, "levels": null, "tract_id": "40143007314", "tract_name": "73.14", "tags": {"building": "apartments"}}}, {"type": "Feature", "geometry": {"type": "Polygon", "coordinates": [[[-95.8624096, 36.1314791], [-95.8623541, 36.1315488], [-95.8625059, 36.1316276], [-95.8625614, 36.131558], [-95.8624096, 36.1314791]]]}, "properties": {"osm_id": 1306981613, "building": "detached", "name": "", "height": null, "height_m": null, "levels": null, "tract_id": "40143007314", "tract_name": "73.14", "tags": {"building": "detached"}}}, {"type": "Feature", "geometry": {"type": "Polygon", "coordinates": [[[-95.8685895, 36.1309896], [-95.8684087, 36.1309878], [-95.868404, 36.1312984], [-95.8685864, 36.1313002], [-95.8685885, 36.1311595], [-95.868587, 36.1311594], [-95.8685895, 36.1309896]]]}, "properties": {"osm_id": 1306981614, "building": "apartments", "name": "", "height": null, "height_m": null, "levels": null, "tract_id": "40143007314", "tract_name": "73.14", "tags": {"building": "apartments"}}}, {"type": "Feature", "geometry": {"type": "Polygon", "coordinates": [[[-95.8635902, 36.1321955], [-95.8637578, 36.1322323], [-95.8637858, 36.1321488], [-95.8637715, 36.1321457], [-95.8637816, 36.1321156], [-95.8637064, 36.1320991], [-95.8636981, 36.1321239], [-95.86362, 36.1321068], [-95.8635902, 36.1321955]]]}, "properties": {"osm_id": 1306981615, "building": "detached", "name": "", "height": null, "height_m": null, "levels": null, "tract_id": "40143007314", "tract_name": "73.14", "tags": {"building": "detached"}}}, {"type": "Feature", "geometry": {"type": "Polygon", "coordinates": [[[-95.8637006, 36.132556], [-95.8639196, 36.1325825], [-95.8639333, 36.1325084], [-95.8637144, 36.1324818], [-95.8637006, 36.132556]]]}, "properties": {"osm_id": 1306981616, "building": "detached", "name": "", "height": null, "height_m": null, "levels": null, "tract_id": "40143007314", "tract_name": "73.14", "tags": {"building": "detached"}}}, {"type": "Feature", "geometry": {"type": "Polygon", "coordinates": [[[-95.8658058, 36.1323291], [-95.8647357, 36.1323377], [-95.8647377, 36.1324958], [-95.8658078, 36.1324872], [-95.8658058, 36.1323291]]]}, "properties": {"osm_id": 1306981617, "building": "retail", "name": "", "height": null, "height_m": null, "levels": null, "tract_id": "40143007314", "tract_name": "73.14", "tags": {"building": "retail"}}}, {"type": "Feature", "geometry": {"type": "Polygon", "coordinates": [[[-95.8683054, 36.1305182], [-95.8686015, 36.13052], [-95.8686025, 36.130403], [-95.8683064, 36.1304013], [-95.8683054, 36.1305182]]]}, "properties": {"osm_id": 1306981618, "building": "apartments", "name": "", "height": null, "height_m": null, "levels": null, "tract_id": "40143007314", "tract_name": "73.14", "tags": {"building": "apartments"}}}, {"type": "Feature", "geometry": {"type": "Polygon", "coordinates": [[[-95.8678491, 36.1310946], [-95.8677134, 36.1310936], [-95.8677108, 36.1313319], [-95.8678464, 36.1313329], [-95.8678491, 36.1310946]]]}, "properties": {"osm_id": 1306981619, "building": "apartments", "name": "", "height": null, "height_m": null, "levels": null, "tract_id": "40143007314", "tract_name": "73.14", "tags": {"building": "apartments"}}}, {"type": "Feature", "geometry": {"type": "Polygon", "coordinates": [[[-95.865163, 36.1331729], [-95.8651616, 36.1326205], [-95.8656189, 36.1326198], [-95.8656203, 36.1331722], [-95.865163, 36.1331729]]]}, "properties": {"osm_id": 1378474918, "building": "retail", "name": "", "height": null, "height_m": null, "levels": null, "tract_id": "40143007314", "tract_name": "73.14", "tags": {"addr:city": "Tulsa", "addr:country": "US", "addr:housenumber": "9908", "addr:postcode": "74129", "addr:state": "OK", "addr:street": "East 21st Street South", "building": "retail"}}}, {"type": "Feature", "geometry": {"type": "Polygon", "coordinates": [[[-95.8669889, 36.1196195], [-95.8669125, 36.1196199], [-95.8669098, 36.1192461], [-95.8669862, 36.1192458], [-95.8669889, 36.1196195]]]}, "properties": {"osm_id": 1380466032, "building": "yes", "name": "", "height": null, "height_m": null, "levels": null, "tract_id": "40143007314", "tract_name": "73.14", "tags": {"addr:city": "Tulsa", "addr:country": "US", "addr:housenumber": "9737", "addr:postcode": "74146", "addr:state": "OK", "addr:street": "East 31st Street South", "building": "yes"}}}, {"type": "Feature", "geometry": {"type": "Polygon", "coordinates": [[[-95.8660613, 36.1194662], [-95.8661846, 36.1194645], [-95.86618, 36.1192392], [-95.8660566, 36.1192409], [-95.8660613, 36.1194662]]]}, "properties": {"osm_id": 1387916478, "building": "retail", "name": "Medijuana", "height": null, "height_m": null, "levels": null, "tract_id": "40143007314", "tract_name": "73.14", "tags": {"building": "retail", "check_date": "2022-11-14", "name": "Medijuana", "shop": "cannabis"}}}, {"type": "Feature", "geometry": {"type": "Polygon", "coordinates": [[[-95.8669224, 36.1191523], [-95.8668661, 36.1191515], [-95.8668647, 36.1192078], [-95.866921, 36.1192086], [-95.8669224, 36.1191523]]]}, "properties": {"osm_id": 1387916479, "building": "yes", "name": "", "height": null, "height_m": null, "levels": null, "tract_id": "40143007314", "tract_name": "73.14", "tags": {"building": "yes"}}}, {"type": "Feature", "geometry": {"type": "Polygon", "coordinates": [[[-95.8660642, 36.1196967], [-95.8660627, 36.1195732], [-95.8657864, 36.1195754], [-95.8657879, 36.1196989], [-95.8660642, 36.1196967]]]}, "properties": {"osm_id": 1387916480, "building": "commercial", "name": "Add'vantage Funerals & Cremation", "height": null, "height_m": null, "levels": null, "tract_id": "40143007314", "tract_name": "73.14", "tags": {"addr:city": "Tulsa", "addr:country": "US", "addr:housenumber": "9751", "addr:postcode": "74146", "addr:state": "OK", "addr:street": "East 31st Street South", "building": "commercial", "check_date": "2022-11-14", "fax": "+1 918 624 2830", "name": "Add'vantage Funerals & Cremation", "phone": "+1 918 624 2828", "shop": "funeral_directors", "website": "https://www.garykelleyafs.com/"}}}, {"type": "Feature", "geometry": {"type": "Polygon", "coordinates": [[[-95.8641566, 36.1199227], [-95.8642001, 36.1199226], [-95.8642008, 36.1200569], [-95.8641571, 36.1200571], [-95.8641572, 36.1200809], [-95.8642012, 36.1200808], [-95.8642014, 36.1201501], [-95.8640204, 36.1201506], [-95.8640201, 36.1200824], [-95.8640613, 36.1200823], [-95.8640612, 36.1200574], [-95.8640183, 36.1200575], [-95.8640176, 36.1199232], [-95.8640606, 36.119923], [-95.8640605, 36.1198976], [-95.8640194, 36.1198977], [-95.8640191, 36.1198321], [-95.8642001, 36.1198316], [-95.8642004, 36.1199004], [-95.8641565, 36.1199005], [-95.8641566, 36.1199227]]]}, "properties": {"osm_id": 1387916837, "building": "apartments", "name": "", "height": null, "height_m": null, "levels": null, "tract_id": "40143007314", "tract_name": "73.14", "tags": {"building": "apartments"}}}, {"type": "Feature", "geometry": {"type": "Polygon", "coordinates": [[[-95.8641565, 36.1195194], [-95.8642001, 36.1195193], [-95.8642007, 36.1196536], [-95.8641571, 36.1196538], [-95.8641572, 36.1196776], [-95.8642011, 36.1196775], [-95.8642014, 36.1197468], [-95.8640204, 36.1197473], [-95.8640201, 36.1196791], [-95.8640613, 36.119679], [-95.8640612, 36.1196541], [-95.8640183, 36.1196542], [-95.8640176, 36.1195199], [-95.8640606, 36.1195198], [-95.8640605, 36.1194943], [-95.8640193, 36.1194944], [-95.864019, 36.1194288], [-95.8642001, 36.1194283], [-95.8642004, 36.1194971], [-95.8641564, 36.1194972], [-95.8641565, 36.1195194]]]}, "properties": {"osm_id": 1387916838, "building": "apartments", "name": "", "height": null, "height_m": null, "levels": null, "tract_id": "40143007314", "tract_name": "73.14", "tags": {"building": "apartments"}}}, {"type": "Feature", "geometry": {"type": "Polygon", "coordinates": [[[-95.8641739, 36.1193486], [-95.8639069, 36.119352], [-95.8639063, 36.1193216], [-95.8638658, 36.1193221], [-95.8638644, 36.1192506], [-95.8639049, 36.1192501], [-95.8639044, 36.119222], [-95.8641713, 36.1192186], [-95.8641739, 36.1193486]]]}, "properties": {"osm_id": 1387916839, "building": "apartments", "name": "", "height": null, "height_m": null, "levels": null, "tract_id": "40143007314", "tract_name": "73.14", "tags": {"building": "apartments"}}}, {"type": "Feature", "geometry": {"type": "Polygon", "coordinates": [[[-95.864874, 36.1199505], [-95.8648724, 36.1198293], [-95.8642884, 36.1198342], [-95.8642899, 36.1199553], [-95.864874, 36.1199505]]]}, "properties": {"osm_id": 1387917148, "building": "apartments", "name": "", "height": null, "height_m": null, "levels": null, "tract_id": "40143007314", "tract_name": "73.14", "tags": {"building": "apartments"}}}, {"type": "Feature", "geometry": {"type": "Polygon", "coordinates": [[[-95.8649343, 36.1201465], [-95.8649317, 36.1200025], [-95.8646594, 36.1200058], [-95.8646621, 36.1201498], [-95.8649343, 36.1201465]]]}, "properties": {"osm_id": 1387917149, "building": "apartments", "name": "", "height": null, "height_m": null, "levels": null, "tract_id": "40143007314", "tract_name": "73.14", "tags": {"building": "apartments"}}}, {"type": "Feature", "geometry": {"type": "Polygon", "coordinates": [[[-95.8645622, 36.1200073], [-95.8645622, 36.1201476], [-95.8642886, 36.1201476], [-95.8642886, 36.1200073], [-95.8645622, 36.1200073]]]}, "properties": {"osm_id": 1387917150, "building": "apartments", "name": "", "height": null, "height_m": null, "levels": null, "tract_id": "40143007314", "tract_name": "73.14", "tags": {"building": "apartments"}}}, {"type": "Feature", "geometry": {"type": "Polygon", "coordinates": [[[-95.864707, 36.1193617], [-95.8647067, 36.1192237], [-95.8643185, 36.1192242], [-95.8643188, 36.1193622], [-95.864707, 36.1193617]]]}, "properties": {"osm_id": 1387917372, "building": "apartments", "name": "", "height": null, "height_m": null, "levels": null, "tract_id": "40143007314", "tract_name": "73.14", "tags": {"building": "apartments"}}}, {"type": "Feature", "geometry": {"type": "Polygon", "coordinates": [[[-95.8646876, 36.1195605], [-95.8646875, 36.1195377], [-95.8647412, 36.1195376], [-95.864741, 36.1194445], [-95.8646873, 36.1194446], [-95.8646873, 36.1194186], [-95.8642957, 36.1194191], [-95.864296, 36.119561], [-95.8646876, 36.1195605]]]}, "properties": {"osm_id": 1387917373, "building": "apartments", "name": "", "height": null, "height_m": null, "levels": null, "tract_id": "40143007314", "tract_name": "73.14", "tags": {"building": "apartments"}}}]}