{"type": "FeatureCollection", "features": [{"type": "Feature", "geometry": {"type": "Polygon", "coordinates": [[[-101.5065483, 36.6825473], [-101.5065313, 36.682687], [-101.5066514, 36.6826964], [-101.5066684, 36.6825567], [-101.5065483, 36.6825473]]]}, "properties": {"osm_id": 334899281, "building": "hangar", "name": "", "height": null, "height_m": null, "levels": null, "tract_id": "40139950902", "tract_name": "9509.02", "tags": {"aeroway": "hangar", "building": "hangar"}}}, {"type": "Feature", "geometry": {"type": "Polygon", "coordinates": [[[-101.5068313, 36.6774893], [-101.5068244, 36.6776153], [-101.5067362, 36.6776122], [-101.5067293, 36.6777386], [-101.506566, 36.6777328], [-101.5065798, 36.6774804], [-101.5068313, 36.6774893]]]}, "properties": {"osm_id": 334899286, "building": "hangar", "name": "", "height": null, "height_m": null, "levels": null, "tract_id": "40139950902", "tract_name": "9509.02", "tags": {"aeroway": "hangar", "building": "hangar"}}}, {"type": "Feature", "geometry": {"type": "Polygon", "coordinates": [[[-101.5066548, 36.6780622], [-101.5067688, 36.6779414], [-101.5067974, 36.6779542], [-101.5069987, 36.6780798], [-101.506885, 36.6782019], [-101.5066548, 36.6780622]]]}, "properties": {"osm_id": 334899299, "building": "hangar", "name": "", "height": null, "height_m": null, "levels": null, "tract_id": "40139950902", "tract_name": "9509.02", "tags": {"aeroway": "hangar", "building": "hangar"}}}, {"type": "Feature", "geometry": {"type": "Polygon", "coordinates": [[[-101.5070095, 36.6777417], [-101.5071164, 36.6778102], [-101.5071266, 36.6777979], [-101.5072223, 36.6777025], [-101.5071156, 36.6776352], [-101.5070095, 36.6777417]]]}, "properties": {"osm_id": 334899303, "building": "hangar", "name": "", "height": null, "height_m": null, "levels": null, "tract_id": "40139950902", "tract_name": "9509.02", "tags": {"aeroway": "hangar", "building": "hangar"}}}, {"type": "Feature", "geometry": {"type": "Polygon", "coordinates": [[[-101.5074644, 36.6770219], [-101.5075958, 36.6770284], [-101.5076092, 36.6767358], [-101.5074805, 36.6767272], [-101.5074719, 36.6769205], [-101.5074322, 36.6769208], [-101.5074322, 36.6769703], [-101.5074665, 36.67697], [-101.5074644, 36.6770219]]]}, "properties": {"osm_id": 334899308, "building": "hangar", "name": "", "height": null, "height_m": null, "levels": null, "tract_id": "40139950902", "tract_name": "9509.02", "tags": {"aeroway": "hangar", "building": "hangar"}}}, {"type": "Feature", "geometry": {"type": "Polygon", "coordinates": [[[-101.5066687, 36.6815876], [-101.5068041, 36.681597], [-101.5067637, 36.6819717], [-101.5066282, 36.6819623], [-101.5066687, 36.6815876]]]}, "properties": {"osm_id": 334899309, "building": "hangar", "name": "", "height": null, "height_m": null, "levels": null, "tract_id": "40139950902", "tract_name": "9509.02", "tags": {"aeroway": "hangar", "building": "hangar"}}}, {"type": "Feature", "geometry": {"type": "Polygon", "coordinates": [[[-101.5064988, 36.6782393], [-101.5066548, 36.6780622], [-101.506885, 36.6782019], [-101.5066904, 36.6783903], [-101.5065916, 36.6784923], [-101.5065495, 36.678466], [-101.5065202, 36.6784963], [-101.5064775, 36.6784697], [-101.5065049, 36.6784415], [-101.5064349, 36.6783978], [-101.5065548, 36.6782742], [-101.5064988, 36.6782393]]]}, "properties": {"osm_id": 334899315, "building": "yes", "name": "", "height": null, "height_m": null, "levels": null, "tract_id": "40139950902", "tract_name": "9509.02", "tags": {"aeroway": "terminal", "building": "yes"}}}, {"type": "Feature", "geometry": {"type": "Polygon", "coordinates": [[[-101.5071266, 36.6777979], [-101.5072141, 36.6778532], [-101.5073072, 36.6777592], [-101.5072223, 36.6777025], [-101.5071266, 36.6777979]]]}, "properties": {"osm_id": 334899317, "building": "hangar", "name": "", "height": null, "height_m": null, "levels": null, "tract_id": "40139950902", "tract_name": "9509.02", "tags": {"aeroway": "hangar", "building": "hangar"}}}, {"type": "Feature", "geometry": {"type": "Polygon", "coordinates": [[[-101.5064895, 36.6825297], [-101.5066724, 36.6825458], [-101.5066949, 36.6823808], [-101.506512, 36.6823647], [-101.5064895, 36.6825297]]]}, "properties": {"osm_id": 334899319, "building": "hangar", "name": "", "height": null, "height_m": null, "levels": null, "tract_id": "40139950902", "tract_name": "9509.02", "tags": {"aeroway": "hangar", "building": "hangar"}}}, {"type": "Feature", "geometry": {"type": "Polygon", "coordinates": [[[-101.5064895, 36.6828356], [-101.5066365, 36.6828459], [-101.5066514, 36.6827091], [-101.5065043, 36.6826988], [-101.5064895, 36.6828356]]]}, "properties": {"osm_id": 334899323, "building": "hangar", "name": "", "height": null, "height_m": null, "levels": null, "tract_id": "40139950902", "tract_name": "9509.02", "tags": {"aeroway": "hangar", "building": "hangar"}}}, {"type": "Feature", "geometry": {"type": "Polygon", "coordinates": [[[-101.5069237, 36.677824], [-101.507125, 36.6779495], [-101.5069987, 36.6780798], [-101.5067974, 36.6779542], [-101.5069237, 36.677824]]]}, "properties": {"osm_id": 334899327, "building": "hangar", "name": "", "height": null, "height_m": null, "levels": null, "tract_id": "40139950902", "tract_name": "9509.02", "tags": {"aeroway": "hangar", "building": "hangar"}}}, {"type": "Feature", "geometry": {"type": "Polygon", "coordinates": [[[-101.5066432, 36.6821202], [-101.506737, 36.6821258], [-101.5067432, 36.6820589], [-101.5066495, 36.6820533], [-101.5066432, 36.6821202]]]}, "properties": {"osm_id": 334899337, "building": "hangar", "name": "", "height": null, "height_m": null, "levels": null, "tract_id": "40139950902", "tract_name": "9509.02", "tags": {"aeroway": "hangar", "building": "hangar"}}}, {"type": "Feature", "geometry": {"type": "Polygon", "coordinates": [[[-101.4886608, 36.7000558], [-101.4883546, 36.7000544], [-101.4883578, 36.6996046], [-101.4882235, 36.699604], [-101.4882233, 36.6996254], [-101.4880859, 36.6996247], [-101.4880821, 36.7001675], [-101.4881542, 36.7001678], [-101.488153, 36.700342], [-101.4880451, 36.7003415], [-101.4880448, 36.7003831], [-101.4880012, 36.7003829], [-101.4880015, 36.7003441], [-101.4877801, 36.700343], [-101.4877798, 36.7003804], [-101.4877405, 36.7003802], [-101.4877408, 36.7003434], [-101.4875451, 36.7003424], [-101.4875541, 36.6992448], [-101.4875142, 36.6992445], [-101.4875169, 36.6989127], [-101.487668, 36.6989135], [-101.4876693, 36.6987594], [-101.487996, 36.6987612], [-101.4879951, 36.6988801], [-101.4884878, 36.6988827], [-101.4884889, 36.6987503], [-101.4888632, 36.6987523], [-101.4888594, 36.6992127], [-101.4885841, 36.6992113], [-101.4885839, 36.699237], [-101.4885487, 36.6992368], [-101.4885479, 36.6993416], [-101.4883565, 36.6993407], [-101.4883555, 36.6994669], [-101.488665, 36.6994683], [-101.4886608, 36.7000558]]]}, "properties": {"osm_id": 347983670, "building": "school", "name": "Guymon High School", "height": null, "height_m": null, "levels": null, "tract_id": "40139950902", "tract_name": "9509.02", "tags": {"addr:housenumber": "2002", "addr:street": "North James Street", "building": "school", "isced:level": "3", "name": "Guymon High School"}}}, {"type": "Feature", "geometry": {"type": "Polygon", "coordinates": [[[-101.4893721, 36.7006087], [-101.4891543, 36.700609], [-101.489154, 36.7004093], [-101.4890009, 36.7004095], [-101.4890004, 36.7001474], [-101.4892826, 36.700147], [-101.4892827, 36.7002029], [-101.4893714, 36.7002027], [-101.4893721, 36.7006087]]]}, "properties": {"osm_id": 347984028, "building": "school", "name": "", "height": null, "height_m": null, "levels": null, "tract_id": "40139950902", "tract_name": "9509.02", "tags": {"building": "school"}}}, {"type": "Feature", "geometry": {"type": "Polygon", "coordinates": [[[-101.4840358, 36.6986165], [-101.4840046, 36.6986167], [-101.4837941, 36.6986178], [-101.4837279, 36.6986182], [-101.4837271, 36.6985275], [-101.4838024, 36.6985271], [-101.4838023, 36.6985085], [-101.4840349, 36.6985072], [-101.4840358, 36.6986165]]]}, "properties": {"osm_id": 347990595, "building": "yes", "name": "McDonald's", "height": null, "height_m": null, "levels": null, "tract_id": "40139950902", "tract_name": "9509.02", "tags": {"addr:housenumber": "1906", "addr:street": "North Highway 64", "amenity": "fast_food", "brand": "McDonald's", "brand:wikidata": "Q38076", "building": "yes", "cuisine": "burger", "name": "McDonald's", "takeaway": "yes", "website": "https://www.mcdonalds.com/us/en-us/location/ok/guymon/1906-hwy-64-n/5007.html"}}}, {"type": "Feature", "geometry": {"type": "Polygon", "coordinates": [[[-101.4852992, 36.6986073], [-101.4858609, 36.6986067], [-101.4858601, 36.6980149], [-101.4853044, 36.6980156], [-101.4852992, 36.6986073]]]}, "properties": {"osm_id": 347996850, "building": "yes", "name": "Top Value", "height": null, "height_m": null, "levels": null, "tract_id": "40139950902", "tract_name": "9509.02", "tags": {"addr:housenumber": "1902", "addr:street": "North Academy Street", "building": "yes", "name": "Top Value", "shop": "supermarket"}}}, {"type": "Feature", "geometry": {"type": "Polygon", "coordinates": [[[-101.4858602, 36.6991626], [-101.4856835, 36.6991619], [-101.4852986, 36.6991671], [-101.4852992, 36.6986073], [-101.4858609, 36.6986067], [-101.4858602, 36.6991626]]]}, "properties": {"osm_id": 347996851, "building": "yes", "name": "Stage", "height": null, "height_m": null, "levels": null, "tract_id": "40139950902", "tract_name": "9509.02", "tags": {"addr:housenumber": "1910", "addr:street": "North Highway 64", "building": "yes", "name": "Stage", "shop": "clothes"}}}, {"type": "Feature", "geometry": {"type": "Polygon", "coordinates": [[[-101.4852929, 36.6995868], [-101.4852883, 36.7002779], [-101.4856027, 36.7002793], [-101.4860156, 36.700281], [-101.4860201, 36.6995899], [-101.4858253, 36.6995891], [-101.4852929, 36.6995868]]]}, "properties": {"osm_id": 347996852, "building": "yes", "name": "Reids Furniture Store", "height": null, "height_m": null, "levels": null, "tract_id": "40139950902", "tract_name": "9509.02", "tags": {"addr:street": "North Highway 64", "building": "yes", "name": "Reids Furniture Store", "phone": "+1-580-338-8898", "shop": "furniture"}}}, {"type": "Feature", "geometry": {"type": "Polygon", "coordinates": [[[-101.4840583, 36.6992902], [-101.4840301, 36.699316], [-101.4839591, 36.6993182], [-101.4839309, 36.699287], [-101.4839267, 36.6990664], [-101.4840536, 36.6990649], [-101.4840545, 36.6991125], [-101.4840682, 36.6991124], [-101.4840696, 36.6991874], [-101.4840563, 36.6991876], [-101.4840583, 36.6992902]]]}, "properties": {"osm_id": 347997089, "building": "yes", "name": "Mr Burger", "height": null, "height_m": null, "levels": null, "tract_id": "40139950902", "tract_name": "9509.02", "tags": {"amenity": "fast_food", "building": "yes", "check_date": "2025-09-20", "cuisine": "burger", "name": "Mr Burger"}}}, {"type": "Feature", "geometry": {"type": "Polygon", "coordinates": [[[-101.4839915, 36.6982269], [-101.4838322, 36.6982257], [-101.4838324, 36.6982118], [-101.4837108, 36.6982109], [-101.4837121, 36.6980934], [-101.4838037, 36.6980941], [-101.4838039, 36.6980822], [-101.4838993, 36.6980829], [-101.4838992, 36.6980936], [-101.483993, 36.6980943], [-101.4839915, 36.6982269]]]}, "properties": {"osm_id": 347997507, "building": "yes", "name": "Mazzio's", "height": null, "height_m": null, "levels": null, "tract_id": "40139950902", "tract_name": "9509.02", "tags": {"amenity": "restaurant", "brand": "Mazzio's", "brand:wikidata": "Q3853292", "building": "yes", "check_date": "2025-09-20", "cuisine": "pizza", "name": "Mazzio's"}}}, {"type": "Feature", "geometry": {"type": "Polygon", "coordinates": [[[-101.4860156, 36.700281], [-101.4860248, 36.7007916], [-101.4856059, 36.7007934], [-101.4856027, 36.7002793], [-101.4860156, 36.700281]]]}, "properties": {"osm_id": 347998247, "building": "yes", "name": "Northridge Cinema 8", "height": null, "height_m": null, "levels": null, "tract_id": "40139950902", "tract_name": "9509.02", "tags": {"addr:city": "Guymon", "addr:housenumber": "1950", "addr:postcode": "73942", "addr:state": "OK", "addr:street": "North Highway 64", "amenity": "cinema", "building": "yes", "name": "Northridge Cinema 8", "opening_hours": "24/7", "phone": "+1-580-338-3281", "screen": "8", "website": "https://northridge8.com", "wikidata": "Q43192685"}}}, {"type": "Feature", "geometry": {"type": "Polygon", "coordinates": [[[-101.4858253, 36.6995891], [-101.4858263, 36.6993595], [-101.4856893, 36.6993591], [-101.4852996, 36.6993581], [-101.4852929, 36.6995868], [-101.4858253, 36.6995891]]]}, "properties": {"osm_id": 347999300, "building": "yes", "name": "Sears Hometown", "height": null, "height_m": null, "levels": null, "tract_id": "40139950902", "tract_name": "9509.02", "tags": {"addr:housenumber": "1926", "addr:street": "North Highway 64", "building": "yes", "name": "Sears Hometown"}}}, {"type": "Feature", "geometry": {"type": "Polygon", "coordinates": [[[-101.4856835, 36.6991619], [-101.4856857, 36.699269], [-101.4852993, 36.6992741], [-101.4852986, 36.6991671], [-101.4856835, 36.6991619]]]}, "properties": {"osm_id": 347999301, "building": "yes", "name": "Rent-A-Center", "height": null, "height_m": null, "levels": null, "tract_id": "40139950902", "tract_name": "9509.02", "tags": {"addr:housenumber": "1922", "addr:street": "North Highway 64", "brand": "Rent-A-Center", "brand:wikidata": "Q7313497", "building": "yes", "name": "Rent-A-Center", "shop": "furniture"}}}, {"type": "Feature", "geometry": {"type": "Polygon", "coordinates": [[[-101.4856857, 36.699269], [-101.4856893, 36.6993591], [-101.4852996, 36.6993581], [-101.4852993, 36.6992741], [-101.4856857, 36.699269]]]}, "properties": {"osm_id": 347999302, "building": "yes", "name": "Snap Fitness", "height": null, "height_m": null, "levels": null, "tract_id": "40139950902", "tract_name": "9509.02", "tags": {"addr:housenumber": "1924", "addr:street": "North Highway 64", "brand": "Snap Fitness", "brand:wikidata": "Q7547254", "building": "yes", "leisure": "fitness_centre", "name": "Snap Fitness"}}}, {"type": "Feature", "geometry": {"type": "Polygon", "coordinates": [[[-101.4823654, 36.6988121], [-101.4823653, 36.6989919], [-101.4817591, 36.6989918], [-101.481759, 36.6990476], [-101.481618, 36.6990476], [-101.4816181, 36.6983046], [-101.4822978, 36.6983046], [-101.4822977, 36.698812], [-101.4823654, 36.6988121]]]}, "properties": {"osm_id": 347999890, "building": "yes", "name": "Family Dollar", "height": null, "height_m": null, "levels": null, "tract_id": "40139950902", "tract_name": "9509.02", "tags": {"brand": "Family Dollar", "brand:wikidata": "Q5433101", "building": "yes", "name": "Family Dollar", "shop": "variety_store"}}}, {"type": "Feature", "geometry": {"type": "Polygon", "coordinates": [[[-101.4832406, 36.698651], [-101.4832419, 36.6987585], [-101.4830195, 36.6987602], [-101.4830198, 36.6987845], [-101.4828611, 36.6987856], [-101.4828591, 36.6986184], [-101.4830281, 36.6986172], [-101.4830285, 36.6986526], [-101.4832406, 36.698651]]]}, "properties": {"osm_id": 348000068, "building": "yes", "name": "Kent Kwik Convenience Stores", "height": null, "height_m": null, "levels": null, "tract_id": "40139950902", "tract_name": "9509.02", "tags": {"amenity": "fuel", "building": "yes", "name": "Kent Kwik Convenience Stores"}}}, {"type": "Feature", "geometry": {"type": "Polygon", "coordinates": [[[-101.485608, 36.7015248], [-101.4854806, 36.7015248], [-101.4854805, 36.7013153], [-101.4856078, 36.7013152], [-101.4856079, 36.7014152], [-101.48562, 36.7014152], [-101.48562, 36.7014562], [-101.4856079, 36.7014562], [-101.485608, 36.7015248]]]}, "properties": {"osm_id": 348001286, "building": "yes", "name": "Pizza Hut", "height": null, "height_m": null, "levels": null, "tract_id": "40139950902", "tract_name": "9509.02", "tags": {"addr:city": "Guymon", "addr:housenumber": "414", "addr:postcode": "73942", "addr:state": "OK", "addr:street": "Northwest 21st Street", "amenity": "restaurant", "brand": "Pizza Hut", "brand:wikidata": "Q191615", "building": "yes", "cuisine": "pizza", "name": "Pizza Hut", "phone": "+1 580-338-8352", "website": "https://locations.pizzahut.com/ok/guymon/414-nw-21st-st"}}}, {"type": "Feature", "geometry": {"type": "Polygon", "coordinates": [[[-101.4848574, 36.7013952], [-101.484667, 36.7013934], [-101.4846684, 36.7012922], [-101.484754, 36.701293], [-101.4847542, 36.7012792], [-101.4847941, 36.7012795], [-101.4847939, 36.7012937], [-101.4848588, 36.7012943], [-101.4848574, 36.7013952]]]}, "properties": {"osm_id": 348001289, "building": "yes", "name": "Subway", "height": null, "height_m": null, "levels": null, "tract_id": "40139950902", "tract_name": "9509.02", "tags": {"addr:city": "Guymon", "addr:housenumber": "2102", "addr:postcode": "73942", "addr:state": "OK", "addr:street": "North Highway 64", "amenity": "fast_food", "brand": "Subway", "brand:wikidata": "Q244457", "building": "yes", "cuisine": "sandwich", "name": "Subway", "opening_hours": "09:00-22:00", "phone": "+1 580-338-7827", "takeaway": "yes", "website": "https://restaurants.subway.com/united-states/ok/guymon/2102-n-hwy-64"}}}, {"type": "Feature", "geometry": {"type": "Polygon", "coordinates": [[[-101.4852317, 36.7013895], [-101.4852203, 36.7013896], [-101.4852207, 36.7014726], [-101.4851163, 36.7014729], [-101.4851155, 36.7012996], [-101.4852313, 36.7012992], [-101.4852317, 36.7013768], [-101.4852317, 36.7013895]]]}, "properties": {"osm_id": 348002993, "building": "yes", "name": "Peachwave", "height": null, "height_m": null, "levels": null, "tract_id": "40139950902", "tract_name": "9509.02", "tags": {"addr:city": "Guymon", "addr:housenumber": "408", "addr:postcode": "73942", "addr:state": "OK", "addr:street": "Northwest 21st Street", "amenity": "ice_cream", "brand": "Peachwave", "brand:wikidata": "Q109329113", "building": "yes", "cuisine": "frozen_yogurt", "name": "Peachwave", "phone": "(580) 338-4567"}}}, {"type": "Feature", "geometry": {"type": "Polygon", "coordinates": [[[-101.4861441, 36.7015065], [-101.4860795, 36.7015073], [-101.4860805, 36.7015598], [-101.4860005, 36.7015608], [-101.4859998, 36.7015226], [-101.485997, 36.70138], [-101.4861416, 36.7013782], [-101.4861441, 36.7015065]]]}, "properties": {"osm_id": 348003460, "building": "yes", "name": "Urban Bru", "height": null, "height_m": null, "levels": null, "tract_id": "40139950902", "tract_name": "9509.02", "tags": {"addr:city": "Guymon", "addr:housenumber": "418", "addr:postcode": "73942", "addr:state": "OK", "addr:street": "Northwest 21st Street", "amenity": "cafe", "building": "yes", "cuisine": "coffee_shop", "description": "Regular Hours Monday \u2013 Thursday: 6.30 am \u2013 8.30 pm Friday & Saturday: 6.30 am \u2013 9 pm Sunday: 8 am \u2013 3 pm Summer Hours (Memorial Day through Labor Day) Monday \u2013 Saturday: 6.30 am \u2013 5.30 pm Sunday: 8 am \u2013 3 pm", "diet:vegetarian": "yes", "fixme": "impossible to specify opening_hours using existing syntax -- see description", "name": "Urban Bru", "phone": "+1 580-338-3010", "website": "https://www.urbanbru.cafe/"}}}, {"type": "Feature", "geometry": {"type": "Polygon", "coordinates": [[[-101.4832066, 36.6991921], [-101.4832106, 36.6993319], [-101.4829679, 36.6993363], [-101.4829639, 36.6991965], [-101.4832066, 36.6991921]]]}, "properties": {"osm_id": 348004832, "building": "yes", "name": "Yesterdays Diner", "height": null, "height_m": null, "levels": null, "tract_id": "40139950902", "tract_name": "9509.02", "tags": {"addr:city": "Guymon", "addr:housenumber": "1901", "addr:postcode": "73942", "addr:state": "OK", "addr:street": "North Highway 64", "amenity": "restaurant", "building": "yes", "name": "Yesterdays Diner", "phone": "+1 580 338 5813"}}}, {"type": "Feature", "geometry": {"type": "Polygon", "coordinates": [[[-101.4831828, 36.6996318], [-101.4832425, 36.6996316], [-101.4832432, 36.6998397], [-101.483258, 36.6998396], [-101.4832582, 36.699904], [-101.4832878, 36.6999039], [-101.4832881, 36.6999841], [-101.4829416, 36.6999848], [-101.4829416, 36.6999642], [-101.4828798, 36.6999644], [-101.4828797, 36.6999461], [-101.4828042, 36.6999463], [-101.4828039, 36.6998747], [-101.4827135, 36.6998749], [-101.4827139, 36.6999913], [-101.482586, 36.6999915], [-101.4825851, 36.69974], [-101.4827078, 36.6997398], [-101.482708, 36.6997828], [-101.4828221, 36.6997825], [-101.482822, 36.6997631], [-101.4828649, 36.699763], [-101.4828606, 36.6997161], [-101.4828618, 36.6996844], [-101.4829729, 36.6996841], [-101.4829728, 36.6996562], [-101.4831829, 36.6996557], [-101.4831828, 36.6996318]]]}, "properties": {"osm_id": 348007896, "building": "yes", "name": "Anchor D Bank", "height": null, "height_m": null, "levels": null, "tract_id": "40139950902", "tract_name": "9509.02", "tags": {"addr:city": "Guymon", "addr:housenumber": "1913", "addr:postcode": "73942", "addr:state": "OK", "addr:street": "North Highway 64", "amenity": "bank", "building": "yes", "name": "Anchor D Bank", "phone": "+1 580 338 1000", "website": "http://fnbtexhoma.com"}}}, {"type": "Feature", "geometry": {"type": "Polygon", "coordinates": [[[-101.4896976, 36.6945668], [-101.4899863, 36.6945663], [-101.4899864, 36.6945942], [-101.4901584, 36.694594], [-101.4901597, 36.6951342], [-101.489699, 36.6951349], [-101.4896976, 36.6945668]]]}, "properties": {"osm_id": 348015453, "building": "yes", "name": "YMCA", "height": null, "height_m": null, "levels": null, "tract_id": "40139950902", "tract_name": "9509.02", "tags": {"addr:city": "Guymon", "addr:housenumber": "1602", "addr:postcode": "73942", "addr:state": "OK", "addr:street": "North Oklahoma Street", "brand": "YMCA", "brand:wikidata": "Q157169", "building": "yes", "leisure": "sports_centre", "name": "YMCA"}}}, {"type": "Feature", "geometry": {"type": "Polygon", "coordinates": [[[-101.4838219, 36.6973907], [-101.4836418, 36.6973921], [-101.4836137, 36.6974106], [-101.4835607, 36.6974115], [-101.4835358, 36.697397], [-101.4834392, 36.6973977], [-101.4834379, 36.6972651], [-101.4838206, 36.6972627], [-101.4838219, 36.6973907]]]}, "properties": {"osm_id": 348019175, "building": "commercial", "name": "Braum's", "height": null, "height_m": null, "levels": null, "tract_id": "40139950902", "tract_name": "9509.02", "tags": {"amenity": "fast_food", "brand": "Braum's", "brand:wikidata": "Q4958263", "building": "commercial", "cuisine": "ice_cream;burger", "name": "Braum's", "shop": "dairy", "takeaway": "yes"}}}, {"type": "Feature", "geometry": {"type": "Polygon", "coordinates": [[[-101.4826318, 36.697201], [-101.4823401, 36.6972562], [-101.4822756, 36.6970369], [-101.4825673, 36.6969817], [-101.4826318, 36.697201]]]}, "properties": {"osm_id": 348019628, "building": "yes", "name": "O'Reilly Auto Parts", "height": null, "height_m": null, "levels": null, "tract_id": "40139950902", "tract_name": "9509.02", "tags": {"brand": "O'Reilly Auto Parts", "brand:wikidata": "Q7071951", "building": "yes", "name": "O'Reilly Auto Parts", "shop": "car_parts", "website": "https://locations.oreillyauto.com/ok/guymon/autoparts-1931.html"}}}, {"type": "Feature", "geometry": {"type": "Polygon", "coordinates": [[[-101.4822197, 36.6975638], [-101.4824108, 36.6975975], [-101.4824042, 36.6976218], [-101.4826167, 36.6976592], [-101.4826289, 36.6976147], [-101.4825756, 36.6976053], [-101.4825887, 36.6975575], [-101.4826453, 36.6975674], [-101.4826568, 36.6975255], [-101.4822107, 36.697447], [-101.4821985, 36.6974916], [-101.4822376, 36.6974985], [-101.4822197, 36.6975638]]]}, "properties": {"osm_id": 348020269, "building": "yes", "name": "Sonic", "height": null, "height_m": null, "levels": null, "tract_id": "40139950902", "tract_name": "9509.02", "tags": {"addr:city": "Guymon", "addr:housenumber": "1853", "addr:postcode": "73942", "addr:state": "OK", "addr:street": "North Highway 64", "amenity": "fast_food", "brand": "Sonic", "brand:wikidata": "Q7561808", "building": "yes", "cuisine": "burger", "drive_in": "yes", "name": "Sonic", "opening_hours": "Mo-Sa 06:00-23:00; Su 08:00-23:00", "phone": "+1 580-338-5533", "takeaway": "yes", "website": "https://locations.sonicdrivein.com/ok/guymon/1853-north-highway-64.html"}}}, {"type": "Feature", "geometry": {"type": "Polygon", "coordinates": [[[-101.4834286, 36.7048498], [-101.4834637, 36.7048497], [-101.4834644, 36.7049387], [-101.483465, 36.7050244], [-101.4834303, 36.7050245], [-101.4834323, 36.7052896], [-101.4827919, 36.7052927], [-101.4827863, 36.7045564], [-101.482786, 36.7045167], [-101.4830741, 36.7045153], [-101.4830739, 36.704485], [-101.4834258, 36.7044833], [-101.4834286, 36.7048498]]]}, "properties": {"osm_id": 348022053, "building": "retail", "name": "", "height": null, "height_m": null, "levels": null, "tract_id": "40139950902", "tract_name": "9509.02", "tags": {"addr:city": "Guymon", "addr:country": "US", "addr:housenumber": "2501", "addr:postcode": "73942", "addr:state": "OK", "addr:street": "North Highway 64", "building": "retail"}}}, {"type": "Feature", "geometry": {"type": "Polygon", "coordinates": [[[-101.4787019, 36.6926196], [-101.4784214, 36.6926142], [-101.4784228, 36.6925679], [-101.4782108, 36.6925638], [-101.4782154, 36.6924097], [-101.4781537, 36.6924484], [-101.4781564, 36.6923194], [-101.4782181, 36.6923538], [-101.4782936, 36.6923541], [-101.4782942, 36.6922407], [-101.4784129, 36.6922411], [-101.4784164, 36.6916569], [-101.4789346, 36.6916588], [-101.4789315, 36.692171], [-101.4789852, 36.6922161], [-101.4789771, 36.6924419], [-101.4789315, 36.6924054], [-101.4789266, 36.6925696], [-101.4787035, 36.6925652], [-101.4787019, 36.6926196]]]}, "properties": {"osm_id": 348032046, "building": "school", "name": "", "height": null, "height_m": null, "levels": null, "tract_id": "40139950902", "tract_name": "9509.02", "tags": {"building": "school"}}}, {"type": "Feature", "geometry": {"type": "Polygon", "coordinates": [[[-101.4797889, 36.691078], [-101.4796696, 36.6910807], [-101.4796721, 36.6911524], [-101.4792259, 36.6911625], [-101.4792224, 36.6910599], [-101.4790874, 36.691063], [-101.4790838, 36.6909618], [-101.4793235, 36.6909564], [-101.4793212, 36.69089], [-101.4796748, 36.690882], [-101.4796773, 36.6909535], [-101.4797845, 36.6909511], [-101.4797889, 36.691078]]]}, "properties": {"osm_id": 348032047, "building": "school", "name": "", "height": null, "height_m": null, "levels": null, "tract_id": "40139950902", "tract_name": "9509.02", "tags": {"building": "school"}}}, {"type": "Feature", "geometry": {"type": "Polygon", "coordinates": [[[-101.479505, 36.6915259], [-101.4795112, 36.6916034], [-101.4792953, 36.6916145], [-101.4792891, 36.6915371], [-101.479505, 36.6915259]]]}, "properties": {"osm_id": 348032048, "building": "school", "name": "", "height": null, "height_m": null, "levels": null, "tract_id": "40139950902", "tract_name": "9509.02", "tags": {"building": "school"}}}, {"type": "Feature", "geometry": {"type": "Polygon", "coordinates": [[[-101.4792861, 36.69148], [-101.4791897, 36.6914862], [-101.4791724, 36.6913133], [-101.4792689, 36.6913071], [-101.4792861, 36.69148]]]}, "properties": {"osm_id": 348032049, "building": "school", "name": "", "height": null, "height_m": null, "levels": null, "tract_id": "40139950902", "tract_name": "9509.02", "tags": {"building": "school"}}}, {"type": "Feature", "geometry": {"type": "Polygon", "coordinates": [[[-101.482498, 36.6917279], [-101.4823738, 36.6917303], [-101.4823734, 36.6917164], [-101.4822926, 36.6917179], [-101.4822909, 36.6916614], [-101.482359, 36.6916601], [-101.4823587, 36.6916491], [-101.4823822, 36.6916486], [-101.4823815, 36.6916232], [-101.4824402, 36.6916221], [-101.4824418, 36.6916778], [-101.4824965, 36.6916768], [-101.482498, 36.6917279]]]}, "properties": {"osm_id": 348037059, "building": "yes", "name": "Panhandle Veterinary Clinic", "height": null, "height_m": null, "levels": null, "tract_id": "40139950902", "tract_name": "9509.02", "tags": {"addr:city": "Guymon", "addr:housenumber": "115", "addr:postcode": "73942", "addr:state": "OK", "addr:street": "Northwest 14th Street", "amenity": "veterinary", "building": "yes", "name": "Panhandle Veterinary Clinic", "opening_hours": "Mo,Tu,Th,Fr 07:30-17:30; We 07:30-14:00; Sa,Su closed", "phone": "(580) 338-6723", "website": "http://www.panhandlevetclinic.com"}}}, {"type": "Feature", "geometry": {"type": "Polygon", "coordinates": [[[-101.4981122, 36.6797865], [-101.4980891, 36.6798058], [-101.4980596, 36.6798182], [-101.4980266, 36.6798223], [-101.4979937, 36.6798177], [-101.4979645, 36.6798049], [-101.4979419, 36.6797852], [-101.4979284, 36.6797607], [-101.4979254, 36.6797341], [-101.4979332, 36.6797081], [-101.4979511, 36.6796855], [-101.497977, 36.6796687], [-101.4980097, 36.6796592], [-101.4980445, 36.6796591], [-101.4980773, 36.6796683], [-101.4981044, 36.6796858], [-101.4981226, 36.6797095], [-101.4981299, 36.6797356], [-101.4981263, 36.6797622], [-101.4981122, 36.6797865]]]}, "properties": {"osm_id": 348038661, "building": "roof", "name": "", "height": null, "height_m": null, "levels": null, "tract_id": "40139950902", "tract_name": "9509.02", "tags": {"amenity": "shelter", "building": "roof"}}}, {"type": "Feature", "geometry": {"type": "Polygon", "coordinates": [[[-101.4944314, 36.6824692], [-101.4944361, 36.6828068], [-101.4936367, 36.6828139], [-101.4936321, 36.6824763], [-101.4944314, 36.6824692]]]}, "properties": {"osm_id": 348039470, "building": "yes", "name": "Texas County Activity Center", "height": null, "height_m": null, "levels": null, "tract_id": "40139950902", "tract_name": "9509.02", "tags": {"building": "yes", "name": "Texas County Activity Center"}}}, {"type": "Feature", "geometry": {"type": "Polygon", "coordinates": [[[-101.4945086, 36.6817144], [-101.4946028, 36.6817142], [-101.4946025, 36.6816281], [-101.4947942, 36.6816277], [-101.4947952, 36.6819677], [-101.4945117, 36.6819683], [-101.4945131, 36.6824083], [-101.4940826, 36.6824092], [-101.4940786, 36.6811652], [-101.4944425, 36.6811645], [-101.4944432, 36.6813584], [-101.4945075, 36.68138], [-101.4945086, 36.6817144]]]}, "properties": {"osm_id": 348039666, "building": "yes", "name": "", "height": null, "height_m": null, "levels": null, "tract_id": "40139950902", "tract_name": "9509.02", "tags": {"building": "yes"}}}, {"type": "Feature", "geometry": {"type": "Polygon", "coordinates": [[[-101.4745202, 36.6896998], [-101.4743472, 36.6897008], [-101.4743003, 36.689632], [-101.47448, 36.6896331], [-101.4745202, 36.6896998]]]}, "properties": {"osm_id": 348041991, "building": "yes", "name": "Valero", "height": null, "height_m": null, "levels": null, "tract_id": "40139950902", "tract_name": "9509.02", "tags": {"addr:housenumber": "702", "addr:street": "Northeast 12th Street", "amenity": "fuel", "brand": "Valero", "brand:wikidata": "Q1283291", "building": "yes", "check_date": "2023-12-11", "name": "Valero", "opening_hours": "Mo-Sa 05:00-22:00; Su 07:00-22:00", "website": "https://locations.valero.com/en-us/LocationDetails/Index/702-NE-12TH-ST/0000004083"}}}, {"type": "Feature", "geometry": {"type": "Polygon", "coordinates": [[[-101.474512, 36.6899523], [-101.4745145, 36.6898383], [-101.4743049, 36.6898353], [-101.4743024, 36.6899494], [-101.474512, 36.6899523]]]}, "properties": {"osm_id": 348041993, "building": "yes", "name": "Mary Kay's", "height": null, "height_m": null, "levels": null, "tract_id": "40139950902", "tract_name": "9509.02", "tags": {"addr:housenumber": "1229", "addr:street": "North East Street", "building": "yes", "check_date": "2023-12-11", "name": "Mary Kay's", "opening_hours": "Mo-Sa 05:00-22:00; Su 07:00-22:00", "phone": "+1 580-338-4525", "shop": "convenience", "website": "https://mary-kays.business.site/"}}}, {"type": "Feature", "geometry": {"type": "Polygon", "coordinates": [[[-101.4743024, 36.6899494], [-101.4741044, 36.6899467], [-101.4741069, 36.6898326], [-101.4743049, 36.6898353], [-101.4743024, 36.6899494]]]}, "properties": {"osm_id": 348041994, "building": "yes", "name": "Naifeh's Steak House", "height": null, "height_m": null, "levels": null, "tract_id": "40139950902", "tract_name": "9509.02", "tags": {"addr:housenumber": "704", "addr:street": "Northeast 12th Street", "amenity": "restaurant", "building": "yes", "check_date": "2023-12-11", "contact:facebook": "https://www.facebook.com/Naifehs-Steakhouse-268540903610740", "cuisine": "steak_house", "name": "Naifeh's Steak House", "phone": "+1 580-338-5355"}}}, {"type": "Feature", "geometry": {"type": "Polygon", "coordinates": [[[-101.475605, 36.6908731], [-101.4755178, 36.6908741], [-101.4755176, 36.6908604], [-101.4752653, 36.6908634], [-101.4752684, 36.6910278], [-101.475116, 36.6910296], [-101.4751147, 36.6909599], [-101.4750422, 36.6909029], [-101.474947, 36.6909029], [-101.4748773, 36.6909469], [-101.4748724, 36.6913433], [-101.4748949, 36.6913435], [-101.4748937, 36.6914455], [-101.4750513, 36.6914467], [-101.4750516, 36.6914266], [-101.4750814, 36.6914268], [-101.4750825, 36.6913233], [-101.475119, 36.6913235], [-101.4751205, 36.6911645], [-101.4752647, 36.6911654], [-101.4752646, 36.6911838], [-101.4753459, 36.6911842], [-101.4753424, 36.6917216], [-101.4755037, 36.6917223], [-101.4755062, 36.6912994], [-101.4756671, 36.6913], [-101.4756669, 36.6913311], [-101.4757176, 36.6913312], [-101.4757174, 36.6914829], [-101.4759225, 36.691483], [-101.4759225, 36.6914081], [-101.4758888, 36.6914081], [-101.4758887, 36.6913363], [-101.47584, 36.6913364], [-101.4758391, 36.6911179], [-101.4759777, 36.6911175], [-101.4759778, 36.6911421], [-101.4761618, 36.6911414], [-101.4761616, 36.6911132], [-101.4762328, 36.6911129], [-101.476233, 36.6911385], [-101.476264, 36.6911384], [-101.4762647, 36.6912432], [-101.4767008, 36.6912413], [-101.4767004, 36.6911744], [-101.476774, 36.6911741], [-101.4767728, 36.6910038], [-101.4766971, 36.6910041], [-101.4766967, 36.690938], [-101.4766194, 36.6909383], [-101.476428, 36.6907743], [-101.4762854, 36.6908813], [-101.4762653, 36.6908641], [-101.4762647, 36.6908227], [-101.475763, 36.690828], [-101.4757656, 36.6909891], [-101.4756877, 36.6909899], [-101.4756873, 36.6909646], [-101.4756624, 36.6909649], [-101.4756611, 36.6908915], [-101.4756053, 36.6908921], [-101.475605, 36.6908731]]]}, "properties": {"osm_id": 348042459, "building": "hospital", "name": "", "height": null, "height_m": null, "levels": null, "tract_id": "40139950902", "tract_name": "9509.02", "tags": {"building": "hospital"}}}, {"type": "Feature", "geometry": {"type": "Polygon", "coordinates": [[[-101.4762293, 36.6913753], [-101.4761235, 36.6913736], [-101.4761278, 36.6911953], [-101.4762336, 36.6911969], [-101.4762293, 36.6913753]]]}, "properties": {"osm_id": 348042483, "building": "hospital", "name": "", "height": null, "height_m": null, "levels": null, "tract_id": "40139950902", "tract_name": "9509.02", "tags": {"building": "hospital"}}}, {"type": "Feature", "geometry": {"type": "Polygon", "coordinates": [[[-101.4838651, 36.7017722], [-101.4835963, 36.7018263], [-101.4836072, 36.7018614], [-101.483554, 36.7018721], [-101.483571, 36.7019261], [-101.4836241, 36.7019154], [-101.4836336, 36.7019459], [-101.4837562, 36.7019213], [-101.4837762, 36.7019851], [-101.4839225, 36.7019557], [-101.4838651, 36.7017722]]]}, "properties": {"osm_id": 348042801, "building": "yes", "name": "Caktus Jack's Steakhouse", "height": null, "height_m": null, "levels": null, "tract_id": "40139950902", "tract_name": "9509.02", "tags": {"addr:city": "Guymon", "addr:housenumber": "2101", "addr:postcode": "73942", "addr:state": "OK", "addr:street": "North Highway 64", "amenity": "restaurant", "building": "yes", "name": "Caktus Jack's Steakhouse", "phone": "+1 580 338 8890"}}}, {"type": "Feature", "geometry": {"type": "Polygon", "coordinates": [[[-101.4770846, 36.701675], [-101.4770433, 36.7016428], [-101.4770725, 36.7016187], [-101.4770238, 36.7015808], [-101.4769999, 36.7016006], [-101.4769516, 36.701563], [-101.4766514, 36.7018106], [-101.4765491, 36.7017308], [-101.4765732, 36.701711], [-101.4765145, 36.7016653], [-101.476493, 36.7016831], [-101.4763912, 36.7016037], [-101.4762604, 36.7017116], [-101.4765361, 36.7019265], [-101.4764583, 36.7019265], [-101.4764583, 36.701905], [-101.4764155, 36.701905], [-101.4764155, 36.7019266], [-101.4763699, 36.7019266], [-101.4763699, 36.7021953], [-101.4764195, 36.7021953], [-101.4764194, 36.7022114], [-101.4764677, 36.7022115], [-101.4764677, 36.7021932], [-101.4765871, 36.7021932], [-101.4765871, 36.7022469], [-101.4769491, 36.7025306], [-101.4769842, 36.7025018], [-101.4770057, 36.7025187], [-101.4770513, 36.7024813], [-101.4770263, 36.7024618], [-101.477071, 36.7024252], [-101.4767721, 36.702191], [-101.4767732, 36.7021251], [-101.4768005, 36.7021254], [-101.4768009, 36.7021001], [-101.4769288, 36.7021014], [-101.4769302, 36.7020171], [-101.4768001, 36.7020157], [-101.4768008, 36.7019726], [-101.4767635, 36.7019722], [-101.4767641, 36.7019394], [-101.4770846, 36.701675]]]}, "properties": {"osm_id": 348043570, "building": "yes", "name": "", "height": null, "height_m": null, "levels": null, "tract_id": "40139950902", "tract_name": "9509.02", "tags": {"amenity": "place_of_worship", "building": "yes", "religion": "christian"}}}, {"type": "Feature", "geometry": {"type": "Polygon", "coordinates": [[[-101.4936353, 36.7025784], [-101.4936349, 36.7023999], [-101.4935149, 36.7024001], [-101.4935153, 36.7025786], [-101.4936353, 36.7025784]]]}, "properties": {"osm_id": 531274158, "building": "yes", "name": "", "height": null, "height_m": null, "levels": null, "tract_id": "40139950902", "tract_name": "9509.02", "tags": {"building": "yes"}}}, {"type": "Feature", "geometry": {"type": "Polygon", "coordinates": [[[-101.4884465, 36.7062582], [-101.4874524, 36.7062574], [-101.4874529, 36.7058726], [-101.4874242, 36.7058726], [-101.4874243, 36.705831], [-101.4873857, 36.7058309], [-101.4873857, 36.7057907], [-101.4872868, 36.7057907], [-101.487287, 36.7055827], [-101.487352, 36.7055827], [-101.4873522, 36.7054386], [-101.4873524, 36.7053129], [-101.4872767, 36.7053128], [-101.487277, 36.7050968], [-101.4873554, 36.7050968], [-101.4873557, 36.7048682], [-101.4883636, 36.7048691], [-101.4883632, 36.7052242], [-101.4885544, 36.7052243], [-101.4885541, 36.7054244], [-101.4884477, 36.7054243], [-101.4884465, 36.7062582]]]}, "properties": {"osm_id": 567698693, "building": "yes", "name": "Walmart Supercenter", "height": null, "height_m": null, "levels": null, "tract_id": "40139950902", "tract_name": "9509.02", "tags": {"addr:city": "Guymon", "addr:housenumber": "2600", "addr:postcode": "73942", "addr:state": "OK", "addr:street": "North Highway 64", "brand": "Walmart", "brand:wikidata": "Q483551", "building": "yes", "name": "Walmart Supercenter", "opening_hours": "24/7", "payment:app:walmart": "yes", "payment:apple_pay": "no", "payment:google_pay": "no", "payment:samsung_pay": "no", "phone": "+1 580-338-1611", "ref": "1437", "sensory_friendly:accommodation": "dimmed_light;static_screens;no_pa", "sensory_friendly:conditional": "yes @ 08:00-10:00", "shop": "supermarket", "website": "https://www.walmart.com/store/1437-guymon-ok", "wheelchair": "yes"}}}, {"type": "Feature", "geometry": {"type": "Polygon", "coordinates": [[[-101.4819789, 36.6950983], [-101.4818125, 36.6950944], [-101.4818144, 36.6950417], [-101.4817045, 36.6950391], [-101.4817151, 36.6947483], [-101.4819914, 36.6947547], [-101.4819789, 36.6950983]]]}, "properties": {"osm_id": 577477408, "building": "yes", "name": "", "height": null, "height_m": null, "levels": null, "tract_id": "40139950902", "tract_name": "9509.02", "tags": {"building": "yes"}}}, {"type": "Feature", "geometry": {"type": "Polygon", "coordinates": [[[-101.482046, 36.6963758], [-101.4817643, 36.6963736], [-101.4817669, 36.6961523], [-101.4819118, 36.6961534], [-101.4819112, 36.6962054], [-101.482048, 36.6962064], [-101.482046, 36.6963758]]]}, "properties": {"osm_id": 577477410, "building": "yes", "name": "", "height": null, "height_m": null, "levels": null, "tract_id": "40139950902", "tract_name": "9509.02", "tags": {"building": "yes"}}}, {"type": "Feature", "geometry": {"type": "Polygon", "coordinates": [[[-101.4846209, 36.6970338], [-101.4843258, 36.6970338], [-101.4843258, 36.6968424], [-101.4846209, 36.6968424], [-101.4846209, 36.6970338]]]}, "properties": {"osm_id": 577477412, "building": "yes", "name": "", "height": null, "height_m": null, "levels": null, "tract_id": "40139950902", "tract_name": "9509.02", "tags": {"building": "yes"}}}, {"type": "Feature", "geometry": {"type": "Polygon", "coordinates": [[[-101.4852915, 36.6973904], [-101.4852935, 36.6975282], [-101.4852965, 36.6976979], [-101.4850775, 36.6977004], [-101.4850715, 36.6973929], [-101.4852915, 36.6973904]]]}, "properties": {"osm_id": 577477414, "building": "yes", "name": "", "height": null, "height_m": null, "levels": null, "tract_id": "40139950902", "tract_name": "9509.02", "tags": {"building": "yes"}}}, {"type": "Feature", "geometry": {"type": "Polygon", "coordinates": [[[-101.4825368, 36.700464], [-101.4825385, 36.700249], [-101.48337, 36.7002533], [-101.4833683, 36.7004683], [-101.4825368, 36.700464]]]}, "properties": {"osm_id": 577477415, "building": "yes", "name": "", "height": null, "height_m": null, "levels": null, "tract_id": "40139950902", "tract_name": "9509.02", "tags": {"building": "yes"}}}, {"type": "Feature", "geometry": {"type": "Polygon", "coordinates": [[[-101.4834219, 36.7008855], [-101.4830357, 36.7008769], [-101.4830483, 36.700514], [-101.4834345, 36.7005226], [-101.4834219, 36.7008855]]]}, "properties": {"osm_id": 577477417, "building": "yes", "name": "", "height": null, "height_m": null, "levels": null, "tract_id": "40139950902", "tract_name": "9509.02", "tags": {"building": "yes"}}}, {"type": "Feature", "geometry": {"type": "Polygon", "coordinates": [[[-101.4840308, 36.7022726], [-101.4837465, 36.7023263], [-101.4837043, 36.702183], [-101.4839886, 36.7021292], [-101.4840308, 36.7022726]]]}, "properties": {"osm_id": 577477419, "building": "yes", "name": "", "height": null, "height_m": null, "levels": null, "tract_id": "40139950902", "tract_name": "9509.02", "tags": {"building": "yes"}}}, {"type": "Feature", "geometry": {"type": "Polygon", "coordinates": [[[-101.4842132, 36.7027844], [-101.4837465, 36.7028661], [-101.4836485, 36.7025065], [-101.4838763, 36.7024666], [-101.4839283, 36.7026576], [-101.4841672, 36.7026157], [-101.4842132, 36.7027844]]]}, "properties": {"osm_id": 577477421, "building": "yes", "name": "Farm Credit of Western Oklahoma", "height": null, "height_m": null, "levels": null, "tract_id": "40139950902", "tract_name": "9509.02", "tags": {"addr:housenumber": "2143", "addr:street": "North Highway 64", "amenity": "bank", "atm": "yes", "building": "yes", "check_date": "2025-09-20", "name": "Farm Credit of Western Oklahoma"}}}, {"type": "Feature", "geometry": {"type": "Polygon", "coordinates": [[[-101.4842695, 36.7029672], [-101.4839128, 36.7030274], [-101.4838713, 36.7028694], [-101.484228, 36.7028091], [-101.4842695, 36.7029672]]]}, "properties": {"osm_id": 577477423, "building": "yes", "name": "Bearing and Allied Supply Company", "height": null, "height_m": null, "levels": null, "tract_id": "40139950902", "tract_name": "9509.02", "tags": {"addr:housenumber": "2155", "addr:street": "North Highway 64", "alt_name": "BASCO", "building": "yes", "name": "Bearing and Allied Supply Company", "shop": "hardware"}}}, {"type": "Feature", "geometry": {"type": "Polygon", "coordinates": [[[-101.4845324, 36.7038639], [-101.4844546, 36.7038639], [-101.4844546, 36.7038316], [-101.4842266, 36.7038316], [-101.4842266, 36.7038639], [-101.4840871, 36.7038639], [-101.4840871, 36.703565], [-101.4842266, 36.703565], [-101.4842266, 36.7035929], [-101.4844438, 36.7035929], [-101.4844438, 36.703565], [-101.4845324, 36.703565], [-101.4845324, 36.7038639]]]}, "properties": {"osm_id": 577477425, "building": "yes", "name": "Qwik 6 Express", "height": null, "height_m": null, "levels": null, "tract_id": "40139950902", "tract_name": "9509.02", "tags": {"addr:housenumber": "2375", "addr:street": "North Highway 64", "amenity": "fuel", "building": "yes", "name": "Qwik 6 Express", "shop": "convenience"}}}, {"type": "Feature", "geometry": {"type": "Polygon", "coordinates": [[[-101.4853424, 36.7018575], [-101.4850917, 36.7018589], [-101.4850903, 36.7016876], [-101.4853409, 36.7016862], [-101.4853424, 36.7018575]]]}, "properties": {"osm_id": 577477427, "building": "yes", "name": "", "height": null, "height_m": null, "levels": null, "tract_id": "40139950902", "tract_name": "9509.02", "tags": {"building": "yes"}}}, {"type": "Feature", "geometry": {"type": "Polygon", "coordinates": [[[-101.484948, 36.7018896], [-101.4848809, 36.70189], [-101.4848811, 36.7019074], [-101.4846853, 36.7019084], [-101.4846851, 36.7018851], [-101.4845617, 36.7018858], [-101.4845599, 36.7016813], [-101.4849461, 36.7016791], [-101.484948, 36.7018896]]]}, "properties": {"osm_id": 577477428, "building": "yes", "name": "Guymon Vision Clinkc", "height": null, "height_m": null, "levels": null, "tract_id": "40139950902", "tract_name": "9509.02", "tags": {"addr:housenumber": "301", "addr:street": "Northridge Circle", "building": "yes", "check_date": "2025-09-20", "name": "Guymon Vision Clinkc", "shop": "optician"}}}, {"type": "Feature", "geometry": {"type": "Polygon", "coordinates": [[[-101.4860746, 36.7025113], [-101.4856643, 36.7025113], [-101.4856643, 36.7021263], [-101.4860746, 36.7021263], [-101.4860746, 36.7025113]]]}, "properties": {"osm_id": 577477429, "building": "yes", "name": "", "height": null, "height_m": null, "levels": null, "tract_id": "40139950902", "tract_name": "9509.02", "tags": {"addr:housenumber": "309", "addr:street": "Northridge Circle", "building": "yes"}}}, {"type": "Feature", "geometry": {"type": "Polygon", "coordinates": [[[-101.485734, 36.7028596], [-101.4854711, 36.7029951], [-101.4852955, 36.7027761], [-101.4855584, 36.7026406], [-101.485734, 36.7028596]]]}, "properties": {"osm_id": 577477430, "building": "yes", "name": "", "height": null, "height_m": null, "levels": null, "tract_id": "40139950902", "tract_name": "9509.02", "tags": {"building": "yes"}}}, {"type": "Feature", "geometry": {"type": "Polygon", "coordinates": [[[-101.4852861, 36.7029371], [-101.4849991, 36.7029586], [-101.4849824, 36.7028155], [-101.4852694, 36.702794], [-101.4852861, 36.7029371]]]}, "properties": {"osm_id": 577477431, "building": "yes", "name": "", "height": null, "height_m": null, "levels": null, "tract_id": "40139950902", "tract_name": "9509.02", "tags": {"building": "yes"}}}, {"type": "Feature", "geometry": {"type": "Polygon", "coordinates": [[[-101.4854229, 36.7034725], [-101.4850795, 36.7034725], [-101.4850795, 36.7030747], [-101.4854229, 36.7030747], [-101.4854229, 36.7034725]]]}, "properties": {"osm_id": 577477432, "building": "yes", "name": "PTCI", "height": null, "height_m": null, "levels": null, "tract_id": "40139950902", "tract_name": "9509.02", "tags": {"addr:housenumber": "2222", "addr:street": "North Highway 64", "building": "yes", "check_date": "2025-09-20", "name": "PTCI", "office": "telecommunication"}}}, {"type": "Feature", "geometry": {"type": "Polygon", "coordinates": [[[-101.485557, 36.7035521], [-101.485557, 36.7036596], [-101.4854282, 36.7036596], [-101.4854282, 36.7038617], [-101.4853182, 36.7038617], [-101.4853182, 36.7036682], [-101.4851949, 36.7036682], [-101.4851949, 36.7035521], [-101.485557, 36.7035521]]]}, "properties": {"osm_id": 577477433, "building": "yes", "name": "", "height": null, "height_m": null, "levels": null, "tract_id": "40139950902", "tract_name": "9509.02", "tags": {"building": "yes"}}}, {"type": "Feature", "geometry": {"type": "Polygon", "coordinates": [[[-101.4878851, 36.7073002], [-101.487889, 36.7077561], [-101.487804, 36.7077565], [-101.4878058, 36.7079651], [-101.4875096, 36.7079668], [-101.4875077, 36.7077496], [-101.4875039, 36.7073023], [-101.4878851, 36.7073002]]]}, "properties": {"osm_id": 577477434, "building": "yes", "name": "", "height": null, "height_m": null, "levels": null, "tract_id": "40139950902", "tract_name": "9509.02", "tags": {"building": "yes"}}}, {"type": "Feature", "geometry": {"type": "Polygon", "coordinates": [[[-101.4773471, 36.7047626], [-101.4773413, 36.7047626], [-101.4772259, 36.7047616], [-101.4772284, 36.7045848], [-101.4771185, 36.7045838], [-101.4771168, 36.704706], [-101.476628, 36.7047017], [-101.4766333, 36.7043124], [-101.4771214, 36.7043167], [-101.477121, 36.7043465], [-101.4776099, 36.7043509], [-101.477607, 36.7045649], [-101.4773498, 36.7045626], [-101.4773471, 36.7047626]]]}, "properties": {"osm_id": 577477435, "building": "yes", "name": "Guymon Fire Dept", "height": null, "height_m": null, "levels": null, "tract_id": "40139950902", "tract_name": "9509.02", "tags": {"addr:housenumber": "402", "addr:street": "Northeast 24th Street", "amenity": "fire_station", "building": "yes", "check_date": "2025-09-13", "name": "Guymon Fire Dept"}}}, {"type": "Feature", "geometry": {"type": "Polygon", "coordinates": [[[-101.477324, 36.7037854], [-101.4771179, 36.7037836], [-101.4771195, 36.7036628], [-101.4769712, 36.7036615], [-101.4769733, 36.7035077], [-101.4771216, 36.703509], [-101.4771232, 36.7033921], [-101.4773293, 36.7033939], [-101.477324, 36.7037854]]]}, "properties": {"osm_id": 577477436, "building": "office", "name": "QIS", "height": null, "height_m": null, "levels": null, "tract_id": "40139950902", "tract_name": "9509.02", "tags": {"addr:housenumber": "2309", "addr:street": "North Lelia Street", "building": "office", "name": "QIS", "office": "company"}}}, {"type": "Feature", "geometry": {"type": "Polygon", "coordinates": [[[-101.4782359, 36.6989328], [-101.4779126, 36.6989346], [-101.4779113, 36.698792], [-101.4782346, 36.6987902], [-101.4782359, 36.6989328]]]}, "properties": {"osm_id": 577477437, "building": "house", "name": "", "height": null, "height_m": null, "levels": null, "tract_id": "40139950902", "tract_name": "9509.02", "tags": {"addr:housenumber": "1820", "addr:street": "North Lelia Street", "building": "house"}}}, {"type": "Feature", "geometry": {"type": "Polygon", "coordinates": [[[-101.4788637, 36.708369], [-101.4786903, 36.7083699], [-101.478689, 36.708214], [-101.4788624, 36.7082131], [-101.4788637, 36.708369]]]}, "properties": {"osm_id": 577477438, "building": "house", "name": "", "height": null, "height_m": null, "levels": null, "tract_id": "40139950902", "tract_name": "9509.02", "tags": {"addr:street": "Northeast 29th Street", "building": "house"}}}, {"type": "Feature", "geometry": {"type": "Polygon", "coordinates": [[[-101.4784345, 36.7083259], [-101.4782612, 36.7083269], [-101.4782598, 36.708171], [-101.4784332, 36.70817], [-101.4784345, 36.7083259]]]}, "properties": {"osm_id": 577477439, "building": "house", "name": "", "height": null, "height_m": null, "levels": null, "tract_id": "40139950902", "tract_name": "9509.02", "tags": {"addr:street": "Northeast 29th Street", "building": "house"}}}, {"type": "Feature", "geometry": {"type": "Polygon", "coordinates": [[[-101.47822, 36.7083431], [-101.4780466, 36.7083441], [-101.4780453, 36.7081882], [-101.4782186, 36.7081873], [-101.47822, 36.7083431]]]}, "properties": {"osm_id": 577477441, "building": "house", "name": "", "height": null, "height_m": null, "levels": null, "tract_id": "40139950902", "tract_name": "9509.02", "tags": {"addr:street": "Northeast 29th Street", "building": "house"}}}, {"type": "Feature", "geometry": {"type": "Polygon", "coordinates": [[[-101.477996, 36.7083507], [-101.4779408, 36.7083528], [-101.4778226, 36.7083516], [-101.4778213, 36.7081957], [-101.4779947, 36.7081948], [-101.477996, 36.7083507]]]}, "properties": {"osm_id": 577477443, "building": "house", "name": "", "height": null, "height_m": null, "levels": null, "tract_id": "40139950902", "tract_name": "9509.02", "tags": {"addr:street": "Northeast 29th Street", "building": "house"}}}, {"type": "Feature", "geometry": {"type": "Polygon", "coordinates": [[[-101.477772, 36.7083464], [-101.4775987, 36.7083473], [-101.4775973, 36.7081914], [-101.4777707, 36.7081905], [-101.477772, 36.7083464]]]}, "properties": {"osm_id": 577477445, "building": "house", "name": "", "height": null, "height_m": null, "levels": null, "tract_id": "40139950902", "tract_name": "9509.02", "tags": {"addr:street": "Northeast 29th Street", "building": "house"}}}, {"type": "Feature", "geometry": {"type": "Polygon", "coordinates": [[[-101.4775601, 36.7083216], [-101.4773868, 36.7083226], [-101.4773854, 36.7081667], [-101.4775588, 36.7081657], [-101.4775601, 36.7083216]]]}, "properties": {"osm_id": 577477448, "building": "house", "name": "", "height": null, "height_m": null, "levels": null, "tract_id": "40139950902", "tract_name": "9509.02", "tags": {"addr:street": "Northeast 29th Street", "building": "house"}}}, {"type": "Feature", "geometry": {"type": "Polygon", "coordinates": [[[-101.4773348, 36.7083259], [-101.4771615, 36.7083269], [-101.4771601, 36.708171], [-101.4773335, 36.70817], [-101.4773348, 36.7083259]]]}, "properties": {"osm_id": 577477450, "building": "house", "name": "", "height": null, "height_m": null, "levels": null, "tract_id": "40139950902", "tract_name": "9509.02", "tags": {"addr:street": "Northeast 29th Street", "building": "house"}}}, {"type": "Feature", "geometry": {"type": "Polygon", "coordinates": [[[-101.4769218, 36.7083776], [-101.4767484, 36.7083785], [-101.4767471, 36.7082226], [-101.4769204, 36.7082217], [-101.4769218, 36.7083776]]]}, "properties": {"osm_id": 577477452, "building": "house", "name": "", "height": null, "height_m": null, "levels": null, "tract_id": "40139950902", "tract_name": "9509.02", "tags": {"addr:street": "Northeast 29th Street", "building": "house"}}}, {"type": "Feature", "geometry": {"type": "Polygon", "coordinates": [[[-101.477131, 36.7083345], [-101.4769576, 36.7083355], [-101.4769563, 36.7081796], [-101.4771296, 36.7081787], [-101.477131, 36.7083345]]]}, "properties": {"osm_id": 577477454, "building": "house", "name": "", "height": null, "height_m": null, "levels": null, "tract_id": "40139950902", "tract_name": "9509.02", "tags": {"addr:street": "Northeast 29th Street", "building": "house"}}}, {"type": "Feature", "geometry": {"type": "Polygon", "coordinates": [[[-101.4767018, 36.7083431], [-101.4765285, 36.7083441], [-101.4765271, 36.7081882], [-101.4767005, 36.7081873], [-101.4767018, 36.7083431]]]}, "properties": {"osm_id": 577477457, "building": "house", "name": "", "height": null, "height_m": 3.0, "levels": 1, "tract_id": "40139950902", "tract_name": "9509.02", "tags": {"addr:housenumber": "418", "addr:street": "Northeast 29th Street", "building": "house", "building:levels": "1"}}}, {"type": "Feature", "geometry": {"type": "Polygon", "coordinates": [[[-101.4762351, 36.7083647], [-101.4760618, 36.7083656], [-101.4760604, 36.7082097], [-101.4762338, 36.7082088], [-101.4762351, 36.7083647]]]}, "properties": {"osm_id": 577477458, "building": "house", "name": "", "height": null, "height_m": null, "levels": null, "tract_id": "40139950902", "tract_name": "9509.02", "tags": {"addr:street": "Northeast 29th Street", "building": "house"}}}, {"type": "Feature", "geometry": {"type": "Polygon", "coordinates": [[[-101.4760045, 36.708313], [-101.4758311, 36.708314], [-101.4758298, 36.7081581], [-101.4760031, 36.7081571], [-101.4760045, 36.708313]]]}, "properties": {"osm_id": 577477459, "building": "house", "name": "", "height": null, "height_m": null, "levels": null, "tract_id": "40139950902", "tract_name": "9509.02", "tags": {"addr:street": "Northeast 29th Street", "building": "house"}}}, {"type": "Feature", "geometry": {"type": "Polygon", "coordinates": [[[-101.4757792, 36.7083302], [-101.4756058, 36.7083312], [-101.4756044, 36.7081753], [-101.4757778, 36.7081743], [-101.4757792, 36.7083302]]]}, "properties": {"osm_id": 577477460, "building": "house", "name": "", "height": null, "height_m": null, "levels": null, "tract_id": "40139950902", "tract_name": "9509.02", "tags": {"addr:street": "Northeast 29th Street", "building": "house"}}}, {"type": "Feature", "geometry": {"type": "Polygon", "coordinates": [[[-101.4755431, 36.7083345], [-101.4753698, 36.7083355], [-101.4753684, 36.7081796], [-101.4755418, 36.7081787], [-101.4755431, 36.7083345]]]}, "properties": {"osm_id": 577477461, "building": "house", "name": "", "height": null, "height_m": null, "levels": null, "tract_id": "40139950902", "tract_name": "9509.02", "tags": {"addr:street": "Northeast 29th Street", "building": "house"}}}, {"type": "Feature", "geometry": {"type": "Polygon", "coordinates": [[[-101.4753285, 36.7083345], [-101.4751552, 36.7083355], [-101.4751538, 36.7081796], [-101.4753272, 36.7081787], [-101.4753285, 36.7083345]]]}, "properties": {"osm_id": 577477462, "building": "house", "name": "", "height": null, "height_m": null, "levels": null, "tract_id": "40139950902", "tract_name": "9509.02", "tags": {"addr:street": "Northeast 29th Street", "building": "house"}}}, {"type": "Feature", "geometry": {"type": "Polygon", "coordinates": [[[-101.4750389, 36.7083259], [-101.4748655, 36.7083269], [-101.4748642, 36.708171], [-101.4750375, 36.70817], [-101.4750389, 36.7083259]]]}, "properties": {"osm_id": 577477463, "building": "house", "name": "", "height": null, "height_m": null, "levels": null, "tract_id": "40139950902", "tract_name": "9509.02", "tags": {"addr:street": "Northeast 29th Street", "building": "house"}}}, {"type": "Feature", "geometry": {"type": "Polygon", "coordinates": [[[-101.4750335, 36.7079432], [-101.4748601, 36.7079442], [-101.4748588, 36.7077883], [-101.4750322, 36.7077873], [-101.4750335, 36.7079432]]]}, "properties": {"osm_id": 577477464, "building": "house", "name": "", "height": null, "height_m": null, "levels": null, "tract_id": "40139950902", "tract_name": "9509.02", "tags": {"addr:housenumber": "521", "addr:street": "Northeast 29th Street", "building": "house"}}}, {"type": "Feature", "geometry": {"type": "Polygon", "coordinates": [[[-101.4752856, 36.7079174], [-101.4751123, 36.7079183], [-101.4751109, 36.7077624], [-101.4752843, 36.7077615], [-101.4752856, 36.7079174]]]}, "properties": {"osm_id": 577477465, "building": "house", "name": "", "height": null, "height_m": null, "levels": null, "tract_id": "40139950902", "tract_name": "9509.02", "tags": {"addr:housenumber": "517", "addr:street": "Northeast 29th Street", "building": "house"}}}, {"type": "Feature", "geometry": {"type": "Polygon", "coordinates": [[[-101.4755217, 36.7079131], [-101.4753483, 36.707914], [-101.475347, 36.7077581], [-101.4755203, 36.7077572], [-101.4755217, 36.7079131]]]}, "properties": {"osm_id": 577477466, "building": "house", "name": "", "height": null, "height_m": null, "levels": null, "tract_id": "40139950902", "tract_name": "9509.02", "tags": {"addr:housenumber": "513", "addr:street": "Northeast 29th Street", "building": "house"}}}, {"type": "Feature", "geometry": {"type": "Polygon", "coordinates": [[[-101.4757684, 36.7079303], [-101.4755951, 36.7079312], [-101.4755937, 36.7077754], [-101.4757671, 36.7077744], [-101.4757684, 36.7079303]]]}, "properties": {"osm_id": 577477467, "building": "house", "name": "", "height": null, "height_m": null, "levels": null, "tract_id": "40139950902", "tract_name": "9509.02", "tags": {"addr:housenumber": "509", "addr:street": "Northeast 29th Street", "building": "house"}}}, {"type": "Feature", "geometry": {"type": "Polygon", "coordinates": [[[-101.4760366, 36.707926], [-101.4758633, 36.7079269], [-101.4758619, 36.7077711], [-101.4760353, 36.7077701], [-101.4760366, 36.707926]]]}, "properties": {"osm_id": 577477470, "building": "house", "name": "", "height": null, "height_m": 3.0, "levels": 1, "tract_id": "40139950902", "tract_name": "9509.02", "tags": {"addr:housenumber": "505", "addr:street": "Northeast 29th Street", "building": "house", "building:levels": "1"}}}, {"type": "Feature", "geometry": {"type": "Polygon", "coordinates": [[[-101.4762405, 36.7079346], [-101.4760671, 36.7079355], [-101.4760658, 36.7077797], [-101.4762392, 36.7077787], [-101.4762405, 36.7079346]]]}, "properties": {"osm_id": 577477471, "building": "house", "name": "", "height": null, "height_m": 3.0, "levels": 1, "tract_id": "40139950902", "tract_name": "9509.02", "tags": {"addr:housenumber": "501", "addr:street": "Northeast 29th Street", "building": "house", "building:levels": "1"}}}, {"type": "Feature", "geometry": {"type": "Polygon", "coordinates": [[[-101.4764604, 36.7079346], [-101.4762871, 36.7079355], [-101.4762857, 36.7077797], [-101.4764591, 36.7077787], [-101.4764604, 36.7079346]]]}, "properties": {"osm_id": 577477473, "building": "house", "name": "", "height": null, "height_m": 3.0, "levels": 1, "tract_id": "40139950902", "tract_name": "9509.02", "tags": {"addr:housenumber": "421", "addr:street": "Northeast 29th Street", "building": "house", "building:levels": "1"}}}, {"type": "Feature", "geometry": {"type": "Polygon", "coordinates": [[[-101.4767287, 36.7079131], [-101.4765553, 36.707914], [-101.476554, 36.7077581], [-101.4767273, 36.7077572], [-101.4767287, 36.7079131]]]}, "properties": {"osm_id": 577477475, "building": "house", "name": "", "height": null, "height_m": null, "levels": null, "tract_id": "40139950902", "tract_name": "9509.02", "tags": {"addr:housenumber": "417", "addr:street": "Northeast 29th Street", "building": "house"}}}, {"type": "Feature", "geometry": {"type": "Polygon", "coordinates": [[[-101.476954, 36.7079174], [-101.4767806, 36.7079183], [-101.4767793, 36.7077624], [-101.4769526, 36.7077615], [-101.476954, 36.7079174]]]}, "properties": {"osm_id": 577477477, "building": "house", "name": "", "height": null, "height_m": null, "levels": null, "tract_id": "40139950902", "tract_name": "9509.02", "tags": {"addr:housenumber": "413", "addr:street": "Northeast 29th Street", "building": "house"}}}, {"type": "Feature", "geometry": {"type": "Polygon", "coordinates": [[[-101.4771471, 36.7079217], [-101.4769737, 36.7079226], [-101.4769724, 36.7077667], [-101.4771457, 36.7077658], [-101.4771471, 36.7079217]]]}, "properties": {"osm_id": 577477479, "building": "house", "name": "", "height": null, "height_m": null, "levels": null, "tract_id": "40139950902", "tract_name": "9509.02", "tags": {"addr:housenumber": "409", "addr:street": "Northeast 29th Street", "building": "house"}}}, {"type": "Feature", "geometry": {"type": "Polygon", "coordinates": [[[-101.4773831, 36.7079346], [-101.4772098, 36.7079355], [-101.4772084, 36.7077797], [-101.4773818, 36.7077787], [-101.4773831, 36.7079346]]]}, "properties": {"osm_id": 577477481, "building": "house", "name": "", "height": null, "height_m": null, "levels": null, "tract_id": "40139950902", "tract_name": "9509.02", "tags": {"addr:housenumber": "405", "addr:street": "Northeast 29th Street", "building": "house"}}}, {"type": "Feature", "geometry": {"type": "Polygon", "coordinates": [[[-101.4776245, 36.7079432], [-101.4774511, 36.7079442], [-101.4774498, 36.7077883], [-101.4776232, 36.7077873], [-101.4776245, 36.7079432]]]}, "properties": {"osm_id": 577477483, "building": "house", "name": "", "height": null, "height_m": null, "levels": null, "tract_id": "40139950902", "tract_name": "9509.02", "tags": {"addr:street": "Northeast 29th Street", "building": "house"}}}, {"type": "Feature", "geometry": {"type": "Polygon", "coordinates": [[[-101.4778015, 36.7079217], [-101.4776282, 36.7079226], [-101.4776268, 36.7077667], [-101.4778002, 36.7077658], [-101.4778015, 36.7079217]]]}, "properties": {"osm_id": 577477485, "building": "house", "name": "", "height": null, "height_m": null, "levels": null, "tract_id": "40139950902", "tract_name": "9509.02", "tags": {"addr:street": "Northeast 29th Street", "building": "house"}}}, {"type": "Feature", "geometry": {"type": "Polygon", "coordinates": [[[-101.4780966, 36.7079174], [-101.4779232, 36.7079183], [-101.4779219, 36.7077624], [-101.4780952, 36.7077615], [-101.4780966, 36.7079174]]]}, "properties": {"osm_id": 577477487, "building": "house", "name": "", "height": null, "height_m": null, "levels": null, "tract_id": "40139950902", "tract_name": "9509.02", "tags": {"addr:housenumber": "317", "addr:street": "Northeast 29th Street", "building": "house"}}}, {"type": "Feature", "geometry": {"type": "Polygon", "coordinates": [[[-101.4783112, 36.7079303], [-101.4781378, 36.7079312], [-101.4781365, 36.7077754], [-101.4783098, 36.7077744], [-101.4783112, 36.7079303]]]}, "properties": {"osm_id": 577477488, "building": "house", "name": "", "height": null, "height_m": null, "levels": null, "tract_id": "40139950902", "tract_name": "9509.02", "tags": {"addr:street": "Northeast 29th Street", "building": "house"}}}, {"type": "Feature", "geometry": {"type": "Polygon", "coordinates": [[[-101.4785687, 36.7079088], [-101.4783953, 36.7079097], [-101.4783939, 36.7077538], [-101.4785673, 36.7077529], [-101.4785687, 36.7079088]]]}, "properties": {"osm_id": 577477489, "building": "house", "name": "", "height": null, "height_m": null, "levels": null, "tract_id": "40139950902", "tract_name": "9509.02", "tags": {"addr:street": "Northeast 29th Street", "building": "house"}}}, {"type": "Feature", "geometry": {"type": "Polygon", "coordinates": [[[-101.4773563, 36.707526], [-101.4771829, 36.707527], [-101.4771816, 36.7073711], [-101.477355, 36.7073701], [-101.4773563, 36.707526]]]}, "properties": {"osm_id": 577477490, "building": "house", "name": "", "height": null, "height_m": null, "levels": null, "tract_id": "40139950902", "tract_name": "9509.02", "tags": {"addr:street": "Northeast 28th Street", "building": "house"}}}, {"type": "Feature", "geometry": {"type": "Polygon", "coordinates": [[[-101.4771042, 36.7075346], [-101.4769308, 36.7075356], [-101.4769295, 36.7073797], [-101.4771028, 36.7073787], [-101.4771042, 36.7075346]]]}, "properties": {"osm_id": 577477491, "building": "house", "name": "", "height": null, "height_m": null, "levels": null, "tract_id": "40139950902", "tract_name": "9509.02", "tags": {"addr:street": "Northeast 28th Street", "building": "house"}}}, {"type": "Feature", "geometry": {"type": "Polygon", "coordinates": [[[-101.4769218, 36.7075475], [-101.4767484, 36.7075485], [-101.4767471, 36.7073926], [-101.4769204, 36.7073916], [-101.4769218, 36.7075475]]]}, "properties": {"osm_id": 577477492, "building": "house", "name": "", "height": null, "height_m": null, "levels": null, "tract_id": "40139950902", "tract_name": "9509.02", "tags": {"addr:housenumber": "406", "addr:street": "Northeast 28th Street", "building": "house"}}}, {"type": "Feature", "geometry": {"type": "Polygon", "coordinates": [[[-101.4766777, 36.7075454], [-101.4765043, 36.7075463], [-101.476503, 36.7073904], [-101.4766764, 36.7073895], [-101.4766777, 36.7075454]]]}, "properties": {"osm_id": 577477493, "building": "house", "name": "", "height": null, "height_m": null, "levels": null, "tract_id": "40139950902", "tract_name": "9509.02", "tags": {"addr:street": "Northeast 28th Street", "building": "house"}}}, {"type": "Feature", "geometry": {"type": "Polygon", "coordinates": [[[-101.4764202, 36.7075454], [-101.4762468, 36.7075463], [-101.4762455, 36.7073904], [-101.4764189, 36.7073895], [-101.4764202, 36.7075454]]]}, "properties": {"osm_id": 577477494, "building": "house", "name": "", "height": null, "height_m": null, "levels": null, "tract_id": "40139950902", "tract_name": "9509.02", "tags": {"addr:street": "Northeast 28th Street", "building": "house"}}}, {"type": "Feature", "geometry": {"type": "Polygon", "coordinates": [[[-101.4761708, 36.707526], [-101.4759974, 36.707527], [-101.4759961, 36.7073711], [-101.4761694, 36.7073701], [-101.4761708, 36.707526]]]}, "properties": {"osm_id": 577477495, "building": "house", "name": "", "height": null, "height_m": null, "levels": null, "tract_id": "40139950902", "tract_name": "9509.02", "tags": {"addr:street": "Northeast 28th Street", "building": "house"}}}, {"type": "Feature", "geometry": {"type": "Polygon", "coordinates": [[[-101.4759133, 36.7075217], [-101.4757399, 36.7075227], [-101.4757386, 36.7073668], [-101.4759119, 36.7073658], [-101.4759133, 36.7075217]]]}, "properties": {"osm_id": 577477496, "building": "house", "name": "", "height": null, "height_m": null, "levels": null, "tract_id": "40139950902", "tract_name": "9509.02", "tags": {"addr:street": "Northeast 28th Street", "building": "house"}}}, {"type": "Feature", "geometry": {"type": "Polygon", "coordinates": [[[-101.4757108, 36.7075217], [-101.4755374, 36.7075227], [-101.4755361, 36.7073668], [-101.4757094, 36.7073658], [-101.4757108, 36.7075217]]]}, "properties": {"osm_id": 577477497, "building": "house", "name": "", "height": null, "height_m": null, "levels": null, "tract_id": "40139950902", "tract_name": "9509.02", "tags": {"addr:housenumber": "506", "addr:street": "Northeast 28th Street", "building": "house"}}}, {"type": "Feature", "geometry": {"type": "Polygon", "coordinates": [[[-101.4754627, 36.7075389], [-101.4752893, 36.7075399], [-101.4752879, 36.707384], [-101.4754613, 36.707383], [-101.4754627, 36.7075389]]]}, "properties": {"osm_id": 577477498, "building": "house", "name": "", "height": null, "height_m": null, "levels": null, "tract_id": "40139950902", "tract_name": "9509.02", "tags": {"addr:street": "Northeast 28th Street", "building": "house"}}}, {"type": "Feature", "geometry": {"type": "Polygon", "coordinates": [[[-101.4750764, 36.7072164], [-101.4749031, 36.7072173], [-101.4749017, 36.7070614], [-101.4750751, 36.7070605], [-101.4750764, 36.7072164]]]}, "properties": {"osm_id": 577477499, "building": "house", "name": "", "height": null, "height_m": null, "levels": null, "tract_id": "40139950902", "tract_name": "9509.02", "tags": {"addr:street": "Majestic Street", "building": "house"}}}, {"type": "Feature", "geometry": {"type": "Polygon", "coordinates": [[[-101.475055, 36.7073927], [-101.4748816, 36.7073937], [-101.4748803, 36.7072378], [-101.4750536, 36.7072368], [-101.475055, 36.7073927]]]}, "properties": {"osm_id": 577477500, "building": "house", "name": "", "height": null, "height_m": null, "levels": null, "tract_id": "40139950902", "tract_name": "9509.02", "tags": {"addr:street": "Majestic Street", "building": "house"}}}, {"type": "Feature", "geometry": {"type": "Polygon", "coordinates": [[[-101.4752373, 36.7075733], [-101.475064, 36.7075743], [-101.4750626, 36.7074184], [-101.475236, 36.7074174], [-101.4752373, 36.7075733]]]}, "properties": {"osm_id": 577477501, "building": "yes", "name": "", "height": null, "height_m": null, "levels": null, "tract_id": "40139950902", "tract_name": "9509.02", "tags": {"addr:street": "Northeast 28th Street", "building": "yes"}}}, {"type": "Feature", "geometry": {"type": "Polygon", "coordinates": [[[-101.4768735, 36.7068422], [-101.4767001, 36.7068432], [-101.4766988, 36.7066873], [-101.4768722, 36.7066863], [-101.4768735, 36.7068422]]]}, "properties": {"osm_id": 577477503, "building": "house", "name": "", "height": null, "height_m": null, "levels": null, "tract_id": "40139950902", "tract_name": "9509.02", "tags": {"building": "house"}}}, {"type": "Feature", "geometry": {"type": "Polygon", "coordinates": [[[-101.4770846, 36.7065001], [-101.4769112, 36.706501], [-101.4769099, 36.7063451], [-101.4770832, 36.7063442], [-101.4770846, 36.7065001]]]}, "properties": {"osm_id": 577477504, "building": "house", "name": "", "height": null, "height_m": null, "levels": null, "tract_id": "40139950902", "tract_name": "9509.02", "tags": {"addr:street": "Northeast 27th Street", "building": "house"}}}, {"type": "Feature", "geometry": {"type": "Polygon", "coordinates": [[[-101.4770612, 36.7066788], [-101.4768879, 36.7066798], [-101.4768865, 36.7065239], [-101.4770599, 36.7065229], [-101.4770612, 36.7066788]]]}, "properties": {"osm_id": 577477506, "building": "house", "name": "", "height": null, "height_m": null, "levels": null, "tract_id": "40139950902", "tract_name": "9509.02", "tags": {"addr:street": "Northeast 27th Street", "building": "house"}}}, {"type": "Feature", "geometry": {"type": "Polygon", "coordinates": [[[-101.4766106, 36.7067906], [-101.4764373, 36.7067916], [-101.4764359, 36.7066357], [-101.4766093, 36.7066347], [-101.4766106, 36.7067906]]]}, "properties": {"osm_id": 577477508, "building": "house", "name": "", "height": null, "height_m": null, "levels": null, "tract_id": "40139950902", "tract_name": "9509.02", "tags": {"addr:street": "Northeast 27th Street", "building": "house"}}}, {"type": "Feature", "geometry": {"type": "Polygon", "coordinates": [[[-101.4762995, 36.7068078], [-101.4761261, 36.7068088], [-101.4761248, 36.7066529], [-101.4762982, 36.7066519], [-101.4762995, 36.7068078]]]}, "properties": {"osm_id": 577477510, "building": "house", "name": "", "height": null, "height_m": null, "levels": null, "tract_id": "40139950902", "tract_name": "9509.02", "tags": {"addr:street": "Northeast 27th Street", "building": "house"}}}, {"type": "Feature", "geometry": {"type": "Polygon", "coordinates": [[[-101.4760903, 36.7068078], [-101.4759169, 36.7068088], [-101.4759156, 36.7066529], [-101.4760889, 36.7066519], [-101.4760903, 36.7068078]]]}, "properties": {"osm_id": 577477512, "building": "house", "name": "", "height": null, "height_m": null, "levels": null, "tract_id": "40139950902", "tract_name": "9509.02", "tags": {"addr:street": "Northeast 27th Street", "building": "house"}}}, {"type": "Feature", "geometry": {"type": "Polygon", "coordinates": [[[-101.4758167, 36.7068293], [-101.4756433, 36.7068303], [-101.475642, 36.7066744], [-101.4758154, 36.7066734], [-101.4758167, 36.7068293]]]}, "properties": {"osm_id": 577477514, "building": "house", "name": "", "height": null, "height_m": null, "levels": null, "tract_id": "40139950902", "tract_name": "9509.02", "tags": {"addr:street": "Northeast 27th Street", "building": "house"}}}, {"type": "Feature", "geometry": {"type": "Polygon", "coordinates": [[[-101.4755914, 36.7068508], [-101.475418, 36.7068518], [-101.4754167, 36.7066959], [-101.4755901, 36.7066949], [-101.4755914, 36.7068508]]]}, "properties": {"osm_id": 577477516, "building": "house", "name": "", "height": null, "height_m": null, "levels": null, "tract_id": "40139950902", "tract_name": "9509.02", "tags": {"addr:street": "Northeast 27th Street", "building": "house"}}}, {"type": "Feature", "geometry": {"type": "Polygon", "coordinates": [[[-101.4750711, 36.7068121], [-101.4748977, 36.7068131], [-101.4748963, 36.7066572], [-101.4750697, 36.7066562], [-101.4750711, 36.7068121]]]}, "properties": {"osm_id": 577477517, "building": "house", "name": "", "height": null, "height_m": null, "levels": null, "tract_id": "40139950902", "tract_name": "9509.02", "tags": {"addr:street": "Majestic Street", "building": "house"}}}, {"type": "Feature", "geometry": {"type": "Polygon", "coordinates": [[[-101.4750818, 36.7070014], [-101.4749084, 36.7070023], [-101.4749071, 36.7068464], [-101.4750804, 36.7068455], [-101.4750818, 36.7070014]]]}, "properties": {"osm_id": 577477519, "building": "house", "name": "", "height": null, "height_m": null, "levels": null, "tract_id": "40139950902", "tract_name": "9509.02", "tags": {"addr:street": "Majestic Street", "building": "house"}}}, {"type": "Feature", "geometry": {"type": "Polygon", "coordinates": [[[-101.4755217, 36.7071132], [-101.4753483, 36.7071141], [-101.475347, 36.7069582], [-101.4755203, 36.7069573], [-101.4755217, 36.7071132]]]}, "properties": {"osm_id": 577477520, "building": "house", "name": "", "height": null, "height_m": null, "levels": null, "tract_id": "40139950902", "tract_name": "9509.02", "tags": {"addr:street": "Northeast 28th Street", "building": "house"}}}, {"type": "Feature", "geometry": {"type": "Polygon", "coordinates": [[[-101.4758167, 36.7071218], [-101.4756433, 36.7071227], [-101.475642, 36.7069668], [-101.4758154, 36.7069659], [-101.4758167, 36.7071218]]]}, "properties": {"osm_id": 577477522, "building": "house", "name": "", "height": null, "height_m": null, "levels": null, "tract_id": "40139950902", "tract_name": "9509.02", "tags": {"addr:street": "Northeast 28th Street", "building": "house"}}}, {"type": "Feature", "geometry": {"type": "Polygon", "coordinates": [[[-101.4760581, 36.7071347], [-101.4758847, 36.7071356], [-101.4758834, 36.7069797], [-101.4760568, 36.7069788], [-101.4760581, 36.7071347]]]}, "properties": {"osm_id": 577477524, "building": "house", "name": "", "height": null, "height_m": null, "levels": null, "tract_id": "40139950902", "tract_name": "9509.02", "tags": {"addr:street": "Northeast 28th Street", "building": "house"}}}, {"type": "Feature", "geometry": {"type": "Polygon", "coordinates": [[[-101.4763049, 36.7071691], [-101.4761315, 36.70717], [-101.4761302, 36.7070141], [-101.4763035, 36.7070132], [-101.4763049, 36.7071691]]]}, "properties": {"osm_id": 577477525, "building": "house", "name": "", "height": null, "height_m": null, "levels": null, "tract_id": "40139950902", "tract_name": "9509.02", "tags": {"addr:street": "Northeast 28th Street", "building": "house"}}}, {"type": "Feature", "geometry": {"type": "Polygon", "coordinates": [[[-101.4765463, 36.7071519], [-101.4763729, 36.7071528], [-101.4763716, 36.7069969], [-101.4765449, 36.706996], [-101.4765463, 36.7071519]]]}, "properties": {"osm_id": 577477526, "building": "house", "name": "", "height": null, "height_m": null, "levels": null, "tract_id": "40139950902", "tract_name": "9509.02", "tags": {"addr:street": "Northeast 28th Street", "building": "house"}}}, {"type": "Feature", "geometry": {"type": "Polygon", "coordinates": [[[-101.4768359, 36.707139], [-101.4766626, 36.7071399], [-101.4766612, 36.706984], [-101.4768346, 36.7069831], [-101.4768359, 36.707139]]]}, "properties": {"osm_id": 577477527, "building": "house", "name": "", "height": null, "height_m": null, "levels": null, "tract_id": "40139950902", "tract_name": "9509.02", "tags": {"addr:street": "Northeast 28th Street", "building": "house"}}}, {"type": "Feature", "geometry": {"type": "Polygon", "coordinates": [[[-101.4770559, 36.7071261], [-101.4768825, 36.707127], [-101.4768812, 36.7069711], [-101.4770545, 36.7069702], [-101.4770559, 36.7071261]]]}, "properties": {"osm_id": 577477528, "building": "house", "name": "", "height": null, "height_m": null, "levels": null, "tract_id": "40139950902", "tract_name": "9509.02", "tags": {"addr:street": "Northeast 28th Street", "building": "house"}}}, {"type": "Feature", "geometry": {"type": "Polygon", "coordinates": [[[-101.4774689, 36.7068121], [-101.4772956, 36.7068131], [-101.4772942, 36.7066572], [-101.4774676, 36.7066562], [-101.4774689, 36.7068121]]]}, "properties": {"osm_id": 577477529, "building": "house", "name": "", "height": null, "height_m": null, "levels": null, "tract_id": "40139950902", "tract_name": "9509.02", "tags": {"addr:street": "Palomino Lane", "building": "house"}}}, {"type": "Feature", "geometry": {"type": "Polygon", "coordinates": [[[-101.4775172, 36.7069798], [-101.4773439, 36.7069808], [-101.4773425, 36.7068249], [-101.4775159, 36.7068239], [-101.4775172, 36.7069798]]]}, "properties": {"osm_id": 577477530, "building": "house", "name": "", "height": null, "height_m": null, "levels": null, "tract_id": "40139950902", "tract_name": "9509.02", "tags": {"addr:street": "Palomino Lane", "building": "house"}}}, {"type": "Feature", "geometry": {"type": "Polygon", "coordinates": [[[-101.4772973, 36.7071433], [-101.4771239, 36.7071442], [-101.4771226, 36.7069883], [-101.4772959, 36.7069874], [-101.4772973, 36.7071433]]]}, "properties": {"osm_id": 577477531, "building": "house", "name": "", "height": null, "height_m": null, "levels": null, "tract_id": "40139950902", "tract_name": "9509.02", "tags": {"addr:street": "Northeast 28th Street", "building": "house"}}}, {"type": "Feature", "geometry": {"type": "Polygon", "coordinates": [[[-101.4780161, 36.7071519], [-101.4778428, 36.7071528], [-101.4778414, 36.7069969], [-101.4780148, 36.706996], [-101.4780161, 36.7071519]]]}, "properties": {"osm_id": 577477532, "building": "house", "name": "", "height": null, "height_m": null, "levels": null, "tract_id": "40139950902", "tract_name": "9509.02", "tags": {"addr:street": "Palomino Lane", "building": "house"}}}, {"type": "Feature", "geometry": {"type": "Polygon", "coordinates": [[[-101.4779517, 36.7069583], [-101.4777784, 36.7069593], [-101.477777, 36.7068034], [-101.4779504, 36.7068024], [-101.4779517, 36.7069583]]]}, "properties": {"osm_id": 577477533, "building": "house", "name": "", "height": null, "height_m": null, "levels": null, "tract_id": "40139950902", "tract_name": "9509.02", "tags": {"addr:street": "Palomino Lane", "building": "house"}}}, {"type": "Feature", "geometry": {"type": "Polygon", "coordinates": [[[-101.4779786, 36.7067777], [-101.4778052, 36.7067787], [-101.4778039, 36.7066228], [-101.4779772, 36.7066218], [-101.4779786, 36.7067777]]]}, "properties": {"osm_id": 577477534, "building": "house", "name": "", "height": null, "height_m": null, "levels": null, "tract_id": "40139950902", "tract_name": "9509.02", "tags": {"addr:street": "Palomino Lane", "building": "house"}}}, {"type": "Feature", "geometry": {"type": "Polygon", "coordinates": [[[-101.4780483, 36.7065971], [-101.4778749, 36.706598], [-101.4778736, 36.7064421], [-101.478047, 36.7064412], [-101.4780483, 36.7065971]]]}, "properties": {"osm_id": 577477535, "building": "house", "name": "", "height": null, "height_m": null, "levels": null, "tract_id": "40139950902", "tract_name": "9509.02", "tags": {"addr:street": "Palomino Lane", "building": "house"}}}, {"type": "Feature", "geometry": {"type": "Polygon", "coordinates": [[[-101.4779786, 36.7063692], [-101.4778052, 36.7063701], [-101.4778039, 36.7062142], [-101.4779772, 36.7062133], [-101.4779786, 36.7063692]]]}, "properties": {"osm_id": 577477537, "building": "house", "name": "", "height": null, "height_m": null, "levels": null, "tract_id": "40139950902", "tract_name": "9509.02", "tags": {"addr:street": "Palomino Lane", "building": "house"}}}, {"type": "Feature", "geometry": {"type": "Polygon", "coordinates": [[[-101.4774877, 36.7065992], [-101.4773144, 36.7066002], [-101.477313, 36.7064443], [-101.4774864, 36.7064433], [-101.4774877, 36.7065992]]]}, "properties": {"osm_id": 577477539, "building": "house", "name": "", "height": null, "height_m": null, "levels": null, "tract_id": "40139950902", "tract_name": "9509.02", "tags": {"addr:street": "Palomino Lane", "building": "house"}}}, {"type": "Feature", "geometry": {"type": "Polygon", "coordinates": [[[-101.4774877, 36.7064122], [-101.4773144, 36.7064131], [-101.477313, 36.7062572], [-101.4774864, 36.7062563], [-101.4774877, 36.7064122]]]}, "properties": {"osm_id": 577477541, "building": "house", "name": "", "height": null, "height_m": null, "levels": null, "tract_id": "40139950902", "tract_name": "9509.02", "tags": {"addr:street": "Palomino Lane", "building": "house"}}}, {"type": "Feature", "geometry": {"type": "Polygon", "coordinates": [[[-101.4775065, 36.7061821], [-101.4773331, 36.706183], [-101.4773318, 36.7060271], [-101.4775052, 36.7060262], [-101.4775065, 36.7061821]]]}, "properties": {"osm_id": 577477543, "building": "house", "name": "", "height": null, "height_m": null, "levels": null, "tract_id": "40139950902", "tract_name": "9509.02", "tags": {"addr:street": "Palomino Lane", "building": "house"}}}, {"type": "Feature", "geometry": {"type": "Polygon", "coordinates": [[[-101.475578, 36.7063326], [-101.4754046, 36.7063336], [-101.4754033, 36.7061777], [-101.4755766, 36.7061767], [-101.475578, 36.7063326]]]}, "properties": {"osm_id": 577477545, "building": "house", "name": "", "height": null, "height_m": null, "levels": null, "tract_id": "40139950902", "tract_name": "9509.02", "tags": {"addr:street": "Northeast 27th Street", "building": "house"}}}, {"type": "Feature", "geometry": {"type": "Polygon", "coordinates": [[[-101.4758221, 36.7063734], [-101.4756487, 36.7063744], [-101.4756474, 36.7062185], [-101.4758207, 36.7062175], [-101.4758221, 36.7063734]]]}, "properties": {"osm_id": 577477547, "building": "house", "name": "", "height": null, "height_m": null, "levels": null, "tract_id": "40139950902", "tract_name": "9509.02", "tags": {"addr:street": "Northeast 27th Street", "building": "house"}}}, {"type": "Feature", "geometry": {"type": "Polygon", "coordinates": [[[-101.4760635, 36.7063864], [-101.4758901, 36.7063873], [-101.4758888, 36.7062314], [-101.4760621, 36.7062305], [-101.4760635, 36.7063864]]]}, "properties": {"osm_id": 577477548, "building": "house", "name": "", "height": null, "height_m": null, "levels": null, "tract_id": "40139950902", "tract_name": "9509.02", "tags": {"addr:street": "Northeast 27th Street", "building": "house"}}}, {"type": "Feature", "geometry": {"type": "Polygon", "coordinates": [[[-101.4763371, 36.7063864], [-101.4761637, 36.7063873], [-101.4761623, 36.7062314], [-101.4763357, 36.7062305], [-101.4763371, 36.7063864]]]}, "properties": {"osm_id": 577477550, "building": "house", "name": "", "height": null, "height_m": null, "levels": null, "tract_id": "40139950902", "tract_name": "9509.02", "tags": {"addr:street": "Northeast 27th Street", "building": "house"}}}, {"type": "Feature", "geometry": {"type": "Polygon", "coordinates": [[[-101.4766348, 36.7063971], [-101.4764614, 36.7063981], [-101.4764601, 36.7062422], [-101.4766334, 36.7062412], [-101.4766348, 36.7063971]]]}, "properties": {"osm_id": 577477552, "building": "house", "name": "", "height": null, "height_m": null, "levels": null, "tract_id": "40139950902", "tract_name": "9509.02", "tags": {"addr:street": "Northeast 27th Street", "building": "house"}}}, {"type": "Feature", "geometry": {"type": "Polygon", "coordinates": [[[-101.4769084, 36.7063347], [-101.476735, 36.7063357], [-101.4767337, 36.7061798], [-101.476907, 36.7061788], [-101.4769084, 36.7063347]]]}, "properties": {"osm_id": 577477554, "building": "house", "name": "", "height": null, "height_m": null, "levels": null, "tract_id": "40139950902", "tract_name": "9509.02", "tags": {"addr:street": "Northeast 27th Street", "building": "house"}}}, {"type": "Feature", "geometry": {"type": "Polygon", "coordinates": [[[-101.4773053, 36.7060552], [-101.477132, 36.7060562], [-101.4771306, 36.7059003], [-101.477304, 36.7058993], [-101.4773053, 36.7060552]]]}, "properties": {"osm_id": 577477556, "building": "house", "name": "", "height": null, "height_m": null, "levels": null, "tract_id": "40139950902", "tract_name": "9509.02", "tags": {"addr:street": "Northeast 26th Street", "building": "house"}}}, {"type": "Feature", "geometry": {"type": "Polygon", "coordinates": [[[-101.4770827, 36.7060487], [-101.4769093, 36.7060497], [-101.476908, 36.7058938], [-101.4770814, 36.7058928], [-101.4770827, 36.7060487]]]}, "properties": {"osm_id": 577477557, "building": "house", "name": "", "height": null, "height_m": null, "levels": null, "tract_id": "40139950902", "tract_name": "9509.02", "tags": {"addr:street": "Northeast 26th Street", "building": "house"}}}, {"type": "Feature", "geometry": {"type": "Polygon", "coordinates": [[[-101.4768118, 36.7060487], [-101.4766384, 36.7060497], [-101.4766371, 36.7058938], [-101.4768105, 36.7058928], [-101.4768118, 36.7060487]]]}, "properties": {"osm_id": 577477558, "building": "house", "name": "", "height": null, "height_m": null, "levels": null, "tract_id": "40139950902", "tract_name": "9509.02", "tags": {"addr:street": "Northeast 26th Street", "building": "house"}}}, {"type": "Feature", "geometry": {"type": "Polygon", "coordinates": [[[-101.4765597, 36.7060616], [-101.4763863, 36.7060626], [-101.476385, 36.7059067], [-101.4765583, 36.7059057], [-101.4765597, 36.7060616]]]}, "properties": {"osm_id": 577477559, "building": "house", "name": "", "height": null, "height_m": null, "levels": null, "tract_id": "40139950902", "tract_name": "9509.02", "tags": {"addr:street": "Northeast 26th Street", "building": "house"}}}, {"type": "Feature", "geometry": {"type": "Polygon", "coordinates": [[[-101.4763075, 36.7060337], [-101.4761342, 36.7060347], [-101.4761328, 36.7058788], [-101.4763062, 36.7058778], [-101.4763075, 36.7060337]]]}, "properties": {"osm_id": 577477560, "building": "house", "name": "", "height": null, "height_m": null, "levels": null, "tract_id": "40139950902", "tract_name": "9509.02", "tags": {"addr:street": "Northeast 26th Street", "building": "house"}}}, {"type": "Feature", "geometry": {"type": "Polygon", "coordinates": [[[-101.4760554, 36.7060509], [-101.4758821, 36.7060519], [-101.4758807, 36.705896], [-101.4760541, 36.705895], [-101.4760554, 36.7060509]]]}, "properties": {"osm_id": 577477561, "building": "house", "name": "", "height": null, "height_m": null, "levels": null, "tract_id": "40139950902", "tract_name": "9509.02", "tags": {"addr:street": "Northeast 26th Street", "building": "house"}}}, {"type": "Feature", "geometry": {"type": "Polygon", "coordinates": [[[-101.4758167, 36.7060466], [-101.4756433, 36.7060476], [-101.475642, 36.7058917], [-101.4758154, 36.7058907], [-101.4758167, 36.7060466]]]}, "properties": {"osm_id": 577477562, "building": "house", "name": "", "height": null, "height_m": null, "levels": null, "tract_id": "40139950902", "tract_name": "9509.02", "tags": {"addr:street": "Northeast 26th Street", "building": "house"}}}, {"type": "Feature", "geometry": {"type": "Polygon", "coordinates": [[[-101.4755646, 36.7060702], [-101.4753912, 36.7060712], [-101.4753899, 36.7059153], [-101.4755632, 36.7059143], [-101.4755646, 36.7060702]]]}, "properties": {"osm_id": 577477563, "building": "house", "name": "", "height": null, "height_m": null, "levels": null, "tract_id": "40139950902", "tract_name": "9509.02", "tags": {"addr:street": "Northeast 26th Street", "building": "house"}}}, {"type": "Feature", "geometry": {"type": "Polygon", "coordinates": [[[-101.4750737, 36.7063734], [-101.4749004, 36.7063744], [-101.474899, 36.7062185], [-101.4750724, 36.7062175], [-101.4750737, 36.7063734]]]}, "properties": {"osm_id": 577477564, "building": "house", "name": "", "height": null, "height_m": 3.0, "levels": 1, "tract_id": "40139950902", "tract_name": "9509.02", "tags": {"addr:housenumber": "2611", "addr:street": "Majestic Street", "building": "house", "building:levels": "1"}}}, {"type": "Feature", "geometry": {"type": "Polygon", "coordinates": [[[-101.475063, 36.7061606], [-101.4748896, 36.7061615], [-101.4748883, 36.7060056], [-101.4750617, 36.7060047], [-101.475063, 36.7061606]]]}, "properties": {"osm_id": 577477565, "building": "house", "name": "", "height": null, "height_m": null, "levels": null, "tract_id": "40139950902", "tract_name": "9509.02", "tags": {"addr:housenumber": "2609", "addr:street": "Majestic Street", "building": "house"}}}, {"type": "Feature", "geometry": {"type": "Polygon", "coordinates": [[[-101.4750389, 36.7059434], [-101.4748655, 36.7059443], [-101.4748642, 36.7057884], [-101.4750375, 36.7057875], [-101.4750389, 36.7059434]]]}, "properties": {"osm_id": 577477566, "building": "house", "name": "", "height": null, "height_m": null, "levels": null, "tract_id": "40139950902", "tract_name": "9509.02", "tags": {"addr:housenumber": "2601", "addr:street": "Majestic Street", "building": "house"}}}, {"type": "Feature", "geometry": {"type": "Polygon", "coordinates": [[[-101.475055, 36.7057541], [-101.4748816, 36.7057551], [-101.4748802, 36.7055992], [-101.4750536, 36.7055982], [-101.475055, 36.7057541]]]}, "properties": {"osm_id": 577477567, "building": "house", "name": "", "height": null, "height_m": null, "levels": null, "tract_id": "40139950902", "tract_name": "9509.02", "tags": {"addr:housenumber": "2601", "addr:street": "Majestic Street", "building": "house"}}}, {"type": "Feature", "geometry": {"type": "Polygon", "coordinates": [[[-101.4752347, 36.7055907], [-101.4750613, 36.7055917], [-101.47506, 36.7054358], [-101.4752333, 36.7054348], [-101.4752347, 36.7055907]]]}, "properties": {"osm_id": 577477568, "building": "house", "name": "", "height": null, "height_m": null, "levels": null, "tract_id": "40139950902", "tract_name": "9509.02", "tags": {"addr:street": "Northeast 26th Street", "building": "house"}}}, {"type": "Feature", "geometry": {"type": "Polygon", "coordinates": [[[-101.4754573, 36.7056165], [-101.4752839, 36.7056175], [-101.4752826, 36.7054616], [-101.4754559, 36.7054606], [-101.4754573, 36.7056165]]]}, "properties": {"osm_id": 577477569, "building": "house", "name": "", "height": null, "height_m": null, "levels": null, "tract_id": "40139950902", "tract_name": "9509.02", "tags": {"addr:housenumber": "513", "addr:street": "Northeast 26th Street", "building": "house"}}}, {"type": "Feature", "geometry": {"type": "Polygon", "coordinates": [[[-101.4757041, 36.705638], [-101.4755307, 36.705639], [-101.4755293, 36.7054831], [-101.4757027, 36.7054821], [-101.4757041, 36.705638]]]}, "properties": {"osm_id": 577477570, "building": "house", "name": "", "height": null, "height_m": null, "levels": null, "tract_id": "40139950902", "tract_name": "9509.02", "tags": {"addr:housenumber": "505", "addr:street": "Northeast 26th Street", "building": "house"}}}, {"type": "Feature", "geometry": {"type": "Polygon", "coordinates": [[[-101.4759508, 36.705595], [-101.4757775, 36.705596], [-101.4757761, 36.7054401], [-101.4759495, 36.7054391], [-101.4759508, 36.705595]]]}, "properties": {"osm_id": 577477572, "building": "house", "name": "", "height": null, "height_m": null, "levels": null, "tract_id": "40139950902", "tract_name": "9509.02", "tags": {"addr:housenumber": "501", "addr:street": "Northeast 26th Street", "building": "house"}}}, {"type": "Feature", "geometry": {"type": "Polygon", "coordinates": [[[-101.4761868, 36.7056036], [-101.4760135, 36.7056046], [-101.4760121, 36.7054487], [-101.4761855, 36.7054477], [-101.4761868, 36.7056036]]]}, "properties": {"osm_id": 577477573, "building": "house", "name": "", "height": null, "height_m": null, "levels": null, "tract_id": "40139950902", "tract_name": "9509.02", "tags": {"addr:street": "Northeast 26th Street", "building": "house"}}}, {"type": "Feature", "geometry": {"type": "Polygon", "coordinates": [[[-101.4764014, 36.7056337], [-101.4762281, 36.7056347], [-101.4762267, 36.7054788], [-101.4764001, 36.7054778], [-101.4764014, 36.7056337]]]}, "properties": {"osm_id": 577477575, "building": "house", "name": "", "height": null, "height_m": null, "levels": null, "tract_id": "40139950902", "tract_name": "9509.02", "tags": {"addr:street": "Northeast 26th Street", "building": "house"}}}, {"type": "Feature", "geometry": {"type": "Polygon", "coordinates": [[[-101.4766428, 36.7055821], [-101.4764695, 36.7055831], [-101.4764681, 36.7054272], [-101.4766415, 36.7054262], [-101.4766428, 36.7055821]]]}, "properties": {"osm_id": 577477577, "building": "house", "name": "", "height": null, "height_m": null, "levels": null, "tract_id": "40139950902", "tract_name": "9509.02", "tags": {"addr:housenumber": "409", "addr:street": "Northeast 26th Street", "building": "house"}}}, {"type": "Feature", "geometry": {"type": "Polygon", "coordinates": [[[-101.4768789, 36.7056208], [-101.4767055, 36.7056218], [-101.4767042, 36.7054659], [-101.4768775, 36.7054649], [-101.4768789, 36.7056208]]]}, "properties": {"osm_id": 577477579, "building": "house", "name": "", "height": null, "height_m": null, "levels": null, "tract_id": "40139950902", "tract_name": "9509.02", "tags": {"addr:street": "Northeast 26th Street", "building": "house"}}}, {"type": "Feature", "geometry": {"type": "Polygon", "coordinates": [[[-101.4771364, 36.7055993], [-101.476963, 36.7056003], [-101.4769616, 36.7054444], [-101.477135, 36.7054434], [-101.4771364, 36.7055993]]]}, "properties": {"osm_id": 577477582, "building": "house", "name": "", "height": null, "height_m": null, "levels": null, "tract_id": "40139950902", "tract_name": "9509.02", "tags": {"addr:street": "Northeast 26th Street", "building": "house"}}}, {"type": "Feature", "geometry": {"type": "Polygon", "coordinates": [[[-101.4773617, 36.7056294], [-101.4771883, 36.7056304], [-101.477187, 36.7054745], [-101.4773603, 36.7054735], [-101.4773617, 36.7056294]]]}, "properties": {"osm_id": 577477583, "building": "house", "name": "", "height": null, "height_m": null, "levels": null, "tract_id": "40139950902", "tract_name": "9509.02", "tags": {"addr:street": "Northeast 26th Street", "building": "house"}}}, {"type": "Feature", "geometry": {"type": "Polygon", "coordinates": [[[-101.4776031, 36.7056638], [-101.4774297, 36.7056648], [-101.4774284, 36.7055089], [-101.4776017, 36.7055079], [-101.4776031, 36.7056638]]]}, "properties": {"osm_id": 577477585, "building": "house", "name": "", "height": null, "height_m": null, "levels": null, "tract_id": "40139950902", "tract_name": "9509.02", "tags": {"addr:street": "Northeast 26th Street", "building": "house"}}}, {"type": "Feature", "geometry": {"type": "Polygon", "coordinates": [[[-101.4778659, 36.7056552], [-101.4776925, 36.7056562], [-101.4776912, 36.7055003], [-101.4778646, 36.7054993], [-101.4778659, 36.7056552]]]}, "properties": {"osm_id": 577477587, "building": "house", "name": "", "height": null, "height_m": null, "levels": null, "tract_id": "40139950902", "tract_name": "9509.02", "tags": {"addr:street": "Northeast 26th Street", "building": "house"}}}, {"type": "Feature", "geometry": {"type": "Polygon", "coordinates": [[[-101.4781019, 36.7056724], [-101.4779286, 36.7056734], [-101.4779272, 36.7055175], [-101.4781006, 36.7055165], [-101.4781019, 36.7056724]]]}, "properties": {"osm_id": 577477589, "building": "house", "name": "", "height": null, "height_m": null, "levels": null, "tract_id": "40139950902", "tract_name": "9509.02", "tags": {"addr:street": "Northeast 26th Street", "building": "house"}}}, {"type": "Feature", "geometry": {"type": "Polygon", "coordinates": [[[-101.4779732, 36.7060552], [-101.4777998, 36.7060562], [-101.4777985, 36.7059003], [-101.4779719, 36.7058993], [-101.4779732, 36.7060552]]]}, "properties": {"osm_id": 577477591, "building": "house", "name": "", "height": null, "height_m": null, "levels": null, "tract_id": "40139950902", "tract_name": "9509.02", "tags": {"addr:street": "Northeast 26th Street", "building": "house"}}}, {"type": "Feature", "geometry": {"type": "Polygon", "coordinates": [[[-101.4782253, 36.7060767], [-101.478052, 36.7060777], [-101.4780506, 36.7059218], [-101.478224, 36.7059208], [-101.4782253, 36.7060767]]]}, "properties": {"osm_id": 577477592, "building": "house", "name": "", "height": null, "height_m": null, "levels": null, "tract_id": "40139950902", "tract_name": "9509.02", "tags": {"addr:street": "Northeast 26th Street", "building": "house"}}}, {"type": "Feature", "geometry": {"type": "Polygon", "coordinates": [[[-101.4783058, 36.7056595], [-101.4781324, 36.7056605], [-101.4781311, 36.7055046], [-101.4783045, 36.7055036], [-101.4783058, 36.7056595]]]}, "properties": {"osm_id": 577477593, "building": "house", "name": "", "height": null, "height_m": null, "levels": null, "tract_id": "40139950902", "tract_name": "9509.02", "tags": {"addr:street": "Northeast 26th Street", "building": "house"}}}, {"type": "Feature", "geometry": {"type": "Polygon", "coordinates": [[[-101.4785633, 36.7056638], [-101.4783899, 36.7056648], [-101.4783886, 36.7055089], [-101.4785619, 36.7055079], [-101.4785633, 36.7056638]]]}, "properties": {"osm_id": 577477594, "building": "house", "name": "", "height": null, "height_m": null, "levels": null, "tract_id": "40139950902", "tract_name": "9509.02", "tags": {"addr:street": "Northeast 26th Street", "building": "house"}}}, {"type": "Feature", "geometry": {"type": "Polygon", "coordinates": [[[-101.4788261, 36.7056896], [-101.4786528, 36.7056906], [-101.4786514, 36.7055347], [-101.4788248, 36.7055337], [-101.4788261, 36.7056896]]]}, "properties": {"osm_id": 577477595, "building": "house", "name": "", "height": null, "height_m": null, "levels": null, "tract_id": "40139950902", "tract_name": "9509.02", "tags": {"addr:housenumber": "301", "addr:street": "Northeast 26th Street", "building": "house"}}}, {"type": "Feature", "geometry": {"type": "Polygon", "coordinates": [[[-101.4784935, 36.7061455], [-101.4783202, 36.7061465], [-101.4783188, 36.7059906], [-101.4784922, 36.7059896], [-101.4784935, 36.7061455]]]}, "properties": {"osm_id": 577477596, "building": "house", "name": "", "height": null, "height_m": null, "levels": null, "tract_id": "40139950902", "tract_name": "9509.02", "tags": {"addr:street": "Northeast 26th Street", "building": "house"}}}, {"type": "Feature", "geometry": {"type": "Polygon", "coordinates": [[[-101.4783702, 36.7063821], [-101.4781968, 36.706383], [-101.4781955, 36.7062271], [-101.4783688, 36.7062262], [-101.4783702, 36.7063821]]]}, "properties": {"osm_id": 577477597, "building": "house", "name": "", "height": null, "height_m": null, "levels": null, "tract_id": "40139950902", "tract_name": "9509.02", "tags": {"building": "house"}}}, {"type": "Feature", "geometry": {"type": "Polygon", "coordinates": [[[-101.4783755, 36.7065799], [-101.4782022, 36.7065808], [-101.4782008, 36.7064249], [-101.4783742, 36.706424], [-101.4783755, 36.7065799]]]}, "properties": {"osm_id": 577477598, "building": "house", "name": "", "height": null, "height_m": null, "levels": null, "tract_id": "40139950902", "tract_name": "9509.02", "tags": {"building": "house"}}}, {"type": "Feature", "geometry": {"type": "Polygon", "coordinates": [[[-101.4783594, 36.7067519], [-101.4781861, 36.7067529], [-101.4781847, 36.706597], [-101.4783581, 36.706596], [-101.4783594, 36.7067519]]]}, "properties": {"osm_id": 577477599, "building": "house", "name": "", "height": null, "height_m": null, "levels": null, "tract_id": "40139950902", "tract_name": "9509.02", "tags": {"building": "house"}}}, {"type": "Feature", "geometry": {"type": "Polygon", "coordinates": [[[-101.4783863, 36.706954], [-101.4782129, 36.706955], [-101.4782116, 36.7067991], [-101.4783849, 36.7067981], [-101.4783863, 36.706954]]]}, "properties": {"osm_id": 577477601, "building": "house", "name": "", "height": null, "height_m": null, "levels": null, "tract_id": "40139950902", "tract_name": "9509.02", "tags": {"building": "house"}}}, {"type": "Feature", "geometry": {"type": "Polygon", "coordinates": [[[-101.4783916, 36.7071261], [-101.4782183, 36.707127], [-101.4782169, 36.7069711], [-101.4783903, 36.7069702], [-101.4783916, 36.7071261]]]}, "properties": {"osm_id": 577477603, "building": "house", "name": "", "height": null, "height_m": null, "levels": null, "tract_id": "40139950902", "tract_name": "9509.02", "tags": {"building": "house"}}}, {"type": "Feature", "geometry": {"type": "Polygon", "coordinates": [[[-101.4776084, 36.7075475], [-101.4774351, 36.7075485], [-101.4774337, 36.7073926], [-101.4776071, 36.7073916], [-101.4776084, 36.7075475]]]}, "properties": {"osm_id": 577477604, "building": "house", "name": "", "height": null, "height_m": null, "levels": null, "tract_id": "40139950902", "tract_name": "9509.02", "tags": {"addr:housenumber": "318", "addr:street": "Northeast 28th Street", "building": "house"}}}, {"type": "Feature", "geometry": {"type": "Polygon", "coordinates": [[[-101.4778337, 36.7075303], [-101.4776604, 36.7075313], [-101.477659, 36.7073754], [-101.4778324, 36.7073744], [-101.4778337, 36.7075303]]]}, "properties": {"osm_id": 577477607, "building": "house", "name": "", "height": null, "height_m": null, "levels": null, "tract_id": "40139950902", "tract_name": "9509.02", "tags": {"addr:street": "Northeast 28th Street", "building": "house"}}}, {"type": "Feature", "geometry": {"type": "Polygon", "coordinates": [[[-101.4780859, 36.7075346], [-101.4779125, 36.7075356], [-101.4779111, 36.7073797], [-101.4780845, 36.7073787], [-101.4780859, 36.7075346]]]}, "properties": {"osm_id": 577477609, "building": "house", "name": "", "height": null, "height_m": null, "levels": null, "tract_id": "40139950902", "tract_name": "9509.02", "tags": {"addr:street": "Northeast 28th Street", "building": "house"}}}, {"type": "Feature", "geometry": {"type": "Polygon", "coordinates": [[[-101.4783541, 36.7075862], [-101.4781807, 36.7075872], [-101.4781794, 36.7074313], [-101.4783527, 36.7074303], [-101.4783541, 36.7075862]]]}, "properties": {"osm_id": 577477611, "building": "yes", "name": "", "height": null, "height_m": null, "levels": null, "tract_id": "40139950902", "tract_name": "9509.02", "tags": {"addr:street": "Northeast 28th Street", "building": "yes"}}}, {"type": "Feature", "geometry": {"type": "Polygon", "coordinates": [[[-101.4785075, 36.7074571], [-101.478563, 36.7074571], [-101.478563, 36.7074823], [-101.4785964, 36.7074823], [-101.4785963, 36.7075908], [-101.4785074, 36.7075907], [-101.4785075, 36.7074571]]]}, "properties": {"osm_id": 577477613, "building": "yes", "name": "", "height": null, "height_m": null, "levels": null, "tract_id": "40139950902", "tract_name": "9509.02", "tags": {"addr:street": "Northeast 28th Street", "building": "yes"}}}, {"type": "Feature", "geometry": {"type": "Polygon", "coordinates": [[[-101.4787288, 36.707457], [-101.4787838, 36.7074569], [-101.4787839, 36.7074808], [-101.4788163, 36.7074807], [-101.4788167, 36.7075896], [-101.4787293, 36.7075898], [-101.4787288, 36.707457]]]}, "properties": {"osm_id": 577477615, "building": "yes", "name": "", "height": null, "height_m": null, "levels": null, "tract_id": "40139950902", "tract_name": "9509.02", "tags": {"addr:street": "Northeast 28th Street", "building": "yes"}}}, {"type": "Feature", "geometry": {"type": "Polygon", "coordinates": [[[-101.4790469, 36.7073413], [-101.4790453, 36.707414], [-101.4789117, 36.7074121], [-101.4789123, 36.7073858], [-101.4788824, 36.7073854], [-101.4788835, 36.7073389], [-101.4790469, 36.7073413]]]}, "properties": {"osm_id": 577477617, "building": "house", "name": "", "height": null, "height_m": null, "levels": null, "tract_id": "40139950902", "tract_name": "9509.02", "tags": {"addr:housenumber": "2714", "addr:street": "Equestrian Street", "building": "house"}}}, {"type": "Feature", "geometry": {"type": "Polygon", "coordinates": [[[-101.4790481, 36.7071368], [-101.4790486, 36.707209], [-101.4788967, 36.7072097], [-101.4788965, 36.7071843], [-101.4788667, 36.7071844], [-101.4788663, 36.7071377], [-101.4790481, 36.7071368]]]}, "properties": {"osm_id": 577477619, "building": "house", "name": "", "height": null, "height_m": null, "levels": null, "tract_id": "40139950902", "tract_name": "9509.02", "tags": {"addr:housenumber": "2710", "addr:street": "Equestrian Street", "building": "house"}}}, {"type": "Feature", "geometry": {"type": "Polygon", "coordinates": [[[-101.4790204, 36.7069862], [-101.4788393, 36.7069872], [-101.478838, 36.7068379], [-101.4790191, 36.7068369], [-101.4790204, 36.7069862]]]}, "properties": {"osm_id": 577477620, "building": "house", "name": "", "height": null, "height_m": null, "levels": null, "tract_id": "40139950902", "tract_name": "9509.02", "tags": {"building": "house"}}}, {"type": "Feature", "geometry": {"type": "Polygon", "coordinates": [[[-101.4790151, 36.7067863], [-101.4788339, 36.7067873], [-101.4788327, 36.7066443], [-101.4790138, 36.7066433], [-101.4790151, 36.7067863]]]}, "properties": {"osm_id": 577477621, "building": "house", "name": "", "height": null, "height_m": null, "levels": null, "tract_id": "40139950902", "tract_name": "9509.02", "tags": {"building": "house"}}}, {"type": "Feature", "geometry": {"type": "Polygon", "coordinates": [[[-101.4790204, 36.7065863], [-101.4788366, 36.7065873], [-101.4788353, 36.7064422], [-101.4790192, 36.7064412], [-101.4790204, 36.7065863]]]}, "properties": {"osm_id": 577477622, "building": "house", "name": "", "height": null, "height_m": null, "levels": null, "tract_id": "40139950902", "tract_name": "9509.02", "tags": {"building": "house"}}}, {"type": "Feature", "geometry": {"type": "Polygon", "coordinates": [[[-101.4790177, 36.7063906], [-101.478842, 36.7063916], [-101.4788407, 36.7062422], [-101.4790165, 36.7062412], [-101.4790177, 36.7063906]]]}, "properties": {"osm_id": 577477623, "building": "house", "name": "", "height": null, "height_m": null, "levels": null, "tract_id": "40139950902", "tract_name": "9509.02", "tags": {"building": "house"}}}, {"type": "Feature", "geometry": {"type": "Polygon", "coordinates": [[[-101.4790224, 36.7061901], [-101.4788311, 36.7061911], [-101.47883, 36.7060616], [-101.4790213, 36.7060605], [-101.4790224, 36.7061901]]]}, "properties": {"osm_id": 577477624, "building": "house", "name": "", "height": null, "height_m": 3.0, "levels": 1, "tract_id": "40139950902", "tract_name": "9509.02", "tags": {"building": "house", "building:levels": "1"}}}, {"type": "Feature", "geometry": {"type": "Polygon", "coordinates": [[[-101.4790003, 36.7059992], [-101.4788269, 36.7060002], [-101.4788256, 36.7058443], [-101.478999, 36.7058433], [-101.4790003, 36.7059992]]]}, "properties": {"osm_id": 577477625, "building": "house", "name": "", "height": null, "height_m": 3.0, "levels": 1, "tract_id": "40139950902", "tract_name": "9509.02", "tags": {"building": "house", "building:levels": "1"}}}, {"type": "Feature", "geometry": {"type": "Polygon", "coordinates": [[[-101.4729466, 36.6945574], [-101.4727633, 36.6945611], [-101.4727606, 36.6944773], [-101.4729439, 36.6944735], [-101.4729466, 36.6945574]]]}, "properties": {"osm_id": 578701250, "building": "house", "name": "", "height": null, "height_m": null, "levels": null, "tract_id": "40139950902", "tract_name": "9509.02", "tags": {"addr:street": "Northeast 17th Street", "building": "house"}}}, {"type": "Feature", "geometry": {"type": "Polygon", "coordinates": [[[-101.4731625, 36.6945574], [-101.4729613, 36.6945574], [-101.4729613, 36.694481], [-101.4731625, 36.694481], [-101.4731625, 36.6945574]]]}, "properties": {"osm_id": 578701251, "building": "house", "name": "", "height": null, "height_m": null, "levels": null, "tract_id": "40139950902", "tract_name": "9509.02", "tags": {"addr:street": "Northeast 17th Street", "building": "house"}}}, {"type": "Feature", "geometry": {"type": "Polygon", "coordinates": [[[-101.4733583, 36.6944821], [-101.473359, 36.6945705], [-101.4731893, 36.6945714], [-101.4731886, 36.694483], [-101.4733583, 36.6944821]]]}, "properties": {"osm_id": 578701252, "building": "house", "name": "", "height": null, "height_m": null, "levels": null, "tract_id": "40139950902", "tract_name": "9509.02", "tags": {"addr:street": "Northeast 17th Street", "building": "house"}}}, {"type": "Feature", "geometry": {"type": "Polygon", "coordinates": [[[-101.4734173, 36.6944649], [-101.4735948, 36.694464], [-101.4735957, 36.6945681], [-101.4734181, 36.694569], [-101.4734173, 36.6944649]]]}, "properties": {"osm_id": 578701253, "building": "house", "name": "", "height": null, "height_m": null, "levels": null, "tract_id": "40139950902", "tract_name": "9509.02", "tags": {"addr:street": "Northeast 17th Street", "building": "house"}}}, {"type": "Feature", "geometry": {"type": "Polygon", "coordinates": [[[-101.4738008, 36.694481], [-101.4738016, 36.6945707], [-101.4737565, 36.6945709], [-101.4737566, 36.6945771], [-101.4736647, 36.6945776], [-101.4736646, 36.6945654], [-101.473617, 36.6945656], [-101.4736163, 36.694482], [-101.4738008, 36.694481]]]}, "properties": {"osm_id": 578701254, "building": "house", "name": "", "height": null, "height_m": null, "levels": null, "tract_id": "40139950902", "tract_name": "9509.02", "tags": {"addr:street": "Northeast 17th Street", "building": "house"}}}, {"type": "Feature", "geometry": {"type": "Polygon", "coordinates": [[[-101.4738303, 36.6944886], [-101.473996, 36.6944877], [-101.4739966, 36.6945703], [-101.473831, 36.6945711], [-101.4738303, 36.6944886]]]}, "properties": {"osm_id": 578701255, "building": "house", "name": "", "height": null, "height_m": null, "levels": null, "tract_id": "40139950902", "tract_name": "9509.02", "tags": {"addr:street": "Northeast 17th Street", "building": "house"}}}, {"type": "Feature", "geometry": {"type": "Polygon", "coordinates": [[[-101.4742005, 36.6944627], [-101.4742018, 36.6946305], [-101.4741468, 36.6946308], [-101.4741464, 36.6945765], [-101.4740071, 36.6945772], [-101.4740062, 36.6944637], [-101.4742005, 36.6944627]]]}, "properties": {"osm_id": 578701256, "building": "house", "name": "", "height": null, "height_m": null, "levels": null, "tract_id": "40139950902", "tract_name": "9509.02", "tags": {"addr:street": "Northeast 17th Street", "building": "house"}}}, {"type": "Feature", "geometry": {"type": "Polygon", "coordinates": [[[-101.4744204, 36.6944756], [-101.4744214, 36.6945811], [-101.4742323, 36.6945822], [-101.4742313, 36.6944767], [-101.4744204, 36.6944756]]]}, "properties": {"osm_id": 578701257, "building": "house", "name": "", "height": null, "height_m": null, "levels": null, "tract_id": "40139950902", "tract_name": "9509.02", "tags": {"addr:street": "Northeast 17th Street", "building": "house"}}}, {"type": "Feature", "geometry": {"type": "Polygon", "coordinates": [[[-101.4732698, 36.6935874], [-101.4733747, 36.6935495], [-101.4734106, 36.6936134], [-101.4734466, 36.6936004], [-101.4734922, 36.6936815], [-101.4734467, 36.693698], [-101.4734818, 36.6937605], [-101.4734794, 36.6937613], [-101.4733864, 36.693795], [-101.4732698, 36.6935874]]]}, "properties": {"osm_id": 578701258, "building": "house", "name": "", "height": null, "height_m": null, "levels": null, "tract_id": "40139950902", "tract_name": "9509.02", "tags": {"addr:housenumber": "622", "addr:street": "Hillcrest Drive", "building": "house"}}}, {"type": "Feature", "geometry": {"type": "Polygon", "coordinates": [[[-101.4809623, 36.7050638], [-101.4812832, 36.7052228], [-101.481192, 36.7053411], [-101.4808711, 36.7051821], [-101.4809623, 36.7050638]]]}, "properties": {"osm_id": 578701259, "building": "apartments", "name": "", "height": null, "height_m": null, "levels": null, "tract_id": "40139950902", "tract_name": "9509.02", "tags": {"building": "apartments"}}}, {"type": "Feature", "geometry": {"type": "Polygon", "coordinates": [[[-101.4818662, 36.7050638], [-101.4819427, 36.7052207], [-101.4814277, 36.705382], [-101.4813513, 36.7052251], [-101.4818662, 36.7050638]]]}, "properties": {"osm_id": 578701260, "building": "apartments", "name": "", "height": null, "height_m": null, "levels": null, "tract_id": "40139950902", "tract_name": "9509.02", "tags": {"building": "apartments"}}}, {"type": "Feature", "geometry": {"type": "Polygon", "coordinates": [[[-101.481767, 36.7046251], [-101.481716, 36.7045929], [-101.4817804, 36.7045348], [-101.4816691, 36.704466], [-101.4812829, 36.7048864], [-101.481425, 36.7049778], [-101.481767, 36.7046251]]]}, "properties": {"osm_id": 578701261, "building": "apartments", "name": "", "height": null, "height_m": null, "levels": null, "tract_id": "40139950902", "tract_name": "9509.02", "tags": {"building": "apartments"}}}, {"type": "Feature", "geometry": {"type": "Polygon", "coordinates": [[[-101.4812213, 36.7043433], [-101.4812849, 36.7047727], [-101.4810863, 36.7047916], [-101.4810228, 36.7043621], [-101.4812213, 36.7043433]]]}, "properties": {"osm_id": 578701262, "building": "apartments", "name": "", "height": null, "height_m": null, "levels": null, "tract_id": "40139950902", "tract_name": "9509.02", "tags": {"building": "apartments"}}}, {"type": "Feature", "geometry": {"type": "Polygon", "coordinates": [[[-101.4870805, 36.6936573], [-101.4869705, 36.6936568], [-101.4869714, 36.6935423], [-101.4870813, 36.6935428], [-101.4870805, 36.6936573]]]}, "properties": {"osm_id": 578701263, "building": "yes", "name": "", "height": null, "height_m": null, "levels": null, "tract_id": "40139950902", "tract_name": "9509.02", "tags": {"addr:street": "North James Street", "building": "yes"}}}, {"type": "Feature", "geometry": {"type": "Polygon", "coordinates": [[[-101.4872092, 36.6936745], [-101.4872092, 36.6937971], [-101.4869732, 36.6937971], [-101.4869732, 36.6936745], [-101.4872092, 36.6936745]]]}, "properties": {"osm_id": 578701264, "building": "yes", "name": "", "height": null, "height_m": null, "levels": null, "tract_id": "40139950902", "tract_name": "9509.02", "tags": {"addr:street": "North James Street", "building": "yes"}}}, {"type": "Feature", "geometry": {"type": "Polygon", "coordinates": [[[-101.486544, 36.6938616], [-101.4865413, 36.6939993], [-101.4863617, 36.693997], [-101.4863644, 36.6938594], [-101.486544, 36.6938616]]]}, "properties": {"osm_id": 578701265, "building": "yes", "name": "", "height": null, "height_m": null, "levels": null, "tract_id": "40139950902", "tract_name": "9509.02", "tags": {"addr:street": "North James Street", "building": "yes"}}}, {"type": "Feature", "geometry": {"type": "Polygon", "coordinates": [[[-101.486536, 36.6937175], [-101.4865306, 36.6938229], [-101.4863531, 36.6938171], [-101.4863585, 36.6937117], [-101.486536, 36.6937175]]]}, "properties": {"osm_id": 578701266, "building": "yes", "name": "", "height": null, "height_m": null, "levels": null, "tract_id": "40139950902", "tract_name": "9509.02", "tags": {"addr:street": "North James Street", "building": "yes"}}}, {"type": "Feature", "geometry": {"type": "Polygon", "coordinates": [[[-101.4865306, 36.6935605], [-101.4865333, 36.6936573], [-101.4863807, 36.69366], [-101.486378, 36.6935632], [-101.4865306, 36.6935605]]]}, "properties": {"osm_id": 578701267, "building": "yes", "name": "", "height": null, "height_m": null, "levels": null, "tract_id": "40139950902", "tract_name": "9509.02", "tags": {"addr:street": "North James Street", "building": "yes"}}}, {"type": "Feature", "geometry": {"type": "Polygon", "coordinates": [[[-101.4865252, 36.6933992], [-101.4865252, 36.693496], [-101.4863375, 36.693496], [-101.4863375, 36.6933992], [-101.4865252, 36.6933992]]]}, "properties": {"osm_id": 578701268, "building": "yes", "name": "", "height": null, "height_m": null, "levels": null, "tract_id": "40139950902", "tract_name": "9509.02", "tags": {"addr:street": "North James Street", "building": "yes"}}}, {"type": "Feature", "geometry": {"type": "Polygon", "coordinates": [[[-101.4865387, 36.6931626], [-101.4865413, 36.6933347], [-101.486367, 36.6933365], [-101.4863643, 36.6931644], [-101.4865387, 36.6931626]]]}, "properties": {"osm_id": 578701269, "building": "yes", "name": "", "height": null, "height_m": null, "levels": null, "tract_id": "40139950902", "tract_name": "9509.02", "tags": {"addr:street": "North James Street", "building": "yes"}}}, {"type": "Feature", "geometry": {"type": "Polygon", "coordinates": [[[-101.4869852, 36.6922636], [-101.4869852, 36.6921217], [-101.4870791, 36.6921217], [-101.4870791, 36.6922636], [-101.4869852, 36.6922636]]]}, "properties": {"osm_id": 578701270, "building": "yes", "name": "", "height": null, "height_m": null, "levels": null, "tract_id": "40139950902", "tract_name": "9509.02", "tags": {"addr:street": "North James Street", "building": "yes"}}}, {"type": "Feature", "geometry": {"type": "Polygon", "coordinates": [[[-101.4869665, 36.6924378], [-101.4869626, 36.6923188], [-101.4871301, 36.6923153], [-101.487134, 36.6924343], [-101.4869665, 36.6924378]]]}, "properties": {"osm_id": 578701271, "building": "yes", "name": "", "height": null, "height_m": null, "levels": null, "tract_id": "40139950902", "tract_name": "9509.02", "tags": {"addr:street": "North James Street", "building": "yes"}}}, {"type": "Feature", "geometry": {"type": "Polygon", "coordinates": [[[-101.4870831, 36.6925992], [-101.4868949, 36.6926031], [-101.4868909, 36.6924827], [-101.4869592, 36.6924812], [-101.4869583, 36.6924536], [-101.4870783, 36.6924511], [-101.4870831, 36.6925992]]]}, "properties": {"osm_id": 578701272, "building": "yes", "name": "", "height": null, "height_m": null, "levels": null, "tract_id": "40139950902", "tract_name": "9509.02", "tags": {"addr:street": "North James Street", "building": "yes"}}}, {"type": "Feature", "geometry": {"type": "Polygon", "coordinates": [[[-101.4871033, 36.6927142], [-101.4869553, 36.6927173], [-101.4869531, 36.6926475], [-101.487101, 36.6926444], [-101.4871033, 36.6927142]]]}, "properties": {"osm_id": 578701273, "building": "yes", "name": "", "height": null, "height_m": null, "levels": null, "tract_id": "40139950902", "tract_name": "9509.02", "tags": {"addr:street": "North James Street", "building": "yes"}}}, {"type": "Feature", "geometry": {"type": "Polygon", "coordinates": [[[-101.4869893, 36.6928035], [-101.487095, 36.6928012], [-101.4870969, 36.6928605], [-101.4870744, 36.692861], [-101.4870767, 36.6929308], [-101.4869935, 36.6929326], [-101.4869893, 36.6928035]]]}, "properties": {"osm_id": 578701274, "building": "yes", "name": "", "height": null, "height_m": null, "levels": null, "tract_id": "40139950902", "tract_name": "9509.02", "tags": {"addr:street": "North James Street", "building": "yes"}}}, {"type": "Feature", "geometry": {"type": "Polygon", "coordinates": [[[-101.4865091, 36.6919604], [-101.4865133, 36.6920863], [-101.486367, 36.6920894], [-101.4863629, 36.6919635], [-101.4865091, 36.6919604]]]}, "properties": {"osm_id": 578701275, "building": "yes", "name": "", "height": null, "height_m": null, "levels": null, "tract_id": "40139950902", "tract_name": "9509.02", "tags": {"addr:street": "North James Street", "building": "yes"}}}, {"type": "Feature", "geometry": {"type": "Polygon", "coordinates": [[[-101.4865172, 36.6921066], [-101.4865216, 36.6922409], [-101.4863589, 36.6922443], [-101.4863545, 36.6921101], [-101.4865172, 36.6921066]]]}, "properties": {"osm_id": 578701276, "building": "yes", "name": "", "height": null, "height_m": null, "levels": null, "tract_id": "40139950902", "tract_name": "9509.02", "tags": {"addr:street": "North James Street", "building": "yes"}}}, {"type": "Feature", "geometry": {"type": "Polygon", "coordinates": [[[-101.4865494, 36.6924314], [-101.4864228, 36.6924341], [-101.486418, 36.6922851], [-101.4865445, 36.6922825], [-101.4865494, 36.6924314]]]}, "properties": {"osm_id": 578701277, "building": "yes", "name": "", "height": null, "height_m": null, "levels": null, "tract_id": "40139950902", "tract_name": "9509.02", "tags": {"addr:street": "North James Street", "building": "yes"}}}, {"type": "Feature", "geometry": {"type": "Polygon", "coordinates": [[[-101.4865547, 36.6924594], [-101.4865584, 36.6925702], [-101.4864099, 36.6925733], [-101.4864063, 36.6924625], [-101.4865547, 36.6924594]]]}, "properties": {"osm_id": 578701278, "building": "yes", "name": "", "height": null, "height_m": null, "levels": null, "tract_id": "40139950902", "tract_name": "9509.02", "tags": {"addr:street": "North James Street", "building": "yes"}}}, {"type": "Feature", "geometry": {"type": "Polygon", "coordinates": [[[-101.486551, 36.6927567], [-101.4864368, 36.6927563], [-101.4864369, 36.6927247], [-101.4863845, 36.6927245], [-101.4863847, 36.6926854], [-101.4863593, 36.6926853], [-101.4863596, 36.6926348], [-101.4865517, 36.6926355], [-101.486551, 36.6927567]]]}, "properties": {"osm_id": 578701279, "building": "house", "name": "", "height": null, "height_m": null, "levels": null, "tract_id": "40139950902", "tract_name": "9509.02", "tags": {"addr:street": "North James Street", "building": "house", "source": "Esri beta"}}}, {"type": "Feature", "geometry": {"type": "Polygon", "coordinates": [[[-101.4865279, 36.6927798], [-101.4865322, 36.6929114], [-101.4864125, 36.6929139], [-101.4863896, 36.6929144], [-101.4863873, 36.6928433], [-101.4863261, 36.6928446], [-101.4863241, 36.6927841], [-101.4865279, 36.6927798]]]}, "properties": {"osm_id": 578701280, "building": "yes", "name": "", "height": null, "height_m": null, "levels": null, "tract_id": "40139950902", "tract_name": "9509.02", "tags": {"addr:street": "North James Street", "building": "yes"}}}, {"type": "Feature", "geometry": {"type": "Polygon", "coordinates": [[[-101.4786087, 36.6905484], [-101.4783807, 36.6905495], [-101.4783799, 36.6904419], [-101.4786079, 36.6904409], [-101.4786087, 36.6905484]]]}, "properties": {"osm_id": 578701281, "building": "yes", "name": "Richard Bohlander DDS", "height": null, "height_m": null, "levels": null, "tract_id": "40139950902", "tract_name": "9509.02", "tags": {"addr:housenumber": "309", "addr:street": "Medical Drive", "amenity": "dentist", "building": "yes", "healthcare": "dentist", "name": "Richard Bohlander DDS"}}}, {"type": "Feature", "geometry": {"type": "Polygon", "coordinates": [[[-101.4450811, 36.7141508], [-101.4449081, 36.7141519], [-101.444907, 36.7140367], [-101.44508, 36.7140357], [-101.4450811, 36.7141508]]]}, "properties": {"osm_id": 578701284, "building": "yes", "name": "Inframark", "height": null, "height_m": null, "levels": null, "tract_id": "40139950902", "tract_name": "9509.02", "tags": {"addr:housenumber": "3273", "addr:street": "Road T", "building": "yes", "man_made": "wastewater_plant", "name": "Inframark"}}}, {"type": "Feature", "geometry": {"type": "Polygon", "coordinates": [[[-101.4827253, 36.6928569], [-101.482269, 36.6928534], [-101.4822714, 36.6926496], [-101.4827277, 36.6926531], [-101.4827253, 36.6928569]]]}, "properties": {"osm_id": 578701297, "building": "yes", "name": "Dollar General", "height": null, "height_m": null, "levels": null, "tract_id": "40139950902", "tract_name": "9509.02", "tags": {"addr:city": "Guymon", "addr:country": "US", "addr:housenumber": "1414", "addr:postcode": "73942", "addr:state": "OK", "addr:street": "North Main Street", "brand": "Dollar General", "brand:wikidata": "Q145168", "building": "yes", "name": "Dollar General", "post_office": "post_partner", "post_office:brand": "FedEx OnSite", "post_office:service_provider": "FedEx", "post_office:website": "https://local.fedex.com/en-us/ok/guymon/amaal", "shop": "variety_store", "website": "https://www.dollargeneral.com/store-directory/ok/guymon/3428"}}}, {"type": "Feature", "geometry": {"type": "Polygon", "coordinates": [[[-101.481413, 36.6902177], [-101.4814223, 36.6902371], [-101.481423, 36.690471], [-101.48137, 36.6904704], [-101.48137, 36.6905489], [-101.4811032, 36.6905479], [-101.4811018, 36.6904677], [-101.4809959, 36.6904661], [-101.4809959, 36.6903822], [-101.4811166, 36.690386], [-101.4811199, 36.6901817], [-101.4813588, 36.6901807], [-101.4813783, 36.6901922], [-101.4813976, 36.6902044], [-101.481413, 36.6902177]]]}, "properties": {"osm_id": 578701298, "building": "yes", "name": "Panhandle First Bank", "height": null, "height_m": null, "levels": null, "tract_id": "40139950902", "tract_name": "9509.02", "tags": {"addr:housenumber": "1223", "addr:street": "North Main Street", "amenity": "bank", "atm": "yes", "building": "yes", "name": "Panhandle First Bank"}}}, {"type": "Feature", "geometry": {"type": "Polygon", "coordinates": [[[-101.4821264, 36.690422], [-101.4819128, 36.6904228], [-101.4819121, 36.6902931], [-101.4821256, 36.6902923], [-101.4821264, 36.690422]]]}, "properties": {"osm_id": 579442116, "building": "retail", "name": "R & T Motorsports", "height": null, "height_m": null, "levels": null, "tract_id": "40139950902", "tract_name": "9509.02", "tags": {"addr:city": "Guymon", "addr:country": "US", "addr:housenumber": "1220", "addr:postcode": "73942", "addr:state": "OK", "addr:street": "North Main Street", "building": "retail", "check_date": "2025-09-20", "name": "R & T Motorsports", "shop": "car"}}}, {"type": "Feature", "geometry": {"type": "Polygon", "coordinates": [[[-101.4808635, 36.7021175], [-101.4808622, 36.7019669], [-101.4807203, 36.7019677], [-101.4807207, 36.7020071], [-101.4806582, 36.7020074], [-101.4806579, 36.7019743], [-101.4805898, 36.7019747], [-101.4805909, 36.7020956], [-101.4806298, 36.7020954], [-101.48063, 36.7021188], [-101.4808635, 36.7021175]]]}, "properties": {"osm_id": 949502723, "building": "yes", "name": "", "height": null, "height_m": null, "levels": null, "tract_id": "40139950902", "tract_name": "9509.02", "tags": {"building": "yes"}}}, {"type": "Feature", "geometry": {"type": "Polygon", "coordinates": [[[-101.481022, 36.701948], [-101.4812387, 36.7019478], [-101.4812387, 36.7019552], [-101.4812824, 36.7019551], [-101.4812826, 36.7020999], [-101.4811191, 36.7021], [-101.481119, 36.7020723], [-101.4810661, 36.7020723], [-101.4810661, 36.7020293], [-101.4810221, 36.7020293], [-101.481022, 36.701948]]]}, "properties": {"osm_id": 949502724, "building": "yes", "name": "", "height": null, "height_m": null, "levels": null, "tract_id": "40139950902", "tract_name": "9509.02", "tags": {"building": "yes"}}}, {"type": "Feature", "geometry": {"type": "Polygon", "coordinates": [[[-101.4813896, 36.7022098], [-101.4813878, 36.7021248], [-101.4813568, 36.7021252], [-101.4813553, 36.7020523], [-101.4813844, 36.7020519], [-101.4813822, 36.7019459], [-101.4814774, 36.7019447], [-101.4814788, 36.7020144], [-101.4814943, 36.7020142], [-101.4814947, 36.7020334], [-101.4815185, 36.7020331], [-101.4815202, 36.7021151], [-101.4814942, 36.7021155], [-101.4814948, 36.7021454], [-101.4814759, 36.7021456], [-101.4814772, 36.7022086], [-101.4813896, 36.7022098]]]}, "properties": {"osm_id": 949502725, "building": "yes", "name": "", "height": null, "height_m": null, "levels": null, "tract_id": "40139950902", "tract_name": "9509.02", "tags": {"building": "yes"}}}, {"type": "Feature", "geometry": {"type": "Polygon", "coordinates": [[[-101.4508642, 36.7161329], [-101.4508635, 36.7159978], [-101.4510211, 36.7159972], [-101.4510201, 36.7158165], [-101.4508679, 36.7158171], [-101.4508672, 36.7156811], [-101.4506838, 36.7156818], [-101.4506863, 36.7161335], [-101.4508642, 36.7161329]]]}, "properties": {"osm_id": 962291332, "building": "yes", "name": "SPF", "height": null, "height_m": null, "levels": null, "tract_id": "40139950902", "tract_name": "9509.02", "tags": {"addr:housenumber": "3249", "addr:street": "Tumbleweed Drive", "building": "yes", "name": "SPF"}}}, {"type": "Feature", "geometry": {"type": "Polygon", "coordinates": [[[-101.4865548, 36.6962268], [-101.4864561, 36.6962269], [-101.4864564, 36.696418], [-101.4865478, 36.6964179], [-101.4865478, 36.6963788], [-101.4865865, 36.6963787], [-101.4865865, 36.6963369], [-101.4865549, 36.6963369], [-101.4865548, 36.6962268]]]}, "properties": {"osm_id": 1149545774, "building": "house", "name": "", "height": null, "height_m": null, "levels": null, "tract_id": "40139950902", "tract_name": "9509.02", "tags": {"addr:street": "North James Street", "building": "house"}}}, {"type": "Feature", "geometry": {"type": "Polygon", "coordinates": [[[-101.4865737, 36.6970145], [-101.4865744, 36.696941], [-101.4865055, 36.6969406], [-101.4865062, 36.6968596], [-101.4863959, 36.696859], [-101.4863953, 36.696933], [-101.4863682, 36.6969328], [-101.4863679, 36.6969603], [-101.4863991, 36.6969605], [-101.4863986, 36.6970135], [-101.4865737, 36.6970145]]]}, "properties": {"osm_id": 1149545775, "building": "house", "name": "", "height": null, "height_m": null, "levels": null, "tract_id": "40139950902", "tract_name": "9509.02", "tags": {"addr:street": "North James Street", "building": "house"}}}, {"type": "Feature", "geometry": {"type": "Polygon", "coordinates": [[[-101.4860803, 36.6976659], [-101.4860775, 36.6976127], [-101.4859953, 36.6976419], [-101.485951, 36.6976415], [-101.4859531, 36.6974788], [-101.4857865, 36.6974774], [-101.4857836, 36.6976962], [-101.4859944, 36.6976981], [-101.4860803, 36.6976659]]]}, "properties": {"osm_id": 1149545776, "building": "yes", "name": "MidFirst Bank", "height": null, "height_m": null, "levels": null, "tract_id": "40139950902", "tract_name": "9509.02", "tags": {"addr:housenumber": "1754", "addr:street": "North Academy Street", "amenity": "bank", "atm": "yes", "brand": "MidFirst Bank", "brand:wikidata": "Q17081131", "building": "yes", "name": "MidFirst Bank"}}}, {"type": "Feature", "geometry": {"type": "Polygon", "coordinates": [[[-101.4744566, 36.6918247], [-101.4744065, 36.6918245], [-101.4744073, 36.6917124], [-101.4743663, 36.6917122], [-101.474366, 36.6917709], [-101.4742807, 36.6917706], [-101.4742808, 36.691757], [-101.474297, 36.6917571], [-101.4742978, 36.6916425], [-101.4744578, 36.6916432], [-101.4744566, 36.6918247]]]}, "properties": {"osm_id": 1149555947, "building": "house", "name": "", "height": null, "height_m": null, "levels": null, "tract_id": "40139950902", "tract_name": "9509.02", "tags": {"addr:street": "Northeast 14th Street", "building": "house"}}}, {"type": "Feature", "geometry": {"type": "Polygon", "coordinates": [[[-101.4742301, 36.6917602], [-101.4741895, 36.6917599], [-101.4741894, 36.6917704], [-101.47406, 36.6917695], [-101.4740602, 36.6917468], [-101.4739833, 36.6917463], [-101.4739839, 36.6916902], [-101.4740542, 36.6916906], [-101.4740548, 36.6916369], [-101.4742314, 36.6916381], [-101.4742301, 36.6917602]]]}, "properties": {"osm_id": 1149555948, "building": "house", "name": "", "height": null, "height_m": null, "levels": null, "tract_id": "40139950902", "tract_name": "9509.02", "tags": {"addr:street": "Northeast 14th Street", "building": "house"}}}, {"type": "Feature", "geometry": {"type": "Polygon", "coordinates": [[[-101.4741943, 36.6921659], [-101.4741942, 36.6920934], [-101.4740709, 36.6920936], [-101.4740709, 36.6920607], [-101.473996, 36.6920607], [-101.4739961, 36.692166], [-101.4741943, 36.6921659]]]}, "properties": {"osm_id": 1149555949, "building": "house", "name": "", "height": null, "height_m": null, "levels": null, "tract_id": "40139950902", "tract_name": "9509.02", "tags": {"addr:street": "Northeast 14th Street", "building": "house"}}}, {"type": "Feature", "geometry": {"type": "Polygon", "coordinates": [[[-101.4739212, 36.6921869], [-101.4739212, 36.692116], [-101.4738313, 36.6921166], [-101.4738306, 36.6920609], [-101.4737577, 36.6920604], [-101.4737584, 36.6921875], [-101.4739212, 36.6921869]]]}, "properties": {"osm_id": 1149555950, "building": "house", "name": "", "height": null, "height_m": null, "levels": null, "tract_id": "40139950902", "tract_name": "9509.02", "tags": {"addr:street": "Northeast 14th Street", "building": "house"}}}, {"type": "Feature", "geometry": {"type": "Polygon", "coordinates": [[[-101.4735914, 36.6921467], [-101.4735917, 36.6920556], [-101.4734335, 36.6920553], [-101.4734332, 36.6921884], [-101.4735183, 36.6921885], [-101.4735184, 36.6921466], [-101.4735914, 36.6921467]]]}, "properties": {"osm_id": 1149555951, "building": "house", "name": "", "height": null, "height_m": null, "levels": null, "tract_id": "40139950902", "tract_name": "9509.02", "tags": {"addr:street": "Northeast 14th Street", "building": "house"}}}, {"type": "Feature", "geometry": {"type": "Polygon", "coordinates": [[[-101.4733671, 36.6922057], [-101.4733062, 36.6922829], [-101.4733439, 36.6923021], [-101.4733054, 36.692351], [-101.4733872, 36.6923925], [-101.473403, 36.6923725], [-101.4734319, 36.6923872], [-101.4734577, 36.6923545], [-101.4734295, 36.6923402], [-101.4734875, 36.6922668], [-101.4733671, 36.6922057]]]}, "properties": {"osm_id": 1149555952, "building": "house", "name": "", "height": null, "height_m": null, "levels": null, "tract_id": "40139950902", "tract_name": "9509.02", "tags": {"building": "house"}}}, {"type": "Feature", "geometry": {"type": "Polygon", "coordinates": [[[-101.4832194, 36.690086], [-101.4832195, 36.6900429], [-101.483301, 36.690043], [-101.4833014, 36.6898779], [-101.4833365, 36.6898779], [-101.483337, 36.689679], [-101.4832001, 36.6896788], [-101.4831999, 36.6897538], [-101.4830951, 36.6897536], [-101.4830943, 36.6900957], [-101.4830759, 36.6901118], [-101.4830786, 36.690286], [-101.4831255, 36.6903333], [-101.4833602, 36.6903376], [-101.4834018, 36.6903097], [-101.4834045, 36.6902505], [-101.4835339, 36.6902516], [-101.4835681, 36.6902505], [-101.4835681, 36.6901849], [-101.4835339, 36.6901838], [-101.4834085, 36.6901828], [-101.4834085, 36.6901193], [-101.4833643, 36.6900892], [-101.4832194, 36.690086]]]}, "properties": {"osm_id": 1155138745, "building": "church", "name": "", "height": null, "height_m": null, "levels": null, "tract_id": "40139950902", "tract_name": "9509.02", "tags": {"addr:city": "Guymon", "addr:housenumber": "1220", "addr:postcode": "73942", "addr:state": "OK", "addr:street": "North Quinn Street", "building": "church"}}}, {"type": "Feature", "geometry": {"type": "Polygon", "coordinates": [[[-101.4834185, 36.6904358], [-101.4832679, 36.6904383], [-101.4832662, 36.6903709], [-101.4832011, 36.690372], [-101.4832028, 36.6904389], [-101.4831545, 36.6904397], [-101.483157, 36.6905355], [-101.4832287, 36.6905343], [-101.483229, 36.6905478], [-101.4834213, 36.6905447], [-101.4834185, 36.6904358]]]}, "properties": {"osm_id": 1155138746, "building": "yes", "name": "", "height": null, "height_m": null, "levels": null, "tract_id": "40139950902", "tract_name": "9509.02", "tags": {"building": "yes"}}}, {"type": "Feature", "geometry": {"type": "Polygon", "coordinates": [[[-101.4739127, 36.6937991], [-101.4739116, 36.6938627], [-101.4739858, 36.6938635], [-101.4739881, 36.6937249], [-101.4739494, 36.6937244], [-101.47395, 36.6936886], [-101.4739296, 36.6936884], [-101.47393, 36.6936642], [-101.4738756, 36.6936636], [-101.4738753, 36.6936856], [-101.4738108, 36.6936849], [-101.473809, 36.693798], [-101.4739127, 36.6937991]]]}, "properties": {"osm_id": 1193318050, "building": "house", "name": "", "height": null, "height_m": null, "levels": null, "tract_id": "40139950902", "tract_name": "9509.02", "tags": {"addr:street": "Northeast 16th Street", "building": "house"}}}, {"type": "Feature", "geometry": {"type": "Polygon", "coordinates": [[[-101.4742513, 36.6937897], [-101.4743387, 36.6937905], [-101.4743385, 36.693808], [-101.4744324, 36.6938088], [-101.474434, 36.69369], [-101.4744538, 36.6936902], [-101.4744548, 36.6936149], [-101.4743695, 36.6936142], [-101.4743681, 36.6937124], [-101.4743219, 36.693712], [-101.4743225, 36.6936719], [-101.4742529, 36.6936713], [-101.4742513, 36.6937897]]]}, "properties": {"osm_id": 1193318051, "building": "house", "name": "", "height": null, "height_m": null, "levels": null, "tract_id": "40139950902", "tract_name": "9509.02", "tags": {"addr:street": "Northeast 16th Street", "building": "house"}}}, {"type": "Feature", "geometry": {"type": "Polygon", "coordinates": [[[-101.4740294, 36.6937176], [-101.4740303, 36.6937945], [-101.474128, 36.6937938], [-101.4741281, 36.6938029], [-101.4741788, 36.6938026], [-101.4741786, 36.6937929], [-101.4742096, 36.6937927], [-101.4742088, 36.6937163], [-101.4740294, 36.6937176]]]}, "properties": {"osm_id": 1193318052, "building": "house", "name": "", "height": null, "height_m": null, "levels": null, "tract_id": "40139950902", "tract_name": "9509.02", "tags": {"addr:street": "Northeast 16th Street", "building": "house"}}}, {"type": "Feature", "geometry": {"type": "Polygon", "coordinates": [[[-101.4787293, 36.7075898], [-101.4786415, 36.70759], [-101.4786411, 36.7074811], [-101.4786732, 36.7074811], [-101.4786731, 36.7074572], [-101.4787288, 36.707457], [-101.4787293, 36.7075898]]]}, "properties": {"osm_id": 1332607225, "building": "yes", "name": "", "height": null, "height_m": null, "levels": null, "tract_id": "40139950902", "tract_name": "9509.02", "tags": {"addr:street": "Northeast 28th Street", "building": "yes"}}}, {"type": "Feature", "geometry": {"type": "Polygon", "coordinates": [[[-101.4788835, 36.7073389], [-101.4788846, 36.7072906], [-101.4789112, 36.7072909], [-101.4789118, 36.707266], [-101.4790486, 36.707268], [-101.4790469, 36.7073413], [-101.4788835, 36.7073389]]]}, "properties": {"osm_id": 1332607226, "building": "house", "name": "", "height": null, "height_m": null, "levels": null, "tract_id": "40139950902", "tract_name": "9509.02", "tags": {"addr:housenumber": "2712", "addr:street": "Equestrian Street", "building": "house"}}}, {"type": "Feature", "geometry": {"type": "Polygon", "coordinates": [[[-101.4785074, 36.7075907], [-101.4784131, 36.7075907], [-101.4784132, 36.707482], [-101.478451, 36.707482], [-101.478451, 36.7074571], [-101.4785075, 36.7074571], [-101.4785074, 36.7075907]]]}, "properties": {"osm_id": 1332607435, "building": "yes", "name": "", "height": null, "height_m": null, "levels": null, "tract_id": "40139950902", "tract_name": "9509.02", "tags": {"addr:street": "Northeast 28th Street", "building": "yes"}}}, {"type": "Feature", "geometry": {"type": "Polygon", "coordinates": [[[-101.4788663, 36.7071377], [-101.478866, 36.7070925], [-101.4788966, 36.7070923], [-101.4788964, 36.707064], [-101.4790475, 36.7070633], [-101.4790481, 36.7071368], [-101.4788663, 36.7071377]]]}, "properties": {"osm_id": 1332607436, "building": "house", "name": "", "height": null, "height_m": null, "levels": null, "tract_id": "40139950902", "tract_name": "9509.02", "tags": {"addr:housenumber": "2708", "addr:street": "Equestrian Street", "building": "house"}}}, {"type": "Feature", "geometry": {"type": "Polygon", "coordinates": [[[-101.5066827, 36.676689], [-101.506554, 36.6766881], [-101.5065553, 36.6765679], [-101.5066841, 36.6765689], [-101.5066827, 36.676689]]]}, "properties": {"osm_id": 1372777356, "building": "hangar", "name": "", "height": null, "height_m": null, "levels": null, "tract_id": "40139950902", "tract_name": "9509.02", "tags": {"aeroway": "hangar", "building": "hangar"}}}, {"type": "Feature", "geometry": {"type": "Polygon", "coordinates": [[[-101.5070568, 36.6769223], [-101.5070795, 36.6762203], [-101.5069521, 36.6762176], [-101.5069296, 36.6769197], [-101.5070568, 36.6769223]]]}, "properties": {"osm_id": 1372777357, "building": "hangar", "name": "", "height": null, "height_m": null, "levels": null, "tract_id": "40139950902", "tract_name": "9509.02", "tags": {"aeroway": "hangar", "building": "hangar"}}}, {"type": "Feature", "geometry": {"type": "Polygon", "coordinates": [[[-101.5074486, 36.6773904], [-101.5075702, 36.6773945], [-101.507583, 36.6771504], [-101.5074614, 36.6771463], [-101.5074486, 36.6773904]]]}, "properties": {"osm_id": 1372777361, "building": "hangar", "name": "", "height": null, "height_m": null, "levels": null, "tract_id": "40139950902", "tract_name": "9509.02", "tags": {"aeroway": "hangar", "building": "hangar"}}}, {"type": "Feature", "geometry": {"type": "Polygon", "coordinates": [[[-101.5074327, 36.6764432], [-101.5073286, 36.6764387], [-101.5073472, 36.6762155], [-101.5074476, 36.6762201], [-101.5074327, 36.6764432]]]}, "properties": {"osm_id": 1372777364, "building": "hangar", "name": "", "height": null, "height_m": null, "levels": null, "tract_id": "40139950902", "tract_name": "9509.02", "tags": {"aeroway": "hangar", "building": "hangar"}}}, {"type": "Feature", "geometry": {"type": "Polygon", "coordinates": [[[-101.5061033, 36.6771922], [-101.5061223, 36.676744], [-101.5062458, 36.6767474], [-101.5062267, 36.6771956], [-101.5061033, 36.6771922]]]}, "properties": {"osm_id": 1372777365, "building": "hangar", "name": "", "height": null, "height_m": null, "levels": null, "tract_id": "40139950902", "tract_name": "9509.02", "tags": {"aeroway": "hangar", "building": "hangar"}}}, {"type": "Feature", "geometry": {"type": "Polygon", "coordinates": [[[-101.506088, 36.6774641], [-101.5060911, 36.677354], [-101.5062244, 36.6773564], [-101.5062213, 36.6774665], [-101.506088, 36.6774641]]]}, "properties": {"osm_id": 1372777366, "building": "hangar", "name": "", "height": null, "height_m": null, "levels": null, "tract_id": "40139950902", "tract_name": "9509.02", "tags": {"aeroway": "hangar", "building": "hangar"}}}, {"type": "Feature", "geometry": {"type": "Polygon", "coordinates": [[[-101.5060957, 36.6773204], [-101.5062286, 36.6773238], [-101.5062332, 36.6772101], [-101.5061002, 36.6772067], [-101.5060957, 36.6773204]]]}, "properties": {"osm_id": 1372777367, "building": "hangar", "name": "", "height": null, "height_m": null, "levels": null, "tract_id": "40139950902", "tract_name": "9509.02", "tags": {"aeroway": "hangar", "building": "hangar"}}}, {"type": "Feature", "geometry": {"type": "Polygon", "coordinates": [[[-101.5065798, 36.6772232], [-101.5067019, 36.6772259], [-101.506706, 36.6771099], [-101.5065838, 36.6771071], [-101.5065798, 36.6772232]]]}, "properties": {"osm_id": 1372777369, "building": "hangar", "name": "", "height": null, "height_m": null, "levels": null, "tract_id": "40139950902", "tract_name": "9509.02", "tags": {"aeroway": "hangar", "building": "hangar"}}}, {"type": "Feature", "geometry": {"type": "Polygon", "coordinates": [[[-101.5065859, 36.6769939], [-101.5065832, 36.677106], [-101.5067047, 36.6771078], [-101.5067074, 36.6769958], [-101.5065859, 36.6769939]]]}, "properties": {"osm_id": 1372777370, "building": "hangar", "name": "", "height": null, "height_m": null, "levels": null, "tract_id": "40139950902", "tract_name": "9509.02", "tags": {"aeroway": "hangar", "building": "hangar"}}}, {"type": "Feature", "geometry": {"type": "Polygon", "coordinates": [[[-101.5067013, 36.6773362], [-101.5067041, 36.6772282], [-101.5068373, 36.6772305], [-101.5068344, 36.6773385], [-101.5067013, 36.6773362]]]}, "properties": {"osm_id": 1372777372, "building": "hangar", "name": "", "height": null, "height_m": null, "levels": null, "tract_id": "40139950902", "tract_name": "9509.02", "tags": {"aeroway": "hangar", "building": "hangar"}}}, {"type": "Feature", "geometry": {"type": "Polygon", "coordinates": [[[-101.5064041, 36.6779871], [-101.5062668, 36.6780161], [-101.5061277, 36.6775929], [-101.5062649, 36.6775639], [-101.5064041, 36.6779871]]]}, "properties": {"osm_id": 1372777373, "building": "hangar", "name": "", "height": null, "height_m": null, "levels": null, "tract_id": "40139950902", "tract_name": "9509.02", "tags": {"aeroway": "hangar", "building": "hangar"}}}, {"type": "Feature", "geometry": {"type": "Polygon", "coordinates": [[[-101.5065808, 36.6833067], [-101.5063065, 36.683287], [-101.5063442, 36.6829505], [-101.5066184, 36.6829702], [-101.5065808, 36.6833067]]]}, "properties": {"osm_id": 1372777379, "building": "hangar", "name": "", "height": null, "height_m": null, "levels": null, "tract_id": "40139950902", "tract_name": "9509.02", "tags": {"aeroway": "hangar", "building": "hangar"}}}, {"type": "Feature", "geometry": {"type": "Polygon", "coordinates": [[[-101.506737, 36.6821332], [-101.5067114, 36.6823458], [-101.5064671, 36.6823269], [-101.5064927, 36.6821143], [-101.506737, 36.6821332]]]}, "properties": {"osm_id": 1372777380, "building": "hangar", "name": "", "height": null, "height_m": null, "levels": null, "tract_id": "40139950902", "tract_name": "9509.02", "tags": {"aeroway": "hangar", "building": "hangar"}}}, {"type": "Feature", "geometry": {"type": "Polygon", "coordinates": [[[-101.5047496, 36.6795738], [-101.5047002, 36.6794917], [-101.5049363, 36.6794003], [-101.5049857, 36.6794824], [-101.5047496, 36.6795738]]]}, "properties": {"osm_id": 1372777386, "building": "yes", "name": "", "height": null, "height_m": null, "levels": null, "tract_id": "40139950902", "tract_name": "9509.02", "tags": {"building": "yes"}}}]}