{"type": "FeatureCollection", "features": [{"type": "Feature", "geometry": {"type": "Polygon", "coordinates": [[[-97.4524566, 35.2190766], [-97.4520307, 35.2190757], [-97.4519988, 35.2190496], [-97.4519979, 35.2190373], [-97.4519397, 35.2190373], [-97.4519391, 35.2189608], [-97.4519986, 35.2189602], [-97.4520027, 35.2187651], [-97.4521714, 35.2187662], [-97.4521714, 35.2187513], [-97.4524074, 35.2187511], [-97.4524074, 35.2187446], [-97.4524365, 35.2187442], [-97.4524804, 35.2187797], [-97.4524799, 35.2188067], [-97.452475, 35.2188067], [-97.4524726, 35.2189943], [-97.452458, 35.2189943], [-97.4524566, 35.2190766]]]}, "properties": {"osm_id": 258225108, "building": "retail", "name": "Walgreens", "height": null, "height_m": null, "levels": null, "tract_id": "40027200400", "tract_name": "2004", "tags": {"addr:city": "Norman", "addr:housenumber": "615", "addr:postcode": "73069", "addr:street": "West Main Steet", "amenity": "pharmacy", "brand": "Walgreens", "brand:wikidata": "Q1591889", "building": "retail", "healthcare": "pharmacy", "name": "Walgreens", "opening_hours": "24/7", "source": "Bing", "website": "https://www.walgreens.com/locator/walgreens-615+w+main+st-norman-ok-73069/id=6477"}}}, {"type": "Feature", "geometry": {"type": "Polygon", "coordinates": [[[-97.4573559, 35.2202858], [-97.4573489, 35.2198495], [-97.4574, 35.2198489], [-97.4573993, 35.2198051], [-97.4575426, 35.2198036], [-97.4575607, 35.2197777], [-97.457606, 35.2197567], [-97.4576619, 35.2197518], [-97.4577042, 35.2197653], [-97.457739, 35.2197863], [-97.4577586, 35.2198357], [-97.4577893, 35.2198354], [-97.4577964, 35.2202811], [-97.4573559, 35.2202858]]]}, "properties": {"osm_id": 323574386, "building": "school", "name": "", "height": null, "height_m": null, "levels": null, "tract_id": "40027200400", "tract_name": "2004", "tags": {"building": "school", "operator": "Norman Public Schools"}}}, {"type": "Feature", "geometry": {"type": "Polygon", "coordinates": [[[-97.4578384, 35.2201563], [-97.4578374, 35.2198142], [-97.4585236, 35.2198129], [-97.4585246, 35.2201549], [-97.4578384, 35.2201563]]]}, "properties": {"osm_id": 323574398, "building": "school", "name": "", "height": null, "height_m": null, "levels": null, "tract_id": "40027200400", "tract_name": "2004", "tags": {"building": "school", "operator": "Norman Public Schools"}}}, {"type": "Feature", "geometry": {"type": "Polygon", "coordinates": [[[-97.4564227, 35.2206905], [-97.4564231, 35.2208178], [-97.4562849, 35.220818], [-97.4562851, 35.2208884], [-97.456006, 35.2208888], [-97.4560059, 35.2208249], [-97.4558715, 35.220825], [-97.4558713, 35.2207095], [-97.4559216, 35.2207094], [-97.4559214, 35.2203856], [-97.4558709, 35.2203856], [-97.4558709, 35.2202707], [-97.4559108, 35.2202708], [-97.455911, 35.2201204], [-97.4556446, 35.2201201], [-97.4556453, 35.2197242], [-97.4554722, 35.219724], [-97.4554734, 35.2191603], [-97.4554462, 35.2191602], [-97.4554469, 35.2189901], [-97.4553861, 35.2189899], [-97.4553865, 35.2189115], [-97.455979, 35.2189135], [-97.4559793, 35.2188612], [-97.4560112, 35.2188613], [-97.4560112, 35.2188463], [-97.4561122, 35.2188466], [-97.4561122, 35.218861], [-97.4561438, 35.2188611], [-97.4568081, 35.2188711], [-97.4568058, 35.2188206], [-97.4569537, 35.2188251], [-97.4569533, 35.2188795], [-97.4572256, 35.2188806], [-97.457229, 35.2189159], [-97.4577758, 35.2189147], [-97.457766, 35.2192394], [-97.4576532, 35.2192413], [-97.4576623, 35.2197034], [-97.4573978, 35.2197032], [-97.4574001, 35.2191609], [-97.4572348, 35.2191627], [-97.4572375, 35.2191413], [-97.4571964, 35.2191354], [-97.4571962, 35.2192012], [-97.4571819, 35.2192467], [-97.4571386, 35.2192725], [-97.4570945, 35.2192808], [-97.456873, 35.2192758], [-97.4568714, 35.2199086], [-97.4568992, 35.2199152], [-97.456905, 35.2199805], [-97.4572485, 35.2199876], [-97.4572557, 35.2202563], [-97.4568773, 35.2202561], [-97.4568838, 35.2200433], [-97.4568054, 35.2200445], [-97.456805, 35.220135], [-97.4564011, 35.2201359], [-97.4564005, 35.2202708], [-97.4564296, 35.2202778], [-97.4564298, 35.2203346], [-97.4564707, 35.2203345], [-97.4564709, 35.2203751], [-97.4564251, 35.2203752], [-97.4564251, 35.220384], [-97.4563905, 35.220384], [-97.4563906, 35.2204178], [-97.4565758, 35.2204174], [-97.4565766, 35.2206902], [-97.4564227, 35.2206905]]]}, "properties": {"osm_id": 323574596, "building": "school", "name": "", "height": null, "height_m": null, "levels": null, "tract_id": "40027200400", "tract_name": "2004", "tags": {"building": "school", "operator": "Norman Public Schools"}}}, {"type": "Feature", "geometry": {"type": "Polygon", "coordinates": [[[-97.4567251, 35.2211708], [-97.4567279, 35.2209411], [-97.4563076, 35.2209376], [-97.4563047, 35.2211673], [-97.4567251, 35.2211708]]]}, "properties": {"osm_id": 323574609, "building": "school", "name": "", "height": null, "height_m": null, "levels": null, "tract_id": "40027200400", "tract_name": "2004", "tags": {"building": "school", "operator": "Norman Public Schools"}}}, {"type": "Feature", "geometry": {"type": "Polygon", "coordinates": [[[-97.4555959, 35.2209675], [-97.4555958, 35.220682], [-97.4549572, 35.2206821], [-97.4549573, 35.2208204], [-97.455366, 35.2208203], [-97.455366, 35.2209675], [-97.4555959, 35.2209675]]]}, "properties": {"osm_id": 323574628, "building": "school", "name": "Norman High School Weight Room", "height": null, "height_m": null, "levels": null, "tract_id": "40027200400", "tract_name": "2004", "tags": {"building": "school", "name": "Norman High School Weight Room", "operator": "Norman Public Schools"}}}, {"type": "Feature", "geometry": {"type": "Polygon", "coordinates": [[[-97.455108, 35.221111], [-97.4547178, 35.221107], [-97.4547202, 35.2209485], [-97.454733, 35.2209447], [-97.4547338, 35.2208869], [-97.4548874, 35.2208883], [-97.4548865, 35.2209489], [-97.4550089, 35.22095], [-97.4550091, 35.2209359], [-97.4550397, 35.2209362], [-97.4550404, 35.2208873], [-97.4551114, 35.220888], [-97.455108, 35.221111]]]}, "properties": {"osm_id": 323574690, "building": "school", "name": "", "height": null, "height_m": null, "levels": null, "tract_id": "40027200400", "tract_name": "2004", "tags": {"building": "school", "operator": "Norman Public Schools"}}}, {"type": "Feature", "geometry": {"type": "Polygon", "coordinates": [[[-97.4553241, 35.2209606], [-97.4553225, 35.2208576], [-97.4551815, 35.2208591], [-97.4551832, 35.2209621], [-97.4553241, 35.2209606]]]}, "properties": {"osm_id": 323574745, "building": "school", "name": "", "height": null, "height_m": null, "levels": null, "tract_id": "40027200400", "tract_name": "2004", "tags": {"building": "school"}}}, {"type": "Feature", "geometry": {"type": "Polygon", "coordinates": [[[-97.4541161, 35.2186989], [-97.4543209, 35.2187003], [-97.4543193, 35.2188612], [-97.4542918, 35.218861], [-97.4542913, 35.2189113], [-97.4541311, 35.2189102], [-97.4541315, 35.218864], [-97.4541146, 35.2188598], [-97.4541161, 35.2186989]]]}, "properties": {"osm_id": 323574971, "building": "yes", "name": "Taco Casa", "height": null, "height_m": null, "levels": null, "tract_id": "40027200400", "tract_name": "2004", "tags": {"addr:city": "Norman", "addr:housenumber": "731", "addr:postcode": "73069", "addr:street": "West Main Street", "amenity": "restaurant", "building": "yes", "cuisine": "mexican", "name": "Taco Casa"}}}, {"type": "Feature", "geometry": {"type": "Polygon", "coordinates": [[[-97.4563963, 35.2288799], [-97.4574552, 35.2288758], [-97.4574534, 35.2285636], [-97.4576614, 35.2285628], [-97.4576592, 35.2281825], [-97.4563376, 35.2281876], [-97.4563396, 35.2285397], [-97.4564475, 35.2285392], [-97.456448, 35.2286358], [-97.4563948, 35.2286361], [-97.4563963, 35.2288799]]]}, "properties": {"osm_id": 323585367, "building": "school", "name": "Adams Elementary School", "height": null, "height_m": null, "levels": null, "tract_id": "40027200400", "tract_name": "2004", "tags": {"addr:city": "Norman", "addr:housenumber": "817", "addr:postcode": "73069", "addr:street": "Denison Drive", "building": "school", "name": "Adams Elementary School", "operator": "Norman Public Schools", "website": "https://www.normanpublicschools.org/Adams"}}}, {"type": "Feature", "geometry": {"type": "Polygon", "coordinates": [[[-97.4528268, 35.2195711], [-97.4528271, 35.2194196], [-97.4527287, 35.2194195], [-97.4527287, 35.219449], [-97.452671, 35.2194489], [-97.4526711, 35.2193936], [-97.4525286, 35.2193933], [-97.4525282, 35.2195666], [-97.4526628, 35.2195668], [-97.4526629, 35.2195136], [-97.4527366, 35.2195137], [-97.4527364, 35.219571], [-97.4528268, 35.2195711]]]}, "properties": {"osm_id": 324093176, "building": "yes", "name": "Sunshine Super Store", "height": null, "height_m": null, "levels": null, "tract_id": "40027200400", "tract_name": "2004", "tags": {"building": "yes", "name": "Sunshine Super Store", "shop": "convenience"}}}, {"type": "Feature", "geometry": {"type": "Polygon", "coordinates": [[[-97.4523903, 35.2196762], [-97.4523908, 35.2194518], [-97.4520485, 35.2194513], [-97.4520479, 35.2197166], [-97.4521902, 35.2197168], [-97.4521903, 35.2196759], [-97.4523903, 35.2196762]]]}, "properties": {"osm_id": 324093226, "building": "commercial", "name": "", "height": null, "height_m": null, "levels": null, "tract_id": "40027200400", "tract_name": "2004", "tags": {"building": "commercial"}}}, {"type": "Feature", "geometry": {"type": "Polygon", "coordinates": [[[-97.4512647, 35.2196722], [-97.4505631, 35.2196726], [-97.450563, 35.2195272], [-97.4507975, 35.2195271], [-97.4507975, 35.2195061], [-97.4512646, 35.2195058], [-97.4512647, 35.2196722]]]}, "properties": {"osm_id": 324093274, "building": "commercial", "name": "", "height": null, "height_m": null, "levels": null, "tract_id": "40027200400", "tract_name": "2004", "tags": {"building": "commercial"}}}, {"type": "Feature", "geometry": {"type": "Polygon", "coordinates": [[[-97.4496336, 35.2188591], [-97.4496598, 35.2188163], [-97.4496228, 35.2187521], [-97.4496983, 35.2187181], [-97.4495843, 35.2185306], [-97.4494765, 35.2185394], [-97.4493471, 35.2185621], [-97.4491776, 35.2186074], [-97.4490651, 35.2186527], [-97.4492993, 35.219], [-97.4496336, 35.2188591]]]}, "properties": {"osm_id": 324093956, "building": "retail", "name": "Copelin's Office Center", "height": null, "height_m": null, "levels": null, "tract_id": "40027200400", "tract_name": "2004", "tags": {"building": "retail", "name": "Copelin's Office Center"}}}, {"type": "Feature", "geometry": {"type": "Polygon", "coordinates": [[[-97.4485551, 35.2192763], [-97.4488886, 35.2191357], [-97.4488176, 35.2190232], [-97.4488757, 35.2189988], [-97.4489866, 35.2188956], [-97.4489527, 35.2188452], [-97.4488479, 35.2189421], [-97.4487841, 35.2189691], [-97.4487132, 35.2188569], [-97.4483791, 35.2189977], [-97.4485551, 35.2192763]]]}, "properties": {"osm_id": 324094039, "building": "yes", "name": "Republic Bank & Trust", "height": null, "height_m": null, "levels": null, "tract_id": "40027200400", "tract_name": "2004", "tags": {"amenity": "bank", "building": "yes", "name": "Republic Bank & Trust"}}}, {"type": "Feature", "geometry": {"type": "Polygon", "coordinates": [[[-97.453215, 35.2188316], [-97.4532136, 35.2185921], [-97.4533333, 35.2185916], [-97.4533332, 35.2185684], [-97.4534469, 35.218568], [-97.4534469, 35.2185842], [-97.4534697, 35.2185841], [-97.4534711, 35.2188307], [-97.453215, 35.2188316]]]}, "properties": {"osm_id": 324928064, "building": "commercial", "name": "Dental Depot", "height": null, "height_m": null, "levels": null, "tract_id": "40027200400", "tract_name": "2004", "tags": {"addr:city": "Norman", "addr:housenumber": "701", "addr:postcode": "73069", "addr:state": "OK", "addr:street": "West Main Street", "amenity": "dentist", "building": "commercial", "healthcare": "dentist", "healthcare:speciality": "dentist", "name": "Dental Depot", "opening_hours": "Mo-Th 08:00-17:00; Fr-Sa 08:00-14:00; Su off", "phone": "+1 405 253 4364", "website": "https://dentaldepot.net/locations/norman/"}}}, {"type": "Feature", "geometry": {"type": "Polygon", "coordinates": [[[-97.4536086, 35.2186879], [-97.4536084, 35.2185969], [-97.4535232, 35.218597], [-97.4535233, 35.2186705], [-97.4535779, 35.2186705], [-97.453578, 35.2186879], [-97.4536086, 35.2186879]]]}, "properties": {"osm_id": 324928563, "building": "retail", "name": "", "height": null, "height_m": null, "levels": null, "tract_id": "40027200400", "tract_name": "2004", "tags": {"building": "retail"}}}, {"type": "Feature", "geometry": {"type": "Polygon", "coordinates": [[[-97.4537909, 35.2185931], [-97.4537878, 35.2189465], [-97.453639, 35.2189456], [-97.4536418, 35.2186197], [-97.4537356, 35.2186202], [-97.4537358, 35.2185928], [-97.4537909, 35.2185931]]]}, "properties": {"osm_id": 324929203, "building": "commercial", "name": "", "height": null, "height_m": null, "levels": null, "tract_id": "40027200400", "tract_name": "2004", "tags": {"building": "commercial"}}}, {"type": "Feature", "geometry": {"type": "Polygon", "coordinates": [[[-97.4539536, 35.2190657], [-97.4537722, 35.2190666], [-97.4537728, 35.2191318], [-97.4537156, 35.2191321], [-97.4536599, 35.2191324], [-97.4536601, 35.2191691], [-97.4537168, 35.2191688], [-97.4537698, 35.2191685], [-97.4537699, 35.2191867], [-97.4539546, 35.2191857], [-97.4539536, 35.2190657]]]}, "properties": {"osm_id": 324929734, "building": "commercial", "name": "", "height": null, "height_m": null, "levels": null, "tract_id": "40027200400", "tract_name": "2004", "tags": {"building": "commercial"}}}, {"type": "Feature", "geometry": {"type": "Polygon", "coordinates": [[[-97.4533382, 35.2195494], [-97.4533376, 35.2196226], [-97.4531515, 35.2196217], [-97.453152, 35.2195469], [-97.4532302, 35.2195473], [-97.4532303, 35.2195375], [-97.4532613, 35.2195376], [-97.4532612, 35.2195491], [-97.4533382, 35.2195494]]]}, "properties": {"osm_id": 325846964, "building": "yes", "name": "", "height": null, "height_m": null, "levels": null, "tract_id": "40027200400", "tract_name": "2004", "tags": {"building": "yes"}}}, {"type": "Feature", "geometry": {"type": "Polygon", "coordinates": [[[-97.4491025, 35.2199008], [-97.449241, 35.2201258], [-97.4491358, 35.220169], [-97.4490276, 35.2199931], [-97.4489833, 35.2200113], [-97.4489531, 35.2199621], [-97.4491025, 35.2199008]]]}, "properties": {"osm_id": 325847014, "building": "yes", "name": "", "height": null, "height_m": null, "levels": null, "tract_id": "40027200400", "tract_name": "2004", "tags": {"building": "yes"}}}, {"type": "Feature", "geometry": {"type": "Polygon", "coordinates": [[[-97.4585412, 35.2190693], [-97.4585481, 35.2187873], [-97.4583495, 35.2187841], [-97.4583427, 35.2190661], [-97.4585412, 35.2190693]]]}, "properties": {"osm_id": 359604926, "building": "yes", "name": "Norman Public School District Computing Center", "height": null, "height_m": null, "levels": null, "tract_id": "40027200400", "tract_name": "2004", "tags": {"addr:city": "Norman", "addr:housenumber": "1133", "addr:postcode": "73069", "addr:street": "West Main Street", "building": "yes", "name": "Norman Public School District Computing Center", "operator": "Norman Public Schools"}}}, {"type": "Feature", "geometry": {"type": "Polygon", "coordinates": [[[-97.4585677, 35.2220337], [-97.4585678, 35.2219505], [-97.4582936, 35.2219501], [-97.4582934, 35.2220333], [-97.4585677, 35.2220337]]]}, "properties": {"osm_id": 374979054, "building": "school", "name": "", "height": null, "height_m": null, "levels": null, "tract_id": "40027200400", "tract_name": "2004", "tags": {"building": "school", "operator": "Norman Public Schools"}}}, {"type": "Feature", "geometry": {"type": "Polygon", "coordinates": [[[-97.4582737, 35.2220346], [-97.4582737, 35.2218994], [-97.4580223, 35.2218994], [-97.4580223, 35.2220346], [-97.4582737, 35.2220346]]]}, "properties": {"osm_id": 374979055, "building": "school", "name": "", "height": null, "height_m": null, "levels": null, "tract_id": "40027200400", "tract_name": "2004", "tags": {"building": "school", "operator": "Norman Public Schools"}}}, {"type": "Feature", "geometry": {"type": "Polygon", "coordinates": [[[-97.4480833, 35.223906], [-97.448094, 35.2239019], [-97.4481003, 35.2238972], [-97.4481063, 35.2238889], [-97.4481084, 35.2238793], [-97.4481065, 35.2238698], [-97.4481014, 35.2238622], [-97.4480927, 35.2238556], [-97.4480826, 35.2238521], [-97.4480708, 35.2238514], [-97.4480634, 35.2238528], [-97.4480531, 35.2238574], [-97.4480472, 35.2238624], [-97.4480409, 35.223874], [-97.4480408, 35.2238837], [-97.4480459, 35.2238944], [-97.448054, 35.2239014], [-97.448062, 35.223905], [-97.4480736, 35.2239069], [-97.4480833, 35.223906]]]}, "properties": {"osm_id": 374981554, "building": "gazebo", "name": "", "height": null, "height_m": null, "levels": null, "tract_id": "40027200400", "tract_name": "2004", "tags": {"building": "gazebo", "operator": "Norman Parks and Recreation"}}}, {"type": "Feature", "geometry": {"type": "Polygon", "coordinates": [[[-97.4476874, 35.2236527], [-97.4476335, 35.2235662], [-97.4476666, 35.2235528], [-97.4476398, 35.2235101], [-97.4476116, 35.2235232], [-97.4475526, 35.2234345], [-97.4474372, 35.2234805], [-97.4475003, 35.2235769], [-97.4474627, 35.2235923], [-97.4474855, 35.2236284], [-97.4475204, 35.2236153], [-97.4475776, 35.223702], [-97.4476874, 35.2236527]]]}, "properties": {"osm_id": 374982658, "building": "roof", "name": "", "height": null, "height_m": null, "levels": null, "tract_id": "40027200400", "tract_name": "2004", "tags": {"building": "roof", "description": "pavilion with public toilets,", "operator": "Norman Parks and Recreation"}}}, {"type": "Feature", "geometry": {"type": "Polygon", "coordinates": [[[-97.4505595, 35.2191232], [-97.4506614, 35.2191229], [-97.4514717, 35.2191204], [-97.4514719, 35.2190043], [-97.4514341, 35.2190043], [-97.4514342, 35.218772], [-97.4506647, 35.2187754], [-97.4505601, 35.2187744], [-97.4505599, 35.2188873], [-97.4505595, 35.2191232]]]}, "properties": {"osm_id": 385928470, "building": "retail", "name": "Sprouts Farmers Market", "height": null, "height_m": null, "levels": null, "tract_id": "40027200400", "tract_name": "2004", "tags": {"addr:city": "Norman", "addr:housenumber": "559", "addr:postcode": "73069", "addr:state": "OK", "addr:street": "West Main Street", "branch": "Norman", "brand": "Sprouts Farmers Market", "brand:wikidata": "Q7581369", "building": "retail", "name": "Sprouts Farmers Market", "opening_hours": "Mo-Sa 08:00-21:04; Su 08:00-20:04", "phone": "+1 405-217-4601", "shop": "supermarket", "short_name": "Sprouts", "website": "https://www.sprouts.com/store/ok/norman/norman/"}}}, {"type": "Feature", "geometry": {"type": "Polygon", "coordinates": [[[-97.4505595, 35.2191232], [-97.4500649, 35.2191248], [-97.4500588, 35.2187766], [-97.4502865, 35.2187756], [-97.4505601, 35.2187744], [-97.4505599, 35.2188873], [-97.4505595, 35.2191232]]]}, "properties": {"osm_id": 385928471, "building": "retail", "name": "Cellar Wine & Spirits", "height": null, "height_m": null, "levels": null, "tract_id": "40027200400", "tract_name": "2004", "tags": {"addr:city": "Norman", "addr:housenumber": "555", "addr:postcode": "73069", "addr:street": "West Main Street", "building": "retail", "name": "Cellar Wine & Spirits", "opening_hours": "Mo-Sa 10:00-21:00; PH off", "shop": "alcohol"}}}, {"type": "Feature", "geometry": {"type": "Polygon", "coordinates": [[[-97.4499976, 35.2198233], [-97.4499884, 35.2198092], [-97.4498905, 35.2196586], [-97.4498789, 35.2196403], [-97.4494443, 35.2198238], [-97.4495607, 35.2200078], [-97.4499976, 35.2198233]]]}, "properties": {"osm_id": 386056902, "building": "commercial", "name": "", "height": null, "height_m": null, "levels": null, "tract_id": "40027200400", "tract_name": "2004", "tags": {"building": "commercial"}}}, {"type": "Feature", "geometry": {"type": "Polygon", "coordinates": [[[-97.4500623, 35.2197756], [-97.4500566, 35.2195907], [-97.4499483, 35.219635], [-97.4498905, 35.2196586], [-97.4499884, 35.2198092], [-97.4500623, 35.2197756]]]}, "properties": {"osm_id": 386056903, "building": "retail", "name": "L & B Yarn Co.", "height": null, "height_m": null, "levels": null, "tract_id": "40027200400", "tract_name": "2004", "tags": {"addr:city": "Norman", "addr:housenumber": "425", "addr:postcode": "73069", "addr:street": "West Gray Street", "building": "retail", "name": "L & B Yarn Co.", "opening_hours": "Mo-Fr 12:00-17:30; Sa 10:00-17:30; Su off; PH off", "shop": "yarn", "source": "Bing", "website": "http://www.lbyarnco.com/"}}}, {"type": "Feature", "geometry": {"type": "Polygon", "coordinates": [[[-97.4496616, 35.2233816], [-97.4496605, 35.2234957], [-97.449541, 35.2234949], [-97.4495412, 35.223478], [-97.4494334, 35.2234773], [-97.4494344, 35.2233638], [-97.449552, 35.2233645], [-97.4495518, 35.2233809], [-97.4496616, 35.2233816]]]}, "properties": {"osm_id": 437372437, "building": "apartments", "name": "", "height": null, "height_m": null, "levels": null, "tract_id": "40027200400", "tract_name": "2004", "tags": {"building": "apartments"}}}, {"type": "Feature", "geometry": {"type": "Polygon", "coordinates": [[[-97.4496626, 35.2232365], [-97.4496615, 35.2233507], [-97.449542, 35.22335], [-97.4495422, 35.223333], [-97.4494343, 35.2233324], [-97.4494353, 35.2232188], [-97.449553, 35.2232195], [-97.4495528, 35.2232359], [-97.4496626, 35.2232365]]]}, "properties": {"osm_id": 437372438, "building": "apartments", "name": "", "height": null, "height_m": null, "levels": null, "tract_id": "40027200400", "tract_name": "2004", "tags": {"building": "apartments"}}}, {"type": "Feature", "geometry": {"type": "Polygon", "coordinates": [[[-97.4494371, 35.2231524], [-97.4494382, 35.2230293], [-97.4495207, 35.2230298], [-97.4495206, 35.2230418], [-97.4497757, 35.2230434], [-97.449776, 35.2230164], [-97.4499102, 35.2230172], [-97.4499089, 35.2231671], [-97.4497756, 35.2231663], [-97.4497754, 35.2231841], [-97.4497398, 35.2231839], [-97.4497399, 35.2231753], [-97.4496831, 35.223175], [-97.449683, 35.2231848], [-97.4496302, 35.2231844], [-97.4496303, 35.2231748], [-97.4495143, 35.2231741], [-97.4495145, 35.2231528], [-97.4494371, 35.2231524]]]}, "properties": {"osm_id": 437372439, "building": "apartments", "name": "", "height": null, "height_m": null, "levels": null, "tract_id": "40027200400", "tract_name": "2004", "tags": {"building": "apartments"}}}, {"type": "Feature", "geometry": {"type": "Polygon", "coordinates": [[[-97.4496806, 35.2234951], [-97.449682, 35.2233778], [-97.4497958, 35.2233788], [-97.4497959, 35.2233693], [-97.4499086, 35.2233702], [-97.4499073, 35.2234786], [-97.4497962, 35.2234778], [-97.449796, 35.223496], [-97.4496806, 35.2234951]]]}, "properties": {"osm_id": 437372440, "building": "apartments", "name": "", "height": null, "height_m": null, "levels": null, "tract_id": "40027200400", "tract_name": "2004", "tags": {"building": "apartments"}}}, {"type": "Feature", "geometry": {"type": "Polygon", "coordinates": [[[-97.4497587, 35.2233497], [-97.4497169, 35.2233494], [-97.4497172, 35.2233201], [-97.4497544, 35.2233203], [-97.4497554, 35.2232154], [-97.4499102, 35.2232165], [-97.449909, 35.2233403], [-97.4497588, 35.2233394], [-97.4497587, 35.2233497]]]}, "properties": {"osm_id": 437372441, "building": "apartments", "name": "", "height": null, "height_m": null, "levels": null, "tract_id": "40027200400", "tract_name": "2004", "tags": {"building": "apartments"}}}, {"type": "Feature", "geometry": {"type": "Polygon", "coordinates": [[[-97.4573779, 35.2291704], [-97.4573169, 35.2291704], [-97.4573169, 35.2291255], [-97.4573779, 35.2291255], [-97.4573779, 35.2291704]]]}, "properties": {"osm_id": 544203187, "building": "roof", "name": "", "height": null, "height_m": null, "levels": null, "tract_id": "40027200400", "tract_name": "2004", "tags": {"amenity": "shelter", "building": "roof", "shelter_type": "picnic_shelter"}}}, {"type": "Feature", "geometry": {"type": "Polygon", "coordinates": [[[-97.4466201, 35.223593], [-97.4465342, 35.2236275], [-97.446502, 35.2235716], [-97.4465912, 35.2235393], [-97.4466201, 35.223593]]]}, "properties": {"osm_id": 617716411, "building": "yes", "name": "", "height": null, "height_m": null, "levels": null, "tract_id": "40027200400", "tract_name": "2004", "tags": {"amenity": "shelter", "building": "yes", "shelter_type": "pavilion"}}}, {"type": "Feature", "geometry": {"type": "Polygon", "coordinates": [[[-97.458311, 35.226296], [-97.458312, 35.226567], [-97.458764, 35.226566], [-97.458763, 35.226422], [-97.458692, 35.226422], [-97.458692, 35.22645], [-97.458489, 35.22645], [-97.458488, 35.226326], [-97.45843, 35.226327], [-97.45843, 35.226296], [-97.458311, 35.226296]]]}, "properties": {"osm_id": 947012671, "building": "yes", "name": "", "height": null, "height_m": null, "levels": null, "tract_id": "40027200400", "tract_name": "2004", "tags": {"building": "yes", "source": "microsoft/BuildingFootprints"}}}, {"type": "Feature", "geometry": {"type": "Polygon", "coordinates": [[[-97.454019, 35.227719], [-97.453591, 35.227717], [-97.453587, 35.228681], [-97.454014, 35.228683], [-97.454019, 35.227719]]]}, "properties": {"osm_id": 947012673, "building": "yes", "name": "", "height": null, "height_m": null, "levels": null, "tract_id": "40027200400", "tract_name": "2004", "tags": {"building": "yes", "source": "microsoft/BuildingFootprints"}}}, {"type": "Feature", "geometry": {"type": "Polygon", "coordinates": [[[-97.45434, 35.23224], [-97.454064, 35.232243], [-97.454062, 35.23211], [-97.453906, 35.232112], [-97.453911, 35.23241], [-97.454343, 35.232404], [-97.45434, 35.23224]]]}, "properties": {"osm_id": 947032084, "building": "yes", "name": "7-Eleven", "height": null, "height_m": null, "levels": null, "tract_id": "40027200400", "tract_name": "2004", "tags": {"brand": "7-Eleven", "brand:wikidata": "Q259340", "building": "yes", "contact:website": "https://www.7-eleven.com/locations/ok/norman/800-w-robinson-41483", "name": "7-Eleven", "shop": "convenience", "source": "microsoft/BuildingFootprints"}}}, {"type": "Feature", "geometry": {"type": "Polygon", "coordinates": [[[-97.4487343, 35.2258363], [-97.4486069, 35.2258372], [-97.4486103, 35.2256978], [-97.4487377, 35.2256978], [-97.4487343, 35.2258363]]]}, "properties": {"osm_id": 1206033714, "building": "apartments", "name": "Building 131", "height": null, "height_m": 6.0, "levels": 2, "tract_id": "40027200400", "tract_name": "2004", "tags": {"addr:city": "Norman", "addr:housenumber": "131", "addr:postcode": "73069", "addr:state": "OK", "addr:street": "West Acres Street", "building": "apartments", "building:flats": "A, B, C, D", "building:levels": "2", "name": "Building 131", "operator": "Nompton LLC"}}}, {"type": "Feature", "geometry": {"type": "Polygon", "coordinates": [[[-97.4487283, 35.2260834], [-97.4485787, 35.2260834], [-97.4485805, 35.2258493], [-97.4487337, 35.2258522], [-97.4487283, 35.2260834]]]}, "properties": {"osm_id": 1206033716, "building": "apartments", "name": "Building 127", "height": null, "height_m": null, "levels": null, "tract_id": "40027200400", "tract_name": "2004", "tags": {"addr:city": "Norman", "addr:housenumber": "128", "addr:postcode": "73069", "addr:state": "OK", "addr:street": "West Acres Street", "building": "apartments", "name": "Building 127"}}}, {"type": "Feature", "geometry": {"type": "Polygon", "coordinates": [[[-97.4489445, 35.2261584], [-97.4484598, 35.2261467], [-97.4484543, 35.2262541], [-97.4489373, 35.2262659], [-97.4489445, 35.2261584]]]}, "properties": {"osm_id": 1206033717, "building": "apartments", "name": "Building 125", "height": null, "height_m": 6.0, "levels": 2, "tract_id": "40027200400", "tract_name": "2004", "tags": {"addr:city": "Norman", "addr:housenumber": "125", "addr:postcode": "73069", "addr:state": "OK", "addr:street": "West Acres Street", "building": "apartments", "building:levels": "2", "name": "Building 125"}}}, {"type": "Feature", "geometry": {"type": "Polygon", "coordinates": [[[-97.4481912, 35.2265631], [-97.4478837, 35.2266858], [-97.4476547, 35.2263461], [-97.4476237, 35.226357], [-97.4474023, 35.225943], [-97.4477092, 35.2258109], [-97.447869, 35.226064], [-97.4481051, 35.2260299], [-97.4481965, 35.2260306], [-97.4481831, 35.2263659], [-97.4481127, 35.2263757], [-97.4480678, 35.2263856], [-97.4481912, 35.2265631]]]}, "properties": {"osm_id": 1207212134, "building": "yes", "name": "Norman Public Library Central", "height": null, "height_m": null, "levels": null, "tract_id": "40027200400", "tract_name": "2004", "tags": {"addr:city": "Norman", "addr:country": "US", "addr:housenumber": "103", "addr:postcode": "73069", "addr:state": "OK", "addr:street": "West Acres Street", "amenity": "library", "building": "yes", "name": "Norman Public Library Central", "opening_hours": "Mo-Th 09:00-21:00; Fr 09:00-20:00; Sa 09:00-17:00; Su 13:00-18:00; PH off", "operator": "Pioneer Library System", "operator:type": "public/government", "wheelchair": "yes"}}}, {"type": "Feature", "geometry": {"type": "Polygon", "coordinates": [[[-97.4566563, 35.2302272], [-97.4567629, 35.2301878], [-97.4566913, 35.2300587], [-97.4566055, 35.2300905], [-97.4566268, 35.2301289], [-97.456606, 35.2301366], [-97.4566563, 35.2302272]]]}, "properties": {"osm_id": 1382655761, "building": "house", "name": "", "height": null, "height_m": null, "levels": null, "tract_id": "40027200400", "tract_name": "2004", "tags": {"addr:city": "Norman", "addr:housenumber": "730", "addr:postcode": "73069", "addr:state": "OK", "addr:street": "Highland Parkway", "building": "house", "building:material": "brick", "house": "residential"}}}]}