{"type": "FeatureCollection", "features": [{"type": "Feature", "geometry": {"type": "Polygon", "coordinates": [[[-97.6001988, 35.540685], [-97.6000911, 35.5408499], [-97.5996562, 35.5406617], [-97.5997355, 35.5405404], [-97.599766, 35.5405536], [-97.5997945, 35.54051], [-97.6001988, 35.540685]]]}, "properties": {"osm_id": 228011480, "building": "retail", "name": "", "height": null, "height_m": null, "levels": null, "tract_id": "40109106607", "tract_name": "1066.07", "tags": {"building": "retail", "source": "Bing"}}}, {"type": "Feature", "geometry": {"type": "Polygon", "coordinates": [[[-97.6006267, 35.5408979], [-97.600305, 35.5407521], [-97.6002433, 35.5408569], [-97.600565, 35.5409939], [-97.6006267, 35.5408979]]]}, "properties": {"osm_id": 228011481, "building": "retail", "name": "", "height": null, "height_m": null, "levels": null, "tract_id": "40109106607", "tract_name": "1066.07", "tags": {"building": "retail", "source": "Bing"}}}, {"type": "Feature", "geometry": {"type": "Polygon", "coordinates": [[[-97.5933425, 35.5376977], [-97.5930911, 35.5376971], [-97.5931012, 35.5372632], [-97.5933384, 35.5372655], [-97.5933425, 35.5376977]]]}, "properties": {"osm_id": 228011483, "building": "yes", "name": "Home2 Suites", "height": null, "height_m": null, "levels": null, "tract_id": "40109106607", "tract_name": "1066.07", "tags": {"addr:city": "Oklahoma City", "addr:housenumber": "4110", "addr:postcode": "73116", "addr:state": "OK", "addr:street": "Northwest Expressway", "branch": "Oklahoma City Northwest Expressway", "brand": "Home2 Suites", "brand:wikidata": "Q5887912", "building": "yes", "description": "note=*Bldg demolished (2017) with new construction beginning (future hotel-5 or 6 stories).", "name": "Home2 Suites", "official_name": "Home2 Suites by Hilton", "phone": "+1 405-608-6094", "ref": "OKCEXHT", "source": "Bing", "tourism": "hotel", "website": "https://www.hilton.com/en/hotels/okcexht-home2-suites-oklahoma-city-nw-expressway/"}}}, {"type": "Feature", "geometry": {"type": "Polygon", "coordinates": [[[-97.5945419, 35.538308], [-97.5946773, 35.5380971], [-97.5944876, 35.5380165], [-97.5943522, 35.5382274], [-97.5945419, 35.538308]]]}, "properties": {"osm_id": 228011487, "building": "yes", "name": "Outback Steakhouse", "height": null, "height_m": null, "levels": null, "tract_id": "40109106607", "tract_name": "1066.07", "tags": {"addr:city": "Oklahoma City", "addr:state": "OK", "amenity": "restaurant", "brand": "Outback Steakhouse", "brand:wikidata": "Q1064893", "building": "yes", "cuisine": "american;steak", "name": "Outback Steakhouse", "source": "Bing"}}}, {"type": "Feature", "geometry": {"type": "Polygon", "coordinates": [[[-97.5942913, 35.5380496], [-97.5937495, 35.5378227], [-97.5937604, 35.5377336], [-97.5940124, 35.5377288], [-97.5940178, 35.5377703], [-97.5943584, 35.5377725], [-97.5943584, 35.5379449], [-97.5942913, 35.5380496]]]}, "properties": {"osm_id": 228011488, "building": "yes", "name": "Buffalo Wild Wings", "height": null, "height_m": null, "levels": null, "tract_id": "40109106607", "tract_name": "1066.07", "tags": {"amenity": "restaurant", "brand": "Buffalo Wild Wings", "brand:wikidata": "Q509255", "building": "yes", "cuisine": "wings", "name": "Buffalo Wild Wings", "source": "Bing"}}}, {"type": "Feature", "geometry": {"type": "Polygon", "coordinates": [[[-97.6005703, 35.5362839], [-97.600463, 35.5363646], [-97.6003584, 35.5363624], [-97.6003638, 35.5362293], [-97.6005676, 35.5362315], [-97.6005703, 35.5362839]]]}, "properties": {"osm_id": 228891288, "building": "retail", "name": "7-Eleven", "height": null, "height_m": null, "levels": null, "tract_id": "40109106607", "tract_name": "1066.07", "tags": {"addr:city": "Oklahoma City", "addr:housenumber": "4432", "addr:postcode": "73116", "addr:state": "OK", "addr:street": "Northwest 63rd Street", "brand": "7-Eleven", "brand:wikidata": "Q259340", "building": "retail", "contact:website": "https://www.7-eleven.com/locations/ok/oklahoma-city/4432-nw-63-rd-st-41462", "name": "7-Eleven", "opening_hours": "24/7", "phone": "+1 405 942 4288", "shop": "convenience"}}}, {"type": "Feature", "geometry": {"type": "Polygon", "coordinates": [[[-97.6005703, 35.5362839], [-97.6006579, 35.5363563], [-97.600742, 35.5364257], [-97.6006407, 35.53651], [-97.600463, 35.5363646], [-97.6005703, 35.5362839]]]}, "properties": {"osm_id": 228891289, "building": "roof", "name": "7-Eleven", "height": null, "height_m": null, "levels": null, "tract_id": "40109106607", "tract_name": "1066.07", "tags": {"amenity": "fuel", "brand": "7-Eleven", "brand:wikidata": "Q259340", "building": "roof", "layer": "1", "level": "1", "name": "7-Eleven"}}}, {"type": "Feature", "geometry": {"type": "Polygon", "coordinates": [[[-97.5975034, 35.5388192], [-97.5967402, 35.5388155], [-97.5967414, 35.5386501], [-97.5975046, 35.5386538], [-97.5975034, 35.5388192]]]}, "properties": {"osm_id": 274189042, "building": "yes", "name": "", "height": null, "height_m": null, "levels": null, "tract_id": "40109106607", "tract_name": "1066.07", "tags": {"access": "destination", "amenity": "parking", "building": "yes", "parking": "multi-storey", "source": "Bing"}}}, {"type": "Feature", "geometry": {"type": "Polygon", "coordinates": [[[-97.5975856, 35.5352354], [-97.5975857, 35.535144], [-97.5976169, 35.535144], [-97.5976169, 35.5350771], [-97.5974696, 35.535077], [-97.5974696, 35.535164], [-97.5974314, 35.535164], [-97.5974314, 35.5352354], [-97.5975856, 35.5352354]]]}, "properties": {"osm_id": 705613990, "building": "house", "name": "", "height": null, "height_m": 3.0, "levels": 1, "tract_id": "40109106607", "tract_name": "1066.07", "tags": {"addr:city": "Oklahoma City", "addr:housenumber": "6221", "addr:postcode": "73112", "addr:state": "OK", "addr:street": "North Allison Drive", "building": "house", "building:levels": "1"}}}, {"type": "Feature", "geometry": {"type": "Polygon", "coordinates": [[[-97.5976078, 35.5352605], [-97.5976073, 35.5354027], [-97.5975075, 35.5354026], [-97.5975093, 35.535335], [-97.5974359, 35.535335], [-97.5974359, 35.5352613], [-97.5976078, 35.5352605]]]}, "properties": {"osm_id": 705613991, "building": "house", "name": "", "height": null, "height_m": null, "levels": null, "tract_id": "40109106607", "tract_name": "1066.07", "tags": {"building": "house"}}}, {"type": "Feature", "geometry": {"type": "Polygon", "coordinates": [[[-97.5963665, 35.5231149], [-97.5958977, 35.5231149], [-97.5958929, 35.5229666], [-97.5957791, 35.5229647], [-97.5957793, 35.5229088], [-97.5958953, 35.5229107], [-97.595894, 35.5227699], [-97.5958549, 35.5227699], [-97.5958525, 35.5227122], [-97.5958952, 35.5227112], [-97.595894, 35.5226117], [-97.5960126, 35.5226127], [-97.5960126, 35.5226784], [-97.5963645, 35.5226794], [-97.5963633, 35.5228127], [-97.5960333, 35.5228127], [-97.5960358, 35.5228684], [-97.5963609, 35.5228684], [-97.5963665, 35.5231149]]]}, "properties": {"osm_id": 765228150, "building": "yes", "name": "Lifeline Alliance Church", "height": null, "height_m": null, "levels": null, "tract_id": "40109106607", "tract_name": "1066.07", "tags": {"amenity": "place_of_worship", "building": "yes", "name": "Lifeline Alliance Church", "religion": "christian"}}}, {"type": "Feature", "geometry": {"type": "Polygon", "coordinates": [[[-97.5986002, 35.5372486], [-97.597927, 35.5372497], [-97.5979268, 35.5371842], [-97.5979003, 35.5371842], [-97.5979001, 35.5370958], [-97.5979266, 35.5370958], [-97.5979264, 35.5370173], [-97.5985076, 35.5370163], [-97.5985078, 35.5371014], [-97.5985894, 35.5371013], [-97.5985896, 35.5371798], [-97.5986001, 35.5371798], [-97.5986002, 35.5372486]]]}, "properties": {"osm_id": 991591733, "building": "office", "name": "", "height": null, "height_m": null, "levels": null, "tract_id": "40109106607", "tract_name": "1066.07", "tags": {"building": "office"}}}, {"type": "Feature", "geometry": {"type": "Polygon", "coordinates": [[[-97.5925128, 35.5374215], [-97.5925116, 35.5372858], [-97.5929671, 35.5372832], [-97.5929683, 35.5374174], [-97.5929367, 35.5374176], [-97.5929369, 35.5374447], [-97.5928341, 35.5374453], [-97.5928338, 35.5374196], [-97.5925128, 35.5374215]]]}, "properties": {"osm_id": 1209555296, "building": "yes", "name": "Tru", "height": null, "height_m": null, "levels": null, "tract_id": "40109106607", "tract_name": "1066.07", "tags": {"addr:city": "Oklahoma City", "addr:housenumber": "4100", "addr:postcode": "73116", "addr:state": "OK", "addr:street": "Northwest Expressway", "branch": "Oklahoma City Northwest Expressway", "brand": "Tru", "brand:wikidata": "Q24907770", "building": "yes", "name": "Tru", "official_name": "Tru by Hilton", "phone": "+1 405-286-0407", "ref": "OKCRURU", "tourism": "hotel", "website": "https://www.hilton.com/en/hotels/okcruru-tru-oklahoma-city-nw-expressway/"}}}, {"type": "Feature", "geometry": {"type": "Polygon", "coordinates": [[[-97.5964343, 35.5378509], [-97.5963443, 35.5378508], [-97.5957505, 35.5378503], [-97.5957563, 35.5374676], [-97.595761, 35.5371568], [-97.5965174, 35.5371677], [-97.5965147, 35.5374362], [-97.5964343, 35.5374362], [-97.5964343, 35.5378509]]]}, "properties": {"osm_id": 1209555297, "building": "yes", "name": "Academy Sports + Outdoors", "height": null, "height_m": null, "levels": null, "tract_id": "40109106607", "tract_name": "1066.07", "tags": {"addr:city": "Oklahoma City", "addr:housenumber": "4261", "addr:postcode": "73116", "addr:state": "OK", "addr:street": "Northwest Expressway", "brand": "Academy Sports + Outdoors", "brand:wikidata": "Q4671380", "building": "yes", "curbside": "yes", "name": "Academy Sports + Outdoors", "opening_hours": "Su-Th 09:00-21:00; Fr 09:00-22:00; Sa 08:00-22:00", "payment:apple_pay": "yes", "payment:cash": "yes", "payment:credit_cards": "yes", "payment:debit_cards": "yes", "payment:google_pay": "yes", "payment:klarna": "yes", "payment:paypal": "yes", "phone": "+1 405 767 3720", "shop": "sports", "smoking": "no", "website": "https://www.academy.com/storelocator/oklahoma/oklahoma-city/store-0086"}}}, {"type": "Feature", "geometry": {"type": "Polygon", "coordinates": [[[-97.5957369, 35.5387458], [-97.596343, 35.5387486], [-97.5963435, 35.5383853], [-97.5957424, 35.5383838], [-97.5957369, 35.5387458]]]}, "properties": {"osm_id": 1209555298, "building": "yes", "name": "Planet Fitness", "height": null, "height_m": null, "levels": null, "tract_id": "40109106607", "tract_name": "1066.07", "tags": {"addr:city": "Oklahoma City", "addr:postcode": "73116", "addr:state": "OK", "addr:street": "Northwest Expressway", "brand": "Planet Fitness", "brand:wikidata": "Q7201095", "building": "yes", "leisure": "fitness_centre", "name": "Planet Fitness"}}}, {"type": "Feature", "geometry": {"type": "Polygon", "coordinates": [[[-97.5963439, 35.5381181], [-97.5957464, 35.5381171], [-97.5957505, 35.5378503], [-97.5963443, 35.5378508], [-97.5963439, 35.5381181]]]}, "properties": {"osm_id": 1209555299, "building": "yes", "name": "Biolife Plasma Services", "height": null, "height_m": null, "levels": null, "tract_id": "40109106607", "tract_name": "1066.07", "tags": {"addr:city": "Oklahoma City", "addr:housenumber": "4275", "addr:postcode": "73116", "addr:state": "OK", "addr:street": "Northwest Expressway", "building": "yes", "healthcare": "laboratory", "name": "Biolife Plasma Services"}}}, {"type": "Feature", "geometry": {"type": "Polygon", "coordinates": [[[-97.5957369, 35.5387458], [-97.5964745, 35.5390644], [-97.5964796, 35.5387464], [-97.596343, 35.5387486], [-97.5957369, 35.5387458]]]}, "properties": {"osm_id": 1209555300, "building": "commercial", "name": "", "height": null, "height_m": null, "levels": null, "tract_id": "40109106607", "tract_name": "1066.07", "tags": {"building": "commercial"}}}, {"type": "Feature", "geometry": {"type": "Polygon", "coordinates": [[[-97.5957424, 35.5383838], [-97.5957464, 35.5381171], [-97.5963439, 35.5381181], [-97.5963435, 35.5383853], [-97.5957424, 35.5383838]]]}, "properties": {"osm_id": 1209555301, "building": "commercial", "name": "Dollar Tree", "height": null, "height_m": null, "levels": null, "tract_id": "40109106607", "tract_name": "1066.07", "tags": {"addr:city": "Oklahoma City", "addr:postcode": "73116", "addr:state": "OK", "addr:street": "Northwest Expressway", "brand": "Dollar Tree", "brand:wikidata": "Q5289230", "building": "commercial", "check_date": "2024-07-11", "check_date:opening_hours": "2024-07-11", "name": "Dollar Tree", "opening_hours": "Mo-Sa 08:00-22:00; Su 10:00-20:00", "shop": "variety_store", "website": "https://www.dollartree.com/locations/ok/oklahoma-city/5343/"}}}, {"type": "Feature", "geometry": {"type": "Polygon", "coordinates": [[[-97.5916625, 35.5370295], [-97.5916639, 35.5371162], [-97.5916809, 35.5371237], [-97.5916649, 35.5371516], [-97.5918942, 35.5372496], [-97.5919109, 35.5372266], [-97.5919939, 35.5372607], [-97.5920869, 35.5371523], [-97.5920884, 35.5370289], [-97.5916625, 35.5370295]]]}, "properties": {"osm_id": 1209565334, "building": "commercial", "name": "Dental Depot", "height": null, "height_m": null, "levels": null, "tract_id": "40109106607", "tract_name": "1066.07", "tags": {"addr:city": "Oklahoma City", "addr:state": "OK", "building": "commercial", "name": "Dental Depot"}}}, {"type": "Feature", "geometry": {"type": "Polygon", "coordinates": [[[-97.5995243, 35.5373271], [-97.599175, 35.537328], [-97.5991741, 35.5370868], [-97.5995234, 35.5370859], [-97.5995243, 35.5373271]]]}, "properties": {"osm_id": 1338051571, "building": "retail", "name": "Goodies", "height": null, "height_m": null, "levels": null, "tract_id": "40109106607", "tract_name": "1066.07", "tags": {"building": "retail", "name": "Goodies", "shop": "cannabis", "survey:date": "2023-10-22"}}}, {"type": "Feature", "geometry": {"type": "Polygon", "coordinates": [[[-97.5988132, 35.5386916], [-97.5988119, 35.5388847], [-97.5988285, 35.5388848], [-97.5988285, 35.5388912], [-97.5987719, 35.5389283], [-97.5987285, 35.5389566], [-97.5987988, 35.5390278], [-97.5988398, 35.5390009], [-97.5988447, 35.5389978], [-97.5989767, 35.538998], [-97.5989763, 35.5391502], [-97.5989923, 35.5391502], [-97.5989922, 35.5391827], [-97.5985137, 35.539182], [-97.5985134, 35.5393116], [-97.5984871, 35.5393116], [-97.5984869, 35.5394762], [-97.5985611, 35.5394762], [-97.5985609, 35.5396492], [-97.5984298, 35.5396491], [-97.5984297, 35.5397607], [-97.5984859, 35.5397607], [-97.5984859, 35.5397968], [-97.5985115, 35.5397968], [-97.5985116, 35.5399022], [-97.5984845, 35.5399022], [-97.5984846, 35.5399463], [-97.5986357, 35.5399461], [-97.5986356, 35.5398975], [-97.5985963, 35.5398976], [-97.5985962, 35.5398715], [-97.5989504, 35.539871], [-97.5989505, 35.5398975], [-97.5989074, 35.5398976], [-97.5989074, 35.5399496], [-97.5990684, 35.5399495], [-97.5990683, 35.5398979], [-97.5990419, 35.5398979], [-97.599042, 35.5398069], [-97.599069, 35.539807], [-97.5990693, 35.5396446], [-97.5989887, 35.5396445], [-97.598989, 35.539502], [-97.5991504, 35.5395023], [-97.5991514, 35.5391231], [-97.5992072, 35.5391233], [-97.5992073, 35.5390833], [-97.5993411, 35.5390837], [-97.5993415, 35.5389946], [-97.5993755, 35.5389947], [-97.5993757, 35.5389724], [-97.5994553, 35.5389727], [-97.5994556, 35.5389165], [-97.5995031, 35.5389167], [-97.5995035, 35.5388513], [-97.5995768, 35.5388517], [-97.5995779, 35.5386952], [-97.5988132, 35.5386916]]]}, "properties": {"osm_id": 1383663940, "building": "yes", "name": "United Methodist Church North", "height": null, "height_m": null, "levels": null, "tract_id": "40109106607", "tract_name": "1066.07", "tags": {"amenity": "place_of_worship", "building": "yes", "denomination": "methodist", "ele": "376", "gnis:feature_id": "1809646", "name": "United Methodist Church North", "religion": "christian"}}}, {"type": "Feature", "geometry": {"type": "Polygon", "coordinates": [[[-97.5969917, 35.5374454], [-97.596991, 35.5371687], [-97.5973713, 35.537168], [-97.597372, 35.5374448], [-97.5969917, 35.5374454]]]}, "properties": {"osm_id": 1383664646, "building": "yes", "name": "", "height": null, "height_m": null, "levels": null, "tract_id": "40109106607", "tract_name": "1066.07", "tags": {"building": "yes"}}}, {"type": "Feature", "geometry": {"type": "Polygon", "coordinates": [[[-97.5987008, 35.5364216], [-97.5986958, 35.5363256], [-97.5988969, 35.5363187], [-97.5989111, 35.5365917], [-97.5987117, 35.5365985], [-97.5987066, 35.5365002], [-97.5987863, 35.5364974], [-97.5987822, 35.5364189], [-97.5987008, 35.5364216]]]}, "properties": {"osm_id": 1383664647, "building": "yes", "name": "", "height": null, "height_m": null, "levels": null, "tract_id": "40109106607", "tract_name": "1066.07", "tags": {"building": "yes"}}}, {"type": "Feature", "geometry": {"type": "Polygon", "coordinates": [[[-97.600847, 35.5381937], [-97.6008467, 35.5382745], [-97.6008706, 35.5382745], [-97.6008705, 35.5383148], [-97.6008456, 35.5383148], [-97.6008455, 35.5383542], [-97.600613, 35.5383537], [-97.6006136, 35.5381931], [-97.600847, 35.5381937]]]}, "properties": {"osm_id": 1383664653, "building": "yes", "name": "", "height": null, "height_m": null, "levels": null, "tract_id": "40109106607", "tract_name": "1066.07", "tags": {"building": "yes"}}}]}