{"type": "FeatureCollection", "features": [{"type": "Feature", "geometry": {"type": "Polygon", "coordinates": [[[-95.9341423, 36.749691], [-95.933171, 36.749691], [-95.933171, 36.7492519], [-95.9334189, 36.7492519], [-95.9334189, 36.7492276], [-95.9339079, 36.7492276], [-95.9339079, 36.7492519], [-95.9341423, 36.7492519], [-95.9341423, 36.749691]]]}, "properties": {"osm_id": 201356684, "building": "retail", "name": "", "height": null, "height_m": null, "levels": null, "tract_id": "40147000500", "tract_name": "5", "tags": {"building": "retail"}}}, {"type": "Feature", "geometry": {"type": "Polygon", "coordinates": [[[-95.9351484, 36.7567179], [-95.9349292, 36.7567124], [-95.9349273, 36.7563718], [-95.9351496, 36.7563748], [-95.9351484, 36.7567179]]]}, "properties": {"osm_id": 487761440, "building": "roof", "name": "", "height": null, "height_m": null, "levels": null, "tract_id": "40147000500", "tract_name": "5", "tags": {"building": "roof", "layer": "1"}}}, {"type": "Feature", "geometry": {"type": "Polygon", "coordinates": [[[-95.9345812, 36.7567062], [-95.9345825, 36.7563914], [-95.9346992, 36.7563917], [-95.9346988, 36.7564698], [-95.9347168, 36.7564698], [-95.9347162, 36.7566063], [-95.9346983, 36.7566062], [-95.9346978, 36.7567065], [-95.9345812, 36.7567062]]]}, "properties": {"osm_id": 487761441, "building": "retail", "name": "QuikTrip", "height": null, "height_m": null, "levels": null, "tract_id": "40147000500", "tract_name": "5", "tags": {"brand": "QuikTrip", "brand:wikidata": "Q7271953", "building": "retail", "name": "QuikTrip", "opening_hours": "24/7", "shop": "convenience", "short_name": "QT"}}}, {"type": "Feature", "geometry": {"type": "Polygon", "coordinates": [[[-95.9305274, 36.7436528], [-95.9300792, 36.7436726], [-95.9300522, 36.7433112], [-95.930088, 36.7432962], [-95.9300794, 36.7431007], [-95.9305229, 36.7431035], [-95.9305229, 36.7433], [-95.9305352, 36.7433009], [-95.930547, 36.7433058], [-95.9305505, 36.7433133], [-95.9305487, 36.7436346], [-95.9305421, 36.7436492], [-95.9305274, 36.7436528]]]}, "properties": {"osm_id": 849342312, "building": "yes", "name": "Arvest Bank", "height": null, "height_m": null, "levels": null, "tract_id": "40147000500", "tract_name": "5", "tags": {"addr:city": "Bartlesville", "addr:housenumber": "4225", "addr:postcode": "74006", "addr:state": "OK", "addr:street": "Southeast Adams Road", "amenity": "bank", "atm": "yes", "brand": "Arvest Bank", "brand:wikidata": "Q4802393", "building": "yes", "drive_through": "yes", "name": "Arvest Bank"}}}, {"type": "Feature", "geometry": {"type": "Polygon", "coordinates": [[[-95.9317025, 36.7431721], [-95.9314339, 36.7431718], [-95.9314358, 36.7433923], [-95.9310998, 36.743392], [-95.9311168, 36.7444485], [-95.9317118, 36.7444489], [-95.9317025, 36.7431721]]]}, "properties": {"osm_id": 849342313, "building": "yes", "name": "DSR", "height": null, "height_m": null, "levels": null, "tract_id": "40147000500", "tract_name": "5", "tags": {"addr:city": "Bartlesville", "addr:housenumber": "3901", "addr:postcode": "74006", "addr:state": "OK", "addr:street": "Southeast Adams Road", "building": "yes", "name": "DSR", "office": "yes", "opening_hours": "24/7", "phone": "918-336-6900"}}}, {"type": "Feature", "geometry": {"type": "Polygon", "coordinates": [[[-95.9347029, 36.7464385], [-95.9347029, 36.7463342], [-95.9343329, 36.7463359], [-95.9343268, 36.7464401], [-95.9347029, 36.7464385]]]}, "properties": {"osm_id": 849342314, "building": "yes", "name": "McDonald's", "height": null, "height_m": null, "levels": null, "tract_id": "40147000500", "tract_name": "5", "tags": {"addr:city": "Bartlesville", "addr:housenumber": "606", "addr:postcode": "74006", "addr:state": "OK", "addr:street": "Southeast Washington Boulevard", "amenity": "fast_food", "brand": "McDonald's", "brand:wikidata": "Q38076", "building": "yes", "cuisine": "burger", "drive_through": "yes", "internet_access": "wlan", "name": "McDonald's", "opening_hours": "06:00-21:00", "phone": "+1 918-333-6060", "takeaway": "yes", "website": "https://www.mcdonalds.com/us/en-us/location/2630.html"}}}, {"type": "Feature", "geometry": {"type": "Polygon", "coordinates": [[[-95.9078845, 36.7487441], [-95.9075962, 36.748743], [-95.9075971, 36.7485882], [-95.9076646, 36.7485885], [-95.9076664, 36.7482829], [-95.9077117, 36.7482819], [-95.9077106, 36.7482504], [-95.9077668, 36.7482492], [-95.9077679, 36.7482806], [-95.9078014, 36.7482798], [-95.9078591, 36.7482326], [-95.9079503, 36.7482283], [-95.9080213, 36.748282], [-95.9080227, 36.7483594], [-95.9079596, 36.7484152], [-95.9078591, 36.7484163], [-95.9078227, 36.7483787], [-95.9078215, 36.748589], [-95.9078854, 36.7485893], [-95.9078845, 36.7487441]]]}, "properties": {"osm_id": 1081991817, "building": "yes", "name": "Sooner Park Wesleyan Church", "height": null, "height_m": null, "levels": null, "tract_id": "40147000500", "tract_name": "5", "tags": {"amenity": "place_of_worship", "building": "yes", "ele": "235", "gnis:feature_id": "1778704", "name": "Sooner Park Wesleyan Church", "religion": "christian"}}}, {"type": "Feature", "geometry": {"type": "Polygon", "coordinates": [[[-95.8997952, 36.7430837], [-95.8999647, 36.7429466], [-95.8998066, 36.742821], [-95.8997866, 36.7428372], [-95.8997246, 36.742788], [-95.8996471, 36.7428506], [-95.8997112, 36.7429015], [-95.899695, 36.7429146], [-95.8997425, 36.7429523], [-95.8996866, 36.7429975], [-95.8997952, 36.7430837]]]}, "properties": {"osm_id": 1150003957, "building": "yes", "name": "Jehovahs Witnesses Church", "height": null, "height_m": null, "levels": null, "tract_id": "40147000500", "tract_name": "5", "tags": {"amenity": "place_of_worship", "building": "yes", "denomination": "jehovahs_witness", "ele": "238", "gnis:feature_id": "1778693", "name": "Jehovahs Witnesses Church", "religion": "christian"}}}, {"type": "Feature", "geometry": {"type": "Polygon", "coordinates": [[[-95.9314416, 36.7455651], [-95.9311123, 36.7455618], [-95.9311123, 36.7453175], [-95.9314376, 36.7453207], [-95.9314416, 36.7455651]]]}, "properties": {"osm_id": 1218732304, "building": "yes", "name": "Oak Federal Credit Union", "height": null, "height_m": null, "levels": null, "tract_id": "40147000500", "tract_name": "5", "tags": {"amenity": "bank", "building": "yes", "name": "Oak Federal Credit Union"}}}, {"type": "Feature", "geometry": {"type": "Polygon", "coordinates": [[[-95.9321349, 36.7454918], [-95.9319296, 36.7454876], [-95.931935, 36.7452139], [-95.9321367, 36.7452238], [-95.9321349, 36.7454918]]]}, "properties": {"osm_id": 1218732305, "building": "yes", "name": "Braum's", "height": null, "height_m": null, "levels": null, "tract_id": "40147000500", "tract_name": "5", "tags": {"amenity": "fast_food", "brand": "Braum's", "brand:wikidata": "Q4958263", "building": "yes", "cuisine": "ice_cream;burger", "name": "Braum's", "shop": "dairy", "takeaway": "yes"}}}, {"type": "Feature", "geometry": {"type": "Polygon", "coordinates": [[[-95.9344796, 36.7457655], [-95.9339877, 36.7457669], [-95.9339771, 36.745818], [-95.9335718, 36.7458109], [-95.9335612, 36.7457357], [-95.9333993, 36.7457272], [-95.9333984, 36.7456719], [-95.9334373, 36.7456726], [-95.9334444, 36.74554], [-95.9343115, 36.7455301], [-95.9343115, 36.7455017], [-95.9344867, 36.7455017], [-95.9344796, 36.7457655]]]}, "properties": {"osm_id": 1218732306, "building": "yes", "name": "Patriot Chevrolet", "height": null, "height_m": null, "levels": null, "tract_id": "40147000500", "tract_name": "5", "tags": {"building": "yes", "name": "Patriot Chevrolet", "shop": "car"}}}, {"type": "Feature", "geometry": {"type": "Polygon", "coordinates": [[[-95.9348189, 36.7469076], [-95.9345936, 36.7469097], [-95.9346016, 36.7467614], [-95.9348162, 36.7467679], [-95.9348189, 36.7469076]]]}, "properties": {"osm_id": 1218732309, "building": "yes", "name": "Long John Silver's", "height": null, "height_m": null, "levels": null, "tract_id": "40147000500", "tract_name": "5", "tags": {"amenity": "fast_food", "brand": "Long John Silver's", "brand:wikidata": "Q1535221", "building": "yes", "cuisine": "seafood", "name": "Long John Silver's", "takeaway": "yes"}}}, {"type": "Feature", "geometry": {"type": "Polygon", "coordinates": [[[-95.9349235, 36.747864], [-95.9344541, 36.7478618], [-95.9344461, 36.7477307], [-95.9349289, 36.7477264], [-95.9349235, 36.747864]]]}, "properties": {"osm_id": 1218732310, "building": "yes", "name": "Chick-fil-A", "height": null, "height_m": null, "levels": null, "tract_id": "40147000500", "tract_name": "5", "tags": {"addr:city": "Bartlesville", "addr:housenumber": "602", "addr:postcode": "74006", "addr:state": "OK", "addr:street": "Southeast Washington Boulevard", "amenity": "fast_food", "branch": "Bartlesville", "brand": "Chick-fil-A", "brand:wikidata": "Q491516", "building": "yes", "cuisine": "chicken", "delivery": "yes", "drive_through": "yes", "indoor_seating": "no", "internet_access": "wlan", "name": "Chick-fil-A", "opening_hours": "Mo-Th 06:00-21:00; Fr-Sa 06:00-22:00; Su off", "phone": "+1 918-331-9956", "ref": "03813", "takeaway": "yes", "website": "https://www.chick-fil-a.com/locations/ok/bartlesville"}}}, {"type": "Feature", "geometry": {"type": "Polygon", "coordinates": [[[-95.9341081, 36.7482207], [-95.9338372, 36.7482272], [-95.9338345, 36.7482637], [-95.9335341, 36.7482659], [-95.9335368, 36.7482293], [-95.933223, 36.7482207], [-95.9332096, 36.7476275], [-95.9341332, 36.7476254], [-95.9341081, 36.7482207]]]}, "properties": {"osm_id": 1218732311, "building": "yes", "name": "Hobby Lobby", "height": null, "height_m": null, "levels": null, "tract_id": "40147000500", "tract_name": "5", "tags": {"brand": "Hobby Lobby", "brand:wikidata": "Q5874938", "building": "yes", "name": "Hobby Lobby", "shop": "craft"}}}, {"type": "Feature", "geometry": {"type": "Polygon", "coordinates": [[[-95.9331962, 36.7480509], [-95.9331935, 36.747634], [-95.9329145, 36.7476297], [-95.9329119, 36.7477393], [-95.9319731, 36.7477393], [-95.9318524, 36.7477393], [-95.9318604, 36.7479628], [-95.9319677, 36.7479628], [-95.9319677, 36.7480574], [-95.9331962, 36.7480509]]]}, "properties": {"osm_id": 1218732312, "building": "retail", "name": "", "height": null, "height_m": null, "levels": null, "tract_id": "40147000500", "tract_name": "5", "tags": {"building": "retail"}}}, {"type": "Feature", "geometry": {"type": "Polygon", "coordinates": [[[-95.9319033, 36.7484593], [-95.9311523, 36.7484528], [-95.9311684, 36.7480982], [-95.9318899, 36.7481025], [-95.9319033, 36.7484593]]]}, "properties": {"osm_id": 1218732313, "building": "yes", "name": "Big Lots", "height": null, "height_m": null, "levels": null, "tract_id": "40147000500", "tract_name": "5", "tags": {"addr:city": "Bartlesville", "addr:housenumber": "564", "addr:postcode": "74006", "addr:state": "OK", "addr:street": "Southeast Washington Boulevard", "brand": "Big Lots", "brand:wikidata": "Q4905973", "building": "yes", "name": "Big Lots", "opening_hours": "Mo-We 10:00-21:00; Th-Sa 09:00-21:00; Su 10:00-21:00", "phone": "+1 918-907-3075", "shop": "department_store", "website": "https://local.biglots.com/ok/bartlesville/564-se-washington-blvd"}}}, {"type": "Feature", "geometry": {"type": "Polygon", "coordinates": [[[-95.9328797, 36.7497058], [-95.9320348, 36.7497036], [-95.9320375, 36.749276], [-95.932877, 36.7492975], [-95.9328797, 36.7497058]]]}, "properties": {"osm_id": 1218732314, "building": "retail", "name": "", "height": null, "height_m": null, "levels": null, "tract_id": "40147000500", "tract_name": "5", "tags": {"building": "retail"}}}, {"type": "Feature", "geometry": {"type": "Polygon", "coordinates": [[[-95.9319033, 36.7496349], [-95.9319168, 36.7491234], [-95.9316619, 36.7491212], [-95.9316566, 36.749637], [-95.9319033, 36.7496349]]]}, "properties": {"osm_id": 1218732315, "building": "retail", "name": "", "height": null, "height_m": null, "levels": null, "tract_id": "40147000500", "tract_name": "5", "tags": {"building": "retail"}}}, {"type": "Feature", "geometry": {"type": "Polygon", "coordinates": [[[-95.9347822, 36.7496979], [-95.9342547, 36.7496971], [-95.9342557, 36.7492909], [-95.9347831, 36.7492917], [-95.9347822, 36.7496979]]]}, "properties": {"osm_id": 1218732316, "building": "retail", "name": "", "height": null, "height_m": null, "levels": null, "tract_id": "40147000500", "tract_name": "5", "tags": {"building": "retail"}}}, {"type": "Feature", "geometry": {"type": "Polygon", "coordinates": [[[-95.9343549, 36.7502732], [-95.9341805, 36.750271], [-95.9341752, 36.7500948], [-95.9343522, 36.7500969], [-95.9343549, 36.7502732]]]}, "properties": {"osm_id": 1218732317, "building": "yes", "name": "Schlotzsky's", "height": null, "height_m": null, "levels": null, "tract_id": "40147000500", "tract_name": "5", "tags": {"amenity": "fast_food", "brand": "Schlotzsky's", "brand:wikidata": "Q2244796", "building": "yes", "cuisine": "sandwich", "name": "Schlotzsky's", "takeaway": "yes"}}}, {"type": "Feature", "geometry": {"type": "Polygon", "coordinates": [[[-95.9339284, 36.7503118], [-95.9332659, 36.7503183], [-95.933274, 36.7501356], [-95.9334161, 36.7501378], [-95.9334081, 36.7499164], [-95.9336468, 36.749925], [-95.9336495, 36.7501034], [-95.933748, 36.7500878], [-95.9337447, 36.749982], [-95.9339184, 36.7499793], [-95.9339257, 36.7500969], [-95.9339284, 36.7503118]]]}, "properties": {"osm_id": 1218732318, "building": "yes", "name": "Bank of Oklahoma", "height": null, "height_m": null, "levels": null, "tract_id": "40147000500", "tract_name": "5", "tags": {"amenity": "bank", "building": "yes", "name": "Bank of Oklahoma"}}}, {"type": "Feature", "geometry": {"type": "Polygon", "coordinates": [[[-95.934776, 36.7503656], [-95.9346553, 36.7503677], [-95.934658, 36.7501485], [-95.934776, 36.750155], [-95.934776, 36.7503656]]]}, "properties": {"osm_id": 1218732319, "building": "yes", "name": "Starbucks", "height": null, "height_m": null, "levels": null, "tract_id": "40147000500", "tract_name": "5", "tags": {"addr:city": "Bartlesville", "addr:housenumber": "3801", "addr:postcode": "74006", "addr:state": "OK", "addr:street": "Southeast Frank Phillips Boulevard", "amenity": "cafe", "branch": "Frank Phillips & US 75", "brand": "Starbucks", "brand:wikidata": "Q37158", "building": "yes", "cuisine": "coffee_shop", "name": "Starbucks", "official_name": "Starbucks Coffee", "phone": "+1 918-331-9436", "ref": "7692", "takeaway": "yes", "website": "https://www.starbucks.com/store-locator/store/7692/frank-phillips-us-75-3801-east-frank-phillips-blvd-bartlesville-ok-7400"}}}, {"type": "Feature", "geometry": {"type": "Polygon", "coordinates": [[[-95.9346163, 36.7500573], [-95.9349428, 36.7500548], [-95.9349405, 36.7498531], [-95.9347044, 36.7498548], [-95.9347058, 36.749974], [-95.9346153, 36.7499747], [-95.9346163, 36.7500573]]]}, "properties": {"osm_id": 1218732320, "building": "retail", "name": "The UPS Store", "height": null, "height_m": null, "levels": null, "tract_id": "40147000500", "tract_name": "5", "tags": {"building": "retail", "name": "The UPS Store"}}}, {"type": "Feature", "geometry": {"type": "Polygon", "coordinates": [[[-95.932891, 36.7503297], [-95.9327129, 36.7503272], [-95.9327178, 36.7501006], [-95.932896, 36.7501031], [-95.932891, 36.7503297]]]}, "properties": {"osm_id": 1218732321, "building": "yes", "name": "Ritz Cleaners", "height": null, "height_m": null, "levels": null, "tract_id": "40147000500", "tract_name": "5", "tags": {"building": "yes", "name": "Ritz Cleaners", "shop": "dry_cleaning"}}}, {"type": "Feature", "geometry": {"type": "Polygon", "coordinates": [[[-95.9326275, 36.7503312], [-95.9323513, 36.7503312], [-95.9323513, 36.7500625], [-95.9326329, 36.7500647], [-95.9326275, 36.7503312]]]}, "properties": {"osm_id": 1218732322, "building": "retail", "name": "", "height": null, "height_m": null, "levels": null, "tract_id": "40147000500", "tract_name": "5", "tags": {"building": "retail"}}}, {"type": "Feature", "geometry": {"type": "Polygon", "coordinates": [[[-95.9332251, 36.7514597], [-95.9328694, 36.7514597], [-95.9328674, 36.7513164], [-95.9327556, 36.7513148], [-95.9327576, 36.7514532], [-95.9324913, 36.7514499], [-95.9323856, 36.7512887], [-95.9323734, 36.7510753], [-95.9332475, 36.7510786], [-95.9332251, 36.7514597]]]}, "properties": {"osm_id": 1218732323, "building": "retail", "name": "", "height": null, "height_m": null, "levels": null, "tract_id": "40147000500", "tract_name": "5", "tags": {"building": "retail"}}}, {"type": "Feature", "geometry": {"type": "Polygon", "coordinates": [[[-95.9342639, 36.7515118], [-95.9337435, 36.7515069], [-95.9337414, 36.7513376], [-95.9337277, 36.7513354], [-95.9335998, 36.751333], [-95.9336032, 36.7510802], [-95.9342618, 36.75109], [-95.9342639, 36.7515118]]]}, "properties": {"osm_id": 1218732324, "building": "yes", "name": "Goodwill", "height": null, "height_m": null, "levels": null, "tract_id": "40147000500", "tract_name": "5", "tags": {"building": "yes", "name": "Goodwill", "shop": "second_hand"}}}, {"type": "Feature", "geometry": {"type": "Polygon", "coordinates": [[[-95.9337227, 36.7515081], [-95.9335948, 36.7515057], [-95.9335998, 36.751333], [-95.9337277, 36.7513354], [-95.9337227, 36.7515081]]]}, "properties": {"osm_id": 1218732325, "building": "yes", "name": "Vape City", "height": null, "height_m": null, "levels": null, "tract_id": "40147000500", "tract_name": "5", "tags": {"brand": "Vape City", "brand:wikidata": "Q120885093", "building": "yes", "name": "Vape City", "shop": "e-cigarette"}}}, {"type": "Feature", "geometry": {"type": "Polygon", "coordinates": [[[-95.9347842, 36.7515428], [-95.9343675, 36.7515428], [-95.9343879, 36.7511258], [-95.9347903, 36.7511389], [-95.9347842, 36.7515428]]]}, "properties": {"osm_id": 1218732326, "building": "yes", "name": "Walgreens", "height": null, "height_m": null, "levels": null, "tract_id": "40147000500", "tract_name": "5", "tags": {"brand": "Walgreens", "brand:wikidata": "Q1591889", "building": "yes", "name": "Walgreens", "shop": "chemist", "website": "https://www.walgreens.com/locator/walgreens-3816+e+frank+phillips+blvd-bartlesville-ok-74006/id=6618"}}}, {"type": "Feature", "geometry": {"type": "Polygon", "coordinates": [[[-95.9347571, 36.7522523], [-95.9342589, 36.7522453], [-95.9342628, 36.7520697], [-95.9344533, 36.7520723], [-95.934454, 36.7520372], [-95.9345702, 36.7520388], [-95.9345694, 36.7520745], [-95.9347609, 36.7520772], [-95.9347571, 36.7522523]]]}, "properties": {"osm_id": 1218732328, "building": "yes", "name": "Soho Japanese Steakhouse", "height": null, "height_m": null, "levels": null, "tract_id": "40147000500", "tract_name": "5", "tags": {"amenity": "restaurant", "building": "yes", "name": "Soho Japanese Steakhouse"}}}, {"type": "Feature", "geometry": {"type": "Polygon", "coordinates": [[[-95.9348554, 36.7532562], [-95.9343289, 36.7532496], [-95.9343391, 36.7529776], [-95.9342424, 36.7528733], [-95.934272, 36.7528164], [-95.9340403, 36.7526943], [-95.9341317, 36.7525835], [-95.934396, 36.7527171], [-95.9344651, 36.7526226], [-95.9346887, 36.7526275], [-95.9347903, 36.7526356], [-95.9348493, 36.752735], [-95.9347273, 36.7529223], [-95.9347659, 36.7529255], [-95.9347619, 36.7529776], [-95.9348554, 36.7529842], [-95.9348554, 36.7532562]]]}, "properties": {"osm_id": 1218732329, "building": "yes", "name": "Highland Park Baptist Church", "height": null, "height_m": null, "levels": null, "tract_id": "40147000500", "tract_name": "5", "tags": {"amenity": "place_of_worship", "building": "yes", "name": "Highland Park Baptist Church", "religion": "christian"}}}, {"type": "Feature", "geometry": {"type": "Polygon", "coordinates": [[[-95.9339882, 36.7543001], [-95.9332079, 36.7542979], [-95.9332086, 36.7541292], [-95.9339889, 36.7541315], [-95.9339882, 36.7543001]]]}, "properties": {"osm_id": 1218744802, "building": "yes", "name": "Avondale Mini Storage", "height": null, "height_m": null, "levels": null, "tract_id": "40147000500", "tract_name": "5", "tags": {"building": "yes", "name": "Avondale Mini Storage", "shop": "storage_rental"}}}, {"type": "Feature", "geometry": {"type": "Polygon", "coordinates": [[[-95.9339053, 36.7539012], [-95.9339023, 36.7535729], [-95.9333076, 36.7535803], [-95.9333015, 36.7536346], [-95.9332398, 36.7536346], [-95.9332275, 36.7539703], [-95.9334031, 36.7539629], [-95.9334062, 36.7537136], [-95.9336434, 36.7537161], [-95.9336404, 36.7538987], [-95.9339053, 36.7539012]]]}, "properties": {"osm_id": 1218744803, "building": "commercial", "name": "Safe Haven Child Development Center", "height": null, "height_m": null, "levels": null, "tract_id": "40147000500", "tract_name": "5", "tags": {"building": "commercial", "name": "Safe Haven Child Development Center"}}}, {"type": "Feature", "geometry": {"type": "Polygon", "coordinates": [[[-95.9350864, 36.7537366], [-95.9349264, 36.75374], [-95.9349199, 36.7535462], [-95.9350799, 36.7535428], [-95.9350864, 36.7537366]]]}, "properties": {"osm_id": 1218744807, "building": "yes", "name": "The Sticky Nickle", "height": null, "height_m": null, "levels": null, "tract_id": "40147000500", "tract_name": "5", "tags": {"building": "yes", "name": "The Sticky Nickle", "shop": "cannabis"}}}, {"type": "Feature", "geometry": {"type": "Polygon", "coordinates": [[[-95.935016, 36.7550996], [-95.9347559, 36.755096], [-95.9347607, 36.7548726], [-95.9350208, 36.7548762], [-95.935016, 36.7550996]]]}, "properties": {"osm_id": 1218744809, "building": "yes", "name": "Ohmen Vapors", "height": null, "height_m": null, "levels": null, "tract_id": "40147000500", "tract_name": "5", "tags": {"building": "yes", "name": "Ohmen Vapors", "shop": "cannabis"}}}, {"type": "Feature", "geometry": {"type": "Polygon", "coordinates": [[[-95.9345726, 36.7560158], [-95.9348943, 36.7560116], [-95.9348818, 36.7553924], [-95.934522, 36.7553971], [-95.9345275, 36.7556652], [-95.9344121, 36.7556667], [-95.9344171, 36.755911], [-95.9345705, 36.755909], [-95.9345726, 36.7560158]]]}, "properties": {"osm_id": 1218744810, "building": "yes", "name": "Hampton Inn Bartlesville", "height": null, "height_m": null, "levels": null, "tract_id": "40147000500", "tract_name": "5", "tags": {"addr:city": "Bartlesville", "addr:housenumber": "130", "addr:postcode": "74006", "addr:state": "OK", "addr:street": "Southeast Washington Boulevard", "alt_name": "Hampton Inn", "branch": "Bartlesville", "brand": "Hampton", "brand:wikidata": "Q5646230", "building": "yes", "name": "Hampton Inn Bartlesville", "official_name": "Hampton Inn & Suites by Hilton", "phone": "+1 918-333-4051", "ref": "BTVOKHX", "tourism": "hotel", "website": "https://www.hilton.com/en/hotels/btvokhx-hampton-bartlesville/"}}}, {"type": "Feature", "geometry": {"type": "Polygon", "coordinates": [[[-95.933323, 36.7565771], [-95.9330796, 36.7565722], [-95.9330827, 36.7560192], [-95.9333292, 36.7560316], [-95.933323, 36.7565771]]]}, "properties": {"osm_id": 1218749233, "building": "commercial", "name": "", "height": null, "height_m": null, "levels": null, "tract_id": "40147000500", "tract_name": "5", "tags": {"building": "commercial"}}}, {"type": "Feature", "geometry": {"type": "Polygon", "coordinates": [[[-95.9342375, 36.7565741], [-95.9342403, 36.7563359], [-95.9338908, 36.7563332], [-95.933888, 36.7565715], [-95.9342375, 36.7565741]]]}, "properties": {"osm_id": 1218749236, "building": "commercial", "name": "", "height": null, "height_m": null, "levels": null, "tract_id": "40147000500", "tract_name": "5", "tags": {"building": "commercial"}}}, {"type": "Feature", "geometry": {"type": "Polygon", "coordinates": [[[-95.9319266, 36.7489613], [-95.9319196, 36.7485646], [-95.9311304, 36.7485553], [-95.9311327, 36.748965], [-95.9319266, 36.7489613]]]}, "properties": {"osm_id": 1218763265, "building": "retail", "name": "", "height": null, "height_m": null, "levels": null, "tract_id": "40147000500", "tract_name": "5", "tags": {"building": "retail"}}}, {"type": "Feature", "geometry": {"type": "Polygon", "coordinates": [[[-95.9314221, 36.7433814], [-95.9314201, 36.7431753], [-95.931106, 36.7431761], [-95.931107, 36.7433805], [-95.9314221, 36.7433814]]]}, "properties": {"osm_id": 1246184931, "building": "yes", "name": "Washington County Fire Department", "height": null, "height_m": null, "levels": null, "tract_id": "40147000500", "tract_name": "5", "tags": {"addr:city": "Bartlesville", "addr:housenumber": "3931", "addr:postcode": "74006", "addr:state": "OK", "addr:street": "Southeast Adams Road", "amenity": "fire_station", "building": "yes", "name": "Washington County Fire Department", "operator": "Kary Cox"}}}, {"type": "Feature", "geometry": {"type": "Polygon", "coordinates": [[[-95.911185, 36.7485113], [-95.9111845, 36.748243], [-95.9108769, 36.7482433], [-95.910877, 36.7482762], [-95.9108542, 36.7482762], [-95.9108298, 36.7482763], [-95.9108298, 36.7482711], [-95.9107708, 36.7482712], [-95.9107708, 36.7482651], [-95.9107118, 36.7482651], [-95.9107118, 36.7482594], [-95.9106547, 36.7482594], [-95.9106547, 36.7482528], [-95.9105737, 36.7482527], [-95.9105739, 36.7481769], [-95.9107545, 36.7481771], [-95.9107545, 36.7481481], [-95.9103294, 36.7481475], [-95.9103293, 36.7481749], [-95.91051, 36.7481751], [-95.9105098, 36.7482552], [-95.9102696, 36.7482548], [-95.9099046, 36.7482543], [-95.9099046, 36.7482602], [-95.9095775, 36.7482596], [-95.9095776, 36.7482516], [-95.9093907, 36.7482512], [-95.9093888, 36.748813], [-95.9099081, 36.7488142], [-95.9099081, 36.7488236], [-95.9104009, 36.7488244], [-95.9104007, 36.7489084], [-95.9102328, 36.7489081], [-95.910232, 36.7492235], [-95.9102616, 36.7492235], [-95.9102926, 36.7492236], [-95.9102926, 36.7492479], [-95.9105153, 36.7492481], [-95.9105153, 36.7492407], [-95.9107754, 36.7492404], [-95.9107751, 36.7490185], [-95.9108958, 36.7490184], [-95.9108957, 36.7489839], [-95.9108957, 36.7489505], [-95.9111155, 36.7489503], [-95.9111148, 36.7485274], [-95.9111148, 36.7485114], [-95.911185, 36.7485113]]]}, "properties": {"osm_id": 1378674429, "building": "school", "name": "Bartlesville Madison Middle School", "height": null, "height_m": null, "levels": null, "tract_id": "40147000500", "tract_name": "5", "tags": {"building": "school", "name": "Bartlesville Madison Middle School"}}}, {"type": "Feature", "geometry": {"type": "Polygon", "coordinates": [[[-95.9114812, 36.7494231], [-95.9114805, 36.7493914], [-95.9114797, 36.7493602], [-95.9114609, 36.7493605], [-95.9114606, 36.7493502], [-95.9113659, 36.7493516], [-95.9113679, 36.7494368], [-95.9114611, 36.7494354], [-95.9114608, 36.7494234], [-95.9114812, 36.7494231]]]}, "properties": {"osm_id": 1378681538, "building": "yes", "name": "", "height": null, "height_m": null, "levels": null, "tract_id": "40147000500", "tract_name": "5", "tags": {"building": "yes"}}}, {"type": "Feature", "geometry": {"type": "Polygon", "coordinates": [[[-95.9126245, 36.7487811], [-95.9125466, 36.7487175], [-95.9126222, 36.7486581], [-95.9127001, 36.7487217], [-95.9126245, 36.7487811]]]}, "properties": {"osm_id": 1378701051, "building": "yes", "name": "", "height": null, "height_m": null, "levels": null, "tract_id": "40147000500", "tract_name": "5", "tags": {"building": "yes"}}}, {"type": "Feature", "geometry": {"type": "Polygon", "coordinates": [[[-95.9130483, 36.7487769], [-95.9130507, 36.7487441], [-95.9129485, 36.7487376], [-95.9129456, 36.7487713], [-95.9130483, 36.7487769]]]}, "properties": {"osm_id": 1378701054, "building": "yes", "name": "", "height": null, "height_m": null, "levels": null, "tract_id": "40147000500", "tract_name": "5", "tags": {"amenity": "shelter", "building": "yes"}}}, {"type": "Feature", "geometry": {"type": "Polygon", "coordinates": [[[-95.9126909, 36.7490626], [-95.912685, 36.7489809], [-95.9126407, 36.748983], [-95.9126466, 36.7490646], [-95.9126909, 36.7490626]]]}, "properties": {"osm_id": 1378701055, "building": "yes", "name": "", "height": null, "height_m": null, "levels": null, "tract_id": "40147000500", "tract_name": "5", "tags": {"amenity": "shelter", "building": "yes"}}}, {"type": "Feature", "geometry": {"type": "Polygon", "coordinates": [[[-95.9127064, 36.7486174], [-95.9126453, 36.7486156], [-95.912594, 36.7486147], [-95.9125982, 36.7485012], [-95.9127107, 36.7485039], [-95.9127064, 36.7486174]]]}, "properties": {"osm_id": 1378701056, "building": "yes", "name": "", "height": null, "height_m": null, "levels": null, "tract_id": "40147000500", "tract_name": "5", "tags": {"building": "yes"}}}, {"type": "Feature", "geometry": {"type": "Polygon", "coordinates": [[[-95.9137904, 36.7487973], [-95.9137827, 36.7487972], [-95.9136753, 36.7487956], [-95.9135755, 36.7487942], [-95.9135709, 36.7491373], [-95.9137804, 36.7491404], [-95.9137904, 36.7487973]]]}, "properties": {"osm_id": 1378701057, "building": "yes", "name": "", "height": null, "height_m": null, "levels": null, "tract_id": "40147000500", "tract_name": "5", "tags": {"building": "yes"}}}, {"type": "Feature", "geometry": {"type": "Polygon", "coordinates": [[[-95.9162967, 36.7487785], [-95.9162951, 36.7490153], [-95.9166305, 36.7490167], [-95.9166497, 36.7490168], [-95.9166499, 36.7489901], [-95.9167237, 36.7489904], [-95.9167571, 36.7489906], [-95.9167568, 36.7490279], [-95.9169078, 36.7490286], [-95.9169097, 36.7487711], [-95.9167652, 36.7487704], [-95.9167649, 36.748811], [-95.9166834, 36.7488106], [-95.9166844, 36.7486744], [-95.9166852, 36.7485659], [-95.9167101, 36.748566], [-95.9167111, 36.7484144], [-95.9166844, 36.7484143], [-95.9166853, 36.7482642], [-95.9155858, 36.7482601], [-95.9154377, 36.7482595], [-95.915437, 36.7483766], [-95.9153649, 36.7483763], [-95.9153647, 36.7484022], [-95.9153646, 36.7484252], [-95.91544, 36.7484255], [-95.9154382, 36.7486961], [-95.9158062, 36.7486976], [-95.9166363, 36.748701], [-95.9166358, 36.74878], [-95.9162967, 36.7487785]]]}, "properties": {"osm_id": 1378702792, "building": "school", "name": "Hoover Elementary School", "height": null, "height_m": null, "levels": null, "tract_id": "40147000500", "tract_name": "5", "tags": {"building": "school", "name": "Hoover Elementary School"}}}, {"type": "Feature", "geometry": {"type": "Polygon", "coordinates": [[[-95.9152241, 36.7487543], [-95.9152226, 36.7486708], [-95.9151491, 36.7486716], [-95.9151507, 36.7487552], [-95.9151921, 36.7487547], [-95.9152241, 36.7487543]]]}, "properties": {"osm_id": 1378708617, "building": "school", "name": "", "height": null, "height_m": null, "levels": null, "tract_id": "40147000500", "tract_name": "5", "tags": {"building": "school"}}}, {"type": "Feature", "geometry": {"type": "Polygon", "coordinates": [[[-95.9142971, 36.751413], [-95.9142969, 36.751319], [-95.9139292, 36.7513195], [-95.9139293, 36.7514135], [-95.9142971, 36.751413]]]}, "properties": {"osm_id": 1379915085, "building": "yes", "name": "", "height": null, "height_m": null, "levels": null, "tract_id": "40147000500", "tract_name": "5", "tags": {"building": "yes"}}}, {"type": "Feature", "geometry": {"type": "Polygon", "coordinates": [[[-95.913594, 36.7518479], [-95.9135947, 36.7518067], [-95.9135736, 36.7518065], [-95.9135535, 36.7518063], [-95.913536, 36.7518061], [-95.9135213, 36.7518059], [-95.9135205, 36.751847], [-95.913594, 36.7518479]]]}, "properties": {"osm_id": 1379915087, "building": "yes", "name": "", "height": null, "height_m": null, "levels": null, "tract_id": "40147000500", "tract_name": "5", "tags": {"building": "yes"}}}, {"type": "Feature", "geometry": {"type": "Polygon", "coordinates": [[[-95.9138185, 36.7519494], [-95.9138973, 36.7519495], [-95.9138973, 36.7518581], [-95.9138185, 36.7518571], [-95.9138186, 36.7518913], [-95.9138185, 36.7519494]]]}, "properties": {"osm_id": 1379915093, "building": "yes", "name": "", "height": null, "height_m": null, "levels": null, "tract_id": "40147000500", "tract_name": "5", "tags": {"amenity": "shelter", "building": "yes", "shelter_type": "picnic_shelter"}}}, {"type": "Feature", "geometry": {"type": "Polygon", "coordinates": [[[-95.9136207, 36.7513192], [-95.9136205, 36.7513884], [-95.9134807, 36.7513882], [-95.9134809, 36.7513189], [-95.9136207, 36.7513192]]]}, "properties": {"osm_id": 1379915094, "building": "yes", "name": "", "height": null, "height_m": null, "levels": null, "tract_id": "40147000500", "tract_name": "5", "tags": {"building": "yes"}}}, {"type": "Feature", "geometry": {"type": "Polygon", "coordinates": [[[-95.9148361, 36.7523969], [-95.9148439, 36.7523247], [-95.9150217, 36.7523371], [-95.9150177, 36.752374], [-95.9150139, 36.7524092], [-95.9148361, 36.7523969]]]}, "properties": {"osm_id": 1379915095, "building": "garage", "name": "", "height": null, "height_m": null, "levels": null, "tract_id": "40147000500", "tract_name": "5", "tags": {"building": "garage"}}}, {"type": "Feature", "geometry": {"type": "Polygon", "coordinates": [[[-95.9146881, 36.7529709], [-95.9147653, 36.7529354], [-95.9147707, 36.7529329], [-95.9147631, 36.7529223], [-95.9148282, 36.7528923], [-95.9147857, 36.7528329], [-95.9147562, 36.7528454], [-95.9146375, 36.7529021], [-95.9146823, 36.7529629], [-95.9146881, 36.7529709]]]}, "properties": {"osm_id": 1379915103, "building": "garage", "name": "", "height": null, "height_m": null, "levels": null, "tract_id": "40147000500", "tract_name": "5", "tags": {"building": "garage"}}}, {"type": "Feature", "geometry": {"type": "Polygon", "coordinates": [[[-95.9144746, 36.7533532], [-95.9146212, 36.7532778], [-95.9146167, 36.7532722], [-95.9145417, 36.7531784], [-95.914395, 36.7532537], [-95.9144163, 36.7532804], [-95.9144746, 36.7533532]]]}, "properties": {"osm_id": 1379915104, "building": "garage", "name": "", "height": null, "height_m": null, "levels": null, "tract_id": "40147000500", "tract_name": "5", "tags": {"building": "garage"}}}, {"type": "Feature", "geometry": {"type": "Polygon", "coordinates": [[[-95.9164559, 36.7549402], [-95.916238, 36.7549396], [-95.9162384, 36.7548406], [-95.9164563, 36.7548412], [-95.9164559, 36.7549402]]]}, "properties": {"osm_id": 1380010009, "building": "yes", "name": "", "height": null, "height_m": null, "levels": null, "tract_id": "40147000500", "tract_name": "5", "tags": {"amenity": "shelter", "building": "yes", "shelter_type": "picnic_shelter"}}}, {"type": "Feature", "geometry": {"type": "Polygon", "coordinates": [[[-95.9156033, 36.7556488], [-95.9155965, 36.755601], [-95.9155478, 36.7556054], [-95.9155403, 36.7555529], [-95.915587, 36.7555486], [-95.9155865, 36.7555452], [-95.9156343, 36.7555409], [-95.9156491, 36.7556446], [-95.9156033, 36.7556488]]]}, "properties": {"osm_id": 1380011555, "building": "yes", "name": "", "height": null, "height_m": null, "levels": null, "tract_id": "40147000500", "tract_name": "5", "tags": {"building": "yes"}}}, {"type": "Feature", "geometry": {"type": "Polygon", "coordinates": [[[-95.9153282, 36.7547421], [-95.9153293, 36.7546955], [-95.9152531, 36.7546943], [-95.915252, 36.7547409], [-95.9153282, 36.7547421]]]}, "properties": {"osm_id": 1380034502, "building": "yes", "name": "", "height": null, "height_m": null, "levels": null, "tract_id": "40147000500", "tract_name": "5", "tags": {"building": "yes"}}}, {"type": "Feature", "geometry": {"type": "Polygon", "coordinates": [[[-95.9161278, 36.754278], [-95.9161343, 36.7542472], [-95.9161395, 36.7542225], [-95.9160847, 36.7541909], [-95.9160173, 36.7542125], [-95.9160119, 36.7542657], [-95.9160413, 36.7542831], [-95.9160667, 36.7542981], [-95.9161278, 36.754278]]]}, "properties": {"osm_id": 1380034504, "building": "yes", "name": "", "height": null, "height_m": null, "levels": null, "tract_id": "40147000500", "tract_name": "5", "tags": {"amenity": "shelter", "building": "yes", "shelter_type": "gazebo"}}}, {"type": "Feature", "geometry": {"type": "Polygon", "coordinates": [[[-95.9143861, 36.7544264], [-95.9142709, 36.7542899], [-95.9144022, 36.7542188], [-95.9145173, 36.7543553], [-95.9143861, 36.7544264]]]}, "properties": {"osm_id": 1380034508, "building": "yes", "name": "", "height": null, "height_m": null, "levels": null, "tract_id": "40147000500", "tract_name": "5", "tags": {"amenity": "shelter", "building": "yes", "shelter_type": "picnic_shelter"}}}, {"type": "Feature", "geometry": {"type": "Polygon", "coordinates": [[[-95.914251, 36.7555407], [-95.9141071, 36.7554448], [-95.9138532, 36.7556895], [-95.9139114, 36.7557283], [-95.9137954, 36.7558401], [-95.9138758, 36.7558936], [-95.9139877, 36.7557857], [-95.9140092, 36.7558], [-95.9140558, 36.7557551], [-95.9141066, 36.7557062], [-95.9140903, 36.7556954], [-95.914251, 36.7555407]]]}, "properties": {"osm_id": 1380072191, "building": "yes", "name": "", "height": null, "height_m": null, "levels": null, "tract_id": "40147000500", "tract_name": "5", "tags": {"building": "yes", "golf": "clubhouse"}}}, {"type": "Feature", "geometry": {"type": "Polygon", "coordinates": [[[-95.914398, 36.7554776], [-95.9144884, 36.7552378], [-95.9143821, 36.755212], [-95.9142916, 36.7554518], [-95.914398, 36.7554776]]]}, "properties": {"osm_id": 1380072192, "building": "garage", "name": "", "height": null, "height_m": null, "levels": null, "tract_id": "40147000500", "tract_name": "5", "tags": {"building": "garage"}}}, {"type": "Feature", "geometry": {"type": "Polygon", "coordinates": [[[-95.9169587, 36.7567937], [-95.916633, 36.7567937], [-95.916633, 36.7566624], [-95.9166869, 36.7566624], [-95.9166869, 36.7566577], [-95.9166745, 36.7566577], [-95.9166744, 36.7564935], [-95.9167159, 36.7564935], [-95.9167159, 36.7564623], [-95.9168238, 36.7564622], [-95.9168239, 36.7564913], [-95.9168761, 36.7564912], [-95.9168762, 36.7566598], [-95.9169586, 36.7566598], [-95.9169586, 36.7566988], [-95.916979, 36.7566988], [-95.916979, 36.7567362], [-95.9169586, 36.7567362], [-95.9169587, 36.7567937]]]}, "properties": {"osm_id": 1380326857, "building": "yes", "name": "", "height": null, "height_m": null, "levels": null, "tract_id": "40147000500", "tract_name": "5", "tags": {"amenity": "fire_station", "building": "yes"}}}, {"type": "Feature", "geometry": {"type": "Polygon", "coordinates": [[[-95.9343138, 36.7541145], [-95.9348207, 36.7541183], [-95.9348242, 36.7538151], [-95.9350394, 36.7538167], [-95.9350357, 36.7541376], [-95.9349269, 36.7541368], [-95.934925, 36.7542932], [-95.9343118, 36.7542886], [-95.9343138, 36.7541145]]]}, "properties": {"osm_id": 1391228438, "building": "yes", "name": "", "height": null, "height_m": null, "levels": null, "tract_id": "40147000500", "tract_name": "5", "tags": {"building": "yes"}}}, {"type": "Feature", "geometry": {"type": "Polygon", "coordinates": [[[-95.9343822, 36.7544273], [-95.934382, 36.7545768], [-95.9340447, 36.7545765], [-95.9340458, 36.7534878], [-95.9341681, 36.7534879], [-95.9341668, 36.7544911], [-95.93426, 36.7544912], [-95.93426, 36.7544272], [-95.9343822, 36.7544273]]]}, "properties": {"osm_id": 1391228439, "building": "yes", "name": "", "height": null, "height_m": null, "levels": null, "tract_id": "40147000500", "tract_name": "5", "tags": {"building": "yes"}}}, {"type": "Feature", "geometry": {"type": "Polygon", "coordinates": [[[-95.934475, 36.754531], [-95.9350465, 36.7545335], [-95.9350443, 36.7548454], [-95.9344729, 36.7548428], [-95.934475, 36.754531]]]}, "properties": {"osm_id": 1391228441, "building": "yes", "name": "", "height": null, "height_m": null, "levels": null, "tract_id": "40147000500", "tract_name": "5", "tags": {"building": "yes"}}}, {"type": "Feature", "geometry": {"type": "Polygon", "coordinates": [[[-95.9343556, 36.7445953], [-95.9344739, 36.7445957], [-95.9344736, 36.7446502], [-95.9345924, 36.7446507], [-95.9345918, 36.7447527], [-95.934491, 36.7447523], [-95.9344905, 36.7448361], [-95.9343543, 36.7448357], [-95.9343556, 36.7445953]]]}, "properties": {"osm_id": 1395942220, "building": "yes", "name": "", "height": null, "height_m": null, "levels": null, "tract_id": "40147000500", "tract_name": "5", "tags": {"building": "yes"}}}]}