{"type": "FeatureCollection", "features": [{"type": "Feature", "geometry": {"type": "Polygon", "coordinates": [[[-95.8493312, 36.0376822], [-95.8493314, 36.037764], [-95.8494065, 36.0377639], [-95.8494073, 36.0380822], [-95.8493321, 36.0380823], [-95.8493323, 36.0381564], [-95.8496482, 36.038156], [-95.8496478, 36.0379904], [-95.8496196, 36.0379904], [-95.8496195, 36.0379304], [-95.8495894, 36.0379305], [-95.8495888, 36.0376819], [-95.8494532, 36.0376821], [-95.8494531, 36.0376308], [-95.849544, 36.0376307], [-95.8495435, 36.0373844], [-95.8495652, 36.0373897], [-95.8496789, 36.03719], [-95.849461, 36.0371166], [-95.8493506, 36.0373459], [-95.8493512, 36.0376282], [-95.8494037, 36.0376281], [-95.8494038, 36.0376821], [-95.8493312, 36.0376822]]]}, "properties": {"osm_id": 231403122, "building": "office", "name": "", "height": null, "height_m": null, "levels": null, "tract_id": "40143007518", "tract_name": "75.18", "tags": {"building": "office"}}}, {"type": "Feature", "geometry": {"type": "Polygon", "coordinates": [[[-95.8505542, 36.0455956], [-95.8501438, 36.045599], [-95.8501438, 36.0457102], [-95.8505542, 36.0457085], [-95.8505542, 36.0455956]]]}, "properties": {"osm_id": 363492216, "building": "yes", "name": "QuikTrip", "height": null, "height_m": null, "levels": null, "tract_id": "40143007518", "tract_name": "75.18", "tags": {"brand": "QuikTrip", "brand:wikidata": "Q7271953", "building": "yes", "name": "QuikTrip", "shop": "convenience", "short_name": "QT"}}}, {"type": "Feature", "geometry": {"type": "Polygon", "coordinates": [[[-95.8504888, 36.0460311], [-95.8504888, 36.0458676], [-95.8500624, 36.0458676], [-95.8500595, 36.0460299], [-95.8504888, 36.0460311]]]}, "properties": {"osm_id": 363492286, "building": "yes", "name": "QuikTrip", "height": null, "height_m": null, "levels": null, "tract_id": "40143007518", "tract_name": "75.18", "tags": {"amenity": "fuel", "brand": "QuikTrip", "brand:wikidata": "Q7271953", "building": "yes", "name": "QuikTrip"}}}, {"type": "Feature", "geometry": {"type": "Polygon", "coordinates": [[[-95.8341317, 36.0327247], [-95.8341311, 36.0323655], [-95.8338016, 36.0323659], [-95.8337521, 36.0324083], [-95.8337528, 36.0327252], [-95.8341317, 36.0327247]]]}, "properties": {"osm_id": 363494212, "building": "commercial", "name": "Walgreens", "height": null, "height_m": null, "levels": null, "tract_id": "40143007518", "tract_name": "75.18", "tags": {"addr:city": "Broken Arrow", "addr:housenumber": "3600", "addr:postcode": "74012", "addr:street": "West Washington Street", "brand": "Walgreens", "brand:wikidata": "Q1591889", "building": "commercial", "name": "Walgreens", "phone": "+1 918 252 9297", "ref": "7547", "shop": "chemist", "website": "https://www.walgreens.com/locator/walgreens-3600+w+washington+st-broken+arrow-ok-74012/id=7547"}}}, {"type": "Feature", "geometry": {"type": "Polygon", "coordinates": [[[-95.849937, 36.0409435], [-95.8497593, 36.0413007], [-95.8493176, 36.0411609], [-95.8495001, 36.0407999], [-95.849937, 36.0409435]]]}, "properties": {"osm_id": 363494367, "building": "yes", "name": "YMCA", "height": null, "height_m": null, "levels": null, "tract_id": "40143007518", "tract_name": "75.18", "tags": {"addr:city": "Broken Arrow", "addr:country": "US", "addr:housenumber": "8501", "addr:postcode": "74012", "addr:state": "OK", "addr:street": "South Garnett Road East", "building": "yes", "leisure": "sports_centre", "name": "YMCA"}}}, {"type": "Feature", "geometry": {"type": "Polygon", "coordinates": [[[-95.850677, 36.038741], [-95.8505372, 36.0387416], [-95.8505375, 36.0387838], [-95.8504919, 36.038784], [-95.8504928, 36.038909], [-95.85039, 36.0389094], [-95.8503909, 36.0390307], [-95.8506789, 36.0390294], [-95.850677, 36.038741]]]}, "properties": {"osm_id": 471834659, "building": "yes", "name": "Berkshire Salon and Day Spa", "height": null, "height_m": null, "levels": null, "tract_id": "40143007518", "tract_name": "75.18", "tags": {"building": "yes", "name": "Berkshire Salon and Day Spa"}}}, {"type": "Feature", "geometry": {"type": "Polygon", "coordinates": [[[-95.8416715, 36.0408958], [-95.8416715, 36.0407906], [-95.8415334, 36.0407906], [-95.8415334, 36.0405173], [-95.8414382, 36.0405173], [-95.8414382, 36.0407895], [-95.8412048, 36.0407895], [-95.8412048, 36.0405878], [-95.8410586, 36.0405878], [-95.8410586, 36.0405477], [-95.8408682, 36.0405477], [-95.8408682, 36.0405076], [-95.8407931, 36.0405076], [-95.8407931, 36.0403156], [-95.8408682, 36.0403156], [-95.8408682, 36.04023], [-95.8412048, 36.04023], [-95.8412048, 36.0400153], [-95.8414382, 36.0400153], [-95.8414382, 36.040295], [-95.8415334, 36.040295], [-95.8415334, 36.0400077], [-95.8417748, 36.0400077], [-95.8417748, 36.0402137], [-95.8420537, 36.0402137], [-95.8420537, 36.0405846], [-95.8417748, 36.0405846], [-95.8417748, 36.0406702], [-95.8419384, 36.0406702], [-95.8419384, 36.0408958], [-95.8417909, 36.0408958], [-95.8417909, 36.040911], [-95.8416715, 36.040911], [-95.8416715, 36.0408958]]]}, "properties": {"osm_id": 600426176, "building": "school", "name": "", "height": null, "height_m": null, "levels": null, "tract_id": "40143007518", "tract_name": "75.18", "tags": {"building": "school"}}}, {"type": "Feature", "geometry": {"type": "Polygon", "coordinates": [[[-95.842146, 36.039822], [-95.842307, 36.039822], [-95.842306, 36.039666], [-95.842145, 36.039666], [-95.842146, 36.039822]]]}, "properties": {"osm_id": 828531150, "building": "house", "name": "", "height": null, "height_m": null, "levels": null, "tract_id": "40143007518", "tract_name": "75.18", "tags": {"building": "house", "source": "microsoft/BuildingFootprints"}}}, {"type": "Feature", "geometry": {"type": "Polygon", "coordinates": [[[-95.84194, 36.039658], [-95.84194, 36.039718], [-95.841876, 36.039718], [-95.841875, 36.039821], [-95.841929, 36.039821], [-95.841929, 36.039847], [-95.842039, 36.039847], [-95.842039, 36.039658], [-95.84194, 36.039658]]]}, "properties": {"osm_id": 828531151, "building": "house", "name": "", "height": null, "height_m": null, "levels": null, "tract_id": "40143007518", "tract_name": "75.18", "tags": {"building": "house", "source": "microsoft/BuildingFootprints"}}}, {"type": "Feature", "geometry": {"type": "Polygon", "coordinates": [[[-95.8415361, 36.0397867], [-95.8415352, 36.039679], [-95.8414514, 36.0396794], [-95.8414513, 36.0396645], [-95.841375, 36.0396649], [-95.841376, 36.0397875], [-95.8415361, 36.0397867]]]}, "properties": {"osm_id": 828531152, "building": "house", "name": "", "height": null, "height_m": null, "levels": null, "tract_id": "40143007518", "tract_name": "75.18", "tags": {"building": "house"}}}, {"type": "Feature", "geometry": {"type": "Polygon", "coordinates": [[[-95.8436209, 36.039832], [-95.8436186, 36.0396671], [-95.843516, 36.039668], [-95.8435163, 36.039688], [-95.8434511, 36.0396886], [-95.8434516, 36.0397278], [-95.8434261, 36.039728], [-95.8434269, 36.039786], [-95.8434525, 36.0397858], [-95.8434532, 36.0398335], [-95.8436209, 36.039832]]]}, "properties": {"osm_id": 828531153, "building": "house", "name": "", "height": null, "height_m": null, "levels": null, "tract_id": "40143007518", "tract_name": "75.18", "tags": {"building": "house"}}}, {"type": "Feature", "geometry": {"type": "Polygon", "coordinates": [[[-95.8433529, 36.0397527], [-95.8433535, 36.0396721], [-95.8432895, 36.0396718], [-95.8432895, 36.0396674], [-95.8431838, 36.0396669], [-95.8431826, 36.0398272], [-95.8432329, 36.0398275], [-95.8432328, 36.039834], [-95.8433162, 36.0398344], [-95.8433162, 36.0398249], [-95.8433567, 36.0398251], [-95.843357, 36.0397939], [-95.8433692, 36.039794], [-95.8433695, 36.0397528], [-95.8433529, 36.0397527]]]}, "properties": {"osm_id": 828531154, "building": "house", "name": "", "height": null, "height_m": null, "levels": null, "tract_id": "40143007518", "tract_name": "75.18", "tags": {"building": "house"}}}, {"type": "Feature", "geometry": {"type": "Polygon", "coordinates": [[[-95.8429302, 36.0398316], [-95.8430765, 36.0398319], [-95.8430769, 36.0396734], [-95.8429, 36.0396731], [-95.8428999, 36.0397377], [-95.8429305, 36.0397378], [-95.8429302, 36.0398316]]]}, "properties": {"osm_id": 828531155, "building": "house", "name": "", "height": null, "height_m": null, "levels": null, "tract_id": "40143007518", "tract_name": "75.18", "tags": {"building": "house"}}}, {"type": "Feature", "geometry": {"type": "Polygon", "coordinates": [[[-95.8428427, 36.0398195], [-95.8428412, 36.0396805], [-95.8427779, 36.039681], [-95.842778, 36.0396903], [-95.8427489, 36.0396905], [-95.8427486, 36.0396634], [-95.8426797, 36.0396639], [-95.8426798, 36.0396687], [-95.842648, 36.0396689], [-95.8426486, 36.0397323], [-95.8426803, 36.039732], [-95.8426814, 36.0398317], [-95.8428032, 36.0398309], [-95.842803, 36.0398198], [-95.8428427, 36.0398195]]]}, "properties": {"osm_id": 828531156, "building": "house", "name": "", "height": null, "height_m": null, "levels": null, "tract_id": "40143007518", "tract_name": "75.18", "tags": {"building": "house"}}}, {"type": "Feature", "geometry": {"type": "Polygon", "coordinates": [[[-95.8438357, 36.0398387], [-95.8438361, 36.0397321], [-95.8438756, 36.0397322], [-95.8438759, 36.0396721], [-95.843767, 36.0396719], [-95.843767, 36.0396818], [-95.8437165, 36.0396816], [-95.8437165, 36.0396673], [-95.843675, 36.0396671], [-95.8436743, 36.0398382], [-95.8438357, 36.0398387]]]}, "properties": {"osm_id": 828531157, "building": "house", "name": "", "height": null, "height_m": null, "levels": null, "tract_id": "40143007518", "tract_name": "75.18", "tags": {"building": "house"}}}, {"type": "Feature", "geometry": {"type": "Polygon", "coordinates": [[[-95.8417113, 36.0396944], [-95.8416454, 36.0396942], [-95.8416451, 36.0398017], [-95.8417937, 36.039802], [-95.8417941, 36.0396633], [-95.8417114, 36.0396632], [-95.8417113, 36.0396944]]]}, "properties": {"osm_id": 828531495, "building": "house", "name": "", "height": null, "height_m": null, "levels": null, "tract_id": "40143007518", "tract_name": "75.18", "tags": {"building": "house"}}}, {"type": "Feature", "geometry": {"type": "Polygon", "coordinates": [[[-95.8425898, 36.0398261], [-95.8425914, 36.0396786], [-95.842539, 36.0396783], [-95.8425389, 36.0396898], [-95.8424932, 36.0396895], [-95.8424935, 36.0396626], [-95.8424215, 36.0396621], [-95.8424214, 36.0396689], [-95.8423843, 36.0396686], [-95.8423836, 36.0397351], [-95.8424221, 36.0397354], [-95.8424211, 36.0398267], [-95.8424755, 36.0398271], [-95.8424753, 36.0398432], [-95.8425266, 36.0398436], [-95.8425268, 36.0398256], [-95.8425898, 36.0398261]]]}, "properties": {"osm_id": 828531496, "building": "house", "name": "", "height": null, "height_m": null, "levels": null, "tract_id": "40143007518", "tract_name": "75.18", "tags": {"building": "house"}}}, {"type": "Feature", "geometry": {"type": "Polygon", "coordinates": [[[-95.8484599, 36.0329435], [-95.848412, 36.0329474], [-95.8483842, 36.0329187], [-95.8483966, 36.0328815], [-95.8484436, 36.0328769], [-95.8484771, 36.0329071], [-95.8484599, 36.0329435]]]}, "properties": {"osm_id": 846527382, "building": "yes", "name": "", "height": null, "height_m": null, "levels": null, "tract_id": "40143007518", "tract_name": "75.18", "tags": {"amenity": "shelter", "building": "yes"}}}, {"type": "Feature", "geometry": {"type": "Polygon", "coordinates": [[[-95.8483213, 36.032795], [-95.848322, 36.0327683], [-95.848266, 36.0327674], [-95.8482652, 36.0327941], [-95.8483213, 36.032795]]]}, "properties": {"osm_id": 846527383, "building": "yes", "name": "", "height": null, "height_m": null, "levels": null, "tract_id": "40143007518", "tract_name": "75.18", "tags": {"amenity": "toilets", "building": "yes", "fee": "no", "layer": "1"}}}, {"type": "Feature", "geometry": {"type": "Polygon", "coordinates": [[[-95.8477718, 36.0323107], [-95.8477668, 36.0322425], [-95.8477065, 36.0322454], [-95.8477115, 36.0323136], [-95.8477718, 36.0323107]]]}, "properties": {"osm_id": 846527384, "building": "yes", "name": "", "height": null, "height_m": null, "levels": null, "tract_id": "40143007518", "tract_name": "75.18", "tags": {"amenity": "shelter", "building": "yes", "layer": "1"}}}, {"type": "Feature", "geometry": {"type": "Polygon", "coordinates": [[[-95.8489076, 36.0360689], [-95.848905, 36.0359008], [-95.8491218, 36.0358979], [-95.8491226, 36.0360697], [-95.8489076, 36.0360689]]]}, "properties": {"osm_id": 973606175, "building": "church", "name": "Saint Michaels Anglican Church", "height": null, "height_m": null, "levels": null, "tract_id": "40143007518", "tract_name": "75.18", "tags": {"addr:city": "Broken Arrow", "addr:country": "US", "addr:housenumber": "8837", "addr:postcode": "74012", "addr:state": "OK", "addr:street": "South Garnett Road East", "amenity": "place_of_worship", "building": "church", "denomination": "anglican", "ele": "201", "gnis:feature_id": "1782619", "name": "Saint Michaels Anglican Church", "religion": "christian"}}}, {"type": "Feature", "geometry": {"type": "Polygon", "coordinates": [[[-95.8493897, 36.0356376], [-95.8493007, 36.0356376], [-95.8493007, 36.0356723], [-95.8493897, 36.0356723], [-95.8493897, 36.0356376]]]}, "properties": {"osm_id": 973606177, "building": "yes", "name": "", "height": null, "height_m": null, "levels": null, "tract_id": "40143007518", "tract_name": "75.18", "tags": {"building": "yes"}}}, {"type": "Feature", "geometry": {"type": "Polygon", "coordinates": [[[-95.8506778, 36.0350598], [-95.8502328, 36.035059], [-95.850231, 36.035298], [-95.850677, 36.0353002], [-95.8506778, 36.0350598]]]}, "properties": {"osm_id": 1012157992, "building": "yes", "name": "", "height": null, "height_m": null, "levels": null, "tract_id": "40143007518", "tract_name": "75.18", "tags": {"addr:city": "Broken Arrow", "addr:country": "US", "addr:housenumber": "4716", "addr:postcode": "74012", "addr:state": "OK", "addr:street": "West Urbana Street", "building": "yes", "note": "Access Pain Solutions moved out of here. They're now 4 miles north of here."}}}, {"type": "Feature", "geometry": {"type": "Polygon", "coordinates": [[[-95.8495585, 36.045319], [-95.8489342, 36.045319], [-95.848719, 36.045319], [-95.8487216, 36.0448831], [-95.8488758, 36.0448821], [-95.8488765, 36.0448043], [-95.849133, 36.0448033], [-95.8491347, 36.0448804], [-95.8495558, 36.0448777], [-95.8495585, 36.045319]]]}, "properties": {"osm_id": 1016647412, "building": "retail", "name": "Walmart Neighborhood Market", "height": null, "height_m": null, "levels": null, "tract_id": "40143007518", "tract_name": "75.18", "tags": {"addr:city": "Broken Arrow", "addr:country": "US", "addr:housenumber": "4851", "addr:postcode": "74012", "addr:state": "OK", "addr:street": "West Houston Street", "brand": "Walmart", "brand:wikidata": "Q483551", "building": "retail", "name": "Walmart Neighborhood Market", "opening_hours": "Mo-Su 06:00-24:00", "operator": "Walmart", "payment:app:walmart": "yes", "payment:apple_pay": "no", "payment:google_pay": "no", "payment:samsung_pay": "no", "phone": "+1 918-505-6090", "ref": "6942", "ref:walmart": "6942", "sensory_friendly:accommodation": "dimmed_light;static_screens;no_pa", "sensory_friendly:conditional": "yes @ 08:00-10:00", "shop": "supermarket", "website": "https://www.walmart.com/store/6942-broken-arrow-ok"}}}, {"type": "Feature", "geometry": {"type": "Polygon", "coordinates": [[[-95.8497974, 36.0390292], [-95.8494337, 36.0390299], [-95.8494302, 36.0388897], [-95.8497257, 36.0388875], [-95.8497877, 36.0388339], [-95.8498602, 36.0388897], [-95.8497974, 36.0389405], [-95.8497974, 36.0390292]]]}, "properties": {"osm_id": 1016695185, "building": "yes", "name": "", "height": null, "height_m": null, "levels": null, "tract_id": "40143007518", "tract_name": "75.18", "tags": {"building": "yes"}}}, {"type": "Feature", "geometry": {"type": "Polygon", "coordinates": [[[-95.8504307, 36.0382436], [-95.8504267, 36.0379577], [-95.8506183, 36.037956], [-95.850622, 36.0382245], [-95.8505074, 36.0382255], [-95.8505076, 36.0382429], [-95.8504307, 36.0382436]]]}, "properties": {"osm_id": 1016695186, "building": "yes", "name": "", "height": null, "height_m": null, "levels": null, "tract_id": "40143007518", "tract_name": "75.18", "tags": {"addr:city": "Broken Arrow", "addr:country": "US", "addr:housenumber": "8701", "addr:postcode": "74012", "addr:state": "OK", "addr:street": "South Garnett Road East", "building": "yes"}}}, {"type": "Feature", "geometry": {"type": "Polygon", "coordinates": [[[-95.8505808, 36.0378313], [-95.8505813, 36.0376561], [-95.8506639, 36.0376563], [-95.8506643, 36.0375332], [-95.8503964, 36.0375326], [-95.8503962, 36.0376143], [-95.8502516, 36.037614], [-95.8502516, 36.0376405], [-95.850175, 36.0376404], [-95.8501746, 36.0377567], [-95.8504128, 36.0377571], [-95.8504127, 36.0377962], [-95.8504268, 36.0377963], [-95.8504267, 36.037831], [-95.8505808, 36.0378313]]]}, "properties": {"osm_id": 1016695187, "building": "yes", "name": "", "height": null, "height_m": null, "levels": null, "tract_id": "40143007518", "tract_name": "75.18", "tags": {"building": "yes"}}}, {"type": "Feature", "geometry": {"type": "Polygon", "coordinates": [[[-95.8495398, 36.0386553], [-95.8495375, 36.0384849], [-95.8493595, 36.0384868], [-95.8493606, 36.0386581], [-95.8495398, 36.0386553]]]}, "properties": {"osm_id": 1016695207, "building": "yes", "name": "", "height": null, "height_m": null, "levels": null, "tract_id": "40143007518", "tract_name": "75.18", "tags": {"building": "yes"}}}, {"type": "Feature", "geometry": {"type": "Polygon", "coordinates": [[[-95.8494334, 36.0346965], [-95.8494316, 36.0344104], [-95.8495964, 36.0344097], [-95.8495979, 36.0346394], [-95.8495273, 36.0346397], [-95.8495277, 36.0346961], [-95.8494334, 36.0346965]]]}, "properties": {"osm_id": 1016740016, "building": "yes", "name": "", "height": null, "height_m": null, "levels": null, "tract_id": "40143007518", "tract_name": "75.18", "tags": {"building": "yes"}}}, {"type": "Feature", "geometry": {"type": "Polygon", "coordinates": [[[-95.8493723, 36.034776], [-95.8493716, 36.0344183], [-95.849239, 36.0344184], [-95.8492391, 36.0344771], [-95.8492115, 36.0344772], [-95.8492119, 36.0347153], [-95.8492417, 36.0347153], [-95.8492418, 36.0347761], [-95.8493723, 36.034776]]]}, "properties": {"osm_id": 1016740017, "building": "yes", "name": "", "height": null, "height_m": null, "levels": null, "tract_id": "40143007518", "tract_name": "75.18", "tags": {"building": "yes"}}}, {"type": "Feature", "geometry": {"type": "Polygon", "coordinates": [[[-95.8506047, 36.0346822], [-95.8501913, 36.0346855], [-95.8501893, 36.0345212], [-95.8504027, 36.0345195], [-95.8504029, 36.0345387], [-95.8504636, 36.0345382], [-95.8504639, 36.0345622], [-95.8506032, 36.0345611], [-95.8506047, 36.0346822]]]}, "properties": {"osm_id": 1016740024, "building": "yes", "name": "", "height": null, "height_m": null, "levels": null, "tract_id": "40143007518", "tract_name": "75.18", "tags": {"building": "yes"}}}, {"type": "Feature", "geometry": {"type": "Polygon", "coordinates": [[[-95.8506569, 36.034191], [-95.8504511, 36.0341913], [-95.8504508, 36.0340948], [-95.8505223, 36.0340947], [-95.8505223, 36.0341094], [-95.8506567, 36.0341091], [-95.8506569, 36.034191]]]}, "properties": {"osm_id": 1016740030, "building": "yes", "name": "", "height": null, "height_m": null, "levels": null, "tract_id": "40143007518", "tract_name": "75.18", "tags": {"building": "yes"}}}, {"type": "Feature", "geometry": {"type": "Polygon", "coordinates": [[[-95.8501864, 36.0338071], [-95.8501874, 36.033929], [-95.8503281, 36.0339282], [-95.8503285, 36.0339769], [-95.8504287, 36.0339764], [-95.8504289, 36.0339978], [-95.8505676, 36.033997], [-95.8505669, 36.0339123], [-95.8505875, 36.0339122], [-95.850587, 36.0338552], [-95.8505456, 36.0338554], [-95.8505449, 36.0337709], [-95.8503834, 36.0337718], [-95.8503837, 36.033806], [-95.8501864, 36.0338071]]]}, "properties": {"osm_id": 1016740031, "building": "yes", "name": "Strength of Mind - Behavioral Health", "height": null, "height_m": null, "levels": null, "tract_id": "40143007518", "tract_name": "75.18", "tags": {"addr:city": "Broken Arrow", "addr:country": "US", "addr:housenumber": "8937", "addr:postcode": "74012", "addr:state": "OK", "addr:street": "South Garnett Road East", "building": "yes", "healthcare": "psychotherapist", "healthcare:speciality": "psychotherapy", "name": "Strength of Mind - Behavioral Health", "operator": "Strength of Mind", "phone": "+1-918-872-9777"}}}, {"type": "Feature", "geometry": {"type": "Polygon", "coordinates": [[[-95.8487346, 36.0338715], [-95.8487369, 36.0340913], [-95.8487693, 36.0340911], [-95.8487699, 36.0341427], [-95.8488931, 36.0341418], [-95.8488919, 36.0340274], [-95.8489125, 36.0340273], [-95.8489117, 36.0339458], [-95.848921, 36.0339457], [-95.8489196, 36.0338182], [-95.8488251, 36.0338189], [-95.8488257, 36.0338709], [-95.8487346, 36.0338715]]]}, "properties": {"osm_id": 1016740035, "building": "yes", "name": "", "height": null, "height_m": null, "levels": null, "tract_id": "40143007518", "tract_name": "75.18", "tags": {"building": "yes"}}}, {"type": "Feature", "geometry": {"type": "Polygon", "coordinates": [[[-95.8498925, 36.0352487], [-95.8497069, 36.0352479], [-95.8497081, 36.0350719], [-95.8498032, 36.0350723], [-95.8498032, 36.0350642], [-95.8499113, 36.0350647], [-95.8499106, 36.0351684], [-95.849893, 36.0351683], [-95.8498925, 36.0352487]]]}, "properties": {"osm_id": 1016740036, "building": "yes", "name": "", "height": null, "height_m": null, "levels": null, "tract_id": "40143007518", "tract_name": "75.18", "tags": {"building": "yes"}}}, {"type": "Feature", "geometry": {"type": "Polygon", "coordinates": [[[-95.8483798, 36.0347612], [-95.8485169, 36.0349047], [-95.8485292, 36.034897], [-95.8486081, 36.0349795], [-95.8487644, 36.0348819], [-95.8485356, 36.0346424], [-95.8483872, 36.0347351], [-95.8484001, 36.0347485], [-95.8483798, 36.0347612]]]}, "properties": {"osm_id": 1016740052, "building": "yes", "name": "", "height": null, "height_m": null, "levels": null, "tract_id": "40143007518", "tract_name": "75.18", "tags": {"building": "yes"}}}, {"type": "Feature", "geometry": {"type": "Polygon", "coordinates": [[[-95.8505272, 36.0324401], [-95.8502923, 36.0324418], [-95.8502861, 36.0322552], [-95.8504461, 36.032262], [-95.8504877, 36.03223], [-95.8505397, 36.0322754], [-95.8505022, 36.0323023], [-95.8505313, 36.0323225], [-95.8505272, 36.0324401]]]}, "properties": {"osm_id": 1424190520, "building": "yes", "name": "Energy One Credit Union", "height": null, "height_m": null, "levels": null, "tract_id": "40143007518", "tract_name": "75.18", "tags": {"addr:city": "Broken Arrow", "addr:housenumber": "4912", "addr:postcode": "74012", "addr:state": "OK", "addr:street": "West Washington Street", "amenity": "bank", "atm": "yes", "building": "yes", "drive_through": "yes", "name": "Energy One Credit Union", "opening_hours": "Mo-Th 09:00-17:00; Fr 09:00-18:00; Sa 09:00-13:00", "opening_hours:atm": "24/7", "opening_hours:drive_through": "Mo-Fr 08:00-18:00; Sa 09:00-13:00", "website": "https://energyone.org/"}}}]}