{"type": "FeatureCollection", "features": [{"type": "Feature", "geometry": {"type": "Polygon", "coordinates": [[[-96.8054079, 36.3365452], [-96.8051339, 36.3365513], [-96.8051309, 36.3364617], [-96.805164, 36.336461], [-96.8051563, 36.3362333], [-96.8050135, 36.3362365], [-96.8050092, 36.33611], [-96.805152, 36.3361068], [-96.8051445, 36.3358864], [-96.8049566, 36.3358905], [-96.8049507, 36.3357168], [-96.8050928, 36.3357136], [-96.8050946, 36.3357655], [-96.8051281, 36.3357647], [-96.8051287, 36.3357826], [-96.8053808, 36.335777], [-96.8053841, 36.3358712], [-96.8053595, 36.3358718], [-96.8053681, 36.3361254], [-96.8053878, 36.336125], [-96.8053906, 36.3362045], [-96.8053708, 36.3362049], [-96.8053794, 36.3364583], [-96.8054049, 36.3364577], [-96.8054079, 36.3365452]]]}, "properties": {"osm_id": 203838110, "building": "school", "name": "", "height": null, "height_m": null, "levels": null, "tract_id": "40117957500", "tract_name": "9575", "tags": {"building": "school"}}}, {"type": "Feature", "geometry": {"type": "Polygon", "coordinates": [[[-96.8046803, 36.3371362], [-96.8046618, 36.3368118], [-96.8048622, 36.3368044], [-96.8048807, 36.3371287], [-96.8046803, 36.3371362]]]}, "properties": {"osm_id": 203838111, "building": "school", "name": "", "height": null, "height_m": null, "levels": null, "tract_id": "40117957500", "tract_name": "9575", "tags": {"building": "school"}}}, {"type": "Feature", "geometry": {"type": "Polygon", "coordinates": [[[-96.8045368, 36.3362851], [-96.8043013, 36.3362889], [-96.8042912, 36.335887], [-96.8045268, 36.3358832], [-96.8045368, 36.3362851]]]}, "properties": {"osm_id": 203838112, "building": "school", "name": "", "height": null, "height_m": null, "levels": null, "tract_id": "40117957500", "tract_name": "9575", "tags": {"building": "school"}}}, {"type": "Feature", "geometry": {"type": "Polygon", "coordinates": [[[-96.8052736, 36.3368428], [-96.8049762, 36.3368496], [-96.8049848, 36.3370181], [-96.8052784, 36.3370145], [-96.8052736, 36.3368428]]]}, "properties": {"osm_id": 203838113, "building": "school", "name": "", "height": null, "height_m": null, "levels": null, "tract_id": "40117957500", "tract_name": "9575", "tags": {"building": "school"}}}, {"type": "Feature", "geometry": {"type": "Polygon", "coordinates": [[[-96.8048889, 36.335961], [-96.80473, 36.335961], [-96.80473, 36.3358426], [-96.804569, 36.3358426], [-96.804569, 36.3357373], [-96.80473, 36.3357373], [-96.80473, 36.3356871], [-96.8048889, 36.3356871], [-96.8048889, 36.335961]]]}, "properties": {"osm_id": 203838114, "building": "school", "name": "", "height": null, "height_m": null, "levels": null, "tract_id": "40117957500", "tract_name": "9575", "tags": {"building": "school"}}}, {"type": "Feature", "geometry": {"type": "Polygon", "coordinates": [[[-96.7913179, 36.335317], [-96.7913156, 36.3351023], [-96.7916551, 36.3350999], [-96.7916568, 36.335258], [-96.7915923, 36.3352585], [-96.7915927, 36.3353], [-96.7915282, 36.3353005], [-96.7915277, 36.33526], [-96.7914442, 36.3352606], [-96.7914448, 36.3353161], [-96.7913179, 36.335317]]]}, "properties": {"osm_id": 232723029, "building": "yes", "name": "Albin Leadingfox Hall", "height": null, "height_m": null, "levels": null, "tract_id": "40117957500", "tract_name": "9575", "tags": {"addr:city": "Pawnee", "addr:country": "US", "addr:housenumber": "861", "addr:postcode": "74058", "addr:street": "Little D Street", "amenity": "public_building", "building": "yes", "name": "Albin Leadingfox Hall", "operator": "Pawnee Nation"}}}, {"type": "Feature", "geometry": {"type": "Polygon", "coordinates": [[[-96.7907366, 36.3348796], [-96.790734, 36.3346836], [-96.7909527, 36.3346817], [-96.7909534, 36.3347415], [-96.7908597, 36.3347423], [-96.7908602, 36.3347765], [-96.7910572, 36.3347748], [-96.791056, 36.3346808], [-96.7911779, 36.3346798], [-96.7911805, 36.3348758], [-96.7907366, 36.3348796]]]}, "properties": {"osm_id": 232723037, "building": "yes", "name": "Pawnee Administration Center", "height": null, "height_m": null, "levels": null, "tract_id": "40117957500", "tract_name": "9575", "tags": {"addr:city": "Pawnee", "addr:country": "US", "addr:housenumber": "881", "addr:postcode": "74058", "addr:street": "Little D Street", "amenity": "public_building", "building": "yes", "name": "Pawnee Administration Center", "operator": "Pawnee Nation"}}}, {"type": "Feature", "geometry": {"type": "Polygon", "coordinates": [[[-96.7898155, 36.3362707], [-96.7898092, 36.3360986], [-96.7898914, 36.3360966], [-96.7898945, 36.336184], [-96.7899943, 36.3361816], [-96.7899974, 36.3362664], [-96.7898155, 36.3362707]]]}, "properties": {"osm_id": 232723038, "building": "yes", "name": "Pawnee Tribal Court House", "height": null, "height_m": null, "levels": null, "tract_id": "40117957500", "tract_name": "9575", "tags": {"addr:city": "Pawnee", "addr:country": "US", "addr:housenumber": "700", "addr:postcode": "74058", "addr:street": "Agency Road", "amenity": "courthouse", "building": "yes", "name": "Pawnee Tribal Court House", "operator": "Pawnee Nation Police Department"}}}, {"type": "Feature", "geometry": {"type": "Polygon", "coordinates": [[[-96.7913166, 36.3350749], [-96.7913138, 36.3348643], [-96.7914162, 36.3348635], [-96.791419, 36.335074], [-96.7913166, 36.3350749]]]}, "properties": {"osm_id": 232723039, "building": "yes", "name": "Pawnee Tribal Development Corporation", "height": null, "height_m": null, "levels": null, "tract_id": "40117957500", "tract_name": "9575", "tags": {"addr:city": "Pawnee", "addr:country": "US", "addr:housenumber": "871", "addr:postcode": "74058", "addr:street": "Little D Street", "amenity": "public_building", "building": "yes", "name": "Pawnee Tribal Development Corporation", "operator": "Pawnee Nation"}}}, {"type": "Feature", "geometry": {"type": "Polygon", "coordinates": [[[-96.7903755, 36.3347177], [-96.7905213, 36.3347153], [-96.7905255, 36.3348827], [-96.7903797, 36.3348851], [-96.7903755, 36.3347177]]]}, "properties": {"osm_id": 232723040, "building": "yes", "name": "Staff Quarters Administration", "height": null, "height_m": null, "levels": null, "tract_id": "40117957500", "tract_name": "9575", "tags": {"addr:city": "Pawnee", "addr:country": "US", "addr:housenumber": "891", "addr:postcode": "74058", "addr:street": "Little D Street", "amenity": "public_building", "building": "yes", "name": "Staff Quarters Administration", "operator": "Pawnee Nation"}}}, {"type": "Feature", "geometry": {"type": "Polygon", "coordinates": [[[-96.7909644, 36.3357054], [-96.7909625, 36.3355309], [-96.7911509, 36.3355296], [-96.7911518, 36.3356084], [-96.7911739, 36.3356083], [-96.7911736, 36.3355789], [-96.791263, 36.3355783], [-96.7912641, 36.3356772], [-96.7911711, 36.3356779], [-96.7911707, 36.3356417], [-96.7911538, 36.3356419], [-96.7911545, 36.335704], [-96.7909644, 36.3357054]]]}, "properties": {"osm_id": 232723041, "building": "yes", "name": "", "height": null, "height_m": null, "levels": null, "tract_id": "40117957500", "tract_name": "9575", "tags": {"abandoned": "yes", "addr:city": "Pawnee", "addr:country": "US", "addr:postcode": "74058", "addr:street": "Little D Street", "amenity": "public_building", "building": "yes", "operator": "Pawnee Nation"}}}, {"type": "Feature", "geometry": {"type": "Polygon", "coordinates": [[[-96.7931889, 36.3377254], [-96.7931931, 36.3378593], [-96.793059, 36.3378614], [-96.793055, 36.3377017], [-96.7931883, 36.3376996], [-96.7931889, 36.3377254]]]}, "properties": {"osm_id": 247781759, "building": "yes", "name": "Pawnee Nation Police and Fire Station", "height": null, "height_m": null, "levels": null, "tract_id": "40117957500", "tract_name": "9575", "tags": {"addr:city": "Pawnee", "addr:country": "US", "addr:housenumber": "301", "addr:postcode": "74056", "addr:street": "Agency Road", "amenity": "fire_station", "building": "yes", "name": "Pawnee Nation Police and Fire Station"}}}, {"type": "Feature", "geometry": {"type": "Polygon", "coordinates": [[[-96.7931889, 36.3377254], [-96.7934257, 36.3377216], [-96.793428, 36.3378164], [-96.7934067, 36.3378167], [-96.7934077, 36.3378558], [-96.7931931, 36.3378593], [-96.7931889, 36.3377254]]]}, "properties": {"osm_id": 247781760, "building": "yes", "name": "Pawnee Nation Police and Fire Station", "height": null, "height_m": null, "levels": null, "tract_id": "40117957500", "tract_name": "9575", "tags": {"addr:city": "Pawnee", "addr:country": "US", "addr:housenumber": "301", "addr:postcode": "74056", "addr:street": "Agency Road", "amenity": "police", "building": "yes", "name": "Pawnee Nation Police and Fire Station"}}}, {"type": "Feature", "geometry": {"type": "Polygon", "coordinates": [[[-96.794075, 36.3378722], [-96.7939398, 36.3378732], [-96.7939391, 36.3378095], [-96.7940743, 36.3378085], [-96.794075, 36.3378722]]]}, "properties": {"osm_id": 247781761, "building": "roof", "name": "Pawnee Trading Post and Casino", "height": null, "height_m": null, "levels": null, "tract_id": "40117957500", "tract_name": "9575", "tags": {"addr:city": "Pawnee", "addr:country": "US", "addr:housenumber": "291", "addr:postcode": "74056", "addr:street": "Agency Road", "amenity": "fuel", "brand": "Phillips 66", "brand:wikidata": "Q1656230", "building": "roof", "name": "Pawnee Trading Post and Casino", "operator": "Pawnee Nation", "website": "https://www.phillips66gas.com/station/P66-PAWNEE-TRADING-POST-0000901245/"}}}, {"type": "Feature", "geometry": {"type": "Polygon", "coordinates": [[[-96.7939086, 36.3375495], [-96.7939074, 36.3374754], [-96.7939572, 36.3374748], [-96.7939565, 36.3374304], [-96.7937789, 36.3374324], [-96.7937796, 36.3374768], [-96.7938211, 36.3374763], [-96.7938224, 36.3375516], [-96.7938197, 36.3375526], [-96.7938081, 36.3375581], [-96.7937975, 36.3375648], [-96.793788, 36.3375725], [-96.7937797, 36.3375811], [-96.7937729, 36.3375904], [-96.7937676, 36.3376004], [-96.7937639, 36.3376108], [-96.7937618, 36.3376215], [-96.7937614, 36.3376323], [-96.7937627, 36.3376431], [-96.7937657, 36.3376537], [-96.7937702, 36.3376639], [-96.7937764, 36.3376735], [-96.793784, 36.3376825], [-96.7937929, 36.3376906], [-96.793803, 36.3376978], [-96.7938067, 36.3376997], [-96.7938076, 36.3377536], [-96.7939328, 36.3377522], [-96.7939319, 36.3376989], [-96.7939396, 36.3376941], [-96.7939491, 36.3376864], [-96.7939573, 36.3376778], [-96.7939641, 36.3376685], [-96.7939694, 36.3376585], [-96.7939732, 36.3376481], [-96.7939752, 36.3376374], [-96.7939756, 36.3376265], [-96.7939743, 36.3376157], [-96.7939714, 36.3376052], [-96.7939668, 36.337595], [-96.7939607, 36.3375853], [-96.7939531, 36.3375764], [-96.7939441, 36.3375683], [-96.793934, 36.3375611], [-96.7939229, 36.337555], [-96.7939109, 36.3375501], [-96.7939086, 36.3375495]]]}, "properties": {"osm_id": 247781762, "building": "yes", "name": "Pawnee Trading Post and Casino", "height": null, "height_m": null, "levels": null, "tract_id": "40117957500", "tract_name": "9575", "tags": {"addr:city": "Pawnee", "addr:country": "US", "addr:housenumber": "291", "addr:postcode": "74056", "addr:street": "Agency Road", "amenity": "casino", "building": "yes", "name": "Pawnee Trading Post and Casino", "operator": "Pawnee Nation", "shop": "convenience"}}}, {"type": "Feature", "geometry": {"type": "Polygon", "coordinates": [[[-96.7899239, 36.3356514], [-96.7899191, 36.3354602], [-96.7897202, 36.3354634], [-96.7897163, 36.3353045], [-96.7899151, 36.3353012], [-96.7899104, 36.3351135], [-96.7901662, 36.3351093], [-96.7901679, 36.3351803], [-96.7901279, 36.335181], [-96.7901319, 36.3353373], [-96.7901631, 36.3353368], [-96.7901651, 36.3354199], [-96.7901339, 36.3354204], [-96.7901376, 36.3355691], [-96.7901776, 36.3355684], [-96.7901796, 36.3356473], [-96.7899239, 36.3356514]]]}, "properties": {"osm_id": 248131855, "building": "yes", "name": "Pawnee Agency", "height": null, "height_m": null, "levels": null, "tract_id": "40117957500", "tract_name": "9575", "tags": {"addr:city": "Pawnee", "addr:country": "US", "addr:housenumber": "850", "addr:postcode": "74056", "addr:street": "Agency Road", "amenity": "public_building", "building": "yes", "name": "Pawnee Agency", "operator": "United States Bureau of Indian Affairs"}}}, {"type": "Feature", "geometry": {"type": "Polygon", "coordinates": [[[-96.8011919, 36.3378151], [-96.80119, 36.3377248], [-96.8012189, 36.3377244], [-96.8012156, 36.3375729], [-96.8011555, 36.3375738], [-96.8011535, 36.3374803], [-96.8010584, 36.3374816], [-96.8010628, 36.3376798], [-96.8010751, 36.3376796], [-96.8010781, 36.3378166], [-96.8011919, 36.3378151]]]}, "properties": {"osm_id": 260191364, "building": "yes", "name": "Click's Steakhouse", "height": null, "height_m": null, "levels": null, "tract_id": "40117957500", "tract_name": "9575", "tags": {"addr:city": "Pawnee", "addr:housenumber": "409", "addr:postcode": "74058", "addr:street": "Harrison Street", "amenity": "restaurant", "building": "yes", "capacity": "200", "cuisine": "steak_house", "name": "Click's Steakhouse", "phone": "918-762-2231", "website": "https://www.clickssteakhouse.com/"}}}, {"type": "Feature", "geometry": {"type": "Polygon", "coordinates": [[[-96.8030199, 36.3386275], [-96.8026706, 36.3386328], [-96.8026658, 36.3384286], [-96.8030152, 36.3384233], [-96.8030199, 36.3386275]]]}, "properties": {"osm_id": 260191365, "building": "yes", "name": "Pawnee County Courthouse", "height": null, "height_m": null, "levels": null, "tract_id": "40117957500", "tract_name": "9575", "tags": {"amenity": "courthouse", "building": "yes", "name": "Pawnee County Courthouse", "wikidata": "Q19987475"}}}, {"type": "Feature", "geometry": {"type": "Polygon", "coordinates": [[[-96.8029579, 36.3377941], [-96.802911, 36.3377575], [-96.802915, 36.3377488], [-96.8027517, 36.3376213], [-96.8029243, 36.337478], [-96.8030839, 36.3376026], [-96.803096, 36.3375926], [-96.8031453, 36.3376311], [-96.8031054, 36.3376642], [-96.8030974, 36.3376579], [-96.8029907, 36.3377467], [-96.8030032, 36.3377564], [-96.8029579, 36.3377941]]]}, "properties": {"osm_id": 260191366, "building": "yes", "name": "", "height": null, "height_m": null, "levels": null, "tract_id": "40117957500", "tract_name": "9575", "tags": {"amenity": "bank", "building": "yes"}}}, {"type": "Feature", "geometry": {"type": "Polygon", "coordinates": [[[-96.8046671, 36.3381491], [-96.8046304, 36.3381516], [-96.8041971, 36.3381552], [-96.8041957, 36.3380924], [-96.8042105, 36.3380794], [-96.8046656, 36.3380736], [-96.8046671, 36.3381491]]]}, "properties": {"osm_id": 260191367, "building": "yes", "name": "", "height": null, "height_m": null, "levels": null, "tract_id": "40117957500", "tract_name": "9575", "tags": {"building": "yes"}}}, {"type": "Feature", "geometry": {"type": "Polygon", "coordinates": [[[-96.8041971, 36.3381552], [-96.8041984, 36.3382343], [-96.8044575, 36.338232], [-96.8044572, 36.3382069], [-96.8046311, 36.3382054], [-96.8046304, 36.3381516], [-96.8041971, 36.3381552]]]}, "properties": {"osm_id": 260191368, "building": "yes", "name": "", "height": null, "height_m": null, "levels": null, "tract_id": "40117957500", "tract_name": "9575", "tags": {"building": "yes"}}}, {"type": "Feature", "geometry": {"type": "Polygon", "coordinates": [[[-96.8011919, 36.3378151], [-96.80119, 36.3377248], [-96.8012189, 36.3377244], [-96.8013313, 36.3377228], [-96.8013329, 36.3378133], [-96.8011919, 36.3378151]]]}, "properties": {"osm_id": 260191369, "building": "yes", "name": "", "height": null, "height_m": null, "levels": null, "tract_id": "40117957500", "tract_name": "9575", "tags": {"building": "yes"}}}, {"type": "Feature", "geometry": {"type": "Polygon", "coordinates": [[[-96.8013329, 36.3378133], [-96.8013313, 36.3377228], [-96.8013258, 36.3374141], [-96.8014969, 36.3374121], [-96.8014979, 36.337452], [-96.801504, 36.3378113], [-96.8013329, 36.3378133]]]}, "properties": {"osm_id": 260191370, "building": "yes", "name": "", "height": null, "height_m": null, "levels": null, "tract_id": "40117957500", "tract_name": "9575", "tags": {"building": "yes"}}}, {"type": "Feature", "geometry": {"type": "Polygon", "coordinates": [[[-96.801504, 36.3378113], [-96.8015819, 36.3377953], [-96.8015761, 36.3374511], [-96.8014979, 36.337452], [-96.801504, 36.3378113]]]}, "properties": {"osm_id": 260191371, "building": "yes", "name": "", "height": null, "height_m": null, "levels": null, "tract_id": "40117957500", "tract_name": "9575", "tags": {"building": "yes"}}}, {"type": "Feature", "geometry": {"type": "Polygon", "coordinates": [[[-96.8015819, 36.3377953], [-96.8015822, 36.3378102], [-96.8017128, 36.3378088], [-96.801712, 36.3377596], [-96.8017478, 36.3377592], [-96.8017421, 36.337408], [-96.8015755, 36.3374098], [-96.8015761, 36.3374511], [-96.8015819, 36.3377953]]]}, "properties": {"osm_id": 260191372, "building": "yes", "name": "", "height": null, "height_m": null, "levels": null, "tract_id": "40117957500", "tract_name": "9575", "tags": {"building": "yes"}}}, {"type": "Feature", "geometry": {"type": "Polygon", "coordinates": [[[-96.8022871, 36.3377971], [-96.8021987, 36.3377998], [-96.8021792, 36.3373872], [-96.8022677, 36.3373845], [-96.8022871, 36.3377971]]]}, "properties": {"osm_id": 260191373, "building": "yes", "name": "", "height": null, "height_m": null, "levels": null, "tract_id": "40117957500", "tract_name": "9575", "tags": {"building": "yes"}}}, {"type": "Feature", "geometry": {"type": "Polygon", "coordinates": [[[-96.8041984, 36.3382343], [-96.8042006, 36.3383053], [-96.8045285, 36.3382989], [-96.8046723, 36.3383001], [-96.8046713, 36.33823], [-96.8044575, 36.338232], [-96.8041984, 36.3382343]]]}, "properties": {"osm_id": 260191374, "building": "yes", "name": "", "height": null, "height_m": null, "levels": null, "tract_id": "40117957500", "tract_name": "9575", "tags": {"building": "yes"}}}, {"type": "Feature", "geometry": {"type": "Polygon", "coordinates": [[[-96.8042006, 36.3383053], [-96.8042003, 36.3383754], [-96.8045307, 36.3383711], [-96.8045285, 36.3382989], [-96.8042006, 36.3383053]]]}, "properties": {"osm_id": 260191375, "building": "yes", "name": "", "height": null, "height_m": null, "levels": null, "tract_id": "40117957500", "tract_name": "9575", "tags": {"building": "yes"}}}, {"type": "Feature", "geometry": {"type": "Polygon", "coordinates": [[[-96.8042003, 36.3383754], [-96.8042024, 36.3384563], [-96.8045366, 36.3384515], [-96.8047207, 36.3384493], [-96.804719, 36.3383687], [-96.8045307, 36.3383711], [-96.8042003, 36.3383754]]]}, "properties": {"osm_id": 260191376, "building": "yes", "name": "", "height": null, "height_m": null, "levels": null, "tract_id": "40117957500", "tract_name": "9575", "tags": {"building": "yes"}}}, {"type": "Feature", "geometry": {"type": "Polygon", "coordinates": [[[-96.8042024, 36.3384563], [-96.8042031, 36.3385269], [-96.8045382, 36.3385228], [-96.8045366, 36.3384515], [-96.8042024, 36.3384563]]]}, "properties": {"osm_id": 260191377, "building": "yes", "name": "", "height": null, "height_m": null, "levels": null, "tract_id": "40117957500", "tract_name": "9575", "tags": {"building": "yes"}}}, {"type": "Feature", "geometry": {"type": "Polygon", "coordinates": [[[-96.8042031, 36.3385269], [-96.8042059, 36.3386762], [-96.8045421, 36.3386729], [-96.8046815, 36.3386705], [-96.8046787, 36.3385211], [-96.8045382, 36.3385228], [-96.8042031, 36.3385269]]]}, "properties": {"osm_id": 260191378, "building": "yes", "name": "", "height": null, "height_m": null, "levels": null, "tract_id": "40117957500", "tract_name": "9575", "tags": {"building": "yes"}}}, {"type": "Feature", "geometry": {"type": "Polygon", "coordinates": [[[-96.8042059, 36.3386762], [-96.8042087, 36.3388145], [-96.8045442, 36.3388106], [-96.8045421, 36.3386729], [-96.8042059, 36.3386762]]]}, "properties": {"osm_id": 260191379, "building": "yes", "name": "", "height": null, "height_m": null, "levels": null, "tract_id": "40117957500", "tract_name": "9575", "tags": {"building": "yes"}}}, {"type": "Feature", "geometry": {"type": "Polygon", "coordinates": [[[-96.8042087, 36.3388145], [-96.8042098, 36.3389647], [-96.804714, 36.3389625], [-96.8047129, 36.3388122], [-96.8042087, 36.3388145]]]}, "properties": {"osm_id": 260191380, "building": "yes", "name": "", "height": null, "height_m": null, "levels": null, "tract_id": "40117957500", "tract_name": "9575", "tags": {"building": "yes"}}}, {"type": "Feature", "geometry": {"type": "Polygon", "coordinates": [[[-96.8035618, 36.3377831], [-96.8035496, 36.3373731], [-96.8036301, 36.3373716], [-96.8036329, 36.3374774], [-96.803642, 36.3377817], [-96.8035618, 36.3377831]]]}, "properties": {"osm_id": 260191501, "building": "yes", "name": "", "height": null, "height_m": null, "levels": null, "tract_id": "40117957500", "tract_name": "9575", "tags": {"building": "yes"}}}, {"type": "Feature", "geometry": {"type": "Polygon", "coordinates": [[[-96.803642, 36.3377817], [-96.8036329, 36.3374774], [-96.8037248, 36.3374756], [-96.8037249, 36.3375031], [-96.8037345, 36.3377795], [-96.803642, 36.3377817]]]}, "properties": {"osm_id": 260191502, "building": "yes", "name": "", "height": null, "height_m": null, "levels": null, "tract_id": "40117957500", "tract_name": "9575", "tags": {"building": "yes"}}}, {"type": "Feature", "geometry": {"type": "Polygon", "coordinates": [[[-96.8037345, 36.3377795], [-96.8038212, 36.3377805], [-96.8038154, 36.3375011], [-96.8037249, 36.3375031], [-96.8037345, 36.3377795]]]}, "properties": {"osm_id": 260191503, "building": "yes", "name": "", "height": null, "height_m": null, "levels": null, "tract_id": "40117957500", "tract_name": "9575", "tags": {"building": "yes"}}}, {"type": "Feature", "geometry": {"type": "Polygon", "coordinates": [[[-96.8038212, 36.3377805], [-96.8038154, 36.3375011], [-96.8038126, 36.3373679], [-96.8039112, 36.3373666], [-96.8039197, 36.3377791], [-96.8038212, 36.3377805]]]}, "properties": {"osm_id": 260191504, "building": "yes", "name": "", "height": null, "height_m": null, "levels": null, "tract_id": "40117957500", "tract_name": "9575", "tags": {"building": "yes"}}}, {"type": "Feature", "geometry": {"type": "Polygon", "coordinates": [[[-96.8038627, 36.3392659], [-96.8037621, 36.3392692], [-96.8037666, 36.3394657], [-96.8037635, 36.3396311], [-96.803929, 36.3396319], [-96.80393, 36.339511], [-96.8038607, 36.3395106], [-96.8038627, 36.3392659]]]}, "properties": {"osm_id": 260192734, "building": "yes", "name": "", "height": null, "height_m": null, "levels": null, "tract_id": "40117957500", "tract_name": "9575", "tags": {"building": "yes"}}}, {"type": "Feature", "geometry": {"type": "Polygon", "coordinates": [[[-96.8037666, 36.3394657], [-96.8036842, 36.3394669], [-96.8036819, 36.3392686], [-96.8037621, 36.3392692], [-96.8037666, 36.3394657]]]}, "properties": {"osm_id": 260192735, "building": "yes", "name": "", "height": null, "height_m": null, "levels": null, "tract_id": "40117957500", "tract_name": "9575", "tags": {"building": "yes"}}}, {"type": "Feature", "geometry": {"type": "Polygon", "coordinates": [[[-96.8036842, 36.3394669], [-96.8036849, 36.3395228], [-96.8036116, 36.3395233], [-96.8036066, 36.339271], [-96.8036819, 36.3392686], [-96.8036842, 36.3394669]]]}, "properties": {"osm_id": 260192736, "building": "yes", "name": "", "height": null, "height_m": null, "levels": null, "tract_id": "40117957500", "tract_name": "9575", "tags": {"building": "yes"}}}, {"type": "Feature", "geometry": {"type": "Polygon", "coordinates": [[[-96.8036116, 36.3395233], [-96.8036121, 36.3395473], [-96.8035283, 36.3395498], [-96.803517, 36.3392756], [-96.8036066, 36.339271], [-96.8036116, 36.3395233]]]}, "properties": {"osm_id": 260192737, "building": "yes", "name": "", "height": null, "height_m": null, "levels": null, "tract_id": "40117957500", "tract_name": "9575", "tags": {"building": "yes"}}}, {"type": "Feature", "geometry": {"type": "Polygon", "coordinates": [[[-96.8035283, 36.3395498], [-96.8034405, 36.3395521], [-96.8034364, 36.3394911], [-96.8034309, 36.3392765], [-96.803517, 36.3392756], [-96.8035283, 36.3395498]]]}, "properties": {"osm_id": 260192738, "building": "yes", "name": "", "height": null, "height_m": null, "levels": null, "tract_id": "40117957500", "tract_name": "9575", "tags": {"building": "yes"}}}, {"type": "Feature", "geometry": {"type": "Polygon", "coordinates": [[[-96.8034364, 36.3394911], [-96.8033356, 36.3394928], [-96.8033302, 36.3392781], [-96.8034309, 36.3392765], [-96.8034364, 36.3394911]]]}, "properties": {"osm_id": 260192739, "building": "yes", "name": "", "height": null, "height_m": null, "levels": null, "tract_id": "40117957500", "tract_name": "9575", "tags": {"building": "yes"}}}, {"type": "Feature", "geometry": {"type": "Polygon", "coordinates": [[[-96.8033356, 36.3394928], [-96.8032621, 36.3394935], [-96.803259, 36.3392767], [-96.8033302, 36.3392781], [-96.8033356, 36.3394928]]]}, "properties": {"osm_id": 260192740, "building": "yes", "name": "", "height": null, "height_m": null, "levels": null, "tract_id": "40117957500", "tract_name": "9575", "tags": {"building": "yes"}}}, {"type": "Feature", "geometry": {"type": "Polygon", "coordinates": [[[-96.8032621, 36.3394935], [-96.803259, 36.3392767], [-96.8031553, 36.3392765], [-96.8031575, 36.3394726], [-96.8031582, 36.3395828], [-96.8032634, 36.3395819], [-96.8032621, 36.3394935]]]}, "properties": {"osm_id": 260192741, "building": "yes", "name": "", "height": null, "height_m": null, "levels": null, "tract_id": "40117957500", "tract_name": "9575", "tags": {"building": "yes"}}}, {"type": "Feature", "geometry": {"type": "Polygon", "coordinates": [[[-96.8031575, 36.3394726], [-96.8030283, 36.3394735], [-96.8030279, 36.3394343], [-96.8030685, 36.3394335], [-96.803064, 36.3392801], [-96.8031553, 36.3392765], [-96.8031575, 36.3394726]]]}, "properties": {"osm_id": 260192742, "building": "yes", "name": "", "height": null, "height_m": null, "levels": null, "tract_id": "40117957500", "tract_name": "9575", "tags": {"building": "yes"}}}, {"type": "Feature", "geometry": {"type": "Polygon", "coordinates": [[[-96.8030685, 36.3394335], [-96.8030279, 36.3394343], [-96.8029877, 36.3394351], [-96.8029867, 36.3392787], [-96.803064, 36.3392801], [-96.8030685, 36.3394335]]]}, "properties": {"osm_id": 260192743, "building": "yes", "name": "", "height": null, "height_m": null, "levels": null, "tract_id": "40117957500", "tract_name": "9575", "tags": {"building": "yes"}}}, {"type": "Feature", "geometry": {"type": "Polygon", "coordinates": [[[-96.8029877, 36.3394351], [-96.8029878, 36.3394443], [-96.802912, 36.3394463], [-96.8029099, 36.3392782], [-96.8029867, 36.3392787], [-96.8029877, 36.3394351]]]}, "properties": {"osm_id": 260192744, "building": "yes", "name": "", "height": null, "height_m": null, "levels": null, "tract_id": "40117957500", "tract_name": "9575", "tags": {"building": "yes"}}}, {"type": "Feature", "geometry": {"type": "Polygon", "coordinates": [[[-96.8029099, 36.3392782], [-96.8028155, 36.3392807], [-96.8028197, 36.3394471], [-96.802912, 36.3394463], [-96.8029099, 36.3392782]]]}, "properties": {"osm_id": 260192745, "building": "yes", "name": "", "height": null, "height_m": null, "levels": null, "tract_id": "40117957500", "tract_name": "9575", "tags": {"building": "yes"}}}, {"type": "Feature", "geometry": {"type": "Polygon", "coordinates": [[[-96.8028155, 36.3392807], [-96.8028197, 36.3394471], [-96.8028252, 36.3396685], [-96.8025664, 36.3396727], [-96.8025567, 36.3392848], [-96.8028155, 36.3392807]]]}, "properties": {"osm_id": 260192746, "building": "yes", "name": "", "height": null, "height_m": null, "levels": null, "tract_id": "40117957500", "tract_name": "9575", "tags": {"building": "yes"}}}, {"type": "Feature", "geometry": {"type": "Polygon", "coordinates": [[[-96.8023114, 36.3394027], [-96.8023097, 36.3392865], [-96.8020494, 36.339289], [-96.8020507, 36.3393763], [-96.8021456, 36.3393754], [-96.802146, 36.3394043], [-96.8023114, 36.3394027]]]}, "properties": {"osm_id": 260192747, "building": "yes", "name": "", "height": null, "height_m": null, "levels": null, "tract_id": "40117957500", "tract_name": "9575", "tags": {"building": "yes"}}}, {"type": "Feature", "geometry": {"type": "Polygon", "coordinates": [[[-96.8031881, 36.3389744], [-96.8026151, 36.3389782], [-96.8026134, 36.3388143], [-96.8025934, 36.3388145], [-96.802593, 36.3387708], [-96.8025375, 36.3387711], [-96.8025367, 36.3386857], [-96.8031787, 36.3386818], [-96.8031795, 36.3387624], [-96.8032441, 36.3388085], [-96.8032456, 36.338843], [-96.8031872, 36.3388906], [-96.8031881, 36.3389744]]]}, "properties": {"osm_id": 281252613, "building": "yes", "name": "Pawnee County Sheriff", "height": null, "height_m": 6.0, "levels": 2, "tract_id": "40117957500", "tract_name": "9575", "tags": {"addr:city": "Pawnee", "addr:housenumber": "500", "addr:postcode": "74058", "addr:street": "Harrison Street", "amenity": "police", "building": "yes", "building:levels": "2", "description": "County jail is also here.", "name": "Pawnee County Sheriff", "phone": "+1 918 762 2565"}}}, {"type": "Feature", "geometry": {"type": "Polygon", "coordinates": [[[-96.8047618, 36.334772], [-96.8046518, 36.3347699], [-96.8046491, 36.334623], [-96.8047631, 36.3346208], [-96.8047618, 36.3346921], [-96.8047618, 36.334772]]]}, "properties": {"osm_id": 289492529, "building": "house", "name": "", "height": null, "height_m": 6.0, "levels": 2, "tract_id": "40117957500", "tract_name": "9575", "tags": {"addr:city": "Pawnee", "addr:housenumber": "606", "addr:postcode": "74058", "addr:street": "Elm Street", "building": "house", "building:levels": "2"}}}, {"type": "Feature", "geometry": {"type": "Polygon", "coordinates": [[[-96.8045888, 36.334785], [-96.8044842, 36.334785], [-96.8044802, 36.3346467], [-96.8045861, 36.3346446], [-96.8045888, 36.334785]]]}, "properties": {"osm_id": 289492530, "building": "house", "name": "", "height": null, "height_m": null, "levels": null, "tract_id": "40117957500", "tract_name": "9575", "tags": {"addr:city": "Pawnee", "addr:housenumber": "604", "addr:postcode": "74058", "addr:street": "Elm Street", "building": "house"}}}, {"type": "Feature", "geometry": {"type": "Polygon", "coordinates": [[[-96.8049607, 36.334756], [-96.8048461, 36.334756], [-96.8048461, 36.3347149], [-96.8048642, 36.3347149], [-96.8048642, 36.334675], [-96.8048957, 36.334675], [-96.8048957, 36.3346501], [-96.804948, 36.3346501], [-96.804948, 36.334675], [-96.8049735, 36.334675], [-96.8049735, 36.3347193], [-96.8049607, 36.3347193], [-96.8049607, 36.334756]]]}, "properties": {"osm_id": 289492542, "building": "house", "name": "", "height": null, "height_m": 6.0, "levels": 2, "tract_id": "40117957500", "tract_name": "9575", "tags": {"addr:city": "Pawnee", "addr:housenumber": "608", "addr:postcode": "74058", "addr:street": "Elm Street", "building": "house", "building:levels": "2"}}}, {"type": "Feature", "geometry": {"type": "Polygon", "coordinates": [[[-96.8052344, 36.3347339], [-96.8051967, 36.3347343], [-96.8051973, 36.3347658], [-96.805126, 36.3347666], [-96.8051234, 36.3346198], [-96.8052324, 36.3346185], [-96.8052344, 36.3347339]]]}, "properties": {"osm_id": 289492597, "building": "house", "name": "", "height": null, "height_m": null, "levels": null, "tract_id": "40117957500", "tract_name": "9575", "tags": {"addr:city": "Pawnee", "addr:housenumber": "610", "addr:postcode": "74058", "addr:street": "Elm Street", "building": "house"}}}, {"type": "Feature", "geometry": {"type": "Polygon", "coordinates": [[[-96.8044668, 36.3348109], [-96.8043917, 36.3348131], [-96.8043756, 36.3347332], [-96.8042173, 36.334731], [-96.8042173, 36.334664], [-96.8044426, 36.3346683], [-96.8044668, 36.3348109]]]}, "properties": {"osm_id": 289492618, "building": "house", "name": "", "height": null, "height_m": null, "levels": null, "tract_id": "40117957500", "tract_name": "9575", "tags": {"addr:city": "Pawnee", "addr:housenumber": "602", "addr:postcode": "74058", "addr:street": "Elm Street", "building": "house"}}}, {"type": "Feature", "geometry": {"type": "Polygon", "coordinates": [[[-96.8009735, 36.3389786], [-96.8012968, 36.3389753], [-96.8012961, 36.3389283], [-96.8009727, 36.3389316], [-96.8009735, 36.3389786]]]}, "properties": {"osm_id": 301737890, "building": "yes", "name": "", "height": null, "height_m": null, "levels": null, "tract_id": "40117957500", "tract_name": "9575", "tags": {"building": "yes"}}}, {"type": "Feature", "geometry": {"type": "Polygon", "coordinates": [[[-96.8009714, 36.3388062], [-96.8009678, 36.3387265], [-96.800992, 36.3387258], [-96.8009911, 36.3387045], [-96.8010917, 36.3387015], [-96.8010924, 36.3387178], [-96.8012775, 36.3387124], [-96.8012817, 36.338806], [-96.8012007, 36.3388083], [-96.8012023, 36.3388447], [-96.8009933, 36.3388508], [-96.8009913, 36.3388056], [-96.8009714, 36.3388062]]]}, "properties": {"osm_id": 301737891, "building": "yes", "name": "Sonic", "height": null, "height_m": null, "levels": null, "tract_id": "40117957500", "tract_name": "9575", "tags": {"addr:city": "Pawnee", "addr:housenumber": "521", "addr:postcode": "74058", "addr:state": "OK", "addr:street": "Fourth Street", "amenity": "fast_food", "brand": "Sonic", "brand:wikidata": "Q7561808", "building": "yes", "cuisine": "burger", "drive_in": "yes", "name": "Sonic", "opening_hours": "Mo-Th 07:00-22:00; Fr-Sa 07:00-23:00; Su 08:00-22:00", "phone": "+1 918-762-3983", "takeaway": "yes", "website": "https://locations.sonicdrivein.com/ok/pawnee/521-fourth-street.html"}}}, {"type": "Feature", "geometry": {"type": "Polygon", "coordinates": [[[-96.8009391, 36.3386216], [-96.8009384, 36.3385751], [-96.8012528, 36.3385718], [-96.8012535, 36.3386183], [-96.8009391, 36.3386216]]]}, "properties": {"osm_id": 301737892, "building": "yes", "name": "", "height": null, "height_m": null, "levels": null, "tract_id": "40117957500", "tract_name": "9575", "tags": {"building": "yes"}}}, {"type": "Feature", "geometry": {"type": "Polygon", "coordinates": [[[-96.8009586, 36.3382216], [-96.8009167, 36.3381614], [-96.8010496, 36.3381014], [-96.8010915, 36.3381616], [-96.8009586, 36.3382216]]]}, "properties": {"osm_id": 301737929, "building": "yes", "name": "Conoco", "height": null, "height_m": null, "levels": null, "tract_id": "40117957500", "tract_name": "9575", "tags": {"amenity": "fuel", "brand": "Conoco", "brand:wikidata": "Q1126518", "building": "yes", "name": "Conoco"}}}, {"type": "Feature", "geometry": {"type": "Polygon", "coordinates": [[[-96.801126, 36.3382969], [-96.8011251, 36.3382044], [-96.8012767, 36.3382035], [-96.8012768, 36.3382161], [-96.8013275, 36.3382158], [-96.8013283, 36.3382956], [-96.801126, 36.3382969]]]}, "properties": {"osm_id": 301737930, "building": "yes", "name": "Arrow Shop", "height": null, "height_m": null, "levels": null, "tract_id": "40117957500", "tract_name": "9575", "tags": {"building": "yes", "name": "Arrow Shop", "shop": "convenience"}}}, {"type": "Feature", "geometry": {"type": "Polygon", "coordinates": [[[-96.7994933, 36.3447605], [-96.7995009, 36.3444451], [-96.7991405, 36.3444394], [-96.7991327, 36.3447548], [-96.7994933, 36.3447605]]]}, "properties": {"osm_id": 874134727, "building": "yes", "name": "Wiilliams", "height": null, "height_m": null, "levels": null, "tract_id": "40117957500", "tract_name": "9575", "tags": {"building": "yes", "name": "Wiilliams", "shop": "supermarket"}}}, {"type": "Feature", "geometry": {"type": "Polygon", "coordinates": [[[-96.8055585, 36.3406322], [-96.8055582, 36.3406059], [-96.8056653, 36.3406051], [-96.8056644, 36.3405187], [-96.8055525, 36.3405195], [-96.8055513, 36.3404128], [-96.8054213, 36.3404138], [-96.8052845, 36.3404148], [-96.805287, 36.3406342], [-96.8053373, 36.3406338], [-96.8054731, 36.3406328], [-96.8055585, 36.3406322]]]}, "properties": {"osm_id": 1019709998, "building": "yes", "name": "", "height": null, "height_m": null, "levels": null, "tract_id": "40117957500", "tract_name": "9575", "tags": {"building": "yes"}}}, {"type": "Feature", "geometry": {"type": "Polygon", "coordinates": [[[-96.8038065, 36.3373026], [-96.8038022, 36.3371198], [-96.8036951, 36.3371214], [-96.8036993, 36.3373042], [-96.8038065, 36.3373026]]]}, "properties": {"osm_id": 1068193756, "building": "yes", "name": "", "height": null, "height_m": null, "levels": null, "tract_id": "40117957500", "tract_name": "9575", "tags": {"addr:city": "Pawnee", "addr:housenumber": "624", "addr:postcode": "74058", "addr:state": "OK", "addr:street": "6th Street", "building": "yes", "telecom": "exchange"}}}, {"type": "Feature", "geometry": {"type": "Polygon", "coordinates": [[[-96.8054149, 36.3377636], [-96.8054183, 36.3374798], [-96.8055741, 36.337481], [-96.8055708, 36.3377648], [-96.8054149, 36.3377636]]]}, "properties": {"osm_id": 1196208360, "building": "yes", "name": "", "height": null, "height_m": null, "levels": null, "tract_id": "40117957500", "tract_name": "9575", "tags": {"building": "yes"}}}, {"type": "Feature", "geometry": {"type": "Polygon", "coordinates": [[[-96.8054149, 36.3377636], [-96.8044599, 36.3377714], [-96.8044597, 36.3377457], [-96.8042919, 36.3377469], [-96.8042903, 36.3375927], [-96.8043829, 36.3375921], [-96.8043824, 36.337545], [-96.8048167, 36.3375421], [-96.804816, 36.3374765], [-96.8054183, 36.3374798], [-96.8054149, 36.3377636]]]}, "properties": {"osm_id": 1364382531, "building": "yes", "name": "", "height": null, "height_m": null, "levels": null, "tract_id": "40117957500", "tract_name": "9575", "tags": {"building": "yes"}}}, {"type": "Feature", "geometry": {"type": "Polygon", "coordinates": [[[-96.805328, 36.338943], [-96.8048407, 36.3389448], [-96.8048384, 36.3385387], [-96.8050967, 36.3385377], [-96.8050971, 36.3386118], [-96.8053261, 36.3386109], [-96.805328, 36.338943]]]}, "properties": {"osm_id": 1364382532, "building": "yes", "name": "", "height": null, "height_m": null, "levels": null, "tract_id": "40117957500", "tract_name": "9575", "tags": {"building": "yes"}}}, {"type": "Feature", "geometry": {"type": "Polygon", "coordinates": [[[-96.8051579, 36.3383418], [-96.8051485, 36.3380695], [-96.8047906, 36.3380776], [-96.8047963, 36.3382412], [-96.8049422, 36.3382379], [-96.804946, 36.3383466], [-96.8051579, 36.3383418]]]}, "properties": {"osm_id": 1364382533, "building": "yes", "name": "", "height": null, "height_m": null, "levels": null, "tract_id": "40117957500", "tract_name": "9575", "tags": {"building": "yes"}}}]}