{"type": "FeatureCollection", "features": [{"type": "Feature", "geometry": {"type": "Polygon", "coordinates": [[[-95.4057365, 35.7851038], [-95.4053245, 35.7851038], [-95.4053245, 35.7849762], [-95.4052146, 35.7849762], [-95.4052146, 35.784561], [-95.4055692, 35.784561], [-95.4055692, 35.7846582], [-95.4057365, 35.7846582], [-95.4057365, 35.7851038]]]}, "properties": {"osm_id": 99405391, "building": "yes", "name": "", "height": null, "height_m": null, "levels": null, "tract_id": "40101001200", "tract_name": "12", "tags": {"building": "yes"}}}, {"type": "Feature", "geometry": {"type": "Polygon", "coordinates": [[[-95.4676319, 35.7166231], [-95.4676306, 35.7165122], [-95.4674297, 35.7165069], [-95.4674297, 35.7166177], [-95.4676319, 35.7166231]]]}, "properties": {"osm_id": 166830412, "building": "yes", "name": "", "height": null, "height_m": null, "levels": null, "tract_id": "40101001200", "tract_name": "12", "tags": {"building": "yes"}}}, {"type": "Feature", "geometry": {"type": "Polygon", "coordinates": [[[-95.4006528, 35.7980954], [-95.4004549, 35.7980966], [-95.4004543, 35.7980293], [-95.4004239, 35.7980295], [-95.4004234, 35.7979705], [-95.4004538, 35.7979703], [-95.4004522, 35.7977933], [-95.4006501, 35.7977922], [-95.4006507, 35.79786], [-95.4006828, 35.7978598], [-95.4006845, 35.7980416], [-95.4006523, 35.7980418], [-95.4006528, 35.7980954]]]}, "properties": {"osm_id": 245725642, "building": "retail", "name": "Muskogee Travel Plaza", "height": null, "height_m": null, "levels": null, "tract_id": "40101001200", "tract_name": "12", "tags": {"building": "retail", "name": "Muskogee Travel Plaza", "shop": "convenience"}}}, {"type": "Feature", "geometry": {"type": "Polygon", "coordinates": [[[-95.4003412, 35.7979965], [-95.4000784, 35.7979921], [-95.4000801, 35.7979243], [-95.4003429, 35.7979287], [-95.4003412, 35.7979965]]]}, "properties": {"osm_id": 245725667, "building": "roof", "name": "Phillips 66", "height": null, "height_m": null, "levels": null, "tract_id": "40101001200", "tract_name": "12", "tags": {"amenity": "fuel", "building": "roof", "fuel:diesel": "yes", "name": "Phillips 66"}}}, {"type": "Feature", "geometry": {"type": "Polygon", "coordinates": [[[-95.4009372, 35.7980646], [-95.4008424, 35.7980639], [-95.4008452, 35.7978244], [-95.4009399, 35.7978251], [-95.4009372, 35.7980646]]]}, "properties": {"osm_id": 245725668, "building": "roof", "name": "Phillips 66", "height": null, "height_m": null, "levels": null, "tract_id": "40101001200", "tract_name": "12", "tags": {"amenity": "fuel", "building": "roof", "fuel:e10": "yes", "name": "Phillips 66"}}}, {"type": "Feature", "geometry": {"type": "Polygon", "coordinates": [[[-95.4016796, 35.7843274], [-95.4013765, 35.7843252], [-95.4013792, 35.784521], [-95.4013619, 35.7845223], [-95.4013631, 35.7846037], [-95.4016796, 35.7846037], [-95.4016796, 35.7843274]]]}, "properties": {"osm_id": 265529091, "building": "yes", "name": "", "height": null, "height_m": null, "levels": null, "tract_id": "40101001200", "tract_name": "12", "tags": {"building": "yes"}}}, {"type": "Feature", "geometry": {"type": "Polygon", "coordinates": [[[-95.4020309, 35.7842838], [-95.4018888, 35.7842817], [-95.4018915, 35.7846146], [-95.4020363, 35.7846124], [-95.4020309, 35.7842838]]]}, "properties": {"osm_id": 265529092, "building": "yes", "name": "", "height": null, "height_m": null, "levels": null, "tract_id": "40101001200", "tract_name": "12", "tags": {"building": "yes"}}}, {"type": "Feature", "geometry": {"type": "Polygon", "coordinates": [[[-95.4016688, 35.7847669], [-95.4015911, 35.7847647], [-95.4015884, 35.7851955], [-95.4016688, 35.7851955], [-95.4016688, 35.7847669]]]}, "properties": {"osm_id": 265529093, "building": "yes", "name": "", "height": null, "height_m": null, "levels": null, "tract_id": "40101001200", "tract_name": "12", "tags": {"building": "yes"}}}, {"type": "Feature", "geometry": {"type": "Polygon", "coordinates": [[[-95.4320262, 35.7466094], [-95.4320052, 35.7466095], [-95.4320052, 35.7466135], [-95.4318665, 35.7466143], [-95.4318657, 35.7465325], [-95.4319282, 35.7465321], [-95.4319277, 35.7464705], [-95.4319987, 35.7464701], [-95.4319993, 35.7465317], [-95.4320068, 35.7465316], [-95.4320071, 35.7465747], [-95.4320259, 35.7465746], [-95.4320262, 35.7466094]]]}, "properties": {"osm_id": 328261184, "building": "house", "name": "", "height": null, "height_m": null, "levels": null, "tract_id": "40101001200", "tract_name": "12", "tags": {"addr:city": "Muskogee", "addr:country": "US", "addr:housenumber": "1001", "addr:postcode": "74401", "addr:state": "OK", "addr:street": "South 55th Street", "building": "house"}}}, {"type": "Feature", "geometry": {"type": "Polygon", "coordinates": [[[-95.3989067, 35.7844294], [-95.3994088, 35.7845903], [-95.3990879, 35.7852487], [-95.3989831, 35.7852151], [-95.3989379, 35.7853077], [-95.3988021, 35.7852642], [-95.3988502, 35.7851655], [-95.3985888, 35.7850817], [-95.3989067, 35.7844294]]]}, "properties": {"osm_id": 715807325, "building": "yes", "name": "", "height": null, "height_m": null, "levels": null, "tract_id": "40101001200", "tract_name": "12", "tags": {"building": "yes"}}}, {"type": "Feature", "geometry": {"type": "Polygon", "coordinates": [[[-95.4003724, 35.7846361], [-95.4003686, 35.7843059], [-95.40015, 35.7843076], [-95.4001538, 35.7846377], [-95.4003724, 35.7846361]]]}, "properties": {"osm_id": 715807326, "building": "yes", "name": "", "height": null, "height_m": null, "levels": null, "tract_id": "40101001200", "tract_name": "12", "tags": {"building": "yes"}}}, {"type": "Feature", "geometry": {"type": "Polygon", "coordinates": [[[-95.5713153, 35.7142712], [-95.5712076, 35.7142673], [-95.5712084, 35.7142526], [-95.5711758, 35.7142514], [-95.5711788, 35.7141949], [-95.5713137, 35.7141998], [-95.5713129, 35.7142148], [-95.5713182, 35.7142184], [-95.5713153, 35.7142712]]]}, "properties": {"osm_id": 985792682, "building": "yes", "name": "", "height": null, "height_m": null, "levels": null, "tract_id": "40101001200", "tract_name": "12", "tags": {"building": "yes"}}}, {"type": "Feature", "geometry": {"type": "Polygon", "coordinates": [[[-95.5707441, 35.7147035], [-95.5707264, 35.7147037], [-95.5707269, 35.7147416], [-95.5706263, 35.7147425], [-95.5706236, 35.7145434], [-95.5707309, 35.7145425], [-95.570732, 35.7146204], [-95.5707429, 35.7146203], [-95.5707441, 35.7147035]]]}, "properties": {"osm_id": 985792683, "building": "yes", "name": "", "height": null, "height_m": null, "levels": null, "tract_id": "40101001200", "tract_name": "12", "tags": {"building": "yes"}}}, {"type": "Feature", "geometry": {"type": "Polygon", "coordinates": [[[-95.4718372, 35.7878836], [-95.4701701, 35.7878836], [-95.4701845, 35.7871401], [-95.4718444, 35.7871518], [-95.4718372, 35.7878836]]]}, "properties": {"osm_id": 1055433892, "building": "yes", "name": "All In All Church & Shepherd's Heart Music", "height": null, "height_m": null, "levels": null, "tract_id": "40101001200", "tract_name": "12", "tags": {"addr:city": "Muskogee", "addr:housenumber": "7400", "addr:postcode": "74401", "addr:state": "OK", "addr:street": "Fern Mountain Road", "amenity": "place_of_worship", "building": "yes", "denomination": "pentecostal", "name": "All In All Church & Shepherd's Heart Music", "religion": "christian", "service_times": "We 19:00"}}}, {"type": "Feature", "geometry": {"type": "Polygon", "coordinates": [[[-95.5494569, 35.7610869], [-95.5494567, 35.7610365], [-95.5492897, 35.761037], [-95.54929, 35.7610875], [-95.5494569, 35.7610869]]]}, "properties": {"osm_id": 1069839269, "building": "yes", "name": "", "height": null, "height_m": null, "levels": null, "tract_id": "40101001200", "tract_name": "12", "tags": {"building": "yes"}}}, {"type": "Feature", "geometry": {"type": "Polygon", "coordinates": [[[-95.5498955, 35.7630746], [-95.5496238, 35.7630823], [-95.5496091, 35.7627395], [-95.5498807, 35.7627318], [-95.5498955, 35.7630746]]]}, "properties": {"osm_id": 1069839270, "building": "yes", "name": "", "height": null, "height_m": null, "levels": null, "tract_id": "40101001200", "tract_name": "12", "tags": {"building": "yes"}}}, {"type": "Feature", "geometry": {"type": "Polygon", "coordinates": [[[-95.5498304, 35.7624436], [-95.5499328, 35.7624426], [-95.5499302, 35.762274], [-95.5498278, 35.762275], [-95.5498304, 35.7624436]]]}, "properties": {"osm_id": 1069839271, "building": "yes", "name": "", "height": null, "height_m": null, "levels": null, "tract_id": "40101001200", "tract_name": "12", "tags": {"building": "yes"}}}, {"type": "Feature", "geometry": {"type": "Polygon", "coordinates": [[[-95.549442, 35.7625303], [-95.5496206, 35.7625285], [-95.5496214, 35.762582], [-95.5497709, 35.7625805], [-95.5497667, 35.7623051], [-95.5494385, 35.7623085], [-95.549442, 35.7625303]]]}, "properties": {"osm_id": 1069839272, "building": "yes", "name": "", "height": null, "height_m": null, "levels": null, "tract_id": "40101001200", "tract_name": "12", "tags": {"building": "yes"}}}, {"type": "Feature", "geometry": {"type": "Polygon", "coordinates": [[[-95.5495803, 35.761784], [-95.5497855, 35.7617819], [-95.5497908, 35.7621301], [-95.5495857, 35.7621322], [-95.5495803, 35.761784]]]}, "properties": {"osm_id": 1069839273, "building": "yes", "name": "", "height": null, "height_m": null, "levels": null, "tract_id": "40101001200", "tract_name": "12", "tags": {"building": "yes"}}}, {"type": "Feature", "geometry": {"type": "Polygon", "coordinates": [[[-95.5488246, 35.7619239], [-95.5487214, 35.7619248], [-95.54872, 35.7618105], [-95.5488232, 35.7618097], [-95.5488246, 35.7619239]]]}, "properties": {"osm_id": 1069839274, "building": "yes", "name": "", "height": null, "height_m": null, "levels": null, "tract_id": "40101001200", "tract_name": "12", "tags": {"building": "yes"}}}, {"type": "Feature", "geometry": {"type": "Polygon", "coordinates": [[[-95.5487019, 35.7620049], [-95.5485858, 35.7620058], [-95.5485831, 35.7617827], [-95.5486992, 35.7617818], [-95.5487019, 35.7620049]]]}, "properties": {"osm_id": 1069839275, "building": "yes", "name": "", "height": null, "height_m": null, "levels": null, "tract_id": "40101001200", "tract_name": "12", "tags": {"building": "yes"}}}, {"type": "Feature", "geometry": {"type": "Polygon", "coordinates": [[[-95.5489165, 35.7591395], [-95.5487937, 35.7591478], [-95.5488152, 35.7593567], [-95.5489379, 35.7593484], [-95.5489165, 35.7591395]]]}, "properties": {"osm_id": 1069839276, "building": "yes", "name": "", "height": null, "height_m": null, "levels": null, "tract_id": "40101001200", "tract_name": "12", "tags": {"building": "yes"}}}, {"type": "Feature", "geometry": {"type": "Polygon", "coordinates": [[[-95.5497453, 35.7606892], [-95.5497431, 35.7605704], [-95.549373, 35.7605747], [-95.5493751, 35.7606935], [-95.5497453, 35.7606892]]]}, "properties": {"osm_id": 1069839277, "building": "yes", "name": "", "height": null, "height_m": null, "levels": null, "tract_id": "40101001200", "tract_name": "12", "tags": {"building": "yes"}}}, {"type": "Feature", "geometry": {"type": "Polygon", "coordinates": [[[-95.5469155, 35.7600188], [-95.5465285, 35.7600571], [-95.5465687, 35.7603248], [-95.5469558, 35.7602865], [-95.5469155, 35.7600188]]]}, "properties": {"osm_id": 1069839278, "building": "yes", "name": "", "height": null, "height_m": null, "levels": null, "tract_id": "40101001200", "tract_name": "12", "tags": {"building": "yes"}}}, {"type": "Feature", "geometry": {"type": "Polygon", "coordinates": [[[-95.5465856, 35.7612094], [-95.5465897, 35.7613521], [-95.5462437, 35.7613587], [-95.5462396, 35.7612159], [-95.5465856, 35.7612094]]]}, "properties": {"osm_id": 1069839279, "building": "yes", "name": "", "height": null, "height_m": null, "levels": null, "tract_id": "40101001200", "tract_name": "12", "tags": {"building": "yes"}}}, {"type": "Feature", "geometry": {"type": "Polygon", "coordinates": [[[-95.4309938, 35.7574131], [-95.4308602, 35.7573693], [-95.4308504, 35.7573894], [-95.4301744, 35.7571926], [-95.4301868, 35.7571675], [-95.4300523, 35.757128], [-95.4299594, 35.7573362], [-95.4301355, 35.7573886], [-95.4300674, 35.7575423], [-95.4300736, 35.757589], [-95.4300329, 35.7576837], [-95.430055, 35.7576909], [-95.4299931, 35.7578352], [-95.4300054, 35.7578381], [-95.4299515, 35.7579623], [-95.4301222, 35.7580133], [-95.4301559, 35.757935], [-95.4303027, 35.7579767], [-95.430362, 35.7578518], [-95.4303859, 35.7578582], [-95.4303983, 35.7578295], [-95.4306283, 35.7578963], [-95.4306177, 35.7579236], [-95.4306549, 35.7579358], [-95.4306584, 35.7579279], [-95.4307531, 35.7579559], [-95.4308398, 35.7577527], [-95.4306053, 35.757683], [-95.4306664, 35.7575437], [-95.4309044, 35.7576134], [-95.4309938, 35.7574131]]]}, "properties": {"osm_id": 1171742319, "building": "school", "name": "Pershing Elementary School", "height": null, "height_m": null, "levels": null, "tract_id": "40101001200", "tract_name": "12", "tags": {"addr:city": "Muskogee", "addr:housenumber": "301", "addr:postcode": "74401", "addr:state": "OK", "addr:street": "North 54th Street", "amenity": "school", "building": "school", "ele": "202", "gnis:feature_id": "1096565", "grades": "K-5", "name": "Pershing Elementary School", "operator": "Muskogee Public Schools"}}}, {"type": "Feature", "geometry": {"type": "Polygon", "coordinates": [[[-95.4392738, 35.7502329], [-95.4386489, 35.7502331], [-95.4386492, 35.7508395], [-95.4396481, 35.7508392], [-95.4396481, 35.7508831], [-95.4399031, 35.7508831], [-95.4399031, 35.7510013], [-95.4398838, 35.7510225], [-95.4400271, 35.751135], [-95.4400471, 35.75112], [-95.4402058, 35.7511188], [-95.4402058, 35.7510788], [-95.4403413, 35.7510813], [-95.4403367, 35.7508975], [-95.4402859, 35.7508987], [-95.440176, 35.7508137], [-95.4401755, 35.7506943], [-95.4401138, 35.7506944], [-95.4401129, 35.7504985], [-95.4399629, 35.7504989], [-95.4399618, 35.7502368], [-95.4399914, 35.7502367], [-95.4399903, 35.7499919], [-95.4397216, 35.7499928], [-95.4397209, 35.7498386], [-95.4393408, 35.7498397], [-95.4393423, 35.7501799], [-95.4392738, 35.7502329]]]}, "properties": {"osm_id": 1171742320, "building": "yes", "name": "Muskogee 6th & 7th Grade Academy", "height": null, "height_m": null, "levels": null, "tract_id": "40101001200", "tract_name": "12", "tags": {"addr:city": "Muskogee", "addr:housenumber": "300", "addr:postcode": "74403", "addr:state": "OK", "addr:street": "Virgil Matthews Drive", "amenity": "school", "building": "yes", "grades": "6-7", "name": "Muskogee 6th & 7th Grade Academy", "operator": "Muskogee Public Schools"}}}, {"type": "Feature", "geometry": {"type": "Polygon", "coordinates": [[[-95.4335759, 35.7562251], [-95.4330582, 35.7562291], [-95.4330549, 35.7559459], [-95.43309, 35.7559456], [-95.4330896, 35.7559181], [-95.4331737, 35.7559174], [-95.4331732, 35.7558782], [-95.4332258, 35.7558778], [-95.4332253, 35.7558328], [-95.4334191, 35.7558313], [-95.4334196, 35.7558753], [-95.4334627, 35.755875], [-95.4334632, 35.7559162], [-95.433549, 35.7559155], [-95.4335494, 35.7559454], [-95.4335726, 35.7559452], [-95.4335759, 35.7562251]]]}, "properties": {"osm_id": 1173386734, "building": "yes", "name": "Timothy Baptist Church", "height": null, "height_m": null, "levels": null, "tract_id": "40101001200", "tract_name": "12", "tags": {"addr:city": "Muskogee", "addr:housenumber": "5530", "addr:postcode": "74403", "addr:state": "OK", "addr:street": "West Okmulgee Avenue", "amenity": "place_of_worship", "building": "yes", "denomination": "southern_baptist", "name": "Timothy Baptist Church", "religion": "christian"}}}, {"type": "Feature", "geometry": {"type": "Polygon", "coordinates": [[[-95.4639253, 35.7505841], [-95.4639266, 35.7504121], [-95.4640581, 35.7504128], [-95.4640578, 35.7504534], [-95.4640342, 35.7504533], [-95.4640337, 35.7505165], [-95.464128, 35.750517], [-95.4641275, 35.7505851], [-95.4639253, 35.7505841]]]}, "properties": {"osm_id": 1184889866, "building": "yes", "name": "", "height": null, "height_m": null, "levels": null, "tract_id": "40101001200", "tract_name": "12", "tags": {"building": "yes"}}}, {"type": "Feature", "geometry": {"type": "Polygon", "coordinates": [[[-95.4648586, 35.7473748], [-95.4647591, 35.7473791], [-95.4647542, 35.7473052], [-95.4647108, 35.7473071], [-95.4647065, 35.7472429], [-95.4648494, 35.7472366], [-95.4648586, 35.7473748]]]}, "properties": {"osm_id": 1184889868, "building": "yes", "name": "", "height": null, "height_m": null, "levels": null, "tract_id": "40101001200", "tract_name": "12", "tags": {"building": "yes"}}}, {"type": "Feature", "geometry": {"type": "Polygon", "coordinates": [[[-95.4649553, 35.7476573], [-95.4646991, 35.7476551], [-95.4647, 35.7475833], [-95.4647608, 35.7475838], [-95.4647611, 35.7475567], [-95.4648225, 35.7475572], [-95.4648222, 35.7475841], [-95.4648624, 35.7475845], [-95.4648628, 35.7475576], [-95.4649565, 35.7475584], [-95.4649553, 35.7476573]]]}, "properties": {"osm_id": 1184889869, "building": "yes", "name": "", "height": null, "height_m": null, "levels": null, "tract_id": "40101001200", "tract_name": "12", "tags": {"building": "yes"}}}, {"type": "Feature", "geometry": {"type": "Polygon", "coordinates": [[[-95.4641043, 35.747358], [-95.4642536, 35.7474068], [-95.4642165, 35.7474816], [-95.4641574, 35.7474623], [-95.4641288, 35.7475197], [-95.4640386, 35.7474902], [-95.4641043, 35.747358]]]}, "properties": {"osm_id": 1184889870, "building": "yes", "name": "", "height": null, "height_m": null, "levels": null, "tract_id": "40101001200", "tract_name": "12", "tags": {"building": "yes"}}}, {"type": "Feature", "geometry": {"type": "Polygon", "coordinates": [[[-95.4640178, 35.7470929], [-95.4640165, 35.7469839], [-95.4641359, 35.746983], [-95.4641364, 35.7470249], [-95.4641103, 35.7470251], [-95.4641105, 35.7470431], [-95.4641366, 35.7470429], [-95.4641371, 35.747092], [-95.4640178, 35.7470929]]]}, "properties": {"osm_id": 1184889871, "building": "yes", "name": "", "height": null, "height_m": null, "levels": null, "tract_id": "40101001200", "tract_name": "12", "tags": {"building": "yes"}}}, {"type": "Feature", "geometry": {"type": "Polygon", "coordinates": [[[-95.4640339, 35.7469177], [-95.4640326, 35.7468045], [-95.4641479, 35.7468036], [-95.4641488, 35.7468839], [-95.4641315, 35.746884], [-95.4641318, 35.7469169], [-95.4640339, 35.7469177]]]}, "properties": {"osm_id": 1184889872, "building": "yes", "name": "", "height": null, "height_m": null, "levels": null, "tract_id": "40101001200", "tract_name": "12", "tags": {"building": "yes"}}}, {"type": "Feature", "geometry": {"type": "Polygon", "coordinates": [[[-95.463985, 35.7482472], [-95.4637858, 35.7483419], [-95.4637293, 35.7482636], [-95.4639284, 35.7481689], [-95.463985, 35.7482472]]]}, "properties": {"osm_id": 1184889874, "building": "yes", "name": "", "height": null, "height_m": null, "levels": null, "tract_id": "40101001200", "tract_name": "12", "tags": {"building": "yes"}}}, {"type": "Feature", "geometry": {"type": "Polygon", "coordinates": [[[-95.4639908, 35.7480574], [-95.4639174, 35.7480927], [-95.4639803, 35.7481788], [-95.4640537, 35.7481435], [-95.4639908, 35.7480574]]]}, "properties": {"osm_id": 1184889875, "building": "yes", "name": "", "height": null, "height_m": null, "levels": null, "tract_id": "40101001200", "tract_name": "12", "tags": {"building": "yes", "source": "microsoft/BuildingFootprints"}}}, {"type": "Feature", "geometry": {"type": "Polygon", "coordinates": [[[-95.4473794, 35.7560318], [-95.4473352, 35.7560547], [-95.4473066, 35.7560183], [-95.4473509, 35.7559955], [-95.4473794, 35.7560318]]]}, "properties": {"osm_id": 1190285225, "building": "yes", "name": "", "height": null, "height_m": null, "levels": null, "tract_id": "40101001200", "tract_name": "12", "tags": {"building": "yes"}}}, {"type": "Feature", "geometry": {"type": "Polygon", "coordinates": [[[-95.4476517, 35.7559165], [-95.4475719, 35.7559431], [-95.4475519, 35.7559038], [-95.4476317, 35.7558772], [-95.4476517, 35.7559165]]]}, "properties": {"osm_id": 1190285226, "building": "yes", "name": "", "height": null, "height_m": null, "levels": null, "tract_id": "40101001200", "tract_name": "12", "tags": {"building": "yes"}}}, {"type": "Feature", "geometry": {"type": "Polygon", "coordinates": [[[-95.4463669, 35.7560982], [-95.4462737, 35.7560977], [-95.4462743, 35.7560275], [-95.4463675, 35.756028], [-95.4463669, 35.7560982]]]}, "properties": {"osm_id": 1190285227, "building": "yes", "name": "", "height": null, "height_m": null, "levels": null, "tract_id": "40101001200", "tract_name": "12", "tags": {"building": "yes"}}}, {"type": "Feature", "geometry": {"type": "Polygon", "coordinates": [[[-95.4453222, 35.7555628], [-95.4452786, 35.7555622], [-95.4452791, 35.7555377], [-95.4453226, 35.7555382], [-95.4453222, 35.7555628]]]}, "properties": {"osm_id": 1190285228, "building": "yes", "name": "", "height": null, "height_m": null, "levels": null, "tract_id": "40101001200", "tract_name": "12", "tags": {"building": "yes"}}}, {"type": "Feature", "geometry": {"type": "Polygon", "coordinates": [[[-95.4453705, 35.7555051], [-95.4452705, 35.7555018], [-95.445274, 35.7554327], [-95.4453739, 35.755436], [-95.4453705, 35.7555051]]]}, "properties": {"osm_id": 1190285229, "building": "yes", "name": "", "height": null, "height_m": null, "levels": null, "tract_id": "40101001200", "tract_name": "12", "tags": {"building": "yes"}}}, {"type": "Feature", "geometry": {"type": "Polygon", "coordinates": [[[-95.445286, 35.7553522], [-95.4452913, 35.7552015], [-95.4453569, 35.755203], [-95.4453563, 35.7552205], [-95.4454012, 35.7552215], [-95.4453976, 35.7553242], [-95.4453842, 35.7553239], [-95.4453831, 35.7553545], [-95.445286, 35.7553522]]]}, "properties": {"osm_id": 1190285230, "building": "detached", "name": "", "height": null, "height_m": null, "levels": null, "tract_id": "40101001200", "tract_name": "12", "tags": {"building": "detached"}}}, {"type": "Feature", "geometry": {"type": "Polygon", "coordinates": [[[-95.4456367, 35.7552629], [-95.4455388, 35.7552629], [-95.4455388, 35.7551318], [-95.4456367, 35.7551318], [-95.4456367, 35.7552629]]]}, "properties": {"osm_id": 1190285231, "building": "detached", "name": "", "height": null, "height_m": null, "levels": null, "tract_id": "40101001200", "tract_name": "12", "tags": {"building": "detached"}}}, {"type": "Feature", "geometry": {"type": "Polygon", "coordinates": [[[-95.4471508, 35.7533524], [-95.4470147, 35.7533539], [-95.4470137, 35.7532996], [-95.4470002, 35.7532997], [-95.446999, 35.7532285], [-95.4470125, 35.7532283], [-95.4470113, 35.7531646], [-95.4471474, 35.753163], [-95.4471495, 35.7532784], [-95.4471845, 35.753278], [-95.4471851, 35.7533118], [-95.4471501, 35.7533122], [-95.4471508, 35.7533524]]]}, "properties": {"osm_id": 1190285232, "building": "yes", "name": "", "height": null, "height_m": null, "levels": null, "tract_id": "40101001200", "tract_name": "12", "tags": {"building": "yes"}}}, {"type": "Feature", "geometry": {"type": "Polygon", "coordinates": [[[-95.4473458, 35.7534667], [-95.447225, 35.7534731], [-95.4472169, 35.7533717], [-95.4473377, 35.7533653], [-95.4473458, 35.7534667]]]}, "properties": {"osm_id": 1190285233, "building": "yes", "name": "", "height": null, "height_m": null, "levels": null, "tract_id": "40101001200", "tract_name": "12", "tags": {"building": "yes"}}}, {"type": "Feature", "geometry": {"type": "Polygon", "coordinates": [[[-95.4473459, 35.7535058], [-95.4473459, 35.753564], [-95.4472413, 35.753564], [-95.4472413, 35.7535058], [-95.4473459, 35.7535058]]]}, "properties": {"osm_id": 1190285234, "building": "yes", "name": "", "height": null, "height_m": null, "levels": null, "tract_id": "40101001200", "tract_name": "12", "tags": {"building": "yes"}}}, {"type": "Feature", "geometry": {"type": "Polygon", "coordinates": [[[-95.4471602, 35.7536103], [-95.4471602, 35.7537093], [-95.4471863, 35.7537093], [-95.4471863, 35.7538661], [-95.4470522, 35.7538661], [-95.4470522, 35.7538089], [-95.4470341, 35.7538089], [-95.4470341, 35.75373], [-95.4470522, 35.75373], [-95.4470522, 35.7536103], [-95.4471602, 35.7536103]]]}, "properties": {"osm_id": 1190285235, "building": "yes", "name": "", "height": null, "height_m": null, "levels": null, "tract_id": "40101001200", "tract_name": "12", "tags": {"building": "yes"}}}, {"type": "Feature", "geometry": {"type": "Polygon", "coordinates": [[[-95.4454556, 35.7539667], [-95.4457399, 35.7539694], [-95.4457392, 35.7540216], [-95.4458572, 35.7540227], [-95.445858, 35.7539652], [-95.4464346, 35.7539707], [-95.4464361, 35.7538618], [-95.4461422, 35.753859], [-95.4461434, 35.7537773], [-95.4454584, 35.7537708], [-95.4454556, 35.7539667]]]}, "properties": {"osm_id": 1190285242, "building": "yes", "name": "", "height": null, "height_m": null, "levels": null, "tract_id": "40101001200", "tract_name": "12", "tags": {"building": "yes", "shop": "yes", "source": "microsoft/BuildingFootprints"}}}, {"type": "Feature", "geometry": {"type": "Polygon", "coordinates": [[[-95.5443811, 35.7667943], [-95.5441482, 35.7667971], [-95.5441473, 35.7667471], [-95.5443641, 35.7667444], [-95.5443802, 35.7667442], [-95.5443811, 35.7667943]]]}, "properties": {"osm_id": 1238144381, "building": "yes", "name": "", "height": null, "height_m": null, "levels": null, "tract_id": "40101001200", "tract_name": "12", "tags": {"building": "yes"}}}, {"type": "Feature", "geometry": {"type": "Polygon", "coordinates": [[[-95.5442306, 35.7663257], [-95.5440932, 35.7663266], [-95.5440927, 35.766269], [-95.5440916, 35.7661587], [-95.5442289, 35.7661578], [-95.5442306, 35.7663257]]]}, "properties": {"osm_id": 1238144382, "building": "yes", "name": "", "height": null, "height_m": null, "levels": null, "tract_id": "40101001200", "tract_name": "12", "tags": {"building": "yes"}}}, {"type": "Feature", "geometry": {"type": "Polygon", "coordinates": [[[-95.5433801, 35.7661398], [-95.5432116, 35.7661334], [-95.5432176, 35.7660306], [-95.5433861, 35.766037], [-95.5433801, 35.7661398]]]}, "properties": {"osm_id": 1238144383, "building": "yes", "name": "", "height": null, "height_m": null, "levels": null, "tract_id": "40101001200", "tract_name": "12", "tags": {"building": "yes"}}}, {"type": "Feature", "geometry": {"type": "Polygon", "coordinates": [[[-95.5430052, 35.7661704], [-95.5430006, 35.7661384], [-95.5429445, 35.7661437], [-95.5429491, 35.7661757], [-95.5430052, 35.7661704]]]}, "properties": {"osm_id": 1238144384, "building": "yes", "name": "", "height": null, "height_m": null, "levels": null, "tract_id": "40101001200", "tract_name": "12", "tags": {"building": "yes"}}}, {"type": "Feature", "geometry": {"type": "Polygon", "coordinates": [[[-95.5443225, 35.7662696], [-95.5443225, 35.7662146], [-95.5442828, 35.7662146], [-95.5442828, 35.7662696], [-95.5443225, 35.7662696]]]}, "properties": {"osm_id": 1238144393, "building": "yes", "name": "", "height": null, "height_m": null, "levels": null, "tract_id": "40101001200", "tract_name": "12", "tags": {"building": "yes"}}}, {"type": "Feature", "geometry": {"type": "Polygon", "coordinates": [[[-95.5427718, 35.7673456], [-95.5425926, 35.7673449], [-95.5425941, 35.7670781], [-95.5427716, 35.7670787], [-95.5427712, 35.7671529], [-95.5427885, 35.7671529], [-95.5427882, 35.7672167], [-95.5427725, 35.7672166], [-95.5427718, 35.7673456]]]}, "properties": {"osm_id": 1238154902, "building": "yes", "name": "", "height": null, "height_m": null, "levels": null, "tract_id": "40101001200", "tract_name": "12", "tags": {"building": "yes"}}}, {"type": "Feature", "geometry": {"type": "Polygon", "coordinates": [[[-95.5428357, 35.7667569], [-95.5428367, 35.7667958], [-95.5428222, 35.766796], [-95.5428228, 35.7668167], [-95.5427316, 35.7668182], [-95.5427301, 35.7667587], [-95.5428357, 35.7667569]]]}, "properties": {"osm_id": 1238154903, "building": "yes", "name": "", "height": null, "height_m": null, "levels": null, "tract_id": "40101001200", "tract_name": "12", "tags": {"building": "yes"}}}, {"type": "Feature", "geometry": {"type": "Polygon", "coordinates": [[[-95.5431297, 35.7689049], [-95.5430427, 35.7689515], [-95.5430228, 35.7689307], [-95.5430026, 35.7689426], [-95.543009, 35.7689817], [-95.5427981, 35.7689933], [-95.5426464, 35.7688114], [-95.542741, 35.7686499], [-95.5427963, 35.7686673], [-95.5428361, 35.7686344], [-95.542968, 35.7688037], [-95.5430248, 35.7687785], [-95.5431297, 35.7689049]]]}, "properties": {"osm_id": 1238154904, "building": "yes", "name": "", "height": null, "height_m": null, "levels": null, "tract_id": "40101001200", "tract_name": "12", "tags": {"building": "yes"}}}, {"type": "Feature", "geometry": {"type": "Polygon", "coordinates": [[[-95.5429983, 35.768574], [-95.5428941, 35.7685729], [-95.5428921, 35.7685466], [-95.5428671, 35.7685473], [-95.5428454, 35.7685825], [-95.5426627, 35.7684961], [-95.5426629, 35.7682766], [-95.5428529, 35.7681859], [-95.5428866, 35.7682255], [-95.5429423, 35.7682164], [-95.5429345, 35.7684166], [-95.5429989, 35.7684215], [-95.5429983, 35.768574]]]}, "properties": {"osm_id": 1238154905, "building": "yes", "name": "", "height": null, "height_m": null, "levels": null, "tract_id": "40101001200", "tract_name": "12", "tags": {"building": "yes"}}}, {"type": "Feature", "geometry": {"type": "Polygon", "coordinates": [[[-95.542996, 35.7680907], [-95.5428918, 35.7680909], [-95.5428893, 35.7680647], [-95.5428643, 35.7680656], [-95.5428433, 35.7681011], [-95.5426591, 35.7680169], [-95.5426553, 35.7677973], [-95.5428437, 35.7677044], [-95.5428781, 35.7677436], [-95.5429336, 35.7677338], [-95.5429294, 35.7679341], [-95.5429939, 35.7679383], [-95.542996, 35.7680907]]]}, "properties": {"osm_id": 1238154906, "building": "yes", "name": "", "height": null, "height_m": null, "levels": null, "tract_id": "40101001200", "tract_name": "12", "tags": {"building": "yes"}}}, {"type": "Feature", "geometry": {"type": "Polygon", "coordinates": [[[-95.5441329, 35.7689656], [-95.5441303, 35.7690501], [-95.5440979, 35.7690515], [-95.5440984, 35.7690717], [-95.5441416, 35.7690898], [-95.544033, 35.7692369], [-95.5437624, 35.7692342], [-95.5436529, 35.7690789], [-95.5437021, 35.7690521], [-95.5436916, 35.7690068], [-95.5439381, 35.7690155], [-95.543945, 35.7689633], [-95.5441329, 35.7689656]]]}, "properties": {"osm_id": 1238154907, "building": "yes", "name": "", "height": null, "height_m": null, "levels": null, "tract_id": "40101001200", "tract_name": "12", "tags": {"building": "yes"}}}, {"type": "Feature", "geometry": {"type": "Polygon", "coordinates": [[[-95.5442238, 35.7689609], [-95.544328, 35.7689609], [-95.5443305, 35.7689347], [-95.5443554, 35.7689356], [-95.5443766, 35.768971], [-95.5445605, 35.7688864], [-95.5445637, 35.7686669], [-95.544375, 35.7685744], [-95.5443407, 35.7686136], [-95.5442852, 35.7686039], [-95.54429, 35.7688042], [-95.5442255, 35.7688085], [-95.5442238, 35.7689609]]]}, "properties": {"osm_id": 1238154908, "building": "yes", "name": "", "height": null, "height_m": null, "levels": null, "tract_id": "40101001200", "tract_name": "12", "tags": {"building": "yes"}}}, {"type": "Feature", "geometry": {"type": "Polygon", "coordinates": [[[-95.543137, 35.7689507], [-95.5431359, 35.7690352], [-95.5431682, 35.7690375], [-95.5431668, 35.7690577], [-95.5431228, 35.7690745], [-95.543225, 35.7692247], [-95.5434956, 35.7692297], [-95.5436117, 35.7690777], [-95.5435638, 35.7690494], [-95.5435762, 35.7690045], [-95.5433294, 35.7690061], [-95.5433248, 35.7689537], [-95.543137, 35.7689507]]]}, "properties": {"osm_id": 1238154909, "building": "yes", "name": "", "height": null, "height_m": null, "levels": null, "tract_id": "40101001200", "tract_name": "12", "tags": {"building": "yes"}}}, {"type": "Feature", "geometry": {"type": "Polygon", "coordinates": [[[-95.54386, 35.7680612], [-95.5439458, 35.7680133], [-95.5439296, 35.7679906], [-95.5439508, 35.7679798], [-95.543993, 35.7679993], [-95.5440854, 35.767845], [-95.5439347, 35.7676627], [-95.5437146, 35.7676732], [-95.5437137, 35.7677213], [-95.5436613, 35.7677389], [-95.5438051, 35.7679017], [-95.543755, 35.7679349], [-95.54386, 35.7680612]]]}, "properties": {"osm_id": 1238154910, "building": "yes", "name": "", "height": null, "height_m": null, "levels": null, "tract_id": "40101001200", "tract_name": "12", "tags": {"building": "yes"}}}, {"type": "Feature", "geometry": {"type": "Polygon", "coordinates": [[[-95.5439218, 35.7681289], [-95.5440015, 35.7680774], [-95.5440217, 35.7680981], [-95.5440467, 35.7680839], [-95.5440354, 35.7680477], [-95.5442521, 35.7680357], [-95.5444048, 35.7682201], [-95.5443188, 35.7683641], [-95.5442622, 35.76835], [-95.5442254, 35.7683851], [-95.5440788, 35.768224], [-95.5440244, 35.7682536], [-95.5439218, 35.7681289]]]}, "properties": {"osm_id": 1238154911, "building": "yes", "name": "", "height": null, "height_m": null, "levels": null, "tract_id": "40101001200", "tract_name": "12", "tags": {"building": "yes"}}}, {"type": "Feature", "geometry": {"type": "Polygon", "coordinates": [[[-95.5438884, 35.7675042], [-95.5438861, 35.7673126], [-95.5438378, 35.7673129], [-95.5438372, 35.7672652], [-95.5439561, 35.7672642], [-95.5439567, 35.7673117], [-95.5442201, 35.7673096], [-95.5442203, 35.767329], [-95.5442629, 35.7673287], [-95.5442633, 35.7673575], [-95.544298, 35.7673573], [-95.5442993, 35.7674633], [-95.54426, 35.7674636], [-95.5442603, 35.7674856], [-95.5442135, 35.7674859], [-95.5442137, 35.7675016], [-95.5438884, 35.7675042]]]}, "properties": {"osm_id": 1238159215, "building": "yes", "name": "", "height": null, "height_m": null, "levels": null, "tract_id": "40101001200", "tract_name": "12", "tags": {"building": "yes"}}}, {"type": "Feature", "geometry": {"type": "Polygon", "coordinates": [[[-95.5442074, 35.7676644], [-95.544207, 35.7675628], [-95.5439668, 35.7675635], [-95.5439673, 35.767665], [-95.5442074, 35.7676644]]]}, "properties": {"osm_id": 1238159216, "building": "yes", "name": "", "height": null, "height_m": null, "levels": null, "tract_id": "40101001200", "tract_name": "12", "tags": {"building": "yes"}}}, {"type": "Feature", "geometry": {"type": "Polygon", "coordinates": [[[-95.5440533, 35.7670781], [-95.5440526, 35.7670227], [-95.543983, 35.7670232], [-95.5439837, 35.7670786], [-95.5440533, 35.7670781]]]}, "properties": {"osm_id": 1238159217, "building": "yes", "name": "", "height": null, "height_m": null, "levels": null, "tract_id": "40101001200", "tract_name": "12", "tags": {"building": "yes"}}}, {"type": "Feature", "geometry": {"type": "Polygon", "coordinates": [[[-95.5439123, 35.7671106], [-95.5439126, 35.767164], [-95.5438424, 35.7671643], [-95.5438421, 35.7671109], [-95.5439123, 35.7671106]]]}, "properties": {"osm_id": 1238159218, "building": "yes", "name": "", "height": null, "height_m": null, "levels": null, "tract_id": "40101001200", "tract_name": "12", "tags": {"building": "yes"}}}, {"type": "Feature", "geometry": {"type": "Polygon", "coordinates": [[[-95.543698, 35.7670068], [-95.5436939, 35.7670664], [-95.5436269, 35.7670634], [-95.5436309, 35.7670039], [-95.543698, 35.7670068]]]}, "properties": {"osm_id": 1238159219, "building": "yes", "name": "", "height": null, "height_m": null, "levels": null, "tract_id": "40101001200", "tract_name": "12", "tags": {"building": "yes"}}}, {"type": "Feature", "geometry": {"type": "Polygon", "coordinates": [[[-95.4306246, 35.7553943], [-95.4310323, 35.7553959], [-95.4310326, 35.7553393], [-95.430625, 35.7553377], [-95.4306246, 35.7553943]]]}, "properties": {"osm_id": 1312944674, "building": "warehouse", "name": "", "height": null, "height_m": null, "levels": null, "tract_id": "40101001200", "tract_name": "12", "tags": {"building": "warehouse"}}}, {"type": "Feature", "geometry": {"type": "Polygon", "coordinates": [[[-95.4306248, 35.7554493], [-95.4306258, 35.7555603], [-95.4310335, 35.7555578], [-95.4310324, 35.7554467], [-95.4306248, 35.7554493]]]}, "properties": {"osm_id": 1312944675, "building": "warehouse", "name": "", "height": null, "height_m": null, "levels": null, "tract_id": "40101001200", "tract_name": "12", "tags": {"building": "warehouse"}}}, {"type": "Feature", "geometry": {"type": "Polygon", "coordinates": [[[-95.4295384, 35.7552814], [-95.4296349, 35.7552794], [-95.4296321, 35.7551912], [-95.4295356, 35.7551931], [-95.4295384, 35.7552814]]]}, "properties": {"osm_id": 1312944698, "building": "detached", "name": "", "height": null, "height_m": null, "levels": null, "tract_id": "40101001200", "tract_name": "12", "tags": {"building": "detached"}}}, {"type": "Feature", "geometry": {"type": "Polygon", "coordinates": [[[-95.4296955, 35.7553012], [-95.429598, 35.7553], [-95.429597, 35.7553532], [-95.4296945, 35.7553544], [-95.4296955, 35.7553012]]]}, "properties": {"osm_id": 1312944701, "building": "yes", "name": "", "height": null, "height_m": null, "levels": null, "tract_id": "40101001200", "tract_name": "12", "tags": {"building": "yes"}}}, {"type": "Feature", "geometry": {"type": "Polygon", "coordinates": [[[-95.430121, 35.7554965], [-95.4305286, 35.7554988], [-95.4305292, 35.7554378], [-95.4301215, 35.7554356], [-95.430121, 35.7554965]]]}, "properties": {"osm_id": 1312944708, "building": "warehouse", "name": "", "height": null, "height_m": null, "levels": null, "tract_id": "40101001200", "tract_name": "12", "tags": {"building": "warehouse"}}}, {"type": "Feature", "geometry": {"type": "Polygon", "coordinates": [[[-95.4298789, 35.7553634], [-95.4299496, 35.7553647], [-95.4299501, 35.7553451], [-95.4299947, 35.755346], [-95.4299981, 35.7552285], [-95.4299525, 35.7552276], [-95.4299534, 35.7551972], [-95.4298837, 35.7551959], [-95.4298789, 35.7553634]]]}, "properties": {"osm_id": 1312944711, "building": "detached", "name": "", "height": null, "height_m": null, "levels": null, "tract_id": "40101001200", "tract_name": "12", "tags": {"building": "detached"}}}, {"type": "Feature", "geometry": {"type": "Polygon", "coordinates": [[[-95.4301185, 35.755386], [-95.4305305, 35.7553891], [-95.4305312, 35.7553294], [-95.4301191, 35.7553263], [-95.4301185, 35.755386]]]}, "properties": {"osm_id": 1312944715, "building": "warehouse", "name": "", "height": null, "height_m": null, "levels": null, "tract_id": "40101001200", "tract_name": "12", "tags": {"building": "warehouse"}}}, {"type": "Feature", "geometry": {"type": "Polygon", "coordinates": [[[-95.4312744, 35.7552832], [-95.4311617, 35.7552838], [-95.4311653, 35.7557007], [-95.4312779, 35.7557], [-95.4312744, 35.7552832]]]}, "properties": {"osm_id": 1312944722, "building": "warehouse", "name": "", "height": null, "height_m": null, "levels": null, "tract_id": "40101001200", "tract_name": "12", "tags": {"building": "warehouse"}}}, {"type": "Feature", "geometry": {"type": "Polygon", "coordinates": [[[-95.4301177, 35.7556074], [-95.430528, 35.7556104], [-95.4305287, 35.7555494], [-95.4301184, 35.7555464], [-95.4301177, 35.7556074]]]}, "properties": {"osm_id": 1312944746, "building": "warehouse", "name": "", "height": null, "height_m": null, "levels": null, "tract_id": "40101001200", "tract_name": "12", "tags": {"building": "warehouse"}}}, {"type": "Feature", "geometry": {"type": "Polygon", "coordinates": [[[-95.4354479, 35.7546275], [-95.435531, 35.7546253], [-95.4355282, 35.7545548], [-95.4354451, 35.754557], [-95.4354479, 35.7546275]]]}, "properties": {"osm_id": 1312944753, "building": "yes", "name": "", "height": null, "height_m": null, "levels": null, "tract_id": "40101001200", "tract_name": "12", "tags": {"building": "yes"}}}, {"type": "Feature", "geometry": {"type": "Polygon", "coordinates": [[[-95.4377717, 35.754558], [-95.4377677, 35.7546755], [-95.4378936, 35.7546784], [-95.4378977, 35.7545609], [-95.4377717, 35.754558]]]}, "properties": {"osm_id": 1312944754, "building": "detached", "name": "", "height": null, "height_m": null, "levels": null, "tract_id": "40101001200", "tract_name": "12", "tags": {"building": "detached"}}}, {"type": "Feature", "geometry": {"type": "Polygon", "coordinates": [[[-95.438557, 35.7553565], [-95.438557, 35.7555176], [-95.4386089, 35.7555176], [-95.4386089, 35.7555437], [-95.4386669, 35.7555437], [-95.4386669, 35.7555154], [-95.4387045, 35.7555154], [-95.4387045, 35.7555437], [-95.4387742, 35.7555437], [-95.4387742, 35.7554022], [-95.4386508, 35.7554022], [-95.4386508, 35.7553565], [-95.438557, 35.7553565]]]}, "properties": {"osm_id": 1312944755, "building": "detached", "name": "", "height": null, "height_m": null, "levels": null, "tract_id": "40101001200", "tract_name": "12", "tags": {"building": "detached"}}}, {"type": "Feature", "geometry": {"type": "Polygon", "coordinates": [[[-95.4380136, 35.7543707], [-95.437968, 35.7543714], [-95.4379709, 35.7544846], [-95.4380165, 35.7544838], [-95.4380136, 35.7543707]]]}, "properties": {"osm_id": 1312944756, "building": "yes", "name": "", "height": null, "height_m": null, "levels": null, "tract_id": "40101001200", "tract_name": "12", "tags": {"building": "yes"}}}, {"type": "Feature", "geometry": {"type": "Polygon", "coordinates": [[[-95.4369641, 35.7546412], [-95.4369634, 35.7546216], [-95.437024, 35.7546202], [-95.4370214, 35.7545433], [-95.4368096, 35.754548], [-95.4368088, 35.7545241], [-95.4367365, 35.7545257], [-95.4367389, 35.7545983], [-95.4368472, 35.7545959], [-95.4368488, 35.7546438], [-95.4369641, 35.7546412]]]}, "properties": {"osm_id": 1312944757, "building": "detached", "name": "", "height": null, "height_m": null, "levels": null, "tract_id": "40101001200", "tract_name": "12", "tags": {"building": "detached"}}}, {"type": "Feature", "geometry": {"type": "Polygon", "coordinates": [[[-95.4375591, 35.7545554], [-95.4374278, 35.7545536], [-95.4374271, 35.7545862], [-95.4373966, 35.7545858], [-95.4373957, 35.7546294], [-95.4375977, 35.7546322], [-95.4375993, 35.7545538], [-95.4375591, 35.7545532], [-95.4375591, 35.7545554]]]}, "properties": {"osm_id": 1312944758, "building": "detached", "name": "", "height": null, "height_m": null, "levels": null, "tract_id": "40101001200", "tract_name": "12", "tags": {"building": "detached"}}}, {"type": "Feature", "geometry": {"type": "Polygon", "coordinates": [[[-95.4348038, 35.7544056], [-95.4348018, 35.754534], [-95.4349145, 35.7545352], [-95.4349165, 35.7544068], [-95.4348038, 35.7544056]]]}, "properties": {"osm_id": 1312944759, "building": "yes", "name": "", "height": null, "height_m": null, "levels": null, "tract_id": "40101001200", "tract_name": "12", "tags": {"building": "yes"}}}, {"type": "Feature", "geometry": {"type": "Polygon", "coordinates": [[[-95.4364764, 35.7546339], [-95.4364751, 35.7545425], [-95.4364259, 35.7545429], [-95.4364263, 35.7545725], [-95.4363388, 35.7545734], [-95.4363397, 35.7546352], [-95.4364764, 35.7546339]]]}, "properties": {"osm_id": 1312944760, "building": "detached", "name": "", "height": null, "height_m": null, "levels": null, "tract_id": "40101001200", "tract_name": "12", "tags": {"building": "detached"}}}, {"type": "Feature", "geometry": {"type": "Polygon", "coordinates": [[[-95.4344227, 35.7546327], [-95.4344656, 35.754632], [-95.4344663, 35.7546571], [-95.4345672, 35.7546553], [-95.4345667, 35.7546367], [-95.4346463, 35.7546354], [-95.4346437, 35.7545343], [-95.4344202, 35.7545382], [-95.4344227, 35.7546327]]]}, "properties": {"osm_id": 1312944761, "building": "detached", "name": "", "height": null, "height_m": null, "levels": null, "tract_id": "40101001200", "tract_name": "12", "tags": {"building": "detached"}}}, {"type": "Feature", "geometry": {"type": "Polygon", "coordinates": [[[-95.4339801, 35.7546277], [-95.4340589, 35.7546263], [-95.4340597, 35.7546568], [-95.4341268, 35.7546555], [-95.434126, 35.7546294], [-95.4341797, 35.7546285], [-95.4341763, 35.7545066], [-95.4341039, 35.7545079], [-95.4341049, 35.7545428], [-95.4339778, 35.7545451], [-95.4339801, 35.7546277]]]}, "properties": {"osm_id": 1312944762, "building": "detached", "name": "", "height": null, "height_m": null, "levels": null, "tract_id": "40101001200", "tract_name": "12", "tags": {"building": "detached"}}}, {"type": "Feature", "geometry": {"type": "Polygon", "coordinates": [[[-95.4362426, 35.754585], [-95.4362454, 35.7546437], [-95.4361999, 35.7546451], [-95.4362034, 35.754719], [-95.4363132, 35.7547156], [-95.4363069, 35.754583], [-95.4362426, 35.754585]]]}, "properties": {"osm_id": 1312944763, "building": "detached", "name": "", "height": null, "height_m": null, "levels": null, "tract_id": "40101001200", "tract_name": "12", "tags": {"building": "detached"}}}, {"type": "Feature", "geometry": {"type": "Polygon", "coordinates": [[[-95.4381475, 35.7544558], [-95.4380286, 35.7544558], [-95.4380286, 35.7545072], [-95.4380527, 35.7545072], [-95.4380527, 35.7545898], [-95.4380939, 35.7545898], [-95.4380939, 35.7546232], [-95.4381474, 35.7546232], [-95.4381475, 35.7544558]]]}, "properties": {"osm_id": 1312944764, "building": "detached", "name": "", "height": null, "height_m": null, "levels": null, "tract_id": "40101001200", "tract_name": "12", "tags": {"building": "detached"}}}, {"type": "Feature", "geometry": {"type": "Polygon", "coordinates": [[[-95.443795, 35.7553041], [-95.443913, 35.7553056], [-95.4439159, 35.7551577], [-95.4437979, 35.7551561], [-95.443795, 35.7553041]]]}, "properties": {"osm_id": 1313523542, "building": "detached", "name": "", "height": null, "height_m": null, "levels": null, "tract_id": "40101001200", "tract_name": "12", "tags": {"building": "detached"}}}, {"type": "Feature", "geometry": {"type": "Polygon", "coordinates": [[[-95.4402015, 35.7543927], [-95.440202, 35.754508], [-95.4401859, 35.7545081], [-95.4401862, 35.7545799], [-95.4403525, 35.7545794], [-95.4403517, 35.7543922], [-95.4402015, 35.7543927]]]}, "properties": {"osm_id": 1313523543, "building": "detached", "name": "", "height": null, "height_m": null, "levels": null, "tract_id": "40101001200", "tract_name": "12", "tags": {"building": "detached"}}}, {"type": "Feature", "geometry": {"type": "Polygon", "coordinates": [[[-95.44186, 35.7552053], [-95.4418627, 35.7552855], [-95.441934, 35.7552839], [-95.4419347, 35.7553023], [-95.4418916, 35.7553032], [-95.4418929, 35.7553437], [-95.4419772, 35.7553419], [-95.4419763, 35.7553136], [-95.4420272, 35.7553124], [-95.4420235, 35.7552017], [-95.44186, 35.7552053]]]}, "properties": {"osm_id": 1313523544, "building": "detached", "name": "", "height": null, "height_m": null, "levels": null, "tract_id": "40101001200", "tract_name": "12", "tags": {"building": "detached"}}}, {"type": "Feature", "geometry": {"type": "Polygon", "coordinates": [[[-95.4431371, 35.7545499], [-95.4431318, 35.7546603], [-95.4432775, 35.7546649], [-95.4432828, 35.7545546], [-95.4431371, 35.7545499]]]}, "properties": {"osm_id": 1313523545, "building": "detached", "name": "", "height": null, "height_m": null, "levels": null, "tract_id": "40101001200", "tract_name": "12", "tags": {"building": "detached"}}}, {"type": "Feature", "geometry": {"type": "Polygon", "coordinates": [[[-95.443484, 35.7546281], [-95.4435687, 35.7546271], [-95.4435692, 35.7546523], [-95.4436489, 35.7546513], [-95.4436471, 35.7545521], [-95.4434827, 35.7545541], [-95.443484, 35.7546281]]]}, "properties": {"osm_id": 1313523546, "building": "detached", "name": "", "height": null, "height_m": null, "levels": null, "tract_id": "40101001200", "tract_name": "12", "tags": {"building": "detached"}}}, {"type": "Feature", "geometry": {"type": "Polygon", "coordinates": [[[-95.4416934, 35.7555365], [-95.4416926, 35.7554298], [-95.441597, 35.7554303], [-95.4415978, 35.755537], [-95.4416934, 35.7555365]]]}, "properties": {"osm_id": 1313523547, "building": "yes", "name": "", "height": null, "height_m": null, "levels": null, "tract_id": "40101001200", "tract_name": "12", "tags": {"building": "yes"}}}, {"type": "Feature", "geometry": {"type": "Polygon", "coordinates": [[[-95.4407086, 35.7546371], [-95.4407729, 35.7546363], [-95.4407722, 35.7546002], [-95.440902, 35.7545986], [-95.4409005, 35.7545193], [-95.4407449, 35.7545213], [-95.4407456, 35.7545561], [-95.4406759, 35.754557], [-95.4406768, 35.7546058], [-95.440708, 35.7546054], [-95.4407086, 35.7546371]]]}, "properties": {"osm_id": 1313523548, "building": "detached", "name": "", "height": null, "height_m": null, "levels": null, "tract_id": "40101001200", "tract_name": "12", "tags": {"building": "detached"}}}, {"type": "Feature", "geometry": {"type": "Polygon", "coordinates": [[[-95.4455477, 35.7553816], [-95.4456522, 35.755383], [-95.4456536, 35.7553165], [-95.445549, 35.7553151], [-95.4455477, 35.7553816]]]}, "properties": {"osm_id": 1313523549, "building": "yes", "name": "", "height": null, "height_m": null, "levels": null, "tract_id": "40101001200", "tract_name": "12", "tags": {"building": "yes"}}}, {"type": "Feature", "geometry": {"type": "Polygon", "coordinates": [[[-95.4408181, 35.7552238], [-95.4407718, 35.7552238], [-95.4406035, 35.7552238], [-95.440574, 35.7552238], [-95.440574, 35.7555851], [-95.4408181, 35.7555851], [-95.4408181, 35.7552238]]]}, "properties": {"osm_id": 1313523550, "building": "yes", "name": "", "height": null, "height_m": null, "levels": null, "tract_id": "40101001200", "tract_name": "12", "tags": {"building": "yes"}}}, {"type": "Feature", "geometry": {"type": "Polygon", "coordinates": [[[-95.441597, 35.755289], [-95.441596, 35.755337], [-95.441678, 35.755338], [-95.441678, 35.75529], [-95.441597, 35.755289]]]}, "properties": {"osm_id": 1313523551, "building": "yes", "name": "", "height": null, "height_m": null, "levels": null, "tract_id": "40101001200", "tract_name": "12", "tags": {"building": "yes"}}}, {"type": "Feature", "geometry": {"type": "Polygon", "coordinates": [[[-95.4429833, 35.755234], [-95.4426615, 35.7552293], [-95.4426571, 35.7554263], [-95.4427027, 35.7554269], [-95.4427005, 35.7555292], [-95.44267, 35.7555288], [-95.4426687, 35.7555875], [-95.4426992, 35.755588], [-95.4426955, 35.7557544], [-95.442902, 35.7557574], [-95.4429087, 35.7554539], [-95.4429784, 35.7554549], [-95.4429833, 35.755234]]]}, "properties": {"osm_id": 1313523552, "building": "school", "name": "Muskogee Seventh-Day Adventist Christian Academy", "height": null, "height_m": null, "levels": null, "tract_id": "40101001200", "tract_name": "12", "tags": {"amenity": "school", "building": "school", "name": "Muskogee Seventh-Day Adventist Christian Academy"}}}, {"type": "Feature", "geometry": {"type": "Polygon", "coordinates": [[[-95.4441772, 35.7552243], [-95.4440913, 35.7552232], [-95.4440871, 35.7554321], [-95.4440576, 35.7554317], [-95.4440568, 35.7554731], [-95.4441721, 35.7554746], [-95.4441772, 35.7552243]]]}, "properties": {"osm_id": 1313523553, "building": "detached", "name": "", "height": null, "height_m": null, "levels": null, "tract_id": "40101001200", "tract_name": "12", "tags": {"building": "detached"}}}, {"type": "Feature", "geometry": {"type": "Polygon", "coordinates": [[[-95.4425449, 35.7547002], [-95.4426629, 35.7546991], [-95.4426614, 35.7545925], [-95.4425756, 35.7545932], [-95.4425761, 35.7546281], [-95.4425439, 35.7546284], [-95.4425449, 35.7547002]]]}, "properties": {"osm_id": 1313523554, "building": "detached", "name": "", "height": null, "height_m": null, "levels": null, "tract_id": "40101001200", "tract_name": "12", "tags": {"building": "detached"}}}, {"type": "Feature", "geometry": {"type": "Polygon", "coordinates": [[[-95.4439562, 35.7546992], [-95.4438972, 35.7547], [-95.4438983, 35.7547511], [-95.4439573, 35.7547503], [-95.4439562, 35.7546992]]]}, "properties": {"osm_id": 1313523555, "building": "yes", "name": "", "height": null, "height_m": null, "levels": null, "tract_id": "40101001200", "tract_name": "12", "tags": {"building": "yes"}}}, {"type": "Feature", "geometry": {"type": "Polygon", "coordinates": [[[-95.4413437, 35.7545929], [-95.4413445, 35.7546473], [-95.4414438, 35.7546463], [-95.4414444, 35.7546889], [-95.4414997, 35.7546883], [-95.4414991, 35.7546501], [-95.4415431, 35.7546497], [-95.441544, 35.7547084], [-95.4416137, 35.7547077], [-95.4416119, 35.7545914], [-95.4415583, 35.754592], [-95.4415571, 35.7545167], [-95.4415061, 35.7545173], [-95.4415073, 35.7545913], [-95.4413437, 35.7545929]]]}, "properties": {"osm_id": 1313523556, "building": "detached", "name": "", "height": null, "height_m": null, "levels": null, "tract_id": "40101001200", "tract_name": "12", "tags": {"building": "detached"}}}, {"type": "Feature", "geometry": {"type": "Polygon", "coordinates": [[[-95.4398853, 35.7553006], [-95.4397986, 35.7553032], [-95.4398014, 35.7553649], [-95.4397586, 35.7553662], [-95.439762, 35.7554414], [-95.4398915, 35.7554376], [-95.4398853, 35.7553006]]]}, "properties": {"osm_id": 1313523557, "building": "detached", "name": "", "height": null, "height_m": null, "levels": null, "tract_id": "40101001200", "tract_name": "12", "tags": {"building": "detached"}}}, {"type": "Feature", "geometry": {"type": "Polygon", "coordinates": [[[-95.4420254, 35.754619], [-95.441953, 35.7546184], [-95.4419519, 35.7547011], [-95.4420243, 35.7547017], [-95.4420254, 35.754619]]]}, "properties": {"osm_id": 1313523558, "building": "detached", "name": "", "height": null, "height_m": null, "levels": null, "tract_id": "40101001200", "tract_name": "12", "tags": {"building": "detached"}}}, {"type": "Feature", "geometry": {"type": "Polygon", "coordinates": [[[-95.4402323, 35.7552876], [-95.4401672, 35.755288], [-95.440167, 35.7552706], [-95.4400741, 35.7552712], [-95.4400749, 35.7553495], [-95.4400963, 35.7553493], [-95.4400972, 35.7554516], [-95.4401657, 35.7554512], [-95.4401654, 35.7554207], [-95.4402166, 35.7554204], [-95.4402159, 35.7553402], [-95.4402328, 35.7553401], [-95.4402323, 35.7552876]]]}, "properties": {"osm_id": 1313523559, "building": "detached", "name": "", "height": null, "height_m": null, "levels": null, "tract_id": "40101001200", "tract_name": "12", "tags": {"addr:city": "Muskogee", "addr:country": "US", "addr:housenumber": "6012", "addr:state": "OK", "addr:street": "West Okmulgee Avenue", "building": "detached"}}}, {"type": "Feature", "geometry": {"type": "Polygon", "coordinates": [[[-95.4416986, 35.7545447], [-95.4417038, 35.7546936], [-95.441804, 35.7546913], [-95.4417988, 35.7545424], [-95.4416986, 35.7545447]]]}, "properties": {"osm_id": 1313523560, "building": "detached", "name": "", "height": null, "height_m": null, "levels": null, "tract_id": "40101001200", "tract_name": "12", "tags": {"building": "detached"}}}, {"type": "Feature", "geometry": {"type": "Polygon", "coordinates": [[[-95.4503931, 35.7554101], [-95.4504879, 35.755408], [-95.4504843, 35.7553014], [-95.4503895, 35.7553035], [-95.4503931, 35.7554101]]]}, "properties": {"osm_id": 1313523561, "building": "detached", "name": "", "height": null, "height_m": null, "levels": null, "tract_id": "40101001200", "tract_name": "12", "tags": {"building": "detached"}}}, {"type": "Feature", "geometry": {"type": "Polygon", "coordinates": [[[-95.5544218, 35.7544984], [-95.5544206, 35.7545425], [-95.5543801, 35.7545777], [-95.5543232, 35.7545766], [-95.5542931, 35.7545452], [-95.5542945, 35.7544951], [-95.5543264, 35.7544668], [-95.5543881, 35.754468], [-95.5544218, 35.7544984]]]}, "properties": {"osm_id": 1313633258, "building": "yes", "name": "", "height": null, "height_m": null, "levels": null, "tract_id": "40101001200", "tract_name": "12", "tags": {"building": "yes"}}}, {"type": "Feature", "geometry": {"type": "Polygon", "coordinates": [[[-95.5548595, 35.7550235], [-95.5548175, 35.7549906], [-95.5548192, 35.7549416], [-95.5548769, 35.7548999], [-95.5549291, 35.7549032], [-95.5549741, 35.7549438], [-95.5549723, 35.7549944], [-95.5549338, 35.7550259], [-95.5548595, 35.7550235]]]}, "properties": {"osm_id": 1313633259, "building": "yes", "name": "", "height": null, "height_m": null, "levels": null, "tract_id": "40101001200", "tract_name": "12", "tags": {"building": "yes"}}}, {"type": "Feature", "geometry": {"type": "Polygon", "coordinates": [[[-95.555313, 35.7549391], [-95.5553528, 35.7549044], [-95.5554132, 35.754905], [-95.5554656, 35.7549511], [-95.5554624, 35.7549935], [-95.5554131, 35.7550307], [-95.5553508, 35.7550301], [-95.5553113, 35.7549995], [-95.555313, 35.7549391]]]}, "properties": {"osm_id": 1313633260, "building": "yes", "name": "", "height": null, "height_m": null, "levels": null, "tract_id": "40101001200", "tract_name": "12", "tags": {"building": "yes"}}}, {"type": "Feature", "geometry": {"type": "Polygon", "coordinates": [[[-95.5560102, 35.7545577], [-95.5559713, 35.7545931], [-95.555911, 35.7545936], [-95.5558573, 35.7545484], [-95.5558594, 35.754506], [-95.5559076, 35.7544679], [-95.55597, 35.7544674], [-95.5560102, 35.7544973], [-95.5560102, 35.7545577]]]}, "properties": {"osm_id": 1313633261, "building": "yes", "name": "", "height": null, "height_m": null, "levels": null, "tract_id": "40101001200", "tract_name": "12", "tags": {"building": "yes"}}}, {"type": "Feature", "geometry": {"type": "Polygon", "coordinates": [[[-95.5542621, 35.7545762], [-95.5542634, 35.754464], [-95.5537484, 35.7544601], [-95.5537471, 35.7545724], [-95.5542621, 35.7545762]]]}, "properties": {"osm_id": 1313633262, "building": "yes", "name": "", "height": null, "height_m": null, "levels": null, "tract_id": "40101001200", "tract_name": "12", "tags": {"building": "yes"}}}, {"type": "Feature", "geometry": {"type": "Polygon", "coordinates": [[[-95.5547711, 35.7549451], [-95.5548613, 35.754874], [-95.554469, 35.7545464], [-95.5543788, 35.7546176], [-95.5547711, 35.7549451]]]}, "properties": {"osm_id": 1313633263, "building": "yes", "name": "", "height": null, "height_m": null, "levels": null, "tract_id": "40101001200", "tract_name": "12", "tags": {"building": "yes"}}}, {"type": "Feature", "geometry": {"type": "Polygon", "coordinates": [[[-95.5553083, 35.7550284], [-95.55531, 35.7549009], [-95.5550041, 35.7548982], [-95.5550024, 35.7550257], [-95.5553083, 35.7550284]]]}, "properties": {"osm_id": 1313633264, "building": "yes", "name": "", "height": null, "height_m": null, "levels": null, "tract_id": "40101001200", "tract_name": "12", "tags": {"building": "yes"}}}, {"type": "Feature", "geometry": {"type": "Polygon", "coordinates": [[[-95.5559264, 35.7546257], [-95.5558176, 35.7545351], [-95.5553965, 35.7548682], [-95.5555053, 35.7549588], [-95.5559264, 35.7546257]]]}, "properties": {"osm_id": 1313633265, "building": "yes", "name": "", "height": null, "height_m": null, "levels": null, "tract_id": "40101001200", "tract_name": "12", "tags": {"building": "yes"}}}, {"type": "Feature", "geometry": {"type": "Polygon", "coordinates": [[[-95.5565795, 35.7544717], [-95.5565786, 35.7545958], [-95.5560254, 35.7545931], [-95.5560263, 35.754469], [-95.5565795, 35.7544717]]]}, "properties": {"osm_id": 1313633266, "building": "yes", "name": "", "height": null, "height_m": null, "levels": null, "tract_id": "40101001200", "tract_name": "12", "tags": {"building": "yes"}}}, {"type": "Feature", "geometry": {"type": "Polygon", "coordinates": [[[-95.5527321, 35.7515536], [-95.5527329, 35.7515221], [-95.5526418, 35.7515204], [-95.5526384, 35.7516445], [-95.5528073, 35.7516475], [-95.5528098, 35.751555], [-95.5527321, 35.7515536]]]}, "properties": {"osm_id": 1313633279, "building": "detached", "name": "", "height": null, "height_m": null, "levels": null, "tract_id": "40101001200", "tract_name": "12", "tags": {"building": "detached", "source": "microsoft/BuildingFootprints"}}}, {"type": "Feature", "geometry": {"type": "Polygon", "coordinates": [[[-95.5019576, 35.7614163], [-95.501963, 35.7612881], [-95.5016663, 35.7612798], [-95.5016609, 35.7614081], [-95.5019576, 35.7614163]]]}, "properties": {"osm_id": 1382543351, "building": "yes", "name": "", "height": null, "height_m": null, "levels": null, "tract_id": "40101001200", "tract_name": "12", "tags": {"building": "yes"}}}, {"type": "Feature", "geometry": {"type": "Polygon", "coordinates": [[[-95.4148346, 35.7388382], [-95.4146236, 35.7388371], [-95.414621, 35.7384303], [-95.414589, 35.7384298], [-95.4145858, 35.7383473], [-95.4148669, 35.7383484], [-95.4148701, 35.7384857], [-95.4148311, 35.7384857], [-95.4148324, 35.7385578], [-95.4148771, 35.7385578], [-95.4148784, 35.7386039], [-95.414833, 35.7386039], [-95.4148346, 35.7388382]]]}, "properties": {"osm_id": 1432655450, "building": "yes", "name": "", "height": null, "height_m": null, "levels": null, "tract_id": "40101001200", "tract_name": "12", "tags": {"building": "yes"}}}, {"type": "Feature", "geometry": {"type": "Polygon", "coordinates": [[[-95.4136354, 35.7387882], [-95.4133835, 35.738787], [-95.4133813, 35.7386376], [-95.4136354, 35.7386406], [-95.4136354, 35.7387882]]]}, "properties": {"osm_id": 1432655451, "building": "yes", "name": "", "height": null, "height_m": null, "levels": null, "tract_id": "40101001200", "tract_name": "12", "tags": {"building": "yes"}}}, {"type": "Feature", "geometry": {"type": "Polygon", "coordinates": [[[-95.4131158, 35.7387966], [-95.4130609, 35.7387961], [-95.4130627, 35.7386536], [-95.4131176, 35.7386541], [-95.4131158, 35.7387966]]]}, "properties": {"osm_id": 1432655452, "building": "yes", "name": "", "height": null, "height_m": null, "levels": null, "tract_id": "40101001200", "tract_name": "12", "tags": {"building": "yes"}}}]}