{"type": "FeatureCollection", "features": [{"type": "Feature", "geometry": {"type": "Polygon", "coordinates": [[[-97.1015617, 36.7301587], [-97.1017928, 36.7301595], [-97.1019733, 36.7301602], [-97.1019717, 36.7304596], [-97.1015601, 36.7304582], [-97.1015617, 36.7301587]]]}, "properties": {"osm_id": 200854848, "building": "hangar", "name": "", "height": null, "height_m": null, "levels": null, "tract_id": "40071000100", "tract_name": "1", "tags": {"aeroway": "hangar", "building": "hangar", "source": "bing"}}}, {"type": "Feature", "geometry": {"type": "Polygon", "coordinates": [[[-97.1027311, 36.7306721], [-97.1027313, 36.7300025], [-97.1028429, 36.7300025], [-97.1028428, 36.7306721], [-97.1027311, 36.7306721]]]}, "properties": {"osm_id": 200854852, "building": "hangar", "name": "", "height": null, "height_m": null, "levels": null, "tract_id": "40071000100", "tract_name": "1", "tags": {"aeroway": "hangar", "building": "hangar", "source": "bing"}}}, {"type": "Feature", "geometry": {"type": "Polygon", "coordinates": [[[-97.1024433, 36.7316758], [-97.1023196, 36.7316768], [-97.1023098, 36.7309461], [-97.1024335, 36.730945], [-97.1024433, 36.7316758]]]}, "properties": {"osm_id": 200854859, "building": "hangar", "name": "", "height": null, "height_m": null, "levels": null, "tract_id": "40071000100", "tract_name": "1", "tags": {"aeroway": "hangar", "building": "hangar", "source": "bing"}}}, {"type": "Feature", "geometry": {"type": "Polygon", "coordinates": [[[-97.1028632, 36.7317805], [-97.1027477, 36.7317811], [-97.1027405, 36.7309472], [-97.102856, 36.7309466], [-97.1028632, 36.7317805]]]}, "properties": {"osm_id": 200854863, "building": "hangar", "name": "", "height": null, "height_m": null, "levels": null, "tract_id": "40071000100", "tract_name": "1", "tags": {"aeroway": "hangar", "building": "hangar", "source": "bing"}}}, {"type": "Feature", "geometry": {"type": "Polygon", "coordinates": [[[-97.1022987, 36.730004], [-97.1024182, 36.7300032], [-97.1024251, 36.7306817], [-97.1023056, 36.7306824], [-97.1022987, 36.730004]]]}, "properties": {"osm_id": 200854865, "building": "hangar", "name": "", "height": null, "height_m": null, "levels": null, "tract_id": "40071000100", "tract_name": "1", "tags": {"aeroway": "hangar", "building": "hangar", "source": "bing"}}}, {"type": "Feature", "geometry": {"type": "Polygon", "coordinates": [[[-97.1115392, 36.7238065], [-97.1086371, 36.7238194], [-97.108632, 36.7235741], [-97.1085199, 36.7235806], [-97.1085187, 36.7233782], [-97.108404, 36.7233793], [-97.108395, 36.7231333], [-97.108623, 36.7231397], [-97.1085995, 36.7220135], [-97.1096241, 36.7220006], [-97.1096349, 36.7227058], [-97.1115392, 36.7227015], [-97.1115392, 36.7238065]]]}, "properties": {"osm_id": 200888381, "building": "yes", "name": "", "height": null, "height_m": null, "levels": null, "tract_id": "40071000100", "tract_name": "1", "tags": {"building": "yes", "source": "bing"}}}, {"type": "Feature", "geometry": {"type": "Polygon", "coordinates": [[[-97.0840198, 36.7390451], [-97.0838772, 36.7390451], [-97.0838772, 36.7389793], [-97.0840198, 36.7389793], [-97.0840198, 36.7390451]]]}, "properties": {"osm_id": 209291673, "building": "yes", "name": "Computer Solutions Unlimited", "height": null, "height_m": null, "levels": null, "tract_id": "40071000100", "tract_name": "1", "tags": {"addr:city": "Ponca City", "addr:country": "US", "addr:housenumber": "105", "addr:postcode": "74601", "addr:state": "OK", "addr:street": "West Prospect Avenue", "building": "yes", "email": "csu@csupc.com", "name": "Computer Solutions Unlimited", "phone": "+1-580-718-9100", "shop": "computer", "website": "https://www.csupc.com/"}}}, {"type": "Feature", "geometry": {"type": "Polygon", "coordinates": [[[-97.1023307, 36.7221219], [-97.1023304, 36.7223508], [-97.1019375, 36.7223504], [-97.1019362, 36.7232198], [-97.1018464, 36.7232197], [-97.1018474, 36.7225003], [-97.1017049, 36.7225001], [-97.1017038, 36.7232266], [-97.1016468, 36.7232266], [-97.1016465, 36.7234453], [-97.1023326, 36.7234459], [-97.1023319, 36.7239378], [-97.102741, 36.7239382], [-97.1027415, 36.7235476], [-97.1026847, 36.7235476], [-97.1026858, 36.7227545], [-97.102792, 36.7227546], [-97.1027923, 36.7225506], [-97.1026781, 36.7225505], [-97.1026788, 36.7221222], [-97.1023307, 36.7221219]]]}, "properties": {"osm_id": 223336670, "building": "industrial", "name": "Mertz Manufacturing", "height": null, "height_m": null, "levels": null, "tract_id": "40071000100", "tract_name": "1", "tags": {"addr:city": "Ponca City", "addr:country": "US", "addr:housenumber": "1701", "addr:postcode": "74601", "addr:street": "North Waverly Street", "building": "industrial", "name": "Mertz Manufacturing"}}}, {"type": "Feature", "geometry": {"type": "Polygon", "coordinates": [[[-97.095414, 36.7244417], [-97.095404, 36.7248746], [-97.095832, 36.7248711], [-97.0958325, 36.7249109], [-97.0959273, 36.7249101], [-97.0959268, 36.7248704], [-97.0971263, 36.7248606], [-97.0971238, 36.72431], [-97.0968924, 36.724316], [-97.0968924, 36.7244178], [-97.0966385, 36.7244178], [-97.0966385, 36.7242801], [-97.0964344, 36.7242801], [-97.0964344, 36.7244257], [-97.095414, 36.7244417]]]}, "properties": {"osm_id": 223338318, "building": "industrial", "name": "Mid-America Door Company", "height": null, "height_m": null, "levels": null, "tract_id": "40071000100", "tract_name": "1", "tags": {"addr:city": "Ponca City", "addr:country": "US", "addr:housenumber": "1001", "addr:postcode": "74601", "addr:street": "West Hartford Avenue", "building": "industrial", "name": "Mid-America Door Company"}}}, {"type": "Feature", "geometry": {"type": "Polygon", "coordinates": [[[-97.0781851, 36.7209304], [-97.0781922, 36.7209383], [-97.078188, 36.7212763], [-97.0780045, 36.7212753], [-97.0780074, 36.7209322], [-97.0781851, 36.7209304]]]}, "properties": {"osm_id": 238735996, "building": "yes", "name": "Edwin Fair Community Health Clinic", "height": null, "height_m": null, "levels": null, "tract_id": "40071000100", "tract_name": "1", "tags": {"addr:city": "Ponca City", "addr:country": "US", "addr:county": "Kay", "addr:housenumber": "1500", "addr:postcode": "74601", "addr:state": "OK", "addr:street": "North 6th Street", "amenity": "clinic", "building": "yes", "name": "Edwin Fair Community Health Clinic", "source": "Bing"}}}, {"type": "Feature", "geometry": {"type": "Polygon", "coordinates": [[[-97.0909879, 36.7250747], [-97.0905893, 36.7254018], [-97.090839, 36.7255942], [-97.0912327, 36.7252671], [-97.0909879, 36.7250747]]]}, "properties": {"osm_id": 263911883, "building": "yes", "name": "", "height": null, "height_m": null, "levels": null, "tract_id": "40071000100", "tract_name": "1", "tags": {"abandoned": "yes", "building": "yes"}}}, {"type": "Feature", "geometry": {"type": "Polygon", "coordinates": [[[-97.0848391, 36.7248845], [-97.084843, 36.724616], [-97.0842333, 36.7246104], [-97.0842295, 36.7248789], [-97.0848391, 36.7248845]]]}, "properties": {"osm_id": 263911906, "building": "yes", "name": "NewPoint Church", "height": null, "height_m": null, "levels": null, "tract_id": "40071000100", "tract_name": "1", "tags": {"addr:city": "Ponca City", "addr:housenumber": "109", "addr:postcode": "74601", "addr:state": "OK", "addr:street": "West Hartford Avenue", "amenity": "place_of_worship", "building": "yes", "denomination": "baptist", "name": "NewPoint Church", "religion": "christian"}}}, {"type": "Feature", "geometry": {"type": "Polygon", "coordinates": [[[-97.1113917, 36.725436], [-97.1113917, 36.7261648], [-97.1111932, 36.7261648], [-97.1111932, 36.7261928], [-97.1109653, 36.7261928], [-97.1109653, 36.7262508], [-97.1107936, 36.7262508], [-97.1107936, 36.726196], [-97.1107587, 36.726196], [-97.1107587, 36.7262508], [-97.1104932, 36.7262508], [-97.1104932, 36.7261433], [-97.1095893, 36.7261433], [-97.1095893, 36.726253], [-97.1095115, 36.726253], [-97.1095115, 36.7264293], [-97.1090797, 36.7264293], [-97.1090797, 36.7261261], [-97.1089563, 36.7261261], [-97.1089563, 36.7258144], [-97.1086371, 36.7258144], [-97.1086371, 36.7256145], [-97.1089026, 36.7256145], [-97.1089026, 36.7252125], [-97.1092057, 36.7252125], [-97.1092057, 36.7256145], [-97.1095759, 36.7256145], [-97.1095759, 36.7255822], [-97.1105012, 36.7255822], [-97.1105012, 36.725436], [-97.1113917, 36.725436]]]}, "properties": {"osm_id": 515717490, "building": "factory", "name": "Dorada Foods", "height": null, "height_m": null, "levels": null, "tract_id": "40071000100", "tract_name": "1", "tags": {"addr:city": "Ponca City", "addr:housenumber": "2000", "addr:postcode": "74601", "addr:street": "Hall Boulevard", "building": "factory", "name": "Dorada Foods"}}}, {"type": "Feature", "geometry": {"type": "Polygon", "coordinates": [[[-97.0795684, 36.7403047], [-97.0795781, 36.7397277], [-97.079494, 36.7397268], [-97.0794947, 36.7396836], [-97.0792912, 36.7396813], [-97.0792905, 36.7397256], [-97.0792429, 36.739725], [-97.0792435, 36.7396918], [-97.0788878, 36.7396879], [-97.078887, 36.7397327], [-97.0787916, 36.7397317], [-97.0787921, 36.7397013], [-97.0786379, 36.7396996], [-97.0786372, 36.7397415], [-97.0785343, 36.7397403], [-97.0785249, 36.7402976], [-97.0788536, 36.7403012], [-97.0788522, 36.7403836], [-97.0789932, 36.7403851], [-97.0789946, 36.7402985], [-97.0795684, 36.7403047]]]}, "properties": {"osm_id": 635467095, "building": "yes", "name": "Atwoods", "height": null, "height_m": null, "levels": null, "tract_id": "40071000100", "tract_name": "1", "tags": {"addr:city": "Ponca City", "addr:housenumber": "401", "addr:postcode": "74601", "addr:state": "OK", "addr:street": "East Prospect Avenue", "brand": "Atwoods", "brand:wikidata": "Q4818874", "building": "yes", "name": "Atwoods", "shop": "country_store"}}}, {"type": "Feature", "geometry": {"type": "Polygon", "coordinates": [[[-97.116905, 36.7255102], [-97.1167763, 36.7255102], [-97.1167763, 36.7253737], [-97.116905, 36.7253737], [-97.116905, 36.7255102]]]}, "properties": {"osm_id": 671074074, "building": "yes", "name": "", "height": null, "height_m": null, "levels": null, "tract_id": "40071000100", "tract_name": "1", "tags": {"building": "yes"}}}, {"type": "Feature", "geometry": {"type": "Polygon", "coordinates": [[[-97.1161312, 36.7251673], [-97.1161258, 36.7254382], [-97.1160021, 36.7254366], [-97.1160075, 36.7251657], [-97.1161312, 36.7251673]]]}, "properties": {"osm_id": 671074075, "building": "yes", "name": "", "height": null, "height_m": null, "levels": null, "tract_id": "40071000100", "tract_name": "1", "tags": {"building": "yes"}}}, {"type": "Feature", "geometry": {"type": "Polygon", "coordinates": [[[-97.0980115, 36.7364326], [-97.0972511, 36.7364273], [-97.0972553, 36.7360504], [-97.0980157, 36.7360557], [-97.0980115, 36.7364326]]]}, "properties": {"osm_id": 671074076, "building": "yes", "name": "", "height": null, "height_m": null, "levels": null, "tract_id": "40071000100", "tract_name": "1", "tags": {"building": "yes"}}}, {"type": "Feature", "geometry": {"type": "Polygon", "coordinates": [[[-97.0956056, 36.7394279], [-97.0948975, 36.7394193], [-97.0949017, 36.7391945], [-97.0956098, 36.7392031], [-97.0956056, 36.7394279]]]}, "properties": {"osm_id": 671074077, "building": "yes", "name": "", "height": null, "height_m": null, "levels": null, "tract_id": "40071000100", "tract_name": "1", "tags": {"building": "yes"}}}, {"type": "Feature", "geometry": {"type": "Polygon", "coordinates": [[[-97.0947781, 36.7397654], [-97.0947701, 36.7402125], [-97.0945148, 36.7402095], [-97.0945228, 36.7397624], [-97.0947781, 36.7397654]]]}, "properties": {"osm_id": 671074078, "building": "yes", "name": "", "height": null, "height_m": null, "levels": null, "tract_id": "40071000100", "tract_name": "1", "tags": {"building": "yes"}}}, {"type": "Feature", "geometry": {"type": "Polygon", "coordinates": [[[-97.0887968, 36.7389142], [-97.0888102, 36.7404854], [-97.0886656, 36.7404862], [-97.0886522, 36.738915], [-97.0887968, 36.7389142]]]}, "properties": {"osm_id": 671074079, "building": "yes", "name": "", "height": null, "height_m": null, "levels": null, "tract_id": "40071000100", "tract_name": "1", "tags": {"building": "yes"}}}, {"type": "Feature", "geometry": {"type": "Polygon", "coordinates": [[[-97.0890194, 36.7407498], [-97.0889188, 36.7407498], [-97.0889188, 36.7395773], [-97.0890194, 36.7395773], [-97.0890194, 36.7407498]]]}, "properties": {"osm_id": 671074080, "building": "yes", "name": "", "height": null, "height_m": null, "levels": null, "tract_id": "40071000100", "tract_name": "1", "tags": {"building": "yes"}}}, {"type": "Feature", "geometry": {"type": "Polygon", "coordinates": [[[-97.0892394, 36.7395741], [-97.089234, 36.7407649], [-97.0891293, 36.7407646], [-97.0891346, 36.7395738], [-97.0892394, 36.7395741]]]}, "properties": {"osm_id": 671074081, "building": "yes", "name": "", "height": null, "height_m": null, "levels": null, "tract_id": "40071000100", "tract_name": "1", "tags": {"building": "yes"}}}, {"type": "Feature", "geometry": {"type": "Polygon", "coordinates": [[[-97.0894352, 36.7407434], [-97.0893519, 36.7407439], [-97.0893411, 36.7395703], [-97.0894244, 36.7395698], [-97.0894352, 36.7407434]]]}, "properties": {"osm_id": 671074082, "building": "yes", "name": "", "height": null, "height_m": null, "levels": null, "tract_id": "40071000100", "tract_name": "1", "tags": {"building": "yes"}}}, {"type": "Feature", "geometry": {"type": "Polygon", "coordinates": [[[-97.0896551, 36.739558], [-97.0896632, 36.7407541], [-97.0895534, 36.7407546], [-97.0895453, 36.7395584], [-97.0896551, 36.739558]]]}, "properties": {"osm_id": 671074083, "building": "yes", "name": "", "height": null, "height_m": null, "levels": null, "tract_id": "40071000100", "tract_name": "1", "tags": {"building": "yes"}}}, {"type": "Feature", "geometry": {"type": "Polygon", "coordinates": [[[-97.0895465, 36.7394817], [-97.0895398, 36.7389314], [-97.0896559, 36.7389305], [-97.0896626, 36.7394808], [-97.0895465, 36.7394817]]]}, "properties": {"osm_id": 671074084, "building": "yes", "name": "", "height": null, "height_m": null, "levels": null, "tract_id": "40071000100", "tract_name": "1", "tags": {"building": "yes"}}}, {"type": "Feature", "geometry": {"type": "Polygon", "coordinates": [[[-97.0894378, 36.7389293], [-97.0894285, 36.739487], [-97.0893327, 36.739486], [-97.089342, 36.7389282], [-97.0894378, 36.7389293]]]}, "properties": {"osm_id": 671074085, "building": "yes", "name": "", "height": null, "height_m": null, "levels": null, "tract_id": "40071000100", "tract_name": "1", "tags": {"building": "yes"}}}, {"type": "Feature", "geometry": {"type": "Polygon", "coordinates": [[[-97.0841794, 36.7417041], [-97.0841686, 36.7421147], [-97.0839618, 36.7421112], [-97.0839725, 36.7417007], [-97.0841794, 36.7417041]]]}, "properties": {"osm_id": 671074086, "building": "yes", "name": "", "height": null, "height_m": null, "levels": null, "tract_id": "40071000100", "tract_name": "1", "tags": {"building": "yes"}}}, {"type": "Feature", "geometry": {"type": "Polygon", "coordinates": [[[-97.085031, 36.7150302], [-97.0845066, 36.7150324], [-97.0845062, 36.7149668], [-97.0850306, 36.7149647], [-97.085031, 36.7150302]]]}, "properties": {"osm_id": 671074135, "building": "yes", "name": "", "height": null, "height_m": null, "levels": null, "tract_id": "40071000100", "tract_name": "1", "tags": {"building": "yes"}}}, {"type": "Feature", "geometry": {"type": "Polygon", "coordinates": [[[-97.0850363, 36.7149098], [-97.0845106, 36.7149098], [-97.0845106, 36.7147636], [-97.0850363, 36.7147636], [-97.0850363, 36.7149098]]]}, "properties": {"osm_id": 671074136, "building": "yes", "name": "", "height": null, "height_m": null, "levels": null, "tract_id": "40071000100", "tract_name": "1", "tags": {"building": "yes"}}}, {"type": "Feature", "geometry": {"type": "Polygon", "coordinates": [[[-97.0844302, 36.7147077], [-97.0844302, 36.7145701], [-97.0850484, 36.7145701], [-97.0850484, 36.7147077], [-97.0844302, 36.7147077]]]}, "properties": {"osm_id": 671074137, "building": "yes", "name": "", "height": null, "height_m": null, "levels": null, "tract_id": "40071000100", "tract_name": "1", "tags": {"building": "yes"}}}, {"type": "Feature", "geometry": {"type": "Polygon", "coordinates": [[[-97.085035, 36.7144443], [-97.0850355, 36.714495], [-97.0845232, 36.7144982], [-97.0845227, 36.7144475], [-97.085035, 36.7144443]]]}, "properties": {"osm_id": 671074138, "building": "yes", "name": "", "height": null, "height_m": null, "levels": null, "tract_id": "40071000100", "tract_name": "1", "tags": {"building": "yes"}}}, {"type": "Feature", "geometry": {"type": "Polygon", "coordinates": [[[-97.0844395, 36.7143841], [-97.0844401, 36.7142769], [-97.085045, 36.714279], [-97.0850444, 36.7143863], [-97.0844395, 36.7143841]]]}, "properties": {"osm_id": 671074139, "building": "yes", "name": "", "height": null, "height_m": null, "levels": null, "tract_id": "40071000100", "tract_name": "1", "tags": {"building": "yes"}}}, {"type": "Feature", "geometry": {"type": "Polygon", "coordinates": [[[-97.0849746, 36.7138143], [-97.0845696, 36.7138068], [-97.0845715, 36.7137429], [-97.0849765, 36.7137504], [-97.0849746, 36.7138143]]]}, "properties": {"osm_id": 671074140, "building": "yes", "name": "", "height": null, "height_m": null, "levels": null, "tract_id": "40071000100", "tract_name": "1", "tags": {"building": "yes"}}}, {"type": "Feature", "geometry": {"type": "Polygon", "coordinates": [[[-97.0851141, 36.7137036], [-97.0845777, 36.7136971], [-97.0845792, 36.7136182], [-97.0851156, 36.7136246], [-97.0851141, 36.7137036]]]}, "properties": {"osm_id": 671074141, "building": "yes", "name": "", "height": null, "height_m": null, "levels": null, "tract_id": "40071000100", "tract_name": "1", "tags": {"building": "yes"}}}, {"type": "Feature", "geometry": {"type": "Polygon", "coordinates": [[[-97.0848674, 36.7109858], [-97.0848727, 36.7112008], [-97.0847371, 36.711203], [-97.0847317, 36.7109879], [-97.0848674, 36.7109858]]]}, "properties": {"osm_id": 671074142, "building": "yes", "name": "", "height": null, "height_m": null, "levels": null, "tract_id": "40071000100", "tract_name": "1", "tags": {"building": "yes"}}}, {"type": "Feature", "geometry": {"type": "Polygon", "coordinates": [[[-97.0833841, 36.7105729], [-97.0828624, 36.7105751], [-97.0828597, 36.7101464], [-97.0833813, 36.7101443], [-97.0833841, 36.7105729]]]}, "properties": {"osm_id": 671074170, "building": "yes", "name": "", "height": null, "height_m": null, "levels": null, "tract_id": "40071000100", "tract_name": "1", "tags": {"building": "yes"}}}, {"type": "Feature", "geometry": {"type": "Polygon", "coordinates": [[[-97.0826666, 36.7101568], [-97.0826639, 36.7104084], [-97.0824706, 36.7104071], [-97.0824733, 36.7101555], [-97.0826666, 36.7101568]]]}, "properties": {"osm_id": 671074171, "building": "yes", "name": "", "height": null, "height_m": null, "levels": null, "tract_id": "40071000100", "tract_name": "1", "tags": {"building": "yes"}}}, {"type": "Feature", "geometry": {"type": "Polygon", "coordinates": [[[-97.0849988, 36.7104514], [-97.0847936, 36.7104546], [-97.0847904, 36.7103229], [-97.0849956, 36.7103197], [-97.0849988, 36.7104514]]]}, "properties": {"osm_id": 671074172, "building": "yes", "name": "", "height": null, "height_m": null, "levels": null, "tract_id": "40071000100", "tract_name": "1", "tags": {"building": "yes"}}}, {"type": "Feature", "geometry": {"type": "Polygon", "coordinates": [[[-97.0840305, 36.7104815], [-97.08382, 36.7104794], [-97.0838218, 36.710365], [-97.0840323, 36.7103671], [-97.0840305, 36.7104815]]]}, "properties": {"osm_id": 671074173, "building": "retail", "name": "", "height": null, "height_m": 3.0, "levels": 1, "tract_id": "40071000100", "tract_name": "1", "tags": {"building": "retail", "building:levels": "1"}}}, {"type": "Feature", "geometry": {"type": "Polygon", "coordinates": [[[-97.0849242, 36.7385679], [-97.0850318, 36.7384769], [-97.08492, 36.7383921], [-97.0848125, 36.7384831], [-97.0849242, 36.7385679]]]}, "properties": {"osm_id": 868811398, "building": "roof", "name": "Conoco", "height": null, "height_m": null, "levels": null, "tract_id": "40071000100", "tract_name": "1", "tags": {"amenity": "fuel", "brand": "Conoco", "brand:wikidata": "Q1126518", "building": "roof", "name": "Conoco"}}}, {"type": "Feature", "geometry": {"type": "Polygon", "coordinates": [[[-97.0847342, 36.7384324], [-97.0847728, 36.7384015], [-97.0847717, 36.7382408], [-97.0846203, 36.7382414], [-97.0846215, 36.7384329], [-97.0847342, 36.7384324]]]}, "properties": {"osm_id": 868811399, "building": "yes", "name": "Stop N Go", "height": null, "height_m": null, "levels": null, "tract_id": "40071000100", "tract_name": "1", "tags": {"addr:city": "Ponca City", "addr:housenumber": "2911", "addr:postcode": "74601", "addr:state": "OK", "addr:street": "North Union Street", "building": "yes", "name": "Stop N Go", "shop": "convenience"}}}, {"type": "Feature", "geometry": {"type": "Polygon", "coordinates": [[[-97.0845918, 36.7352579], [-97.0845898, 36.7350517], [-97.0845313, 36.7350718], [-97.0845229, 36.7342403], [-97.0842656, 36.734242], [-97.084267, 36.7343874], [-97.0840346, 36.7343888], [-97.0840413, 36.7350581], [-97.0840081, 36.7350583], [-97.0840101, 36.7352615], [-97.0845918, 36.7352579]]]}, "properties": {"osm_id": 868811405, "building": "yes", "name": "", "height": null, "height_m": null, "levels": null, "tract_id": "40071000100", "tract_name": "1", "tags": {"building": "yes"}}}, {"type": "Feature", "geometry": {"type": "Polygon", "coordinates": [[[-97.0862256, 36.7318572], [-97.0862255, 36.7317245], [-97.0858018, 36.7317248], [-97.0858019, 36.7318688], [-97.0856658, 36.7318689], [-97.085666, 36.731998], [-97.0859226, 36.7319978], [-97.0859225, 36.7318798], [-97.0860029, 36.7318797], [-97.0860029, 36.7318574], [-97.0862256, 36.7318572]]]}, "properties": {"osm_id": 868811407, "building": "yes", "name": "Harmony Missionary Baptist Church", "height": null, "height_m": null, "levels": null, "tract_id": "40071000100", "tract_name": "1", "tags": {"addr:city": "Ponca City", "addr:housenumber": "2230", "addr:postcode": "74601", "addr:state": "OK", "addr:street": "North Union Street", "amenity": "place_of_worship", "building": "yes", "denomination": "baptist", "name": "Harmony Missionary Baptist Church", "religion": "christian"}}}, {"type": "Feature", "geometry": {"type": "Polygon", "coordinates": [[[-97.0872062, 36.7258909], [-97.0874485, 36.7256933], [-97.0873028, 36.7255785], [-97.0870605, 36.7257761], [-97.0872062, 36.7258909]]]}, "properties": {"osm_id": 868814357, "building": "apartments", "name": "", "height": null, "height_m": null, "levels": null, "tract_id": "40071000100", "tract_name": "1", "tags": {"building": "apartments"}}}, {"type": "Feature", "geometry": {"type": "Polygon", "coordinates": [[[-97.0876243, 36.726148], [-97.0877649, 36.726032], [-97.0874354, 36.7257754], [-97.0872947, 36.7258914], [-97.0876243, 36.726148]]]}, "properties": {"osm_id": 868814358, "building": "apartments", "name": "", "height": null, "height_m": null, "levels": null, "tract_id": "40071000100", "tract_name": "1", "tags": {"building": "apartments"}}}, {"type": "Feature", "geometry": {"type": "Polygon", "coordinates": [[[-97.0875299, 36.7256331], [-97.0878407, 36.7253816], [-97.0876894, 36.7252615], [-97.0873786, 36.725513], [-97.0875299, 36.7256331]]]}, "properties": {"osm_id": 868814359, "building": "apartments", "name": "", "height": null, "height_m": null, "levels": null, "tract_id": "40071000100", "tract_name": "1", "tags": {"building": "apartments"}}}, {"type": "Feature", "geometry": {"type": "Polygon", "coordinates": [[[-97.0879007, 36.7253216], [-97.0881631, 36.7251078], [-97.088013, 36.7249894], [-97.0877505, 36.7252032], [-97.0879007, 36.7253216]]]}, "properties": {"osm_id": 868814360, "building": "apartments", "name": "", "height": null, "height_m": null, "levels": null, "tract_id": "40071000100", "tract_name": "1", "tags": {"building": "apartments"}}}, {"type": "Feature", "geometry": {"type": "Polygon", "coordinates": [[[-97.0885871, 36.7251553], [-97.0885854, 36.7249859], [-97.0882281, 36.7249882], [-97.0882297, 36.7251575], [-97.0885871, 36.7251553]]]}, "properties": {"osm_id": 868814361, "building": "apartments", "name": "", "height": null, "height_m": null, "levels": null, "tract_id": "40071000100", "tract_name": "1", "tags": {"building": "apartments"}}}, {"type": "Feature", "geometry": {"type": "Polygon", "coordinates": [[[-97.0885595, 36.7248647], [-97.0885602, 36.7247575], [-97.0880657, 36.7247554], [-97.088065, 36.7248626], [-97.0885595, 36.7248647]]]}, "properties": {"osm_id": 868814362, "building": "apartments", "name": "", "height": null, "height_m": null, "levels": null, "tract_id": "40071000100", "tract_name": "1", "tags": {"building": "apartments"}}}, {"type": "Feature", "geometry": {"type": "Polygon", "coordinates": [[[-97.0885863, 36.7245835], [-97.0885874, 36.7244133], [-97.0881513, 36.7244114], [-97.0881502, 36.7245817], [-97.0885863, 36.7245835]]]}, "properties": {"osm_id": 868814363, "building": "apartments", "name": "", "height": null, "height_m": null, "levels": null, "tract_id": "40071000100", "tract_name": "1", "tags": {"building": "apartments"}}}, {"type": "Feature", "geometry": {"type": "Polygon", "coordinates": [[[-97.08788, 36.7247578], [-97.0878753, 36.7243984], [-97.0876652, 36.7244001], [-97.0876698, 36.7247596], [-97.08788, 36.7247578]]]}, "properties": {"osm_id": 868814364, "building": "apartments", "name": "", "height": null, "height_m": null, "levels": null, "tract_id": "40071000100", "tract_name": "1", "tags": {"building": "apartments"}}}, {"type": "Feature", "geometry": {"type": "Polygon", "coordinates": [[[-97.0858752, 36.7267168], [-97.0858745, 36.7265565], [-97.0854385, 36.7265577], [-97.0854392, 36.726718], [-97.0858752, 36.7267168]]]}, "properties": {"osm_id": 868814365, "building": "apartments", "name": "", "height": null, "height_m": 6.0, "levels": 2, "tract_id": "40071000100", "tract_name": "1", "tags": {"building": "apartments", "building:levels": "2"}}}, {"type": "Feature", "geometry": {"type": "Polygon", "coordinates": [[[-97.085663, 36.7272259], [-97.0856665, 36.7269359], [-97.085445, 36.7269342], [-97.0854415, 36.7272242], [-97.085663, 36.7272259]]]}, "properties": {"osm_id": 868814366, "building": "apartments", "name": "", "height": null, "height_m": 6.0, "levels": 2, "tract_id": "40071000100", "tract_name": "1", "tags": {"building": "apartments", "building:levels": "2"}}}, {"type": "Feature", "geometry": {"type": "Polygon", "coordinates": [[[-97.0856548, 36.727585], [-97.0856555, 36.7272977], [-97.0854352, 36.7272974], [-97.0854345, 36.7275847], [-97.0856548, 36.727585]]]}, "properties": {"osm_id": 868814367, "building": "apartments", "name": "", "height": null, "height_m": 6.0, "levels": 2, "tract_id": "40071000100", "tract_name": "1", "tags": {"building": "apartments", "building:levels": "2"}}}, {"type": "Feature", "geometry": {"type": "Polygon", "coordinates": [[[-97.0859813, 36.7274089], [-97.0859807, 36.7269082], [-97.085959, 36.7269082], [-97.085959, 36.7268808], [-97.085846, 36.7268809], [-97.085846, 36.7268996], [-97.0858274, 36.7268996], [-97.085828, 36.727409], [-97.0859813, 36.7274089]]]}, "properties": {"osm_id": 868814368, "building": "apartments", "name": "", "height": null, "height_m": null, "levels": null, "tract_id": "40071000100", "tract_name": "1", "tags": {"building": "apartments"}}}, {"type": "Feature", "geometry": {"type": "Polygon", "coordinates": [[[-97.0863583, 36.7270856], [-97.086363, 36.72673], [-97.0861546, 36.7267282], [-97.0861499, 36.7270838], [-97.0863583, 36.7270856]]]}, "properties": {"osm_id": 868814369, "building": "apartments", "name": "", "height": null, "height_m": null, "levels": null, "tract_id": "40071000100", "tract_name": "1", "tags": {"building": "apartments"}}}, {"type": "Feature", "geometry": {"type": "Polygon", "coordinates": [[[-97.0865167, 36.7267544], [-97.0865175, 36.7266186], [-97.0864014, 36.7266181], [-97.086401, 36.7266889], [-97.0864366, 36.726689], [-97.0864361, 36.726754], [-97.0865167, 36.7267544]]]}, "properties": {"osm_id": 868814370, "building": "yes", "name": "", "height": null, "height_m": null, "levels": null, "tract_id": "40071000100", "tract_name": "1", "tags": {"building": "yes"}}}, {"type": "Feature", "geometry": {"type": "Polygon", "coordinates": [[[-97.0880324, 36.7254683], [-97.0881367, 36.7253865], [-97.0880637, 36.7253267], [-97.0879593, 36.7254084], [-97.0880324, 36.7254683]]]}, "properties": {"osm_id": 868814371, "building": "yes", "name": "", "height": null, "height_m": null, "levels": null, "tract_id": "40071000100", "tract_name": "1", "tags": {"building": "yes"}}}, {"type": "Feature", "geometry": {"type": "Polygon", "coordinates": [[[-97.0876186, 36.7251361], [-97.0879142, 36.7248889], [-97.0878478, 36.7248379], [-97.0875522, 36.7250852], [-97.0876186, 36.7251361]]]}, "properties": {"osm_id": 868814372, "building": "carport", "name": "", "height": null, "height_m": null, "levels": null, "tract_id": "40071000100", "tract_name": "1", "tags": {"building": "carport"}}}, {"type": "Feature", "geometry": {"type": "Polygon", "coordinates": [[[-97.0872358, 36.7254469], [-97.0875796, 36.7251665], [-97.0875062, 36.7251087], [-97.0871624, 36.7253891], [-97.0872358, 36.7254469]]]}, "properties": {"osm_id": 868814373, "building": "carport", "name": "", "height": null, "height_m": null, "levels": null, "tract_id": "40071000100", "tract_name": "1", "tags": {"building": "carport"}}}, {"type": "Feature", "geometry": {"type": "Polygon", "coordinates": [[[-97.0869123, 36.7257078], [-97.0872045, 36.7254665], [-97.0871367, 36.7254138], [-97.0868445, 36.7256551], [-97.0869123, 36.7257078]]]}, "properties": {"osm_id": 868814374, "building": "carport", "name": "", "height": null, "height_m": null, "levels": null, "tract_id": "40071000100", "tract_name": "1", "tags": {"building": "carport"}}}, {"type": "Feature", "geometry": {"type": "Polygon", "coordinates": [[[-97.0870474, 36.7260043], [-97.0871045, 36.7259572], [-97.0868445, 36.7257543], [-97.0867873, 36.7258014], [-97.0870474, 36.7260043]]]}, "properties": {"osm_id": 868814375, "building": "carport", "name": "", "height": null, "height_m": null, "levels": null, "tract_id": "40071000100", "tract_name": "1", "tags": {"building": "carport"}}}, {"type": "Feature", "geometry": {"type": "Polygon", "coordinates": [[[-97.0874434, 36.7263137], [-97.0874969, 36.7262708], [-97.087231, 36.7260577], [-97.0871775, 36.7261006], [-97.0874434, 36.7263137]]]}, "properties": {"osm_id": 868814376, "building": "carport", "name": "", "height": null, "height_m": null, "levels": null, "tract_id": "40071000100", "tract_name": "1", "tags": {"building": "carport"}}}, {"type": "Feature", "geometry": {"type": "Polygon", "coordinates": [[[-97.0858261, 36.7247302], [-97.0858536, 36.7247091], [-97.0858926, 36.7246791], [-97.0859154, 36.7246616], [-97.0857115, 36.7244912], [-97.0856222, 36.7245598], [-97.0858261, 36.7247302]]]}, "properties": {"osm_id": 868814386, "building": "roof", "name": "Conoco", "height": null, "height_m": null, "levels": null, "tract_id": "40071000100", "tract_name": "1", "tags": {"amenity": "fuel", "brand": "Conoco", "brand:wikidata": "Q1126518", "building": "roof", "name": "Conoco"}}}, {"type": "Feature", "geometry": {"type": "Polygon", "coordinates": [[[-97.0860576, 36.7248138], [-97.0860573, 36.7246788], [-97.0858926, 36.7246791], [-97.0858536, 36.7247091], [-97.0858538, 36.7248141], [-97.0860576, 36.7248138]]]}, "properties": {"osm_id": 868814387, "building": "retail", "name": "Conoco", "height": null, "height_m": null, "levels": null, "tract_id": "40071000100", "tract_name": "1", "tags": {"addr:city": "Ponca City", "addr:housenumber": "201", "addr:postcode": "74601", "addr:state": "OK", "addr:street": "West Hartford Avenue", "brand": "Conoco", "brand:wikidata": "Q1126518", "building": "retail", "name": "Conoco", "shop": "convenience"}}}, {"type": "Feature", "geometry": {"type": "Polygon", "coordinates": [[[-97.0857014, 36.7262809], [-97.0857036, 36.7261026], [-97.0855103, 36.7261026], [-97.0855058, 36.7262827], [-97.0857014, 36.7262809]]]}, "properties": {"osm_id": 868814388, "building": "retail", "name": "Kush Gardens Dispensary", "height": null, "height_m": 3.0, "levels": 1, "tract_id": "40071000100", "tract_name": "1", "tags": {"addr:city": "Ponca City", "addr:housenumber": "2012", "addr:postcode": "74601", "addr:state": "OK", "addr:street": "North Union Street", "building": "retail", "building:levels": "1", "name": "Kush Gardens Dispensary", "shop": "cannabis"}}}, {"type": "Feature", "geometry": {"type": "Polygon", "coordinates": [[[-97.0858117, 36.7259528], [-97.0858143, 36.7257989], [-97.0857549, 36.7257983], [-97.0857552, 36.7257805], [-97.085538, 36.7257782], [-97.0855377, 36.7257947], [-97.0854764, 36.725794], [-97.0854738, 36.7259492], [-97.0858117, 36.7259528]]]}, "properties": {"osm_id": 868814389, "building": "retail", "name": "Kawasaki of Ponca City", "height": null, "height_m": 3.0, "levels": 1, "tract_id": "40071000100", "tract_name": "1", "tags": {"addr:city": "Ponca City", "addr:housenumber": "2000", "addr:postcode": "74601", "addr:state": "OK", "addr:street": "North Union Street", "brand": "Kawasaki", "brand:wikidata": "Q6379855", "building": "retail", "building:levels": "1", "name": "Kawasaki of Ponca City", "shop": "motorcycle"}}}, {"type": "Feature", "geometry": {"type": "Polygon", "coordinates": [[[-97.0860377, 36.7259608], [-97.0860417, 36.7256861], [-97.0858934, 36.7256847], [-97.0858895, 36.7259594], [-97.0860377, 36.7259608]]]}, "properties": {"osm_id": 868814390, "building": "yes", "name": "", "height": null, "height_m": null, "levels": null, "tract_id": "40071000100", "tract_name": "1", "tags": {"building": "yes"}}}, {"type": "Feature", "geometry": {"type": "Polygon", "coordinates": [[[-97.0860121, 36.7254826], [-97.0860153, 36.7252856], [-97.0854478, 36.7252779], [-97.085451, 36.7254775], [-97.0860121, 36.7254826]]]}, "properties": {"osm_id": 888633021, "building": "yes", "name": "", "height": null, "height_m": null, "levels": null, "tract_id": "40071000100", "tract_name": "1", "tags": {"building": "yes", "source": "Bing"}}}, {"type": "Feature", "geometry": {"type": "Polygon", "coordinates": [[[-97.0855901, 36.7251547], [-97.0855884, 36.7250173], [-97.0859248, 36.7250148], [-97.0859264, 36.7248813], [-97.0860687, 36.7248813], [-97.0860671, 36.7251586], [-97.0855901, 36.7251547]]]}, "properties": {"osm_id": 888633022, "building": "yes", "name": "", "height": null, "height_m": null, "levels": null, "tract_id": "40071000100", "tract_name": "1", "tags": {"building": "yes", "source": "Bing"}}}, {"type": "Feature", "geometry": {"type": "Polygon", "coordinates": [[[-97.0864439, 36.7246907], [-97.0860946, 36.7246881], [-97.0860978, 36.724959], [-97.0864422, 36.7249629], [-97.0864439, 36.7246907]]]}, "properties": {"osm_id": 888633023, "building": "yes", "name": "", "height": null, "height_m": null, "levels": null, "tract_id": "40071000100", "tract_name": "1", "tags": {"building": "yes", "source": "Bing"}}}, {"type": "Feature", "geometry": {"type": "Polygon", "coordinates": [[[-97.0848963, 36.7267878], [-97.0843401, 36.7267813], [-97.0843401, 36.7268591], [-97.0848899, 36.7268655], [-97.0848963, 36.7267878]]]}, "properties": {"osm_id": 888633024, "building": "yes", "name": "", "height": null, "height_m": null, "levels": null, "tract_id": "40071000100", "tract_name": "1", "tags": {"building": "yes", "source": "Bing"}}}, {"type": "Feature", "geometry": {"type": "Polygon", "coordinates": [[[-97.0842754, 36.7268629], [-97.0842754, 36.7267852], [-97.0838663, 36.72678], [-97.0838679, 36.7268513], [-97.0842754, 36.7268629]]]}, "properties": {"osm_id": 888633025, "building": "yes", "name": "", "height": null, "height_m": null, "levels": null, "tract_id": "40071000100", "tract_name": "1", "tags": {"building": "yes", "source": "Bing"}}}, {"type": "Feature", "geometry": {"type": "Polygon", "coordinates": [[[-97.0847977, 36.726745], [-97.0843854, 36.7267372], [-97.084387, 36.7265636], [-97.0848155, 36.7265662], [-97.0847977, 36.726745]]]}, "properties": {"osm_id": 888633026, "building": "yes", "name": "", "height": null, "height_m": null, "levels": null, "tract_id": "40071000100", "tract_name": "1", "tags": {"building": "yes", "source": "Bing"}}}, {"type": "Feature", "geometry": {"type": "Polygon", "coordinates": [[[-97.0840425, 36.7267139], [-97.0840474, 36.7265247], [-97.0838776, 36.7265234], [-97.0838744, 36.7267113], [-97.0840425, 36.7267139]]]}, "properties": {"osm_id": 888633027, "building": "yes", "name": "", "height": null, "height_m": null, "levels": null, "tract_id": "40071000100", "tract_name": "1", "tags": {"building": "yes", "source": "Bing"}}}, {"type": "Feature", "geometry": {"type": "Polygon", "coordinates": [[[-97.0839261, 36.7262512], [-97.0834216, 36.7262382], [-97.0834232, 36.7264301], [-97.0839261, 36.7264365], [-97.0839261, 36.7262512]]]}, "properties": {"osm_id": 888633028, "building": "yes", "name": "", "height": null, "height_m": null, "levels": null, "tract_id": "40071000100", "tract_name": "1", "tags": {"building": "yes", "source": "Bing"}}}, {"type": "Feature", "geometry": {"type": "Polygon", "coordinates": [[[-97.0837482, 36.7268591], [-97.083745, 36.7267813], [-97.0832599, 36.7267761], [-97.0832615, 36.72685], [-97.0837482, 36.7268591]]]}, "properties": {"osm_id": 888633029, "building": "yes", "name": "", "height": null, "height_m": null, "levels": null, "tract_id": "40071000100", "tract_name": "1", "tags": {"building": "yes", "source": "Bing"}}}, {"type": "Feature", "geometry": {"type": "Polygon", "coordinates": [[[-97.0837385, 36.7269459], [-97.0832744, 36.7269446], [-97.0832761, 36.7270237], [-97.0837385, 36.7270275], [-97.0837385, 36.7269459]]]}, "properties": {"osm_id": 888633030, "building": "yes", "name": "", "height": null, "height_m": null, "levels": null, "tract_id": "40071000100", "tract_name": "1", "tags": {"building": "yes", "source": "Bing"}}}, {"type": "Feature", "geometry": {"type": "Polygon", "coordinates": [[[-97.0831467, 36.7269433], [-97.0826697, 36.7269407], [-97.082668, 36.7270263], [-97.0831418, 36.7270327], [-97.0831467, 36.7269433]]]}, "properties": {"osm_id": 888633031, "building": "yes", "name": "", "height": null, "height_m": null, "levels": null, "tract_id": "40071000100", "tract_name": "1", "tags": {"building": "yes", "source": "Bing"}}}, {"type": "Feature", "geometry": {"type": "Polygon", "coordinates": [[[-97.0831467, 36.7268681], [-97.0831467, 36.7267735], [-97.0826761, 36.7267657], [-97.0826761, 36.7268578], [-97.0831467, 36.7268681]]]}, "properties": {"osm_id": 888633032, "building": "yes", "name": "", "height": null, "height_m": null, "levels": null, "tract_id": "40071000100", "tract_name": "1", "tags": {"building": "yes", "source": "Bing"}}}, {"type": "Feature", "geometry": {"type": "Polygon", "coordinates": [[[-97.0831451, 36.7267295], [-97.0831483, 36.7266258], [-97.082681, 36.7266219], [-97.082681, 36.7267243], [-97.0831451, 36.7267295]]]}, "properties": {"osm_id": 888633033, "building": "yes", "name": "", "height": null, "height_m": null, "levels": null, "tract_id": "40071000100", "tract_name": "1", "tags": {"building": "yes", "source": "Bing"}}}, {"type": "Feature", "geometry": {"type": "Polygon", "coordinates": [[[-97.082508, 36.7270288], [-97.0825096, 36.7269433], [-97.0820309, 36.7269381], [-97.0820342, 36.7270211], [-97.082508, 36.7270288]]]}, "properties": {"osm_id": 888633034, "building": "yes", "name": "", "height": null, "height_m": null, "levels": null, "tract_id": "40071000100", "tract_name": "1", "tags": {"building": "yes", "source": "Bing"}}}, {"type": "Feature", "geometry": {"type": "Polygon", "coordinates": [[[-97.0825144, 36.7268617], [-97.0825144, 36.7267632], [-97.0821021, 36.7267619], [-97.0821037, 36.7268474], [-97.0825144, 36.7268617]]]}, "properties": {"osm_id": 888633035, "building": "yes", "name": "", "height": null, "height_m": null, "levels": null, "tract_id": "40071000100", "tract_name": "1", "tags": {"building": "yes", "source": "Bing"}}}, {"type": "Feature", "geometry": {"type": "Polygon", "coordinates": [[[-97.0847152, 36.725563], [-97.0847201, 36.7251936], [-97.0843643, 36.7251884], [-97.0843676, 36.7255565], [-97.0847152, 36.725563]]]}, "properties": {"osm_id": 888633036, "building": "yes", "name": "", "height": null, "height_m": null, "levels": null, "tract_id": "40071000100", "tract_name": "1", "tags": {"building": "yes", "source": "Bing"}}}, {"type": "Feature", "geometry": {"type": "Polygon", "coordinates": [[[-97.0876503, 36.7205401], [-97.0876537, 36.7203726], [-97.0872563, 36.7203701], [-97.0872663, 36.7205341], [-97.0876503, 36.7205401]]]}, "properties": {"osm_id": 1085425309, "building": "industrial", "name": "Mechanical Draft Cooling", "height": null, "height_m": null, "levels": null, "tract_id": "40071000100", "tract_name": "1", "tags": {"building": "industrial", "cooling:method": "mechanical_draft", "man_made": "cooling", "name": "Mechanical Draft Cooling"}}}, {"type": "Feature", "geometry": {"type": "Polygon", "coordinates": [[[-97.087099, 36.7204803], [-97.0871017, 36.7203153], [-97.0867978, 36.7203121], [-97.0867951, 36.7204772], [-97.087099, 36.7204803]]]}, "properties": {"osm_id": 1085425310, "building": "industrial", "name": "", "height": null, "height_m": null, "levels": null, "tract_id": "40071000100", "tract_name": "1", "tags": {"building": "industrial", "cooling:method": "mechanical_draft", "man_made": "cooling"}}}, {"type": "Feature", "geometry": {"type": "Polygon", "coordinates": [[[-97.0923407, 36.7167054], [-97.0923301, 36.7163809], [-97.0922075, 36.7163834], [-97.0922085, 36.7164126], [-97.0920865, 36.7164151], [-97.0920895, 36.7165094], [-97.0921672, 36.7165078], [-97.0921737, 36.7167089], [-97.0923407, 36.7167054]]]}, "properties": {"osm_id": 1087980326, "building": "yes", "name": "Asbury United Methodist Church", "height": null, "height_m": null, "levels": null, "tract_id": "40071000100", "tract_name": "1", "tags": {"amenity": "place_of_worship", "building": "yes", "denomination": "methodist", "ele": "304", "gnis:feature_id": "1809794", "name": "Asbury United Methodist Church", "religion": "christian", "source": "microsoft/BuildingFootprints"}}}, {"type": "Feature", "geometry": {"type": "Polygon", "coordinates": [[[-97.0908534, 36.7180758], [-97.0908085, 36.7180296], [-97.0908568, 36.7179994], [-97.0909017, 36.7180456], [-97.0908534, 36.7180758]]]}, "properties": {"osm_id": 1087990264, "building": "yes", "name": "", "height": null, "height_m": null, "levels": null, "tract_id": "40071000100", "tract_name": "1", "tags": {"building": "yes"}}}, {"type": "Feature", "geometry": {"type": "Polygon", "coordinates": [[[-97.0909439, 36.7181279], [-97.0909182, 36.7181435], [-97.0908826, 36.7181059], [-97.0909084, 36.7180903], [-97.0909439, 36.7181279]]]}, "properties": {"osm_id": 1087990265, "building": "yes", "name": "", "height": null, "height_m": null, "levels": null, "tract_id": "40071000100", "tract_name": "1", "tags": {"building": "yes"}}}, {"type": "Feature", "geometry": {"type": "Polygon", "coordinates": [[[-97.0936097, 36.7185699], [-97.0936103, 36.7186101], [-97.0935691, 36.7186106], [-97.0935684, 36.7185703], [-97.0936097, 36.7185699]]]}, "properties": {"osm_id": 1087990281, "building": "yes", "name": "", "height": null, "height_m": null, "levels": null, "tract_id": "40071000100", "tract_name": "1", "tags": {"building": "yes"}}}, {"type": "Feature", "geometry": {"type": "Polygon", "coordinates": [[[-97.0933338, 36.7186262], [-97.093339, 36.7186576], [-97.0932585, 36.7186662], [-97.0932533, 36.7186348], [-97.0933338, 36.7186262]]]}, "properties": {"osm_id": 1087990282, "building": "yes", "name": "", "height": null, "height_m": null, "levels": null, "tract_id": "40071000100", "tract_name": "1", "tags": {"building": "yes"}}}, {"type": "Feature", "geometry": {"type": "Polygon", "coordinates": [[[-97.0934687, 36.7173948], [-97.0934995, 36.7173947], [-97.0934999, 36.7174451], [-97.0934691, 36.7174452], [-97.0934687, 36.7173948]]]}, "properties": {"osm_id": 1087990291, "building": "yes", "name": "", "height": null, "height_m": null, "levels": null, "tract_id": "40071000100", "tract_name": "1", "tags": {"building": "yes"}}}, {"type": "Feature", "geometry": {"type": "Polygon", "coordinates": [[[-97.0934691, 36.7174452], [-97.0932982, 36.7174461], [-97.0932977, 36.7173829], [-97.0933641, 36.7173826], [-97.0933639, 36.7173566], [-97.0933768, 36.7173565], [-97.0933764, 36.7173079], [-97.093468, 36.7173074], [-97.0934687, 36.7173948], [-97.0934691, 36.7174452]]]}, "properties": {"osm_id": 1087990292, "building": "yes", "name": "", "height": null, "height_m": null, "levels": null, "tract_id": "40071000100", "tract_name": "1", "tags": {"building": "yes"}}}, {"type": "Feature", "geometry": {"type": "Polygon", "coordinates": [[[-97.0935832, 36.7173362], [-97.0935503, 36.7173358], [-97.093551, 36.7172982], [-97.0935839, 36.7172985], [-97.0935832, 36.7173362]]]}, "properties": {"osm_id": 1087990293, "building": "yes", "name": "", "height": null, "height_m": null, "levels": null, "tract_id": "40071000100", "tract_name": "1", "tags": {"building": "yes"}}}, {"type": "Feature", "geometry": {"type": "Polygon", "coordinates": [[[-97.0935624, 36.7172889], [-97.0935302, 36.7172899], [-97.0935288, 36.7172626], [-97.093561, 36.7172616], [-97.0935624, 36.7172889]]]}, "properties": {"osm_id": 1087990294, "building": "yes", "name": "", "height": null, "height_m": null, "levels": null, "tract_id": "40071000100", "tract_name": "1", "tags": {"building": "yes"}}}, {"type": "Feature", "geometry": {"type": "Polygon", "coordinates": [[[-97.0936342, 36.7172625], [-97.0936349, 36.7172899], [-97.0935712, 36.717291], [-97.0935705, 36.7172636], [-97.0936342, 36.7172625]]]}, "properties": {"osm_id": 1087990295, "building": "yes", "name": "", "height": null, "height_m": null, "levels": null, "tract_id": "40071000100", "tract_name": "1", "tags": {"building": "yes"}}}, {"type": "Feature", "geometry": {"type": "Polygon", "coordinates": [[[-97.0935752, 36.7172077], [-97.0934786, 36.7172873], [-97.0933914, 36.7172867], [-97.0932814, 36.7171937], [-97.0933572, 36.7171405], [-97.0934323, 36.717205], [-97.0935054, 36.7171454], [-97.0935752, 36.7172077]]]}, "properties": {"osm_id": 1087990296, "building": "yes", "name": "", "height": null, "height_m": null, "levels": null, "tract_id": "40071000100", "tract_name": "1", "tags": {"building": "yes"}}}, {"type": "Feature", "geometry": {"type": "Polygon", "coordinates": [[[-97.0937012, 36.7187794], [-97.0937005, 36.7187192], [-97.0937575, 36.7187188], [-97.0937582, 36.718779], [-97.0937012, 36.7187794]]]}, "properties": {"osm_id": 1087990300, "building": "yes", "name": "", "height": null, "height_m": null, "levels": null, "tract_id": "40071000100", "tract_name": "1", "tags": {"building": "yes"}}}, {"type": "Feature", "geometry": {"type": "Polygon", "coordinates": [[[-97.0938125, 36.7173786], [-97.0938125, 36.7174453], [-97.0937193, 36.7174453], [-97.0937193, 36.7173786], [-97.0938125, 36.7173786]]]}, "properties": {"osm_id": 1087990310, "building": "yes", "name": "", "height": null, "height_m": null, "levels": null, "tract_id": "40071000100", "tract_name": "1", "tags": {"building": "yes"}}}, {"type": "Feature", "geometry": {"type": "Polygon", "coordinates": [[[-97.0937388, 36.7172636], [-97.0936965, 36.7172636], [-97.0936965, 36.7172281], [-97.0937388, 36.7172281], [-97.0937388, 36.7172636]]]}, "properties": {"osm_id": 1087990311, "building": "yes", "name": "", "height": null, "height_m": null, "levels": null, "tract_id": "40071000100", "tract_name": "1", "tags": {"building": "yes"}}}, {"type": "Feature", "geometry": {"type": "Polygon", "coordinates": [[[-97.0947077, 36.7179963], [-97.0946118, 36.7179952], [-97.0946115, 36.7180271], [-97.0947077, 36.7180272], [-97.0947077, 36.7179963]]]}, "properties": {"osm_id": 1087990315, "building": "yes", "name": "", "height": null, "height_m": null, "levels": null, "tract_id": "40071000100", "tract_name": "1", "tags": {"building": "yes"}}}, {"type": "Feature", "geometry": {"type": "Polygon", "coordinates": [[[-97.0947637, 36.7179963], [-97.0947636, 36.7180938], [-97.0946115, 36.7180937], [-97.0946115, 36.7180271], [-97.0947077, 36.7180272], [-97.0947077, 36.7179963], [-97.0947637, 36.7179963]]]}, "properties": {"osm_id": 1087990316, "building": "yes", "name": "", "height": null, "height_m": null, "levels": null, "tract_id": "40071000100", "tract_name": "1", "tags": {"building": "yes"}}}, {"type": "Feature", "geometry": {"type": "Polygon", "coordinates": [[[-97.0945937, 36.7179763], [-97.0945943, 36.7180253], [-97.0945178, 36.7180258], [-97.0945173, 36.7179769], [-97.0945937, 36.7179763]]]}, "properties": {"osm_id": 1087990317, "building": "yes", "name": "", "height": null, "height_m": null, "levels": null, "tract_id": "40071000100", "tract_name": "1", "tags": {"building": "yes"}}}, {"type": "Feature", "geometry": {"type": "Polygon", "coordinates": [[[-97.0939334, 36.7184602], [-97.0939334, 36.7185122], [-97.093895, 36.7185122], [-97.093895, 36.7185762], [-97.0939334, 36.7185762], [-97.0939334, 36.7186022], [-97.0940384, 36.7186022], [-97.0940384, 36.7185687], [-97.0940559, 36.7185687], [-97.0940559, 36.7185257], [-97.0940384, 36.7185257], [-97.0940384, 36.7184602], [-97.0939334, 36.7184602]]]}, "properties": {"osm_id": 1087990323, "building": "yes", "name": "", "height": null, "height_m": null, "levels": null, "tract_id": "40071000100", "tract_name": "1", "tags": {"building": "yes", "source": "microsoft/BuildingFootprints"}}}, {"type": "Feature", "geometry": {"type": "Polygon", "coordinates": [[[-97.0937941, 36.7182961], [-97.0937111, 36.7183481], [-97.0937681, 36.7184081], [-97.0938521, 36.7183561], [-97.0937941, 36.7182961]]]}, "properties": {"osm_id": 1087990324, "building": "yes", "name": "", "height": null, "height_m": null, "levels": null, "tract_id": "40071000100", "tract_name": "1", "tags": {"building": "yes", "source": "microsoft/BuildingFootprints"}}}, {"type": "Feature", "geometry": {"type": "Polygon", "coordinates": [[[-97.0944335, 36.7174748], [-97.0944335, 36.7175398], [-97.0946252, 36.7175398], [-97.0946252, 36.7174749], [-97.0945837, 36.7174749], [-97.0945837, 36.7174238], [-97.0944697, 36.7174238], [-97.0944697, 36.7174748], [-97.0944335, 36.7174748]]]}, "properties": {"osm_id": 1087990325, "building": "yes", "name": "", "height": null, "height_m": null, "levels": null, "tract_id": "40071000100", "tract_name": "1", "tags": {"building": "yes", "source": "microsoft/BuildingFootprints"}}}, {"type": "Feature", "geometry": {"type": "Polygon", "coordinates": [[[-97.0908686, 36.7182271], [-97.0909187, 36.7182791], [-97.0909926, 36.7182333], [-97.0908819, 36.7181184], [-97.0907529, 36.7181983], [-97.0908136, 36.7182612], [-97.0908686, 36.7182271]]]}, "properties": {"osm_id": 1087990326, "building": "yes", "name": "", "height": null, "height_m": null, "levels": null, "tract_id": "40071000100", "tract_name": "1", "tags": {"building": "yes", "source": "microsoft/BuildingFootprints"}}}, {"type": "Feature", "geometry": {"type": "Polygon", "coordinates": [[[-97.0943825, 36.7178157], [-97.0945502, 36.7178157], [-97.0945502, 36.7177387], [-97.0944052, 36.7177387], [-97.0944052, 36.7177613], [-97.0943825, 36.7177613], [-97.0943825, 36.7178157]]]}, "properties": {"osm_id": 1087990327, "building": "yes", "name": "", "height": null, "height_m": null, "levels": null, "tract_id": "40071000100", "tract_name": "1", "tags": {"building": "yes", "source": "microsoft/BuildingFootprints"}}}, {"type": "Feature", "geometry": {"type": "Polygon", "coordinates": [[[-97.0904751, 36.7188291], [-97.0906551, 36.7188291], [-97.0906551, 36.7187451], [-97.0905721, 36.7187451], [-97.0905721, 36.7186801], [-97.0904751, 36.7186801], [-97.0904751, 36.7188291]]]}, "properties": {"osm_id": 1087990328, "building": "yes", "name": "", "height": null, "height_m": null, "levels": null, "tract_id": "40071000100", "tract_name": "1", "tags": {"building": "yes", "source": "microsoft/BuildingFootprints"}}}, {"type": "Feature", "geometry": {"type": "Polygon", "coordinates": [[[-97.0930844, 36.7188884], [-97.0931848, 36.7189671], [-97.0933131, 36.7188618], [-97.0932289, 36.7187959], [-97.0931776, 36.718838], [-97.0931614, 36.7188253], [-97.0930844, 36.7188884]]]}, "properties": {"osm_id": 1087990329, "building": "yes", "name": "", "height": null, "height_m": null, "levels": null, "tract_id": "40071000100", "tract_name": "1", "tags": {"building": "yes", "source": "microsoft/BuildingFootprints"}}}, {"type": "Feature", "geometry": {"type": "Polygon", "coordinates": [[[-97.0940499, 36.7175266], [-97.0940227, 36.7175264], [-97.0940232, 36.7174704], [-97.0939157, 36.7174697], [-97.0939151, 36.7175302], [-97.0938593, 36.7175299], [-97.0938585, 36.7176124], [-97.094049, 36.7176136], [-97.0940499, 36.7175266]]]}, "properties": {"osm_id": 1087990330, "building": "yes", "name": "", "height": null, "height_m": null, "levels": null, "tract_id": "40071000100", "tract_name": "1", "tags": {"building": "yes", "source": "microsoft/BuildingFootprints"}}}, {"type": "Feature", "geometry": {"type": "Polygon", "coordinates": [[[-97.0927247, 36.7191555], [-97.0926729, 36.7190145], [-97.0925925, 36.7190335], [-97.0926119, 36.7190862], [-97.0925801, 36.7190937], [-97.0925842, 36.719105], [-97.0925276, 36.7191184], [-97.0925559, 36.7191954], [-97.0927247, 36.7191555]]]}, "properties": {"osm_id": 1087990331, "building": "yes", "name": "", "height": null, "height_m": null, "levels": null, "tract_id": "40071000100", "tract_name": "1", "tags": {"building": "yes", "source": "microsoft/BuildingFootprints"}}}, {"type": "Feature", "geometry": {"type": "Polygon", "coordinates": [[[-97.0939411, 36.717942], [-97.0940481, 36.717942], [-97.0940481, 36.717804], [-97.0939411, 36.717804], [-97.0939411, 36.717942]]]}, "properties": {"osm_id": 1087990332, "building": "yes", "name": "", "height": null, "height_m": null, "levels": null, "tract_id": "40071000100", "tract_name": "1", "tags": {"building": "yes", "source": "microsoft/BuildingFootprints"}}}, {"type": "Feature", "geometry": {"type": "Polygon", "coordinates": [[[-97.0945721, 36.7183733], [-97.0944288, 36.7183733], [-97.0944288, 36.718466], [-97.0944681, 36.718466], [-97.0944681, 36.7185073], [-97.0945721, 36.7185073], [-97.0945721, 36.7183733]]]}, "properties": {"osm_id": 1087990333, "building": "yes", "name": "", "height": null, "height_m": null, "levels": null, "tract_id": "40071000100", "tract_name": "1", "tags": {"building": "yes", "source": "microsoft/BuildingFootprints"}}}, {"type": "Feature", "geometry": {"type": "Polygon", "coordinates": [[[-97.0907107, 36.718499], [-97.0905145, 36.7184256], [-97.0904732, 36.7184965], [-97.0905083, 36.7185097], [-97.0904781, 36.7185615], [-97.0905549, 36.7185903], [-97.0905838, 36.7185407], [-97.0906681, 36.7185722], [-97.0907107, 36.718499]]]}, "properties": {"osm_id": 1087990334, "building": "yes", "name": "", "height": null, "height_m": null, "levels": null, "tract_id": "40071000100", "tract_name": "1", "tags": {"building": "yes", "source": "microsoft/BuildingFootprints"}}}, {"type": "Feature", "geometry": {"type": "Polygon", "coordinates": [[[-97.0940488, 36.7179731], [-97.0939398, 36.7179731], [-97.0939398, 36.7181021], [-97.0940488, 36.7181021], [-97.0940488, 36.7179731]]]}, "properties": {"osm_id": 1087990335, "building": "yes", "name": "", "height": null, "height_m": null, "levels": null, "tract_id": "40071000100", "tract_name": "1", "tags": {"building": "yes", "source": "microsoft/BuildingFootprints"}}}, {"type": "Feature", "geometry": {"type": "Polygon", "coordinates": [[[-97.0932629, 36.7187063], [-97.0932169, 36.7187611], [-97.093374, 36.7188458], [-97.093471, 36.7187303], [-97.0933793, 36.7186808], [-97.0933283, 36.7187416], [-97.0932629, 36.7187063]]]}, "properties": {"osm_id": 1087990336, "building": "yes", "name": "", "height": null, "height_m": null, "levels": null, "tract_id": "40071000100", "tract_name": "1", "tags": {"building": "yes", "source": "microsoft/BuildingFootprints"}}}, {"type": "Feature", "geometry": {"type": "Polygon", "coordinates": [[[-97.0929961, 36.7189334], [-97.0929011, 36.7189574], [-97.0929511, 36.7190884], [-97.0931211, 36.7190464], [-97.0930931, 36.7189734], [-97.0930191, 36.7189914], [-97.0929961, 36.7189334]]]}, "properties": {"osm_id": 1087990337, "building": "yes", "name": "", "height": null, "height_m": null, "levels": null, "tract_id": "40071000100", "tract_name": "1", "tags": {"building": "yes", "source": "microsoft/BuildingFootprints"}}}, {"type": "Feature", "geometry": {"type": "Polygon", "coordinates": [[[-97.0939314, 36.7189388], [-97.0940414, 36.7189388], [-97.0940414, 36.7188008], [-97.0939314, 36.7188008], [-97.0939314, 36.7189388]]]}, "properties": {"osm_id": 1087990338, "building": "yes", "name": "", "height": null, "height_m": null, "levels": null, "tract_id": "40071000100", "tract_name": "1", "tags": {"building": "yes", "source": "microsoft/BuildingFootprints"}}}, {"type": "Feature", "geometry": {"type": "Polygon", "coordinates": [[[-97.0932918, 36.7178065], [-97.0932918, 36.7178925], [-97.0933508, 36.7178925], [-97.0933508, 36.7179325], [-97.0934418, 36.7179325], [-97.0934418, 36.7178065], [-97.0932918, 36.7178065]]]}, "properties": {"osm_id": 1087990339, "building": "yes", "name": "", "height": null, "height_m": null, "levels": null, "tract_id": "40071000100", "tract_name": "1", "tags": {"building": "yes", "source": "microsoft/BuildingFootprints"}}}, {"type": "Feature", "geometry": {"type": "Polygon", "coordinates": [[[-97.0940384, 36.7186278], [-97.0939364, 36.7186278], [-97.0939364, 36.7187628], [-97.0940384, 36.7187628], [-97.0940384, 36.7186278]]]}, "properties": {"osm_id": 1087990340, "building": "yes", "name": "", "height": null, "height_m": null, "levels": null, "tract_id": "40071000100", "tract_name": "1", "tags": {"building": "yes", "source": "microsoft/BuildingFootprints"}}}, {"type": "Feature", "geometry": {"type": "Polygon", "coordinates": [[[-97.0927078, 36.719024], [-97.0927393, 36.719108], [-97.0928289, 36.7190864], [-97.0928471, 36.7191351], [-97.0928991, 36.7191226], [-97.0928808, 36.7190738], [-97.0929002, 36.7190692], [-97.0928631, 36.7189703], [-97.0927674, 36.7189934], [-97.092773, 36.7190083], [-97.0927078, 36.719024]]]}, "properties": {"osm_id": 1087990341, "building": "yes", "name": "", "height": null, "height_m": null, "levels": null, "tract_id": "40071000100", "tract_name": "1", "tags": {"building": "yes", "source": "microsoft/BuildingFootprints"}}}, {"type": "Feature", "geometry": {"type": "Polygon", "coordinates": [[[-97.0917381, 36.7180186], [-97.0917381, 36.7178206], [-97.0916361, 36.7178206], [-97.0916361, 36.7180186], [-97.0917381, 36.7180186]]]}, "properties": {"osm_id": 1087990342, "building": "yes", "name": "", "height": null, "height_m": null, "levels": null, "tract_id": "40071000100", "tract_name": "1", "tags": {"building": "yes", "source": "microsoft/BuildingFootprints"}}}, {"type": "Feature", "geometry": {"type": "Polygon", "coordinates": [[[-97.0940401, 36.7184399], [-97.0940401, 36.7182959], [-97.0939321, 36.7182959], [-97.0939321, 36.7184399], [-97.0940401, 36.7184399]]]}, "properties": {"osm_id": 1087990343, "building": "yes", "name": "", "height": null, "height_m": null, "levels": null, "tract_id": "40071000100", "tract_name": "1", "tags": {"building": "yes", "source": "microsoft/BuildingFootprints"}}}, {"type": "Feature", "geometry": {"type": "Polygon", "coordinates": [[[-97.0906965, 36.7189279], [-97.0906675, 36.7188569], [-97.0905165, 36.7188979], [-97.0905725, 36.7190329], [-97.0906565, 36.7190109], [-97.0906295, 36.7189459], [-97.0906965, 36.7189279]]]}, "properties": {"osm_id": 1087990344, "building": "yes", "name": "", "height": null, "height_m": null, "levels": null, "tract_id": "40071000100", "tract_name": "1", "tags": {"building": "yes", "source": "microsoft/BuildingFootprints"}}}, {"type": "Feature", "geometry": {"type": "Polygon", "coordinates": [[[-97.0934328, 36.7176388], [-97.093315, 36.7176388], [-97.093315, 36.717714], [-97.0932908, 36.717714], [-97.0932908, 36.7177778], [-97.0934328, 36.7177778], [-97.0934328, 36.7176388]]]}, "properties": {"osm_id": 1087990345, "building": "yes", "name": "", "height": null, "height_m": null, "levels": null, "tract_id": "40071000100", "tract_name": "1", "tags": {"building": "yes", "source": "microsoft/BuildingFootprints"}}}, {"type": "Feature", "geometry": {"type": "Polygon", "coordinates": [[[-97.0924063, 36.7190877], [-97.0924255, 36.7191381], [-97.0923883, 36.7191472], [-97.0923915, 36.7191555], [-97.0923302, 36.7191705], [-97.0923578, 36.719243], [-97.0925299, 36.719201], [-97.09248, 36.7190697], [-97.0924063, 36.7190877]]]}, "properties": {"osm_id": 1087990346, "building": "yes", "name": "", "height": null, "height_m": null, "levels": null, "tract_id": "40071000100", "tract_name": "1", "tags": {"building": "yes", "source": "microsoft/BuildingFootprints"}}}, {"type": "Feature", "geometry": {"type": "Polygon", "coordinates": [[[-97.0940394, 36.7182766], [-97.0940394, 36.7181326], [-97.0939324, 36.7181326], [-97.0939324, 36.7182766], [-97.0940394, 36.7182766]]]}, "properties": {"osm_id": 1087990347, "building": "yes", "name": "", "height": null, "height_m": null, "levels": null, "tract_id": "40071000100", "tract_name": "1", "tags": {"building": "yes", "source": "microsoft/BuildingFootprints"}}}, {"type": "Feature", "geometry": {"type": "Polygon", "coordinates": [[[-97.0933677, 36.7182908], [-97.0933678, 36.7183435], [-97.0933505, 36.7183435], [-97.0933505, 36.7183667], [-97.0932877, 36.7183668], [-97.0932879, 36.7184354], [-97.0935429, 36.7184351], [-97.0935428, 36.7183719], [-97.0934659, 36.718372], [-97.0934657, 36.7182907], [-97.0933677, 36.7182908]]]}, "properties": {"osm_id": 1087990348, "building": "yes", "name": "", "height": null, "height_m": null, "levels": null, "tract_id": "40071000100", "tract_name": "1", "tags": {"building": "yes", "source": "microsoft/BuildingFootprints"}}}, {"type": "Feature", "geometry": {"type": "Polygon", "coordinates": [[[-97.0933745, 36.717475], [-97.0933741, 36.717546], [-97.0932935, 36.7175457], [-97.0932931, 36.7176145], [-97.0934675, 36.7176152], [-97.093468, 36.7175357], [-97.0935351, 36.717536], [-97.0935355, 36.7174757], [-97.0933745, 36.717475]]]}, "properties": {"osm_id": 1087990349, "building": "yes", "name": "", "height": null, "height_m": null, "levels": null, "tract_id": "40071000100", "tract_name": "1", "tags": {"building": "yes", "source": "microsoft/BuildingFootprints"}}}, {"type": "Feature", "geometry": {"type": "Polygon", "coordinates": [[[-97.0906267, 36.7183919], [-97.0907224, 36.7184471], [-97.0908252, 36.7183322], [-97.0907295, 36.718277], [-97.0906267, 36.7183919]]]}, "properties": {"osm_id": 1087990350, "building": "yes", "name": "", "height": null, "height_m": null, "levels": null, "tract_id": "40071000100", "tract_name": "1", "tags": {"building": "yes", "source": "microsoft/BuildingFootprints"}}}, {"type": "Feature", "geometry": {"type": "Polygon", "coordinates": [[[-97.0939121, 36.7173108], [-97.0939121, 36.7173824], [-97.0938682, 36.7173824], [-97.0938682, 36.7174259], [-97.0939121, 36.7174259], [-97.0939121, 36.7174498], [-97.0940381, 36.7174498], [-97.0940381, 36.7173108], [-97.0939121, 36.7173108]]]}, "properties": {"osm_id": 1087990351, "building": "yes", "name": "", "height": null, "height_m": null, "levels": null, "tract_id": "40071000100", "tract_name": "1", "tags": {"building": "yes", "source": "microsoft/BuildingFootprints"}}}, {"type": "Feature", "geometry": {"type": "Polygon", "coordinates": [[[-97.0945762, 36.7186365], [-97.0944752, 36.7186365], [-97.0944752, 36.7186755], [-97.0944372, 36.7186755], [-97.0944372, 36.7187735], [-97.0945762, 36.7187735], [-97.0945762, 36.7186365]]]}, "properties": {"osm_id": 1087990352, "building": "yes", "name": "", "height": null, "height_m": null, "levels": null, "tract_id": "40071000100", "tract_name": "1", "tags": {"building": "yes", "source": "microsoft/BuildingFootprints"}}}, {"type": "Feature", "geometry": {"type": "Polygon", "coordinates": [[[-97.0944118, 36.7176686], [-97.0945618, 36.7176686], [-97.0945618, 36.7175956], [-97.0944118, 36.7175956], [-97.0944118, 36.7176686]]]}, "properties": {"osm_id": 1087990353, "building": "yes", "name": "", "height": null, "height_m": null, "levels": null, "tract_id": "40071000100", "tract_name": "1", "tags": {"building": "yes", "source": "microsoft/BuildingFootprints"}}}, {"type": "Feature", "geometry": {"type": "Polygon", "coordinates": [[[-97.0916184, 36.7180505], [-97.0915894, 36.7179745], [-97.0915014, 36.7179965], [-97.0914824, 36.7179475], [-97.0913844, 36.7179715], [-97.0914324, 36.7180965], [-97.0916184, 36.7180505]]]}, "properties": {"osm_id": 1087990354, "building": "yes", "name": "", "height": null, "height_m": null, "levels": null, "tract_id": "40071000100", "tract_name": "1", "tags": {"building": "yes", "source": "microsoft/BuildingFootprints"}}}, {"type": "Feature", "geometry": {"type": "Polygon", "coordinates": [[[-97.0933648, 36.7185364], [-97.0932838, 36.7185364], [-97.0932838, 36.7186004], [-97.0934558, 36.7186004], [-97.0934558, 36.7184604], [-97.0933648, 36.7184604], [-97.0933648, 36.7185364]]]}, "properties": {"osm_id": 1087990355, "building": "yes", "name": "", "height": null, "height_m": null, "levels": null, "tract_id": "40071000100", "tract_name": "1", "tags": {"building": "yes", "source": "microsoft/BuildingFootprints"}}}, {"type": "Feature", "geometry": {"type": "Polygon", "coordinates": [[[-97.0915648, 36.7174677], [-97.0915648, 36.7176067], [-97.0917388, 36.7176067], [-97.0917388, 36.7175427], [-97.0916618, 36.7175427], [-97.0916618, 36.7174677], [-97.0915648, 36.7174677]]]}, "properties": {"osm_id": 1087990356, "building": "yes", "name": "", "height": null, "height_m": null, "levels": null, "tract_id": "40071000100", "tract_name": "1", "tags": {"building": "yes", "source": "microsoft/BuildingFootprints"}}}, {"type": "Feature", "geometry": {"type": "Polygon", "coordinates": [[[-97.0938868, 36.7171663], [-97.0938868, 36.717245], [-97.0940528, 36.717245], [-97.0940528, 36.7171566], [-97.0939822, 36.7171566], [-97.0939822, 36.7171663], [-97.0938868, 36.7171663]]]}, "properties": {"osm_id": 1087990357, "building": "yes", "name": "", "height": null, "height_m": null, "levels": null, "tract_id": "40071000100", "tract_name": "1", "tags": {"building": "yes", "source": "microsoft/BuildingFootprints"}}}, {"type": "Feature", "geometry": {"type": "Polygon", "coordinates": [[[-97.0932898, 36.718022], [-97.0932898, 36.718105], [-97.0934263, 36.718105], [-97.0934263, 36.7180946], [-97.0934748, 36.7180946], [-97.0934748, 36.718019], [-97.0934238, 36.718019], [-97.0934238, 36.717966], [-97.0933188, 36.717966], [-97.0933188, 36.718022], [-97.0932898, 36.718022]]]}, "properties": {"osm_id": 1087990358, "building": "yes", "name": "", "height": null, "height_m": null, "levels": null, "tract_id": "40071000100", "tract_name": "1", "tags": {"building": "yes", "source": "microsoft/BuildingFootprints"}}}, {"type": "Feature", "geometry": {"type": "Polygon", "coordinates": [[[-97.0944541, 36.7183285], [-97.0946121, 36.7183285], [-97.0946121, 36.7182535], [-97.0944541, 36.7182535], [-97.0944541, 36.7183285]]]}, "properties": {"osm_id": 1087990360, "building": "yes", "name": "", "height": null, "height_m": null, "levels": null, "tract_id": "40071000100", "tract_name": "1", "tags": {"building": "yes", "source": "microsoft/BuildingFootprints"}}}, {"type": "Feature", "geometry": {"type": "Polygon", "coordinates": [[[-97.0917418, 36.7176285], [-97.0915678, 36.7176285], [-97.0915678, 36.7177705], [-97.0916618, 36.7177705], [-97.0916618, 36.7177085], [-97.0917418, 36.7177085], [-97.0917418, 36.7176285]]]}, "properties": {"osm_id": 1087990361, "building": "yes", "name": "", "height": null, "height_m": null, "levels": null, "tract_id": "40071000100", "tract_name": "1", "tags": {"building": "yes", "source": "microsoft/BuildingFootprints"}}}, {"type": "Feature", "geometry": {"type": "Polygon", "coordinates": [[[-97.0938021, 36.7188678], [-97.0937093, 36.7188678], [-97.0937093, 36.7189508], [-97.0938021, 36.7189508], [-97.0938021, 36.7188678]]]}, "properties": {"osm_id": 1087990362, "building": "yes", "name": "", "height": null, "height_m": null, "levels": null, "tract_id": "40071000100", "tract_name": "1", "tags": {"building": "yes", "source": "microsoft/BuildingFootprints"}}}, {"type": "Feature", "geometry": {"type": "Polygon", "coordinates": [[[-97.0908581, 36.7191341], [-97.0908054, 36.7190876], [-97.0907835, 36.7191035], [-97.0907118, 36.7190403], [-97.0906293, 36.7191005], [-97.0907537, 36.7192102], [-97.0908581, 36.7191341]]]}, "properties": {"osm_id": 1087990363, "building": "yes", "name": "", "height": null, "height_m": null, "levels": null, "tract_id": "40071000100", "tract_name": "1", "tags": {"building": "yes", "source": "microsoft/BuildingFootprints"}}}, {"type": "Feature", "geometry": {"type": "Polygon", "coordinates": [[[-97.0933651, 36.7182039], [-97.0932851, 36.7182039], [-97.0932851, 36.7182719], [-97.0934571, 36.7182719], [-97.093457, 36.7182516], [-97.0935311, 36.7182512], [-97.0935308, 36.7182066], [-97.0934566, 36.718207], [-97.0934561, 36.7181269], [-97.0933651, 36.7181269], [-97.0933651, 36.7182039]]]}, "properties": {"osm_id": 1087990364, "building": "yes", "name": "", "height": null, "height_m": null, "levels": null, "tract_id": "40071000100", "tract_name": "1", "tags": {"building": "yes", "source": "microsoft/BuildingFootprints"}}}, {"type": "Feature", "geometry": {"type": "Polygon", "coordinates": [[[-97.094413, 36.718954], [-97.094502, 36.718954], [-97.094502, 36.718847], [-97.094413, 36.718847], [-97.094413, 36.718954]]]}, "properties": {"osm_id": 1087990365, "building": "yes", "name": "", "height": null, "height_m": null, "levels": null, "tract_id": "40071000100", "tract_name": "1", "tags": {"building": "yes", "source": "microsoft/BuildingFootprints"}}}, {"type": "Feature", "geometry": {"type": "Polygon", "coordinates": [[[-97.0939264, 36.7177799], [-97.0940506, 36.7177799], [-97.0940506, 36.7177001], [-97.0940414, 36.7177001], [-97.0940414, 36.7176339], [-97.0939264, 36.7176339], [-97.0939264, 36.7177799]]]}, "properties": {"osm_id": 1087990366, "building": "yes", "name": "", "height": null, "height_m": null, "levels": null, "tract_id": "40071000100", "tract_name": "1", "tags": {"building": "yes", "source": "microsoft/BuildingFootprints"}}}, {"type": "Feature", "geometry": {"type": "Polygon", "coordinates": [[[-97.0924781, 36.7172464], [-97.0924791, 36.717278], [-97.0924234, 36.7172791], [-97.0924225, 36.7172475], [-97.0924781, 36.7172464]]]}, "properties": {"osm_id": 1088027489, "building": "yes", "name": "", "height": null, "height_m": null, "levels": null, "tract_id": "40071000100", "tract_name": "1", "tags": {"building": "yes"}}}, {"type": "Feature", "geometry": {"type": "Polygon", "coordinates": [[[-97.0923276, 36.7172719], [-97.0923276, 36.7172424], [-97.0922572, 36.7172425], [-97.0922572, 36.717272], [-97.0923276, 36.7172719]]]}, "properties": {"osm_id": 1088027490, "building": "yes", "name": "", "height": null, "height_m": null, "levels": null, "tract_id": "40071000100", "tract_name": "1", "tags": {"building": "yes"}}}, {"type": "Feature", "geometry": {"type": "Polygon", "coordinates": [[[-97.0924741, 36.7174915], [-97.0924416, 36.717491], [-97.0924422, 36.7174615], [-97.0924748, 36.717462], [-97.0924741, 36.7174915]]]}, "properties": {"osm_id": 1088027491, "building": "yes", "name": "", "height": null, "height_m": null, "levels": null, "tract_id": "40071000100", "tract_name": "1", "tags": {"building": "yes"}}}, {"type": "Feature", "geometry": {"type": "Polygon", "coordinates": [[[-97.0923943, 36.7176055], [-97.0923071, 36.7176049], [-97.0923078, 36.7175356], [-97.092395, 36.7175361], [-97.0923943, 36.7176055]]]}, "properties": {"osm_id": 1088027492, "building": "yes", "name": "", "height": null, "height_m": null, "levels": null, "tract_id": "40071000100", "tract_name": "1", "tags": {"building": "yes"}}}, {"type": "Feature", "geometry": {"type": "Polygon", "coordinates": [[[-97.0922991, 36.7176092], [-97.0921425, 36.7176074], [-97.0921437, 36.7175402], [-97.0922104, 36.717541], [-97.0922118, 36.717463], [-97.0923018, 36.7174641], [-97.0922991, 36.7176092]]]}, "properties": {"osm_id": 1088027493, "building": "yes", "name": "", "height": null, "height_m": null, "levels": null, "tract_id": "40071000100", "tract_name": "1", "tags": {"building": "yes"}}}, {"type": "Feature", "geometry": {"type": "Polygon", "coordinates": [[[-97.0923138, 36.7177189], [-97.0923506, 36.7177189], [-97.0923505, 36.7176327], [-97.0923137, 36.7176327], [-97.0923138, 36.7177189]]]}, "properties": {"osm_id": 1088027494, "building": "yes", "name": "", "height": null, "height_m": null, "levels": null, "tract_id": "40071000100", "tract_name": "1", "tags": {"building": "yes"}}}, {"type": "Feature", "geometry": {"type": "Polygon", "coordinates": [[[-97.0922178, 36.717769], [-97.092138, 36.717769], [-97.092138, 36.7177105], [-97.0922177, 36.7177105], [-97.0922178, 36.717769]]]}, "properties": {"osm_id": 1088027495, "building": "yes", "name": "", "height": null, "height_m": null, "levels": null, "tract_id": "40071000100", "tract_name": "1", "tags": {"building": "yes"}}}, {"type": "Feature", "geometry": {"type": "Polygon", "coordinates": [[[-97.0924573, 36.7180091], [-97.092391, 36.7179914], [-97.0924036, 36.7179611], [-97.0924699, 36.7179788], [-97.0924573, 36.7180091]]]}, "properties": {"osm_id": 1088027496, "building": "yes", "name": "", "height": null, "height_m": null, "levels": null, "tract_id": "40071000100", "tract_name": "1", "tags": {"building": "yes"}}}, {"type": "Feature", "geometry": {"type": "Polygon", "coordinates": [[[-97.0914435, 36.7186466], [-97.0914551, 36.7186764], [-97.0914122, 36.7186871], [-97.0914005, 36.7186574], [-97.0914435, 36.7186466]]]}, "properties": {"osm_id": 1088027517, "building": "yes", "name": "", "height": null, "height_m": null, "levels": null, "tract_id": "40071000100", "tract_name": "1", "tags": {"building": "yes"}}}, {"type": "Feature", "geometry": {"type": "Polygon", "coordinates": [[[-97.0915132, 36.7186203], [-97.0915267, 36.7186513], [-97.0914731, 36.7186663], [-97.0914596, 36.7186353], [-97.0915132, 36.7186203]]]}, "properties": {"osm_id": 1088027518, "building": "yes", "name": "", "height": null, "height_m": null, "levels": null, "tract_id": "40071000100", "tract_name": "1", "tags": {"building": "yes"}}}, {"type": "Feature", "geometry": {"type": "Polygon", "coordinates": [[[-97.0916138, 36.7186251], [-97.0915997, 36.7185902], [-97.091629, 36.7185826], [-97.0916431, 36.7186175], [-97.0916138, 36.7186251]]]}, "properties": {"osm_id": 1088027519, "building": "yes", "name": "", "height": null, "height_m": null, "levels": null, "tract_id": "40071000100", "tract_name": "1", "tags": {"building": "yes"}}}, {"type": "Feature", "geometry": {"type": "Polygon", "coordinates": [[[-97.0918337, 36.7185386], [-97.0918441, 36.718569], [-97.0917878, 36.7185814], [-97.0917774, 36.7185509], [-97.0918337, 36.7185386]]]}, "properties": {"osm_id": 1088027520, "building": "yes", "name": "", "height": null, "height_m": null, "levels": null, "tract_id": "40071000100", "tract_name": "1", "tags": {"building": "yes"}}}, {"type": "Feature", "geometry": {"type": "Polygon", "coordinates": [[[-97.0918585, 36.7185192], [-97.0918297, 36.7184456], [-97.0919101, 36.7184254], [-97.091939, 36.718499], [-97.0918585, 36.7185192]]]}, "properties": {"osm_id": 1088027521, "building": "yes", "name": "", "height": null, "height_m": null, "levels": null, "tract_id": "40071000100", "tract_name": "1", "tags": {"building": "yes"}}}, {"type": "Feature", "geometry": {"type": "Polygon", "coordinates": [[[-97.0925744, 36.7178664], [-97.0925412, 36.7178662], [-97.0925414, 36.7178455], [-97.0925746, 36.7178457], [-97.0925744, 36.7178664]]]}, "properties": {"osm_id": 1088027522, "building": "yes", "name": "", "height": null, "height_m": null, "levels": null, "tract_id": "40071000100", "tract_name": "1", "tags": {"building": "yes"}}}, {"type": "Feature", "geometry": {"type": "Polygon", "coordinates": [[[-97.0925807, 36.7178436], [-97.0925432, 36.7178436], [-97.0925432, 36.7178215], [-97.0925807, 36.7178215], [-97.0925807, 36.7178436]]]}, "properties": {"osm_id": 1088027523, "building": "yes", "name": "", "height": null, "height_m": null, "levels": null, "tract_id": "40071000100", "tract_name": "1", "tags": {"building": "yes"}}}, {"type": "Feature", "geometry": {"type": "Polygon", "coordinates": [[[-97.0925811, 36.7182384], [-97.0925532, 36.7182381], [-97.0925536, 36.7182167], [-97.0925814, 36.7182169], [-97.0925811, 36.7182384]]]}, "properties": {"osm_id": 1088027524, "building": "yes", "name": "", "height": null, "height_m": null, "levels": null, "tract_id": "40071000100", "tract_name": "1", "tags": {"building": "yes"}}}, {"type": "Feature", "geometry": {"type": "Polygon", "coordinates": [[[-97.0924195, 36.718158], [-97.0924315, 36.7181131], [-97.0924683, 36.7181195], [-97.0924563, 36.7181644], [-97.0924195, 36.718158]]]}, "properties": {"osm_id": 1088027525, "building": "yes", "name": "", "height": null, "height_m": null, "levels": null, "tract_id": "40071000100", "tract_name": "1", "tags": {"building": "yes"}}}, {"type": "Feature", "geometry": {"type": "Polygon", "coordinates": [[[-97.092451, 36.7181991], [-97.0924057, 36.7181924], [-97.0924124, 36.7181633], [-97.0924577, 36.71817], [-97.092451, 36.7181991]]]}, "properties": {"osm_id": 1088027526, "building": "yes", "name": "", "height": null, "height_m": null, "levels": null, "tract_id": "40071000100", "tract_name": "1", "tags": {"building": "yes"}}}, {"type": "Feature", "geometry": {"type": "Polygon", "coordinates": [[[-97.0926907, 36.7184698], [-97.0926545, 36.7184644], [-97.0926619, 36.7184321], [-97.0926981, 36.7184375], [-97.0926907, 36.7184698]]]}, "properties": {"osm_id": 1088027527, "building": "yes", "name": "", "height": null, "height_m": null, "levels": null, "tract_id": "40071000100", "tract_name": "1", "tags": {"building": "yes"}}}, {"type": "Feature", "geometry": {"type": "Polygon", "coordinates": [[[-97.0917854, 36.7186842], [-97.091774, 36.7186536], [-97.0918078, 36.7186455], [-97.0918192, 36.7186762], [-97.0917854, 36.7186842]]]}, "properties": {"osm_id": 1088027528, "building": "yes", "name": "", "height": null, "height_m": null, "levels": null, "tract_id": "40071000100", "tract_name": "1", "tags": {"building": "yes"}}}, {"type": "Feature", "geometry": {"type": "Polygon", "coordinates": [[[-97.091532, 36.7188068], [-97.0914742, 36.7188215], [-97.0914521, 36.7187656], [-97.0915098, 36.7187509], [-97.091532, 36.7188068]]]}, "properties": {"osm_id": 1088027529, "building": "yes", "name": "", "height": null, "height_m": null, "levels": null, "tract_id": "40071000100", "tract_name": "1", "tags": {"building": "yes"}}}, {"type": "Feature", "geometry": {"type": "Polygon", "coordinates": [[[-97.0927846, 36.718221], [-97.0927394, 36.7182214], [-97.0927399, 36.7182651], [-97.0927852, 36.7182648], [-97.0927846, 36.718221]]]}, "properties": {"osm_id": 1088027530, "building": "yes", "name": "", "height": null, "height_m": null, "levels": null, "tract_id": "40071000100", "tract_name": "1", "tags": {"building": "yes"}}}, {"type": "Feature", "geometry": {"type": "Polygon", "coordinates": [[[-97.0927842, 36.7181929], [-97.0927062, 36.7181936], [-97.0927053, 36.7181286], [-97.0927834, 36.718128], [-97.0927842, 36.7181929]]]}, "properties": {"osm_id": 1088027531, "building": "yes", "name": "", "height": null, "height_m": null, "levels": null, "tract_id": "40071000100", "tract_name": "1", "tags": {"building": "yes"}}}, {"type": "Feature", "geometry": {"type": "Polygon", "coordinates": [[[-97.092896, 36.718127], [-97.0928978, 36.7182638], [-97.0927852, 36.7182648], [-97.0927846, 36.718221], [-97.0927842, 36.7181929], [-97.0927834, 36.718128], [-97.092896, 36.718127]]]}, "properties": {"osm_id": 1088027532, "building": "yes", "name": "", "height": null, "height_m": null, "levels": null, "tract_id": "40071000100", "tract_name": "1", "tags": {"building": "yes"}}}, {"type": "Feature", "geometry": {"type": "Polygon", "coordinates": [[[-97.0919749, 36.7183705], [-97.0919449, 36.7182898], [-97.0917786, 36.7183295], [-97.0918086, 36.7184102], [-97.0919749, 36.7183705]]]}, "properties": {"osm_id": 1088027542, "building": "yes", "name": "", "height": null, "height_m": null, "levels": null, "tract_id": "40071000100", "tract_name": "1", "tags": {"building": "yes", "source": "microsoft/BuildingFootprints"}}}, {"type": "Feature", "geometry": {"type": "Polygon", "coordinates": [[[-97.0912027, 36.7185029], [-97.0912362, 36.718586], [-97.091403, 36.7185427], [-97.0913696, 36.7184599], [-97.0913621, 36.7184413], [-97.0912806, 36.7184624], [-97.091288, 36.7184808], [-97.0912027, 36.7185029]]]}, "properties": {"osm_id": 1088027543, "building": "yes", "name": "", "height": null, "height_m": null, "levels": null, "tract_id": "40071000100", "tract_name": "1", "tags": {"building": "yes", "source": "microsoft/BuildingFootprints"}}}, {"type": "Feature", "geometry": {"type": "Polygon", "coordinates": [[[-97.0920909, 36.7182102], [-97.0920373, 36.7181792], [-97.0919908, 36.7182309], [-97.0921361, 36.7183148], [-97.0922482, 36.7181901], [-97.0921678, 36.7181436], [-97.0921291, 36.7181867], [-97.0921178, 36.7181802], [-97.0920909, 36.7182102]]]}, "properties": {"osm_id": 1088027544, "building": "yes", "name": "", "height": null, "height_m": null, "levels": null, "tract_id": "40071000100", "tract_name": "1", "tags": {"building": "yes", "source": "microsoft/BuildingFootprints"}}}, {"type": "Feature", "geometry": {"type": "Polygon", "coordinates": [[[-97.0928921, 36.7183015], [-97.0927261, 36.7183015], [-97.0927261, 36.7184095], [-97.0927851, 36.7184095], [-97.0927851, 36.7184435], [-97.0928921, 36.7184435], [-97.0928921, 36.7183015]]]}, "properties": {"osm_id": 1088027545, "building": "yes", "name": "", "height": null, "height_m": null, "levels": null, "tract_id": "40071000100", "tract_name": "1", "tags": {"building": "yes", "source": "microsoft/BuildingFootprints"}}}, {"type": "Feature", "geometry": {"type": "Polygon", "coordinates": [[[-97.0911284, 36.7186258], [-97.0910283, 36.7186531], [-97.0910545, 36.7187148], [-97.0910244, 36.718723], [-97.0910547, 36.7187944], [-97.0911849, 36.7187589], [-97.0911284, 36.7186258]]]}, "properties": {"osm_id": 1088027546, "building": "yes", "name": "", "height": null, "height_m": null, "levels": null, "tract_id": "40071000100", "tract_name": "1", "tags": {"building": "yes", "source": "microsoft/BuildingFootprints"}}}, {"type": "Feature", "geometry": {"type": "Polygon", "coordinates": [[[-97.0916441, 36.7185528], [-97.0917293, 36.7185321], [-97.0917161, 36.7184969], [-97.0918015, 36.7184763], [-97.0917733, 36.7184014], [-97.0916894, 36.7184217], [-97.0916656, 36.7183587], [-97.0915789, 36.7183796], [-97.0916441, 36.7185528]]]}, "properties": {"osm_id": 1088027547, "building": "yes", "name": "", "height": null, "height_m": null, "levels": null, "tract_id": "40071000100", "tract_name": "1", "tags": {"building": "yes", "source": "microsoft/BuildingFootprints"}}}, {"type": "Feature", "geometry": {"type": "Polygon", "coordinates": [[[-97.0916708, 36.7187931], [-97.0917258, 36.7189263], [-97.0918967, 36.7188809], [-97.0918417, 36.7187477], [-97.0916708, 36.7187931]]]}, "properties": {"osm_id": 1088027548, "building": "yes", "name": "", "height": null, "height_m": null, "levels": null, "tract_id": "40071000100", "tract_name": "1", "tags": {"building": "yes", "source": "microsoft/BuildingFootprints"}}}, {"type": "Feature", "geometry": {"type": "Polygon", "coordinates": [[[-97.0928932, 36.7178835], [-97.0928923, 36.7178021], [-97.0927239, 36.7178033], [-97.0927248, 36.7178847], [-97.0928932, 36.7178835]]]}, "properties": {"osm_id": 1088027549, "building": "yes", "name": "", "height": null, "height_m": null, "levels": null, "tract_id": "40071000100", "tract_name": "1", "tags": {"building": "yes", "source": "microsoft/BuildingFootprints"}}}, {"type": "Feature", "geometry": {"type": "Polygon", "coordinates": [[[-97.0920352, 36.718701], [-97.091996, 36.7187112], [-97.0919894, 36.7186946], [-97.0919292, 36.7187101], [-97.0919359, 36.7187267], [-97.0918775, 36.7187417], [-97.0919288, 36.7188697], [-97.0920221, 36.7188457], [-97.0920024, 36.7187966], [-97.0920669, 36.71878], [-97.0920352, 36.718701]]]}, "properties": {"osm_id": 1088027550, "building": "yes", "name": "", "height": null, "height_m": null, "levels": null, "tract_id": "40071000100", "tract_name": "1", "tags": {"building": "yes", "source": "microsoft/BuildingFootprints"}}}, {"type": "Feature", "geometry": {"type": "Polygon", "coordinates": [[[-97.0922132, 36.7179788], [-97.0922021, 36.7180327], [-97.0921239, 36.7180223], [-97.0921099, 36.7180905], [-97.092348, 36.718122], [-97.0923607, 36.7180602], [-97.0923107, 36.7180536], [-97.0923231, 36.7179933], [-97.0922132, 36.7179788]]]}, "properties": {"osm_id": 1088027551, "building": "yes", "name": "", "height": null, "height_m": null, "levels": null, "tract_id": "40071000100", "tract_name": "1", "tags": {"building": "yes", "source": "microsoft/BuildingFootprints"}}}, {"type": "Feature", "geometry": {"type": "Polygon", "coordinates": [[[-97.0928136, 36.7186297], [-97.0929035, 36.7185091], [-97.0927934, 36.7184563], [-97.0927646, 36.718495], [-97.0927211, 36.7184741], [-97.0926796, 36.7185298], [-97.0927156, 36.718547], [-97.0926959, 36.7185734], [-97.0928136, 36.7186297]]]}, "properties": {"osm_id": 1088027552, "building": "yes", "name": "", "height": null, "height_m": null, "levels": null, "tract_id": "40071000100", "tract_name": "1", "tags": {"building": "yes", "source": "microsoft/BuildingFootprints"}}}, {"type": "Feature", "geometry": {"type": "Polygon", "coordinates": [[[-97.0927514, 36.7177756], [-97.0928912, 36.7177756], [-97.0928912, 36.7176995], [-97.0928657, 36.7176995], [-97.0928657, 36.7176336], [-97.0927514, 36.7176336], [-97.0927514, 36.7177756]]]}, "properties": {"osm_id": 1088027553, "building": "yes", "name": "", "height": null, "height_m": null, "levels": null, "tract_id": "40071000100", "tract_name": "1", "tags": {"building": "yes", "source": "microsoft/BuildingFootprints"}}}, {"type": "Feature", "geometry": {"type": "Polygon", "coordinates": [[[-97.0916903, 36.7189313], [-97.0916469, 36.7188034], [-97.091479, 36.7188401], [-97.0915031, 36.7189111], [-97.09158, 36.7188944], [-97.0915992, 36.7189511], [-97.0916903, 36.7189313]]]}, "properties": {"osm_id": 1088027554, "building": "yes", "name": "", "height": null, "height_m": null, "levels": null, "tract_id": "40071000100", "tract_name": "1", "tags": {"building": "yes", "source": "microsoft/BuildingFootprints"}}}, {"type": "Feature", "geometry": {"type": "Polygon", "coordinates": [[[-97.0927691, 36.717956], [-97.0927691, 36.7180242], [-97.09271, 36.7180242], [-97.09271, 36.718101], [-97.0928912, 36.718101], [-97.0928912, 36.7180199], [-97.092867, 36.7180199], [-97.092867, 36.717956], [-97.0927691, 36.717956]]]}, "properties": {"osm_id": 1088027555, "building": "yes", "name": "", "height": null, "height_m": null, "levels": null, "tract_id": "40071000100", "tract_name": "1", "tags": {"building": "yes", "source": "microsoft/BuildingFootprints"}}}, {"type": "Feature", "geometry": {"type": "Polygon", "coordinates": [[[-97.0921338, 36.7172425], [-97.0922572, 36.7172425], [-97.0923276, 36.7172424], [-97.0923888, 36.7172424], [-97.0923887, 36.7171615], [-97.0923219, 36.7171615], [-97.0923219, 36.7171512], [-97.0922267, 36.7171513], [-97.0922267, 36.7171615], [-97.0921337, 36.7171615], [-97.0921338, 36.7172425]]]}, "properties": {"osm_id": 1088027556, "building": "yes", "name": "", "height": null, "height_m": null, "levels": null, "tract_id": "40071000100", "tract_name": "1", "tags": {"building": "yes", "source": "microsoft/BuildingFootprints"}}}, {"type": "Feature", "geometry": {"type": "Polygon", "coordinates": [[[-97.0923131, 36.7187721], [-97.0924787, 36.7187317], [-97.0924265, 36.7185941], [-97.0922608, 36.7186345], [-97.0923131, 36.7187721]]]}, "properties": {"osm_id": 1088027557, "building": "yes", "name": "", "height": null, "height_m": null, "levels": null, "tract_id": "40071000100", "tract_name": "1", "tags": {"building": "yes", "source": "microsoft/BuildingFootprints"}}}, {"type": "Feature", "geometry": {"type": "Polygon", "coordinates": [[[-97.0923167, 36.7179355], [-97.0923185, 36.7178017], [-97.0922167, 36.7178009], [-97.0922158, 36.7178669], [-97.0921424, 36.7178662], [-97.0921415, 36.717934], [-97.0923167, 36.7179355]]]}, "properties": {"osm_id": 1088027558, "building": "yes", "name": "", "height": null, "height_m": null, "levels": null, "tract_id": "40071000100", "tract_name": "1", "tags": {"building": "yes", "source": "microsoft/BuildingFootprints"}}}, {"type": "Feature", "geometry": {"type": "Polygon", "coordinates": [[[-97.0928027, 36.7172325], [-97.0928937, 36.7172325], [-97.0928937, 36.7171495], [-97.0927057, 36.7171495], [-97.0927057, 36.7172735], [-97.0928027, 36.7172735], [-97.0928027, 36.7172325]]]}, "properties": {"osm_id": 1088027559, "building": "yes", "name": "", "height": null, "height_m": null, "levels": null, "tract_id": "40071000100", "tract_name": "1", "tags": {"building": "yes", "source": "microsoft/BuildingFootprints"}}}, {"type": "Feature", "geometry": {"type": "Polygon", "coordinates": [[[-97.0927218, 36.7174665], [-97.0927218, 36.7176105], [-97.0928958, 36.7176105], [-97.0928958, 36.7174665], [-97.0927218, 36.7174665]]]}, "properties": {"osm_id": 1088027560, "building": "yes", "name": "", "height": null, "height_m": null, "levels": null, "tract_id": "40071000100", "tract_name": "1", "tags": {"building": "yes", "source": "microsoft/BuildingFootprints"}}}, {"type": "Feature", "geometry": {"type": "Polygon", "coordinates": [[[-97.0920781, 36.7187141], [-97.0921131, 36.7188044], [-97.0922017, 36.7187823], [-97.0922085, 36.7187998], [-97.0922875, 36.7187801], [-97.0922457, 36.7186723], [-97.0920781, 36.7187141]]]}, "properties": {"osm_id": 1088027561, "building": "yes", "name": "", "height": null, "height_m": null, "levels": null, "tract_id": "40071000100", "tract_name": "1", "tags": {"building": "yes", "source": "microsoft/BuildingFootprints"}}}, {"type": "Feature", "geometry": {"type": "Polygon", "coordinates": [[[-97.0921337, 36.7176328], [-97.0921338, 36.7177105], [-97.092138, 36.7177105], [-97.0922177, 36.7177105], [-97.0922178, 36.717769], [-97.0922178, 36.7177746], [-97.0923138, 36.7177745], [-97.0923138, 36.7177189], [-97.0923137, 36.7176327], [-97.0921337, 36.7176328]]]}, "properties": {"osm_id": 1088027562, "building": "yes", "name": "", "height": null, "height_m": null, "levels": null, "tract_id": "40071000100", "tract_name": "1", "tags": {"building": "yes", "source": "microsoft/BuildingFootprints"}}}, {"type": "Feature", "geometry": {"type": "Polygon", "coordinates": [[[-97.0926558, 36.7185915], [-97.0926236, 36.7185995], [-97.0926059, 36.7185538], [-97.0925425, 36.7185697], [-97.0925603, 36.7186153], [-97.0924918, 36.7186324], [-97.0925268, 36.7187224], [-97.0926908, 36.7186815], [-97.0926558, 36.7185915]]]}, "properties": {"osm_id": 1088027563, "building": "yes", "name": "", "height": null, "height_m": null, "levels": null, "tract_id": "40071000100", "tract_name": "1", "tags": {"building": "yes", "source": "microsoft/BuildingFootprints"}}}, {"type": "Feature", "geometry": {"type": "Polygon", "coordinates": [[[-97.0911546, 36.7189127], [-97.0911436, 36.7189336], [-97.0912315, 36.7189631], [-97.0912841, 36.7188623], [-97.0911257, 36.7188092], [-97.091084, 36.7188891], [-97.0911546, 36.7189127]]]}, "properties": {"osm_id": 1088027564, "building": "yes", "name": "", "height": null, "height_m": null, "levels": null, "tract_id": "40071000100", "tract_name": "1", "tags": {"building": "yes", "source": "microsoft/BuildingFootprints"}}}, {"type": "Feature", "geometry": {"type": "Polygon", "coordinates": [[[-97.0914899, 36.718986], [-97.0914575, 36.7188756], [-97.0914377, 36.7188794], [-97.0914197, 36.718818], [-97.0913446, 36.7188322], [-97.0913627, 36.718894], [-97.0912888, 36.718908], [-97.0913138, 36.7189931], [-97.0913922, 36.7189783], [-97.0913994, 36.7190031], [-97.0914899, 36.718986]]]}, "properties": {"osm_id": 1088027565, "building": "yes", "name": "", "height": null, "height_m": null, "levels": null, "tract_id": "40071000100", "tract_name": "1", "tags": {"building": "yes", "source": "microsoft/BuildingFootprints"}}}, {"type": "Feature", "geometry": {"type": "Polygon", "coordinates": [[[-97.0921375, 36.7173776], [-97.0922234, 36.7173776], [-97.0922235, 36.7174443], [-97.0923327, 36.7174442], [-97.0923325, 36.7173045], [-97.0921374, 36.7173047], [-97.0921375, 36.7173776]]]}, "properties": {"osm_id": 1088027566, "building": "yes", "name": "", "height": null, "height_m": null, "levels": null, "tract_id": "40071000100", "tract_name": "1", "tags": {"building": "yes", "source": "microsoft/BuildingFootprints"}}}, {"type": "Feature", "geometry": {"type": "Polygon", "coordinates": [[[-97.0927244, 36.7174439], [-97.0928294, 36.7174439], [-97.0928294, 36.7173749], [-97.0928934, 36.7173749], [-97.0928934, 36.7173019], [-97.0927244, 36.7173019], [-97.0927244, 36.7174439]]]}, "properties": {"osm_id": 1088027567, "building": "yes", "name": "", "height": null, "height_m": null, "levels": null, "tract_id": "40071000100", "tract_name": "1", "tags": {"building": "yes", "source": "microsoft/BuildingFootprints"}}}, {"type": "Feature", "geometry": {"type": "Polygon", "coordinates": [[[-97.0945965, 36.7161182], [-97.0945955, 36.7161602], [-97.0945367, 36.7161593], [-97.0945378, 36.7161173], [-97.0945965, 36.7161182]]]}, "properties": {"osm_id": 1088029193, "building": "yes", "name": "", "height": null, "height_m": null, "levels": null, "tract_id": "40071000100", "tract_name": "1", "tags": {"building": "yes"}}}, {"type": "Feature", "geometry": {"type": "Polygon", "coordinates": [[[-97.0945055, 36.7162289], [-97.0945042, 36.7161958], [-97.0945843, 36.7161953], [-97.094584, 36.7162415], [-97.0945778, 36.7162418], [-97.0945778, 36.7162289], [-97.0945055, 36.7162289]]]}, "properties": {"osm_id": 1088029194, "building": "yes", "name": "", "height": null, "height_m": null, "levels": null, "tract_id": "40071000100", "tract_name": "1", "tags": {"building": "yes"}}}, {"type": "Feature", "geometry": {"type": "Polygon", "coordinates": [[[-97.0945904, 36.7161961], [-97.0946655, 36.7161961], [-97.0946655, 36.7162273], [-97.0945904, 36.7162273], [-97.0945904, 36.7161961]]]}, "properties": {"osm_id": 1088029195, "building": "yes", "name": "", "height": null, "height_m": null, "levels": null, "tract_id": "40071000100", "tract_name": "1", "tags": {"building": "yes"}}}, {"type": "Feature", "geometry": {"type": "Polygon", "coordinates": [[[-97.0945589, 36.7164826], [-97.0945568, 36.7164111], [-97.0946556, 36.7164093], [-97.0946576, 36.7164808], [-97.0945589, 36.7164826]]]}, "properties": {"osm_id": 1088029198, "building": "yes", "name": "", "height": null, "height_m": null, "levels": null, "tract_id": "40071000100", "tract_name": "1", "tags": {"building": "yes"}}}, {"type": "Feature", "geometry": {"type": "Polygon", "coordinates": [[[-97.0915089, 36.7185824], [-97.0914483, 36.7185971], [-97.0914363, 36.7185651], [-97.0914969, 36.7185504], [-97.0915089, 36.7185824]]]}, "properties": {"osm_id": 1088029208, "building": "yes", "name": "", "height": null, "height_m": null, "levels": null, "tract_id": "40071000100", "tract_name": "1", "tags": {"building": "yes"}}}, {"type": "Feature", "geometry": {"type": "Polygon", "coordinates": [[[-97.094612, 36.7157608], [-97.094612, 36.7156708], [-97.0944958, 36.7156708], [-97.0944958, 36.715643], [-97.0944274, 36.715643], [-97.0944274, 36.7156708], [-97.0943946, 36.7156708], [-97.0943946, 36.7157608], [-97.094473, 36.7157608], [-97.094473, 36.7157489], [-97.094522, 36.7157489], [-97.094522, 36.7157608], [-97.094612, 36.7157608]]]}, "properties": {"osm_id": 1088029209, "building": "yes", "name": "", "height": null, "height_m": null, "levels": null, "tract_id": "40071000100", "tract_name": "1", "tags": {"building": "yes", "source": "microsoft/BuildingFootprints"}}}, {"type": "Feature", "geometry": {"type": "Polygon", "coordinates": [[[-97.0944411, 36.7158934], [-97.0946071, 36.7158934], [-97.0946071, 36.7157924], [-97.0944411, 36.7157924], [-97.0944411, 36.7158934]]]}, "properties": {"osm_id": 1088029210, "building": "yes", "name": "", "height": null, "height_m": null, "levels": null, "tract_id": "40071000100", "tract_name": "1", "tags": {"building": "yes", "source": "microsoft/BuildingFootprints"}}}, {"type": "Feature", "geometry": {"type": "Polygon", "coordinates": [[[-97.0944204, 36.7168876], [-97.0945734, 36.7168876], [-97.0945734, 36.7168356], [-97.0944204, 36.7168356], [-97.0944204, 36.7168876]]]}, "properties": {"osm_id": 1088029212, "building": "yes", "name": "", "height": null, "height_m": null, "levels": null, "tract_id": "40071000100", "tract_name": "1", "tags": {"building": "yes", "source": "microsoft/BuildingFootprints"}}}, {"type": "Feature", "geometry": {"type": "Polygon", "coordinates": [[[-97.0944141, 36.7166384], [-97.0944141, 36.7166659], [-97.0943912, 36.7166659], [-97.0943912, 36.7167143], [-97.0945671, 36.7167143], [-97.0945671, 36.7166384], [-97.0944141, 36.7166384]]]}, "properties": {"osm_id": 1088029213, "building": "yes", "name": "", "height": null, "height_m": null, "levels": null, "tract_id": "40071000100", "tract_name": "1", "tags": {"building": "yes", "source": "microsoft/BuildingFootprints"}}}, {"type": "Feature", "geometry": {"type": "Polygon", "coordinates": [[[-97.0913849, 36.7184284], [-97.0914363, 36.7185651], [-97.0914969, 36.7185504], [-97.0915996, 36.7185256], [-97.0915729, 36.7184548], [-97.0915024, 36.7184719], [-97.0914776, 36.718406], [-97.0913849, 36.7184284]]]}, "properties": {"osm_id": 1088029214, "building": "yes", "name": "", "height": null, "height_m": null, "levels": null, "tract_id": "40071000100", "tract_name": "1", "tags": {"building": "yes", "source": "microsoft/BuildingFootprints"}}}, {"type": "Feature", "geometry": {"type": "Polygon", "coordinates": [[[-97.0944331, 36.7161671], [-97.0944925, 36.7161681], [-97.0944927, 36.7161586], [-97.0945367, 36.7161593], [-97.0945378, 36.7161173], [-97.0945965, 36.7161182], [-97.0945973, 36.7160882], [-97.0945388, 36.7160872], [-97.094539, 36.7160771], [-97.0944867, 36.7160763], [-97.0944865, 36.7160864], [-97.0944351, 36.7160856], [-97.0944331, 36.7161671]]]}, "properties": {"osm_id": 1088029215, "building": "yes", "name": "", "height": null, "height_m": null, "levels": null, "tract_id": "40071000100", "tract_name": "1", "tags": {"building": "yes", "source": "microsoft/BuildingFootprints"}}}, {"type": "Feature", "geometry": {"type": "Polygon", "coordinates": [[[-97.0946011, 36.7159292], [-97.0944241, 36.7159292], [-97.0944241, 36.7160232], [-97.0946011, 36.7160232], [-97.0946011, 36.7159292]]]}, "properties": {"osm_id": 1088029216, "building": "yes", "name": "", "height": null, "height_m": null, "levels": null, "tract_id": "40071000100", "tract_name": "1", "tags": {"building": "yes", "source": "microsoft/BuildingFootprints"}}}, {"type": "Feature", "geometry": {"type": "Polygon", "coordinates": [[[-97.0945778, 36.7162289], [-97.0945055, 36.7162289], [-97.0944328, 36.7162289], [-97.0944328, 36.7163111], [-97.0945778, 36.7163111], [-97.0945778, 36.7162418], [-97.0945778, 36.7162289]]]}, "properties": {"osm_id": 1088029217, "building": "yes", "name": "", "height": null, "height_m": null, "levels": null, "tract_id": "40071000100", "tract_name": "1", "tags": {"building": "yes", "source": "microsoft/BuildingFootprints"}}}, {"type": "Feature", "geometry": {"type": "Polygon", "coordinates": [[[-97.0945391, 36.7163361], [-97.0944321, 36.7163361], [-97.0944321, 36.7163713], [-97.0944147, 36.7163713], [-97.0944147, 36.7164122], [-97.0944408, 36.7164122], [-97.0944408, 36.7164421], [-97.0945391, 36.7164421], [-97.0945391, 36.7163361]]]}, "properties": {"osm_id": 1088029218, "building": "yes", "name": "", "height": null, "height_m": null, "levels": null, "tract_id": "40071000100", "tract_name": "1", "tags": {"building": "yes", "source": "microsoft/BuildingFootprints"}}}, {"type": "Feature", "geometry": {"type": "Polygon", "coordinates": [[[-97.0953571, 36.7154552], [-97.0950841, 36.7154532], [-97.0950871, 36.7152322], [-97.0948951, 36.7152312], [-97.0948921, 36.7154562], [-97.0945001, 36.7154532], [-97.0944981, 36.7155742], [-97.0953551, 36.7155812], [-97.0953571, 36.7154552]]]}, "properties": {"osm_id": 1088029219, "building": "yes", "name": "", "height": null, "height_m": null, "levels": null, "tract_id": "40071000100", "tract_name": "1", "tags": {"building": "yes", "source": "microsoft/BuildingFootprints"}}}, {"type": "Feature", "geometry": {"type": "Polygon", "coordinates": [[[-97.0945458, 36.716475], [-97.0944358, 36.716475], [-97.0944358, 36.716583], [-97.0945458, 36.716583], [-97.0945458, 36.716475]]]}, "properties": {"osm_id": 1088029220, "building": "yes", "name": "", "height": null, "height_m": null, "levels": null, "tract_id": "40071000100", "tract_name": "1", "tags": {"building": "yes", "source": "microsoft/BuildingFootprints"}}}, {"type": "Feature", "geometry": {"type": "Polygon", "coordinates": [[[-97.0932774, 36.7166976], [-97.0932769, 36.7167449], [-97.0932051, 36.7167444], [-97.0932057, 36.7166971], [-97.0932774, 36.7166976]]]}, "properties": {"osm_id": 1088032369, "building": "yes", "name": "", "height": null, "height_m": null, "levels": null, "tract_id": "40071000100", "tract_name": "1", "tags": {"building": "yes"}}}, {"type": "Feature", "geometry": {"type": "Polygon", "coordinates": [[[-97.093401, 36.716461], [-97.0934687, 36.7164609], [-97.0934684, 36.716344], [-97.0934007, 36.7163441], [-97.093401, 36.716461]]]}, "properties": {"osm_id": 1088032370, "building": "yes", "name": "", "height": null, "height_m": null, "levels": null, "tract_id": "40071000100", "tract_name": "1", "tags": {"building": "yes"}}}, {"type": "Feature", "geometry": {"type": "Polygon", "coordinates": [[[-97.0934692, 36.7154323], [-97.0934685, 36.7153748], [-97.0935201, 36.7153744], [-97.0935208, 36.7154319], [-97.0934692, 36.7154323]]]}, "properties": {"osm_id": 1088032371, "building": "yes", "name": "", "height": null, "height_m": null, "levels": null, "tract_id": "40071000100", "tract_name": "1", "tags": {"building": "yes"}}}, {"type": "Feature", "geometry": {"type": "Polygon", "coordinates": [[[-97.0932992, 36.7155059], [-97.0932998, 36.715451], [-97.0932183, 36.7154505], [-97.0932177, 36.7155054], [-97.0932992, 36.7155059]]]}, "properties": {"osm_id": 1088032372, "building": "yes", "name": "", "height": null, "height_m": null, "levels": null, "tract_id": "40071000100", "tract_name": "1", "tags": {"building": "yes"}}}, {"type": "Feature", "geometry": {"type": "Polygon", "coordinates": [[[-97.0934068, 36.7154946], [-97.093317, 36.715495], [-97.0933168, 36.7154597], [-97.0933071, 36.7154597], [-97.0933068, 36.7154226], [-97.0933165, 36.7154226], [-97.0933163, 36.7153848], [-97.0934062, 36.7153844], [-97.0934068, 36.7154946]]]}, "properties": {"osm_id": 1088032373, "building": "yes", "name": "", "height": null, "height_m": null, "levels": null, "tract_id": "40071000100", "tract_name": "1", "tags": {"building": "yes"}}}, {"type": "Feature", "geometry": {"type": "Polygon", "coordinates": [[[-97.093614, 36.7151694], [-97.0936135, 36.7152244], [-97.0935061, 36.7152237], [-97.0935066, 36.7151687], [-97.093614, 36.7151694]]]}, "properties": {"osm_id": 1088032388, "building": "yes", "name": "", "height": null, "height_m": null, "levels": null, "tract_id": "40071000100", "tract_name": "1", "tags": {"building": "yes"}}}, {"type": "Feature", "geometry": {"type": "Polygon", "coordinates": [[[-97.093728, 36.7166525], [-97.093728, 36.7166181], [-97.0937622, 36.7166181], [-97.0937622, 36.7166525], [-97.093728, 36.7166525]]]}, "properties": {"osm_id": 1088032390, "building": "yes", "name": "", "height": null, "height_m": null, "levels": null, "tract_id": "40071000100", "tract_name": "1", "tags": {"building": "yes"}}}, {"type": "Feature", "geometry": {"type": "Polygon", "coordinates": [[[-97.0937502, 36.7168277], [-97.093718, 36.7168277], [-97.093718, 36.7168051], [-97.0937502, 36.7168051], [-97.0937502, 36.7168277]]]}, "properties": {"osm_id": 1088032391, "building": "yes", "name": "", "height": null, "height_m": null, "levels": null, "tract_id": "40071000100", "tract_name": "1", "tags": {"building": "yes"}}}, {"type": "Feature", "geometry": {"type": "Polygon", "coordinates": [[[-97.0939212, 36.7168271], [-97.0939212, 36.7168911], [-97.0938293, 36.7168911], [-97.0938293, 36.7168271], [-97.0939212, 36.7168271]]]}, "properties": {"osm_id": 1088032392, "building": "yes", "name": "", "height": null, "height_m": null, "levels": null, "tract_id": "40071000100", "tract_name": "1", "tags": {"building": "yes"}}}, {"type": "Feature", "geometry": {"type": "Polygon", "coordinates": [[[-97.0939017, 36.7163627], [-97.0938682, 36.7163617], [-97.0938694, 36.7163381], [-97.0939029, 36.7163391], [-97.0939017, 36.7163627]]]}, "properties": {"osm_id": 1088032393, "building": "yes", "name": "", "height": null, "height_m": null, "levels": null, "tract_id": "40071000100", "tract_name": "1", "tags": {"building": "yes"}}}, {"type": "Feature", "geometry": {"type": "Polygon", "coordinates": [[[-97.0938333, 36.7163402], [-97.0938346, 36.7163716], [-97.0937944, 36.7163726], [-97.0937931, 36.7163412], [-97.0938333, 36.7163402]]]}, "properties": {"osm_id": 1088032394, "building": "yes", "name": "", "height": null, "height_m": null, "levels": null, "tract_id": "40071000100", "tract_name": "1", "tags": {"building": "yes"}}}, {"type": "Feature", "geometry": {"type": "Polygon", "coordinates": [[[-97.0937508, 36.7157424], [-97.0937173, 36.7157424], [-97.0937173, 36.7157096], [-97.0937508, 36.7157096], [-97.0937508, 36.7157424]]]}, "properties": {"osm_id": 1088032395, "building": "yes", "name": "", "height": null, "height_m": null, "levels": null, "tract_id": "40071000100", "tract_name": "1", "tags": {"building": "yes"}}}, {"type": "Feature", "geometry": {"type": "Polygon", "coordinates": [[[-97.0937891, 36.7160176], [-97.0937891, 36.7160402], [-97.0937287, 36.7160402], [-97.0937287, 36.7160176], [-97.0937891, 36.7160176]]]}, "properties": {"osm_id": 1088032396, "building": "yes", "name": "", "height": null, "height_m": null, "levels": null, "tract_id": "40071000100", "tract_name": "1", "tags": {"building": "yes"}}}, {"type": "Feature", "geometry": {"type": "Polygon", "coordinates": [[[-97.0937984, 36.7162085], [-97.0937984, 36.716237], [-97.093728, 36.716237], [-97.093728, 36.7162085], [-97.0937984, 36.7162085]]]}, "properties": {"osm_id": 1088032397, "building": "yes", "name": "", "height": null, "height_m": null, "levels": null, "tract_id": "40071000100", "tract_name": "1", "tags": {"building": "yes"}}}, {"type": "Feature", "geometry": {"type": "Polygon", "coordinates": [[[-97.0938548, 36.7161262], [-97.0938548, 36.7161811], [-97.0937602, 36.7161811], [-97.0937602, 36.7161262], [-97.0938548, 36.7161262]]]}, "properties": {"osm_id": 1088032398, "building": "yes", "name": "", "height": null, "height_m": null, "levels": null, "tract_id": "40071000100", "tract_name": "1", "tags": {"building": "yes"}}}, {"type": "Feature", "geometry": {"type": "Polygon", "coordinates": [[[-97.093456, 36.7151636], [-97.0934086, 36.7151633], [-97.0934091, 36.7151138], [-97.0933152, 36.7151132], [-97.0933146, 36.7151711], [-97.0933023, 36.715171], [-97.0933022, 36.715184], [-97.0932869, 36.7151839], [-97.0932865, 36.7152209], [-97.0934554, 36.715222], [-97.093456, 36.7151636]]]}, "properties": {"osm_id": 1088032409, "building": "yes", "name": "", "height": null, "height_m": null, "levels": null, "tract_id": "40071000100", "tract_name": "1", "tags": {"building": "yes", "source": "microsoft/BuildingFootprints"}}}, {"type": "Feature", "geometry": {"type": "Polygon", "coordinates": [[[-97.0939531, 36.7158004], [-97.0939531, 36.7159084], [-97.0940653, 36.7159084], [-97.0940653, 36.7158489], [-97.0940439, 36.7158489], [-97.0940439, 36.7158004], [-97.0939531, 36.7158004]]]}, "properties": {"osm_id": 1088032410, "building": "yes", "name": "", "height": null, "height_m": null, "levels": null, "tract_id": "40071000100", "tract_name": "1", "tags": {"building": "yes", "source": "microsoft/BuildingFootprints"}}}, {"type": "Feature", "geometry": {"type": "Polygon", "coordinates": [[[-97.0935091, 36.7167406], [-97.0936001, 36.7167406], [-97.0936001, 36.7166705], [-97.0935091, 36.7166705], [-97.0935091, 36.7167406]]]}, "properties": {"osm_id": 1088032411, "building": "yes", "name": "", "height": null, "height_m": null, "levels": null, "tract_id": "40071000100", "tract_name": "1", "tags": {"building": "yes", "source": "microsoft/BuildingFootprints"}}}, {"type": "Feature", "geometry": {"type": "Polygon", "coordinates": [[[-97.0940564, 36.7162152], [-97.0938424, 36.7162152], [-97.0938424, 36.7162992], [-97.0940564, 36.7162992], [-97.0940564, 36.7162152]]]}, "properties": {"osm_id": 1088032412, "building": "yes", "name": "", "height": null, "height_m": null, "levels": null, "tract_id": "40071000100", "tract_name": "1", "tags": {"building": "yes", "source": "microsoft/BuildingFootprints"}}}, {"type": "Feature", "geometry": {"type": "Polygon", "coordinates": [[[-97.0939646, 36.7159344], [-97.0939649, 36.7160484], [-97.0940548, 36.7160482], [-97.0940545, 36.7159342], [-97.0939646, 36.7159344]]]}, "properties": {"osm_id": 1088032413, "building": "yes", "name": "", "height": null, "height_m": null, "levels": null, "tract_id": "40071000100", "tract_name": "1", "tags": {"building": "yes", "source": "microsoft/BuildingFootprints"}}}, {"type": "Feature", "geometry": {"type": "Polygon", "coordinates": [[[-97.0940561, 36.7163445], [-97.0939646, 36.7163438], [-97.0939633, 36.7164618], [-97.0940548, 36.7164625], [-97.0940554, 36.71641], [-97.0940685, 36.7164101], [-97.0940688, 36.7163816], [-97.0940557, 36.7163815], [-97.0940561, 36.7163445]]]}, "properties": {"osm_id": 1088032414, "building": "yes", "name": "", "height": null, "height_m": null, "levels": null, "tract_id": "40071000100", "tract_name": "1", "tags": {"building": "yes", "source": "microsoft/BuildingFootprints"}}}, {"type": "Feature", "geometry": {"type": "Polygon", "coordinates": [[[-97.0940638, 36.715245], [-97.0939648, 36.715245], [-97.0939648, 36.715361], [-97.0940638, 36.715361], [-97.0940638, 36.715245]]]}, "properties": {"osm_id": 1088032415, "building": "yes", "name": "", "height": null, "height_m": null, "levels": null, "tract_id": "40071000100", "tract_name": "1", "tags": {"building": "yes", "source": "microsoft/BuildingFootprints"}}}, {"type": "Feature", "geometry": {"type": "Polygon", "coordinates": [[[-97.0940537, 36.7153835], [-97.0939457, 36.7153835], [-97.0939457, 36.7154955], [-97.0940727, 36.7154955], [-97.0940727, 36.7154441], [-97.0940537, 36.7154441], [-97.0940537, 36.7153835]]]}, "properties": {"osm_id": 1088032416, "building": "yes", "name": "", "height": null, "height_m": null, "levels": null, "tract_id": "40071000100", "tract_name": "1", "tags": {"building": "yes", "source": "microsoft/BuildingFootprints"}}}, {"type": "Feature", "geometry": {"type": "Polygon", "coordinates": [[[-97.093941, 36.7168783], [-97.0940434, 36.7168787], [-97.0940442, 36.7167628], [-97.0939418, 36.7167624], [-97.093941, 36.7168783]]]}, "properties": {"osm_id": 1088032417, "building": "yes", "name": "", "height": null, "height_m": null, "levels": null, "tract_id": "40071000100", "tract_name": "1", "tags": {"building": "yes", "source": "microsoft/BuildingFootprints"}}}, {"type": "Feature", "geometry": {"type": "Polygon", "coordinates": [[[-97.0939268, 36.7166226], [-97.0939268, 36.7167306], [-97.0940498, 36.7167306], [-97.0940498, 36.7166226], [-97.0939268, 36.7166226]]]}, "properties": {"osm_id": 1088032418, "building": "yes", "name": "", "height": null, "height_m": null, "levels": null, "tract_id": "40071000100", "tract_name": "1", "tags": {"building": "yes", "source": "microsoft/BuildingFootprints"}}}, {"type": "Feature", "geometry": {"type": "Polygon", "coordinates": [[[-97.0934111, 36.7157972], [-97.0933101, 36.7157972], [-97.0933101, 36.7159062], [-97.0934111, 36.7159062], [-97.0934111, 36.7157972]]]}, "properties": {"osm_id": 1088032419, "building": "yes", "name": "", "height": null, "height_m": null, "levels": null, "tract_id": "40071000100", "tract_name": "1", "tags": {"building": "yes", "source": "microsoft/BuildingFootprints"}}}, {"type": "Feature", "geometry": {"type": "Polygon", "coordinates": [[[-97.0940398, 36.7160713], [-97.0939475, 36.7160713], [-97.0939475, 36.7161225], [-97.0939305, 36.7161225], [-97.0939305, 36.7161601], [-97.0939475, 36.7161601], [-97.0939475, 36.7161893], [-97.0940398, 36.7161893], [-97.0940398, 36.7161268], [-97.0940492, 36.7161268], [-97.0940492, 36.7161004], [-97.0940398, 36.7161004], [-97.0940398, 36.7160713]]]}, "properties": {"osm_id": 1088032420, "building": "yes", "name": "", "height": null, "height_m": null, "levels": null, "tract_id": "40071000100", "tract_name": "1", "tags": {"building": "yes", "source": "microsoft/BuildingFootprints"}}}, {"type": "Feature", "geometry": {"type": "Polygon", "coordinates": [[[-97.0939476, 36.7156606], [-97.0939463, 36.7157725], [-97.0940436, 36.7157733], [-97.0940449, 36.7156613], [-97.0939476, 36.7156606]]]}, "properties": {"osm_id": 1088032421, "building": "yes", "name": "", "height": null, "height_m": null, "levels": null, "tract_id": "40071000100", "tract_name": "1", "tags": {"building": "yes", "source": "microsoft/BuildingFootprints"}}}, {"type": "Feature", "geometry": {"type": "Polygon", "coordinates": [[[-97.0932971, 36.7160707], [-97.0932971, 36.716108], [-97.0932902, 36.716108], [-97.0932902, 36.7161461], [-97.0932971, 36.7161461], [-97.0932971, 36.7161837], [-97.0934189, 36.7161837], [-97.0934189, 36.7161316], [-97.0933894, 36.7161316], [-97.0933894, 36.7160707], [-97.0932971, 36.7160707]]]}, "properties": {"osm_id": 1088032422, "building": "yes", "name": "", "height": null, "height_m": null, "levels": null, "tract_id": "40071000100", "tract_name": "1", "tags": {"building": "yes", "source": "microsoft/BuildingFootprints"}}}, {"type": "Feature", "geometry": {"type": "Polygon", "coordinates": [[[-97.0934055, 36.7162096], [-97.0933136, 36.7162096], [-97.0933136, 36.716273], [-97.0932848, 36.716273], [-97.0932848, 36.7163176], [-97.0934055, 36.7163176], [-97.0934055, 36.7162096]]]}, "properties": {"osm_id": 1088032423, "building": "yes", "name": "", "height": null, "height_m": null, "levels": null, "tract_id": "40071000100", "tract_name": "1", "tags": {"building": "yes", "source": "microsoft/BuildingFootprints"}}}, {"type": "Feature", "geometry": {"type": "Polygon", "coordinates": [[[-97.0932965, 36.7164843], [-97.093296, 36.7165341], [-97.0933097, 36.7165342], [-97.0933092, 36.7165949], [-97.0934001, 36.7165954], [-97.093401, 36.7164849], [-97.0932965, 36.7164843]]]}, "properties": {"osm_id": 1088032424, "building": "yes", "name": "", "height": null, "height_m": null, "levels": null, "tract_id": "40071000100", "tract_name": "1", "tags": {"building": "yes", "source": "microsoft/BuildingFootprints"}}}, {"type": "Feature", "geometry": {"type": "Polygon", "coordinates": [[[-97.0939418, 36.7156347], [-97.0940388, 36.7156347], [-97.0940388, 36.7155227], [-97.0939418, 36.7155227], [-97.0939418, 36.7156347]]]}, "properties": {"osm_id": 1088032425, "building": "yes", "name": "", "height": null, "height_m": null, "levels": null, "tract_id": "40071000100", "tract_name": "1", "tags": {"building": "yes", "source": "microsoft/BuildingFootprints"}}}, {"type": "Feature", "geometry": {"type": "Polygon", "coordinates": [[[-97.0932949, 36.7166809], [-97.0932954, 36.7166976], [-97.0932852, 36.7166976], [-97.0932862, 36.7167333], [-97.0934557, 36.7167326], [-97.0934557, 36.7166526], [-97.0934017, 36.7166526], [-97.0934017, 36.7166226], [-97.093303, 36.7166226], [-97.0933038, 36.7166809], [-97.0932949, 36.7166809]]]}, "properties": {"osm_id": 1088032426, "building": "yes", "name": "", "height": null, "height_m": null, "levels": null, "tract_id": "40071000100", "tract_name": "1", "tags": {"building": "yes", "source": "microsoft/BuildingFootprints"}}}, {"type": "Feature", "geometry": {"type": "Polygon", "coordinates": [[[-97.0934007, 36.7163441], [-97.0933134, 36.7163442], [-97.0933135, 36.7163751], [-97.0932968, 36.7163751], [-97.0932969, 36.7164015], [-97.0933134, 36.7164014], [-97.0933135, 36.7164611], [-97.093401, 36.716461], [-97.0934007, 36.7163441]]]}, "properties": {"osm_id": 1088032427, "building": "yes", "name": "", "height": null, "height_m": null, "levels": null, "tract_id": "40071000100", "tract_name": "1", "tags": {"building": "yes", "source": "microsoft/BuildingFootprints"}}}, {"type": "Feature", "geometry": {"type": "Polygon", "coordinates": [[[-97.0934084, 36.7159293], [-97.0932979, 36.7159298], [-97.0932983, 36.7159854], [-97.0933091, 36.7159854], [-97.0933095, 36.7160437], [-97.0934091, 36.7160433], [-97.0934084, 36.7159293]]]}, "properties": {"osm_id": 1088032428, "building": "yes", "name": "", "height": null, "height_m": null, "levels": null, "tract_id": "40071000100", "tract_name": "1", "tags": {"building": "yes", "source": "microsoft/BuildingFootprints"}}}, {"type": "Feature", "geometry": {"type": "Polygon", "coordinates": [[[-97.0932989, 36.71563], [-97.0933911, 36.71563], [-97.0933911, 36.715523], [-97.0932882, 36.715523], [-97.0932882, 36.715571], [-97.0932989, 36.715571], [-97.0932989, 36.71563]]]}, "properties": {"osm_id": 1088032429, "building": "yes", "name": "", "height": null, "height_m": null, "levels": null, "tract_id": "40071000100", "tract_name": "1", "tags": {"building": "yes", "source": "microsoft/BuildingFootprints"}}}, {"type": "Feature", "geometry": {"type": "Polygon", "coordinates": [[[-97.0939397, 36.7151142], [-97.0939397, 36.7152212], [-97.0940407, 36.7152212], [-97.0940407, 36.7151142], [-97.0939397, 36.7151142]]]}, "properties": {"osm_id": 1088032430, "building": "yes", "name": "", "height": null, "height_m": null, "levels": null, "tract_id": "40071000100", "tract_name": "1", "tags": {"building": "yes", "source": "microsoft/BuildingFootprints"}}}, {"type": "Feature", "geometry": {"type": "Polygon", "coordinates": [[[-97.0933096, 36.7156639], [-97.0933096, 36.7157182], [-97.0932258, 36.7157182], [-97.0932258, 36.7157689], [-97.0934565, 36.7157689], [-97.0934565, 36.7157231], [-97.0934128, 36.7157231], [-97.0934128, 36.7156639], [-97.0933096, 36.7156639]]]}, "properties": {"osm_id": 1088032431, "building": "yes", "name": "", "height": null, "height_m": null, "levels": null, "tract_id": "40071000100", "tract_name": "1", "tags": {"building": "yes", "source": "microsoft/BuildingFootprints"}}}, {"type": "Feature", "geometry": {"type": "Polygon", "coordinates": [[[-97.0940618, 36.7164816], [-97.0939623, 36.7164815], [-97.093962, 36.7165955], [-97.0940615, 36.7165956], [-97.0940618, 36.7164816]]]}, "properties": {"osm_id": 1088032432, "building": "yes", "name": "", "height": null, "height_m": null, "levels": null, "tract_id": "40071000100", "tract_name": "1", "tags": {"building": "yes", "source": "microsoft/BuildingFootprints"}}}, {"type": "Feature", "geometry": {"type": "Polygon", "coordinates": [[[-97.0933045, 36.7167635], [-97.0933051, 36.7168255], [-97.0932794, 36.7168257], [-97.0932798, 36.7168746], [-97.0934088, 36.7168736], [-97.0934068, 36.7167626], [-97.0933045, 36.7167635]]]}, "properties": {"osm_id": 1088032433, "building": "yes", "name": "", "height": null, "height_m": null, "levels": null, "tract_id": "40071000100", "tract_name": "1", "tags": {"building": "yes", "source": "microsoft/BuildingFootprints"}}}, {"type": "Feature", "geometry": {"type": "Polygon", "coordinates": [[[-97.0934101, 36.7153612], [-97.0934101, 36.7152452], [-97.0933141, 36.7152452], [-97.0933141, 36.715271], [-97.0932996, 36.715271], [-97.0932996, 36.7153033], [-97.0933141, 36.7153033], [-97.0933141, 36.7153612], [-97.0934101, 36.7153612]]]}, "properties": {"osm_id": 1088032434, "building": "yes", "name": "", "height": null, "height_m": null, "levels": null, "tract_id": "40071000100", "tract_name": "1", "tags": {"building": "yes", "source": "microsoft/BuildingFootprints"}}}, {"type": "Feature", "geometry": {"type": "Polygon", "coordinates": [[[-97.0908809, 36.7165955], [-97.0908158, 36.7165691], [-97.0908402, 36.7165305], [-97.0909052, 36.7165568], [-97.0908809, 36.7165955]]]}, "properties": {"osm_id": 1088037539, "building": "yes", "name": "", "height": null, "height_m": null, "levels": null, "tract_id": "40071000100", "tract_name": "1", "tags": {"building": "yes"}}}, {"type": "Feature", "geometry": {"type": "Polygon", "coordinates": [[[-97.0910706, 36.7162112], [-97.0910157, 36.7161854], [-97.0910355, 36.7161581], [-97.0910905, 36.7161839], [-97.0910706, 36.7162112]]]}, "properties": {"osm_id": 1088037540, "building": "yes", "name": "", "height": null, "height_m": null, "levels": null, "tract_id": "40071000100", "tract_name": "1", "tags": {"building": "yes"}}}, {"type": "Feature", "geometry": {"type": "Polygon", "coordinates": [[[-97.0911473, 36.7158052], [-97.0911957, 36.7158269], [-97.0912409, 36.715762], [-97.0911925, 36.7157403], [-97.0911473, 36.7158052]]]}, "properties": {"osm_id": 1088037541, "building": "yes", "name": "", "height": null, "height_m": null, "levels": null, "tract_id": "40071000100", "tract_name": "1", "tags": {"building": "yes"}}}, {"type": "Feature", "geometry": {"type": "Polygon", "coordinates": [[[-97.0916627, 36.7154242], [-97.0915608, 36.7153796], [-97.0915967, 36.7153269], [-97.0916987, 36.7153715], [-97.0916627, 36.7154242]]]}, "properties": {"osm_id": 1088037542, "building": "yes", "name": "", "height": null, "height_m": null, "levels": null, "tract_id": "40071000100", "tract_name": "1", "tags": {"building": "yes"}}}, {"type": "Feature", "geometry": {"type": "Polygon", "coordinates": [[[-97.0913983, 36.7152796], [-97.0913672, 36.7153295], [-97.0913152, 36.7153087], [-97.0913463, 36.7152588], [-97.0913983, 36.7152796]]]}, "properties": {"osm_id": 1088037543, "building": "yes", "name": "", "height": null, "height_m": null, "levels": null, "tract_id": "40071000100", "tract_name": "1", "tags": {"building": "yes"}}}, {"type": "Feature", "geometry": {"type": "Polygon", "coordinates": [[[-97.0915188, 36.7153168], [-97.0915637, 36.7153348], [-97.0915272, 36.7153935], [-97.0914823, 36.7153755], [-97.0915188, 36.7153168]]]}, "properties": {"osm_id": 1088037544, "building": "yes", "name": "", "height": null, "height_m": null, "levels": null, "tract_id": "40071000100", "tract_name": "1", "tags": {"building": "yes"}}}, {"type": "Feature", "geometry": {"type": "Polygon", "coordinates": [[[-97.0912537, 36.7165251], [-97.0912758, 36.7164939], [-97.0913161, 36.7165123], [-97.091294, 36.7165434], [-97.0912537, 36.7165251]]]}, "properties": {"osm_id": 1088037554, "building": "yes", "name": "", "height": null, "height_m": null, "levels": null, "tract_id": "40071000100", "tract_name": "1", "tags": {"building": "yes"}}}, {"type": "Feature", "geometry": {"type": "Polygon", "coordinates": [[[-97.0913684, 36.716381], [-97.091409, 36.7163176], [-97.0914861, 36.7163493], [-97.0914455, 36.7164127], [-97.0913684, 36.716381]]]}, "properties": {"osm_id": 1088037555, "building": "yes", "name": "", "height": null, "height_m": null, "levels": null, "tract_id": "40071000100", "tract_name": "1", "tags": {"building": "yes"}}}, {"type": "Feature", "geometry": {"type": "Polygon", "coordinates": [[[-97.0928017, 36.7165584], [-97.0928017, 36.7165941], [-97.0927061, 36.7165941], [-97.0927061, 36.7165584], [-97.0928017, 36.7165584]]]}, "properties": {"osm_id": 1088037563, "building": "yes", "name": "", "height": null, "height_m": null, "levels": null, "tract_id": "40071000100", "tract_name": "1", "tags": {"building": "yes"}}}, {"type": "Feature", "geometry": {"type": "Polygon", "coordinates": [[[-97.0929824, 36.7159096], [-97.0929173, 36.7159101], [-97.0929166, 36.7158553], [-97.0929817, 36.7158548], [-97.0929824, 36.7159096]]]}, "properties": {"osm_id": 1088037564, "building": "yes", "name": "", "height": null, "height_m": null, "levels": null, "tract_id": "40071000100", "tract_name": "1", "tags": {"building": "yes"}}}, {"type": "Feature", "geometry": {"type": "Polygon", "coordinates": [[[-97.0926018, 36.7157196], [-97.0925626, 36.7157193], [-97.0925629, 36.7156903], [-97.0926022, 36.7156906], [-97.0926018, 36.7157196]]]}, "properties": {"osm_id": 1088037565, "building": "yes", "name": "", "height": null, "height_m": null, "levels": null, "tract_id": "40071000100", "tract_name": "1", "tags": {"building": "yes"}}}, {"type": "Feature", "geometry": {"type": "Polygon", "coordinates": [[[-97.0925988, 36.7157725], [-97.092564, 36.7157725], [-97.092564, 36.7157306], [-97.0925988, 36.7157306], [-97.0925988, 36.7157725]]]}, "properties": {"osm_id": 1088037566, "building": "yes", "name": "", "height": null, "height_m": null, "levels": null, "tract_id": "40071000100", "tract_name": "1", "tags": {"building": "yes"}}}, {"type": "Feature", "geometry": {"type": "Polygon", "coordinates": [[[-97.0929757, 36.7156468], [-97.09291, 36.7156473], [-97.0929092, 36.7155887], [-97.0929749, 36.7155882], [-97.0929757, 36.7156468]]]}, "properties": {"osm_id": 1088037567, "building": "yes", "name": "", "height": null, "height_m": null, "levels": null, "tract_id": "40071000100", "tract_name": "1", "tags": {"building": "yes"}}}, {"type": "Feature", "geometry": {"type": "Polygon", "coordinates": [[[-97.0927832, 36.7155237], [-97.0928764, 36.7155229], [-97.0928772, 36.7155817], [-97.092893, 36.7155816], [-97.0928936, 36.7156292], [-97.0927422, 36.7156304], [-97.0927415, 36.7155799], [-97.0927839, 36.7155796], [-97.0927832, 36.7155237]]]}, "properties": {"osm_id": 1088037568, "building": "yes", "name": "", "height": null, "height_m": null, "levels": null, "tract_id": "40071000100", "tract_name": "1", "tags": {"building": "yes"}}}, {"type": "Feature", "geometry": {"type": "Polygon", "coordinates": [[[-97.0929001, 36.7163176], [-97.0929001, 36.7162036], [-97.0927881, 36.7162036], [-97.0927881, 36.7163176], [-97.0929001, 36.7163176]]]}, "properties": {"osm_id": 1088037581, "building": "yes", "name": "", "height": null, "height_m": null, "levels": null, "tract_id": "40071000100", "tract_name": "1", "tags": {"building": "yes", "source": "microsoft/BuildingFootprints"}}}, {"type": "Feature", "geometry": {"type": "Polygon", "coordinates": [[[-97.0911066, 36.7162554], [-97.0910188, 36.7162182], [-97.0909841, 36.7162708], [-97.0910719, 36.716308], [-97.0911066, 36.7162554]]]}, "properties": {"osm_id": 1088037582, "building": "yes", "name": "", "height": null, "height_m": null, "levels": null, "tract_id": "40071000100", "tract_name": "1", "tags": {"building": "yes", "source": "microsoft/BuildingFootprints"}}}, {"type": "Feature", "geometry": {"type": "Polygon", "coordinates": [[[-97.0907684, 36.7162049], [-97.0909269, 36.7162766], [-97.0909706, 36.7162144], [-97.090935, 36.7161982], [-97.0909792, 36.7161353], [-97.0908831, 36.7160919], [-97.0908362, 36.7161586], [-97.0908095, 36.7161465], [-97.0907684, 36.7162049]]]}, "properties": {"osm_id": 1088037583, "building": "yes", "name": "", "height": null, "height_m": null, "levels": null, "tract_id": "40071000100", "tract_name": "1", "tags": {"building": "yes", "source": "microsoft/BuildingFootprints"}}}, {"type": "Feature", "geometry": {"type": "Polygon", "coordinates": [[[-97.0915592, 36.7150452], [-97.0916804, 36.7150992], [-97.0917543, 36.7149925], [-97.0916564, 36.7149489], [-97.0916326, 36.7149832], [-97.0916093, 36.7149728], [-97.0915592, 36.7150452]]]}, "properties": {"osm_id": 1088037584, "building": "yes", "name": "", "height": null, "height_m": null, "levels": null, "tract_id": "40071000100", "tract_name": "1", "tags": {"building": "yes", "source": "microsoft/BuildingFootprints"}}}, {"type": "Feature", "geometry": {"type": "Polygon", "coordinates": [[[-97.0912802, 36.7157057], [-97.0911498, 36.7156473], [-97.0910653, 36.7157685], [-97.0911473, 36.7158052], [-97.0911925, 36.7157403], [-97.0912409, 36.715762], [-97.0912802, 36.7157057]]]}, "properties": {"osm_id": 1088037585, "building": "yes", "name": "", "height": null, "height_m": null, "levels": null, "tract_id": "40071000100", "tract_name": "1", "tags": {"building": "yes", "source": "microsoft/BuildingFootprints"}}}, {"type": "Feature", "geometry": {"type": "Polygon", "coordinates": [[[-97.0910161, 36.7150285], [-97.0909372, 36.7151479], [-97.0910452, 36.7151938], [-97.0910762, 36.7151469], [-97.0910488, 36.7151353], [-97.0910968, 36.7150627], [-97.0910161, 36.7150285]]]}, "properties": {"osm_id": 1088037586, "building": "yes", "name": "", "height": null, "height_m": null, "levels": null, "tract_id": "40071000100", "tract_name": "1", "tags": {"building": "yes", "source": "microsoft/BuildingFootprints"}}}, {"type": "Feature", "geometry": {"type": "Polygon", "coordinates": [[[-97.0927868, 36.7166165], [-97.0927868, 36.7167305], [-97.0928805, 36.7167305], [-97.0928805, 36.7166922], [-97.0928925, 36.7166922], [-97.0928925, 36.7166557], [-97.0928805, 36.7166557], [-97.0928805, 36.7166165], [-97.0927868, 36.7166165]]]}, "properties": {"osm_id": 1088037587, "building": "yes", "name": "", "height": null, "height_m": null, "levels": null, "tract_id": "40071000100", "tract_name": "1", "tags": {"building": "yes", "source": "microsoft/BuildingFootprints"}}}, {"type": "Feature", "geometry": {"type": "Polygon", "coordinates": [[[-97.0916449, 36.7165147], [-97.0916177, 36.7165033], [-97.0916655, 36.7164302], [-97.0915702, 36.7163901], [-97.0914893, 36.7165134], [-97.0916119, 36.7165651], [-97.0916449, 36.7165147]]]}, "properties": {"osm_id": 1088037588, "building": "yes", "name": "", "height": null, "height_m": null, "levels": null, "tract_id": "40071000100", "tract_name": "1", "tags": {"building": "yes", "source": "microsoft/BuildingFootprints"}}}, {"type": "Feature", "geometry": {"type": "Polygon", "coordinates": [[[-97.0905411, 36.7165983], [-97.0905181, 36.7165873], [-97.0904871, 36.7166323], [-97.0906021, 36.7166823], [-97.0906721, 36.7165793], [-97.0905821, 36.7165393], [-97.0905411, 36.7165983]]]}, "properties": {"osm_id": 1088037589, "building": "yes", "name": "", "height": null, "height_m": null, "levels": null, "tract_id": "40071000100", "tract_name": "1", "tags": {"building": "yes", "source": "microsoft/BuildingFootprints"}}}, {"type": "Feature", "geometry": {"type": "Polygon", "coordinates": [[[-97.0909686, 36.7159132], [-97.0910876, 36.7159643], [-97.0911656, 36.7158476], [-97.0910691, 36.7158062], [-97.0910351, 36.715857], [-97.0910127, 36.7158473], [-97.0909686, 36.7159132]]]}, "properties": {"osm_id": 1088037590, "building": "yes", "name": "", "height": null, "height_m": null, "levels": null, "tract_id": "40071000100", "tract_name": "1", "tags": {"building": "yes", "source": "microsoft/BuildingFootprints"}}}, {"type": "Feature", "geometry": {"type": "Polygon", "coordinates": [[[-97.0907506, 36.7166822], [-97.0908055, 36.7167059], [-97.0908331, 36.7166653], [-97.0907788, 36.7166416], [-97.0907506, 36.7166822]]]}, "properties": {"osm_id": 1088037591, "building": "yes", "name": "", "height": null, "height_m": null, "levels": null, "tract_id": "40071000100", "tract_name": "1", "tags": {"building": "yes", "source": "microsoft/BuildingFootprints"}}}, {"type": "Feature", "geometry": {"type": "Polygon", "coordinates": [[[-97.0908612, 36.7151535], [-97.0908178, 36.7152221], [-97.0908624, 36.7152402], [-97.0908378, 36.715279], [-97.0909588, 36.7153281], [-97.0909876, 36.7152826], [-97.0909605, 36.7152716], [-97.0909996, 36.7152097], [-97.0908612, 36.7151535]]]}, "properties": {"osm_id": 1088037592, "building": "yes", "name": "", "height": null, "height_m": null, "levels": null, "tract_id": "40071000100", "tract_name": "1", "tags": {"building": "yes", "source": "microsoft/BuildingFootprints"}}}, {"type": "Feature", "geometry": {"type": "Polygon", "coordinates": [[[-97.0908765, 36.7160595], [-97.0909835, 36.716107], [-97.0910654, 36.7159885], [-97.0909745, 36.7159481], [-97.0909108, 36.7160403], [-97.0908947, 36.7160332], [-97.0908765, 36.7160595]]]}, "properties": {"osm_id": 1088037593, "building": "yes", "name": "", "height": null, "height_m": null, "levels": null, "tract_id": "40071000100", "tract_name": "1", "tags": {"building": "yes", "source": "microsoft/BuildingFootprints"}}}, {"type": "Feature", "geometry": {"type": "Polygon", "coordinates": [[[-97.0911731, 36.7156141], [-97.0912878, 36.7156652], [-97.0913594, 36.7155618], [-97.0912731, 36.7155233], [-97.0912334, 36.7155807], [-97.091205, 36.7155681], [-97.0911731, 36.7156141]]]}, "properties": {"osm_id": 1088037594, "building": "yes", "name": "", "height": null, "height_m": null, "levels": null, "tract_id": "40071000100", "tract_name": "1", "tags": {"building": "yes", "source": "microsoft/BuildingFootprints"}}}, {"type": "Feature", "geometry": {"type": "Polygon", "coordinates": [[[-97.091783, 36.7157693], [-97.0917523, 36.7158154], [-97.0918232, 36.7158456], [-97.0918538, 36.7157995], [-97.091783, 36.7157693]]]}, "properties": {"osm_id": 1088037595, "building": "yes", "name": "", "height": null, "height_m": null, "levels": null, "tract_id": "40071000100", "tract_name": "1", "tags": {"building": "yes", "source": "microsoft/BuildingFootprints"}}}, {"type": "Feature", "geometry": {"type": "Polygon", "coordinates": [[[-97.0913486, 36.7166699], [-97.0913031, 36.7167409], [-97.0913643, 36.7167661], [-97.0913247, 36.7168279], [-97.091414, 36.7168647], [-97.0914991, 36.7167318], [-97.0913486, 36.7166699]]]}, "properties": {"osm_id": 1088037596, "building": "yes", "name": "", "height": null, "height_m": null, "levels": null, "tract_id": "40071000100", "tract_name": "1", "tags": {"building": "yes", "source": "microsoft/BuildingFootprints"}}}, {"type": "Feature", "geometry": {"type": "Polygon", "coordinates": [[[-97.091426, 36.716681], [-97.0915106, 36.7167165], [-97.0915929, 36.7165903], [-97.0914464, 36.7165289], [-97.0914036, 36.7165946], [-97.0914655, 36.7166205], [-97.091426, 36.716681]]]}, "properties": {"osm_id": 1088037598, "building": "yes", "name": "", "height": null, "height_m": null, "levels": null, "tract_id": "40071000100", "tract_name": "1", "tags": {"building": "yes", "source": "microsoft/BuildingFootprints"}}}, {"type": "Feature", "geometry": {"type": "Polygon", "coordinates": [[[-97.0919022, 36.7157317], [-97.0921105, 36.7158224], [-97.0921838, 36.7157142], [-97.0920632, 36.7156617], [-97.0920238, 36.7157198], [-97.0919361, 36.7156816], [-97.0919022, 36.7157317]]]}, "properties": {"osm_id": 1088037599, "building": "yes", "name": "", "height": null, "height_m": null, "levels": null, "tract_id": "40071000100", "tract_name": "1", "tags": {"building": "yes", "source": "microsoft/BuildingFootprints"}}}, {"type": "Feature", "geometry": {"type": "Polygon", "coordinates": [[[-97.0918852, 36.7161587], [-97.0918001, 36.7161208], [-97.091717, 36.7162408], [-97.0918021, 36.7162787], [-97.0918852, 36.7161587]]]}, "properties": {"osm_id": 1088037600, "building": "yes", "name": "", "height": null, "height_m": null, "levels": null, "tract_id": "40071000100", "tract_name": "1", "tags": {"building": "yes", "source": "microsoft/BuildingFootprints"}}}, {"type": "Feature", "geometry": {"type": "Polygon", "coordinates": [[[-97.091816, 36.716098], [-97.0919035, 36.7161335], [-97.091981, 36.716011], [-97.0918935, 36.7159755], [-97.091816, 36.716098]]]}, "properties": {"osm_id": 1088037601, "building": "yes", "name": "", "height": null, "height_m": null, "levels": null, "tract_id": "40071000100", "tract_name": "1", "tags": {"building": "yes", "source": "microsoft/BuildingFootprints"}}}, {"type": "Feature", "geometry": {"type": "Polygon", "coordinates": [[[-97.0927854, 36.716391], [-97.0927854, 36.716451], [-97.0928954, 36.716451], [-97.0928954, 36.716344], [-97.0927244, 36.716344], [-97.0927244, 36.716391], [-97.0927854, 36.716391]]]}, "properties": {"osm_id": 1088037602, "building": "yes", "name": "", "height": null, "height_m": null, "levels": null, "tract_id": "40071000100", "tract_name": "1", "tags": {"building": "yes", "source": "microsoft/BuildingFootprints"}}}, {"type": "Feature", "geometry": {"type": "Polygon", "coordinates": [[[-97.0927925, 36.7153826], [-97.0927925, 36.7154936], [-97.0929173, 36.7154936], [-97.0929173, 36.7154425], [-97.0928898, 36.7154425], [-97.0928898, 36.7153826], [-97.0927925, 36.7153826]]]}, "properties": {"osm_id": 1088037603, "building": "yes", "name": "", "height": null, "height_m": null, "levels": null, "tract_id": "40071000100", "tract_name": "1", "tags": {"building": "yes", "source": "microsoft/BuildingFootprints"}}}, {"type": "Feature", "geometry": {"type": "Polygon", "coordinates": [[[-97.0927804, 36.7159083], [-97.0929075, 36.7159074], [-97.092907, 36.7158552], [-97.0928839, 36.7158553], [-97.0928833, 36.7157952], [-97.0927792, 36.7157959], [-97.0927804, 36.7159083]]]}, "properties": {"osm_id": 1088037604, "building": "yes", "name": "", "height": null, "height_m": null, "levels": null, "tract_id": "40071000100", "tract_name": "1", "tags": {"building": "yes", "source": "microsoft/BuildingFootprints"}}}, {"type": "Feature", "geometry": {"type": "Polygon", "coordinates": [[[-97.091918, 36.715872], [-97.0918719, 36.7158527], [-97.0918288, 36.7159186], [-97.0919989, 36.71599], [-97.092035, 36.7159347], [-97.0920061, 36.7159225], [-97.0920525, 36.7158515], [-97.0919575, 36.7158116], [-97.091918, 36.715872]]]}, "properties": {"osm_id": 1088037605, "building": "yes", "name": "", "height": null, "height_m": null, "levels": null, "tract_id": "40071000100", "tract_name": "1", "tags": {"building": "yes", "source": "microsoft/BuildingFootprints"}}}, {"type": "Feature", "geometry": {"type": "Polygon", "coordinates": [[[-97.0926947, 36.7157703], [-97.0929891, 36.7157703], [-97.0929891, 36.7157204], [-97.0928818, 36.7157204], [-97.0928818, 36.7156603], [-97.0926947, 36.7156603], [-97.0926947, 36.7157703]]]}, "properties": {"osm_id": 1088037606, "building": "yes", "name": "", "height": null, "height_m": null, "levels": null, "tract_id": "40071000100", "tract_name": "1", "tags": {"building": "yes", "source": "microsoft/BuildingFootprints"}}}, {"type": "Feature", "geometry": {"type": "Polygon", "coordinates": [[[-97.0927838, 36.7167625], [-97.0927838, 36.7168725], [-97.0929098, 36.7168725], [-97.0929098, 36.7168239], [-97.0928852, 36.7168239], [-97.0928852, 36.7167625], [-97.0927838, 36.7167625]]]}, "properties": {"osm_id": 1088037607, "building": "yes", "name": "", "height": null, "height_m": null, "levels": null, "tract_id": "40071000100", "tract_name": "1", "tags": {"building": "yes", "source": "microsoft/BuildingFootprints"}}}, {"type": "Feature", "geometry": {"type": "Polygon", "coordinates": [[[-97.0906799, 36.7163397], [-97.0907946, 36.716392], [-97.0907998, 36.7163847], [-97.0908351, 36.7164008], [-97.0908678, 36.7163548], [-97.0908284, 36.7163368], [-97.0908653, 36.716285], [-97.0907771, 36.7162447], [-97.0907352, 36.7163036], [-97.0907128, 36.7162934], [-97.0906799, 36.7163397]]]}, "properties": {"osm_id": 1088037608, "building": "yes", "name": "", "height": null, "height_m": null, "levels": null, "tract_id": "40071000100", "tract_name": "1", "tags": {"building": "yes", "source": "microsoft/BuildingFootprints"}}}, {"type": "Feature", "geometry": {"type": "Polygon", "coordinates": [[[-97.0914959, 36.7151339], [-97.0914573, 36.7151908], [-97.0915792, 36.715244], [-97.0916648, 36.715118], [-97.0915722, 36.7150776], [-97.0915252, 36.7151467], [-97.0914959, 36.7151339]]]}, "properties": {"osm_id": 1088037609, "building": "yes", "name": "", "height": null, "height_m": null, "levels": null, "tract_id": "40071000100", "tract_name": "1", "tags": {"building": "yes", "source": "microsoft/BuildingFootprints"}}}, {"type": "Feature", "geometry": {"type": "Polygon", "coordinates": [[[-97.0927876, 36.7159324], [-97.092788, 36.716014], [-97.0928102, 36.7160139], [-97.0928104, 36.7160439], [-97.0928986, 36.7160436], [-97.0928984, 36.7160064], [-97.0929107, 36.7160063], [-97.0929105, 36.7159719], [-97.0928982, 36.715972], [-97.0928979, 36.715932], [-97.0927876, 36.7159324]]]}, "properties": {"osm_id": 1088037610, "building": "yes", "name": "", "height": null, "height_m": null, "levels": null, "tract_id": "40071000100", "tract_name": "1", "tags": {"building": "yes", "source": "microsoft/BuildingFootprints"}}}, {"type": "Feature", "geometry": {"type": "Polygon", "coordinates": [[[-97.091615, 36.7163881], [-97.0917115, 36.7164277], [-97.091792, 36.7163016], [-97.0916956, 36.716262], [-97.091615, 36.7163881]]]}, "properties": {"osm_id": 1088037611, "building": "yes", "name": "", "height": null, "height_m": null, "levels": null, "tract_id": "40071000100", "tract_name": "1", "tags": {"building": "yes", "source": "microsoft/BuildingFootprints"}}}, {"type": "Feature", "geometry": {"type": "Polygon", "coordinates": [[[-97.0914593, 36.7152342], [-97.0914245, 36.7152901], [-97.0913983, 36.7152796], [-97.0913672, 36.7153295], [-97.0914823, 36.7153755], [-97.0915188, 36.7153168], [-97.0915481, 36.7152698], [-97.0914593, 36.7152342]]]}, "properties": {"osm_id": 1088037612, "building": "yes", "name": "", "height": null, "height_m": null, "levels": null, "tract_id": "40071000100", "tract_name": "1", "tags": {"building": "yes", "source": "microsoft/BuildingFootprints"}}}, {"type": "Feature", "geometry": {"type": "Polygon", "coordinates": [[[-97.0927904, 36.7151089], [-97.0927904, 36.7152179], [-97.092918, 36.7152179], [-97.092918, 36.7151694], [-97.0928878, 36.7151694], [-97.0928878, 36.7151089], [-97.0927904, 36.7151089]]]}, "properties": {"osm_id": 1088037613, "building": "yes", "name": "", "height": null, "height_m": null, "levels": null, "tract_id": "40071000100", "tract_name": "1", "tags": {"building": "yes", "source": "microsoft/BuildingFootprints"}}}, {"type": "Feature", "geometry": {"type": "Polygon", "coordinates": [[[-97.0912654, 36.7154805], [-97.0913861, 36.7155283], [-97.0914599, 36.7154084], [-97.0913693, 36.7153726], [-97.0913275, 36.7154404], [-97.0912974, 36.7154285], [-97.0912654, 36.7154805]]]}, "properties": {"osm_id": 1088037614, "building": "yes", "name": "", "height": null, "height_m": null, "levels": null, "tract_id": "40071000100", "tract_name": "1", "tags": {"building": "yes", "source": "microsoft/BuildingFootprints"}}}, {"type": "Feature", "geometry": {"type": "Polygon", "coordinates": [[[-97.0928994, 36.7164808], [-97.0928054, 36.7164808], [-97.0928054, 36.7165948], [-97.0928994, 36.7165948], [-97.0928994, 36.7164808]]]}, "properties": {"osm_id": 1088037615, "building": "yes", "name": "", "height": null, "height_m": null, "levels": null, "tract_id": "40071000100", "tract_name": "1", "tags": {"building": "yes", "source": "microsoft/BuildingFootprints"}}}, {"type": "Feature", "geometry": {"type": "Polygon", "coordinates": [[[-97.0929151, 36.7152466], [-97.0927645, 36.7152466], [-97.0927645, 36.7152986], [-97.0927301, 36.7152986], [-97.0927301, 36.7153566], [-97.0929151, 36.7153566], [-97.0929151, 36.7152466]]]}, "properties": {"osm_id": 1088037616, "building": "yes", "name": "", "height": null, "height_m": null, "levels": null, "tract_id": "40071000100", "tract_name": "1", "tags": {"building": "yes", "source": "microsoft/BuildingFootprints"}}}, {"type": "Feature", "geometry": {"type": "Polygon", "coordinates": [[[-97.0906529, 36.7164384], [-97.0906254, 36.7164262], [-97.0905794, 36.7164928], [-97.0907093, 36.7165504], [-97.0907935, 36.7164286], [-97.0906911, 36.7163831], [-97.0906529, 36.7164384]]]}, "properties": {"osm_id": 1088037617, "building": "yes", "name": "", "height": null, "height_m": null, "levels": null, "tract_id": "40071000100", "tract_name": "1", "tags": {"building": "yes", "source": "microsoft/BuildingFootprints"}}}, {"type": "Feature", "geometry": {"type": "Polygon", "coordinates": [[[-97.09038, 36.715891], [-97.0905298, 36.7159469], [-97.0905754, 36.7158681], [-97.0906416, 36.7158928], [-97.0906716, 36.715841], [-97.0906055, 36.7158164], [-97.0906225, 36.715787], [-97.0905526, 36.715761], [-97.0905392, 36.715784], [-97.0905214, 36.7157774], [-97.0905008, 36.7158129], [-97.0904558, 36.7157962], [-97.0904372, 36.7158282], [-97.0904201, 36.7158218], [-97.09038, 36.715891]]]}, "properties": {"osm_id": 1088037618, "building": "yes", "name": "", "height": null, "height_m": null, "levels": null, "tract_id": "40071000100", "tract_name": "1", "tags": {"building": "yes", "source": "microsoft/BuildingFootprints"}}}, {"type": "Feature", "geometry": {"type": "Polygon", "coordinates": [[[-97.0923791, 36.715596], [-97.0922801, 36.715596], [-97.0922801, 36.715729], [-97.0924571, 36.715729], [-97.0924571, 36.715654], [-97.0923791, 36.715654], [-97.0923791, 36.715596]]]}, "properties": {"osm_id": 1088037619, "building": "yes", "name": "", "height": null, "height_m": null, "levels": null, "tract_id": "40071000100", "tract_name": "1", "tags": {"building": "yes", "source": "microsoft/BuildingFootprints"}}}, {"type": "Feature", "geometry": {"type": "Polygon", "coordinates": [[[-97.0927439, 36.7161162], [-97.0927445, 36.7161683], [-97.0927911, 36.7161679], [-97.0927913, 36.7161827], [-97.0928787, 36.716182], [-97.092878, 36.7161273], [-97.0928954, 36.7161272], [-97.092895, 36.7160971], [-97.0928777, 36.7160972], [-97.0928773, 36.7160682], [-97.0928772, 36.7160632], [-97.092791, 36.7160639], [-97.0927916, 36.7161158], [-97.0927439, 36.7161162]]]}, "properties": {"osm_id": 1088037620, "building": "yes", "name": "", "height": null, "height_m": null, "levels": null, "tract_id": "40071000100", "tract_name": "1", "tags": {"building": "yes", "source": "microsoft/BuildingFootprints"}}}, {"type": "Feature", "geometry": {"type": "Polygon", "coordinates": [[[-97.0791226, 36.7236255], [-97.079197, 36.7236255], [-97.0791973, 36.7234887], [-97.0791467, 36.7234886], [-97.0791229, 36.7234886], [-97.0791226, 36.7236255]]]}, "properties": {"osm_id": 1088954212, "building": "yes", "name": "", "height": null, "height_m": null, "levels": null, "tract_id": "40071000100", "tract_name": "1", "tags": {"building": "yes", "shop": "yes", "source": "microsoft/BuildingFootprints"}}}, {"type": "Feature", "geometry": {"type": "Polygon", "coordinates": [[[-97.079147, 36.7232939], [-97.0791467, 36.7234886], [-97.0791973, 36.7234887], [-97.079197, 36.7236255], [-97.0796321, 36.723626], [-97.0796326, 36.7232944], [-97.079147, 36.7232939]]]}, "properties": {"osm_id": 1088954213, "building": "yes", "name": "", "height": null, "height_m": null, "levels": null, "tract_id": "40071000100", "tract_name": "1", "tags": {"building": "yes", "shop": "yes", "source": "microsoft/BuildingFootprints"}}}, {"type": "Feature", "geometry": {"type": "Polygon", "coordinates": [[[-97.0791226, 36.7236255], [-97.0791229, 36.7234886], [-97.0791467, 36.7234886], [-97.079147, 36.7232939], [-97.0789554, 36.7232937], [-97.0789548, 36.7236253], [-97.0791226, 36.7236255]]]}, "properties": {"osm_id": 1088954214, "building": "yes", "name": "", "height": null, "height_m": null, "levels": null, "tract_id": "40071000100", "tract_name": "1", "tags": {"building": "yes", "shop": "yes", "source": "microsoft/BuildingFootprints"}}}, {"type": "Feature", "geometry": {"type": "Polygon", "coordinates": [[[-97.0953408, 36.7140334], [-97.0953391, 36.7138741], [-97.0952422, 36.7138747], [-97.095243, 36.7139506], [-97.0950768, 36.7139518], [-97.0950777, 36.7140352], [-97.0953408, 36.7140334]]]}, "properties": {"osm_id": 1150045133, "building": "yes", "name": "Kingdom Hall Jehovahs Witnesses", "height": null, "height_m": null, "levels": null, "tract_id": "40071000100", "tract_name": "1", "tags": {"amenity": "place_of_worship", "building": "yes", "denomination": "jehovahs_witness", "ele": "301", "gnis:feature_id": "1809813", "name": "Kingdom Hall Jehovahs Witnesses", "religion": "christian"}}}, {"type": "Feature", "geometry": {"type": "Polygon", "coordinates": [[[-97.0820754, 36.7182782], [-97.0820745, 36.7181366], [-97.0819408, 36.7181371], [-97.0819416, 36.7182787], [-97.0820754, 36.7182782]]]}, "properties": {"osm_id": 1354784392, "building": "commercial", "name": "", "height": null, "height_m": null, "levels": null, "tract_id": "40071000100", "tract_name": "1", "tags": {"addr:city": "Ponca City", "addr:housenumber": "200", "addr:state": "OK", "addr:street": "East Brookfield Avenue", "building": "commercial"}}}, {"type": "Feature", "geometry": {"type": "Polygon", "coordinates": [[[-97.0938902, 36.7284287], [-97.0935224, 36.7284287], [-97.0935233, 36.7282635], [-97.0934988, 36.7282628], [-97.0934988, 36.7286267], [-97.0934516, 36.7286289], [-97.0934529, 36.7285726], [-97.0934534, 36.7285532], [-97.0929077, 36.7285561], [-97.0929077, 36.7285452], [-97.0926662, 36.7285655], [-97.092648, 36.7284396], [-97.092649, 36.7284033], [-97.0926943, 36.7284025], [-97.0926934, 36.7283581], [-97.0923956, 36.728356], [-97.092392, 36.7281988], [-97.0922367, 36.728198], [-97.0922367, 36.7281784], [-97.0920197, 36.7281769], [-97.0920179, 36.7279462], [-97.093004, 36.7279426], [-97.0930012, 36.7281675], [-97.0931801, 36.728166], [-97.0931747, 36.7269121], [-97.0934498, 36.7269092], [-97.0934471, 36.7270235], [-97.0935942, 36.7270228], [-97.0935969, 36.7270541], [-97.093634, 36.7270539], [-97.0937598, 36.7270534], [-97.0939501, 36.7270526], [-97.0939474, 36.7272804], [-97.0939782, 36.7272826], [-97.0939791, 36.7273903], [-97.0939355, 36.727391], [-97.0939328, 36.727621], [-97.0939873, 36.7276195], [-97.0939864, 36.7277025], [-97.0940018, 36.7277025], [-97.0940018, 36.7280045], [-97.0937567, 36.7280074], [-97.0937594, 36.7280518], [-97.093615, 36.7280532], [-97.0936159, 36.7280647], [-97.0936169, 36.728078], [-97.0938411, 36.7280787], [-97.0938429, 36.7281122], [-97.0936695, 36.7281122], [-97.0936695, 36.7281318], [-97.0938856, 36.7281318], [-97.0938902, 36.7284287]]]}, "properties": {"osm_id": 1383848517, "building": "yes", "name": "Pioneer Area Vocational College", "height": null, "height_m": null, "levels": null, "tract_id": "40071000100", "tract_name": "1", "tags": {"building": "yes", "name": "Pioneer Area Vocational College", "office": "educational_institution"}}}, {"type": "Feature", "geometry": {"type": "Polygon", "coordinates": [[[-97.092318, 36.7274239], [-97.0923192, 36.7273129], [-97.09232, 36.7272355], [-97.0925567, 36.7272371], [-97.0925576, 36.7271531], [-97.0925381, 36.7271529], [-97.0925383, 36.727133], [-97.0925078, 36.7271328], [-97.0925085, 36.7270732], [-97.0923393, 36.7270719], [-97.0922935, 36.7270716], [-97.092208, 36.7270709], [-97.0921814, 36.7270513], [-97.0921693, 36.7270424], [-97.0921713, 36.7269209], [-97.0919266, 36.7269183], [-97.0919232, 36.7271179], [-97.0920792, 36.7271197], [-97.0920875, 36.7271253], [-97.0921147, 36.7271437], [-97.092114, 36.7272304], [-97.0921136, 36.7272721], [-97.0921125, 36.7273875], [-97.0921934, 36.7273879], [-97.0921931, 36.7274147], [-97.0922214, 36.7274149], [-97.0922213, 36.7274232], [-97.092318, 36.7274239]]]}, "properties": {"osm_id": 1383848519, "building": "yes", "name": "", "height": null, "height_m": null, "levels": null, "tract_id": "40071000100", "tract_name": "1", "tags": {"building": "yes"}}}, {"type": "Feature", "geometry": {"type": "Polygon", "coordinates": [[[-97.0928139, 36.7276623], [-97.0928131, 36.7277214], [-97.0921294, 36.7277227], [-97.0921286, 36.7276623], [-97.0928139, 36.7276623]]]}, "properties": {"osm_id": 1383848530, "building": "yes", "name": "", "height": null, "height_m": null, "levels": null, "tract_id": "40071000100", "tract_name": "1", "tags": {"building": "yes"}}}, {"type": "Feature", "geometry": {"type": "Polygon", "coordinates": [[[-97.0917494, 36.7281829], [-97.0917484, 36.7280115], [-97.0914191, 36.7280126], [-97.0914197, 36.7281346], [-97.0915687, 36.7281341], [-97.0915689, 36.7281836], [-97.0917494, 36.7281829]]]}, "properties": {"osm_id": 1384094285, "building": "yes", "name": "", "height": null, "height_m": null, "levels": null, "tract_id": "40071000100", "tract_name": "1", "tags": {"building": "yes"}}}, {"type": "Feature", "geometry": {"type": "Polygon", "coordinates": [[[-97.0917205, 36.7282604], [-97.0915802, 36.7282622], [-97.0915813, 36.7283198], [-97.0917216, 36.728318], [-97.0917205, 36.7282604]]]}, "properties": {"osm_id": 1384094286, "building": "yes", "name": "", "height": null, "height_m": null, "levels": null, "tract_id": "40071000100", "tract_name": "1", "tags": {"building": "yes"}}}, {"type": "Feature", "geometry": {"type": "Polygon", "coordinates": [[[-97.0917158, 36.7285632], [-97.0916297, 36.7285648], [-97.0916339, 36.7287079], [-97.0917199, 36.7287063], [-97.0917158, 36.7285632]]]}, "properties": {"osm_id": 1384094287, "building": "yes", "name": "", "height": null, "height_m": null, "levels": null, "tract_id": "40071000100", "tract_name": "1", "tags": {"building": "yes"}}}, {"type": "Feature", "geometry": {"type": "Polygon", "coordinates": [[[-97.0937048, 36.7295543], [-97.0937069, 36.7293899], [-97.0937083, 36.7292773], [-97.0932494, 36.7292739], [-97.0932462, 36.7295509], [-97.0937048, 36.7295543]]]}, "properties": {"osm_id": 1384094288, "building": "yes", "name": "", "height": null, "height_m": null, "levels": null, "tract_id": "40071000100", "tract_name": "1", "tags": {"building": "yes"}}}, {"type": "Feature", "geometry": {"type": "Polygon", "coordinates": [[[-97.0932713, 36.7301931], [-97.0932726, 36.7300619], [-97.0933115, 36.7300622], [-97.093312, 36.7300058], [-97.0932781, 36.7300056], [-97.0932789, 36.7299207], [-97.0932472, 36.7299206], [-97.0932479, 36.7298413], [-97.0930269, 36.72984], [-97.0930258, 36.7299594], [-97.0930962, 36.7299598], [-97.0930948, 36.7301054], [-97.0930234, 36.730105], [-97.0930231, 36.7301386], [-97.0929978, 36.7301384], [-97.0929972, 36.7301991], [-97.0930196, 36.7301993], [-97.0930193, 36.7302324], [-97.0932442, 36.7302338], [-97.0932446, 36.730193], [-97.0932713, 36.7301931]]]}, "properties": {"osm_id": 1384094292, "building": "yes", "name": "", "height": null, "height_m": null, "levels": null, "tract_id": "40071000100", "tract_name": "1", "tags": {"building": "yes"}}}, {"type": "Feature", "geometry": {"type": "Polygon", "coordinates": [[[-97.0925588, 36.7300704], [-97.0925608, 36.7299918], [-97.0925047, 36.7299909], [-97.0925027, 36.7300695], [-97.0925588, 36.7300704]]]}, "properties": {"osm_id": 1384094295, "building": "yes", "name": "", "height": null, "height_m": null, "levels": null, "tract_id": "40071000100", "tract_name": "1", "tags": {"amenity": "shelter", "building": "yes", "shelter_type": "picnic_shelter"}}}, {"type": "Feature", "geometry": {"type": "Polygon", "coordinates": [[[-97.0927734, 36.7308837], [-97.092742, 36.7308659], [-97.0922565, 36.7305912], [-97.0920768, 36.7307952], [-97.0925687, 36.7310737], [-97.0926131, 36.7310988], [-97.0926623, 36.731043], [-97.0926428, 36.731032], [-97.0927734, 36.7308837]]]}, "properties": {"osm_id": 1384094296, "building": "yes", "name": "", "height": null, "height_m": null, "levels": null, "tract_id": "40071000100", "tract_name": "1", "tags": {"building": "yes"}}}]}