{"type": "FeatureCollection", "features": [{"type": "Feature", "geometry": {"type": "Polygon", "coordinates": [[[-95.9775444, 36.1760199], [-95.9770751, 36.1760231], [-95.9770719, 36.1757169], [-95.9769164, 36.1757179], [-95.9769131, 36.1753953], [-95.9776802, 36.1753901], [-95.9776835, 36.1757129], [-95.9775413, 36.1757139], [-95.9775444, 36.1760199]]]}, "properties": {"osm_id": 111528754, "building": "yes", "name": "YMCA", "height": null, "height_m": null, "levels": null, "tract_id": "40143001200", "tract_name": "12", "tags": {"addr:city": "Tulsa", "addr:country": "US", "addr:housenumber": "1120", "addr:state": "OK", "addr:street": "East Pine Street", "building": "yes", "name": "YMCA"}}}, {"type": "Feature", "geometry": {"type": "Polygon", "coordinates": [[[-95.9819585, 36.1747055], [-95.981854, 36.1747055], [-95.981854, 36.1746798], [-95.9816066, 36.1746798], [-95.9816066, 36.1747055], [-95.981198, 36.1747055], [-95.981198, 36.174579], [-95.981078, 36.174579], [-95.9810005, 36.174579], [-95.9810005, 36.1745076], [-95.9810875, 36.1745076], [-95.981198, 36.1745076], [-95.981198, 36.1744379], [-95.9813206, 36.1744379], [-95.9813206, 36.1742455], [-95.9819062, 36.1742455], [-95.9819062, 36.174394], [-95.9819585, 36.174394], [-95.9819585, 36.1745039], [-95.9820379, 36.1745039], [-95.9820379, 36.1745809], [-95.9819585, 36.1745809], [-95.9819585, 36.1747055]]]}, "properties": {"osm_id": 191525387, "building": "yes", "name": "Morton Health", "height": null, "height_m": null, "levels": null, "tract_id": "40143001200", "tract_name": "12", "tags": {"addr:city": "Tulsa", "addr:country": "US", "addr:housenumber": "1334", "addr:postcode": "74106", "addr:state": "OK", "addr:street": "North Lansing Avenue", "amenity": "doctors", "building": "yes", "healthcare": "doctor", "name": "Morton Health"}}}, {"type": "Feature", "geometry": {"type": "Polygon", "coordinates": [[[-95.9794475, 36.1768375], [-95.9790293, 36.1768375], [-95.9790293, 36.1765859], [-95.9794475, 36.1765859], [-95.9794475, 36.1768375]]]}, "properties": {"osm_id": 195668875, "building": "church", "name": "Morning Star Baptist Church", "height": null, "height_m": null, "levels": null, "tract_id": "40143001200", "tract_name": "12", "tags": {"amenity": "place_of_worship", "building": "church", "denomination": "baptist", "ele": "208", "gnis:feature_id": "1789825", "name": "Morning Star Baptist Church", "religion": "christian"}}}, {"type": "Feature", "geometry": {"type": "Polygon", "coordinates": [[[-95.9803462, 36.1756084], [-95.9803456, 36.1758378], [-95.9803084, 36.1758377], [-95.9803082, 36.1759392], [-95.9803163, 36.1759392], [-95.980316, 36.1760471], [-95.9800193, 36.1760466], [-95.9800197, 36.175875], [-95.9800599, 36.1758751], [-95.98006, 36.1758381], [-95.9795112, 36.1758372], [-95.9795116, 36.1756594], [-95.9799465, 36.1756601], [-95.9799466, 36.1756078], [-95.9803462, 36.1756084]]]}, "properties": {"osm_id": 264159591, "building": "yes", "name": "Emergency Medical Services Authority", "height": null, "height_m": 3.0, "levels": 1, "tract_id": "40143001200", "tract_name": "12", "tags": {"addr:city": "Tulsa", "addr:housenumber": "1417", "addr:postcode": "74106", "addr:state": "OK", "addr:street": "North Lansing Avenue", "building": "yes", "building:levels": "1", "emergency": "ambulance_station", "name": "Emergency Medical Services Authority"}}}, {"type": "Feature", "geometry": {"type": "Polygon", "coordinates": [[[-95.979831, 36.1763473], [-95.9803049, 36.1763485], [-95.9803044, 36.1764691], [-95.9802808, 36.176489], [-95.9802561, 36.176487], [-95.9802394, 36.1765004], [-95.9802458, 36.1765056], [-95.9802452, 36.1765326], [-95.9801439, 36.176614], [-95.9801114, 36.1766137], [-95.980105, 36.1766085], [-95.9800889, 36.1766215], [-95.9800885, 36.1766496], [-95.9800668, 36.1766677], [-95.9798298, 36.1766671], [-95.979831, 36.1763473]]]}, "properties": {"osm_id": 373071223, "building": "yes", "name": "Donald W Reynolds Adult Day Services Center", "height": null, "height_m": null, "levels": null, "tract_id": "40143001200", "tract_name": "12", "tags": {"addr:city": "Tulsa", "addr:country": "US", "addr:housenumber": "902", "addr:state": "OK", "addr:street": "East Pine Street", "building": "yes", "name": "Donald W Reynolds Adult Day Services Center"}}}, {"type": "Feature", "geometry": {"type": "Polygon", "coordinates": [[[-95.9833314, 36.1737723], [-95.9832179, 36.1737624], [-95.9831956, 36.173928], [-95.9827635, 36.1738902], [-95.9827771, 36.1737895], [-95.982655, 36.1737788], [-95.9826278, 36.1737715], [-95.9826072, 36.1737544], [-95.9825943, 36.1737314], [-95.9825923, 36.1737063], [-95.9826043, 36.1736166], [-95.9825794, 36.1736023], [-95.9825673, 36.1735893], [-95.9825601, 36.1735687], [-95.9825927, 36.1733258], [-95.98267, 36.1733326], [-95.9827, 36.1731094], [-95.9827869, 36.173117], [-95.9827925, 36.1730751], [-95.9828504, 36.1730802], [-95.9828745, 36.1729006], [-95.9830286, 36.172914], [-95.9830362, 36.1728571], [-95.9834494, 36.1728932], [-95.9833314, 36.1737723]]]}, "properties": {"osm_id": 477710925, "building": "yes", "name": "Community Food Bank of Eastern Oklahoma", "height": null, "height_m": null, "levels": null, "tract_id": "40143001200", "tract_name": "12", "tags": {"building": "yes", "name": "Community Food Bank of Eastern Oklahoma", "shop": "charity"}}}, {"type": "Feature", "geometry": {"type": "Polygon", "coordinates": [[[-95.9796582, 36.1599839], [-95.9795519, 36.1599839], [-95.9795519, 36.1599406], [-95.9791043, 36.1599405], [-95.9791042, 36.1600989], [-95.978768, 36.1600989], [-95.9787679, 36.1602054], [-95.9786951, 36.1602054], [-95.9786951, 36.1601676], [-95.9786297, 36.1601676], [-95.9786297, 36.1600649], [-95.9782905, 36.160065], [-95.9782905, 36.1601323], [-95.9783256, 36.1601323], [-95.9783257, 36.1602027], [-95.9782989, 36.1602027], [-95.9782995, 36.1604578], [-95.9781807, 36.160458], [-95.9781811, 36.1605911], [-95.9782473, 36.160591], [-95.9782471, 36.1605239], [-95.9783042, 36.1605237], [-95.9783044, 36.1605613], [-95.9783946, 36.160561], [-95.9783951, 36.1606605], [-95.9787021, 36.1606596], [-95.9787024, 36.160698], [-95.9793265, 36.1606959], [-95.9793264, 36.1606662], [-95.9794579, 36.160666], [-95.9794578, 36.1606548], [-95.9795266, 36.1606548], [-95.9795266, 36.1605709], [-95.9796585, 36.1605708], [-95.9796582, 36.1599839]]]}, "properties": {"osm_id": 496190975, "building": "yes", "name": "", "height": null, "height_m": null, "levels": null, "tract_id": "40143001200", "tract_name": "12", "tags": {"building": "yes"}}}, {"type": "Feature", "geometry": {"type": "Polygon", "coordinates": [[[-95.9790331, 36.1599096], [-95.9790312, 36.1598067], [-95.9789755, 36.1598074], [-95.9789774, 36.1599102], [-95.9790331, 36.1599096]]]}, "properties": {"osm_id": 496190976, "building": "yes", "name": "", "height": null, "height_m": null, "levels": null, "tract_id": "40143001200", "tract_name": "12", "tags": {"building": "yes"}}}, {"type": "Feature", "geometry": {"type": "Polygon", "coordinates": [[[-95.9788459, 36.1599492], [-95.978845, 36.1598185], [-95.9787597, 36.1598189], [-95.9787605, 36.1599496], [-95.9788459, 36.1599492]]]}, "properties": {"osm_id": 496190977, "building": "yes", "name": "", "height": null, "height_m": null, "levels": null, "tract_id": "40143001200", "tract_name": "12", "tags": {"building": "yes"}}}, {"type": "Feature", "geometry": {"type": "Polygon", "coordinates": [[[-95.9788483, 36.1600711], [-95.9788462, 36.159984], [-95.9787728, 36.1599851], [-95.9787749, 36.1600723], [-95.9788483, 36.1600711]]]}, "properties": {"osm_id": 496190978, "building": "yes", "name": "", "height": null, "height_m": null, "levels": null, "tract_id": "40143001200", "tract_name": "12", "tags": {"building": "yes"}}}, {"type": "Feature", "geometry": {"type": "Polygon", "coordinates": [[[-95.9784822, 36.1597821], [-95.9783141, 36.1597813], [-95.9783134, 36.1598655], [-95.9784815, 36.1598664], [-95.9784822, 36.1597821]]]}, "properties": {"osm_id": 496190979, "building": "yes", "name": "", "height": null, "height_m": null, "levels": null, "tract_id": "40143001200", "tract_name": "12", "tags": {"building": "yes"}}}, {"type": "Feature", "geometry": {"type": "Polygon", "coordinates": [[[-95.9778481, 36.1609791], [-95.9778487, 36.1607665], [-95.9773513, 36.1607656], [-95.9773507, 36.1609762], [-95.977437, 36.1609764], [-95.9774369, 36.1610047], [-95.9777661, 36.1610053], [-95.9777662, 36.160979], [-95.9778481, 36.1609791]]]}, "properties": {"osm_id": 496190980, "building": "industrial", "name": "", "height": null, "height_m": null, "levels": null, "tract_id": "40143001200", "tract_name": "12", "tags": {"addr:city": "Tulsa", "addr:country": "US", "addr:housenumber": "34", "addr:postcode": "74120", "addr:state": "OK", "addr:street": "North Owasso Avenue East", "building": "industrial"}}}, {"type": "Feature", "geometry": {"type": "Polygon", "coordinates": [[[-95.9772815, 36.1609242], [-95.977281, 36.1607696], [-95.9770405, 36.1607701], [-95.977041, 36.1609247], [-95.9772815, 36.1609242]]]}, "properties": {"osm_id": 496190981, "building": "industrial", "name": "", "height": null, "height_m": null, "levels": null, "tract_id": "40143001200", "tract_name": "12", "tags": {"building": "industrial"}}}, {"type": "Feature", "geometry": {"type": "Polygon", "coordinates": [[[-95.9772555, 36.1610584], [-95.9770722, 36.1610605], [-95.97707, 36.1609335], [-95.9772533, 36.1609314], [-95.9772555, 36.1610584]]]}, "properties": {"osm_id": 496190982, "building": "industrial", "name": "", "height": null, "height_m": null, "levels": null, "tract_id": "40143001200", "tract_name": "12", "tags": {"building": "industrial"}}}, {"type": "Feature", "geometry": {"type": "Polygon", "coordinates": [[[-95.9768986, 36.1606053], [-95.9768972, 36.1603198], [-95.9765362, 36.160321], [-95.9765359, 36.1602542], [-95.9761996, 36.1602553], [-95.9761999, 36.1603238], [-95.9760582, 36.1603243], [-95.9760586, 36.1604025], [-95.9759493, 36.1604029], [-95.97595, 36.1605334], [-95.9760416, 36.1605331], [-95.9760419, 36.1606053], [-95.9763369, 36.1606043], [-95.9763371, 36.1606485], [-95.9764808, 36.1606481], [-95.9764806, 36.1606067], [-95.9768986, 36.1606053]]]}, "properties": {"osm_id": 496190983, "building": "industrial", "name": "", "height": null, "height_m": null, "levels": null, "tract_id": "40143001200", "tract_name": "12", "tags": {"addr:city": "Tulsa", "addr:country": "US", "addr:housenumber": "18", "addr:postcode": "74120", "addr:state": "OK", "addr:street": "North Peoria Avenue East", "building": "industrial", "check_date": "2022-09-17", "shop": "vacant"}}}, {"type": "Feature", "geometry": {"type": "Polygon", "coordinates": [[[-95.9798271, 36.1621636], [-95.9793637, 36.1621653], [-95.9793644, 36.1622873], [-95.9791659, 36.1622881], [-95.9791654, 36.1621933], [-95.9786284, 36.1621953], [-95.9786273, 36.1619957], [-95.9798262, 36.1619914], [-95.9798271, 36.1621636]]]}, "properties": {"osm_id": 496190985, "building": "industrial", "name": "", "height": null, "height_m": null, "levels": null, "tract_id": "40143001200", "tract_name": "12", "tags": {"addr:city": "Tulsa", "addr:country": "US", "addr:housenumber": "65", "addr:postcode": "74120", "addr:state": "OK", "addr:street": "North Madison Avenue East", "building": "industrial"}}}, {"type": "Feature", "geometry": {"type": "Polygon", "coordinates": [[[-95.9798899, 36.1615708], [-95.9798928, 36.1611515], [-95.9796702, 36.1611506], [-95.9796673, 36.1615699], [-95.9798899, 36.1615708]]]}, "properties": {"osm_id": 496190986, "building": "industrial", "name": "", "height": null, "height_m": null, "levels": null, "tract_id": "40143001200", "tract_name": "12", "tags": {"building": "industrial"}}}, {"type": "Feature", "geometry": {"type": "Polygon", "coordinates": [[[-95.9792066, 36.1619661], [-95.979205, 36.161349], [-95.9789672, 36.1613494], [-95.9789687, 36.1619665], [-95.9792066, 36.1619661]]]}, "properties": {"osm_id": 496190988, "building": "industrial", "name": "", "height": null, "height_m": null, "levels": null, "tract_id": "40143001200", "tract_name": "12", "tags": {"building": "industrial"}}}, {"type": "Feature", "geometry": {"type": "Polygon", "coordinates": [[[-95.9784102, 36.1622553], [-95.9784067, 36.1617063], [-95.9781718, 36.1617073], [-95.9781716, 36.1616697], [-95.9780482, 36.1616702], [-95.9780485, 36.1617078], [-95.9778955, 36.1617084], [-95.977899, 36.1622574], [-95.9784102, 36.1622553]]]}, "properties": {"osm_id": 496190990, "building": "industrial", "name": "", "height": null, "height_m": null, "levels": null, "tract_id": "40143001200", "tract_name": "12", "tags": {"addr:city": "Tulsa", "addr:country": "US", "addr:housenumber": "1050", "addr:postcode": "74120", "addr:state": "OK", "addr:street": "East Archer Street North", "building": "industrial"}}}, {"type": "Feature", "geometry": {"type": "Polygon", "coordinates": [[[-95.9763964, 36.1612058], [-95.9763976, 36.1610923], [-95.9757893, 36.161088], [-95.9757881, 36.1612016], [-95.9763964, 36.1612058]]]}, "properties": {"osm_id": 496190991, "building": "industrial", "name": "", "height": null, "height_m": null, "levels": null, "tract_id": "40143001200", "tract_name": "12", "tags": {"addr:city": "Tulsa", "addr:country": "US", "addr:housenumber": "48", "addr:postcode": "74120", "addr:state": "OK", "addr:street": "North Peoria Avenue East", "building": "industrial"}}}, {"type": "Feature", "geometry": {"type": "Polygon", "coordinates": [[[-95.9762747, 36.1610472], [-95.9762759, 36.1608578], [-95.9759554, 36.1608564], [-95.9759542, 36.1610459], [-95.9762747, 36.1610472]]]}, "properties": {"osm_id": 496190993, "building": "industrial", "name": "", "height": null, "height_m": null, "levels": null, "tract_id": "40143001200", "tract_name": "12", "tags": {"addr:city": "Tulsa", "addr:country": "US", "addr:housenumber": "38", "addr:postcode": "74120", "addr:state": "OK", "addr:street": "North Peoria Avenue East", "building": "industrial"}}}, {"type": "Feature", "geometry": {"type": "Polygon", "coordinates": [[[-95.9778219, 36.162841], [-95.9778232, 36.1627332], [-95.9776852, 36.162732], [-95.9776854, 36.1627163], [-95.977542, 36.1627152], [-95.9775415, 36.1627527], [-95.9772225, 36.1627501], [-95.9772215, 36.162836], [-95.9778219, 36.162841]]]}, "properties": {"osm_id": 496190994, "building": "industrial", "name": "", "height": null, "height_m": null, "levels": null, "tract_id": "40143001200", "tract_name": "12", "tags": {"addr:city": "Tulsa", "addr:country": "US", "addr:housenumber": "1111", "addr:postcode": "74106", "addr:state": "OK", "addr:street": "East Archer Street North", "building": "industrial", "shop": "yes"}}}, {"type": "Feature", "geometry": {"type": "Polygon", "coordinates": [[[-95.9770554, 36.1626753], [-95.9768921, 36.162673], [-95.9768895, 36.1627905], [-95.9770528, 36.1627928], [-95.9770554, 36.1626753]]]}, "properties": {"osm_id": 496190995, "building": "yes", "name": "", "height": null, "height_m": null, "levels": null, "tract_id": "40143001200", "tract_name": "12", "tags": {"addr:city": "Tulsa", "addr:country": "US", "addr:housenumber": "1123", "addr:postcode": "74106", "addr:state": "OK", "addr:street": "East Archer Street North", "building": "yes", "check_date": "2022-09-17", "shop": "vacant"}}}, {"type": "Feature", "geometry": {"type": "Polygon", "coordinates": [[[-95.9766962, 36.1625172], [-95.9765484, 36.1625152], [-95.9765464, 36.162608], [-95.9764636, 36.1626069], [-95.9764629, 36.1626406], [-95.9765498, 36.1626418], [-95.976546, 36.1628226], [-95.9766061, 36.1628234], [-95.9766079, 36.1627384], [-95.9766915, 36.1627395], [-95.9766962, 36.1625172]]]}, "properties": {"osm_id": 496190996, "building": "yes", "name": "Iron Decor", "height": null, "height_m": null, "levels": null, "tract_id": "40143001200", "tract_name": "12", "tags": {"addr:city": "Tulsa", "addr:country": "US", "addr:housenumber": "1131", "addr:postcode": "74106", "addr:state": "OK", "addr:street": "East Archer Street North", "building": "yes", "check_date": "2022-09-17", "name": "Iron Decor", "shop": "trade", "website": "https://irondecorok.net/"}}}, {"type": "Feature", "geometry": {"type": "Polygon", "coordinates": [[[-95.9767036, 36.1628207], [-95.9767045, 36.1627846], [-95.9766201, 36.1627832], [-95.9766192, 36.1628193], [-95.9767036, 36.1628207]]]}, "properties": {"osm_id": 496190997, "building": "yes", "name": "", "height": null, "height_m": null, "levels": null, "tract_id": "40143001200", "tract_name": "12", "tags": {"building": "yes"}}}, {"type": "Feature", "geometry": {"type": "Polygon", "coordinates": [[[-95.9761964, 36.16281], [-95.9761972, 36.1626575], [-95.9759765, 36.1626567], [-95.9759757, 36.1628092], [-95.9761964, 36.16281]]]}, "properties": {"osm_id": 496190998, "building": "yes", "name": "", "height": null, "height_m": null, "levels": null, "tract_id": "40143001200", "tract_name": "12", "tags": {"addr:city": "Tulsa", "addr:country": "US", "addr:housenumber": "1147", "addr:postcode": "74106", "addr:state": "OK", "addr:street": "East Archer Street North", "building": "yes", "check_date": "2022-09-17", "shop": "vacant"}}}, {"type": "Feature", "geometry": {"type": "Polygon", "coordinates": [[[-95.9761783, 36.1632454], [-95.9759482, 36.163245], [-95.9759492, 36.1628889], [-95.9761793, 36.1628893], [-95.9761783, 36.1632454]]]}, "properties": {"osm_id": 496190999, "building": "retail", "name": "Jonesplan", "height": null, "height_m": null, "levels": null, "tract_id": "40143001200", "tract_name": "12", "tags": {"addr:city": "Tulsa", "addr:country": "US", "addr:housenumber": "124", "addr:postcode": "74106", "addr:state": "OK", "addr:street": "North Peoria Avenue East", "building": "retail", "check_date": "2022-09-17", "name": "Jonesplan", "office": "construction", "website": "https://www.jonesplan.com/"}}}, {"type": "Feature", "geometry": {"type": "Polygon", "coordinates": [[[-95.9765142, 36.1631928], [-95.9764208, 36.1631933], [-95.9764198, 36.1630731], [-95.9765133, 36.1630726], [-95.9765142, 36.1631928]]]}, "properties": {"osm_id": 496191000, "building": "yes", "name": "", "height": null, "height_m": null, "levels": null, "tract_id": "40143001200", "tract_name": "12", "tags": {"addr:city": "Tulsa", "addr:country": "US", "addr:housenumber": "1136", "addr:postcode": "74106", "addr:state": "OK", "addr:street": "East Easton Street North", "building": "yes"}}}, {"type": "Feature", "geometry": {"type": "Polygon", "coordinates": [[[-95.9766861, 36.1631897], [-95.976585, 36.1631886], [-95.9765868, 36.1630742], [-95.9766879, 36.1630752], [-95.9766861, 36.1631897]]]}, "properties": {"osm_id": 496191001, "building": "yes", "name": "", "height": null, "height_m": null, "levels": null, "tract_id": "40143001200", "tract_name": "12", "tags": {"addr:city": "Tulsa", "addr:country": "US", "addr:housenumber": "1130", "addr:postcode": "74106", "addr:state": "OK", "addr:street": "East Easton Street North", "building": "yes"}}}, {"type": "Feature", "geometry": {"type": "Polygon", "coordinates": [[[-95.9768575, 36.1632016], [-95.976744, 36.1632015], [-95.9767443, 36.1630348], [-95.9767969, 36.1630348], [-95.9767969, 36.1630751], [-95.9768105, 36.1630751], [-95.9768106, 36.1630497], [-95.9768578, 36.1630497], [-95.9768575, 36.1632016]]]}, "properties": {"osm_id": 496191002, "building": "yes", "name": "", "height": null, "height_m": null, "levels": null, "tract_id": "40143001200", "tract_name": "12", "tags": {"addr:city": "Tulsa", "addr:country": "US", "addr:housenumber": "1128", "addr:postcode": "74106", "addr:state": "OK", "addr:street": "East Easton Street North", "building": "yes"}}}, {"type": "Feature", "geometry": {"type": "Polygon", "coordinates": [[[-95.9765014, 36.1629024], [-95.9763762, 36.1629008], [-95.976374, 36.1630152], [-95.9764684, 36.1630163], [-95.9764698, 36.1629427], [-95.9765007, 36.1629431], [-95.9765014, 36.1629024]]]}, "properties": {"osm_id": 496191003, "building": "yes", "name": "", "height": null, "height_m": null, "levels": null, "tract_id": "40143001200", "tract_name": "12", "tags": {"building": "yes"}}}, {"type": "Feature", "geometry": {"type": "Polygon", "coordinates": [[[-95.9777995, 36.1632195], [-95.9777991, 36.1631472], [-95.9775625, 36.163148], [-95.977563, 36.1632459], [-95.9776559, 36.1632456], [-95.9776558, 36.16322], [-95.9777995, 36.1632195]]]}, "properties": {"osm_id": 496191004, "building": "yes", "name": "", "height": null, "height_m": null, "levels": null, "tract_id": "40143001200", "tract_name": "12", "tags": {"addr:city": "Tulsa", "addr:country": "US", "addr:housenumber": "123", "addr:postcode": "74106", "addr:state": "OK", "addr:street": "North Norfolk Avenue East", "building": "yes"}}}, {"type": "Feature", "geometry": {"type": "Polygon", "coordinates": [[[-95.9777333, 36.163075], [-95.977734, 36.1629741], [-95.9775369, 36.1629731], [-95.9775361, 36.163074], [-95.9777333, 36.163075]]]}, "properties": {"osm_id": 496191005, "building": "yes", "name": "", "height": null, "height_m": null, "levels": null, "tract_id": "40143001200", "tract_name": "12", "tags": {"building": "yes"}}}, {"type": "Feature", "geometry": {"type": "Polygon", "coordinates": [[[-95.9773961, 36.1631999], [-95.9773969, 36.1630665], [-95.9772709, 36.163066], [-95.97727, 36.1631993], [-95.9773961, 36.1631999]]]}, "properties": {"osm_id": 496191006, "building": "yes", "name": "", "height": null, "height_m": null, "levels": null, "tract_id": "40143001200", "tract_name": "12", "tags": {"addr:city": "Tulsa", "addr:country": "US", "addr:housenumber": "1116", "addr:postcode": "74106", "addr:state": "OK", "addr:street": "East Easton Street North", "building": "yes"}}}, {"type": "Feature", "geometry": {"type": "Polygon", "coordinates": [[[-95.9781053, 36.1632242], [-95.9781092, 36.1630494], [-95.9781945, 36.1630506], [-95.9781906, 36.1632254], [-95.9781053, 36.1632242]]]}, "properties": {"osm_id": 496191007, "building": "yes", "name": "", "height": null, "height_m": null, "levels": null, "tract_id": "40143001200", "tract_name": "12", "tags": {"addr:city": "Tulsa", "addr:country": "US", "addr:housenumber": "1044", "addr:postcode": "74106", "addr:state": "OK", "addr:street": "East Easton Street North", "building": "yes"}}}, {"type": "Feature", "geometry": {"type": "Polygon", "coordinates": [[[-95.9782718, 36.1630074], [-95.9781095, 36.1630077], [-95.9781093, 36.1629162], [-95.9782715, 36.1629159], [-95.9782718, 36.1630074]]]}, "properties": {"osm_id": 496191009, "building": "yes", "name": "", "height": null, "height_m": null, "levels": null, "tract_id": "40143001200", "tract_name": "12", "tags": {"addr:city": "Tulsa", "addr:country": "US", "addr:housenumber": "116", "addr:postcode": "74106", "addr:state": "OK", "addr:street": "North Norfolk Avenue East", "building": "yes"}}}, {"type": "Feature", "geometry": {"type": "Polygon", "coordinates": [[[-95.9786432, 36.1632076], [-95.9785503, 36.1632063], [-95.9785532, 36.1630766], [-95.9786171, 36.1630776], [-95.9786162, 36.1631151], [-95.9786453, 36.1631155], [-95.9786432, 36.1632076]]]}, "properties": {"osm_id": 496191010, "building": "yes", "name": "", "height": null, "height_m": null, "levels": null, "tract_id": "40143001200", "tract_name": "12", "tags": {"addr:city": "Tulsa", "addr:country": "US", "addr:housenumber": "1034", "addr:postcode": "74106", "addr:state": "OK", "addr:street": "East Easton Street North", "building": "yes"}}}, {"type": "Feature", "geometry": {"type": "Polygon", "coordinates": [[[-95.9786865, 36.1630875], [-95.9786396, 36.1630872], [-95.9786397, 36.1630707], [-95.978607, 36.1630706], [-95.9786074, 36.163025], [-95.978687, 36.1630254], [-95.9786865, 36.1630875]]]}, "properties": {"osm_id": 496191011, "building": "yes", "name": "", "height": null, "height_m": null, "levels": null, "tract_id": "40143001200", "tract_name": "12", "tags": {"building": "yes"}}}, {"type": "Feature", "geometry": {"type": "Polygon", "coordinates": [[[-95.9788999, 36.1632254], [-95.978814, 36.1632265], [-95.9788115, 36.1631027], [-95.9789131, 36.1631014], [-95.9789138, 36.1631345], [-95.9788981, 36.1631347], [-95.9788999, 36.1632254]]]}, "properties": {"osm_id": 496191013, "building": "yes", "name": "", "height": null, "height_m": null, "levels": null, "tract_id": "40143001200", "tract_name": "12", "tags": {"addr:city": "Tulsa", "addr:country": "US", "addr:housenumber": "1028", "addr:postcode": "74106", "addr:state": "OK", "addr:street": "East Easton Street North", "building": "yes"}}}, {"type": "Feature", "geometry": {"type": "Polygon", "coordinates": [[[-95.9790913, 36.1630295], [-95.9789931, 36.1630296], [-95.978993, 36.1629435], [-95.9790911, 36.1629433], [-95.9790913, 36.1630295]]]}, "properties": {"osm_id": 496191014, "building": "yes", "name": "", "height": null, "height_m": null, "levels": null, "tract_id": "40143001200", "tract_name": "12", "tags": {"addr:city": "Tulsa", "addr:country": "US", "addr:housenumber": "1024", "addr:postcode": "74106", "addr:state": "OK", "addr:street": "East Easton Street North", "building": "yes"}}}, {"type": "Feature", "geometry": {"type": "Polygon", "coordinates": [[[-95.9794243, 36.1631573], [-95.9793146, 36.1631587], [-95.9793123, 36.1630419], [-95.979422, 36.1630406], [-95.9794243, 36.1631573]]]}, "properties": {"osm_id": 496191015, "building": "yes", "name": "", "height": null, "height_m": null, "levels": null, "tract_id": "40143001200", "tract_name": "12", "tags": {"addr:city": "Tulsa", "addr:country": "US", "addr:housenumber": "1014", "addr:postcode": "74106", "addr:state": "OK", "addr:street": "East Easton Street North", "building": "yes"}}}, {"type": "Feature", "geometry": {"type": "Polygon", "coordinates": [[[-95.9789507, 36.1630779], [-95.9789507, 36.1629661], [-95.9789086, 36.1629661], [-95.9789086, 36.1630779], [-95.9789507, 36.1630779]]]}, "properties": {"osm_id": 496191016, "building": "yes", "name": "", "height": null, "height_m": null, "levels": null, "tract_id": "40143001200", "tract_name": "12", "tags": {"building": "yes"}}}, {"type": "Feature", "geometry": {"type": "Polygon", "coordinates": [[[-95.9799223, 36.1628318], [-95.9799223, 36.1626643], [-95.979806, 36.1626643], [-95.979806, 36.1628318], [-95.9799223, 36.1628318]]]}, "properties": {"osm_id": 496191017, "building": "retail", "name": "", "height": null, "height_m": null, "levels": null, "tract_id": "40143001200", "tract_name": "12", "tags": {"addr:city": "Tulsa", "addr:country": "US", "addr:housenumber": "1007", "addr:postcode": "74106", "addr:state": "OK", "addr:street": "East Archer Street North", "building": "retail"}}}, {"type": "Feature", "geometry": {"type": "Polygon", "coordinates": [[[-95.9796284, 36.1628323], [-95.9796268, 36.1625011], [-95.9797968, 36.1625006], [-95.9797984, 36.1628318], [-95.9796284, 36.1628323]]]}, "properties": {"osm_id": 496191018, "building": "industrial", "name": "", "height": null, "height_m": null, "levels": null, "tract_id": "40143001200", "tract_name": "12", "tags": {"addr:city": "Tulsa", "addr:country": "US", "addr:housenumber": "1009", "addr:postcode": "74106", "addr:state": "OK", "addr:street": "East Archer Street North", "building": "industrial"}}}, {"type": "Feature", "geometry": {"type": "Polygon", "coordinates": [[[-95.9795913, 36.1628221], [-95.979591, 36.1627112], [-95.979491, 36.1627114], [-95.9794914, 36.1628224], [-95.9795913, 36.1628221]]]}, "properties": {"osm_id": 496191019, "building": "yes", "name": "", "height": null, "height_m": null, "levels": null, "tract_id": "40143001200", "tract_name": "12", "tags": {"addr:city": "Tulsa", "addr:country": "US", "addr:housenumber": "1011", "addr:postcode": "74106", "addr:state": "OK", "addr:street": "East Archer Street North", "building": "yes"}}}, {"type": "Feature", "geometry": {"type": "Polygon", "coordinates": [[[-95.9760319, 36.159796], [-95.9757969, 36.1597941], [-95.9757419, 36.1598277], [-95.9757281, 36.1599582], [-95.9758981, 36.1599597], [-95.9758986, 36.1599754], [-95.976045, 36.1599765], [-95.9760459, 36.1598934], [-95.9760307, 36.1598925], [-95.9760319, 36.159796]]]}, "properties": {"osm_id": 496191020, "building": "yes", "name": "Topeca Coffee Roasters", "height": null, "height_m": null, "levels": null, "tract_id": "40143001200", "tract_name": "12", "tags": {"addr:city": "Tulsa", "addr:country": "US", "addr:housenumber": "1229", "addr:postcode": "74120", "addr:state": "OK", "addr:street": "East Admiral Boulevard North", "building": "yes", "name": "Topeca Coffee Roasters", "shop": "coffee"}}}, {"type": "Feature", "geometry": {"type": "Polygon", "coordinates": [[[-95.9760477, 36.160163], [-95.9760492, 36.1599847], [-95.9758883, 36.1599839], [-95.9758875, 36.1600218], [-95.9758878, 36.1601629], [-95.9760477, 36.160163]]]}, "properties": {"osm_id": 496191021, "building": "yes", "name": "", "height": null, "height_m": null, "levels": null, "tract_id": "40143001200", "tract_name": "12", "tags": {"building": "yes"}}}, {"type": "Feature", "geometry": {"type": "Polygon", "coordinates": [[[-95.9758878, 36.1601629], [-95.9757799, 36.1601631], [-95.9757795, 36.160022], [-95.9758875, 36.1600218], [-95.9758878, 36.1601629]]]}, "properties": {"osm_id": 496191022, "building": "yes", "name": "", "height": null, "height_m": null, "levels": null, "tract_id": "40143001200", "tract_name": "12", "tags": {"addr:city": "Tulsa", "addr:country": "US", "addr:housenumber": "10", "addr:postcode": "74120", "addr:state": "OK", "addr:street": "North Peoria Avenue East", "building": "yes"}}}, {"type": "Feature", "geometry": {"type": "Polygon", "coordinates": [[[-95.9759386, 36.1603163], [-95.9759376, 36.1602166], [-95.9758375, 36.1602172], [-95.9758378, 36.1602496], [-95.9758964, 36.1602493], [-95.975897, 36.1603165], [-95.9759386, 36.1603163]]]}, "properties": {"osm_id": 496191023, "building": "yes", "name": "", "height": null, "height_m": null, "levels": null, "tract_id": "40143001200", "tract_name": "12", "tags": {"building": "yes"}}}, {"type": "Feature", "geometry": {"type": "Polygon", "coordinates": [[[-95.9765976, 36.1601629], [-95.9765964, 36.1600005], [-95.9764677, 36.1600011], [-95.9764685, 36.1600257], [-95.9764688, 36.1601502], [-95.9764689, 36.1601635], [-95.9765976, 36.1601629]]]}, "properties": {"osm_id": 496191024, "building": "yes", "name": "", "height": null, "height_m": null, "levels": null, "tract_id": "40143001200", "tract_name": "12", "tags": {"building": "yes"}}}, {"type": "Feature", "geometry": {"type": "Polygon", "coordinates": [[[-95.9764685, 36.1600257], [-95.9762717, 36.1600259], [-95.9762719, 36.1601504], [-95.9764688, 36.1601502], [-95.9764685, 36.1600257]]]}, "properties": {"osm_id": 496191025, "building": "yes", "name": "", "height": null, "height_m": null, "levels": null, "tract_id": "40143001200", "tract_name": "12", "tags": {"building": "yes"}}}, {"type": "Feature", "geometry": {"type": "Polygon", "coordinates": [[[-95.9768025, 36.1600013], [-95.9768012, 36.1597793], [-95.9767117, 36.1597797], [-95.9767118, 36.1597924], [-95.9767126, 36.1599282], [-95.9767133, 36.1600441], [-95.9767481, 36.160044], [-95.9767478, 36.1600016], [-95.9768025, 36.1600013]]]}, "properties": {"osm_id": 496191026, "building": "yes", "name": "Metamorphosis Tribe", "height": null, "height_m": null, "levels": null, "tract_id": "40143001200", "tract_name": "12", "tags": {"addr:city": "Tulsa", "addr:country": "US", "addr:housenumber": "1211", "addr:postcode": "74120", "addr:state": "OK", "addr:street": "East Admiral Boulevard North", "building": "yes", "leisure": "fitness_centre", "name": "Metamorphosis Tribe", "sport": "gymnastics"}}}, {"type": "Feature", "geometry": {"type": "Polygon", "coordinates": [[[-95.9767126, 36.1599282], [-95.9766128, 36.1599288], [-95.9766126, 36.1599033], [-95.9766121, 36.1597924], [-95.9767118, 36.1597924], [-95.9767126, 36.1599282]]]}, "properties": {"osm_id": 496191027, "building": "yes", "name": "", "height": null, "height_m": null, "levels": null, "tract_id": "40143001200", "tract_name": "12", "tags": {"building": "yes", "shop": "vacant"}}}, {"type": "Feature", "geometry": {"type": "Polygon", "coordinates": [[[-95.9766126, 36.1599033], [-95.9765551, 36.1599039], [-95.9765538, 36.1597924], [-95.9766121, 36.1597924], [-95.9766126, 36.1599033]]]}, "properties": {"osm_id": 496191028, "building": "yes", "name": "", "height": null, "height_m": null, "levels": null, "tract_id": "40143001200", "tract_name": "12", "tags": {"building": "yes", "shop": "vacant"}}}, {"type": "Feature", "geometry": {"type": "Polygon", "coordinates": [[[-95.9765538, 36.1597924], [-95.9764673, 36.1597934], [-95.9764713, 36.1599315], [-95.9765551, 36.159931], [-95.9765538, 36.1597924]]]}, "properties": {"osm_id": 496191029, "building": "yes", "name": "", "height": null, "height_m": null, "levels": null, "tract_id": "40143001200", "tract_name": "12", "tags": {"building": "yes", "shop": "vacant"}}}, {"type": "Feature", "geometry": {"type": "Polygon", "coordinates": [[[-95.9758994, 36.1606009], [-95.9758994, 36.1605538], [-95.9757191, 36.1605538], [-95.9757191, 36.1606009], [-95.9758994, 36.1606009]]]}, "properties": {"osm_id": 496191030, "building": "yes", "name": "", "height": null, "height_m": null, "levels": null, "tract_id": "40143001200", "tract_name": "12", "tags": {"building": "yes"}}}, {"type": "Feature", "geometry": {"type": "Polygon", "coordinates": [[[-95.9754221, 36.1616918], [-95.9749862, 36.1616912], [-95.9749861, 36.1617392], [-95.9748048, 36.161739], [-95.9748042, 36.1620163], [-95.9749887, 36.1620166], [-95.9749889, 36.1619337], [-95.9751994, 36.161934], [-95.9751996, 36.1618503], [-95.9754218, 36.1618506], [-95.9754221, 36.1616918]]]}, "properties": {"osm_id": 496191961, "building": "industrial", "name": "Red-D-Arc Welderentals", "height": null, "height_m": null, "levels": null, "tract_id": "40143001200", "tract_name": "12", "tags": {"addr:city": "Tulsa", "addr:country": "US", "addr:housenumber": "61", "addr:postcode": "74120", "addr:state": "OK", "addr:street": "North Peoria Avenue East", "building": "industrial", "check_date": "2022-09-17", "name": "Red-D-Arc Welderentals", "shop": "trade"}}}, {"type": "Feature", "geometry": {"type": "Polygon", "coordinates": [[[-95.9752076, 36.1610753], [-95.9752566, 36.1610756], [-95.9752556, 36.1611908], [-95.9754301, 36.1611917], [-95.9754285, 36.1613829], [-95.9750275, 36.1613807], [-95.9750268, 36.1614647], [-95.9747499, 36.1614632], [-95.9747507, 36.1613658], [-95.9747669, 36.1613659], [-95.9747674, 36.1613084], [-95.9748147, 36.1613087], [-95.9748158, 36.1611784], [-95.9750046, 36.1611795], [-95.9750055, 36.1610741], [-95.9751629, 36.161075], [-95.9752076, 36.1610753]]]}, "properties": {"osm_id": 496191962, "building": "industrial", "name": "", "height": null, "height_m": null, "levels": null, "tract_id": "40143001200", "tract_name": "12", "tags": {"addr:city": "Tulsa", "addr:country": "US", "addr:housenumber": "39", "addr:postcode": "74120", "addr:state": "OK", "addr:street": "North Peoria Avenue East", "building": "industrial"}}}, {"type": "Feature", "geometry": {"type": "Polygon", "coordinates": [[[-95.9748367, 36.1609442], [-95.9748359, 36.1607874], [-95.9745617, 36.1607886], [-95.9745631, 36.1609265], [-95.9745628, 36.160945], [-95.9748367, 36.1609442]]]}, "properties": {"osm_id": 496191963, "building": "industrial", "name": "", "height": null, "height_m": null, "levels": null, "tract_id": "40143001200", "tract_name": "12", "tags": {"building": "industrial"}}}, {"type": "Feature", "geometry": {"type": "Polygon", "coordinates": [[[-95.9745617, 36.1607886], [-95.9744283, 36.1607895], [-95.9744298, 36.1609274], [-95.9745631, 36.1609265], [-95.9745617, 36.1607886]]]}, "properties": {"osm_id": 496191964, "building": "industrial", "name": "", "height": null, "height_m": null, "levels": null, "tract_id": "40143001200", "tract_name": "12", "tags": {"building": "industrial"}}}, {"type": "Feature", "geometry": {"type": "Polygon", "coordinates": [[[-95.974346, 36.1609959], [-95.9743449, 36.160803], [-95.9739224, 36.1608046], [-95.9739236, 36.1609975], [-95.974346, 36.1609959]]]}, "properties": {"osm_id": 496191965, "building": "industrial", "name": "", "height": null, "height_m": null, "levels": null, "tract_id": "40143001200", "tract_name": "12", "tags": {"building": "industrial"}}}, {"type": "Feature", "geometry": {"type": "Polygon", "coordinates": [[[-95.9742439, 36.1614427], [-95.9738171, 36.1614389], [-95.9738217, 36.161097], [-95.9743759, 36.1611019], [-95.9743739, 36.1612531], [-95.9743174, 36.1612526], [-95.9743157, 36.1613768], [-95.9742448, 36.1613761], [-95.9742439, 36.1614427]]]}, "properties": {"osm_id": 496191966, "building": "industrial", "name": "", "height": null, "height_m": null, "levels": null, "tract_id": "40143001200", "tract_name": "12", "tags": {"addr:city": "Tulsa", "addr:country": "US", "addr:housenumber": "42", "addr:postcode": "74120", "addr:state": "OK", "addr:street": "North Quincy Avenue East", "building": "industrial"}}}, {"type": "Feature", "geometry": {"type": "Polygon", "coordinates": [[[-95.9754783, 36.1601223], [-95.9754787, 36.1599992], [-95.9752803, 36.1599988], [-95.9752799, 36.1601218], [-95.9754783, 36.1601223]]]}, "properties": {"osm_id": 496191967, "building": "yes", "name": "", "height": null, "height_m": null, "levels": null, "tract_id": "40143001200", "tract_name": "12", "tags": {"addr:city": "Tulsa", "addr:country": "US", "addr:housenumber": "1303", "addr:postcode": "74120", "addr:state": "OK", "addr:street": "East Admiral Boulevard North", "building": "yes", "shop": "vacant"}}}, {"type": "Feature", "geometry": {"type": "Polygon", "coordinates": [[[-95.97548, 36.1599153], [-95.9754787, 36.1599992], [-95.9752803, 36.1599988], [-95.9752796, 36.1597646], [-95.9753915, 36.1597646], [-95.9753915, 36.1599153], [-95.97548, 36.1599153]]]}, "properties": {"osm_id": 496191968, "building": "yes", "name": "", "height": null, "height_m": null, "levels": null, "tract_id": "40143001200", "tract_name": "12", "tags": {"addr:city": "Tulsa", "addr:country": "US", "addr:housenumber": "1301", "addr:postcode": "74120", "addr:state": "OK", "addr:street": "East Admiral Boulevard North", "building": "yes", "shop": "vacant"}}}, {"type": "Feature", "geometry": {"type": "Polygon", "coordinates": [[[-95.9753719, 36.1603122], [-95.9753716, 36.1601936], [-95.9750296, 36.1601942], [-95.9750299, 36.1603128], [-95.9753719, 36.1603122]]]}, "properties": {"osm_id": 496191969, "building": "industrial", "name": "", "height": null, "height_m": null, "levels": null, "tract_id": "40143001200", "tract_name": "12", "tags": {"building": "industrial"}}}, {"type": "Feature", "geometry": {"type": "Polygon", "coordinates": [[[-95.9749405, 36.1599939], [-95.974775, 36.1599924], [-95.9747733, 36.1601138], [-95.9749388, 36.1601153], [-95.9749405, 36.1599939]]]}, "properties": {"osm_id": 496191970, "building": "yes", "name": "", "height": null, "height_m": null, "levels": null, "tract_id": "40143001200", "tract_name": "12", "tags": {"addr:city": "Tulsa", "addr:country": "US", "addr:housenumber": "1315", "addr:postcode": "74120", "addr:state": "OK", "addr:street": "East Admiral Boulevard North", "building": "yes"}}}, {"type": "Feature", "geometry": {"type": "Polygon", "coordinates": [[[-95.9745641, 36.1599261], [-95.9745654, 36.1598091], [-95.9745528, 36.159809], [-95.974553, 36.1597937], [-95.9744719, 36.1597931], [-95.9744717, 36.159806], [-95.9744534, 36.1598059], [-95.9744521, 36.1599239], [-95.974464, 36.159924], [-95.9744639, 36.1599409], [-95.9745335, 36.1599414], [-95.9745337, 36.1599259], [-95.9745641, 36.1599261]]]}, "properties": {"osm_id": 496191971, "building": "detached", "name": "", "height": null, "height_m": null, "levels": null, "tract_id": "40143001200", "tract_name": "12", "tags": {"addr:city": "Tulsa", "addr:country": "US", "addr:housenumber": "1321", "addr:postcode": "74120", "addr:state": "OK", "addr:street": "East Admiral Boulevard North", "building": "detached"}}}, {"type": "Feature", "geometry": {"type": "Polygon", "coordinates": [[[-95.9808354, 36.1678358], [-95.9808307, 36.1685484], [-95.9811056, 36.1685496], [-95.9811088, 36.1680568], [-95.9810596, 36.1680565], [-95.981061, 36.1678368], [-95.9808354, 36.1678358]]]}, "properties": {"osm_id": 499879010, "building": "yes", "name": "", "height": null, "height_m": null, "levels": null, "tract_id": "40143001200", "tract_name": "12", "tags": {"building": "yes"}}}, {"type": "Feature", "geometry": {"type": "Polygon", "coordinates": [[[-95.9813794, 36.1685112], [-95.9813794, 36.1680046], [-95.9815967, 36.1680046], [-95.9815953, 36.1684041], [-95.9815202, 36.1684041], [-95.9815189, 36.1685134], [-95.9813794, 36.1685112]]]}, "properties": {"osm_id": 499879011, "building": "yes", "name": "", "height": null, "height_m": null, "levels": null, "tract_id": "40143001200", "tract_name": "12", "tags": {"building": "yes"}}}, {"type": "Feature", "geometry": {"type": "Polygon", "coordinates": [[[-95.9816015, 36.1679392], [-95.981393, 36.1679362], [-95.9813952, 36.1678376], [-95.9816038, 36.1678407], [-95.9816015, 36.1679392]]]}, "properties": {"osm_id": 499879012, "building": "yes", "name": "", "height": null, "height_m": null, "levels": null, "tract_id": "40143001200", "tract_name": "12", "tags": {"building": "yes"}}}, {"type": "Feature", "geometry": {"type": "Polygon", "coordinates": [[[-95.9813651, 36.1664196], [-95.9817307, 36.1664229], [-95.981728, 36.1666222], [-95.9816437, 36.1666215], [-95.9816409, 36.1668268], [-95.9816812, 36.1668272], [-95.9816801, 36.1669021], [-95.9816432, 36.1669018], [-95.9816356, 36.167452], [-95.981285, 36.1674488], [-95.9812965, 36.1666186], [-95.9813623, 36.1666192], [-95.9813651, 36.1664196]]]}, "properties": {"osm_id": 499881539, "building": "yes", "name": "", "height": null, "height_m": null, "levels": null, "tract_id": "40143001200", "tract_name": "12", "tags": {"building": "yes"}}}, {"type": "Feature", "geometry": {"type": "Polygon", "coordinates": [[[-95.9823111, 36.1667386], [-95.981871, 36.166738], [-95.9818712, 36.166628], [-95.9823113, 36.1666286], [-95.9823111, 36.1667386]]]}, "properties": {"osm_id": 499881540, "building": "yes", "name": "", "height": null, "height_m": null, "levels": null, "tract_id": "40143001200", "tract_name": "12", "tags": {"building": "yes"}}}, {"type": "Feature", "geometry": {"type": "Polygon", "coordinates": [[[-95.9822613, 36.1675534], [-95.9818528, 36.1675519], [-95.9818549, 36.1671745], [-95.9822635, 36.167176], [-95.9822613, 36.1675534]]]}, "properties": {"osm_id": 499881541, "building": "yes", "name": "", "height": null, "height_m": null, "levels": null, "tract_id": "40143001200", "tract_name": "12", "tags": {"building": "yes"}}}, {"type": "Feature", "geometry": {"type": "Polygon", "coordinates": [[[-95.9819886, 36.1682392], [-95.9818814, 36.1682384], [-95.9818832, 36.1680645], [-95.9819905, 36.1680653], [-95.9819886, 36.1682392]]]}, "properties": {"osm_id": 499881542, "building": "yes", "name": "", "height": null, "height_m": null, "levels": null, "tract_id": "40143001200", "tract_name": "12", "tags": {"building": "yes"}}}, {"type": "Feature", "geometry": {"type": "Polygon", "coordinates": [[[-95.9819937, 36.1680515], [-95.9819946, 36.1678865], [-95.9818855, 36.1678858], [-95.9818834, 36.1680515], [-95.9819937, 36.1680515]]]}, "properties": {"osm_id": 499881543, "building": "yes", "name": "", "height": null, "height_m": null, "levels": null, "tract_id": "40143001200", "tract_name": "12", "tags": {"building": "yes"}}}, {"type": "Feature", "geometry": {"type": "Polygon", "coordinates": [[[-95.9830058, 36.1670606], [-95.9827232, 36.1674988], [-95.9825403, 36.1674183], [-95.9828228, 36.1669851], [-95.9830058, 36.1670606]]]}, "properties": {"osm_id": 499881544, "building": "yes", "name": "", "height": null, "height_m": null, "levels": null, "tract_id": "40143001200", "tract_name": "12", "tags": {"building": "yes"}}}, {"type": "Feature", "geometry": {"type": "Polygon", "coordinates": [[[-95.9831292, 36.1668252], [-95.9828054, 36.1667693], [-95.9828353, 36.1666561], [-95.9831592, 36.166712], [-95.9831292, 36.1668252]]]}, "properties": {"osm_id": 499881545, "building": "yes", "name": "", "height": null, "height_m": null, "levels": null, "tract_id": "40143001200", "tract_name": "12", "tags": {"building": "yes"}}}, {"type": "Feature", "geometry": {"type": "Polygon", "coordinates": [[[-95.9831883, 36.1665931], [-95.9831245, 36.1665822], [-95.9829843, 36.1665582], [-95.9828645, 36.1665376], [-95.982836, 36.166646], [-95.9831598, 36.1667015], [-95.9831883, 36.1665931]]]}, "properties": {"osm_id": 499881546, "building": "yes", "name": "", "height": null, "height_m": null, "levels": null, "tract_id": "40143001200", "tract_name": "12", "tags": {"building": "yes"}}}, {"type": "Feature", "geometry": {"type": "Polygon", "coordinates": [[[-95.975371, 36.1765413], [-95.9753725, 36.1766259], [-95.9752747, 36.176627], [-95.9752749, 36.1766417], [-95.9752479, 36.176642], [-95.975248, 36.1766522], [-95.975217, 36.1766526], [-95.9752173, 36.176668], [-95.9749948, 36.1766706], [-95.9749944, 36.1766516], [-95.9749475, 36.1766521], [-95.9749467, 36.1766094], [-95.9749124, 36.1766098], [-95.9749115, 36.1765644], [-95.9749485, 36.176564], [-95.9749482, 36.1765486], [-95.975175, 36.1765459], [-95.9751748, 36.1765356], [-95.9752101, 36.1765352], [-95.9752102, 36.1765432], [-95.975371, 36.1765413]]]}, "properties": {"osm_id": 597776302, "building": "yes", "name": "McDonald's", "height": null, "height_m": null, "levels": null, "tract_id": "40143001200", "tract_name": "12", "tags": {"addr:city": "Tulsa", "addr:housenumber": "1441", "addr:postcode": "74104", "addr:state": "OK", "addr:street": "North Peoria Avenue East", "amenity": "fast_food", "brand": "McDonald's", "brand:wikidata": "Q38076", "building": "yes", "cuisine": "burger", "drive_through": "yes", "internet_access": "wlan", "name": "McDonald's", "opening_hours": "06:00-22:00 open \"Dining Room\", 24/7 open \"Drive Through\"", "phone": "+1 918-599-0631", "takeaway": "yes", "website": "https://www.mcdonalds.com/us/en-us/location/7419.html"}}}, {"type": "Feature", "geometry": {"type": "Polygon", "coordinates": [[[-95.9803027, 36.1755933], [-95.9799357, 36.1755946], [-95.9799346, 36.1753988], [-95.9800316, 36.1753985], [-95.9800318, 36.1754263], [-95.9803807, 36.175425], [-95.9803814, 36.1755425], [-95.9803492, 36.1755426], [-95.9803494, 36.1755794], [-95.9803026, 36.1755796], [-95.9803027, 36.1755933]]]}, "properties": {"osm_id": 842890257, "building": "yes", "name": "", "height": null, "height_m": null, "levels": null, "tract_id": "40143001200", "tract_name": "12", "tags": {"building": "yes"}}}, {"type": "Feature", "geometry": {"type": "Polygon", "coordinates": [[[-95.9803092, 36.1749418], [-95.9800049, 36.174943], [-95.9799826, 36.1748541], [-95.9800057, 36.1747683], [-95.9800989, 36.1747683], [-95.9801017, 36.1747255], [-95.980102, 36.1746993], [-95.9801721, 36.174685], [-95.9802468, 36.1746999], [-95.9802478, 36.1747289], [-95.9802491, 36.1747689], [-95.9803053, 36.1747714], [-95.9803307, 36.1748547], [-95.9803092, 36.1749418]]]}, "properties": {"osm_id": 842890258, "building": "yes", "name": "", "height": null, "height_m": null, "levels": null, "tract_id": "40143001200", "tract_name": "12", "tags": {"building": "yes"}}}, {"type": "Feature", "geometry": {"type": "Polygon", "coordinates": [[[-95.979533, 36.174288], [-95.979532, 36.1740845], [-95.97987, 36.1740834], [-95.9798697, 36.174022], [-95.9798003, 36.1740222], [-95.9797994, 36.1738541], [-95.9798642, 36.1738539], [-95.9798635, 36.1737221], [-95.9799957, 36.1737216], [-95.9799962, 36.1738], [-95.9802299, 36.1737992], [-95.9802302, 36.1738548], [-95.9803112, 36.1738545], [-95.980311, 36.1738248], [-95.9803969, 36.1738245], [-95.9803971, 36.1738572], [-95.9804195, 36.1738571], [-95.9804208, 36.1741129], [-95.9802255, 36.1741135], [-95.980226, 36.1742206], [-95.9801441, 36.1742209], [-95.9801444, 36.174286], [-95.979533, 36.174288]]]}, "properties": {"osm_id": 842890259, "building": "yes", "name": "", "height": null, "height_m": null, "levels": null, "tract_id": "40143001200", "tract_name": "12", "tags": {"building": "yes"}}}, {"type": "Feature", "geometry": {"type": "Polygon", "coordinates": [[[-95.9804653, 36.1736072], [-95.979559, 36.1736071], [-95.979559, 36.1733789], [-95.979783, 36.1733789], [-95.979783, 36.1732728], [-95.9802845, 36.1732727], [-95.9802844, 36.1730779], [-95.9804654, 36.1730779], [-95.9804653, 36.1736072]]]}, "properties": {"osm_id": 842890260, "building": "yes", "name": "", "height": null, "height_m": null, "levels": null, "tract_id": "40143001200", "tract_name": "12", "tags": {"building": "yes"}}}, {"type": "Feature", "geometry": {"type": "Polygon", "coordinates": [[[-95.9677525, 36.1599551], [-95.9676817, 36.1598958], [-95.9678097, 36.1597962], [-95.9678805, 36.1598556], [-95.9677525, 36.1599551]]]}, "properties": {"osm_id": 897219819, "building": "retail", "name": "MJ Highway", "height": null, "height_m": 3.0, "levels": 1, "tract_id": "40143001200", "tract_name": "12", "tags": {"addr:city": "Tulsa", "addr:country": "US", "addr:housenumber": "12", "addr:postcode": "74120", "addr:state": "OK", "addr:street": "North Utica Avenue East", "building": "retail", "building:colour": "beige", "building:levels": "1", "check_date:opening_hours": "2023-08-11", "name": "MJ Highway", "opening_hours:signed": "no", "payment:credit_cards": "yes", "payment:debit_cards": "no", "roof:levels": "0", "roof:shape": "flat", "shop": "alcohol", "wheelchair": "yes"}}}, {"type": "Feature", "geometry": {"type": "Polygon", "coordinates": [[[-95.9677525, 36.1599551], [-95.9676372, 36.1600453], [-95.9675661, 36.1599862], [-95.9676817, 36.1598958], [-95.9677525, 36.1599551]]]}, "properties": {"osm_id": 897219820, "building": "retail", "name": "", "height": null, "height_m": 3.0, "levels": 1, "tract_id": "40143001200", "tract_name": "12", "tags": {"addr:city": "Tulsa", "addr:country": "US", "addr:housenumber": "14", "addr:postcode": "74120", "addr:state": "OK", "addr:street": "North Utica Avenue East", "building": "retail", "building:levels": "1", "check_date": "2025-04-18", "disused:shop": "cannabis", "roof:levels": "0", "roof:shape": "flat"}}}, {"type": "Feature", "geometry": {"type": "Polygon", "coordinates": [[[-95.9742089, 36.16462], [-95.9740372, 36.1646211], [-95.9740359, 36.1644891], [-95.9738071, 36.1644906], [-95.9738058, 36.1643497], [-95.9742258, 36.1643471], [-95.9742261, 36.1643693], [-95.9742841, 36.164369], [-95.9742853, 36.1644995], [-95.9742163, 36.1644999], [-95.9742162, 36.1644884], [-95.9742076, 36.1644884], [-95.9742089, 36.16462]]]}, "properties": {"osm_id": 914286545, "building": "yes", "name": "Anchor of Hope", "height": null, "height_m": null, "levels": null, "tract_id": "40143001200", "tract_name": "12", "tags": {"amenity": "place_of_worship", "building": "yes", "name": "Anchor of Hope"}}}, {"type": "Feature", "geometry": {"type": "Polygon", "coordinates": [[[-95.9678963, 36.1600725], [-95.967894, 36.1597736], [-95.9685776, 36.1597736], [-95.9685776, 36.1598256], [-95.9687331, 36.1598256], [-95.9687345, 36.1597747], [-95.9689115, 36.1597758], [-95.9689128, 36.1600302], [-95.9685722, 36.1600313], [-95.9685507, 36.1600692], [-95.9678963, 36.1600725]]]}, "properties": {"osm_id": 914286546, "building": "industrial", "name": "Robertson Tire", "height": null, "height_m": null, "levels": null, "tract_id": "40143001200", "tract_name": "12", "tags": {"addr:city": "Tulsa", "addr:country": "US", "addr:housenumber": "1611", "addr:postcode": "74120", "addr:state": "OK", "addr:street": "East Admiral Boulevard North", "building": "industrial", "check_date": "2025-03-08", "check_date:opening_hours": "2022-07-22", "name": "Robertson Tire", "opening_hours": "Mo-Fr 07:30-17:30; Sa 07:30-14:00", "payment:credit_cards": "yes", "payment:debit_cards": "yes", "service": "repair;tyres", "shop": "car_repair", "wheelchair": "yes"}}}, {"type": "Feature", "geometry": {"type": "Polygon", "coordinates": [[[-95.9673491, 36.1636098], [-95.9673491, 36.1636131], [-95.9673808, 36.1636131], [-95.9673808, 36.1636859], [-95.9673491, 36.1636859], [-95.9673491, 36.1636888], [-95.9672499, 36.1636888], [-95.9672499, 36.1636098], [-95.9673491, 36.1636098]]]}, "properties": {"osm_id": 932240840, "building": "yes", "name": "", "height": null, "height_m": null, "levels": null, "tract_id": "40143001200", "tract_name": "12", "tags": {"building": "yes"}}}, {"type": "Feature", "geometry": {"type": "Polygon", "coordinates": [[[-95.9682383, 36.1639693], [-95.9677447, 36.1639758], [-95.967743, 36.1638913], [-95.967417, 36.1638956], [-95.9674125, 36.1636736], [-95.9677386, 36.1636693], [-95.9677381, 36.1636447], [-95.967909, 36.1636424], [-95.9679116, 36.1637727], [-95.9679046, 36.1637728], [-95.967906, 36.1638396], [-95.9680277, 36.163838], [-95.968028, 36.1638526], [-95.9680933, 36.1638517], [-95.9680902, 36.1636989], [-95.9680711, 36.1636991], [-95.9680699, 36.1636403], [-95.9682316, 36.1636382], [-95.9682383, 36.1639693]]]}, "properties": {"osm_id": 932240844, "building": "industrial", "name": "", "height": null, "height_m": null, "levels": null, "tract_id": "40143001200", "tract_name": "12", "tags": {"building": "industrial", "shop": "vacant"}}}, {"type": "Feature", "geometry": {"type": "Polygon", "coordinates": [[[-95.969114, 36.1639606], [-95.9689437, 36.163961], [-95.9689423, 36.1636178], [-95.9691127, 36.1636174], [-95.969114, 36.1639606]]]}, "properties": {"osm_id": 932240847, "building": "yes", "name": "", "height": null, "height_m": null, "levels": null, "tract_id": "40143001200", "tract_name": "12", "tags": {"building": "yes"}}}, {"type": "Feature", "geometry": {"type": "Polygon", "coordinates": [[[-95.9679942, 36.1643937], [-95.967905, 36.1643937], [-95.967905, 36.1643304], [-95.9679942, 36.1643304], [-95.9679942, 36.1643937]]]}, "properties": {"osm_id": 932240849, "building": "yes", "name": "", "height": null, "height_m": null, "levels": null, "tract_id": "40143001200", "tract_name": "12", "tags": {"building": "yes"}}}, {"type": "Feature", "geometry": {"type": "Polygon", "coordinates": [[[-95.9673779, 36.1641826], [-95.9673035, 36.1641826], [-95.9673035, 36.1641647], [-95.9672888, 36.1641647], [-95.9672888, 36.164142], [-95.9673035, 36.164142], [-95.9673035, 36.16411], [-95.9673779, 36.16411], [-95.9673779, 36.164143], [-95.9673907, 36.164143], [-95.9673907, 36.1641652], [-95.9673779, 36.1641652], [-95.9673779, 36.1641826]]]}, "properties": {"osm_id": 932240850, "building": "yes", "name": "", "height": null, "height_m": null, "levels": null, "tract_id": "40143001200", "tract_name": "12", "tags": {"building": "yes"}}}, {"type": "Feature", "geometry": {"type": "Polygon", "coordinates": [[[-95.9675617, 36.1643385], [-95.9673994, 36.1643387], [-95.9673987, 36.1640523], [-95.967561, 36.1640521], [-95.9675617, 36.1643385]]]}, "properties": {"osm_id": 932240851, "building": "yes", "name": "", "height": null, "height_m": null, "levels": null, "tract_id": "40143001200", "tract_name": "12", "tags": {"building": "yes"}}}, {"type": "Feature", "geometry": {"type": "Polygon", "coordinates": [[[-95.967676, 36.1681855], [-95.967446, 36.1681872], [-95.9674447, 36.1680637], [-95.9674445, 36.1680464], [-95.9676745, 36.1680448], [-95.967676, 36.1681855]]]}, "properties": {"osm_id": 949777689, "building": "yes", "name": "Utica Food Mart", "height": null, "height_m": null, "levels": null, "tract_id": "40143001200", "tract_name": "12", "tags": {"addr:city": "Tulsa", "addr:country": "US", "addr:housenumber": "1004", "addr:postcode": "74110", "addr:state": "OK", "addr:street": "North Utica Avenue East", "building": "yes", "name": "Utica Food Mart", "shop": "convenience"}}}, {"type": "Feature", "geometry": {"type": "Polygon", "coordinates": [[[-95.9764462, 36.1760401], [-95.9763351, 36.1760399], [-95.9763352, 36.1759721], [-95.9763353, 36.175928], [-95.9764465, 36.1759281], [-95.9764464, 36.1759719], [-95.9764462, 36.1760401]]]}, "properties": {"osm_id": 965929765, "building": "service", "name": "", "height": null, "height_m": null, "levels": null, "tract_id": "40143001200", "tract_name": "12", "tags": {"building": "service"}}}, {"type": "Feature", "geometry": {"type": "Polygon", "coordinates": [[[-95.9696185, 36.1597327], [-95.9697865, 36.1597325], [-95.9697871, 36.1600858], [-95.96969, 36.1600859], [-95.9696898, 36.1599262], [-95.9696188, 36.1599263], [-95.9696185, 36.1597327]]]}, "properties": {"osm_id": 1012025367, "building": "yes", "name": "CremationCare+", "height": null, "height_m": null, "levels": null, "tract_id": "40143001200", "tract_name": "12", "tags": {"building": "yes", "name": "CremationCare+", "shop": "funeral_directors"}}}, {"type": "Feature", "geometry": {"type": "Polygon", "coordinates": [[[-95.9705987, 36.1597812], [-95.9704256, 36.1597797], [-95.9704219, 36.1600559], [-95.970595, 36.1600574], [-95.9705987, 36.1597812]]]}, "properties": {"osm_id": 1012025368, "building": "yes", "name": "J&E Automotive", "height": null, "height_m": null, "levels": null, "tract_id": "40143001200", "tract_name": "12", "tags": {"building": "yes", "name": "J&E Automotive", "shop": "car_repair"}}}, {"type": "Feature", "geometry": {"type": "Polygon", "coordinates": [[[-95.9685655, 36.1602116], [-95.9684294, 36.1602111], [-95.9684298, 36.1601412], [-95.9684756, 36.1601414], [-95.9684757, 36.1601308], [-95.968566, 36.1601312], [-95.9685655, 36.1602116]]]}, "properties": {"osm_id": 1041875701, "building": "yes", "name": "", "height": null, "height_m": null, "levels": null, "tract_id": "40143001200", "tract_name": "12", "tags": {"building": "yes"}}}, {"type": "Feature", "geometry": {"type": "Polygon", "coordinates": [[[-95.9687378, 36.1601515], [-95.9687861, 36.1601512], [-95.9687867, 36.160214], [-95.9687385, 36.1602143], [-95.9687378, 36.1601515]]]}, "properties": {"osm_id": 1041875702, "building": "yes", "name": "", "height": null, "height_m": null, "levels": null, "tract_id": "40143001200", "tract_name": "12", "tags": {"building": "yes"}}}, {"type": "Feature", "geometry": {"type": "Polygon", "coordinates": [[[-95.9689544, 36.160204], [-95.9689049, 36.1602058], [-95.9689022, 36.1601576], [-95.9689517, 36.1601558], [-95.9689544, 36.160204]]]}, "properties": {"osm_id": 1041875703, "building": "yes", "name": "", "height": null, "height_m": null, "levels": null, "tract_id": "40143001200", "tract_name": "12", "tags": {"building": "yes"}}}, {"type": "Feature", "geometry": {"type": "Polygon", "coordinates": [[[-95.9708574, 36.1609609], [-95.9708132, 36.1609612], [-95.9708126, 36.1608951], [-95.9708568, 36.1608948], [-95.9708574, 36.1609609]]]}, "properties": {"osm_id": 1041875732, "building": "yes", "name": "", "height": null, "height_m": null, "levels": null, "tract_id": "40143001200", "tract_name": "12", "tags": {"building": "yes"}}}, {"type": "Feature", "geometry": {"type": "Polygon", "coordinates": [[[-95.9704786, 36.1609647], [-95.9704812, 36.160881], [-95.970549, 36.1608824], [-95.9705464, 36.1609661], [-95.9704786, 36.1609647]]]}, "properties": {"osm_id": 1041875733, "building": "yes", "name": "", "height": null, "height_m": null, "levels": null, "tract_id": "40143001200", "tract_name": "12", "tags": {"building": "yes"}}}, {"type": "Feature", "geometry": {"type": "Polygon", "coordinates": [[[-95.9692528, 36.1606902], [-95.9692528, 36.1608807], [-95.9692039, 36.1608807], [-95.9692039, 36.160871], [-95.9691221, 36.160871], [-95.9691221, 36.1608477], [-95.9691006, 36.1608477], [-95.9691006, 36.1606902], [-95.9692528, 36.1606902]]]}, "properties": {"osm_id": 1041875734, "building": "yes", "name": "", "height": null, "height_m": null, "levels": null, "tract_id": "40143001200", "tract_name": "12", "tags": {"building": "yes"}}}, {"type": "Feature", "geometry": {"type": "Polygon", "coordinates": [[[-95.9692622, 36.1609733], [-95.9690791, 36.1609723], [-95.96908, 36.1608797], [-95.9692039, 36.1608807], [-95.9692528, 36.1608807], [-95.969263, 36.1608808], [-95.9692622, 36.1609733]]]}, "properties": {"osm_id": 1041875735, "building": "yes", "name": "", "height": null, "height_m": null, "levels": null, "tract_id": "40143001200", "tract_name": "12", "tags": {"addr:city": "Tulsa", "addr:housenumber": "29", "addr:state": "OK", "addr:street": "North Trenton Avenue", "building": "yes"}}}, {"type": "Feature", "geometry": {"type": "Polygon", "coordinates": [[[-95.9689873, 36.1608553], [-95.9689862, 36.1608813], [-95.968946, 36.1608803], [-95.968947, 36.1608542], [-95.9689873, 36.1608553]]]}, "properties": {"osm_id": 1041875736, "building": "yes", "name": "", "height": null, "height_m": null, "levels": null, "tract_id": "40143001200", "tract_name": "12", "tags": {"building": "yes"}}}, {"type": "Feature", "geometry": {"type": "Polygon", "coordinates": [[[-95.9681367, 36.1609103], [-95.9681369, 36.1609384], [-95.9680937, 36.1609386], [-95.9680934, 36.1609105], [-95.9681367, 36.1609103]]]}, "properties": {"osm_id": 1041875739, "building": "yes", "name": "", "height": null, "height_m": null, "levels": null, "tract_id": "40143001200", "tract_name": "12", "tags": {"building": "yes"}}}, {"type": "Feature", "geometry": {"type": "Polygon", "coordinates": [[[-95.9675878, 36.1624199], [-95.9675885, 36.1623842], [-95.9676234, 36.1623846], [-95.9676227, 36.1624203], [-95.9675878, 36.1624199]]]}, "properties": {"osm_id": 1041875742, "building": "shed", "name": "", "height": null, "height_m": null, "levels": null, "tract_id": "40143001200", "tract_name": "12", "tags": {"building": "shed"}}}, {"type": "Feature", "geometry": {"type": "Polygon", "coordinates": [[[-95.968457, 36.160867], [-95.968556, 36.160867], [-95.968556, 36.160696], [-95.968457, 36.160696], [-95.968457, 36.160867]]]}, "properties": {"osm_id": 1041875743, "building": "yes", "name": "", "height": null, "height_m": null, "levels": null, "tract_id": "40143001200", "tract_name": "12", "tags": {"building": "yes", "source": "microsoft/BuildingFootprints"}}}, {"type": "Feature", "geometry": {"type": "Polygon", "coordinates": [[[-95.97128, 36.160816], [-95.971276, 36.160682], [-95.971172, 36.160684], [-95.971177, 36.160818], [-95.97128, 36.160816]]]}, "properties": {"osm_id": 1041875744, "building": "yes", "name": "", "height": null, "height_m": null, "levels": null, "tract_id": "40143001200", "tract_name": "12", "tags": {"building": "yes", "source": "microsoft/BuildingFootprints"}}}, {"type": "Feature", "geometry": {"type": "Polygon", "coordinates": [[[-95.9708409, 36.1604848], [-95.9709524, 36.1604842], [-95.9709513, 36.1603391], [-95.9709282, 36.1603392], [-95.9709281, 36.1603337], [-95.9708678, 36.160334], [-95.970868, 36.1603594], [-95.9708399, 36.1603595], [-95.9708409, 36.1604848]]]}, "properties": {"osm_id": 1041875745, "building": "yes", "name": "", "height": null, "height_m": null, "levels": null, "tract_id": "40143001200", "tract_name": "12", "tags": {"building": "yes", "source": "microsoft/BuildingFootprints"}}}, {"type": "Feature", "geometry": {"type": "Polygon", "coordinates": [[[-95.970628, 36.160095], [-95.970969, 36.160093], [-95.9709667, 36.1597365], [-95.9706257, 36.1597385], [-95.970628, 36.160095]]]}, "properties": {"osm_id": 1041875746, "building": "yes", "name": "Nichols & Sons Construction Inc", "height": null, "height_m": null, "levels": null, "tract_id": "40143001200", "tract_name": "12", "tags": {"building": "yes", "name": "Nichols & Sons Construction Inc", "phone": "+1 918 583 1080", "shop": "trade", "source": "microsoft/BuildingFootprints"}}}, {"type": "Feature", "geometry": {"type": "Polygon", "coordinates": [[[-95.9680556, 36.1629705], [-95.9680557, 36.1628442], [-95.9679377, 36.1628442], [-95.9679377, 36.1628811], [-95.9679036, 36.1628811], [-95.9679036, 36.1629856], [-95.9679405, 36.1629856], [-95.9679405, 36.1629705], [-95.9680556, 36.1629705]]]}, "properties": {"osm_id": 1041875747, "building": "yes", "name": "", "height": null, "height_m": null, "levels": null, "tract_id": "40143001200", "tract_name": "12", "tags": {"addr:city": "Tulsa", "addr:country": "US", "addr:housenumber": "1631", "addr:postcode": "74120", "addr:state": "OK", "addr:street": "East Archer Street North", "building": "yes"}}}, {"type": "Feature", "geometry": {"type": "Polygon", "coordinates": [[[-95.970264, 36.160715], [-95.970159, 36.160713], [-95.970155, 36.160829], [-95.970259, 36.160832], [-95.970264, 36.160715]]]}, "properties": {"osm_id": 1041875748, "building": "yes", "name": "", "height": null, "height_m": null, "levels": null, "tract_id": "40143001200", "tract_name": "12", "tags": {"building": "yes", "source": "microsoft/BuildingFootprints"}}}, {"type": "Feature", "geometry": {"type": "Polygon", "coordinates": [[[-95.9706913, 36.1606804], [-95.970691, 36.1606996], [-95.9706697, 36.1606994], [-95.9706684, 36.1608069], [-95.9707824, 36.1608078], [-95.9707837, 36.1606989], [-95.9707668, 36.1606987], [-95.970767, 36.160681], [-95.9706913, 36.1606804]]]}, "properties": {"osm_id": 1041875749, "building": "yes", "name": "", "height": null, "height_m": null, "levels": null, "tract_id": "40143001200", "tract_name": "12", "tags": {"building": "yes", "source": "microsoft/BuildingFootprints"}}}, {"type": "Feature", "geometry": {"type": "Polygon", "coordinates": [[[-95.9682691, 36.1626751], [-95.9682659, 36.1627801], [-95.9683619, 36.1627819], [-95.9683651, 36.1626769], [-95.9682691, 36.1626751]]]}, "properties": {"osm_id": 1041875750, "building": "yes", "name": "", "height": null, "height_m": null, "levels": null, "tract_id": "40143001200", "tract_name": "12", "tags": {"addr:city": "Tulsa", "addr:country": "US", "addr:housenumber": "1623", "addr:postcode": "74120", "addr:state": "OK", "addr:street": "East Archer Street North", "building": "yes"}}}, {"type": "Feature", "geometry": {"type": "Polygon", "coordinates": [[[-95.9713245, 36.1600954], [-95.9714823, 36.1600955], [-95.9714825, 36.1597412], [-95.9713118, 36.1597411], [-95.9713116, 36.1600459], [-95.9713245, 36.160046], [-95.9713245, 36.1600954]]]}, "properties": {"osm_id": 1041875751, "building": "yes", "name": "", "height": null, "height_m": null, "levels": null, "tract_id": "40143001200", "tract_name": "12", "tags": {"building": "yes", "shop": "vacant", "source": "microsoft/BuildingFootprints"}}}, {"type": "Feature", "geometry": {"type": "Polygon", "coordinates": [[[-95.971334, 36.160706], [-95.971333, 36.160771], [-95.971386, 36.160772], [-95.971388, 36.160707], [-95.971334, 36.160706]]]}, "properties": {"osm_id": 1041875752, "building": "yes", "name": "", "height": null, "height_m": null, "levels": null, "tract_id": "40143001200", "tract_name": "12", "tags": {"building": "yes", "source": "microsoft/BuildingFootprints"}}}, {"type": "Feature", "geometry": {"type": "Polygon", "coordinates": [[[-95.9698814, 36.1626834], [-95.9695487, 36.1626832], [-95.9695486, 36.1628926], [-95.9698812, 36.1628928], [-95.9698814, 36.1626834]]]}, "properties": {"osm_id": 1041875753, "building": "yes", "name": "", "height": null, "height_m": null, "levels": null, "tract_id": "40143001200", "tract_name": "12", "tags": {"building": "yes", "source": "microsoft/BuildingFootprints"}}}, {"type": "Feature", "geometry": {"type": "Polygon", "coordinates": [[[-95.967667, 36.162832], [-95.967713, 36.162833], [-95.967716, 36.162766], [-95.96767, 36.162765], [-95.967667, 36.162832]]]}, "properties": {"osm_id": 1041875754, "building": "yes", "name": "", "height": null, "height_m": null, "levels": null, "tract_id": "40143001200", "tract_name": "12", "tags": {"building": "yes", "source": "microsoft/BuildingFootprints"}}}, {"type": "Feature", "geometry": {"type": "Polygon", "coordinates": [[[-95.9710358, 36.1597928], [-95.971035, 36.1599283], [-95.9711457, 36.1599287], [-95.9711465, 36.1597932], [-95.9710358, 36.1597928]]]}, "properties": {"osm_id": 1041875755, "building": "yes", "name": "", "height": null, "height_m": null, "levels": null, "tract_id": "40143001200", "tract_name": "12", "tags": {"building": "yes", "shop": "vacant", "source": "microsoft/BuildingFootprints"}}}, {"type": "Feature", "geometry": {"type": "Polygon", "coordinates": [[[-95.9688771, 36.1603124], [-95.968767, 36.1603121], [-95.968767, 36.1604292], [-95.968877, 36.1604285], [-95.9688771, 36.1603124]]]}, "properties": {"osm_id": 1041875756, "building": "yes", "name": "", "height": null, "height_m": null, "levels": null, "tract_id": "40143001200", "tract_name": "12", "tags": {"building": "yes", "source": "microsoft/BuildingFootprints"}}}, {"type": "Feature", "geometry": {"type": "Polygon", "coordinates": [[[-95.971342, 36.160784], [-95.971347, 36.160992], [-95.971486, 36.16099], [-95.971482, 36.160782], [-95.971342, 36.160784]]]}, "properties": {"osm_id": 1041875757, "building": "yes", "name": "", "height": null, "height_m": null, "levels": null, "tract_id": "40143001200", "tract_name": "12", "tags": {"building": "yes", "source": "microsoft/BuildingFootprints"}}}, {"type": "Feature", "geometry": {"type": "Polygon", "coordinates": [[[-95.970318, 36.160704], [-95.97032, 36.16083], [-95.970423, 36.160829], [-95.9704224, 36.1607584], [-95.9704077, 36.1607585], [-95.9704074, 36.1607232], [-95.9703962, 36.1607233], [-95.970396, 36.1607031], [-95.970318, 36.160704]]]}, "properties": {"osm_id": 1041875758, "building": "yes", "name": "", "height": null, "height_m": null, "levels": null, "tract_id": "40143001200", "tract_name": "12", "tags": {"building": "yes", "source": "microsoft/BuildingFootprints"}}}, {"type": "Feature", "geometry": {"type": "Polygon", "coordinates": [[[-95.9683389, 36.160247], [-95.9683962, 36.1602469], [-95.9683962, 36.1601959], [-95.9683388, 36.1601959], [-95.9683389, 36.160247]]]}, "properties": {"osm_id": 1041875759, "building": "yes", "name": "", "height": null, "height_m": null, "levels": null, "tract_id": "40143001200", "tract_name": "12", "tags": {"building": "yes", "source": "microsoft/BuildingFootprints"}}}, {"type": "Feature", "geometry": {"type": "Polygon", "coordinates": [[[-95.9703551, 36.160308], [-95.9703543, 36.1603477], [-95.9703329, 36.1603475], [-95.9703301, 36.1604858], [-95.9704362, 36.1604872], [-95.9704398, 36.1603091], [-95.9703551, 36.160308]]]}, "properties": {"osm_id": 1041875760, "building": "yes", "name": "", "height": null, "height_m": null, "levels": null, "tract_id": "40143001200", "tract_name": "12", "tags": {"building": "yes", "source": "microsoft/BuildingFootprints"}}}, {"type": "Feature", "geometry": {"type": "Polygon", "coordinates": [[[-95.969043, 36.160303], [-95.968928, 36.160301], [-95.968925, 36.160453], [-95.96904, 36.160454], [-95.969043, 36.160303]]]}, "properties": {"osm_id": 1041875761, "building": "yes", "name": "", "height": null, "height_m": null, "levels": null, "tract_id": "40143001200", "tract_name": "12", "tags": {"building": "yes", "source": "microsoft/BuildingFootprints"}}}, {"type": "Feature", "geometry": {"type": "Polygon", "coordinates": [[[-95.967665, 36.162777], [-95.967662, 36.162643], [-95.967568, 36.162645], [-95.96757, 36.16273], [-95.96755, 36.16273], [-95.967551, 36.162779], [-95.967665, 36.162777]]]}, "properties": {"osm_id": 1041875762, "building": "detached", "name": "", "height": null, "height_m": 3.0, "levels": 1, "tract_id": "40143001200", "tract_name": "12", "tags": {"addr:city": "Tulsa", "addr:country": "US", "addr:housenumber": "1639", "addr:postcode": "74120", "addr:state": "OK", "addr:street": "East Archer Street North", "building": "detached", "building:levels": "1", "roof:levels": "0", "roof:shape": "gabled"}}}, {"type": "Feature", "geometry": {"type": "Polygon", "coordinates": [[[-95.968044, 36.1608795], [-95.9679616, 36.1608815], [-95.9679641, 36.1609456], [-95.9680464, 36.1609435], [-95.968044, 36.1608795]]]}, "properties": {"osm_id": 1041875763, "building": "yes", "name": "", "height": null, "height_m": null, "levels": null, "tract_id": "40143001200", "tract_name": "12", "tags": {"building": "yes", "source": "microsoft/BuildingFootprints"}}}, {"type": "Feature", "geometry": {"type": "Polygon", "coordinates": [[[-95.9683088, 36.1608026], [-95.9683096, 36.1607176], [-95.9681944, 36.1607169], [-95.9681946, 36.1606908], [-95.9681026, 36.1606902], [-95.9681024, 36.1607113], [-95.968093, 36.1607113], [-95.9680918, 36.1608367], [-95.9681891, 36.1608374], [-95.9681895, 36.1608019], [-95.9683088, 36.1608026]]]}, "properties": {"osm_id": 1041875764, "building": "yes", "name": "", "height": null, "height_m": null, "levels": null, "tract_id": "40143001200", "tract_name": "12", "tags": {"building": "yes", "source": "microsoft/BuildingFootprints"}}}, {"type": "Feature", "geometry": {"type": "Polygon", "coordinates": [[[-95.967434, 36.162653], [-95.967436, 36.162799], [-95.967541, 36.162798], [-95.967539, 36.162652], [-95.967434, 36.162653]]]}, "properties": {"osm_id": 1041875765, "building": "detached", "name": "", "height": null, "height_m": 3.0, "levels": 1, "tract_id": "40143001200", "tract_name": "12", "tags": {"addr:city": "Tulsa", "addr:country": "US", "addr:housenumber": "1641", "addr:postcode": "74120", "addr:state": "OK", "addr:street": "East Archer Street North", "building": "detached", "building:levels": "1", "roof:levels": "0", "roof:shape": "gabled"}}}, {"type": "Feature", "geometry": {"type": "Polygon", "coordinates": [[[-95.9682037, 36.1627635], [-95.9682043, 36.1626649], [-95.9681943, 36.1626648], [-95.9681944, 36.1626493], [-95.9680993, 36.1626495], [-95.9680997, 36.1627819], [-95.9681733, 36.1627818], [-95.9681732, 36.1627635], [-95.9682037, 36.1627635]]]}, "properties": {"osm_id": 1041875766, "building": "yes", "name": "", "height": null, "height_m": null, "levels": null, "tract_id": "40143001200", "tract_name": "12", "tags": {"addr:city": "Tulsa", "addr:country": "US", "addr:housenumber": "1627", "addr:postcode": "74120", "addr:state": "OK", "addr:street": "East Archer Street North", "building": "yes"}}}, {"type": "Feature", "geometry": {"type": "Polygon", "coordinates": [[[-95.9705041, 36.1606811], [-95.9704999, 36.1608151], [-95.9705672, 36.1608164], [-95.9705682, 36.1607817], [-95.970592, 36.1607822], [-95.9705951, 36.1606829], [-95.9705041, 36.1606811]]]}, "properties": {"osm_id": 1041875767, "building": "yes", "name": "", "height": null, "height_m": null, "levels": null, "tract_id": "40143001200", "tract_name": "12", "tags": {"building": "yes", "source": "microsoft/BuildingFootprints"}}}, {"type": "Feature", "geometry": {"type": "Polygon", "coordinates": [[[-95.9683842, 36.1603266], [-95.9683724, 36.1603267], [-95.9683722, 36.1603046], [-95.9682643, 36.1603051], [-95.9682644, 36.1603272], [-95.9682522, 36.1603272], [-95.968253, 36.1604256], [-95.9682664, 36.1604254], [-95.9682668, 36.1604468], [-95.9683647, 36.1604456], [-95.9683643, 36.1604243], [-95.968385, 36.160424], [-95.9683842, 36.1603266]]]}, "properties": {"osm_id": 1041875768, "building": "yes", "name": "", "height": null, "height_m": null, "levels": null, "tract_id": "40143001200", "tract_name": "12", "tags": {"building": "yes", "source": "microsoft/BuildingFootprints"}}}, {"type": "Feature", "geometry": {"type": "Polygon", "coordinates": [[[-95.9679277, 36.1608256], [-95.9680187, 36.1608249], [-95.9680187, 36.1607987], [-95.9680237, 36.1607987], [-95.9680236, 36.1607114], [-95.9680185, 36.1607114], [-95.9680186, 36.1606912], [-95.9679359, 36.160691], [-95.9679358, 36.1607112], [-95.9679275, 36.1607111], [-95.9679277, 36.1608256]]]}, "properties": {"osm_id": 1041875769, "building": "yes", "name": "", "height": null, "height_m": null, "levels": null, "tract_id": "40143001200", "tract_name": "12", "tags": {"building": "yes", "source": "microsoft/BuildingFootprints"}}}, {"type": "Feature", "geometry": {"type": "Polygon", "coordinates": [[[-95.9711158, 36.1603521], [-95.9711122, 36.1603521], [-95.9711124, 36.1603145], [-95.9710265, 36.1603143], [-95.9710264, 36.1603519], [-95.9710094, 36.1603519], [-95.971009, 36.1604795], [-95.9711012, 36.1604797], [-95.9711012, 36.1604625], [-95.9711155, 36.1604626], [-95.9711158, 36.1603521]]]}, "properties": {"osm_id": 1041875770, "building": "yes", "name": "", "height": null, "height_m": null, "levels": null, "tract_id": "40143001200", "tract_name": "12", "tags": {"building": "yes", "source": "microsoft/BuildingFootprints"}}}, {"type": "Feature", "geometry": {"type": "Polygon", "coordinates": [[[-95.969458, 36.160886], [-95.969457, 36.160971], [-95.969612, 36.160973], [-95.969614, 36.160888], [-95.969458, 36.160886]]]}, "properties": {"osm_id": 1041875771, "building": "yes", "name": "El Rio Verde", "height": null, "height_m": null, "levels": null, "tract_id": "40143001200", "tract_name": "12", "tags": {"addr:city": "Tulsa", "addr:housenumber": "38", "addr:state": "OK", "addr:street": "North Trenton Avenue", "amenity": "restaurant", "building": "yes", "check_date": "2025-07-31", "cuisine": "mexican", "name": "El Rio Verde", "opening_hours": "Mo-Su 08:30-21:00", "phone": "+1-918-592-2555", "source": "microsoft/BuildingFootprints"}}}, {"type": "Feature", "geometry": {"type": "Polygon", "coordinates": [[[-95.9673016, 36.1623654], [-95.9673015, 36.1623725], [-95.9672745, 36.1623721], [-95.9672732, 36.1624317], [-95.9673002, 36.1624321], [-95.9673, 36.1624415], [-95.9674025, 36.162442], [-95.9674024, 36.1624516], [-95.9674483, 36.1624518], [-95.967449, 36.162366], [-95.9673016, 36.1623654]]]}, "properties": {"osm_id": 1041875773, "building": "detached", "name": "", "height": null, "height_m": 3.0, "levels": 1, "tract_id": "40143001200", "tract_name": "12", "tags": {"addr:city": "Tulsa", "addr:country": "US", "addr:housenumber": "72", "addr:postcode": "74110", "addr:state": "OK", "addr:street": "North Utica Avenue East", "building": "detached", "building:colour": "beige", "building:levels": "1", "roof:colour": "brown", "roof:levels": "0", "roof:shape": "gabled"}}}, {"type": "Feature", "geometry": {"type": "Polygon", "coordinates": [[[-95.9704008, 36.1609015], [-95.9703505, 36.1609005], [-95.9703509, 36.1608881], [-95.9702991, 36.1608871], [-95.9702988, 36.1608995], [-95.970296, 36.16098], [-95.970398, 36.160982], [-95.9704008, 36.1609015]]]}, "properties": {"osm_id": 1041875774, "building": "yes", "name": "", "height": null, "height_m": null, "levels": null, "tract_id": "40143001200", "tract_name": "12", "tags": {"building": "yes", "source": "microsoft/BuildingFootprints"}}}, {"type": "Feature", "geometry": {"type": "Polygon", "coordinates": [[[-95.967664, 36.162973], [-95.9676622, 36.1628645], [-95.9675732, 36.1628665], [-95.967576, 36.162974], [-95.967664, 36.162973]]]}, "properties": {"osm_id": 1041875775, "building": "yes", "name": "", "height": null, "height_m": null, "levels": null, "tract_id": "40143001200", "tract_name": "12", "tags": {"building": "yes"}}}, {"type": "Feature", "geometry": {"type": "Polygon", "coordinates": [[[-95.9672656, 36.1609511], [-95.9673861, 36.1609479], [-95.9673839, 36.1608959], [-95.9672634, 36.1608991], [-95.9672656, 36.1609511]]]}, "properties": {"osm_id": 1041875776, "building": "garage", "name": "", "height": null, "height_m": null, "levels": null, "tract_id": "40143001200", "tract_name": "12", "tags": {"building": "garage", "building:colour": "white", "source": "microsoft/BuildingFootprints"}}}, {"type": "Feature", "geometry": {"type": "Polygon", "coordinates": [[[-95.97172, 36.1602598], [-95.9718939, 36.1602611], [-95.9718941, 36.1602517], [-95.9719126, 36.1602518], [-95.9719134, 36.1601885], [-95.9718948, 36.1601883], [-95.971895, 36.1601782], [-95.971721, 36.1601768], [-95.97172, 36.1602598]]]}, "properties": {"osm_id": 1041875777, "building": "yes", "name": "", "height": null, "height_m": null, "levels": null, "tract_id": "40143001200", "tract_name": "12", "tags": {"building": "yes", "source": "microsoft/BuildingFootprints"}}}, {"type": "Feature", "geometry": {"type": "Polygon", "coordinates": [[[-95.9683153, 36.1629581], [-95.9683919, 36.1629578], [-95.9683915, 36.1628818], [-95.968315, 36.162882], [-95.9683153, 36.1629581]]]}, "properties": {"osm_id": 1041875778, "building": "yes", "name": "", "height": null, "height_m": null, "levels": null, "tract_id": "40143001200", "tract_name": "12", "tags": {"building": "yes", "source": "microsoft/BuildingFootprints"}}}, {"type": "Feature", "geometry": {"type": "Polygon", "coordinates": [[[-95.9717437, 36.1604191], [-95.9717417, 36.1604975], [-95.971911, 36.1605004], [-95.971913, 36.160422], [-95.9717437, 36.1604191]]]}, "properties": {"osm_id": 1041875779, "building": "yes", "name": "", "height": null, "height_m": null, "levels": null, "tract_id": "40143001200", "tract_name": "12", "tags": {"building": "yes", "source": "microsoft/BuildingFootprints"}}}, {"type": "Feature", "geometry": {"type": "Polygon", "coordinates": [[[-95.9690459, 36.1607157], [-95.9690382, 36.1607157], [-95.9690385, 36.1606915], [-95.96895, 36.1606909], [-95.9689497, 36.160715], [-95.9689336, 36.1607149], [-95.9689323, 36.1608361], [-95.9690446, 36.1608369], [-95.9690459, 36.1607157]]]}, "properties": {"osm_id": 1041875780, "building": "yes", "name": "", "height": null, "height_m": null, "levels": null, "tract_id": "40143001200", "tract_name": "12", "tags": {"building": "yes", "source": "microsoft/BuildingFootprints"}}}, {"type": "Feature", "geometry": {"type": "Polygon", "coordinates": [[[-95.9677694, 36.1607118], [-95.967769, 36.160807], [-95.9678252, 36.1608071], [-95.9678251, 36.1608288], [-95.9678915, 36.1608289], [-95.967892, 36.1606979], [-95.9678387, 36.1606977], [-95.9678386, 36.160712], [-95.9677694, 36.1607118]]]}, "properties": {"osm_id": 1041875781, "building": "yes", "name": "", "height": null, "height_m": null, "levels": null, "tract_id": "40143001200", "tract_name": "12", "tags": {"building": "yes", "source": "microsoft/BuildingFootprints"}}}, {"type": "Feature", "geometry": {"type": "Polygon", "coordinates": [[[-95.9708386, 36.160825], [-95.9708667, 36.1608249], [-95.9708668, 36.1608465], [-95.9709607, 36.1608461], [-95.9709609, 36.1606961], [-95.9709473, 36.1606961], [-95.9709473, 36.1606771], [-95.9708389, 36.1606776], [-95.9708386, 36.160825]]]}, "properties": {"osm_id": 1041875782, "building": "yes", "name": "", "height": null, "height_m": null, "levels": null, "tract_id": "40143001200", "tract_name": "12", "tags": {"building": "yes", "source": "microsoft/BuildingFootprints"}}}, {"type": "Feature", "geometry": {"type": "Polygon", "coordinates": [[[-95.9672419, 36.1608239], [-95.9672532, 36.160824], [-95.967253, 36.1608416], [-95.9673455, 36.1608425], [-95.9673457, 36.1608249], [-95.967356, 36.160825], [-95.9673578, 36.1607065], [-95.9673448, 36.1607063], [-95.967345, 36.1606872], [-95.9672559, 36.1606863], [-95.9672556, 36.1607055], [-95.9672437, 36.1607053], [-95.9672419, 36.1608239]]]}, "properties": {"osm_id": 1041875783, "building": "detached", "name": "", "height": null, "height_m": 3.0, "levels": 1, "tract_id": "40143001200", "tract_name": "12", "tags": {"addr:housenumber": "1947", "addr:street": "East Admiral Place North", "building": "detached", "building:colour": "beige", "building:levels": "1", "roof:colour": "brown", "roof:levels": "0", "roof:shape": "gabled", "source": "microsoft/BuildingFootprints"}}}, {"type": "Feature", "geometry": {"type": "Polygon", "coordinates": [[[-95.9678584, 36.1629056], [-95.9677534, 36.1629042], [-95.9677519, 36.1629812], [-95.9678569, 36.1629826], [-95.9678584, 36.1629056]]]}, "properties": {"osm_id": 1041875784, "building": "yes", "name": "", "height": null, "height_m": null, "levels": null, "tract_id": "40143001200", "tract_name": "12", "tags": {"addr:city": "Tulsa", "addr:country": "US", "addr:housenumber": "1635", "addr:postcode": "74120", "addr:state": "OK", "addr:street": "East Archer Street North", "building": "yes"}}}, {"type": "Feature", "geometry": {"type": "Polygon", "coordinates": [[[-95.9674965, 36.1624267], [-95.9675786, 36.1624263], [-95.9675785, 36.1623673], [-95.9674964, 36.1623667], [-95.9674965, 36.1624267]]]}, "properties": {"osm_id": 1041875785, "building": "garage", "name": "", "height": null, "height_m": null, "levels": null, "tract_id": "40143001200", "tract_name": "12", "tags": {"building": "garage", "source": "microsoft/BuildingFootprints"}}}, {"type": "Feature", "geometry": {"type": "Polygon", "coordinates": [[[-95.9707991, 36.1609151], [-95.9707011, 36.1609129], [-95.9706989, 36.1609764], [-95.9707969, 36.1609786], [-95.9707991, 36.1609151]]]}, "properties": {"osm_id": 1041875786, "building": "yes", "name": "", "height": null, "height_m": null, "levels": null, "tract_id": "40143001200", "tract_name": "12", "tags": {"building": "yes", "source": "microsoft/BuildingFootprints"}}}, {"type": "Feature", "geometry": {"type": "Polygon", "coordinates": [[[-95.9674221, 36.1608474], [-95.967517, 36.1608475], [-95.967517, 36.1608274], [-95.9675214, 36.1608274], [-95.9675215, 36.1607105], [-95.9675171, 36.1607105], [-95.9675171, 36.160686], [-95.9674223, 36.160686], [-95.9674222, 36.1607097], [-95.9674169, 36.1607097], [-95.9674168, 36.1608269], [-95.9674222, 36.1608269], [-95.9674221, 36.1608474]]]}, "properties": {"osm_id": 1041875788, "building": "detached", "name": "", "height": null, "height_m": 3.0, "levels": 1, "tract_id": "40143001200", "tract_name": "12", "tags": {"building": "detached", "building:levels": "1", "roof:levels": "0", "roof:shape": "gabled", "source": "microsoft/BuildingFootprints"}}}, {"type": "Feature", "geometry": {"type": "Polygon", "coordinates": [[[-95.96723, 36.162846], [-95.967364, 36.162844], [-95.967361, 36.162708], [-95.967227, 36.16271], [-95.96723, 36.162846]]]}, "properties": {"osm_id": 1041875914, "building": "construction", "name": "", "height": null, "height_m": 6.0, "levels": 2, "tract_id": "40143001200", "tract_name": "12", "tags": {"addr:city": "Tulsa", "addr:country": "US", "addr:housename": "Forstoria", "addr:housenumber": "112", "addr:postcode": "74120", "addr:state": "OK", "addr:street": "North Utica Avenue East", "building": "construction", "building:levels": "2", "check_date": "2025-06-10", "construction": "apartments", "roof:levels": "0", "roof:shape": "flat"}}}, {"type": "Feature", "geometry": {"type": "Polygon", "coordinates": [[[-95.968721, 36.160329], [-95.968622, 36.160327], [-95.968619, 36.160424], [-95.968718, 36.160426], [-95.968721, 36.160329]]]}, "properties": {"osm_id": 1041875915, "building": "yes", "name": "", "height": null, "height_m": null, "levels": null, "tract_id": "40143001200", "tract_name": "12", "tags": {"building": "yes", "source": "microsoft/BuildingFootprints"}}}, {"type": "Feature", "geometry": {"type": "Polygon", "coordinates": [[[-95.9684014, 36.1609654], [-95.9684954, 36.1609652], [-95.9684952, 36.1609131], [-95.9684012, 36.1609133], [-95.9684014, 36.1609654]]]}, "properties": {"osm_id": 1041875916, "building": "yes", "name": "", "height": null, "height_m": null, "levels": null, "tract_id": "40143001200", "tract_name": "12", "tags": {"building": "yes", "source": "microsoft/BuildingFootprints"}}}, {"type": "Feature", "geometry": {"type": "Polygon", "coordinates": [[[-95.971683, 36.1597363], [-95.971679, 36.1598686], [-95.9717768, 36.1598705], [-95.9717768, 36.1598718], [-95.9717766, 36.1598791], [-95.9718447, 36.1598805], [-95.9718491, 36.1597397], [-95.971683, 36.1597363]]]}, "properties": {"osm_id": 1041875917, "building": "yes", "name": "Bill Shea's Appliance", "height": null, "height_m": null, "levels": null, "tract_id": "40143001200", "tract_name": "12", "tags": {"addr:city": "Tulsa", "addr:country": "US", "addr:housenumber": "1441", "addr:postcode": "74120", "addr:state": "OK", "addr:street": "East Admiral Boulevard North", "building": "yes", "name": "Bill Shea's Appliance", "phone": "+1 918 587 8522", "shop": "appliance"}}}, {"type": "Feature", "geometry": {"type": "Polygon", "coordinates": [[[-95.9717417, 36.1603851], [-95.971892, 36.1603849], [-95.9718919, 36.1603765], [-95.9719145, 36.1603764], [-95.9719141, 36.1603125], [-95.9718915, 36.1603126], [-95.9718914, 36.1603011], [-95.9717412, 36.1603012], [-95.9717412, 36.1603066], [-95.9717194, 36.1603067], [-95.9717199, 36.1603779], [-95.9717417, 36.1603778], [-95.9717417, 36.1603851]]]}, "properties": {"osm_id": 1041875918, "building": "yes", "name": "", "height": null, "height_m": null, "levels": null, "tract_id": "40143001200", "tract_name": "12", "tags": {"building": "yes", "source": "microsoft/BuildingFootprints"}}}, {"type": "Feature", "geometry": {"type": "Polygon", "coordinates": [[[-95.967681, 36.1621832], [-95.9676797, 36.1620513], [-95.9676354, 36.1620516], [-95.967635, 36.1620093], [-95.9675611, 36.1620098], [-95.9675619, 36.1620901], [-95.9674435, 36.1620909], [-95.9674445, 36.1621848], [-95.967681, 36.1621832]]]}, "properties": {"osm_id": 1041875919, "building": "industrial", "name": "", "height": null, "height_m": null, "levels": null, "tract_id": "40143001200", "tract_name": "12", "tags": {"addr:city": "Tulsa", "addr:country": "US", "addr:housenumber": "64", "addr:postcode": "74110", "addr:state": "OK", "addr:street": "North Utica Avenue East", "building": "industrial", "name:signed": "no", "shop": "trade"}}}, {"type": "Feature", "geometry": {"type": "Polygon", "coordinates": [[[-95.9709966, 36.1600801], [-95.9709949, 36.1599312], [-95.9710944, 36.1599304], [-95.9710961, 36.1600793], [-95.9709966, 36.1600801]]]}, "properties": {"osm_id": 1044086364, "building": "yes", "name": "", "height": null, "height_m": null, "levels": null, "tract_id": "40143001200", "tract_name": "12", "tags": {"building": "yes"}}}, {"type": "Feature", "geometry": {"type": "Polygon", "coordinates": [[[-95.9709875, 36.1602113], [-95.9709872, 36.1601772], [-95.971014, 36.1601771], [-95.9710143, 36.1602112], [-95.9709875, 36.1602113]]]}, "properties": {"osm_id": 1044086365, "building": "yes", "name": "", "height": null, "height_m": null, "levels": null, "tract_id": "40143001200", "tract_name": "12", "tags": {"building": "yes"}}}, {"type": "Feature", "geometry": {"type": "Polygon", "coordinates": [[[-95.9709734, 36.1602476], [-95.9709457, 36.1602481], [-95.970945, 36.160221], [-95.9709728, 36.1602205], [-95.9709734, 36.1602476]]]}, "properties": {"osm_id": 1044086366, "building": "yes", "name": "", "height": null, "height_m": null, "levels": null, "tract_id": "40143001200", "tract_name": "12", "tags": {"building": "yes"}}}, {"type": "Feature", "geometry": {"type": "Polygon", "coordinates": [[[-95.9728691, 36.160105], [-95.9727139, 36.1601041], [-95.9727144, 36.1600378], [-95.9728696, 36.1600386], [-95.9728691, 36.160105]]]}, "properties": {"osm_id": 1091903798, "building": "yes", "name": "", "height": null, "height_m": null, "levels": null, "tract_id": "40143001200", "tract_name": "12", "tags": {"building": "yes"}}}, {"type": "Feature", "geometry": {"type": "Polygon", "coordinates": [[[-95.9726733, 36.1599063], [-95.9725442, 36.1599055], [-95.9725447, 36.1598401], [-95.9725701, 36.1598402], [-95.9725707, 36.1597753], [-95.9726744, 36.1597758], [-95.9726733, 36.1599063]]]}, "properties": {"osm_id": 1091903799, "building": "yes", "name": "", "height": null, "height_m": null, "levels": null, "tract_id": "40143001200", "tract_name": "12", "tags": {"addr:city": "Tulsa", "addr:country": "US", "addr:housenumber": "1423", "addr:postcode": "74120", "addr:state": "OK", "addr:street": "East Admiral Boulevard North", "building": "yes"}}}, {"type": "Feature", "geometry": {"type": "Polygon", "coordinates": [[[-95.9718933, 36.1599742], [-95.9718569, 36.1599742], [-95.9718572, 36.1597912], [-95.9718947, 36.159792], [-95.9718933, 36.1599742]]]}, "properties": {"osm_id": 1091903800, "building": "yes", "name": "", "height": null, "height_m": null, "levels": null, "tract_id": "40143001200", "tract_name": "12", "tags": {"building": "yes"}}}, {"type": "Feature", "geometry": {"type": "Polygon", "coordinates": [[[-95.9685061, 36.1633507], [-95.9685059, 36.1633153], [-95.9687534, 36.1633144], [-95.9687529, 36.1632179], [-95.9688942, 36.1632174], [-95.9688934, 36.1630487], [-95.9685158, 36.1630501], [-95.9685159, 36.1630583], [-95.9684207, 36.1630587], [-95.9684206, 36.1630349], [-95.9676748, 36.1630372], [-95.967675, 36.1630916], [-95.9675744, 36.163092], [-95.9675754, 36.163299], [-95.9676942, 36.1632986], [-95.9676946, 36.1633879], [-95.9677343, 36.1633877], [-95.9677345, 36.1634229], [-95.9679072, 36.1634223], [-95.9679068, 36.1633443], [-95.9679221, 36.1633443], [-95.9679221, 36.1633538], [-95.9679337, 36.1633538], [-95.967934, 36.1634228], [-95.9680614, 36.1634224], [-95.9680611, 36.1633521], [-95.9685061, 36.1633507]]]}, "properties": {"osm_id": 1091903804, "building": "industrial", "name": "Specialty Bakery of Tulsa", "height": null, "height_m": null, "levels": null, "tract_id": "40143001200", "tract_name": "12", "tags": {"building": "industrial", "man_made": "works", "name": "Specialty Bakery of Tulsa", "phone": "+1 918 585 2867"}}}, {"type": "Feature", "geometry": {"type": "Polygon", "coordinates": [[[-95.9718932, 36.1599786], [-95.9719952, 36.1599791], [-95.9719968, 36.1597702], [-95.9718948, 36.1597697], [-95.9718947, 36.159792], [-95.9718933, 36.1599742], [-95.9718932, 36.1599786]]]}, "properties": {"osm_id": 1091903805, "building": "yes", "name": "", "height": null, "height_m": null, "levels": null, "tract_id": "40143001200", "tract_name": "12", "tags": {"addr:city": "Tulsa", "addr:country": "US", "addr:housenumber": "1439", "addr:postcode": "74120", "addr:state": "OK", "addr:street": "East Admiral Boulevard North", "building": "yes"}}}, {"type": "Feature", "geometry": {"type": "Polygon", "coordinates": [[[-95.9725914, 36.1600496], [-95.9726332, 36.1600498], [-95.9726331, 36.1600605], [-95.9726759, 36.1600608], [-95.9726765, 36.1599931], [-95.9725919, 36.1599926], [-95.9725914, 36.1600496]]]}, "properties": {"osm_id": 1091903806, "building": "yes", "name": "", "height": null, "height_m": null, "levels": null, "tract_id": "40143001200", "tract_name": "12", "tags": {"building": "yes", "source": "microsoft/BuildingFootprints"}}}, {"type": "Feature", "geometry": {"type": "Polygon", "coordinates": [[[-95.9729131, 36.159908], [-95.9730091, 36.1599089], [-95.9730109, 36.1597769], [-95.9729149, 36.159776], [-95.9729131, 36.159908]]]}, "properties": {"osm_id": 1091903807, "building": "yes", "name": "", "height": null, "height_m": null, "levels": null, "tract_id": "40143001200", "tract_name": "12", "tags": {"addr:city": "Tulsa", "addr:country": "US", "addr:housenumber": "1415", "addr:postcode": "74120", "addr:state": "OK", "addr:street": "East Admiral Boulevard North", "building": "yes", "shop": "vacant"}}}, {"type": "Feature", "geometry": {"type": "Polygon", "coordinates": [[[-95.9721938, 36.1600683], [-95.9721953, 36.1597414], [-95.9720579, 36.1597409], [-95.9720579, 36.15975], [-95.9720572, 36.15991], [-95.9720774, 36.15991], [-95.9720772, 36.1599555], [-95.97206, 36.1599555], [-95.9720595, 36.1600678], [-95.9721938, 36.1600683]]]}, "properties": {"osm_id": 1091903808, "building": "yes", "name": "", "height": null, "height_m": null, "levels": null, "tract_id": "40143001200", "tract_name": "12", "tags": {"addr:city": "Tulsa", "addr:country": "US", "addr:housenumber": "1435", "addr:postcode": "74120", "addr:state": "OK", "addr:street": "East Admiral Boulevard North", "building": "yes", "shop": "yes"}}}, {"type": "Feature", "geometry": {"type": "Polygon", "coordinates": [[[-95.97274, 36.1599068], [-95.9728429, 36.1599081], [-95.9728451, 36.1597957], [-95.9728369, 36.1597956], [-95.9728379, 36.159748], [-95.9727504, 36.1597468], [-95.9727494, 36.1597945], [-95.9727422, 36.1597944], [-95.97274, 36.1599068]]]}, "properties": {"osm_id": 1091903811, "building": "yes", "name": "", "height": null, "height_m": null, "levels": null, "tract_id": "40143001200", "tract_name": "12", "tags": {"addr:city": "Tulsa", "addr:country": "US", "addr:housenumber": "1419", "addr:postcode": "74120", "addr:state": "OK", "addr:street": "East Admiral Boulevard North", "building": "yes"}}}, {"type": "Feature", "geometry": {"type": "Polygon", "coordinates": [[[-95.973372, 36.1609717], [-95.9733713, 36.1610213], [-95.973317, 36.1610208], [-95.9733169, 36.161031], [-95.973278, 36.1610306], [-95.9732788, 36.1609709], [-95.973372, 36.1609717]]]}, "properties": {"osm_id": 1093385972, "building": "yes", "name": "", "height": null, "height_m": null, "levels": null, "tract_id": "40143001200", "tract_name": "12", "tags": {"building": "yes"}}}, {"type": "Feature", "geometry": {"type": "Polygon", "coordinates": [[[-95.9731997, 36.1610123], [-95.9731701, 36.1610119], [-95.9731707, 36.1609816], [-95.9732004, 36.160982], [-95.9731997, 36.1610123]]]}, "properties": {"osm_id": 1093385973, "building": "yes", "name": "", "height": null, "height_m": null, "levels": null, "tract_id": "40143001200", "tract_name": "12", "tags": {"building": "yes"}}}, {"type": "Feature", "geometry": {"type": "Polygon", "coordinates": [[[-95.9728771, 36.1608835], [-95.972936, 36.1608833], [-95.9729362, 36.1609326], [-95.9728773, 36.1609327], [-95.9728771, 36.1608835]]]}, "properties": {"osm_id": 1093385974, "building": "yes", "name": "", "height": null, "height_m": null, "levels": null, "tract_id": "40143001200", "tract_name": "12", "tags": {"building": "yes"}}}, {"type": "Feature", "geometry": {"type": "Polygon", "coordinates": [[[-95.9728604, 36.1610107], [-95.972821, 36.1610112], [-95.9728203, 36.160976], [-95.9728597, 36.1609755], [-95.9728604, 36.1610107]]]}, "properties": {"osm_id": 1093385975, "building": "yes", "name": "", "height": null, "height_m": null, "levels": null, "tract_id": "40143001200", "tract_name": "12", "tags": {"building": "yes"}}}, {"type": "Feature", "geometry": {"type": "Polygon", "coordinates": [[[-95.9726458, 36.1609536], [-95.9726341, 36.160972], [-95.9726384, 36.1609834], [-95.9726146, 36.1609901], [-95.9726096, 36.1609777], [-95.9725875, 36.1609709], [-95.9725794, 36.1609501], [-95.9725901, 36.1609306], [-95.9726153, 36.160927], [-95.9726378, 36.1609365], [-95.9726458, 36.1609536]]]}, "properties": {"osm_id": 1093385976, "building": "yes", "name": "", "height": null, "height_m": null, "levels": null, "tract_id": "40143001200", "tract_name": "12", "tags": {"building": "yes"}}}, {"type": "Feature", "geometry": {"type": "Polygon", "coordinates": [[[-95.9723078, 36.1610058], [-95.972307, 36.1609599], [-95.9723493, 36.1609594], [-95.9723502, 36.1610053], [-95.9723078, 36.1610058]]]}, "properties": {"osm_id": 1093385977, "building": "yes", "name": "", "height": null, "height_m": null, "levels": null, "tract_id": "40143001200", "tract_name": "12", "tags": {"building": "yes"}}}, {"type": "Feature", "geometry": {"type": "Polygon", "coordinates": [[[-95.9731548, 36.1602176], [-95.9731959, 36.1602174], [-95.9731963, 36.1602999], [-95.9731552, 36.1603], [-95.9731548, 36.1602176]]]}, "properties": {"osm_id": 1093385978, "building": "yes", "name": "", "height": null, "height_m": null, "levels": null, "tract_id": "40143001200", "tract_name": "12", "tags": {"building": "yes"}}}, {"type": "Feature", "geometry": {"type": "Polygon", "coordinates": [[[-95.973378, 36.1602852], [-95.9733099, 36.1602855], [-95.9733097, 36.1602284], [-95.9733778, 36.1602282], [-95.973378, 36.1602852]]]}, "properties": {"osm_id": 1093385979, "building": "yes", "name": "", "height": null, "height_m": null, "levels": null, "tract_id": "40143001200", "tract_name": "12", "tags": {"building": "yes"}}}, {"type": "Feature", "geometry": {"type": "Polygon", "coordinates": [[[-95.973134, 36.1603026], [-95.9731342, 36.1603527], [-95.9730783, 36.1603529], [-95.9730781, 36.1603027], [-95.973134, 36.1603026]]]}, "properties": {"osm_id": 1093385980, "building": "yes", "name": "", "height": null, "height_m": null, "levels": null, "tract_id": "40143001200", "tract_name": "12", "tags": {"building": "yes"}}}, {"type": "Feature", "geometry": {"type": "Polygon", "coordinates": [[[-95.9731762, 36.1603583], [-95.9731768, 36.1604847], [-95.9731661, 36.1604847], [-95.9731662, 36.160506], [-95.9730858, 36.1605062], [-95.9730857, 36.160485], [-95.9730756, 36.160485], [-95.973075, 36.1603586], [-95.9731762, 36.1603583]]]}, "properties": {"osm_id": 1093385981, "building": "yes", "name": "", "height": null, "height_m": null, "levels": null, "tract_id": "40143001200", "tract_name": "12", "tags": {"building": "yes"}}}, {"type": "Feature", "geometry": {"type": "Polygon", "coordinates": [[[-95.9723662, 36.1603702], [-95.9723655, 36.1603145], [-95.9724071, 36.1603141], [-95.9724078, 36.1603699], [-95.9723662, 36.1603702]]]}, "properties": {"osm_id": 1093385982, "building": "yes", "name": "", "height": null, "height_m": null, "levels": null, "tract_id": "40143001200", "tract_name": "12", "tags": {"building": "yes"}}}, {"type": "Feature", "geometry": {"type": "Polygon", "coordinates": [[[-95.9722032, 36.1602149], [-95.9722032, 36.1601705], [-95.9722448, 36.1601705], [-95.9722448, 36.1602149], [-95.9722032, 36.1602149]]]}, "properties": {"osm_id": 1093385983, "building": "yes", "name": "", "height": null, "height_m": null, "levels": null, "tract_id": "40143001200", "tract_name": "12", "tags": {"building": "yes"}}}, {"type": "Feature", "geometry": {"type": "Polygon", "coordinates": [[[-95.9721858, 36.1602111], [-95.9721576, 36.1602106], [-95.972159, 36.1601613], [-95.9721871, 36.1601618], [-95.9721858, 36.1602111]]]}, "properties": {"osm_id": 1093385984, "building": "yes", "name": "", "height": null, "height_m": null, "levels": null, "tract_id": "40143001200", "tract_name": "12", "tags": {"building": "yes"}}}, {"type": "Feature", "geometry": {"type": "Polygon", "coordinates": [[[-95.9720232, 36.1602736], [-95.9719823, 36.1602738], [-95.971982, 36.1602381], [-95.9720229, 36.1602379], [-95.9720232, 36.1602736]]]}, "properties": {"osm_id": 1093385985, "building": "yes", "name": "", "height": null, "height_m": null, "levels": null, "tract_id": "40143001200", "tract_name": "12", "tags": {"building": "yes"}}}, {"type": "Feature", "geometry": {"type": "Polygon", "coordinates": [[[-95.9720668, 36.160264], [-95.9720647, 36.1602838], [-95.9720337, 36.1602817], [-95.9720357, 36.1602619], [-95.9720668, 36.160264]]]}, "properties": {"osm_id": 1093385986, "building": "yes", "name": "", "height": null, "height_m": null, "levels": null, "tract_id": "40143001200", "tract_name": "12", "tags": {"building": "yes"}}}, {"type": "Feature", "geometry": {"type": "Polygon", "coordinates": [[[-95.9725588, 36.1603982], [-95.9725594, 36.1604748], [-95.9725768, 36.1604747], [-95.972577, 36.1605041], [-95.9726828, 36.1605035], [-95.9726818, 36.160382], [-95.9726443, 36.1603822], [-95.9726445, 36.1603977], [-95.9725588, 36.1603982]]]}, "properties": {"osm_id": 1093385987, "building": "yes", "name": "", "height": null, "height_m": null, "levels": null, "tract_id": "40143001200", "tract_name": "12", "tags": {"building": "yes", "source": "microsoft/BuildingFootprints"}}}, {"type": "Feature", "geometry": {"type": "Polygon", "coordinates": [[[-95.9731368, 36.1609476], [-95.9730508, 36.160948], [-95.9730512, 36.1610127], [-95.9731372, 36.1610123], [-95.9731368, 36.1609476]]]}, "properties": {"osm_id": 1093385988, "building": "yes", "name": "", "height": null, "height_m": null, "levels": null, "tract_id": "40143001200", "tract_name": "12", "tags": {"building": "yes", "source": "microsoft/BuildingFootprints"}}}, {"type": "Feature", "geometry": {"type": "Polygon", "coordinates": [[[-95.9733488, 36.1603442], [-95.9732956, 36.1603444], [-95.9732955, 36.1603279], [-95.9732262, 36.1603281], [-95.9732266, 36.1604114], [-95.9732409, 36.1604114], [-95.9732414, 36.1605081], [-95.9733496, 36.1605077], [-95.9733488, 36.1603442]]]}, "properties": {"osm_id": 1093385990, "building": "yes", "name": "", "height": null, "height_m": null, "levels": null, "tract_id": "40143001200", "tract_name": "12", "tags": {"building": "yes", "source": "microsoft/BuildingFootprints"}}}, {"type": "Feature", "geometry": {"type": "Polygon", "coordinates": [[[-95.9730752, 36.1607914], [-95.973117, 36.1607918], [-95.9731165, 36.1608162], [-95.9731754, 36.1608169], [-95.9731773, 36.160714], [-95.9731688, 36.1607139], [-95.9731691, 36.1606987], [-95.9730893, 36.1606978], [-95.973089, 36.160713], [-95.9730766, 36.1607128], [-95.9730752, 36.1607914]]]}, "properties": {"osm_id": 1093385993, "building": "yes", "name": "", "height": null, "height_m": null, "levels": null, "tract_id": "40143001200", "tract_name": "12", "tags": {"building": "yes", "source": "microsoft/BuildingFootprints"}}}, {"type": "Feature", "geometry": {"type": "Polygon", "coordinates": [[[-95.9721731, 36.1606885], [-95.972082, 36.1606885], [-95.9720819, 36.1608205], [-95.972173, 36.1608205], [-95.9721731, 36.1606885]]]}, "properties": {"osm_id": 1093385995, "building": "yes", "name": "", "height": null, "height_m": null, "levels": null, "tract_id": "40143001200", "tract_name": "12", "tags": {"building": "yes", "source": "microsoft/BuildingFootprints"}}}, {"type": "Feature", "geometry": {"type": "Polygon", "coordinates": [[[-95.9722291, 36.1602733], [-95.9722282, 36.1604798], [-95.9723472, 36.1604801], [-95.9723481, 36.1602736], [-95.9722291, 36.1602733]]]}, "properties": {"osm_id": 1093385997, "building": "yes", "name": "", "height": null, "height_m": null, "levels": null, "tract_id": "40143001200", "tract_name": "12", "tags": {"building": "yes", "source": "microsoft/BuildingFootprints"}}}, {"type": "Feature", "geometry": {"type": "Polygon", "coordinates": [[[-95.9725187, 36.1607065], [-95.972507, 36.1607065], [-95.972507, 36.1606894], [-95.9724279, 36.1606894], [-95.9724279, 36.1607066], [-95.9724166, 36.1607066], [-95.9724167, 36.1608069], [-95.9725187, 36.1608069], [-95.9725187, 36.1607065]]]}, "properties": {"osm_id": 1093385999, "building": "yes", "name": "", "height": null, "height_m": null, "levels": null, "tract_id": "40143001200", "tract_name": "12", "tags": {"building": "yes", "source": "microsoft/BuildingFootprints"}}}, {"type": "Feature", "geometry": {"type": "Polygon", "coordinates": [[[-95.9722178, 36.1608333], [-95.9723029, 36.1608318], [-95.9723002, 36.1606818], [-95.9722141, 36.1606831], [-95.9722178, 36.1608333]]]}, "properties": {"osm_id": 1093386001, "building": "yes", "name": "", "height": null, "height_m": null, "levels": null, "tract_id": "40143001200", "tract_name": "12", "tags": {"building": "yes", "source": "microsoft/BuildingFootprints"}}}, {"type": "Feature", "geometry": {"type": "Polygon", "coordinates": [[[-95.9729271, 36.1608405], [-95.973024, 36.1608403], [-95.9730245, 36.1607557], [-95.9730058, 36.1607556], [-95.973006, 36.1607161], [-95.9729885, 36.160716], [-95.9729886, 36.1607006], [-95.9729058, 36.1607001], [-95.9729054, 36.1607654], [-95.9729362, 36.1607656], [-95.9729361, 36.1607807], [-95.9729053, 36.1607806], [-95.9729052, 36.1608075], [-95.9729273, 36.1608077], [-95.9729271, 36.1608405]]]}, "properties": {"osm_id": 1093386004, "building": "yes", "name": "", "height": null, "height_m": null, "levels": null, "tract_id": "40143001200", "tract_name": "12", "tags": {"building": "yes", "source": "microsoft/BuildingFootprints"}}}, {"type": "Feature", "geometry": {"type": "Polygon", "coordinates": [[[-95.976147, 36.16016], [-95.976202, 36.160161], [-95.976204, 36.160053], [-95.976149, 36.160052], [-95.976147, 36.16016]]]}, "properties": {"osm_id": 1093386006, "building": "yes", "name": "", "height": null, "height_m": null, "levels": null, "tract_id": "40143001200", "tract_name": "12", "tags": {"building": "yes", "source": "microsoft/BuildingFootprints"}}}, {"type": "Feature", "geometry": {"type": "Polygon", "coordinates": [[[-95.9720795, 36.1603651], [-95.9720785, 36.1604712], [-95.9720866, 36.1604712], [-95.9720864, 36.1604893], [-95.9721702, 36.1604898], [-95.9721704, 36.1604717], [-95.9721805, 36.1604718], [-95.9721815, 36.1603658], [-95.9721583, 36.1603656], [-95.9721585, 36.1603418], [-95.9721116, 36.1603415], [-95.9721114, 36.1603653], [-95.9720795, 36.1603651]]]}, "properties": {"osm_id": 1093386008, "building": "yes", "name": "", "height": null, "height_m": null, "levels": null, "tract_id": "40143001200", "tract_name": "12", "tags": {"building": "yes", "source": "microsoft/BuildingFootprints"}}}, {"type": "Feature", "geometry": {"type": "Polygon", "coordinates": [[[-95.9734227, 36.1606921], [-95.9734232, 36.1608291], [-95.9734317, 36.1608291], [-95.9734318, 36.1608657], [-95.9735223, 36.1608655], [-95.9735222, 36.1608289], [-95.9735293, 36.1608289], [-95.9735288, 36.1606919], [-95.9734227, 36.1606921]]]}, "properties": {"osm_id": 1093386012, "building": "yes", "name": "", "height": null, "height_m": null, "levels": null, "tract_id": "40143001200", "tract_name": "12", "tags": {"building": "yes", "source": "microsoft/BuildingFootprints"}}}, {"type": "Feature", "geometry": {"type": "Polygon", "coordinates": [[[-95.97203, 36.160358], [-95.9720875, 36.1603589], [-95.9720892, 36.1602874], [-95.9720316, 36.1602865], [-95.97203, 36.160358]]]}, "properties": {"osm_id": 1093386013, "building": "yes", "name": "", "height": null, "height_m": null, "levels": null, "tract_id": "40143001200", "tract_name": "12", "tags": {"building": "yes", "source": "microsoft/BuildingFootprints"}}}, {"type": "Feature", "geometry": {"type": "Polygon", "coordinates": [[[-95.9728756, 36.1608126], [-95.9728778, 36.1607106], [-95.9728377, 36.16071], [-95.9728381, 36.1606923], [-95.972712, 36.1606905], [-95.9727089, 36.1608284], [-95.9727823, 36.1608294], [-95.9727827, 36.1608112], [-95.9728756, 36.1608126]]]}, "properties": {"osm_id": 1093386014, "building": "detached", "name": "", "height": null, "height_m": null, "levels": null, "tract_id": "40143001200", "tract_name": "12", "tags": {"building": "detached"}}}, {"type": "Feature", "geometry": {"type": "Polygon", "coordinates": [[[-95.9732452, 36.1607346], [-95.9732434, 36.1608622], [-95.9733395, 36.1608631], [-95.9733413, 36.1607355], [-95.9733338, 36.1607354], [-95.9733341, 36.1607137], [-95.9732536, 36.160713], [-95.9732533, 36.1607347], [-95.9732452, 36.1607346]]]}, "properties": {"osm_id": 1093386016, "building": "yes", "name": "", "height": null, "height_m": null, "levels": null, "tract_id": "40143001200", "tract_name": "12", "tags": {"building": "yes", "source": "microsoft/BuildingFootprints"}}}, {"type": "Feature", "geometry": {"type": "Polygon", "coordinates": [[[-95.9727426, 36.1603931], [-95.9727441, 36.1604873], [-95.9727591, 36.1604871], [-95.9727593, 36.1605021], [-95.9728257, 36.1605014], [-95.9728255, 36.1604865], [-95.9728394, 36.1604863], [-95.9728377, 36.1603727], [-95.9727833, 36.1603733], [-95.9727836, 36.1603927], [-95.9727426, 36.1603931]]]}, "properties": {"osm_id": 1093386019, "building": "yes", "name": "", "height": null, "height_m": null, "levels": null, "tract_id": "40143001200", "tract_name": "12", "tags": {"building": "yes", "source": "microsoft/BuildingFootprints"}}}, {"type": "Feature", "geometry": {"type": "Polygon", "coordinates": [[[-95.9724009, 36.1603812], [-95.9724002, 36.1604912], [-95.9724078, 36.1604913], [-95.9724077, 36.1605068], [-95.9724878, 36.1605071], [-95.9724879, 36.160492], [-95.9724974, 36.1604921], [-95.9724977, 36.1604517], [-95.9725172, 36.1604518], [-95.9725174, 36.1604068], [-95.9724601, 36.1604065], [-95.9724602, 36.1603814], [-95.9724009, 36.1603812]]]}, "properties": {"osm_id": 1093386020, "building": "yes", "name": "", "height": null, "height_m": null, "levels": null, "tract_id": "40143001200", "tract_name": "12", "tags": {"building": "yes", "source": "microsoft/BuildingFootprints"}}}, {"type": "Feature", "geometry": {"type": "Polygon", "coordinates": [[[-95.97658, 36.16028], [-95.9767, 36.160277], [-95.976698, 36.160218], [-95.976577, 36.160221], [-95.97658, 36.16028]]]}, "properties": {"osm_id": 1093386023, "building": "yes", "name": "", "height": null, "height_m": null, "levels": null, "tract_id": "40143001200", "tract_name": "12", "tags": {"building": "yes", "source": "microsoft/BuildingFootprints"}}}, {"type": "Feature", "geometry": {"type": "Polygon", "coordinates": [[[-95.979763, 36.161916], [-95.979856, 36.161916], [-95.979858, 36.161765], [-95.9797937, 36.1617641], [-95.9797933, 36.1617995], [-95.9797826, 36.1617995], [-95.979782, 36.161866], [-95.979763, 36.161866], [-95.979763, 36.161916]]]}, "properties": {"osm_id": 1093616560, "building": "yes", "name": "", "height": null, "height_m": null, "levels": null, "tract_id": "40143001200", "tract_name": "12", "tags": {"building": "yes", "source": "microsoft/BuildingFootprints"}}}, {"type": "Feature", "geometry": {"type": "Polygon", "coordinates": [[[-95.9783061, 36.1616415], [-95.9782553, 36.1616421], [-95.9782562, 36.1616893], [-95.9783069, 36.1616897], [-95.9783061, 36.1616415]]]}, "properties": {"osm_id": 1093616573, "building": "yes", "name": "", "height": null, "height_m": null, "levels": null, "tract_id": "40143001200", "tract_name": "12", "tags": {"building": "yes", "source": "microsoft/BuildingFootprints"}}}, {"type": "Feature", "geometry": {"type": "Polygon", "coordinates": [[[-95.979387, 36.16151], [-95.979484, 36.16151], [-95.979483, 36.161373], [-95.979386, 36.161374], [-95.979387, 36.16151]]]}, "properties": {"osm_id": 1093616579, "building": "yes", "name": "", "height": null, "height_m": null, "levels": null, "tract_id": "40143001200", "tract_name": "12", "tags": {"building": "yes", "source": "microsoft/BuildingFootprints"}}}, {"type": "Feature", "geometry": {"type": "Polygon", "coordinates": [[[-95.9703852, 36.1636359], [-95.9700392, 36.1636357], [-95.9700396, 36.1632262], [-95.9702633, 36.1632264], [-95.9703605, 36.1632265], [-95.9703856, 36.1632265], [-95.9703852, 36.1636359]]]}, "properties": {"osm_id": 1117638394, "building": "yes", "name": "", "height": null, "height_m": null, "levels": null, "tract_id": "40143001200", "tract_name": "12", "tags": {"building": "yes"}}}, {"type": "Feature", "geometry": {"type": "Polygon", "coordinates": [[[-95.9702634, 36.1630967], [-95.9702633, 36.1632264], [-95.9703605, 36.1632265], [-95.9703606, 36.1630968], [-95.9702634, 36.1630967]]]}, "properties": {"osm_id": 1117638395, "building": "yes", "name": "", "height": null, "height_m": null, "levels": null, "tract_id": "40143001200", "tract_name": "12", "tags": {"building": "yes"}}}, {"type": "Feature", "geometry": {"type": "Polygon", "coordinates": [[[-95.9701946, 36.1624974], [-95.9703613, 36.1624975], [-95.9703606, 36.1630968], [-95.9702634, 36.1630967], [-95.970194, 36.1630967], [-95.9701946, 36.1624974]]]}, "properties": {"osm_id": 1117638396, "building": "yes", "name": "", "height": null, "height_m": null, "levels": null, "tract_id": "40143001200", "tract_name": "12", "tags": {"building": "yes"}}}, {"type": "Feature", "geometry": {"type": "Polygon", "coordinates": [[[-95.9834464, 36.1655576], [-95.9834397, 36.1656734], [-95.9833297, 36.1656693], [-95.9833364, 36.1655534], [-95.9834464, 36.1655576]]]}, "properties": {"osm_id": 1117656984, "building": "yes", "name": "", "height": null, "height_m": null, "levels": null, "tract_id": "40143001200", "tract_name": "12", "tags": {"building": "yes"}}}, {"type": "Feature", "geometry": {"type": "Polygon", "coordinates": [[[-95.982348, 36.1638772], [-95.9823254, 36.1653323], [-95.9814002, 36.1653229], [-95.9814198, 36.1640606], [-95.9819251, 36.1640657], [-95.9819281, 36.163873], [-95.982348, 36.1638772]]]}, "properties": {"osm_id": 1117656985, "building": "yes", "name": "", "height": null, "height_m": null, "levels": null, "tract_id": "40143001200", "tract_name": "12", "tags": {"addr:city": "Tulsa", "addr:country": "US", "addr:housenumber": "186", "addr:postcode": "74106", "addr:state": "OK", "addr:street": "North Lansing Avenue East", "building": "yes"}}}, {"type": "Feature", "geometry": {"type": "Polygon", "coordinates": [[[-95.981825, 36.1639563], [-95.9814677, 36.1639527], [-95.9814744, 36.1635217], [-95.9818317, 36.1635254], [-95.981825, 36.1639563]]]}, "properties": {"osm_id": 1117656986, "building": "yes", "name": "", "height": null, "height_m": null, "levels": null, "tract_id": "40143001200", "tract_name": "12", "tags": {"building": "yes"}}}, {"type": "Feature", "geometry": {"type": "Polygon", "coordinates": [[[-95.9826565, 36.1632005], [-95.9826553, 36.1618937], [-95.982391, 36.1618938], [-95.9823908, 36.1617195], [-95.9830253, 36.1617191], [-95.9830251, 36.1615332], [-95.9834662, 36.1615329], [-95.9834665, 36.1618937], [-95.9833525, 36.1618937], [-95.983353, 36.1624361], [-95.983005, 36.1624363], [-95.9830055, 36.162932], [-95.9830748, 36.162932], [-95.983075, 36.163076], [-95.9830056, 36.163076], [-95.9830057, 36.1632003], [-95.9826565, 36.1632005]]]}, "properties": {"osm_id": 1117656992, "building": "industrial", "name": "", "height": null, "height_m": null, "levels": null, "tract_id": "40143001200", "tract_name": "12", "tags": {"abandoned": "yes", "addr:city": "Tulsa", "addr:country": "US", "addr:housenumber": "118", "addr:postcode": "74106", "addr:state": "OK", "addr:street": "North Lansing Avenue East", "building": "industrial"}}}, {"type": "Feature", "geometry": {"type": "Polygon", "coordinates": [[[-95.9811987, 36.1766339], [-95.9810633, 36.1766326], [-95.9810654, 36.1764889], [-95.9809346, 36.1764877], [-95.9809366, 36.1763467], [-95.9812027, 36.1763491], [-95.9811987, 36.1766339]]]}, "properties": {"osm_id": 1259751729, "building": "yes", "name": "", "height": null, "height_m": null, "levels": null, "tract_id": "40143001200", "tract_name": "12", "tags": {"building": "yes"}}}, {"type": "Feature", "geometry": {"type": "Polygon", "coordinates": [[[-95.9817137, 36.1768293], [-95.9815581, 36.1768305], [-95.9815554, 36.1766173], [-95.981711, 36.176616], [-95.9817137, 36.1768293]]]}, "properties": {"osm_id": 1259751731, "building": "retail", "name": "", "height": null, "height_m": null, "levels": null, "tract_id": "40143001200", "tract_name": "12", "tags": {"building": "retail", "shop": "vacant"}}}, {"type": "Feature", "geometry": {"type": "Polygon", "coordinates": [[[-95.9823091, 36.1768103], [-95.9821824, 36.1768103], [-95.9821824, 36.1767816], [-95.9821569, 36.1767816], [-95.9821569, 36.1768103], [-95.9818988, 36.1768103], [-95.9818988, 36.1767069], [-95.9821536, 36.1767069], [-95.9821536, 36.1767291], [-95.9821824, 36.1767291], [-95.9821824, 36.1766463], [-95.9823091, 36.1766463], [-95.9823091, 36.1768103]]]}, "properties": {"osm_id": 1259751736, "building": "church", "name": "Pine Street Christian Church", "height": null, "height_m": null, "levels": null, "tract_id": "40143001200", "tract_name": "12", "tags": {"addr:city": "Tulsa", "addr:country": "US", "addr:housenumber": "762", "addr:state": "OK", "addr:street": "East Pine Street", "amenity": "place_of_worship", "building": "church", "name": "Pine Street Christian Church", "phone": "+1 918 583 2715", "religion": "christian"}}}, {"type": "Feature", "geometry": {"type": "Polygon", "coordinates": [[[-95.9825546, 36.1763461], [-95.9825506, 36.1765821], [-95.9826486, 36.1765831], [-95.9826483, 36.1766037], [-95.9827502, 36.1766048], [-95.9827506, 36.1765821], [-95.9828418, 36.1765831], [-95.9828457, 36.1763493], [-95.9825546, 36.1763461]]]}, "properties": {"osm_id": 1259751916, "building": "retail", "name": "Dollar General", "height": null, "height_m": null, "levels": null, "tract_id": "40143001200", "tract_name": "12", "tags": {"brand": "Dollar General", "brand:wikidata": "Q145168", "building": "retail", "name": "Dollar General", "shop": "variety_store"}}}, {"type": "Feature", "geometry": {"type": "Polygon", "coordinates": [[[-95.9676623, 36.1768931], [-95.9676535, 36.1767053], [-95.9677382, 36.1767027], [-95.9677469, 36.1768906], [-95.967704, 36.1768919], [-95.9676623, 36.1768931]]]}, "properties": {"osm_id": 1259830290, "building": "retail", "name": "", "height": null, "height_m": 3.0, "levels": 1, "tract_id": "40143001200", "tract_name": "12", "tags": {"building": "retail", "building:colour": "brown", "building:levels": "1", "building:material": "brick", "roof:colour": "green", "roof:levels": "0", "roof:material": "metal", "roof:orientation": "along", "roof:shape": "gabled", "shop": "vacant"}}}, {"type": "Feature", "geometry": {"type": "Polygon", "coordinates": [[[-95.9675798, 36.1776785], [-95.9673034, 36.1776814], [-95.9673019, 36.1775865], [-95.9672954, 36.1771824], [-95.9674335, 36.1771809], [-95.9675717, 36.1771795], [-95.9675798, 36.1776785]]]}, "properties": {"osm_id": 1259830291, "building": "industrial", "name": "", "height": null, "height_m": null, "levels": null, "tract_id": "40143001200", "tract_name": "12", "tags": {"building": "industrial", "shop": "vacant"}}}, {"type": "Feature", "geometry": {"type": "Polygon", "coordinates": [[[-95.9686151, 36.1767459], [-95.968614, 36.1767227], [-95.9684739, 36.176727], [-95.968475, 36.1767502], [-95.9686151, 36.1767459]]]}, "properties": {"osm_id": 1259830300, "building": "yes", "name": "El Gordito's Towing", "height": null, "height_m": null, "levels": null, "tract_id": "40143001200", "tract_name": "12", "tags": {"building": "yes", "name": "El Gordito's Towing", "office": "company", "phone": "+1 918 991 1602"}}}, {"type": "Feature", "geometry": {"type": "Polygon", "coordinates": [[[-95.9680652, 36.1784234], [-95.9680545, 36.1781515], [-95.9682154, 36.1781474], [-95.9682261, 36.1784193], [-95.9680652, 36.1784234]]]}, "properties": {"osm_id": 1259830301, "building": "industrial", "name": "", "height": null, "height_m": null, "levels": null, "tract_id": "40143001200", "tract_name": "12", "tags": {"building": "industrial"}}}, {"type": "Feature", "geometry": {"type": "Polygon", "coordinates": [[[-95.9680438, 36.1778468], [-95.9681786, 36.1778462], [-95.9681806, 36.1781184], [-95.9680458, 36.1781191], [-95.9680438, 36.1778468]]]}, "properties": {"osm_id": 1259830302, "building": "industrial", "name": "", "height": null, "height_m": null, "levels": null, "tract_id": "40143001200", "tract_name": "12", "tags": {"building": "industrial"}}}, {"type": "Feature", "geometry": {"type": "Polygon", "coordinates": [[[-95.9680111, 36.1777783], [-95.9680002, 36.1771593], [-95.9681116, 36.177158], [-95.9682235, 36.1771567], [-95.968225, 36.1772423], [-95.9682267, 36.1773375], [-95.9682282, 36.1774203], [-95.9682296, 36.1775006], [-95.9682068, 36.1775008], [-95.9682117, 36.177776], [-95.9680111, 36.1777783]]]}, "properties": {"osm_id": 1259830303, "building": "industrial", "name": "Rancho Motors", "height": null, "height_m": null, "levels": null, "tract_id": "40143001200", "tract_name": "12", "tags": {"addr:city": "Tulsa", "addr:country": "US", "addr:housenumber": "1615", "addr:state": "OK", "addr:street": "East Pine Street", "building": "industrial", "name": "Rancho Motors", "shop": "car"}}}, {"type": "Feature", "geometry": {"type": "Polygon", "coordinates": [[[-95.9688773, 36.1767237], [-95.9688803, 36.1768501], [-95.9688116, 36.1768511], [-95.9687067, 36.1768528], [-95.9687036, 36.1767264], [-95.9688773, 36.1767237]]]}, "properties": {"osm_id": 1259830305, "building": "retail", "name": "", "height": null, "height_m": null, "levels": null, "tract_id": "40143001200", "tract_name": "12", "tags": {"building": "retail", "shop": "yes"}}}, {"type": "Feature", "geometry": {"type": "Polygon", "coordinates": [[[-95.9693145, 36.1772623], [-95.969313, 36.1771513], [-95.969236, 36.1771519], [-95.9691208, 36.1771529], [-95.9689826, 36.1771541], [-95.9689355, 36.1771545], [-95.968937, 36.1772655], [-95.9693145, 36.1772623]]]}, "properties": {"osm_id": 1259830306, "building": "retail", "name": "", "height": null, "height_m": 3.0, "levels": 1, "tract_id": "40143001200", "tract_name": "12", "tags": {"building": "retail", "building:colour": "white", "building:levels": "1", "building:material": "brick", "roof:colour": "white", "roof:levels": "0", "roof:shape": "flat"}}}, {"type": "Feature", "geometry": {"type": "Polygon", "coordinates": [[[-95.9697577, 36.1778831], [-95.9695497, 36.177886], [-95.9695454, 36.1776878], [-95.9696655, 36.1776861], [-95.9696591, 36.1773842], [-95.969747, 36.177383], [-95.9697577, 36.1778831]]]}, "properties": {"osm_id": 1259830307, "building": "industrial", "name": "", "height": null, "height_m": null, "levels": null, "tract_id": "40143001200", "tract_name": "12", "tags": {"building": "industrial"}}}, {"type": "Feature", "geometry": {"type": "Polygon", "coordinates": [[[-95.9698717, 36.1773624], [-95.9697309, 36.1773627], [-95.9697302, 36.1771467], [-95.9698033, 36.1771466], [-95.9698711, 36.1771464], [-95.9698717, 36.1773624]]]}, "properties": {"osm_id": 1259830312, "building": "retail", "name": "Brothers AJC Tire Shop", "height": null, "height_m": null, "levels": null, "tract_id": "40143001200", "tract_name": "12", "tags": {"addr:city": "Tulsa", "addr:country": "US", "addr:housenumber": "1565", "addr:state": "OK", "addr:street": "East Pine Street", "building": "retail", "name": "Brothers AJC Tire Shop", "shop": "tyres"}}}, {"type": "Feature", "geometry": {"type": "Polygon", "coordinates": [[[-95.9702456, 36.1774278], [-95.9703854, 36.1774102], [-95.9704065, 36.1775191], [-95.9702667, 36.1775367], [-95.9702456, 36.1774278]]]}, "properties": {"osm_id": 1259830313, "building": "industrial", "name": "", "height": null, "height_m": null, "levels": null, "tract_id": "40143001200", "tract_name": "12", "tags": {"building": "industrial"}}}, {"type": "Feature", "geometry": {"type": "Polygon", "coordinates": [[[-95.9700065, 36.177232], [-95.9699737, 36.1772318], [-95.9699736, 36.1772461], [-95.9699249, 36.1772459], [-95.9699257, 36.1771498], [-95.9699508, 36.1771499], [-95.9699964, 36.1771502], [-95.9700072, 36.1771502], [-95.9700065, 36.177232]]]}, "properties": {"osm_id": 1259830319, "building": "garage", "name": "", "height": null, "height_m": null, "levels": null, "tract_id": "40143001200", "tract_name": "12", "tags": {"building": "garage", "shop": "vacant"}}}, {"type": "Feature", "geometry": {"type": "Polygon", "coordinates": [[[-95.9702405, 36.177409], [-95.9702392, 36.1771491], [-95.9703277, 36.1771488], [-95.9704068, 36.1771486], [-95.9704081, 36.1774084], [-95.9702405, 36.177409]]]}, "properties": {"osm_id": 1259830325, "building": "industrial", "name": "Pine Street Auto Recyclers & Salvage", "height": null, "height_m": null, "levels": null, "tract_id": "40143001200", "tract_name": "12", "tags": {"addr:city": "Tulsa", "addr:country": "US", "addr:housenumber": "1561", "addr:state": "OK", "addr:street": "East Pine Street", "building": "industrial", "name": "Pine Street Auto Recyclers & Salvage", "phone": "+1 918 794 7770", "shop": "car_parts"}}}, {"type": "Feature", "geometry": {"type": "Polygon", "coordinates": [[[-95.97045, 36.1768618], [-95.9704447, 36.1766313], [-95.9702141, 36.1766348], [-95.9702183, 36.1768165], [-95.9702746, 36.1768157], [-95.9702757, 36.1768644], [-95.9703465, 36.1768633], [-95.97045, 36.1768618]]]}, "properties": {"osm_id": 1259830327, "building": "retail", "name": "The Gas Chamber", "height": null, "height_m": null, "levels": null, "tract_id": "40143001200", "tract_name": "12", "tags": {"addr:city": "Tulsa", "addr:country": "US", "addr:housenumber": "1540", "addr:state": "OK", "addr:street": "East Pine Street", "building": "retail", "name": "The Gas Chamber", "shop": "cannabis", "website": "https://dutchie.com/stores/the-gas-chamber"}}}, {"type": "Feature", "geometry": {"type": "Polygon", "coordinates": [[[-95.9673228, 36.1767056], [-95.9673212, 36.1768038], [-95.9673205, 36.1768446], [-95.9675311, 36.1768468], [-95.9675318, 36.1768035], [-95.9674848, 36.176803], [-95.9674854, 36.1767671], [-95.9674363, 36.1767666], [-95.9674373, 36.1767068], [-95.9673228, 36.1767056]]]}, "properties": {"osm_id": 1259830328, "building": "retail", "name": "", "height": null, "height_m": null, "levels": null, "tract_id": "40143001200", "tract_name": "12", "tags": {"addr:city": "Tulsa", "addr:country": "US", "addr:housenumber": "1446", "addr:postcode": "74110", "addr:state": "OK", "addr:street": "North Utica Avenue East", "building": "retail", "shop": "vacant"}}}, {"type": "Feature", "geometry": {"type": "Polygon", "coordinates": [[[-95.9678799, 36.176827], [-95.9679496, 36.1768262], [-95.9679508, 36.1768912], [-95.9680064, 36.1768905], [-95.9680607, 36.1768899], [-95.9680596, 36.176825], [-95.9681279, 36.1768242], [-95.9681277, 36.1768114], [-95.968127, 36.1767718], [-95.9681259, 36.1767151], [-95.9681031, 36.1767154], [-95.9681027, 36.1766946], [-95.9678776, 36.1766972], [-95.9678799, 36.176827]]]}, "properties": {"osm_id": 1259830331, "building": "yes", "name": "", "height": null, "height_m": null, "levels": null, "tract_id": "40143001200", "tract_name": "12", "tags": {"building": "yes", "shop": "yes"}}}, {"type": "Feature", "geometry": {"type": "Polygon", "coordinates": [[[-95.9710935, 36.1767194], [-95.9710854, 36.1763567], [-95.971305, 36.1763536], [-95.9713095, 36.1765592], [-95.9713518, 36.1765585], [-95.9713543, 36.1766744], [-95.9713121, 36.176675], [-95.971313, 36.1767162], [-95.9712022, 36.1767178], [-95.9710935, 36.1767194]]]}, "properties": {"osm_id": 1259830338, "building": "detached", "name": "J & J Appliances", "height": null, "height_m": 3.0, "levels": 1, "tract_id": "40143001200", "tract_name": "12", "tags": {"addr:city": "Tulsa", "addr:country": "US", "addr:housenumber": "1520", "addr:state": "OK", "addr:street": "East Pine Street", "building": "detached", "building:levels": "1", "name": "J & J Appliances", "opening_hours": "Mo-Fr 08:30-17:30, Sa 09:00-16:00 open \"Sales only\"", "phone": "+1 918 428 6706", "roof:levels": "0", "roof:orientation": "along", "roof:shape": "gabled", "shop": "appliance", "website": "https://jandjappliances.com/"}}}, {"type": "Feature", "geometry": {"type": "Polygon", "coordinates": [[[-95.9766188, 36.1766923], [-95.9766188, 36.1768071], [-95.9763104, 36.1768071], [-95.9763104, 36.1766923], [-95.9766188, 36.1766923]]]}, "properties": {"osm_id": 1259830352, "building": "retail", "name": "", "height": null, "height_m": null, "levels": null, "tract_id": "40143001200", "tract_name": "12", "tags": {"addr:city": "Tulsa", "addr:country": "US", "addr:housenumber": "1208", "addr:state": "OK", "addr:street": "East Pine Street", "building": "retail", "shop": "vacant"}}}, {"type": "Feature", "geometry": {"type": "Polygon", "coordinates": [[[-95.9783234, 36.1765992], [-95.9783228, 36.1766973], [-95.9781767, 36.1766967], [-95.9781766, 36.1767133], [-95.9781083, 36.176713], [-95.978109, 36.1765983], [-95.9783234, 36.1765992]]]}, "properties": {"osm_id": 1259830365, "building": "detached", "name": "The Greenwood Cure Company", "height": null, "height_m": null, "levels": null, "tract_id": "40143001200", "tract_name": "12", "tags": {"addr:city": "Tulsa", "addr:country": "US", "addr:housenumber": "1046", "addr:state": "OK", "addr:street": "East Pine Street", "building": "detached", "email": "thegreenwoodcuretulsa@gmail.com", "name": "The Greenwood Cure Company", "opening_hours": "Mo-Fr 11:00-19:00; Sa 10:00-19:00; Su 12:00-18:00", "phone": "+1 918 292 8023", "shop": "cannabis", "website": "https://thegreenwoodcureco.com/"}}}, {"type": "Feature", "geometry": {"type": "Polygon", "coordinates": [[[-95.9711049, 36.1657833], [-95.971106, 36.1658097], [-95.9710664, 36.1658108], [-95.9710653, 36.1657844], [-95.9711049, 36.1657833]]]}, "properties": {"osm_id": 1299092912, "building": "shed", "name": "", "height": null, "height_m": 3.0, "levels": 1, "tract_id": "40143001200", "tract_name": "12", "tags": {"building": "shed", "building:colour": "white", "building:levels": "1", "roof:colour": "grey", "roof:levels": "0", "roof:material": "tar_paper", "roof:orientation": "along", "roof:shape": "gabled"}}}, {"type": "Feature", "geometry": {"type": "Polygon", "coordinates": [[[-95.9710123, 36.1657341], [-95.9710143, 36.1658148], [-95.9708245, 36.1658178], [-95.9708239, 36.165793], [-95.9708045, 36.1657933], [-95.9708042, 36.1657811], [-95.9708031, 36.1657373], [-95.9710123, 36.1657341]]]}, "properties": {"osm_id": 1299092914, "building": "detached", "name": "", "height": null, "height_m": null, "levels": null, "tract_id": "40143001200", "tract_name": "12", "tags": {"building": "detached", "building:colour": "white", "roof:colour": "grey", "roof:material": "tar_paper", "roof:orientation": "along", "roof:shape": "half-hipped"}}}, {"type": "Feature", "geometry": {"type": "Polygon", "coordinates": [[[-95.975204, 36.1633121], [-95.975204, 36.1631534], [-95.975275, 36.1631534], [-95.975275, 36.1632222], [-95.9753106, 36.1632222], [-95.9753106, 36.1633121], [-95.975204, 36.1633121]]]}, "properties": {"osm_id": 1323896657, "building": "retail", "name": "", "height": null, "height_m": null, "levels": null, "tract_id": "40143001200", "tract_name": "12", "tags": {"addr:city": "Tulsa", "addr:country": "US", "addr:housenumber": "503", "addr:postcode": "74120", "addr:state": "OK", "addr:street": "North Peoria Avenue East", "building": "retail", "check_date": "2022-09-17", "shop": "cannabis"}}}, {"type": "Feature", "geometry": {"type": "Polygon", "coordinates": [[[-95.9746762, 36.1600297], [-95.9746387, 36.1600303], [-95.9746367, 36.1599502], [-95.9746742, 36.1599496], [-95.9746762, 36.1600297]]]}, "properties": {"osm_id": 1323896659, "building": "yes", "name": "", "height": null, "height_m": null, "levels": null, "tract_id": "40143001200", "tract_name": "12", "tags": {"addr:city": "Tulsa", "addr:country": "US", "addr:housenumber": "1317", "addr:postcode": "74120", "addr:state": "OK", "addr:street": "East Admiral Boulevard North", "building": "yes"}}}, {"type": "Feature", "geometry": {"type": "Polygon", "coordinates": [[[-95.9751629, 36.161075], [-95.9751631, 36.1610197], [-95.9752078, 36.1610197], [-95.9752076, 36.1610753], [-95.9751629, 36.161075]]]}, "properties": {"osm_id": 1323896660, "building": "industrial", "name": "", "height": null, "height_m": null, "levels": null, "tract_id": "40143001200", "tract_name": "12", "tags": {"building": "industrial"}}}, {"type": "Feature", "geometry": {"type": "Polygon", "coordinates": [[[-95.9752078, 36.1610197], [-95.9753785, 36.1610199], [-95.9753787, 36.160795], [-95.9753945, 36.160795], [-95.9753949, 36.1605279], [-95.9752273, 36.1605277], [-95.9752273, 36.1604992], [-95.9748455, 36.160499], [-95.9748451, 36.1608023], [-95.9750911, 36.1608025], [-95.9750908, 36.1610196], [-95.9751631, 36.1610197], [-95.9752078, 36.1610197]]]}, "properties": {"osm_id": 1323896661, "building": "industrial", "name": "Airgas", "height": null, "height_m": null, "levels": null, "tract_id": "40143001200", "tract_name": "12", "tags": {"addr:city": "Tulsa", "addr:country": "US", "addr:housenumber": "35", "addr:postcode": "74120", "addr:state": "OK", "addr:street": "North Peoria Avenue East", "brand": "Airgas", "brand:wikidata": "Q80635", "building": "industrial", "name": "Airgas", "shop": "gas"}}}, {"type": "Feature", "geometry": {"type": "Polygon", "coordinates": [[[-95.9707412, 36.1654006], [-95.9709261, 36.1654055], [-95.9709291, 36.1653319], [-95.9707442, 36.1653271], [-95.9707412, 36.1654006]]]}, "properties": {"osm_id": 1329254496, "building": "detached", "name": "", "height": null, "height_m": null, "levels": null, "tract_id": "40143001200", "tract_name": "12", "tags": {"addr:city": "Tulsa", "addr:country": "US", "addr:housenumber": "728", "addr:postcode": "74106", "addr:state": "OK", "addr:street": "North Saint Louis Avenue East", "building": "detached"}}}, {"type": "Feature", "geometry": {"type": "Polygon", "coordinates": [[[-95.9711534, 36.1651848], [-95.9710257, 36.1651835], [-95.9710247, 36.1652517], [-95.9711524, 36.165253], [-95.9711534, 36.1651848]]]}, "properties": {"osm_id": 1329254497, "building": "yes", "name": "", "height": null, "height_m": null, "levels": null, "tract_id": "40143001200", "tract_name": "12", "tags": {"building": "yes"}}}, {"type": "Feature", "geometry": {"type": "Polygon", "coordinates": [[[-95.9707705, 36.1655328], [-95.9709037, 36.1655299], [-95.970901, 36.165452], [-95.9707679, 36.1654549], [-95.9707705, 36.1655328]]]}, "properties": {"osm_id": 1329254498, "building": "detached", "name": "", "height": null, "height_m": null, "levels": null, "tract_id": "40143001200", "tract_name": "12", "tags": {"addr:city": "Tulsa", "addr:country": "US", "addr:housenumber": "734", "addr:postcode": "74106", "addr:state": "OK", "addr:street": "North Saint Louis Avenue East", "building": "detached"}}}, {"type": "Feature", "geometry": {"type": "Polygon", "coordinates": [[[-95.9710457, 36.1646912], [-95.9710321, 36.1643954], [-95.9707589, 36.1644036], [-95.9707726, 36.1646994], [-95.9710457, 36.1646912]]]}, "properties": {"osm_id": 1329254499, "building": "industrial", "name": "", "height": null, "height_m": null, "levels": null, "tract_id": "40143001200", "tract_name": "12", "tags": {"addr:city": "Tulsa", "addr:country": "US", "addr:housenumber": "704", "addr:postcode": "74106", "addr:state": "OK", "addr:street": "North Saint Louis Avenue East", "building": "industrial"}}}, {"type": "Feature", "geometry": {"type": "Polygon", "coordinates": [[[-95.9700183, 36.1655552], [-95.9701899, 36.1655538], [-95.970189, 36.165483], [-95.9700174, 36.1654843], [-95.9700183, 36.1655552]]]}, "properties": {"osm_id": 1329254500, "building": "yes", "name": "", "height": null, "height_m": null, "levels": null, "tract_id": "40143001200", "tract_name": "12", "tags": {"building": "yes"}}}, {"type": "Feature", "geometry": {"type": "Polygon", "coordinates": [[[-95.9707647, 36.164995], [-95.9709498, 36.1649967], [-95.9709515, 36.1648765], [-95.9708656, 36.1648757], [-95.9708653, 36.1649028], [-95.970766, 36.1649019], [-95.9707647, 36.164995]]]}, "properties": {"osm_id": 1329254501, "building": "detached", "name": "", "height": null, "height_m": null, "levels": null, "tract_id": "40143001200", "tract_name": "12", "tags": {"addr:city": "Tulsa", "addr:country": "US", "addr:housenumber": "718", "addr:postcode": "74106", "addr:state": "OK", "addr:street": "North Saint Louis Avenue East", "building": "detached"}}}, {"type": "Feature", "geometry": {"type": "Polygon", "coordinates": [[[-95.9704274, 36.1650237], [-95.9702961, 36.165027], [-95.9702969, 36.1650475], [-95.9702594, 36.1650484], [-95.9702603, 36.1650722], [-95.9702764, 36.1650718], [-95.9702784, 36.1651237], [-95.970407, 36.1651205], [-95.9704057, 36.1650881], [-95.9704299, 36.1650875], [-95.9704274, 36.1650237]]]}, "properties": {"osm_id": 1329254502, "building": "yes", "name": "", "height": null, "height_m": null, "levels": null, "tract_id": "40143001200", "tract_name": "12", "tags": {"addr:city": "Tulsa", "addr:country": "US", "addr:housenumber": "719", "addr:postcode": "74106", "addr:state": "OK", "addr:street": "North Saint Louis Avenue East", "building": "yes"}}}, {"type": "Feature", "geometry": {"type": "Polygon", "coordinates": [[[-95.970431, 36.1651882], [-95.9703066, 36.165189], [-95.9703075, 36.1652768], [-95.9704318, 36.1652759], [-95.970431, 36.1651882]]]}, "properties": {"osm_id": 1329254503, "building": "yes", "name": "", "height": null, "height_m": null, "levels": null, "tract_id": "40143001200", "tract_name": "12", "tags": {"addr:city": "Tulsa", "addr:country": "US", "addr:housenumber": "723", "addr:postcode": "74106", "addr:state": "OK", "addr:street": "North Saint Louis Avenue East", "building": "yes"}}}, {"type": "Feature", "geometry": {"type": "Polygon", "coordinates": [[[-95.9708951, 36.1652367], [-95.9708953, 36.1651642], [-95.9707388, 36.1651639], [-95.9707385, 36.1652364], [-95.9708951, 36.1652367]]]}, "properties": {"osm_id": 1329254504, "building": "detached", "name": "", "height": null, "height_m": null, "levels": null, "tract_id": "40143001200", "tract_name": "12", "tags": {"addr:city": "Tulsa", "addr:country": "US", "addr:housenumber": "726", "addr:postcode": "74106", "addr:state": "OK", "addr:street": "North Saint Louis Avenue East", "building": "detached"}}}, {"type": "Feature", "geometry": {"type": "Polygon", "coordinates": [[[-95.9701697, 36.1645689], [-95.9703583, 36.1645717], [-95.97036, 36.164497], [-95.9701714, 36.1644942], [-95.9701697, 36.1645689]]]}, "properties": {"osm_id": 1329254505, "building": "yes", "name": "", "height": null, "height_m": null, "levels": null, "tract_id": "40143001200", "tract_name": "12", "tags": {"addr:city": "Tulsa", "addr:country": "US", "addr:housenumber": "705", "addr:postcode": "74106", "addr:state": "OK", "addr:street": "North Saint Louis Avenue East", "building": "yes"}}}, {"type": "Feature", "geometry": {"type": "Polygon", "coordinates": [[[-95.970875, 36.1650327], [-95.9707399, 36.165032], [-95.9707393, 36.1651077], [-95.9708744, 36.1651084], [-95.970875, 36.1650327]]]}, "properties": {"osm_id": 1329254506, "building": "detached", "name": "", "height": null, "height_m": null, "levels": null, "tract_id": "40143001200", "tract_name": "12", "tags": {"addr:city": "Tulsa", "addr:country": "US", "addr:housenumber": "720", "addr:postcode": "74106", "addr:state": "OK", "addr:street": "North Saint Louis Avenue East", "building": "detached"}}}, {"type": "Feature", "geometry": {"type": "Polygon", "coordinates": [[[-95.9698782, 36.1647881], [-95.9698788, 36.1648227], [-95.9699352, 36.164822], [-95.9699345, 36.1647873], [-95.9698782, 36.1647881]]]}, "properties": {"osm_id": 1329255265, "building": "yes", "name": "", "height": null, "height_m": null, "levels": null, "tract_id": "40143001200", "tract_name": "12", "tags": {"building": "yes"}}}, {"type": "Feature", "geometry": {"type": "Polygon", "coordinates": [[[-95.9695106, 36.1654603], [-95.969509, 36.1655404], [-95.969679, 36.1655426], [-95.9696805, 36.1654625], [-95.9695106, 36.1654603]]]}, "properties": {"osm_id": 1329255266, "building": "detached", "name": "", "height": null, "height_m": null, "levels": null, "tract_id": "40143001200", "tract_name": "12", "tags": {"addr:city": "Tulsa", "addr:country": "US", "addr:housenumber": "726", "addr:postcode": "74106", "addr:state": "OK", "addr:street": "North Trenton Avenue East", "building": "detached"}}}, {"type": "Feature", "geometry": {"type": "Polygon", "coordinates": [[[-95.9698643, 36.1647271], [-95.9698625, 36.1646427], [-95.9695595, 36.1646468], [-95.9695613, 36.1647312], [-95.9698643, 36.1647271]]]}, "properties": {"osm_id": 1329255267, "building": "detached", "name": "", "height": null, "height_m": null, "levels": null, "tract_id": "40143001200", "tract_name": "12", "tags": {"addr:city": "Tulsa", "addr:country": "US", "addr:housenumber": "1551", "addr:postcode": "74106", "addr:state": "OK", "addr:street": "East Haskell Street North", "building": "detached"}}}, {"type": "Feature", "geometry": {"type": "Polygon", "coordinates": [[[-95.9714133, 36.1646615], [-95.9714151, 36.1648022], [-95.9715734, 36.1648009], [-95.9715716, 36.1646602], [-95.9714133, 36.1646615]]]}, "properties": {"osm_id": 1329255268, "building": "yes", "name": "", "height": null, "height_m": null, "levels": null, "tract_id": "40143001200", "tract_name": "12", "tags": {"building": "yes"}}}, {"type": "Feature", "geometry": {"type": "Polygon", "coordinates": [[[-95.9696728, 36.1649903], [-95.9696709, 36.1649297], [-95.9695425, 36.1649324], [-95.9695429, 36.1649444], [-95.9695212, 36.1649448], [-95.9695225, 36.164987], [-95.9695426, 36.1649866], [-95.9695435, 36.1650147], [-95.9696038, 36.1650134], [-95.9696031, 36.1649918], [-95.9696728, 36.1649903]]]}, "properties": {"osm_id": 1329255269, "building": "detached", "name": "", "height": null, "height_m": null, "levels": null, "tract_id": "40143001200", "tract_name": "12", "tags": {"addr:city": "Tulsa", "addr:country": "US", "addr:housenumber": "712", "addr:postcode": "74106", "addr:state": "OK", "addr:street": "North Trenton Avenue East", "building": "detached"}}}, {"type": "Feature", "geometry": {"type": "Polygon", "coordinates": [[[-95.9697109, 36.1651448], [-95.9697126, 36.1650638], [-95.9695441, 36.1650615], [-95.9695436, 36.1650844], [-95.9695286, 36.1650842], [-95.9695275, 36.1651372], [-95.9696438, 36.1651388], [-95.9696437, 36.1651439], [-95.9697109, 36.1651448]]]}, "properties": {"osm_id": 1329255270, "building": "detached", "name": "", "height": null, "height_m": null, "levels": null, "tract_id": "40143001200", "tract_name": "12", "tags": {"addr:city": "Tulsa", "addr:country": "US", "addr:housenumber": "716", "addr:postcode": "74106", "addr:state": "OK", "addr:street": "North Trenton Avenue East", "building": "detached"}}}, {"type": "Feature", "geometry": {"type": "Polygon", "coordinates": [[[-95.9697696, 36.16548], [-95.969854, 36.1654806], [-95.9698545, 36.1654366], [-95.96977, 36.1654361], [-95.9697696, 36.16548]]]}, "properties": {"osm_id": 1329255271, "building": "yes", "name": "", "height": null, "height_m": null, "levels": null, "tract_id": "40143001200", "tract_name": "12", "tags": {"building": "yes"}}}, {"type": "Feature", "geometry": {"type": "Polygon", "coordinates": [[[-95.969548, 36.1652797], [-95.9696084, 36.1652803], [-95.9696085, 36.165267], [-95.9696531, 36.1652675], [-95.9696532, 36.1652612], [-95.9697294, 36.1652619], [-95.9697302, 36.1652073], [-95.9696829, 36.1652069], [-95.9696826, 36.1652238], [-95.9696429, 36.1652234], [-95.9696432, 36.1652057], [-95.9695347, 36.1652048], [-95.9695339, 36.1652607], [-95.9695483, 36.1652608], [-95.969548, 36.1652797]]]}, "properties": {"osm_id": 1329255272, "building": "detached", "name": "", "height": null, "height_m": null, "levels": null, "tract_id": "40143001200", "tract_name": "12", "tags": {"addr:city": "Tulsa", "addr:country": "US", "addr:housenumber": "720", "addr:postcode": "74106", "addr:state": "OK", "addr:street": "North Trenton Avenue East", "building": "detached"}}}, {"type": "Feature", "geometry": {"type": "Polygon", "coordinates": [[[-95.9695211, 36.1648076], [-95.9695217, 36.1648303], [-95.9695021, 36.1648306], [-95.9695034, 36.1648778], [-95.9696501, 36.1648752], [-95.9696482, 36.1648053], [-95.9695211, 36.1648076]]]}, "properties": {"osm_id": 1329255273, "building": "detached", "name": "", "height": null, "height_m": null, "levels": null, "tract_id": "40143001200", "tract_name": "12", "tags": {"addr:city": "Tulsa", "addr:country": "US", "addr:housenumber": "708", "addr:postcode": "74106", "addr:state": "OK", "addr:street": "North Trenton Avenue East", "building": "detached"}}}, {"type": "Feature", "geometry": {"type": "Polygon", "coordinates": [[[-95.9712285, 36.1649393], [-95.9714018, 36.1649392], [-95.9714016, 36.1646512], [-95.9715877, 36.1646511], [-95.9715877, 36.1646208], [-95.9718049, 36.1646207], [-95.9718048, 36.164415], [-95.9712281, 36.1644153], [-95.9712285, 36.1649393]]]}, "properties": {"osm_id": 1329255274, "building": "yes", "name": "", "height": null, "height_m": null, "levels": null, "tract_id": "40143001200", "tract_name": "12", "tags": {"addr:city": "Tulsa", "addr:country": "US", "addr:housenumber": "1513", "addr:postcode": "74106", "addr:state": "OK", "addr:street": "East Haskell Street North", "building": "yes"}}}, {"type": "Feature", "geometry": {"type": "Polygon", "coordinates": [[[-95.9696606, 36.1653126], [-95.9695462, 36.165315], [-95.9695465, 36.1653237], [-95.9695259, 36.1653242], [-95.969528, 36.1653886], [-95.9695486, 36.1653881], [-95.9695491, 36.1654037], [-95.9696634, 36.1654013], [-95.9696606, 36.1653126]]]}, "properties": {"osm_id": 1329255275, "building": "detached", "name": "", "height": null, "height_m": null, "levels": null, "tract_id": "40143001200", "tract_name": "12", "tags": {"addr:city": "Tulsa", "addr:country": "US", "addr:housenumber": "722", "addr:postcode": "74106", "addr:state": "OK", "addr:street": "North Trenton Avenue East", "building": "detached"}}}, {"type": "Feature", "geometry": {"type": "Polygon", "coordinates": [[[-95.9714535, 36.1659518], [-95.9715618, 36.1659506], [-95.9715597, 36.1658283], [-95.9714514, 36.1658295], [-95.9714535, 36.1659518]]]}, "properties": {"osm_id": 1329255424, "building": "detached", "name": "", "height": null, "height_m": null, "levels": null, "tract_id": "40143001200", "tract_name": "12", "tags": {"addr:city": "Tulsa", "addr:country": "US", "addr:housenumber": "1507", "addr:postcode": "74106", "addr:state": "OK", "addr:street": "East Independence Street North", "building": "detached"}}}, {"type": "Feature", "geometry": {"type": "Polygon", "coordinates": [[[-95.971296, 36.1659506], [-95.971406, 36.1659496], [-95.9714042, 36.1658328], [-95.9712943, 36.1658339], [-95.971296, 36.1659506]]]}, "properties": {"osm_id": 1329255425, "building": "detached", "name": "", "height": null, "height_m": null, "levels": null, "tract_id": "40143001200", "tract_name": "12", "tags": {"addr:city": "Tulsa", "addr:country": "US", "addr:housenumber": "1515", "addr:postcode": "74106", "addr:state": "OK", "addr:street": "East Independence Street North", "building": "detached"}}}, {"type": "Feature", "geometry": {"type": "Polygon", "coordinates": [[[-95.9697194, 36.1657254], [-95.9696363, 36.1657269], [-95.9696395, 36.1658384], [-95.9697226, 36.1658369], [-95.9697194, 36.1657254]]]}, "properties": {"osm_id": 1329255786, "building": "detached", "name": "", "height": null, "height_m": null, "levels": null, "tract_id": "40143001200", "tract_name": "12", "tags": {"addr:city": "Tulsa", "addr:country": "US", "addr:housenumber": "1545", "addr:postcode": "74106", "addr:state": "OK", "addr:street": "East Independence Street North", "building": "detached"}}}, {"type": "Feature", "geometry": {"type": "Polygon", "coordinates": [[[-95.9701952, 36.1657105], [-95.9701907, 36.1658555], [-95.9703113, 36.1658579], [-95.9703158, 36.1657129], [-95.9701952, 36.1657105]]]}, "properties": {"osm_id": 1329255787, "building": "detached", "name": "", "height": null, "height_m": null, "levels": null, "tract_id": "40143001200", "tract_name": "12", "tags": {"addr:city": "Tulsa", "addr:country": "US", "addr:housenumber": "1541", "addr:postcode": "74106", "addr:state": "OK", "addr:street": "East Independence Street North", "building": "detached"}}}, {"type": "Feature", "geometry": {"type": "Polygon", "coordinates": [[[-95.9677193, 36.1747805], [-95.9672914, 36.1747827], [-95.9672904, 36.1746474], [-95.9677182, 36.1746452], [-95.9677193, 36.1747805]]]}, "properties": {"osm_id": 1390283532, "building": "retail", "name": "", "height": null, "height_m": null, "levels": null, "tract_id": "40143001200", "tract_name": "12", "tags": {"addr:city": "Tulsa", "addr:country": "US", "addr:housenumber": "1338", "addr:postcode": "74110", "addr:state": "OK", "addr:street": "North Utica Avenue East", "building": "retail", "shop": "vacant"}}}]}