{"type": "FeatureCollection", "features": [{"type": "Feature", "geometry": {"type": "Polygon", "coordinates": [[[-98.3168382, 36.1158406], [-98.3167492, 36.1158406], [-98.3167492, 36.1157724], [-98.3168382, 36.1157724], [-98.3168382, 36.1158406]]]}, "properties": {"osm_id": 244113437, "building": "roof", "name": "Conoco", "height": null, "height_m": null, "levels": null, "tract_id": "40011958600", "tract_name": "9586", "tags": {"amenity": "fuel", "brand": "Conoco", "brand:wikidata": "Q109341187", "building": "roof", "name": "Conoco"}}}, {"type": "Feature", "geometry": {"type": "Polygon", "coordinates": [[[-98.3135189, 36.1163761], [-98.3134336, 36.1163761], [-98.3134336, 36.1162863], [-98.3134078, 36.1162863], [-98.3134078, 36.1162316], [-98.3134336, 36.1162316], [-98.3134336, 36.1161604], [-98.3135189, 36.1161604], [-98.3135189, 36.1163761]]]}, "properties": {"osm_id": 244636262, "building": "yes", "name": "Liquor Depot", "height": null, "height_m": null, "levels": null, "tract_id": "40011958600", "tract_name": "9586", "tags": {"addr:city": "Okeene", "addr:country": "US", "addr:housenumber": "322", "addr:postcode": "73763", "addr:street": "East Oklahoma Avenue", "building": "yes", "name": "Liquor Depot", "shop": "alcohol"}}}, {"type": "Feature", "geometry": {"type": "Polygon", "coordinates": [[[-98.3173638, 36.1169309], [-98.3173641, 36.1168651], [-98.3178154, 36.116866], [-98.3178152, 36.1169319], [-98.3173638, 36.1169309]]]}, "properties": {"osm_id": 245248715, "building": "commercial", "name": "First National Bank", "height": null, "height_m": null, "levels": null, "tract_id": "40011958600", "tract_name": "9586", "tags": {"amenity": "bank", "building": "commercial", "name": "First National Bank"}}}, {"type": "Feature", "geometry": {"type": "Polygon", "coordinates": [[[-98.3173682, 36.1165191], [-98.3177265, 36.1165219], [-98.3177257, 36.1165877], [-98.3173674, 36.1165849], [-98.3173682, 36.1165191]]]}, "properties": {"osm_id": 245248716, "building": "retail", "name": "Haffner Drug", "height": null, "height_m": null, "levels": null, "tract_id": "40011958600", "tract_name": "9586", "tags": {"amenity": "pharmacy", "building": "retail", "dispensing": "yes", "healthcare": "pharmacy", "name": "Haffner Drug"}}}, {"type": "Feature", "geometry": {"type": "Polygon", "coordinates": [[[-98.317007, 36.1171494], [-98.3170057, 36.1172884], [-98.3165834, 36.1172857], [-98.3165847, 36.1171468], [-98.317007, 36.1171494]]]}, "properties": {"osm_id": 245248717, "building": "retail", "name": "NAPA Okeene Supply", "height": null, "height_m": null, "levels": null, "tract_id": "40011958600", "tract_name": "9586", "tags": {"brand": "NAPA Auto Parts", "brand:wikidata": "Q6970842", "building": "retail", "name": "NAPA Okeene Supply", "shop": "car_parts"}}}, {"type": "Feature", "geometry": {"type": "Polygon", "coordinates": [[[-98.3173455, 36.1171418], [-98.3173443, 36.1172826], [-98.3178023, 36.1172853], [-98.3178035, 36.1171444], [-98.3173455, 36.1171418]]]}, "properties": {"osm_id": 245248720, "building": "commercial", "name": "State Guaranty Bank", "height": null, "height_m": null, "levels": null, "tract_id": "40011958600", "tract_name": "9586", "tags": {"amenity": "bank", "atm": "yes", "building": "commercial", "name": "State Guaranty Bank"}}}, {"type": "Feature", "geometry": {"type": "Polygon", "coordinates": [[[-98.3170132, 36.1167982], [-98.3165455, 36.1167957], [-98.3165473, 36.1165828], [-98.3170149, 36.1165853], [-98.3170132, 36.1167982]]]}, "properties": {"osm_id": 245248721, "building": "retail", "name": "Venture Food Store", "height": null, "height_m": null, "levels": null, "tract_id": "40011958600", "tract_name": "9586", "tags": {"building": "retail", "name": "Venture Food Store", "shop": "supermarket"}}}, {"type": "Feature", "geometry": {"type": "Polygon", "coordinates": [[[-98.3147383, 36.1031771], [-98.3147401, 36.1036128], [-98.3145583, 36.1036133], [-98.314558, 36.1035273], [-98.3128691, 36.1035319], [-98.3128676, 36.1031821], [-98.3147383, 36.1031771]]]}, "properties": {"osm_id": 463896666, "building": "yes", "name": "", "height": null, "height_m": null, "levels": null, "tract_id": "40011958600", "tract_name": "9586", "tags": {"building": "yes"}}}, {"type": "Feature", "geometry": {"type": "Polygon", "coordinates": [[[-98.3075262, 36.11428], [-98.3072969, 36.1142797], [-98.3072979, 36.113738], [-98.3075272, 36.1137383], [-98.3075262, 36.11428]]]}, "properties": {"osm_id": 463896672, "building": "hangar", "name": "", "height": null, "height_m": null, "levels": null, "tract_id": "40011958600", "tract_name": "9586", "tags": {"building": "hangar"}}}, {"type": "Feature", "geometry": {"type": "Polygon", "coordinates": [[[-98.3204575, 36.1176277], [-98.3204302, 36.117543], [-98.3207277, 36.1174805], [-98.3207549, 36.1175653], [-98.3204575, 36.1176277]]]}, "properties": {"osm_id": 512985910, "building": "yes", "name": "Sooner Co-op Association Elevator", "height": null, "height_m": null, "levels": null, "tract_id": "40011958600", "tract_name": "9586", "tags": {"building": "yes", "heritage": "2", "heritage:operator": "nrhp", "historic": "yes", "name": "Sooner Co-op Association Elevator", "ref:nrhp": "00001040"}}}, {"type": "Feature", "geometry": {"type": "Polygon", "coordinates": [[[-98.3623206, 36.1141336], [-98.3621435, 36.1141358], [-98.3621408, 36.1138541], [-98.3623152, 36.1138497], [-98.3623206, 36.1141336]]]}, "properties": {"osm_id": 724467632, "building": "barn", "name": "", "height": null, "height_m": null, "levels": null, "tract_id": "40011958600", "tract_name": "9586", "tags": {"building": "barn"}}}, {"type": "Feature", "geometry": {"type": "Polygon", "coordinates": [[[-98.3626026, 36.1145185], [-98.3626117, 36.1143882], [-98.3625078, 36.1143835], [-98.3625033, 36.1144479], [-98.3624377, 36.1144449], [-98.3624331, 36.1145108], [-98.3626026, 36.1145185]]]}, "properties": {"osm_id": 724467633, "building": "house", "name": "", "height": null, "height_m": null, "levels": null, "tract_id": "40011958600", "tract_name": "9586", "tags": {"building": "house"}}}, {"type": "Feature", "geometry": {"type": "Polygon", "coordinates": [[[-98.2321175, 36.1165956], [-98.2320033, 36.1165949], [-98.231998, 36.1165798], [-98.231852, 36.1165784], [-98.2318538, 36.1164762], [-98.2321237, 36.1164855], [-98.2321175, 36.1165956]]]}, "properties": {"osm_id": 878438278, "building": "yes", "name": "", "height": null, "height_m": null, "levels": null, "tract_id": "40011958600", "tract_name": "9586", "tags": {"building": "yes"}}}, {"type": "Feature", "geometry": {"type": "Polygon", "coordinates": [[[-98.2125865, 36.1155423], [-98.2125896, 36.115378], [-98.2125095, 36.1153954], [-98.2125095, 36.1154353], [-98.2123663, 36.1154307], [-98.2123628, 36.1155708], [-98.2124177, 36.1155651], [-98.2124194, 36.1155394], [-98.2125865, 36.1155423]]]}, "properties": {"osm_id": 878438289, "building": "yes", "name": "", "height": null, "height_m": null, "levels": null, "tract_id": "40011958600", "tract_name": "9586", "tags": {"building": "yes"}}}, {"type": "Feature", "geometry": {"type": "Polygon", "coordinates": [[[-98.2128264, 36.1153836], [-98.2126849, 36.1153793], [-98.212676, 36.1150962], [-98.2128194, 36.1150862], [-98.2128264, 36.1153836]]]}, "properties": {"osm_id": 878438290, "building": "roof", "name": "", "height": null, "height_m": null, "levels": null, "tract_id": "40011958600", "tract_name": "9586", "tags": {"building": "roof"}}}, {"type": "Feature", "geometry": {"type": "Polygon", "coordinates": [[[-98.2129822, 36.1152606], [-98.213037, 36.1152592], [-98.2130317, 36.1152249], [-98.2131326, 36.115212], [-98.2131344, 36.1151806], [-98.2129769, 36.1151863], [-98.2129822, 36.1152606]]]}, "properties": {"osm_id": 878438291, "building": "yes", "name": "", "height": null, "height_m": null, "levels": null, "tract_id": "40011958600", "tract_name": "9586", "tags": {"building": "yes"}}}, {"type": "Feature", "geometry": {"type": "Polygon", "coordinates": [[[-98.2134529, 36.1152163], [-98.2133803, 36.1152163], [-98.2133892, 36.1151077], [-98.2133502, 36.1151091], [-98.2133555, 36.1150519], [-98.2134493, 36.1150576], [-98.2134529, 36.1152163]]]}, "properties": {"osm_id": 878438292, "building": "yes", "name": "", "height": null, "height_m": null, "levels": null, "tract_id": "40011958600", "tract_name": "9586", "tags": {"building": "yes"}}}, {"type": "Feature", "geometry": {"type": "Polygon", "coordinates": [[[-98.3567758, 36.0686777], [-98.3567761, 36.068621], [-98.3567234, 36.0686208], [-98.356723, 36.0686775], [-98.3567758, 36.0686777]]]}, "properties": {"osm_id": 1084448642, "building": "yes", "name": "", "height": null, "height_m": null, "levels": null, "tract_id": "40011958600", "tract_name": "9586", "tags": {"building": "yes"}}}, {"type": "Feature", "geometry": {"type": "Polygon", "coordinates": [[[-98.3546646, 36.0686661], [-98.3546633, 36.068606], [-98.3546619, 36.0685458], [-98.3544443, 36.068549], [-98.3544469, 36.0686693], [-98.3546646, 36.0686661]]]}, "properties": {"osm_id": 1084448643, "building": "farm_auxiliary", "name": "", "height": null, "height_m": null, "levels": null, "tract_id": "40011958600", "tract_name": "9586", "tags": {"building": "farm_auxiliary"}}}, {"type": "Feature", "geometry": {"type": "Polygon", "coordinates": [[[-98.2630119, 36.1197019], [-98.2630106, 36.1196648], [-98.2629108, 36.1196671], [-98.2629121, 36.1197042], [-98.2630119, 36.1197019]]]}, "properties": {"osm_id": 1084448680, "building": "yes", "name": "", "height": null, "height_m": null, "levels": null, "tract_id": "40011958600", "tract_name": "9586", "tags": {"building": "yes"}}}, {"type": "Feature", "geometry": {"type": "Polygon", "coordinates": [[[-98.2641748, 36.1308709], [-98.2641227, 36.1308706], [-98.2641236, 36.1307551], [-98.2641756, 36.1307554], [-98.2641748, 36.1308709]]]}, "properties": {"osm_id": 1084448683, "building": "yes", "name": "", "height": null, "height_m": null, "levels": null, "tract_id": "40011958600", "tract_name": "9586", "tags": {"building": "yes"}}}, {"type": "Feature", "geometry": {"type": "Polygon", "coordinates": [[[-98.309994, 36.1154709], [-98.3099953, 36.1156942], [-98.3095635, 36.1156959], [-98.3095623, 36.1154725], [-98.309994, 36.1154709]]]}, "properties": {"osm_id": 1085001332, "building": "stable", "name": "", "height": null, "height_m": null, "levels": null, "tract_id": "40011958600", "tract_name": "9586", "tags": {"building": "stable"}}}, {"type": "Feature", "geometry": {"type": "Polygon", "coordinates": [[[-98.310968, 36.1143003], [-98.3109647, 36.114175], [-98.3109643, 36.1141591], [-98.3108561, 36.1141609], [-98.3108598, 36.1143022], [-98.310968, 36.1143003]]]}, "properties": {"osm_id": 1085001333, "building": "yes", "name": "", "height": null, "height_m": null, "levels": null, "tract_id": "40011958600", "tract_name": "9586", "tags": {"amenity": "toilets", "building": "yes"}}}, {"type": "Feature", "geometry": {"type": "Polygon", "coordinates": [[[-98.3102766, 36.1133889], [-98.3102766, 36.1132212], [-98.310015, 36.1132212], [-98.3100158, 36.1133859], [-98.3102766, 36.1133889]]]}, "properties": {"osm_id": 1085001343, "building": "barn", "name": "", "height": null, "height_m": null, "levels": null, "tract_id": "40011958600", "tract_name": "9586", "tags": {"building": "barn"}}}, {"type": "Feature", "geometry": {"type": "Polygon", "coordinates": [[[-98.3112409, 36.113273], [-98.3112412, 36.1132354], [-98.3112632, 36.1132355], [-98.3112636, 36.113165], [-98.3112404, 36.1131649], [-98.3112407, 36.1131103], [-98.311162, 36.11311], [-98.311161, 36.1132727], [-98.3112409, 36.113273]]]}, "properties": {"osm_id": 1085001344, "building": "yes", "name": "", "height": null, "height_m": null, "levels": null, "tract_id": "40011958600", "tract_name": "9586", "tags": {"building": "yes"}}}, {"type": "Feature", "geometry": {"type": "Polygon", "coordinates": [[[-98.3072203, 36.1115385], [-98.30722, 36.1116552], [-98.3075186, 36.1116557], [-98.307519, 36.1115391], [-98.3072203, 36.1115385]]]}, "properties": {"osm_id": 1085003339, "building": "yes", "name": "", "height": null, "height_m": null, "levels": null, "tract_id": "40011958600", "tract_name": "9586", "tags": {"building": "yes"}}}, {"type": "Feature", "geometry": {"type": "Polygon", "coordinates": [[[-98.3330047, 36.11648], [-98.3325597, 36.1164814], [-98.3325561, 36.1162891], [-98.3330012, 36.1162848], [-98.3330047, 36.11648]]]}, "properties": {"osm_id": 1230253593, "building": "yes", "name": "Dollar General", "height": null, "height_m": null, "levels": null, "tract_id": "40011958600", "tract_name": "9586", "tags": {"brand": "Dollar General", "brand:wikidata": "Q145168", "building": "yes", "name": "Dollar General", "shop": "variety_store", "website": "https://www.dollargeneral.com/store-directory/ok/okeene/14694"}}}, {"type": "Feature", "geometry": {"type": "Polygon", "coordinates": [[[-98.4151837, 36.0577503], [-98.4151835, 36.0577036], [-98.415059, 36.0577038], [-98.4150591, 36.0577505], [-98.4151837, 36.0577503]]]}, "properties": {"osm_id": 1366640897, "building": "yes", "name": "", "height": null, "height_m": null, "levels": null, "tract_id": "40011958600", "tract_name": "9586", "tags": {"building": "yes"}}}, {"type": "Feature", "geometry": {"type": "Polygon", "coordinates": [[[-98.4153477, 36.0578289], [-98.415349, 36.0577223], [-98.4152923, 36.0577218], [-98.4152911, 36.0578284], [-98.4153477, 36.0578289]]]}, "properties": {"osm_id": 1366640898, "building": "yes", "name": "", "height": null, "height_m": null, "levels": null, "tract_id": "40011958600", "tract_name": "9586", "tags": {"building": "yes"}}}]}