{"type": "FeatureCollection", "features": [{"type": "Feature", "geometry": {"type": "Polygon", "coordinates": [[[-97.5626376, 35.4067892], [-97.5625494, 35.4067885], [-97.5625509, 35.4066669], [-97.5626391, 35.4066676], [-97.5626376, 35.4067892]]]}, "properties": {"osm_id": 293799503, "building": "yes", "name": "", "height": null, "height_m": null, "levels": null, "tract_id": "40109107215", "tract_name": "1072.15", "tags": {"building": "yes", "roof:shape": "flat", "source": "Bing"}}}, {"type": "Feature", "geometry": {"type": "Polygon", "coordinates": [[[-97.5626595, 35.4066273], [-97.5625604, 35.4066273], [-97.5625604, 35.406534], [-97.5626596, 35.4065341], [-97.5626595, 35.4066273]]]}, "properties": {"osm_id": 293799504, "building": "roof", "name": "", "height": null, "height_m": null, "levels": null, "tract_id": "40109107215", "tract_name": "1072.15", "tags": {"building": "roof", "source": "Bing"}}}, {"type": "Feature", "geometry": {"type": "Polygon", "coordinates": [[[-97.5628175, 35.4068716], [-97.5627629, 35.4068716], [-97.5627632, 35.4064312], [-97.5628178, 35.4064312], [-97.5628175, 35.4068716]]]}, "properties": {"osm_id": 293799505, "building": "roof", "name": "", "height": null, "height_m": null, "levels": null, "tract_id": "40109107215", "tract_name": "1072.15", "tags": {"building": "roof", "roof:shape": "flat", "source": "Bing"}}}, {"type": "Feature", "geometry": {"type": "Polygon", "coordinates": [[[-97.5625164, 35.4068703], [-97.5624651, 35.4068702], [-97.5624654, 35.4064302], [-97.5625167, 35.4064303], [-97.5625164, 35.4068703]]]}, "properties": {"osm_id": 293799506, "building": "roof", "name": "", "height": null, "height_m": null, "levels": null, "tract_id": "40109107215", "tract_name": "1072.15", "tags": {"building": "roof", "roof:shape": "flat", "source": "Bing"}}}, {"type": "Feature", "geometry": {"type": "Polygon", "coordinates": [[[-97.5646472, 35.4085925], [-97.5645363, 35.4085925], [-97.5645363, 35.4085473], [-97.5641088, 35.4085473], [-97.5641088, 35.4085808], [-97.5640339, 35.4085808], [-97.5640339, 35.4084917], [-97.5638181, 35.4084917], [-97.5638181, 35.4081272], [-97.5646472, 35.4081272], [-97.5646472, 35.4085925]]]}, "properties": {"osm_id": 293803144, "building": "yes", "name": "", "height": null, "height_m": null, "levels": null, "tract_id": "40109107215", "tract_name": "1072.15", "tags": {"building": "yes", "roof:shape": "flat", "source": "Bing"}}}, {"type": "Feature", "geometry": {"type": "Polygon", "coordinates": [[[-97.5624363, 35.4079451], [-97.5626969, 35.4079451], [-97.5626969, 35.4080382], [-97.5625489, 35.4080382], [-97.5625489, 35.4080784], [-97.5624363, 35.4080784], [-97.5624363, 35.4079451]]]}, "properties": {"osm_id": 293803145, "building": "yes", "name": "", "height": null, "height_m": null, "levels": null, "tract_id": "40109107215", "tract_name": "1072.15", "tags": {"building": "yes", "source": "Bing"}}}, {"type": "Feature", "geometry": {"type": "Polygon", "coordinates": [[[-97.5627103, 35.4085025], [-97.5626235, 35.4085025], [-97.5626235, 35.4085674], [-97.5624014, 35.4085674], [-97.5624014, 35.4085001], [-97.5620276, 35.4085001], [-97.5620276, 35.4085674], [-97.5615985, 35.4085674], [-97.5615985, 35.408449], [-97.5614962, 35.408449], [-97.5614962, 35.4083708], [-97.5616011, 35.4083708], [-97.5616011, 35.4081566], [-97.5617198, 35.4081566], [-97.5617198, 35.4082252], [-97.561747, 35.4082253], [-97.5617469, 35.4083646], [-97.5618456, 35.4083647], [-97.5618456, 35.4081328], [-97.5618174, 35.4081328], [-97.5618174, 35.4081112], [-97.5616163, 35.4081111], [-97.5616163, 35.4080666], [-97.5615825, 35.4080666], [-97.5615825, 35.4080229], [-97.5616154, 35.4080229], [-97.5616154, 35.4079786], [-97.5618538, 35.4079786], [-97.5618538, 35.4079558], [-97.5620388, 35.4079558], [-97.5620388, 35.4079773], [-97.5621951, 35.4079773], [-97.5621951, 35.4078433], [-97.5619139, 35.4078433], [-97.5619139, 35.4078768], [-97.5618539, 35.4078768], [-97.5618539, 35.4078459], [-97.5617979, 35.4078459], [-97.5617979, 35.4078637], [-97.5614744, 35.4078637], [-97.5614744, 35.4077462], [-97.5617826, 35.4077462], [-97.5617826, 35.4074642], [-97.5616791, 35.4074642], [-97.5616791, 35.4076367], [-97.5614962, 35.4076367], [-97.5614962, 35.4072151], [-97.5616791, 35.407215], [-97.5616791, 35.4073126], [-97.5617826, 35.4073126], [-97.5617826, 35.407215], [-97.5619663, 35.407215], [-97.5619663, 35.4076917], [-97.5621805, 35.4076917], [-97.5621805, 35.4075889], [-97.5620454, 35.4075889], [-97.5620454, 35.4074386], [-97.5621954, 35.4074386], [-97.5621954, 35.4073618], [-97.5620198, 35.4073618], [-97.5620198, 35.407215], [-97.5626391, 35.407215], [-97.562639, 35.4073635], [-97.5623976, 35.4073635], [-97.5623975, 35.407517], [-97.5624559, 35.407517], [-97.562456, 35.4074235], [-97.562639, 35.4074235], [-97.5626389, 35.4078444], [-97.5624554, 35.4078443], [-97.5624555, 35.4075828], [-97.562402, 35.4075827], [-97.5624019, 35.4077311], [-97.5623811, 35.4077311], [-97.562381, 35.4079775], [-97.5623869, 35.4079775], [-97.5623869, 35.4081148], [-97.562039, 35.4081147], [-97.562039, 35.4081376], [-97.5620094, 35.4081376], [-97.5620093, 35.408366], [-97.5624024, 35.4083661], [-97.5624024, 35.4083406], [-97.5624311, 35.4083406], [-97.5624312, 35.408102], [-97.5625942, 35.4081021], [-97.5625941, 35.4083425], [-97.5626245, 35.4083425], [-97.5626245, 35.4083649], [-97.5627103, 35.4083649], [-97.5627103, 35.4085025]]]}, "properties": {"osm_id": 293803146, "building": "apartments", "name": "", "height": null, "height_m": null, "levels": null, "tract_id": "40109107215", "tract_name": "1072.15", "tags": {"building": "apartments", "source": "Bing"}}}, {"type": "Feature", "geometry": {"type": "Polygon", "coordinates": [[[-97.5616314, 35.4115872], [-97.5616312, 35.4117064], [-97.5616262, 35.4117064], [-97.5616261, 35.411741], [-97.5615539, 35.4117409], [-97.561554, 35.4117069], [-97.5614696, 35.4117067], [-97.5614699, 35.411616], [-97.561526, 35.4116161], [-97.561526, 35.4115994], [-97.5615668, 35.4115994], [-97.5615668, 35.4115871], [-97.5616314, 35.4115872]]]}, "properties": {"osm_id": 1392253976, "building": "house", "name": "", "height": null, "height_m": null, "levels": null, "tract_id": "40109107215", "tract_name": "1072.15", "tags": {"addr:city": "Oklahoma City", "addr:housenumber": "2705", "addr:postcode": "73119", "addr:state": "OK", "addr:street": "Southwest 54th Street", "building": "house"}}}, {"type": "Feature", "geometry": {"type": "Polygon", "coordinates": [[[-97.5616423, 35.411326], [-97.5615764, 35.4113264], [-97.5615762, 35.4113086], [-97.5614723, 35.4113093], [-97.5614713, 35.4112002], [-97.5615391, 35.4111998], [-97.5615388, 35.411164], [-97.5616099, 35.4111636], [-97.5616104, 35.4112183], [-97.5616412, 35.4112181], [-97.5616423, 35.411326]]]}, "properties": {"osm_id": 1392253977, "building": "house", "name": "", "height": null, "height_m": null, "levels": null, "tract_id": "40109107215", "tract_name": "1072.15", "tags": {"addr:city": "Oklahoma City", "addr:housenumber": "2704", "addr:postcode": "73119", "addr:state": "OK", "addr:street": "Southwest 54th Street", "building": "house"}}}, {"type": "Feature", "geometry": {"type": "Polygon", "coordinates": [[[-97.561829, 35.4113188], [-97.5617634, 35.4113189], [-97.5617633, 35.4113126], [-97.5617183, 35.4113127], [-97.5617182, 35.4112989], [-97.5616593, 35.411299], [-97.561659, 35.4111715], [-97.5618287, 35.4111713], [-97.561829, 35.4113188]]]}, "properties": {"osm_id": 1392253978, "building": "house", "name": "", "height": null, "height_m": null, "levels": null, "tract_id": "40109107215", "tract_name": "1072.15", "tags": {"addr:city": "Oklahoma City", "addr:housenumber": "2708", "addr:postcode": "73119", "addr:state": "OK", "addr:street": "Southwest 54th Street", "building": "house"}}}, {"type": "Feature", "geometry": {"type": "Polygon", "coordinates": [[[-97.5620163, 35.411326], [-97.5619515, 35.4113258], [-97.5619515, 35.4113201], [-97.5619074, 35.41132], [-97.5619074, 35.4113067], [-97.5618447, 35.4113066], [-97.5618451, 35.4112132], [-97.5619478, 35.4112134], [-97.5619478, 35.4112182], [-97.5620167, 35.4112183], [-97.5620163, 35.411326]]]}, "properties": {"osm_id": 1392253979, "building": "house", "name": "", "height": null, "height_m": null, "levels": null, "tract_id": "40109107215", "tract_name": "1072.15", "tags": {"addr:city": "Oklahoma City", "addr:housenumber": "2712", "addr:postcode": "73119", "addr:state": "OK", "addr:street": "Southwest 54th Street", "building": "house"}}}, {"type": "Feature", "geometry": {"type": "Polygon", "coordinates": [[[-97.5622058, 35.4116993], [-97.5621241, 35.4116994], [-97.5621241, 35.4117183], [-97.5620354, 35.4117184], [-97.5620352, 35.4116083], [-97.5620808, 35.4116082], [-97.5620807, 35.4116036], [-97.5621407, 35.4116036], [-97.5621407, 35.4115925], [-97.5622056, 35.4115924], [-97.5622058, 35.4116993]]]}, "properties": {"osm_id": 1392253980, "building": "house", "name": "", "height": null, "height_m": null, "levels": null, "tract_id": "40109107215", "tract_name": "1072.15", "tags": {"addr:city": "Oklahoma City", "addr:housenumber": "2717", "addr:postcode": "73119", "addr:state": "OK", "addr:street": "Southwest 54th Street", "building": "house"}}}, {"type": "Feature", "geometry": {"type": "Polygon", "coordinates": [[[-97.5623969, 35.4116959], [-97.5622247, 35.4116971], [-97.5622238, 35.4116076], [-97.562271, 35.4116073], [-97.5622708, 35.411589], [-97.5623957, 35.4115881], [-97.5623969, 35.4116959]]]}, "properties": {"osm_id": 1392253981, "building": "house", "name": "", "height": null, "height_m": null, "levels": null, "tract_id": "40109107215", "tract_name": "1072.15", "tags": {"addr:city": "Oklahoma City", "addr:housenumber": "2721", "addr:postcode": "73119", "addr:state": "OK", "addr:street": "Southwest 54th Street", "building": "house"}}}, {"type": "Feature", "geometry": {"type": "Polygon", "coordinates": [[[-97.5625752, 35.4113183], [-97.5624694, 35.4113182], [-97.5624694, 35.4112894], [-97.5624184, 35.4112893], [-97.5624185, 35.4112009], [-97.5625754, 35.4112011], [-97.5625752, 35.4113183]]]}, "properties": {"osm_id": 1392253982, "building": "house", "name": "", "height": null, "height_m": null, "levels": null, "tract_id": "40109107215", "tract_name": "1072.15", "tags": {"addr:city": "Oklahoma City", "addr:housenumber": "2724", "addr:postcode": "73119", "addr:state": "OK", "addr:street": "Southwest 54th Street", "building": "house"}}}, {"type": "Feature", "geometry": {"type": "Polygon", "coordinates": [[[-97.562583, 35.4117014], [-97.5625305, 35.4117015], [-97.5625305, 35.4117126], [-97.5624124, 35.4117128], [-97.5624121, 35.4116128], [-97.562515, 35.4116126], [-97.5625149, 35.4115928], [-97.5625827, 35.4115927], [-97.562583, 35.4117014]]]}, "properties": {"osm_id": 1392253983, "building": "house", "name": "", "height": null, "height_m": null, "levels": null, "tract_id": "40109107215", "tract_name": "1072.15", "tags": {"addr:city": "Oklahoma City", "addr:housenumber": "2725", "addr:postcode": "73119", "addr:state": "OK", "addr:street": "Southwest 54th Street", "building": "house"}}}, {"type": "Feature", "geometry": {"type": "Polygon", "coordinates": [[[-97.5627676, 35.4113236], [-97.5626928, 35.4113239], [-97.5626925, 35.4112909], [-97.5625971, 35.4112914], [-97.5625965, 35.4112086], [-97.5627668, 35.4112078], [-97.5627676, 35.4113236]]]}, "properties": {"osm_id": 1392253984, "building": "house", "name": "", "height": null, "height_m": null, "levels": null, "tract_id": "40109107215", "tract_name": "1072.15", "tags": {"addr:city": "Oklahoma City", "addr:housenumber": "2728", "addr:postcode": "73119", "addr:state": "OK", "addr:street": "Southwest 54th Street", "building": "house"}}}, {"type": "Feature", "geometry": {"type": "Polygon", "coordinates": [[[-97.5629069, 35.4117149], [-97.5627875, 35.4117156], [-97.5627866, 35.411614], [-97.5628272, 35.4116137], [-97.5628271, 35.4116089], [-97.5628928, 35.4116085], [-97.5628927, 35.4115937], [-97.5629602, 35.4115933], [-97.5629613, 35.4117001], [-97.5629067, 35.4117005], [-97.5629069, 35.4117149]]]}, "properties": {"osm_id": 1392253985, "building": "house", "name": "", "height": null, "height_m": null, "levels": null, "tract_id": "40109107215", "tract_name": "1072.15", "tags": {"addr:city": "Oklahoma City", "addr:housenumber": "2733", "addr:postcode": "73119", "addr:state": "OK", "addr:street": "Southwest 54th Street", "building": "house"}}}, {"type": "Feature", "geometry": {"type": "Polygon", "coordinates": [[[-97.5631417, 35.411323], [-97.5630429, 35.4113233], [-97.5630427, 35.4112904], [-97.5629774, 35.4112906], [-97.562977, 35.4112037], [-97.5631412, 35.4112032], [-97.5631417, 35.411323]]]}, "properties": {"osm_id": 1392253986, "building": "house", "name": "", "height": null, "height_m": null, "levels": null, "tract_id": "40109107215", "tract_name": "1072.15", "tags": {"addr:city": "Oklahoma City", "addr:housenumber": "2736", "addr:postcode": "73119", "addr:state": "OK", "addr:street": "Southwest 54th Street", "building": "house"}}}, {"type": "Feature", "geometry": {"type": "Polygon", "coordinates": [[[-97.5631455, 35.411692], [-97.5629758, 35.4116932], [-97.5629748, 35.411606], [-97.5630207, 35.4116056], [-97.5630206, 35.4116], [-97.5630635, 35.4115997], [-97.5630633, 35.4115864], [-97.5631443, 35.4115858], [-97.5631455, 35.411692]]]}, "properties": {"osm_id": 1392253987, "building": "house", "name": "", "height": null, "height_m": null, "levels": null, "tract_id": "40109107215", "tract_name": "1072.15", "tags": {"addr:city": "Oklahoma City", "addr:housenumber": "2737", "addr:postcode": "73119", "addr:state": "OK", "addr:street": "Southwest 54th Street", "building": "house"}}}, {"type": "Feature", "geometry": {"type": "Polygon", "coordinates": [[[-97.5633324, 35.4116963], [-97.5631669, 35.4116959], [-97.5631673, 35.4116092], [-97.5632278, 35.4116094], [-97.5632279, 35.4115863], [-97.5633329, 35.4115866], [-97.5633324, 35.4116963]]]}, "properties": {"osm_id": 1392253988, "building": "house", "name": "", "height": null, "height_m": null, "levels": null, "tract_id": "40109107215", "tract_name": "1072.15", "tags": {"addr:city": "Oklahoma City", "addr:housenumber": "2741", "addr:postcode": "73119", "addr:state": "OK", "addr:street": "Southwest 54th Street", "building": "house"}}}, {"type": "Feature", "geometry": {"type": "Polygon", "coordinates": [[[-97.5637085, 35.4113246], [-97.5636239, 35.4113246], [-97.5636239, 35.4113208], [-97.5635987, 35.4113208], [-97.5635987, 35.4113077], [-97.5635365, 35.4113077], [-97.5635365, 35.4111898], [-97.5636114, 35.4111898], [-97.5636114, 35.4112151], [-97.5637084, 35.4112151], [-97.5637085, 35.4113246]]]}, "properties": {"osm_id": 1392253989, "building": "house", "name": "", "height": null, "height_m": null, "levels": null, "tract_id": "40109107215", "tract_name": "1072.15", "tags": {"addr:city": "Oklahoma City", "addr:housenumber": "2804", "addr:postcode": "73119", "addr:state": "OK", "addr:street": "Southwest 54th Street", "building": "house"}}}, {"type": "Feature", "geometry": {"type": "Polygon", "coordinates": [[[-97.5638969, 35.4113207], [-97.5638121, 35.4113208], [-97.5638121, 35.4113146], [-97.5637716, 35.4113146], [-97.5637716, 35.4113059], [-97.5637251, 35.4113059], [-97.5637249, 35.4111884], [-97.5637992, 35.4111883], [-97.5637993, 35.4112146], [-97.5638968, 35.4112145], [-97.5638969, 35.4113207]]]}, "properties": {"osm_id": 1392253990, "building": "house", "name": "", "height": null, "height_m": null, "levels": null, "tract_id": "40109107215", "tract_name": "1072.15", "tags": {"addr:city": "Oklahoma City", "addr:housenumber": "2808", "addr:postcode": "73119", "addr:state": "OK", "addr:street": "Southwest 54th Street", "building": "house"}}}, {"type": "Feature", "geometry": {"type": "Polygon", "coordinates": [[[-97.5640845, 35.4113237], [-97.5639644, 35.4113231], [-97.5639645, 35.411308], [-97.5639144, 35.4113078], [-97.563915, 35.4112155], [-97.5640853, 35.4112163], [-97.5640845, 35.4113237]]]}, "properties": {"osm_id": 1392253991, "building": "house", "name": "", "height": null, "height_m": null, "levels": null, "tract_id": "40109107215", "tract_name": "1072.15", "tags": {"addr:city": "Oklahoma City", "addr:housenumber": "2812", "addr:postcode": "73119", "addr:state": "OK", "addr:street": "Southwest 54th Street", "building": "house"}}}, {"type": "Feature", "geometry": {"type": "Polygon", "coordinates": [[[-97.5640864, 35.4117011], [-97.5639142, 35.4117013], [-97.5639141, 35.4116187], [-97.5640041, 35.4116186], [-97.564004, 35.4115948], [-97.5640207, 35.4115948], [-97.5640207, 35.4115853], [-97.5640863, 35.4115853], [-97.5640864, 35.4117011]]]}, "properties": {"osm_id": 1392253992, "building": "house", "name": "", "height": null, "height_m": null, "levels": null, "tract_id": "40109107215", "tract_name": "1072.15", "tags": {"addr:city": "Oklahoma City", "addr:housenumber": "2813", "addr:postcode": "73119", "addr:state": "OK", "addr:street": "Southwest 54th Street", "building": "house"}}}, {"type": "Feature", "geometry": {"type": "Polygon", "coordinates": [[[-97.5641043, 35.4113013], [-97.5641554, 35.4113012], [-97.5641554, 35.4113058], [-97.5641993, 35.4113058], [-97.5641993, 35.4113242], [-97.5642625, 35.4113241], [-97.5642623, 35.4112081], [-97.5642064, 35.4112082], [-97.5642064, 35.4111911], [-97.5641042, 35.4111912], [-97.5641043, 35.4113013]]]}, "properties": {"osm_id": 1392253993, "building": "house", "name": "", "height": null, "height_m": null, "levels": null, "tract_id": "40109107215", "tract_name": "1072.15", "tags": {"addr:city": "Oklahoma City", "addr:housenumber": "2816", "addr:state": "OK", "addr:street": "Southwest 54th Street", "building": "house"}}}, {"type": "Feature", "geometry": {"type": "Polygon", "coordinates": [[[-97.5643416, 35.4116991], [-97.5642833, 35.4116989], [-97.5642838, 35.4116158], [-97.564344, 35.4116161], [-97.5643442, 35.4115797], [-97.5644062, 35.41158], [-97.5644062, 35.411584], [-97.5644514, 35.4115842], [-97.5644504, 35.4117329], [-97.5643414, 35.4117325], [-97.5643416, 35.4116991]]]}, "properties": {"osm_id": 1392253994, "building": "house", "name": "", "height": null, "height_m": null, "levels": null, "tract_id": "40109107215", "tract_name": "1072.15", "tags": {"addr:city": "Oklahoma City", "addr:housenumber": "2821", "addr:postcode": "73119", "addr:state": "OK", "addr:street": "Southwest 54th Street", "building": "house"}}}, {"type": "Feature", "geometry": {"type": "Polygon", "coordinates": [[[-97.5646231, 35.4117406], [-97.5645366, 35.4117408], [-97.5645365, 35.4116985], [-97.5644735, 35.4116987], [-97.564473, 35.4115845], [-97.5646224, 35.411584], [-97.5646231, 35.4117406]]]}, "properties": {"osm_id": 1392253995, "building": "house", "name": "", "height": null, "height_m": null, "levels": null, "tract_id": "40109107215", "tract_name": "1072.15", "tags": {"addr:city": "Oklahoma City", "addr:housenumber": "2825", "addr:postcode": "73119", "addr:state": "OK", "addr:street": "Southwest 54th Street", "building": "house"}}}, {"type": "Feature", "geometry": {"type": "Polygon", "coordinates": [[[-97.5647324, 35.4113179], [-97.5646424, 35.4113181], [-97.564642, 35.4111953], [-97.564812, 35.4111949], [-97.5648123, 35.4112846], [-97.5647323, 35.4112848], [-97.5647324, 35.4113179]]]}, "properties": {"osm_id": 1392253996, "building": "house", "name": "", "height": null, "height_m": null, "levels": null, "tract_id": "40109107215", "tract_name": "1072.15", "tags": {"addr:city": "Oklahoma City", "addr:housenumber": "2828", "addr:postcode": "73119", "addr:state": "OK", "addr:street": "Southwest 54th Street", "building": "house"}}}, {"type": "Feature", "geometry": {"type": "Polygon", "coordinates": [[[-97.5648019, 35.4117], [-97.5647483, 35.4117001], [-97.5647483, 35.4116914], [-97.5646549, 35.4116916], [-97.5646545, 35.411587], [-97.5647232, 35.4115868], [-97.5647232, 35.411596], [-97.5648016, 35.4115958], [-97.5648019, 35.4117]]]}, "properties": {"osm_id": 1392253997, "building": "house", "name": "", "height": null, "height_m": null, "levels": null, "tract_id": "40109107215", "tract_name": "1072.15", "tags": {"addr:city": "Oklahoma City", "addr:housenumber": "2829", "addr:postcode": "73119", "addr:state": "OK", "addr:street": "Southwest 54th Street", "building": "house"}}}, {"type": "Feature", "geometry": {"type": "Polygon", "coordinates": [[[-97.5649309, 35.4117113], [-97.5648268, 35.4117111], [-97.5648272, 35.4116057], [-97.5649198, 35.4116059], [-97.5649199, 35.4115828], [-97.5649935, 35.4115829], [-97.564993, 35.4117007], [-97.5649309, 35.4117005], [-97.5649309, 35.4117113]]]}, "properties": {"osm_id": 1392253998, "building": "house", "name": "", "height": null, "height_m": null, "levels": null, "tract_id": "40109107215", "tract_name": "1072.15", "tags": {"addr:city": "Oklahoma City", "addr:housenumber": "2833", "addr:postcode": "73119", "addr:state": "OK", "addr:street": "Southwest 54th Street", "building": "house"}}}, {"type": "Feature", "geometry": {"type": "Polygon", "coordinates": [[[-97.5649906, 35.4113207], [-97.5649241, 35.4113209], [-97.564924, 35.4113058], [-97.5648251, 35.4113062], [-97.5648244, 35.4111963], [-97.5648981, 35.411196], [-97.5648982, 35.4112085], [-97.5649165, 35.4112085], [-97.5649163, 35.4111814], [-97.5649608, 35.4111813], [-97.564961, 35.411209], [-97.5649899, 35.4112088], [-97.5649906, 35.4113207]]]}, "properties": {"osm_id": 1392253999, "building": "house", "name": "", "height": null, "height_m": null, "levels": null, "tract_id": "40109107215", "tract_name": "1072.15", "tags": {"addr:city": "Oklahoma City", "addr:housenumber": "2832", "addr:postcode": "73119", "addr:state": "OK", "addr:street": "Southwest 54th Street", "building": "house"}}}, {"type": "Feature", "geometry": {"type": "Polygon", "coordinates": [[[-97.5651738, 35.4116933], [-97.5650077, 35.4116939], [-97.5650072, 35.4116053], [-97.5650663, 35.4116051], [-97.5650662, 35.4115911], [-97.5651076, 35.4115909], [-97.5651076, 35.4115825], [-97.5651731, 35.4115822], [-97.5651738, 35.4116933]]]}, "properties": {"osm_id": 1392254000, "building": "house", "name": "", "height": null, "height_m": null, "levels": null, "tract_id": "40109107215", "tract_name": "1072.15", "tags": {"addr:city": "Oklahoma City", "addr:housenumber": "2837", "addr:postcode": "73119", "addr:state": "OK", "addr:street": "Southwest 54th Street", "building": "house"}}}, {"type": "Feature", "geometry": {"type": "Polygon", "coordinates": [[[-97.5653407, 35.4113222], [-97.5652893, 35.4113223], [-97.5652893, 35.4113085], [-97.5652324, 35.4113086], [-97.5652321, 35.4111971], [-97.5653404, 35.4111969], [-97.5653407, 35.4113222]]]}, "properties": {"osm_id": 1392254001, "building": "house", "name": "", "height": null, "height_m": null, "levels": null, "tract_id": "40109107215", "tract_name": "1072.15", "tags": {"addr:city": "Oklahoma City", "addr:housenumber": "2840", "addr:postcode": "73119", "addr:state": "OK", "addr:street": "Southwest 54th Street", "building": "house"}}}, {"type": "Feature", "geometry": {"type": "Polygon", "coordinates": [[[-97.5614364, 35.4113265], [-97.561304, 35.4113267], [-97.5613038, 35.4112604], [-97.5613229, 35.4112604], [-97.5613228, 35.4112109], [-97.5613419, 35.4112109], [-97.5613418, 35.4111576], [-97.5614361, 35.4111575], [-97.5614364, 35.4113265]]]}, "properties": {"osm_id": 1392254002, "building": "house", "name": "", "height": null, "height_m": null, "levels": null, "tract_id": "40109107215", "tract_name": "1072.15", "tags": {"addr:city": "Oklahoma City", "addr:housenumber": "5501", "addr:postcode": "73119", "addr:state": "OK", "addr:street": "South Ross Avenue", "building": "house"}}}, {"type": "Feature", "geometry": {"type": "Polygon", "coordinates": [[[-97.5614396, 35.4109633], [-97.561308, 35.4109641], [-97.5613073, 35.4108876], [-97.5613198, 35.4108875], [-97.5613193, 35.4108306], [-97.5613391, 35.4108305], [-97.5613387, 35.4107953], [-97.561438, 35.4107947], [-97.5614396, 35.4109633]]]}, "properties": {"osm_id": 1392254003, "building": "house", "name": "", "height": null, "height_m": null, "levels": null, "tract_id": "40109107215", "tract_name": "1072.15", "tags": {"addr:city": "Oklahoma City", "addr:housenumber": "5511", "addr:postcode": "73119", "addr:state": "OK", "addr:street": "South Ross Avenue", "building": "house"}}}, {"type": "Feature", "geometry": {"type": "Polygon", "coordinates": [[[-97.5608614, 35.4113251], [-97.5607767, 35.4113466], [-97.5607673, 35.411322], [-97.5607028, 35.4113384], [-97.5606767, 35.41127], [-97.5606718, 35.4112712], [-97.5606581, 35.4112352], [-97.56072, 35.4112195], [-97.5607291, 35.4112434], [-97.5608152, 35.4112216], [-97.560842, 35.4112916], [-97.5608481, 35.4112901], [-97.5608614, 35.4113251]]]}, "properties": {"osm_id": 1392254004, "building": "house", "name": "", "height": null, "height_m": null, "levels": null, "tract_id": "40109107215", "tract_name": "1072.15", "tags": {"addr:city": "Oklahoma City", "addr:housenumber": "2658", "addr:postcode": "73119", "addr:state": "OK", "addr:street": "Southwest 54th Street", "building": "house"}}}, {"type": "Feature", "geometry": {"type": "Polygon", "coordinates": [[[-97.5606883, 35.4113828], [-97.5606182, 35.4114196], [-97.5605994, 35.4113957], [-97.5605258, 35.4114343], [-97.560471, 35.4113648], [-97.5605086, 35.4113451], [-97.5604827, 35.4113123], [-97.5605586, 35.4112725], [-97.5605834, 35.411304], [-97.5606136, 35.4112882], [-97.5606883, 35.4113828]]]}, "properties": {"osm_id": 1392254005, "building": "house", "name": "", "height": null, "height_m": null, "levels": null, "tract_id": "40109107215", "tract_name": "1072.15", "tags": {"addr:city": "Oklahoma City", "addr:housenumber": "2652", "addr:postcode": "73119", "addr:state": "OK", "addr:street": "Southwest 54th Street", "building": "house"}}}, {"type": "Feature", "geometry": {"type": "Polygon", "coordinates": [[[-97.5610212, 35.4116941], [-97.5609648, 35.4117163], [-97.5609592, 35.4117068], [-97.5608012, 35.411769], [-97.5607526, 35.4116869], [-97.560891, 35.4116325], [-97.5608816, 35.4116166], [-97.5609576, 35.4115867], [-97.5610212, 35.4116941]]]}, "properties": {"osm_id": 1392254006, "building": "house", "name": "", "height": null, "height_m": null, "levels": null, "tract_id": "40109107215", "tract_name": "1072.15", "tags": {"addr:city": "Oklahoma City", "addr:housenumber": "2661", "addr:postcode": "73119", "addr:state": "OK", "addr:street": "Southwest 54th Street", "building": "house"}}}, {"type": "Feature", "geometry": {"type": "Polygon", "coordinates": [[[-97.5607808, 35.4117972], [-97.5607171, 35.4118443], [-97.5607038, 35.4118323], [-97.5606173, 35.4118963], [-97.5605508, 35.4118366], [-97.5605853, 35.4118111], [-97.5605731, 35.4118001], [-97.5606272, 35.41176], [-97.5606247, 35.4117577], [-97.5606862, 35.4117123], [-97.5607808, 35.4117972]]]}, "properties": {"osm_id": 1392254007, "building": "house", "name": "", "height": null, "height_m": null, "levels": null, "tract_id": "40109107215", "tract_name": "1072.15", "tags": {"addr:city": "Oklahoma City", "addr:housenumber": "2649", "addr:postcode": "73119", "addr:state": "OK", "addr:street": "Southwest 54th Street", "building": "house"}}}, {"type": "Feature", "geometry": {"type": "Polygon", "coordinates": [[[-97.5603787, 35.4115728], [-97.5603317, 35.4116077], [-97.56032, 35.4115973], [-97.5602953, 35.4116156], [-97.5602851, 35.4116065], [-97.5602364, 35.4116426], [-97.5601681, 35.4115816], [-97.5602885, 35.4114922], [-97.5603787, 35.4115728]]]}, "properties": {"osm_id": 1392254008, "building": "house", "name": "", "height": null, "height_m": null, "levels": null, "tract_id": "40109107215", "tract_name": "1072.15", "tags": {"addr:city": "Oklahoma City", "addr:housenumber": "2644", "addr:postcode": "73119", "addr:state": "OK", "addr:street": "Southwest 54th Street", "building": "house"}}}, {"type": "Feature", "geometry": {"type": "Polygon", "coordinates": [[[-97.5602456, 35.4116838], [-97.5601846, 35.4117284], [-97.5601585, 35.4117047], [-97.5600883, 35.411756], [-97.5600215, 35.4116952], [-97.5601528, 35.4115993], [-97.5602456, 35.4116838]]]}, "properties": {"osm_id": 1392254009, "building": "house", "name": "", "height": null, "height_m": null, "levels": null, "tract_id": "40109107215", "tract_name": "1072.15", "tags": {"addr:city": "Oklahoma City", "addr:housenumber": "2640", "addr:postcode": "73119", "addr:state": "OK", "addr:street": "Southwest 54th Street", "building": "house"}}}, {"type": "Feature", "geometry": {"type": "Polygon", "coordinates": [[[-97.560586, 35.4119283], [-97.5605415, 35.411961], [-97.5605518, 35.4119703], [-97.5604736, 35.4120279], [-97.560387, 35.4119498], [-97.560417, 35.4119277], [-97.5604135, 35.4119246], [-97.5604544, 35.4118944], [-97.5604458, 35.4118866], [-97.5604975, 35.4118485], [-97.560586, 35.4119283]]]}, "properties": {"osm_id": 1392254010, "building": "house", "name": "", "height": null, "height_m": null, "levels": null, "tract_id": "40109107215", "tract_name": "1072.15", "tags": {"addr:city": "Oklahoma City", "addr:housenumber": "2645", "addr:postcode": "73119", "addr:state": "OK", "addr:street": "Southwest 54th Street", "building": "house"}}}, {"type": "Feature", "geometry": {"type": "Polygon", "coordinates": [[[-97.5603477, 35.4121374], [-97.5602497, 35.4120488], [-97.5603195, 35.4119975], [-97.5603079, 35.411987], [-97.5603556, 35.4119519], [-97.5604538, 35.4120407], [-97.5604138, 35.4120701], [-97.5604239, 35.4120793], [-97.5604129, 35.4120874], [-97.5604511, 35.4121219], [-97.5603979, 35.412161], [-97.560361, 35.4121276], [-97.5603477, 35.4121374]]]}, "properties": {"osm_id": 1392254011, "building": "house", "name": "", "height": null, "height_m": null, "levels": null, "tract_id": "40109107215", "tract_name": "1072.15", "tags": {"addr:city": "Oklahoma City", "addr:housenumber": "2641", "addr:postcode": "73119", "addr:state": "OK", "addr:street": "Southwest 54th Street", "building": "house"}}}, {"type": "Feature", "geometry": {"type": "Polygon", "coordinates": [[[-97.5603178, 35.4121278], [-97.5601941, 35.4122185], [-97.5601249, 35.4121558], [-97.5601729, 35.4121206], [-97.5601613, 35.4121102], [-97.5601871, 35.4120913], [-97.560177, 35.4120822], [-97.560227, 35.4120456], [-97.5603178, 35.4121278]]]}, "properties": {"osm_id": 1392254012, "building": "house", "name": "", "height": null, "height_m": null, "levels": null, "tract_id": "40109107215", "tract_name": "1072.15", "tags": {"addr:city": "Oklahoma City", "addr:housenumber": "2637", "addr:postcode": "73119", "addr:state": "OK", "addr:street": "Southwest 54th Street", "building": "house"}}}, {"type": "Feature", "geometry": {"type": "Polygon", "coordinates": [[[-97.5602059, 35.41225], [-97.5601577, 35.4122845], [-97.5601339, 35.4122624], [-97.5600578, 35.4123168], [-97.5599908, 35.4122546], [-97.5600546, 35.4122089], [-97.5600324, 35.4121884], [-97.5600929, 35.4121451], [-97.5602059, 35.41225]]]}, "properties": {"osm_id": 1392254013, "building": "house", "name": "", "height": null, "height_m": null, "levels": null, "tract_id": "40109107215", "tract_name": "1072.15", "tags": {"addr:city": "Oklahoma City", "addr:housenumber": "2633", "addr:postcode": "73119", "addr:state": "OK", "addr:street": "Southwest 54th Street", "building": "house"}}}, {"type": "Feature", "geometry": {"type": "Polygon", "coordinates": [[[-97.5598062, 35.4120043], [-97.5597396, 35.4120527], [-97.5597185, 35.4120334], [-97.5596573, 35.4120779], [-97.5595849, 35.4120116], [-97.5597126, 35.4119188], [-97.5598062, 35.4120043]]]}, "properties": {"osm_id": 1392254014, "building": "house", "name": "", "height": null, "height_m": null, "levels": null, "tract_id": "40109107215", "tract_name": "1072.15", "tags": {"addr:city": "Oklahoma City", "addr:housenumber": "2628", "addr:postcode": "73119", "addr:state": "OK", "addr:street": "Southwest 54th Street", "building": "house"}}}, {"type": "Feature", "geometry": {"type": "Polygon", "coordinates": [[[-97.5598722, 35.4125008], [-97.5598204, 35.4125393], [-97.5597212, 35.4124504], [-97.5597594, 35.412422], [-97.5597422, 35.4124065], [-97.559825, 35.4123451], [-97.5599166, 35.412427], [-97.5598473, 35.4124785], [-97.5598722, 35.4125008]]]}, "properties": {"osm_id": 1392254015, "building": "house", "name": "", "height": null, "height_m": null, "levels": null, "tract_id": "40109107215", "tract_name": "1072.15", "tags": {"addr:city": "Oklahoma City", "addr:housenumber": "2625", "addr:postcode": "73119", "addr:state": "OK", "addr:street": "Southwest 54th Street", "building": "house"}}}, {"type": "Feature", "geometry": {"type": "Polygon", "coordinates": [[[-97.5597764, 35.4125203], [-97.5597076, 35.4125712], [-97.5597308, 35.412592], [-97.5596778, 35.4126313], [-97.5595771, 35.412541], [-97.5596051, 35.4125202], [-97.559593, 35.4125094], [-97.5596869, 35.4124399], [-97.5597764, 35.4125203]]]}, "properties": {"osm_id": 1392254016, "building": "house", "name": "", "height": null, "height_m": null, "levels": null, "tract_id": "40109107215", "tract_name": "1072.15", "tags": {"addr:city": "Oklahoma City", "addr:housenumber": "2621", "addr:postcode": "73119", "addr:state": "OK", "addr:street": "Southwest 54th Street", "building": "house"}}}, {"type": "Feature", "geometry": {"type": "Polygon", "coordinates": [[[-97.5593642, 35.4123158], [-97.5592893, 35.4123711], [-97.559248, 35.412334], [-97.5592387, 35.4123338], [-97.5591863, 35.4123725], [-97.5591262, 35.4123185], [-97.5592585, 35.4122207], [-97.5593642, 35.4123158]]]}, "properties": {"osm_id": 1392254017, "building": "house", "name": "", "height": null, "height_m": null, "levels": null, "tract_id": "40109107215", "tract_name": "1072.15", "tags": {"addr:city": "Oklahoma City", "addr:housenumber": "2616", "addr:postcode": "73119", "addr:state": "OK", "addr:street": "Southwest 54th Street", "building": "house"}}}, {"type": "Feature", "geometry": {"type": "Polygon", "coordinates": [[[-97.559527, 35.4127104], [-97.5594315, 35.4126239], [-97.5594807, 35.4125878], [-97.5594937, 35.4125996], [-97.5595136, 35.412585], [-97.5595056, 35.4125777], [-97.5595547, 35.4125417], [-97.5596452, 35.4126237], [-97.559527, 35.4127104]]]}, "properties": {"osm_id": 1392254018, "building": "house", "name": "", "height": null, "height_m": null, "levels": null, "tract_id": "40109107215", "tract_name": "1072.15", "tags": {"addr:city": "Oklahoma City", "addr:housenumber": "2613", "addr:postcode": "73119", "addr:state": "OK", "addr:street": "Southwest 54th Street", "building": "house"}}}, {"type": "Feature", "geometry": {"type": "Polygon", "coordinates": [[[-97.5591058, 35.4125382], [-97.5590177, 35.4124878], [-97.5590719, 35.4124248], [-97.5590173, 35.4123935], [-97.5590712, 35.412331], [-97.5591986, 35.4124039], [-97.5591729, 35.4124336], [-97.5591883, 35.4124424], [-97.5591058, 35.4125382]]]}, "properties": {"osm_id": 1392254019, "building": "house", "name": "", "height": null, "height_m": null, "levels": null, "tract_id": "40109107215", "tract_name": "1072.15", "tags": {"addr:city": "Oklahoma City", "addr:housenumber": "2612", "addr:postcode": "73119", "addr:state": "OK", "addr:street": "Southwest 54th Street", "building": "house"}}}, {"type": "Feature", "geometry": {"type": "Polygon", "coordinates": [[[-97.5590286, 35.4126252], [-97.5590061, 35.4126792], [-97.5589191, 35.4126551], [-97.5589734, 35.4125248], [-97.5591216, 35.4125658], [-97.5590898, 35.4126422], [-97.5590286, 35.4126252]]]}, "properties": {"osm_id": 1392254020, "building": "house", "name": "", "height": null, "height_m": null, "levels": null, "tract_id": "40109107215", "tract_name": "1072.15", "tags": {"addr:city": "Oklahoma City", "addr:housenumber": "2608", "addr:postcode": "73119", "addr:state": "OK", "addr:street": "Southwest 54th Street", "building": "house"}}}, {"type": "Feature", "geometry": {"type": "Polygon", "coordinates": [[[-97.5598844, 35.4119457], [-97.5598209, 35.4118869], [-97.5597661, 35.4119262], [-97.5596979, 35.411863], [-97.559822, 35.411774], [-97.5599537, 35.4118961], [-97.5598844, 35.4119457]]]}, "properties": {"osm_id": 1392254021, "building": "house", "name": "", "height": null, "height_m": null, "levels": null, "tract_id": "40109107215", "tract_name": "1072.15", "tags": {"addr:housenumber": "2832", "building": "house"}}}, {"type": "Feature", "geometry": {"type": "Polygon", "coordinates": [[[-97.560095, 35.4117918], [-97.5600174, 35.4118486], [-97.5599954, 35.4118286], [-97.5599491, 35.4118626], [-97.5598815, 35.4118012], [-97.5600054, 35.4117105], [-97.560095, 35.4117918]]]}, "properties": {"osm_id": 1392254022, "building": "house", "name": "", "height": null, "height_m": null, "levels": null, "tract_id": "40109107215", "tract_name": "1072.15", "tags": {"addr:city": "Oklahoma City", "addr:housenumber": "2836", "addr:postcode": "73119", "addr:state": "OK", "addr:street": "Southwest 54th Street", "building": "house"}}}, {"type": "Feature", "geometry": {"type": "Polygon", "coordinates": [[[-97.5618299, 35.4116962], [-97.5617792, 35.4116963], [-97.5617793, 35.4117214], [-97.5617326, 35.4117215], [-97.5617325, 35.4117139], [-97.5616605, 35.411714], [-97.5616603, 35.411606], [-97.5616774, 35.411606], [-97.5616774, 35.4115998], [-97.5616938, 35.4115998], [-97.5616938, 35.4115889], [-97.5618297, 35.4115887], [-97.5618299, 35.4116962]]]}, "properties": {"osm_id": 1392254023, "building": "house", "name": "", "height": null, "height_m": null, "levels": null, "tract_id": "40109107215", "tract_name": "1072.15", "tags": {"addr:city": "Oklahoma City", "addr:housenumber": "2709", "addr:postcode": "73119", "addr:state": "OK", "addr:street": "Southwest 54th Street", "building": "house"}}}, {"type": "Feature", "geometry": {"type": "Polygon", "coordinates": [[[-97.5620174, 35.4116956], [-97.5619837, 35.4116958], [-97.5619839, 35.4117315], [-97.5619374, 35.4117317], [-97.5619371, 35.4116947], [-97.5618486, 35.4116951], [-97.561848, 35.4116073], [-97.5619056, 35.411607], [-97.5619055, 35.4115927], [-97.5619502, 35.4115925], [-97.5619502, 35.411588], [-97.5620167, 35.4115877], [-97.5620174, 35.4116956]]]}, "properties": {"osm_id": 1392254024, "building": "house", "name": "", "height": null, "height_m": null, "levels": null, "tract_id": "40109107215", "tract_name": "1072.15", "tags": {"addr:city": "Oklahoma City", "addr:housenumber": "2713", "addr:postcode": "73119", "addr:state": "OK", "addr:street": "Southwest 54th Street", "building": "house"}}}, {"type": "Feature", "geometry": {"type": "Polygon", "coordinates": [[[-97.5623903, 35.4113238], [-97.5623297, 35.411324], [-97.5623296, 35.4113056], [-97.5622871, 35.4113058], [-97.562287, 35.4112935], [-97.5622251, 35.4112938], [-97.5622245, 35.4112054], [-97.5623895, 35.4112046], [-97.5623903, 35.4113238]]]}, "properties": {"osm_id": 1392254025, "building": "house", "name": "", "height": null, "height_m": null, "levels": null, "tract_id": "40109107215", "tract_name": "1072.15", "tags": {"addr:city": "Oklahoma City", "addr:housenumber": "2720", "addr:postcode": "73119", "addr:state": "OK", "addr:street": "Southwest 54th Street", "building": "house"}}}, {"type": "Feature", "geometry": {"type": "Polygon", "coordinates": [[[-97.5622061, 35.4113187], [-97.56214, 35.411319], [-97.5621399, 35.411301], [-97.5620346, 35.4113014], [-97.5620339, 35.4111937], [-97.5621051, 35.4111934], [-97.5621049, 35.4111637], [-97.5621963, 35.4111633], [-97.5621965, 35.4112109], [-97.5622054, 35.4112109], [-97.5622061, 35.4113187]]]}, "properties": {"osm_id": 1392254026, "building": "house", "name": "", "height": null, "height_m": null, "levels": null, "tract_id": "40109107215", "tract_name": "1072.15", "tags": {"addr:city": "Oklahoma City", "addr:housenumber": "2716", "addr:postcode": "73119", "addr:state": "OK", "addr:street": "Southwest 54th Street", "building": "house"}}}, {"type": "Feature", "geometry": {"type": "Polygon", "coordinates": [[[-97.5629552, 35.4113168], [-97.5628526, 35.4113165], [-97.5628527, 35.4112883], [-97.5627911, 35.4112881], [-97.5627914, 35.4112008], [-97.5629556, 35.4112011], [-97.5629552, 35.4113168]]]}, "properties": {"osm_id": 1392254027, "building": "house", "name": "", "height": null, "height_m": null, "levels": null, "tract_id": "40109107215", "tract_name": "1072.15", "tags": {"addr:city": "Oklahoma City", "addr:housenumber": "2732", "addr:postcode": "73119", "addr:state": "OK", "addr:street": "Southwest 54th Street", "building": "house"}}}, {"type": "Feature", "geometry": {"type": "Polygon", "coordinates": [[[-97.5627663, 35.4117097], [-97.5626031, 35.4117101], [-97.5626028, 35.4116235], [-97.5626568, 35.4116234], [-97.5626567, 35.4116077], [-97.562766, 35.4116075], [-97.5627663, 35.4117097]]]}, "properties": {"osm_id": 1392254028, "building": "house", "name": "", "height": null, "height_m": null, "levels": null, "tract_id": "40109107215", "tract_name": "1072.15", "tags": {"addr:city": "Oklahoma City", "addr:housenumber": "2729", "addr:postcode": "73119", "addr:state": "OK", "addr:street": "Southwest 54th Street", "building": "house"}}}, {"type": "Feature", "geometry": {"type": "Polygon", "coordinates": [[[-97.5633316, 35.4113237], [-97.5632194, 35.4113238], [-97.5632194, 35.4113082], [-97.5631612, 35.4113083], [-97.5631609, 35.4111898], [-97.5632349, 35.4111897], [-97.5632349, 35.4112155], [-97.5633314, 35.4112154], [-97.5633316, 35.4113237]]]}, "properties": {"osm_id": 1392254029, "building": "house", "name": "", "height": null, "height_m": null, "levels": null, "tract_id": "40109107215", "tract_name": "1072.15", "tags": {"addr:city": "Oklahoma City", "addr:housenumber": "2740", "addr:postcode": "73119", "addr:state": "OK", "addr:street": "Southwest 54th Street", "building": "house"}}}, {"type": "Feature", "geometry": {"type": "Polygon", "coordinates": [[[-97.5635199, 35.4113251], [-97.5634288, 35.4113253], [-97.5634285, 35.4112439], [-97.5633522, 35.411244], [-97.5633519, 35.4111616], [-97.5634524, 35.4111614], [-97.5634523, 35.4111128], [-97.5635192, 35.4111127], [-97.5635199, 35.4113251]]]}, "properties": {"osm_id": 1392254030, "building": "house", "name": "", "height": null, "height_m": null, "levels": null, "tract_id": "40109107215", "tract_name": "1072.15", "tags": {"addr:city": "Oklahoma City", "addr:housenumber": "2800", "addr:postcode": "73119", "addr:state": "OK", "addr:street": "Southwest 54th Street", "building": "house"}}}, {"type": "Feature", "geometry": {"type": "Polygon", "coordinates": [[[-97.5635209, 35.4117088], [-97.5633551, 35.4117103], [-97.5633539, 35.4116218], [-97.5634122, 35.4116213], [-97.563412, 35.4116091], [-97.5634561, 35.4116087], [-97.5634559, 35.4115997], [-97.5635194, 35.4115991], [-97.5635209, 35.4117088]]]}, "properties": {"osm_id": 1392254031, "building": "house", "name": "", "height": null, "height_m": null, "levels": null, "tract_id": "40109107215", "tract_name": "1072.15", "tags": {"addr:city": "Oklahoma City", "addr:housenumber": "2801", "addr:postcode": "73119", "addr:state": "OK", "addr:street": "Southwest 54th Street", "building": "house"}}}, {"type": "Feature", "geometry": {"type": "Polygon", "coordinates": [[[-97.563704, 35.4117062], [-97.5635458, 35.4117067], [-97.5635454, 35.4116199], [-97.5636345, 35.4116196], [-97.5636344, 35.4115936], [-97.5637034, 35.4115933], [-97.563704, 35.4117062]]]}, "properties": {"osm_id": 1392254032, "building": "house", "name": "", "height": null, "height_m": null, "levels": null, "tract_id": "40109107215", "tract_name": "1072.15", "tags": {"addr:city": "Oklahoma City", "addr:housenumber": "2805", "addr:postcode": "73119", "addr:state": "OK", "addr:street": "Southwest 54th Street", "building": "house"}}}, {"type": "Feature", "geometry": {"type": "Polygon", "coordinates": [[[-97.563897, 35.4116994], [-97.5637279, 35.4116998], [-97.5637276, 35.4116147], [-97.563792, 35.4116146], [-97.5637919, 35.411587], [-97.5638967, 35.4115868], [-97.563897, 35.4116994]]]}, "properties": {"osm_id": 1392254033, "building": "house", "name": "", "height": null, "height_m": null, "levels": null, "tract_id": "40109107215", "tract_name": "1072.15", "tags": {"addr:city": "Oklahoma City", "addr:housenumber": "2809", "addr:postcode": "73119", "addr:state": "OK", "addr:street": "Southwest 54th Street", "building": "house"}}}, {"type": "Feature", "geometry": {"type": "Polygon", "coordinates": [[[-97.5642691, 35.4116959], [-97.564257, 35.4116959], [-97.5642571, 35.4117248], [-97.5641939, 35.4117249], [-97.5641938, 35.4116945], [-97.5641025, 35.4116947], [-97.5641021, 35.4115834], [-97.5641725, 35.4115833], [-97.5641725, 35.4115904], [-97.5641897, 35.4115903], [-97.5641898, 35.4116064], [-97.5642689, 35.4116062], [-97.5642691, 35.4116959]]]}, "properties": {"osm_id": 1392254034, "building": "house", "name": "", "height": null, "height_m": null, "levels": null, "tract_id": "40109107215", "tract_name": "1072.15", "tags": {"addr:city": "Oklahoma City", "addr:housenumber": "2817", "addr:postcode": "73119", "addr:state": "OK", "addr:street": "Southwest 54th Street", "building": "house"}}}, {"type": "Feature", "geometry": {"type": "Polygon", "coordinates": [[[-97.5644425, 35.4113228], [-97.5643361, 35.411323], [-97.564336, 35.411294], [-97.5642852, 35.4112941], [-97.564285, 35.4112065], [-97.5644422, 35.4112063], [-97.5644425, 35.4113228]]]}, "properties": {"osm_id": 1392254035, "building": "house", "name": "", "height": null, "height_m": null, "levels": null, "tract_id": "40109107215", "tract_name": "1072.15", "tags": {"addr:city": "Oklahoma City", "addr:housenumber": "2820", "addr:postcode": "73119", "addr:state": "OK", "addr:street": "Southwest 54th Street", "building": "house"}}}, {"type": "Feature", "geometry": {"type": "Polygon", "coordinates": [[[-97.5646227, 35.4113183], [-97.5645606, 35.4113184], [-97.5645606, 35.4113078], [-97.5644665, 35.411308], [-97.5644661, 35.4111931], [-97.564535, 35.411193], [-97.564535, 35.4112127], [-97.5646223, 35.4112125], [-97.5646227, 35.4113183]]]}, "properties": {"osm_id": 1392254036, "building": "house", "name": "", "height": null, "height_m": null, "levels": null, "tract_id": "40109107215", "tract_name": "1072.15", "tags": {"addr:city": "Oklahoma City", "addr:housenumber": "2824", "addr:postcode": "73119", "addr:state": "OK", "addr:street": "Southwest 54th Street", "building": "house"}}}, {"type": "Feature", "geometry": {"type": "Polygon", "coordinates": [[[-97.5651701, 35.4113222], [-97.5650996, 35.4113223], [-97.5650996, 35.4112994], [-97.565006, 35.4112995], [-97.5650059, 35.4111947], [-97.565112, 35.4111946], [-97.565112, 35.411206], [-97.56517, 35.411206], [-97.5651701, 35.4113222]]]}, "properties": {"osm_id": 1392254037, "building": "house", "name": "", "height": null, "height_m": null, "levels": null, "tract_id": "40109107215", "tract_name": "1072.15", "tags": {"addr:city": "Oklahoma City", "addr:housenumber": "2836", "addr:postcode": "73119", "addr:state": "OK", "addr:street": "Southwest 54th Street", "building": "house"}}}, {"type": "Feature", "geometry": {"type": "Polygon", "coordinates": [[[-97.5594684, 35.4122377], [-97.55943, 35.4122654], [-97.5594342, 35.4122693], [-97.5593842, 35.4123053], [-97.559297, 35.4122247], [-97.5594245, 35.4121331], [-97.5594942, 35.4121975], [-97.5594553, 35.4122255], [-97.5594684, 35.4122377]]]}, "properties": {"osm_id": 1392254038, "building": "house", "name": "", "height": null, "height_m": null, "levels": null, "tract_id": "40109107215", "tract_name": "1072.15", "tags": {"addr:city": "Oklahoma City", "addr:housenumber": "2620", "addr:postcode": "73119", "addr:state": "OK", "addr:street": "Southwest 54th Street", "building": "house"}}}, {"type": "Feature", "geometry": {"type": "Polygon", "coordinates": [[[-97.5595311, 35.4119979], [-97.5596554, 35.4121102], [-97.5596106, 35.4121432], [-97.5595959, 35.4121299], [-97.5595646, 35.412153], [-97.5595525, 35.4121421], [-97.5595094, 35.4121738], [-97.5594367, 35.4121081], [-97.5594883, 35.4120701], [-97.5594635, 35.4120476], [-97.5595311, 35.4119979]]]}, "properties": {"osm_id": 1392254039, "building": "house", "name": "", "height": null, "height_m": null, "levels": null, "tract_id": "40109107215", "tract_name": "1072.15", "tags": {"addr:city": "Oklahoma City", "addr:housenumber": "2624", "addr:postcode": "73119", "addr:state": "OK", "addr:street": "Southwest 54th Street", "building": "house"}}}, {"type": "Feature", "geometry": {"type": "Polygon", "coordinates": [[[-97.5605312, 35.4114774], [-97.5604841, 35.4115112], [-97.5604722, 35.4115003], [-97.5604513, 35.4115152], [-97.5604404, 35.4115051], [-97.5603898, 35.4115415], [-97.5602986, 35.4114572], [-97.5603466, 35.4114227], [-97.560369, 35.4114435], [-97.5604397, 35.4113927], [-97.5605312, 35.4114774]]]}, "properties": {"osm_id": 1392254040, "building": "house", "name": "", "height": null, "height_m": null, "levels": null, "tract_id": "40109107215", "tract_name": "1072.15", "tags": {"addr:city": "Oklahoma City", "addr:housenumber": "2648", "addr:postcode": "73119", "addr:state": "OK", "addr:street": "Southwest 54th Street", "building": "house"}}}, {"type": "Feature", "geometry": {"type": "Polygon", "coordinates": [[[-97.5600031, 35.4123964], [-97.5599806, 35.4123763], [-97.5600505, 35.4123243], [-97.5599577, 35.4122415], [-97.5598943, 35.4122887], [-97.559898, 35.412292], [-97.5598701, 35.4123128], [-97.5598804, 35.412322], [-97.5598483, 35.4123458], [-97.5599497, 35.4124362], [-97.5600031, 35.4123964]]]}, "properties": {"osm_id": 1392254041, "building": "house", "name": "", "height": null, "height_m": null, "levels": null, "tract_id": "40109107215", "tract_name": "1072.15", "tags": {"addr:city": "Oklahoma City", "addr:housenumber": "2629", "addr:postcode": "73119", "addr:state": "OK", "addr:street": "Southwest 54th Street", "building": "house"}}}, {"type": "Feature", "geometry": {"type": "Polygon", "coordinates": [[[-97.5614443, 35.412124], [-97.561309, 35.4121231], [-97.5613097, 35.4120535], [-97.5613291, 35.4120537], [-97.5613295, 35.4120065], [-97.5613498, 35.4120066], [-97.5613503, 35.4119521], [-97.5614459, 35.4119527], [-97.5614443, 35.412124]]]}, "properties": {"osm_id": 1392254042, "building": "house", "name": "", "height": null, "height_m": null, "levels": null, "tract_id": "40109107215", "tract_name": "1072.15", "tags": {"addr:city": "Oklahoma City", "addr:housenumber": "5401", "addr:postcode": "73119", "addr:state": "OK", "addr:street": "South Ross Avenue", "building": "house"}}}, {"type": "Feature", "geometry": {"type": "Polygon", "coordinates": [[[-97.5610189, 35.4121944], [-97.5608876, 35.4121952], [-97.5608864, 35.4120598], [-97.5610224, 35.412059], [-97.561023, 35.4121162], [-97.5610182, 35.4121163], [-97.5610189, 35.4121944]]]}, "properties": {"osm_id": 1392254043, "building": "house", "name": "", "height": null, "height_m": null, "levels": null, "tract_id": "40109107215", "tract_name": "1072.15", "tags": {"addr:city": "Oklahoma City", "addr:housenumber": "5400", "addr:postcode": "73119", "addr:state": "OK", "addr:street": "South Ross Avenue", "building": "house"}}}, {"type": "Feature", "geometry": {"type": "Polygon", "coordinates": [[[-97.5610166, 35.4123435], [-97.5610166, 35.4122669], [-97.561021, 35.4122669], [-97.561021, 35.4122096], [-97.5608876, 35.4122096], [-97.5608877, 35.412261], [-97.5608522, 35.412261], [-97.5608522, 35.4123435], [-97.5610166, 35.4123435]]]}, "properties": {"osm_id": 1392254044, "building": "house", "name": "", "height": null, "height_m": null, "levels": null, "tract_id": "40109107215", "tract_name": "1072.15", "tags": {"addr:city": "Oklahoma City", "addr:housenumber": "5316", "addr:postcode": "73119", "addr:state": "OK", "addr:street": "South Ross Avenue", "building": "house"}}}, {"type": "Feature", "geometry": {"type": "Polygon", "coordinates": [[[-97.5613174, 35.4126134], [-97.5614213, 35.4126129], [-97.561421, 35.4125579], [-97.5614456, 35.4125578], [-97.5614446, 35.4123864], [-97.5613525, 35.4123868], [-97.5613528, 35.4124413], [-97.5613319, 35.4124414], [-97.5613322, 35.41249], [-97.5613166, 35.41249], [-97.5613174, 35.4126134]]]}, "properties": {"osm_id": 1392254045, "building": "house", "name": "", "height": null, "height_m": null, "levels": null, "tract_id": "40109107215", "tract_name": "1072.15", "tags": {"addr:city": "Oklahoma City", "addr:housenumber": "2701", "addr:postcode": "73119", "addr:state": "OK", "addr:street": "Southwest 53rd Street", "building": "house"}}}, {"type": "Feature", "geometry": {"type": "Polygon", "coordinates": [[[-97.5614649, 35.4137096], [-97.5613334, 35.4137109], [-97.5613321, 35.4136281], [-97.5613634, 35.4136278], [-97.5613624, 35.4135609], [-97.5614627, 35.4135599], [-97.5614649, 35.4137096]]]}, "properties": {"osm_id": 1392254046, "building": "house", "name": "", "height": null, "height_m": null, "levels": null, "tract_id": "40109107215", "tract_name": "1072.15", "tags": {"addr:city": "Oklahoma City", "addr:housenumber": "5205", "addr:postcode": "73119", "addr:state": "OK", "addr:street": "South Ross Avenue", "building": "house"}}}, {"type": "Feature", "geometry": {"type": "Polygon", "coordinates": [[[-97.5614339, 35.4144842], [-97.5613382, 35.4144845], [-97.5613377, 35.4143948], [-97.5613166, 35.4143949], [-97.5613162, 35.4143276], [-97.561433, 35.4143272], [-97.5614339, 35.4144842]]]}, "properties": {"osm_id": 1392254047, "building": "house", "name": "", "height": null, "height_m": null, "levels": null, "tract_id": "40109107215", "tract_name": "1072.15", "tags": {"addr:city": "Oklahoma City", "addr:housenumber": "5001", "addr:postcode": "73119", "addr:state": "OK", "addr:street": "South Ross Avenue", "building": "house"}}}, {"type": "Feature", "geometry": {"type": "Polygon", "coordinates": [[[-97.5613058, 35.4105303], [-97.5614407, 35.4105301], [-97.5614403, 35.4103625], [-97.5613465, 35.4103626], [-97.5613466, 35.4104223], [-97.5613291, 35.4104223], [-97.5613292, 35.4104608], [-97.5613056, 35.4104608], [-97.5613058, 35.4105303]]]}, "properties": {"osm_id": 1392254048, "building": "house", "name": "", "height": null, "height_m": null, "levels": null, "tract_id": "40109107215", "tract_name": "1072.15", "tags": {"addr:city": "Oklahoma City", "addr:housenumber": "5515", "addr:postcode": "73119", "addr:state": "OK", "addr:street": "South Ross Avenue", "building": "house"}}}, {"type": "Feature", "geometry": {"type": "Polygon", "coordinates": [[[-97.5614377, 35.4097333], [-97.5612987, 35.4097345], [-97.5612978, 35.4096655], [-97.5613165, 35.4096654], [-97.5613159, 35.4096219], [-97.5613387, 35.4096217], [-97.5613379, 35.4095656], [-97.5614355, 35.4095648], [-97.5614377, 35.4097333]]]}, "properties": {"osm_id": 1392254049, "building": "house", "name": "", "height": null, "height_m": null, "levels": null, "tract_id": "40109107215", "tract_name": "1072.15", "tags": {"addr:city": "Oklahoma City", "addr:housenumber": "5601", "addr:postcode": "73119", "addr:state": "OK", "addr:street": "South Ross Avenue", "building": "house"}}}, {"type": "Feature", "geometry": {"type": "Polygon", "coordinates": [[[-97.561644, 35.4124925], [-97.5614757, 35.4124937], [-97.5614747, 35.4124065], [-97.5615386, 35.4124061], [-97.5615384, 35.4123912], [-97.5615786, 35.4123909], [-97.5615786, 35.4123864], [-97.5616428, 35.4123859], [-97.561644, 35.4124925]]]}, "properties": {"osm_id": 1392254050, "building": "house", "name": "", "height": null, "height_m": null, "levels": null, "tract_id": "40109107215", "tract_name": "1072.15", "tags": {"addr:city": "Oklahoma City", "addr:housenumber": "2705", "addr:postcode": "73119", "addr:state": "OK", "addr:street": "Southwest 53rd Street", "building": "house"}}}, {"type": "Feature", "geometry": {"type": "Polygon", "coordinates": [[[-97.5618329, 35.4125057], [-97.561662, 35.4125067], [-97.5616612, 35.4124182], [-97.5617263, 35.4124178], [-97.5617262, 35.4124042], [-97.5617655, 35.412404], [-97.5617655, 35.4123984], [-97.5618319, 35.412398], [-97.5618329, 35.4125057]]]}, "properties": {"osm_id": 1392254051, "building": "house", "name": "", "height": null, "height_m": null, "levels": null, "tract_id": "40109107215", "tract_name": "1072.15", "tags": {"addr:city": "Oklahoma City", "addr:housenumber": "2709", "addr:postcode": "73119", "addr:state": "OK", "addr:street": "Southwest 53rd Street", "building": "house"}}}, {"type": "Feature", "geometry": {"type": "Polygon", "coordinates": [[[-97.561832, 35.4121102], [-97.5617301, 35.4121099], [-97.5617302, 35.4120876], [-97.5616614, 35.4120874], [-97.5616619, 35.4119977], [-97.5617465, 35.411998], [-97.5617468, 35.4119419], [-97.5618329, 35.4119422], [-97.561832, 35.4121102]]]}, "properties": {"osm_id": 1392254052, "building": "house", "name": "", "height": null, "height_m": null, "levels": null, "tract_id": "40109107215", "tract_name": "1072.15", "tags": {"addr:city": "Oklahoma City", "addr:housenumber": "2708", "addr:postcode": "73119", "addr:state": "OK", "addr:street": "Southwest 53rd Street", "building": "house"}}}, {"type": "Feature", "geometry": {"type": "Polygon", "coordinates": [[[-97.562398, 35.4124919], [-97.5622254, 35.4124927], [-97.5622248, 35.4124034], [-97.5622842, 35.4124032], [-97.5622841, 35.4123891], [-97.5623325, 35.4123889], [-97.5623324, 35.4123846], [-97.5623973, 35.4123843], [-97.562398, 35.4124919]]]}, "properties": {"osm_id": 1392254053, "building": "house", "name": "", "height": null, "height_m": null, "levels": null, "tract_id": "40109107215", "tract_name": "1072.15", "tags": {"addr:city": "Oklahoma City", "addr:housenumber": "2721", "addr:postcode": "73119", "addr:state": "OK", "addr:street": "Southwest 53rd Street", "building": "house"}}}, {"type": "Feature", "geometry": {"type": "Polygon", "coordinates": [[[-97.5624103, 35.4121217], [-97.5623301, 35.412122], [-97.56233, 35.4120889], [-97.5622242, 35.4120892], [-97.5622238, 35.4120123], [-97.5624097, 35.4120116], [-97.5624103, 35.4121217]]]}, "properties": {"osm_id": 1392254054, "building": "house", "name": "", "height": null, "height_m": null, "levels": null, "tract_id": "40109107215", "tract_name": "1072.15", "tags": {"addr:city": "Oklahoma City", "addr:housenumber": "2720", "addr:postcode": "73119", "addr:state": "OK", "addr:street": "Southwest 53rd Street", "building": "house"}}}, {"type": "Feature", "geometry": {"type": "Polygon", "coordinates": [[[-97.5625418, 35.4121165], [-97.5624266, 35.4121168], [-97.5624261, 35.4120009], [-97.5626042, 35.4120004], [-97.5626046, 35.412086], [-97.5625417, 35.4120862], [-97.5625418, 35.4121165]]]}, "properties": {"osm_id": 1392254055, "building": "house", "name": "", "height": null, "height_m": null, "levels": null, "tract_id": "40109107215", "tract_name": "1072.15", "tags": {"addr:city": "Oklahoma City", "addr:housenumber": "2724", "addr:postcode": "73119", "addr:state": "OK", "addr:street": "Southwest 53rd Street", "building": "house"}}}, {"type": "Feature", "geometry": {"type": "Polygon", "coordinates": [[[-97.5627705, 35.4124979], [-97.5627087, 35.4124978], [-97.5627087, 35.4125104], [-97.5626048, 35.4125103], [-97.5626049, 35.4124052], [-97.5626443, 35.4124052], [-97.5626443, 35.4124007], [-97.5626988, 35.4124008], [-97.5626988, 35.4123828], [-97.5627707, 35.4123829], [-97.5627705, 35.4124979]]]}, "properties": {"osm_id": 1392254056, "building": "house", "name": "", "height": null, "height_m": null, "levels": null, "tract_id": "40109107215", "tract_name": "1072.15", "tags": {"addr:city": "Oklahoma City", "addr:housenumber": "2729", "addr:postcode": "73119", "addr:state": "OK", "addr:street": "Southwest 53rd Street", "building": "house"}}}, {"type": "Feature", "geometry": {"type": "Polygon", "coordinates": [[[-97.5629057, 35.4121138], [-97.5627998, 35.4121142], [-97.5627991, 35.4119976], [-97.5629709, 35.4119969], [-97.5629714, 35.4120832], [-97.5629055, 35.4120835], [-97.5629057, 35.4121138]]]}, "properties": {"osm_id": 1392254057, "building": "house", "name": "", "height": null, "height_m": null, "levels": null, "tract_id": "40109107215", "tract_name": "1072.15", "tags": {"addr:city": "Oklahoma City", "addr:housenumber": "2732", "addr:postcode": "73119", "addr:state": "OK", "addr:street": "Southwest 53rd Street", "building": "house"}}}, {"type": "Feature", "geometry": {"type": "Polygon", "coordinates": [[[-97.5631477, 35.4121218], [-97.5630341, 35.4121216], [-97.5630341, 35.4121103], [-97.5629887, 35.4121102], [-97.5629889, 35.4119845], [-97.5630847, 35.4119846], [-97.5630846, 35.4120337], [-97.5631479, 35.4120337], [-97.5631477, 35.4121218]]]}, "properties": {"osm_id": 1392254058, "building": "house", "name": "", "height": null, "height_m": null, "levels": null, "tract_id": "40109107215", "tract_name": "1072.15", "tags": {"addr:city": "Oklahoma City", "addr:housenumber": "2736", "addr:postcode": "73119", "addr:state": "OK", "addr:street": "Southwest 53rd Street", "building": "house"}}}, {"type": "Feature", "geometry": {"type": "Polygon", "coordinates": [[[-97.5631463, 35.4124889], [-97.5629789, 35.4124883], [-97.5629794, 35.4124006], [-97.5630353, 35.4124009], [-97.5630354, 35.4123834], [-97.5631469, 35.4123838], [-97.5631463, 35.4124889]]]}, "properties": {"osm_id": 1392254059, "building": "house", "name": "", "height": null, "height_m": null, "levels": null, "tract_id": "40109107215", "tract_name": "1072.15", "tags": {"addr:city": "Oklahoma City", "addr:housenumber": "2737", "addr:postcode": "73119", "addr:state": "OK", "addr:street": "Southwest 53rd Street", "building": "house"}}}, {"type": "Feature", "geometry": {"type": "Polygon", "coordinates": [[[-97.5633354, 35.4123878], [-97.5632689, 35.4123878], [-97.5632689, 35.4123942], [-97.5632218, 35.4123942], [-97.5632218, 35.4124068], [-97.5631645, 35.4124068], [-97.5631645, 35.412495], [-97.5633354, 35.4124949], [-97.5633354, 35.4123878]]]}, "properties": {"osm_id": 1392254060, "building": "house", "name": "", "height": null, "height_m": null, "levels": null, "tract_id": "40109107215", "tract_name": "1072.15", "tags": {"addr:city": "Oklahoma City", "addr:housenumber": "2741", "addr:postcode": "73119", "addr:state": "OK", "addr:street": "Southwest 53rd Street", "building": "house"}}}, {"type": "Feature", "geometry": {"type": "Polygon", "coordinates": [[[-97.5633336, 35.4121183], [-97.5632519, 35.4121189], [-97.5632519, 35.412115], [-97.563208, 35.4121153], [-97.5632079, 35.4121036], [-97.5631693, 35.4121039], [-97.5631681, 35.4119843], [-97.5632399, 35.4119838], [-97.5632401, 35.4120089], [-97.5633325, 35.4120082], [-97.5633336, 35.4121183]]]}, "properties": {"osm_id": 1392254061, "building": "house", "name": "", "height": null, "height_m": null, "levels": null, "tract_id": "40109107215", "tract_name": "1072.15", "tags": {"addr:city": "Oklahoma City", "addr:housenumber": "2740", "addr:postcode": "73119", "addr:state": "OK", "addr:street": "Southwest 53rd Street", "building": "house"}}}, {"type": "Feature", "geometry": {"type": "Polygon", "coordinates": [[[-97.5635215, 35.4124994], [-97.5633543, 35.4124995], [-97.5633542, 35.4124153], [-97.5634102, 35.4124153], [-97.5634102, 35.4124017], [-97.563457, 35.4124017], [-97.563457, 35.4123954], [-97.5635214, 35.4123953], [-97.5635215, 35.4124994]]]}, "properties": {"osm_id": 1392254062, "building": "house", "name": "", "height": null, "height_m": null, "levels": null, "tract_id": "40109107215", "tract_name": "1072.15", "tags": {"addr:city": "Oklahoma City", "addr:housenumber": "2801", "addr:postcode": "73119", "addr:state": "OK", "addr:street": "Southwest 53rd Street", "building": "house"}}}, {"type": "Feature", "geometry": {"type": "Polygon", "coordinates": [[[-97.5635395, 35.4121031], [-97.5635394, 35.4119799], [-97.5636171, 35.4119798], [-97.5636171, 35.412008], [-97.563712, 35.4120079], [-97.5637121, 35.4121208], [-97.563602, 35.4121208], [-97.563602, 35.412103], [-97.5635395, 35.4121031]]]}, "properties": {"osm_id": 1392254063, "building": "house", "name": "", "height": null, "height_m": null, "levels": null, "tract_id": "40109107215", "tract_name": "1072.15", "tags": {"addr:city": "Oklahoma City", "addr:housenumber": "2804", "addr:postcode": "73119", "addr:state": "OK", "addr:street": "Southwest 53rd Street", "building": "house"}}}, {"type": "Feature", "geometry": {"type": "Polygon", "coordinates": [[[-97.56409, 35.4125606], [-97.5640058, 35.4125615], [-97.5640047, 35.4124904], [-97.5639931, 35.4124906], [-97.5639935, 35.4125165], [-97.563917, 35.4125173], [-97.5639151, 35.4123982], [-97.5639665, 35.4123977], [-97.5639662, 35.4123814], [-97.564087, 35.4123801], [-97.56409, 35.4125606]]]}, "properties": {"osm_id": 1392254064, "building": "house", "name": "", "height": null, "height_m": null, "levels": null, "tract_id": "40109107215", "tract_name": "1072.15", "tags": {"addr:city": "Oklahoma City", "addr:housenumber": "2813", "addr:postcode": "73119", "addr:state": "OK", "addr:street": "Southwest 53rd Street", "building": "house"}}}, {"type": "Feature", "geometry": {"type": "Polygon", "coordinates": [[[-97.5644491, 35.4124967], [-97.5643931, 35.4124971], [-97.5643932, 35.4125079], [-97.564291, 35.4125086], [-97.5642899, 35.4124048], [-97.5643294, 35.4124046], [-97.5643292, 35.4123868], [-97.5643814, 35.4123864], [-97.5643813, 35.4123812], [-97.5644477, 35.4123807], [-97.5644491, 35.4124967]]]}, "properties": {"osm_id": 1392254065, "building": "house", "name": "", "height": null, "height_m": null, "levels": null, "tract_id": "40109107215", "tract_name": "1072.15", "tags": {"addr:city": "Oklahoma City", "addr:housenumber": "2821", "addr:postcode": "73119", "addr:state": "OK", "addr:street": "Southwest 53rd Street", "building": "house"}}}, {"type": "Feature", "geometry": {"type": "Polygon", "coordinates": [[[-97.5646221, 35.4121103], [-97.5645639, 35.4121105], [-97.5645639, 35.4121026], [-97.5645411, 35.4121027], [-97.5645411, 35.4121152], [-97.5644733, 35.4121154], [-97.5644729, 35.411998], [-97.5646218, 35.4119977], [-97.5646221, 35.4121103]]]}, "properties": {"osm_id": 1392254066, "building": "house", "name": "", "height": null, "height_m": null, "levels": null, "tract_id": "40109107215", "tract_name": "1072.15", "tags": {"addr:city": "Oklahoma City", "addr:housenumber": "2824", "addr:postcode": "73119", "addr:state": "OK", "addr:street": "Southwest 53rd Street", "building": "house"}}}, {"type": "Feature", "geometry": {"type": "Polygon", "coordinates": [[[-97.5646278, 35.4123824], [-97.5646291, 35.4124963], [-97.5646191, 35.4124964], [-97.5646194, 35.4125223], [-97.5646024, 35.4125224], [-97.5646028, 35.4125578], [-97.5645606, 35.4125581], [-97.5645607, 35.4125616], [-97.5644717, 35.4125622], [-97.5644699, 35.4124091], [-97.5645338, 35.4124086], [-97.5645335, 35.4123831], [-97.5646278, 35.4123824]]]}, "properties": {"osm_id": 1392254067, "building": "house", "name": "", "height": null, "height_m": null, "levels": null, "tract_id": "40109107215", "tract_name": "1072.15", "tags": {"addr:city": "Oklahoma City", "addr:housenumber": "2825", "addr:postcode": "73119", "addr:state": "OK", "addr:street": "Southwest 53rd Street", "building": "house"}}}, {"type": "Feature", "geometry": {"type": "Polygon", "coordinates": [[[-97.5648117, 35.4121177], [-97.564747, 35.4121177], [-97.564747, 35.4120997], [-97.564711, 35.4120997], [-97.564711, 35.4121076], [-97.5646458, 35.4121076], [-97.5646458, 35.4120053], [-97.5648117, 35.4120054], [-97.5648117, 35.4121177]]]}, "properties": {"osm_id": 1392254068, "building": "house", "name": "", "height": null, "height_m": null, "levels": null, "tract_id": "40109107215", "tract_name": "1072.15", "tags": {"addr:city": "Oklahoma City", "addr:housenumber": "2828", "addr:postcode": "73119", "addr:state": "OK", "addr:street": "Southwest 53rd Street", "building": "house"}}}, {"type": "Feature", "geometry": {"type": "Polygon", "coordinates": [[[-97.564989, 35.4124938], [-97.5648331, 35.4124948], [-97.5648323, 35.4124091], [-97.5648928, 35.4124087], [-97.5648926, 35.4123864], [-97.5649315, 35.4123862], [-97.5649315, 35.4123816], [-97.564988, 35.4123812], [-97.564989, 35.4124938]]]}, "properties": {"osm_id": 1392254069, "building": "house", "name": "", "height": null, "height_m": null, "levels": null, "tract_id": "40109107215", "tract_name": "1072.15", "tags": {"addr:city": "Oklahoma City", "addr:housenumber": "2833", "addr:postcode": "73119", "addr:state": "OK", "addr:street": "Southwest 53rd Street", "building": "house"}}}, {"type": "Feature", "geometry": {"type": "Polygon", "coordinates": [[[-97.5653506, 35.4125504], [-97.5652636, 35.4125503], [-97.5652637, 35.4124951], [-97.5651915, 35.412495], [-97.5651916, 35.4124068], [-97.5652519, 35.4124068], [-97.5652519, 35.412385], [-97.5652891, 35.412385], [-97.5652891, 35.4123797], [-97.5653508, 35.4123798], [-97.5653506, 35.4125504]]]}, "properties": {"osm_id": 1392254070, "building": "house", "name": "", "height": null, "height_m": null, "levels": null, "tract_id": "40109107215", "tract_name": "1072.15", "tags": {"addr:city": "Oklahoma City", "addr:housenumber": "2841", "addr:postcode": "73119", "addr:state": "OK", "addr:street": "Southwest 53rd Street", "building": "house"}}}, {"type": "Feature", "geometry": {"type": "Polygon", "coordinates": [[[-97.5653435, 35.4121181], [-97.5652821, 35.412118], [-97.5652821, 35.4121132], [-97.5652619, 35.4121132], [-97.5652619, 35.4121178], [-97.5651929, 35.4121177], [-97.5651932, 35.4120046], [-97.5652494, 35.4120046], [-97.5652495, 35.4119826], [-97.5652216, 35.4119825], [-97.5652217, 35.4119381], [-97.5651895, 35.411938], [-97.5651896, 35.4118913], [-97.565344, 35.4118915], [-97.5653435, 35.4121181]]]}, "properties": {"osm_id": 1392254071, "building": "house", "name": "", "height": null, "height_m": null, "levels": null, "tract_id": "40109107215", "tract_name": "1072.15", "tags": {"addr:city": "Oklahoma City", "addr:housenumber": "2840", "addr:postcode": "73119", "addr:state": "OK", "addr:street": "Southwest 53rd Street", "building": "house"}}}, {"type": "Feature", "geometry": {"type": "Polygon", "coordinates": [[[-97.5651648, 35.4124986], [-97.5650204, 35.4124981], [-97.5650209, 35.4124027], [-97.5650706, 35.4124028], [-97.5650706, 35.4123833], [-97.5651654, 35.4123836], [-97.5651648, 35.4124986]]]}, "properties": {"osm_id": 1392254072, "building": "house", "name": "", "height": null, "height_m": null, "levels": null, "tract_id": "40109107215", "tract_name": "1072.15", "tags": {"addr:city": "Oklahoma City", "addr:housenumber": "2837", "addr:postcode": "73119", "addr:state": "OK", "addr:street": "Southwest 53rd Street", "building": "house"}}}, {"type": "Feature", "geometry": {"type": "Polygon", "coordinates": [[[-97.5646588, 35.412496], [-97.5647418, 35.4124961], [-97.5647418, 35.4125169], [-97.5648018, 35.412517], [-97.5648019, 35.4123815], [-97.564748, 35.4123814], [-97.564748, 35.4123885], [-97.564708, 35.4123885], [-97.564708, 35.4124006], [-97.5646589, 35.4124005], [-97.5646588, 35.412496]]]}, "properties": {"osm_id": 1392254073, "building": "house", "name": "", "height": null, "height_m": null, "levels": null, "tract_id": "40109107215", "tract_name": "1072.15", "tags": {"addr:city": "Oklahoma City", "addr:housenumber": "2829", "addr:postcode": "73119", "addr:state": "OK", "addr:street": "Southwest 53rd Street", "building": "house"}}}, {"type": "Feature", "geometry": {"type": "Polygon", "coordinates": [[[-97.5642785, 35.4125299], [-97.5641079, 35.4125308], [-97.564107, 35.4124135], [-97.564161, 35.4124133], [-97.5641609, 35.4123875], [-97.5642657, 35.4123869], [-97.5642666, 35.4124999], [-97.5642783, 35.4124998], [-97.5642785, 35.4125299]]]}, "properties": {"osm_id": 1392254074, "building": "house", "name": "", "height": null, "height_m": null, "levels": null, "tract_id": "40109107215", "tract_name": "1072.15", "tags": {"addr:city": "Oklahoma City", "addr:housenumber": "2817", "addr:postcode": "73119", "addr:state": "OK", "addr:street": "Southwest 53rd Street", "building": "house"}}}, {"type": "Feature", "geometry": {"type": "Polygon", "coordinates": [[[-97.5636155, 35.4125071], [-97.5635404, 35.4125067], [-97.5635412, 35.4123955], [-97.5636468, 35.412396], [-97.563647, 35.4123811], [-97.5637126, 35.4123814], [-97.5637117, 35.4124908], [-97.5636157, 35.4124903], [-97.5636155, 35.4125071]]]}, "properties": {"osm_id": 1392254075, "building": "house", "name": "", "height": null, "height_m": null, "levels": null, "tract_id": "40109107215", "tract_name": "1072.15", "tags": {"addr:city": "Oklahoma City", "addr:housenumber": "2805", "addr:postcode": "73119", "addr:state": "OK", "addr:street": "Southwest 53rd Street", "building": "house"}}}, {"type": "Feature", "geometry": {"type": "Polygon", "coordinates": [[[-97.5638387, 35.4125085], [-97.5637326, 35.412509], [-97.5637319, 35.4124041], [-97.5637815, 35.4124039], [-97.5637814, 35.4123966], [-97.5638277, 35.4123963], [-97.5638275, 35.412379], [-97.563898, 35.4123787], [-97.5638988, 35.4124963], [-97.5638386, 35.4124966], [-97.5638387, 35.4125085]]]}, "properties": {"osm_id": 1392254076, "building": "house", "name": "", "height": null, "height_m": null, "levels": null, "tract_id": "40109107215", "tract_name": "1072.15", "tags": {"addr:city": "Oklahoma City", "addr:housenumber": "2809", "addr:postcode": "73119", "addr:state": "OK", "addr:street": "Southwest 53rd Street", "building": "house"}}}, {"type": "Feature", "geometry": {"type": "Polygon", "coordinates": [[[-97.5629616, 35.412551], [-97.5628591, 35.4125521], [-97.5628586, 35.4125161], [-97.562791, 35.4125168], [-97.5627893, 35.412407], [-97.5628369, 35.4124065], [-97.5628369, 35.4124018], [-97.5628951, 35.4124012], [-97.5628949, 35.4123882], [-97.5629591, 35.4123875], [-97.5629616, 35.412551]]]}, "properties": {"osm_id": 1392254077, "building": "house", "name": "", "height": null, "height_m": null, "levels": null, "tract_id": "40109107215", "tract_name": "1072.15", "tags": {"addr:city": "Oklahoma City", "addr:housenumber": "2733", "addr:postcode": "73119", "addr:state": "OK", "addr:street": "Southwest 53rd Street", "building": "house"}}}, {"type": "Feature", "geometry": {"type": "Polygon", "coordinates": [[[-97.5625038, 35.4125164], [-97.5624151, 35.4125169], [-97.5624141, 35.4124076], [-97.5625172, 35.412407], [-97.5625171, 35.412391], [-97.562584, 35.4123906], [-97.562585, 35.4124975], [-97.5625037, 35.412498], [-97.5625038, 35.4125164]]]}, "properties": {"osm_id": 1392254078, "building": "house", "name": "", "height": null, "height_m": null, "levels": null, "tract_id": "40109107215", "tract_name": "1072.15", "tags": {"addr:city": "Oklahoma City", "addr:housenumber": "2725", "addr:postcode": "73119", "addr:state": "OK", "addr:street": "Southwest 53rd Street", "building": "house"}}}, {"type": "Feature", "geometry": {"type": "Polygon", "coordinates": [[[-97.5619229, 35.4125171], [-97.5618503, 35.4125171], [-97.5618502, 35.4124071], [-97.561952, 35.412407], [-97.561952, 35.4123928], [-97.562018, 35.4123928], [-97.5620181, 35.4125028], [-97.5619229, 35.4125029], [-97.5619229, 35.4125171]]]}, "properties": {"osm_id": 1392254079, "building": "house", "name": "", "height": null, "height_m": null, "levels": null, "tract_id": "40109107215", "tract_name": "1072.15", "tags": {"addr:city": "Oklahoma City", "addr:housenumber": "2713", "addr:postcode": "73119", "addr:state": "OK", "addr:street": "Southwest 53rd Street", "building": "house"}}}, {"type": "Feature", "geometry": {"type": "Polygon", "coordinates": [[[-97.5622085, 35.4124918], [-97.5621927, 35.4124918], [-97.5621928, 35.4125189], [-97.5621501, 35.4125191], [-97.56215, 35.4124917], [-97.5620398, 35.412492], [-97.5620395, 35.4124046], [-97.5621152, 35.4124044], [-97.5621151, 35.4123916], [-97.5621427, 35.4123915], [-97.5621427, 35.4123852], [-97.5622081, 35.412385], [-97.5622085, 35.4124918]]]}, "properties": {"osm_id": 1392254080, "building": "house", "name": "", "height": null, "height_m": null, "levels": null, "tract_id": "40109107215", "tract_name": "1072.15", "tags": {"addr:city": "Oklahoma City", "addr:housenumber": "2717", "addr:postcode": "73119", "addr:state": "OK", "addr:street": "Southwest 53rd Street", "building": "house"}}}, {"type": "Feature", "geometry": {"type": "Polygon", "coordinates": [[[-97.5616433, 35.4121174], [-97.5615697, 35.4121173], [-97.5615697, 35.4121106], [-97.5615376, 35.4121105], [-97.5615377, 35.412098], [-97.5614715, 35.4120979], [-97.5614717, 35.4120031], [-97.5616436, 35.4120033], [-97.5616433, 35.4121174]]]}, "properties": {"osm_id": 1392254081, "building": "house", "name": "", "height": null, "height_m": null, "levels": null, "tract_id": "40109107215", "tract_name": "1072.15", "tags": {"addr:city": "Oklahoma City", "addr:housenumber": "2704", "addr:postcode": "73119", "addr:state": "OK", "addr:street": "Southwest 53rd Street", "building": "house"}}}, {"type": "Feature", "geometry": {"type": "Polygon", "coordinates": [[[-97.5620191, 35.4121154], [-97.5619537, 35.4121154], [-97.5619537, 35.4121081], [-97.5619146, 35.4121082], [-97.5619146, 35.4120958], [-97.561849, 35.4120958], [-97.561849, 35.4120035], [-97.562019, 35.4120035], [-97.5620191, 35.4121154]]]}, "properties": {"osm_id": 1392254082, "building": "house", "name": "", "height": null, "height_m": null, "levels": null, "tract_id": "40109107215", "tract_name": "1072.15", "tags": {"addr:city": "Oklahoma City", "addr:housenumber": "2712", "addr:postcode": "73119", "addr:state": "OK", "addr:street": "Southwest 53rd Street", "building": "house"}}}, {"type": "Feature", "geometry": {"type": "Polygon", "coordinates": [[[-97.5622076, 35.4121232], [-97.5621423, 35.4121231], [-97.5621423, 35.4121145], [-97.5621013, 35.4121144], [-97.5621013, 35.4121001], [-97.5620364, 35.4121001], [-97.5620365, 35.4120087], [-97.5622077, 35.4120088], [-97.5622076, 35.4121232]]]}, "properties": {"osm_id": 1392254083, "building": "house", "name": "", "height": null, "height_m": null, "levels": null, "tract_id": "40109107215", "tract_name": "1072.15", "tags": {"addr:city": "Oklahoma City", "addr:housenumber": "2716", "addr:postcode": "73119", "addr:state": "OK", "addr:street": "Southwest 53rd Street", "building": "house"}}}, {"type": "Feature", "geometry": {"type": "Polygon", "coordinates": [[[-97.5627789, 35.4121221], [-97.562744, 35.4121222], [-97.562744, 35.4121291], [-97.562662, 35.4121293], [-97.5626619, 35.41211], [-97.5626218, 35.4121102], [-97.562621, 35.4119314], [-97.5627771, 35.4119309], [-97.5627774, 35.412001], [-97.5627148, 35.4120012], [-97.5627149, 35.4120349], [-97.5627785, 35.4120348], [-97.5627789, 35.4121221]]]}, "properties": {"osm_id": 1392254084, "building": "house", "name": "", "height": null, "height_m": null, "levels": null, "tract_id": "40109107215", "tract_name": "1072.15", "tags": {"addr:city": "Oklahoma City", "addr:housenumber": "2728", "addr:postcode": "73119", "addr:state": "OK", "addr:street": "Southwest 53rd Street", "building": "house"}}}, {"type": "Feature", "geometry": {"type": "Polygon", "coordinates": [[[-97.5635198, 35.4121198], [-97.5634114, 35.4121206], [-97.5634111, 35.4120975], [-97.5633571, 35.4120979], [-97.5633563, 35.4120086], [-97.5635187, 35.4120075], [-97.5635198, 35.4121198]]]}, "properties": {"osm_id": 1392254085, "building": "house", "name": "", "height": null, "height_m": null, "levels": null, "tract_id": "40109107215", "tract_name": "1072.15", "tags": {"addr:city": "Oklahoma City", "addr:housenumber": "2800", "addr:postcode": "73119", "addr:state": "OK", "addr:street": "Southwest 53rd Street", "building": "house"}}}, {"type": "Feature", "geometry": {"type": "Polygon", "coordinates": [[[-97.5649925, 35.4121173], [-97.5649496, 35.4121174], [-97.5649497, 35.412133], [-97.5648734, 35.4121333], [-97.5648732, 35.4121064], [-97.5648281, 35.4121065], [-97.5648275, 35.4120028], [-97.5649918, 35.4120022], [-97.5649925, 35.4121173]]]}, "properties": {"osm_id": 1392254086, "building": "house", "name": "", "height": null, "height_m": null, "levels": null, "tract_id": "40109107215", "tract_name": "1072.15", "tags": {"addr:city": "Oklahoma City", "addr:housenumber": "2832", "addr:postcode": "73119", "addr:state": "OK", "addr:street": "Southwest 53rd Street", "building": "house"}}}, {"type": "Feature", "geometry": {"type": "Polygon", "coordinates": [[[-97.5651753, 35.4121189], [-97.5651077, 35.4121192], [-97.5651076, 35.4121081], [-97.5650078, 35.4121086], [-97.5650071, 35.4120019], [-97.5651745, 35.4120011], [-97.5651753, 35.4121189]]]}, "properties": {"osm_id": 1392254087, "building": "house", "name": "", "height": null, "height_m": null, "levels": null, "tract_id": "40109107215", "tract_name": "1072.15", "tags": {"addr:city": "Oklahoma City", "addr:housenumber": "2836", "addr:postcode": "73119", "addr:state": "OK", "addr:street": "Southwest 53rd Street", "building": "house"}}}, {"type": "Feature", "geometry": {"type": "Polygon", "coordinates": [[[-97.5610178, 35.412045], [-97.560861, 35.4120449], [-97.560861, 35.4119675], [-97.5608471, 35.4119675], [-97.5608471, 35.4119076], [-97.5609868, 35.4119077], [-97.5609868, 35.4119559], [-97.5610179, 35.4119559], [-97.5610178, 35.412045]]]}, "properties": {"osm_id": 1392254088, "building": "house", "name": "", "height": null, "height_m": null, "levels": null, "tract_id": "40109107215", "tract_name": "1072.15", "tags": {"building": "house"}}}, {"type": "Feature", "geometry": {"type": "Polygon", "coordinates": [[[-97.5614437, 35.4117911], [-97.5613131, 35.4117918], [-97.5613124, 35.411692], [-97.5613263, 35.4116919], [-97.5613259, 35.4116437], [-97.5613528, 35.4116435], [-97.5613524, 35.4115896], [-97.5614421, 35.4115891], [-97.5614437, 35.4117911]]]}, "properties": {"osm_id": 1392254089, "building": "house", "name": "", "height": null, "height_m": null, "levels": null, "tract_id": "40109107215", "tract_name": "1072.15", "tags": {"building": "house"}}}, {"type": "Feature", "geometry": {"type": "Polygon", "coordinates": [[[-97.5608984, 35.4113187], [-97.5610298, 35.4113185], [-97.5610296, 35.41123], [-97.5610063, 35.41123], [-97.5610061, 35.4111621], [-97.560898, 35.4111623], [-97.5608984, 35.4113187]]]}, "properties": {"osm_id": 1392254090, "building": "house", "name": "", "height": null, "height_m": null, "levels": null, "tract_id": "40109107215", "tract_name": "1072.15", "tags": {"building": "house"}}}, {"type": "Feature", "geometry": {"type": "Polygon", "coordinates": [[[-97.5644432, 35.4121107], [-97.5643821, 35.4121113], [-97.564382, 35.4121069], [-97.5643635, 35.4121071], [-97.5643636, 35.4121155], [-97.5642921, 35.4121162], [-97.5642915, 35.4120794], [-97.5642959, 35.4120793], [-97.5642947, 35.4120034], [-97.5644416, 35.4120019], [-97.5644432, 35.4121107]]]}, "properties": {"osm_id": 1392254091, "building": "house", "name": "", "height": null, "height_m": null, "levels": null, "tract_id": "40109107215", "tract_name": "1072.15", "tags": {"addr:city": "Oklahoma City", "addr:housenumber": "2820", "addr:postcode": "73119", "addr:state": "OK", "addr:street": "Southwest 53rd Street", "building": "house"}}}, {"type": "Feature", "geometry": {"type": "Polygon", "coordinates": [[[-97.5642634, 35.4121064], [-97.5642029, 35.4121067], [-97.5642028, 35.4121004], [-97.5641835, 35.4121005], [-97.5641836, 35.412107], [-97.5641133, 35.4121075], [-97.5641122, 35.4119939], [-97.5642623, 35.411993], [-97.5642634, 35.4121064]]]}, "properties": {"osm_id": 1392254092, "building": "house", "name": "", "height": null, "height_m": null, "levels": null, "tract_id": "40109107215", "tract_name": "1072.15", "tags": {"addr:city": "Oklahoma City", "addr:housenumber": "2816", "addr:postcode": "73119", "addr:state": "OK", "addr:street": "Southwest 53rd Street", "building": "house"}}}, {"type": "Feature", "geometry": {"type": "Polygon", "coordinates": [[[-97.5640791, 35.4121102], [-97.5640014, 35.4121107], [-97.5640011, 35.4120831], [-97.5639272, 35.4120836], [-97.5639262, 35.4119769], [-97.5639862, 35.4119766], [-97.5639863, 35.4119798], [-97.5640725, 35.4119793], [-97.5640727, 35.412002], [-97.564078, 35.412002], [-97.5640791, 35.4121102]]]}, "properties": {"osm_id": 1392254093, "building": "house", "name": "", "height": null, "height_m": null, "levels": null, "tract_id": "40109107215", "tract_name": "1072.15", "tags": {"addr:city": "Oklahoma City", "addr:housenumber": "2812", "addr:postcode": "73119", "addr:state": "OK", "addr:street": "Southwest 53rd Street", "building": "house"}}}, {"type": "Feature", "geometry": {"type": "Polygon", "coordinates": [[[-97.5638996, 35.4120071], [-97.5637686, 35.4120075], [-97.563769, 35.4120892], [-97.5638184, 35.4120891], [-97.5638185, 35.4121173], [-97.5639, 35.412117], [-97.5638996, 35.4120071]]]}, "properties": {"osm_id": 1392254094, "building": "house", "name": "", "height": null, "height_m": null, "levels": null, "tract_id": "40109107215", "tract_name": "1072.15", "tags": {"addr:city": "Oklahoma City", "addr:housenumber": "2808", "addr:postcode": "73119", "addr:state": "OK", "addr:street": "Southwest 53rd Street", "building": "house"}}}]}