{"type": "FeatureCollection", "features": [{"type": "Feature", "geometry": {"type": "Polygon", "coordinates": [[[-95.9763395, 36.1149367], [-95.9763401, 36.1150403], [-95.9758659, 36.1150421], [-95.9758653, 36.1149385], [-95.9763395, 36.1149367]]]}, "properties": {"osm_id": 180522285, "building": "yes", "name": "", "height": null, "height_m": null, "levels": null, "tract_id": "40143004400", "tract_name": "44", "tags": {"building": "yes"}}}, {"type": "Feature", "geometry": {"type": "Polygon", "coordinates": [[[-95.9763449, 36.1113503], [-95.976238, 36.1113503], [-95.976238, 36.1110521], [-95.9763449, 36.1110521], [-95.9763449, 36.1113503]]]}, "properties": {"osm_id": 190143761, "building": "retail", "name": "QuikTrip", "height": null, "height_m": 3.0, "levels": 1, "tract_id": "40143004400", "tract_name": "44", "tags": {"addr:city": "Tulsa", "addr:housenumber": "3606", "addr:postcode": "74105", "addr:street": "South Peoria Avenue East", "brand": "QuikTrip", "brand:wikidata": "Q7271953", "building": "retail", "building:levels": "1", "name": "QuikTrip", "opening_hours": "24/7", "ref": "57", "roof:levels": "0", "shop": "convenience", "short_name": "QT", "wheelchair": "yes"}}}, {"type": "Feature", "geometry": {"type": "Polygon", "coordinates": [[[-95.9760203, 36.1113773], [-95.9759386, 36.1113764], [-95.9759398, 36.1113025], [-95.9759412, 36.1112235], [-95.9759424, 36.1111527], [-95.9759434, 36.111088], [-95.9759445, 36.1110228], [-95.9759457, 36.1109514], [-95.9759469, 36.1108823], [-95.9760286, 36.1108832], [-95.9760274, 36.1109524], [-95.9760262, 36.1110248], [-95.9760252, 36.111088], [-95.9760241, 36.1111537], [-95.9760229, 36.1112245], [-95.9760216, 36.1113025], [-95.9760203, 36.1113773]]]}, "properties": {"osm_id": 190143762, "building": "roof", "name": "QuikTrip", "height": null, "height_m": null, "levels": null, "tract_id": "40143004400", "tract_name": "44", "tags": {"amenity": "fuel", "brand": "QuikTrip", "brand:wikidata": "Q7271953", "building": "roof", "compressed_air": "yes", "name": "QuikTrip", "opening_hours": "24/7", "roof:shape": "flat", "short_name": "QT", "wheelchair": "yes"}}}, {"type": "Feature", "geometry": {"type": "Polygon", "coordinates": [[[-95.9761914, 36.1132783], [-95.9761905, 36.1131773], [-95.9758493, 36.1131795], [-95.9758501, 36.113263], [-95.9759653, 36.1132623], [-95.9759655, 36.1132798], [-95.9761914, 36.1132783]]]}, "properties": {"osm_id": 427032705, "building": "retail", "name": "Lululemon", "height": null, "height_m": null, "levels": null, "tract_id": "40143004400", "tract_name": "44", "tags": {"addr:city": "Tulsa", "addr:housenumber": "3506", "addr:postcode": "74105", "addr:state": "OK", "addr:street": "South Peoria Avenue East", "brand": "Lululemon", "brand:wikidata": "Q6702957", "building": "retail", "check_date": "2024-07-10", "clothes": "men;women", "name": "Lululemon", "official_name": "Lululemon Athletica", "roof:shape": "flat", "shop": "clothes"}}}, {"type": "Feature", "geometry": {"type": "Polygon", "coordinates": [[[-95.9841492, 36.1044252], [-95.9841485, 36.1044511], [-95.9840392, 36.1044481], [-95.9840405, 36.1043948], [-95.9841512, 36.1043964], [-95.9841492, 36.1044252]]]}, "properties": {"osm_id": 481637832, "building": "yes", "name": "41st Street Plaza", "height": null, "height_m": null, "levels": null, "tract_id": "40143004400", "tract_name": "44", "tags": {"amenity": "toilets", "building": "yes", "building:colour": "lime", "name": "41st Street Plaza", "wheelchair": "yes"}}}, {"type": "Feature", "geometry": {"type": "Polygon", "coordinates": [[[-95.9758578, 36.1141767], [-95.9758596, 36.1140379], [-95.9762168, 36.1140365], [-95.9763692, 36.1140378], [-95.9763673, 36.1141788], [-95.9758578, 36.1141767]]]}, "properties": {"osm_id": 537559160, "building": "retail", "name": "", "height": null, "height_m": null, "levels": null, "tract_id": "40143004400", "tract_name": "44", "tags": {"addr:housenumber": "3346", "addr:street": "South Peoria Avenue East", "addr:unit": "B", "building": "retail"}}}, {"type": "Feature", "geometry": {"type": "Polygon", "coordinates": [[[-95.9758561, 36.1143121], [-95.9761852, 36.1143116], [-95.9761837, 36.1144264], [-95.9758545, 36.1144286], [-95.9758561, 36.1143121]]]}, "properties": {"osm_id": 537559162, "building": "retail", "name": "", "height": null, "height_m": null, "levels": null, "tract_id": "40143004400", "tract_name": "44", "tags": {"building": "retail"}}}, {"type": "Feature", "geometry": {"type": "Polygon", "coordinates": [[[-95.9758578, 36.1141767], [-95.9763673, 36.1141788], [-95.9763656, 36.1143131], [-95.9761852, 36.1143116], [-95.9758561, 36.1143121], [-95.9758578, 36.1141767]]]}, "properties": {"osm_id": 537559163, "building": "retail", "name": "", "height": null, "height_m": null, "levels": null, "tract_id": "40143004400", "tract_name": "44", "tags": {"building": "retail"}}}, {"type": "Feature", "geometry": {"type": "Polygon", "coordinates": [[[-95.9758596, 36.1140379], [-95.975861, 36.1139285], [-95.9762182, 36.1139315], [-95.9762168, 36.1140365], [-95.9758596, 36.1140379]]]}, "properties": {"osm_id": 537559165, "building": "retail", "name": "", "height": null, "height_m": null, "levels": null, "tract_id": "40143004400", "tract_name": "44", "tags": {"building": "retail"}}}, {"type": "Feature", "geometry": {"type": "Polygon", "coordinates": [[[-95.9761837, 36.1144264], [-95.9761808, 36.1146488], [-95.9758517, 36.114646], [-95.9758545, 36.1144286], [-95.9761837, 36.1144264]]]}, "properties": {"osm_id": 537559166, "building": "retail", "name": "Torchy's Tacos", "height": null, "height_m": null, "levels": null, "tract_id": "40143004400", "tract_name": "44", "tags": {"addr:city": "Tulsa", "addr:country": "US", "addr:housenumber": "3330", "addr:state": "OK", "addr:street": "South Peoria Avenue East", "amenity": "fast_food", "brand": "Torchy's Tacos", "brand:wikidata": "Q106769573", "building": "retail", "check_date": "2024-05-29", "cuisine": "tex-mex", "name": "Torchy's Tacos", "takeaway": "yes"}}}, {"type": "Feature", "geometry": {"type": "Polygon", "coordinates": [[[-95.9825934, 36.1064745], [-95.9827899, 36.1064761], [-95.9827888, 36.1065605], [-95.9827363, 36.1065601], [-95.9827329, 36.1068384], [-95.9826196, 36.1068375], [-95.98262, 36.1068028], [-95.9826109, 36.1068027], [-95.9826132, 36.1066223], [-95.9826222, 36.1066224], [-95.9826231, 36.1065574], [-95.9825923, 36.1065572], [-95.9825934, 36.1064745]]]}, "properties": {"osm_id": 614089446, "building": "apartments", "name": "", "height": null, "height_m": null, "levels": null, "tract_id": "40143004400", "tract_name": "44", "tags": {"building": "apartments"}}}, {"type": "Feature", "geometry": {"type": "Polygon", "coordinates": [[[-95.9823608, 36.1063547], [-95.9828965, 36.1063547], [-95.9828965, 36.1064458], [-95.9828214, 36.1064458], [-95.9828214, 36.1064528], [-95.9826162, 36.1064528], [-95.9826162, 36.1064458], [-95.9825626, 36.1064458], [-95.9825626, 36.1065568], [-95.9825311, 36.1065568], [-95.9825311, 36.1065709], [-95.9824245, 36.1065709], [-95.9824245, 36.1064458], [-95.9823608, 36.1064458], [-95.9823608, 36.1063547]]]}, "properties": {"osm_id": 614089447, "building": "apartments", "name": "", "height": null, "height_m": null, "levels": null, "tract_id": "40143004400", "tract_name": "44", "tags": {"building": "apartments"}}}, {"type": "Feature", "geometry": {"type": "Polygon", "coordinates": [[[-95.9823306, 36.1066793], [-95.9823319, 36.1065836], [-95.9825826, 36.1065857], [-95.9825814, 36.1066814], [-95.9823306, 36.1066793]]]}, "properties": {"osm_id": 614089448, "building": "apartments", "name": "", "height": null, "height_m": null, "levels": null, "tract_id": "40143004400", "tract_name": "44", "tags": {"building": "apartments"}}}, {"type": "Feature", "geometry": {"type": "Polygon", "coordinates": [[[-95.9823447, 36.107013], [-95.9823463, 36.1067126], [-95.982461, 36.106713], [-95.9824594, 36.1070134], [-95.9823447, 36.107013]]]}, "properties": {"osm_id": 614089449, "building": "apartments", "name": "", "height": null, "height_m": null, "levels": null, "tract_id": "40143004400", "tract_name": "44", "tags": {"building": "apartments"}}}, {"type": "Feature", "geometry": {"type": "Polygon", "coordinates": [[[-95.9824493, 36.1074675], [-95.9823413, 36.1074675], [-95.9823413, 36.1070287], [-95.9824493, 36.1070287], [-95.9824493, 36.1074675]]]}, "properties": {"osm_id": 614089450, "building": "apartments", "name": "", "height": null, "height_m": null, "levels": null, "tract_id": "40143004400", "tract_name": "44", "tags": {"building": "apartments"}}}, {"type": "Feature", "geometry": {"type": "Polygon", "coordinates": [[[-95.9826947, 36.1070417], [-95.9825906, 36.1070255], [-95.9824887, 36.1074529], [-95.9825928, 36.1074691], [-95.9826947, 36.1070417]]]}, "properties": {"osm_id": 614089451, "building": "apartments", "name": "", "height": null, "height_m": null, "levels": null, "tract_id": "40143004400", "tract_name": "44", "tags": {"building": "apartments"}}}, {"type": "Feature", "geometry": {"type": "Polygon", "coordinates": [[[-95.9763251, 36.1055275], [-95.9763305, 36.1053456], [-95.9759404, 36.105338], [-95.975935, 36.1055199], [-95.9763251, 36.1055275]]]}, "properties": {"osm_id": 629847176, "building": "yes", "name": "", "height": null, "height_m": null, "levels": null, "tract_id": "40143004400", "tract_name": "44", "tags": {"building": "yes"}}}, {"type": "Feature", "geometry": {"type": "Polygon", "coordinates": [[[-95.9769425, 36.1051882], [-95.9769471, 36.1046975], [-95.9769769, 36.1046977], [-95.9770254, 36.1046979], [-95.9770261, 36.1046298], [-95.9769409, 36.1046293], [-95.9769418, 36.1045331], [-95.9763746, 36.1045297], [-95.9763714, 36.1048665], [-95.9763684, 36.1051847], [-95.9769425, 36.1051882]]]}, "properties": {"osm_id": 629847177, "building": "retail", "name": "Westlake ACE Hardware", "height": null, "height_m": null, "levels": null, "tract_id": "40143004400", "tract_name": "44", "tags": {"addr:city": "Tulsa", "addr:housenumber": "3948", "addr:postcode": "74105-3131", "addr:state": "OK", "addr:street": "South Peoria Avenue East", "brand": "Ace Hardware", "brand:wikidata": "Q4672981", "building": "retail", "name": "Westlake ACE Hardware", "opening_hours": "Mo-Sa 07:30-20:00; Su 09:00-18:00", "phone": "+1 918-712-7376", "ref": "11990", "shop": "doityourself"}}}, {"type": "Feature", "geometry": {"type": "Polygon", "coordinates": [[[-95.9763353, 36.1059873], [-95.9763355, 36.1058038], [-95.9759064, 36.1058034], [-95.9759062, 36.105987], [-95.9763353, 36.1059873]]]}, "properties": {"osm_id": 629847178, "building": "office", "name": "Triad Eye Center", "height": null, "height_m": null, "levels": null, "tract_id": "40143004400", "tract_name": "44", "tags": {"building": "office", "check_date": "2024-05-29", "healthcare": "optometrist", "name": "Triad Eye Center"}}}, {"type": "Feature", "geometry": {"type": "Polygon", "coordinates": [[[-95.9762281, 36.1057719], [-95.9762275, 36.1056954], [-95.9761616, 36.1056958], [-95.9761606, 36.1055735], [-95.9759186, 36.1055747], [-95.9759192, 36.1056528], [-95.975987, 36.1056524], [-95.975988, 36.1057731], [-95.9762281, 36.1057719]]]}, "properties": {"osm_id": 629847179, "building": "retail", "name": "", "height": null, "height_m": null, "levels": null, "tract_id": "40143004400", "tract_name": "44", "tags": {"addr:housenumber": "3916", "addr:street": "South Peoria Avenue East", "building": "retail"}}}, {"type": "Feature", "geometry": {"type": "Polygon", "coordinates": [[[-95.9761025, 36.1092449], [-95.9758773, 36.1092426], [-95.9758786, 36.1091614], [-95.9758903, 36.1091615], [-95.9758924, 36.1090272], [-95.9758807, 36.1090271], [-95.975882, 36.1089446], [-95.9761072, 36.1089469], [-95.9761059, 36.1090271], [-95.9760955, 36.109027], [-95.9760934, 36.1091603], [-95.9761038, 36.1091604], [-95.9761025, 36.1092449]]]}, "properties": {"osm_id": 683462322, "building": "yes", "name": "", "height": null, "height_m": null, "levels": null, "tract_id": "40143004400", "tract_name": "44", "tags": {"building": "yes"}}}, {"type": "Feature", "geometry": {"type": "Polygon", "coordinates": [[[-95.9758712, 36.1093196], [-95.976199, 36.1093208], [-95.976197, 36.1096915], [-95.9758691, 36.1096903], [-95.9758712, 36.1093196]]]}, "properties": {"osm_id": 683462323, "building": "yes", "name": "Trader Joe's", "height": null, "height_m": null, "levels": null, "tract_id": "40143004400", "tract_name": "44", "tags": {"addr:city": "Tulsa", "addr:housenumber": "3702", "addr:postcode": "74105", "addr:state": "OK", "addr:street": "South Peoria Avenue East", "branch": "Tulsa", "brand": "Trader Joe's", "brand:wikidata": "Q688825", "building": "yes", "name": "Trader Joe's", "opening_hours": "Mo-Su 08:00-21:00", "phone": "+1 918-712-9768", "ref": "460", "shop": "supermarket", "website": "https://locations.traderjoes.com/ok/tulsa/460/"}}}, {"type": "Feature", "geometry": {"type": "Polygon", "coordinates": [[[-95.9797386, 36.1142922], [-95.9798303, 36.1142922], [-95.9798318, 36.1142169], [-95.9797363, 36.1142175], [-95.9797386, 36.1142922]]]}, "properties": {"osm_id": 974868178, "building": "yes", "name": "", "height": null, "height_m": null, "levels": null, "tract_id": "40143004400", "tract_name": "44", "tags": {"building": "yes"}}}, {"type": "Feature", "geometry": {"type": "Polygon", "coordinates": [[[-95.979808, 36.1141665], [-95.9798888, 36.1141665], [-95.9798888, 36.1141298], [-95.9799374, 36.1141316], [-95.9799358, 36.1140122], [-95.9797594, 36.1140097], [-95.9797571, 36.1141304], [-95.9798095, 36.1141316], [-95.979808, 36.1141665]]]}, "properties": {"osm_id": 974868179, "building": "yes", "name": "", "height": null, "height_m": null, "levels": null, "tract_id": "40143004400", "tract_name": "44", "tags": {"building": "yes"}}}, {"type": "Feature", "geometry": {"type": "Polygon", "coordinates": [[[-95.9840229, 36.1181799], [-95.9840036, 36.1178753], [-95.9839719, 36.117376], [-95.9843877, 36.1173565], [-95.9844655, 36.1180282], [-95.9844386, 36.1180304], [-95.9844467, 36.1181539], [-95.9840352, 36.1181791], [-95.9840229, 36.1181799]]]}, "properties": {"osm_id": 1038065767, "building": "yes", "name": "Discovery Lab", "height": null, "height_m": null, "levels": null, "tract_id": "40143004400", "tract_name": "44", "tags": {"addr:city": "Tulsa", "addr:housenumber": "3123", "addr:postcode": "74105", "addr:state": "OK", "addr:street": "Riverside Drive", "air_conditioning": "yes", "building": "yes", "charge": "14 USD", "fee": "yes", "museum": "children", "name": "Discovery Lab", "opening_hours": "Mo 10:30-14:00; Tu-Sa 09:30-17:00; Su 11:30-17:00", "phone": "+1-918-295-8144", "start_date": "2022-01-24", "tourism": "museum", "website": "https://www.discoverylab.org/", "wheelchair": "yes"}}}, {"type": "Feature", "geometry": {"type": "Polygon", "coordinates": [[[-95.9761087, 36.112952], [-95.9761122, 36.1125675], [-95.9758279, 36.1125658], [-95.9758241, 36.112988], [-95.9759559, 36.1129888], [-95.9759571, 36.112854], [-95.9759693, 36.1128511], [-95.9759683, 36.1129511], [-95.9761087, 36.112952]]]}, "properties": {"osm_id": 1154259641, "building": "retail", "name": "", "height": null, "height_m": null, "levels": null, "tract_id": "40143004400", "tract_name": "44", "tags": {"building": "retail"}}}, {"type": "Feature", "geometry": {"type": "Polygon", "coordinates": [[[-95.9760235, 36.1131024], [-95.9760233, 36.1129912], [-95.9758264, 36.1129914], [-95.9758265, 36.1131026], [-95.9760235, 36.1131024]]]}, "properties": {"osm_id": 1154259642, "building": "yes", "name": "Blue Moon Cafe", "height": null, "height_m": null, "levels": null, "tract_id": "40143004400", "tract_name": "44", "tags": {"addr:city": "Tulsa", "addr:housenumber": "3512", "addr:postcode": "74105", "addr:state": "OK", "addr:street": "South Peoria Avenue East", "amenity": "restaurant", "building": "yes", "name": "Blue Moon Cafe"}}}, {"type": "Feature", "geometry": {"type": "Polygon", "coordinates": [[[-95.9824151, 36.1082557], [-95.9823413, 36.1082561], [-95.9822481, 36.1082567], [-95.9822334, 36.1082567], [-95.9822325, 36.1081597], [-95.9824142, 36.1081586], [-95.9824151, 36.1082557]]]}, "properties": {"osm_id": 1289777352, "building": "yes", "name": "", "height": null, "height_m": null, "levels": null, "tract_id": "40143004400", "tract_name": "44", "tags": {"building": "yes"}}}, {"type": "Feature", "geometry": {"type": "Polygon", "coordinates": [[[-95.98264, 36.1082505], [-95.9825238, 36.108256], [-95.9825213, 36.10822], [-95.982516, 36.1081463], [-95.9825105, 36.1080702], [-95.9825057, 36.1080032], [-95.9825034, 36.1079718], [-95.9826196, 36.1079664], [-95.9826239, 36.1080265], [-95.982629, 36.1080975], [-95.9826341, 36.1081685], [-95.9826392, 36.108239], [-95.98264, 36.1082505]]]}, "properties": {"osm_id": 1289777353, "building": "apartments", "name": "", "height": null, "height_m": 9.0, "levels": 3, "tract_id": "40143004400", "tract_name": "44", "tags": {"building": "apartments", "building:levels": "3", "roof:levels": "0"}}}, {"type": "Feature", "geometry": {"type": "Polygon", "coordinates": [[[-95.9826176, 36.107936], [-95.9825331, 36.1079363], [-95.9825317, 36.1076508], [-95.9826162, 36.1076505], [-95.9826176, 36.107936]]]}, "properties": {"osm_id": 1291946560, "building": "apartments", "name": "", "height": null, "height_m": null, "levels": null, "tract_id": "40143004400", "tract_name": "44", "tags": {"building": "apartments"}}}, {"type": "Feature", "geometry": {"type": "Polygon", "coordinates": [[[-95.9847833, 36.1152523], [-95.9847294, 36.1151569], [-95.9848226, 36.1151225], [-95.9848766, 36.1152179], [-95.9847833, 36.1152523]]]}, "properties": {"osm_id": 1299378202, "building": "public", "name": "", "height": null, "height_m": null, "levels": null, "tract_id": "40143004400", "tract_name": "44", "tags": {"building": "public"}}}, {"type": "Feature", "geometry": {"type": "Polygon", "coordinates": [[[-95.9774569, 36.1044457], [-95.97726, 36.1044444], [-95.9772546, 36.1049688], [-95.9774516, 36.1049701], [-95.9774569, 36.1044457]]]}, "properties": {"osm_id": 1342541515, "building": "yes", "name": "", "height": null, "height_m": null, "levels": null, "tract_id": "40143004400", "tract_name": "44", "tags": {"building": "yes", "source": "microsoft/BuildingFootprints"}}}, {"type": "Feature", "geometry": {"type": "Polygon", "coordinates": [[[-95.9776206, 36.1044447], [-95.9776188, 36.1049691], [-95.9778146, 36.1049695], [-95.9778164, 36.1044451], [-95.9776206, 36.1044447]]]}, "properties": {"osm_id": 1342541516, "building": "yes", "name": "", "height": null, "height_m": null, "levels": null, "tract_id": "40143004400", "tract_name": "44", "tags": {"building": "yes", "source": "microsoft/BuildingFootprints"}}}, {"type": "Feature", "geometry": {"type": "Polygon", "coordinates": [[[-95.9771279, 36.1052386], [-95.9776268, 36.1052418], [-95.9776269, 36.1052288], [-95.9778415, 36.1052302], [-95.9778413, 36.1052497], [-95.9779366, 36.1052503], [-95.9779381, 36.1051008], [-95.9771293, 36.1050955], [-95.9771279, 36.1052386]]]}, "properties": {"osm_id": 1342541517, "building": "yes", "name": "", "height": null, "height_m": null, "levels": null, "tract_id": "40143004400", "tract_name": "44", "tags": {"building": "yes", "source": "microsoft/BuildingFootprints"}}}, {"type": "Feature", "geometry": {"type": "Polygon", "coordinates": [[[-95.9785808, 36.1055191], [-95.9787096, 36.1055205], [-95.978717, 36.105072], [-95.9785883, 36.1050706], [-95.9785808, 36.1055191]]]}, "properties": {"osm_id": 1342541518, "building": "yes", "name": "", "height": null, "height_m": null, "levels": null, "tract_id": "40143004400", "tract_name": "44", "tags": {"building": "yes", "source": "microsoft/BuildingFootprints"}}}, {"type": "Feature", "geometry": {"type": "Polygon", "coordinates": [[[-95.9790266, 36.1044761], [-95.9785894, 36.1044798], [-95.9785907, 36.1045773], [-95.9789125, 36.1045745], [-95.9789128, 36.1045984], [-95.9789653, 36.1045979], [-95.9789651, 36.1045828], [-95.9790279, 36.1045822], [-95.9790266, 36.1044761]]]}, "properties": {"osm_id": 1342541519, "building": "yes", "name": "", "height": null, "height_m": null, "levels": null, "tract_id": "40143004400", "tract_name": "44", "tags": {"building": "yes", "source": "microsoft/BuildingFootprints"}}}, {"type": "Feature", "geometry": {"type": "Polygon", "coordinates": [[[-95.9785687, 36.1056733], [-95.9789066, 36.1056775], [-95.9789078, 36.1056125], [-95.9788232, 36.1056114], [-95.9788238, 36.1055811], [-95.9785705, 36.105578], [-95.9785687, 36.1056733]]]}, "properties": {"osm_id": 1342541520, "building": "yes", "name": "", "height": null, "height_m": null, "levels": null, "tract_id": "40143004400", "tract_name": "44", "tags": {"building": "yes", "source": "microsoft/BuildingFootprints"}}}, {"type": "Feature", "geometry": {"type": "Polygon", "coordinates": [[[-95.9787532, 36.1053776], [-95.9790455, 36.1053749], [-95.9790442, 36.1052826], [-95.9787519, 36.1052854], [-95.9787532, 36.1053776]]]}, "properties": {"osm_id": 1342541521, "building": "yes", "name": "", "height": null, "height_m": null, "levels": null, "tract_id": "40143004400", "tract_name": "44", "tags": {"building": "yes", "source": "microsoft/BuildingFootprints"}}}, {"type": "Feature", "geometry": {"type": "Polygon", "coordinates": [[[-95.9790983, 36.1055745], [-95.9789133, 36.1055721], [-95.9789114, 36.105673], [-95.9790964, 36.1056754], [-95.9790983, 36.1055745]]]}, "properties": {"osm_id": 1342541522, "building": "yes", "name": "", "height": null, "height_m": null, "levels": null, "tract_id": "40143004400", "tract_name": "44", "tags": {"building": "yes", "source": "microsoft/BuildingFootprints"}}}, {"type": "Feature", "geometry": {"type": "Polygon", "coordinates": [[[-95.9795292, 36.1055181], [-95.9795309, 36.1053934], [-95.9795551, 36.1053936], [-95.9795556, 36.1053568], [-95.9795234, 36.1053565], [-95.9795243, 36.1052915], [-95.9794116, 36.1052905], [-95.9794063, 36.1056783], [-95.979527, 36.1056794], [-95.9795292, 36.1055181]]]}, "properties": {"osm_id": 1342541523, "building": "yes", "name": "", "height": null, "height_m": null, "levels": null, "tract_id": "40143004400", "tract_name": "44", "tags": {"building": "yes", "source": "microsoft/BuildingFootprints"}}}, {"type": "Feature", "geometry": {"type": "Polygon", "coordinates": [[[-95.9795281, 36.1049811], [-95.9795535, 36.1049812], [-95.9795537, 36.104927], [-95.9795258, 36.1049269], [-95.9795261, 36.1048662], [-95.9794092, 36.1048658], [-95.9794072, 36.105255], [-95.9795267, 36.1052554], [-95.9795281, 36.1049811]]]}, "properties": {"osm_id": 1342541524, "building": "yes", "name": "", "height": null, "height_m": null, "levels": null, "tract_id": "40143004400", "tract_name": "44", "tags": {"building": "yes", "source": "microsoft/BuildingFootprints"}}}, {"type": "Feature", "geometry": {"type": "Polygon", "coordinates": [[[-95.9794078, 36.104829], [-95.9795285, 36.1048303], [-95.9795338, 36.1044966], [-95.9794131, 36.1044953], [-95.9794078, 36.104829]]]}, "properties": {"osm_id": 1342541525, "building": "yes", "name": "", "height": null, "height_m": null, "levels": null, "tract_id": "40143004400", "tract_name": "44", "tags": {"building": "yes", "source": "microsoft/BuildingFootprints"}}}, {"type": "Feature", "geometry": {"type": "Polygon", "coordinates": [[[-95.9785925, 36.1046251], [-95.9785848, 36.1050519], [-95.9787093, 36.1050534], [-95.978717, 36.1046265], [-95.9785925, 36.1046251]]]}, "properties": {"osm_id": 1342541526, "building": "yes", "name": "", "height": null, "height_m": null, "levels": null, "tract_id": "40143004400", "tract_name": "44", "tags": {"building": "yes", "source": "microsoft/BuildingFootprints"}}}, {"type": "Feature", "geometry": {"type": "Polygon", "coordinates": [[[-95.9782871, 36.1044171], [-95.978197, 36.1044182], [-95.9781982, 36.104481], [-95.9781944, 36.1044811], [-95.9781956, 36.1045417], [-95.9782894, 36.1045406], [-95.9782871, 36.1044171]]]}, "properties": {"osm_id": 1342541527, "building": "yes", "name": "", "height": null, "height_m": null, "levels": null, "tract_id": "40143004400", "tract_name": "44", "tags": {"building": "yes", "source": "microsoft/BuildingFootprints"}}}, {"type": "Feature", "geometry": {"type": "Polygon", "coordinates": [[[-95.9783432, 36.1046229], [-95.9783068, 36.1046234], [-95.9783058, 36.1045792], [-95.9782108, 36.1045806], [-95.9782129, 36.1046789], [-95.9783443, 36.1046771], [-95.9783432, 36.1046229]]]}, "properties": {"osm_id": 1342541528, "building": "yes", "name": "", "height": null, "height_m": null, "levels": null, "tract_id": "40143004400", "tract_name": "44", "tags": {"building": "yes", "source": "microsoft/BuildingFootprints"}}}, {"type": "Feature", "geometry": {"type": "Polygon", "coordinates": [[[-95.9782877, 36.1047308], [-95.9781869, 36.1047315], [-95.9781878, 36.1048225], [-95.9783208, 36.1048216], [-95.9783211, 36.1048519], [-95.9784, 36.1048514], [-95.9783993, 36.1047821], [-95.9782882, 36.1047828], [-95.9782877, 36.1047308]]]}, "properties": {"osm_id": 1342541529, "building": "yes", "name": "", "height": null, "height_m": null, "levels": null, "tract_id": "40143004400", "tract_name": "44", "tags": {"building": "yes", "source": "microsoft/BuildingFootprints"}}}, {"type": "Feature", "geometry": {"type": "Polygon", "coordinates": [[[-95.9783015, 36.1048768], [-95.978205, 36.1048747], [-95.9782017, 36.1049743], [-95.9782982, 36.1049764], [-95.9783015, 36.1048768]]]}, "properties": {"osm_id": 1342541530, "building": "yes", "name": "", "height": null, "height_m": null, "levels": null, "tract_id": "40143004400", "tract_name": "44", "tags": {"building": "yes", "source": "microsoft/BuildingFootprints"}}}, {"type": "Feature", "geometry": {"type": "Polygon", "coordinates": [[[-95.9783002, 36.1050377], [-95.9782063, 36.1050382], [-95.9782071, 36.1051517], [-95.978301, 36.1051513], [-95.9783002, 36.1050377]]]}, "properties": {"osm_id": 1342541531, "building": "yes", "name": "", "height": null, "height_m": null, "levels": null, "tract_id": "40143004400", "tract_name": "44", "tags": {"building": "yes", "source": "microsoft/BuildingFootprints"}}}, {"type": "Feature", "geometry": {"type": "Polygon", "coordinates": [[[-95.978274, 36.105184], [-95.9781721, 36.105186], [-95.9781756, 36.1053051], [-95.9783097, 36.1053025], [-95.9783087, 36.10527], [-95.9782766, 36.1052707], [-95.978274, 36.105184]]]}, "properties": {"osm_id": 1342541532, "building": "yes", "name": "", "height": null, "height_m": null, "levels": null, "tract_id": "40143004400", "tract_name": "44", "tags": {"building": "yes", "source": "microsoft/BuildingFootprints"}}}, {"type": "Feature", "geometry": {"type": "Polygon", "coordinates": [[[-95.9783125, 36.1054295], [-95.9783137, 36.1053797], [-95.9782842, 36.1053793], [-95.9782854, 36.1053303], [-95.9781915, 36.1053288], [-95.9781891, 36.1054276], [-95.9783125, 36.1054295]]]}, "properties": {"osm_id": 1342541533, "building": "yes", "name": "", "height": null, "height_m": null, "levels": null, "tract_id": "40143004400", "tract_name": "44", "tags": {"building": "yes", "source": "microsoft/BuildingFootprints"}}}, {"type": "Feature", "geometry": {"type": "Polygon", "coordinates": [[[-95.9781773, 36.1054832], [-95.9781747, 36.1055785], [-95.9782954, 36.1055807], [-95.9782964, 36.1055439], [-95.9782654, 36.1055433], [-95.978267, 36.1054848], [-95.9781773, 36.1054832]]]}, "properties": {"osm_id": 1342541534, "building": "yes", "name": "", "height": null, "height_m": null, "levels": null, "tract_id": "40143004400", "tract_name": "44", "tags": {"building": "yes", "source": "microsoft/BuildingFootprints"}}}, {"type": "Feature", "geometry": {"type": "Polygon", "coordinates": [[[-95.9783458, 36.1056226], [-95.9781807, 36.1056222], [-95.9781801, 36.1057596], [-95.9783452, 36.10576], [-95.9783458, 36.1056226]]]}, "properties": {"osm_id": 1342541535, "building": "yes", "name": "", "height": null, "height_m": null, "levels": null, "tract_id": "40143004400", "tract_name": "44", "tags": {"building": "yes", "source": "microsoft/BuildingFootprints"}}}, {"type": "Feature", "geometry": {"type": "Polygon", "coordinates": [[[-95.9782953, 36.1058893], [-95.9781237, 36.1058883], [-95.9781225, 36.106027], [-95.9782941, 36.106028], [-95.9782953, 36.1058893]]]}, "properties": {"osm_id": 1342541536, "building": "yes", "name": "", "height": null, "height_m": null, "levels": null, "tract_id": "40143004400", "tract_name": "44", "tags": {"building": "yes", "source": "microsoft/BuildingFootprints"}}}, {"type": "Feature", "geometry": {"type": "Polygon", "coordinates": [[[-95.97852, 36.1058749], [-95.9783564, 36.1058733], [-95.9783547, 36.105989], [-95.9785531, 36.105991], [-95.9785535, 36.1059671], [-95.9786139, 36.1059677], [-95.9786148, 36.1059062], [-95.9785195, 36.1059052], [-95.97852, 36.1058749]]]}, "properties": {"osm_id": 1342541537, "building": "yes", "name": "", "height": null, "height_m": null, "levels": null, "tract_id": "40143004400", "tract_name": "44", "tags": {"building": "yes", "source": "microsoft/BuildingFootprints"}}}, {"type": "Feature", "geometry": {"type": "Polygon", "coordinates": [[[-95.9787214, 36.1059136], [-95.9787238, 36.1059873], [-95.9789007, 36.1059834], [-95.9788983, 36.1059098], [-95.9787214, 36.1059136]]]}, "properties": {"osm_id": 1342541538, "building": "yes", "name": "", "height": null, "height_m": null, "levels": null, "tract_id": "40143004400", "tract_name": "44", "tags": {"building": "yes", "source": "microsoft/BuildingFootprints"}}}, {"type": "Feature", "geometry": {"type": "Polygon", "coordinates": [[[-95.978934, 36.1059128], [-95.9789336, 36.1059887], [-95.9789765, 36.1059888], [-95.9789764, 36.1060083], [-95.9791106, 36.1060087], [-95.9791111, 36.1058982], [-95.979036, 36.105898], [-95.9790359, 36.1059131], [-95.978934, 36.1059128]]]}, "properties": {"osm_id": 1342541539, "building": "yes", "name": "", "height": null, "height_m": null, "levels": null, "tract_id": "40143004400", "tract_name": "44", "tags": {"building": "yes", "source": "microsoft/BuildingFootprints"}}}, {"type": "Feature", "geometry": {"type": "Polygon", "coordinates": [[[-95.9791927, 36.1059745], [-95.9793214, 36.1059725], [-95.9793209, 36.1059499], [-95.9794147, 36.1059485], [-95.9794145, 36.1059364], [-95.9794332, 36.1059361], [-95.979432, 36.1058841], [-95.9793837, 36.1058849], [-95.9793824, 36.1058264], [-95.9792992, 36.1058277], [-95.9793, 36.105858], [-95.9792329, 36.105859], [-95.9792337, 36.1058915], [-95.9791908, 36.1058922], [-95.9791927, 36.1059745]]]}, "properties": {"osm_id": 1342541540, "building": "yes", "name": "", "height": null, "height_m": null, "levels": null, "tract_id": "40143004400", "tract_name": "44", "tags": {"building": "yes", "source": "microsoft/BuildingFootprints"}}}, {"type": "Feature", "geometry": {"type": "Polygon", "coordinates": [[[-95.9794905, 36.1059044], [-95.9794888, 36.1059759], [-95.9796389, 36.1059782], [-95.9796417, 36.1058643], [-95.9795291, 36.1058626], [-95.9795281, 36.105905], [-95.9794905, 36.1059044]]]}, "properties": {"osm_id": 1342541541, "building": "yes", "name": "", "height": null, "height_m": null, "levels": null, "tract_id": "40143004400", "tract_name": "44", "tags": {"building": "yes", "source": "microsoft/BuildingFootprints"}}}, {"type": "Feature", "geometry": {"type": "Polygon", "coordinates": [[[-95.9800259, 36.1060896], [-95.9800223, 36.1059856], [-95.9799259, 36.1059878], [-95.9799273, 36.1060311], [-95.9798564, 36.1060327], [-95.9798585, 36.1060933], [-95.9800259, 36.1060896]]]}, "properties": {"osm_id": 1342541542, "building": "yes", "name": "", "height": null, "height_m": null, "levels": null, "tract_id": "40143004400", "tract_name": "44", "tags": {"building": "yes", "source": "microsoft/BuildingFootprints"}}}, {"type": "Feature", "geometry": {"type": "Polygon", "coordinates": [[[-95.9799109, 36.1058556], [-95.9799097, 36.1059262], [-95.9800008, 36.1059272], [-95.9800028, 36.1058146], [-95.9798352, 36.1058126], [-95.9798344, 36.1058547], [-95.9799109, 36.1058556]]]}, "properties": {"osm_id": 1342541543, "building": "yes", "name": "", "height": null, "height_m": null, "levels": null, "tract_id": "40143004400", "tract_name": "44", "tags": {"building": "yes", "source": "microsoft/BuildingFootprints"}}}, {"type": "Feature", "geometry": {"type": "Polygon", "coordinates": [[[-95.9798726, 36.1057794], [-95.9799974, 36.1057774], [-95.9799957, 36.1057102], [-95.9800198, 36.1057098], [-95.9800186, 36.1056621], [-95.9799019, 36.1056641], [-95.9799039, 36.1057421], [-95.9798717, 36.1057426], [-95.9798726, 36.1057794]]]}, "properties": {"osm_id": 1342541544, "building": "yes", "name": "", "height": null, "height_m": null, "levels": null, "tract_id": "40143004400", "tract_name": "44", "tags": {"building": "yes", "source": "microsoft/BuildingFootprints"}}}, {"type": "Feature", "geometry": {"type": "Polygon", "coordinates": [[[-95.9799206, 36.1056251], [-95.9800037, 36.1056264], [-95.9800066, 36.1055116], [-95.9798779, 36.1055095], [-95.9798767, 36.105555], [-95.9799223, 36.1055557], [-95.9799206, 36.1056251]]]}, "properties": {"osm_id": 1342541545, "building": "yes", "name": "", "height": null, "height_m": null, "levels": null, "tract_id": "40143004400", "tract_name": "44", "tags": {"building": "yes", "source": "microsoft/BuildingFootprints"}}}, {"type": "Feature", "geometry": {"type": "Polygon", "coordinates": [[[-95.9799949, 36.1054727], [-95.9799937, 36.1054024], [-95.9800205, 36.1054021], [-95.9800198, 36.1053598], [-95.9798952, 36.1053611], [-95.9798971, 36.1054738], [-95.9799949, 36.1054727]]]}, "properties": {"osm_id": 1342541546, "building": "yes", "name": "", "height": null, "height_m": null, "levels": null, "tract_id": "40143004400", "tract_name": "44", "tags": {"building": "yes", "source": "microsoft/BuildingFootprints"}}}, {"type": "Feature", "geometry": {"type": "Polygon", "coordinates": [[[-95.9799027, 36.1052192], [-95.9799009, 36.1053232], [-95.9800096, 36.1053244], [-95.9800114, 36.1052204], [-95.9799027, 36.1052192]]]}, "properties": {"osm_id": 1342541547, "building": "yes", "name": "", "height": null, "height_m": null, "levels": null, "tract_id": "40143004400", "tract_name": "44", "tags": {"building": "yes", "source": "microsoft/BuildingFootprints"}}}, {"type": "Feature", "geometry": {"type": "Polygon", "coordinates": [[[-95.9799068, 36.1050593], [-95.9799092, 36.105173], [-95.979995, 36.1051718], [-95.9799935, 36.1051025], [-95.980023, 36.1051021], [-95.9800221, 36.1050578], [-95.9799068, 36.1050593]]]}, "properties": {"osm_id": 1342541548, "building": "yes", "name": "", "height": null, "height_m": null, "levels": null, "tract_id": "40143004400", "tract_name": "44", "tags": {"building": "yes", "source": "microsoft/BuildingFootprints"}}}, {"type": "Feature", "geometry": {"type": "Polygon", "coordinates": [[[-95.9798572, 36.1050219], [-95.9800021, 36.1050236], [-95.9800041, 36.1049066], [-95.9798593, 36.1049049], [-95.9798572, 36.1050219]]]}, "properties": {"osm_id": 1342541549, "building": "yes", "name": "", "height": null, "height_m": null, "levels": null, "tract_id": "40143004400", "tract_name": "44", "tags": {"building": "yes", "source": "microsoft/BuildingFootprints"}}}, {"type": "Feature", "geometry": {"type": "Polygon", "coordinates": [[[-95.9799048, 36.1047558], [-95.9799019, 36.1048706], [-95.9800145, 36.1048725], [-95.9800174, 36.1047577], [-95.9799048, 36.1047558]]]}, "properties": {"osm_id": 1342541550, "building": "yes", "name": "", "height": null, "height_m": null, "levels": null, "tract_id": "40143004400", "tract_name": "44", "tags": {"building": "yes", "source": "microsoft/BuildingFootprints"}}}, {"type": "Feature", "geometry": {"type": "Polygon", "coordinates": [[[-95.979873, 36.1047197], [-95.9800029, 36.1047187], [-95.9800015, 36.1046039], [-95.9798716, 36.1046049], [-95.979873, 36.1047197]]]}, "properties": {"osm_id": 1342541551, "building": "yes", "name": "", "height": null, "height_m": null, "levels": null, "tract_id": "40143004400", "tract_name": "44", "tags": {"building": "yes", "source": "microsoft/BuildingFootprints"}}}, {"type": "Feature", "geometry": {"type": "Polygon", "coordinates": [[[-95.9799153, 36.1044295], [-95.9799134, 36.1045335], [-95.9799403, 36.1045338], [-95.9799396, 36.1045685], [-95.9800147, 36.1045694], [-95.9800172, 36.1044307], [-95.9799153, 36.1044295]]]}, "properties": {"osm_id": 1342541552, "building": "yes", "name": "", "height": null, "height_m": null, "levels": null, "tract_id": "40143004400", "tract_name": "44", "tags": {"building": "yes", "source": "microsoft/BuildingFootprints"}}}, {"type": "Feature", "geometry": {"type": "Polygon", "coordinates": [[[-95.9805387, 36.1044758], [-95.9803751, 36.1044729], [-95.9803721, 36.1045856], [-95.9804954, 36.1045877], [-95.9804965, 36.1045487], [-95.9805367, 36.1045494], [-95.9805387, 36.1044758]]]}, "properties": {"osm_id": 1342541553, "building": "yes", "name": "", "height": null, "height_m": null, "levels": null, "tract_id": "40143004400", "tract_name": "44", "tags": {"building": "yes", "source": "microsoft/BuildingFootprints"}}}, {"type": "Feature", "geometry": {"type": "Polygon", "coordinates": [[[-95.9803802, 36.1047357], [-95.9804472, 36.1047372], [-95.9804482, 36.104708], [-95.9805206, 36.1047096], [-95.980522, 36.1046673], [-95.9804749, 36.1046662], [-95.9804766, 36.1046143], [-95.9803843, 36.1046123], [-95.9803802, 36.1047357]]]}, "properties": {"osm_id": 1342541554, "building": "yes", "name": "", "height": null, "height_m": null, "levels": null, "tract_id": "40143004400", "tract_name": "44", "tags": {"building": "yes", "source": "microsoft/BuildingFootprints"}}}, {"type": "Feature", "geometry": {"type": "Polygon", "coordinates": [[[-95.9803737, 36.1048807], [-95.980481, 36.1048815], [-95.9804824, 36.1047667], [-95.9803965, 36.104766], [-95.9803957, 36.1048354], [-95.9803743, 36.1048352], [-95.9803737, 36.1048807]]]}, "properties": {"osm_id": 1342541555, "building": "yes", "name": "", "height": null, "height_m": null, "levels": null, "tract_id": "40143004400", "tract_name": "44", "tags": {"building": "yes", "source": "microsoft/BuildingFootprints"}}}, {"type": "Feature", "geometry": {"type": "Polygon", "coordinates": [[[-95.9805178, 36.1049222], [-95.9804159, 36.1049236], [-95.9804174, 36.1049941], [-95.9803572, 36.1049949], [-95.980358, 36.1050295], [-95.98052, 36.1050273], [-95.9805178, 36.1049222]]]}, "properties": {"osm_id": 1342541556, "building": "yes", "name": "", "height": null, "height_m": null, "levels": null, "tract_id": "40143004400", "tract_name": "44", "tags": {"building": "yes", "source": "microsoft/BuildingFootprints"}}}, {"type": "Feature", "geometry": {"type": "Polygon", "coordinates": [[[-95.9803762, 36.1050614], [-95.9803731, 36.1051947], [-95.9804482, 36.1051959], [-95.9804489, 36.1051634], [-95.980524, 36.1051645], [-95.980525, 36.1051233], [-95.9805732, 36.105124], [-95.9805746, 36.1050644], [-95.9803762, 36.1050614]]]}, "properties": {"osm_id": 1342541557, "building": "yes", "name": "", "height": null, "height_m": null, "levels": null, "tract_id": "40143004400", "tract_name": "44", "tags": {"building": "yes", "source": "microsoft/BuildingFootprints"}}}, {"type": "Feature", "geometry": {"type": "Polygon", "coordinates": [[[-95.9803851, 36.105336], [-95.9804843, 36.1053378], [-95.9804875, 36.1052218], [-95.9803883, 36.10522], [-95.9803851, 36.105336]]]}, "properties": {"osm_id": 1342541558, "building": "yes", "name": "", "height": null, "height_m": null, "levels": null, "tract_id": "40143004400", "tract_name": "44", "tags": {"building": "yes", "source": "microsoft/BuildingFootprints"}}}, {"type": "Feature", "geometry": {"type": "Polygon", "coordinates": [[[-95.9805563, 36.1053784], [-95.9804183, 36.1053792], [-95.9804189, 36.1054485], [-95.9803558, 36.1054489], [-95.9803561, 36.1054836], [-95.980517, 36.1054826], [-95.9805165, 36.1054219], [-95.9805567, 36.1054217], [-95.9805563, 36.1053784]]]}, "properties": {"osm_id": 1342541559, "building": "yes", "name": "", "height": null, "height_m": null, "levels": null, "tract_id": "40143004400", "tract_name": "44", "tags": {"building": "yes", "source": "microsoft/BuildingFootprints"}}}, {"type": "Feature", "geometry": {"type": "Polygon", "coordinates": [[[-95.9804761, 36.1055189], [-95.9803822, 36.1055175], [-95.9803795, 36.1056442], [-95.9804465, 36.1056451], [-95.9804475, 36.1056008], [-95.9804743, 36.1056012], [-95.9804761, 36.1055189]]]}, "properties": {"osm_id": 1342541560, "building": "yes", "name": "", "height": null, "height_m": null, "levels": null, "tract_id": "40143004400", "tract_name": "44", "tags": {"building": "yes", "source": "microsoft/BuildingFootprints"}}}, {"type": "Feature", "geometry": {"type": "Polygon", "coordinates": [[[-95.9803682, 36.1057918], [-95.9805209, 36.1057958], [-95.9805256, 36.1056789], [-95.9803916, 36.1056754], [-95.9803886, 36.1057502], [-95.9803699, 36.1057497], [-95.9803682, 36.1057918]]]}, "properties": {"osm_id": 1342541561, "building": "yes", "name": "", "height": null, "height_m": null, "levels": null, "tract_id": "40143004400", "tract_name": "44", "tags": {"building": "yes", "source": "microsoft/BuildingFootprints"}}}, {"type": "Feature", "geometry": {"type": "Polygon", "coordinates": [[[-95.9804049, 36.105936], [-95.9805134, 36.1059376], [-95.9805158, 36.1058348], [-95.9804273, 36.1058335], [-95.9804267, 36.1058605], [-95.9804066, 36.1058602], [-95.9804049, 36.105936]]]}, "properties": {"osm_id": 1342541562, "building": "yes", "name": "", "height": null, "height_m": null, "levels": null, "tract_id": "40143004400", "tract_name": "44", "tags": {"building": "yes", "source": "microsoft/BuildingFootprints"}}}, {"type": "Feature", "geometry": {"type": "Polygon", "coordinates": [[[-95.980373, 36.1059748], [-95.9803746, 36.1060875], [-95.9804752, 36.1060866], [-95.9804748, 36.1060606], [-95.9805473, 36.10606], [-95.9805465, 36.1060036], [-95.9804794, 36.1060042], [-95.980479, 36.1059739], [-95.980373, 36.1059748]]]}, "properties": {"osm_id": 1342541563, "building": "yes", "name": "", "height": null, "height_m": null, "levels": null, "tract_id": "40143004400", "tract_name": "44", "tags": {"building": "yes", "source": "microsoft/BuildingFootprints"}}}, {"type": "Feature", "geometry": {"type": "Polygon", "coordinates": [[[-95.9807702, 36.1060645], [-95.9809029, 36.1060656], [-95.9809025, 36.1060906], [-95.9810032, 36.1060915], [-95.9810047, 36.1059723], [-95.9809002, 36.1059714], [-95.9808997, 36.1060027], [-95.980771, 36.1060016], [-95.9807702, 36.1060645]]]}, "properties": {"osm_id": 1342541564, "building": "yes", "name": "", "height": null, "height_m": null, "levels": null, "tract_id": "40143004400", "tract_name": "44", "tags": {"building": "yes", "source": "microsoft/BuildingFootprints"}}}, {"type": "Feature", "geometry": {"type": "Polygon", "coordinates": [[[-95.981836, 36.1056512], [-95.9818735, 36.1056512], [-95.9818734, 36.105571], [-95.9817232, 36.1055712], [-95.9817242, 36.1060501], [-95.9818368, 36.1060499], [-95.981836, 36.1056512]]]}, "properties": {"osm_id": 1342541583, "building": "apartments", "name": "", "height": null, "height_m": null, "levels": null, "tract_id": "40143004400", "tract_name": "44", "tags": {"building": "apartments", "source": "microsoft/BuildingFootprints"}}}, {"type": "Feature", "geometry": {"type": "Polygon", "coordinates": [[[-95.9818932, 36.106055], [-95.9821237, 36.1060505], [-95.982123, 36.1060266], [-95.9822061, 36.106025], [-95.9822036, 36.1059427], [-95.9818899, 36.1059489], [-95.9818932, 36.106055]]]}, "properties": {"osm_id": 1342541584, "building": "apartments", "name": "", "height": null, "height_m": null, "levels": null, "tract_id": "40143004400", "tract_name": "44", "tags": {"building": "apartments", "source": "microsoft/BuildingFootprints"}}}, {"type": "Feature", "geometry": {"type": "Polygon", "coordinates": [[[-95.9829749, 36.105576], [-95.9828572, 36.1055709], [-95.982856, 36.1055893], [-95.9824869, 36.1055732], [-95.9824817, 36.1056521], [-95.9828442, 36.1056678], [-95.982839, 36.1057456], [-95.9827948, 36.1057437], [-95.9827808, 36.1059533], [-95.982571, 36.1059442], [-95.9825716, 36.1059345], [-95.9823042, 36.1059229], [-95.9822976, 36.1060212], [-95.9826587, 36.1060368], [-95.9826581, 36.1060455], [-95.9828947, 36.1060558], [-95.98291, 36.1058267], [-95.9829248, 36.1058274], [-95.9829332, 36.1056999], [-95.9829666, 36.1057013], [-95.9829749, 36.105576]]]}, "properties": {"osm_id": 1342541585, "building": "apartments", "name": "", "height": null, "height_m": null, "levels": null, "tract_id": "40143004400", "tract_name": "44", "tags": {"building": "apartments", "source": "microsoft/BuildingFootprints"}}}, {"type": "Feature", "geometry": {"type": "Polygon", "coordinates": [[[-95.9822655, 36.1056939], [-95.9823862, 36.1056943], [-95.9823869, 36.1055762], [-95.9819175, 36.1055746], [-95.9819171, 36.1056537], [-95.9822657, 36.1056549], [-95.9822655, 36.1056939]]]}, "properties": {"osm_id": 1342541586, "building": "apartments", "name": "", "height": null, "height_m": null, "levels": null, "tract_id": "40143004400", "tract_name": "44", "tags": {"building": "apartments", "source": "microsoft/BuildingFootprints"}}}, {"type": "Feature", "geometry": {"type": "Polygon", "coordinates": [[[-95.9817067, 36.1055336], [-95.9821746, 36.1055354], [-95.9821751, 36.1054618], [-95.9817969, 36.1054603], [-95.9817974, 36.1053693], [-95.9820603, 36.1053703], [-95.9820606, 36.1053075], [-95.9817081, 36.1053061], [-95.9817067, 36.1055336]]]}, "properties": {"osm_id": 1342541587, "building": "apartments", "name": "", "height": null, "height_m": null, "levels": null, "tract_id": "40143004400", "tract_name": "44", "tags": {"building": "apartments", "source": "microsoft/BuildingFootprints"}}}, {"type": "Feature", "geometry": {"type": "Polygon", "coordinates": [[[-95.9830245, 36.1053061], [-95.9824802, 36.1053136], [-95.9824823, 36.1054132], [-95.9826163, 36.1054114], [-95.982617, 36.1054439], [-95.9827323, 36.1054423], [-95.9827318, 36.1054185], [-95.9828552, 36.1054168], [-95.9828578, 36.1055424], [-95.9830294, 36.1055401], [-95.9830245, 36.1053061]]]}, "properties": {"osm_id": 1342541588, "building": "apartments", "name": "", "height": null, "height_m": null, "levels": null, "tract_id": "40143004400", "tract_name": "44", "tags": {"building": "apartments", "source": "microsoft/BuildingFootprints"}}}, {"type": "Feature", "geometry": {"type": "Polygon", "coordinates": [[[-95.9824947, 36.1050173], [-95.9824944, 36.1050368], [-95.9824285, 36.1050361], [-95.982427, 36.1051304], [-95.982722, 36.1051334], [-95.9827201, 36.1052558], [-95.9828691, 36.1052573], [-95.9828728, 36.1050212], [-95.9824947, 36.1050173]]]}, "properties": {"osm_id": 1342541589, "building": "yes", "name": "", "height": null, "height_m": null, "levels": null, "tract_id": "40143004400", "tract_name": "44", "tags": {"building": "yes", "source": "microsoft/BuildingFootprints"}}}, {"type": "Feature", "geometry": {"type": "Polygon", "coordinates": [[[-95.9827677, 36.1049972], [-95.9828992, 36.1049983], [-95.9829025, 36.1047459], [-95.9827711, 36.1047447], [-95.9827677, 36.1049972]]]}, "properties": {"osm_id": 1342541590, "building": "yes", "name": "", "height": null, "height_m": null, "levels": null, "tract_id": "40143004400", "tract_name": "44", "tags": {"building": "yes", "source": "microsoft/BuildingFootprints"}}}, {"type": "Feature", "geometry": {"type": "Polygon", "coordinates": [[[-95.9823774, 36.1047132], [-95.9829889, 36.1047165], [-95.9829906, 36.1045106], [-95.9828538, 36.1045099], [-95.9828531, 36.104602], [-95.9825178, 36.1046002], [-95.9825186, 36.1045005], [-95.9823791, 36.1044998], [-95.9823774, 36.1047132]]]}, "properties": {"osm_id": 1342541591, "building": "yes", "name": "", "height": null, "height_m": null, "levels": null, "tract_id": "40143004400", "tract_name": "44", "tags": {"building": "yes", "source": "microsoft/BuildingFootprints"}}}, {"type": "Feature", "geometry": {"type": "Polygon", "coordinates": [[[-95.9820947, 36.1045142], [-95.981766, 36.1045152], [-95.9817665, 36.1046322], [-95.9819397, 36.1046317], [-95.9819408, 36.1048657], [-95.9817342, 36.1048663], [-95.9817347, 36.1049725], [-95.9820968, 36.1049714], [-95.9820947, 36.1045142]]]}, "properties": {"osm_id": 1342541592, "building": "yes", "name": "", "height": null, "height_m": null, "levels": null, "tract_id": "40143004400", "tract_name": "44", "tags": {"building": "yes", "source": "microsoft/BuildingFootprints"}}}, {"type": "Feature", "geometry": {"type": "Polygon", "coordinates": [[[-95.9817121, 36.1050074], [-95.9817084, 36.1052674], [-95.9818547, 36.1052688], [-95.9818567, 36.1051323], [-95.9820792, 36.1051343], [-95.982081, 36.1050108], [-95.9817121, 36.1050074]]]}, "properties": {"osm_id": 1342541593, "building": "yes", "name": "", "height": null, "height_m": null, "levels": null, "tract_id": "40143004400", "tract_name": "44", "tags": {"building": "yes", "source": "microsoft/BuildingFootprints"}}}, {"type": "Feature", "geometry": {"type": "Polygon", "coordinates": [[[-95.9759573, 36.1064245], [-95.9759539, 36.1066325], [-95.9761872, 36.106635], [-95.9761875, 36.1066198], [-95.9763082, 36.1066211], [-95.9763096, 36.1065323], [-95.9762747, 36.1065319], [-95.9762764, 36.1064279], [-95.9759573, 36.1064245]]]}, "properties": {"osm_id": 1342541722, "building": "yes", "name": "", "height": null, "height_m": null, "levels": null, "tract_id": "40143004400", "tract_name": "44", "tags": {"building": "yes", "source": "microsoft/BuildingFootprints"}}}, {"type": "Feature", "geometry": {"type": "Polygon", "coordinates": [[[-95.9762954, 36.1069815], [-95.9762928, 36.106868], [-95.9760944, 36.106871], [-95.9760933, 36.106822], [-95.975923, 36.1068245], [-95.9759267, 36.106987], [-95.9762954, 36.1069815]]]}, "properties": {"osm_id": 1342541723, "building": "yes", "name": "", "height": null, "height_m": null, "levels": null, "tract_id": "40143004400", "tract_name": "44", "tags": {"building": "yes", "source": "microsoft/BuildingFootprints"}}}, {"type": "Feature", "geometry": {"type": "Polygon", "coordinates": [[[-95.9761962, 36.108021], [-95.9758971, 36.1080179], [-95.9758928, 36.1082909], [-95.976192, 36.108294], [-95.9761962, 36.108021]]]}, "properties": {"osm_id": 1342541724, "building": "yes", "name": "", "height": null, "height_m": null, "levels": null, "tract_id": "40143004400", "tract_name": "44", "tags": {"building": "yes", "source": "microsoft/BuildingFootprints"}}}, {"type": "Feature", "geometry": {"type": "Polygon", "coordinates": [[[-95.9758833, 36.1083041], [-95.9758844, 36.1085194], [-95.976422, 36.1085176], [-95.976421, 36.1083023], [-95.9758833, 36.1083041]]]}, "properties": {"osm_id": 1342541725, "building": "yes", "name": "", "height": null, "height_m": null, "levels": null, "tract_id": "40143004400", "tract_name": "44", "tags": {"building": "yes", "source": "microsoft/BuildingFootprints"}}}, {"type": "Feature", "geometry": {"type": "Polygon", "coordinates": [[[-95.9758662, 36.1101762], [-95.9758591, 36.1104665], [-95.9759546, 36.110468], [-95.9759528, 36.1105395], [-95.9760574, 36.1105411], [-95.9760592, 36.1104675], [-95.9761728, 36.1104693], [-95.9761746, 36.1103978], [-95.9762218, 36.1103986], [-95.9762235, 36.1103293], [-95.9761521, 36.1103281], [-95.9761535, 36.1102718], [-95.9760489, 36.1102701], [-95.9760512, 36.1101792], [-95.9758662, 36.1101762]]]}, "properties": {"osm_id": 1342541729, "building": "yes", "name": "", "height": null, "height_m": null, "levels": null, "tract_id": "40143004400", "tract_name": "44", "tags": {"building": "yes", "source": "microsoft/BuildingFootprints"}}}, {"type": "Feature", "geometry": {"type": "Polygon", "coordinates": [[[-95.976094, 36.1099522], [-95.9758848, 36.1099497], [-95.9758835, 36.1100242], [-95.9760926, 36.1100266], [-95.976094, 36.1099522]]]}, "properties": {"osm_id": 1342541730, "building": "yes", "name": "", "height": null, "height_m": null, "levels": null, "tract_id": "40143004400", "tract_name": "44", "tags": {"building": "yes", "source": "microsoft/BuildingFootprints"}}}, {"type": "Feature", "geometry": {"type": "Polygon", "coordinates": [[[-95.9762357, 36.1098357], [-95.9762337, 36.1099938], [-95.9763893, 36.1099951], [-95.9763912, 36.1098369], [-95.9762357, 36.1098357]]]}, "properties": {"osm_id": 1342541731, "building": "yes", "name": "", "height": null, "height_m": null, "levels": null, "tract_id": "40143004400", "tract_name": "44", "tags": {"building": "yes", "source": "microsoft/BuildingFootprints"}}}, {"type": "Feature", "geometry": {"type": "Polygon", "coordinates": [[[-95.9762782, 36.1117682], [-95.9761494, 36.1117682], [-95.9761494, 36.1117921], [-95.9760609, 36.1117921], [-95.9760609, 36.1117336], [-95.9759563, 36.1117336], [-95.9759563, 36.1117769], [-95.9759402, 36.1117769], [-95.9759402, 36.1118766], [-95.9762782, 36.1118766], [-95.9762782, 36.1117682]]]}, "properties": {"osm_id": 1342541733, "building": "yes", "name": "", "height": null, "height_m": null, "levels": null, "tract_id": "40143004400", "tract_name": "44", "tags": {"building": "yes", "source": "microsoft/BuildingFootprints"}}}, {"type": "Feature", "geometry": {"type": "Polygon", "coordinates": [[[-95.9758774, 36.1123026], [-95.9758759, 36.1123936], [-95.9760492, 36.1123954], [-95.9760531, 36.1121563], [-95.9759468, 36.1121551], [-95.9759444, 36.1123033], [-95.9758774, 36.1123026]]]}, "properties": {"osm_id": 1342541734, "building": "yes", "name": "", "height": null, "height_m": null, "levels": null, "tract_id": "40143004400", "tract_name": "44", "tags": {"building": "yes", "source": "microsoft/BuildingFootprints"}}}, {"type": "Feature", "geometry": {"type": "Polygon", "coordinates": [[[-95.9763001, 36.1135985], [-95.9763037, 36.1134043], [-95.9758543, 36.113399], [-95.9758508, 36.1135932], [-95.9763001, 36.1135985]]]}, "properties": {"osm_id": 1342541737, "building": "yes", "name": "", "height": null, "height_m": null, "levels": null, "tract_id": "40143004400", "tract_name": "44", "tags": {"building": "yes", "source": "microsoft/BuildingFootprints"}}}, {"type": "Feature", "geometry": {"type": "Polygon", "coordinates": [[[-95.9777943, 36.113055], [-95.9777353, 36.1130552], [-95.9777352, 36.11304], [-95.9773087, 36.1130414], [-95.9773097, 36.1132351], [-95.9771767, 36.1132355], [-95.9771754, 36.1129711], [-95.9769758, 36.1129718], [-95.9769769, 36.1131949], [-95.9768588, 36.1131953], [-95.9768594, 36.1133029], [-95.9768513, 36.1133029], [-95.9768524, 36.1135347], [-95.9769931, 36.1135343], [-95.9769939, 36.1137106], [-95.9771468, 36.1137101], [-95.9771459, 36.1135303], [-95.9771823, 36.1135301], [-95.9771818, 36.1134283], [-95.9771362, 36.1134285], [-95.9771359, 36.1133548], [-95.9774309, 36.1133538], [-95.9774305, 36.1132585], [-95.9775228, 36.1132582], [-95.9775233, 36.1133687], [-95.9777931, 36.1133679], [-95.9777929, 36.1133202], [-95.9778572, 36.11332], [-95.9778562, 36.1131033], [-95.9777945, 36.1131035], [-95.9777943, 36.113055]]]}, "properties": {"osm_id": 1342541738, "building": "yes", "name": "", "height": null, "height_m": null, "levels": null, "tract_id": "40143004400", "tract_name": "44", "tags": {"building": "yes", "source": "microsoft/BuildingFootprints"}}}, {"type": "Feature", "geometry": {"type": "Polygon", "coordinates": [[[-95.9760245, 36.1158798], [-95.97605, 36.11588], [-95.9760492, 36.1159355], [-95.9761953, 36.115937], [-95.9761989, 36.1157008], [-95.9760273, 36.1156992], [-95.9760245, 36.1158798]]]}, "properties": {"osm_id": 1342541740, "building": "yes", "name": "", "height": null, "height_m": null, "levels": null, "tract_id": "40143004400", "tract_name": "44", "tags": {"building": "yes", "source": "microsoft/BuildingFootprints"}}}, {"type": "Feature", "geometry": {"type": "Polygon", "coordinates": [[[-95.9763954, 36.1156241], [-95.9762788, 36.1156265], [-95.9762829, 36.1157556], [-95.9764666, 36.1157518], [-95.9764649, 36.1156985], [-95.9763979, 36.1156999], [-95.9763954, 36.1156241]]]}, "properties": {"osm_id": 1342541741, "building": "yes", "name": "", "height": null, "height_m": null, "levels": null, "tract_id": "40143004400", "tract_name": "44", "tags": {"building": "yes", "source": "microsoft/BuildingFootprints"}}}, {"type": "Feature", "geometry": {"type": "Polygon", "coordinates": [[[-95.9768254, 36.1156143], [-95.9766725, 36.1156143], [-95.9766725, 36.1157378], [-95.9768254, 36.1157378], [-95.9768254, 36.1156143]]]}, "properties": {"osm_id": 1342541742, "building": "yes", "name": "", "height": null, "height_m": null, "levels": null, "tract_id": "40143004400", "tract_name": "44", "tags": {"building": "yes", "source": "microsoft/BuildingFootprints"}}}]}