{"type": "FeatureCollection", "features": [{"type": "Feature", "geometry": {"type": "Polygon", "coordinates": [[[-97.503439, 35.4003604], [-97.5033962, 35.4003997], [-97.5033447, 35.4003625], [-97.5033875, 35.4003231], [-97.503439, 35.4003604]]]}, "properties": {"osm_id": 292141506, "building": "roof", "name": "", "height": null, "height_m": null, "levels": null, "tract_id": "40109107302", "tract_name": "1073.02", "tags": {"amenity": "shelter", "building": "roof", "roof:shape": "pyramidal", "source": "Bing"}}}, {"type": "Feature", "geometry": {"type": "Polygon", "coordinates": [[[-97.5039458, 35.3939433], [-97.5045883, 35.3939442], [-97.5045882, 35.3939902], [-97.5049189, 35.3939906], [-97.504919, 35.3939403], [-97.5050479, 35.3939364], [-97.5050729, 35.3939357], [-97.5050702, 35.393789], [-97.5049011, 35.3937887], [-97.5049071, 35.3929697], [-97.5043365, 35.3929716], [-97.5042977, 35.3929705], [-97.5041382, 35.3929713], [-97.5041419, 35.3930735], [-97.5039476, 35.393076], [-97.5039458, 35.3939433]]]}, "properties": {"osm_id": 497276917, "building": "yes", "name": "The Home Depot", "height": null, "height_m": null, "levels": null, "tract_id": "40109107302", "tract_name": "1073.02", "tags": {"addr:city": "Oklahoma City", "addr:housenumber": "7400", "addr:postcode": "73149", "addr:state": "OK", "addr:street": "South Shields Boulevard", "alt_name": "Home Depot", "branch": "South Oklahoma City", "brand": "The Home Depot", "brand:wikidata": "Q864407", "building": "yes", "name": "The Home Depot", "opening_hours": "Mo-Sa 06:00-22:00; Su 08:00-20:00", "phone": "+1 405-631-9600", "ref": "3901", "shop": "doityourself", "website": "https://www.homedepot.com/l/s-oklahoma-city/ok/oklahoma-city/73149/3901"}}}, {"type": "Feature", "geometry": {"type": "Polygon", "coordinates": [[[-97.4964979, 35.4006595], [-97.4964968, 35.3999003], [-97.4959164, 35.3999008], [-97.4959173, 35.4005403], [-97.4958376, 35.4005404], [-97.4958379, 35.4007953], [-97.4959954, 35.4007951], [-97.4959953, 35.4007219], [-97.4961494, 35.4007218], [-97.4961493, 35.4006599], [-97.4964979, 35.4006595]]]}, "properties": {"osm_id": 497282867, "building": "industrial", "name": "", "height": null, "height_m": null, "levels": null, "tract_id": "40109107302", "tract_name": "1073.02", "tags": {"building": "industrial"}}}, {"type": "Feature", "geometry": {"type": "Polygon", "coordinates": [[[-97.5075404, 35.4012131], [-97.5074355, 35.4012133], [-97.5074349, 35.4010014], [-97.507529, 35.4010013], [-97.5075291, 35.4010445], [-97.5075789, 35.4010444], [-97.507579, 35.4011045], [-97.5075401, 35.4011045], [-97.5075404, 35.4012131]]]}, "properties": {"osm_id": 503072132, "building": "yes", "name": "", "height": null, "height_m": null, "levels": null, "tract_id": "40109107302", "tract_name": "1073.02", "tags": {"building": "yes"}}}, {"type": "Feature", "geometry": {"type": "Polygon", "coordinates": [[[-97.5035303, 35.399363], [-97.5035303, 35.3991798], [-97.5034556, 35.3991804], [-97.5032286, 35.3991823], [-97.5032297, 35.3992458], [-97.5032318, 35.3993629], [-97.5034559, 35.3993629], [-97.5035303, 35.399363]]]}, "properties": {"osm_id": 503072144, "building": "yes", "name": "Oklahoma City Fire Department Station 16", "height": null, "height_m": null, "levels": null, "tract_id": "40109107302", "tract_name": "1073.02", "tags": {"addr:city": "Oklahoma City", "addr:housenumber": "405", "addr:postcode": "73149", "addr:state": "OK", "addr:street": "Southeast 66th Street", "amenity": "fire_station", "building": "yes", "name": "Oklahoma City Fire Department Station 16"}}}, {"type": "Feature", "geometry": {"type": "Polygon", "coordinates": [[[-97.5031892, 35.3962841], [-97.5031961, 35.3959714], [-97.5032276, 35.3959719], [-97.5032312, 35.395814], [-97.502713, 35.3958062], [-97.5025725, 35.3957458], [-97.5024396, 35.3957458], [-97.5022974, 35.3957799], [-97.5023217, 35.3958473], [-97.5019132, 35.3959473], [-97.5019741, 35.3961084], [-97.5023451, 35.3960145], [-97.5025861, 35.396018], [-97.5025869, 35.3959823], [-97.5026216, 35.3959828], [-97.5026226, 35.3959363], [-97.5027054, 35.3959375], [-97.5026979, 35.3962768], [-97.5031892, 35.3962841]]]}, "properties": {"osm_id": 503072148, "building": "school", "name": "", "height": null, "height_m": null, "levels": null, "tract_id": "40109107302", "tract_name": "1073.02", "tags": {"building": "school"}}}, {"type": "Feature", "geometry": {"type": "Polygon", "coordinates": [[[-97.5028023, 35.3964873], [-97.5023915, 35.3964882], [-97.502391, 35.3963306], [-97.5027008, 35.3963299], [-97.5027009, 35.3963442], [-97.5028019, 35.396344], [-97.5028023, 35.3964873]]]}, "properties": {"osm_id": 503072149, "building": "school", "name": "", "height": null, "height_m": null, "levels": null, "tract_id": "40109107302", "tract_name": "1073.02", "tags": {"building": "school"}}}, {"type": "Feature", "geometry": {"type": "Polygon", "coordinates": [[[-97.496151, 35.3995448], [-97.4961478, 35.3993657], [-97.4959816, 35.3993677], [-97.4959848, 35.3995468], [-97.496151, 35.3995448]]]}, "properties": {"osm_id": 734697313, "building": "retail", "name": "7-Eleven", "height": null, "height_m": null, "levels": null, "tract_id": "40109107302", "tract_name": "1073.02", "tags": {"addr:city": "Oklahoma City", "addr:housenumber": "921", "addr:postcode": "73149", "addr:state": "OK", "addr:street": "Southeast 66th Street", "amenity": "fuel", "brand": "7-Eleven", "brand:wikidata": "Q259340", "building": "retail", "name": "7-Eleven", "opening_hours": "24/7", "phone": "+1-405-631-7238", "self_service": "yes", "wheelchair": "yes"}}}, {"type": "Feature", "geometry": {"type": "Polygon", "coordinates": [[[-97.4957765, 35.3994352], [-97.4957732, 35.3991863], [-97.4956754, 35.3991872], [-97.4956786, 35.3994361], [-97.4957765, 35.3994352]]]}, "properties": {"osm_id": 734697314, "building": "roof", "name": "", "height": null, "height_m": null, "levels": null, "tract_id": "40109107302", "tract_name": "1073.02", "tags": {"building": "roof", "layer": "1"}}}, {"type": "Feature", "geometry": {"type": "Polygon", "coordinates": [[[-97.4960426, 35.3992055], [-97.4960433, 35.3991508], [-97.4959436, 35.3991499], [-97.4959429, 35.3992046], [-97.4960426, 35.3992055]]]}, "properties": {"osm_id": 734697315, "building": "roof", "name": "", "height": null, "height_m": null, "levels": null, "tract_id": "40109107302", "tract_name": "1073.02", "tags": {"building": "roof", "layer": "1"}}}, {"type": "Feature", "geometry": {"type": "Polygon", "coordinates": [[[-97.4959345, 35.3987846], [-97.4959344, 35.3987739], [-97.4959723, 35.3987737], [-97.4959717, 35.3986952], [-97.4959329, 35.3986954], [-97.4959328, 35.3986914], [-97.495876, 35.3986917], [-97.4958759, 35.398674], [-97.4958291, 35.3986743], [-97.4958292, 35.3986885], [-97.4957243, 35.398689], [-97.495725, 35.3987855], [-97.4959345, 35.3987846]]]}, "properties": {"osm_id": 788050377, "building": "yes", "name": "Arby's", "height": null, "height_m": null, "levels": null, "tract_id": "40109107302", "tract_name": "1073.02", "tags": {"addr:city": "Oklahoma City", "addr:housenumber": "933", "addr:postcode": "73149", "addr:state": "OK", "addr:street": "Southeast 67th Street", "amenity": "fast_food", "brand": "Arby's", "brand:wikidata": "Q630866", "building": "yes", "check_date": "2024-06-21", "cuisine": "sandwich", "name": "Arby's", "opening_hours": "10:00-23:00", "phone": "+1 405-634-1395", "takeaway": "yes", "website": "https://www.arbys.com/locations/us/ok/oklahoma-city/933-se-67th-st/store-1492/"}}}, {"type": "Feature", "geometry": {"type": "Polygon", "coordinates": [[[-97.5067458, 35.3928219], [-97.506694, 35.3926965], [-97.5065185, 35.3927446], [-97.5065703, 35.39287], [-97.5067458, 35.3928219]]]}, "properties": {"osm_id": 788054118, "building": "roof", "name": "Valero", "height": null, "height_m": null, "levels": null, "tract_id": "40109107302", "tract_name": "1073.02", "tags": {"amenity": "fuel", "brand": "Valero", "brand:wikidata": "Q1283291", "building": "roof", "name": "Valero", "website": "https://locations.valero.com/en-us/LocationDetails/Index/7420-S-SHIELDS-BLVD/0000003289"}}}, {"type": "Feature", "geometry": {"type": "Polygon", "coordinates": [[[-97.5065263, 35.3929094], [-97.5064544, 35.3927331], [-97.5063253, 35.3927681], [-97.5063971, 35.3929444], [-97.5065263, 35.3929094]]]}, "properties": {"osm_id": 788054119, "building": "yes", "name": "Mr. C's", "height": null, "height_m": null, "levels": null, "tract_id": "40109107302", "tract_name": "1073.02", "tags": {"addr:city": "Oklahoma City", "addr:housenumber": "7420", "addr:postcode": "73149", "addr:state": "OK", "addr:street": "South Shields Boulevard", "building": "yes", "name": "Mr. C's", "shop": "convenience"}}}, {"type": "Feature", "geometry": {"type": "Polygon", "coordinates": [[[-97.5069386, 35.3935596], [-97.5069384, 35.3934329], [-97.5068016, 35.393433], [-97.5068016, 35.3934199], [-97.506685, 35.3934199], [-97.506685, 35.3934316], [-97.5065064, 35.3934317], [-97.5065064, 35.3934397], [-97.5064814, 35.3934397], [-97.5064815, 35.3935453], [-97.5065047, 35.3935453], [-97.5065047, 35.3935599], [-97.5069386, 35.3935596]]]}, "properties": {"osm_id": 788054120, "building": "yes", "name": "Braum's", "height": null, "height_m": null, "levels": null, "tract_id": "40109107302", "tract_name": "1073.02", "tags": {"addr:city": "Oklahoma City", "addr:housenumber": "7300", "addr:postcode": "73149", "addr:state": "OK", "addr:street": "South Shields Boulevard", "amenity": "fast_food", "brand": "Braum's", "brand:wikidata": "Q4958263", "building": "yes", "cuisine": "ice_cream;burger", "name": "Braum's", "shop": "dairy", "takeaway": "yes"}}}, {"type": "Feature", "geometry": {"type": "Polygon", "coordinates": [[[-97.5070339, 35.3939802], [-97.5070315, 35.3937682], [-97.5069076, 35.3937691], [-97.50691, 35.3939811], [-97.5070339, 35.3939802]]]}, "properties": {"osm_id": 788054121, "building": "yes", "name": "Super Quick Express Lube", "height": null, "height_m": null, "levels": null, "tract_id": "40109107302", "tract_name": "1073.02", "tags": {"addr:city": "Oklahoma City", "addr:housenumber": "7222", "addr:postcode": "73149", "addr:state": "OK", "addr:street": "South Shields Boulevard", "building": "yes", "name": "Super Quick Express Lube", "shop": "car_repair"}}}, {"type": "Feature", "geometry": {"type": "Polygon", "coordinates": [[[-97.4956671, 35.4032794], [-97.496107, 35.4032776], [-97.4961061, 35.403129], [-97.4955348, 35.4031312], [-97.4955358, 35.4032996], [-97.4956673, 35.4032991], [-97.4956671, 35.4032794]]]}, "properties": {"osm_id": 1190493709, "building": "yes", "name": "", "height": null, "height_m": null, "levels": null, "tract_id": "40109107302", "tract_name": "1073.02", "tags": {"building": "yes", "shop": "yes", "source": "microsoft/BuildingFootprints"}}}, {"type": "Feature", "geometry": {"type": "Polygon", "coordinates": [[[-97.4953745, 35.4040972], [-97.4957944, 35.4040934], [-97.4957928, 35.4039776], [-97.4953729, 35.4039814], [-97.4953745, 35.4040972]]]}, "properties": {"osm_id": 1190493710, "building": "yes", "name": "", "height": null, "height_m": null, "levels": null, "tract_id": "40109107302", "tract_name": "1073.02", "tags": {"building": "yes", "shop": "yes", "source": "microsoft/BuildingFootprints"}}}, {"type": "Feature", "geometry": {"type": "Polygon", "coordinates": [[[-97.4957264, 35.4038956], [-97.4955495, 35.4038991], [-97.4955518, 35.4039734], [-97.4957287, 35.4039699], [-97.4957264, 35.4038956]]]}, "properties": {"osm_id": 1190493711, "building": "yes", "name": "", "height": null, "height_m": null, "levels": null, "tract_id": "40109107302", "tract_name": "1073.02", "tags": {"building": "yes", "source": "microsoft/BuildingFootprints"}}}, {"type": "Feature", "geometry": {"type": "Polygon", "coordinates": [[[-97.4954349, 35.4037569], [-97.4956521, 35.4037558], [-97.4956513, 35.4036421], [-97.495434, 35.4036432], [-97.4954349, 35.4037569]]]}, "properties": {"osm_id": 1190493712, "building": "yes", "name": "", "height": null, "height_m": null, "levels": null, "tract_id": "40109107302", "tract_name": "1073.02", "tags": {"building": "yes", "shop": "yes", "source": "microsoft/BuildingFootprints"}}}, {"type": "Feature", "geometry": {"type": "Polygon", "coordinates": [[[-97.4956532, 35.403026], [-97.4960823, 35.4030217], [-97.4960806, 35.402909], [-97.4958272, 35.4029115], [-97.4958254, 35.4027935], [-97.4956511, 35.4027952], [-97.4956523, 35.4028739], [-97.4955691, 35.4028748], [-97.4955704, 35.4029578], [-97.4956521, 35.402957], [-97.4956532, 35.403026]]]}, "properties": {"osm_id": 1190493713, "building": "yes", "name": "", "height": null, "height_m": null, "levels": null, "tract_id": "40109107302", "tract_name": "1073.02", "tags": {"building": "yes", "shop": "yes", "source": "microsoft/BuildingFootprints"}}}, {"type": "Feature", "geometry": {"type": "Polygon", "coordinates": [[[-97.5072651, 35.4057537], [-97.5072617, 35.4061275], [-97.5076345, 35.4061297], [-97.5076379, 35.4057559], [-97.5072651, 35.4057537]]]}, "properties": {"osm_id": 1250901305, "building": "yes", "name": "", "height": null, "height_m": null, "levels": null, "tract_id": "40109107302", "tract_name": "1073.02", "tags": {"building": "yes", "source": "microsoft/BuildingFootprints"}}}, {"type": "Feature", "geometry": {"type": "Polygon", "coordinates": [[[-97.5065348, 35.4057222], [-97.5062629, 35.4057232], [-97.5062649, 35.4060848], [-97.5065368, 35.4060839], [-97.5065348, 35.4057222]]]}, "properties": {"osm_id": 1250901306, "building": "yes", "name": "", "height": null, "height_m": null, "levels": null, "tract_id": "40109107302", "tract_name": "1073.02", "tags": {"building": "yes", "source": "microsoft/BuildingFootprints"}}}, {"type": "Feature", "geometry": {"type": "Polygon", "coordinates": [[[-97.5059044, 35.4053136], [-97.5059099, 35.4060459], [-97.5060805, 35.4060451], [-97.5060749, 35.4053127], [-97.5059044, 35.4053136]]]}, "properties": {"osm_id": 1250901307, "building": "yes", "name": "", "height": null, "height_m": null, "levels": null, "tract_id": "40109107302", "tract_name": "1073.02", "tags": {"building": "yes", "source": "microsoft/BuildingFootprints"}}}, {"type": "Feature", "geometry": {"type": "Polygon", "coordinates": [[[-97.5049277, 35.4058004], [-97.5049309, 35.4060212], [-97.5050478, 35.40602], [-97.505047, 35.4059654], [-97.5053179, 35.4059628], [-97.5053155, 35.4057967], [-97.5049277, 35.4058004]]]}, "properties": {"osm_id": 1250901313, "building": "yes", "name": "", "height": null, "height_m": null, "levels": null, "tract_id": "40109107302", "tract_name": "1073.02", "tags": {"building": "yes", "source": "microsoft/BuildingFootprints"}}}, {"type": "Feature", "geometry": {"type": "Polygon", "coordinates": [[[-97.5046589, 35.405804], [-97.5046643, 35.4060247], [-97.5047689, 35.406023], [-97.5047634, 35.4058023], [-97.5046589, 35.405804]]]}, "properties": {"osm_id": 1250901314, "building": "yes", "name": "", "height": null, "height_m": null, "levels": null, "tract_id": "40109107302", "tract_name": "1073.02", "tags": {"building": "yes", "source": "microsoft/BuildingFootprints"}}}, {"type": "Feature", "geometry": {"type": "Polygon", "coordinates": [[[-97.5043045, 35.4057734], [-97.5043026, 35.4059483], [-97.5042587, 35.405948], [-97.5042607, 35.4057592], [-97.504125, 35.4057582], [-97.5041223, 35.4060016], [-97.5042983, 35.4060029], [-97.5042979, 35.4060379], [-97.504483, 35.4060392], [-97.5044859, 35.4057747], [-97.5043045, 35.4057734]]]}, "properties": {"osm_id": 1250901315, "building": "yes", "name": "", "height": null, "height_m": null, "levels": null, "tract_id": "40109107302", "tract_name": "1073.02", "tags": {"building": "yes", "source": "microsoft/BuildingFootprints"}}}, {"type": "Feature", "geometry": {"type": "Polygon", "coordinates": [[[-97.5037434, 35.4058838], [-97.5037433, 35.4060055], [-97.5036735, 35.4060054], [-97.5036735, 35.4060601], [-97.5039551, 35.4060602], [-97.5039552, 35.4059422], [-97.5038865, 35.4059422], [-97.5038866, 35.4058839], [-97.5037434, 35.4058838]]]}, "properties": {"osm_id": 1250901316, "building": "yes", "name": "", "height": null, "height_m": null, "levels": null, "tract_id": "40109107302", "tract_name": "1073.02", "tags": {"building": "yes", "source": "microsoft/BuildingFootprints"}}}, {"type": "Feature", "geometry": {"type": "Polygon", "coordinates": [[[-97.5035435, 35.4057705], [-97.5034308, 35.4057705], [-97.5034308, 35.4057238], [-97.5034067, 35.4057238], [-97.5034067, 35.4057705], [-97.5031475, 35.4057704], [-97.5031475, 35.4058447], [-97.5034184, 35.4058448], [-97.5034183, 35.4060298], [-97.5035433, 35.4060299], [-97.5035435, 35.4057705]]]}, "properties": {"osm_id": 1250901317, "building": "yes", "name": "", "height": null, "height_m": null, "levels": null, "tract_id": "40109107302", "tract_name": "1073.02", "tags": {"building": "yes", "source": "microsoft/BuildingFootprints"}}}, {"type": "Feature", "geometry": {"type": "Polygon", "coordinates": [[[-97.5034987, 35.4057045], [-97.503495, 35.4054248], [-97.5032954, 35.4054265], [-97.5032992, 35.4057063], [-97.5034987, 35.4057045]]]}, "properties": {"osm_id": 1250901318, "building": "yes", "name": "", "height": null, "height_m": null, "levels": null, "tract_id": "40109107302", "tract_name": "1073.02", "tags": {"building": "yes", "source": "microsoft/BuildingFootprints"}}}, {"type": "Feature", "geometry": {"type": "Polygon", "coordinates": [[[-97.5031501, 35.4054234], [-97.5031457, 35.4056974], [-97.5032599, 35.4056987], [-97.5032644, 35.4054246], [-97.5031501, 35.4054234]]]}, "properties": {"osm_id": 1250901319, "building": "yes", "name": "", "height": null, "height_m": null, "levels": null, "tract_id": "40109107302", "tract_name": "1073.02", "tags": {"building": "yes", "source": "microsoft/BuildingFootprints"}}}, {"type": "Feature", "geometry": {"type": "Polygon", "coordinates": [[[-97.5020953, 35.4059231], [-97.5020959, 35.405743], [-97.5019939, 35.4057428], [-97.5019944, 35.4055679], [-97.5017788, 35.4055675], [-97.5017778, 35.405916], [-97.5018379, 35.4059161], [-97.5018378, 35.4059226], [-97.5020953, 35.4059231]]]}, "properties": {"osm_id": 1250901320, "building": "yes", "name": "", "height": null, "height_m": null, "levels": null, "tract_id": "40109107302", "tract_name": "1073.02", "tags": {"building": "yes", "source": "microsoft/BuildingFootprints"}}}, {"type": "Feature", "geometry": {"type": "Polygon", "coordinates": [[[-97.5054787, 35.4034181], [-97.5052441, 35.4034218], [-97.5052474, 35.4035608], [-97.5052233, 35.4035612], [-97.5052254, 35.4036508], [-97.505165, 35.4036518], [-97.5051662, 35.403702], [-97.5050899, 35.4037032], [-97.5050909, 35.403747], [-97.5051672, 35.4037457], [-97.5051686, 35.4038026], [-97.5054608, 35.4037979], [-97.5054574, 35.4036515], [-97.5054198, 35.4036521], [-97.5054163, 35.4035035], [-97.5054807, 35.4035025], [-97.5054787, 35.4034181]]]}, "properties": {"osm_id": 1250901321, "building": "yes", "name": "", "height": null, "height_m": null, "levels": null, "tract_id": "40109107302", "tract_name": "1073.02", "tags": {"building": "yes", "source": "microsoft/BuildingFootprints"}}}, {"type": "Feature", "geometry": {"type": "Polygon", "coordinates": [[[-97.5052887, 35.4045337], [-97.5053933, 35.4045354], [-97.5053981, 35.4043343], [-97.5052935, 35.4043327], [-97.5052887, 35.4045337]]]}, "properties": {"osm_id": 1250901322, "building": "yes", "name": "", "height": null, "height_m": null, "levels": null, "tract_id": "40109107302", "tract_name": "1073.02", "tags": {"building": "yes", "source": "microsoft/BuildingFootprints"}}}, {"type": "Feature", "geometry": {"type": "Polygon", "coordinates": [[[-97.5047853, 35.4049864], [-97.5048845, 35.4049865], [-97.5048851, 35.4047526], [-97.5049292, 35.4047527], [-97.5049293, 35.4047112], [-97.5050032, 35.4047113], [-97.5050034, 35.4046282], [-97.5047862, 35.4046279], [-97.5047853, 35.4049864]]]}, "properties": {"osm_id": 1250901323, "building": "yes", "name": "", "height": null, "height_m": null, "levels": null, "tract_id": "40109107302", "tract_name": "1073.02", "tags": {"building": "yes", "source": "microsoft/BuildingFootprints"}}}, {"type": "Feature", "geometry": {"type": "Polygon", "coordinates": [[[-97.5038989, 35.4043742], [-97.5041923, 35.4043707], [-97.5041908, 35.4042877], [-97.5038974, 35.4042912], [-97.5038989, 35.4043742]]]}, "properties": {"osm_id": 1250901324, "building": "yes", "name": "", "height": null, "height_m": null, "levels": null, "tract_id": "40109107302", "tract_name": "1073.02", "tags": {"building": "yes", "source": "microsoft/BuildingFootprints"}}}, {"type": "Feature", "geometry": {"type": "Polygon", "coordinates": [[[-97.5052246, 35.4031277], [-97.5054821, 35.4031252], [-97.5054808, 35.40304], [-97.5053306, 35.4030414], [-97.5053294, 35.4029584], [-97.5052221, 35.4029594], [-97.5052246, 35.4031277]]]}, "properties": {"osm_id": 1250901325, "building": "yes", "name": "", "height": null, "height_m": null, "levels": null, "tract_id": "40109107302", "tract_name": "1073.02", "tags": {"building": "yes", "source": "microsoft/BuildingFootprints"}}}, {"type": "Feature", "geometry": {"type": "Polygon", "coordinates": [[[-97.5049016, 35.4028388], [-97.5047529, 35.4028352], [-97.5047491, 35.4029387], [-97.5048978, 35.4029423], [-97.5049016, 35.4028388]]]}, "properties": {"osm_id": 1250901326, "building": "yes", "name": "", "height": null, "height_m": null, "levels": null, "tract_id": "40109107302", "tract_name": "1073.02", "tags": {"building": "yes", "source": "microsoft/BuildingFootprints"}}}, {"type": "Feature", "geometry": {"type": "Polygon", "coordinates": [[[-97.5046116, 35.4029218], [-97.5046077, 35.4030638], [-97.5047176, 35.4030658], [-97.5047215, 35.4029238], [-97.5046116, 35.4029218]]]}, "properties": {"osm_id": 1250901327, "building": "yes", "name": "", "height": null, "height_m": null, "levels": null, "tract_id": "40109107302", "tract_name": "1073.02", "tags": {"building": "yes", "source": "microsoft/BuildingFootprints"}}}, {"type": "Feature", "geometry": {"type": "Polygon", "coordinates": [[[-97.5043304, 35.4029925], [-97.504332, 35.4030537], [-97.5043978, 35.4030525], [-97.5043936, 35.4028987], [-97.5042796, 35.4029008], [-97.5042821, 35.4029934], [-97.5043304, 35.4029925]]]}, "properties": {"osm_id": 1250901328, "building": "yes", "name": "", "height": null, "height_m": null, "levels": null, "tract_id": "40109107302", "tract_name": "1073.02", "tags": {"building": "yes", "source": "microsoft/BuildingFootprints"}}}, {"type": "Feature", "geometry": {"type": "Polygon", "coordinates": [[[-97.5039137, 35.4030699], [-97.5037488, 35.4030675], [-97.5037458, 35.4032074], [-97.5039107, 35.4032097], [-97.5039137, 35.4030699]]]}, "properties": {"osm_id": 1250901329, "building": "yes", "name": "", "height": null, "height_m": null, "levels": null, "tract_id": "40109107302", "tract_name": "1073.02", "tags": {"building": "yes", "source": "microsoft/BuildingFootprints"}}}, {"type": "Feature", "geometry": {"type": "Polygon", "coordinates": [[[-97.5039477, 35.4028583], [-97.5037426, 35.4028617], [-97.5037434, 35.4028967], [-97.5037126, 35.4028972], [-97.5037145, 35.4029701], [-97.5039504, 35.4029662], [-97.5039477, 35.4028583]]]}, "properties": {"osm_id": 1250901330, "building": "yes", "name": "", "height": null, "height_m": null, "levels": null, "tract_id": "40109107302", "tract_name": "1073.02", "tags": {"building": "yes", "source": "microsoft/BuildingFootprints"}}}, {"type": "Feature", "geometry": {"type": "Polygon", "coordinates": [[[-97.5045624, 35.4022497], [-97.5044283, 35.4022506], [-97.5044288, 35.4023009], [-97.5041686, 35.4023025], [-97.5041701, 35.4024512], [-97.5045643, 35.4024487], [-97.5045624, 35.4022497]]]}, "properties": {"osm_id": 1250901331, "building": "yes", "name": "", "height": null, "height_m": null, "levels": null, "tract_id": "40109107302", "tract_name": "1073.02", "tags": {"building": "yes", "source": "microsoft/BuildingFootprints"}}}, {"type": "Feature", "geometry": {"type": "Polygon", "coordinates": [[[-97.5071749, 35.4004155], [-97.5071727, 35.4002481], [-97.5068738, 35.4002507], [-97.5068712, 35.4000509], [-97.5066658, 35.4000527], [-97.5066725, 35.4005533], [-97.5068737, 35.4005515], [-97.5068719, 35.4004182], [-97.5071749, 35.4004155]]]}, "properties": {"osm_id": 1250901332, "building": "yes", "name": "", "height": null, "height_m": null, "levels": null, "tract_id": "40109107302", "tract_name": "1073.02", "tags": {"building": "yes", "source": "microsoft/BuildingFootprints"}}}, {"type": "Feature", "geometry": {"type": "Polygon", "coordinates": [[[-97.5066307, 35.4015409], [-97.5069069, 35.4015385], [-97.5069024, 35.401203], [-97.5066262, 35.4012055], [-97.5066307, 35.4015409]]]}, "properties": {"osm_id": 1250901333, "building": "yes", "name": "", "height": null, "height_m": null, "levels": null, "tract_id": "40109107302", "tract_name": "1073.02", "tags": {"building": "yes", "source": "microsoft/BuildingFootprints"}}}, {"type": "Feature", "geometry": {"type": "Polygon", "coordinates": [[[-97.5073704, 35.4024733], [-97.5073735, 35.4021979], [-97.5072059, 35.4021966], [-97.5072028, 35.402472], [-97.5073704, 35.4024733]]]}, "properties": {"osm_id": 1250901334, "building": "yes", "name": "", "height": null, "height_m": null, "levels": null, "tract_id": "40109107302", "tract_name": "1073.02", "tags": {"building": "yes", "source": "microsoft/BuildingFootprints"}}}, {"type": "Feature", "geometry": {"type": "Polygon", "coordinates": [[[-97.5069718, 35.4023285], [-97.5069696, 35.4024618], [-97.5071466, 35.4024637], [-97.5071504, 35.4022342], [-97.5068366, 35.4022308], [-97.5068351, 35.402327], [-97.5069718, 35.4023285]]]}, "properties": {"osm_id": 1250901335, "building": "yes", "name": "", "height": null, "height_m": null, "levels": null, "tract_id": "40109107302", "tract_name": "1073.02", "tags": {"building": "yes", "source": "microsoft/BuildingFootprints"}}}, {"type": "Feature", "geometry": {"type": "Polygon", "coordinates": [[[-97.507579, 35.4014687], [-97.5073806, 35.4014668], [-97.5073773, 35.4016974], [-97.5075758, 35.4016992], [-97.507579, 35.4014687]]]}, "properties": {"osm_id": 1250901336, "building": "yes", "name": "", "height": null, "height_m": null, "levels": null, "tract_id": "40109107302", "tract_name": "1073.02", "tags": {"building": "yes", "source": "microsoft/BuildingFootprints"}}}, {"type": "Feature", "geometry": {"type": "Polygon", "coordinates": [[[-97.5067262, 35.4022155], [-97.5068763, 35.4022143], [-97.5068743, 35.4020394], [-97.5067242, 35.4020406], [-97.5067262, 35.4022155]]]}, "properties": {"osm_id": 1250901337, "building": "yes", "name": "", "height": null, "height_m": null, "levels": null, "tract_id": "40109107302", "tract_name": "1073.02", "tags": {"building": "yes", "source": "microsoft/BuildingFootprints"}}}, {"type": "Feature", "geometry": {"type": "Polygon", "coordinates": [[[-97.5066677, 35.4021971], [-97.5065953, 35.4021964], [-97.5065959, 35.4021558], [-97.5065315, 35.4021552], [-97.5065309, 35.4021958], [-97.5064773, 35.4021952], [-97.5064756, 35.4023133], [-97.506556, 35.4023141], [-97.5065541, 35.4024452], [-97.506664, 35.4024463], [-97.5066677, 35.4021971]]]}, "properties": {"osm_id": 1250901338, "building": "yes", "name": "", "height": null, "height_m": null, "levels": null, "tract_id": "40109107302", "tract_name": "1073.02", "tags": {"building": "yes", "source": "microsoft/BuildingFootprints"}}}, {"type": "Feature", "geometry": {"type": "Polygon", "coordinates": [[[-97.5002473, 35.4060818], [-97.5004045, 35.4060835], [-97.500406, 35.4059939], [-97.5002488, 35.4059922], [-97.5002473, 35.4060818]]]}, "properties": {"osm_id": 1250901343, "building": "yes", "name": "", "height": null, "height_m": null, "levels": null, "tract_id": "40109107302", "tract_name": "1073.02", "tags": {"building": "yes", "source": "microsoft/BuildingFootprints"}}}, {"type": "Feature", "geometry": {"type": "Polygon", "coordinates": [[[-97.5000865, 35.405799], [-97.4999755, 35.4058009], [-97.4999797, 35.4059583], [-97.5000907, 35.4059563], [-97.5000865, 35.405799]]]}, "properties": {"osm_id": 1250901344, "building": "yes", "name": "", "height": null, "height_m": null, "levels": null, "tract_id": "40109107302", "tract_name": "1073.02", "tags": {"building": "yes", "source": "microsoft/BuildingFootprints"}}}, {"type": "Feature", "geometry": {"type": "Polygon", "coordinates": [[[-97.5001852, 35.4060808], [-97.5001833, 35.4059934], [-97.5000251, 35.4059957], [-97.500027, 35.4060832], [-97.5001852, 35.4060808]]]}, "properties": {"osm_id": 1250901345, "building": "yes", "name": "", "height": null, "height_m": null, "levels": null, "tract_id": "40109107302", "tract_name": "1073.02", "tags": {"building": "yes", "source": "microsoft/BuildingFootprints"}}}, {"type": "Feature", "geometry": {"type": "Polygon", "coordinates": [[[-97.500408, 35.4057989], [-97.5002954, 35.4058004], [-97.5002984, 35.4059577], [-97.500411, 35.4059563], [-97.500408, 35.4057989]]]}, "properties": {"osm_id": 1250901346, "building": "yes", "name": "", "height": null, "height_m": null, "levels": null, "tract_id": "40109107302", "tract_name": "1073.02", "tags": {"building": "yes", "source": "microsoft/BuildingFootprints"}}}, {"type": "Feature", "geometry": {"type": "Polygon", "coordinates": [[[-97.5003872, 35.4056054], [-97.5003813, 35.4057758], [-97.5004992, 35.4057785], [-97.5005051, 35.4056081], [-97.5003872, 35.4056054]]]}, "properties": {"osm_id": 1250901347, "building": "yes", "name": "", "height": null, "height_m": null, "levels": null, "tract_id": "40109107302", "tract_name": "1073.02", "tags": {"building": "yes", "source": "microsoft/BuildingFootprints"}}}, {"type": "Feature", "geometry": {"type": "Polygon", "coordinates": [[[-97.5006382, 35.4052893], [-97.5008259, 35.4052916], [-97.5008275, 35.4052042], [-97.5006398, 35.4052019], [-97.5006382, 35.4052893]]]}, "properties": {"osm_id": 1250901348, "building": "yes", "name": "", "height": null, "height_m": null, "levels": null, "tract_id": "40109107302", "tract_name": "1073.02", "tags": {"building": "yes", "source": "microsoft/BuildingFootprints"}}}, {"type": "Feature", "geometry": {"type": "Polygon", "coordinates": [[[-97.5006745, 35.4051464], [-97.5008542, 35.4051478], [-97.5008551, 35.4050757], [-97.5006754, 35.4050742], [-97.5006745, 35.4051464]]]}, "properties": {"osm_id": 1250901349, "building": "yes", "name": "", "height": null, "height_m": null, "levels": null, "tract_id": "40109107302", "tract_name": "1073.02", "tags": {"building": "yes", "source": "microsoft/BuildingFootprints"}}}, {"type": "Feature", "geometry": {"type": "Polygon", "coordinates": [[[-97.5007341, 35.4048561], [-97.5007314, 35.4050069], [-97.5008429, 35.4050082], [-97.5008456, 35.4048574], [-97.5007341, 35.4048561]]]}, "properties": {"osm_id": 1250901350, "building": "yes", "name": "", "height": null, "height_m": null, "levels": null, "tract_id": "40109107302", "tract_name": "1073.02", "tags": {"building": "yes", "source": "microsoft/BuildingFootprints"}}}, {"type": "Feature", "geometry": {"type": "Polygon", "coordinates": [[[-97.5007191, 35.4053589], [-97.5007167, 35.4054332], [-97.5007542, 35.4054339], [-97.5007525, 35.4054886], [-97.5008131, 35.4054898], [-97.5008144, 35.4054462], [-97.5008359, 35.4054466], [-97.5008386, 35.4053614], [-97.5007191, 35.4053589]]]}, "properties": {"osm_id": 1250901525, "building": "yes", "name": "", "height": null, "height_m": null, "levels": null, "tract_id": "40109107302", "tract_name": "1073.02", "tags": {"building": "yes", "source": "microsoft/BuildingFootprints"}}}, {"type": "Feature", "geometry": {"type": "Polygon", "coordinates": [[[-97.5004468, 35.4054955], [-97.500554, 35.4054986], [-97.5005609, 35.4053414], [-97.5004538, 35.4053383], [-97.5004468, 35.4054955]]]}, "properties": {"osm_id": 1250901526, "building": "yes", "name": "", "height": null, "height_m": null, "levels": null, "tract_id": "40109107302", "tract_name": "1073.02", "tags": {"building": "yes", "source": "microsoft/BuildingFootprints"}}}, {"type": "Feature", "geometry": {"type": "Polygon", "coordinates": [[[-97.500454, 35.4052914], [-97.5006079, 35.4052931], [-97.5006094, 35.4052056], [-97.5004554, 35.405204], [-97.500454, 35.4052914]]]}, "properties": {"osm_id": 1250901527, "building": "yes", "name": "", "height": null, "height_m": null, "levels": null, "tract_id": "40109107302", "tract_name": "1073.02", "tags": {"building": "yes", "source": "microsoft/BuildingFootprints"}}}, {"type": "Feature", "geometry": {"type": "Polygon", "coordinates": [[[-97.5005663, 35.4050362], [-97.5005713, 35.4049073], [-97.5004641, 35.4049046], [-97.5004591, 35.4050334], [-97.5005663, 35.4050362]]]}, "properties": {"osm_id": 1250901528, "building": "yes", "name": "", "height": null, "height_m": null, "levels": null, "tract_id": "40109107302", "tract_name": "1073.02", "tags": {"building": "yes", "source": "microsoft/BuildingFootprints"}}}, {"type": "Feature", "geometry": {"type": "Polygon", "coordinates": [[[-97.5007295, 35.4047768], [-97.5008383, 35.4047748], [-97.500834, 35.4046209], [-97.5007252, 35.4046229], [-97.5007295, 35.4047768]]]}, "properties": {"osm_id": 1250901529, "building": "yes", "name": "", "height": null, "height_m": null, "levels": null, "tract_id": "40109107302", "tract_name": "1073.02", "tags": {"building": "yes", "source": "microsoft/BuildingFootprints"}}}, {"type": "Feature", "geometry": {"type": "Polygon", "coordinates": [[[-97.5006433, 35.4043724], [-97.5008322, 35.4043747], [-97.5008338, 35.4042873], [-97.5006449, 35.4042849], [-97.5006433, 35.4043724]]]}, "properties": {"osm_id": 1250901530, "building": "yes", "name": "", "height": null, "height_m": null, "levels": null, "tract_id": "40109107302", "tract_name": "1073.02", "tags": {"building": "yes", "source": "microsoft/BuildingFootprints"}}}, {"type": "Feature", "geometry": {"type": "Polygon", "coordinates": [[[-97.5005953, 35.4042944], [-97.5004425, 35.4042962], [-97.5004438, 35.4043705], [-97.5005966, 35.4043687], [-97.5005953, 35.4042944]]]}, "properties": {"osm_id": 1250901531, "building": "yes", "name": "", "height": null, "height_m": null, "levels": null, "tract_id": "40109107302", "tract_name": "1073.02", "tags": {"building": "yes", "source": "microsoft/BuildingFootprints"}}}, {"type": "Feature", "geometry": {"type": "Polygon", "coordinates": [[[-97.5005075, 35.4042254], [-97.5007006, 35.4042266], [-97.5007014, 35.4041426], [-97.5006543, 35.4041423], [-97.5006545, 35.4041226], [-97.5005085, 35.4041217], [-97.5005075, 35.4042254]]]}, "properties": {"osm_id": 1250901532, "building": "yes", "name": "", "height": null, "height_m": null, "levels": null, "tract_id": "40109107302", "tract_name": "1073.02", "tags": {"building": "yes", "source": "microsoft/BuildingFootprints"}}}, {"type": "Feature", "geometry": {"type": "Polygon", "coordinates": [[[-97.5004745, 35.4041553], [-97.5003887, 35.4041537], [-97.5003893, 35.404134], [-97.5003089, 35.4041324], [-97.5003065, 35.4042155], [-97.5004727, 35.4042187], [-97.5004745, 35.4041553]]]}, "properties": {"osm_id": 1250901533, "building": "yes", "name": "", "height": null, "height_m": null, "levels": null, "tract_id": "40109107302", "tract_name": "1073.02", "tags": {"building": "yes", "source": "microsoft/BuildingFootprints"}}}, {"type": "Feature", "geometry": {"type": "Polygon", "coordinates": [[[-97.5003871, 35.4039558], [-97.5002784, 35.4039544], [-97.5002754, 35.4041074], [-97.5003842, 35.4041088], [-97.5003871, 35.4039558]]]}, "properties": {"osm_id": 1250901534, "building": "yes", "name": "", "height": null, "height_m": null, "levels": null, "tract_id": "40109107302", "tract_name": "1073.02", "tags": {"building": "yes", "source": "microsoft/BuildingFootprints"}}}, {"type": "Feature", "geometry": {"type": "Polygon", "coordinates": [[[-97.4999708, 35.4040267], [-97.5001673, 35.4040733], [-97.50019, 35.4040097], [-97.500132, 35.403996], [-97.5001388, 35.4039769], [-97.500088, 35.4039649], [-97.500097, 35.4039396], [-97.5000093, 35.4039188], [-97.4999708, 35.4040267]]]}, "properties": {"osm_id": 1250901535, "building": "yes", "name": "", "height": null, "height_m": null, "levels": null, "tract_id": "40109107302", "tract_name": "1073.02", "tags": {"building": "yes", "source": "microsoft/BuildingFootprints"}}}, {"type": "Feature", "geometry": {"type": "Polygon", "coordinates": [[[-97.5001129, 35.4037057], [-97.4999238, 35.4037083], [-97.4999263, 35.4038339], [-97.5000121, 35.4038327], [-97.500011, 35.4037749], [-97.5001143, 35.4037735], [-97.5001129, 35.4037057]]]}, "properties": {"osm_id": 1250901536, "building": "yes", "name": "", "height": null, "height_m": null, "levels": null, "tract_id": "40109107302", "tract_name": "1073.02", "tags": {"building": "yes", "source": "microsoft/BuildingFootprints"}}}, {"type": "Feature", "geometry": {"type": "Polygon", "coordinates": [[[-97.5000995, 35.4035085], [-97.5000364, 35.4035553], [-97.5001432, 35.403651], [-97.5002063, 35.4036042], [-97.5000995, 35.4035085]]]}, "properties": {"osm_id": 1250901537, "building": "yes", "name": "", "height": null, "height_m": null, "levels": null, "tract_id": "40109107302", "tract_name": "1073.02", "tags": {"building": "yes", "source": "microsoft/BuildingFootprints"}}}, {"type": "Feature", "geometry": {"type": "Polygon", "coordinates": [[[-97.5000955, 35.4033152], [-97.5000933, 35.4033873], [-97.5002556, 35.4033905], [-97.5002577, 35.4033184], [-97.5000955, 35.4033152]]]}, "properties": {"osm_id": 1250901538, "building": "yes", "name": "", "height": null, "height_m": null, "levels": null, "tract_id": "40109107302", "tract_name": "1073.02", "tags": {"building": "yes", "source": "microsoft/BuildingFootprints"}}}, {"type": "Feature", "geometry": {"type": "Polygon", "coordinates": [[[-97.5000288, 35.4034816], [-97.500051, 35.4034432], [-97.5000379, 35.4034382], [-97.5000674, 35.4033871], [-97.4999851, 35.4033554], [-97.4998981, 35.4035056], [-97.5000155, 35.4035508], [-97.5000507, 35.40349], [-97.5000288, 35.4034816]]]}, "properties": {"osm_id": 1250901539, "building": "yes", "name": "", "height": null, "height_m": null, "levels": null, "tract_id": "40109107302", "tract_name": "1073.02", "tags": {"building": "yes", "source": "microsoft/BuildingFootprints"}}}, {"type": "Feature", "geometry": {"type": "Polygon", "coordinates": [[[-97.5006836, 35.4033324], [-97.5005268, 35.4033286], [-97.5005236, 35.4034148], [-97.5006805, 35.4034185], [-97.5006836, 35.4033324]]]}, "properties": {"osm_id": 1250901540, "building": "yes", "name": "", "height": null, "height_m": null, "levels": null, "tract_id": "40109107302", "tract_name": "1073.02", "tags": {"building": "yes", "source": "microsoft/BuildingFootprints"}}}, {"type": "Feature", "geometry": {"type": "Polygon", "coordinates": [[[-97.5006975, 35.403654], [-97.5006992, 35.4035753], [-97.5006536, 35.4035747], [-97.5006541, 35.4035506], [-97.5005039, 35.4035485], [-97.5005017, 35.4036512], [-97.5006975, 35.403654]]]}, "properties": {"osm_id": 1250901541, "building": "yes", "name": "", "height": null, "height_m": null, "levels": null, "tract_id": "40109107302", "tract_name": "1073.02", "tags": {"building": "yes", "source": "microsoft/BuildingFootprints"}}}, {"type": "Feature", "geometry": {"type": "Polygon", "coordinates": [[[-97.5007016, 35.4037075], [-97.5005381, 35.4037047], [-97.5005358, 35.4037943], [-97.5006993, 35.4037971], [-97.5007016, 35.4037075]]]}, "properties": {"osm_id": 1250901542, "building": "yes", "name": "", "height": null, "height_m": null, "levels": null, "tract_id": "40109107302", "tract_name": "1073.02", "tags": {"building": "yes", "source": "microsoft/BuildingFootprints"}}}, {"type": "Feature", "geometry": {"type": "Polygon", "coordinates": [[[-97.500752, 35.403462], [-97.5008631, 35.4034593], [-97.5008576, 35.4033043], [-97.5007465, 35.4033069], [-97.500752, 35.403462]]]}, "properties": {"osm_id": 1250901543, "building": "yes", "name": "", "height": null, "height_m": null, "levels": null, "tract_id": "40109107302", "tract_name": "1073.02", "tags": {"building": "yes", "source": "microsoft/BuildingFootprints"}}}, {"type": "Feature", "geometry": {"type": "Polygon", "coordinates": [[[-97.500752, 35.4036309], [-97.5008605, 35.4036321], [-97.500863, 35.4034791], [-97.5007545, 35.4034779], [-97.500752, 35.4036309]]]}, "properties": {"osm_id": 1250901544, "building": "yes", "name": "", "height": null, "height_m": null, "levels": null, "tract_id": "40109107302", "tract_name": "1073.02", "tags": {"building": "yes", "source": "microsoft/BuildingFootprints"}}}, {"type": "Feature", "geometry": {"type": "Polygon", "coordinates": [[[-97.5007464, 35.4037133], [-97.5007433, 35.4038706], [-97.5008586, 35.4038721], [-97.5008617, 35.4037148], [-97.5007464, 35.4037133]]]}, "properties": {"osm_id": 1250901545, "building": "yes", "name": "", "height": null, "height_m": null, "levels": null, "tract_id": "40109107302", "tract_name": "1073.02", "tags": {"building": "yes", "source": "microsoft/BuildingFootprints"}}}, {"type": "Feature", "geometry": {"type": "Polygon", "coordinates": [[[-97.5008604, 35.4040732], [-97.5007761, 35.4040719], [-97.5007751, 35.4041156], [-97.5007629, 35.4041155], [-97.5007605, 35.4042226], [-97.500857, 35.404224], [-97.5008604, 35.4040732]]]}, "properties": {"osm_id": 1250901546, "building": "yes", "name": "", "height": null, "height_m": null, "levels": null, "tract_id": "40109107302", "tract_name": "1073.02", "tags": {"building": "yes", "source": "microsoft/BuildingFootprints"}}}, {"type": "Feature", "geometry": {"type": "Polygon", "coordinates": [[[-97.5010538, 35.4043956], [-97.5010552, 35.4043213], [-97.501031, 35.404321], [-97.501032, 35.4042707], [-97.5009354, 35.4042695], [-97.5009331, 35.4043941], [-97.5010538, 35.4043956]]]}, "properties": {"osm_id": 1250901547, "building": "yes", "name": "", "height": null, "height_m": null, "levels": null, "tract_id": "40109107302", "tract_name": "1073.02", "tags": {"building": "yes", "source": "microsoft/BuildingFootprints"}}}, {"type": "Feature", "geometry": {"type": "Polygon", "coordinates": [[[-97.5009112, 35.4040899], [-97.5009081, 35.404232], [-97.5009537, 35.4042326], [-97.500954, 35.4042173], [-97.501005, 35.4042181], [-97.5010077, 35.4040913], [-97.5009112, 35.4040899]]]}, "properties": {"osm_id": 1250901548, "building": "yes", "name": "", "height": null, "height_m": null, "levels": null, "tract_id": "40109107302", "tract_name": "1073.02", "tags": {"building": "yes", "source": "microsoft/BuildingFootprints"}}}, {"type": "Feature", "geometry": {"type": "Polygon", "coordinates": [[[-97.501044, 35.4041494], [-97.5012022, 35.4041508], [-97.5012032, 35.4040752], [-97.501045, 35.4040739], [-97.501044, 35.4041494]]]}, "properties": {"osm_id": 1250901549, "building": "yes", "name": "", "height": null, "height_m": null, "levels": null, "tract_id": "40109107302", "tract_name": "1073.02", "tags": {"building": "yes", "source": "microsoft/BuildingFootprints"}}}, {"type": "Feature", "geometry": {"type": "Polygon", "coordinates": [[[-97.5010755, 35.4040086], [-97.5012605, 35.4040121], [-97.501263, 35.4039225], [-97.501078, 35.403919], [-97.5010755, 35.4040086]]]}, "properties": {"osm_id": 1250901550, "building": "yes", "name": "", "height": null, "height_m": null, "levels": null, "tract_id": "40109107302", "tract_name": "1073.02", "tags": {"building": "yes", "source": "microsoft/BuildingFootprints"}}}, {"type": "Feature", "geometry": {"type": "Polygon", "coordinates": [[[-97.5008591, 35.4038995], [-97.5007438, 35.4039006], [-97.5007462, 35.4040568], [-97.5008615, 35.4040556], [-97.5008591, 35.4038995]]]}, "properties": {"osm_id": 1250901551, "building": "yes", "name": "", "height": null, "height_m": null, "levels": null, "tract_id": "40109107302", "tract_name": "1073.02", "tags": {"building": "yes", "source": "microsoft/BuildingFootprints"}}}, {"type": "Feature", "geometry": {"type": "Polygon", "coordinates": [[[-97.5009221, 35.4038521], [-97.5009191, 35.4040094], [-97.5010263, 35.4040108], [-97.5010294, 35.4038535], [-97.5009221, 35.4038521]]]}, "properties": {"osm_id": 1250901552, "building": "yes", "name": "", "height": null, "height_m": null, "levels": null, "tract_id": "40109107302", "tract_name": "1073.02", "tags": {"building": "yes", "source": "microsoft/BuildingFootprints"}}}, {"type": "Feature", "geometry": {"type": "Polygon", "coordinates": [[[-97.5009241, 35.404553], [-97.501093, 35.404556], [-97.5010949, 35.4044861], [-97.5010279, 35.4044849], [-97.5010283, 35.4044696], [-97.5009264, 35.4044678], [-97.5009241, 35.404553]]]}, "properties": {"osm_id": 1250901553, "building": "yes", "name": "", "height": null, "height_m": null, "levels": null, "tract_id": "40109107302", "tract_name": "1073.02", "tags": {"building": "yes", "source": "microsoft/BuildingFootprints"}}}, {"type": "Feature", "geometry": {"type": "Polygon", "coordinates": [[[-97.5011404, 35.4044954], [-97.5011409, 35.4045566], [-97.5013248, 35.4045554], [-97.5013237, 35.4044299], [-97.5012405, 35.4044304], [-97.5012411, 35.4044947], [-97.5011404, 35.4044954]]]}, "properties": {"osm_id": 1250901554, "building": "yes", "name": "", "height": null, "height_m": null, "levels": null, "tract_id": "40109107302", "tract_name": "1073.02", "tags": {"building": "yes", "source": "microsoft/BuildingFootprints"}}}, {"type": "Feature", "geometry": {"type": "Polygon", "coordinates": [[[-97.5013588, 35.4044474], [-97.5013609, 35.4045589], [-97.5015701, 35.4045563], [-97.5015689, 35.4044929], [-97.5015018, 35.4044937], [-97.5015015, 35.404474], [-97.5014505, 35.4044747], [-97.50145, 35.4044463], [-97.5013588, 35.4044474]]]}, "properties": {"osm_id": 1250901555, "building": "yes", "name": "", "height": null, "height_m": null, "levels": null, "tract_id": "40109107302", "tract_name": "1073.02", "tags": {"building": "yes", "source": "microsoft/BuildingFootprints"}}}, {"type": "Feature", "geometry": {"type": "Polygon", "coordinates": [[[-97.5016776, 35.4044916], [-97.5016025, 35.4044931], [-97.5016045, 35.40456], [-97.5017734, 35.4045567], [-97.5017696, 35.4044299], [-97.5016758, 35.4044318], [-97.5016776, 35.4044916]]]}, "properties": {"osm_id": 1250901556, "building": "yes", "name": "", "height": null, "height_m": null, "levels": null, "tract_id": "40109107302", "tract_name": "1073.02", "tags": {"building": "yes", "source": "microsoft/BuildingFootprints"}}}, {"type": "Feature", "geometry": {"type": "Polygon", "coordinates": [[[-97.5019569, 35.4043346], [-97.5018699, 35.4043356], [-97.5018709, 35.4043903], [-97.5018307, 35.4043908], [-97.5018329, 35.404511], [-97.5019601, 35.4045094], [-97.5019569, 35.4043346]]]}, "properties": {"osm_id": 1250901557, "building": "yes", "name": "", "height": null, "height_m": null, "levels": null, "tract_id": "40109107302", "tract_name": "1073.02", "tags": {"building": "yes", "source": "microsoft/BuildingFootprints"}}}, {"type": "Feature", "geometry": {"type": "Polygon", "coordinates": [[[-97.5021711, 35.4051258], [-97.5019862, 35.4051297], [-97.5019896, 35.4052389], [-97.5021746, 35.405235], [-97.5021711, 35.4051258]]]}, "properties": {"osm_id": 1250901558, "building": "yes", "name": "", "height": null, "height_m": null, "levels": null, "tract_id": "40109107302", "tract_name": "1073.02", "tags": {"building": "yes", "source": "microsoft/BuildingFootprints"}}}, {"type": "Feature", "geometry": {"type": "Polygon", "coordinates": [[[-97.5019517, 35.4041554], [-97.5018123, 35.4041571], [-97.5018137, 35.4042292], [-97.5018593, 35.4042287], [-97.5018607, 35.4043074], [-97.5019546, 35.4043062], [-97.5019517, 35.4041554]]]}, "properties": {"osm_id": 1250901559, "building": "yes", "name": "", "height": null, "height_m": null, "levels": null, "tract_id": "40109107302", "tract_name": "1073.02", "tags": {"building": "yes", "source": "microsoft/BuildingFootprints"}}}, {"type": "Feature", "geometry": {"type": "Polygon", "coordinates": [[[-97.5017742, 35.4042488], [-97.5017721, 35.404157], [-97.5016073, 35.4041596], [-97.5016095, 35.4042514], [-97.5017742, 35.4042488]]]}, "properties": {"osm_id": 1250901560, "building": "yes", "name": "", "height": null, "height_m": null, "levels": null, "tract_id": "40109107302", "tract_name": "1073.02", "tags": {"building": "yes", "source": "microsoft/BuildingFootprints"}}}, {"type": "Feature", "geometry": {"type": "Polygon", "coordinates": [[[-97.5016634, 35.4040148], [-97.5016098, 35.4040135], [-97.5016089, 35.4040375], [-97.5015473, 35.404036], [-97.501545, 35.4040984], [-97.5017513, 35.4041035], [-97.5017556, 35.4039865], [-97.5016645, 35.4039842], [-97.5016634, 35.4040148]]]}, "properties": {"osm_id": 1250901561, "building": "yes", "name": "", "height": null, "height_m": null, "levels": null, "tract_id": "40109107302", "tract_name": "1073.02", "tags": {"building": "yes", "source": "microsoft/BuildingFootprints"}}}, {"type": "Feature", "geometry": {"type": "Polygon", "coordinates": [[[-97.5019554, 35.4040891], [-97.5019579, 35.4039361], [-97.5018626, 35.403935], [-97.501862, 35.4039713], [-97.5018286, 35.4039709], [-97.5018267, 35.4040877], [-97.5019554, 35.4040891]]]}, "properties": {"osm_id": 1250901562, "building": "yes", "name": "", "height": null, "height_m": null, "levels": null, "tract_id": "40109107302", "tract_name": "1073.02", "tags": {"building": "yes", "source": "microsoft/BuildingFootprints"}}}, {"type": "Feature", "geometry": {"type": "Polygon", "coordinates": [[[-97.5017565, 35.4037517], [-97.5015701, 35.403749], [-97.5015682, 35.4038395], [-97.5017546, 35.4038422], [-97.5017565, 35.4037517]]]}, "properties": {"osm_id": 1250901563, "building": "yes", "name": "", "height": null, "height_m": null, "levels": null, "tract_id": "40109107302", "tract_name": "1073.02", "tags": {"building": "yes", "source": "microsoft/BuildingFootprints"}}}, {"type": "Feature", "geometry": {"type": "Polygon", "coordinates": [[[-97.5019387, 35.4037512], [-97.5018328, 35.4037499], [-97.5018299, 35.403902], [-97.5019357, 35.4039034], [-97.5019387, 35.4037512]]]}, "properties": {"osm_id": 1250901564, "building": "yes", "name": "", "height": null, "height_m": null, "levels": null, "tract_id": "40109107302", "tract_name": "1073.02", "tags": {"building": "yes", "source": "microsoft/BuildingFootprints"}}}, {"type": "Feature", "geometry": {"type": "Polygon", "coordinates": [[[-97.5019536, 35.4032011], [-97.5018463, 35.4032], [-97.501844, 35.403353], [-97.5019513, 35.4033541], [-97.5019536, 35.4032011]]]}, "properties": {"osm_id": 1250901565, "building": "yes", "name": "", "height": null, "height_m": null, "levels": null, "tract_id": "40109107302", "tract_name": "1073.02", "tags": {"building": "yes", "source": "microsoft/BuildingFootprints"}}}, {"type": "Feature", "geometry": {"type": "Polygon", "coordinates": [[[-97.5018612, 35.4033828], [-97.5018621, 35.4034374], [-97.5018246, 35.4034379], [-97.5018266, 35.4035559], [-97.5019499, 35.4035545], [-97.501947, 35.4033818], [-97.5018612, 35.4033828]]]}, "properties": {"osm_id": 1250901566, "building": "yes", "name": "", "height": null, "height_m": null, "levels": null, "tract_id": "40109107302", "tract_name": "1073.02", "tags": {"building": "yes", "source": "microsoft/BuildingFootprints"}}}, {"type": "Feature", "geometry": {"type": "Polygon", "coordinates": [[[-97.5015764, 35.4035555], [-97.5017641, 35.4035529], [-97.5017621, 35.4034611], [-97.5015744, 35.4034637], [-97.5015764, 35.4035555]]]}, "properties": {"osm_id": 1250901567, "building": "yes", "name": "", "height": null, "height_m": null, "levels": null, "tract_id": "40109107302", "tract_name": "1073.02", "tags": {"building": "yes", "source": "microsoft/BuildingFootprints"}}}, {"type": "Feature", "geometry": {"type": "Polygon", "coordinates": [[[-97.5015518, 35.4031886], [-97.5015501, 35.4032542], [-97.5016145, 35.4032553], [-97.501614, 35.4032727], [-97.5016623, 35.4032736], [-97.5016617, 35.4032976], [-97.5017501, 35.4032991], [-97.5017529, 35.403192], [-97.5015518, 35.4031886]]]}, "properties": {"osm_id": 1250901568, "building": "yes", "name": "", "height": null, "height_m": null, "levels": null, "tract_id": "40109107302", "tract_name": "1073.02", "tags": {"building": "yes", "source": "microsoft/BuildingFootprints"}}}, {"type": "Feature", "geometry": {"type": "Polygon", "coordinates": [[[-97.5015354, 35.4031394], [-97.501739, 35.4031346], [-97.5017352, 35.4030267], [-97.5016455, 35.4030288], [-97.5016463, 35.4030507], [-97.501594, 35.4030519], [-97.5015947, 35.4030715], [-97.501533, 35.403073], [-97.5015354, 35.4031394]]]}, "properties": {"osm_id": 1250901569, "building": "yes", "name": "", "height": null, "height_m": null, "levels": null, "tract_id": "40109107302", "tract_name": "1073.02", "tags": {"building": "yes", "source": "microsoft/BuildingFootprints"}}}, {"type": "Feature", "geometry": {"type": "Polygon", "coordinates": [[[-97.501379, 35.4030968], [-97.5013332, 35.4031566], [-97.501422, 35.4032018], [-97.5015056, 35.4030926], [-97.5014429, 35.4030606], [-97.501405, 35.4031101], [-97.501379, 35.4030968]]]}, "properties": {"osm_id": 1250901570, "building": "yes", "name": "", "height": null, "height_m": null, "levels": null, "tract_id": "40109107302", "tract_name": "1073.02", "tags": {"building": "yes", "source": "microsoft/BuildingFootprints"}}}, {"type": "Feature", "geometry": {"type": "Polygon", "coordinates": [[[-97.5011349, 35.4030432], [-97.5012139, 35.4030852], [-97.5012961, 35.4029825], [-97.5012172, 35.4029405], [-97.5011349, 35.4030432]]]}, "properties": {"osm_id": 1250901571, "building": "yes", "name": "", "height": null, "height_m": null, "levels": null, "tract_id": "40109107302", "tract_name": "1073.02", "tags": {"building": "yes", "source": "microsoft/BuildingFootprints"}}}, {"type": "Feature", "geometry": {"type": "Polygon", "coordinates": [[[-97.5013039, 35.4027799], [-97.501307, 35.4028838], [-97.5014746, 35.4028805], [-97.5014715, 35.4027765], [-97.5013039, 35.4027799]]]}, "properties": {"osm_id": 1250901572, "building": "yes", "name": "", "height": null, "height_m": null, "levels": null, "tract_id": "40109107302", "tract_name": "1073.02", "tags": {"building": "yes", "source": "microsoft/BuildingFootprints"}}}, {"type": "Feature", "geometry": {"type": "Polygon", "coordinates": [[[-97.5009267, 35.4034281], [-97.5010098, 35.4034272], [-97.5010085, 35.4033464], [-97.5010782, 35.4033456], [-97.501077, 35.4032691], [-97.5009241, 35.4032707], [-97.5009267, 35.4034281]]]}, "properties": {"osm_id": 1250901573, "building": "yes", "name": "", "height": null, "height_m": null, "levels": null, "tract_id": "40109107302", "tract_name": "1073.02", "tags": {"building": "yes", "source": "microsoft/BuildingFootprints"}}}, {"type": "Feature", "geometry": {"type": "Polygon", "coordinates": [[[-97.5009262, 35.4034524], [-97.5009294, 35.4036076], [-97.5010286, 35.4036062], [-97.5010254, 35.4034511], [-97.5009262, 35.4034524]]]}, "properties": {"osm_id": 1250901574, "building": "yes", "name": "", "height": null, "height_m": null, "levels": null, "tract_id": "40109107302", "tract_name": "1073.02", "tags": {"building": "yes", "source": "microsoft/BuildingFootprints"}}}, {"type": "Feature", "geometry": {"type": "Polygon", "coordinates": [[[-97.5009337, 35.4038288], [-97.5010383, 35.4038278], [-97.5010361, 35.4036748], [-97.5009315, 35.4036758], [-97.5009337, 35.4038288]]]}, "properties": {"osm_id": 1250901819, "building": "yes", "name": "", "height": null, "height_m": null, "levels": null, "tract_id": "40109107302", "tract_name": "1073.02", "tags": {"building": "yes", "source": "microsoft/BuildingFootprints"}}}, {"type": "Feature", "geometry": {"type": "Polygon", "coordinates": [[[-97.5012627, 35.4036587], [-97.5010991, 35.4036572], [-97.5010977, 35.4037621], [-97.5012613, 35.4037636], [-97.5012627, 35.4036587]]]}, "properties": {"osm_id": 1250901820, "building": "yes", "name": "", "height": null, "height_m": null, "levels": null, "tract_id": "40109107302", "tract_name": "1073.02", "tags": {"building": "yes", "source": "microsoft/BuildingFootprints"}}}, {"type": "Feature", "geometry": {"type": "Polygon", "coordinates": [[[-97.5012758, 35.4035161], [-97.5010909, 35.4035119], [-97.5010878, 35.4036005], [-97.5012727, 35.4036047], [-97.5012758, 35.4035161]]]}, "properties": {"osm_id": 1250901821, "building": "yes", "name": "", "height": null, "height_m": null, "levels": null, "tract_id": "40109107302", "tract_name": "1073.02", "tags": {"building": "yes", "source": "microsoft/BuildingFootprints"}}}, {"type": "Feature", "geometry": {"type": "Polygon", "coordinates": [[[-97.5006875, 35.4028527], [-97.5007545, 35.4028536], [-97.5007541, 35.4028711], [-97.5008051, 35.4028719], [-97.5008045, 35.4028993], [-97.5008929, 35.4029006], [-97.5008955, 35.4027836], [-97.5006891, 35.4027805], [-97.5006875, 35.4028527]]]}, "properties": {"osm_id": 1250901822, "building": "yes", "name": "", "height": null, "height_m": null, "levels": null, "tract_id": "40109107302", "tract_name": "1073.02", "tags": {"building": "yes", "source": "microsoft/BuildingFootprints"}}}, {"type": "Feature", "geometry": {"type": "Polygon", "coordinates": [[[-97.5001262, 35.4028424], [-97.5001906, 35.4028414], [-97.5001911, 35.4028611], [-97.500242, 35.4028603], [-97.5002426, 35.4028855], [-97.5003338, 35.4028841], [-97.5003311, 35.4027748], [-97.5001247, 35.4027781], [-97.5001262, 35.4028424]]]}, "properties": {"osm_id": 1250901823, "building": "yes", "name": "", "height": null, "height_m": null, "levels": null, "tract_id": "40109107302", "tract_name": "1073.02", "tags": {"building": "yes", "source": "microsoft/BuildingFootprints"}}}, {"type": "Feature", "geometry": {"type": "Polygon", "coordinates": [[[-97.5000788, 35.4027766], [-97.4998643, 35.4027793], [-97.4998665, 35.4028951], [-97.4999577, 35.402894], [-97.4999571, 35.4028656], [-97.5000135, 35.4028649], [-97.5000131, 35.4028474], [-97.5000802, 35.4028465], [-97.5000788, 35.4027766]]]}, "properties": {"osm_id": 1250901824, "building": "yes", "name": "", "height": null, "height_m": null, "levels": null, "tract_id": "40109107302", "tract_name": "1073.02", "tags": {"building": "yes", "source": "microsoft/BuildingFootprints"}}}, {"type": "Feature", "geometry": {"type": "Polygon", "coordinates": [[[-97.5004019, 35.4027828], [-97.5004042, 35.4028864], [-97.5005503, 35.4028843], [-97.5005497, 35.4028559], [-97.5006141, 35.4028549], [-97.5006124, 35.4027796], [-97.5004019, 35.4027828]]]}, "properties": {"osm_id": 1250901825, "building": "yes", "name": "", "height": null, "height_m": null, "levels": null, "tract_id": "40109107302", "tract_name": "1073.02", "tags": {"building": "yes", "source": "microsoft/BuildingFootprints"}}}, {"type": "Feature", "geometry": {"type": "Polygon", "coordinates": [[[-97.4995487, 35.402845], [-97.4996144, 35.4028439], [-97.4996149, 35.4028648], [-97.4996646, 35.4028639], [-97.4996652, 35.402889], [-97.4997577, 35.4028874], [-97.4997548, 35.402775], [-97.499547, 35.4027785], [-97.4995487, 35.402845]]]}, "properties": {"osm_id": 1250901826, "building": "yes", "name": "", "height": null, "height_m": null, "levels": null, "tract_id": "40109107302", "tract_name": "1073.02", "tags": {"building": "yes", "source": "microsoft/BuildingFootprints"}}}, {"type": "Feature", "geometry": {"type": "Polygon", "coordinates": [[[-97.4993075, 35.4028789], [-97.499455, 35.4028776], [-97.4994546, 35.402847], [-97.499519, 35.4028464], [-97.499518, 35.4027743], [-97.4993061, 35.4027762], [-97.4993075, 35.4028789]]]}, "properties": {"osm_id": 1250901827, "building": "yes", "name": "", "height": null, "height_m": null, "levels": null, "tract_id": "40109107302", "tract_name": "1073.02", "tags": {"building": "yes", "source": "microsoft/BuildingFootprints"}}}, {"type": "Feature", "geometry": {"type": "Polygon", "coordinates": [[[-97.4992648, 35.4029441], [-97.4992607, 35.4031014], [-97.4993465, 35.4031029], [-97.4993486, 35.4030198], [-97.499421, 35.4030211], [-97.4994229, 35.4029468], [-97.4992648, 35.4029441]]]}, "properties": {"osm_id": 1250901828, "building": "yes", "name": "", "height": null, "height_m": null, "levels": null, "tract_id": "40109107302", "tract_name": "1073.02", "tags": {"building": "yes", "source": "microsoft/BuildingFootprints"}}}, {"type": "Feature", "geometry": {"type": "Polygon", "coordinates": [[[-97.4997981, 35.4029451], [-97.4996721, 35.4029463], [-97.4996737, 35.4030665], [-97.4997032, 35.4030662], [-97.4997037, 35.4031012], [-97.4998003, 35.4031003], [-97.4997981, 35.4029451]]]}, "properties": {"osm_id": 1250901829, "building": "yes", "name": "", "height": null, "height_m": null, "levels": null, "tract_id": "40109107302", "tract_name": "1073.02", "tags": {"building": "yes", "source": "microsoft/BuildingFootprints"}}}, {"type": "Feature", "geometry": {"type": "Polygon", "coordinates": [[[-97.4998694, 35.4031], [-97.4999927, 35.4030991], [-97.499991, 35.4029395], [-97.4998677, 35.4029404], [-97.4998694, 35.4031]]]}, "properties": {"osm_id": 1250901830, "building": "yes", "name": "", "height": null, "height_m": null, "levels": null, "tract_id": "40109107302", "tract_name": "1073.02", "tags": {"building": "yes", "source": "microsoft/BuildingFootprints"}}}, {"type": "Feature", "geometry": {"type": "Polygon", "coordinates": [[[-97.5002168, 35.4029348], [-97.5002136, 35.4030921], [-97.5003315, 35.4030938], [-97.5003348, 35.4029364], [-97.5002168, 35.4029348]]]}, "properties": {"osm_id": 1250901831, "building": "yes", "name": "", "height": null, "height_m": null, "levels": null, "tract_id": "40109107302", "tract_name": "1073.02", "tags": {"building": "yes", "source": "microsoft/BuildingFootprints"}}}, {"type": "Feature", "geometry": {"type": "Polygon", "coordinates": [[[-97.5005151, 35.402943], [-97.5003998, 35.4029415], [-97.5003967, 35.4031011], [-97.500512, 35.4031026], [-97.5005151, 35.402943]]]}, "properties": {"osm_id": 1250901832, "building": "yes", "name": "", "height": null, "height_m": null, "levels": null, "tract_id": "40109107302", "tract_name": "1073.02", "tags": {"building": "yes", "source": "microsoft/BuildingFootprints"}}}, {"type": "Feature", "geometry": {"type": "Polygon", "coordinates": [[[-97.5007359, 35.402951], [-97.5007329, 35.4030822], [-97.5008455, 35.4030839], [-97.5008485, 35.4029527], [-97.5007359, 35.402951]]]}, "properties": {"osm_id": 1250901833, "building": "yes", "name": "", "height": null, "height_m": null, "levels": null, "tract_id": "40109107302", "tract_name": "1073.02", "tags": {"building": "yes", "source": "microsoft/BuildingFootprints"}}}, {"type": "Feature", "geometry": {"type": "Polygon", "coordinates": [[[-97.4992511, 35.4032892], [-97.4993637, 35.4032917], [-97.499369, 35.4031344], [-97.4992564, 35.4031319], [-97.4992511, 35.4032892]]]}, "properties": {"osm_id": 1250901834, "building": "yes", "name": "", "height": null, "height_m": null, "levels": null, "tract_id": "40109107302", "tract_name": "1073.02", "tags": {"building": "yes", "source": "microsoft/BuildingFootprints"}}}, {"type": "Feature", "geometry": {"type": "Polygon", "coordinates": [[[-97.4993932, 35.4033231], [-97.4992591, 35.403321], [-97.4992549, 35.4034936], [-97.4993395, 35.403495], [-97.4993408, 35.4034392], [-97.4993623, 35.4034395], [-97.4993633, 35.403398], [-97.4993913, 35.4033984], [-97.4993932, 35.4033231]]]}, "properties": {"osm_id": 1250901835, "building": "yes", "name": "", "height": null, "height_m": null, "levels": null, "tract_id": "40109107302", "tract_name": "1073.02", "tags": {"building": "yes", "source": "microsoft/BuildingFootprints"}}}, {"type": "Feature", "geometry": {"type": "Polygon", "coordinates": [[[-97.4992519, 35.4036841], [-97.4994129, 35.4036851], [-97.4994136, 35.4036107], [-97.4993358, 35.4036103], [-97.4993365, 35.4035316], [-97.4992534, 35.403531], [-97.4992519, 35.4036841]]]}, "properties": {"osm_id": 1250901836, "building": "yes", "name": "", "height": null, "height_m": null, "levels": null, "tract_id": "40109107302", "tract_name": "1073.02", "tags": {"building": "yes", "source": "microsoft/BuildingFootprints"}}}, {"type": "Feature", "geometry": {"type": "Polygon", "coordinates": [[[-97.4993673, 35.403732], [-97.4992547, 35.4037333], [-97.4992577, 35.403906], [-97.4993704, 35.4039047], [-97.4993673, 35.403732]]]}, "properties": {"osm_id": 1250901837, "building": "yes", "name": "", "height": null, "height_m": null, "levels": null, "tract_id": "40109107302", "tract_name": "1073.02", "tags": {"building": "yes", "source": "microsoft/BuildingFootprints"}}}, {"type": "Feature", "geometry": {"type": "Polygon", "coordinates": [[[-97.4992559, 35.4039366], [-97.4992592, 35.4040939], [-97.4993706, 35.4040924], [-97.4993673, 35.403935], [-97.4992559, 35.4039366]]]}, "properties": {"osm_id": 1250901838, "building": "yes", "name": "", "height": null, "height_m": null, "levels": null, "tract_id": "40109107302", "tract_name": "1073.02", "tags": {"building": "yes", "source": "microsoft/BuildingFootprints"}}}, {"type": "Feature", "geometry": {"type": "Polygon", "coordinates": [[[-97.4994716, 35.4040965], [-97.4996823, 35.4040938], [-97.4996809, 35.4040229], [-97.4996138, 35.4040237], [-97.4996132, 35.4039898], [-97.4995434, 35.4039907], [-97.4995437, 35.404006], [-97.4994699, 35.4040069], [-97.4994716, 35.4040965]]]}, "properties": {"osm_id": 1250901839, "building": "yes", "name": "", "height": null, "height_m": null, "levels": null, "tract_id": "40109107302", "tract_name": "1073.02", "tags": {"building": "yes", "source": "microsoft/BuildingFootprints"}}}, {"type": "Feature", "geometry": {"type": "Polygon", "coordinates": [[[-97.4994831, 35.4037323], [-97.4994838, 35.403811], [-97.4995282, 35.4038107], [-97.4995284, 35.4038347], [-97.4996771, 35.4038338], [-97.4996762, 35.403731], [-97.4994831, 35.4037323]]]}, "properties": {"osm_id": 1250901840, "building": "yes", "name": "", "height": null, "height_m": null, "levels": null, "tract_id": "40109107302", "tract_name": "1073.02", "tags": {"building": "yes", "source": "microsoft/BuildingFootprints"}}}, {"type": "Feature", "geometry": {"type": "Polygon", "coordinates": [[[-97.4994866, 35.4036782], [-97.4996449, 35.4036766], [-97.4996435, 35.4035891], [-97.4994853, 35.4035907], [-97.4994866, 35.4036782]]]}, "properties": {"osm_id": 1250901841, "building": "yes", "name": "", "height": null, "height_m": null, "levels": null, "tract_id": "40109107302", "tract_name": "1073.02", "tags": {"building": "yes", "source": "microsoft/BuildingFootprints"}}}, {"type": "Feature", "geometry": {"type": "Polygon", "coordinates": [[[-97.49946, 35.403345], [-97.4994617, 35.4034215], [-97.4995059, 35.4034209], [-97.4995065, 35.4034471], [-97.4996607, 35.4034447], [-97.4996584, 35.403342], [-97.49946, 35.403345]]]}, "properties": {"osm_id": 1250901842, "building": "yes", "name": "", "height": null, "height_m": null, "levels": null, "tract_id": "40109107302", "tract_name": "1073.02", "tags": {"building": "yes", "source": "microsoft/BuildingFootprints"}}}, {"type": "Feature", "geometry": {"type": "Polygon", "coordinates": [[[-97.4996696, 35.4032853], [-97.4996711, 35.4032078], [-97.4994793, 35.4032052], [-97.4994778, 35.4032827], [-97.4996696, 35.4032853]]]}, "properties": {"osm_id": 1250901843, "building": "yes", "name": "", "height": null, "height_m": null, "levels": null, "tract_id": "40109107302", "tract_name": "1073.02", "tags": {"building": "yes", "source": "microsoft/BuildingFootprints"}}}, {"type": "Feature", "geometry": {"type": "Polygon", "coordinates": [[[-97.5005281, 35.4044219], [-97.5004262, 35.4044238], [-97.5004296, 35.4045462], [-97.5005315, 35.4045443], [-97.5005281, 35.4044219]]]}, "properties": {"osm_id": 1250901844, "building": "yes", "name": "", "height": null, "height_m": null, "levels": null, "tract_id": "40109107302", "tract_name": "1073.02", "tags": {"building": "yes", "source": "microsoft/BuildingFootprints"}}}, {"type": "Feature", "geometry": {"type": "Polygon", "coordinates": [[[-97.5003655, 35.404358], [-97.5001724, 35.404355], [-97.5001704, 35.4044424], [-97.5003634, 35.4044454], [-97.5003655, 35.404358]]]}, "properties": {"osm_id": 1250901845, "building": "yes", "name": "", "height": null, "height_m": null, "levels": null, "tract_id": "40109107302", "tract_name": "1073.02", "tags": {"building": "yes", "source": "microsoft/BuildingFootprints"}}}, {"type": "Feature", "geometry": {"type": "Polygon", "coordinates": [[[-97.5001491, 35.4043467], [-97.4999427, 35.4043503], [-97.4999455, 35.4044573], [-97.5000366, 35.4044558], [-97.5000358, 35.4044252], [-97.5001511, 35.4044231], [-97.5001491, 35.4043467]]]}, "properties": {"osm_id": 1250901846, "building": "yes", "name": "", "height": null, "height_m": null, "levels": null, "tract_id": "40109107302", "tract_name": "1073.02", "tags": {"building": "yes", "source": "microsoft/BuildingFootprints"}}}, {"type": "Feature", "geometry": {"type": "Polygon", "coordinates": [[[-97.4999668, 35.4044842], [-97.4999699, 35.4046406], [-97.5000799, 35.4046392], [-97.5000768, 35.4044828], [-97.4999668, 35.4044842]]]}, "properties": {"osm_id": 1250901847, "building": "yes", "name": "", "height": null, "height_m": null, "levels": null, "tract_id": "40109107302", "tract_name": "1073.02", "tags": {"building": "yes", "source": "microsoft/BuildingFootprints"}}}, {"type": "Feature", "geometry": {"type": "Polygon", "coordinates": [[[-97.5003228, 35.4044992], [-97.5002199, 35.4044964], [-97.5002169, 35.4045685], [-97.5002624, 35.4045697], [-97.5002603, 35.4046221], [-97.5003391, 35.4046243], [-97.5003423, 35.4045479], [-97.5003209, 35.4045473], [-97.5003228, 35.4044992]]]}, "properties": {"osm_id": 1250901848, "building": "yes", "name": "", "height": null, "height_m": null, "levels": null, "tract_id": "40109107302", "tract_name": "1073.02", "tags": {"building": "yes", "source": "microsoft/BuildingFootprints"}}}, {"type": "Feature", "geometry": {"type": "Polygon", "coordinates": [[[-97.5002817, 35.4048374], [-97.5002805, 35.4048952], [-97.500259, 35.4048949], [-97.5002582, 35.4049342], [-97.5002287, 35.4049338], [-97.5002271, 35.4050059], [-97.5003611, 35.4050079], [-97.5003649, 35.4048386], [-97.5002817, 35.4048374]]]}, "properties": {"osm_id": 1250901849, "building": "yes", "name": "", "height": null, "height_m": null, "levels": null, "tract_id": "40109107302", "tract_name": "1073.02", "tags": {"building": "yes", "source": "microsoft/BuildingFootprints"}}}, {"type": "Feature", "geometry": {"type": "Polygon", "coordinates": [[[-97.5002196, 35.4050457], [-97.5002189, 35.4050665], [-97.5001358, 35.4050645], [-97.5001334, 35.4051323], [-97.500285, 35.4051359], [-97.5002882, 35.4050473], [-97.5002196, 35.4050457]]]}, "properties": {"osm_id": 1250901850, "building": "yes", "name": "", "height": null, "height_m": null, "levels": null, "tract_id": "40109107302", "tract_name": "1073.02", "tags": {"building": "yes", "source": "microsoft/BuildingFootprints"}}}, {"type": "Feature", "geometry": {"type": "Polygon", "coordinates": [[[-97.5003598, 35.4052929], [-97.5003616, 35.4051968], [-97.5001551, 35.4051942], [-97.5001533, 35.4052903], [-97.5003598, 35.4052929]]]}, "properties": {"osm_id": 1250901851, "building": "yes", "name": "", "height": null, "height_m": null, "levels": null, "tract_id": "40109107302", "tract_name": "1073.02", "tags": {"building": "yes", "source": "microsoft/BuildingFootprints"}}}, {"type": "Feature", "geometry": {"type": "Polygon", "coordinates": [[[-97.5002471, 35.4054989], [-97.500357, 35.4054978], [-97.5003547, 35.4053438], [-97.5002447, 35.4053449], [-97.5002471, 35.4054989]]]}, "properties": {"osm_id": 1250901852, "building": "yes", "name": "", "height": null, "height_m": null, "levels": null, "tract_id": "40109107302", "tract_name": "1073.02", "tags": {"building": "yes", "source": "microsoft/BuildingFootprints"}}}, {"type": "Feature", "geometry": {"type": "Polygon", "coordinates": [[[-97.4999136, 35.4048412], [-97.4999079, 35.4049744], [-97.5000189, 35.4049775], [-97.5000245, 35.4048443], [-97.4999136, 35.4048412]]]}, "properties": {"osm_id": 1250901853, "building": "yes", "name": "", "height": null, "height_m": null, "levels": null, "tract_id": "40109107302", "tract_name": "1073.02", "tags": {"building": "yes", "source": "microsoft/BuildingFootprints"}}}, {"type": "Feature", "geometry": {"type": "Polygon", "coordinates": [[[-97.4999093, 35.4051405], [-97.5001024, 35.4051393], [-97.5001016, 35.4050497], [-97.4999085, 35.4050508], [-97.4999093, 35.4051405]]]}, "properties": {"osm_id": 1250901854, "building": "yes", "name": "", "height": null, "height_m": null, "levels": null, "tract_id": "40109107302", "tract_name": "1073.02", "tags": {"building": "yes", "source": "microsoft/BuildingFootprints"}}}, {"type": "Feature", "geometry": {"type": "Polygon", "coordinates": [[[-97.4999008, 35.4051916], [-97.4998984, 35.405304], [-97.499988, 35.4053053], [-97.4999885, 35.4052791], [-97.5000384, 35.4052798], [-97.5000388, 35.4052613], [-97.5001069, 35.4052623], [-97.5001084, 35.4051945], [-97.4999008, 35.4051916]]]}, "properties": {"osm_id": 1250901855, "building": "yes", "name": "", "height": null, "height_m": null, "levels": null, "tract_id": "40109107302", "tract_name": "1073.02", "tags": {"building": "yes", "source": "microsoft/BuildingFootprints"}}}, {"type": "Feature", "geometry": {"type": "Polygon", "coordinates": [[[-97.4998954, 35.4055322], [-97.4999768, 35.40553], [-97.4999734, 35.405447], [-97.5000473, 35.405445], [-97.5000445, 35.4053763], [-97.4998891, 35.4053805], [-97.4998954, 35.4055322]]]}, "properties": {"osm_id": 1250901856, "building": "yes", "name": "", "height": null, "height_m": null, "levels": null, "tract_id": "40109107302", "tract_name": "1073.02", "tags": {"building": "yes", "source": "microsoft/BuildingFootprints"}}}, {"type": "Feature", "geometry": {"type": "Polygon", "coordinates": [[[-97.4996302, 35.4045769], [-97.4996324, 35.4045135], [-97.4997021, 35.4045151], [-97.4997043, 35.4044518], [-97.4995435, 35.404448], [-97.4995391, 35.4045747], [-97.4996302, 35.4045769]]]}, "properties": {"osm_id": 1250901857, "building": "yes", "name": "", "height": null, "height_m": null, "levels": null, "tract_id": "40109107302", "tract_name": "1073.02", "tags": {"building": "yes", "source": "microsoft/BuildingFootprints"}}}, {"type": "Feature", "geometry": {"type": "Polygon", "coordinates": [[[-97.4995053, 35.4045032], [-97.4995036, 35.4044126], [-97.4993105, 35.404415], [-97.4993122, 35.4045056], [-97.4995053, 35.4045032]]]}, "properties": {"osm_id": 1250901858, "building": "yes", "name": "", "height": null, "height_m": null, "levels": null, "tract_id": "40109107302", "tract_name": "1073.02", "tags": {"building": "yes", "source": "microsoft/BuildingFootprints"}}}, {"type": "Feature", "geometry": {"type": "Polygon", "coordinates": [[[-97.4992633, 35.4045577], [-97.4992627, 35.4046889], [-97.4993765, 35.4046892], [-97.4993771, 35.4045581], [-97.4992633, 35.4045577]]]}, "properties": {"osm_id": 1250901859, "building": "yes", "name": "", "height": null, "height_m": null, "levels": null, "tract_id": "40109107302", "tract_name": "1073.02", "tags": {"building": "yes", "source": "microsoft/BuildingFootprints"}}}, {"type": "Feature", "geometry": {"type": "Polygon", "coordinates": [[[-97.4992644, 35.4048918], [-97.4993995, 35.4048895], [-97.4993977, 35.4048162], [-97.499351, 35.404817], [-97.4993485, 35.4047187], [-97.49926, 35.4047202], [-97.4992644, 35.4048918]]]}, "properties": {"osm_id": 1250901860, "building": "yes", "name": "", "height": null, "height_m": null, "levels": null, "tract_id": "40109107302", "tract_name": "1073.02", "tags": {"building": "yes", "source": "microsoft/BuildingFootprints"}}}, {"type": "Feature", "geometry": {"type": "Polygon", "coordinates": [[[-97.4994673, 35.4048894], [-97.4996818, 35.4048921], [-97.4996832, 35.404819], [-97.4996162, 35.4048181], [-97.4996167, 35.4047885], [-97.4994692, 35.4047867], [-97.4994673, 35.4048894]]]}, "properties": {"osm_id": 1250901861, "building": "yes", "name": "", "height": null, "height_m": null, "levels": null, "tract_id": "40109107302", "tract_name": "1073.02", "tags": {"building": "yes", "source": "microsoft/BuildingFootprints"}}}, {"type": "Feature", "geometry": {"type": "Polygon", "coordinates": [[[-97.4996694, 35.4050181], [-97.4996669, 35.404936], [-97.4995478, 35.4049384], [-97.4995503, 35.4050204], [-97.4996694, 35.4050181]]]}, "properties": {"osm_id": 1250901862, "building": "yes", "name": "", "height": null, "height_m": null, "levels": null, "tract_id": "40109107302", "tract_name": "1073.02", "tags": {"building": "yes", "source": "microsoft/BuildingFootprints"}}}, {"type": "Feature", "geometry": {"type": "Polygon", "coordinates": [[[-97.4992426, 35.4049823], [-97.4992387, 35.4050718], [-97.499378, 35.4050759], [-97.4993819, 35.4049864], [-97.4992426, 35.4049823]]]}, "properties": {"osm_id": 1250901863, "building": "yes", "name": "", "height": null, "height_m": null, "levels": null, "tract_id": "40109107302", "tract_name": "1073.02", "tags": {"building": "yes", "source": "microsoft/BuildingFootprints"}}}, {"type": "Feature", "geometry": {"type": "Polygon", "coordinates": [[[-97.4993381, 35.4052049], [-97.4993393, 35.4051513], [-97.4992578, 35.4051501], [-97.4992542, 35.4053052], [-97.4994151, 35.4053077], [-97.4994165, 35.4052477], [-97.4993709, 35.405247], [-97.4993718, 35.4052054], [-97.4993381, 35.4052049]]]}, "properties": {"osm_id": 1250901864, "building": "yes", "name": "", "height": null, "height_m": null, "levels": null, "tract_id": "40109107302", "tract_name": "1073.02", "tags": {"building": "yes", "source": "microsoft/BuildingFootprints"}}}, {"type": "Feature", "geometry": {"type": "Polygon", "coordinates": [[[-97.4992533, 35.4055005], [-97.499375, 35.4055039], [-97.4993817, 35.4053445], [-97.4992601, 35.4053411], [-97.4992533, 35.4055005]]]}, "properties": {"osm_id": 1250901865, "building": "yes", "name": "", "height": null, "height_m": null, "levels": null, "tract_id": "40109107302", "tract_name": "1073.02", "tags": {"building": "yes", "source": "microsoft/BuildingFootprints"}}}, {"type": "Feature", "geometry": {"type": "Polygon", "coordinates": [[[-97.4992564, 35.4057096], [-97.4993958, 35.4057071], [-97.4993938, 35.4056317], [-97.4993616, 35.4056322], [-97.4993605, 35.4055929], [-97.4993402, 35.4055933], [-97.4993386, 35.4055354], [-97.4992517, 35.405537], [-97.4992564, 35.4057096]]]}, "properties": {"osm_id": 1250901866, "building": "yes", "name": "", "height": null, "height_m": null, "levels": null, "tract_id": "40109107302", "tract_name": "1073.02", "tags": {"building": "yes", "source": "microsoft/BuildingFootprints"}}}, {"type": "Feature", "geometry": {"type": "Polygon", "coordinates": [[[-97.4992584, 35.4059088], [-97.4993442, 35.4059101], [-97.4993461, 35.4058282], [-97.4994131, 35.4058293], [-97.4994148, 35.4057582], [-97.499262, 35.4057558], [-97.4992584, 35.4059088]]]}, "properties": {"osm_id": 1250901867, "building": "yes", "name": "", "height": null, "height_m": null, "levels": null, "tract_id": "40109107302", "tract_name": "1073.02", "tags": {"building": "yes", "source": "microsoft/BuildingFootprints"}}}, {"type": "Feature", "geometry": {"type": "Polygon", "coordinates": [[[-97.4994245, 35.4059825], [-97.499395, 35.4059823], [-97.4993953, 35.4059332], [-97.4993309, 35.4059329], [-97.4993305, 35.4059985], [-97.499301, 35.4059984], [-97.4993006, 35.4060552], [-97.499424, 35.4060558], [-97.4994245, 35.4059825]]]}, "properties": {"osm_id": 1250901868, "building": "yes", "name": "", "height": null, "height_m": null, "levels": null, "tract_id": "40109107302", "tract_name": "1073.02", "tags": {"building": "yes", "source": "microsoft/BuildingFootprints"}}}, {"type": "Feature", "geometry": {"type": "Polygon", "coordinates": [[[-97.4994577, 35.4052992], [-97.4996561, 35.4053025], [-97.4996584, 35.4052129], [-97.49946, 35.4052096], [-97.4994577, 35.4052992]]]}, "properties": {"osm_id": 1250901935, "building": "yes", "name": "", "height": null, "height_m": null, "levels": null, "tract_id": "40109107302", "tract_name": "1073.02", "tags": {"building": "yes", "source": "microsoft/BuildingFootprints"}}}, {"type": "Feature", "geometry": {"type": "Polygon", "coordinates": [[[-97.4994634, 35.4054361], [-97.4996618, 35.4054386], [-97.4996635, 35.4053512], [-97.4994651, 35.4053486], [-97.4994634, 35.4054361]]]}, "properties": {"osm_id": 1250901936, "building": "yes", "name": "", "height": null, "height_m": null, "levels": null, "tract_id": "40109107302", "tract_name": "1073.02", "tags": {"building": "yes", "source": "microsoft/BuildingFootprints"}}}, {"type": "Feature", "geometry": {"type": "Polygon", "coordinates": [[[-97.499476, 35.4056259], [-97.4994748, 35.4057034], [-97.4996679, 35.4057053], [-97.4996694, 35.4056037], [-97.4995192, 35.4056023], [-97.4995189, 35.4056263], [-97.499476, 35.4056259]]]}, "properties": {"osm_id": 1250901937, "building": "yes", "name": "", "height": null, "height_m": null, "levels": null, "tract_id": "40109107302", "tract_name": "1073.02", "tags": {"building": "yes", "source": "microsoft/BuildingFootprints"}}}, {"type": "Feature", "geometry": {"type": "Polygon", "coordinates": [[[-97.4996711, 35.405978], [-97.4994743, 35.4059756], [-97.4994727, 35.406063], [-97.4996695, 35.4060654], [-97.4996711, 35.405978]]]}, "properties": {"osm_id": 1250901938, "building": "yes", "name": "", "height": null, "height_m": null, "levels": null, "tract_id": "40109107302", "tract_name": "1073.02", "tags": {"building": "yes", "source": "microsoft/BuildingFootprints"}}}, {"type": "Feature", "geometry": {"type": "Polygon", "coordinates": [[[-97.4994928, 35.4058473], [-97.4996859, 35.4058502], [-97.4996878, 35.4057627], [-97.4994948, 35.4057598], [-97.4994928, 35.4058473]]]}, "properties": {"osm_id": 1250901939, "building": "yes", "name": "", "height": null, "height_m": null, "levels": null, "tract_id": "40109107302", "tract_name": "1073.02", "tags": {"building": "yes", "source": "microsoft/BuildingFootprints"}}}, {"type": "Feature", "geometry": {"type": "Polygon", "coordinates": [[[-97.4985973, 35.4057372], [-97.4985979, 35.4060202], [-97.4988243, 35.4060199], [-97.4988243, 35.4060014], [-97.498894, 35.4060013], [-97.4988937, 35.4058876], [-97.4988321, 35.4058877], [-97.4988317, 35.4057368], [-97.4985973, 35.4057372]]]}, "properties": {"osm_id": 1250901940, "building": "yes", "name": "", "height": null, "height_m": null, "levels": null, "tract_id": "40109107302", "tract_name": "1073.02", "tags": {"building": "yes", "source": "microsoft/BuildingFootprints"}}}, {"type": "Feature", "geometry": {"type": "Polygon", "coordinates": [[[-97.4984611, 35.4055477], [-97.4983538, 35.4055493], [-97.4983539, 35.4055547], [-97.4975388, 35.4055665], [-97.4975405, 35.4056442], [-97.4975716, 35.4056437], [-97.4975768, 35.4058819], [-97.4975537, 35.4058823], [-97.497556, 35.405986], [-97.4979904, 35.4059797], [-97.4979884, 35.4058901], [-97.4976817, 35.4058946], [-97.4976769, 35.405675], [-97.498359, 35.405665], [-97.4983638, 35.4058825], [-97.4980276, 35.4058874], [-97.4980295, 35.4059748], [-97.4984703, 35.4059684], [-97.4984611, 35.4055477]]]}, "properties": {"osm_id": 1250901941, "building": "yes", "name": "", "height": null, "height_m": null, "levels": null, "tract_id": "40109107302", "tract_name": "1073.02", "tags": {"building": "yes", "source": "microsoft/BuildingFootprints"}}}, {"type": "Feature", "geometry": {"type": "Polygon", "coordinates": [[[-97.4966787, 35.4058088], [-97.4965097, 35.4058103], [-97.4965086, 35.405725], [-97.4964029, 35.405726], [-97.4964063, 35.4059773], [-97.4966809, 35.4059749], [-97.4966787, 35.4058088]]]}, "properties": {"osm_id": 1250901942, "building": "yes", "name": "", "height": null, "height_m": null, "levels": null, "tract_id": "40109107302", "tract_name": "1073.02", "tags": {"building": "yes", "source": "microsoft/BuildingFootprints"}}}, {"type": "Feature", "geometry": {"type": "Polygon", "coordinates": [[[-97.496088, 35.4057806], [-97.4960917, 35.4060233], [-97.496258, 35.4060216], [-97.4962563, 35.4059079], [-97.4961865, 35.4059086], [-97.4961846, 35.4057797], [-97.496088, 35.4057806]]]}, "properties": {"osm_id": 1250901943, "building": "yes", "name": "", "height": null, "height_m": null, "levels": null, "tract_id": "40109107302", "tract_name": "1073.02", "tags": {"building": "yes", "source": "microsoft/BuildingFootprints"}}}, {"type": "Feature", "geometry": {"type": "Polygon", "coordinates": [[[-97.4971745, 35.4059283], [-97.4971681, 35.4056388], [-97.4969643, 35.4056417], [-97.4969707, 35.4059313], [-97.4971745, 35.4059283]]]}, "properties": {"osm_id": 1250901944, "building": "yes", "name": "", "height": null, "height_m": null, "levels": null, "tract_id": "40109107302", "tract_name": "1073.02", "tags": {"building": "yes", "source": "microsoft/BuildingFootprints"}}}, {"type": "Feature", "geometry": {"type": "Polygon", "coordinates": [[[-97.4955623, 35.4058432], [-97.4955611, 35.4057326], [-97.4952902, 35.4057346], [-97.4952914, 35.4058451], [-97.4955623, 35.4058432]]]}, "properties": {"osm_id": 1250901945, "building": "yes", "name": "", "height": null, "height_m": null, "levels": null, "tract_id": "40109107302", "tract_name": "1073.02", "tags": {"building": "yes", "source": "microsoft/BuildingFootprints"}}}, {"type": "Feature", "geometry": {"type": "Polygon", "coordinates": [[[-97.4951904, 35.4053643], [-97.4951917, 35.4056135], [-97.4953795, 35.4056129], [-97.4953792, 35.405567], [-97.4954409, 35.4055667], [-97.4954399, 35.4053634], [-97.4951904, 35.4053643]]]}, "properties": {"osm_id": 1250901946, "building": "yes", "name": "", "height": null, "height_m": null, "levels": null, "tract_id": "40109107302", "tract_name": "1073.02", "tags": {"building": "yes", "source": "microsoft/BuildingFootprints"}}}, {"type": "Feature", "geometry": {"type": "Polygon", "coordinates": [[[-97.4954888, 35.4049586], [-97.4953538, 35.4049601], [-97.4953529, 35.4049039], [-97.4950699, 35.4049069], [-97.495073, 35.405102], [-97.4954911, 35.4050975], [-97.4954888, 35.4049586]]]}, "properties": {"osm_id": 1250901947, "building": "yes", "name": "", "height": null, "height_m": null, "levels": null, "tract_id": "40109107302", "tract_name": "1073.02", "tags": {"building": "yes", "source": "microsoft/BuildingFootprints"}}}, {"type": "Feature", "geometry": {"type": "Polygon", "coordinates": [[[-97.4954932, 35.4051814], [-97.4956448, 35.4051793], [-97.4956429, 35.4050929], [-97.4954913, 35.405095], [-97.4954932, 35.4051814]]]}, "properties": {"osm_id": 1250901948, "building": "yes", "name": "", "height": null, "height_m": null, "levels": null, "tract_id": "40109107302", "tract_name": "1073.02", "tags": {"building": "yes", "source": "microsoft/BuildingFootprints"}}}, {"type": "Feature", "geometry": {"type": "Polygon", "coordinates": [[[-97.4957907, 35.4045837], [-97.495434, 35.4045808], [-97.4954328, 35.4046726], [-97.4957895, 35.4046755], [-97.4957907, 35.4045837]]]}, "properties": {"osm_id": 1250901949, "building": "yes", "name": "", "height": null, "height_m": null, "levels": null, "tract_id": "40109107302", "tract_name": "1073.02", "tags": {"building": "yes", "source": "microsoft/BuildingFootprints"}}}, {"type": "Feature", "geometry": {"type": "Polygon", "coordinates": [[[-97.4951488, 35.4046198], [-97.4951412, 35.4048089], [-97.4952698, 35.4048123], [-97.4952774, 35.4046232], [-97.4951488, 35.4046198]]]}, "properties": {"osm_id": 1250901950, "building": "yes", "name": "", "height": null, "height_m": null, "levels": null, "tract_id": "40109107302", "tract_name": "1073.02", "tags": {"building": "yes", "source": "microsoft/BuildingFootprints"}}}, {"type": "Feature", "geometry": {"type": "Polygon", "coordinates": [[[-97.4954413, 35.4043426], [-97.4960715, 35.404351], [-97.4960738, 35.4042352], [-97.4954437, 35.4042268], [-97.4954413, 35.4043426]]]}, "properties": {"osm_id": 1250901951, "building": "yes", "name": "", "height": null, "height_m": null, "levels": null, "tract_id": "40109107302", "tract_name": "1073.02", "tags": {"building": "yes", "source": "microsoft/BuildingFootprints"}}}, {"type": "Feature", "geometry": {"type": "Polygon", "coordinates": [[[-97.4960591, 35.404448], [-97.4959743, 35.4044405], [-97.4959271, 35.4047949], [-97.4960119, 35.4048024], [-97.4960591, 35.404448]]]}, "properties": {"osm_id": 1250901952, "building": "yes", "name": "", "height": null, "height_m": null, "levels": null, "tract_id": "40109107302", "tract_name": "1073.02", "tags": {"building": "yes", "source": "microsoft/BuildingFootprints"}}}, {"type": "Feature", "geometry": {"type": "Polygon", "coordinates": [[[-97.4960402, 35.4040256], [-97.4961876, 35.4040297], [-97.4961994, 35.403748], [-97.4960574, 35.4037441], [-97.4960488, 35.4039505], [-97.4960074, 35.4039494], [-97.496006, 35.4039809], [-97.4960421, 35.4039819], [-97.4960402, 35.4040256]]]}, "properties": {"osm_id": 1250901953, "building": "yes", "name": "", "height": null, "height_m": null, "levels": null, "tract_id": "40109107302", "tract_name": "1073.02", "tags": {"building": "yes", "source": "microsoft/BuildingFootprints"}}}, {"type": "Feature", "geometry": {"type": "Polygon", "coordinates": [[[-97.4961853, 35.4030197], [-97.4965191, 35.4030237], [-97.4965206, 35.4029416], [-97.4961867, 35.4029376], [-97.4961853, 35.4030197]]]}, "properties": {"osm_id": 1250901954, "building": "yes", "name": "", "height": null, "height_m": null, "levels": null, "tract_id": "40109107302", "tract_name": "1073.02", "tags": {"building": "yes", "source": "microsoft/BuildingFootprints"}}}, {"type": "Feature", "geometry": {"type": "Polygon", "coordinates": [[[-97.4961412, 35.4028516], [-97.4963584, 35.4028542], [-97.4963597, 35.4027864], [-97.4961425, 35.4027838], [-97.4961412, 35.4028516]]]}, "properties": {"osm_id": 1250901955, "building": "yes", "name": "", "height": null, "height_m": null, "levels": null, "tract_id": "40109107302", "tract_name": "1073.02", "tags": {"building": "yes", "source": "microsoft/BuildingFootprints"}}}, {"type": "Feature", "geometry": {"type": "Polygon", "coordinates": [[[-97.4963997, 35.4018162], [-97.4960389, 35.401798], [-97.496028, 35.4019417], [-97.4959105, 35.4019358], [-97.4959209, 35.4017986], [-97.4957659, 35.4017908], [-97.4957512, 35.4019846], [-97.4957218, 35.4019832], [-97.4957149, 35.4020746], [-97.4959019, 35.4020841], [-97.4959074, 35.4020122], [-97.4960383, 35.4020188], [-97.4960368, 35.4020384], [-97.496097, 35.4020414], [-97.4960998, 35.4020044], [-97.4963843, 35.4020187], [-97.4963997, 35.4018162]]]}, "properties": {"osm_id": 1250901956, "building": "yes", "name": "", "height": null, "height_m": null, "levels": null, "tract_id": "40109107302", "tract_name": "1073.02", "tags": {"building": "yes", "source": "microsoft/BuildingFootprints"}}}, {"type": "Feature", "geometry": {"type": "Polygon", "coordinates": [[[-97.4965016, 35.4017099], [-97.4965005, 35.4012387], [-97.4958058, 35.4012397], [-97.4958064, 35.4015042], [-97.4957166, 35.4015043], [-97.4957171, 35.4017111], [-97.4965016, 35.4017099]]]}, "properties": {"osm_id": 1250901957, "building": "yes", "name": "", "height": null, "height_m": null, "levels": null, "tract_id": "40109107302", "tract_name": "1073.02", "tags": {"building": "yes", "source": "microsoft/BuildingFootprints"}}}, {"type": "Feature", "geometry": {"type": "Polygon", "coordinates": [[[-97.496197, 35.401138], [-97.4961954, 35.4009665], [-97.4957824, 35.4009691], [-97.495784, 35.4011406], [-97.496197, 35.401138]]]}, "properties": {"osm_id": 1250901958, "building": "yes", "name": "", "height": null, "height_m": null, "levels": null, "tract_id": "40109107302", "tract_name": "1073.02", "tags": {"building": "yes", "source": "microsoft/BuildingFootprints"}}}, {"type": "Feature", "geometry": {"type": "Polygon", "coordinates": [[[-97.4965396, 35.3994485], [-97.4964351, 35.3994497], [-97.496441, 35.3998016], [-97.4964061, 35.399802], [-97.4964072, 35.3998654], [-97.4965466, 35.3998638], [-97.4965396, 35.3994485]]]}, "properties": {"osm_id": 1250901959, "building": "yes", "name": "", "height": null, "height_m": null, "levels": null, "tract_id": "40109107302", "tract_name": "1073.02", "tags": {"building": "yes", "source": "microsoft/BuildingFootprints"}}}, {"type": "Feature", "geometry": {"type": "Polygon", "coordinates": [[[-97.5037409, 35.4022241], [-97.503742, 35.4022883], [-97.5037098, 35.4022887], [-97.5037111, 35.4023673], [-97.5039042, 35.4023652], [-97.5039029, 35.4022887], [-97.5038546, 35.4022892], [-97.5038535, 35.4022229], [-97.5037409, 35.4022241]]]}, "properties": {"osm_id": 1250901960, "building": "yes", "name": "", "height": null, "height_m": null, "levels": null, "tract_id": "40109107302", "tract_name": "1073.02", "tags": {"building": "yes", "source": "microsoft/BuildingFootprints"}}}, {"type": "Feature", "geometry": {"type": "Polygon", "coordinates": [[[-97.503931, 35.4010222], [-97.5040397, 35.4010242], [-97.5040413, 35.4009718], [-97.5040049, 35.4009711], [-97.5040061, 35.4009304], [-97.503887, 35.4009281], [-97.5038847, 35.4010068], [-97.5039315, 35.4010077], [-97.503931, 35.4010222]]]}, "properties": {"osm_id": 1250901961, "building": "yes", "name": "", "height": null, "height_m": null, "levels": null, "tract_id": "40109107302", "tract_name": "1073.02", "tags": {"building": "yes", "source": "microsoft/BuildingFootprints"}}}, {"type": "Feature", "geometry": {"type": "Polygon", "coordinates": [[[-97.5037664, 35.4012098], [-97.5037621, 35.4013146], [-97.5038424, 35.4013168], [-97.5038468, 35.401212], [-97.5037664, 35.4012098]]]}, "properties": {"osm_id": 1250901962, "building": "yes", "name": "", "height": null, "height_m": null, "levels": null, "tract_id": "40109107302", "tract_name": "1073.02", "tags": {"building": "yes", "source": "microsoft/BuildingFootprints"}}}, {"type": "Feature", "geometry": {"type": "Polygon", "coordinates": [[[-97.5041658, 35.4009645], [-97.5041683, 35.4010527], [-97.5042874, 35.4010505], [-97.5042887, 35.4010978], [-97.5043531, 35.4010966], [-97.5043493, 35.4009611], [-97.5041658, 35.4009645]]]}, "properties": {"osm_id": 1250901963, "building": "yes", "name": "", "height": null, "height_m": null, "levels": null, "tract_id": "40109107302", "tract_name": "1073.02", "tags": {"building": "yes", "source": "microsoft/BuildingFootprints"}}}, {"type": "Feature", "geometry": {"type": "Polygon", "coordinates": [[[-97.5043744, 35.4016555], [-97.5045285, 35.4016518], [-97.5045256, 35.4015723], [-97.5043714, 35.4015761], [-97.5043744, 35.4016555]]]}, "properties": {"osm_id": 1250901964, "building": "yes", "name": "", "height": null, "height_m": null, "levels": null, "tract_id": "40109107302", "tract_name": "1073.02", "tags": {"building": "yes", "source": "microsoft/BuildingFootprints"}}}, {"type": "Feature", "geometry": {"type": "Polygon", "coordinates": [[[-97.5047036, 35.4010205], [-97.5047019, 35.4010773], [-97.5048547, 35.4010804], [-97.5048564, 35.4010236], [-97.5047036, 35.4010205]]]}, "properties": {"osm_id": 1250901965, "building": "yes", "name": "", "height": null, "height_m": null, "levels": null, "tract_id": "40109107302", "tract_name": "1073.02", "tags": {"building": "yes", "source": "microsoft/BuildingFootprints"}}}, {"type": "Feature", "geometry": {"type": "Polygon", "coordinates": [[[-97.5051776, 35.4010868], [-97.5052849, 35.4010889], [-97.5052885, 35.4009621], [-97.5051813, 35.4009601], [-97.5051776, 35.4010868]]]}, "properties": {"osm_id": 1250901966, "building": "yes", "name": "", "height": null, "height_m": null, "levels": null, "tract_id": "40109107302", "tract_name": "1073.02", "tags": {"building": "yes", "source": "microsoft/BuildingFootprints"}}}, {"type": "Feature", "geometry": {"type": "Polygon", "coordinates": [[[-97.5054671, 35.4009223], [-97.5053372, 35.4009205], [-97.5053355, 35.4010036], [-97.5052953, 35.4010031], [-97.505294, 35.4010708], [-97.5053556, 35.4010716], [-97.5053549, 35.4011088], [-97.5054634, 35.4011102], [-97.5054671, 35.4009223]]]}, "properties": {"osm_id": 1250901967, "building": "yes", "name": "", "height": null, "height_m": null, "levels": null, "tract_id": "40109107302", "tract_name": "1073.02", "tags": {"building": "yes", "source": "microsoft/BuildingFootprints"}}}, {"type": "Feature", "geometry": {"type": "Polygon", "coordinates": [[[-97.5053284, 35.4022959], [-97.5053328, 35.4024322], [-97.5054574, 35.4024295], [-97.505453, 35.4022932], [-97.5053284, 35.4022959]]]}, "properties": {"osm_id": 1250901968, "building": "yes", "name": "", "height": null, "height_m": null, "levels": null, "tract_id": "40109107302", "tract_name": "1073.02", "tags": {"building": "yes", "source": "microsoft/BuildingFootprints"}}}, {"type": "Feature", "geometry": {"type": "Polygon", "coordinates": [[[-97.5052098, 35.4024865], [-97.5053117, 35.4024854], [-97.5053109, 35.4024308], [-97.505209, 35.4024318], [-97.5052098, 35.4024865]]]}, "properties": {"osm_id": 1250901969, "building": "yes", "name": "", "height": null, "height_m": null, "levels": null, "tract_id": "40109107302", "tract_name": "1073.02", "tags": {"building": "yes", "source": "microsoft/BuildingFootprints"}}}, {"type": "Feature", "geometry": {"type": "Polygon", "coordinates": [[[-97.5058212, 35.4010908], [-97.5058374, 35.4012207], [-97.505933, 35.4012128], [-97.5059274, 35.4011682], [-97.5060163, 35.4011609], [-97.5060056, 35.4010756], [-97.5058212, 35.4010908]]]}, "properties": {"osm_id": 1250901970, "building": "yes", "name": "", "height": null, "height_m": null, "levels": null, "tract_id": "40109107302", "tract_name": "1073.02", "tags": {"building": "yes", "source": "microsoft/BuildingFootprints"}}}, {"type": "Feature", "geometry": {"type": "Polygon", "coordinates": [[[-97.5042977, 35.3929705], [-97.504295, 35.3926289], [-97.5041356, 35.3926297], [-97.5041382, 35.3929713], [-97.5042977, 35.3929705]]]}, "properties": {"osm_id": 1349764338, "building": "roof", "name": "", "height": null, "height_m": null, "levels": null, "tract_id": "40109107302", "tract_name": "1073.02", "tags": {"building": "roof", "layer": "1"}}}, {"type": "Feature", "geometry": {"type": "Polygon", "coordinates": [[[-97.5049071, 35.3929697], [-97.5049053, 35.3926249], [-97.5048319, 35.3926251], [-97.5048324, 35.3927363], [-97.5044384, 35.3927376], [-97.504439, 35.3928524], [-97.5043359, 35.3928528], [-97.5043365, 35.3929716], [-97.5049071, 35.3929697]]]}, "properties": {"osm_id": 1349764339, "building": "roof", "name": "", "height": null, "height_m": null, "levels": null, "tract_id": "40109107302", "tract_name": "1073.02", "tags": {"building": "roof", "layer": "1"}}}]}