{"type": "FeatureCollection", "features": [{"type": "Feature", "geometry": {"type": "Polygon", "coordinates": [[[-98.2683148, 34.6094196], [-98.268312, 34.6093504], [-98.2682072, 34.6093532], [-98.268208, 34.6093726], [-98.2682301, 34.609372], [-98.2682321, 34.6094219], [-98.2683148, 34.6094196]]]}, "properties": {"osm_id": 1025600419, "building": "yes", "name": "", "height": null, "height_m": null, "levels": null, "tract_id": "40031002001", "tract_name": "20.01", "tags": {"building": "yes"}}}, {"type": "Feature", "geometry": {"type": "Polygon", "coordinates": [[[-98.2684666, 34.6093678], [-98.2683808, 34.6093682], [-98.2683803, 34.6093089], [-98.2684661, 34.6093085], [-98.2684666, 34.6093678]]]}, "properties": {"osm_id": 1025600420, "building": "yes", "name": "", "height": null, "height_m": null, "levels": null, "tract_id": "40031002001", "tract_name": "20.01", "tags": {"building": "yes"}}}, {"type": "Feature", "geometry": {"type": "Polygon", "coordinates": [[[-98.2685584, 34.6092933], [-98.2685582, 34.6092413], [-98.2685981, 34.6092412], [-98.2685982, 34.6092803], [-98.2686691, 34.6092801], [-98.2686688, 34.609162], [-98.2685991, 34.6091622], [-98.2685992, 34.6091797], [-98.2685761, 34.6091797], [-98.268576, 34.6091561], [-98.2684609, 34.6091563], [-98.2684611, 34.6092033], [-98.2684115, 34.6092033], [-98.2684116, 34.6092285], [-98.2684365, 34.6092284], [-98.2684366, 34.6092675], [-98.2684601, 34.6092675], [-98.2684601, 34.6092935], [-98.2685584, 34.6092933]]]}, "properties": {"osm_id": 1025600421, "building": "yes", "name": "", "height": null, "height_m": null, "levels": null, "tract_id": "40031002001", "tract_name": "20.01", "tags": {"building": "yes"}}}, {"type": "Feature", "geometry": {"type": "Polygon", "coordinates": [[[-98.2692434, 34.608962], [-98.2692266, 34.6089619], [-98.2692262, 34.6090129], [-98.269119, 34.6090125], [-98.2691199, 34.6088499], [-98.2692288, 34.6088503], [-98.2692286, 34.6088825], [-98.2692439, 34.6088826], [-98.2692434, 34.608962]]]}, "properties": {"osm_id": 1025600422, "building": "yes", "name": "", "height": null, "height_m": null, "levels": null, "tract_id": "40031002001", "tract_name": "20.01", "tags": {"building": "yes"}}}, {"type": "Feature", "geometry": {"type": "Polygon", "coordinates": [[[-98.269296, 34.6093903], [-98.2692294, 34.609387], [-98.2692377, 34.6092744], [-98.2693042, 34.6092777], [-98.269296, 34.6093903]]]}, "properties": {"osm_id": 1025600423, "building": "yes", "name": "", "height": null, "height_m": null, "levels": null, "tract_id": "40031002001", "tract_name": "20.01", "tags": {"building": "yes"}}}, {"type": "Feature", "geometry": {"type": "Polygon", "coordinates": [[[-98.269951, 34.6093527], [-98.2698133, 34.6093536], [-98.2698153, 34.6095757], [-98.2699531, 34.6095748], [-98.269951, 34.6093527]]]}, "properties": {"osm_id": 1025600424, "building": "yes", "name": "", "height": null, "height_m": null, "levels": null, "tract_id": "40031002001", "tract_name": "20.01", "tags": {"building": "yes"}}}, {"type": "Feature", "geometry": {"type": "Polygon", "coordinates": [[[-98.2720958, 34.6154686], [-98.27206, 34.6154949], [-98.2720438, 34.61548], [-98.2720138, 34.6155021], [-98.2719944, 34.6154843], [-98.2719621, 34.6154806], [-98.27194, 34.6154945], [-98.2719267, 34.6154941], [-98.2719121, 34.6154759], [-98.2718762, 34.6154748], [-98.271857, 34.6154873], [-98.2718632, 34.6154937], [-98.2717898, 34.6155413], [-98.2718361, 34.6155897], [-98.2718594, 34.6155746], [-98.271875, 34.6155752], [-98.271874, 34.6155899], [-98.2718908, 34.6156044], [-98.2719006, 34.6156052], [-98.2718663, 34.6156295], [-98.2719318, 34.6156921], [-98.2720054, 34.6156398], [-98.271974, 34.6156099], [-98.271996, 34.6156104], [-98.2719958, 34.615616], [-98.2720298, 34.6156168], [-98.272156, 34.6155239], [-98.2720958, 34.6154686]]]}, "properties": {"osm_id": 1025600430, "building": "house", "name": "", "height": null, "height_m": null, "levels": null, "tract_id": "40031002001", "tract_name": "20.01", "tags": {"building": "house"}}}, {"type": "Feature", "geometry": {"type": "Polygon", "coordinates": [[[-98.36172, 34.609374], [-98.3617197, 34.6093415], [-98.3617569, 34.6093412], [-98.3617566, 34.609321], [-98.3617339, 34.6093212], [-98.3617328, 34.6092377], [-98.3616206, 34.6092387], [-98.3616202, 34.609202], [-98.3615344, 34.6092027], [-98.3615349, 34.6092414], [-98.3613549, 34.6092428], [-98.3613565, 34.609377], [-98.36172, 34.609374]]]}, "properties": {"osm_id": 1072115811, "building": "yes", "name": "Braum's", "height": null, "height_m": null, "levels": null, "tract_id": "40031002001", "tract_name": "20.01", "tags": {"addr:city": "Lawton", "addr:housenumber": "2202", "addr:postcode": "73501", "addr:state": "OK", "addr:street": "East Gore Boulevard", "amenity": "fast_food", "brand": "Braum's", "brand:wikidata": "Q4958263", "building": "yes", "cuisine": "ice_cream;burger", "name": "Braum's", "shop": "dairy", "takeaway": "yes"}}}, {"type": "Feature", "geometry": {"type": "Polygon", "coordinates": [[[-98.3609507, 34.6094119], [-98.3609642, 34.6092474], [-98.3609597, 34.6090767], [-98.3609401, 34.6089481], [-98.3608936, 34.6089506], [-98.3609071, 34.609026], [-98.3608485, 34.6090298], [-98.3608545, 34.6089518], [-98.3608079, 34.6089518], [-98.3607944, 34.6090854], [-98.3607884, 34.6092165], [-98.3608019, 34.6094119], [-98.360856, 34.6094119], [-98.360841, 34.609266], [-98.3609101, 34.609266], [-98.3609071, 34.6093501], [-98.3608981, 34.6094119], [-98.3609507, 34.6094119]]]}, "properties": {"osm_id": 1072115815, "building": "retail", "name": "Sonic", "height": null, "height_m": null, "levels": null, "tract_id": "40031002001", "tract_name": "20.01", "tags": {"addr:city": "Lawton", "addr:housenumber": "2302", "addr:postcode": "73501", "addr:state": "OK", "addr:street": "East Gore Boulevard", "amenity": "fast_food", "brand": "Sonic", "brand:wikidata": "Q7561808", "building": "retail", "cuisine": "burger", "drive_in": "yes", "name": "Sonic", "takeaway": "yes", "website": "https://www.sonicdrivein.com/locations/us/ok/lawton/2302-e--gore-boulevard/store-1158/"}}}, {"type": "Feature", "geometry": {"type": "Polygon", "coordinates": [[[-98.3531446, 34.6140658], [-98.3530712, 34.6139561], [-98.353046, 34.6139676], [-98.3530278, 34.6139404], [-98.3530083, 34.6139113], [-98.3529251, 34.613949], [-98.3529446, 34.6139782], [-98.3529641, 34.6140073], [-98.352799, 34.6140821], [-98.3528712, 34.6141898], [-98.3531446, 34.6140658]]]}, "properties": {"osm_id": 1149554235, "building": "yes", "name": "", "height": null, "height_m": null, "levels": null, "tract_id": "40031002001", "tract_name": "20.01", "tags": {"amenity": "place_of_worship", "building": "yes", "denomination": "jehovahs_witness", "religion": "christian"}}}, {"type": "Feature", "geometry": {"type": "Polygon", "coordinates": [[[-98.3381498, 34.6098029], [-98.3381498, 34.6096332], [-98.3377224, 34.6096361], [-98.3377216, 34.6098044], [-98.3381498, 34.6098029]]]}, "properties": {"osm_id": 1292197379, "building": "school", "name": "", "height": null, "height_m": null, "levels": null, "tract_id": "40031002001", "tract_name": "20.01", "tags": {"building": "school"}}}, {"type": "Feature", "geometry": {"type": "Polygon", "coordinates": [[[-98.3380601, 34.6101282], [-98.3380599, 34.6099856], [-98.3379263, 34.6099857], [-98.3379261, 34.6098959], [-98.3376818, 34.6098962], [-98.3376822, 34.6101286], [-98.3380601, 34.6101282]]]}, "properties": {"osm_id": 1292197380, "building": "school", "name": "", "height": null, "height_m": null, "levels": null, "tract_id": "40031002001", "tract_name": "20.01", "tags": {"building": "school"}}}, {"type": "Feature", "geometry": {"type": "Polygon", "coordinates": [[[-98.3376069, 34.6100724], [-98.3376074, 34.6098889], [-98.3373856, 34.6098884], [-98.337385, 34.6100719], [-98.3376069, 34.6100724]]]}, "properties": {"osm_id": 1292197381, "building": "school", "name": "", "height": null, "height_m": null, "levels": null, "tract_id": "40031002001", "tract_name": "20.01", "tags": {"building": "school"}}}]}