{"type": "FeatureCollection", "features": [{"type": "Feature", "geometry": {"type": "Polygon", "coordinates": [[[-94.8778815, 36.888384], [-94.8778842, 36.8882231], [-94.8781927, 36.888221], [-94.87819, 36.888384], [-94.8778815, 36.888384]]]}, "properties": {"osm_id": 676153117, "building": "yes", "name": "McDonald's", "height": null, "height_m": null, "levels": null, "tract_id": "40115574400", "tract_name": "5744", "tags": {"amenity": "fast_food", "brand": "McDonald's", "brand:wikidata": "Q38076", "building": "yes", "cuisine": "burger", "name": "McDonald's", "takeaway": "yes", "website": "https://www.mcdonalds.com/us/en-us/location/ok/miami/1131n-main-st/3457.html"}}}, {"type": "Feature", "geometry": {"type": "Polygon", "coordinates": [[[-94.8777313, 36.8875044], [-94.8777286, 36.8873757], [-94.8779942, 36.8873736], [-94.8779968, 36.8875044], [-94.8777313, 36.8875044]]]}, "properties": {"osm_id": 676153124, "building": "commercial", "name": "", "height": null, "height_m": null, "levels": null, "tract_id": "40115574400", "tract_name": "5744", "tags": {"building": "commercial"}}}, {"type": "Feature", "geometry": {"type": "Polygon", "coordinates": [[[-94.8777233, 36.8861722], [-94.8777233, 36.886095], [-94.8779781, 36.8860971], [-94.8779781, 36.8861744], [-94.8777233, 36.8861722]]]}, "properties": {"osm_id": 676153135, "building": "yes", "name": "", "height": null, "height_m": null, "levels": null, "tract_id": "40115574400", "tract_name": "5744", "tags": {"amenity": "restaurant", "building": "yes"}}}, {"type": "Feature", "geometry": {"type": "Polygon", "coordinates": [[[-94.877742, 36.8856273], [-94.8777501, 36.8857131], [-94.8780264, 36.8857153], [-94.8780317, 36.8856273], [-94.877742, 36.8856273]]]}, "properties": {"osm_id": 676153138, "building": "yes", "name": "Taco Bell", "height": null, "height_m": null, "levels": null, "tract_id": "40115574400", "tract_name": "5744", "tags": {"addr:city": "Miami", "addr:housenumber": "901", "addr:postcode": "74354", "addr:state": "OK", "addr:street": "North Main", "amenity": "fast_food", "brand": "Taco Bell", "brand:wikidata": "Q752941", "building": "yes", "cuisine": "tex-mex", "name": "Taco Bell", "opening_hours": "08:00-01:00", "phone": "+1 918-542-9020", "takeaway": "yes", "website": "https://locations.tacobell.com/ok/miami/901-n--main.html"}}}, {"type": "Feature", "geometry": {"type": "Polygon", "coordinates": [[[-94.8769696, 36.8851832], [-94.8771412, 36.8851811], [-94.8771359, 36.8848443], [-94.8769588, 36.8848464], [-94.8769696, 36.8851832]]]}, "properties": {"osm_id": 676446008, "building": "commercial", "name": "", "height": null, "height_m": null, "levels": null, "tract_id": "40115574400", "tract_name": "5744", "tags": {"building": "commercial"}}}, {"type": "Feature", "geometry": {"type": "Polygon", "coordinates": [[[-94.8777072, 36.8852047], [-94.8777072, 36.8850867], [-94.8778547, 36.8850867], [-94.877852, 36.8852068], [-94.8777072, 36.8852047]]]}, "properties": {"osm_id": 676446011, "building": "commercial", "name": "", "height": null, "height_m": null, "levels": null, "tract_id": "40115574400", "tract_name": "5744", "tags": {"building": "commercial"}}}, {"type": "Feature", "geometry": {"type": "Polygon", "coordinates": [[[-94.8776187, 36.8844152], [-94.877616, 36.8843315], [-94.8780317, 36.8843337], [-94.8780344, 36.8844216], [-94.8776187, 36.8844152]]]}, "properties": {"osm_id": 676446013, "building": "commercial", "name": "", "height": null, "height_m": null, "levels": null, "tract_id": "40115574400", "tract_name": "5744", "tags": {"building": "commercial"}}}, {"type": "Feature", "geometry": {"type": "Polygon", "coordinates": [[[-94.8776455, 36.8843015], [-94.8776455, 36.8842135], [-94.877844, 36.8842135], [-94.877844, 36.8843036], [-94.8776455, 36.8843015]]]}, "properties": {"osm_id": 676446014, "building": "commercial", "name": "", "height": null, "height_m": null, "levels": null, "tract_id": "40115574400", "tract_name": "5744", "tags": {"building": "commercial"}}}, {"type": "Feature", "geometry": {"type": "Polygon", "coordinates": [[[-94.8767925, 36.8843658], [-94.8769508, 36.8843658], [-94.8769481, 36.8841041], [-94.8768542, 36.8841041], [-94.8768542, 36.8842908], [-94.8767872, 36.884295], [-94.8767925, 36.8843658]]]}, "properties": {"osm_id": 676446018, "building": "yes", "name": "", "height": null, "height_m": null, "levels": null, "tract_id": "40115574400", "tract_name": "5744", "tags": {"amenity": "car_wash", "building": "yes"}}}, {"type": "Feature", "geometry": {"type": "Polygon", "coordinates": [[[-94.8780264, 36.8840569], [-94.8778145, 36.8840569], [-94.8778145, 36.8837308], [-94.878021, 36.8837308], [-94.8780264, 36.8840569]]]}, "properties": {"osm_id": 676446021, "building": "commercial", "name": "", "height": null, "height_m": null, "levels": null, "tract_id": "40115574400", "tract_name": "5744", "tags": {"building": "commercial"}}}, {"type": "Feature", "geometry": {"type": "Polygon", "coordinates": [[[-94.8769562, 36.8840076], [-94.8769535, 36.8836986], [-94.8766745, 36.8836986], [-94.8766826, 36.8840097], [-94.8769562, 36.8840076]]]}, "properties": {"osm_id": 676446023, "building": "commercial", "name": "", "height": null, "height_m": null, "levels": null, "tract_id": "40115574400", "tract_name": "5744", "tags": {"building": "commercial"}}}, {"type": "Feature", "geometry": {"type": "Polygon", "coordinates": [[[-94.876417, 36.8834691], [-94.8765592, 36.8834712], [-94.8765592, 36.8833425], [-94.8769106, 36.8833425], [-94.8769106, 36.8834347], [-94.8771198, 36.8834347], [-94.8771359, 36.8828877], [-94.8766852, 36.8828834], [-94.8766852, 36.8829306], [-94.8764197, 36.8829263], [-94.876417, 36.8834691]]]}, "properties": {"osm_id": 676446031, "building": "commercial", "name": "", "height": null, "height_m": null, "levels": null, "tract_id": "40115574400", "tract_name": "5744", "tags": {"building": "commercial"}}}, {"type": "Feature", "geometry": {"type": "Polygon", "coordinates": [[[-94.877742, 36.8829413], [-94.877742, 36.8828469], [-94.8777072, 36.8828469], [-94.8776696, 36.8828405], [-94.8776321, 36.8828147], [-94.8776321, 36.882701], [-94.8776508, 36.8826667], [-94.8776911, 36.8826538], [-94.8777474, 36.8826517], [-94.8777474, 36.882583], [-94.8779861, 36.8825809], [-94.8779888, 36.8829435], [-94.877742, 36.8829413]]]}, "properties": {"osm_id": 676446033, "building": "commercial", "name": "", "height": null, "height_m": null, "levels": null, "tract_id": "40115574400", "tract_name": "5744", "tags": {"building": "commercial"}}}, {"type": "Feature", "geometry": {"type": "Polygon", "coordinates": [[[-94.8765592, 36.8825208], [-94.8770098, 36.8825251], [-94.8770125, 36.8823599], [-94.8771412, 36.8823599], [-94.8771412, 36.8822848], [-94.8770152, 36.8822827], [-94.8770125, 36.8820982], [-94.8768515, 36.8820982], [-94.8768542, 36.881993], [-94.8765645, 36.8819952], [-94.8765592, 36.8825208]]]}, "properties": {"osm_id": 676446034, "building": "commercial", "name": "", "height": null, "height_m": null, "levels": null, "tract_id": "40115574400", "tract_name": "5744", "tags": {"building": "commercial"}}}, {"type": "Feature", "geometry": {"type": "Polygon", "coordinates": [[[-94.8779486, 36.8821025], [-94.8778466, 36.8821025], [-94.8778466, 36.8820166], [-94.877683, 36.8820145], [-94.877683, 36.881963], [-94.8779513, 36.8819673], [-94.8779486, 36.8821025]]]}, "properties": {"osm_id": 676446037, "building": "commercial", "name": "", "height": null, "height_m": null, "levels": null, "tract_id": "40115574400", "tract_name": "5744", "tags": {"building": "commercial"}}}, {"type": "Feature", "geometry": {"type": "Polygon", "coordinates": [[[-94.8773263, 36.8816069], [-94.877329, 36.8814266], [-94.8769991, 36.8814266], [-94.8770017, 36.8813172], [-94.8766423, 36.8813129], [-94.8766423, 36.8808281], [-94.8764385, 36.8808281], [-94.8764304, 36.8816069], [-94.8773263, 36.8816069]]]}, "properties": {"osm_id": 676446039, "building": "commercial", "name": "", "height": null, "height_m": null, "levels": null, "tract_id": "40115574400", "tract_name": "5744", "tags": {"building": "commercial"}}}, {"type": "Feature", "geometry": {"type": "Polygon", "coordinates": [[[-94.8778064, 36.8814481], [-94.8778601, 36.8814502], [-94.8778601, 36.8814738], [-94.8779164, 36.881476], [-94.8779191, 36.8814459], [-94.877962, 36.8814459], [-94.877962, 36.8812185], [-94.8778627, 36.8812185], [-94.8778574, 36.8813666], [-94.8778091, 36.8813687], [-94.8778064, 36.8814481]]]}, "properties": {"osm_id": 676446042, "building": "commercial", "name": "", "height": null, "height_m": null, "levels": null, "tract_id": "40115574400", "tract_name": "5744", "tags": {"building": "commercial"}}}, {"type": "Feature", "geometry": {"type": "Polygon", "coordinates": [[[-94.8773343, 36.8807101], [-94.8773585, 36.8806907], [-94.8773558, 36.8805062], [-94.877329, 36.8804826], [-94.876865, 36.8804869], [-94.8768676, 36.8806843], [-94.8770017, 36.8806822], [-94.8770017, 36.8807036], [-94.8771064, 36.8807101], [-94.8773343, 36.8807101]]]}, "properties": {"osm_id": 676446043, "building": "commercial", "name": "", "height": null, "height_m": null, "levels": null, "tract_id": "40115574400", "tract_name": "5744", "tags": {"building": "commercial"}}}, {"type": "Feature", "geometry": {"type": "Polygon", "coordinates": [[[-94.8769427, 36.8802659], [-94.8769427, 36.8803346], [-94.8773075, 36.8803389], [-94.8773102, 36.8802724], [-94.8769427, 36.8802659]]]}, "properties": {"osm_id": 676665006, "building": "commercial", "name": "", "height": null, "height_m": null, "levels": null, "tract_id": "40115574400", "tract_name": "5744", "tags": {"building": "commercial"}}}, {"type": "Feature", "geometry": {"type": "Polygon", "coordinates": [[[-94.8767764, 36.8805234], [-94.8768059, 36.8804526], [-94.8764653, 36.8803668], [-94.8764412, 36.8804376], [-94.8767764, 36.8805234]]]}, "properties": {"osm_id": 676665007, "building": "commercial", "name": "", "height": null, "height_m": null, "levels": null, "tract_id": "40115574400", "tract_name": "5744", "tags": {"building": "commercial"}}}, {"type": "Feature", "geometry": {"type": "Polygon", "coordinates": [[[-94.8779057, 36.8805062], [-94.8779057, 36.8804033], [-94.8779593, 36.8804054], [-94.8779593, 36.8803174], [-94.8780344, 36.8803174], [-94.8780344, 36.8805062], [-94.8779057, 36.8805062]]]}, "properties": {"osm_id": 676665009, "building": "commercial", "name": "", "height": null, "height_m": null, "levels": null, "tract_id": "40115574400", "tract_name": "5744", "tags": {"building": "commercial"}}}, {"type": "Feature", "geometry": {"type": "Polygon", "coordinates": [[[-94.8781466, 36.8866671], [-94.8783089, 36.8866674], [-94.8783081, 36.8869475], [-94.8781458, 36.8869472], [-94.8781466, 36.8866671]]]}, "properties": {"osm_id": 1387642032, "building": "yes", "name": "", "height": null, "height_m": null, "levels": null, "tract_id": "40115574400", "tract_name": "5744", "tags": {"building": "yes"}}}, {"type": "Feature", "geometry": {"type": "Polygon", "coordinates": [[[-94.8850238, 36.8805152], [-94.8850234, 36.8803596], [-94.8849266, 36.8803598], [-94.8849267, 36.8804144], [-94.8849059, 36.8804144], [-94.8849061, 36.8805154], [-94.8850238, 36.8805152]]]}, "properties": {"osm_id": 1392361995, "building": "yes", "name": "", "height": null, "height_m": null, "levels": null, "tract_id": "40115574400", "tract_name": "5744", "tags": {"building": "yes"}}}, {"type": "Feature", "geometry": {"type": "Polygon", "coordinates": [[[-94.884874, 36.8804271], [-94.8848734, 36.8803598], [-94.8847804, 36.8803603], [-94.884781, 36.8804276], [-94.884874, 36.8804271]]]}, "properties": {"osm_id": 1392361996, "building": "yes", "name": "", "height": null, "height_m": null, "levels": null, "tract_id": "40115574400", "tract_name": "5744", "tags": {"building": "yes"}}}, {"type": "Feature", "geometry": {"type": "Polygon", "coordinates": [[[-94.884513, 36.8803651], [-94.8845134, 36.88043], [-94.8844383, 36.8804303], [-94.8844383, 36.8804456], [-94.8844137, 36.8804456], [-94.8844139, 36.8804691], [-94.8843089, 36.8804695], [-94.8843085, 36.8804003], [-94.884299, 36.8804003], [-94.8842988, 36.8803659], [-94.884513, 36.8803651]]]}, "properties": {"osm_id": 1392361997, "building": "yes", "name": "", "height": null, "height_m": null, "levels": null, "tract_id": "40115574400", "tract_name": "5744", "tags": {"building": "yes"}}}]}