{"type": "FeatureCollection", "features": [{"type": "Feature", "geometry": {"type": "Polygon", "coordinates": [[[-98.6326846, 36.8071149], [-98.632405, 36.8071103], [-98.6324091, 36.8069932], [-98.6324096, 36.8069293], [-98.6323669, 36.8069286], [-98.6323698, 36.8068167], [-98.6324125, 36.8068174], [-98.6324138, 36.8067678], [-98.6326975, 36.8067637], [-98.6326856, 36.8069773], [-98.6326846, 36.8071149]]]}, "properties": {"osm_id": 376968964, "building": "yes", "name": "", "height": null, "height_m": null, "levels": null, "tract_id": "40151954300", "tract_name": "9543", "tags": {"building": "yes"}}}, {"type": "Feature", "geometry": {"type": "Polygon", "coordinates": [[[-98.6309593, 36.8054711], [-98.6308089, 36.8054735], [-98.6308006, 36.8051351], [-98.6309509, 36.8051327], [-98.6309593, 36.8054711]]]}, "properties": {"osm_id": 376968965, "building": "yes", "name": "", "height": null, "height_m": null, "levels": null, "tract_id": "40151954300", "tract_name": "9543", "tags": {"building": "yes"}}}, {"type": "Feature", "geometry": {"type": "Polygon", "coordinates": [[[-98.6335806, 36.8055193], [-98.6335168, 36.8055194], [-98.6335166, 36.8054348], [-98.6335805, 36.8054347], [-98.6335806, 36.8055193]]]}, "properties": {"osm_id": 376968966, "building": "yes", "name": "", "height": null, "height_m": null, "levels": null, "tract_id": "40151954300", "tract_name": "9543", "tags": {"building": "yes"}}}, {"type": "Feature", "geometry": {"type": "Polygon", "coordinates": [[[-98.6337214, 36.8055321], [-98.6336, 36.8055322], [-98.6335998, 36.8054356], [-98.6337213, 36.8054355], [-98.6337214, 36.8055321]]]}, "properties": {"osm_id": 376968967, "building": "yes", "name": "", "height": null, "height_m": null, "levels": null, "tract_id": "40151954300", "tract_name": "9543", "tags": {"building": "yes"}}}, {"type": "Feature", "geometry": {"type": "Polygon", "coordinates": [[[-98.6308792, 36.8083874], [-98.6307636, 36.808386], [-98.630769, 36.8081102], [-98.6308845, 36.8081116], [-98.6308792, 36.8083874]]]}, "properties": {"osm_id": 376968968, "building": "yes", "name": "", "height": null, "height_m": null, "levels": null, "tract_id": "40151954300", "tract_name": "9543", "tags": {"building": "yes"}}}, {"type": "Feature", "geometry": {"type": "Polygon", "coordinates": [[[-98.6334346, 36.8062376], [-98.6325795, 36.8062383], [-98.6325791, 36.8060018], [-98.6334343, 36.8060011], [-98.6334346, 36.8062376]]]}, "properties": {"osm_id": 376968969, "building": "yes", "name": "", "height": null, "height_m": null, "levels": null, "tract_id": "40151954300", "tract_name": "9543", "tags": {"building": "yes"}}}, {"type": "Feature", "geometry": {"type": "Polygon", "coordinates": [[[-98.6326498, 36.8051324], [-98.6324889, 36.8051325], [-98.6324886, 36.8049158], [-98.6326495, 36.8049156], [-98.6326498, 36.8051324]]]}, "properties": {"osm_id": 376968970, "building": "yes", "name": "", "height": null, "height_m": null, "levels": null, "tract_id": "40151954300", "tract_name": "9543", "tags": {"building": "yes"}}}, {"type": "Feature", "geometry": {"type": "Polygon", "coordinates": [[[-98.6319825, 36.8055756], [-98.6318033, 36.8055752], [-98.6318042, 36.8053163], [-98.6319834, 36.8053167], [-98.6319825, 36.8055756]]]}, "properties": {"osm_id": 376968971, "building": "yes", "name": "", "height": null, "height_m": null, "levels": null, "tract_id": "40151954300", "tract_name": "9543", "tags": {"building": "yes"}}}, {"type": "Feature", "geometry": {"type": "Polygon", "coordinates": [[[-98.63248, 36.8066911], [-98.6324808, 36.8062916], [-98.6329778, 36.8062922], [-98.632977, 36.8066916], [-98.63248, 36.8066911]]]}, "properties": {"osm_id": 376968972, "building": "yes", "name": "", "height": null, "height_m": null, "levels": null, "tract_id": "40151954300", "tract_name": "9543", "tags": {"building": "yes"}}}, {"type": "Feature", "geometry": {"type": "Polygon", "coordinates": [[[-98.6315643, 36.8055756], [-98.6313509, 36.8055705], [-98.6313565, 36.8054208], [-98.6315699, 36.8054259], [-98.6315643, 36.8055756]]]}, "properties": {"osm_id": 376968974, "building": "yes", "name": "", "height": null, "height_m": null, "levels": null, "tract_id": "40151954300", "tract_name": "9543", "tags": {"building": "yes"}}}, {"type": "Feature", "geometry": {"type": "Polygon", "coordinates": [[[-98.6331849, 36.8055834], [-98.6325131, 36.805584], [-98.6325129, 36.8054348], [-98.6331847, 36.8054342], [-98.6331849, 36.8055834]]]}, "properties": {"osm_id": 376968976, "building": "yes", "name": "", "height": null, "height_m": null, "levels": null, "tract_id": "40151954300", "tract_name": "9543", "tags": {"building": "yes"}}}, {"type": "Feature", "geometry": {"type": "Polygon", "coordinates": [[[-98.6315231, 36.8071127], [-98.6314096, 36.8071114], [-98.6314129, 36.8069347], [-98.6315264, 36.806936], [-98.6315259, 36.8070441], [-98.6315231, 36.8071127]]]}, "properties": {"osm_id": 376968978, "building": "yes", "name": "", "height": null, "height_m": null, "levels": null, "tract_id": "40151954300", "tract_name": "9543", "tags": {"building": "yes"}}}, {"type": "Feature", "geometry": {"type": "Polygon", "coordinates": [[[-98.631705, 36.8071135], [-98.6315895, 36.8071127], [-98.6315915, 36.8069346], [-98.6317069, 36.8069354], [-98.6317677, 36.8070301], [-98.631705, 36.8071135]]]}, "properties": {"osm_id": 376968981, "building": "yes", "name": "", "height": null, "height_m": null, "levels": null, "tract_id": "40151954300", "tract_name": "9543", "tags": {"building": "yes"}}}, {"type": "Feature", "geometry": {"type": "Polygon", "coordinates": [[[-98.631585, 36.8058809], [-98.6315864, 36.805717], [-98.6320957, 36.8057197], [-98.6320943, 36.8058837], [-98.631802, 36.8058815], [-98.631585, 36.8058809]]]}, "properties": {"osm_id": 376968982, "building": "yes", "name": "", "height": null, "height_m": null, "levels": null, "tract_id": "40151954300", "tract_name": "9543", "tags": {"building": "yes"}}}, {"type": "Feature", "geometry": {"type": "Polygon", "coordinates": [[[-98.6335892, 36.8066379], [-98.6332323, 36.8066307], [-98.6332411, 36.8063505], [-98.6334361, 36.8063545], [-98.6335981, 36.8063578], [-98.6335892, 36.8066379]]]}, "properties": {"osm_id": 376968985, "building": "yes", "name": "", "height": null, "height_m": null, "levels": null, "tract_id": "40151954300", "tract_name": "9543", "tags": {"building": "yes"}}}, {"type": "Feature", "geometry": {"type": "Polygon", "coordinates": [[[-98.6313581, 36.8071132], [-98.6312445, 36.8071118], [-98.6312478, 36.8069351], [-98.6313614, 36.8069365], [-98.631359, 36.8070653], [-98.6313581, 36.8071132]]]}, "properties": {"osm_id": 376968986, "building": "yes", "name": "", "height": null, "height_m": null, "levels": null, "tract_id": "40151954300", "tract_name": "9543", "tags": {"building": "yes"}}}, {"type": "Feature", "geometry": {"type": "Polygon", "coordinates": [[[-98.6312044, 36.8071113], [-98.6310908, 36.8071099], [-98.6310926, 36.8070178], [-98.6310941, 36.8069332], [-98.6312077, 36.8069346], [-98.6312044, 36.8071113]]]}, "properties": {"osm_id": 376968989, "building": "yes", "name": "", "height": null, "height_m": null, "levels": null, "tract_id": "40151954300", "tract_name": "9543", "tags": {"building": "yes"}}}, {"type": "Feature", "geometry": {"type": "Polygon", "coordinates": [[[-98.6321701, 36.8062646], [-98.6318289, 36.8062665], [-98.6317256, 36.8062665], [-98.6317243, 36.806065], [-98.6318177, 36.8060649], [-98.6321688, 36.8060632], [-98.6321701, 36.8062646]]]}, "properties": {"osm_id": 376968990, "building": "yes", "name": "", "height": null, "height_m": null, "levels": null, "tract_id": "40151954300", "tract_name": "9543", "tags": {"building": "yes"}}}, {"type": "Feature", "geometry": {"type": "Polygon", "coordinates": [[[-98.63314, 36.8070463], [-98.6328581, 36.807043], [-98.6328559, 36.8069675], [-98.6328632, 36.8067629], [-98.6330103, 36.8067646], [-98.6331451, 36.8067662], [-98.6331374, 36.8069514], [-98.63314, 36.8070463]]]}, "properties": {"osm_id": 376968992, "building": "yes", "name": "", "height": null, "height_m": null, "levels": null, "tract_id": "40151954300", "tract_name": "9543", "tags": {"building": "yes"}}}, {"type": "Feature", "geometry": {"type": "Polygon", "coordinates": [[[-98.632049, 36.8071155], [-98.6318702, 36.8071119], [-98.6317681, 36.8071104], [-98.6317677, 36.8070301], [-98.6317649, 36.8067603], [-98.6318507, 36.8067608], [-98.6320512, 36.8067622], [-98.632048, 36.807014], [-98.632049, 36.8071155]]]}, "properties": {"osm_id": 376968993, "building": "yes", "name": "", "height": null, "height_m": null, "levels": null, "tract_id": "40151954300", "tract_name": "9543", "tags": {"building": "yes"}}}, {"type": "Feature", "geometry": {"type": "Polygon", "coordinates": [[[-98.6335734, 36.8071192], [-98.6332937, 36.8071135], [-98.6333001, 36.806942], [-98.633261, 36.8069334], [-98.6332646, 36.8068172], [-98.6333031, 36.806818], [-98.6333047, 36.806765], [-98.6335844, 36.8067706], [-98.6335821, 36.8069258], [-98.6335734, 36.8071192]]]}, "properties": {"osm_id": 376968994, "building": "yes", "name": "", "height": null, "height_m": null, "levels": null, "tract_id": "40151954300", "tract_name": "9543", "tags": {"building": "yes"}}}, {"type": "Feature", "geometry": {"type": "Polygon", "coordinates": [[[-98.6308832, 36.8077213], [-98.6308779, 36.8079318], [-98.6307694, 36.80793], [-98.6307748, 36.8077196], [-98.6308832, 36.8077213]]]}, "properties": {"osm_id": 508423694, "building": "yes", "name": "", "height": null, "height_m": null, "levels": null, "tract_id": "40151954300", "tract_name": "9543", "tags": {"building": "yes"}}}, {"type": "Feature", "geometry": {"type": "Polygon", "coordinates": [[[-98.6476041, 36.797826], [-98.6476095, 36.7984328], [-98.6473817, 36.7984341], [-98.6473764, 36.7978273], [-98.6476041, 36.797826]]]}, "properties": {"osm_id": 508423698, "building": "yes", "name": "Americas Best Value Inn", "height": null, "height_m": null, "levels": null, "tract_id": "40151954300", "tract_name": "9543", "tags": {"brand": "Americas Best Value Inn", "brand:wikidata": "Q4742512", "building": "yes", "name": "Americas Best Value Inn", "operator": "Shree Veer", "tourism": "motel"}}}, {"type": "Feature", "geometry": {"type": "Polygon", "coordinates": [[[-98.6516208, 36.7969422], [-98.6516154, 36.797346], [-98.6514082, 36.7973442], [-98.6514135, 36.7969404], [-98.6516208, 36.7969422]]]}, "properties": {"osm_id": 508423699, "building": "yes", "name": "Cancun Mexican Grill", "height": null, "height_m": null, "levels": null, "tract_id": "40151954300", "tract_name": "9543", "tags": {"addr:city": "Alva", "addr:housenumber": "503", "addr:postcode": "73717", "addr:state": "OK", "addr:street": "East Oklahoma Boulevard", "amenity": "restaurant", "building": "yes", "contact:phone": "+1 580-748-8032", "name": "Cancun Mexican Grill", "website": "https://www.cancunmexicangrillok.com/"}}}, {"type": "Feature", "geometry": {"type": "Polygon", "coordinates": [[[-98.652707, 36.7971269], [-98.6521545, 36.7971205], [-98.6521595, 36.7968477], [-98.652712, 36.7968541], [-98.652707, 36.7971269]]]}, "properties": {"osm_id": 508423700, "building": "yes", "name": "", "height": null, "height_m": null, "levels": null, "tract_id": "40151954300", "tract_name": "9543", "tags": {"building": "yes", "shop": "car_repair"}}}, {"type": "Feature", "geometry": {"type": "Polygon", "coordinates": [[[-98.6487015, 36.7950507], [-98.6487045, 36.7954231], [-98.6486147, 36.7954236], [-98.6486118, 36.7950511], [-98.6487015, 36.7950507]]]}, "properties": {"osm_id": 508423701, "building": "yes", "name": "", "height": null, "height_m": null, "levels": null, "tract_id": "40151954300", "tract_name": "9543", "tags": {"building": "yes"}}}, {"type": "Feature", "geometry": {"type": "Polygon", "coordinates": [[[-98.6483887, 36.7956277], [-98.6483914, 36.7958941], [-98.6482709, 36.7958948], [-98.6482682, 36.7956285], [-98.6483887, 36.7956277]]]}, "properties": {"osm_id": 508423702, "building": "warehouse", "name": "", "height": null, "height_m": null, "levels": null, "tract_id": "40151954300", "tract_name": "9543", "tags": {"building": "warehouse"}}}, {"type": "Feature", "geometry": {"type": "Polygon", "coordinates": [[[-98.6486958, 36.7949597], [-98.6483391, 36.794964], [-98.6483338, 36.7946826], [-98.6486905, 36.7946783], [-98.6486958, 36.7949597]]]}, "properties": {"osm_id": 508423703, "building": "yes", "name": "", "height": null, "height_m": null, "levels": null, "tract_id": "40151954300", "tract_name": "9543", "tags": {"building": "yes"}}}, {"type": "Feature", "geometry": {"type": "Polygon", "coordinates": [[[-98.6484725, 36.7953485], [-98.6482982, 36.7953485], [-98.6482982, 36.7950741], [-98.6484725, 36.7950741], [-98.6484725, 36.7953485]]]}, "properties": {"osm_id": 508423704, "building": "yes", "name": "", "height": null, "height_m": null, "levels": null, "tract_id": "40151954300", "tract_name": "9543", "tags": {"building": "yes"}}}, {"type": "Feature", "geometry": {"type": "Polygon", "coordinates": [[[-98.6666603, 36.8074612], [-98.6666609, 36.8076281], [-98.6665146, 36.8076284], [-98.666514, 36.8074615], [-98.6666603, 36.8074612]]]}, "properties": {"osm_id": 508423705, "building": "yes", "name": "", "height": null, "height_m": null, "levels": null, "tract_id": "40151954300", "tract_name": "9543", "tags": {"building": "yes"}}}, {"type": "Feature", "geometry": {"type": "Polygon", "coordinates": [[[-98.6650653, 36.8075055], [-98.665068, 36.8077793], [-98.6648925, 36.8077804], [-98.6648898, 36.8075066], [-98.6650653, 36.8075055]]]}, "properties": {"osm_id": 508423706, "building": "yes", "name": "", "height": null, "height_m": null, "levels": null, "tract_id": "40151954300", "tract_name": "9543", "tags": {"building": "yes"}}}, {"type": "Feature", "geometry": {"type": "Polygon", "coordinates": [[[-98.6645034, 36.8075774], [-98.6642164, 36.8075774], [-98.6642164, 36.807411], [-98.6645034, 36.807411], [-98.6645034, 36.8075774]]]}, "properties": {"osm_id": 508423707, "building": "yes", "name": "", "height": null, "height_m": null, "levels": null, "tract_id": "40151954300", "tract_name": "9543", "tags": {"building": "yes"}}}, {"type": "Feature", "geometry": {"type": "Polygon", "coordinates": [[[-98.6621052, 36.8015552], [-98.6624174, 36.8015502], [-98.6624233, 36.8017902], [-98.6622744, 36.8017926], [-98.6622737, 36.8017674], [-98.6622445, 36.8017679], [-98.6622481, 36.8019127], [-98.6621141, 36.8019148], [-98.6621052, 36.8015552]]]}, "properties": {"osm_id": 508423708, "building": "church", "name": "", "height": null, "height_m": null, "levels": null, "tract_id": "40151954300", "tract_name": "9543", "tags": {"building": "church"}}}, {"type": "Feature", "geometry": {"type": "Polygon", "coordinates": [[[-98.6627578, 36.8031712], [-98.6628677, 36.8031694], [-98.6628774, 36.8035525], [-98.6627674, 36.8035543], [-98.6627578, 36.8031712]]]}, "properties": {"osm_id": 508423709, "building": "yes", "name": "", "height": null, "height_m": null, "levels": null, "tract_id": "40151954300", "tract_name": "9543", "tags": {"building": "yes"}}}, {"type": "Feature", "geometry": {"type": "Polygon", "coordinates": [[[-98.6633056, 36.8027123], [-98.6633059, 36.8030139], [-98.6631182, 36.8030141], [-98.6631178, 36.8027125], [-98.6633056, 36.8027123]]]}, "properties": {"osm_id": 508423710, "building": "yes", "name": "", "height": null, "height_m": null, "levels": null, "tract_id": "40151954300", "tract_name": "9543", "tags": {"building": "yes"}}}, {"type": "Feature", "geometry": {"type": "Polygon", "coordinates": [[[-98.6683602, 36.8054844], [-98.6677433, 36.8054848], [-98.6677428, 36.8050556], [-98.6683597, 36.8050551], [-98.6683602, 36.8054844]]]}, "properties": {"osm_id": 508423711, "building": "yes", "name": "", "height": null, "height_m": null, "levels": null, "tract_id": "40151954300", "tract_name": "9543", "tags": {"building": "yes"}}}, {"type": "Feature", "geometry": {"type": "Polygon", "coordinates": [[[-98.6548153, 36.8053494], [-98.6546332, 36.8053481], [-98.6546372, 36.8049659], [-98.6548193, 36.8049671], [-98.6548153, 36.8053494]]]}, "properties": {"osm_id": 508423712, "building": "yes", "name": "", "height": null, "height_m": null, "levels": null, "tract_id": "40151954300", "tract_name": "9543", "tags": {"building": "yes"}}}, {"type": "Feature", "geometry": {"type": "Polygon", "coordinates": [[[-98.6649433, 36.7799167], [-98.6649309, 36.77963], [-98.6654754, 36.779615], [-98.6654878, 36.7799017], [-98.6649433, 36.7799167]]]}, "properties": {"osm_id": 508423725, "building": "yes", "name": "", "height": null, "height_m": null, "levels": null, "tract_id": "40151954300", "tract_name": "9543", "tags": {"building": "yes"}}}, {"type": "Feature", "geometry": {"type": "Polygon", "coordinates": [[[-98.6650144, 36.8086426], [-98.6649127, 36.8086445], [-98.6649087, 36.8085076], [-98.6650103, 36.8085057], [-98.6650144, 36.8086426]]]}, "properties": {"osm_id": 508423776, "building": "yes", "name": "", "height": null, "height_m": null, "levels": null, "tract_id": "40151954300", "tract_name": "9543", "tags": {"building": "yes"}}}, {"type": "Feature", "geometry": {"type": "Polygon", "coordinates": [[[-98.6676469, 36.8074593], [-98.6676469, 36.8077879], [-98.6674753, 36.8077879], [-98.6674753, 36.8074593], [-98.6676469, 36.8074593]]]}, "properties": {"osm_id": 508423777, "building": "yes", "name": "", "height": null, "height_m": null, "levels": null, "tract_id": "40151954300", "tract_name": "9543", "tags": {"building": "yes"}}}, {"type": "Feature", "geometry": {"type": "Polygon", "coordinates": [[[-98.6680707, 36.8082002], [-98.6676537, 36.8082002], [-98.6676537, 36.8081283], [-98.6680707, 36.8081283], [-98.6680707, 36.8082002]]]}, "properties": {"osm_id": 508423778, "building": "yes", "name": "", "height": null, "height_m": null, "levels": null, "tract_id": "40151954300", "tract_name": "9543", "tags": {"building": "yes"}}}, {"type": "Feature", "geometry": {"type": "Polygon", "coordinates": [[[-98.6655468, 36.8097142], [-98.6653067, 36.8097464], [-98.6652882, 36.8096578], [-98.6655282, 36.8096256], [-98.6655468, 36.8097142]]]}, "properties": {"osm_id": 508423783, "building": "yes", "name": "", "height": null, "height_m": null, "levels": null, "tract_id": "40151954300", "tract_name": "9543", "tags": {"building": "yes"}}}, {"type": "Feature", "geometry": {"type": "Polygon", "coordinates": [[[-98.6660256, 36.8093899], [-98.6658016, 36.8094146], [-98.6657816, 36.8092985], [-98.6660056, 36.8092738], [-98.6660256, 36.8093899]]]}, "properties": {"osm_id": 508423784, "building": "yes", "name": "", "height": null, "height_m": null, "levels": null, "tract_id": "40151954300", "tract_name": "9543", "tags": {"building": "yes"}}}, {"type": "Feature", "geometry": {"type": "Polygon", "coordinates": [[[-98.6666478, 36.809289], [-98.6661261, 36.8093448], [-98.6661103, 36.80925], [-98.666632, 36.8091942], [-98.6666478, 36.809289]]]}, "properties": {"osm_id": 508423785, "building": "yes", "name": "", "height": null, "height_m": null, "levels": null, "tract_id": "40151954300", "tract_name": "9543", "tags": {"building": "yes"}}}, {"type": "Feature", "geometry": {"type": "Polygon", "coordinates": [[[-98.6689612, 36.8079844], [-98.6686125, 36.8079823], [-98.6686139, 36.8078424], [-98.6689626, 36.8078445], [-98.6689612, 36.8079844]]]}, "properties": {"osm_id": 508423788, "building": "yes", "name": "", "height": null, "height_m": null, "levels": null, "tract_id": "40151954300", "tract_name": "9543", "tags": {"building": "yes"}}}, {"type": "Feature", "geometry": {"type": "Polygon", "coordinates": [[[-98.6442943, 36.8057392], [-98.6440328, 36.8057392], [-98.6440328, 36.8054546], [-98.6442943, 36.8054546], [-98.6442943, 36.8057392]]]}, "properties": {"osm_id": 664197266, "building": "yes", "name": "", "height": null, "height_m": null, "levels": null, "tract_id": "40151954300", "tract_name": "9543", "tags": {"building": "yes"}}}, {"type": "Feature", "geometry": {"type": "Polygon", "coordinates": [[[-98.6461732, 36.8050906], [-98.6461759, 36.8053719], [-98.6459939, 36.805373], [-98.6459912, 36.8050917], [-98.6461732, 36.8050906]]]}, "properties": {"osm_id": 664197268, "building": "yes", "name": "", "height": null, "height_m": null, "levels": null, "tract_id": "40151954300", "tract_name": "9543", "tags": {"building": "yes"}}}, {"type": "Feature", "geometry": {"type": "Polygon", "coordinates": [[[-98.6495997, 36.8057263], [-98.6495997, 36.8059174], [-98.6494589, 36.8059174], [-98.6494589, 36.8057263], [-98.6495997, 36.8057263]]]}, "properties": {"osm_id": 664197270, "building": "yes", "name": "", "height": null, "height_m": null, "levels": null, "tract_id": "40151954300", "tract_name": "9543", "tags": {"building": "yes"}}}, {"type": "Feature", "geometry": {"type": "Polygon", "coordinates": [[[-98.6489157, 36.8061842], [-98.6487863, 36.8061896], [-98.6487796, 36.8060855], [-98.648909, 36.8060801], [-98.6489157, 36.8061842]]]}, "properties": {"osm_id": 664197272, "building": "yes", "name": "", "height": null, "height_m": null, "levels": null, "tract_id": "40151954300", "tract_name": "9543", "tags": {"building": "yes"}}}, {"type": "Feature", "geometry": {"type": "Polygon", "coordinates": [[[-98.6489305, 36.8064167], [-98.648508, 36.8064468], [-98.6484901, 36.806285], [-98.6489125, 36.8062549], [-98.6489305, 36.8064167]]]}, "properties": {"osm_id": 664197274, "building": "yes", "name": "", "height": null, "height_m": null, "levels": null, "tract_id": "40151954300", "tract_name": "9543", "tags": {"building": "yes"}}}, {"type": "Feature", "geometry": {"type": "Polygon", "coordinates": [[[-98.6560652, 36.8049875], [-98.6560617, 36.805337], [-98.6559854, 36.8053365], [-98.6559889, 36.804987], [-98.6560652, 36.8049875]]]}, "properties": {"osm_id": 664197284, "building": "warehouse", "name": "", "height": null, "height_m": null, "levels": null, "tract_id": "40151954300", "tract_name": "9543", "tags": {"building": "warehouse"}}}, {"type": "Feature", "geometry": {"type": "Polygon", "coordinates": [[[-98.6537491, 36.8044656], [-98.6537504, 36.8046084], [-98.6536312, 36.8046092], [-98.6536299, 36.8044663], [-98.6537491, 36.8044656]]]}, "properties": {"osm_id": 664197286, "building": "yes", "name": "", "height": null, "height_m": null, "levels": null, "tract_id": "40151954300", "tract_name": "9543", "tags": {"building": "yes"}}}, {"type": "Feature", "geometry": {"type": "Polygon", "coordinates": [[[-98.6533243, 36.804314], [-98.6533162, 36.8046651], [-98.6531361, 36.8046624], [-98.6531443, 36.8043113], [-98.6533243, 36.804314]]]}, "properties": {"osm_id": 664197288, "building": "yes", "name": "", "height": null, "height_m": null, "levels": null, "tract_id": "40151954300", "tract_name": "9543", "tags": {"building": "yes"}}}, {"type": "Feature", "geometry": {"type": "Polygon", "coordinates": [[[-98.6503828, 36.7996334], [-98.6501207, 36.7996307], [-98.6501228, 36.7994979], [-98.650385, 36.7995006], [-98.6503828, 36.7996334]]]}, "properties": {"osm_id": 664197293, "building": "yes", "name": "", "height": null, "height_m": null, "levels": null, "tract_id": "40151954300", "tract_name": "9543", "tags": {"building": "yes"}}}, {"type": "Feature", "geometry": {"type": "Polygon", "coordinates": [[[-98.6503729, 36.7998994], [-98.6500318, 36.7999027], [-98.6500299, 36.7997826], [-98.6503711, 36.7997792], [-98.6503729, 36.7998994]]]}, "properties": {"osm_id": 664197295, "building": "industrial", "name": "", "height": null, "height_m": null, "levels": null, "tract_id": "40151954300", "tract_name": "9543", "tags": {"building": "industrial", "note": "machine shed"}}}, {"type": "Feature", "geometry": {"type": "Polygon", "coordinates": [[[-98.6503811, 36.799211], [-98.650113, 36.7992089], [-98.650114, 36.7991184], [-98.6503822, 36.7991204], [-98.6503811, 36.799211]]]}, "properties": {"osm_id": 664197297, "building": "yes", "name": "", "height": null, "height_m": null, "levels": null, "tract_id": "40151954300", "tract_name": "9543", "tags": {"building": "yes"}}}, {"type": "Feature", "geometry": {"type": "Polygon", "coordinates": [[[-98.6503781, 36.7993503], [-98.6501279, 36.7993468], [-98.6501306, 36.7992248], [-98.6503808, 36.7992284], [-98.6503781, 36.7993503]]]}, "properties": {"osm_id": 664197299, "building": "yes", "name": "", "height": null, "height_m": null, "levels": null, "tract_id": "40151954300", "tract_name": "9543", "tags": {"building": "yes"}}}, {"type": "Feature", "geometry": {"type": "Polygon", "coordinates": [[[-98.649707, 36.7989343], [-98.6494897, 36.7989332], [-98.6494907, 36.7988126], [-98.6497079, 36.7988137], [-98.649707, 36.7989343]]]}, "properties": {"osm_id": 664197301, "building": "yes", "name": "", "height": null, "height_m": null, "levels": null, "tract_id": "40151954300", "tract_name": "9543", "tags": {"building": "yes"}}}, {"type": "Feature", "geometry": {"type": "Polygon", "coordinates": [[[-98.6523463, 36.7981009], [-98.6518742, 36.7980977], [-98.651875, 36.7980235], [-98.6523471, 36.7980267], [-98.6523463, 36.7981009]]]}, "properties": {"osm_id": 664197303, "building": "yes", "name": "", "height": null, "height_m": null, "levels": null, "tract_id": "40151954300", "tract_name": "9543", "tags": {"building": "yes"}}}, {"type": "Feature", "geometry": {"type": "Polygon", "coordinates": [[[-98.652345, 36.7998681], [-98.6519155, 36.7998629], [-98.6519178, 36.7997411], [-98.6523473, 36.7997463], [-98.652345, 36.7998681]]]}, "properties": {"osm_id": 664197305, "building": "warehouse", "name": "", "height": null, "height_m": null, "levels": null, "tract_id": "40151954300", "tract_name": "9543", "tags": {"building": "warehouse"}}}, {"type": "Feature", "geometry": {"type": "Polygon", "coordinates": [[[-98.6523331, 36.7994639], [-98.65192, 36.7994625], [-98.6519204, 36.7993983], [-98.6523334, 36.7993997], [-98.6523331, 36.7994639]]]}, "properties": {"osm_id": 664197306, "building": "warehouse", "name": "", "height": null, "height_m": null, "levels": null, "tract_id": "40151954300", "tract_name": "9543", "tags": {"building": "warehouse"}}}, {"type": "Feature", "geometry": {"type": "Polygon", "coordinates": [[[-98.6522626, 36.7996528], [-98.65192, 36.7996515], [-98.6519206, 36.7995395], [-98.6522632, 36.7995407], [-98.6522626, 36.7996528]]]}, "properties": {"osm_id": 664197308, "building": "warehouse", "name": "", "height": null, "height_m": null, "levels": null, "tract_id": "40151954300", "tract_name": "9543", "tags": {"building": "warehouse"}}}, {"type": "Feature", "geometry": {"type": "Polygon", "coordinates": [[[-98.652365, 36.7991039], [-98.6519362, 36.7990989], [-98.6519389, 36.7989488], [-98.6523678, 36.7989538], [-98.652365, 36.7991039]]]}, "properties": {"osm_id": 664197311, "building": "yes", "name": "", "height": null, "height_m": null, "levels": null, "tract_id": "40151954300", "tract_name": "9543", "tags": {"building": "yes"}}}, {"type": "Feature", "geometry": {"type": "Polygon", "coordinates": [[[-98.6523511, 36.7993269], [-98.6519109, 36.7993285], [-98.6519104, 36.7992433], [-98.6523506, 36.7992417], [-98.6523511, 36.7993269]]]}, "properties": {"osm_id": 664197313, "building": "warehouse", "name": "", "height": null, "height_m": null, "levels": null, "tract_id": "40151954300", "tract_name": "9543", "tags": {"building": "warehouse"}}}, {"type": "Feature", "geometry": {"type": "Polygon", "coordinates": [[[-98.6477637, 36.7967285], [-98.6475559, 36.7967242], [-98.6475597, 36.796604], [-98.6477676, 36.7966083], [-98.6477637, 36.7967285]]]}, "properties": {"osm_id": 664197315, "building": "yes", "name": "", "height": null, "height_m": null, "levels": null, "tract_id": "40151954300", "tract_name": "9543", "tags": {"building": "yes"}}}, {"type": "Feature", "geometry": {"type": "Polygon", "coordinates": [[[-98.6472823, 36.7968456], [-98.6470168, 36.796837], [-98.6470251, 36.7966718], [-98.6472906, 36.7966804], [-98.6472823, 36.7968456]]]}, "properties": {"osm_id": 664197316, "building": "yes", "name": "", "height": null, "height_m": null, "levels": null, "tract_id": "40151954300", "tract_name": "9543", "tags": {"building": "yes"}}}, {"type": "Feature", "geometry": {"type": "Polygon", "coordinates": [[[-98.6437458, 36.7987807], [-98.6437404, 36.7990728], [-98.6434604, 36.7990695], [-98.6434658, 36.7987774], [-98.6437458, 36.7987807]]]}, "properties": {"osm_id": 664197318, "building": "yes", "name": "", "height": null, "height_m": null, "levels": null, "tract_id": "40151954300", "tract_name": "9543", "tags": {"building": "yes"}}}, {"type": "Feature", "geometry": {"type": "Polygon", "coordinates": [[[-98.6456882, 36.7998976], [-98.6443757, 36.7998973], [-98.6443759, 36.7994096], [-98.6443279, 36.7994096], [-98.644328, 36.7991037], [-98.6451396, 36.7991039], [-98.6451396, 36.7990932], [-98.6452602, 36.7990933], [-98.6453817, 36.7990933], [-98.6453817, 36.7991051], [-98.6456884, 36.7991051], [-98.6456882, 36.7998598], [-98.6456882, 36.7998976]]]}, "properties": {"osm_id": 664197320, "building": "retail", "name": "Walmart Supercenter", "height": null, "height_m": null, "levels": null, "tract_id": "40151954300", "tract_name": "9543", "tags": {"addr:city": "Alva", "addr:country": "US", "addr:housenumber": "914", "addr:postcode": "73717", "addr:state": "OK", "addr:street": "East Oklahoma Boulevard", "brand": "Walmart", "brand:wikidata": "Q483551", "building": "retail", "name": "Walmart Supercenter", "opening_hours": "24/7", "payment:app:walmart": "yes", "payment:apple_pay": "no", "payment:google_pay": "no", "payment:samsung_pay": "no", "phone": "+1-580-327-4021", "sensory_friendly:accommodation": "dimmed_light;static_screens;no_pa", "sensory_friendly:conditional": "yes @ 08:00-10:00", "shop": "supermarket", "website": "https://www.walmart.com/store/178-alva-ok"}}}, {"type": "Feature", "geometry": {"type": "Polygon", "coordinates": [[[-98.6532824, 36.798828], [-98.6531174, 36.7988301], [-98.6531137, 36.798647], [-98.6532787, 36.7986448], [-98.6532824, 36.798828]]]}, "properties": {"osm_id": 664197372, "building": "yes", "name": "", "height": null, "height_m": null, "levels": null, "tract_id": "40151954300", "tract_name": "9543", "tags": {"building": "yes"}}}, {"type": "Feature", "geometry": {"type": "Polygon", "coordinates": [[[-98.6501187, 36.7978991], [-98.6499658, 36.7978991], [-98.6499658, 36.7978475], [-98.6501187, 36.7978475], [-98.6501187, 36.7978991]]]}, "properties": {"osm_id": 664197374, "building": "yes", "name": "", "height": null, "height_m": null, "levels": null, "tract_id": "40151954300", "tract_name": "9543", "tags": {"building": "yes"}}}, {"type": "Feature", "geometry": {"type": "Polygon", "coordinates": [[[-98.6503749, 36.7982663], [-98.6503722, 36.7984092], [-98.6502298, 36.7984074], [-98.6502324, 36.7982646], [-98.6503749, 36.7982663]]]}, "properties": {"osm_id": 664197375, "building": "yes", "name": "", "height": null, "height_m": null, "levels": null, "tract_id": "40151954300", "tract_name": "9543", "tags": {"building": "yes"}}}, {"type": "Feature", "geometry": {"type": "Polygon", "coordinates": [[[-98.6497767, 36.7984467], [-98.6496265, 36.7984473], [-98.649626, 36.7983577], [-98.6497762, 36.7983571], [-98.6497767, 36.7984467]]]}, "properties": {"osm_id": 664197377, "building": "yes", "name": "", "height": null, "height_m": null, "levels": null, "tract_id": "40151954300", "tract_name": "9543", "tags": {"building": "yes"}}}, {"type": "Feature", "geometry": {"type": "Polygon", "coordinates": [[[-98.6488152, 36.7971581], [-98.6486971, 36.7971527], [-98.6487058, 36.7970306], [-98.6488238, 36.7970359], [-98.6488152, 36.7971581]]]}, "properties": {"osm_id": 664197379, "building": "yes", "name": "", "height": null, "height_m": null, "levels": null, "tract_id": "40151954300", "tract_name": "9543", "tags": {"building": "yes"}}}, {"type": "Feature", "geometry": {"type": "Polygon", "coordinates": [[[-98.6514779, 36.7965862], [-98.6512727, 36.7965846], [-98.6512739, 36.7964882], [-98.6514791, 36.7964898], [-98.6514779, 36.7965862]]]}, "properties": {"osm_id": 664197381, "building": "yes", "name": "", "height": null, "height_m": null, "levels": null, "tract_id": "40151954300", "tract_name": "9543", "tags": {"building": "yes"}}}, {"type": "Feature", "geometry": {"type": "Polygon", "coordinates": [[[-98.6512352, 36.7965776], [-98.6510602, 36.7965755], [-98.6510619, 36.7964833], [-98.6512369, 36.7964854], [-98.6512352, 36.7965776]]]}, "properties": {"osm_id": 664197383, "building": "yes", "name": "", "height": null, "height_m": null, "levels": null, "tract_id": "40151954300", "tract_name": "9543", "tags": {"building": "yes"}}}, {"type": "Feature", "geometry": {"type": "Polygon", "coordinates": [[[-98.6530986, 36.7963725], [-98.6530973, 36.7965406], [-98.6529738, 36.7965399], [-98.6529752, 36.7963719], [-98.6530986, 36.7963725]]]}, "properties": {"osm_id": 664197385, "building": "yes", "name": "", "height": null, "height_m": null, "levels": null, "tract_id": "40151954300", "tract_name": "9543", "tags": {"building": "yes"}}}, {"type": "Feature", "geometry": {"type": "Polygon", "coordinates": [[[-98.6544394, 36.7978037], [-98.6544366, 36.7982155], [-98.6541654, 36.7982144], [-98.6541681, 36.7978026], [-98.6544394, 36.7978037]]]}, "properties": {"osm_id": 664197386, "building": "yes", "name": "", "height": null, "height_m": null, "levels": null, "tract_id": "40151954300", "tract_name": "9543", "tags": {"building": "yes"}}}, {"type": "Feature", "geometry": {"type": "Polygon", "coordinates": [[[-98.6538765, 36.7992554], [-98.6537308, 36.7992588], [-98.6537187, 36.7989334], [-98.6538644, 36.79893], [-98.6538765, 36.7992554]]]}, "properties": {"osm_id": 664197388, "building": "yes", "name": "", "height": null, "height_m": null, "levels": null, "tract_id": "40151954300", "tract_name": "9543", "tags": {"building": "yes"}}}, {"type": "Feature", "geometry": {"type": "Polygon", "coordinates": [[[-98.6555643, 36.7983039], [-98.6554288, 36.7983012], [-98.6554322, 36.7981901], [-98.6555677, 36.7981928], [-98.6555643, 36.7983039]]]}, "properties": {"osm_id": 664197390, "building": "yes", "name": "", "height": null, "height_m": null, "levels": null, "tract_id": "40151954300", "tract_name": "9543", "tags": {"building": "yes"}}}, {"type": "Feature", "geometry": {"type": "Polygon", "coordinates": [[[-98.6566484, 36.7979569], [-98.6564479, 36.7979555], [-98.656449, 36.7978592], [-98.6566495, 36.7978607], [-98.6566484, 36.7979569]]]}, "properties": {"osm_id": 664197392, "building": "yes", "name": "", "height": null, "height_m": null, "levels": null, "tract_id": "40151954300", "tract_name": "9543", "tags": {"building": "yes"}}}, {"type": "Feature", "geometry": {"type": "Polygon", "coordinates": [[[-98.6566231, 36.7972332], [-98.6564112, 36.79723], [-98.6564141, 36.7971072], [-98.656626, 36.7971104], [-98.6566231, 36.7972332]]]}, "properties": {"osm_id": 664197394, "building": "yes", "name": "", "height": null, "height_m": null, "levels": null, "tract_id": "40151954300", "tract_name": "9543", "tags": {"building": "yes"}}}, {"type": "Feature", "geometry": {"type": "Polygon", "coordinates": [[[-98.65667, 36.7969089], [-98.6566727, 36.7970904], [-98.6565242, 36.7970918], [-98.6565216, 36.7969103], [-98.65667, 36.7969089]]]}, "properties": {"osm_id": 664197396, "building": "yes", "name": "", "height": null, "height_m": null, "levels": null, "tract_id": "40151954300", "tract_name": "9543", "tags": {"building": "yes"}}}, {"type": "Feature", "geometry": {"type": "Polygon", "coordinates": [[[-98.6568122, 36.7967339], [-98.6564621, 36.7967231], [-98.6564692, 36.7965751], [-98.6568192, 36.7965858], [-98.6568122, 36.7967339]]]}, "properties": {"osm_id": 664197398, "building": "yes", "name": "", "height": null, "height_m": null, "levels": null, "tract_id": "40151954300", "tract_name": "9543", "tags": {"building": "yes"}}}, {"type": "Feature", "geometry": {"type": "Polygon", "coordinates": [[[-98.6559686, 36.7945688], [-98.6559807, 36.7947084], [-98.6558578, 36.7947153], [-98.6558457, 36.7945756], [-98.6559686, 36.7945688]]]}, "properties": {"osm_id": 664197400, "building": "yes", "name": "", "height": null, "height_m": null, "levels": null, "tract_id": "40151954300", "tract_name": "9543", "tags": {"building": "yes"}}}, {"type": "Feature", "geometry": {"type": "Polygon", "coordinates": [[[-98.6557581, 36.7950553], [-98.6555609, 36.7950586], [-98.6555584, 36.7949611], [-98.6557556, 36.7949579], [-98.6557581, 36.7950553]]]}, "properties": {"osm_id": 664197402, "building": "yes", "name": "", "height": null, "height_m": null, "levels": null, "tract_id": "40151954300", "tract_name": "9543", "tags": {"building": "yes"}}}, {"type": "Feature", "geometry": {"type": "Polygon", "coordinates": [[[-98.6576128, 36.7945366], [-98.6573432, 36.7945388], [-98.6573418, 36.7944252], [-98.6576114, 36.794423], [-98.6576128, 36.7945366]]]}, "properties": {"osm_id": 664197404, "building": "yes", "name": "", "height": null, "height_m": null, "levels": null, "tract_id": "40151954300", "tract_name": "9543", "tags": {"building": "yes"}}}, {"type": "Feature", "geometry": {"type": "Polygon", "coordinates": [[[-98.6657225, 36.7876577], [-98.6655173, 36.7876631], [-98.6655127, 36.7875516], [-98.6657179, 36.7875462], [-98.6657225, 36.7876577]]]}, "properties": {"osm_id": 664197406, "building": "yes", "name": "", "height": null, "height_m": null, "levels": null, "tract_id": "40151954300", "tract_name": "9543", "tags": {"building": "yes"}}}, {"type": "Feature", "geometry": {"type": "Polygon", "coordinates": [[[-98.6658821, 36.7877737], [-98.665878, 36.7879133], [-98.6658044, 36.787912], [-98.6658085, 36.7877724], [-98.6658821, 36.7877737]]]}, "properties": {"osm_id": 664197408, "building": "roof", "name": "", "height": null, "height_m": null, "levels": null, "tract_id": "40151954300", "tract_name": "9543", "tags": {"building": "roof", "layer": "1"}}}, {"type": "Feature", "geometry": {"type": "Polygon", "coordinates": [[[-98.6488929, 36.7823464], [-98.648563, 36.782341], [-98.6485666, 36.7822007], [-98.6488965, 36.782206], [-98.6488929, 36.7823464]]]}, "properties": {"osm_id": 664197416, "building": "yes", "name": "", "height": null, "height_m": null, "levels": null, "tract_id": "40151954300", "tract_name": "9543", "tags": {"building": "yes"}}}, {"type": "Feature", "geometry": {"type": "Polygon", "coordinates": [[[-98.6671735, 36.807091], [-98.6669724, 36.8070857], [-98.6669774, 36.8069646], [-98.6671786, 36.8069699], [-98.6671735, 36.807091]]]}, "properties": {"osm_id": 664197432, "building": "yes", "name": "", "height": null, "height_m": null, "levels": null, "tract_id": "40151954300", "tract_name": "9543", "tags": {"building": "yes"}}}, {"type": "Feature", "geometry": {"type": "Polygon", "coordinates": [[[-98.6676362, 36.8070685], [-98.6674674, 36.8070648], [-98.6674741, 36.8068693], [-98.6676429, 36.8068731], [-98.6676362, 36.8070685]]]}, "properties": {"osm_id": 664197435, "building": "yes", "name": "", "height": null, "height_m": null, "levels": null, "tract_id": "40151954300", "tract_name": "9543", "tags": {"building": "yes"}}}, {"type": "Feature", "geometry": {"type": "Polygon", "coordinates": [[[-98.6675182, 36.8065799], [-98.6675289, 36.8063469], [-98.667702, 36.806352], [-98.6676913, 36.806585], [-98.6675182, 36.8065799]]]}, "properties": {"osm_id": 664197438, "building": "yes", "name": "", "height": null, "height_m": null, "levels": null, "tract_id": "40151954300", "tract_name": "9543", "tags": {"building": "yes"}}}, {"type": "Feature", "geometry": {"type": "Polygon", "coordinates": [[[-98.6672647, 36.8065316], [-98.6669938, 36.8065305], [-98.666995, 36.8063479], [-98.6672659, 36.806349], [-98.6672647, 36.8065316]]]}, "properties": {"osm_id": 664197441, "building": "yes", "name": "", "height": null, "height_m": null, "levels": null, "tract_id": "40151954300", "tract_name": "9543", "tags": {"building": "yes"}}}, {"type": "Feature", "geometry": {"type": "Polygon", "coordinates": [[[-98.6677623, 36.8055636], [-98.6677569, 36.8059067], [-98.6674303, 36.8059034], [-98.6674357, 36.8055603], [-98.6677623, 36.8055636]]]}, "properties": {"osm_id": 664197444, "building": "yes", "name": "", "height": null, "height_m": null, "levels": null, "tract_id": "40151954300", "tract_name": "9543", "tags": {"building": "yes"}}}, {"type": "Feature", "geometry": {"type": "Polygon", "coordinates": [[[-98.6654871, 36.8064661], [-98.6654843, 36.8066015], [-98.6653207, 36.8065994], [-98.6653235, 36.806464], [-98.6654871, 36.8064661]]]}, "properties": {"osm_id": 664197447, "building": "yes", "name": "", "height": null, "height_m": null, "levels": null, "tract_id": "40151954300", "tract_name": "9543", "tags": {"building": "yes"}}}, {"type": "Feature", "geometry": {"type": "Polygon", "coordinates": [[[-98.6649875, 36.8070105], [-98.6648212, 36.8070126], [-98.6648194, 36.8069238], [-98.6649857, 36.8069216], [-98.6649875, 36.8070105]]]}, "properties": {"osm_id": 664197449, "building": "yes", "name": "", "height": null, "height_m": null, "levels": null, "tract_id": "40151954300", "tract_name": "9543", "tags": {"building": "yes"}}}, {"type": "Feature", "geometry": {"type": "Polygon", "coordinates": [[[-98.6647126, 36.8055126], [-98.6647099, 36.8058014], [-98.6645661, 36.8058006], [-98.6645688, 36.8055117], [-98.6647126, 36.8055126]]]}, "properties": {"osm_id": 664197451, "building": "yes", "name": "", "height": null, "height_m": null, "levels": null, "tract_id": "40151954300", "tract_name": "9543", "tags": {"building": "yes"}}}, {"type": "Feature", "geometry": {"type": "Polygon", "coordinates": [[[-98.6643505, 36.8058551], [-98.6642258, 36.8058551], [-98.6642258, 36.805635], [-98.6643505, 36.805635], [-98.6643505, 36.8058551]]]}, "properties": {"osm_id": 664197453, "building": "yes", "name": "", "height": null, "height_m": null, "levels": null, "tract_id": "40151954300", "tract_name": "9543", "tags": {"building": "yes"}}}, {"type": "Feature", "geometry": {"type": "Polygon", "coordinates": [[[-98.6645275, 36.8056414], [-98.6645235, 36.8058594], [-98.6643867, 36.8058578], [-98.6643907, 36.8056398], [-98.6645275, 36.8056414]]]}, "properties": {"osm_id": 664197455, "building": "yes", "name": "", "height": null, "height_m": null, "levels": null, "tract_id": "40151954300", "tract_name": "9543", "tags": {"building": "yes"}}}, {"type": "Feature", "geometry": {"type": "Polygon", "coordinates": [[[-98.6656004, 36.8059206], [-98.665406, 36.8059163], [-98.6654095, 36.8058122], [-98.665604, 36.8058165], [-98.6656004, 36.8059206]]]}, "properties": {"osm_id": 664197457, "building": "yes", "name": "", "height": null, "height_m": null, "levels": null, "tract_id": "40151954300", "tract_name": "9543", "tags": {"building": "yes"}}}, {"type": "Feature", "geometry": {"type": "Polygon", "coordinates": [[[-98.6650184, 36.8056919], [-98.665013, 36.8059056], [-98.6648896, 36.8059036], [-98.6648949, 36.8056899], [-98.6650184, 36.8056919]]]}, "properties": {"osm_id": 664197458, "building": "yes", "name": "", "height": null, "height_m": null, "levels": null, "tract_id": "40151954300", "tract_name": "9543", "tags": {"building": "yes"}}}, {"type": "Feature", "geometry": {"type": "Polygon", "coordinates": [[[-98.6654744, 36.8061815], [-98.6654623, 36.8063695], [-98.6653415, 36.8063645], [-98.6653536, 36.8061766], [-98.6654744, 36.8061815]]]}, "properties": {"osm_id": 664197460, "building": "yes", "name": "", "height": null, "height_m": null, "levels": null, "tract_id": "40151954300", "tract_name": "9543", "tags": {"building": "yes"}}}, {"type": "Feature", "geometry": {"type": "Polygon", "coordinates": [[[-98.6658257, 36.8061901], [-98.6658163, 36.8063963], [-98.6656783, 36.8063923], [-98.6656877, 36.8061861], [-98.6658257, 36.8061901]]]}, "properties": {"osm_id": 664197462, "building": "yes", "name": "", "height": null, "height_m": null, "levels": null, "tract_id": "40151954300", "tract_name": "9543", "tags": {"building": "yes"}}}, {"type": "Feature", "geometry": {"type": "Polygon", "coordinates": [[[-98.665925, 36.8055362], [-98.6659209, 36.8059228], [-98.6658443, 36.8059223], [-98.6658484, 36.8055357], [-98.665925, 36.8055362]]]}, "properties": {"osm_id": 664197464, "building": "yes", "name": "", "height": null, "height_m": null, "levels": null, "tract_id": "40151954300", "tract_name": "9543", "tags": {"building": "yes"}}}, {"type": "Feature", "geometry": {"type": "Polygon", "coordinates": [[[-98.6661007, 36.8056286], [-98.6661007, 36.805926], [-98.6660175, 36.805926], [-98.6660175, 36.8056286], [-98.6661007, 36.8056286]]]}, "properties": {"osm_id": 664197466, "building": "yes", "name": "", "height": null, "height_m": null, "levels": null, "tract_id": "40151954300", "tract_name": "9543", "tags": {"building": "yes"}}}, {"type": "Feature", "geometry": {"type": "Polygon", "coordinates": [[[-98.6342937, 36.7967951], [-98.6342964, 36.7972719], [-98.6342093, 36.7972722], [-98.6342066, 36.7967954], [-98.6342937, 36.7967951]]]}, "properties": {"osm_id": 664460731, "building": "warehouse", "name": "", "height": null, "height_m": null, "levels": null, "tract_id": "40151954300", "tract_name": "9543", "tags": {"building": "warehouse"}}}, {"type": "Feature", "geometry": {"type": "Polygon", "coordinates": [[[-98.6349106, 36.7967908], [-98.6349119, 36.7972268], [-98.6348275, 36.797227], [-98.6348262, 36.796791], [-98.6349106, 36.7967908]]]}, "properties": {"osm_id": 664460732, "building": "warehouse", "name": "", "height": null, "height_m": null, "levels": null, "tract_id": "40151954300", "tract_name": "9543", "tags": {"building": "warehouse"}}}, {"type": "Feature", "geometry": {"type": "Polygon", "coordinates": [[[-98.6314063, 36.7938418], [-98.631134, 36.7938407], [-98.6311349, 36.7937009], [-98.6314071, 36.7937019], [-98.6314063, 36.7938418]]]}, "properties": {"osm_id": 664460733, "building": "yes", "name": "", "height": null, "height_m": null, "levels": null, "tract_id": "40151954300", "tract_name": "9543", "tags": {"building": "yes"}}}, {"type": "Feature", "geometry": {"type": "Polygon", "coordinates": [[[-98.66519, 36.780587], [-98.6655173, 36.780587], [-98.6655173, 36.7810038], [-98.66519, 36.7810038], [-98.66519, 36.780587]]]}, "properties": {"osm_id": 664460849, "building": "yes", "name": "", "height": null, "height_m": null, "levels": null, "tract_id": "40151954300", "tract_name": "9543", "tags": {"building": "yes"}}}, {"type": "Feature", "geometry": {"type": "Polygon", "coordinates": [[[-98.6642352, 36.7812293], [-98.6639267, 36.7812336], [-98.6639235, 36.7810864], [-98.664232, 36.7810821], [-98.6642352, 36.7812293]]]}, "properties": {"osm_id": 664460851, "building": "yes", "name": "", "height": null, "height_m": null, "levels": null, "tract_id": "40151954300", "tract_name": "9543", "tags": {"building": "yes"}}}, {"type": "Feature", "geometry": {"type": "Polygon", "coordinates": [[[-98.6638516, 36.7812036], [-98.6636021, 36.7812043], [-98.6635995, 36.780663], [-98.6638489, 36.7806622], [-98.6638516, 36.7812036]]]}, "properties": {"osm_id": 664460853, "building": "yes", "name": "", "height": null, "height_m": null, "levels": null, "tract_id": "40151954300", "tract_name": "9543", "tags": {"building": "yes"}}}, {"type": "Feature", "geometry": {"type": "Polygon", "coordinates": [[[-98.6641051, 36.7797126], [-98.663692, 36.779718], [-98.6636892, 36.7795792], [-98.6641023, 36.7795738], [-98.6641051, 36.7797126]]]}, "properties": {"osm_id": 664460856, "building": "yes", "name": "", "height": null, "height_m": null, "levels": null, "tract_id": "40151954300", "tract_name": "9543", "tags": {"building": "yes"}}}, {"type": "Feature", "geometry": {"type": "Polygon", "coordinates": [[[-98.6654234, 36.7792314], [-98.6650881, 36.7792314], [-98.6650881, 36.779008], [-98.6654234, 36.779008], [-98.6654234, 36.7792314]]]}, "properties": {"osm_id": 664460858, "building": "yes", "name": "", "height": null, "height_m": null, "levels": null, "tract_id": "40151954300", "tract_name": "9543", "tags": {"building": "yes"}}}, {"type": "Feature", "geometry": {"type": "Polygon", "coordinates": [[[-98.6651525, 36.7780864], [-98.6651525, 36.7779274], [-98.6654824, 36.7779274], [-98.6654824, 36.7780864], [-98.6651525, 36.7780864]]]}, "properties": {"osm_id": 664460860, "building": "yes", "name": "", "height": null, "height_m": null, "levels": null, "tract_id": "40151954300", "tract_name": "9543", "tags": {"building": "yes"}}}, {"type": "Feature", "geometry": {"type": "Polygon", "coordinates": [[[-98.6656997, 36.7769037], [-98.6654596, 36.7769101], [-98.6654573, 36.776854], [-98.6656973, 36.7768475], [-98.6656997, 36.7769037]]]}, "properties": {"osm_id": 664460862, "building": "yes", "name": "", "height": null, "height_m": null, "levels": null, "tract_id": "40151954300", "tract_name": "9543", "tags": {"building": "yes"}}}, {"type": "Feature", "geometry": {"type": "Polygon", "coordinates": [[[-98.6656849, 36.7766706], [-98.6656822, 36.7768081], [-98.6656217, 36.7768073], [-98.6656244, 36.7766698], [-98.6656849, 36.7766706]]]}, "properties": {"osm_id": 664460864, "building": "yes", "name": "", "height": null, "height_m": null, "levels": null, "tract_id": "40151954300", "tract_name": "9543", "tags": {"building": "yes"}}}, {"type": "Feature", "geometry": {"type": "Polygon", "coordinates": [[[-98.6649138, 36.7761228], [-98.6644149, 36.7761206], [-98.6644164, 36.7758908], [-98.6649153, 36.7758929], [-98.6649138, 36.7761228]]]}, "properties": {"osm_id": 664460866, "building": "yes", "name": "", "height": null, "height_m": null, "levels": null, "tract_id": "40151954300", "tract_name": "9543", "tags": {"building": "yes"}}}, {"type": "Feature", "geometry": {"type": "Polygon", "coordinates": [[[-98.6644068, 36.7763784], [-98.6644068, 36.7761528], [-98.6649138, 36.7761528], [-98.6649138, 36.7763784], [-98.6644068, 36.7763784]]]}, "properties": {"osm_id": 664460868, "building": "yes", "name": "", "height": null, "height_m": null, "levels": null, "tract_id": "40151954300", "tract_name": "9543", "tags": {"building": "yes"}}}, {"type": "Feature", "geometry": {"type": "Polygon", "coordinates": [[[-98.6656407, 36.7749175], [-98.665646, 36.7754825], [-98.6653439, 36.7754844], [-98.6653386, 36.7749193], [-98.6656407, 36.7749175]]]}, "properties": {"osm_id": 664460869, "building": "yes", "name": "", "height": null, "height_m": null, "levels": null, "tract_id": "40151954300", "tract_name": "9543", "tags": {"building": "yes"}}}, {"type": "Feature", "geometry": {"type": "Polygon", "coordinates": [[[-98.6499202, 36.8049005], [-98.6499122, 36.8050573], [-98.6498051, 36.8050538], [-98.6498132, 36.804897], [-98.6499202, 36.8049005]]]}, "properties": {"osm_id": 664460898, "building": "yes", "name": "", "height": null, "height_m": null, "levels": null, "tract_id": "40151954300", "tract_name": "9543", "tags": {"building": "yes"}}}, {"type": "Feature", "geometry": {"type": "Polygon", "coordinates": [[[-98.6493449, 36.8051518], [-98.6492376, 36.8051518], [-98.6492376, 36.8050326], [-98.6493449, 36.8050326], [-98.6493449, 36.8051518]]]}, "properties": {"osm_id": 664460899, "building": "yes", "name": "", "height": null, "height_m": null, "levels": null, "tract_id": "40151954300", "tract_name": "9543", "tags": {"building": "yes"}}}, {"type": "Feature", "geometry": {"type": "Polygon", "coordinates": [[[-98.6497258, 36.8049188], [-98.6497204, 36.8050766], [-98.6495915, 36.8050738], [-98.6495969, 36.804916], [-98.6497258, 36.8049188]]]}, "properties": {"osm_id": 664460900, "building": "yes", "name": "", "height": null, "height_m": null, "levels": null, "tract_id": "40151954300", "tract_name": "9543", "tags": {"building": "yes"}}}, {"type": "Feature", "geometry": {"type": "Polygon", "coordinates": [[[-98.6497231, 36.8051292], [-98.6497191, 36.8052946], [-98.6495836, 36.8052925], [-98.6495876, 36.8051271], [-98.6497231, 36.8051292]]]}, "properties": {"osm_id": 664460901, "building": "yes", "name": "", "height": null, "height_m": null, "levels": null, "tract_id": "40151954300", "tract_name": "9543", "tags": {"building": "yes"}}}, {"type": "Feature", "geometry": {"type": "Polygon", "coordinates": [[[-98.6502877, 36.8049037], [-98.6502837, 36.8051829], [-98.65012, 36.8051814], [-98.650124, 36.8049022], [-98.6502877, 36.8049037]]]}, "properties": {"osm_id": 664460902, "building": "yes", "name": "", "height": null, "height_m": null, "levels": null, "tract_id": "40151954300", "tract_name": "9543", "tags": {"building": "yes"}}}, {"type": "Feature", "geometry": {"type": "Polygon", "coordinates": [[[-98.6515879, 36.8049537], [-98.6514357, 36.8049553], [-98.6514347, 36.8048985], [-98.651587, 36.8048969], [-98.6515879, 36.8049537]]]}, "properties": {"osm_id": 664460903, "building": "yes", "name": "", "height": null, "height_m": null, "levels": null, "tract_id": "40151954300", "tract_name": "9543", "tags": {"building": "yes"}}}, {"type": "Feature", "geometry": {"type": "Polygon", "coordinates": [[[-98.6515798, 36.805082], [-98.6514444, 36.805082], [-98.6514444, 36.8050058], [-98.6515798, 36.8050058], [-98.6515798, 36.805082]]]}, "properties": {"osm_id": 664460904, "building": "yes", "name": "", "height": null, "height_m": null, "levels": null, "tract_id": "40151954300", "tract_name": "9543", "tags": {"building": "yes"}}}, {"type": "Feature", "geometry": {"type": "Polygon", "coordinates": [[[-98.6507785, 36.8049102], [-98.6507759, 36.8050605], [-98.6506278, 36.8050588], [-98.6506305, 36.8049085], [-98.6507785, 36.8049102]]]}, "properties": {"osm_id": 664460905, "building": "yes", "name": "", "height": null, "height_m": null, "levels": null, "tract_id": "40151954300", "tract_name": "9543", "tags": {"building": "yes"}}}, {"type": "Feature", "geometry": {"type": "Polygon", "coordinates": [[[-98.6512399, 36.8051223], [-98.6511118, 36.805122], [-98.6511124, 36.8049367], [-98.6512405, 36.804937], [-98.6512399, 36.8051223]]]}, "properties": {"osm_id": 664460906, "building": "yes", "name": "", "height": null, "height_m": null, "levels": null, "tract_id": "40151954300", "tract_name": "9543", "tags": {"building": "yes"}}}, {"type": "Feature", "geometry": {"type": "Polygon", "coordinates": [[[-98.6510394, 36.804936], [-98.6510367, 36.8051502], [-98.6509005, 36.8051491], [-98.6509032, 36.8049349], [-98.6510394, 36.804936]]]}, "properties": {"osm_id": 664460907, "building": "yes", "name": "", "height": null, "height_m": null, "levels": null, "tract_id": "40151954300", "tract_name": "9543", "tags": {"building": "yes"}}}, {"type": "Feature", "geometry": {"type": "Polygon", "coordinates": [[[-98.6524147, 36.8059206], [-98.6524817, 36.8060205], [-98.6523997, 36.8060558], [-98.6523327, 36.8059559], [-98.6524147, 36.8059206]]]}, "properties": {"osm_id": 664460908, "building": "yes", "name": "", "height": null, "height_m": null, "levels": null, "tract_id": "40151954300", "tract_name": "9543", "tags": {"building": "yes"}}}, {"type": "Feature", "geometry": {"type": "Polygon", "coordinates": [[[-98.6525998, 36.8057638], [-98.652353, 36.8058251], [-98.6523056, 36.8057027], [-98.6525524, 36.8056415], [-98.6525998, 36.8057638]]]}, "properties": {"osm_id": 664460909, "building": "yes", "name": "", "height": null, "height_m": null, "levels": null, "tract_id": "40151954300", "tract_name": "9543", "tags": {"building": "yes"}}}, {"type": "Feature", "geometry": {"type": "Polygon", "coordinates": [[[-98.6569677, 36.8065896], [-98.6567236, 36.8065907], [-98.6567222, 36.8063804], [-98.6569663, 36.8063794], [-98.6569677, 36.8065896]]]}, "properties": {"osm_id": 664460910, "building": "yes", "name": "", "height": null, "height_m": null, "levels": null, "tract_id": "40151954300", "tract_name": "9543", "tags": {"building": "yes"}}}, {"type": "Feature", "geometry": {"type": "Polygon", "coordinates": [[[-98.6568993, 36.8062803], [-98.6565037, 36.8062846], [-98.6565017, 36.8061658], [-98.6568973, 36.8061615], [-98.6568993, 36.8062803]]]}, "properties": {"osm_id": 664460911, "building": "yes", "name": "", "height": null, "height_m": null, "levels": null, "tract_id": "40151954300", "tract_name": "9543", "tags": {"building": "yes"}}}, {"type": "Feature", "geometry": {"type": "Polygon", "coordinates": [[[-98.6595762, 36.8074744], [-98.6593629, 36.807469], [-98.6593675, 36.8073535], [-98.6595807, 36.8073589], [-98.6595762, 36.8074744]]]}, "properties": {"osm_id": 664460912, "building": "yes", "name": "", "height": null, "height_m": null, "levels": null, "tract_id": "40151954300", "tract_name": "9543", "tags": {"building": "yes"}}}, {"type": "Feature", "geometry": {"type": "Polygon", "coordinates": [[[-98.6589284, 36.8073369], [-98.6589231, 36.8075957], [-98.6587533, 36.8075934], [-98.6587587, 36.8073347], [-98.6589284, 36.8073369]]]}, "properties": {"osm_id": 664460913, "building": "yes", "name": "", "height": null, "height_m": null, "levels": null, "tract_id": "40151954300", "tract_name": "9543", "tags": {"building": "yes"}}}, {"type": "Feature", "geometry": {"type": "Polygon", "coordinates": [[[-98.6592342, 36.8077288], [-98.6590894, 36.8077246], [-98.6590943, 36.807617], [-98.6592392, 36.8076213], [-98.6592342, 36.8077288]]]}, "properties": {"osm_id": 664460914, "building": "yes", "name": "", "height": null, "height_m": null, "levels": null, "tract_id": "40151954300", "tract_name": "9543", "tags": {"building": "yes"}}}, {"type": "Feature", "geometry": {"type": "Polygon", "coordinates": [[[-98.6683215, 36.8077723], [-98.6681713, 36.8077707], [-98.6681732, 36.8076577], [-98.6683234, 36.8076593], [-98.6683215, 36.8077723]]]}, "properties": {"osm_id": 664460936, "building": "yes", "name": "", "height": null, "height_m": null, "levels": null, "tract_id": "40151954300", "tract_name": "9543", "tags": {"building": "yes"}}}, {"type": "Feature", "geometry": {"type": "Polygon", "coordinates": [[[-98.6683249, 36.8075211], [-98.6681646, 36.8075189], [-98.6681669, 36.8074075], [-98.6683272, 36.8074096], [-98.6683249, 36.8075211]]]}, "properties": {"osm_id": 664460937, "building": "yes", "name": "", "height": null, "height_m": null, "levels": null, "tract_id": "40151954300", "tract_name": "9543", "tags": {"building": "yes"}}}, {"type": "Feature", "geometry": {"type": "Polygon", "coordinates": [[[-98.6683222, 36.8076467], [-98.6681653, 36.8076456], [-98.6681665, 36.8075301], [-98.6683234, 36.8075312], [-98.6683222, 36.8076467]]]}, "properties": {"osm_id": 664460938, "building": "yes", "name": "", "height": null, "height_m": null, "levels": null, "tract_id": "40151954300", "tract_name": "9543", "tags": {"building": "yes"}}}, {"type": "Feature", "geometry": {"type": "Polygon", "coordinates": [[[-98.668803, 36.8042391], [-98.6686166, 36.804238], [-98.668618, 36.8040735], [-98.6688045, 36.8040745], [-98.668803, 36.8042391]]]}, "properties": {"osm_id": 664460940, "building": "yes", "name": "", "height": null, "height_m": null, "levels": null, "tract_id": "40151954300", "tract_name": "9543", "tags": {"building": "yes"}}}, {"type": "Feature", "geometry": {"type": "Polygon", "coordinates": [[[-98.6687547, 36.8038804], [-98.668756, 36.8040168], [-98.6686384, 36.8040175], [-98.6686371, 36.8038811], [-98.6687547, 36.8038804]]]}, "properties": {"osm_id": 664460941, "building": "yes", "name": "", "height": null, "height_m": null, "levels": null, "tract_id": "40151954300", "tract_name": "9543", "tags": {"building": "yes"}}}, {"type": "Feature", "geometry": {"type": "Polygon", "coordinates": [[[-98.6663689, 36.8043518], [-98.6663689, 36.804253], [-98.6664748, 36.804253], [-98.6664748, 36.8043518], [-98.6663689, 36.8043518]]]}, "properties": {"osm_id": 664460942, "building": "yes", "name": "", "height": null, "height_m": null, "levels": null, "tract_id": "40151954300", "tract_name": "9543", "tags": {"building": "yes"}}}, {"type": "Feature", "geometry": {"type": "Polygon", "coordinates": [[[-98.6673639, 36.8018209], [-98.667022, 36.8018177], [-98.6670255, 36.8015793], [-98.6673674, 36.8015825], [-98.6673639, 36.8018209]]]}, "properties": {"osm_id": 664460943, "building": "yes", "name": "", "height": null, "height_m": null, "levels": null, "tract_id": "40151954300", "tract_name": "9543", "tags": {"addr:city": "Alva", "addr:housenumber": "602", "addr:postcode": "73717", "addr:state": "OK", "addr:street": "Church Street", "building": "yes", "roof:shape": "flat"}}}, {"type": "Feature", "geometry": {"type": "Polygon", "coordinates": [[[-98.6624495, 36.8038938], [-98.6624508, 36.8040383], [-98.6623631, 36.8040388], [-98.6623618, 36.8038944], [-98.6624495, 36.8038938]]]}, "properties": {"osm_id": 664460944, "building": "roof", "name": "", "height": null, "height_m": null, "levels": null, "tract_id": "40151954300", "tract_name": "9543", "tags": {"building": "roof", "layer": "1"}}}, {"type": "Feature", "geometry": {"type": "Polygon", "coordinates": [[[-98.6640391, 36.8042979], [-98.6640424, 36.8046064], [-98.6640143, 36.8046066], [-98.6638157, 36.8046079], [-98.6638125, 36.8042995], [-98.6640391, 36.8042979]]]}, "properties": {"osm_id": 664460945, "building": "yes", "name": "", "height": null, "height_m": null, "levels": null, "tract_id": "40151954300", "tract_name": "9543", "tags": {"amenity": "fire_station", "building": "yes"}}}, {"type": "Feature", "geometry": {"type": "Polygon", "coordinates": [[[-98.665638, 36.8028291], [-98.6656313, 36.8030836], [-98.6653783, 36.8030794], [-98.665385, 36.8028249], [-98.665638, 36.8028291]]]}, "properties": {"osm_id": 664460946, "building": "yes", "name": "", "height": null, "height_m": null, "levels": null, "tract_id": "40151954300", "tract_name": "9543", "tags": {"building": "yes"}}}, {"type": "Feature", "geometry": {"type": "Polygon", "coordinates": [[[-98.6658063, 36.8021392], [-98.6656936, 36.8021371], [-98.6656969, 36.8020275], [-98.6658095, 36.8020297], [-98.6658063, 36.8021392]]]}, "properties": {"osm_id": 664460947, "building": "yes", "name": "", "height": null, "height_m": null, "levels": null, "tract_id": "40151954300", "tract_name": "9543", "tags": {"building": "yes"}}}, {"type": "Feature", "geometry": {"type": "Polygon", "coordinates": [[[-98.6651672, 36.7974158], [-98.6649393, 36.7974169], [-98.6649383, 36.7972902], [-98.6651663, 36.7972892], [-98.6651672, 36.7974158]]]}, "properties": {"osm_id": 664460948, "building": "yes", "name": "", "height": null, "height_m": null, "levels": null, "tract_id": "40151954300", "tract_name": "9543", "tags": {"building": "yes"}}}, {"type": "Feature", "geometry": {"type": "Polygon", "coordinates": [[[-98.6657211, 36.7971634], [-98.6657225, 36.7972891], [-98.665582, 36.79729], [-98.6655806, 36.7971644], [-98.6657211, 36.7971634]]]}, "properties": {"osm_id": 664460949, "building": "yes", "name": "", "height": null, "height_m": null, "levels": null, "tract_id": "40151954300", "tract_name": "9543", "tags": {"building": "yes"}}}, {"type": "Feature", "geometry": {"type": "Polygon", "coordinates": [[[-98.6642741, 36.794324], [-98.6642767, 36.7944131], [-98.6641976, 36.7944146], [-98.6641949, 36.7943255], [-98.6642741, 36.794324]]]}, "properties": {"osm_id": 664460950, "building": "yes", "name": "", "height": null, "height_m": null, "levels": null, "tract_id": "40151954300", "tract_name": "9543", "tags": {"building": "yes"}}}, {"type": "Feature", "geometry": {"type": "Polygon", "coordinates": [[[-98.6642506, 36.793816], [-98.6644088, 36.7938606], [-98.6643795, 36.7939275], [-98.6642212, 36.7938829], [-98.6642506, 36.793816]]]}, "properties": {"osm_id": 664460951, "building": "yes", "name": "", "height": null, "height_m": null, "levels": null, "tract_id": "40151954300", "tract_name": "9543", "tags": {"building": "yes"}}}, {"type": "Feature", "geometry": {"type": "Polygon", "coordinates": [[[-98.6645698, 36.7939932], [-98.6644384, 36.7939927], [-98.6644389, 36.7939131], [-98.6645703, 36.7939137], [-98.6645698, 36.7939932]]]}, "properties": {"osm_id": 664460952, "building": "yes", "name": "", "height": null, "height_m": null, "levels": null, "tract_id": "40151954300", "tract_name": "9543", "tags": {"building": "yes"}}}, {"type": "Feature", "geometry": {"type": "Polygon", "coordinates": [[[-98.6658837, 36.7955294], [-98.6654463, 36.7955308], [-98.6654458, 36.7954292], [-98.6654797, 36.795429], [-98.6654786, 36.7952049], [-98.6658166, 36.7952038], [-98.6658178, 36.7954366], [-98.6658833, 36.7954364], [-98.6658837, 36.7955294]]]}, "properties": {"osm_id": 664460953, "building": "yes", "name": "", "height": null, "height_m": null, "levels": null, "tract_id": "40151954300", "tract_name": "9543", "tags": {"building": "yes"}}}, {"type": "Feature", "geometry": {"type": "Polygon", "coordinates": [[[-98.6655884, 36.7978851], [-98.6654556, 36.7978926], [-98.6654493, 36.7978217], [-98.6655821, 36.7978142], [-98.6655884, 36.7978851]]]}, "properties": {"osm_id": 664460954, "building": "yes", "name": "", "height": null, "height_m": null, "levels": null, "tract_id": "40151954300", "tract_name": "9543", "tags": {"building": "yes"}}}, {"type": "Feature", "geometry": {"type": "Polygon", "coordinates": [[[-98.6658539, 36.7977466], [-98.6659882, 36.797745], [-98.6659909, 36.7978889], [-98.6658566, 36.7978905], [-98.6658539, 36.7977466]]]}, "properties": {"osm_id": 664460955, "building": "yes", "name": "", "height": null, "height_m": null, "levels": null, "tract_id": "40151954300", "tract_name": "9543", "tags": {"building": "yes"}}}, {"type": "Feature", "geometry": {"type": "Polygon", "coordinates": [[[-98.6650184, 36.7979205], [-98.6648481, 36.7979205], [-98.6648481, 36.7978357], [-98.6650184, 36.7978357], [-98.6650184, 36.7979205]]]}, "properties": {"osm_id": 664460956, "building": "yes", "name": "", "height": null, "height_m": null, "levels": null, "tract_id": "40151954300", "tract_name": "9543", "tags": {"building": "yes"}}}, {"type": "Feature", "geometry": {"type": "Polygon", "coordinates": [[[-98.6633313, 36.7977589], [-98.6633272, 36.797942], [-98.663207, 36.7979403], [-98.663211, 36.7977572], [-98.6633313, 36.7977589]]]}, "properties": {"osm_id": 664460957, "building": "yes", "name": "", "height": null, "height_m": null, "levels": null, "tract_id": "40151954300", "tract_name": "9543", "tags": {"building": "yes"}}}, {"type": "Feature", "geometry": {"type": "Polygon", "coordinates": [[[-98.6627316, 36.7981827], [-98.6623554, 36.7981783], [-98.6623593, 36.7979639], [-98.6627355, 36.7979683], [-98.6627316, 36.7981827]]]}, "properties": {"osm_id": 664460958, "building": "yes", "name": "", "height": null, "height_m": null, "levels": null, "tract_id": "40151954300", "tract_name": "9543", "tags": {"building": "yes"}}}, {"type": "Feature", "geometry": {"type": "Polygon", "coordinates": [[[-98.6619124, 36.7971769], [-98.6618386, 36.7971779], [-98.6618374, 36.7971239], [-98.6619112, 36.7971228], [-98.6619124, 36.7971769]]]}, "properties": {"osm_id": 664460959, "building": "yes", "name": "", "height": null, "height_m": null, "levels": null, "tract_id": "40151954300", "tract_name": "9543", "tags": {"building": "yes"}}}, {"type": "Feature", "geometry": {"type": "Polygon", "coordinates": [[[-98.6619318, 36.7973847], [-98.6617662, 36.7973857], [-98.6617653, 36.7972956], [-98.6619309, 36.7972946], [-98.6619318, 36.7973847]]]}, "properties": {"osm_id": 664460960, "building": "yes", "name": "", "height": null, "height_m": null, "levels": null, "tract_id": "40151954300", "tract_name": "9543", "tags": {"building": "yes"}}}, {"type": "Feature", "geometry": {"type": "Polygon", "coordinates": [[[-98.660924, 36.7973954], [-98.660582, 36.7973954], [-98.660582, 36.7972547], [-98.660924, 36.7972547], [-98.660924, 36.7973954]]]}, "properties": {"osm_id": 664460961, "building": "yes", "name": "", "height": null, "height_m": null, "levels": null, "tract_id": "40151954300", "tract_name": "9543", "tags": {"building": "yes"}}}, {"type": "Feature", "geometry": {"type": "Polygon", "coordinates": [[[-98.6609066, 36.7970829], [-98.6606531, 36.7970818], [-98.6606539, 36.7969657], [-98.6609073, 36.7969668], [-98.6609066, 36.7970829]]]}, "properties": {"osm_id": 664460962, "building": "yes", "name": "", "height": null, "height_m": null, "levels": null, "tract_id": "40151954300", "tract_name": "9543", "tags": {"building": "yes"}}}, {"type": "Feature", "geometry": {"type": "Polygon", "coordinates": [[[-98.6490519, 36.7994245], [-98.6489043, 36.799425], [-98.648904, 36.7993618], [-98.6490515, 36.7993612], [-98.6490519, 36.7994245]]]}, "properties": {"osm_id": 664460963, "building": "yes", "name": "", "height": null, "height_m": null, "levels": null, "tract_id": "40151954300", "tract_name": "9543", "tags": {"building": "yes"}}}, {"type": "Feature", "geometry": {"type": "Polygon", "coordinates": [[[-98.647643, 36.7990003], [-98.6475552, 36.7990009], [-98.6475545, 36.7989248], [-98.6476423, 36.7989243], [-98.647643, 36.7990003]]]}, "properties": {"osm_id": 664460964, "building": "yes", "name": "", "height": null, "height_m": null, "levels": null, "tract_id": "40151954300", "tract_name": "9543", "tags": {"building": "yes"}}}, {"type": "Feature", "geometry": {"type": "Polygon", "coordinates": [[[-98.6500416, 36.7974115], [-98.6499457, 36.7974115], [-98.6499457, 36.7973294], [-98.6500416, 36.7973294], [-98.6500416, 36.7974115]]]}, "properties": {"osm_id": 664460975, "building": "yes", "name": "", "height": null, "height_m": null, "levels": null, "tract_id": "40151954300", "tract_name": "9543", "tags": {"building": "yes"}}}, {"type": "Feature", "geometry": {"type": "Polygon", "coordinates": [[[-98.6509462, 36.7973036], [-98.6508516, 36.7973009], [-98.650855, 36.7972241], [-98.6509496, 36.7972268], [-98.6509462, 36.7973036]]]}, "properties": {"osm_id": 664460976, "building": "yes", "name": "", "height": null, "height_m": null, "levels": null, "tract_id": "40151954300", "tract_name": "9543", "tags": {"building": "yes"}}}, {"type": "Feature", "geometry": {"type": "Polygon", "coordinates": [[[-98.6511882, 36.7973025], [-98.6510508, 36.7973009], [-98.6510524, 36.7972125], [-98.6511899, 36.7972142], [-98.6511882, 36.7973025]]]}, "properties": {"osm_id": 664460977, "building": "yes", "name": "", "height": null, "height_m": null, "levels": null, "tract_id": "40151954300", "tract_name": "9543", "tags": {"building": "yes"}}}, {"type": "Feature", "geometry": {"type": "Polygon", "coordinates": [[[-98.6565547, 36.8008479], [-98.6564326, 36.8008506], [-98.65643, 36.8007746], [-98.6565521, 36.8007719], [-98.6565547, 36.8008479]]]}, "properties": {"osm_id": 664460978, "building": "yes", "name": "", "height": null, "height_m": null, "levels": null, "tract_id": "40151954300", "tract_name": "9543", "tags": {"building": "yes"}}}, {"type": "Feature", "geometry": {"type": "Polygon", "coordinates": [[[-98.6566143, 36.8009161], [-98.6565332, 36.8009166], [-98.6565327, 36.8008673], [-98.6566138, 36.8008668], [-98.6566143, 36.8009161]]]}, "properties": {"osm_id": 664460979, "building": "yes", "name": "", "height": null, "height_m": null, "levels": null, "tract_id": "40151954300", "tract_name": "9543", "tags": {"building": "yes"}}}, {"type": "Feature", "geometry": {"type": "Polygon", "coordinates": [[[-98.6566264, 36.8007491], [-98.6564863, 36.8007502], [-98.6564852, 36.8006589], [-98.6566253, 36.8006578], [-98.6566264, 36.8007491]]]}, "properties": {"osm_id": 664460980, "building": "yes", "name": "", "height": null, "height_m": null, "levels": null, "tract_id": "40151954300", "tract_name": "9543", "tags": {"building": "yes"}}}, {"type": "Feature", "geometry": {"type": "Polygon", "coordinates": [[[-98.6548863, 36.8029763], [-98.6546811, 36.802972], [-98.6546838, 36.8028901], [-98.654889, 36.8028944], [-98.6548863, 36.8029763]]]}, "properties": {"osm_id": 664460981, "building": "yes", "name": "", "height": null, "height_m": null, "levels": null, "tract_id": "40151954300", "tract_name": "9543", "tags": {"building": "yes"}}}, {"type": "Feature", "geometry": {"type": "Polygon", "coordinates": [[[-98.6560102, 36.8041424], [-98.6558895, 36.8041446], [-98.6558869, 36.8040503], [-98.6560076, 36.8040482], [-98.6560102, 36.8041424]]]}, "properties": {"osm_id": 664460982, "building": "yes", "name": "", "height": null, "height_m": null, "levels": null, "tract_id": "40151954300", "tract_name": "9543", "tags": {"building": "yes"}}}, {"type": "Feature", "geometry": {"type": "Polygon", "coordinates": [[[-98.6599141, 36.7962044], [-98.6599168, 36.7964117], [-98.6597805, 36.7964128], [-98.6597779, 36.7962056], [-98.6599141, 36.7962044]]]}, "properties": {"osm_id": 664809708, "building": "yes", "name": "", "height": null, "height_m": null, "levels": null, "tract_id": "40151954300", "tract_name": "9543", "tags": {"building": "yes"}}}, {"type": "Feature", "geometry": {"type": "Polygon", "coordinates": [[[-98.6655428, 36.7881201], [-98.6653409, 36.7881212], [-98.6653403, 36.7880514], [-98.6655422, 36.7880503], [-98.6655428, 36.7881201]]]}, "properties": {"osm_id": 664809712, "building": "yes", "name": "", "height": null, "height_m": null, "levels": null, "tract_id": "40151954300", "tract_name": "9543", "tags": {"building": "yes"}}}, {"type": "Feature", "geometry": {"type": "Polygon", "coordinates": [[[-98.6532542, 36.791464], [-98.6530732, 36.7914092], [-98.6531036, 36.7913447], [-98.6532847, 36.7913994], [-98.6532542, 36.791464]]]}, "properties": {"osm_id": 664809713, "building": "yes", "name": "", "height": null, "height_m": null, "levels": null, "tract_id": "40151954300", "tract_name": "9543", "tags": {"building": "yes"}}}, {"type": "Feature", "geometry": {"type": "Polygon", "coordinates": [[[-98.6392665, 36.8053644], [-98.6393136, 36.8052872], [-98.6394947, 36.8053581], [-98.6394475, 36.8054353], [-98.6392665, 36.8053644]]]}, "properties": {"osm_id": 664809714, "building": "yes", "name": "", "height": null, "height_m": null, "levels": null, "tract_id": "40151954300", "tract_name": "9543", "tags": {"building": "yes"}}}, {"type": "Feature", "geometry": {"type": "Polygon", "coordinates": [[[-98.6386308, 36.8059808], [-98.6384685, 36.8059818], [-98.638467, 36.8058303], [-98.6386292, 36.8058292], [-98.6386308, 36.8059808]]]}, "properties": {"osm_id": 664809715, "building": "yes", "name": "", "height": null, "height_m": null, "levels": null, "tract_id": "40151954300", "tract_name": "9543", "tags": {"building": "yes"}}}, {"type": "Feature", "geometry": {"type": "Polygon", "coordinates": [[[-98.6522511, 36.7986218], [-98.6519051, 36.7986261], [-98.6519006, 36.7983969], [-98.6522466, 36.7983926], [-98.6522511, 36.7986218]]]}, "properties": {"osm_id": 664809716, "building": "yes", "name": "", "height": null, "height_m": null, "levels": null, "tract_id": "40151954300", "tract_name": "9543", "tags": {"building": "yes"}}}, {"type": "Feature", "geometry": {"type": "Polygon", "coordinates": [[[-98.6565493, 36.8055298], [-98.6564232, 36.805533], [-98.6564198, 36.8054455], [-98.6565458, 36.8054422], [-98.6565493, 36.8055298]]]}, "properties": {"osm_id": 664809717, "building": "yes", "name": "", "height": null, "height_m": null, "levels": null, "tract_id": "40151954300", "tract_name": "9543", "tags": {"building": "yes"}}}, {"type": "Feature", "geometry": {"type": "Polygon", "coordinates": [[[-98.6595896, 36.8101458], [-98.659438, 36.8101415], [-98.6594452, 36.8099806], [-98.6595967, 36.8099849], [-98.6595896, 36.8101458]]]}, "properties": {"osm_id": 664809718, "building": "yes", "name": "", "height": null, "height_m": null, "levels": null, "tract_id": "40151954300", "tract_name": "9543", "tags": {"building": "yes"}}}, {"type": "Feature", "geometry": {"type": "Polygon", "coordinates": [[[-98.6598752, 36.8068425], [-98.6597854, 36.8068446], [-98.659783, 36.8067804], [-98.6598728, 36.8067782], [-98.6598752, 36.8068425]]]}, "properties": {"osm_id": 664809719, "building": "yes", "name": "", "height": null, "height_m": null, "levels": null, "tract_id": "40151954300", "tract_name": "9543", "tags": {"building": "yes"}}}, {"type": "Feature", "geometry": {"type": "Polygon", "coordinates": [[[-98.6601006, 36.8067566], [-98.6600462, 36.8069761], [-98.6599415, 36.8069595], [-98.6599959, 36.80674], [-98.6601006, 36.8067566]]]}, "properties": {"osm_id": 664809720, "building": "yes", "name": "", "height": null, "height_m": null, "levels": null, "tract_id": "40151954300", "tract_name": "9543", "tags": {"building": "yes"}}}, {"type": "Feature", "geometry": {"type": "Polygon", "coordinates": [[[-98.6617353, 36.8065445], [-98.6613008, 36.8065424], [-98.6612953, 36.8062678], [-98.6613163, 36.8062646], [-98.6613169, 36.8061751], [-98.6614141, 36.8061763], [-98.6614153, 36.8061487], [-98.6616245, 36.8061476], [-98.6616233, 36.8061787], [-98.6617259, 36.8061784], [-98.6617221, 36.8063065], [-98.6617349, 36.8063065], [-98.6617353, 36.8065445]]]}, "properties": {"osm_id": 664809721, "building": "yes", "name": "Alva Armory (historic)", "height": null, "height_m": null, "levels": null, "tract_id": "40151954300", "tract_name": "9543", "tags": {"building": "yes", "historic": "yes", "name": "Alva Armory (historic)", "old_name": "Alva Armory"}}}, {"type": "Feature", "geometry": {"type": "Polygon", "coordinates": [[[-98.6624743, 36.8055222], [-98.6624716, 36.8059056], [-98.6623279, 36.8059049], [-98.6623305, 36.8055216], [-98.6624743, 36.8055222]]]}, "properties": {"osm_id": 664809722, "building": "yes", "name": "", "height": null, "height_m": null, "levels": null, "tract_id": "40151954300", "tract_name": "9543", "tags": {"building": "yes"}}}, {"type": "Feature", "geometry": {"type": "Polygon", "coordinates": [[[-98.6629879, 36.8050229], [-98.6629839, 36.8054084], [-98.6628175, 36.8054073], [-98.6628216, 36.8050218], [-98.6629879, 36.8050229]]]}, "properties": {"osm_id": 664809723, "building": "yes", "name": "", "height": null, "height_m": null, "levels": null, "tract_id": "40151954300", "tract_name": "9543", "tags": {"building": "yes"}}}, {"type": "Feature", "geometry": {"type": "Polygon", "coordinates": [[[-98.6633956, 36.8056736], [-98.6631905, 36.8056694], [-98.6631942, 36.8055558], [-98.6633994, 36.8055601], [-98.6633956, 36.8056736]]]}, "properties": {"osm_id": 664809724, "building": "yes", "name": "", "height": null, "height_m": null, "levels": null, "tract_id": "40151954300", "tract_name": "9543", "tags": {"building": "yes"}}}, {"type": "Feature", "geometry": {"type": "Polygon", "coordinates": [[[-98.6674632, 36.8052205], [-98.6674632, 36.8050272], [-98.6676456, 36.8050272], [-98.6676456, 36.8052205], [-98.6674632, 36.8052205]]]}, "properties": {"osm_id": 704108067, "building": "yes", "name": "", "height": null, "height_m": null, "levels": null, "tract_id": "40151954300", "tract_name": "9543", "tags": {"building": "yes", "source": "bing"}}}, {"type": "Feature", "geometry": {"type": "Polygon", "coordinates": [[[-98.667228, 36.8053214], [-98.6672311, 36.8053215], [-98.6672319, 36.805439], [-98.6671371, 36.8054394], [-98.6669932, 36.80544], [-98.6669927, 36.8053632], [-98.6669663, 36.8053633], [-98.6669653, 36.8051958], [-98.6669901, 36.8051957], [-98.6669898, 36.8051529], [-98.6670045, 36.8051528], [-98.6670142, 36.8051449], [-98.6670059, 36.8051383], [-98.6670864, 36.8050729], [-98.6670947, 36.8050794], [-98.6671139, 36.8050638], [-98.6671139, 36.8050557], [-98.667167, 36.8050555], [-98.6671669, 36.805041], [-98.667374, 36.8050401], [-98.6673754, 36.8052511], [-98.6673138, 36.8052514], [-98.667228, 36.8053214]]]}, "properties": {"osm_id": 704108068, "building": "yes", "name": "", "height": null, "height_m": null, "levels": null, "tract_id": "40151954300", "tract_name": "9543", "tags": {"building": "yes", "source": "bing"}}}, {"type": "Feature", "geometry": {"type": "Polygon", "coordinates": [[[-98.6580663, 36.7994147], [-98.6581694, 36.7994143], [-98.6581698, 36.7994783], [-98.6580983, 36.7994786], [-98.658099, 36.7995918], [-98.6579239, 36.7995926], [-98.6579219, 36.7992887], [-98.6580654, 36.799288], [-98.6580663, 36.7994147]]]}, "properties": {"osm_id": 704108074, "building": "church", "name": "", "height": null, "height_m": null, "levels": null, "tract_id": "40151954300", "tract_name": "9543", "tags": {"building": "church", "denomination": "seventh_day_adventist", "religion": "christian", "source": "bing"}}}, {"type": "Feature", "geometry": {"type": "Polygon", "coordinates": [[[-98.6658304, 36.8054229], [-98.6658312, 36.8053939], [-98.6658339, 36.8050163], [-98.6660822, 36.8050153], [-98.6660794, 36.805346], [-98.6660762, 36.8054256], [-98.6658304, 36.8054229]]]}, "properties": {"osm_id": 742674948, "building": "yes", "name": "", "height": null, "height_m": null, "levels": null, "tract_id": "40151954300", "tract_name": "9543", "tags": {"building": "yes"}}}, {"type": "Feature", "geometry": {"type": "Polygon", "coordinates": [[[-98.6658312, 36.8053939], [-98.6657363, 36.8053935], [-98.6657389, 36.8050159], [-98.6658339, 36.8050163], [-98.6658312, 36.8053939]]]}, "properties": {"osm_id": 742675348, "building": "retail", "name": "", "height": null, "height_m": null, "levels": null, "tract_id": "40151954300", "tract_name": "9543", "tags": {"building": "retail"}}}, {"type": "Feature", "geometry": {"type": "Polygon", "coordinates": [[[-98.66671, 36.8054265], [-98.6667174, 36.8050287], [-98.6666009, 36.8050289], [-98.6665988, 36.8053581], [-98.6665954, 36.8054251], [-98.66671, 36.8054265]]]}, "properties": {"osm_id": 742675349, "building": "retail", "name": "Kavanaugh and Shea Building", "height": null, "height_m": null, "levels": null, "tract_id": "40151954300", "tract_name": "9543", "tags": {"building": "retail", "name": "Kavanaugh and Shea Building"}}}, {"type": "Feature", "geometry": {"type": "Polygon", "coordinates": [[[-98.6656664, 36.8052833], [-98.6656714, 36.805023], [-98.6655785, 36.8050216], [-98.6655762, 36.8051497], [-98.6655732, 36.8052822], [-98.6656664, 36.8052833]]]}, "properties": {"osm_id": 742675350, "building": "retail", "name": "", "height": null, "height_m": null, "levels": null, "tract_id": "40151954300", "tract_name": "9543", "tags": {"building": "retail"}}}, {"type": "Feature", "geometry": {"type": "Polygon", "coordinates": [[[-98.6655762, 36.8051497], [-98.6655077, 36.8051489], [-98.6655093, 36.805024], [-98.6655785, 36.8050216], [-98.6655762, 36.8051497]]]}, "properties": {"osm_id": 742675351, "building": "retail", "name": "", "height": null, "height_m": null, "levels": null, "tract_id": "40151954300", "tract_name": "9543", "tags": {"building": "retail"}}}, {"type": "Feature", "geometry": {"type": "Polygon", "coordinates": [[[-98.6655077, 36.8051489], [-98.6655046, 36.8054002], [-98.6654079, 36.8053989], [-98.6654125, 36.8050237], [-98.6655093, 36.805024], [-98.6655077, 36.8051489]]]}, "properties": {"osm_id": 742675352, "building": "retail", "name": "", "height": null, "height_m": null, "levels": null, "tract_id": "40151954300", "tract_name": "9543", "tags": {"building": "retail"}}}, {"type": "Feature", "geometry": {"type": "Polygon", "coordinates": [[[-98.6654079, 36.8053989], [-98.6653208, 36.8053982], [-98.6653255, 36.805023], [-98.6654125, 36.8050237], [-98.6654079, 36.8053989]]]}, "properties": {"osm_id": 742675353, "building": "retail", "name": "", "height": null, "height_m": null, "levels": null, "tract_id": "40151954300", "tract_name": "9543", "tags": {"building": "retail"}}}, {"type": "Feature", "geometry": {"type": "Polygon", "coordinates": [[[-98.6665988, 36.8053581], [-98.666491, 36.8053577], [-98.666492, 36.8052858], [-98.6664911, 36.8050301], [-98.6666009, 36.8050289], [-98.6665988, 36.8053581]]]}, "properties": {"osm_id": 742675354, "building": "retail", "name": "", "height": null, "height_m": null, "levels": null, "tract_id": "40151954300", "tract_name": "9543", "tags": {"building": "retail"}}}, {"type": "Feature", "geometry": {"type": "Polygon", "coordinates": [[[-98.666492, 36.8052858], [-98.6663611, 36.8052851], [-98.666361, 36.8050308], [-98.6664911, 36.8050301], [-98.666492, 36.8052858]]]}, "properties": {"osm_id": 742675355, "building": "retail", "name": "", "height": null, "height_m": null, "levels": null, "tract_id": "40151954300", "tract_name": "9543", "tags": {"building": "retail"}}}, {"type": "Feature", "geometry": {"type": "Polygon", "coordinates": [[[-98.6663611, 36.8052851], [-98.6661986, 36.8052852], [-98.6662007, 36.8050309], [-98.666361, 36.8050308], [-98.6663611, 36.8052851]]]}, "properties": {"osm_id": 742675356, "building": "retail", "name": "", "height": null, "height_m": null, "levels": null, "tract_id": "40151954300", "tract_name": "9543", "tags": {"building": "retail"}}}, {"type": "Feature", "geometry": {"type": "Polygon", "coordinates": [[[-98.6661986, 36.8052852], [-98.6661981, 36.8053467], [-98.6660794, 36.805346], [-98.6660822, 36.8050153], [-98.6662009, 36.8050159], [-98.6662007, 36.8050309], [-98.6661986, 36.8052852]]]}, "properties": {"osm_id": 742675357, "building": "retail", "name": "", "height": null, "height_m": null, "levels": null, "tract_id": "40151954300", "tract_name": "9543", "tags": {"building": "retail"}}}, {"type": "Feature", "geometry": {"type": "Polygon", "coordinates": [[[-98.6666831, 36.8012451], [-98.6666813, 36.8008729], [-98.6667099, 36.8008728], [-98.6667095, 36.8007893], [-98.6664943, 36.80079], [-98.6664942, 36.8007745], [-98.6662398, 36.8007753], [-98.6662404, 36.8008955], [-98.66627, 36.8008954], [-98.6662706, 36.8010407], [-98.6662913, 36.8010406], [-98.6662922, 36.8012363], [-98.6664201, 36.8012359], [-98.6664202, 36.8012459], [-98.6666831, 36.8012451]]]}, "properties": {"osm_id": 925446993, "building": "church", "name": "", "height": null, "height_m": null, "levels": null, "tract_id": "40151954300", "tract_name": "9543", "tags": {"building": "church", "denomination": "baptist", "religion": "christian", "wheelchair": "yes"}}}, {"type": "Feature", "geometry": {"type": "Polygon", "coordinates": [[[-98.6584474, 36.8017789], [-98.6584476, 36.8017038], [-98.6584198, 36.8017037], [-98.6584202, 36.8015682], [-98.6583384, 36.801568], [-98.6583383, 36.8015975], [-98.6583063, 36.8015974], [-98.6583057, 36.8017787], [-98.6584474, 36.8017789]]]}, "properties": {"osm_id": 925447007, "building": "house", "name": "", "height": null, "height_m": null, "levels": null, "tract_id": "40151954300", "tract_name": "9543", "tags": {"building": "house", "historic": "church", "religion": "christian"}}}, {"type": "Feature", "geometry": {"type": "Polygon", "coordinates": [[[-98.6612639, 36.7991376], [-98.6614809, 36.7991379], [-98.6614809, 36.799128], [-98.6615718, 36.7991282], [-98.6615717, 36.7991676], [-98.6615008, 36.7991675], [-98.6615006, 36.7992604], [-98.6616201, 36.7992606], [-98.66162, 36.7993023], [-98.6617289, 36.7993024], [-98.6617291, 36.7992441], [-98.6617165, 36.7992441], [-98.6617167, 36.7991756], [-98.6617023, 36.7991756], [-98.6617027, 36.7990473], [-98.6617298, 36.7990473], [-98.6617302, 36.7988913], [-98.6617583, 36.7988913], [-98.6617584, 36.7988527], [-98.6612646, 36.7988519], [-98.6612639, 36.7991376]]]}, "properties": {"osm_id": 925452774, "building": "church", "name": "", "height": null, "height_m": null, "levels": null, "tract_id": "40151954300", "tract_name": "9543", "tags": {"building": "church", "denomination": "evangelical_lutheran", "religion": "christian"}}}, {"type": "Feature", "geometry": {"type": "Polygon", "coordinates": [[[-98.6658572, 36.7962855], [-98.6658566, 36.7961711], [-98.6657978, 36.7961713], [-98.6657974, 36.7960831], [-98.6658123, 36.7960831], [-98.6658122, 36.7960682], [-98.6658561, 36.796068], [-98.6658554, 36.7959343], [-98.6655779, 36.7959352], [-98.6655781, 36.7959843], [-98.6654635, 36.7959847], [-98.6654638, 36.7960512], [-98.6655785, 36.7960509], [-98.6655797, 36.7962865], [-98.6658572, 36.7962855]]]}, "properties": {"osm_id": 925452776, "building": "church", "name": "", "height": null, "height_m": null, "levels": null, "tract_id": "40151954300", "tract_name": "9543", "tags": {"building": "church", "denomination": "church_of_christ", "religion": "christian"}}}, {"type": "Feature", "geometry": {"type": "Polygon", "coordinates": [[[-98.6664599, 36.8004123], [-98.6664603, 36.8003732], [-98.6667115, 36.8003749], [-98.6667128, 36.8002546], [-98.6664616, 36.800253], [-98.6664622, 36.8001964], [-98.6663248, 36.8001954], [-98.6663225, 36.8004114], [-98.6664599, 36.8004123]]]}, "properties": {"osm_id": 925452779, "building": "church", "name": "", "height": null, "height_m": null, "levels": null, "tract_id": "40151954300", "tract_name": "9543", "tags": {"building": "church", "denomination": "nazarene", "religion": "christian"}}}, {"type": "Feature", "geometry": {"type": "Polygon", "coordinates": [[[-98.6650659, 36.7985323], [-98.6650674, 36.7983927], [-98.6648607, 36.7983912], [-98.6648609, 36.7983753], [-98.6647245, 36.7983743], [-98.6647222, 36.7985885], [-98.6648598, 36.7985895], [-98.6648605, 36.7985309], [-98.6650659, 36.7985323]]]}, "properties": {"osm_id": 925452781, "building": "church", "name": "", "height": null, "height_m": null, "levels": null, "tract_id": "40151954300", "tract_name": "9543", "tags": {"building": "church", "denomination": "pentecostal", "religion": "christian"}}}, {"type": "Feature", "geometry": {"type": "Polygon", "coordinates": [[[-98.668264, 36.8018797], [-98.6682682, 36.8016495], [-98.6679265, 36.8016456], [-98.6679273, 36.8016019], [-98.6678055, 36.8016005], [-98.6678052, 36.8016171], [-98.6676292, 36.801615], [-98.6676262, 36.8017772], [-98.6675951, 36.8017768], [-98.6675936, 36.8018566], [-98.6679916, 36.8018612], [-98.6679913, 36.8018765], [-98.668264, 36.8018797]]]}, "properties": {"osm_id": 925452787, "building": "church", "name": "", "height": null, "height_m": null, "levels": null, "tract_id": "40151954300", "tract_name": "9543", "tags": {"building": "church", "denomination": "presbyterian", "religion": "christian"}}}, {"type": "Feature", "geometry": {"type": "Polygon", "coordinates": [[[-98.6655914, 36.8046052], [-98.6655912, 36.8044099], [-98.6660189, 36.8044096], [-98.6660188, 36.8042356], [-98.6655911, 36.8042358], [-98.6655909, 36.8040436], [-98.6654472, 36.8040436], [-98.6654473, 36.8042219], [-98.6653362, 36.8042219], [-98.6653363, 36.8044055], [-98.6654476, 36.8044055], [-98.6654477, 36.8046053], [-98.6655914, 36.8046052]]]}, "properties": {"osm_id": 925452788, "building": "yes", "name": "Woods County Courthouse", "height": null, "height_m": null, "levels": null, "tract_id": "40151954300", "tract_name": "9543", "tags": {"addr:city": "Alva", "addr:housenumber": "407", "addr:postcode": "73717", "addr:state": "OK", "addr:street": "Government Street", "amenity": "courthouse", "building": "yes", "name": "Woods County Courthouse"}}}, {"type": "Feature", "geometry": {"type": "Polygon", "coordinates": [[[-98.6644673, 36.8044057], [-98.6644656, 36.8042132], [-98.6643715, 36.8042137], [-98.6643711, 36.8041661], [-98.6642931, 36.8041665], [-98.6642933, 36.8041892], [-98.6641356, 36.8041901], [-98.6641376, 36.8044076], [-98.6644673, 36.8044057]]]}, "properties": {"osm_id": 925452789, "building": "public", "name": "", "height": null, "height_m": null, "levels": null, "tract_id": "40151954300", "tract_name": "9543", "tags": {"amenity": "post_office", "building": "public", "operator": "United States Postal Service", "operator:short": "USPS", "operator:type": "public", "operator:website": "https://www.usps.com", "operator:wikidata": "Q668687", "operator:wikipedia": "en:United States Postal Service", "short_name": "USPS"}}}, {"type": "Feature", "geometry": {"type": "Polygon", "coordinates": [[[-98.6521375, 36.8013867], [-98.6518924, 36.8013856], [-98.6518919, 36.8014556], [-98.652038, 36.8014563], [-98.6520378, 36.8014842], [-98.6521368, 36.8014847], [-98.6521375, 36.8013867]]]}, "properties": {"osm_id": 925452797, "building": "church", "name": "", "height": null, "height_m": null, "levels": null, "tract_id": "40151954300", "tract_name": "9543", "tags": {"building": "church"}}}, {"type": "Feature", "geometry": {"type": "Polygon", "coordinates": [[[-98.651931, 36.8016454], [-98.6519297, 36.8015023], [-98.6520504, 36.8015016], [-98.6520517, 36.8016447], [-98.651931, 36.8016454]]]}, "properties": {"osm_id": 941085558, "building": "yes", "name": "", "height": null, "height_m": null, "levels": null, "tract_id": "40151954300", "tract_name": "9543", "tags": {"building": "yes"}}}, {"type": "Feature", "geometry": {"type": "Polygon", "coordinates": [[[-98.6521286, 36.8016724], [-98.6521289, 36.8018137], [-98.6519284, 36.801814], [-98.6519281, 36.8016727], [-98.6521286, 36.8016724]]]}, "properties": {"osm_id": 941085559, "building": "yes", "name": "", "height": null, "height_m": null, "levels": null, "tract_id": "40151954300", "tract_name": "9543", "tags": {"building": "yes"}}}, {"type": "Feature", "geometry": {"type": "Polygon", "coordinates": [[[-98.6666961, 36.8019303], [-98.6662723, 36.8019325], [-98.6662713, 36.8018047], [-98.666444, 36.8018038], [-98.6664436, 36.8017499], [-98.6663619, 36.8017503], [-98.6663605, 36.8015814], [-98.6663813, 36.8015813], [-98.666381, 36.8015443], [-98.6666747, 36.8015428], [-98.6666763, 36.8017483], [-98.6665589, 36.8017489], [-98.6665593, 36.8018032], [-98.6666951, 36.8018025], [-98.6666961, 36.8019303]]]}, "properties": {"osm_id": 941097961, "building": "church", "name": "", "height": null, "height_m": null, "levels": null, "tract_id": "40151954300", "tract_name": "9543", "tags": {"building": "church", "denomination": "methodist", "religion": "christian"}}}, {"type": "Feature", "geometry": {"type": "Polygon", "coordinates": [[[-98.6659116, 36.795646], [-98.665913, 36.7957458], [-98.6654503, 36.79575], [-98.6654489, 36.7956503], [-98.6659116, 36.795646]]]}, "properties": {"osm_id": 941118232, "building": "yes", "name": "", "height": null, "height_m": null, "levels": null, "tract_id": "40151954300", "tract_name": "9543", "tags": {"building": "yes"}}}, {"type": "Feature", "geometry": {"type": "Polygon", "coordinates": [[[-98.6658579, 36.7957835], [-98.6658574, 36.7958726], [-98.6657775, 36.7958722], [-98.6657772, 36.7959158], [-98.6656967, 36.7959154], [-98.665697, 36.7958719], [-98.6655891, 36.7958715], [-98.6655897, 36.7957824], [-98.6658579, 36.7957835]]]}, "properties": {"osm_id": 941118233, "building": "yes", "name": "", "height": null, "height_m": null, "levels": null, "tract_id": "40151954300", "tract_name": "9543", "tags": {"building": "yes"}}}, {"type": "Feature", "geometry": {"type": "Polygon", "coordinates": [[[-98.6500263, 36.7998782], [-98.6500206, 36.7998707], [-98.6500123, 36.799865], [-98.6500021, 36.7998616], [-98.6499912, 36.7998608], [-98.6499794, 36.7998632], [-98.6499693, 36.7998686], [-98.6499621, 36.7998765], [-98.6499587, 36.7998858], [-98.6499594, 36.7998956], [-98.6499643, 36.7999045], [-98.6499727, 36.7999116], [-98.6499835, 36.799916], [-98.6499956, 36.7999172], [-98.6500075, 36.799915], [-98.6500168, 36.7999103], [-98.6500239, 36.7999036], [-98.650028, 36.7998955], [-98.6500289, 36.7998867], [-98.6500263, 36.7998782]]]}, "properties": {"osm_id": 972983555, "building": "yes", "name": "", "height": null, "height_m": null, "levels": null, "tract_id": "40151954300", "tract_name": "9543", "tags": {"building": "yes", "man_made": "silo"}}}, {"type": "Feature", "geometry": {"type": "Polygon", "coordinates": [[[-98.6500061, 36.7997655], [-98.6499945, 36.7997637], [-98.6499828, 36.7997652], [-98.6499724, 36.7997696], [-98.6499644, 36.7997766], [-98.6499597, 36.7997853], [-98.6499589, 36.7997947], [-98.6499618, 36.7998035], [-98.649968, 36.7998111], [-98.6499769, 36.7998167], [-98.6499875, 36.7998197], [-98.6499989, 36.7998199], [-98.6500097, 36.7998173], [-98.6500189, 36.799812], [-98.6500255, 36.7998046], [-98.6500289, 36.7997956], [-98.6500285, 36.7997861], [-98.6500241, 36.7997773], [-98.6500164, 36.7997702], [-98.6500061, 36.7997655]]]}, "properties": {"osm_id": 972983556, "building": "yes", "name": "", "height": null, "height_m": null, "levels": null, "tract_id": "40151954300", "tract_name": "9543", "tags": {"building": "yes", "man_made": "silo"}}}, {"type": "Feature", "geometry": {"type": "Polygon", "coordinates": [[[-98.6501098, 36.7996129], [-98.6501076, 36.7996049], [-98.6501022, 36.7995979], [-98.6500943, 36.7995928], [-98.6500847, 36.7995899], [-98.6500744, 36.7995898], [-98.6500647, 36.7995923], [-98.6500566, 36.7995971], [-98.650051, 36.7996038], [-98.6500483, 36.7996116], [-98.6500488, 36.7996196], [-98.6500526, 36.7996271], [-98.6500592, 36.7996332], [-98.6500679, 36.7996373], [-98.6500777, 36.7996389], [-98.6500877, 36.7996379], [-98.6500969, 36.7996343], [-98.6501041, 36.7996285], [-98.6501086, 36.7996211], [-98.6501098, 36.7996129]]]}, "properties": {"osm_id": 972983557, "building": "yes", "name": "", "height": null, "height_m": null, "levels": null, "tract_id": "40151954300", "tract_name": "9543", "tags": {"building": "yes", "man_made": "silo"}}}, {"type": "Feature", "geometry": {"type": "Polygon", "coordinates": [[[-98.650707, 36.7996726], [-98.6506988, 36.7996677], [-98.650689, 36.7996652], [-98.6506788, 36.7996655], [-98.6506693, 36.7996684], [-98.6506615, 36.7996737], [-98.6506563, 36.7996808], [-98.6506544, 36.7996885], [-98.6506556, 36.7996962], [-98.6506598, 36.7997033], [-98.6506666, 36.7997089], [-98.6506752, 36.7997125], [-98.6506848, 36.7997138], [-98.6506945, 36.7997125], [-98.6507031, 36.7997089], [-98.6507102, 36.799703], [-98.6507143, 36.7996955], [-98.6507152, 36.7996873], [-98.6507126, 36.7996794], [-98.650707, 36.7996726]]]}, "properties": {"osm_id": 972983568, "building": "yes", "name": "", "height": null, "height_m": null, "levels": null, "tract_id": "40151954300", "tract_name": "9543", "tags": {"building": "yes", "man_made": "silo"}}}, {"type": "Feature", "geometry": {"type": "Polygon", "coordinates": [[[-98.650716, 36.799632], [-98.6507132, 36.799625], [-98.6507077, 36.7996192], [-98.6507003, 36.7996149], [-98.6506915, 36.7996127], [-98.6506824, 36.7996129], [-98.6506738, 36.7996153], [-98.6506659, 36.7996203], [-98.6506607, 36.7996271], [-98.6506586, 36.7996349], [-98.65066, 36.7996428], [-98.6506648, 36.7996499], [-98.6506722, 36.7996552], [-98.6506814, 36.7996582], [-98.6506914, 36.7996585], [-98.6507002, 36.7996564], [-98.6507077, 36.7996522], [-98.6507131, 36.7996463], [-98.650716, 36.7996393], [-98.650716, 36.799632]]]}, "properties": {"osm_id": 972983569, "building": "yes", "name": "", "height": null, "height_m": null, "levels": null, "tract_id": "40151954300", "tract_name": "9543", "tags": {"building": "yes", "man_made": "silo"}}}, {"type": "Feature", "geometry": {"type": "Polygon", "coordinates": [[[-98.6507104, 36.7995677], [-98.650703, 36.7995622], [-98.6506937, 36.799559], [-98.6506836, 36.7995585], [-98.6506739, 36.7995607], [-98.6506661, 36.799565], [-98.6506604, 36.7995711], [-98.6506574, 36.7995783], [-98.6506574, 36.799586], [-98.6506604, 36.7995932], [-98.6506661, 36.7995993], [-98.6506739, 36.7996036], [-98.6506831, 36.7996058], [-98.6506926, 36.7996055], [-98.6507015, 36.7996028], [-98.6507093, 36.7995977], [-98.6507145, 36.7995908], [-98.6507165, 36.7995829], [-98.6507151, 36.7995748], [-98.6507104, 36.7995677]]]}, "properties": {"osm_id": 972983570, "building": "yes", "name": "", "height": null, "height_m": null, "levels": null, "tract_id": "40151954300", "tract_name": "9543", "tags": {"building": "yes", "man_made": "silo"}}}, {"type": "Feature", "geometry": {"type": "Polygon", "coordinates": [[[-98.6507102, 36.7995148], [-98.650703, 36.7995097], [-98.6506941, 36.7995067], [-98.6506845, 36.7995062], [-98.6506753, 36.7995082], [-98.6506671, 36.7995125], [-98.6506611, 36.7995188], [-98.6506581, 36.7995263], [-98.6506583, 36.7995342], [-98.6506618, 36.7995416], [-98.650668, 36.7995477], [-98.6506764, 36.7995518], [-98.650686, 36.7995534], [-98.6506958, 36.7995524], [-98.6507046, 36.799549], [-98.6507114, 36.7995435], [-98.6507157, 36.7995366], [-98.6507169, 36.799529], [-98.650715, 36.7995214], [-98.6507102, 36.7995148]]]}, "properties": {"osm_id": 972983571, "building": "yes", "name": "", "height": null, "height_m": null, "levels": null, "tract_id": "40151954300", "tract_name": "9543", "tags": {"building": "yes", "man_made": "silo"}}}, {"type": "Feature", "geometry": {"type": "Polygon", "coordinates": [[[-98.652302, 36.7991749], [-98.6523018, 36.7991288], [-98.651913, 36.7991297], [-98.6519132, 36.7991758], [-98.652302, 36.7991749]]]}, "properties": {"osm_id": 972983585, "building": "warehouse", "name": "", "height": null, "height_m": null, "levels": null, "tract_id": "40151954300", "tract_name": "9543", "tags": {"building": "warehouse"}}}, {"type": "Feature", "geometry": {"type": "Polygon", "coordinates": [[[-98.6623193, 36.8077679], [-98.6623193, 36.8075875], [-98.6620297, 36.8075875], [-98.6620297, 36.8077679], [-98.6623193, 36.8077679]]]}, "properties": {"osm_id": 985657884, "building": "yes", "name": "", "height": null, "height_m": null, "levels": null, "tract_id": "40151954300", "tract_name": "9543", "tags": {"building": "yes", "historic": "church"}}}, {"type": "Feature", "geometry": {"type": "Polygon", "coordinates": [[[-98.6640136, 36.8046993], [-98.6640143, 36.8046066], [-98.6638157, 36.8046079], [-98.6638152, 36.8046984], [-98.6640136, 36.8046993]]]}, "properties": {"osm_id": 987827338, "building": "yes", "name": "", "height": null, "height_m": null, "levels": null, "tract_id": "40151954300", "tract_name": "9543", "tags": {"amenity": "police", "building": "yes"}}}, {"type": "Feature", "geometry": {"type": "Polygon", "coordinates": [[[-98.66472, 36.8054586], [-98.6648845, 36.8054572], [-98.6648774, 36.8049935], [-98.6647124, 36.8049951], [-98.66472, 36.8054586]]]}, "properties": {"osm_id": 987827351, "building": "yes", "name": "Alva Community Theatre", "height": null, "height_m": null, "levels": null, "tract_id": "40151954300", "tract_name": "9543", "tags": {"building": "yes", "name": "Alva Community Theatre", "office": "charity", "operator": "Alva Community Theater", "operator:type": "community", "social_facility": "theatre"}}}, {"type": "Feature", "geometry": {"type": "Polygon", "coordinates": [[[-98.6657467, 36.8069716], [-98.665737, 36.8069718], [-98.665728, 36.8069747], [-98.6657207, 36.8069798], [-98.6657161, 36.8069867], [-98.6657146, 36.8069944], [-98.6657166, 36.807002], [-98.6657217, 36.8070087], [-98.6657293, 36.8070135], [-98.6657386, 36.807016], [-98.6657483, 36.8070157], [-98.6657573, 36.8070129], [-98.6657646, 36.8070077], [-98.6657692, 36.8070008], [-98.6657707, 36.8069931], [-98.6657687, 36.8069855], [-98.6657636, 36.8069789], [-98.665756, 36.806974], [-98.6657467, 36.8069716]]]}, "properties": {"osm_id": 987827367, "building": "silo", "name": "", "height": null, "height_m": null, "levels": null, "tract_id": "40151954300", "tract_name": "9543", "tags": {"building": "silo", "man_made": "silo"}}}, {"type": "Feature", "geometry": {"type": "Polygon", "coordinates": [[[-98.6657716, 36.80693], [-98.6657689, 36.8069226], [-98.6657633, 36.8069164], [-98.6657554, 36.8069121], [-98.6657462, 36.8069103], [-98.6657366, 36.8069111], [-98.665728, 36.8069144], [-98.6657214, 36.8069199], [-98.6657175, 36.8069269], [-98.6657168, 36.8069345], [-98.6657194, 36.8069419], [-98.665725, 36.8069481], [-98.6657329, 36.8069524], [-98.6657422, 36.8069542], [-98.6657517, 36.8069535], [-98.6657603, 36.8069501], [-98.665767, 36.8069446], [-98.6657709, 36.8069376], [-98.6657716, 36.80693]]]}, "properties": {"osm_id": 987827368, "building": "silo", "name": "", "height": null, "height_m": null, "levels": null, "tract_id": "40151954300", "tract_name": "9543", "tags": {"building": "silo", "man_made": "silo"}}}, {"type": "Feature", "geometry": {"type": "Polygon", "coordinates": [[[-98.667328, 36.8022164], [-98.6673316, 36.8020644], [-98.6672142, 36.8020638], [-98.6672145, 36.8020236], [-98.6670219, 36.8020226], [-98.6670204, 36.802217], [-98.667328, 36.8022164]]]}, "properties": {"osm_id": 987827422, "building": "yes", "name": "Sights and Sounds Alva", "height": null, "height_m": null, "levels": null, "tract_id": "40151954300", "tract_name": "9543", "tags": {"building": "yes", "landuse": "retail", "name": "Sights and Sounds Alva", "operator": "Sights and Sounds", "shop": "appliance", "website": "https://www.sightsandsoundsalva.com/"}}}, {"type": "Feature", "geometry": {"type": "Polygon", "coordinates": [[[-98.6657772, 36.8077673], [-98.6655791, 36.8077677], [-98.6655789, 36.807714], [-98.665777, 36.8077136], [-98.6657772, 36.8077673]]]}, "properties": {"osm_id": 1005953296, "building": "silo", "name": "", "height": null, "height_m": null, "levels": null, "tract_id": "40151954300", "tract_name": "9543", "tags": {"building": "silo", "man_made": "silo"}}}, {"type": "Feature", "geometry": {"type": "Polygon", "coordinates": [[[-98.6666609, 36.8076281], [-98.6665146, 36.8076284], [-98.6659573, 36.8076295], [-98.665957, 36.8075311], [-98.6657764, 36.8075315], [-98.665777, 36.8077136], [-98.6657772, 36.8077673], [-98.6666613, 36.8077654], [-98.6666609, 36.8076281]]]}, "properties": {"osm_id": 1005953297, "building": "silo", "name": "", "height": null, "height_m": null, "levels": null, "tract_id": "40151954300", "tract_name": "9543", "tags": {"building": "silo", "man_made": "silo"}}}, {"type": "Feature", "geometry": {"type": "Polygon", "coordinates": [[[-98.6689129, 36.808512], [-98.6686392, 36.8085157], [-98.6686364, 36.8083859], [-98.6686358, 36.8083587], [-98.6687058, 36.8083577], [-98.6687064, 36.8083895], [-98.6689102, 36.8083867], [-98.6689129, 36.808512]]]}, "properties": {"osm_id": 1005953763, "building": "silo", "name": "", "height": null, "height_m": null, "levels": null, "tract_id": "40151954300", "tract_name": "9543", "tags": {"building": "silo", "man_made": "silo"}}}, {"type": "Feature", "geometry": {"type": "Polygon", "coordinates": [[[-98.6464654, 36.7679111], [-98.6464669, 36.7677883], [-98.6466071, 36.7677889], [-98.6466125, 36.7678024], [-98.646801, 36.7678055], [-98.6468079, 36.767857], [-98.646801, 36.7678939], [-98.6466117, 36.7678969], [-98.6466087, 36.7679111], [-98.6464654, 36.7679111]]]}, "properties": {"osm_id": 1354766938, "building": "yes", "name": "", "height": null, "height_m": null, "levels": null, "tract_id": "40151954300", "tract_name": "9543", "tags": {"building": "yes"}}}, {"type": "Feature", "geometry": {"type": "Polygon", "coordinates": [[[-98.6465458, 36.7675347], [-98.6465474, 36.7673586], [-98.6467474, 36.767361], [-98.6467474, 36.7675415], [-98.6466753, 36.7675366], [-98.6466593, 36.7675501], [-98.6466347, 36.7675372], [-98.6465458, 36.7675347]]]}, "properties": {"osm_id": 1354766939, "building": "yes", "name": "", "height": null, "height_m": null, "levels": null, "tract_id": "40151954300", "tract_name": "9543", "tags": {"building": "yes"}}}, {"type": "Feature", "geometry": {"type": "Polygon", "coordinates": [[[-98.6469957, 36.7676416], [-98.647001, 36.7676072], [-98.6469941, 36.7675777], [-98.6468754, 36.7675832], [-98.6468777, 36.7676391], [-98.6469957, 36.7676416]]]}, "properties": {"osm_id": 1354766940, "building": "yes", "name": "", "height": null, "height_m": null, "levels": null, "tract_id": "40151954300", "tract_name": "9543", "tags": {"building": "yes"}}}, {"type": "Feature", "geometry": {"type": "Polygon", "coordinates": [[[-98.6465037, 36.7676876], [-98.6465251, 36.7676821], [-98.646529, 36.7676655], [-98.6465129, 36.7676471], [-98.6464853, 36.7676489], [-98.6464715, 36.7676698], [-98.6464822, 36.7676827], [-98.6465037, 36.7676876]]]}, "properties": {"osm_id": 1354766941, "building": "yes", "name": "", "height": null, "height_m": null, "levels": null, "tract_id": "40151954300", "tract_name": "9543", "tags": {"building": "yes", "man_made": "silo"}}}, {"type": "Feature", "geometry": {"type": "Polygon", "coordinates": [[[-98.6465098, 36.767776], [-98.6465244, 36.7677656], [-98.6465244, 36.767749], [-98.6465083, 36.7677386], [-98.6464853, 36.7677441], [-98.6464753, 36.7677619], [-98.6464876, 36.7677729], [-98.6465098, 36.767776]]]}, "properties": {"osm_id": 1354766942, "building": "yes", "name": "", "height": null, "height_m": null, "levels": null, "tract_id": "40151954300", "tract_name": "9543", "tags": {"building": "yes", "man_made": "silo"}}}, {"type": "Feature", "geometry": {"type": "Polygon", "coordinates": [[[-98.6465106, 36.76773], [-98.6465251, 36.7677232], [-98.6465305, 36.7677109], [-98.6465182, 36.7676993], [-98.6465022, 36.767698], [-98.6464868, 36.7677042], [-98.6464868, 36.7677232], [-98.6465106, 36.76773]]]}, "properties": {"osm_id": 1354766943, "building": "yes", "name": "", "height": null, "height_m": null, "levels": null, "tract_id": "40151954300", "tract_name": "9543", "tags": {"building": "yes", "man_made": "silo"}}}, {"type": "Feature", "geometry": {"type": "Polygon", "coordinates": [[[-98.6470033, 36.7668969], [-98.6470049, 36.7668245], [-98.647001, 36.7667496], [-98.6467451, 36.7667496], [-98.6467474, 36.76683], [-98.646742, 36.7668963], [-98.6470033, 36.7668969]]]}, "properties": {"osm_id": 1354766944, "building": "yes", "name": "", "height": null, "height_m": null, "levels": null, "tract_id": "40151954300", "tract_name": "9543", "tags": {"building": "yes"}}}, {"type": "Feature", "geometry": {"type": "Polygon", "coordinates": [[[-98.6484968, 36.783675], [-98.6484972, 36.7836034], [-98.6484297, 36.7836032], [-98.6484293, 36.7836748], [-98.6484968, 36.783675]]]}, "properties": {"osm_id": 1371224841, "building": "yes", "name": "", "height": null, "height_m": null, "levels": null, "tract_id": "40151954300", "tract_name": "9543", "tags": {"building": "yes"}}}, {"type": "Feature", "geometry": {"type": "Polygon", "coordinates": [[[-98.6475912, 36.7618756], [-98.6475919, 36.7618421], [-98.6474868, 36.7618407], [-98.6474861, 36.7618742], [-98.6475912, 36.7618756]]]}, "properties": {"osm_id": 1371225608, "building": "yes", "name": "", "height": null, "height_m": null, "levels": null, "tract_id": "40151954300", "tract_name": "9543", "tags": {"building": "yes"}}}, {"type": "Feature", "geometry": {"type": "Polygon", "coordinates": [[[-98.6502916, 36.7972467], [-98.6501345, 36.7972435], [-98.6501365, 36.7972263], [-98.6500773, 36.7972259], [-98.650089, 36.7970703], [-98.6502121, 36.7970651], [-98.6502131, 36.7970275], [-98.6502688, 36.7970277], [-98.6502703, 36.7970602], [-98.6503228, 36.7970635], [-98.6503174, 36.7971758], [-98.6502955, 36.7971774], [-98.6502916, 36.7972467]]]}, "properties": {"osm_id": 1378098375, "building": "yes", "name": "", "height": null, "height_m": null, "levels": null, "tract_id": "40151954300", "tract_name": "9543", "tags": {"building": "yes"}}}]}