{"type": "FeatureCollection", "features": [{"type": "Feature", "geometry": {"type": "Polygon", "coordinates": [[[-96.9144125, 35.3467425], [-96.9144069, 35.3464368], [-96.9124121, 35.3464552], [-96.9124215, 35.3467656], [-96.9144125, 35.3467425]]]}, "properties": {"osm_id": 768602552, "building": "yes", "name": "", "height": null, "height_m": null, "levels": null, "tract_id": "40125500400", "tract_name": "5004", "tags": {"building": "yes"}}}, {"type": "Feature", "geometry": {"type": "Polygon", "coordinates": [[[-96.9146851, 35.3471348], [-96.9144148, 35.3471396], [-96.9144125, 35.3467425], [-96.9146719, 35.3467382], [-96.9146851, 35.3471348]]]}, "properties": {"osm_id": 768602553, "building": "yes", "name": "", "height": null, "height_m": null, "levels": null, "tract_id": "40125500400", "tract_name": "5004", "tags": {"building": "yes"}}}, {"type": "Feature", "geometry": {"type": "Polygon", "coordinates": [[[-96.9124303, 35.3471357], [-96.9122395, 35.3471336], [-96.9122369, 35.3469262], [-96.9124316, 35.3469293], [-96.9124303, 35.3471357]]]}, "properties": {"osm_id": 768602554, "building": "yes", "name": "", "height": null, "height_m": null, "levels": null, "tract_id": "40125500400", "tract_name": "5004", "tags": {"building": "yes"}}}, {"type": "Feature", "geometry": {"type": "Polygon", "coordinates": [[[-96.9126049, 35.3461199], [-96.9123608, 35.346119], [-96.9123597, 35.3460153], [-96.9126083, 35.3460199], [-96.9126049, 35.3461199]]]}, "properties": {"osm_id": 768602607, "building": "yes", "name": "", "height": null, "height_m": null, "levels": null, "tract_id": "40125500400", "tract_name": "5004", "tags": {"building": "yes"}}}, {"type": "Feature", "geometry": {"type": "Polygon", "coordinates": [[[-96.9123688, 35.3456628], [-96.91257, 35.3456616], [-96.9125686, 35.3454902], [-96.9123614, 35.3454938], [-96.9123688, 35.3456628]]]}, "properties": {"osm_id": 768602608, "building": "yes", "name": "", "height": null, "height_m": null, "levels": null, "tract_id": "40125500400", "tract_name": "5004", "tags": {"building": "yes"}}}, {"type": "Feature", "geometry": {"type": "Polygon", "coordinates": [[[-96.9233616, 35.3339849], [-96.9233574, 35.333587], [-96.9230275, 35.3335892], [-96.9230318, 35.3339976], [-96.923161, 35.3339967], [-96.9231611, 35.3340043], [-96.9232488, 35.3340037], [-96.9232486, 35.3339857], [-96.9233616, 35.3339849]]]}, "properties": {"osm_id": 1133253027, "building": "yes", "name": "", "height": null, "height_m": null, "levels": null, "tract_id": "40125500400", "tract_name": "5004", "tags": {"addr:city": "Shawnee", "addr:housenumber": "521", "addr:postcode": "74801", "addr:state": "OK", "addr:street": "North Broadway Avenue", "building": "yes", "office": "telecommunication"}}}, {"type": "Feature", "geometry": {"type": "Polygon", "coordinates": [[[-96.9161907, 35.3329263], [-96.9163637, 35.3329256], [-96.9163656, 35.3332242], [-96.9161926, 35.3332249], [-96.9161907, 35.3329263]]]}, "properties": {"osm_id": 1207718465, "building": "yes", "name": "", "height": null, "height_m": null, "levels": null, "tract_id": "40125500400", "tract_name": "5004", "tags": {"building": "yes"}}}, {"type": "Feature", "geometry": {"type": "Polygon", "coordinates": [[[-96.9184202, 35.3331467], [-96.9184229, 35.3329136], [-96.9186019, 35.332915], [-96.9185993, 35.333148], [-96.9184202, 35.3331467]]]}, "properties": {"osm_id": 1207718466, "building": "yes", "name": "", "height": null, "height_m": null, "levels": null, "tract_id": "40125500400", "tract_name": "5004", "tags": {"building": "yes"}}}, {"type": "Feature", "geometry": {"type": "Polygon", "coordinates": [[[-96.91792, 35.3331992], [-96.9180432, 35.3331647], [-96.9181076, 35.3333179], [-96.9179843, 35.3333523], [-96.91792, 35.3331992]]]}, "properties": {"osm_id": 1207718467, "building": "yes", "name": "", "height": null, "height_m": null, "levels": null, "tract_id": "40125500400", "tract_name": "5004", "tags": {"building": "yes"}}}, {"type": "Feature", "geometry": {"type": "Polygon", "coordinates": [[[-96.9127889, 35.335244], [-96.9127876, 35.3351444], [-96.912864, 35.3351437], [-96.9128653, 35.3352433], [-96.9127889, 35.335244]]]}, "properties": {"osm_id": 1207718547, "building": "yes", "name": "", "height": null, "height_m": null, "levels": null, "tract_id": "40125500400", "tract_name": "5004", "tags": {"building": "yes"}}}, {"type": "Feature", "geometry": {"type": "Polygon", "coordinates": [[[-96.9123986, 35.3346007], [-96.9124, 35.3343195], [-96.912549, 35.33432], [-96.9125476, 35.3346011], [-96.9123986, 35.3346007]]]}, "properties": {"osm_id": 1207718548, "building": "yes", "name": "", "height": null, "height_m": null, "levels": null, "tract_id": "40125500400", "tract_name": "5004", "tags": {"building": "yes"}}}, {"type": "Feature", "geometry": {"type": "Polygon", "coordinates": [[[-96.9143245, 35.3329078], [-96.9143281, 35.333131], [-96.9140455, 35.3331341], [-96.9140419, 35.3329109], [-96.9143245, 35.3329078]]]}, "properties": {"osm_id": 1207718549, "building": "yes", "name": "", "height": null, "height_m": null, "levels": null, "tract_id": "40125500400", "tract_name": "5004", "tags": {"building": "yes"}}}, {"type": "Feature", "geometry": {"type": "Polygon", "coordinates": [[[-96.9297316, 35.3328025], [-96.9296434, 35.3329039], [-96.9295639, 35.3328579], [-96.9296521, 35.3327565], [-96.9297316, 35.3328025]]]}, "properties": {"osm_id": 1207893141, "building": "roof", "name": "", "height": null, "height_m": null, "levels": null, "tract_id": "40125500400", "tract_name": "5004", "tags": {"building": "roof", "layer": "1"}}}, {"type": "Feature", "geometry": {"type": "Polygon", "coordinates": [[[-96.9296263, 35.3330493], [-96.929632, 35.3332335], [-96.9294454, 35.3332373], [-96.9294397, 35.3330532], [-96.9296263, 35.3330493]]]}, "properties": {"osm_id": 1207893142, "building": "yes", "name": "", "height": null, "height_m": null, "levels": null, "tract_id": "40125500400", "tract_name": "5004", "tags": {"building": "yes"}}}, {"type": "Feature", "geometry": {"type": "Polygon", "coordinates": [[[-96.9242272, 35.3331992], [-96.9241429, 35.3332036], [-96.9241362, 35.3331194], [-96.9242205, 35.3331149], [-96.9242272, 35.3331992]]]}, "properties": {"osm_id": 1207893143, "building": "yes", "name": "", "height": null, "height_m": null, "levels": null, "tract_id": "40125500400", "tract_name": "5004", "tags": {"building": "yes"}}}, {"type": "Feature", "geometry": {"type": "Polygon", "coordinates": [[[-96.9243667, 35.333139], [-96.9243546, 35.3329924], [-96.9244641, 35.3329864], [-96.9244761, 35.333133], [-96.9243667, 35.333139]]]}, "properties": {"osm_id": 1207893144, "building": "yes", "name": "", "height": null, "height_m": null, "levels": null, "tract_id": "40125500400", "tract_name": "5004", "tags": {"building": "yes"}}}, {"type": "Feature", "geometry": {"type": "Polygon", "coordinates": [[[-96.929656, 35.3417303], [-96.9296567, 35.3416587], [-96.9297297, 35.3416592], [-96.929729, 35.3417308], [-96.929656, 35.3417303]]]}, "properties": {"osm_id": 1259756103, "building": "roof", "name": "", "height": null, "height_m": null, "levels": null, "tract_id": "40125500400", "tract_name": "5004", "tags": {"building": "roof"}}}, {"type": "Feature", "geometry": {"type": "Polygon", "coordinates": [[[-96.9295178, 35.3418025], [-96.9295164, 35.3419449], [-96.929322, 35.3419436], [-96.9293235, 35.3418012], [-96.9295178, 35.3418025]]]}, "properties": {"osm_id": 1259756104, "building": "yes", "name": "Love's", "height": null, "height_m": null, "levels": null, "tract_id": "40125500400", "tract_name": "5004", "tags": {"brand": "Love's", "brand:wikidata": "Q1872496", "building": "yes", "name": "Love's", "shop": "convenience", "website": "https://www.loves.com/locations/49"}}}]}