{"type": "FeatureCollection", "features": [{"type": "Feature", "geometry": {"type": "Polygon", "coordinates": [[[-95.9830398, 35.4396849], [-95.9827981, 35.439684], [-95.9827985, 35.4396019], [-95.9830402, 35.4396027], [-95.9830398, 35.4396849]]]}, "properties": {"osm_id": 239710463, "building": "roof", "name": "", "height": null, "height_m": null, "levels": null, "tract_id": "40111000902", "tract_name": "9.02", "tags": {"building": "roof"}}}, {"type": "Feature", "geometry": {"type": "Polygon", "coordinates": [[[-95.9913337, 35.4456341], [-95.9912656, 35.4456382], [-95.9912637, 35.4456173], [-95.9912517, 35.4456181], [-95.9912404, 35.4456188], [-95.9912319, 35.4455234], [-95.9912432, 35.4455227], [-95.9913233, 35.4455179], [-95.9913337, 35.4456341]]]}, "properties": {"osm_id": 239710465, "building": "house", "name": "", "height": null, "height_m": null, "levels": null, "tract_id": "40111000902", "tract_name": "9.02", "tags": {"addr:city": "Henryetta", "addr:country": "US", "addr:housenumber": "803", "addr:postcode": "74437", "addr:street": "West Euclid Street", "building": "house"}}}, {"type": "Feature", "geometry": {"type": "Polygon", "coordinates": [[[-95.9822528, 35.4411025], [-95.9821946, 35.4411522], [-95.9821844, 35.4411746], [-95.9822126, 35.4411823], [-95.982171, 35.4412467], [-95.9820744, 35.4412151], [-95.9821356, 35.4411063], [-95.9821938, 35.4410566], [-95.9822528, 35.4411025]]]}, "properties": {"osm_id": 642982663, "building": "yes", "name": "After Hours Towing", "height": null, "height_m": null, "levels": null, "tract_id": "40111000902", "tract_name": "9.02", "tags": {"addr:city": "Henryetta", "addr:country": "US", "addr:housenumber": "102", "addr:state": "OK", "addr:street": "West Trudgeon Street", "building": "yes", "name": "After Hours Towing"}}}, {"type": "Feature", "geometry": {"type": "Polygon", "coordinates": [[[-95.9881662, 35.4392293], [-95.9881647, 35.4390157], [-95.9878371, 35.4390172], [-95.9878386, 35.4392308], [-95.9881662, 35.4392293]]]}, "properties": {"osm_id": 1060327706, "building": "yes", "name": "", "height": null, "height_m": null, "levels": null, "tract_id": "40111000902", "tract_name": "9.02", "tags": {"addr:city": "Henryetta", "addr:housenumber": "114", "addr:postcode": "74437", "addr:state": "OK", "addr:street": "South 6th Street", "building": "yes"}}}, {"type": "Feature", "geometry": {"type": "Polygon", "coordinates": [[[-95.9851143, 35.4401705], [-95.9851139, 35.4401078], [-95.9851481, 35.4401076], [-95.9852168, 35.4401073], [-95.9852172, 35.4401701], [-95.9851143, 35.4401705]]]}, "properties": {"osm_id": 1081975117, "building": "yes", "name": "", "height": null, "height_m": null, "levels": null, "tract_id": "40111000902", "tract_name": "9.02", "tags": {"building": "yes"}}}, {"type": "Feature", "geometry": {"type": "Polygon", "coordinates": [[[-95.9852829, 35.439956], [-95.9852159, 35.4399563], [-95.9852168, 35.4401073], [-95.9852172, 35.4401701], [-95.9852843, 35.4401698], [-95.9852829, 35.439956]]]}, "properties": {"osm_id": 1081975118, "building": "yes", "name": "One Life", "height": null, "height_m": null, "levels": null, "tract_id": "40111000902", "tract_name": "9.02", "tags": {"building": "yes", "name": "One Life", "office": "medicare_advising_office"}}}, {"type": "Feature", "geometry": {"type": "Polygon", "coordinates": [[[-95.9851481, 35.4401076], [-95.9852168, 35.4401073], [-95.9852159, 35.4399563], [-95.9851471, 35.4399566], [-95.9851481, 35.4401076]]]}, "properties": {"osm_id": 1081975119, "building": "yes", "name": "The Bread House", "height": null, "height_m": null, "levels": null, "tract_id": "40111000902", "tract_name": "9.02", "tags": {"addr:city": "Henryetta", "addr:housenumber": "314 1/2", "addr:postcode": "74437", "addr:state": "OK", "addr:street": "West Main Street", "building": "yes", "name": "The Bread House", "shop": "bakery"}}}, {"type": "Feature", "geometry": {"type": "Polygon", "coordinates": [[[-95.985077, 35.4401086], [-95.9851139, 35.4401078], [-95.9851481, 35.4401076], [-95.9851471, 35.4399566], [-95.9850767, 35.4399582], [-95.985077, 35.4401086]]]}, "properties": {"osm_id": 1081975120, "building": "yes", "name": "Main Barbershop", "height": null, "height_m": null, "levels": null, "tract_id": "40111000902", "tract_name": "9.02", "tags": {"addr:city": "Henryetta", "addr:housenumber": "312", "addr:postcode": "74437", "addr:state": "OK", "addr:street": "West Main Street", "building": "yes", "name": "Main Barbershop", "shop": "hairdresser"}}}, {"type": "Feature", "geometry": {"type": "Polygon", "coordinates": [[[-95.9847178, 35.4401982], [-95.9848869, 35.440198], [-95.984884, 35.4401174], [-95.9848806, 35.4399609], [-95.9847163, 35.4399584], [-95.9847178, 35.4401982]]]}, "properties": {"osm_id": 1081975122, "building": "yes", "name": "Artistic Cowgirl Station", "height": null, "height_m": null, "levels": null, "tract_id": "40111000902", "tract_name": "9.02", "tags": {"building": "yes", "name": "Artistic Cowgirl Station", "shop": "hairdresser"}}}, {"type": "Feature", "geometry": {"type": "Polygon", "coordinates": [[[-95.9846278, 35.4399588], [-95.9847163, 35.4399584], [-95.9847178, 35.4401982], [-95.9847179, 35.4402106], [-95.9846294, 35.440211], [-95.9846278, 35.4399588]]]}, "properties": {"osm_id": 1081975123, "building": "yes", "name": "Henryetta Free-Lance", "height": null, "height_m": null, "levels": null, "tract_id": "40111000902", "tract_name": "9.02", "tags": {"addr:city": "Henryetta", "addr:housenumber": "304", "addr:postcode": "74437", "addr:state": "OK", "addr:street": "West Main Street", "building": "yes", "name": "Henryetta Free-Lance", "office": "newspaper"}}}, {"type": "Feature", "geometry": {"type": "Polygon", "coordinates": [[[-95.9852849, 35.4402745], [-95.985391, 35.4402741], [-95.9853904, 35.440178], [-95.9853889, 35.4399556], [-95.9852829, 35.439956], [-95.9852843, 35.4401698], [-95.9852849, 35.4402745]]]}, "properties": {"osm_id": 1081975124, "building": "yes", "name": "Foresight Land Surveying", "height": null, "height_m": null, "levels": null, "tract_id": "40111000902", "tract_name": "9.02", "tags": {"addr:city": "Henryetta", "addr:housenumber": "318", "addr:postcode": "74437", "addr:state": "OK", "addr:street": "West Main Street", "building": "yes", "name": "Foresight Land Surveying", "office": "surveyor"}}}, {"type": "Feature", "geometry": {"type": "Polygon", "coordinates": [[[-95.9855467, 35.4401773], [-95.9853904, 35.440178], [-95.9853889, 35.4399556], [-95.9855453, 35.4399549], [-95.9855467, 35.4401773]]]}, "properties": {"osm_id": 1081975125, "building": "yes", "name": "Aesthetics By Maddy", "height": null, "height_m": null, "levels": null, "tract_id": "40111000902", "tract_name": "9.02", "tags": {"building": "yes", "name": "Aesthetics By Maddy", "shop": "hairdresser"}}}, {"type": "Feature", "geometry": {"type": "Polygon", "coordinates": [[[-95.9852854, 35.4403381], [-95.9849463, 35.4403395], [-95.9849452, 35.4401712], [-95.9851143, 35.4401705], [-95.9852172, 35.4401701], [-95.9852843, 35.4401698], [-95.9852849, 35.4402745], [-95.9852854, 35.4403381]]]}, "properties": {"osm_id": 1081975126, "building": "yes", "name": "", "height": null, "height_m": null, "levels": null, "tract_id": "40111000902", "tract_name": "9.02", "tags": {"building": "yes"}}}, {"type": "Feature", "geometry": {"type": "Polygon", "coordinates": [[[-95.9856457, 35.4403388], [-95.9855478, 35.4403392], [-95.9855467, 35.4401773], [-95.9855453, 35.4399549], [-95.9856432, 35.4399545], [-95.9856457, 35.4403388]]]}, "properties": {"osm_id": 1081975127, "building": "yes", "name": "Henryetta Tag Office", "height": null, "height_m": null, "levels": null, "tract_id": "40111000902", "tract_name": "9.02", "tags": {"building": "yes", "name": "Henryetta Tag Office", "office": "notary"}}}, {"type": "Feature", "geometry": {"type": "Polygon", "coordinates": [[[-95.9846695, 35.4388899], [-95.9847955, 35.4388878], [-95.9847985, 35.4390002], [-95.9847834, 35.4390005], [-95.9847841, 35.4390248], [-95.9847156, 35.439026], [-95.984715, 35.4390017], [-95.9846892, 35.4390021], [-95.9846875, 35.4389389], [-95.9846708, 35.4389391], [-95.9846695, 35.4388899]]]}, "properties": {"osm_id": 1081975128, "building": "yes", "name": "", "height": null, "height_m": null, "levels": null, "tract_id": "40111000902", "tract_name": "9.02", "tags": {"building": "yes"}}}, {"type": "Feature", "geometry": {"type": "Polygon", "coordinates": [[[-95.9849377, 35.4390156], [-95.9848492, 35.439015], [-95.9848506, 35.4388893], [-95.984939, 35.4388899], [-95.9849377, 35.4390156]]]}, "properties": {"osm_id": 1081975129, "building": "yes", "name": "", "height": null, "height_m": null, "levels": null, "tract_id": "40111000902", "tract_name": "9.02", "tags": {"building": "yes"}}}, {"type": "Feature", "geometry": {"type": "Polygon", "coordinates": [[[-95.9849846, 35.4390626], [-95.984986, 35.4389195], [-95.9851035, 35.4389202], [-95.9851023, 35.4390409], [-95.9850707, 35.4390408], [-95.9850705, 35.4390631], [-95.9849846, 35.4390626]]]}, "properties": {"osm_id": 1081975130, "building": "yes", "name": "", "height": null, "height_m": null, "levels": null, "tract_id": "40111000902", "tract_name": "9.02", "tags": {"building": "yes"}}}, {"type": "Feature", "geometry": {"type": "Polygon", "coordinates": [[[-95.9851389, 35.4392145], [-95.9850543, 35.4392124], [-95.985057, 35.4391403], [-95.9851415, 35.4391423], [-95.9851389, 35.4392145]]]}, "properties": {"osm_id": 1081975131, "building": "yes", "name": "", "height": null, "height_m": null, "levels": null, "tract_id": "40111000902", "tract_name": "9.02", "tags": {"building": "yes"}}}, {"type": "Feature", "geometry": {"type": "Polygon", "coordinates": [[[-95.9856391, 35.4392374], [-95.9852971, 35.4392374], [-95.9852971, 35.438855], [-95.9856391, 35.438855], [-95.9856391, 35.4392374]]]}, "properties": {"osm_id": 1081975132, "building": "yes", "name": "", "height": null, "height_m": null, "levels": null, "tract_id": "40111000902", "tract_name": "9.02", "tags": {"building": "yes"}}}, {"type": "Feature", "geometry": {"type": "Polygon", "coordinates": [[[-95.9851355, 35.4396833], [-95.9847955, 35.439681], [-95.9847955, 35.4393795], [-95.984966, 35.4393805], [-95.9849654, 35.4392951], [-95.9851328, 35.4392943], [-95.9851355, 35.4396833]]]}, "properties": {"osm_id": 1081975134, "building": "yes", "name": "Arkoma Oilfield Services", "height": null, "height_m": null, "levels": null, "tract_id": "40111000902", "tract_name": "9.02", "tags": {"addr:city": "Henryetta", "addr:housenumber": "307", "addr:postcode": "74437", "addr:state": "OK", "addr:street": "West Main Street", "building": "yes", "name": "Arkoma Oilfield Services", "office": "yes"}}}, {"type": "Feature", "geometry": {"type": "Polygon", "coordinates": [[[-95.9853073, 35.4396789], [-95.9851355, 35.4396833], [-95.9851328, 35.4392943], [-95.9853009, 35.4392943], [-95.9853073, 35.4396789]]]}, "properties": {"osm_id": 1081975135, "building": "yes", "name": "The Briefcase", "height": null, "height_m": null, "levels": null, "tract_id": "40111000902", "tract_name": "9.02", "tags": {"addr:city": "Henryetta", "addr:housenumber": "313", "addr:postcode": "74437", "addr:state": "OK", "addr:street": "West Main Street", "amenity": "events_venue", "building": "yes", "name": "The Briefcase"}}}, {"type": "Feature", "geometry": {"type": "Polygon", "coordinates": [[[-95.9854623, 35.4396787], [-95.9853073, 35.4396789], [-95.9853009, 35.4392943], [-95.9854618, 35.4393037], [-95.9854598, 35.43941], [-95.9854628, 35.4395016], [-95.9854623, 35.4396787]]]}, "properties": {"osm_id": 1081975136, "building": "yes", "name": "First Family Federal Credit Union", "height": null, "height_m": null, "levels": null, "tract_id": "40111000902", "tract_name": "9.02", "tags": {"amenity": "bank", "building": "yes", "name": "First Family Federal Credit Union"}}}, {"type": "Feature", "geometry": {"type": "Polygon", "coordinates": [[[-95.9894412, 35.4411768], [-95.9894378, 35.4410424], [-95.9893969, 35.4410419], [-95.9893963, 35.4410298], [-95.9893359, 35.4410298], [-95.9893379, 35.4411582], [-95.9893433, 35.4411588], [-95.989344, 35.4411779], [-95.9894412, 35.4411768]]]}, "properties": {"osm_id": 1234566409, "building": "house", "name": "", "height": null, "height_m": null, "levels": null, "tract_id": "40111000902", "tract_name": "9.02", "tags": {"building": "house"}}}, {"type": "Feature", "geometry": {"type": "Polygon", "coordinates": [[[-95.9892847, 35.4411602], [-95.9892823, 35.4410405], [-95.9892394, 35.4410411], [-95.9892392, 35.4410283], [-95.9891714, 35.4410292], [-95.9891715, 35.4410347], [-95.9891444, 35.4410351], [-95.9891455, 35.4410926], [-95.9891775, 35.4410922], [-95.9891788, 35.4411583], [-95.9891857, 35.4411582], [-95.9891861, 35.441177], [-95.9892717, 35.4411759], [-95.9892714, 35.4411604], [-95.9892847, 35.4411602]]]}, "properties": {"osm_id": 1234566410, "building": "house", "name": "", "height": null, "height_m": null, "levels": null, "tract_id": "40111000902", "tract_name": "9.02", "tags": {"building": "house"}}}, {"type": "Feature", "geometry": {"type": "Polygon", "coordinates": [[[-95.9893319, 35.4412342], [-95.9892816, 35.4412352], [-95.9892823, 35.4411866], [-95.9893326, 35.4411866], [-95.9893319, 35.4412342]]]}, "properties": {"osm_id": 1234566411, "building": "shed", "name": "", "height": null, "height_m": null, "levels": null, "tract_id": "40111000902", "tract_name": "9.02", "tags": {"building": "shed"}}}, {"type": "Feature", "geometry": {"type": "Polygon", "coordinates": [[[-95.9891236, 35.441213], [-95.9890632, 35.4412147], [-95.9890639, 35.4412316], [-95.988997, 35.4412334], [-95.9889892, 35.4410407], [-95.9890442, 35.4410392], [-95.9890439, 35.4410322], [-95.9891162, 35.4410303], [-95.9891236, 35.441213]]]}, "properties": {"osm_id": 1234566412, "building": "house", "name": "", "height": null, "height_m": null, "levels": null, "tract_id": "40111000902", "tract_name": "9.02", "tags": {"building": "house"}}}, {"type": "Feature", "geometry": {"type": "Polygon", "coordinates": [[[-95.9888446, 35.4411972], [-95.9887339, 35.441197], [-95.9887339, 35.4411691], [-95.9885886, 35.4411688], [-95.9885887, 35.4411617], [-95.9885626, 35.4411617], [-95.9885628, 35.4410626], [-95.9887335, 35.4410629], [-95.9887335, 35.4410449], [-95.988845, 35.4410451], [-95.9888446, 35.4411972]]]}, "properties": {"osm_id": 1234566413, "building": "house", "name": "", "height": null, "height_m": null, "levels": null, "tract_id": "40111000902", "tract_name": "9.02", "tags": {"building": "house"}}}, {"type": "Feature", "geometry": {"type": "Polygon", "coordinates": [[[-95.9900653, 35.4413312], [-95.9899508, 35.4413315], [-95.9899502, 35.4411117], [-95.9898667, 35.4411119], [-95.9898666, 35.4410987], [-95.9898296, 35.4410988], [-95.9898295, 35.441075], [-95.9898091, 35.4410751], [-95.989809, 35.4410328], [-95.9898258, 35.4410328], [-95.9898257, 35.4410046], [-95.9898632, 35.4410045], [-95.9898632, 35.440989], [-95.9900643, 35.4409886], [-95.9900653, 35.4413312]]]}, "properties": {"osm_id": 1234566414, "building": "church", "name": "Nazarene Church", "height": null, "height_m": null, "levels": null, "tract_id": "40111000902", "tract_name": "9.02", "tags": {"amenity": "place_of_worship", "building": "church", "name": "Nazarene Church", "religion": "christian"}}}, {"type": "Feature", "geometry": {"type": "Polygon", "coordinates": [[[-95.9906151, 35.4417681], [-95.9906957, 35.4417677], [-95.9906956, 35.4417511], [-95.9907075, 35.4417511], [-95.9907068, 35.4416436], [-95.9906976, 35.4416437], [-95.9906974, 35.4416087], [-95.9906089, 35.4416091], [-95.9906096, 35.4417408], [-95.9906094, 35.4417471], [-95.9906154, 35.441748], [-95.9906151, 35.4417681]]]}, "properties": {"osm_id": 1234566417, "building": "house", "name": "", "height": null, "height_m": null, "levels": null, "tract_id": "40111000902", "tract_name": "9.02", "tags": {"building": "house"}}}, {"type": "Feature", "geometry": {"type": "Polygon", "coordinates": [[[-95.9894302, 35.4413635], [-95.9894303, 35.4413298], [-95.9894418, 35.4413298], [-95.9894421, 35.4412693], [-95.989389, 35.4412691], [-95.989389, 35.4412761], [-95.989283, 35.4412757], [-95.989283, 35.4412845], [-95.989273, 35.4412845], [-95.989273, 35.4412913], [-95.989262, 35.4412913], [-95.9892618, 35.4413539], [-95.9892785, 35.4413539], [-95.9892785, 35.4413631], [-95.9894302, 35.4413635]]]}, "properties": {"osm_id": 1234566418, "building": "house", "name": "", "height": null, "height_m": null, "levels": null, "tract_id": "40111000902", "tract_name": "9.02", "tags": {"building": "house"}}}, {"type": "Feature", "geometry": {"type": "Polygon", "coordinates": [[[-95.9874003, 35.4416765], [-95.9873999, 35.4414521], [-95.9878104, 35.4414515], [-95.9878109, 35.441676], [-95.9874003, 35.4416765]]]}, "properties": {"osm_id": 1234566419, "building": "yes", "name": "Dollar General", "height": null, "height_m": null, "levels": null, "tract_id": "40111000902", "tract_name": "9.02", "tags": {"brand": "Dollar General", "brand:wikidata": "Q145168", "building": "yes", "name": "Dollar General", "shop": "variety_store", "website": "https://www.dollargeneral.com/store-directory/ok/henryetta/633"}}}, {"type": "Feature", "geometry": {"type": "Polygon", "coordinates": [[[-95.9867299, 35.4413471], [-95.9862997, 35.4413509], [-95.9862977, 35.441198], [-95.9860976, 35.4411997], [-95.9860999, 35.4413716], [-95.9859022, 35.4413734], [-95.9858971, 35.44099], [-95.9862525, 35.4409869], [-95.9862545, 35.4411364], [-95.9862875, 35.4411361], [-95.9862866, 35.4410651], [-95.9866438, 35.441062], [-95.986695, 35.4410172], [-95.9867766, 35.4410791], [-95.9867269, 35.4411225], [-95.9867299, 35.4413471]]]}, "properties": {"osm_id": 1234566420, "building": "yes", "name": "First Baptist Church", "height": null, "height_m": null, "levels": null, "tract_id": "40111000902", "tract_name": "9.02", "tags": {"addr:city": "Henryetta", "addr:housenumber": "402", "addr:postcode": "74437", "addr:state": "OK", "addr:street": "West Trudgeon Street", "amenity": "place_of_worship", "building": "yes", "denomination": "baptist", "name": "First Baptist Church", "religion": "christian"}}}, {"type": "Feature", "geometry": {"type": "Polygon", "coordinates": [[[-95.9854104, 35.4418217], [-95.9854119, 35.4417084], [-95.9853408, 35.4417101], [-95.9853449, 35.4414724], [-95.9851518, 35.4414741], [-95.9851518, 35.4414244], [-95.984668, 35.4414211], [-95.984668, 35.4414327], [-95.9846121, 35.4414327], [-95.9846091, 35.441821], [-95.9854104, 35.4418217]]]}, "properties": {"osm_id": 1234566433, "building": "yes", "name": "Homeland", "height": null, "height_m": null, "levels": null, "tract_id": "40111000902", "tract_name": "9.02", "tags": {"addr:city": "Henryetta", "addr:housenumber": "310", "addr:postcode": "74437", "addr:state": "OK", "addr:street": "West Trudgeon Street", "building": "yes", "name": "Homeland", "shop": "supermarket"}}}, {"type": "Feature", "geometry": {"type": "Polygon", "coordinates": [[[-95.9867449, 35.4424248], [-95.9867468, 35.4422771], [-95.986889, 35.4422783], [-95.9868912, 35.4421098], [-95.9866595, 35.4421079], [-95.9866578, 35.4422385], [-95.9865864, 35.4422379], [-95.986584, 35.4424234], [-95.9867449, 35.4424248]]]}, "properties": {"osm_id": 1234566434, "building": "chapel", "name": "Stonefell Chapel", "height": null, "height_m": null, "levels": null, "tract_id": "40111000902", "tract_name": "9.02", "tags": {"addr:city": "Henryetta", "addr:housenumber": "410", "addr:postcode": "74437", "addr:state": "OK", "addr:street": "West Division Street", "building": "chapel", "name": "Stonefell Chapel"}}}, {"type": "Feature", "geometry": {"type": "Polygon", "coordinates": [[[-95.9869239, 35.4416025], [-95.9869267, 35.4417641], [-95.9868758, 35.4417949], [-95.9867722, 35.4417958], [-95.9867725, 35.4418218], [-95.9867345, 35.4418221], [-95.9867342, 35.4417948], [-95.9866648, 35.4417955], [-95.9866644, 35.4417688], [-95.9865554, 35.4417698], [-95.9865546, 35.4417108], [-95.9864737, 35.4417116], [-95.9864711, 35.4415291], [-95.9865739, 35.4415281], [-95.9865947, 35.4415081], [-95.9866942, 35.4415069], [-95.986693, 35.4414369], [-95.9868686, 35.4414349], [-95.9868715, 35.4416032], [-95.9869239, 35.4416025]]]}, "properties": {"osm_id": 1234566435, "building": "chapel", "name": "", "height": null, "height_m": null, "levels": null, "tract_id": "40111000902", "tract_name": "9.02", "tags": {"building": "chapel"}}}, {"type": "Feature", "geometry": {"type": "Polygon", "coordinates": [[[-95.9862537, 35.4416813], [-95.9861574, 35.4416828], [-95.9861557, 35.4416053], [-95.986252, 35.4416038], [-95.9862537, 35.4416813]]]}, "properties": {"osm_id": 1234566436, "building": "roof", "name": "", "height": null, "height_m": null, "levels": null, "tract_id": "40111000902", "tract_name": "9.02", "tags": {"building": "roof", "layer": "1"}}}, {"type": "Feature", "geometry": {"type": "Polygon", "coordinates": [[[-95.9861308, 35.4417377], [-95.9861273, 35.4414662], [-95.9859379, 35.4414678], [-95.9859414, 35.4417394], [-95.9861308, 35.4417377]]]}, "properties": {"osm_id": 1234566437, "building": "church", "name": "", "height": null, "height_m": null, "levels": null, "tract_id": "40111000902", "tract_name": "9.02", "tags": {"building": "church"}}}, {"type": "Feature", "geometry": {"type": "Polygon", "coordinates": [[[-95.9881706, 35.4417595], [-95.9881736, 35.4415823], [-95.9880476, 35.4415809], [-95.9880446, 35.4417581], [-95.9881706, 35.4417595]]]}, "properties": {"osm_id": 1234566440, "building": "house", "name": "", "height": null, "height_m": null, "levels": null, "tract_id": "40111000902", "tract_name": "9.02", "tags": {"building": "house"}}}, {"type": "Feature", "geometry": {"type": "Polygon", "coordinates": [[[-95.988025, 35.4414979], [-95.9878706, 35.4414994], [-95.9878695, 35.4414268], [-95.9880239, 35.4414253], [-95.988025, 35.4414979]]]}, "properties": {"osm_id": 1234566441, "building": "garages", "name": "", "height": null, "height_m": null, "levels": null, "tract_id": "40111000902", "tract_name": "9.02", "tags": {"building": "garages"}}}, {"type": "Feature", "geometry": {"type": "Polygon", "coordinates": [[[-95.9874604, 35.441359], [-95.9874553, 35.4411677], [-95.9874767, 35.4411661], [-95.9874777, 35.441051], [-95.9871586, 35.4410485], [-95.9871616, 35.4413309], [-95.9872043, 35.4413292], [-95.9872053, 35.4413623], [-95.9874604, 35.441359]]]}, "properties": {"osm_id": 1234566442, "building": "yes", "name": "", "height": null, "height_m": null, "levels": null, "tract_id": "40111000902", "tract_name": "9.02", "tags": {"addr:city": "Henryetta", "addr:housenumber": "201", "addr:postcode": "74437", "addr:state": "OK", "addr:street": "North 5th Street", "amenity": "post_depot", "building": "yes", "operator": "United States Postal Service", "operator:short": "USPS", "operator:type": "public", "operator:website": "https://www.usps.com", "operator:wikidata": "Q668687", "operator:wikipedia": "en:United States Postal Service"}}}, {"type": "Feature", "geometry": {"type": "Polygon", "coordinates": [[[-95.987693, 35.4413137], [-95.9876905, 35.4410424], [-95.9878257, 35.4410416], [-95.9878258, 35.4410613], [-95.9878567, 35.4410611], [-95.9878581, 35.4412126], [-95.9877662, 35.4412132], [-95.9877671, 35.4413132], [-95.987693, 35.4413137]]]}, "properties": {"osm_id": 1234566443, "building": "house", "name": "", "height": null, "height_m": null, "levels": null, "tract_id": "40111000902", "tract_name": "9.02", "tags": {"addr:city": "Henryetta", "addr:housenumber": "516", "addr:postcode": "74437", "addr:state": "OK", "addr:street": "West Trudgeon Street", "building": "house"}}}, {"type": "Feature", "geometry": {"type": "Polygon", "coordinates": [[[-95.9881376, 35.4407659], [-95.988055, 35.4407663], [-95.9880547, 35.4407211], [-95.988044, 35.4407212], [-95.9880438, 35.4407], [-95.9879178, 35.4407005], [-95.9879182, 35.4407598], [-95.9878406, 35.4407601], [-95.9878393, 35.4405573], [-95.9879169, 35.440557], [-95.9879177, 35.4406705], [-95.988036, 35.44067], [-95.9880358, 35.4406431], [-95.9881368, 35.4406427], [-95.9881376, 35.4407659]]]}, "properties": {"osm_id": 1234566444, "building": "yes", "name": "American Exchange Motor Bank", "height": null, "height_m": null, "levels": null, "tract_id": "40111000902", "tract_name": "9.02", "tags": {"amenity": "bank", "building": "yes", "name": "American Exchange Motor Bank"}}}, {"type": "Feature", "geometry": {"type": "Polygon", "coordinates": [[[-95.9879655, 35.4399749], [-95.9879692, 35.440106], [-95.9879689, 35.4401662], [-95.9880281, 35.4401655], [-95.9880284, 35.4401858], [-95.9880073, 35.440186], [-95.9880082, 35.4402416], [-95.9881019, 35.4402406], [-95.9881011, 35.4401869], [-95.988084, 35.4401871], [-95.9880837, 35.440166], [-95.9881623, 35.4401652], [-95.9881593, 35.4399729], [-95.9879655, 35.4399749]]]}, "properties": {"osm_id": 1234566446, "building": "yes", "name": "Henryetta Public Library", "height": null, "height_m": null, "levels": null, "tract_id": "40111000902", "tract_name": "9.02", "tags": {"addr:city": "Henryetta", "addr:housenumber": "518", "addr:postcode": "74437", "addr:state": "OK", "addr:street": "West Main Street", "amenity": "library", "building": "yes", "name": "Henryetta Public Library"}}}, {"type": "Feature", "geometry": {"type": "Polygon", "coordinates": [[[-95.9878601, 35.440108], [-95.9878616, 35.4401686], [-95.9877588, 35.4401703], [-95.9877533, 35.4399415], [-95.987856, 35.4399399], [-95.9878566, 35.439963], [-95.9878601, 35.440108]]]}, "properties": {"osm_id": 1234566448, "building": "commercial", "name": "", "height": null, "height_m": null, "levels": null, "tract_id": "40111000902", "tract_name": "9.02", "tags": {"building": "commercial", "description": "Previously \"Imperial Music and Jewelry\""}}}, {"type": "Feature", "geometry": {"type": "Polygon", "coordinates": [[[-95.9877588, 35.4401703], [-95.987426, 35.4401742], [-95.9874222, 35.4399496], [-95.9877533, 35.4399415], [-95.9877588, 35.4401703]]]}, "properties": {"osm_id": 1234566449, "building": "yes", "name": "American Exchange Bank", "height": null, "height_m": null, "levels": null, "tract_id": "40111000902", "tract_name": "9.02", "tags": {"amenity": "bank", "building": "yes", "name": "American Exchange Bank"}}}, {"type": "Feature", "geometry": {"type": "Polygon", "coordinates": [[[-95.9874222, 35.4399496], [-95.9873324, 35.4399509], [-95.9873375, 35.4401725], [-95.9873748, 35.4401723], [-95.987426, 35.4401742], [-95.9874222, 35.4399496]]]}, "properties": {"osm_id": 1234566450, "building": "yes", "name": "Lou Ann Moudy", "height": null, "height_m": null, "levels": null, "tract_id": "40111000902", "tract_name": "9.02", "tags": {"building": "yes", "name": "Lou Ann Moudy", "office": "lawyer"}}}, {"type": "Feature", "geometry": {"type": "Polygon", "coordinates": [[[-95.9873375, 35.4401725], [-95.9872547, 35.4401731], [-95.9872497, 35.4399522], [-95.9873324, 35.4399509], [-95.9873375, 35.4401725]]]}, "properties": {"osm_id": 1234566451, "building": "yes", "name": "Edward Jones", "height": null, "height_m": null, "levels": null, "tract_id": "40111000902", "tract_name": "9.02", "tags": {"alt_name": "Edward Jones Investments", "brand": "Edward Jones", "brand:wikidata": "Q5343830", "building": "yes", "name": "Edward Jones", "office": "financial_advisor"}}}, {"type": "Feature", "geometry": {"type": "Polygon", "coordinates": [[[-95.9872547, 35.4401731], [-95.987171, 35.4401736], [-95.9871648, 35.4399526], [-95.9872497, 35.4399522], [-95.9872547, 35.4401731]]]}, "properties": {"osm_id": 1234566452, "building": "commercial", "name": "", "height": null, "height_m": null, "levels": null, "tract_id": "40111000902", "tract_name": "9.02", "tags": {"building": "commercial"}}}, {"type": "Feature", "geometry": {"type": "Polygon", "coordinates": [[[-95.9869211, 35.4401712], [-95.9869211, 35.4399553], [-95.9868033, 35.4399534], [-95.9868071, 35.440173], [-95.9869211, 35.4401712]]]}, "properties": {"osm_id": 1234566453, "building": "yes", "name": "Best Nails", "height": null, "height_m": null, "levels": null, "tract_id": "40111000902", "tract_name": "9.02", "tags": {"addr:city": "Henryetta", "addr:housenumber": "424", "addr:postcode": "74437", "addr:state": "OK", "addr:street": "West Main Street", "beauty": "nails", "building": "yes", "name": "Best Nails", "shop": "beauty"}}}, {"type": "Feature", "geometry": {"type": "Polygon", "coordinates": [[[-95.9873164, 35.4394153], [-95.987319, 35.4396847], [-95.9871471, 35.4396858], [-95.9871495, 35.4394151], [-95.9873164, 35.4394153]]]}, "properties": {"osm_id": 1234566454, "building": "yes", "name": "McIntosh Tumbling", "height": null, "height_m": null, "levels": null, "tract_id": "40111000902", "tract_name": "9.02", "tags": {"addr:city": "Henryetta", "addr:housenumber": "501", "addr:postcode": "74437", "addr:state": "OK", "addr:street": "West Main Street", "building": "yes", "leisure": "sports_hall", "name": "McIntosh Tumbling", "sport": "tumbling"}}}, {"type": "Feature", "geometry": {"type": "Polygon", "coordinates": [[[-95.987319, 35.4396847], [-95.9874987, 35.4396837], [-95.9874985, 35.4396774], [-95.9875028, 35.4394589], [-95.9875004, 35.4394056], [-95.9873178, 35.4394062], [-95.9873164, 35.4394153], [-95.987319, 35.4396847]]]}, "properties": {"osm_id": 1234566455, "building": "commercial", "name": "", "height": null, "height_m": null, "levels": null, "tract_id": "40111000902", "tract_name": "9.02", "tags": {"building": "commercial"}}}, {"type": "Feature", "geometry": {"type": "Polygon", "coordinates": [[[-95.9874985, 35.4396774], [-95.9875599, 35.4396782], [-95.9875642, 35.4394597], [-95.9875028, 35.4394589], [-95.9874985, 35.4396774]]]}, "properties": {"osm_id": 1234566456, "building": "yes", "name": "The Shack 2.0", "height": null, "height_m": null, "levels": null, "tract_id": "40111000902", "tract_name": "9.02", "tags": {"addr:city": "Henryetta", "addr:housenumber": "509", "addr:postcode": "74437", "addr:state": "OK", "addr:street": "West Main Street", "amenity": "restaurant", "building": "yes", "cuisine": "coffee_shop;pizza", "name": "The Shack 2.0"}}}, {"type": "Feature", "geometry": {"type": "Polygon", "coordinates": [[[-95.9875599, 35.4396782], [-95.9875597, 35.4396883], [-95.9877447, 35.4396883], [-95.9877445, 35.4396799], [-95.9877391, 35.4394602], [-95.9875642, 35.4394597], [-95.9875599, 35.4396782]]]}, "properties": {"osm_id": 1234566457, "building": "yes", "name": "S&L Gallery", "height": null, "height_m": null, "levels": null, "tract_id": "40111000902", "tract_name": "9.02", "tags": {"addr:city": "Henryetta", "addr:housenumber": "511", "addr:postcode": "74437", "addr:state": "OK", "addr:street": "West Main Street", "building": "yes", "name": "S&L Gallery", "shop": "antiques"}}}, {"type": "Feature", "geometry": {"type": "Polygon", "coordinates": [[[-95.9877445, 35.4396799], [-95.9878267, 35.4396799], [-95.9878231, 35.4394572], [-95.9877391, 35.4394602], [-95.9877445, 35.4396799]]]}, "properties": {"osm_id": 1234566458, "building": "yes", "name": "House of Overalls", "height": null, "height_m": null, "levels": null, "tract_id": "40111000902", "tract_name": "9.02", "tags": {"building": "yes", "clothes": "workwear", "name": "House of Overalls", "shop": "clothes"}}}, {"type": "Feature", "geometry": {"type": "Polygon", "coordinates": [[[-95.9879852, 35.4396777], [-95.9879892, 35.4394029], [-95.9880945, 35.4394039], [-95.9880923, 35.439678], [-95.9879852, 35.4396777]]]}, "properties": {"osm_id": 1234566459, "building": "yes", "name": "Burnett's Boutique", "height": null, "height_m": null, "levels": null, "tract_id": "40111000902", "tract_name": "9.02", "tags": {"building": "yes", "name": "Burnett's Boutique", "shop": "clothes"}}}, {"type": "Feature", "geometry": {"type": "Polygon", "coordinates": [[[-95.9879852, 35.4396777], [-95.9878267, 35.4396799], [-95.9878231, 35.4394572], [-95.9878187, 35.4393512], [-95.9879877, 35.4393462], [-95.9879892, 35.4394029], [-95.9879852, 35.4396777]]]}, "properties": {"osm_id": 1234566460, "building": "yes", "name": "Burnett True Value Hardware", "height": null, "height_m": null, "levels": null, "tract_id": "40111000902", "tract_name": "9.02", "tags": {"addr:city": "Henryetta", "addr:housenumber": "521", "addr:postcode": "74437", "addr:state": "OK", "addr:street": "West Main Street", "building": "yes", "name": "Burnett True Value Hardware", "shop": "hardware"}}}, {"type": "Feature", "geometry": {"type": "Polygon", "coordinates": [[[-95.9880923, 35.439678], [-95.9881868, 35.4396785], [-95.9881895, 35.4393533], [-95.9880949, 35.4393528], [-95.9880945, 35.4394039], [-95.9880923, 35.439678]]]}, "properties": {"osm_id": 1234566461, "building": "yes", "name": "R. E. Palmer, CPA", "height": null, "height_m": null, "levels": null, "tract_id": "40111000902", "tract_name": "9.02", "tags": {"addr:city": "Henryetta", "addr:housenumber": "518", "addr:postcode": "74437", "addr:state": "OK", "addr:street": "West Main Street", "building": "yes", "name": "R. E. Palmer, CPA", "office": "accountant"}}}, {"type": "Feature", "geometry": {"type": "Polygon", "coordinates": [[[-95.9868071, 35.440173], [-95.9867511, 35.4401739], [-95.9867231, 35.4401744], [-95.9867156, 35.4399552], [-95.9868033, 35.4399534], [-95.9868071, 35.440173]]]}, "properties": {"osm_id": 1234566462, "building": "commercial", "name": "", "height": null, "height_m": null, "levels": null, "tract_id": "40111000902", "tract_name": "9.02", "tags": {"building": "commercial"}}}, {"type": "Feature", "geometry": {"type": "Polygon", "coordinates": [[[-95.9867231, 35.4401744], [-95.9867511, 35.4401739], [-95.9867485, 35.4403362], [-95.986648, 35.4403359], [-95.9866298, 35.4399524], [-95.9867156, 35.4399552], [-95.9867231, 35.4401744]]]}, "properties": {"osm_id": 1234566463, "building": "commercial", "name": "", "height": null, "height_m": null, "levels": null, "tract_id": "40111000902", "tract_name": "9.02", "tags": {"building": "commercial"}}}, {"type": "Feature", "geometry": {"type": "Polygon", "coordinates": [[[-95.9866298, 35.4399524], [-95.9865458, 35.4399551], [-95.9865639, 35.4403385], [-95.986648, 35.4403359], [-95.9866298, 35.4399524]]]}, "properties": {"osm_id": 1234566464, "building": "yes", "name": "Rheba's Flowers", "height": null, "height_m": null, "levels": null, "tract_id": "40111000902", "tract_name": "9.02", "tags": {"building": "yes", "name": "Rheba's Flowers", "shop": "florist"}}}, {"type": "Feature", "geometry": {"type": "Polygon", "coordinates": [[[-95.9865639, 35.4403385], [-95.9864878, 35.4403384], [-95.9864817, 35.440177], [-95.9864665, 35.4401778], [-95.9864614, 35.4399551], [-95.9865458, 35.4399551], [-95.9865639, 35.4403385]]]}, "properties": {"osm_id": 1234566465, "building": "commercial", "name": "", "height": null, "height_m": null, "levels": null, "tract_id": "40111000902", "tract_name": "9.02", "tags": {"building": "commercial"}}}, {"type": "Feature", "geometry": {"type": "Polygon", "coordinates": [[[-95.9864665, 35.4401778], [-95.9863866, 35.440175], [-95.9863855, 35.4401132], [-95.9863826, 35.4399529], [-95.9864614, 35.4399551], [-95.9864665, 35.4401778]]]}, "properties": {"osm_id": 1234566466, "building": "yes", "name": "Boone Creek Trading Post", "height": null, "height_m": null, "levels": null, "tract_id": "40111000902", "tract_name": "9.02", "tags": {"building": "yes", "name": "Boone Creek Trading Post", "shop": "collector"}}}, {"type": "Feature", "geometry": {"type": "Polygon", "coordinates": [[[-95.9862959, 35.4401759], [-95.9863209, 35.4401754], [-95.9863866, 35.440175], [-95.9863855, 35.4401132], [-95.9863826, 35.4399529], [-95.9862898, 35.4399529], [-95.986294, 35.440105], [-95.9862959, 35.4401759]]]}, "properties": {"osm_id": 1234566467, "building": "yes", "name": "Cave's Jewlrey Inc", "height": null, "height_m": null, "levels": null, "tract_id": "40111000902", "tract_name": "9.02", "tags": {"addr:city": "Henryetta", "addr:housenumber": "412", "addr:postcode": "74437", "addr:state": "OK", "addr:street": "West Main Street", "building": "yes", "name": "Cave's Jewlrey Inc", "shop": "jewelry"}}}, {"type": "Feature", "geometry": {"type": "Polygon", "coordinates": [[[-95.9862214, 35.4402326], [-95.9862148, 35.4399549], [-95.9862898, 35.4399529], [-95.986294, 35.440105], [-95.9862959, 35.4401759], [-95.9863209, 35.4401754], [-95.9863224, 35.4402324], [-95.9862214, 35.4402326]]]}, "properties": {"osm_id": 1234566468, "building": "yes", "name": "Easy Wireless Henryetta, OK", "height": null, "height_m": null, "levels": null, "tract_id": "40111000902", "tract_name": "9.02", "tags": {"building": "yes", "name": "Easy Wireless Henryetta, OK", "shop": "mobile_phone"}}}, {"type": "Feature", "geometry": {"type": "Polygon", "coordinates": [[[-95.9862214, 35.4402326], [-95.9861425, 35.4402339], [-95.986144, 35.4402296], [-95.986137, 35.4399552], [-95.9862148, 35.4399549], [-95.9862214, 35.4402326]]]}, "properties": {"osm_id": 1234566469, "building": "yes", "name": "Bee's Knees Vintage", "height": null, "height_m": null, "levels": null, "tract_id": "40111000902", "tract_name": "9.02", "tags": {"building": "yes", "name": "Bee's Knees Vintage", "shop": "antiques"}}}, {"type": "Feature", "geometry": {"type": "Polygon", "coordinates": [[[-95.986144, 35.4402296], [-95.9860466, 35.4402313], [-95.9860396, 35.4399568], [-95.986137, 35.4399552], [-95.986144, 35.4402296]]]}, "properties": {"osm_id": 1234566470, "building": "yes", "name": "Bluebird Antiques", "height": null, "height_m": null, "levels": null, "tract_id": "40111000902", "tract_name": "9.02", "tags": {"building": "yes", "name": "Bluebird Antiques", "shop": "antiques"}}}, {"type": "Feature", "geometry": {"type": "Polygon", "coordinates": [[[-95.9860466, 35.4402313], [-95.9860501, 35.4403363], [-95.9858591, 35.440337], [-95.9858522, 35.439956], [-95.9860396, 35.4399568], [-95.9860466, 35.4402313]]]}, "properties": {"osm_id": 1234566471, "building": "commercial", "name": "", "height": null, "height_m": null, "levels": null, "tract_id": "40111000902", "tract_name": "9.02", "tags": {"addr:city": "Henryetta", "addr:housenumber": "402", "addr:postcode": "74437", "addr:state": "OK", "addr:street": "West Main Street", "building": "commercial", "description": "Previously \"Henryetta Music Center\""}}}, {"type": "Feature", "geometry": {"type": "Polygon", "coordinates": [[[-95.985077, 35.4401086], [-95.9850034, 35.44011], [-95.9850039, 35.4399587], [-95.9850767, 35.4399582], [-95.985077, 35.4401086]]]}, "properties": {"osm_id": 1234566472, "building": "yes", "name": "Vapor Maven", "height": null, "height_m": null, "levels": null, "tract_id": "40111000902", "tract_name": "9.02", "tags": {"addr:city": "Henryetta", "addr:housenumber": "312", "addr:postcode": "74437", "addr:state": "OK", "addr:street": "West Main Street", "building": "yes", "name": "Vapor Maven", "shop": "e-cigarette"}}}, {"type": "Feature", "geometry": {"type": "Polygon", "coordinates": [[[-95.9850034, 35.44011], [-95.9850033, 35.4401151], [-95.9849408, 35.4401166], [-95.9849375, 35.4399601], [-95.9850039, 35.4399587], [-95.9850034, 35.44011]]]}, "properties": {"osm_id": 1234566473, "building": "yes", "name": "The Lodge Events Center", "height": null, "height_m": null, "levels": null, "tract_id": "40111000902", "tract_name": "9.02", "tags": {"addr:city": "Henryetta", "addr:housenumber": "310", "addr:postcode": "74437", "addr:state": "OK", "addr:street": "West Main Street", "amenity": "events_venue", "building": "yes", "name": "The Lodge Events Center"}}}, {"type": "Feature", "geometry": {"type": "Polygon", "coordinates": [[[-95.9849408, 35.4401166], [-95.984884, 35.4401174], [-95.9848806, 35.4399609], [-95.9849375, 35.4399601], [-95.9849408, 35.4401166]]]}, "properties": {"osm_id": 1234566474, "building": "yes", "name": "Nail Boutique, LLC", "height": null, "height_m": null, "levels": null, "tract_id": "40111000902", "tract_name": "9.02", "tags": {"addr:city": "Henryetta", "addr:housenumber": "308", "addr:postcode": "74437", "addr:state": "OK", "addr:street": "West Main Street", "beauty": "nails", "building": "yes", "name": "Nail Boutique, LLC", "shop": "beauty"}}}, {"type": "Feature", "geometry": {"type": "Polygon", "coordinates": [[[-95.9842548, 35.4401876], [-95.9842059, 35.4401887], [-95.9842052, 35.4401018], [-95.9842542, 35.4401024], [-95.9842548, 35.4401876]]]}, "properties": {"osm_id": 1234566475, "building": "yes", "name": "Chillzone Snowcone Shop", "height": null, "height_m": null, "levels": null, "tract_id": "40111000902", "tract_name": "9.02", "tags": {"amenity": "ice_cream", "building": "yes", "cuisine": "snowcones", "name": "Chillzone Snowcone Shop"}}}, {"type": "Feature", "geometry": {"type": "Polygon", "coordinates": [[[-95.9853369, 35.4405829], [-95.9853372, 35.440636], [-95.985302, 35.4406362], [-95.9853025, 35.4407224], [-95.9852876, 35.4407224], [-95.9852877, 35.4407369], [-95.9852691, 35.4407586], [-95.985243, 35.4407589], [-95.9852434, 35.4407809], [-95.9850142, 35.4407839], [-95.9850137, 35.4407583], [-95.9849957, 35.4407586], [-95.9849744, 35.4407391], [-95.9849743, 35.4407255], [-95.9849441, 35.4407257], [-95.9849439, 35.4406997], [-95.9849588, 35.4406996], [-95.9849577, 35.4405877], [-95.9850331, 35.4405873], [-95.9850328, 35.4405574], [-95.9849851, 35.440458], [-95.9850585, 35.4404572], [-95.9851089, 35.4405502], [-95.9851092, 35.4405839], [-95.9853369, 35.4405829]]]}, "properties": {"osm_id": 1234566476, "building": "yes", "name": "First National Bank and Trust", "height": null, "height_m": null, "levels": null, "tract_id": "40111000902", "tract_name": "9.02", "tags": {"amenity": "bank", "building": "yes", "name": "First National Bank and Trust"}}}, {"type": "Feature", "geometry": {"type": "Polygon", "coordinates": [[[-95.9852994, 35.4404562], [-95.9852174, 35.4404556], [-95.985218, 35.4403976], [-95.9853, 35.4403982], [-95.9852994, 35.4404562]]]}, "properties": {"osm_id": 1234566477, "building": "yes", "name": "", "height": null, "height_m": null, "levels": null, "tract_id": "40111000902", "tract_name": "9.02", "tags": {"building": "yes"}}}, {"type": "Feature", "geometry": {"type": "Polygon", "coordinates": [[[-95.9839543, 35.4396806], [-95.9838809, 35.4396811], [-95.9838785, 35.439466], [-95.9839519, 35.4394654], [-95.9839543, 35.4396806]]]}, "properties": {"osm_id": 1234566479, "building": "yes", "name": "", "height": null, "height_m": null, "levels": null, "tract_id": "40111000902", "tract_name": "9.02", "tags": {"building": "yes", "shop": "storage_rental"}}}, {"type": "Feature", "geometry": {"type": "Polygon", "coordinates": [[[-95.9838416, 35.4396887], [-95.9837724, 35.43969], [-95.9837664, 35.4394684], [-95.9838356, 35.4394672], [-95.9838416, 35.4396887]]]}, "properties": {"osm_id": 1234566480, "building": "yes", "name": "", "height": null, "height_m": null, "levels": null, "tract_id": "40111000902", "tract_name": "9.02", "tags": {"building": "yes", "shop": "storage_rental"}}}, {"type": "Feature", "geometry": {"type": "Polygon", "coordinates": [[[-95.9839431, 35.4394538], [-95.983876, 35.4394553], [-95.9838712, 35.4393129], [-95.9839384, 35.4393114], [-95.9839431, 35.4394538]]]}, "properties": {"osm_id": 1234566481, "building": "yes", "name": "", "height": null, "height_m": null, "levels": null, "tract_id": "40111000902", "tract_name": "9.02", "tags": {"building": "yes", "shop": "storage_rental"}}}, {"type": "Feature", "geometry": {"type": "Polygon", "coordinates": [[[-95.9837707, 35.439451], [-95.983688, 35.4394519], [-95.9836856, 35.4393139], [-95.9837684, 35.439313], [-95.9837707, 35.439451]]]}, "properties": {"osm_id": 1234566482, "building": "yes", "name": "", "height": null, "height_m": null, "levels": null, "tract_id": "40111000902", "tract_name": "9.02", "tags": {"building": "yes", "shop": "storage_rental"}}}, {"type": "Feature", "geometry": {"type": "Polygon", "coordinates": [[[-95.9837724, 35.43969], [-95.9836786, 35.4396903], [-95.9836706, 35.4394718], [-95.9837664, 35.4394684], [-95.9837724, 35.43969]]]}, "properties": {"osm_id": 1234566483, "building": "yes", "name": "Baker's Mini Storage", "height": null, "height_m": null, "levels": null, "tract_id": "40111000902", "tract_name": "9.02", "tags": {"building": "yes", "name": "Baker's Mini Storage", "shop": "storage_rental"}}}, {"type": "Feature", "geometry": {"type": "Polygon", "coordinates": [[[-95.9834941, 35.4396907], [-95.9833358, 35.4396909], [-95.9833353, 35.4394716], [-95.9834936, 35.4394714], [-95.9834941, 35.4396907]]]}, "properties": {"osm_id": 1234566484, "building": "yes", "name": "State Farm", "height": null, "height_m": null, "levels": null, "tract_id": "40111000902", "tract_name": "9.02", "tags": {"brand": "State Farm", "brand:wikidata": "Q2007336", "building": "yes", "name": "State Farm", "office": "insurance"}}}, {"type": "Feature", "geometry": {"type": "Polygon", "coordinates": [[[-95.9855517, 35.4396781], [-95.9855486, 35.4395019], [-95.9854628, 35.4395016], [-95.9854623, 35.4396787], [-95.9855517, 35.4396781]]]}, "properties": {"osm_id": 1234566486, "building": "yes", "name": "The Mane Hair Studio", "height": null, "height_m": null, "levels": null, "tract_id": "40111000902", "tract_name": "9.02", "tags": {"building": "yes", "name": "The Mane Hair Studio", "shop": "hairdresser"}}}, {"type": "Feature", "geometry": {"type": "Polygon", "coordinates": [[[-95.9855517, 35.4396781], [-95.9856455, 35.4396804], [-95.9856457, 35.4395003], [-95.9855486, 35.4395019], [-95.9855517, 35.4396781]]]}, "properties": {"osm_id": 1234566487, "building": "yes", "name": "Green County Insurance", "height": null, "height_m": null, "levels": null, "tract_id": "40111000902", "tract_name": "9.02", "tags": {"building": "yes", "name": "Green County Insurance", "office": "insurance"}}}, {"type": "Feature", "geometry": {"type": "Polygon", "coordinates": [[[-95.9856457, 35.4395003], [-95.9856467, 35.4394123], [-95.9854598, 35.43941], [-95.9854628, 35.4395016], [-95.9855486, 35.4395019], [-95.9856457, 35.4395003]]]}, "properties": {"osm_id": 1234566488, "building": "yes", "name": "KO Fitness and Firearms", "height": null, "height_m": null, "levels": null, "tract_id": "40111000902", "tract_name": "9.02", "tags": {"building": "yes", "name": "KO Fitness and Firearms", "shop": "weapons"}}}, {"type": "Feature", "geometry": {"type": "Polygon", "coordinates": [[[-95.9856467, 35.4394123], [-95.9856487, 35.4393061], [-95.9854618, 35.4393037], [-95.9854598, 35.43941], [-95.9856467, 35.4394123]]]}, "properties": {"osm_id": 1234566489, "building": "yes", "name": "KO Fitness Concepts", "height": null, "height_m": null, "levels": null, "tract_id": "40111000902", "tract_name": "9.02", "tags": {"building": "yes", "leisure": "fitness_centre", "name": "KO Fitness Concepts"}}}, {"type": "Feature", "geometry": {"type": "Polygon", "coordinates": [[[-95.9863338, 35.4407777], [-95.9863354, 35.4403898], [-95.9862304, 35.4403883], [-95.9862255, 35.4407761], [-95.9863338, 35.4407777]]]}, "properties": {"osm_id": 1234568073, "building": "yes", "name": "Brown Printing", "height": null, "height_m": null, "levels": null, "tract_id": "40111000902", "tract_name": "9.02", "tags": {"addr:city": "Henryetta", "addr:housenumber": "407", "addr:postcode": "74437", "addr:state": "OK", "addr:street": "West Trudgeon Street", "building": "yes", "name": "Brown Printing", "shop": "stationery"}}}, {"type": "Feature", "geometry": {"type": "Polygon", "coordinates": [[[-95.9862255, 35.4407761], [-95.9861521, 35.4407777], [-95.9861499, 35.4406393], [-95.9861542, 35.4403876], [-95.9862304, 35.4403883], [-95.9862255, 35.4407761]]]}, "properties": {"osm_id": 1234568074, "building": "yes", "name": "Gaither Law Office", "height": null, "height_m": null, "levels": null, "tract_id": "40111000902", "tract_name": "9.02", "tags": {"addr:city": "Henryetta", "addr:housenumber": "405", "addr:postcode": "74437", "addr:state": "OK", "addr:street": "West Trudgeon Street", "building": "yes", "name": "Gaither Law Office", "office": "lawyer"}}}, {"type": "Feature", "geometry": {"type": "Polygon", "coordinates": [[[-95.9861521, 35.4407777], [-95.9859722, 35.4407796], [-95.98597, 35.4406412], [-95.9860973, 35.4406398], [-95.9861499, 35.4406393], [-95.9861521, 35.4407777]]]}, "properties": {"osm_id": 1234568075, "building": "yes", "name": "Gold Construction and Roofing", "height": null, "height_m": null, "levels": null, "tract_id": "40111000902", "tract_name": "9.02", "tags": {"addr:city": "Henryetta", "addr:housenumber": "403", "addr:postcode": "74437", "addr:state": "OK", "addr:street": "West Trudgeon Street", "building": "yes", "craft": "roofer", "name": "Gold Construction and Roofing"}}}, {"type": "Feature", "geometry": {"type": "Polygon", "coordinates": [[[-95.9859722, 35.4407796], [-95.9858947, 35.440781], [-95.9858747, 35.4407735], [-95.985867, 35.4407622], [-95.9858655, 35.4406373], [-95.98597, 35.4406412], [-95.9859722, 35.4407796]]]}, "properties": {"osm_id": 1234568076, "building": "yes", "name": "Elite Lashes Studio", "height": null, "height_m": null, "levels": null, "tract_id": "40111000902", "tract_name": "9.02", "tags": {"addr:city": "Henryetta", "addr:housenumber": "400", "addr:postcode": "74437", "addr:state": "OK", "addr:street": "West Trudgeon Street", "building": "yes", "name": "Elite Lashes Studio", "shop": "beauty"}}}, {"type": "Feature", "geometry": {"type": "Polygon", "coordinates": [[[-95.9858655, 35.4406373], [-95.9858655, 35.4405833], [-95.9860988, 35.4405827], [-95.9860973, 35.4406398], [-95.98597, 35.4406412], [-95.9858655, 35.4406373]]]}, "properties": {"osm_id": 1234568077, "building": "commercial", "name": "", "height": null, "height_m": null, "levels": null, "tract_id": "40111000902", "tract_name": "9.02", "tags": {"building": "commercial"}}}, {"type": "Feature", "geometry": {"type": "Polygon", "coordinates": [[[-95.985858, 35.440523], [-95.9858561, 35.4404601], [-95.9860993, 35.4404548], [-95.9860988, 35.4405182], [-95.985858, 35.440523]]]}, "properties": {"osm_id": 1234568079, "building": "yes", "name": "Empire Finance", "height": null, "height_m": null, "levels": null, "tract_id": "40111000902", "tract_name": "9.02", "tags": {"addr:city": "Henryetta", "addr:housenumber": "117", "addr:postcode": "74437", "addr:state": "OK", "addr:street": "North 4th Street", "building": "yes", "name": "Empire Finance", "shop": "money_lender"}}}, {"type": "Feature", "geometry": {"type": "Polygon", "coordinates": [[[-95.9858561, 35.4404601], [-95.9858551, 35.4403946], [-95.986102, 35.4403927], [-95.9860993, 35.4404548], [-95.9858561, 35.4404601]]]}, "properties": {"osm_id": 1234568080, "building": "commercial", "name": "", "height": null, "height_m": null, "levels": null, "tract_id": "40111000902", "tract_name": "9.02", "tags": {"addr:city": "Henryetta", "addr:housenumber": "115", "addr:postcode": "74437", "addr:state": "OK", "addr:street": "North 4th Street", "building": "commercial"}}}, {"type": "Feature", "geometry": {"type": "Polygon", "coordinates": [[[-95.9868128, 35.4382009], [-95.9866623, 35.4382037], [-95.9866631, 35.4382341], [-95.9864029, 35.4382389], [-95.9864122, 35.4385738], [-95.9868023, 35.4385666], [-95.9868011, 35.4385223], [-95.9868931, 35.4385206], [-95.9868865, 35.4382834], [-95.9868151, 35.4382848], [-95.9868128, 35.4382009]]]}, "properties": {"osm_id": 1253457994, "building": "yes", "name": "", "height": null, "height_m": null, "levels": null, "tract_id": "40111000902", "tract_name": "9.02", "tags": {"building": "yes"}}}, {"type": "Feature", "geometry": {"type": "Polygon", "coordinates": [[[-95.9873368, 35.438415], [-95.987227, 35.4384137], [-95.9872245, 35.4385528], [-95.9873343, 35.4385541], [-95.9873368, 35.438415]]]}, "properties": {"osm_id": 1253457995, "building": "yes", "name": "", "height": null, "height_m": null, "levels": null, "tract_id": "40111000902", "tract_name": "9.02", "tags": {"building": "yes"}}}, {"type": "Feature", "geometry": {"type": "Polygon", "coordinates": [[[-95.9873744, 35.4379772], [-95.9872128, 35.4379793], [-95.9872143, 35.4380562], [-95.9873759, 35.4380541], [-95.9873744, 35.4379772]]]}, "properties": {"osm_id": 1253457996, "building": "yes", "name": "", "height": null, "height_m": null, "levels": null, "tract_id": "40111000902", "tract_name": "9.02", "tags": {"building": "yes"}}}, {"type": "Feature", "geometry": {"type": "Polygon", "coordinates": [[[-95.9872069, 35.4377944], [-95.9872069, 35.4378437], [-95.9872169, 35.4378437], [-95.9872168, 35.4379199], [-95.9873392, 35.43792], [-95.9873393, 35.4378536], [-95.9873554, 35.4378536], [-95.9873555, 35.4377946], [-95.9872069, 35.4377944]]]}, "properties": {"osm_id": 1253457997, "building": "yes", "name": "", "height": null, "height_m": null, "levels": null, "tract_id": "40111000902", "tract_name": "9.02", "tags": {"building": "yes"}}}, {"type": "Feature", "geometry": {"type": "Polygon", "coordinates": [[[-95.9874317, 35.4378574], [-95.9873713, 35.4378592], [-95.987374, 35.4379134], [-95.9874342, 35.4379112], [-95.9874317, 35.4378574]]]}, "properties": {"osm_id": 1253457998, "building": "yes", "name": "", "height": null, "height_m": null, "levels": null, "tract_id": "40111000902", "tract_name": "9.02", "tags": {"building": "yes"}}}, {"type": "Feature", "geometry": {"type": "Polygon", "coordinates": [[[-95.9874342, 35.4379112], [-95.9874356, 35.4379369], [-95.9873754, 35.437939], [-95.987374, 35.4379134], [-95.9874342, 35.4379112]]]}, "properties": {"osm_id": 1253457999, "building": "yes", "name": "", "height": null, "height_m": null, "levels": null, "tract_id": "40111000902", "tract_name": "9.02", "tags": {"building": "yes"}}}, {"type": "Feature", "geometry": {"type": "Polygon", "coordinates": [[[-95.9864985, 35.4378482], [-95.9864238, 35.4378488], [-95.9864259, 35.4380093], [-95.9865006, 35.4380087], [-95.9864985, 35.4378482]]]}, "properties": {"osm_id": 1253458000, "building": "yes", "name": "", "height": null, "height_m": null, "levels": null, "tract_id": "40111000902", "tract_name": "9.02", "tags": {"building": "yes"}}}, {"type": "Feature", "geometry": {"type": "Polygon", "coordinates": [[[-95.987327, 35.4374939], [-95.9872766, 35.4374948], [-95.9872765, 35.4374896], [-95.98721, 35.4374908], [-95.9872096, 35.4374771], [-95.9871976, 35.4374773], [-95.9871967, 35.4374446], [-95.9872098, 35.4374443], [-95.9872078, 35.4373739], [-95.9873351, 35.4373715], [-95.9873355, 35.4373841], [-95.9873295, 35.4373842], [-95.9873323, 35.4374854], [-95.9873267, 35.4374855], [-95.987327, 35.4374939]]]}, "properties": {"osm_id": 1253458001, "building": "yes", "name": "", "height": null, "height_m": null, "levels": null, "tract_id": "40111000902", "tract_name": "9.02", "tags": {"building": "yes"}}}, {"type": "Feature", "geometry": {"type": "Polygon", "coordinates": [[[-95.9858911, 35.4393019], [-95.9858911, 35.4394128], [-95.9861192, 35.4394118], [-95.9861297, 35.4394128], [-95.9861297, 35.4393019], [-95.9858911, 35.4393019]]]}, "properties": {"osm_id": 1253458197, "building": "yes", "name": "", "height": null, "height_m": null, "levels": null, "tract_id": "40111000902", "tract_name": "9.02", "tags": {"building": "yes"}}}, {"type": "Feature", "geometry": {"type": "Polygon", "coordinates": [[[-95.9861192, 35.4394118], [-95.9861227, 35.4396879], [-95.9858693, 35.439689], [-95.9858661, 35.4394149], [-95.9861192, 35.4394118]]]}, "properties": {"osm_id": 1253458198, "building": "yes", "name": "", "height": null, "height_m": null, "levels": null, "tract_id": "40111000902", "tract_name": "9.02", "tags": {"building": "yes"}}}, {"type": "Feature", "geometry": {"type": "Polygon", "coordinates": [[[-95.9863852, 35.4393003], [-95.9863844, 35.439407], [-95.9863679, 35.4394098], [-95.9862137, 35.4394062], [-95.9862144, 35.4392995], [-95.9863852, 35.4393003]]]}, "properties": {"osm_id": 1253458199, "building": "yes", "name": "", "height": null, "height_m": null, "levels": null, "tract_id": "40111000902", "tract_name": "9.02", "tags": {"building": "yes"}}}, {"type": "Feature", "geometry": {"type": "Polygon", "coordinates": [[[-95.9863679, 35.4394098], [-95.9863689, 35.439688], [-95.9861992, 35.4396873], [-95.9861956, 35.4394111], [-95.9863679, 35.4394098]]]}, "properties": {"osm_id": 1253458200, "building": "yes", "name": "", "height": null, "height_m": null, "levels": null, "tract_id": "40111000902", "tract_name": "9.02", "tags": {"building": "yes"}}}, {"type": "Feature", "geometry": {"type": "Polygon", "coordinates": [[[-95.9861992, 35.4396873], [-95.9861227, 35.4396879], [-95.9861192, 35.4394118], [-95.9861956, 35.4394111], [-95.9861992, 35.4396873]]]}, "properties": {"osm_id": 1253458201, "building": "yes", "name": "", "height": null, "height_m": null, "levels": null, "tract_id": "40111000902", "tract_name": "9.02", "tags": {"building": "yes", "layer": "-1"}}}, {"type": "Feature", "geometry": {"type": "Polygon", "coordinates": [[[-95.9864677, 35.4396877], [-95.9863689, 35.439688], [-95.9863679, 35.4394098], [-95.9864668, 35.4394095], [-95.9864677, 35.4396877]]]}, "properties": {"osm_id": 1253458202, "building": "yes", "name": "", "height": null, "height_m": null, "levels": null, "tract_id": "40111000902", "tract_name": "9.02", "tags": {"building": "yes"}}}, {"type": "Feature", "geometry": {"type": "Polygon", "coordinates": [[[-95.9864677, 35.4396877], [-95.9865538, 35.439688], [-95.9865556, 35.4392954], [-95.9864696, 35.4392951], [-95.9864677, 35.4396877]]]}, "properties": {"osm_id": 1253458203, "building": "yes", "name": "", "height": null, "height_m": null, "levels": null, "tract_id": "40111000902", "tract_name": "9.02", "tags": {"building": "yes"}}}, {"type": "Feature", "geometry": {"type": "Polygon", "coordinates": [[[-95.9868609, 35.4392982], [-95.9866375, 35.4392992], [-95.9866402, 35.4396841], [-95.9868637, 35.4396831], [-95.9868609, 35.4392982]]]}, "properties": {"osm_id": 1253458204, "building": "yes", "name": "", "height": null, "height_m": null, "levels": null, "tract_id": "40111000902", "tract_name": "9.02", "tags": {"building": "yes"}}}, {"type": "Feature", "geometry": {"type": "Polygon", "coordinates": [[[-95.9873164, 35.4394153], [-95.9873166, 35.4392966], [-95.9871497, 35.4392964], [-95.9871495, 35.4394151], [-95.9873164, 35.4394153]]]}, "properties": {"osm_id": 1253458205, "building": "yes", "name": "", "height": null, "height_m": null, "levels": null, "tract_id": "40111000902", "tract_name": "9.02", "tags": {"building": "yes"}}}, {"type": "Feature", "geometry": {"type": "Polygon", "coordinates": [[[-95.9876226, 35.4388623], [-95.9871405, 35.4388683], [-95.9871424, 35.4389739], [-95.9874375, 35.4389703], [-95.9874378, 35.4389913], [-95.9871616, 35.4389947], [-95.9871641, 35.4391341], [-95.9875863, 35.4391289], [-95.9875834, 35.4389684], [-95.9876246, 35.4389679], [-95.9876226, 35.4388623]]]}, "properties": {"osm_id": 1253458206, "building": "yes", "name": "", "height": null, "height_m": null, "levels": null, "tract_id": "40111000902", "tract_name": "9.02", "tags": {"amenity": "place_of_worship", "building": "yes", "religion": "christian"}}}, {"type": "Feature", "geometry": {"type": "Polygon", "coordinates": [[[-95.9881756, 35.4384118], [-95.9879783, 35.4384125], [-95.9879792, 35.4385794], [-95.9881765, 35.4385787], [-95.9881756, 35.4384118]]]}, "properties": {"osm_id": 1253458559, "building": "yes", "name": "", "height": null, "height_m": null, "levels": null, "tract_id": "40111000902", "tract_name": "9.02", "tags": {"building": "yes"}}}, {"type": "Feature", "geometry": {"type": "Polygon", "coordinates": [[[-95.9881334, 35.4382021], [-95.9879922, 35.4382045], [-95.9879943, 35.4382849], [-95.9881355, 35.4382825], [-95.9881334, 35.4382021]]]}, "properties": {"osm_id": 1253458560, "building": "yes", "name": "", "height": null, "height_m": null, "levels": null, "tract_id": "40111000902", "tract_name": "9.02", "tags": {"building": "yes"}}}, {"type": "Feature", "geometry": {"type": "Polygon", "coordinates": [[[-95.9879183, 35.4381937], [-95.9878467, 35.4381936], [-95.9878466, 35.4382446], [-95.9879083, 35.4382447], [-95.9879084, 35.4382226], [-95.9879182, 35.4382226], [-95.9879183, 35.4381937]]]}, "properties": {"osm_id": 1253458561, "building": "yes", "name": "", "height": null, "height_m": null, "levels": null, "tract_id": "40111000902", "tract_name": "9.02", "tags": {"building": "yes"}}}, {"type": "Feature", "geometry": {"type": "Polygon", "coordinates": [[[-95.9880673, 35.4380435], [-95.9879557, 35.4380425], [-95.9879546, 35.4381274], [-95.9880662, 35.4381284], [-95.9880673, 35.4380435]]]}, "properties": {"osm_id": 1253458562, "building": "yes", "name": "", "height": null, "height_m": null, "levels": null, "tract_id": "40111000902", "tract_name": "9.02", "tags": {"building": "yes"}}}, {"type": "Feature", "geometry": {"type": "Polygon", "coordinates": [[[-95.9886717, 35.4380053], [-95.9885022, 35.4380042], [-95.9885014, 35.4380883], [-95.9886405, 35.4380892], [-95.9886406, 35.4380777], [-95.988671, 35.4380778], [-95.9886717, 35.4380053]]]}, "properties": {"osm_id": 1253458563, "building": "yes", "name": "", "height": null, "height_m": null, "levels": null, "tract_id": "40111000902", "tract_name": "9.02", "tags": {"building": "yes"}}}, {"type": "Feature", "geometry": {"type": "Polygon", "coordinates": [[[-95.98867, 35.4377695], [-95.9886702, 35.4378286], [-95.9886944, 35.4378286], [-95.9886946, 35.4378847], [-95.9885906, 35.437885], [-95.9885906, 35.4378985], [-95.9885254, 35.4378987], [-95.9885254, 35.4378859], [-95.9884528, 35.437886], [-95.9884526, 35.4378183], [-95.9885026, 35.4378182], [-95.9885025, 35.4378057], [-95.9885217, 35.4378056], [-95.9885217, 35.437797], [-95.9885374, 35.437797], [-95.9885373, 35.4377698], [-95.98867, 35.4377695]]]}, "properties": {"osm_id": 1253458564, "building": "yes", "name": "", "height": null, "height_m": null, "levels": null, "tract_id": "40111000902", "tract_name": "9.02", "tags": {"building": "yes"}}}, {"type": "Feature", "geometry": {"type": "Polygon", "coordinates": [[[-95.9887079, 35.4378858], [-95.9887077, 35.4379335], [-95.9887679, 35.4379337], [-95.9887682, 35.437886], [-95.9887079, 35.4378858]]]}, "properties": {"osm_id": 1253458565, "building": "yes", "name": "", "height": null, "height_m": null, "levels": null, "tract_id": "40111000902", "tract_name": "9.02", "tags": {"building": "yes"}}}, {"type": "Feature", "geometry": {"type": "Polygon", "coordinates": [[[-95.9889233, 35.4379357], [-95.9888134, 35.4379362], [-95.9888124, 35.4377769], [-95.9889223, 35.4377765], [-95.9889233, 35.4379357]]]}, "properties": {"osm_id": 1253458566, "building": "yes", "name": "", "height": null, "height_m": null, "levels": null, "tract_id": "40111000902", "tract_name": "9.02", "tags": {"building": "yes"}}}, {"type": "Feature", "geometry": {"type": "Polygon", "coordinates": [[[-95.9891285, 35.4377745], [-95.9891289, 35.4378026], [-95.9891196, 35.4378027], [-95.9891227, 35.4380397], [-95.9892469, 35.4380386], [-95.9892456, 35.4379347], [-95.9892354, 35.4379348], [-95.9892353, 35.4379239], [-95.9892468, 35.4379238], [-95.9892467, 35.4379117], [-95.9892365, 35.4379118], [-95.9892347, 35.4377735], [-95.9891285, 35.4377745]]]}, "properties": {"osm_id": 1253458567, "building": "yes", "name": "", "height": null, "height_m": null, "levels": null, "tract_id": "40111000902", "tract_name": "9.02", "tags": {"building": "yes"}}}, {"type": "Feature", "geometry": {"type": "Polygon", "coordinates": [[[-95.9894198, 35.4378037], [-95.9894191, 35.437961], [-95.9893022, 35.4379606], [-95.9893028, 35.4378034], [-95.9894198, 35.4378037]]]}, "properties": {"osm_id": 1253458568, "building": "yes", "name": "", "height": null, "height_m": null, "levels": null, "tract_id": "40111000902", "tract_name": "9.02", "tags": {"building": "yes"}}}, {"type": "Feature", "geometry": {"type": "Polygon", "coordinates": [[[-95.9893029, 35.4380028], [-95.989301, 35.4380767], [-95.9892857, 35.4380765], [-95.9892844, 35.4381281], [-95.9894069, 35.4381302], [-95.9894079, 35.4380907], [-95.9894381, 35.4380912], [-95.9894392, 35.4380485], [-95.989417, 35.4380481], [-95.9894181, 35.4380048], [-95.9893029, 35.4380028]]]}, "properties": {"osm_id": 1253458569, "building": "yes", "name": "", "height": null, "height_m": null, "levels": null, "tract_id": "40111000902", "tract_name": "9.02", "tags": {"building": "yes"}}}, {"type": "Feature", "geometry": {"type": "Polygon", "coordinates": [[[-95.9891014, 35.4379219], [-95.9889802, 35.4379214], [-95.9889805, 35.4378735], [-95.9889926, 35.4378735], [-95.9889931, 35.4377838], [-95.9890849, 35.4377841], [-95.9890848, 35.4378067], [-95.9891002, 35.4378067], [-95.9890998, 35.4378781], [-95.9891098, 35.4378781], [-95.9891096, 35.4379164], [-95.9891015, 35.4379163], [-95.9891014, 35.4379219]]]}, "properties": {"osm_id": 1253458570, "building": "yes", "name": "", "height": null, "height_m": null, "levels": null, "tract_id": "40111000902", "tract_name": "9.02", "tags": {"building": "yes"}}}, {"type": "Feature", "geometry": {"type": "Polygon", "coordinates": [[[-95.9893924, 35.4381959], [-95.9893174, 35.4381971], [-95.9893186, 35.438248], [-95.9893936, 35.4382468], [-95.9893924, 35.4381959]]]}, "properties": {"osm_id": 1253459979, "building": "yes", "name": "", "height": null, "height_m": null, "levels": null, "tract_id": "40111000902", "tract_name": "9.02", "tags": {"building": "yes"}}}, {"type": "Feature", "geometry": {"type": "Polygon", "coordinates": [[[-95.9894042, 35.4382557], [-95.9893315, 35.4382551], [-95.9893309, 35.4382952], [-95.9894037, 35.4382959], [-95.9894042, 35.4382557]]]}, "properties": {"osm_id": 1253459980, "building": "yes", "name": "", "height": null, "height_m": null, "levels": null, "tract_id": "40111000902", "tract_name": "9.02", "tags": {"building": "yes"}}}, {"type": "Feature", "geometry": {"type": "Polygon", "coordinates": [[[-95.9892146, 35.4383418], [-95.9892153, 35.4383965], [-95.9892566, 35.4383962], [-95.9892577, 35.4384876], [-95.9892667, 35.4384875], [-95.989267, 35.4385123], [-95.9893946, 35.4385113], [-95.9893943, 35.4384855], [-95.9894007, 35.4384854], [-95.9893995, 35.438386], [-95.9893724, 35.4383862], [-95.989372, 35.4383516], [-95.9893399, 35.4383518], [-95.9893398, 35.4383408], [-95.9892146, 35.4383418]]]}, "properties": {"osm_id": 1253459981, "building": "yes", "name": "", "height": null, "height_m": null, "levels": null, "tract_id": "40111000902", "tract_name": "9.02", "tags": {"building": "yes"}}}, {"type": "Feature", "geometry": {"type": "Polygon", "coordinates": [[[-95.9886362, 35.4382091], [-95.9885124, 35.4382104], [-95.988514, 35.4383045], [-95.988631, 35.4383032], [-95.98863, 35.4382428], [-95.9886663, 35.4382424], [-95.9886659, 35.4382191], [-95.9886364, 35.4382194], [-95.9886362, 35.4382091]]]}, "properties": {"osm_id": 1253459982, "building": "yes", "name": "", "height": null, "height_m": null, "levels": null, "tract_id": "40111000902", "tract_name": "9.02", "tags": {"building": "yes"}}}, {"type": "Feature", "geometry": {"type": "Polygon", "coordinates": [[[-95.9886146, 35.4390416], [-95.9885052, 35.4390403], [-95.9885058, 35.4390048], [-95.9884569, 35.4390042], [-95.9884597, 35.438846], [-95.988618, 35.4388479], [-95.9886146, 35.4390416]]]}, "properties": {"osm_id": 1253459983, "building": "yes", "name": "", "height": null, "height_m": null, "levels": null, "tract_id": "40111000902", "tract_name": "9.02", "tags": {"building": "yes"}}}, {"type": "Feature", "geometry": {"type": "Polygon", "coordinates": [[[-95.9888748, 35.4388999], [-95.9887867, 35.4389011], [-95.9887891, 35.4390171], [-95.988927, 35.4390153], [-95.9889248, 35.4389104], [-95.988875, 35.4389111], [-95.9888748, 35.4388999]]]}, "properties": {"osm_id": 1253459984, "building": "yes", "name": "", "height": null, "height_m": null, "levels": null, "tract_id": "40111000902", "tract_name": "9.02", "tags": {"building": "yes"}}}, {"type": "Feature", "geometry": {"type": "Polygon", "coordinates": [[[-95.9890739, 35.4388943], [-95.9889755, 35.4388963], [-95.9889809, 35.4390743], [-95.9891252, 35.4390714], [-95.9891188, 35.4388622], [-95.989073, 35.4388631], [-95.9890739, 35.4388943]]]}, "properties": {"osm_id": 1253459985, "building": "yes", "name": "", "height": null, "height_m": null, "levels": null, "tract_id": "40111000902", "tract_name": "9.02", "tags": {"building": "yes"}}}, {"type": "Feature", "geometry": {"type": "Polygon", "coordinates": [[[-95.9892502, 35.4388991], [-95.9891426, 35.4388984], [-95.9891424, 35.4389216], [-95.9891491, 35.4389216], [-95.9891483, 35.4390051], [-95.9891263, 35.4390049], [-95.9891261, 35.4390223], [-95.9891479, 35.4390225], [-95.9891476, 35.4390481], [-95.9892594, 35.4390488], [-95.9892595, 35.4390322], [-95.9892689, 35.4390322], [-95.9892692, 35.4390025], [-95.9892626, 35.4390024], [-95.9892629, 35.4389757], [-95.9892524, 35.4389756], [-95.9892529, 35.4389341], [-95.9892463, 35.438934], [-95.9892464, 35.4389168], [-95.98925, 35.4389168], [-95.9892502, 35.4388991]]]}, "properties": {"osm_id": 1253459986, "building": "yes", "name": "", "height": null, "height_m": null, "levels": null, "tract_id": "40111000902", "tract_name": "9.02", "tags": {"building": "yes"}}}, {"type": "Feature", "geometry": {"type": "Polygon", "coordinates": [[[-95.9890255, 35.4391848], [-95.9889644, 35.4391861], [-95.9889663, 35.4392414], [-95.9890273, 35.43924], [-95.9890255, 35.4391848]]]}, "properties": {"osm_id": 1253459987, "building": "yes", "name": "", "height": null, "height_m": null, "levels": null, "tract_id": "40111000902", "tract_name": "9.02", "tags": {"building": "yes"}}}, {"type": "Feature", "geometry": {"type": "Polygon", "coordinates": [[[-95.9890344, 35.4391825], [-95.9889578, 35.4391859], [-95.9889557, 35.4391533], [-95.9890323, 35.43915], [-95.9890344, 35.4391825]]]}, "properties": {"osm_id": 1253459988, "building": "yes", "name": "", "height": null, "height_m": null, "levels": null, "tract_id": "40111000902", "tract_name": "9.02", "tags": {"building": "yes"}}}, {"type": "Feature", "geometry": {"type": "Polygon", "coordinates": [[[-95.9890351, 35.4395014], [-95.9890356, 35.4393539], [-95.9893756, 35.4393546], [-95.9893752, 35.4395045], [-95.9892503, 35.4395042], [-95.9892502, 35.4395289], [-95.9891657, 35.4395287], [-95.9891658, 35.4395017], [-95.9890351, 35.4395014]]]}, "properties": {"osm_id": 1253459989, "building": "yes", "name": "", "height": null, "height_m": null, "levels": null, "tract_id": "40111000902", "tract_name": "9.02", "tags": {"building": "yes"}}}, {"type": "Feature", "geometry": {"type": "Polygon", "coordinates": [[[-95.9889598, 35.4393986], [-95.9889569, 35.4395476], [-95.9890168, 35.4395484], [-95.9890145, 35.4396743], [-95.9888618, 35.4396723], [-95.988867, 35.4393974], [-95.9889598, 35.4393986]]]}, "properties": {"osm_id": 1253459990, "building": "yes", "name": "", "height": null, "height_m": null, "levels": null, "tract_id": "40111000902", "tract_name": "9.02", "tags": {"building": "yes"}}}, {"type": "Feature", "geometry": {"type": "Polygon", "coordinates": [[[-95.9894386, 35.4399461], [-95.9892701, 35.4399479], [-95.9892762, 35.4403321], [-95.9894448, 35.4403303], [-95.9894386, 35.4399461]]]}, "properties": {"osm_id": 1253459991, "building": "yes", "name": "", "height": null, "height_m": null, "levels": null, "tract_id": "40111000902", "tract_name": "9.02", "tags": {"building": "yes"}}}, {"type": "Feature", "geometry": {"type": "Polygon", "coordinates": [[[-95.9891402, 35.4399477], [-95.9891446, 35.4400628], [-95.98915, 35.4400627], [-95.9891522, 35.4401445], [-95.9892337, 35.4401431], [-95.9892316, 35.4400615], [-95.9892403, 35.4400613], [-95.9892372, 35.4399449], [-95.9891402, 35.4399477]]]}, "properties": {"osm_id": 1253459992, "building": "yes", "name": "", "height": null, "height_m": null, "levels": null, "tract_id": "40111000902", "tract_name": "9.02", "tags": {"building": "yes"}}}, {"type": "Feature", "geometry": {"type": "Polygon", "coordinates": [[[-95.9891402, 35.4399477], [-95.9890384, 35.4399496], [-95.9890455, 35.440149], [-95.9891459, 35.440146], [-95.9891402, 35.4399477]]]}, "properties": {"osm_id": 1253459993, "building": "yes", "name": "", "height": null, "height_m": null, "levels": null, "tract_id": "40111000902", "tract_name": "9.02", "tags": {"building": "yes"}}}, {"type": "Feature", "geometry": {"type": "Polygon", "coordinates": [[[-95.9890354, 35.4399453], [-95.9889489, 35.4399481], [-95.9889591, 35.4401518], [-95.9890455, 35.440149], [-95.9890354, 35.4399453]]]}, "properties": {"osm_id": 1253459994, "building": "yes", "name": "", "height": null, "height_m": null, "levels": null, "tract_id": "40111000902", "tract_name": "9.02", "tags": {"building": "yes"}}}, {"type": "Feature", "geometry": {"type": "Polygon", "coordinates": [[[-95.9900668, 35.4400148], [-95.9900719, 35.4403292], [-95.9903935, 35.4403257], [-95.9903884, 35.4400113], [-95.9900668, 35.4400148]]]}, "properties": {"osm_id": 1253459995, "building": "yes", "name": "", "height": null, "height_m": null, "levels": null, "tract_id": "40111000902", "tract_name": "9.02", "tags": {"building": "yes"}}}, {"type": "Feature", "geometry": {"type": "Polygon", "coordinates": [[[-95.9900257, 35.4400445], [-95.9899105, 35.4400449], [-95.9899104, 35.4400286], [-95.9898278, 35.4400289], [-95.9898282, 35.4400907], [-95.9898402, 35.4400906], [-95.9898403, 35.4401032], [-95.989855, 35.4401032], [-95.9898551, 35.4401222], [-95.9900261, 35.4401216], [-95.9900257, 35.4400445]]]}, "properties": {"osm_id": 1253459996, "building": "yes", "name": "", "height": null, "height_m": null, "levels": null, "tract_id": "40111000902", "tract_name": "9.02", "tags": {"building": "yes"}}}, {"type": "Feature", "geometry": {"type": "Polygon", "coordinates": [[[-95.9898391, 35.4403294], [-95.9897307, 35.4403304], [-95.98973, 35.440279], [-95.9898385, 35.4402781], [-95.9898391, 35.4403294]]]}, "properties": {"osm_id": 1253459997, "building": "yes", "name": "", "height": null, "height_m": null, "levels": null, "tract_id": "40111000902", "tract_name": "9.02", "tags": {"building": "yes"}}}, {"type": "Feature", "geometry": {"type": "Polygon", "coordinates": [[[-95.9899758, 35.4404332], [-95.9899768, 35.4403869], [-95.9898691, 35.4403853], [-95.9898688, 35.4403998], [-95.9897642, 35.4403981], [-95.9897625, 35.440471], [-95.9898746, 35.4404727], [-95.9898755, 35.4404316], [-95.9899758, 35.4404332]]]}, "properties": {"osm_id": 1253459998, "building": "yes", "name": "", "height": null, "height_m": null, "levels": null, "tract_id": "40111000902", "tract_name": "9.02", "tags": {"building": "yes"}}}, {"type": "Feature", "geometry": {"type": "Polygon", "coordinates": [[[-95.9900695, 35.4403893], [-95.9900694, 35.440418], [-95.9900087, 35.4404179], [-95.9900088, 35.4403891], [-95.9900695, 35.4403893]]]}, "properties": {"osm_id": 1253459999, "building": "yes", "name": "", "height": null, "height_m": null, "levels": null, "tract_id": "40111000902", "tract_name": "9.02", "tags": {"building": "yes"}}}, {"type": "Feature", "geometry": {"type": "Polygon", "coordinates": [[[-95.9899377, 35.4404871], [-95.9897594, 35.4404855], [-95.9897584, 35.4405604], [-95.9899367, 35.440562], [-95.9899377, 35.4404871]]]}, "properties": {"osm_id": 1253460000, "building": "yes", "name": "", "height": null, "height_m": null, "levels": null, "tract_id": "40111000902", "tract_name": "9.02", "tags": {"building": "yes"}}}, {"type": "Feature", "geometry": {"type": "Polygon", "coordinates": [[[-95.9899576, 35.4404737], [-95.9899589, 35.4405208], [-95.9899438, 35.4405211], [-95.9899452, 35.4405708], [-95.9900027, 35.4405697], [-95.9900015, 35.4405276], [-95.9900626, 35.4405265], [-95.990061, 35.4404717], [-95.9899576, 35.4404737]]]}, "properties": {"osm_id": 1253460001, "building": "yes", "name": "", "height": null, "height_m": null, "levels": null, "tract_id": "40111000902", "tract_name": "9.02", "tags": {"building": "yes"}}}, {"type": "Feature", "geometry": {"type": "Polygon", "coordinates": [[[-95.9901953, 35.4405769], [-95.9900858, 35.4405754], [-95.9900832, 35.4407047], [-95.9900941, 35.4407049], [-95.9900938, 35.4407194], [-95.9901799, 35.4407205], [-95.9901802, 35.4407037], [-95.9901927, 35.4407038], [-95.9901953, 35.4405769]]]}, "properties": {"osm_id": 1253460002, "building": "yes", "name": "", "height": null, "height_m": null, "levels": null, "tract_id": "40111000902", "tract_name": "9.02", "tags": {"building": "yes"}}}, {"type": "Feature", "geometry": {"type": "Polygon", "coordinates": [[[-95.9902219, 35.4404428], [-95.9901766, 35.440443], [-95.990177, 35.4405031], [-95.9902223, 35.4405029], [-95.9902219, 35.4404428]]]}, "properties": {"osm_id": 1253460003, "building": "yes", "name": "", "height": null, "height_m": null, "levels": null, "tract_id": "40111000902", "tract_name": "9.02", "tags": {"building": "yes"}}}, {"type": "Feature", "geometry": {"type": "Polygon", "coordinates": [[[-95.9903305, 35.4405174], [-95.9902533, 35.4405178], [-95.9902539, 35.4405824], [-95.9902286, 35.4405826], [-95.9902289, 35.4406131], [-95.9902157, 35.4406132], [-95.9902163, 35.44068], [-95.9902457, 35.4406798], [-95.9902459, 35.4407052], [-95.9902619, 35.4407051], [-95.9902621, 35.4407259], [-95.9903325, 35.4407255], [-95.9903305, 35.4405174]]]}, "properties": {"osm_id": 1253460004, "building": "yes", "name": "", "height": null, "height_m": null, "levels": null, "tract_id": "40111000902", "tract_name": "9.02", "tags": {"building": "yes"}}}, {"type": "Feature", "geometry": {"type": "Polygon", "coordinates": [[[-95.990461, 35.4405762], [-95.9904638, 35.440704], [-95.9904762, 35.4407038], [-95.9904768, 35.4407284], [-95.9905674, 35.4407271], [-95.990564, 35.440577], [-95.9905371, 35.4405774], [-95.9905368, 35.4405625], [-95.9904945, 35.4405631], [-95.9904948, 35.4405757], [-95.990461, 35.4405762]]]}, "properties": {"osm_id": 1253460005, "building": "yes", "name": "", "height": null, "height_m": null, "levels": null, "tract_id": "40111000902", "tract_name": "9.02", "tags": {"building": "yes"}}}, {"type": "Feature", "geometry": {"type": "Polygon", "coordinates": [[[-95.9907245, 35.4407242], [-95.9907231, 35.4406071], [-95.9907124, 35.4406072], [-95.9907121, 35.4405841], [-95.990651, 35.4405846], [-95.9906513, 35.4406071], [-95.9906415, 35.4406072], [-95.9906425, 35.4407003], [-95.9906584, 35.4407002], [-95.9906587, 35.4407247], [-95.9907245, 35.4407242]]]}, "properties": {"osm_id": 1253460006, "building": "yes", "name": "", "height": null, "height_m": null, "levels": null, "tract_id": "40111000902", "tract_name": "9.02", "tags": {"building": "yes"}}}, {"type": "Feature", "geometry": {"type": "Polygon", "coordinates": [[[-95.9910736, 35.4406205], [-95.9910627, 35.4406204], [-95.9910618, 35.440668], [-95.9910698, 35.4406681], [-95.9910691, 35.4407063], [-95.9912028, 35.440708], [-95.9912052, 35.4405823], [-95.9910744, 35.4405807], [-95.9910736, 35.4406205]]]}, "properties": {"osm_id": 1253460007, "building": "yes", "name": "", "height": null, "height_m": null, "levels": null, "tract_id": "40111000902", "tract_name": "9.02", "tags": {"building": "yes"}}}, {"type": "Feature", "geometry": {"type": "Polygon", "coordinates": [[[-95.9911006, 35.4400887], [-95.9911023, 35.4401836], [-95.9912047, 35.4401824], [-95.991203, 35.4400875], [-95.9911006, 35.4400887]]]}, "properties": {"osm_id": 1253460008, "building": "yes", "name": "", "height": null, "height_m": null, "levels": null, "tract_id": "40111000902", "tract_name": "9.02", "tags": {"building": "yes"}}}, {"type": "Feature", "geometry": {"type": "Polygon", "coordinates": [[[-95.9912079, 35.4401848], [-95.9910024, 35.4401852], [-95.9910026, 35.440245], [-95.9912081, 35.4402446], [-95.9912079, 35.4401848]]]}, "properties": {"osm_id": 1253460009, "building": "yes", "name": "", "height": null, "height_m": null, "levels": null, "tract_id": "40111000902", "tract_name": "9.02", "tags": {"building": "yes"}}}, {"type": "Feature", "geometry": {"type": "Polygon", "coordinates": [[[-95.991158, 35.440082], [-95.9911575, 35.4400215], [-95.9910756, 35.4400219], [-95.9910751, 35.439966], [-95.9910077, 35.4399664], [-95.9910087, 35.4400828], [-95.991158, 35.440082]]]}, "properties": {"osm_id": 1253460010, "building": "yes", "name": "", "height": null, "height_m": null, "levels": null, "tract_id": "40111000902", "tract_name": "9.02", "tags": {"building": "yes"}}}, {"type": "Feature", "geometry": {"type": "Polygon", "coordinates": [[[-95.9912146, 35.4399403], [-95.9912164, 35.4402179], [-95.9913359, 35.440215], [-95.9913314, 35.4399403], [-95.9912146, 35.4399403]]]}, "properties": {"osm_id": 1253460011, "building": "yes", "name": "", "height": null, "height_m": null, "levels": null, "tract_id": "40111000902", "tract_name": "9.02", "tags": {"building": "yes"}}}, {"type": "Feature", "geometry": {"type": "Polygon", "coordinates": [[[-95.991507, 35.4399414], [-95.9913415, 35.4399434], [-95.9913473, 35.4401715], [-95.9915118, 35.4401687], [-95.9915087, 35.4401053], [-95.991507, 35.4399414]]]}, "properties": {"osm_id": 1253460012, "building": "yes", "name": "", "height": null, "height_m": null, "levels": null, "tract_id": "40111000902", "tract_name": "9.02", "tags": {"building": "yes"}}}, {"type": "Feature", "geometry": {"type": "Polygon", "coordinates": [[[-95.9916692, 35.4399398], [-95.991507, 35.4399414], [-95.9915087, 35.4401053], [-95.9916714, 35.4401042], [-95.9916707, 35.4400236], [-95.9916692, 35.4399398]]]}, "properties": {"osm_id": 1253460013, "building": "yes", "name": "", "height": null, "height_m": null, "levels": null, "tract_id": "40111000902", "tract_name": "9.02", "tags": {"building": "yes"}}}, {"type": "Feature", "geometry": {"type": "Polygon", "coordinates": [[[-95.9918504, 35.4400215], [-95.9916707, 35.4400236], [-95.9916692, 35.4399398], [-95.9918489, 35.4399377], [-95.9918504, 35.4400215]]]}, "properties": {"osm_id": 1253460014, "building": "yes", "name": "", "height": null, "height_m": null, "levels": null, "tract_id": "40111000902", "tract_name": "9.02", "tags": {"building": "yes"}}}, {"type": "Feature", "geometry": {"type": "Polygon", "coordinates": [[[-95.9919878, 35.4403246], [-95.9919882, 35.4402341], [-95.9918374, 35.4402337], [-95.9918373, 35.4402435], [-95.9918185, 35.4402435], [-95.9918181, 35.4403242], [-95.9919878, 35.4403246]]]}, "properties": {"osm_id": 1253460015, "building": "yes", "name": "", "height": null, "height_m": null, "levels": null, "tract_id": "40111000902", "tract_name": "9.02", "tags": {"building": "yes"}}}, {"type": "Feature", "geometry": {"type": "Polygon", "coordinates": [[[-95.9918709, 35.4404604], [-95.9918726, 35.4407075], [-95.9919752, 35.4407071], [-95.9919749, 35.4406741], [-95.9919883, 35.4406741], [-95.9919882, 35.4406559], [-95.9919767, 35.440656], [-95.9919763, 35.4405922], [-95.9919844, 35.4405922], [-95.9919843, 35.4405728], [-95.9919715, 35.4405729], [-95.9919711, 35.4405098], [-95.9919825, 35.4405098], [-95.9919823, 35.4404909], [-95.9919693, 35.4404909], [-95.9919691, 35.44046], [-95.9918709, 35.4404604]]]}, "properties": {"osm_id": 1253460016, "building": "yes", "name": "", "height": null, "height_m": null, "levels": null, "tract_id": "40111000902", "tract_name": "9.02", "tags": {"building": "yes"}}}, {"type": "Feature", "geometry": {"type": "Polygon", "coordinates": [[[-95.9925607, 35.440066], [-95.9923, 35.4400681], [-95.992302, 35.4402338], [-95.9925627, 35.4402317], [-95.9925607, 35.440066]]]}, "properties": {"osm_id": 1253460017, "building": "yes", "name": "", "height": null, "height_m": null, "levels": null, "tract_id": "40111000902", "tract_name": "9.02", "tags": {"building": "yes"}}}, {"type": "Feature", "geometry": {"type": "Polygon", "coordinates": [[[-95.9927836, 35.4400451], [-95.9927834, 35.4401407], [-95.9926025, 35.4401404], [-95.9926027, 35.4400449], [-95.9927836, 35.4400451]]]}, "properties": {"osm_id": 1253460018, "building": "yes", "name": "", "height": null, "height_m": null, "levels": null, "tract_id": "40111000902", "tract_name": "9.02", "tags": {"building": "yes"}}}, {"type": "Feature", "geometry": {"type": "Polygon", "coordinates": [[[-95.990388, 35.4396727], [-95.9902279, 35.4396743], [-95.9902291, 35.4392843], [-95.9903944, 35.4392852], [-95.990388, 35.4396727]]]}, "properties": {"osm_id": 1253460180, "building": "yes", "name": "", "height": null, "height_m": null, "levels": null, "tract_id": "40111000902", "tract_name": "9.02", "tags": {"building": "yes"}}}, {"type": "Feature", "geometry": {"type": "Polygon", "coordinates": [[[-95.9902279, 35.4396743], [-95.9898979, 35.4396726], [-95.9899001, 35.4392838], [-95.9902291, 35.4392843], [-95.9902279, 35.4396743]]]}, "properties": {"osm_id": 1253460181, "building": "yes", "name": "", "height": null, "height_m": null, "levels": null, "tract_id": "40111000902", "tract_name": "9.02", "tags": {"building": "yes"}}}, {"type": "Feature", "geometry": {"type": "Polygon", "coordinates": [[[-95.9898979, 35.4396726], [-95.9897195, 35.4396719], [-95.9897218, 35.4392831], [-95.9899001, 35.4392838], [-95.9898979, 35.4396726]]]}, "properties": {"osm_id": 1253460182, "building": "yes", "name": "", "height": null, "height_m": null, "levels": null, "tract_id": "40111000902", "tract_name": "9.02", "tags": {"building": "yes"}}}, {"type": "Feature", "geometry": {"type": "Polygon", "coordinates": [[[-95.9897696, 35.4420577], [-95.9897714, 35.4421849], [-95.9898317, 35.4421843], [-95.9898318, 35.4421892], [-95.9898134, 35.4421894], [-95.9898139, 35.4422254], [-95.9899077, 35.4422245], [-95.989907, 35.4421699], [-95.9898707, 35.4421703], [-95.98987, 35.4421218], [-95.9898178, 35.4421223], [-95.9898169, 35.4420572], [-95.9897696, 35.4420577]]]}, "properties": {"osm_id": 1253460183, "building": "yes", "name": "", "height": null, "height_m": null, "levels": null, "tract_id": "40111000902", "tract_name": "9.02", "tags": {"building": "yes"}}}, {"type": "Feature", "geometry": {"type": "Polygon", "coordinates": [[[-95.9900791, 35.4420673], [-95.9900824, 35.4422477], [-95.9901852, 35.4422465], [-95.9901832, 35.4421402], [-95.9902602, 35.4421393], [-95.9902588, 35.442065], [-95.9900791, 35.4420673]]]}, "properties": {"osm_id": 1253460184, "building": "yes", "name": "", "height": null, "height_m": null, "levels": null, "tract_id": "40111000902", "tract_name": "9.02", "tags": {"building": "yes"}}}, {"type": "Feature", "geometry": {"type": "Polygon", "coordinates": [[[-95.9904154, 35.4422034], [-95.9904138, 35.4421584], [-95.990471, 35.442157], [-95.9904676, 35.4420613], [-95.9903245, 35.4420647], [-95.9903294, 35.4422054], [-95.9904154, 35.4422034]]]}, "properties": {"osm_id": 1253460185, "building": "yes", "name": "", "height": null, "height_m": null, "levels": null, "tract_id": "40111000902", "tract_name": "9.02", "tags": {"building": "yes"}}}, {"type": "Feature", "geometry": {"type": "Polygon", "coordinates": [[[-95.9906404, 35.442157], [-95.9905549, 35.4421568], [-95.9905545, 35.4422851], [-95.9906887, 35.4422854], [-95.990689, 35.4422221], [-95.9906402, 35.4422219], [-95.9906404, 35.442157]]]}, "properties": {"osm_id": 1253460186, "building": "yes", "name": "", "height": null, "height_m": null, "levels": null, "tract_id": "40111000902", "tract_name": "9.02", "tags": {"building": "yes"}}}, {"type": "Feature", "geometry": {"type": "Polygon", "coordinates": [[[-95.9899574, 35.4423838], [-95.9899538, 35.4422954], [-95.9898535, 35.4422981], [-95.9898533, 35.4422921], [-95.9897952, 35.4422937], [-95.9897973, 35.442344], [-95.9898176, 35.4423434], [-95.9898181, 35.4423547], [-95.9898318, 35.4423544], [-95.989832, 35.4423611], [-95.9898608, 35.4423604], [-95.9898612, 35.4423698], [-95.9898732, 35.4423695], [-95.9898735, 35.4423769], [-95.9898846, 35.4423766], [-95.989885, 35.4423858], [-95.9899574, 35.4423838]]]}, "properties": {"osm_id": 1253460187, "building": "yes", "name": "", "height": null, "height_m": null, "levels": null, "tract_id": "40111000902", "tract_name": "9.02", "tags": {"building": "yes"}}}, {"type": "Feature", "geometry": {"type": "Polygon", "coordinates": [[[-95.9893543, 35.442064], [-95.9893553, 35.4420939], [-95.9893164, 35.4420948], [-95.9893212, 35.4422312], [-95.9893971, 35.4422294], [-95.9893955, 35.4421856], [-95.9894405, 35.4421846], [-95.9894363, 35.4420621], [-95.9893543, 35.442064]]]}, "properties": {"osm_id": 1253460188, "building": "yes", "name": "", "height": null, "height_m": null, "levels": null, "tract_id": "40111000902", "tract_name": "9.02", "tags": {"building": "yes"}}}, {"type": "Feature", "geometry": {"type": "Polygon", "coordinates": [[[-95.9892521, 35.4420854], [-95.9891779, 35.4420855], [-95.9891781, 35.4422235], [-95.9892524, 35.4422234], [-95.9892521, 35.4420854]]]}, "properties": {"osm_id": 1253460189, "building": "yes", "name": "", "height": null, "height_m": null, "levels": null, "tract_id": "40111000902", "tract_name": "9.02", "tags": {"building": "yes"}}}, {"type": "Feature", "geometry": {"type": "Polygon", "coordinates": [[[-95.9891243, 35.4422263], [-95.9890338, 35.4422281], [-95.9890294, 35.4420832], [-95.9891199, 35.4420814], [-95.9891243, 35.4422263]]]}, "properties": {"osm_id": 1253460190, "building": "yes", "name": "", "height": null, "height_m": null, "levels": null, "tract_id": "40111000902", "tract_name": "9.02", "tags": {"building": "yes"}}}, {"type": "Feature", "geometry": {"type": "Polygon", "coordinates": [[[-95.9768022, 35.4383745], [-95.9766051, 35.4383716], [-95.9766006, 35.4385748], [-95.9766519, 35.4385756], [-95.9766497, 35.4386735], [-95.9767955, 35.4386756], [-95.9768022, 35.4383745]]]}, "properties": {"osm_id": 1253460595, "building": "yes", "name": "", "height": null, "height_m": null, "levels": null, "tract_id": "40111000902", "tract_name": "9.02", "tags": {"building": "yes"}}}, {"type": "Feature", "geometry": {"type": "Polygon", "coordinates": [[[-95.9778788, 35.4381374], [-95.9777073, 35.4381382], [-95.977707, 35.438087], [-95.9776969, 35.4380871], [-95.9776951, 35.4378261], [-95.9778767, 35.4378253], [-95.9778788, 35.4381374]]]}, "properties": {"osm_id": 1253460597, "building": "yes", "name": "", "height": null, "height_m": null, "levels": null, "tract_id": "40111000902", "tract_name": "9.02", "tags": {"building": "yes"}}}, {"type": "Feature", "geometry": {"type": "Polygon", "coordinates": [[[-95.9749356, 35.4385657], [-95.9741612, 35.4385677], [-95.9741613, 35.4386071], [-95.9739869, 35.4386076], [-95.9739878, 35.4388178], [-95.9741276, 35.4388174], [-95.9741279, 35.4388906], [-95.9739838, 35.4388909], [-95.9739845, 35.4390827], [-95.9749376, 35.4390802], [-95.9749356, 35.4385657]]]}, "properties": {"osm_id": 1253460598, "building": "retail", "name": "Walmart", "height": null, "height_m": null, "levels": null, "tract_id": "40111000902", "tract_name": "9.02", "tags": {"addr:city": "Henryetta", "addr:country": "US", "addr:housenumber": "605", "addr:postcode": "74437", "addr:state": "OK", "addr:street": "East Main Street", "brand": "Walmart", "brand:wikidata": "Q483551", "building": "retail", "name": "Walmart", "opening_hours": "Mo-Su 06:00-23:00", "operator": "Walmart", "payment:app:walmart": "yes", "payment:apple_pay": "no", "payment:google_pay": "no", "payment:samsung_pay": "no", "phone": "+1-918-652-9676", "ref:walmart": "247", "sensory_friendly:accommodation": "dimmed_light;static_screens;no_pa", "sensory_friendly:conditional": "yes @ 08:00-10:00", "shop": "department_store", "website": "https://www.walmart.com/store/247-henryetta-ok"}}}, {"type": "Feature", "geometry": {"type": "Polygon", "coordinates": [[[-95.9739879, 35.4394074], [-95.9737973, 35.4394076], [-95.9737976, 35.4395343], [-95.9739881, 35.4395341], [-95.9739879, 35.4394074]]]}, "properties": {"osm_id": 1253460599, "building": "yes", "name": "", "height": null, "height_m": null, "levels": null, "tract_id": "40111000902", "tract_name": "9.02", "tags": {"building": "yes", "shop": "convenience"}}}, {"type": "Feature", "geometry": {"type": "Polygon", "coordinates": [[[-95.9727465, 35.4387877], [-95.9724355, 35.4387901], [-95.9724348, 35.4387304], [-95.972246, 35.4387319], [-95.9722491, 35.4389896], [-95.9723378, 35.4389889], [-95.9723384, 35.4390423], [-95.9725686, 35.4390405], [-95.9725701, 35.4391735], [-95.972751, 35.439172], [-95.9727465, 35.4387877]]]}, "properties": {"osm_id": 1253460600, "building": "yes", "name": "", "height": null, "height_m": null, "levels": null, "tract_id": "40111000902", "tract_name": "9.02", "tags": {"building": "yes"}}}, {"type": "Feature", "geometry": {"type": "Polygon", "coordinates": [[[-95.9862989, 35.4386525], [-95.9862951, 35.438513], [-95.9862389, 35.438514], [-95.9862376, 35.4384675], [-95.9860544, 35.4384708], [-95.9860556, 35.4385145], [-95.9859778, 35.4385159], [-95.9859817, 35.4386561], [-95.9860035, 35.4386557], [-95.9860074, 35.4387989], [-95.9860345, 35.4387984], [-95.9860369, 35.4388855], [-95.98626, 35.4388814], [-95.9862577, 35.4387994], [-95.986291, 35.4387988], [-95.9862869, 35.4386527], [-95.9862989, 35.4386525]]]}, "properties": {"osm_id": 1289783325, "building": "yes", "name": "", "height": null, "height_m": null, "levels": null, "tract_id": "40111000902", "tract_name": "9.02", "tags": {"addr:city": "Henryetta", "addr:housenumber": "115", "addr:postcode": "74437", "addr:state": "OK", "addr:street": "South 4th Street", "amenity": "townhall", "building": "yes", "emergency": "psap", "townhall:type": "city"}}}, {"type": "Feature", "geometry": {"type": "Polygon", "coordinates": [[[-95.9770967, 35.4395116], [-95.9770961, 35.4393857], [-95.9768642, 35.4393864], [-95.9768648, 35.4395124], [-95.9770967, 35.4395116]]]}, "properties": {"osm_id": 1324393356, "building": "retail", "name": "Love's", "height": null, "height_m": null, "levels": null, "tract_id": "40111000902", "tract_name": "9.02", "tags": {"brand": "Love's", "brand:wikidata": "Q1872496", "building": "retail", "name": "Love's", "shop": "convenience"}}}, {"type": "Feature", "geometry": {"type": "Polygon", "coordinates": [[[-95.9768228, 35.4396908], [-95.9768224, 35.4396221], [-95.9767325, 35.4396225], [-95.9767329, 35.4396912], [-95.9768228, 35.4396908]]]}, "properties": {"osm_id": 1324393357, "building": "roof", "name": "", "height": null, "height_m": null, "levels": null, "tract_id": "40111000902", "tract_name": "9.02", "tags": {"building": "roof", "layer": "1"}}}, {"type": "Feature", "geometry": {"type": "Polygon", "coordinates": [[[-95.9754279, 35.4394964], [-95.9752214, 35.4394964], [-95.9752214, 35.4394341], [-95.9754279, 35.4394341], [-95.9754279, 35.4394964]]]}, "properties": {"osm_id": 1328222361, "building": "yes", "name": "", "height": null, "height_m": null, "levels": null, "tract_id": "40111000902", "tract_name": "9.02", "tags": {"building": "yes"}}}, {"type": "Feature", "geometry": {"type": "Polygon", "coordinates": [[[-95.9761964, 35.4394996], [-95.9757619, 35.4394996], [-95.9757619, 35.4393947], [-95.9761964, 35.4393947], [-95.9761964, 35.4394996]]]}, "properties": {"osm_id": 1328222362, "building": "restaurant", "name": "McDonald's", "height": null, "height_m": null, "levels": null, "tract_id": "40111000902", "tract_name": "9.02", "tags": {"addr:city": "Henryetta", "addr:country": "US", "addr:housenumber": "500", "addr:postcode": "74437-4438", "addr:state": "OK", "addr:street": "East Main Street", "amenity": "fast_food", "brand": "McDonald's", "brand:wikidata": "Q38076", "building": "restaurant", "check_date": "2024-02-01", "check_date:opening_hours": "2024-02-01", "check_date:opening_hours:drive_through": "2024-02-01", "cuisine": "burger", "drive_through": "yes", "indoor_seating": "yes", "internet_access": "wlan", "name": "McDonald's", "opening_hours": "Mo-Su 05:00-23:00", "opening_hours:drive_through": "Mo-Th 05:00-24:00; Fr 05:00-04:00; Sa 00:00-24:00; Su 04:00-24:00", "phone": "+1 918-652-7757", "takeaway": "yes", "website": "https://www.mcdonalds.com/us/en-us/location/ok/henryetta/500-e-main/7192.html"}}}, {"type": "Feature", "geometry": {"type": "Polygon", "coordinates": [[[-95.9738271, 35.4396997], [-95.9739627, 35.4396984], [-95.9739607, 35.4395588], [-95.9738251, 35.4395601], [-95.9738271, 35.4396997]]]}, "properties": {"osm_id": 1390489481, "building": "roof", "name": "", "height": null, "height_m": null, "levels": null, "tract_id": "40111000902", "tract_name": "9.02", "tags": {"building": "roof", "layer": "1"}}}, {"type": "Feature", "geometry": {"type": "Polygon", "coordinates": [[[-95.9725542, 35.440636], [-95.9725513, 35.4402579], [-95.9723881, 35.4402587], [-95.9723911, 35.4406368], [-95.9725542, 35.440636]]]}, "properties": {"osm_id": 1390489483, "building": "retail", "name": "", "height": null, "height_m": null, "levels": null, "tract_id": "40111000902", "tract_name": "9.02", "tags": {"building": "retail"}}}, {"type": "Feature", "geometry": {"type": "Polygon", "coordinates": [[[-95.9768152, 35.4400176], [-95.9769567, 35.4400146], [-95.9769653, 35.4402832], [-95.9768239, 35.4402862], [-95.9768152, 35.4400176]]]}, "properties": {"osm_id": 1391228434, "building": "yes", "name": "", "height": null, "height_m": null, "levels": null, "tract_id": "40111000902", "tract_name": "9.02", "tags": {"building": "yes"}}}, {"type": "Feature", "geometry": {"type": "Polygon", "coordinates": [[[-95.9776829, 35.4400639], [-95.9778907, 35.440062], [-95.9778943, 35.4403322], [-95.9774493, 35.4403362], [-95.9774479, 35.4402297], [-95.9776851, 35.4402276], [-95.9776829, 35.4400639]]]}, "properties": {"osm_id": 1391228435, "building": "yes", "name": "", "height": null, "height_m": null, "levels": null, "tract_id": "40111000902", "tract_name": "9.02", "tags": {"building": "yes"}}}, {"type": "Feature", "geometry": {"type": "Polygon", "coordinates": [[[-95.9783215, 35.4395402], [-95.9787266, 35.4395443], [-95.9787293, 35.4393686], [-95.9783242, 35.4393646], [-95.9783215, 35.4395402]]]}, "properties": {"osm_id": 1391228436, "building": "yes", "name": "", "height": null, "height_m": null, "levels": null, "tract_id": "40111000902", "tract_name": "9.02", "tags": {"building": "yes"}}}, {"type": "Feature", "geometry": {"type": "Polygon", "coordinates": [[[-95.987171, 35.4401736], [-95.9871725, 35.4403266], [-95.9873763, 35.4403252], [-95.9873748, 35.4401723], [-95.9873375, 35.4401725], [-95.9872547, 35.4401731], [-95.987171, 35.4401736]]]}, "properties": {"osm_id": 1391228437, "building": "yes", "name": "", "height": null, "height_m": null, "levels": null, "tract_id": "40111000902", "tract_name": "9.02", "tags": {"building": "yes"}}}]}