{"type": "FeatureCollection", "features": [{"type": "Feature", "geometry": {"type": "Polygon", "coordinates": [[[-97.1315264, 33.9398382], [-97.1314001, 33.9398359], [-97.1313947, 33.9400433], [-97.1314083, 33.9400435], [-97.1314066, 33.9401108], [-97.1315192, 33.9401128], [-97.1315264, 33.9398382]]]}, "properties": {"osm_id": 594212235, "building": "yes", "name": "McDonald's", "height": null, "height_m": null, "levels": null, "tract_id": "40085094100", "tract_name": "941", "tags": {"addr:city": "Marietta", "addr:housenumber": "1303", "addr:postcode": "73448", "addr:state": "OK", "addr:street": "Memorial Drive", "amenity": "fast_food", "brand": "McDonald's", "brand:wikidata": "Q38076", "building": "yes", "cuisine": "burger", "name": "McDonald's", "takeaway": "yes", "website": "https://www.mcdonalds.com/us/en-us/location/ok/marietta/1303-memorial-drive/33109.html"}}}, {"type": "Feature", "geometry": {"type": "Polygon", "coordinates": [[[-97.1331932, 33.9054864], [-97.1332178, 33.9051603], [-97.1332729, 33.9051631], [-97.1333565, 33.9051674], [-97.1333491, 33.905265], [-97.133444, 33.9052701], [-97.1335308, 33.9052747], [-97.1335174, 33.9054472], [-97.1335484, 33.9054489], [-97.1335428, 33.9055221], [-97.1333578, 33.9055122], [-97.1333336, 33.905511], [-97.1333349, 33.9054938], [-97.1332516, 33.9054894], [-97.1331932, 33.9054864]]]}, "properties": {"osm_id": 649796272, "building": "yes", "name": "", "height": null, "height_m": null, "levels": null, "tract_id": "40085094100", "tract_name": "941", "tags": {"building": "yes"}}}, {"type": "Feature", "geometry": {"type": "Polygon", "coordinates": [[[-97.1320442, 33.9411326], [-97.1320425, 33.9410561], [-97.1320751, 33.9410556], [-97.1320737, 33.9409933], [-97.1320417, 33.9409938], [-97.1320393, 33.9408885], [-97.1319202, 33.9408904], [-97.1319258, 33.9411345], [-97.1320442, 33.9411326]]]}, "properties": {"osm_id": 866039760, "building": "yes", "name": "Carl's Jr.", "height": null, "height_m": null, "levels": null, "tract_id": "40085094100", "tract_name": "941", "tags": {"addr:city": "Marietta", "addr:housenumber": "1306", "addr:postcode": "73448", "addr:state": "OK", "addr:street": "Memorial Drive", "amenity": "fast_food", "brand": "Carl's Jr.", "brand:wikidata": "Q1043486", "building": "yes", "cuisine": "burger", "name": "Carl's Jr.", "phone": "+1 580-276-4979", "ref": "1101646", "takeaway": "yes", "website": "https://locations.carlsjr.com/ok/marietta/1306-memorial-dr"}}}, {"type": "Feature", "geometry": {"type": "Polygon", "coordinates": [[[-97.1334889, 33.9415356], [-97.133482, 33.9413046], [-97.1331365, 33.9413117], [-97.1331434, 33.9415427], [-97.1334889, 33.9415356]]]}, "properties": {"osm_id": 866039761, "building": "construction", "name": "Dollar General", "height": null, "height_m": null, "levels": null, "tract_id": "40085094100", "tract_name": "941", "tags": {"addr:city": "Marietta", "addr:housenumber": "109", "addr:postcode": "73448", "addr:state": "OK", "addr:street": "C E Colston Avenue", "brand": "Dollar General", "brand:wikidata": "Q145168", "building": "construction", "check_date": "2024-12-23", "construction": "retail", "name": "Dollar General", "note": "Struck by an EF4 tornado on April 27, 2024, the building was demolished. A new building is under construction.", "shop": "variety_store", "website": "https://www.dollargeneral.com/store-directory/tx/denton/7050"}}}, {"type": "Feature", "geometry": {"type": "Polygon", "coordinates": [[[-97.1335187, 33.9420285], [-97.1335039, 33.9415879], [-97.1329338, 33.9416012], [-97.1329488, 33.9420418], [-97.1335187, 33.9420285]]]}, "properties": {"osm_id": 866039762, "building": "construction", "name": "Homeland", "height": null, "height_m": null, "levels": null, "tract_id": "40085094100", "tract_name": "941", "tags": {"addr:city": "Marietta", "addr:housenumber": "201", "addr:postcode": "73448", "addr:state": "OK", "addr:street": "C E Colston Avenue", "building": "construction", "check_date": "2024-12-23", "construction": "retail", "name": "Homeland", "note": "Struck by an EF4 tornado on April 27, 2024, the supermarket was demolished. A new building is under construction.", "shop": "supermarket"}}}, {"type": "Feature", "geometry": {"type": "Polygon", "coordinates": [[[-97.1321529, 33.9415001], [-97.1321529, 33.9413812], [-97.1319788, 33.9413812], [-97.1319788, 33.9415001], [-97.1321529, 33.9415001]]]}, "properties": {"osm_id": 866039763, "building": "yes", "name": "Marietta Hits Dispensary", "height": null, "height_m": null, "levels": null, "tract_id": "40085094100", "tract_name": "941", "tags": {"addr:city": "Marietta", "addr:housenumber": "106", "addr:postcode": "73448", "addr:state": "OK", "addr:street": "C E Colston Avenue", "building": "yes", "name": "Marietta Hits Dispensary", "shop": "cannabis"}}}, {"type": "Feature", "geometry": {"type": "Polygon", "coordinates": [[[-97.1320155, 33.942206], [-97.1320089, 33.9419639], [-97.1318813, 33.9419663], [-97.1318879, 33.9422084], [-97.1320155, 33.942206]]]}, "properties": {"osm_id": 866039764, "building": "yes", "name": "Love County Health Department", "height": null, "height_m": null, "levels": null, "tract_id": "40085094100", "tract_name": "941", "tags": {"addr:city": "Marietta", "addr:housenumber": "200", "addr:postcode": "73448", "addr:state": "OK", "addr:street": "C E Colston Avenue", "building": "yes", "name": "Love County Health Department", "office": "government"}}}, {"type": "Feature", "geometry": {"type": "Polygon", "coordinates": [[[-97.131358, 33.9412579], [-97.1313563, 33.9409893], [-97.1314312, 33.940989], [-97.1314307, 33.9409137], [-97.1310309, 33.9409154], [-97.1310313, 33.9409848], [-97.1311112, 33.9409845], [-97.1311129, 33.941259], [-97.131358, 33.9412579]]]}, "properties": {"osm_id": 866039765, "building": "yes", "name": "", "height": null, "height_m": null, "levels": null, "tract_id": "40085094100", "tract_name": "941", "tags": {"building": "yes"}}}, {"type": "Feature", "geometry": {"type": "Polygon", "coordinates": [[[-97.1313208, 33.9422645], [-97.1313164, 33.9420787], [-97.1311759, 33.942081], [-97.1311803, 33.9422668], [-97.1313208, 33.9422645]]]}, "properties": {"osm_id": 866039766, "building": "yes", "name": "", "height": null, "height_m": null, "levels": null, "tract_id": "40085094100", "tract_name": "941", "tags": {"building": "yes"}}}, {"type": "Feature", "geometry": {"type": "Polygon", "coordinates": [[[-97.1313638, 33.9415016], [-97.1313628, 33.9414293], [-97.131208, 33.9414309], [-97.131209, 33.9415031], [-97.1313638, 33.9415016]]]}, "properties": {"osm_id": 866039767, "building": "yes", "name": "", "height": null, "height_m": null, "levels": null, "tract_id": "40085094100", "tract_name": "941", "tags": {"building": "yes"}}}, {"type": "Feature", "geometry": {"type": "Polygon", "coordinates": [[[-97.1307341, 33.9439668], [-97.1307241, 33.9437722], [-97.1304129, 33.9437831], [-97.1304228, 33.9439778], [-97.1307341, 33.9439668]]]}, "properties": {"osm_id": 866039768, "building": "yes", "name": "", "height": null, "height_m": null, "levels": null, "tract_id": "40085094100", "tract_name": "941", "tags": {"building": "yes"}}}, {"type": "Feature", "geometry": {"type": "Polygon", "coordinates": [[[-97.1314381, 33.9435687], [-97.1314371, 33.9434806], [-97.1315287, 33.9434798], [-97.131527, 33.9433239], [-97.1312801, 33.9433258], [-97.1312805, 33.9433567], [-97.1312366, 33.9433571], [-97.1312373, 33.943414], [-97.1312876, 33.9434136], [-97.1312895, 33.9435822], [-97.1313778, 33.9435815], [-97.1313777, 33.9435692], [-97.1314381, 33.9435687]]]}, "properties": {"osm_id": 866039769, "building": "yes", "name": "", "height": null, "height_m": null, "levels": null, "tract_id": "40085094100", "tract_name": "941", "tags": {"building": "yes"}}}, {"type": "Feature", "geometry": {"type": "Polygon", "coordinates": [[[-97.1307521, 33.9434507], [-97.1307521, 33.9433043], [-97.1306159, 33.9433043], [-97.1306159, 33.9434507], [-97.1307521, 33.9434507]]]}, "properties": {"osm_id": 866039770, "building": "yes", "name": "", "height": null, "height_m": null, "levels": null, "tract_id": "40085094100", "tract_name": "941", "tags": {"building": "yes"}}}, {"type": "Feature", "geometry": {"type": "Polygon", "coordinates": [[[-97.1305403, 33.9434848], [-97.1305433, 33.9432953], [-97.1303934, 33.9432937], [-97.1303904, 33.9434831], [-97.1305403, 33.9434848]]]}, "properties": {"osm_id": 866039771, "building": "yes", "name": "", "height": null, "height_m": null, "levels": null, "tract_id": "40085094100", "tract_name": "941", "tags": {"building": "yes"}}}, {"type": "Feature", "geometry": {"type": "Polygon", "coordinates": [[[-97.1308871, 33.9434438], [-97.1308874, 33.943378], [-97.1307844, 33.9433777], [-97.130784, 33.9434434], [-97.1308871, 33.9434438]]]}, "properties": {"osm_id": 866039772, "building": "yes", "name": "", "height": null, "height_m": null, "levels": null, "tract_id": "40085094100", "tract_name": "941", "tags": {"building": "yes"}}}, {"type": "Feature", "geometry": {"type": "Polygon", "coordinates": [[[-97.1308818, 33.9433641], [-97.1308811, 33.9433055], [-97.1307832, 33.9433062], [-97.1307838, 33.9433647], [-97.1308818, 33.9433641]]]}, "properties": {"osm_id": 866039773, "building": "yes", "name": "", "height": null, "height_m": null, "levels": null, "tract_id": "40085094100", "tract_name": "941", "tags": {"building": "yes"}}}, {"type": "Feature", "geometry": {"type": "Polygon", "coordinates": [[[-97.1305131, 33.9431428], [-97.1305095, 33.9429776], [-97.1302887, 33.9429809], [-97.1302924, 33.9431461], [-97.1305131, 33.9431428]]]}, "properties": {"osm_id": 866039774, "building": "yes", "name": "", "height": null, "height_m": null, "levels": null, "tract_id": "40085094100", "tract_name": "941", "tags": {"building": "yes"}}}, {"type": "Feature", "geometry": {"type": "Polygon", "coordinates": [[[-97.1307405, 33.9429375], [-97.1307373, 33.9428305], [-97.130721, 33.9428308], [-97.1307197, 33.942785], [-97.1305976, 33.9427875], [-97.1305972, 33.942773], [-97.1304243, 33.9427766], [-97.1304259, 33.942829], [-97.1304011, 33.9428295], [-97.1303994, 33.9427708], [-97.1302553, 33.9427738], [-97.1302606, 33.9429533], [-97.1304074, 33.9429503], [-97.1304057, 33.9428938], [-97.1304373, 33.9428932], [-97.1304388, 33.9429438], [-97.1307405, 33.9429375]]]}, "properties": {"osm_id": 866039775, "building": "yes", "name": "", "height": null, "height_m": null, "levels": null, "tract_id": "40085094100", "tract_name": "941", "tags": {"building": "yes"}}}, {"type": "Feature", "geometry": {"type": "Polygon", "coordinates": [[[-97.1301928, 33.9411016], [-97.1301923, 33.9409504], [-97.1300339, 33.9409508], [-97.1300343, 33.9410642], [-97.130115, 33.941064], [-97.1301152, 33.9411017], [-97.1301928, 33.9411016]]]}, "properties": {"osm_id": 866039776, "building": "yes", "name": "Robertson's Hams", "height": null, "height_m": null, "levels": null, "tract_id": "40085094100", "tract_name": "941", "tags": {"addr:city": "Marietta", "addr:housenumber": "110", "addr:postcode": "73448", "addr:state": "OK", "addr:street": "Wanda Street", "amenity": "restaurant", "building": "yes", "name": "Robertson's Hams"}}}, {"type": "Feature", "geometry": {"type": "Polygon", "coordinates": [[[-97.1258685, 33.9376236], [-97.1258746, 33.9375737], [-97.1259702, 33.9375818], [-97.1260051, 33.9372982], [-97.1257988, 33.9372807], [-97.1257577, 33.9376142], [-97.1258685, 33.9376236]]]}, "properties": {"osm_id": 866039777, "building": "yes", "name": "JC Auto Parts", "height": null, "height_m": null, "levels": null, "tract_id": "40085094100", "tract_name": "941", "tags": {"addr:city": "Marietta", "addr:housenumber": "101", "addr:postcode": "73448", "addr:state": "OK", "addr:street": "South US Highway 77", "building": "yes", "name": "JC Auto Parts", "shop": "car_parts"}}}, {"type": "Feature", "geometry": {"type": "Polygon", "coordinates": [[[-97.1233127, 33.9374235], [-97.1233214, 33.9373412], [-97.1236837, 33.9373675], [-97.1236957, 33.9372537], [-97.1233311, 33.9372273], [-97.1233436, 33.9371084], [-97.1229382, 33.9370789], [-97.1229228, 33.9372252], [-97.1231491, 33.9372416], [-97.123147, 33.9372623], [-97.1231836, 33.9372649], [-97.1231681, 33.937413], [-97.1233127, 33.9374235]]]}, "properties": {"osm_id": 866039778, "building": "yes", "name": "First United Methodist Church", "height": null, "height_m": null, "levels": null, "tract_id": "40085094100", "tract_name": "941", "tags": {"addr:city": "Marietta", "addr:housenumber": "603", "addr:postcode": "73448", "addr:state": "OK", "addr:street": "West Main Street", "amenity": "place_of_worship", "building": "yes", "denomination": "united_methodist", "name": "First United Methodist Church", "religion": "christian"}}}, {"type": "Feature", "geometry": {"type": "Polygon", "coordinates": [[[-97.127976, 33.9412305], [-97.1279746, 33.9411942], [-97.12806, 33.9411919], [-97.1280511, 33.9409641], [-97.1279609, 33.9409666], [-97.1279595, 33.9409297], [-97.1279028, 33.9409312], [-97.1279146, 33.9412322], [-97.127976, 33.9412305]]]}, "properties": {"osm_id": 866054977, "building": "yes", "name": "Sonic", "height": null, "height_m": null, "levels": null, "tract_id": "40085094100", "tract_name": "941", "tags": {"addr:city": "Marietta", "addr:housenumber": "1002", "addr:postcode": "73448", "addr:state": "OK", "addr:street": "Memorial Drive", "amenity": "fast_food", "brand": "Sonic", "brand:wikidata": "Q7561808", "building": "yes", "cuisine": "burger", "drive_in": "yes", "name": "Sonic", "opening_hours": "Mo-Th 06:00-22:00; Fr-Sa 06:00-23:00; Su 07:00-22:00", "phone": "+1 580-276-9323", "takeaway": "yes", "website": "https://locations.sonicdrivein.com/ok/marietta/1002-memorial-drive.html"}}}, {"type": "Feature", "geometry": {"type": "Polygon", "coordinates": [[[-97.1282193, 33.9412101], [-97.1282068, 33.9409202], [-97.1281536, 33.9409217], [-97.128166, 33.9412117], [-97.1282193, 33.9412101]]]}, "properties": {"osm_id": 866054978, "building": "roof", "name": "", "height": null, "height_m": null, "levels": null, "tract_id": "40085094100", "tract_name": "941", "tags": {"building": "roof"}}}, {"type": "Feature", "geometry": {"type": "Polygon", "coordinates": [[[-97.1286205, 33.9411821], [-97.1286189, 33.9410419], [-97.1285925, 33.9410421], [-97.1285923, 33.9410179], [-97.1285588, 33.9410182], [-97.1285591, 33.9410458], [-97.1285405, 33.941046], [-97.128542, 33.9411827], [-97.1286205, 33.9411821]]]}, "properties": {"osm_id": 866054979, "building": "yes", "name": "Subway", "height": null, "height_m": null, "levels": null, "tract_id": "40085094100", "tract_name": "941", "tags": {"addr:city": "Marietta", "addr:housenumber": "1006", "addr:postcode": "73448", "addr:state": "OK", "addr:street": "Memorial Drive", "amenity": "fast_food", "brand": "Subway", "brand:wikidata": "Q244457", "building": "yes", "cuisine": "sandwich", "name": "Subway", "opening_hours": "08:00-21:00", "phone": "+1 580-276-9929", "takeaway": "yes", "website": "https://restaurants.subway.com/united-states/ok/marietta/1006-memorial-drive"}}}, {"type": "Feature", "geometry": {"type": "Polygon", "coordinates": [[[-97.1283709, 33.9410594], [-97.1283689, 33.9410127], [-97.1282308, 33.9410167], [-97.1282328, 33.9410634], [-97.1283709, 33.9410594]]]}, "properties": {"osm_id": 866054980, "building": "roof", "name": "", "height": null, "height_m": null, "levels": null, "tract_id": "40085094100", "tract_name": "941", "tags": {"building": "roof"}}}, {"type": "Feature", "geometry": {"type": "Polygon", "coordinates": [[[-97.129394, 33.9410602], [-97.1293841, 33.940938], [-97.1291013, 33.9409539], [-97.1291112, 33.941076], [-97.129394, 33.9410602]]]}, "properties": {"osm_id": 866054981, "building": "yes", "name": "Junction 420", "height": null, "height_m": null, "levels": null, "tract_id": "40085094100", "tract_name": "941", "tags": {"addr:city": "Marietta", "addr:housenumber": "1106", "addr:postcode": "73448", "addr:state": "OK", "addr:street": "Memorial Drive", "building": "yes", "name": "Junction 420", "shop": "medical_supply"}}}, {"type": "Feature", "geometry": {"type": "Polygon", "coordinates": [[[-97.1288841, 33.94117], [-97.1288804, 33.9410586], [-97.1289655, 33.9410567], [-97.1289664, 33.9410843], [-97.1290278, 33.9410829], [-97.129027, 33.9410592], [-97.1290543, 33.9410586], [-97.1290512, 33.9409629], [-97.1288893, 33.9409666], [-97.1288886, 33.9409453], [-97.1287524, 33.9409484], [-97.1287598, 33.9411728], [-97.1288841, 33.94117]]]}, "properties": {"osm_id": 866054982, "building": "yes", "name": "Counter Act by Steve", "height": null, "height_m": null, "levels": null, "tract_id": "40085094100", "tract_name": "941", "tags": {"addr:city": "Marietta", "addr:housenumber": "1100", "addr:postcode": "73448", "addr:state": "OK", "addr:street": "Memorial Drive", "building": "yes", "name": "Counter Act by Steve", "shop": "kitchen"}}}, {"type": "Feature", "geometry": {"type": "Polygon", "coordinates": [[[-97.1296381, 33.9415745], [-97.1296307, 33.9413999], [-97.1292996, 33.9414096], [-97.1293071, 33.9415842], [-97.1296381, 33.9415745]]]}, "properties": {"osm_id": 866054983, "building": "yes", "name": "", "height": null, "height_m": null, "levels": null, "tract_id": "40085094100", "tract_name": "941", "tags": {"building": "yes"}}}, {"type": "Feature", "geometry": {"type": "Polygon", "coordinates": [[[-97.1306941, 33.9417113], [-97.1306877, 33.9415762], [-97.1306478, 33.9415775], [-97.1306407, 33.9414262], [-97.1301928, 33.9414407], [-97.1301894, 33.9413674], [-97.1299699, 33.9413745], [-97.1299868, 33.9417343], [-97.1306941, 33.9417113]]]}, "properties": {"osm_id": 866054984, "building": "yes", "name": "", "height": null, "height_m": null, "levels": null, "tract_id": "40085094100", "tract_name": "941", "tags": {"building": "yes"}}}, {"type": "Feature", "geometry": {"type": "Polygon", "coordinates": [[[-97.1333426, 33.9428312], [-97.1333407, 33.9427637], [-97.1334381, 33.9427618], [-97.133435, 33.942656], [-97.1333117, 33.9426586], [-97.1333071, 33.9425032], [-97.1333386, 33.9425026], [-97.1333378, 33.9424789], [-97.1336181, 33.9424726], [-97.1336143, 33.9423567], [-97.1333461, 33.9423627], [-97.1333446, 33.9423168], [-97.1331133, 33.9423221], [-97.133114, 33.9423413], [-97.132787, 33.9423485], [-97.1327919, 33.9425035], [-97.1331237, 33.9424962], [-97.1331244, 33.9425199], [-97.1331501, 33.9425194], [-97.1331546, 33.9426727], [-97.1330415, 33.942675], [-97.1330402, 33.9426296], [-97.1329264, 33.9426319], [-97.1329277, 33.9426768], [-97.1328259, 33.9426788], [-97.1328282, 33.9427592], [-97.1329305, 33.9427572], [-97.1329329, 33.9428393], [-97.1333426, 33.9428312]]]}, "properties": {"osm_id": 866054985, "building": "yes", "name": "Lake Country Nursing Center", "height": null, "height_m": null, "levels": null, "tract_id": "40085094100", "tract_name": "941", "tags": {"addr:city": "Marietta", "addr:housenumber": "301", "addr:postcode": "73448", "addr:state": "OK", "addr:street": "C E Colston Avenue", "amenity": "social_facility", "building": "yes", "name": "Lake Country Nursing Center", "social_facility": "nursing_home", "social_facility:for": "senior"}}}, {"type": "Feature", "geometry": {"type": "Polygon", "coordinates": [[[-97.1336537, 33.9427897], [-97.1336404, 33.9426324], [-97.1335171, 33.9426396], [-97.1335305, 33.9427969], [-97.1336537, 33.9427897]]]}, "properties": {"osm_id": 866054986, "building": "yes", "name": "", "height": null, "height_m": null, "levels": null, "tract_id": "40085094100", "tract_name": "941", "tags": {"building": "yes"}}}, {"type": "Feature", "geometry": {"type": "Polygon", "coordinates": [[[-97.1307304, 33.9422663], [-97.1307274, 33.9420803], [-97.1307834, 33.9420797], [-97.1307824, 33.9420184], [-97.1306601, 33.9420198], [-97.1306605, 33.9420493], [-97.1305011, 33.9420511], [-97.1305016, 33.9420805], [-97.130413, 33.9420815], [-97.1304146, 33.9421827], [-97.1304449, 33.9421823], [-97.1304454, 33.9422096], [-97.1305769, 33.9422081], [-97.1305778, 33.942268], [-97.1307304, 33.9422663]]]}, "properties": {"osm_id": 866054988, "building": "yes", "name": "", "height": null, "height_m": null, "levels": null, "tract_id": "40085094100", "tract_name": "941", "tags": {"building": "yes"}}}, {"type": "Feature", "geometry": {"type": "Polygon", "coordinates": [[[-97.1276565, 33.9417916], [-97.1276417, 33.9415688], [-97.1275336, 33.9415738], [-97.1275484, 33.9417965], [-97.1276565, 33.9417916]]]}, "properties": {"osm_id": 866054989, "building": "yes", "name": "", "height": null, "height_m": null, "levels": null, "tract_id": "40085094100", "tract_name": "941", "tags": {"building": "yes"}}}, {"type": "Feature", "geometry": {"type": "Polygon", "coordinates": [[[-97.1278035, 33.9415335], [-97.1278002, 33.9414374], [-97.1275479, 33.9414433], [-97.1275511, 33.9415394], [-97.1278035, 33.9415335]]]}, "properties": {"osm_id": 866054990, "building": "yes", "name": "", "height": null, "height_m": null, "levels": null, "tract_id": "40085094100", "tract_name": "941", "tags": {"building": "yes"}}}, {"type": "Feature", "geometry": {"type": "Polygon", "coordinates": [[[-97.1277425, 33.9423296], [-97.1277371, 33.9422134], [-97.1275347, 33.9422198], [-97.1275401, 33.9423361], [-97.1277425, 33.9423296]]]}, "properties": {"osm_id": 866054991, "building": "yes", "name": "", "height": null, "height_m": null, "levels": null, "tract_id": "40085094100", "tract_name": "941", "tags": {"building": "yes"}}}, {"type": "Feature", "geometry": {"type": "Polygon", "coordinates": [[[-97.1280825, 33.9430967], [-97.1280794, 33.9429858], [-97.1277677, 33.9429918], [-97.1277708, 33.9431028], [-97.1280825, 33.9430967]]]}, "properties": {"osm_id": 866054992, "building": "yes", "name": "", "height": null, "height_m": null, "levels": null, "tract_id": "40085094100", "tract_name": "941", "tags": {"building": "yes"}}}, {"type": "Feature", "geometry": {"type": "Polygon", "coordinates": [[[-97.1281702, 33.9429601], [-97.1281699, 33.942924], [-97.1282196, 33.9429237], [-97.1282191, 33.94287], [-97.1281125, 33.9428708], [-97.1281134, 33.9429605], [-97.1281702, 33.9429601]]]}, "properties": {"osm_id": 866054993, "building": "yes", "name": "", "height": null, "height_m": null, "levels": null, "tract_id": "40085094100", "tract_name": "941", "tags": {"building": "yes"}}}, {"type": "Feature", "geometry": {"type": "Polygon", "coordinates": [[[-97.127639, 33.943065], [-97.1276388, 33.9430392], [-97.1276481, 33.9430391], [-97.1276478, 33.9430105], [-97.1276797, 33.9430103], [-97.1276792, 33.9429625], [-97.1276422, 33.9429628], [-97.1276416, 33.942908], [-97.1274322, 33.9429095], [-97.1274335, 33.9430465], [-97.1274624, 33.9430463], [-97.1274626, 33.9430662], [-97.127639, 33.943065]]]}, "properties": {"osm_id": 866054994, "building": "yes", "name": "", "height": null, "height_m": null, "levels": null, "tract_id": "40085094100", "tract_name": "941", "tags": {"building": "yes"}}}, {"type": "Feature", "geometry": {"type": "Polygon", "coordinates": [[[-97.1280656, 33.9426104], [-97.1280655, 33.9425873], [-97.128077, 33.9425872], [-97.1280769, 33.942556], [-97.1281063, 33.9425559], [-97.1281061, 33.942505], [-97.1280648, 33.9425051], [-97.1280647, 33.9424645], [-97.1278814, 33.9424649], [-97.1278816, 33.9425213], [-97.1278457, 33.9425214], [-97.1278458, 33.9425608], [-97.1278755, 33.9425607], [-97.1278755, 33.9425821], [-97.1278899, 33.9425821], [-97.12789, 33.9426109], [-97.1280656, 33.9426104]]]}, "properties": {"osm_id": 866054995, "building": "yes", "name": "", "height": null, "height_m": null, "levels": null, "tract_id": "40085094100", "tract_name": "941", "tags": {"building": "yes"}}}, {"type": "Feature", "geometry": {"type": "Polygon", "coordinates": [[[-97.1277737, 33.9426218], [-97.1277736, 33.942592], [-97.1277887, 33.942592], [-97.1277886, 33.9425653], [-97.1278113, 33.9425652], [-97.127811, 33.9425103], [-97.1277743, 33.9425104], [-97.1277742, 33.9424808], [-97.1275962, 33.9424812], [-97.1275963, 33.942505], [-97.1275384, 33.9425051], [-97.1275386, 33.9425686], [-97.127589, 33.9425685], [-97.1275891, 33.9425936], [-97.1276036, 33.9425935], [-97.1276037, 33.9426223], [-97.1277737, 33.9426218]]]}, "properties": {"osm_id": 866054996, "building": "yes", "name": "", "height": null, "height_m": null, "levels": null, "tract_id": "40085094100", "tract_name": "941", "tags": {"building": "yes"}}}, {"type": "Feature", "geometry": {"type": "Polygon", "coordinates": [[[-97.1315363, 33.9431348], [-97.1315354, 33.9430566], [-97.1314665, 33.9430571], [-97.1314656, 33.9429696], [-97.131432, 33.9429699], [-97.1314316, 33.9429383], [-97.1313817, 33.9429388], [-97.1313821, 33.9429723], [-97.1313097, 33.942973], [-97.131311, 33.9430734], [-97.1312668, 33.9430738], [-97.131265, 33.9429389], [-97.1310999, 33.9429405], [-97.1310988, 33.9428601], [-97.1307703, 33.9428633], [-97.1307724, 33.9430159], [-97.1305767, 33.9430178], [-97.1305785, 33.9431453], [-97.1308157, 33.943143], [-97.1308176, 33.9432753], [-97.1308714, 33.9432748], [-97.1308718, 33.9432969], [-97.1309208, 33.9432964], [-97.1309205, 33.9432769], [-97.1309692, 33.9432765], [-97.1309675, 33.9431498], [-97.1310156, 33.9431494], [-97.1310158, 33.9431685], [-97.1310556, 33.9431682], [-97.1310562, 33.9432217], [-97.1312258, 33.9432203], [-97.1312252, 33.9431657], [-97.1312641, 33.9431653], [-97.1312638, 33.9431414], [-97.1312738, 33.9431413], [-97.1312743, 33.9431891], [-97.131351, 33.9431885], [-97.1313504, 33.9431361], [-97.1315363, 33.9431348]]]}, "properties": {"osm_id": 866054997, "building": "yes", "name": "", "height": null, "height_m": null, "levels": null, "tract_id": "40085094100", "tract_name": "941", "tags": {"building": "yes"}}}, {"type": "Feature", "geometry": {"type": "Polygon", "coordinates": [[[-97.1290035, 33.9421746], [-97.1290021, 33.9421465], [-97.1291138, 33.9421428], [-97.129109, 33.9420433], [-97.1289296, 33.9420494], [-97.1289303, 33.9420632], [-97.1288445, 33.9420661], [-97.1288501, 33.9421797], [-97.1290035, 33.9421746]]]}, "properties": {"osm_id": 866054998, "building": "house", "name": "", "height": null, "height_m": null, "levels": null, "tract_id": "40085094100", "tract_name": "941", "tags": {"addr:city": "Marietta", "addr:housenumber": "1027", "addr:postcode": "73448", "addr:state": "OK", "addr:street": "Shell Street", "building": "house"}}}, {"type": "Feature", "geometry": {"type": "Polygon", "coordinates": [[[-97.1285606, 33.942176], [-97.1287741, 33.942166], [-97.1287685, 33.9420831], [-97.1286941, 33.9420866], [-97.128692, 33.9420558], [-97.1285528, 33.9420624], [-97.1285606, 33.942176]]]}, "properties": {"osm_id": 866054999, "building": "house", "name": "", "height": null, "height_m": null, "levels": null, "tract_id": "40085094100", "tract_name": "941", "tags": {"addr:city": "Marietta", "addr:housenumber": "1025", "addr:postcode": "73448", "addr:state": "OK", "addr:street": "Shell Street", "building": "house"}}}, {"type": "Feature", "geometry": {"type": "Polygon", "coordinates": [[[-97.1287169, 33.9417308], [-97.1287147, 33.9416398], [-97.1285292, 33.9416429], [-97.128531, 33.9417212], [-97.128572, 33.9417205], [-97.1285723, 33.9417332], [-97.1287169, 33.9417308]]]}, "properties": {"osm_id": 866055000, "building": "house", "name": "", "height": null, "height_m": null, "levels": null, "tract_id": "40085094100", "tract_name": "941", "tags": {"addr:city": "Marietta", "addr:housenumber": "1022", "addr:postcode": "73448", "addr:state": "OK", "addr:street": "Shell Street", "building": "house"}}}, {"type": "Feature", "geometry": {"type": "Polygon", "coordinates": [[[-97.128416, 33.9417556], [-97.128414, 33.9416438], [-97.1281858, 33.9416466], [-97.1281875, 33.9417414], [-97.1282427, 33.9417408], [-97.128243, 33.9417577], [-97.128416, 33.9417556]]]}, "properties": {"osm_id": 866055001, "building": "house", "name": "", "height": null, "height_m": null, "levels": null, "tract_id": "40085094100", "tract_name": "941", "tags": {"addr:city": "Marietta", "addr:housenumber": "1020", "addr:postcode": "73448", "addr:state": "OK", "addr:street": "Shell Street", "building": "house"}}}, {"type": "Feature", "geometry": {"type": "Polygon", "coordinates": [[[-97.1295874, 33.9435417], [-97.1295876, 33.9434624], [-97.1296163, 33.9434624], [-97.1296164, 33.9434276], [-97.1295826, 33.9434276], [-97.1295833, 33.9432411], [-97.1293883, 33.9432406], [-97.1293873, 33.9435412], [-97.1295874, 33.9435417]]]}, "properties": {"osm_id": 866055002, "building": "yes", "name": "Love County Senior Program", "height": null, "height_m": null, "levels": null, "tract_id": "40085094100", "tract_name": "941", "tags": {"addr:city": "Marietta", "addr:housenumber": "299", "addr:postcode": "73448", "addr:state": "OK", "addr:street": "Bell Street", "amenity": "social_centre", "building": "yes", "name": "Love County Senior Program"}}}, {"type": "Feature", "geometry": {"type": "Polygon", "coordinates": [[[-97.1276639, 33.9413839], [-97.1276567, 33.9412548], [-97.1277563, 33.941251], [-97.1277464, 33.9410718], [-97.1276701, 33.9410747], [-97.1276721, 33.9411105], [-97.1275179, 33.9411163], [-97.1275329, 33.9413889], [-97.1276639, 33.9413839]]]}, "properties": {"osm_id": 866055003, "building": "yes", "name": "Jiffy Jim's", "height": null, "height_m": null, "levels": null, "tract_id": "40085094100", "tract_name": "941", "tags": {"addr:city": "Marietta", "addr:housenumber": "1000", "addr:postcode": "73448", "addr:state": "OK", "addr:street": "Memorial Drive", "building": "yes", "name": "Jiffy Jim's", "shop": "convenience"}}}, {"type": "Feature", "geometry": {"type": "Polygon", "coordinates": [[[-97.1275383, 33.9410164], [-97.1275333, 33.9409293], [-97.1274532, 33.9409325], [-97.1274583, 33.9410196], [-97.1275383, 33.9410164]]]}, "properties": {"osm_id": 866055004, "building": "roof", "name": "Jiffy Jim's", "height": null, "height_m": null, "levels": null, "tract_id": "40085094100", "tract_name": "941", "tags": {"amenity": "fuel", "building": "roof", "name": "Jiffy Jim's"}}}, {"type": "Feature", "geometry": {"type": "Polygon", "coordinates": [[[-97.1271377, 33.9411511], [-97.1271338, 33.9409776], [-97.1270359, 33.9409791], [-97.1270397, 33.9411526], [-97.1271377, 33.9411511]]]}, "properties": {"osm_id": 866055005, "building": "yes", "name": "Martin Petroleum", "height": null, "height_m": null, "levels": null, "tract_id": "40085094100", "tract_name": "941", "tags": {"addr:city": "Marietta", "addr:housenumber": "900", "addr:postcode": "73448", "addr:state": "OK", "addr:street": "Memorial Drive", "building": "yes", "name": "Martin Petroleum", "office": "energy_supplier"}}}, {"type": "Feature", "geometry": {"type": "Polygon", "coordinates": [[[-97.1304231, 33.9401803], [-97.1304232, 33.9398698], [-97.1302034, 33.9398698], [-97.1302034, 33.9401803], [-97.1304231, 33.9401803]]]}, "properties": {"osm_id": 866055006, "building": "yes", "name": "", "height": null, "height_m": null, "levels": null, "tract_id": "40085094100", "tract_name": "941", "tags": {"building": "yes"}}}, {"type": "Feature", "geometry": {"type": "Polygon", "coordinates": [[[-97.1299486, 33.9401896], [-97.1299478, 33.9399232], [-97.1297727, 33.9399235], [-97.1297735, 33.94019], [-97.1299486, 33.9401896]]]}, "properties": {"osm_id": 866055007, "building": "yes", "name": "", "height": null, "height_m": null, "levels": null, "tract_id": "40085094100", "tract_name": "941", "tags": {"building": "yes"}}}, {"type": "Feature", "geometry": {"type": "Polygon", "coordinates": [[[-97.1289109, 33.94006], [-97.1289156, 33.9398385], [-97.1287553, 33.9398375], [-97.1287547, 33.9397418], [-97.1286522, 33.9397415], [-97.1286535, 33.9398354], [-97.1286235, 33.9398355], [-97.1286239, 33.9398905], [-97.1285501, 33.9398909], [-97.1284704, 33.9398913], [-97.1284731, 33.9399795], [-97.1285507, 33.9399794], [-97.1286229, 33.9399793], [-97.1286236, 33.9400617], [-97.1289109, 33.94006]]]}, "properties": {"osm_id": 866055008, "building": "yes", "name": "First National Bank & Trust", "height": null, "height_m": null, "levels": null, "tract_id": "40085094100", "tract_name": "941", "tags": {"addr:city": "Marietta", "addr:housenumber": "1101", "addr:postcode": "73448", "addr:state": "OK", "addr:street": "Memorial Drive", "amenity": "bank", "building": "yes", "name": "First National Bank & Trust"}}}, {"type": "Feature", "geometry": {"type": "Polygon", "coordinates": [[[-97.1268504, 33.9400431], [-97.1268524, 33.9399021], [-97.126484, 33.9398985], [-97.126482, 33.9400394], [-97.1264977, 33.9400396], [-97.1266431, 33.940041], [-97.1268504, 33.9400431]]]}, "properties": {"osm_id": 866055009, "building": "yes", "name": "Texoma Tumbleweed", "height": null, "height_m": null, "levels": null, "tract_id": "40085094100", "tract_name": "941", "tags": {"addr:city": "Marietta", "addr:housenumber": "307", "addr:postcode": "73448", "addr:state": "OK", "addr:street": "North US Highway 77", "amenity": "pharmacy", "building": "yes", "dispensing": "yes", "healthcare": "pharmacy", "name": "Texoma Tumbleweed"}}}, {"type": "Feature", "geometry": {"type": "Polygon", "coordinates": [[[-97.1264977, 33.9400396], [-97.1264991, 33.9400657], [-97.1265564, 33.940296], [-97.126696, 33.9402753], [-97.1266431, 33.940041], [-97.1264977, 33.9400396]]]}, "properties": {"osm_id": 866055010, "building": "yes", "name": "La Roca Mexican Restaurante", "height": null, "height_m": null, "levels": null, "tract_id": "40085094100", "tract_name": "941", "tags": {"addr:city": "Marietta", "addr:housenumber": "309", "addr:postcode": "73448", "addr:state": "OK", "addr:street": "North US Highway 77", "amenity": "restaurant", "building": "yes", "cuisine": "mexican", "name": "La Roca Mexican Restaurante"}}}, {"type": "Feature", "geometry": {"type": "Polygon", "coordinates": [[[-97.1260829, 33.9387951], [-97.1260922, 33.9386854], [-97.1259217, 33.9386754], [-97.1259124, 33.9387852], [-97.1260829, 33.9387951]]]}, "properties": {"osm_id": 866055011, "building": "yes", "name": "Simple Simon's Pizza", "height": null, "height_m": null, "levels": null, "tract_id": "40085094100", "tract_name": "941", "tags": {"addr:city": "Marietta", "addr:housenumber": "108", "addr:postcode": "73448", "addr:state": "OK", "addr:street": "North US Highway 77", "amenity": "restaurant", "building": "yes", "cuisine": "pizza", "name": "Simple Simon's Pizza"}}}, {"type": "Feature", "geometry": {"type": "Polygon", "coordinates": [[[-97.1270023, 33.9390722], [-97.127006, 33.9389863], [-97.1270646, 33.938988], [-97.1270678, 33.9389134], [-97.1270059, 33.9389115], [-97.1270167, 33.9386586], [-97.1268716, 33.9385446], [-97.1264932, 33.9385463], [-97.1264943, 33.9387107], [-97.1265666, 33.9387104], [-97.1265663, 33.9386664], [-97.1266282, 33.9386661], [-97.1266279, 33.9386252], [-97.1268359, 33.9386243], [-97.1269187, 33.9386946], [-97.1269062, 33.9389949], [-97.1268887, 33.9389944], [-97.1268855, 33.9390688], [-97.1270023, 33.9390722]]]}, "properties": {"osm_id": 866055012, "building": "yes", "name": "Lake Country Motel", "height": null, "height_m": null, "levels": null, "tract_id": "40085094100", "tract_name": "941", "tags": {"addr:city": "Marietta", "addr:housenumber": "107", "addr:postcode": "73448", "addr:state": "OK", "addr:street": "North US Highway 77", "building": "yes", "name": "Lake Country Motel", "tourism": "motel"}}}, {"type": "Feature", "geometry": {"type": "Polygon", "coordinates": [[[-97.1254729, 33.9383033], [-97.1255037, 33.9379584], [-97.1252547, 33.9379431], [-97.125224, 33.9382879], [-97.1254729, 33.9383033]]]}, "properties": {"osm_id": 866055013, "building": "yes", "name": "", "height": null, "height_m": null, "levels": null, "tract_id": "40085094100", "tract_name": "941", "tags": {"building": "yes"}}}, {"type": "Feature", "geometry": {"type": "Polygon", "coordinates": [[[-97.124942, 33.9386499], [-97.1249757, 33.9383553], [-97.1249167, 33.9383506], [-97.1249198, 33.9383237], [-97.1247581, 33.938311], [-97.1247214, 33.9386325], [-97.124942, 33.9386499]]]}, "properties": {"osm_id": 866055014, "building": "yes", "name": "", "height": null, "height_m": null, "levels": null, "tract_id": "40085094100", "tract_name": "941", "tags": {"building": "yes"}}}, {"type": "Feature", "geometry": {"type": "Polygon", "coordinates": [[[-97.1267271, 33.937325], [-97.1267365, 33.9370455], [-97.1266173, 33.9370427], [-97.1266079, 33.9373222], [-97.1267271, 33.937325]]]}, "properties": {"osm_id": 866055015, "building": "yes", "name": "E-Z Mart", "height": null, "height_m": null, "levels": null, "tract_id": "40085094100", "tract_name": "941", "tags": {"addr:city": "Marietta", "addr:housenumber": "101", "addr:postcode": "73448", "addr:state": "OK", "addr:street": "South US Highway 77", "building": "yes", "name": "E-Z Mart", "shop": "convenience"}}}, {"type": "Feature", "geometry": {"type": "Polygon", "coordinates": [[[-97.1248436, 33.9382574], [-97.1248594, 33.9381088], [-97.1248915, 33.9381112], [-97.1248993, 33.938038], [-97.1245475, 33.9380121], [-97.1245455, 33.9380305], [-97.1243328, 33.9380149], [-97.1243198, 33.9381369], [-97.1242493, 33.9381318], [-97.1242406, 33.9382132], [-97.1248436, 33.9382574]]]}, "properties": {"osm_id": 866055016, "building": "yes", "name": "Family Dollar", "height": null, "height_m": null, "levels": null, "tract_id": "40085094100", "tract_name": "941", "tags": {"addr:city": "Marietta", "addr:housenumber": "706", "addr:postcode": "73448", "addr:state": "OK", "addr:street": "West Main Street", "brand": "Family Dollar", "brand:wikidata": "Q5433101", "building": "yes", "name": "Family Dollar", "shop": "variety_store"}}}, {"type": "Feature", "geometry": {"type": "Polygon", "coordinates": [[[-97.1242082, 33.9380733], [-97.1242165, 33.9380229], [-97.1242395, 33.9380255], [-97.1242535, 33.9379401], [-97.1241922, 33.9379332], [-97.1241951, 33.9379156], [-97.1240899, 33.9379037], [-97.124071, 33.9380188], [-97.1241001, 33.9380221], [-97.1240938, 33.9380605], [-97.1242082, 33.9380733]]]}, "properties": {"osm_id": 866055017, "building": "yes", "name": "State Farm", "height": null, "height_m": null, "levels": null, "tract_id": "40085094100", "tract_name": "941", "tags": {"addr:city": "Marietta", "addr:housenumber": "700", "addr:postcode": "73448", "addr:state": "OK", "addr:street": "West Main Street", "brand": "State Farm", "brand:wikidata": "Q2007336", "building": "yes", "name": "State Farm", "office": "insurance"}}}, {"type": "Feature", "geometry": {"type": "Polygon", "coordinates": [[[-97.1260551, 33.9352566], [-97.1260817, 33.9349937], [-97.1258177, 33.9349753], [-97.1257911, 33.9352382], [-97.1260551, 33.9352566]]]}, "properties": {"osm_id": 866055018, "building": "yes", "name": "", "height": null, "height_m": null, "levels": null, "tract_id": "40085094100", "tract_name": "941", "tags": {"building": "yes"}}}, {"type": "Feature", "geometry": {"type": "Polygon", "coordinates": [[[-97.1212393, 33.9370409], [-97.1212325, 33.9370345], [-97.1212352, 33.9369985], [-97.1212862, 33.9370012], [-97.1212916, 33.9369301], [-97.1212396, 33.9369273], [-97.1212416, 33.936901], [-97.1212644, 33.9368817], [-97.1212104, 33.9368379], [-97.1211754, 33.9368677], [-97.1210521, 33.9368623], [-97.1210341, 33.9368728], [-97.1209952, 33.9368266], [-97.1209354, 33.9368612], [-97.1209509, 33.9368688], [-97.1209506, 33.9368965], [-97.1208995, 33.936896], [-97.1208985, 33.9369736], [-97.120937, 33.9369739], [-97.1209367, 33.9370033], [-97.1209129, 33.9370189], [-97.1209535, 33.9370616], [-97.121021, 33.9370173], [-97.1210366, 33.9370259], [-97.1210364, 33.9370463], [-97.1210116, 33.9370461], [-97.1210114, 33.9370694], [-97.1211194, 33.93707], [-97.1211196, 33.9370538], [-97.1211365, 33.9370539], [-97.1211455, 33.9370473], [-97.1211828, 33.9370823], [-97.1212393, 33.9370409]]]}, "properties": {"osm_id": 866055019, "building": "yes", "name": "Love County Courthouse", "height": null, "height_m": null, "levels": null, "tract_id": "40085094100", "tract_name": "941", "tags": {"addr:city": "Marietta", "addr:housenumber": "405", "addr:postcode": "73448", "addr:state": "OK", "addr:street": "West Main Street", "amenity": "courthouse", "building": "yes", "name": "Love County Courthouse"}}}, {"type": "Feature", "geometry": {"type": "Polygon", "coordinates": [[[-97.1214467, 33.9368765], [-97.1214507, 33.9368415], [-97.1214941, 33.9368449], [-97.1215023, 33.9367737], [-97.12146, 33.9367704], [-97.1214656, 33.9367216], [-97.1213689, 33.9367139], [-97.1213646, 33.9367515], [-97.1213199, 33.936748], [-97.1213115, 33.9368213], [-97.1213479, 33.9368241], [-97.1213429, 33.9368683], [-97.1214467, 33.9368765]]]}, "properties": {"osm_id": 866055020, "building": "yes", "name": "Love County Military Museum", "height": null, "height_m": null, "levels": null, "tract_id": "40085094100", "tract_name": "941", "tags": {"addr:city": "Marietta", "addr:housenumber": "408", "addr:postcode": "73448", "addr:state": "OK", "addr:street": "West Chickasaw Street", "building": "yes", "museum": "military", "name": "Love County Military Museum", "tourism": "museum"}}}, {"type": "Feature", "geometry": {"type": "Polygon", "coordinates": [[[-97.1218847, 33.9384275], [-97.1219043, 33.9382238], [-97.121641, 33.9382063], [-97.121631, 33.9383107], [-97.1216567, 33.9383124], [-97.1216471, 33.9384117], [-97.1218847, 33.9384275]]]}, "properties": {"osm_id": 866060652, "building": "yes", "name": "", "height": null, "height_m": null, "levels": null, "tract_id": "40085094100", "tract_name": "941", "tags": {"addr:city": "Marietta", "addr:housenumber": "501", "addr:postcode": "73448", "addr:state": "OK", "addr:street": "West Broadway Street", "building": "yes"}}}, {"type": "Feature", "geometry": {"type": "Polygon", "coordinates": [[[-97.1215617, 33.936191], [-97.1215876, 33.9359572], [-97.1212541, 33.9359318], [-97.1212282, 33.9361656], [-97.1215617, 33.936191]]]}, "properties": {"osm_id": 866060653, "building": "yes", "name": "Love County Historical Society", "height": null, "height_m": null, "levels": null, "tract_id": "40085094100", "tract_name": "941", "tags": {"addr:city": "Marietta", "addr:housenumber": "409", "addr:postcode": "73448", "addr:state": "OK", "addr:street": "West Chickasaw Street", "building": "yes", "museum": "history", "name": "Love County Historical Society", "tourism": "museum"}}}, {"type": "Feature", "geometry": {"type": "Polygon", "coordinates": [[[-97.1260512, 33.936226], [-97.126064, 33.9361056], [-97.1257623, 33.9360835], [-97.1257495, 33.9362039], [-97.1260512, 33.936226]]]}, "properties": {"osm_id": 866060656, "building": "yes", "name": "", "height": null, "height_m": null, "levels": null, "tract_id": "40085094100", "tract_name": "941", "tags": {"building": "yes"}}}, {"type": "Feature", "geometry": {"type": "Polygon", "coordinates": [[[-97.1256766, 33.9361932], [-97.1256895, 33.9360835], [-97.1254271, 33.9360623], [-97.1254143, 33.936172], [-97.1256766, 33.9361932]]]}, "properties": {"osm_id": 866060657, "building": "yes", "name": "", "height": null, "height_m": null, "levels": null, "tract_id": "40085094100", "tract_name": "941", "tags": {"building": "yes"}}}, {"type": "Feature", "geometry": {"type": "Polygon", "coordinates": [[[-97.1260488, 33.9360492], [-97.1260634, 33.9359253], [-97.1257755, 33.935902], [-97.1257609, 33.9360259], [-97.1260488, 33.9360492]]]}, "properties": {"osm_id": 866060658, "building": "yes", "name": "", "height": null, "height_m": null, "levels": null, "tract_id": "40085094100", "tract_name": "941", "tags": {"building": "yes"}}}, {"type": "Feature", "geometry": {"type": "Polygon", "coordinates": [[[-97.1256975, 33.9360088], [-97.1257131, 33.9358902], [-97.125454, 33.9358668], [-97.1254385, 33.9359854], [-97.1256975, 33.9360088]]]}, "properties": {"osm_id": 866060659, "building": "yes", "name": "", "height": null, "height_m": null, "levels": null, "tract_id": "40085094100", "tract_name": "941", "tags": {"building": "yes"}}}, {"type": "Feature", "geometry": {"type": "Polygon", "coordinates": [[[-97.1269153, 33.9358256], [-97.1269157, 33.9356799], [-97.1267838, 33.9356797], [-97.1267839, 33.9356229], [-97.1267199, 33.9356228], [-97.1267198, 33.9356723], [-97.1266621, 33.9356722], [-97.1266617, 33.9358252], [-97.1269153, 33.9358256]]]}, "properties": {"osm_id": 866060660, "building": "yes", "name": "Marietta Discount Pharmacy", "height": null, "height_m": null, "levels": null, "tract_id": "40085094100", "tract_name": "941", "tags": {"addr:city": "Marietta", "addr:housenumber": "300", "addr:postcode": "73448", "addr:state": "OK", "addr:street": "South US Highway 77", "amenity": "pharmacy", "building": "yes", "dispensing": "yes", "healthcare": "pharmacy", "name": "Marietta Discount Pharmacy"}}}, {"type": "Feature", "geometry": {"type": "Polygon", "coordinates": [[[-97.1151987, 33.9366037], [-97.115214, 33.9363497], [-97.11487, 33.9363354], [-97.1148661, 33.9364009], [-97.1148311, 33.9363995], [-97.1148275, 33.9364591], [-97.1148531, 33.9364602], [-97.1148474, 33.9365534], [-97.1149, 33.9365556], [-97.1148982, 33.9365852], [-97.1149548, 33.9365876], [-97.1149566, 33.9365575], [-97.1149891, 33.9365588], [-97.1149853, 33.9366214], [-97.1150762, 33.9366252], [-97.1150778, 33.9365987], [-97.1151987, 33.9366037]]]}, "properties": {"osm_id": 866060661, "building": "yes", "name": "Flanagan-Watts Funeral Home", "height": null, "height_m": null, "levels": null, "tract_id": "40085094100", "tract_name": "941", "tags": {"addr:city": "Marietta", "addr:housenumber": "100", "addr:postcode": "73448", "addr:state": "OK", "addr:street": "East Main Street", "building": "yes", "name": "Flanagan-Watts Funeral Home", "shop": "funeral_directors"}}}, {"type": "Feature", "geometry": {"type": "Polygon", "coordinates": [[[-97.1188325, 33.9393133], [-97.1188612, 33.9390841], [-97.1187105, 33.9390712], [-97.1187184, 33.9390082], [-97.1186173, 33.9389995], [-97.1186113, 33.9390477], [-97.1184851, 33.9390368], [-97.1184546, 33.9392807], [-97.1188325, 33.9393133]]]}, "properties": {"osm_id": 866060662, "building": "yes", "name": "First Christian Church", "height": null, "height_m": null, "levels": null, "tract_id": "40085094100", "tract_name": "941", "tags": {"addr:city": "Marietta", "addr:housenumber": "210", "addr:postcode": "73448", "addr:state": "OK", "addr:street": "Northwest 2nd Avenue", "amenity": "place_of_worship", "building": "yes", "name": "First Christian Church", "religion": "christian"}}}, {"type": "Feature", "geometry": {"type": "Polygon", "coordinates": [[[-97.1177731, 33.938847], [-97.1178257, 33.9384571], [-97.1176701, 33.9384427], [-97.1176176, 33.9388325], [-97.1177731, 33.938847]]]}, "properties": {"osm_id": 866060663, "building": "yes", "name": "Wells Feed", "height": null, "height_m": null, "levels": null, "tract_id": "40085094100", "tract_name": "941", "tags": {"addr:city": "Marietta", "addr:housenumber": "108", "addr:postcode": "73448", "addr:state": "OK", "addr:street": "West Broadway Street", "building": "yes", "name": "Wells Feed", "shop": "country_store"}}}, {"type": "Feature", "geometry": {"type": "Polygon", "coordinates": [[[-97.1177887, 33.9375521], [-97.1178721, 33.9375552], [-97.1178806, 33.9373976], [-97.1176901, 33.9373906], [-97.1176782, 33.9376124], [-97.1176502, 33.9376113], [-97.1176476, 33.9376597], [-97.1177827, 33.9376646], [-97.1177887, 33.9375521]]]}, "properties": {"osm_id": 866060664, "building": "yes", "name": "United States Post Office", "height": null, "height_m": null, "levels": null, "tract_id": "40085094100", "tract_name": "941", "tags": {"addr:city": "Marietta", "addr:housenumber": "118", "addr:postcode": "73448", "addr:state": "OK", "addr:street": "West Main Street", "amenity": "post_office", "brand": "United States Post Office", "brand:wikidata": "Q668687", "building": "yes", "name": "United States Post Office"}}}, {"type": "Feature", "geometry": {"type": "Polygon", "coordinates": [[[-97.1119643, 33.9364762], [-97.1119829, 33.9361732], [-97.1115155, 33.9361534], [-97.1114969, 33.9364565], [-97.1119643, 33.9364762]]]}, "properties": {"osm_id": 866060665, "building": "yes", "name": "", "height": null, "height_m": null, "levels": null, "tract_id": "40085094100", "tract_name": "941", "tags": {"building": "yes"}}}, {"type": "Feature", "geometry": {"type": "Polygon", "coordinates": [[[-97.1179542, 33.9370913], [-97.1179849, 33.9368248], [-97.1178257, 33.9368121], [-97.117795, 33.9370786], [-97.1179542, 33.9370913]]]}, "properties": {"osm_id": 866060666, "building": "yes", "name": "", "height": null, "height_m": null, "levels": null, "tract_id": "40085094100", "tract_name": "941", "tags": {"building": "yes"}}}, {"type": "Feature", "geometry": {"type": "Polygon", "coordinates": [[[-97.132719, 33.9398372], [-97.1327211, 33.9397346], [-97.1324652, 33.9397311], [-97.1324631, 33.9398336], [-97.132719, 33.9398372]]]}, "properties": {"osm_id": 866060669, "building": "yes", "name": "Circle K", "height": null, "height_m": null, "levels": null, "tract_id": "40085094100", "tract_name": "941", "tags": {"addr:city": "Marietta", "addr:housenumber": "1400", "addr:postcode": "73448", "addr:state": "OK", "addr:street": "Memorial Drive", "brand": "Circle K", "brand:wikidata": "Q3268010", "building": "yes", "name": "Circle K", "shop": "convenience"}}}, {"type": "Feature", "geometry": {"type": "Polygon", "coordinates": [[[-97.1326683, 33.940004], [-97.1326683, 33.9398527], [-97.1324988, 33.9398527], [-97.1324988, 33.940004], [-97.1326683, 33.940004]]]}, "properties": {"osm_id": 866060670, "building": "roof", "name": "Valero", "height": null, "height_m": null, "levels": null, "tract_id": "40085094100", "tract_name": "941", "tags": {"amenity": "fuel", "brand": "Valero", "brand:wikidata": "Q1283291", "building": "roof", "name": "Valero", "website": "https://locations.valero.com/en-us/LocationDetails/Index/1400-MEMORIAL-DR/0000024430"}}}, {"type": "Feature", "geometry": {"type": "Polygon", "coordinates": [[[-97.1326454, 33.9397196], [-97.1325942, 33.9394347], [-97.1324918, 33.9394382], [-97.1325388, 33.939716], [-97.1326454, 33.9397196]]]}, "properties": {"osm_id": 866060671, "building": "roof", "name": "Valero", "height": null, "height_m": null, "levels": null, "tract_id": "40085094100", "tract_name": "941", "tags": {"amenity": "fuel", "brand": "Valero", "brand:wikidata": "Q1283291", "building": "roof", "name": "Valero", "website": "https://locations.valero.com/en-us/LocationDetails/Index/1400-MEMORIAL-DR/0000024430"}}}, {"type": "Feature", "geometry": {"type": "Polygon", "coordinates": [[[-97.1255766, 33.9504619], [-97.1255775, 33.9503814], [-97.1256045, 33.9503816], [-97.125606, 33.9502468], [-97.1255695, 33.9502466], [-97.1255707, 33.9501421], [-97.1255197, 33.9501417], [-97.1255207, 33.950054], [-97.1253377, 33.9500525], [-97.1253368, 33.9501249], [-97.1251103, 33.9501231], [-97.125109, 33.9502382], [-97.1250419, 33.9502964], [-97.125134, 33.9503694], [-97.1251689, 33.9503391], [-97.1252487, 33.9504024], [-97.1252483, 33.9504456], [-97.125334, 33.9504462], [-97.1253338, 33.9504601], [-97.1255766, 33.9504619]]]}, "properties": {"osm_id": 866060675, "building": "yes", "name": "Love County Sheriff", "height": null, "height_m": null, "levels": null, "tract_id": "40085094100", "tract_name": "941", "tags": {"addr:city": "Marietta", "addr:housenumber": "8339", "addr:postcode": "73448", "addr:state": "OK", "addr:street": "US Highway 77", "amenity": "police", "building": "yes", "name": "Love County Sheriff"}}}, {"type": "Feature", "geometry": {"type": "Polygon", "coordinates": [[[-97.119132, 33.9371804], [-97.1189306, 33.9371688], [-97.118954, 33.9369561], [-97.1189546, 33.9369505], [-97.1189726, 33.9367865], [-97.1191686, 33.9367995], [-97.119132, 33.9371804]]]}, "properties": {"osm_id": 893227950, "building": "yes", "name": "", "height": null, "height_m": null, "levels": null, "tract_id": "40085094100", "tract_name": "941", "tags": {"building": "yes"}}}, {"type": "Feature", "geometry": {"type": "Polygon", "coordinates": [[[-97.1189306, 33.9371688], [-97.1188452, 33.9371627], [-97.1188689, 33.9369491], [-97.118954, 33.9369561], [-97.1189306, 33.9371688]]]}, "properties": {"osm_id": 893227951, "building": "yes", "name": "", "height": null, "height_m": null, "levels": null, "tract_id": "40085094100", "tract_name": "941", "tags": {"building": "yes"}}}, {"type": "Feature", "geometry": {"type": "Polygon", "coordinates": [[[-97.1188452, 33.9371627], [-97.1187643, 33.9371567], [-97.1187923, 33.9368945], [-97.1188732, 33.9369004], [-97.1188452, 33.9371627]]]}, "properties": {"osm_id": 893227952, "building": "yes", "name": "", "height": null, "height_m": null, "levels": null, "tract_id": "40085094100", "tract_name": "941", "tags": {"building": "yes"}}}, {"type": "Feature", "geometry": {"type": "Polygon", "coordinates": [[[-97.1187643, 33.9371567], [-97.1186562, 33.9371492], [-97.1186784, 33.9368227], [-97.1187959, 33.9368312], [-97.1187643, 33.9371567]]]}, "properties": {"osm_id": 893227953, "building": "yes", "name": "", "height": null, "height_m": null, "levels": null, "tract_id": "40085094100", "tract_name": "941", "tags": {"building": "yes"}}}, {"type": "Feature", "geometry": {"type": "Polygon", "coordinates": [[[-97.1190687, 33.9377913], [-97.1189274, 33.9377795], [-97.1189694, 33.9374438], [-97.119113, 33.9374524], [-97.1190687, 33.9377913]]]}, "properties": {"osm_id": 893227954, "building": "yes", "name": "The Ven in Love County", "height": null, "height_m": null, "levels": null, "tract_id": "40085094100", "tract_name": "941", "tags": {"addr:city": "Marietta", "addr:housenumber": "216", "addr:postcode": "73448", "addr:state": "OK", "addr:street": "West Main Street", "amenity": "events_venue", "building": "yes", "name": "The Ven in Love County"}}}, {"type": "Feature", "geometry": {"type": "Polygon", "coordinates": [[[-97.1187377, 33.9377642], [-97.1185898, 33.9377579], [-97.1186312, 33.9374184], [-97.1187682, 33.9374291], [-97.1187377, 33.9377642]]]}, "properties": {"osm_id": 893227955, "building": "yes", "name": "", "height": null, "height_m": null, "levels": null, "tract_id": "40085094100", "tract_name": "941", "tags": {"building": "yes"}}}, {"type": "Feature", "geometry": {"type": "Polygon", "coordinates": [[[-97.1185898, 33.9377579], [-97.1183672, 33.9377445], [-97.1184136, 33.9374028], [-97.1186312, 33.9374184], [-97.1185898, 33.9377579]]]}, "properties": {"osm_id": 893227956, "building": "yes", "name": "", "height": null, "height_m": null, "levels": null, "tract_id": "40085094100", "tract_name": "941", "tags": {"building": "yes"}}}, {"type": "Feature", "geometry": {"type": "Polygon", "coordinates": [[[-97.124741, 33.941891], [-97.125811, 33.941888], [-97.125812, 33.94192], [-97.125876, 33.941919], [-97.125876, 33.941944], [-97.126024, 33.941944], [-97.126022, 33.941523], [-97.125832, 33.941523], [-97.125831, 33.941216], [-97.125696, 33.941217], [-97.125697, 33.941357], [-97.125273, 33.941358], [-97.125272, 33.941129], [-97.125583, 33.941128], [-97.125581, 33.940458], [-97.124736, 33.94046], [-97.124741, 33.941891]]]}, "properties": {"osm_id": 946223919, "building": "yes", "name": "", "height": null, "height_m": null, "levels": null, "tract_id": "40085094100", "tract_name": "941", "tags": {"building": "yes", "source": "microsoft/BuildingFootprints"}}}, {"type": "Feature", "geometry": {"type": "Polygon", "coordinates": [[[-97.128235, 33.93883], [-97.128235, 33.93928], [-97.12827, 33.93928], [-97.128271, 33.939601], [-97.128092, 33.939602], [-97.128093, 33.939902], [-97.128165, 33.939902], [-97.128165, 33.939926], [-97.128106, 33.939926], [-97.128106, 33.939984], [-97.127941, 33.939984], [-97.127942, 33.94018], [-97.128332, 33.94018], [-97.128331, 33.93966], [-97.12841, 33.93966], [-97.128409, 33.93883], [-97.128235, 33.93883]]]}, "properties": {"osm_id": 946223920, "building": "yes", "name": "", "height": null, "height_m": null, "levels": null, "tract_id": "40085094100", "tract_name": "941", "tags": {"building": "yes", "source": "microsoft/BuildingFootprints"}}}, {"type": "Feature", "geometry": {"type": "Polygon", "coordinates": [[[-97.1216186, 33.936655], [-97.1213253, 33.9366359], [-97.1213207, 33.9366636], [-97.1211999, 33.9366514], [-97.1212056, 33.9366155], [-97.1211359, 33.9366073], [-97.121144, 33.9365497], [-97.1212226, 33.9365523], [-97.1212266, 33.9365287], [-97.1213464, 33.9365323], [-97.1213463, 33.9365635], [-97.1216232, 33.9365815], [-97.1216186, 33.936655]]]}, "properties": {"osm_id": 1029431287, "building": "yes", "name": "", "height": null, "height_m": null, "levels": null, "tract_id": "40085094100", "tract_name": "941", "tags": {"building": "yes"}}}, {"type": "Feature", "geometry": {"type": "Polygon", "coordinates": [[[-97.1240652, 33.9389797], [-97.1240504, 33.9390898], [-97.1240076, 33.9390859], [-97.1240009, 33.9391361], [-97.1239432, 33.9391307], [-97.1239499, 33.9390805], [-97.1239187, 33.9390777], [-97.1239235, 33.9390418], [-97.1239516, 33.9390444], [-97.1239615, 33.9389701], [-97.1240652, 33.9389797]]]}, "properties": {"osm_id": 1119485160, "building": "yes", "name": "", "height": null, "height_m": null, "levels": null, "tract_id": "40085094100", "tract_name": "941", "tags": {"building": "yes"}}}, {"type": "Feature", "geometry": {"type": "Polygon", "coordinates": [[[-97.1243979, 33.9391456], [-97.1244083, 33.9390405], [-97.1242374, 33.9390289], [-97.1242391, 33.9390117], [-97.124164, 33.9390066], [-97.124162, 33.9390274], [-97.1241479, 33.9390265], [-97.124138, 33.939126], [-97.1241554, 33.9391271], [-97.1241533, 33.939149], [-97.124229, 33.9391541], [-97.124231, 33.9391342], [-97.1243979, 33.9391456]]]}, "properties": {"osm_id": 1119485161, "building": "church", "name": "Good Shepherd Catholic Church", "height": null, "height_m": null, "levels": null, "tract_id": "40085094100", "tract_name": "941", "tags": {"addr:city": "Marietta", "addr:housenumber": "200", "addr:postcode": "73448", "addr:state": "OK", "addr:street": "Northwest 8th Avenue", "amenity": "place_of_worship", "building": "church", "denomination": "roman_catholic", "diocese": "Oklahoma_City", "name": "Good Shepherd Catholic Church", "phone": "+1-580-276-9604", "religion": "christian"}}}, {"type": "Feature", "geometry": {"type": "Polygon", "coordinates": [[[-97.1257946, 33.9394344], [-97.126106, 33.9394417], [-97.12612, 33.9390301], [-97.1259167, 33.9390253], [-97.1259145, 33.9390897], [-97.1260325, 33.9390925], [-97.1260289, 33.9391992], [-97.1259223, 33.9391967], [-97.1259166, 33.9393653], [-97.1257971, 33.9393625], [-97.1257946, 33.9394344]]]}, "properties": {"osm_id": 1364396178, "building": "yes", "name": "", "height": null, "height_m": null, "levels": null, "tract_id": "40085094100", "tract_name": "941", "tags": {"building": "yes"}}}, {"type": "Feature", "geometry": {"type": "Polygon", "coordinates": [[[-97.1267903, 33.9391024], [-97.1264817, 33.9391045], [-97.1264811, 33.9390445], [-97.1267898, 33.9390424], [-97.1267903, 33.9391024]]]}, "properties": {"osm_id": 1364396179, "building": "yes", "name": "", "height": null, "height_m": null, "levels": null, "tract_id": "40085094100", "tract_name": "941", "tags": {"building": "yes"}}}]}