{"type": "FeatureCollection", "features": [{"type": "Feature", "geometry": {"type": "Polygon", "coordinates": [[[-94.7549768, 36.585475], [-94.7545891, 36.585475], [-94.7545891, 36.5854223], [-94.7544639, 36.5854223], [-94.7544639, 36.5853457], [-94.7545891, 36.5853457], [-94.7545891, 36.585281], [-94.7549768, 36.585281], [-94.7549768, 36.585475]]]}, "properties": {"osm_id": 110120199, "building": "yes", "name": "United States Postal Service Grove, Oklahoma", "height": null, "height_m": null, "levels": null, "tract_id": "40041375702", "tract_name": "3757.02", "tags": {"amenity": "post_office", "building": "yes", "name": "United States Postal Service Grove, Oklahoma", "opening_hours": "Mo-Fr 08:30-16:30; Sa 09:00-11:00", "operator": "United States Postal Service", "operator:short": "USPS", "operator:type": "public", "operator:website": "https://www.usps.com", "operator:wikidata": "Q668687", "operator:wikipedia": "en:United States Postal Service", "phone": "(800) 275-8777", "short_name": "USPS"}}}, {"type": "Feature", "geometry": {"type": "Polygon", "coordinates": [[[-94.7585427, 36.5845481], [-94.7570583, 36.5845153], [-94.7570944, 36.5834587], [-94.7585788, 36.5834914], [-94.7585427, 36.5845481]]]}, "properties": {"osm_id": 468580386, "building": "yes", "name": "Grove Sports & Recreation Complex", "height": null, "height_m": null, "levels": null, "tract_id": "40041375702", "tract_name": "3757.02", "tags": {"addr:city": "Grove", "addr:postcode": "74344", "addr:state": "OK", "building": "yes", "leisure": "sports_centre", "name": "Grove Sports & Recreation Complex"}}}, {"type": "Feature", "geometry": {"type": "Polygon", "coordinates": [[[-94.7684889, 36.5749468], [-94.7686095, 36.5749452], [-94.768609, 36.5749213], [-94.7687311, 36.5749196], [-94.7687337, 36.5750444], [-94.7686391, 36.5750457], [-94.7686394, 36.5750617], [-94.7685468, 36.5750629], [-94.7685465, 36.5750469], [-94.7684909, 36.5750476], [-94.7684889, 36.5749468]]]}, "properties": {"osm_id": 524990136, "building": "yes", "name": "", "height": null, "height_m": null, "levels": null, "tract_id": "40041375702", "tract_name": "3757.02", "tags": {"building": "yes"}}}, {"type": "Feature", "geometry": {"type": "Polygon", "coordinates": [[[-94.7682099, 36.5740637], [-94.7687571, 36.574057], [-94.7687584, 36.574124], [-94.768803, 36.5741235], [-94.7688052, 36.5742392], [-94.7686935, 36.5742405], [-94.7686927, 36.574198], [-94.7682126, 36.5742039], [-94.7682099, 36.5740637]]]}, "properties": {"osm_id": 524990137, "building": "yes", "name": "", "height": null, "height_m": null, "levels": null, "tract_id": "40041375702", "tract_name": "3757.02", "tags": {"building": "yes"}}}, {"type": "Feature", "geometry": {"type": "Polygon", "coordinates": [[[-94.7681737, 36.5744234], [-94.7687893, 36.5744158], [-94.7687944, 36.5746877], [-94.7683499, 36.5746931], [-94.7683521, 36.5748077], [-94.768181, 36.5748098], [-94.7681737, 36.5744234]]]}, "properties": {"osm_id": 524990138, "building": "yes", "name": "", "height": null, "height_m": null, "levels": null, "tract_id": "40041375702", "tract_name": "3757.02", "tags": {"building": "yes"}}}, {"type": "Feature", "geometry": {"type": "Polygon", "coordinates": [[[-94.7686015, 36.575747], [-94.7683683, 36.5757445], [-94.7683764, 36.5752631], [-94.7686096, 36.5752656], [-94.7686015, 36.575747]]]}, "properties": {"osm_id": 524990139, "building": "yes", "name": "", "height": null, "height_m": null, "levels": null, "tract_id": "40041375702", "tract_name": "3757.02", "tags": {"building": "yes"}}}, {"type": "Feature", "geometry": {"type": "Polygon", "coordinates": [[[-94.768395, 36.575845], [-94.7687879, 36.5758386], [-94.7687842, 36.5760549], [-94.7687062, 36.576009], [-94.7683993, 36.576014], [-94.768395, 36.575845]]]}, "properties": {"osm_id": 524990140, "building": "yes", "name": "", "height": null, "height_m": null, "levels": null, "tract_id": "40041375702", "tract_name": "3757.02", "tags": {"building": "yes"}}}, {"type": "Feature", "geometry": {"type": "Polygon", "coordinates": [[[-94.7684144, 36.5768929], [-94.7682857, 36.5767804], [-94.7683544, 36.5767297], [-94.7684831, 36.5768423], [-94.7684144, 36.5768929]]]}, "properties": {"osm_id": 524990150, "building": "yes", "name": "", "height": null, "height_m": null, "levels": null, "tract_id": "40041375702", "tract_name": "3757.02", "tags": {"amenity": "car_wash", "building": "yes"}}}, {"type": "Feature", "geometry": {"type": "Polygon", "coordinates": [[[-94.7688067, 36.5768456], [-94.7686743, 36.5768411], [-94.7686822, 36.5766894], [-94.7685285, 36.5766842], [-94.768532, 36.5765754], [-94.7686878, 36.5765806], [-94.7686957, 36.5764286], [-94.7688282, 36.5764331], [-94.7688067, 36.5768456]]]}, "properties": {"osm_id": 524990152, "building": "roof", "name": "", "height": null, "height_m": null, "levels": null, "tract_id": "40041375702", "tract_name": "3757.02", "tags": {"amenity": "fuel", "building": "roof"}}}, {"type": "Feature", "geometry": {"type": "Polygon", "coordinates": [[[-94.7684298, 36.5767568], [-94.7685285, 36.5766842], [-94.768532, 36.5765754], [-94.7684731, 36.5765238], [-94.7683051, 36.5766474], [-94.7684298, 36.5767568]]]}, "properties": {"osm_id": 524990154, "building": "retail", "name": "Circle K", "height": null, "height_m": null, "levels": null, "tract_id": "40041375702", "tract_name": "3757.02", "tags": {"brand": "Circle K", "brand:wikidata": "Q3268010", "building": "retail", "name": "Circle K", "shop": "convenience"}}}, {"type": "Feature", "geometry": {"type": "Polygon", "coordinates": [[[-94.7650918, 36.575844], [-94.7651924, 36.5758446], [-94.7651933, 36.5757544], [-94.7652393, 36.5757547], [-94.7652409, 36.5755935], [-94.7654255, 36.5755946], [-94.7654231, 36.575846], [-94.7659233, 36.5758491], [-94.7659254, 36.5756314], [-94.766445, 36.5756346], [-94.766443, 36.575852], [-94.7661845, 36.5758504], [-94.7661824, 36.5760701], [-94.766272, 36.5760707], [-94.7663008, 36.5760421], [-94.7663518, 36.5760787], [-94.7663384, 36.5760927], [-94.7663381, 36.5761448], [-94.7663377, 36.5762123], [-94.7663236, 36.5762225], [-94.7663196, 36.5765435], [-94.766333, 36.5765521], [-94.7663313, 36.5766127], [-94.7663297, 36.5766716], [-94.7663458, 36.5766851], [-94.7662911, 36.5767198], [-94.7662626, 36.5766969], [-94.7661764, 36.5766969], [-94.766174, 36.5769538], [-94.7652449, 36.5769481], [-94.7652474, 36.576685], [-94.7651684, 36.5766845], [-94.7650838, 36.576684], [-94.7650881, 36.5762392], [-94.7650527, 36.576239], [-94.7650532, 36.5761851], [-94.7650886, 36.5761854], [-94.7650918, 36.575844]]]}, "properties": {"osm_id": 525002834, "building": "retail", "name": "Walmart Supercenter", "height": null, "height_m": null, "levels": null, "tract_id": "40041375702", "tract_name": "3757.02", "tags": {"addr:city": "Grove", "addr:country": "US", "addr:housenumber": "2115", "addr:postcode": "74344", "addr:state": "OK", "addr:street": "South Main Street", "brand": "Walmart", "brand:wikidata": "Q483551", "building": "retail", "name": "Walmart Supercenter", "opening_hours": "24/7", "operator": "Walmart", "operator:wikidata": "Q483551", "payment:app:walmart": "yes", "payment:apple_pay": "no", "payment:google_pay": "no", "payment:samsung_pay": "no", "phone": "+1 918-786-8561", "ref": "90", "ref:walmart": "90", "sensory_friendly:accommodation": "dimmed_light;static_screens;no_pa", "sensory_friendly:conditional": "yes @ 08:00-10:00", "shop": "supermarket", "website": "https://www.walmart.com/store/90-grove-ok"}}}, {"type": "Feature", "geometry": {"type": "Polygon", "coordinates": [[[-94.7813365, 36.5872363], [-94.7819704, 36.587234], [-94.7819702, 36.5871831], [-94.7818451, 36.5871836], [-94.7818443, 36.587049], [-94.7819694, 36.5870486], [-94.7819692, 36.5870103], [-94.7822165, 36.5870095], [-94.7822174, 36.5871755], [-94.7822805, 36.5871752], [-94.782282, 36.5874357], [-94.782224, 36.5874359], [-94.7822263, 36.5878518], [-94.7819749, 36.5878527], [-94.7819726, 36.5874368], [-94.7813376, 36.587439], [-94.7813365, 36.5872363]]]}, "properties": {"osm_id": 525230007, "building": "school", "name": "Grove Early Childhood Center", "height": null, "height_m": null, "levels": null, "tract_id": "40041375702", "tract_name": "3757.02", "tags": {"addr:city": "Grove", "addr:housenumber": "901", "addr:postcode": "74344", "addr:state": "OK", "addr:street": "West 10th Street", "amenity": "school", "building": "school", "name": "Grove Early Childhood Center"}}}, {"type": "Feature", "geometry": {"type": "Polygon", "coordinates": [[[-94.7810344, 36.5882596], [-94.78108, 36.5882598], [-94.7810796, 36.5883207], [-94.781034, 36.5883205], [-94.7810344, 36.5882596]]]}, "properties": {"osm_id": 525230012, "building": "yes", "name": "", "height": null, "height_m": null, "levels": null, "tract_id": "40041375702", "tract_name": "3757.02", "tags": {"building": "yes"}}}, {"type": "Feature", "geometry": {"type": "Polygon", "coordinates": [[[-94.780966, 36.5883605], [-94.7807279, 36.5883596], [-94.780729, 36.5881897], [-94.7809671, 36.5881907], [-94.780966, 36.5883605]]]}, "properties": {"osm_id": 525230013, "building": "yes", "name": "", "height": null, "height_m": null, "levels": null, "tract_id": "40041375702", "tract_name": "3757.02", "tags": {"building": "yes"}}}, {"type": "Feature", "geometry": {"type": "Polygon", "coordinates": [[[-94.7808889, 36.5880436], [-94.7807207, 36.5880429], [-94.7807224, 36.5877736], [-94.7808906, 36.5877743], [-94.7808889, 36.5880436]]]}, "properties": {"osm_id": 525230015, "building": "yes", "name": "", "height": null, "height_m": null, "levels": null, "tract_id": "40041375702", "tract_name": "3757.02", "tags": {"building": "yes"}}}, {"type": "Feature", "geometry": {"type": "Polygon", "coordinates": [[[-94.7804699, 36.5879896], [-94.780427, 36.5879894], [-94.780428, 36.5878303], [-94.7804709, 36.5878304], [-94.7804699, 36.5879896]]]}, "properties": {"osm_id": 525230017, "building": "yes", "name": "", "height": null, "height_m": null, "levels": null, "tract_id": "40041375702", "tract_name": "3757.02", "tags": {"building": "yes"}}}, {"type": "Feature", "geometry": {"type": "Polygon", "coordinates": [[[-94.7802748, 36.5882092], [-94.7801943, 36.5882088], [-94.7801946, 36.5881579], [-94.7801119, 36.5881576], [-94.7801116, 36.5882085], [-94.7800245, 36.5882081], [-94.7800257, 36.5880133], [-94.7801106, 36.5880137], [-94.7801102, 36.5880825], [-94.7801907, 36.5880828], [-94.780191, 36.5880344], [-94.7802759, 36.5880348], [-94.7802748, 36.5882092]]]}, "properties": {"osm_id": 525230019, "building": "yes", "name": "", "height": null, "height_m": null, "levels": null, "tract_id": "40041375702", "tract_name": "3757.02", "tags": {"building": "yes"}}}, {"type": "Feature", "geometry": {"type": "Polygon", "coordinates": [[[-94.7789539, 36.5870079], [-94.7789577, 36.5871717], [-94.7789903, 36.5871712], [-94.7789945, 36.5873509], [-94.7789618, 36.5873514], [-94.7789629, 36.5873959], [-94.7789892, 36.5873956], [-94.7789912, 36.5874841], [-94.7788859, 36.5874857], [-94.7788904, 36.5876833], [-94.7791119, 36.58768], [-94.7791105, 36.5876198], [-94.7791633, 36.587619], [-94.7791659, 36.5877302], [-94.7793482, 36.5877275], [-94.7793452, 36.5875963], [-94.7794191, 36.5875952], [-94.7794137, 36.5873609], [-94.779761, 36.5873557], [-94.7797649, 36.5875263], [-94.7803622, 36.5875174], [-94.7803538, 36.5871525], [-94.7801959, 36.5871549], [-94.7801909, 36.5869388], [-94.7800288, 36.5869413], [-94.78003, 36.5869919], [-94.7798721, 36.5869942], [-94.7793596, 36.5870018], [-94.7793607, 36.5870482], [-94.7793187, 36.5870488], [-94.7793177, 36.5870024], [-94.7789539, 36.5870079]]]}, "properties": {"osm_id": 525230021, "building": "school", "name": "Grove Lower Elementary School", "height": null, "height_m": null, "levels": null, "tract_id": "40041375702", "tract_name": "3757.02", "tags": {"addr:city": "Grove", "addr:housenumber": "801", "addr:postcode": "74344", "addr:state": "OK", "addr:street": "West 10th Street", "amenity": "school", "building": "school", "name": "Grove Lower Elementary School"}}}, {"type": "Feature", "geometry": {"type": "Polygon", "coordinates": [[[-94.7800851, 36.5889935], [-94.7798747, 36.589003], [-94.7798615, 36.5888145], [-94.7800719, 36.5888049], [-94.7800851, 36.5889935]]]}, "properties": {"osm_id": 525230033, "building": "yes", "name": "", "height": null, "height_m": null, "levels": null, "tract_id": "40041375702", "tract_name": "3757.02", "tags": {"building": "yes"}}}, {"type": "Feature", "geometry": {"type": "Polygon", "coordinates": [[[-94.779138, 36.588689], [-94.7790763, 36.5886881], [-94.7790775, 36.588635], [-94.7791392, 36.5886359], [-94.779138, 36.588689]]]}, "properties": {"osm_id": 525230047, "building": "yes", "name": "", "height": null, "height_m": null, "levels": null, "tract_id": "40041375702", "tract_name": "3757.02", "tags": {"building": "yes"}}}, {"type": "Feature", "geometry": {"type": "Polygon", "coordinates": [[[-94.7791414, 36.588627], [-94.7790498, 36.5886279], [-94.7790489, 36.5885642], [-94.7791404, 36.5885633], [-94.7791414, 36.588627]]]}, "properties": {"osm_id": 525230048, "building": "yes", "name": "", "height": null, "height_m": null, "levels": null, "tract_id": "40041375702", "tract_name": "3757.02", "tags": {"building": "yes"}}}, {"type": "Feature", "geometry": {"type": "Polygon", "coordinates": [[[-94.7791369, 36.5888864], [-94.7787908, 36.5888882], [-94.7787896, 36.5887468], [-94.7791358, 36.5887451], [-94.7791369, 36.5888864]]]}, "properties": {"osm_id": 525230049, "building": "yes", "name": "", "height": null, "height_m": null, "levels": null, "tract_id": "40041375702", "tract_name": "3757.02", "tags": {"building": "yes"}}}, {"type": "Feature", "geometry": {"type": "Polygon", "coordinates": [[[-94.7752726, 36.5879586], [-94.7752741, 36.5881099], [-94.7752384, 36.5881101], [-94.7752387, 36.5881362], [-94.775027, 36.5881376], [-94.7750267, 36.5881115], [-94.7749985, 36.5881117], [-94.774997, 36.5879604], [-94.7752726, 36.5879586]]]}, "properties": {"osm_id": 525230052, "building": "yes", "name": "", "height": null, "height_m": null, "levels": null, "tract_id": "40041375702", "tract_name": "3757.02", "tags": {"building": "yes"}}}, {"type": "Feature", "geometry": {"type": "Polygon", "coordinates": [[[-94.7752649, 36.5883924], [-94.7749959, 36.5883924], [-94.7749959, 36.5881516], [-94.7752649, 36.5881516], [-94.7752649, 36.5883924]]]}, "properties": {"osm_id": 525230053, "building": "yes", "name": "", "height": null, "height_m": null, "levels": null, "tract_id": "40041375702", "tract_name": "3757.02", "tags": {"building": "yes"}}}, {"type": "Feature", "geometry": {"type": "Polygon", "coordinates": [[[-94.7759451, 36.5873505], [-94.7759437, 36.587549], [-94.7763211, 36.5875507], [-94.7763205, 36.5876343], [-94.7759969, 36.5876329], [-94.7759964, 36.5877054], [-94.7759629, 36.5877053], [-94.7759626, 36.587754], [-94.775996, 36.5877541], [-94.7759955, 36.5878307], [-94.7761058, 36.5878312], [-94.7761044, 36.5880321], [-94.7758316, 36.5880309], [-94.7758324, 36.5879146], [-94.7756627, 36.5879138], [-94.7756614, 36.5880976], [-94.7755871, 36.5880973], [-94.7755854, 36.5883441], [-94.7757933, 36.5883451], [-94.7757941, 36.58823], [-94.7759346, 36.5882307], [-94.7759352, 36.5881481], [-94.7763169, 36.5881498], [-94.7763166, 36.5882003], [-94.7762839, 36.5882002], [-94.7762835, 36.5882499], [-94.7763255, 36.588355], [-94.7766265, 36.5883564], [-94.7766519, 36.5882602], [-94.7767168, 36.5882605], [-94.7767171, 36.588226], [-94.7770669, 36.5882275], [-94.7770672, 36.5881861], [-94.7772432, 36.5881869], [-94.7772454, 36.5878646], [-94.7770632, 36.5878637], [-94.7770631, 36.5878803], [-94.7769677, 36.5878799], [-94.7767082, 36.5878787], [-94.776707, 36.588057], [-94.7766873, 36.5880569], [-94.7766875, 36.588025], [-94.7765063, 36.5880241], [-94.7765077, 36.5878294], [-94.7765291, 36.5878295], [-94.7765305, 36.5876316], [-94.7764102, 36.5876311], [-94.7764104, 36.5876067], [-94.7764798, 36.587607], [-94.7764815, 36.5873697], [-94.7763375, 36.5873691], [-94.7763376, 36.5873522], [-94.7759451, 36.5873505]]]}, "properties": {"osm_id": 525230054, "building": "school", "name": "Grove Middle School", "height": null, "height_m": null, "levels": null, "tract_id": "40041375702", "tract_name": "3757.02", "tags": {"addr:city": "Grove", "addr:housenumber": "517", "addr:postcode": "74344", "addr:state": "OK", "addr:street": "West 10th Street", "amenity": "school", "building": "school", "name": "Grove Middle School"}}}, {"type": "Feature", "geometry": {"type": "Polygon", "coordinates": [[[-94.7758691, 36.5885854], [-94.7762285, 36.5885872], [-94.7762276, 36.5886976], [-94.7760179, 36.5886966], [-94.7760168, 36.5888362], [-94.7758671, 36.5888355], [-94.7758691, 36.5885854]]]}, "properties": {"osm_id": 525230058, "building": "yes", "name": "", "height": null, "height_m": null, "levels": null, "tract_id": "40041375702", "tract_name": "3757.02", "tags": {"building": "yes"}}}, {"type": "Feature", "geometry": {"type": "Polygon", "coordinates": [[[-94.7746342, 36.5885907], [-94.7749089, 36.5885892], [-94.7749094, 36.5886518], [-94.7750808, 36.5886508], [-94.7750806, 36.5886325], [-94.7752553, 36.5886316], [-94.7752561, 36.5887304], [-94.7752174, 36.5887306], [-94.7752182, 36.5888165], [-94.775354, 36.5888157], [-94.7753522, 36.588599], [-94.7757069, 36.588597], [-94.7757086, 36.5887929], [-94.7757759, 36.5887925], [-94.7757766, 36.5888775], [-94.7760824, 36.5888758], [-94.7760847, 36.5891482], [-94.7757175, 36.5891502], [-94.7757158, 36.5889524], [-94.7755945, 36.5889531], [-94.7755962, 36.5891434], [-94.77544, 36.5891443], [-94.775438, 36.5889135], [-94.775219, 36.5889147], [-94.7752192, 36.5889377], [-94.7752985, 36.5889373], [-94.7752994, 36.58904], [-94.7752201, 36.5890404], [-94.7752203, 36.5890651], [-94.7750324, 36.5890662], [-94.7750311, 36.5889149], [-94.7749117, 36.5889156], [-94.7749135, 36.5891284], [-94.7747911, 36.5891291], [-94.7747908, 36.5890989], [-94.7746386, 36.5890997], [-94.7746342, 36.5885907]]]}, "properties": {"osm_id": 525230059, "building": "school", "name": "Grove Upper Elementary", "height": null, "height_m": null, "levels": null, "tract_id": "40041375702", "tract_name": "3757.02", "tags": {"addr:city": "Grove", "addr:housenumber": "700", "addr:postcode": "74344", "addr:state": "OK", "addr:street": "West 7th Street", "amenity": "school", "building": "school", "ele": "246", "gnis:feature_id": "1793688", "name": "Grove Upper Elementary"}}}, {"type": "Feature", "geometry": {"type": "Polygon", "coordinates": [[[-94.7498649, 36.6001114], [-94.7493406, 36.6003569], [-94.749163, 36.6001124], [-94.7496874, 36.599867], [-94.7498649, 36.6001114]]]}, "properties": {"osm_id": 525436474, "building": "yes", "name": "", "height": null, "height_m": null, "levels": null, "tract_id": "40041375702", "tract_name": "3757.02", "tags": {"building": "yes"}}}, {"type": "Feature", "geometry": {"type": "Polygon", "coordinates": [[[-94.75027, 36.6002298], [-94.7501238, 36.6002847], [-94.7500644, 36.6001828], [-94.7502105, 36.6001279], [-94.75027, 36.6002298]]]}, "properties": {"osm_id": 525436475, "building": "yes", "name": "", "height": null, "height_m": null, "levels": null, "tract_id": "40041375702", "tract_name": "3757.02", "tags": {"building": "yes"}}}, {"type": "Feature", "geometry": {"type": "Polygon", "coordinates": [[[-94.7518511, 36.6001502], [-94.7517143, 36.6001502], [-94.7517143, 36.5998735], [-94.7518511, 36.5998735], [-94.7518511, 36.6001502]]]}, "properties": {"osm_id": 525436483, "building": "yes", "name": "", "height": null, "height_m": null, "levels": null, "tract_id": "40041375702", "tract_name": "3757.02", "tags": {"building": "yes"}}}, {"type": "Feature", "geometry": {"type": "Polygon", "coordinates": [[[-94.7518297, 36.6004947], [-94.7517371, 36.600495], [-94.7517358, 36.6002355], [-94.7518283, 36.6002352], [-94.7518297, 36.6004947]]]}, "properties": {"osm_id": 525436484, "building": "yes", "name": "", "height": null, "height_m": null, "levels": null, "tract_id": "40041375702", "tract_name": "3757.02", "tags": {"building": "yes"}}}, {"type": "Feature", "geometry": {"type": "Polygon", "coordinates": [[[-94.7517706, 36.6009404], [-94.7515936, 36.60092], [-94.751605, 36.6008564], [-94.7517459, 36.6008726], [-94.7517406, 36.6009025], [-94.7517767, 36.6009067], [-94.7517706, 36.6009404]]]}, "properties": {"osm_id": 525436485, "building": "yes", "name": "", "height": null, "height_m": null, "levels": null, "tract_id": "40041375702", "tract_name": "3757.02", "tags": {"building": "yes"}}}, {"type": "Feature", "geometry": {"type": "Polygon", "coordinates": [[[-94.7533746, 36.5855116], [-94.7531282, 36.5855158], [-94.7531245, 36.5853759], [-94.7530913, 36.5853765], [-94.7530877, 36.5852413], [-94.7530428, 36.585242], [-94.7530411, 36.5851774], [-94.7531192, 36.5851761], [-94.7531175, 36.585112], [-94.7533639, 36.5851077], [-94.7533657, 36.5851756], [-94.753404, 36.5851749], [-94.7534092, 36.5853711], [-94.7533709, 36.5853717], [-94.7533746, 36.5855116]]]}, "properties": {"osm_id": 525457748, "building": "yes", "name": "Grove Public Library", "height": null, "height_m": null, "levels": null, "tract_id": "40041375702", "tract_name": "3757.02", "tags": {"addr:city": "Grove", "addr:housenumber": "1140", "addr:postcode": "74344", "addr:state": "OK", "addr:street": "NEO loop", "amenity": "library", "building": "yes", "name": "Grove Public Library"}}}, {"type": "Feature", "geometry": {"type": "Polygon", "coordinates": [[[-94.7515561, 36.5850679], [-94.7512986, 36.5850685], [-94.7512971, 36.5846611], [-94.7514393, 36.5846608], [-94.7514394, 36.584701], [-94.7515547, 36.5847007], [-94.7515561, 36.5850679]]]}, "properties": {"osm_id": 525457749, "building": "yes", "name": "Northeast Oklahoma Agricultural and Mechanical University", "height": null, "height_m": null, "levels": null, "tract_id": "40041375702", "tract_name": "3757.02", "tags": {"addr:city": "Grove", "addr:housenumber": "1201", "addr:postcode": "74344", "addr:state": "OK", "addr:street": "NEO Loop", "amenity": "university", "building": "yes", "name": "Northeast Oklahoma Agricultural and Mechanical University"}}}, {"type": "Feature", "geometry": {"type": "Polygon", "coordinates": [[[-94.7724384, 36.5941889], [-94.7724367, 36.5939854], [-94.7722046, 36.5939867], [-94.7722064, 36.594194], [-94.7722259, 36.5941939], [-94.7722261, 36.5942278], [-94.7722972, 36.5942274], [-94.7722969, 36.5941896], [-94.7724384, 36.5941889]]]}, "properties": {"osm_id": 1058641894, "building": "yes", "name": "", "height": null, "height_m": null, "levels": null, "tract_id": "40041375702", "tract_name": "3757.02", "tags": {"addr:city": "Grove", "addr:housenumber": "202", "addr:postcode": "74344", "addr:state": "OK", "addr:street": "South Broadway Street", "building": "yes", "telecom": "exchange"}}}, {"type": "Feature", "geometry": {"type": "Polygon", "coordinates": [[[-94.7141297, 36.5984227], [-94.7141348, 36.5981463], [-94.7139551, 36.5981442], [-94.71395, 36.5984206], [-94.7141297, 36.5984227]]]}, "properties": {"osm_id": 1073461476, "building": "yes", "name": "U-Haul Neighborhood Dealer", "height": null, "height_m": null, "levels": null, "tract_id": "40041375702", "tract_name": "3757.02", "tags": {"addr:city": "Grove", "addr:housenumber": "65252", "addr:postcode": "74344", "addr:state": "OK", "addr:street": "East 290 Road", "building": "yes", "name": "U-Haul Neighborhood Dealer"}}}, {"type": "Feature", "geometry": {"type": "Polygon", "coordinates": [[[-94.7687894, 36.5937884], [-94.7687846, 36.5936191], [-94.7684896, 36.5936245], [-94.7684938, 36.5937702], [-94.7686468, 36.5937674], [-94.7686474, 36.593791], [-94.7687894, 36.5937884]]]}, "properties": {"osm_id": 1281863224, "building": "yes", "name": "Grove City Police", "height": null, "height_m": null, "levels": null, "tract_id": "40041375702", "tract_name": "3757.02", "tags": {"addr:city": "Grove", "addr:housenumber": "11", "addr:postcode": "74344", "addr:state": "OK", "addr:street": "East 3rd Street", "building": "yes", "emergency": "psap", "name": "Grove City Police", "office": "government"}}}, {"type": "Feature", "geometry": {"type": "Polygon", "coordinates": [[[-94.7682877, 36.5836658], [-94.7682874, 36.583641], [-94.7682158, 36.5836416], [-94.7682148, 36.5835608], [-94.7682863, 36.5835602], [-94.7682837, 36.5833492], [-94.768682, 36.5833459], [-94.7687301, 36.5833837], [-94.7687337, 36.5836621], [-94.7682877, 36.5836658]]]}, "properties": {"osm_id": 1411383576, "building": "yes", "name": "", "height": null, "height_m": null, "levels": null, "tract_id": "40041375702", "tract_name": "3757.02", "tags": {"building": "yes"}}}]}