{"type": "FeatureCollection", "features": [{"type": "Feature", "geometry": {"type": "Polygon", "coordinates": [[[-97.5677044, 35.5229811], [-97.5677043, 35.5228807], [-97.5677042, 35.5227857], [-97.5677041, 35.5227066], [-97.5673674, 35.5227068], [-97.5673675, 35.5227879], [-97.5673677, 35.5228818], [-97.5673678, 35.5229813], [-97.5675024, 35.5229812], [-97.5675466, 35.5229812], [-97.5675869, 35.5229812], [-97.5677044, 35.5229811]]]}, "properties": {"osm_id": 248954409, "building": "office", "name": "", "height": null, "height_m": 30.0, "levels": 10, "tract_id": "40109106611", "tract_name": "1066.11", "tags": {"addr:housenumber": "5100", "addr:street": "North Brookline Avenue", "building": "office", "building:colour": "gray", "building:levels": "10", "building:material": "glass", "source": "Bing;local_knowledge"}}}, {"type": "Feature", "geometry": {"type": "Polygon", "coordinates": [[[-97.5675869, 35.5229812], [-97.5675845, 35.523056], [-97.5675014, 35.5230549], [-97.5675024, 35.5229812], [-97.5675466, 35.5229812], [-97.5675869, 35.5229812]]]}, "properties": {"osm_id": 248954780, "building": "roof", "name": "", "height": null, "height_m": null, "levels": null, "tract_id": "40109106611", "tract_name": "1066.11", "tags": {"building": "roof", "source": "Bing"}}}, {"type": "Feature", "geometry": {"type": "Polygon", "coordinates": [[[-97.5810978, 35.5310296], [-97.5810965, 35.5307189], [-97.5807191, 35.5307199], [-97.5807205, 35.5310307], [-97.5810978, 35.5310296]]]}, "properties": {"osm_id": 248955027, "building": "office", "name": "East Tower", "height": null, "height_m": 30.0, "levels": 10, "tract_id": "40109106611", "tract_name": "1066.11", "tags": {"addr:city": "Oklahoma City", "addr:housenumber": "3535", "addr:state": "OK", "addr:street": "Northwest 58th Street", "building": "office", "building:colour": "black", "building:levels": "10", "building:material": "glass", "name": "East Tower", "source": "Bing"}}}, {"type": "Feature", "geometry": {"type": "Polygon", "coordinates": [[[-97.5831529, 35.5304637], [-97.5827888, 35.5304629], [-97.5827878, 35.5307609], [-97.5831519, 35.5307617], [-97.5831529, 35.5304637]]]}, "properties": {"osm_id": 248955028, "building": "office", "name": "West Tower", "height": null, "height_m": 30.0, "levels": 10, "tract_id": "40109106611", "tract_name": "1066.11", "tags": {"addr:city": "Oklahoma City", "addr:housenumber": "3555", "addr:state": "OK", "addr:street": "Northwest 58th Street", "building": "office", "building:colour": "black", "building:levels": "10", "building:material": "glass", "name": "West Tower", "source": "Bing"}}}, {"type": "Feature", "geometry": {"type": "Polygon", "coordinates": [[[-97.5819414, 35.5307937], [-97.58194, 35.5304936], [-97.581578, 35.5304958], [-97.5815753, 35.5307916], [-97.5819414, 35.5307937]]]}, "properties": {"osm_id": 248955029, "building": "office", "name": "Central Tower", "height": null, "height_m": 30.0, "levels": 10, "tract_id": "40109106611", "tract_name": "1066.11", "tags": {"addr:city": "Oklahoma City", "addr:housenumber": "3545", "addr:state": "OK", "addr:street": "Northwest 58th Street", "building": "office", "building:colour": "black", "building:levels": "10", "building:material": "glass", "name": "Central Tower", "source": "Bing"}}}, {"type": "Feature", "geometry": {"type": "Polygon", "coordinates": [[[-97.5689858, 35.5230201], [-97.568988, 35.5228979], [-97.5689069, 35.5228969], [-97.5689047, 35.5230191], [-97.5689858, 35.5230201]]]}, "properties": {"osm_id": 250200447, "building": "apartments", "name": "", "height": null, "height_m": null, "levels": null, "tract_id": "40109106611", "tract_name": "1066.11", "tags": {"building": "apartments", "source": "Bing"}}}, {"type": "Feature", "geometry": {"type": "Polygon", "coordinates": [[[-97.5683973, 35.5230669], [-97.5683651, 35.5230669], [-97.5683597, 35.5232787], [-97.5683919, 35.5232787], [-97.5683919, 35.5233594], [-97.5681213, 35.5233555], [-97.5681186, 35.5232769], [-97.5681585, 35.5232765], [-97.5681615, 35.523063], [-97.5681266, 35.523063], [-97.5681317, 35.5229839], [-97.5683973, 35.5229861], [-97.5683973, 35.5230669]]]}, "properties": {"osm_id": 250200448, "building": "apartments", "name": "", "height": null, "height_m": null, "levels": null, "tract_id": "40109106611", "tract_name": "1066.11", "tags": {"building": "apartments", "source": "Bing"}}}, {"type": "Feature", "geometry": {"type": "Polygon", "coordinates": [[[-97.5688184, 35.5223028], [-97.5685799, 35.5223077], [-97.568577, 35.5223858], [-97.5685984, 35.522388], [-97.568588, 35.5227377], [-97.5685719, 35.5227355], [-97.5685692, 35.5228097], [-97.5683707, 35.5228076], [-97.5683731, 35.5227395], [-97.5683573, 35.5227377], [-97.568368, 35.5223775], [-97.5683892, 35.5223793], [-97.5683865, 35.5223028], [-97.5681424, 35.5222985], [-97.5681371, 35.5223793], [-97.5681585, 35.5223793], [-97.5681532, 35.5227307], [-97.5681344, 35.5227307], [-97.5681293, 35.522801], [-97.568349, 35.5228049], [-97.5683463, 35.5229316], [-97.5685931, 35.5229337], [-97.5685987, 35.5228097], [-97.5688103, 35.5228137], [-97.5688159, 35.5227421], [-97.5687969, 35.5227416], [-97.5688025, 35.5223884], [-97.5688291, 35.5223858], [-97.5688184, 35.5223028]]]}, "properties": {"osm_id": 250200449, "building": "apartments", "name": "", "height": null, "height_m": null, "levels": null, "tract_id": "40109106611", "tract_name": "1066.11", "tags": {"building": "apartments", "source": "Bing"}}}, {"type": "Feature", "geometry": {"type": "Polygon", "coordinates": [[[-97.5688049, 35.5229905], [-97.5685394, 35.5229883], [-97.5685367, 35.5230735], [-97.5685716, 35.5230735], [-97.5685638, 35.5232835], [-97.5685289, 35.5232835], [-97.5685314, 35.523366], [-97.5687996, 35.5233703], [-97.5688049, 35.5232852], [-97.5687677, 35.5232835], [-97.5687728, 35.5230756], [-97.5688049, 35.5230756], [-97.5688049, 35.5229905]]]}, "properties": {"osm_id": 250200453, "building": "apartments", "name": "", "height": null, "height_m": null, "levels": null, "tract_id": "40109106611", "tract_name": "1066.11", "tags": {"building": "apartments", "source": "Bing"}}}, {"type": "Feature", "geometry": {"type": "Polygon", "coordinates": [[[-97.5684906, 35.5262688], [-97.568287, 35.526268], [-97.5682894, 35.5259045], [-97.5684929, 35.5259054], [-97.5684906, 35.5262688]]]}, "properties": {"osm_id": 250201723, "building": "yes", "name": "", "height": null, "height_m": 36.0, "levels": 12, "tract_id": "40109106611", "tract_name": "1066.11", "tags": {"building": "yes", "building:levels": "12", "source": "Bing;local_knowledge"}}}, {"type": "Feature", "geometry": {"type": "Polygon", "coordinates": [[[-97.5688308, 35.5262838], [-97.5687034, 35.5262821], [-97.5687121, 35.5258379], [-97.5688395, 35.5258396], [-97.5688308, 35.5262838]]]}, "properties": {"osm_id": 250201724, "building": "roof", "name": "", "height": null, "height_m": null, "levels": null, "tract_id": "40109106611", "tract_name": "1066.11", "tags": {"building": "roof", "source": "Bing"}}}, {"type": "Feature", "geometry": {"type": "Polygon", "coordinates": [[[-97.5687138, 35.5269482], [-97.5687567, 35.5268783], [-97.5687864, 35.5268962], [-97.5688371, 35.5268238], [-97.5688076, 35.5268107], [-97.5688318, 35.5267736], [-97.5683305, 35.5265644], [-97.5683063, 35.5265994], [-97.5682605, 35.5265793], [-97.5682267, 35.5266393], [-97.5682658, 35.5266557], [-97.5682178, 35.5267303], [-97.5683593, 35.5267925], [-97.5684861, 35.5268482], [-97.5687138, 35.5269482]]]}, "properties": {"osm_id": 250203451, "building": "yes", "name": "Hampton Inn & Suites", "height": null, "height_m": 15.0, "levels": 5, "tract_id": "40109106611", "tract_name": "1066.11", "tags": {"addr:city": "Oklahoma City", "addr:housenumber": "3022", "addr:postcode": "73112", "addr:state": "OK", "addr:street": "Northwest Expressway", "air_conditioning": "yes", "bar": "no", "branch": "Oklahoma City-Northwest", "brand": "Hampton Inn & Suites", "brand:wikidata": "Q5646230", "building": "yes", "building:levels": "5", "email": "OKCNT_Hampton@hilton.com", "fax": "+1 405 947 7667", "internet_access": "wlan", "internet_access:fee": "no", "name": "Hampton Inn & Suites", "official_name": "Hampton Inn & Suites by Hilton", "opening_hours": "24/7", "payment:cash": "yes", "payment:credit_cards": "yes", "payment:debit_cards": "yes", "payment:mastercard": "yes", "payment:visa": "yes", "phone": "+1 405 947 0953", "ref": "OKCNTHX", "rooms": "96", "smoking": "isolated", "source": "Bing;local_knowledge", "tourism": "hotel", "website": "https://www.hilton.com/en/hotels/okcnthx-hampton-oklahoma-city-northwest/", "wheelchair": "yes"}}}, {"type": "Feature", "geometry": {"type": "Polygon", "coordinates": [[[-97.5684861, 35.5268482], [-97.5684402, 35.5269242], [-97.5683144, 35.5268657], [-97.5683593, 35.5267925], [-97.5684861, 35.5268482]]]}, "properties": {"osm_id": 250203452, "building": "roof", "name": "", "height": null, "height_m": null, "levels": null, "tract_id": "40109106611", "tract_name": "1066.11", "tags": {"building": "roof", "layer": "1", "source": "Bing"}}}, {"type": "Feature", "geometry": {"type": "Polygon", "coordinates": [[[-97.5692362, 35.5251359], [-97.5692415, 35.5247406], [-97.5694584, 35.5247425], [-97.5694609, 35.5245544], [-97.5690209, 35.5245505], [-97.5690205, 35.524585], [-97.5688115, 35.5245831], [-97.5688118, 35.5245552], [-97.5687309, 35.5245545], [-97.5687305, 35.5245827], [-97.5686196, 35.5245818], [-97.568618, 35.5246948], [-97.5687264, 35.5246957], [-97.5687259, 35.5247336], [-97.5688179, 35.5247345], [-97.5688183, 35.5247088], [-97.5690008, 35.5247104], [-97.5689993, 35.5248187], [-97.5689695, 35.5248185], [-97.5689686, 35.5248856], [-97.5686824, 35.524883], [-97.5686833, 35.5248139], [-97.5684214, 35.5248115], [-97.5684171, 35.5251269], [-97.5686837, 35.5251294], [-97.5686847, 35.5250625], [-97.568973, 35.5250651], [-97.5689721, 35.5251335], [-97.5692362, 35.5251359]]]}, "properties": {"osm_id": 250204975, "building": "yes", "name": "Saint John's Episcopal Church", "height": null, "height_m": null, "levels": null, "tract_id": "40109106611", "tract_name": "1066.11", "tags": {"amenity": "place_of_worship", "building": "yes", "name": "Saint John's Episcopal Church", "religion": "christian", "source": "Bing"}}}, {"type": "Feature", "geometry": {"type": "Polygon", "coordinates": [[[-97.5689526, 35.5242611], [-97.5687784, 35.5242592], [-97.5685585, 35.5239842], [-97.5685021, 35.5239842], [-97.5684056, 35.5240955], [-97.5685287, 35.5241649], [-97.5684643, 35.5242348], [-97.5683492, 35.5241632], [-97.5682953, 35.5242152], [-97.5681803, 35.5241479], [-97.5683999, 35.5239008], [-97.5683331, 35.5238969], [-97.5683331, 35.5237986], [-97.5683973, 35.5237982], [-97.5681964, 35.5235498], [-97.5683117, 35.5234821], [-97.5685072, 35.5237218], [-97.5685555, 35.5237218], [-97.5687647, 35.5234839], [-97.5689471, 35.523593], [-97.5689608, 35.5236917], [-97.568883, 35.5237681], [-97.5687864, 35.5237113], [-97.5687087, 35.523779], [-97.5687191, 35.5238026], [-97.568821, 35.5238069], [-97.568821, 35.5239095], [-97.5687272, 35.5239052], [-97.5686926, 35.5239427], [-97.5689042, 35.5241955], [-97.5689525, 35.5241955], [-97.5689526, 35.5242611]]]}, "properties": {"osm_id": 250206116, "building": "yes", "name": "", "height": null, "height_m": null, "levels": null, "tract_id": "40109106611", "tract_name": "1066.11", "tags": {"building": "yes", "source": "Bing"}}}, {"type": "Feature", "geometry": {"type": "Polygon", "coordinates": [[[-97.5685555, 35.5266447], [-97.5686011, 35.5265771], [-97.5684185, 35.5264968], [-97.5683731, 35.526564], [-97.5685555, 35.5266447]]]}, "properties": {"osm_id": 250481738, "building": "yes", "name": "", "height": null, "height_m": 3.0, "levels": 1, "tract_id": "40109106611", "tract_name": "1066.11", "tags": {"building": "yes", "building:levels": "1", "source": "Bing;local_knowledge"}}}, {"type": "Feature", "geometry": {"type": "Polygon", "coordinates": [[[-97.5701062, 35.5272357], [-97.5699555, 35.5272384], [-97.5699153, 35.5272362], [-97.5698992, 35.5274043], [-97.5698858, 35.5274458], [-97.5698428, 35.5274807], [-97.5697972, 35.5274982], [-97.5697597, 35.5275026], [-97.5697168, 35.5275004], [-97.569151, 35.5272559], [-97.5691534, 35.5270862], [-97.5691024, 35.527086], [-97.568982, 35.5270856], [-97.5689874, 35.5260379], [-97.5691912, 35.5258196], [-97.5700977, 35.5258218], [-97.5701062, 35.5272357]]]}, "properties": {"osm_id": 250481740, "building": "yes", "name": "", "height": null, "height_m": 6.0, "levels": 2, "tract_id": "40109106611", "tract_name": "1066.11", "tags": {"amenity": "parking", "building": "yes", "building:levels": "2", "parking": "multi-storey", "source": "Bing"}}}, {"type": "Feature", "geometry": {"type": "Polygon", "coordinates": [[[-97.5671744, 35.5254784], [-97.56755, 35.5254839], [-97.567548, 35.5258065], [-97.567613, 35.5258065], [-97.5676212, 35.5260513], [-97.5671923, 35.526048], [-97.5671963, 35.5260281], [-97.5670603, 35.5260094], [-97.5671327, 35.5257775], [-97.5671704, 35.5256491], [-97.5671744, 35.5254784]]]}, "properties": {"osm_id": 250484717, "building": "yes", "name": "Dave & Buster's", "height": null, "height_m": null, "levels": null, "tract_id": "40109106611", "tract_name": "1066.11", "tags": {"addr:city": "Oklahoma City", "addr:housenumber": "5501", "addr:state": "OK", "addr:street": "North May Avenue", "amenity": "restaurant", "brand": "Dave & Buster's", "brand:wikidata": "Q5228205", "building": "yes", "cuisine": "american", "internet_access": "wlan", "internet_access:fee": "no", "leisure": "amusement_arcade", "name": "Dave & Buster's", "opening_hours": "Su-Th 11:00-00:00; Fr-Sa 11:00-01:00", "source": "local_knowledge"}}}, {"type": "Feature", "geometry": {"type": "Polygon", "coordinates": [[[-97.5676021, 35.5250218], [-97.5675972, 35.5242163], [-97.5673345, 35.5242173], [-97.5673394, 35.5250228], [-97.5676021, 35.5250218]]]}, "properties": {"osm_id": 250484718, "building": "retail", "name": "", "height": null, "height_m": null, "levels": null, "tract_id": "40109106611", "tract_name": "1066.11", "tags": {"building": "retail", "source": "local_knowledge"}}}, {"type": "Feature", "geometry": {"type": "Polygon", "coordinates": [[[-97.5664548, 35.5245101], [-97.5664551, 35.5244409], [-97.5662422, 35.5244402], [-97.5662422, 35.5244558], [-97.5661663, 35.5244555], [-97.5661659, 35.5245371], [-97.5662764, 35.5245374], [-97.5662763, 35.5245469], [-97.5664975, 35.5245476], [-97.5664977, 35.5245103], [-97.5664548, 35.5245101]]]}, "properties": {"osm_id": 250484720, "building": "yes", "name": "Whataburger", "height": null, "height_m": null, "levels": null, "tract_id": "40109106611", "tract_name": "1066.11", "tags": {"addr:city": "Oklahoma City", "addr:housenumber": "5315", "addr:postcode": "73112", "addr:state": "OK", "addr:street": "North May Avenue", "amenity": "fast_food", "branch": "May & Northwest Expressway", "brand": "Whataburger", "brand:wikidata": "Q376627", "building": "yes", "cuisine": "burger", "drive_through": "yes", "name": "Whataburger", "phone": "+1 405-917-5086", "source": "local_knowledge", "takeaway": "yes", "website": "https://locations.whataburger.com/ok/oklahoma-city/5315-n-may-ave.html"}}}, {"type": "Feature", "geometry": {"type": "Polygon", "coordinates": [[[-97.5663635, 35.5241402], [-97.5663636, 35.5241238], [-97.5664288, 35.5241239], [-97.566429, 35.5240466], [-97.5661486, 35.5240461], [-97.5661483, 35.5241397], [-97.5663635, 35.5241402]]]}, "properties": {"osm_id": 250484794, "building": "yes", "name": "Jack in the Box", "height": null, "height_m": null, "levels": null, "tract_id": "40109106611", "tract_name": "1066.11", "tags": {"addr:city": "Oklahoma City", "addr:housenumber": "5301", "addr:postcode": "73112", "addr:state": "OK", "addr:street": "North May Avenue", "amenity": "fast_food", "brand": "Jack in the Box", "brand:wikidata": "Q1538507", "building": "yes", "cuisine": "burger", "name": "Jack in the Box", "phone": "+1 405-917-7715", "source": "local_knowledge", "takeaway": "yes", "website": "https://locations.jackinthebox.com/us/ok/oklahoma-city/5301-n-may-ave"}}}, {"type": "Feature", "geometry": {"type": "Polygon", "coordinates": [[[-97.5751162, 35.5273257], [-97.5747675, 35.5273257], [-97.5747663, 35.5270444], [-97.5751189, 35.5270463], [-97.5751162, 35.5273257]]]}, "properties": {"osm_id": 267732297, "building": "yes", "name": "", "height": null, "height_m": null, "levels": null, "tract_id": "40109106611", "tract_name": "1066.11", "tags": {"building": "yes", "source": "Bing"}}}, {"type": "Feature", "geometry": {"type": "Polygon", "coordinates": [[[-97.5758483, 35.5272209], [-97.5754381, 35.5272231], [-97.5754327, 35.526876], [-97.5758483, 35.526876], [-97.5758483, 35.5272209]]]}, "properties": {"osm_id": 267732299, "building": "yes", "name": "", "height": null, "height_m": null, "levels": null, "tract_id": "40109106611", "tract_name": "1066.11", "tags": {"building": "yes", "source": "Bing"}}}, {"type": "Feature", "geometry": {"type": "Polygon", "coordinates": [[[-97.5770501, 35.5271205], [-97.5770526, 35.5273388], [-97.5770038, 35.5273162], [-97.576947, 35.5273357], [-97.5769494, 35.5273083], [-97.5769016, 35.5272956], [-97.5768525, 35.5273082], [-97.5768532, 35.527333], [-97.5768024, 35.5273127], [-97.5767522, 35.5273301], [-97.5767485, 35.5271165], [-97.5768132, 35.5271353], [-97.5768626, 35.5271186], [-97.5768595, 35.527162], [-97.5768983, 35.5271708], [-97.5769405, 35.5271599], [-97.576946, 35.5271186], [-97.5769987, 35.5271374], [-97.5770501, 35.5271205]]]}, "properties": {"osm_id": 267734557, "building": "yes", "name": "", "height": null, "height_m": null, "levels": null, "tract_id": "40109106611", "tract_name": "1066.11", "tags": {"building": "yes", "source": "Bing"}}}, {"type": "Feature", "geometry": {"type": "Polygon", "coordinates": [[[-97.5818082, 35.532355], [-97.5815292, 35.5322328], [-97.5813925, 35.5324576], [-97.5816097, 35.5325514], [-97.581625, 35.532525], [-97.5816652, 35.5325447], [-97.5816894, 35.5325032], [-97.5817116, 35.5325187], [-97.5818082, 35.532355]]]}, "properties": {"osm_id": 267813571, "building": "yes", "name": "Clark Crew BBQ", "height": null, "height_m": null, "levels": null, "tract_id": "40109106611", "tract_name": "1066.11", "tags": {"amenity": "restaurant", "building": "yes", "cuisine": "barbecue", "name": "Clark Crew BBQ", "source": "Bing;local_knowledge"}}}, {"type": "Feature", "geometry": {"type": "Polygon", "coordinates": [[[-97.5825357, 35.5301971], [-97.5825373, 35.5300885], [-97.5820998, 35.5300843], [-97.5820982, 35.5301929], [-97.5825357, 35.5301971]]]}, "properties": {"osm_id": 267813574, "building": "office", "name": "", "height": null, "height_m": 6.0, "levels": 2, "tract_id": "40109106611", "tract_name": "1066.11", "tags": {"addr:housenumber": "3617", "addr:street": "Northwest 58th Street", "building": "office", "building:levels": "2", "source": "Bing"}}}, {"type": "Feature", "geometry": {"type": "Polygon", "coordinates": [[[-97.5801571, 35.530033], [-97.5797815, 35.5300637], [-97.5798016, 35.5302272], [-97.5801457, 35.5301991], [-97.5801337, 35.5301019], [-97.5801653, 35.5300993], [-97.5801571, 35.530033]]]}, "properties": {"osm_id": 267813580, "building": "yes", "name": "Henry Hudson's Pub", "height": null, "height_m": null, "levels": null, "tract_id": "40109106611", "tract_name": "1066.11", "tags": {"amenity": "pub", "building": "yes", "name": "Henry Hudson's Pub", "source": "Bing"}}}, {"type": "Feature", "geometry": {"type": "Polygon", "coordinates": [[[-97.5809137, 35.5323026], [-97.5810095, 35.532239], [-97.5809934, 35.532215], [-97.5811417, 35.5321192], [-97.5810658, 35.5320513], [-97.5810907, 35.5320341], [-97.5810103, 35.5319555], [-97.5809853, 35.5319749], [-97.5809531, 35.5319465], [-97.5809218, 35.5319686], [-97.5808923, 35.5319446], [-97.5807654, 35.5320295], [-97.5807922, 35.5321059], [-97.580878, 35.5321976], [-97.5808332, 35.5322196], [-97.5809137, 35.5323026]]]}, "properties": {"osm_id": 267813591, "building": "yes", "name": "On The Border", "height": null, "height_m": null, "levels": null, "tract_id": "40109106611", "tract_name": "1066.11", "tags": {"amenity": "restaurant", "brand": "On The Border", "brand:wikidata": "Q7091305", "building": "yes", "cuisine": "tex-mex", "name": "On The Border", "official_name": "On The Border Mexican Grill & Cantina", "source": "Bing;local_knowledge"}}}, {"type": "Feature", "geometry": {"type": "Polygon", "coordinates": [[[-97.5799333, 35.5289543], [-97.5796831, 35.5289518], [-97.5796921, 35.5287295], [-97.5800211, 35.5287351], [-97.5801793, 35.5287379], [-97.5801766, 35.5289533], [-97.5799333, 35.5289543]]]}, "properties": {"osm_id": 267817567, "building": "yes", "name": "", "height": null, "height_m": null, "levels": null, "tract_id": "40109106611", "tract_name": "1066.11", "tags": {"building": "yes", "source": "Bing"}}}, {"type": "Feature", "geometry": {"type": "Polygon", "coordinates": [[[-97.5800245, 35.5285177], [-97.579566, 35.5285156], [-97.5795633, 35.5282951], [-97.5801793, 35.5283013], [-97.5801766, 35.5285151], [-97.5800245, 35.5285177]]]}, "properties": {"osm_id": 267817570, "building": "yes", "name": "", "height": null, "height_m": null, "levels": null, "tract_id": "40109106611", "tract_name": "1066.11", "tags": {"building": "yes", "source": "Bing"}}}, {"type": "Feature", "geometry": {"type": "Polygon", "coordinates": [[[-97.5801793, 35.5287379], [-97.5805368, 35.5287338], [-97.5805368, 35.528509], [-97.5801766, 35.5285151], [-97.5800245, 35.5285177], [-97.5800211, 35.5287351], [-97.5801793, 35.5287379]]]}, "properties": {"osm_id": 267817573, "building": "yes", "name": "", "height": null, "height_m": null, "levels": null, "tract_id": "40109106611", "tract_name": "1066.11", "tags": {"building": "yes", "source": "Bing"}}}, {"type": "Feature", "geometry": {"type": "Polygon", "coordinates": [[[-97.5815655, 35.5288288], [-97.5817739, 35.5289966], [-97.5818384, 35.52894], [-97.5818304, 35.5289308], [-97.582047, 35.5287545], [-97.5820443, 35.5284183], [-97.5819471, 35.5284194], [-97.5819464, 35.5284303], [-97.581764, 35.5284298], [-97.5817654, 35.5285804], [-97.5817493, 35.5285815], [-97.5817505, 35.5286716], [-97.5815655, 35.5288288]]]}, "properties": {"osm_id": 267817576, "building": "office", "name": "5 Corporate Plaza", "height": null, "height_m": 9.0, "levels": 3, "tract_id": "40109106611", "tract_name": "1066.11", "tags": {"addr:housenumber": "3625", "addr:street": "Northwest 56th Street", "building": "office", "building:levels": "3", "name": "5 Corporate Plaza", "source": "Bing"}}}, {"type": "Feature", "geometry": {"type": "Polygon", "coordinates": [[[-97.5812309, 35.5289794], [-97.5812181, 35.5289793], [-97.5812181, 35.5290618], [-97.581031, 35.5292212], [-97.5812332, 35.5293921], [-97.5813033, 35.5293365], [-97.5812915, 35.5293266], [-97.5815078, 35.5291551], [-97.5814971, 35.5288146], [-97.5814066, 35.5288139], [-97.5814065, 35.5288267], [-97.5812308, 35.5288253], [-97.5812309, 35.5289794]]]}, "properties": {"osm_id": 267817580, "building": "office", "name": "3 Corporate Plaza", "height": null, "height_m": 9.0, "levels": 3, "tract_id": "40109106611", "tract_name": "1066.11", "tags": {"addr:housenumber": "3613", "addr:street": "Northwest 56th Street", "building": "office", "building:levels": "3", "name": "3 Corporate Plaza", "source": "Bing"}}}, {"type": "Feature", "geometry": {"type": "Polygon", "coordinates": [[[-97.5805341, 35.5294542], [-97.5799307, 35.5294542], [-97.5799333, 35.5289543], [-97.5801766, 35.5289533], [-97.5805387, 35.5289518], [-97.5805341, 35.5294542]]]}, "properties": {"osm_id": 267817582, "building": "yes", "name": "", "height": null, "height_m": null, "levels": null, "tract_id": "40109106611", "tract_name": "1066.11", "tags": {"building": "yes", "source": "Bing"}}}, {"type": "Feature", "geometry": {"type": "Polygon", "coordinates": [[[-97.5759456, 35.5250185], [-97.5758605, 35.5250725], [-97.5759088, 35.5251282], [-97.5757505, 35.5252258], [-97.5754065, 35.5248613], [-97.575495, 35.5248045], [-97.575613, 35.5248171], [-97.5757237, 35.5249295], [-97.5758068, 35.5248766], [-97.5759456, 35.5250185]]]}, "properties": {"osm_id": 268092205, "building": "yes", "name": "", "height": null, "height_m": null, "levels": null, "tract_id": "40109106611", "tract_name": "1066.11", "tags": {"building": "yes", "source": "Bing"}}}, {"type": "Feature", "geometry": {"type": "Polygon", "coordinates": [[[-97.5762722, 35.5261449], [-97.5763017, 35.5261275], [-97.5762937, 35.5259638], [-97.5762651, 35.525945], [-97.5761337, 35.525945], [-97.5761283, 35.5257966], [-97.5761515, 35.5257957], [-97.576173, 35.525776], [-97.5761676, 35.5256189], [-97.5761471, 35.5256066], [-97.5758413, 35.5256023], [-97.5758189, 35.5256254], [-97.5758431, 35.5261362], [-97.5758672, 35.5261515], [-97.5762722, 35.5261449]]]}, "properties": {"osm_id": 268092206, "building": "yes", "name": "", "height": null, "height_m": null, "levels": null, "tract_id": "40109106611", "tract_name": "1066.11", "tags": {"building": "yes", "source": "Bing"}}}, {"type": "Feature", "geometry": {"type": "Polygon", "coordinates": [[[-97.5765834, 35.5273346], [-97.5764851, 35.5273377], [-97.5764849, 35.5273753], [-97.5764341, 35.527377], [-97.5764332, 35.5273455], [-97.5761949, 35.5273414], [-97.5761676, 35.5273041], [-97.5761713, 35.5270736], [-97.5762722, 35.5270749], [-97.5762696, 35.5271818], [-97.5763929, 35.5271818], [-97.5763929, 35.5271163], [-97.5764171, 35.5271163], [-97.5764207, 35.5270867], [-97.5765861, 35.527088], [-97.5765834, 35.5273346]]]}, "properties": {"osm_id": 268092208, "building": "yes", "name": "", "height": null, "height_m": null, "levels": null, "tract_id": "40109106611", "tract_name": "1066.11", "tags": {"building": "yes", "source": "Bing"}}}, {"type": "Feature", "geometry": {"type": "Polygon", "coordinates": [[[-97.5794077, 35.5264046], [-97.5794184, 35.5261427], [-97.579177, 35.5261383], [-97.5790831, 35.5260597], [-97.5789839, 35.5261405], [-97.5782747, 35.5261224], [-97.5782747, 35.5262119], [-97.5783176, 35.5262119], [-97.5783203, 35.5263014], [-97.5783616, 35.5263042], [-97.5783605, 35.5263843], [-97.5794077, 35.5264046]]]}, "properties": {"osm_id": 268106344, "building": "office", "name": "Guernsey", "height": null, "height_m": 9.0, "levels": 3, "tract_id": "40109106611", "tract_name": "1066.11", "tags": {"addr:city": "Oklahoma City", "addr:housenumber": "5555", "addr:postcode": "73112", "addr:state": "OK", "addr:street": "North Grand Boulevard", "building": "office", "building:levels": "3", "name": "Guernsey", "source": "Bing"}}}, {"type": "Feature", "geometry": {"type": "Polygon", "coordinates": [[[-97.5810036, 35.5278366], [-97.580797, 35.527555], [-97.5807112, 35.5275921], [-97.5806576, 35.5275201], [-97.5804805, 35.5276009], [-97.5804349, 35.5275354], [-97.5801667, 35.5276664], [-97.5803277, 35.5278825], [-97.5804124, 35.5278403], [-97.5804607, 35.527908], [-97.5805438, 35.5278643], [-97.5805733, 35.5278796], [-97.5806012, 35.5278912], [-97.580635, 35.5278949], [-97.5806656, 35.5278977], [-97.5806887, 35.5278971], [-97.5807316, 35.5279669], [-97.5810036, 35.5278366]]]}, "properties": {"osm_id": 268106345, "building": "office", "name": "", "height": null, "height_m": 9.0, "levels": 3, "tract_id": "40109106611", "tract_name": "1066.11", "tags": {"addr:housenumber": "3524", "addr:street": "Northwest 56th Street", "building": "office", "building:levels": "3", "source": "Bing"}}}, {"type": "Feature", "geometry": {"type": "Polygon", "coordinates": [[[-97.5797805, 35.5270333], [-97.5797322, 35.5270333], [-97.5797268, 35.5270944], [-97.5788219, 35.5270785], [-97.5788229, 35.527018], [-97.5787693, 35.5270159], [-97.5787773, 35.52685], [-97.5797859, 35.5268674], [-97.5797805, 35.5270333]]]}, "properties": {"osm_id": 268106346, "building": "office", "name": "", "height": null, "height_m": 6.0, "levels": 2, "tract_id": "40109106611", "tract_name": "1066.11", "tags": {"addr:housenumber": "3500", "addr:street": "Northwest 56th Street", "building": "office", "building:levels": "2", "source": "Bing"}}}, {"type": "Feature", "geometry": {"type": "Polygon", "coordinates": [[[-97.5665625, 35.5249801], [-97.5663537, 35.5249743], [-97.5662846, 35.5249283], [-97.5662899, 35.5248087], [-97.5665607, 35.5248102], [-97.5665625, 35.5249801]]]}, "properties": {"osm_id": 318286217, "building": "retail", "name": "AT&T", "height": null, "height_m": null, "levels": null, "tract_id": "40109106611", "tract_name": "1066.11", "tags": {"addr:city": "Oklahoma City", "addr:postcode": "73112", "addr:state": "OK", "brand": "AT&T", "brand:wikidata": "Q298594", "building": "retail", "name": "AT&T", "shop": "mobile_phone"}}}, {"type": "Feature", "geometry": {"type": "Polygon", "coordinates": [[[-97.5722555, 35.522364], [-97.572262, 35.5226226], [-97.5722331, 35.5226231], [-97.5722347, 35.5226922], [-97.5721741, 35.5226931], [-97.5721755, 35.5227557], [-97.5719954, 35.5227583], [-97.5719967, 35.5228182], [-97.5719466, 35.5228189], [-97.5719471, 35.5228418], [-97.571847, 35.5228431], [-97.5718434, 35.5226517], [-97.5718106, 35.5226521], [-97.5718098, 35.5226069], [-97.5718417, 35.5226065], [-97.5718411, 35.5225735], [-97.5719567, 35.5225723], [-97.5719555, 35.5225024], [-97.5719905, 35.522502], [-97.5720475, 35.5225472], [-97.5720716, 35.5225468], [-97.5720688, 35.5224384], [-97.5719918, 35.5224397], [-97.5719889, 35.5223303], [-97.5721242, 35.522328], [-97.5721252, 35.5223662], [-97.5722555, 35.522364]]]}, "properties": {"osm_id": 318287441, "building": "yes", "name": "Mayfair Heights United Methodist Church", "height": null, "height_m": null, "levels": null, "tract_id": "40109106611", "tract_name": "1066.11", "tags": {"amenity": "place_of_worship", "building": "yes", "denomination": "methodist", "name": "Mayfair Heights United Methodist Church", "religion": "christian"}}}, {"type": "Feature", "geometry": {"type": "Polygon", "coordinates": [[[-97.5830422, 35.5227171], [-97.5830454, 35.5225812], [-97.5828216, 35.5225777], [-97.5828184, 35.5227136], [-97.5830422, 35.5227171]]]}, "properties": {"osm_id": 471351302, "building": "yes", "name": "7-Eleven", "height": null, "height_m": null, "levels": null, "tract_id": "40109106611", "tract_name": "1066.11", "tags": {"brand": "7-Eleven", "brand:wikidata": "Q259340", "building": "yes", "contact:website": "https://www.7-eleven.com/locations/ok/oklahoma-city/3645-n-w-50th-41388", "name": "7-Eleven", "shop": "convenience"}}}, {"type": "Feature", "geometry": {"type": "Polygon", "coordinates": [[[-97.5827658, 35.5227327], [-97.582768, 35.5225366], [-97.5824253, 35.522534], [-97.5824231, 35.5227301], [-97.5827658, 35.5227327]]]}, "properties": {"osm_id": 471351303, "building": "commercial", "name": "", "height": null, "height_m": null, "levels": null, "tract_id": "40109106611", "tract_name": "1066.11", "tags": {"building": "commercial"}}}, {"type": "Feature", "geometry": {"type": "Polygon", "coordinates": [[[-97.58234, 35.5225866], [-97.582341, 35.5224762], [-97.5820888, 35.5224747], [-97.5820875, 35.522618], [-97.5822576, 35.522619], [-97.5822579, 35.5225861], [-97.58234, 35.5225866]]]}, "properties": {"osm_id": 471351304, "building": "commercial", "name": "", "height": null, "height_m": null, "levels": null, "tract_id": "40109106611", "tract_name": "1066.11", "tags": {"addr:city": "Oklahoma City", "addr:housenumber": "3621", "addr:postcode": "73112", "addr:state": "OK", "addr:street": "Northwest 50th Street", "building": "commercial"}}}, {"type": "Feature", "geometry": {"type": "Polygon", "coordinates": [[[-97.5800827, 35.5227159], [-97.5800825, 35.5224368], [-97.5799561, 35.5224369], [-97.5799562, 35.5226078], [-97.5797132, 35.5226079], [-97.5797131, 35.5224358], [-97.579584, 35.5224359], [-97.5795842, 35.5227161], [-97.5800827, 35.5227159]]]}, "properties": {"osm_id": 471351306, "building": "yes", "name": "", "height": null, "height_m": null, "levels": null, "tract_id": "40109106611", "tract_name": "1066.11", "tags": {"building": "yes"}}}, {"type": "Feature", "geometry": {"type": "Polygon", "coordinates": [[[-97.5753118, 35.5228163], [-97.5753135, 35.5227145], [-97.5752297, 35.5227135], [-97.5752293, 35.5227376], [-97.5750954, 35.5227361], [-97.5750958, 35.5227145], [-97.5749773, 35.5227131], [-97.5749787, 35.5226313], [-97.5748898, 35.5226303], [-97.5748884, 35.5227119], [-97.574819, 35.5227111], [-97.5748185, 35.5227369], [-97.5746995, 35.5227355], [-97.5746982, 35.5228092], [-97.5746898, 35.5228091], [-97.5746879, 35.5229201], [-97.5747647, 35.522921], [-97.5747634, 35.5229942], [-97.5751398, 35.5229985], [-97.575141, 35.5229265], [-97.5752395, 35.5229276], [-97.5752415, 35.5228155], [-97.5753118, 35.5228163]]]}, "properties": {"osm_id": 512720654, "building": "yes", "name": "Orthopedic Associates", "height": null, "height_m": null, "levels": null, "tract_id": "40109106611", "tract_name": "1066.11", "tags": {"addr:city": "Oklahoma City", "addr:housenumber": "3301", "addr:postcode": "73112", "addr:state": "OK", "addr:street": "Northwest 50th Street", "amenity": "clinic", "building": "yes", "healthcare": "clinic", "layer": "1", "name": "Orthopedic Associates"}}}, {"type": "Feature", "geometry": {"type": "Polygon", "coordinates": [[[-97.5829108, 35.5326967], [-97.5828968, 35.5327385], [-97.5828618, 35.5327651], [-97.5828034, 35.5327765], [-97.5827441, 35.5327663], [-97.5827067, 35.5327388], [-97.5826922, 35.5326946], [-97.5826937, 35.5324763], [-97.5824485, 35.5321457], [-97.5825489, 35.5320183], [-97.5825162, 35.5319651], [-97.5825933, 35.5318644], [-97.5825939, 35.531805], [-97.5824158, 35.5318036], [-97.5823761, 35.5317466], [-97.5824555, 35.5316307], [-97.5825022, 35.5316307], [-97.5825162, 35.5316174], [-97.5826446, 35.5316117], [-97.5827211, 35.5317072], [-97.5828798, 35.5317081], [-97.5829552, 35.5316136], [-97.5830813, 35.5316136], [-97.583156, 35.5316991], [-97.5830906, 35.5317998], [-97.5830046, 35.531796], [-97.5829686, 35.5318465], [-97.5830083, 35.5318458], [-97.5830938, 35.5319695], [-97.5829879, 35.5321153], [-97.5830252, 35.5321742], [-97.5830859, 35.5321723], [-97.5831396, 35.5322445], [-97.5830322, 35.5324041], [-97.5829995, 35.5324022], [-97.5829458, 35.5324782], [-97.5829087, 35.5324784], [-97.5829108, 35.5326967]]]}, "properties": {"osm_id": 722644152, "building": "yes", "name": "Messiah Lutheran Church", "height": null, "height_m": null, "levels": null, "tract_id": "40109106611", "tract_name": "1066.11", "tags": {"addr:city": "Oklahoma City", "addr:housenumber": "3600", "addr:postcode": "73112", "addr:state": "OK", "addr:street": "Northwest Expressway", "amenity": "place_of_worship", "building": "yes", "denomination": "lutheran", "name": "Messiah Lutheran Church", "religion": "christian"}}}, {"type": "Feature", "geometry": {"type": "Polygon", "coordinates": [[[-97.5828798, 35.5317081], [-97.5828807, 35.5315971], [-97.5828812, 35.5315462], [-97.5827225, 35.5315454], [-97.582722, 35.5315971], [-97.5827211, 35.5317072], [-97.5828798, 35.5317081]]]}, "properties": {"osm_id": 722644155, "building": "roof", "name": "", "height": null, "height_m": null, "levels": null, "tract_id": "40109106611", "tract_name": "1066.11", "tags": {"building": "roof"}}}, {"type": "Feature", "geometry": {"type": "Polygon", "coordinates": [[[-97.5793302, 35.5280361], [-97.5793303, 35.5280262], [-97.579369, 35.5280264], [-97.5793691, 35.5280148], [-97.5794039, 35.528015], [-97.5794047, 35.5279296], [-97.5794292, 35.5279298], [-97.5794298, 35.5278601], [-97.5794167, 35.52786], [-97.5794169, 35.527835], [-97.5793191, 35.5278344], [-97.5793192, 35.5278211], [-97.5791818, 35.5278202], [-97.5791806, 35.5279578], [-97.57921, 35.527958], [-97.5792093, 35.5280354], [-97.5793302, 35.5280361]]]}, "properties": {"osm_id": 722644181, "building": "office", "name": "", "height": null, "height_m": 3.0, "levels": 1, "tract_id": "40109106611", "tract_name": "1066.11", "tags": {"addr:housenumber": "3505", "addr:street": "Northwest 56th Street", "building": "office", "building:levels": "1"}}}, {"type": "Feature", "geometry": {"type": "Polygon", "coordinates": [[[-97.5754482, 35.5229599], [-97.5753851, 35.5229595], [-97.5753853, 35.5229346], [-97.5753616, 35.5229344], [-97.5753638, 35.5227193], [-97.5754153, 35.5227196], [-97.5754153, 35.5227113], [-97.5754596, 35.5227117], [-97.5754595, 35.5227206], [-97.5756833, 35.5227222], [-97.5756814, 35.5228937], [-97.5756602, 35.5228935], [-97.5756601, 35.5229015], [-97.57558, 35.522901], [-97.5755799, 35.5229172], [-97.5755316, 35.5229169], [-97.5755313, 35.5229459], [-97.5754483, 35.5229453], [-97.5754482, 35.5229599]]]}, "properties": {"osm_id": 927866213, "building": "yes", "name": "", "height": null, "height_m": null, "levels": null, "tract_id": "40109106611", "tract_name": "1066.11", "tags": {"building": "yes"}}}, {"type": "Feature", "geometry": {"type": "Polygon", "coordinates": [[[-97.5822288, 35.5230732], [-97.5820187, 35.5230721], [-97.5820193, 35.5229886], [-97.5819474, 35.5229883], [-97.5819482, 35.5228906], [-97.5823504, 35.5228927], [-97.5823497, 35.5229882], [-97.5822295, 35.5229876], [-97.5822288, 35.5230732]]]}, "properties": {"osm_id": 1002163803, "building": "yes", "name": "", "height": null, "height_m": null, "levels": null, "tract_id": "40109106611", "tract_name": "1066.11", "tags": {"addr:city": "Oklahoma City", "addr:housenumber": "3636", "addr:postcode": "73112", "addr:state": "OK", "addr:street": "Northwest 51st Street", "building": "yes"}}}, {"type": "Feature", "geometry": {"type": "Polygon", "coordinates": [[[-97.581607, 35.5230824], [-97.5815141, 35.5230831], [-97.5815143, 35.5231018], [-97.5814478, 35.5231024], [-97.5814476, 35.5230862], [-97.5813527, 35.5230869], [-97.5813502, 35.5228776], [-97.5816045, 35.5228755], [-97.581607, 35.5230824]]]}, "properties": {"osm_id": 1002163804, "building": "kindergarten", "name": "", "height": null, "height_m": 3.0, "levels": 1, "tract_id": "40109106611", "tract_name": "1066.11", "tags": {"addr:city": "Oklahoma City", "addr:housenumber": "3632", "addr:postcode": "73112", "addr:state": "OK", "addr:street": "Northwest 51st Street", "building": "kindergarten", "building:levels": "1", "roof:levels": "1"}}}, {"type": "Feature", "geometry": {"type": "Polygon", "coordinates": [[[-97.5810825, 35.5230899], [-97.5809116, 35.5230869], [-97.5809192, 35.5227976], [-97.5810902, 35.5228006], [-97.5810825, 35.5230899]]]}, "properties": {"osm_id": 1002163805, "building": "apartments", "name": "", "height": null, "height_m": 6.0, "levels": 2, "tract_id": "40109106611", "tract_name": "1066.11", "tags": {"addr:city": "Oklahoma City", "addr:housenumber": "3536", "addr:postcode": "73112", "addr:state": "OK", "addr:street": "Northwest 51st Street", "building": "apartments", "building:levels": "2", "roof:levels": "0"}}}, {"type": "Feature", "geometry": {"type": "Polygon", "coordinates": [[[-97.5806769, 35.5229253], [-97.5805273, 35.5229239], [-97.580527, 35.5229445], [-97.5804985, 35.5229443], [-97.5804971, 35.5230509], [-97.580525, 35.5230512], [-97.5805249, 35.5230605], [-97.5806755, 35.5230618], [-97.5806769, 35.5229253]]]}, "properties": {"osm_id": 1002163806, "building": "apartments", "name": "", "height": null, "height_m": 6.0, "levels": 2, "tract_id": "40109106611", "tract_name": "1066.11", "tags": {"addr:city": "Oklahoma City", "addr:housenumber": "3528", "addr:postcode": "73112", "addr:state": "OK", "addr:street": "Northwest 51st Street", "building": "apartments", "building:levels": "2"}}}, {"type": "Feature", "geometry": {"type": "Polygon", "coordinates": [[[-97.5805673, 35.5228963], [-97.5804965, 35.5228959], [-97.5804968, 35.5228508], [-97.5805677, 35.5228511], [-97.5805673, 35.5228963]]]}, "properties": {"osm_id": 1002163808, "building": "shed", "name": "", "height": null, "height_m": null, "levels": null, "tract_id": "40109106611", "tract_name": "1066.11", "tags": {"building": "shed"}}}, {"type": "Feature", "geometry": {"type": "Polygon", "coordinates": [[[-97.5804395, 35.5230825], [-97.5802678, 35.5230801], [-97.5802738, 35.5227902], [-97.5804455, 35.5227925], [-97.5804395, 35.5230825]]]}, "properties": {"osm_id": 1002163809, "building": "apartments", "name": "", "height": null, "height_m": 6.0, "levels": 2, "tract_id": "40109106611", "tract_name": "1066.11", "tags": {"addr:city": "Oklahoma City", "addr:housenumber": "3524", "addr:postcode": "73112", "addr:state": "OK", "addr:street": "Northwest 51st Street", "building": "apartments", "building:levels": "2"}}}, {"type": "Feature", "geometry": {"type": "Polygon", "coordinates": [[[-97.5801638, 35.5230461], [-97.5800502, 35.5230466], [-97.5800495, 35.5229425], [-97.5799859, 35.5229427], [-97.5799865, 35.5230473], [-97.5798716, 35.5230478], [-97.5798703, 35.5228386], [-97.5801624, 35.5228374], [-97.5801638, 35.5230461]]]}, "properties": {"osm_id": 1002163810, "building": "apartments", "name": "", "height": null, "height_m": 6.0, "levels": 2, "tract_id": "40109106611", "tract_name": "1066.11", "tags": {"addr:city": "Oklahoma City", "addr:housenumber": "3520", "addr:postcode": "73112", "addr:state": "OK", "addr:street": "Northwest 51st Street", "building": "apartments", "building:levels": "2"}}}, {"type": "Feature", "geometry": {"type": "Polygon", "coordinates": [[[-97.5798317, 35.523036], [-97.579701, 35.5230362], [-97.5797006, 35.5228704], [-97.5795847, 35.5228706], [-97.5795845, 35.5227633], [-97.5798311, 35.5227629], [-97.5798317, 35.523036]]]}, "properties": {"osm_id": 1002163811, "building": "apartments", "name": "", "height": null, "height_m": 6.0, "levels": 2, "tract_id": "40109106611", "tract_name": "1066.11", "tags": {"addr:city": "Oklahoma City", "addr:housenumber": "3512", "addr:postcode": "73112", "addr:state": "OK", "addr:street": "Northwest 51st Street", "building": "apartments", "building:levels": "2", "roof:levels": "0"}}}, {"type": "Feature", "geometry": {"type": "Polygon", "coordinates": [[[-97.5794655, 35.5230382], [-97.5793347, 35.5230391], [-97.5793319, 35.5227662], [-97.5795781, 35.5227646], [-97.5795792, 35.5228707], [-97.5794638, 35.5228714], [-97.5794655, 35.5230382]]]}, "properties": {"osm_id": 1002163812, "building": "apartments", "name": "", "height": null, "height_m": 6.0, "levels": 2, "tract_id": "40109106611", "tract_name": "1066.11", "tags": {"addr:city": "Oklahoma City", "addr:housenumber": "3506", "addr:postcode": "73112", "addr:state": "OK", "addr:street": "Northwest 51st Street", "building": "apartments", "building:levels": "2"}}}, {"type": "Feature", "geometry": {"type": "Polygon", "coordinates": [[[-97.5793211, 35.523038], [-97.5791926, 35.5230387], [-97.5791913, 35.5228812], [-97.5790866, 35.5228818], [-97.5790856, 35.5227711], [-97.5793189, 35.5227698], [-97.5793211, 35.523038]]]}, "properties": {"osm_id": 1002163813, "building": "apartments", "name": "", "height": null, "height_m": 6.0, "levels": 2, "tract_id": "40109106611", "tract_name": "1066.11", "tags": {"addr:city": "Oklahoma City", "addr:housenumber": "3500", "addr:postcode": "73112", "addr:state": "OK", "addr:street": "Northwest 51st Street", "building": "apartments", "building:levels": "2", "roof:levels": "0"}}}, {"type": "Feature", "geometry": {"type": "Polygon", "coordinates": [[[-97.580325, 35.5225863], [-97.5800959, 35.5225861], [-97.580096, 35.5224964], [-97.5801816, 35.5224965], [-97.5801816, 35.5224836], [-97.5802394, 35.5224836], [-97.5802393, 35.5224952], [-97.5803251, 35.5224953], [-97.580325, 35.5225863]]]}, "properties": {"osm_id": 1002163814, "building": "yes", "name": "", "height": null, "height_m": null, "levels": null, "tract_id": "40109106611", "tract_name": "1066.11", "tags": {"building": "yes"}}}, {"type": "Feature", "geometry": {"type": "Polygon", "coordinates": [[[-97.5805713, 35.5225852], [-97.5803585, 35.5225834], [-97.5803594, 35.522507], [-97.5804349, 35.5225077], [-97.580435, 35.5224956], [-97.5804959, 35.5224961], [-97.5804957, 35.5225052], [-97.5805724, 35.5225059], [-97.5805713, 35.5225852]]]}, "properties": {"osm_id": 1002163815, "building": "yes", "name": "", "height": null, "height_m": null, "levels": null, "tract_id": "40109106611", "tract_name": "1066.11", "tags": {"building": "yes"}}}, {"type": "Feature", "geometry": {"type": "Polygon", "coordinates": [[[-97.5808288, 35.5225869], [-97.5806008, 35.5225859], [-97.5806014, 35.5224885], [-97.5808294, 35.5224894], [-97.5808288, 35.5225869]]]}, "properties": {"osm_id": 1002163816, "building": "yes", "name": "", "height": null, "height_m": null, "levels": null, "tract_id": "40109106611", "tract_name": "1066.11", "tags": {"building": "yes"}}}, {"type": "Feature", "geometry": {"type": "Polygon", "coordinates": [[[-97.581081, 35.5225842], [-97.580853, 35.5225853], [-97.5808524, 35.5224947], [-97.5810804, 35.5224936], [-97.581081, 35.5225842]]]}, "properties": {"osm_id": 1002163817, "building": "yes", "name": "", "height": null, "height_m": null, "levels": null, "tract_id": "40109106611", "tract_name": "1066.11", "tags": {"building": "yes"}}}, {"type": "Feature", "geometry": {"type": "Polygon", "coordinates": [[[-97.5794779, 35.5224997], [-97.5794778, 35.5224551], [-97.5794437, 35.5224551], [-97.5793902, 35.5224552], [-97.5793902, 35.5224398], [-97.5792992, 35.5224399], [-97.5792994, 35.5225347], [-97.5792375, 35.5225348], [-97.5792376, 35.5226142], [-97.5793177, 35.5226141], [-97.5793177, 35.522642], [-97.5793902, 35.522642], [-97.57939, 35.5224998], [-97.5794429, 35.5224997], [-97.5794779, 35.5224997]]]}, "properties": {"osm_id": 1004806843, "building": "yes", "name": "", "height": null, "height_m": null, "levels": null, "tract_id": "40109106611", "tract_name": "1066.11", "tags": {"building": "yes", "office": "yes", "source": "microsoft/BuildingFootprints"}}}, {"type": "Feature", "geometry": {"type": "Polygon", "coordinates": [[[-97.5782851, 35.5226545], [-97.5784328, 35.5226561], [-97.5784336, 35.5226047], [-97.5784624, 35.522605], [-97.5784628, 35.5225789], [-97.5784999, 35.5225793], [-97.578501, 35.522504], [-97.5784146, 35.5225031], [-97.578414, 35.5225426], [-97.5783548, 35.522542], [-97.5783551, 35.5225206], [-97.5782847, 35.5225199], [-97.5782841, 35.5225601], [-97.5782605, 35.5225599], [-97.5782601, 35.5225809], [-97.5782471, 35.5225808], [-97.5782465, 35.5226204], [-97.5782856, 35.5226208], [-97.5782851, 35.5226545]]]}, "properties": {"osm_id": 1004806845, "building": "house", "name": "", "height": null, "height_m": 3.0, "levels": 1, "tract_id": "40109106611", "tract_name": "1066.11", "tags": {"addr:city": "Oklahoma City", "addr:housenumber": "3435", "addr:postcode": "73112", "addr:state": "OK", "addr:street": "Northwest 50th Street", "building": "house", "building:levels": "1", "healthcare": "alternative", "source": "microsoft/BuildingFootprints"}}}, {"type": "Feature", "geometry": {"type": "Polygon", "coordinates": [[[-97.577723, 35.52305], [-97.577823, 35.523049], [-97.577821, 35.5229], [-97.577634, 35.522902], [-97.577636, 35.522989], [-97.577722, 35.522988], [-97.577723, 35.52305]]]}, "properties": {"osm_id": 1004806847, "building": "house", "name": "", "height": null, "height_m": 3.0, "levels": 1, "tract_id": "40109106611", "tract_name": "1066.11", "tags": {"addr:city": "Oklahoma City", "addr:housenumber": "3420", "addr:postcode": "73112", "addr:state": "OK", "addr:street": "Northwest 51st Street", "building": "house", "building:levels": "1", "source": "microsoft/BuildingFootprints"}}}, {"type": "Feature", "geometry": {"type": "Polygon", "coordinates": [[[-97.577852, 35.522883], [-97.577854, 35.522989], [-97.577932, 35.522988], [-97.577934, 35.523052], [-97.578028, 35.52305], [-97.578023, 35.52288], [-97.577852, 35.522883]]]}, "properties": {"osm_id": 1004806848, "building": "house", "name": "", "height": null, "height_m": 3.0, "levels": 1, "tract_id": "40109106611", "tract_name": "1066.11", "tags": {"addr:city": "Oklahoma City", "addr:housenumber": "3426", "addr:postcode": "73112", "addr:state": "OK", "addr:street": "Northwest 51st Street", "building": "house", "building:levels": "1", "source": "microsoft/BuildingFootprints"}}}, {"type": "Feature", "geometry": {"type": "Polygon", "coordinates": [[[-97.5782639, 35.5229411], [-97.578086, 35.5229406], [-97.5780856, 35.523039], [-97.5781216, 35.5230391], [-97.5781215, 35.52305], [-97.5782635, 35.5230504], [-97.5782639, 35.5229411]]]}, "properties": {"osm_id": 1004806849, "building": "house", "name": "", "height": null, "height_m": 3.0, "levels": 1, "tract_id": "40109106611", "tract_name": "1066.11", "tags": {"addr:city": "Oklahoma City", "addr:housenumber": "3432", "addr:postcode": "73112", "addr:state": "OK", "addr:street": "Northwest 51st Street", "building": "house", "building:levels": "1", "source": "microsoft/BuildingFootprints"}}}, {"type": "Feature", "geometry": {"type": "Polygon", "coordinates": [[[-97.5783011, 35.5229232], [-97.5782973, 35.5230541], [-97.5785207, 35.5230584], [-97.5785245, 35.5229275], [-97.5783011, 35.5229232]]]}, "properties": {"osm_id": 1004806850, "building": "house", "name": "", "height": null, "height_m": 3.0, "levels": 1, "tract_id": "40109106611", "tract_name": "1066.11", "tags": {"addr:city": "Oklahoma City", "addr:housenumber": "3436", "addr:postcode": "73112", "addr:state": "OK", "addr:street": "Northwest 51st Street", "building": "house", "building:levels": "1", "source": "microsoft/BuildingFootprints"}}}, {"type": "Feature", "geometry": {"type": "Polygon", "coordinates": [[[-97.5786928, 35.5230258], [-97.5788502, 35.523026], [-97.5788503, 35.5229304], [-97.57857, 35.5229302], [-97.5785699, 35.523048], [-97.5786928, 35.5230481], [-97.5786928, 35.5230258]]]}, "properties": {"osm_id": 1004806851, "building": "house", "name": "", "height": null, "height_m": 3.0, "levels": 1, "tract_id": "40109106611", "tract_name": "1066.11", "tags": {"addr:city": "Oklahoma City", "addr:housenumber": "3442", "addr:postcode": "73112", "addr:state": "OK", "addr:street": "Northwest 51st Street", "building": "house", "building:levels": "1", "source": "microsoft/BuildingFootprints"}}}, {"type": "Feature", "geometry": {"type": "Polygon", "coordinates": [[[-97.5828443, 35.5231024], [-97.5832532, 35.5231101], [-97.5832561, 35.5230081], [-97.5831758, 35.5230066], [-97.5831809, 35.5228303], [-97.5830559, 35.5228279], [-97.5830509, 35.5230028], [-97.5828472, 35.5229989], [-97.5828443, 35.5231024]]]}, "properties": {"osm_id": 1014195823, "building": "yes", "name": "", "height": null, "height_m": 3.0, "levels": 1, "tract_id": "40109106611", "tract_name": "1066.11", "tags": {"addr:city": "Oklahoma City", "addr:housenumber": "5116", "addr:postcode": "73112", "addr:state": "OK", "addr:street": "North Portland Avenue", "building": "yes", "building:levels": "1", "source": "microsoft/BuildingFootprints"}}}, {"type": "Feature", "geometry": {"type": "Polygon", "coordinates": [[[-97.5828281, 35.5234796], [-97.5828269, 35.5235535], [-97.5829731, 35.5235551], [-97.5829742, 35.5234811], [-97.5828281, 35.5234796]]]}, "properties": {"osm_id": 1014195824, "building": "house", "name": "CottageCare", "height": null, "height_m": 3.0, "levels": 1, "tract_id": "40109106611", "tract_name": "1066.11", "tags": {"addr:city": "Oklahoma City", "addr:housenumber": "3637", "addr:postcode": "73112", "addr:state": "OK", "addr:street": "Northwest 51st Street", "building": "house", "building:levels": "1", "craft": "cleaning", "name": "CottageCare", "source": "microsoft/BuildingFootprints"}}}, {"type": "Feature", "geometry": {"type": "Polygon", "coordinates": [[[-97.58282, 35.5236125], [-97.5828192, 35.5235555], [-97.5826832, 35.5235568], [-97.582684, 35.5236137], [-97.58282, 35.5236125]]]}, "properties": {"osm_id": 1014195825, "building": "roof", "name": "", "height": null, "height_m": null, "levels": null, "tract_id": "40109106611", "tract_name": "1066.11", "tags": {"building": "roof", "layer": "1", "source": "microsoft/BuildingFootprints"}}}, {"type": "Feature", "geometry": {"type": "Polygon", "coordinates": [[[-97.5825068, 35.5236163], [-97.5826346, 35.5236147], [-97.5826312, 35.5234466], [-97.5825457, 35.5234478], [-97.5825466, 35.5234911], [-97.5825228, 35.5234914], [-97.5825219, 35.523447], [-97.5824224, 35.5234483], [-97.5824251, 35.5235849], [-97.5825061, 35.5235839], [-97.5825068, 35.5236163]]]}, "properties": {"osm_id": 1014195826, "building": "semidetached_house", "name": "", "height": null, "height_m": 3.0, "levels": 1, "tract_id": "40109106611", "tract_name": "1066.11", "tags": {"addr:city": "Oklahoma City", "addr:housenumber": "3625", "addr:postcode": "73112", "addr:state": "OK", "addr:street": "Northwest 51st Street", "building": "semidetached_house", "building:levels": "1", "source": "microsoft/BuildingFootprints"}}}, {"type": "Feature", "geometry": {"type": "Polygon", "coordinates": [[[-97.5822293, 35.5236782], [-97.5823989, 35.5236774], [-97.5823969, 35.5233938], [-97.5823007, 35.5233942], [-97.5823009, 35.523432], [-97.5822855, 35.5234321], [-97.5822864, 35.5235545], [-97.5823112, 35.5235543], [-97.5823114, 35.5235833], [-97.5822287, 35.5235837], [-97.5822293, 35.5236782]]]}, "properties": {"osm_id": 1014195827, "building": "semidetached_house", "name": "", "height": null, "height_m": 3.0, "levels": 1, "tract_id": "40109106611", "tract_name": "1066.11", "tags": {"building": "semidetached_house", "building:levels": "1", "source": "microsoft/BuildingFootprints"}}}, {"type": "Feature", "geometry": {"type": "Polygon", "coordinates": [[[-97.5820435, 35.5236153], [-97.5822106, 35.5236146], [-97.5822095, 35.5234337], [-97.5821946, 35.5234337], [-97.5821944, 35.5233945], [-97.5820576, 35.523395], [-97.5820578, 35.5234329], [-97.5820424, 35.5234329], [-97.5820435, 35.5236153]]]}, "properties": {"osm_id": 1014195828, "building": "semidetached_house", "name": "", "height": null, "height_m": 3.0, "levels": 1, "tract_id": "40109106611", "tract_name": "1066.11", "tags": {"building": "semidetached_house", "building:levels": "1", "source": "microsoft/BuildingFootprints"}}}, {"type": "Feature", "geometry": {"type": "Polygon", "coordinates": [[[-97.582023, 35.5236114], [-97.5820207, 35.5234298], [-97.582003, 35.52343], [-97.5820023, 35.5233928], [-97.5818691, 35.5233946], [-97.5818698, 35.5234305], [-97.5818527, 35.5234307], [-97.5818564, 35.5236108], [-97.582023, 35.5236114]]]}, "properties": {"osm_id": 1014195829, "building": "semidetached_house", "name": "", "height": null, "height_m": 3.0, "levels": 1, "tract_id": "40109106611", "tract_name": "1066.11", "tags": {"building": "semidetached_house", "building:levels": "1", "source": "microsoft/BuildingFootprints"}}}, {"type": "Feature", "geometry": {"type": "Polygon", "coordinates": [[[-97.5816508, 35.5235944], [-97.5818298, 35.523593], [-97.5818281, 35.5234455], [-97.5818122, 35.5234457], [-97.5818115, 35.5233885], [-97.5816669, 35.5233897], [-97.5816676, 35.5234444], [-97.581649, 35.5234446], [-97.5816508, 35.5235944]]]}, "properties": {"osm_id": 1014195830, "building": "semidetached_house", "name": "", "height": null, "height_m": 3.0, "levels": 1, "tract_id": "40109106611", "tract_name": "1066.11", "tags": {"building": "semidetached_house", "building:levels": "1", "source": "microsoft/BuildingFootprints"}}}, {"type": "Feature", "geometry": {"type": "Polygon", "coordinates": [[[-97.5816201, 35.5233908], [-97.5814836, 35.5233898], [-97.581483, 35.5234479], [-97.5814789, 35.5234479], [-97.581477, 35.5236398], [-97.5816228, 35.5236408], [-97.5816247, 35.52345], [-97.5816194, 35.52345], [-97.5816201, 35.5233908]]]}, "properties": {"osm_id": 1014195831, "building": "semidetached_house", "name": "", "height": null, "height_m": 3.0, "levels": 1, "tract_id": "40109106611", "tract_name": "1066.11", "tags": {"building": "semidetached_house", "building:levels": "1", "source": "microsoft/BuildingFootprints"}}}, {"type": "Feature", "geometry": {"type": "Polygon", "coordinates": [[[-97.5814233, 35.5234104], [-97.5813502, 35.5234098], [-97.5813506, 35.5233766], [-97.5812783, 35.523376], [-97.5812779, 35.5234071], [-97.5812032, 35.5234065], [-97.581201, 35.5235872], [-97.581263, 35.5235877], [-97.5812629, 35.5235987], [-97.5813378, 35.5235993], [-97.5813379, 35.5235877], [-97.5814213, 35.5235883], [-97.5814233, 35.5234104]]]}, "properties": {"osm_id": 1014195832, "building": "kindergarten", "name": "", "height": null, "height_m": 3.0, "levels": 1, "tract_id": "40109106611", "tract_name": "1066.11", "tags": {"addr:city": "Oklahoma City", "addr:housenumber": "3601", "addr:postcode": "73112", "addr:state": "OK", "addr:street": "Northwest 51st Street", "building": "kindergarten", "building:levels": "1", "source": "microsoft/BuildingFootprints"}}}, {"type": "Feature", "geometry": {"type": "Polygon", "coordinates": [[[-97.5805825, 35.5233698], [-97.5804813, 35.5233705], [-97.5804823, 35.5234654], [-97.580483, 35.523535], [-97.5804373, 35.5235353], [-97.5804386, 35.5236613], [-97.5805854, 35.5236603], [-97.5805825, 35.5233698]]]}, "properties": {"osm_id": 1014195833, "building": "semidetached_house", "name": "", "height": null, "height_m": 3.0, "levels": 1, "tract_id": "40109106611", "tract_name": "1066.11", "tags": {"building": "semidetached_house", "building:levels": "1", "source": "microsoft/BuildingFootprints"}}}, {"type": "Feature", "geometry": {"type": "Polygon", "coordinates": [[[-97.5802652, 35.5233732], [-97.580269, 35.523664], [-97.5804199, 35.5236627], [-97.5804182, 35.5235338], [-97.5803687, 35.5235342], [-97.5803679, 35.5234685], [-97.5803667, 35.5233723], [-97.5802652, 35.5233732]]]}, "properties": {"osm_id": 1014195834, "building": "semidetached_house", "name": "", "height": null, "height_m": 3.0, "levels": 1, "tract_id": "40109106611", "tract_name": "1066.11", "tags": {"building": "semidetached_house", "building:levels": "1", "source": "microsoft/BuildingFootprints"}}}, {"type": "Feature", "geometry": {"type": "Polygon", "coordinates": [[[-97.5802461, 35.5233719], [-97.5801492, 35.5233732], [-97.5801509, 35.5234561], [-97.5801525, 35.5235406], [-97.5800994, 35.5235413], [-97.580101, 35.523623], [-97.580251, 35.523621], [-97.5802461, 35.5233719]]]}, "properties": {"osm_id": 1014195835, "building": "semidetached_house", "name": "", "height": null, "height_m": 3.0, "levels": 1, "tract_id": "40109106611", "tract_name": "1066.11", "tags": {"building": "semidetached_house", "building:levels": "1", "source": "microsoft/BuildingFootprints"}}}, {"type": "Feature", "geometry": {"type": "Polygon", "coordinates": [[[-97.5799303, 35.5233742], [-97.5799354, 35.5236337], [-97.5800817, 35.5236318], [-97.5800799, 35.5235401], [-97.5800344, 35.5235407], [-97.5800328, 35.5234576], [-97.5800311, 35.5233729], [-97.5799303, 35.5233742]]]}, "properties": {"osm_id": 1014195836, "building": "semidetached_house", "name": "", "height": null, "height_m": 3.0, "levels": 1, "tract_id": "40109106611", "tract_name": "1066.11", "tags": {"building": "semidetached_house", "building:levels": "1", "source": "microsoft/BuildingFootprints"}}}, {"type": "Feature", "geometry": {"type": "Polygon", "coordinates": [[[-97.5797769, 35.5234426], [-97.5799016, 35.5234448], [-97.5799037, 35.523366], [-97.5798478, 35.523365], [-97.5798481, 35.5233534], [-97.579811, 35.5233527], [-97.5798107, 35.5233633], [-97.579779, 35.5233628], [-97.5797769, 35.5234426]]]}, "properties": {"osm_id": 1014195837, "building": "detached", "name": "", "height": null, "height_m": 6.0, "levels": 2, "tract_id": "40109106611", "tract_name": "1066.11", "tags": {"addr:city": "Oklahoma City", "addr:housenumber": "3517", "addr:postcode": "73112", "addr:state": "OK", "addr:street": "Northwest 51st Street", "building": "detached", "building:levels": "2", "source": "microsoft/BuildingFootprints"}}}, {"type": "Feature", "geometry": {"type": "Polygon", "coordinates": [[[-97.5796029, 35.5233674], [-97.5796022, 35.5234258], [-97.5795932, 35.5234257], [-97.5795913, 35.5236038], [-97.5797427, 35.5236049], [-97.5797447, 35.5234269], [-97.5797384, 35.5234269], [-97.5797391, 35.5233684], [-97.5796029, 35.5233674]]]}, "properties": {"osm_id": 1014195838, "building": "semidetached_house", "name": "", "height": null, "height_m": 3.0, "levels": 1, "tract_id": "40109106611", "tract_name": "1066.11", "tags": {"building": "semidetached_house", "building:levels": "1", "source": "microsoft/BuildingFootprints"}}}, {"type": "Feature", "geometry": {"type": "Polygon", "coordinates": [[[-97.579429, 35.5236258], [-97.5795809, 35.5236247], [-97.5795788, 35.5234472], [-97.5795692, 35.5234473], [-97.5795685, 35.5233873], [-97.5794343, 35.5233884], [-97.579435, 35.5234473], [-97.579427, 35.5234474], [-97.579429, 35.5236258]]]}, "properties": {"osm_id": 1014195839, "building": "semidetached_house", "name": "", "height": null, "height_m": 3.0, "levels": 1, "tract_id": "40109106611", "tract_name": "1066.11", "tags": {"building": "semidetached_house", "building:levels": "1", "source": "microsoft/BuildingFootprints"}}}, {"type": "Feature", "geometry": {"type": "Polygon", "coordinates": [[[-97.5792518, 35.5234749], [-97.5793247, 35.5234751], [-97.5793249, 35.5234255], [-97.5793101, 35.5234255], [-97.5793103, 35.5233727], [-97.5791409, 35.5233722], [-97.5791403, 35.5235068], [-97.5790674, 35.5235066], [-97.579067, 35.5235794], [-97.5792513, 35.52358], [-97.5792518, 35.5234749]]]}, "properties": {"osm_id": 1014195840, "building": "house", "name": "", "height": null, "height_m": 3.0, "levels": 1, "tract_id": "40109106611", "tract_name": "1066.11", "tags": {"addr:city": "Oklahoma City", "addr:housenumber": "5201", "addr:postcode": "73112", "addr:state": "OK", "addr:street": "Summit Street", "building": "house", "building:levels": "1", "source": "microsoft/BuildingFootprints"}}}, {"type": "Feature", "geometry": {"type": "Polygon", "coordinates": [[[-97.5785475, 35.5234138], [-97.5785437, 35.5235212], [-97.5786174, 35.523523], [-97.5786169, 35.5235365], [-97.5786845, 35.5235381], [-97.5786814, 35.5236253], [-97.5787937, 35.5236279], [-97.5787968, 35.5235402], [-97.5787776, 35.5235398], [-97.5787792, 35.523495], [-97.5787557, 35.5234944], [-97.578758, 35.5234307], [-97.5786389, 35.5234279], [-97.5786394, 35.5234159], [-97.5785475, 35.5234138]]]}, "properties": {"osm_id": 1014195841, "building": "house", "name": "", "height": null, "height_m": 3.0, "levels": 1, "tract_id": "40109106611", "tract_name": "1066.11", "tags": {"addr:city": "Oklahoma City", "addr:housenumber": "3443", "addr:postcode": "73112", "addr:state": "OK", "addr:street": "Northwest 51st Street", "building": "house", "building:levels": "1", "source": "microsoft/BuildingFootprints"}}}, {"type": "Feature", "geometry": {"type": "Polygon", "coordinates": [[[-97.5781617, 35.5234807], [-97.5783227, 35.5234807], [-97.5783227, 35.5233514], [-97.5781617, 35.5233514], [-97.5781617, 35.5234807]]]}, "properties": {"osm_id": 1014195842, "building": "house", "name": "", "height": null, "height_m": 3.0, "levels": 1, "tract_id": "40109106611", "tract_name": "1066.11", "tags": {"addr:city": "Oklahoma City", "addr:housenumber": "3433", "addr:postcode": "73112", "addr:state": "OK", "addr:street": "Northwest 51st Street", "building": "house", "building:levels": "1", "source": "microsoft/BuildingFootprints"}}}, {"type": "Feature", "geometry": {"type": "Polygon", "coordinates": [[[-97.5778861, 35.5235107], [-97.5780239, 35.5235093], [-97.5780231, 35.5234632], [-97.5780993, 35.5234625], [-97.5780986, 35.5234225], [-97.5781147, 35.5234223], [-97.5781135, 35.5233454], [-97.5778835, 35.5233478], [-97.5778861, 35.5235107]]]}, "properties": {"osm_id": 1014195843, "building": "house", "name": "", "height": null, "height_m": 3.0, "levels": 1, "tract_id": "40109106611", "tract_name": "1066.11", "tags": {"addr:city": "Oklahoma City", "addr:housenumber": "3425", "addr:postcode": "73112", "addr:state": "OK", "addr:street": "Northwest 51st Street", "building": "house", "building:levels": "1", "source": "microsoft/BuildingFootprints"}}}, {"type": "Feature", "geometry": {"type": "Polygon", "coordinates": [[[-97.57765, 35.523398], [-97.577651, 35.523494], [-97.57771, 35.523493], [-97.577711, 35.52353], [-97.577818, 35.523529], [-97.577818, 35.523492], [-97.577844, 35.523492], [-97.577842, 35.52335], [-97.577761, 35.523351], [-97.577761, 35.523396], [-97.57765, 35.523398]]]}, "properties": {"osm_id": 1014195844, "building": "house", "name": "", "height": null, "height_m": 3.0, "levels": 1, "tract_id": "40109106611", "tract_name": "1066.11", "tags": {"addr:city": "Oklahoma City", "addr:housenumber": "3421", "addr:postcode": "73112", "addr:state": "OK", "addr:street": "Northwest 51st Street", "building": "house", "building:levels": "1", "source": "microsoft/BuildingFootprints"}}}, {"type": "Feature", "geometry": {"type": "Polygon", "coordinates": [[[-97.5831956, 35.5236981], [-97.5831955, 35.5236638], [-97.5832159, 35.5236638], [-97.5832158, 35.5236046], [-97.5831965, 35.5236046], [-97.5831964, 35.5235676], [-97.58315, 35.5235676], [-97.58315, 35.5235469], [-97.5830449, 35.523547], [-97.583045, 35.5235658], [-97.5830001, 35.5235659], [-97.5830003, 35.5236983], [-97.5831956, 35.5236981]]]}, "properties": {"osm_id": 1014484730, "building": "yes", "name": "", "height": null, "height_m": null, "levels": null, "tract_id": "40109106611", "tract_name": "1066.11", "tags": {"addr:city": "Oklahoma City", "addr:postcode": "73112", "addr:state": "OK", "addr:street": "North Portland Avenue", "amenity": "doctors", "building": "yes", "healthcare": "doctor", "source": "microsoft/BuildingFootprints"}}}, {"type": "Feature", "geometry": {"type": "Polygon", "coordinates": [[[-97.582683, 35.523762], [-97.582682, 35.523839], [-97.582805, 35.52384], [-97.582807, 35.523764], [-97.582683, 35.523762]]]}, "properties": {"osm_id": 1014484731, "building": "shed", "name": "", "height": null, "height_m": null, "levels": null, "tract_id": "40109106611", "tract_name": "1066.11", "tags": {"building": "shed", "source": "microsoft/BuildingFootprints"}}}, {"type": "Feature", "geometry": {"type": "Polygon", "coordinates": [[[-97.5830489, 35.5238279], [-97.5830475, 35.5238774], [-97.5830671, 35.5238777], [-97.5830615, 35.5240759], [-97.5832011, 35.5240786], [-97.583203, 35.524011], [-97.5831819, 35.5240106], [-97.5831869, 35.5238305], [-97.5830489, 35.5238279]]]}, "properties": {"osm_id": 1014484732, "building": "yes", "name": "Smiling Faces", "height": null, "height_m": 3.0, "levels": 1, "tract_id": "40109106611", "tract_name": "1066.11", "tags": {"addr:city": "Oklahoma City", "addr:housenumber": "5222", "addr:postcode": "73112", "addr:state": "OK", "addr:street": "North Portland Avenue", "amenity": "dentist", "building": "yes", "building:levels": "1", "healthcare": "dentist", "name": "Smiling Faces", "opening_hours": "Mo-Th 08:00-11:00,12:45-16:00; Fr 08:00-11:00", "source": "microsoft/BuildingFootprints"}}}, {"type": "Feature", "geometry": {"type": "Polygon", "coordinates": [[[-97.5827731, 35.5239069], [-97.5826808, 35.5239057], [-97.5826797, 35.5239635], [-97.582606, 35.5239625], [-97.5826053, 35.5240012], [-97.5825884, 35.524001], [-97.5825874, 35.5240533], [-97.582679, 35.5240544], [-97.5826788, 35.5240669], [-97.582794, 35.5240683], [-97.5827961, 35.5239564], [-97.5827722, 35.5239561], [-97.5827731, 35.5239069]]]}, "properties": {"osm_id": 1014484733, "building": "house", "name": "", "height": null, "height_m": 3.0, "levels": 1, "tract_id": "40109106611", "tract_name": "1066.11", "tags": {"addr:city": "Oklahoma City", "addr:housenumber": "3632", "addr:postcode": "73112", "addr:state": "OK", "addr:street": "Northwest 52nd Street", "building": "house", "building:levels": "1", "source": "microsoft/BuildingFootprints"}}}, {"type": "Feature", "geometry": {"type": "Polygon", "coordinates": [[[-97.5823243, 35.5240601], [-97.5824535, 35.524061], [-97.5824536, 35.5240501], [-97.5825428, 35.5240507], [-97.5825437, 35.5239628], [-97.5823252, 35.5239614], [-97.5823243, 35.5240601]]]}, "properties": {"osm_id": 1014484734, "building": "house", "name": "", "height": null, "height_m": 3.0, "levels": 1, "tract_id": "40109106611", "tract_name": "1066.11", "tags": {"addr:city": "Oklahoma City", "addr:housenumber": "3626", "addr:postcode": "73112", "addr:state": "OK", "addr:street": "Northwest 52nd Street", "building": "house", "building:levels": "1", "source": "microsoft/BuildingFootprints"}}}, {"type": "Feature", "geometry": {"type": "Polygon", "coordinates": [[[-97.582158, 35.524051], [-97.582295, 35.524052], [-97.582296, 35.523947], [-97.582189, 35.523946], [-97.582189, 35.523983], [-97.582159, 35.523983], [-97.582158, 35.524051]]]}, "properties": {"osm_id": 1014484735, "building": "house", "name": "", "height": null, "height_m": 3.0, "levels": 1, "tract_id": "40109106611", "tract_name": "1066.11", "tags": {"addr:city": "Oklahoma City", "addr:housenumber": "3622", "addr:postcode": "73112", "addr:state": "OK", "addr:street": "Northwest 52nd Street", "building": "house", "building:levels": "1", "source": "microsoft/BuildingFootprints"}}}, {"type": "Feature", "geometry": {"type": "Polygon", "coordinates": [[[-97.5820178, 35.5239753], [-97.5819913, 35.523975], [-97.5819904, 35.5240316], [-97.5820209, 35.5240319], [-97.5820207, 35.5240439], [-97.5820413, 35.5240441], [-97.5820411, 35.5240568], [-97.5821249, 35.5240576], [-97.5821265, 35.5239437], [-97.5820183, 35.5239427], [-97.5820178, 35.5239753]]]}, "properties": {"osm_id": 1014484736, "building": "house", "name": "", "height": null, "height_m": 3.0, "levels": 1, "tract_id": "40109106611", "tract_name": "1066.11", "tags": {"addr:city": "Oklahoma City", "addr:housenumber": "3618", "addr:postcode": "73112", "addr:state": "OK", "addr:street": "Northwest 52nd Street", "building": "house", "building:levels": "1", "source": "microsoft/BuildingFootprints"}}}, {"type": "Feature", "geometry": {"type": "Polygon", "coordinates": [[[-97.5818975, 35.5239577], [-97.5816852, 35.5239565], [-97.5816843, 35.5240527], [-97.5818082, 35.5240534], [-97.5818081, 35.5240644], [-97.5818966, 35.5240649], [-97.5818975, 35.5239577]]]}, "properties": {"osm_id": 1014484737, "building": "house", "name": "", "height": null, "height_m": 3.0, "levels": 1, "tract_id": "40109106611", "tract_name": "1066.11", "tags": {"addr:city": "Oklahoma City", "addr:housenumber": "3610", "addr:postcode": "73112", "addr:state": "OK", "addr:street": "Northwest 52nd Street", "building": "house", "building:levels": "1", "source": "microsoft/BuildingFootprints"}}}, {"type": "Feature", "geometry": {"type": "Polygon", "coordinates": [[[-97.5816005, 35.52395], [-97.581393, 35.5239478], [-97.5813923, 35.5239957], [-97.581375, 35.5239955], [-97.5813742, 35.524048], [-97.5814774, 35.524049], [-97.5814772, 35.5240648], [-97.5815987, 35.5240661], [-97.5816005, 35.52395]]]}, "properties": {"osm_id": 1014484738, "building": "house", "name": "", "height": null, "height_m": 3.0, "levels": 1, "tract_id": "40109106611", "tract_name": "1066.11", "tags": {"addr:city": "Oklahoma City", "addr:housenumber": "3600", "addr:postcode": "73112", "addr:state": "OK", "addr:street": "Northwest 52nd Street", "building": "house", "building:levels": "1", "source": "microsoft/BuildingFootprints"}}}, {"type": "Feature", "geometry": {"type": "Polygon", "coordinates": [[[-97.5811952, 35.52395], [-97.5811254, 35.5239499], [-97.5811255, 35.5239136], [-97.5810445, 35.5239134], [-97.5810444, 35.5239523], [-97.5809484, 35.5239522], [-97.5809481, 35.5240417], [-97.5810236, 35.5240419], [-97.5810235, 35.5240552], [-97.5811949, 35.5240556], [-97.5811952, 35.52395]]]}, "properties": {"osm_id": 1014484739, "building": "house", "name": "", "height": null, "height_m": 3.0, "levels": 1, "tract_id": "40109106611", "tract_name": "1066.11", "tags": {"addr:city": "Oklahoma City", "addr:housenumber": "3544", "addr:postcode": "73112", "addr:state": "OK", "addr:street": "Northwest 52nd Street", "building": "house", "building:levels": "1", "source": "microsoft/BuildingFootprints"}}}, {"type": "Feature", "geometry": {"type": "Polygon", "coordinates": [[[-97.580628, 35.5240535], [-97.5807244, 35.5240535], [-97.5807244, 35.5240599], [-97.5808401, 35.5240598], [-97.5808401, 35.5240521], [-97.5809078, 35.524052], [-97.5809077, 35.5239656], [-97.5806279, 35.5239659], [-97.580628, 35.5240535]]]}, "properties": {"osm_id": 1014484740, "building": "house", "name": "", "height": null, "height_m": 3.0, "levels": 1, "tract_id": "40109106611", "tract_name": "1066.11", "tags": {"addr:city": "Oklahoma City", "addr:housenumber": "3540", "addr:postcode": "73112", "addr:state": "OK", "addr:street": "Northwest 52nd Street", "building": "house", "building:levels": "1", "source": "microsoft/BuildingFootprints"}}}, {"type": "Feature", "geometry": {"type": "Polygon", "coordinates": [[[-97.580318, 35.524074], [-97.580393, 35.524073], [-97.580392, 35.524022], [-97.580474, 35.524021], [-97.580474, 35.524039], [-97.580567, 35.524037], [-97.580564, 35.523939], [-97.580503, 35.52394], [-97.580502, 35.523907], [-97.580314, 35.52391], [-97.580318, 35.524074]]]}, "properties": {"osm_id": 1014484741, "building": "house", "name": "", "height": null, "height_m": 3.0, "levels": 1, "tract_id": "40109106611", "tract_name": "1066.11", "tags": {"addr:city": "Oklahoma City", "addr:housenumber": "3528", "addr:postcode": "73112", "addr:state": "OK", "addr:street": "Northwest 52nd Street", "building": "house", "building:levels": "1", "source": "microsoft/BuildingFootprints"}}}, {"type": "Feature", "geometry": {"type": "Polygon", "coordinates": [[[-97.580069, 35.523968], [-97.580144, 35.523969], [-97.580142, 35.52405], [-97.580252, 35.524051], [-97.580256, 35.523864], [-97.580181, 35.523863], [-97.58018, 35.523893], [-97.58007, 35.523892], [-97.580069, 35.523968]]]}, "properties": {"osm_id": 1014484742, "building": "house", "name": "", "height": null, "height_m": 3.0, "levels": 1, "tract_id": "40109106611", "tract_name": "1066.11", "tags": {"addr:city": "Oklahoma City", "addr:housenumber": "3524", "addr:postcode": "73112", "addr:state": "OK", "addr:street": "Northwest 52nd Street", "building": "house", "building:levels": "1", "source": "microsoft/BuildingFootprints"}}}, {"type": "Feature", "geometry": {"type": "Polygon", "coordinates": [[[-97.5800242, 35.5238916], [-97.5799212, 35.523891], [-97.5799214, 35.5238635], [-97.5798528, 35.5238631], [-97.5798511, 35.5240447], [-97.5799524, 35.5240453], [-97.5799531, 35.5239731], [-97.5800234, 35.5239735], [-97.5800242, 35.5238916]]]}, "properties": {"osm_id": 1014484743, "building": "house", "name": "", "height": null, "height_m": 3.0, "levels": 1, "tract_id": "40109106611", "tract_name": "1066.11", "tags": {"addr:city": "Oklahoma City", "addr:housenumber": "3520", "addr:postcode": "73112", "addr:state": "OK", "addr:street": "Northwest 52nd Street", "building": "house", "building:levels": "1", "source": "microsoft/BuildingFootprints"}}}, {"type": "Feature", "geometry": {"type": "Polygon", "coordinates": [[[-97.5798317, 35.5238223], [-97.5797328, 35.5238218], [-97.579732, 35.523927], [-97.5796467, 35.5239266], [-97.579646, 35.5240354], [-97.5797431, 35.5240359], [-97.579743, 35.5240467], [-97.57983, 35.5240471], [-97.5798317, 35.5238223]]]}, "properties": {"osm_id": 1014484744, "building": "house", "name": "", "height": null, "height_m": 6.0, "levels": 2, "tract_id": "40109106611", "tract_name": "1066.11", "tags": {"addr:city": "Oklahoma City", "addr:housenumber": "3516", "addr:postcode": "73112", "addr:state": "OK", "addr:street": "Northwest 52nd Street", "building": "house", "building:levels": "2", "source": "microsoft/BuildingFootprints"}}}, {"type": "Feature", "geometry": {"type": "Polygon", "coordinates": [[[-97.579742, 35.523801], [-97.579824, 35.523802], [-97.579825, 35.523734], [-97.579743, 35.523734], [-97.579742, 35.523801]]]}, "properties": {"osm_id": 1014484745, "building": "shed", "name": "", "height": null, "height_m": null, "levels": null, "tract_id": "40109106611", "tract_name": "1066.11", "tags": {"building": "shed", "source": "microsoft/BuildingFootprints"}}}, {"type": "Feature", "geometry": {"type": "Polygon", "coordinates": [[[-97.579513, 35.524046], [-97.579613, 35.524045], [-97.57961, 35.523885], [-97.579428, 35.523887], [-97.579429, 35.523971], [-97.579512, 35.523971], [-97.579513, 35.524046]]]}, "properties": {"osm_id": 1014484746, "building": "house", "name": "", "height": null, "height_m": 3.0, "levels": 1, "tract_id": "40109106611", "tract_name": "1066.11", "tags": {"addr:city": "Oklahoma City", "addr:housenumber": "3510", "addr:postcode": "73112", "addr:state": "OK", "addr:street": "Northwest 52nd Street", "building": "house", "building:levels": "1", "source": "microsoft/BuildingFootprints"}}}, {"type": "Feature", "geometry": {"type": "Polygon", "coordinates": [[[-97.579148, 35.524041], [-97.579337, 35.524045], [-97.579345, 35.523843], [-97.579259, 35.52384], [-97.579255, 35.523949], [-97.579152, 35.523946], [-97.579148, 35.524041]]]}, "properties": {"osm_id": 1014484747, "building": "house", "name": "", "height": null, "height_m": 3.0, "levels": 1, "tract_id": "40109106611", "tract_name": "1066.11", "tags": {"addr:city": "Oklahoma City", "addr:housenumber": "3500", "addr:postcode": "73112", "addr:state": "OK", "addr:street": "Northwest 52nd Street", "building": "house", "building:levels": "1", "source": "microsoft/BuildingFootprints"}}}, {"type": "Feature", "geometry": {"type": "Polygon", "coordinates": [[[-97.578693, 35.523824], [-97.57869, 35.524033], [-97.578838, 35.524034], [-97.57884, 35.523962], [-97.578818, 35.523961], [-97.578821, 35.523826], [-97.578693, 35.523824]]]}, "properties": {"osm_id": 1014484748, "building": "house", "name": "", "height": null, "height_m": 3.0, "levels": 1, "tract_id": "40109106611", "tract_name": "1066.11", "tags": {"addr:city": "Oklahoma City", "addr:housenumber": "5220", "addr:postcode": "73112", "addr:state": "OK", "addr:street": "Summit Street", "building": "house", "building:levels": "1", "source": "microsoft/BuildingFootprints"}}}, {"type": "Feature", "geometry": {"type": "Polygon", "coordinates": [[[-97.5786197, 35.5239816], [-97.5786213, 35.5238903], [-97.5785288, 35.5238893], [-97.5785285, 35.5239065], [-97.5783788, 35.5239048], [-97.5783766, 35.5240319], [-97.5784894, 35.5240332], [-97.5784898, 35.5240087], [-97.5785565, 35.5240095], [-97.578557, 35.5239809], [-97.5786197, 35.5239816]]]}, "properties": {"osm_id": 1014484749, "building": "house", "name": "", "height": null, "height_m": 3.0, "levels": 1, "tract_id": "40109106611", "tract_name": "1066.11", "tags": {"addr:city": "Oklahoma City", "addr:housenumber": "3436", "addr:postcode": "73112", "addr:state": "OK", "addr:street": "Northwest 52nd Street", "building": "house", "building:levels": "1", "source": "microsoft/BuildingFootprints"}}}, {"type": "Feature", "geometry": {"type": "Polygon", "coordinates": [[[-97.578158, 35.524004], [-97.5782052, 35.5240038], [-97.5782053, 35.5240175], [-97.5782716, 35.5240173], [-97.5782716, 35.5240271], [-97.5783586, 35.5240268], [-97.5783579, 35.5239071], [-97.5782436, 35.5239075], [-97.5782433, 35.5238558], [-97.5781571, 35.5238561], [-97.578158, 35.524004]]]}, "properties": {"osm_id": 1014484750, "building": "house", "name": "", "height": null, "height_m": 3.0, "levels": 1, "tract_id": "40109106611", "tract_name": "1066.11", "tags": {"addr:city": "Oklahoma City", "addr:housenumber": "3432", "addr:postcode": "73112", "addr:state": "OK", "addr:street": "Northwest 52nd Street", "building": "house", "building:levels": "1", "source": "microsoft/BuildingFootprints"}}}, {"type": "Feature", "geometry": {"type": "Polygon", "coordinates": [[[-97.5779195, 35.524013], [-97.5780443, 35.524014], [-97.5780442, 35.524024], [-97.5781257, 35.5240246], [-97.5781268, 35.523929], [-97.5780855, 35.5239287], [-97.5780859, 35.5239007], [-97.5780081, 35.5239001], [-97.5780086, 35.5238588], [-97.5779212, 35.5238581], [-97.5779195, 35.524013]]]}, "properties": {"osm_id": 1014484751, "building": "house", "name": "", "height": null, "height_m": 3.0, "levels": 1, "tract_id": "40109106611", "tract_name": "1066.11", "tags": {"addr:city": "Oklahoma City", "addr:housenumber": "3424", "addr:postcode": "73112", "addr:state": "OK", "addr:street": "Northwest 52nd Street", "building": "house", "building:levels": "1", "source": "microsoft/BuildingFootprints"}}}, {"type": "Feature", "geometry": {"type": "Polygon", "coordinates": [[[-97.5778957, 35.5240247], [-97.5778996, 35.5239155], [-97.5777749, 35.5239126], [-97.5777757, 35.5238887], [-97.5776863, 35.5238865], [-97.5776814, 35.5240228], [-97.5777774, 35.5240251], [-97.5777782, 35.5240017], [-97.5778202, 35.5240027], [-97.5778194, 35.5240229], [-97.5778957, 35.5240247]]]}, "properties": {"osm_id": 1014484752, "building": "house", "name": "", "height": null, "height_m": 3.0, "levels": 1, "tract_id": "40109106611", "tract_name": "1066.11", "tags": {"addr:city": "Oklahoma City", "addr:housenumber": "3418", "addr:postcode": "73112", "addr:state": "OK", "addr:street": "Northwest 52nd Street", "building": "house", "building:levels": "1", "source": "microsoft/BuildingFootprints"}}}, {"type": "Feature", "geometry": {"type": "Polygon", "coordinates": [[[-97.583043, 35.5244883], [-97.5832594, 35.52449], [-97.5832606, 35.5243874], [-97.5831115, 35.5243862], [-97.5831116, 35.5243726], [-97.5830443, 35.5243721], [-97.583043, 35.5244883]]]}, "properties": {"osm_id": 1015267850, "building": "house", "name": "", "height": null, "height_m": 3.0, "levels": 1, "tract_id": "40109106611", "tract_name": "1066.11", "tags": {"addr:city": "Oklahoma City", "addr:housenumber": "3645", "addr:postcode": "73112", "addr:state": "OK", "addr:street": "Northwest 52nd Street", "building": "house", "building:levels": "1", "source": "microsoft/BuildingFootprints"}}}, {"type": "Feature", "geometry": {"type": "Polygon", "coordinates": [[[-97.5826298, 35.5243952], [-97.582628, 35.5244808], [-97.5826604, 35.5244813], [-97.5826592, 35.5245356], [-97.5828524, 35.5245385], [-97.5828553, 35.5244045], [-97.582735, 35.5244028], [-97.5827346, 35.5244186], [-97.5827099, 35.5244182], [-97.5827104, 35.5243963], [-97.5826298, 35.5243952]]]}, "properties": {"osm_id": 1015267851, "building": "house", "name": "", "height": null, "height_m": 3.0, "levels": 1, "tract_id": "40109106611", "tract_name": "1066.11", "tags": {"addr:city": "Oklahoma City", "addr:housenumber": "3633", "addr:postcode": "73112", "addr:state": "OK", "addr:street": "Northwest 52nd Street", "building": "house", "building:levels": "1", "source": "microsoft/BuildingFootprints"}}}, {"type": "Feature", "geometry": {"type": "Polygon", "coordinates": [[[-97.5825698, 35.5245459], [-97.5825694, 35.5244778], [-97.5825589, 35.5244778], [-97.5825583, 35.5243588], [-97.5824215, 35.5243592], [-97.582422, 35.5244668], [-97.5824113, 35.5244668], [-97.5824119, 35.5245789], [-97.5824821, 35.5245786], [-97.5824819, 35.5245462], [-97.5825698, 35.5245459]]]}, "properties": {"osm_id": 1015267852, "building": "house", "name": "", "height": null, "height_m": 3.0, "levels": 1, "tract_id": "40109106611", "tract_name": "1066.11", "tags": {"addr:city": "Oklahoma City", "addr:housenumber": "3629", "addr:postcode": "73112", "addr:state": "OK", "addr:street": "Northwest 52nd Street", "building": "house", "building:levels": "1", "source": "microsoft/BuildingFootprints"}}}, {"type": "Feature", "geometry": {"type": "Polygon", "coordinates": [[[-97.582208, 35.524534], [-97.582389, 35.524533], [-97.582387, 35.524362], [-97.582293, 35.524362], [-97.582294, 35.524436], [-97.582207, 35.524436], [-97.582208, 35.524534]]]}, "properties": {"osm_id": 1015267853, "building": "house", "name": "", "height": null, "height_m": 3.0, "levels": 1, "tract_id": "40109106611", "tract_name": "1066.11", "tags": {"addr:city": "Oklahoma City", "addr:housenumber": "3625", "addr:postcode": "73112", "addr:state": "OK", "addr:street": "Northwest 52nd Street", "building": "house", "building:levels": "1", "source": "microsoft/BuildingFootprints"}}}, {"type": "Feature", "geometry": {"type": "Polygon", "coordinates": [[[-97.5821022, 35.524493], [-97.5821559, 35.5244939], [-97.5821582, 35.5243971], [-97.5821313, 35.5243967], [-97.5821317, 35.5243816], [-97.5820887, 35.5243809], [-97.5820884, 35.5243971], [-97.5820582, 35.5243966], [-97.5820564, 35.5244717], [-97.5821027, 35.5244724], [-97.5821022, 35.524493]]]}, "properties": {"osm_id": 1015267854, "building": "house", "name": "", "height": null, "height_m": 3.0, "levels": 1, "tract_id": "40109106611", "tract_name": "1066.11", "tags": {"addr:city": "Oklahoma City", "addr:housenumber": "3613", "addr:postcode": "73112", "addr:state": "OK", "addr:street": "Northwest 52nd Street", "building": "house", "building:levels": "1", "source": "microsoft/BuildingFootprints"}}}, {"type": "Feature", "geometry": {"type": "Polygon", "coordinates": [[[-97.5818428, 35.5245456], [-97.5819163, 35.5245464], [-97.5819169, 35.5245079], [-97.5819593, 35.5245083], [-97.5819614, 35.524384], [-97.5817591, 35.5243818], [-97.5817571, 35.524507], [-97.5818435, 35.524508], [-97.5818428, 35.5245456]]]}, "properties": {"osm_id": 1015267855, "building": "house", "name": "", "height": null, "height_m": 3.0, "levels": 1, "tract_id": "40109106611", "tract_name": "1066.11", "tags": {"addr:city": "Oklahoma City", "addr:housenumber": "3609", "addr:postcode": "73112", "addr:state": "OK", "addr:street": "Northwest 52nd Street", "building": "house", "building:levels": "1", "source": "microsoft/BuildingFootprints"}}}, {"type": "Feature", "geometry": {"type": "Polygon", "coordinates": [[[-97.5814858, 35.5244808], [-97.5815559, 35.524482], [-97.5815537, 35.5245691], [-97.5816544, 35.5245708], [-97.581659, 35.5243873], [-97.5815507, 35.5243855], [-97.5815515, 35.5243526], [-97.5814891, 35.5243516], [-97.5814858, 35.5244808]]]}, "properties": {"osm_id": 1015267856, "building": "house", "name": "", "height": null, "height_m": 3.0, "levels": 1, "tract_id": "40109106611", "tract_name": "1066.11", "tags": {"addr:city": "Oklahoma City", "addr:housenumber": "3605", "addr:postcode": "73112", "addr:state": "OK", "addr:street": "Northwest 52nd Street", "building": "house", "building:levels": "1", "source": "microsoft/BuildingFootprints"}}}, {"type": "Feature", "geometry": {"type": "Polygon", "coordinates": [[[-97.5812266, 35.5243564], [-97.5812262, 35.5244511], [-97.5813996, 35.5244516], [-97.5813997, 35.5244402], [-97.5814716, 35.5244404], [-97.5814719, 35.524357], [-97.5812266, 35.5243564]]]}, "properties": {"osm_id": 1015267857, "building": "house", "name": "", "height": null, "height_m": 3.0, "levels": 1, "tract_id": "40109106611", "tract_name": "1066.11", "tags": {"addr:city": "Oklahoma City", "addr:housenumber": "3601", "addr:postcode": "73112", "addr:state": "OK", "addr:street": "Northwest 52nd Street", "building": "house", "building:levels": "1", "source": "microsoft/BuildingFootprints"}}}, {"type": "Feature", "geometry": {"type": "Polygon", "coordinates": [[[-97.5809931, 35.5244978], [-97.5810718, 35.5244986], [-97.5810725, 35.5244513], [-97.5812036, 35.5244527], [-97.5812049, 35.5243689], [-97.5809952, 35.5243667], [-97.5809931, 35.5244978]]]}, "properties": {"osm_id": 1015267858, "building": "house", "name": "", "height": null, "height_m": 3.0, "levels": 1, "tract_id": "40109106611", "tract_name": "1066.11", "tags": {"addr:city": "Oklahoma City", "addr:housenumber": "3545", "addr:postcode": "73112", "addr:state": "OK", "addr:street": "Northwest 52nd Street", "building": "house", "building:levels": "1", "source": "microsoft/BuildingFootprints"}}}, {"type": "Feature", "geometry": {"type": "Polygon", "coordinates": [[[-97.5808916, 35.5245229], [-97.5809524, 35.5245235], [-97.5809538, 35.5244408], [-97.5809305, 35.5244406], [-97.5809316, 35.5243752], [-97.580899, 35.5243748], [-97.5808993, 35.5243575], [-97.5808126, 35.5243566], [-97.5808118, 35.5244088], [-97.580796, 35.5244086], [-97.5807953, 35.5244497], [-97.5808833, 35.5244506], [-97.580883, 35.5244681], [-97.5808925, 35.5244682], [-97.5808916, 35.5245229]]]}, "properties": {"osm_id": 1015267859, "building": "house", "name": "", "height": null, "height_m": 3.0, "levels": 1, "tract_id": "40109106611", "tract_name": "1066.11", "tags": {"addr:city": "Oklahoma City", "addr:housenumber": "3541", "addr:postcode": "73112", "addr:state": "OK", "addr:street": "Northwest 52nd Street", "building": "house", "building:levels": "1", "source": "microsoft/BuildingFootprints"}}}, {"type": "Feature", "geometry": {"type": "Polygon", "coordinates": [[[-97.5807764, 35.5244515], [-97.580775, 35.5243436], [-97.5807161, 35.5243441], [-97.5807162, 35.5243576], [-97.580622, 35.5243584], [-97.5806234, 35.524471], [-97.5807201, 35.5244702], [-97.5807199, 35.524452], [-97.5807764, 35.5244515]]]}, "properties": {"osm_id": 1015267860, "building": "house", "name": "", "height": null, "height_m": 3.0, "levels": 1, "tract_id": "40109106611", "tract_name": "1066.11", "tags": {"addr:city": "Oklahoma City", "addr:housenumber": "3537", "addr:postcode": "73112", "addr:state": "OK", "addr:street": "Northwest 52nd Street", "building": "house", "building:levels": "1", "source": "microsoft/BuildingFootprints"}}}, {"type": "Feature", "geometry": {"type": "Polygon", "coordinates": [[[-97.5805429, 35.5243366], [-97.5804668, 35.5243353], [-97.5804663, 35.5243549], [-97.5804537, 35.5243547], [-97.5804523, 35.5244103], [-97.5804438, 35.5244102], [-97.5804426, 35.524458], [-97.5804507, 35.5244581], [-97.5804503, 35.5244738], [-97.5804907, 35.5244745], [-97.5804896, 35.5245176], [-97.5805505, 35.5245186], [-97.5805547, 35.5243578], [-97.5805423, 35.5243576], [-97.5805429, 35.5243366]]]}, "properties": {"osm_id": 1015267861, "building": "house", "name": "", "height": null, "height_m": 3.0, "levels": 1, "tract_id": "40109106611", "tract_name": "1066.11", "tags": {"addr:city": "Oklahoma City", "addr:housenumber": "3533", "addr:postcode": "73112", "addr:state": "OK", "addr:street": "Northwest 52nd Street", "building": "house", "building:levels": "1", "source": "microsoft/BuildingFootprints"}}}, {"type": "Feature", "geometry": {"type": "Polygon", "coordinates": [[[-97.5801832, 35.5243453], [-97.5801848, 35.5244724], [-97.5802675, 35.5244717], [-97.5802676, 35.5244799], [-97.5803349, 35.5244793], [-97.5803339, 35.5244025], [-97.580292, 35.5244029], [-97.5802913, 35.5243444], [-97.5801832, 35.5243453]]]}, "properties": {"osm_id": 1015267862, "building": "house", "name": "", "height": null, "height_m": 3.0, "levels": 1, "tract_id": "40109106611", "tract_name": "1066.11", "tags": {"addr:city": "Oklahoma City", "addr:housenumber": "3525", "addr:postcode": "73112", "addr:state": "OK", "addr:street": "Northwest 52nd Street", "building": "house", "building:levels": "1", "source": "microsoft/BuildingFootprints"}}}, {"type": "Feature", "geometry": {"type": "Polygon", "coordinates": [[[-97.580096, 35.5244661], [-97.5800199, 35.524466], [-97.58002, 35.5243549], [-97.5800825, 35.5243549], [-97.5800825, 35.5243402], [-97.5801648, 35.5243402], [-97.5801647, 35.5244406], [-97.5800961, 35.5244405], [-97.580096, 35.5244661]]]}, "properties": {"osm_id": 1015267863, "building": "house", "name": "", "height": null, "height_m": null, "levels": null, "tract_id": "40109106611", "tract_name": "1066.11", "tags": {"addr:city": "Oklahoma City", "addr:postcode": "73112", "addr:state": "OK", "addr:street": "Northwest 52nd Street", "building": "house"}}}, {"type": "Feature", "geometry": {"type": "Polygon", "coordinates": [[[-97.5798472, 35.524334], [-97.5798477, 35.5244733], [-97.5799344, 35.5244731], [-97.5799344, 35.524479], [-97.5799998, 35.5244788], [-97.5799993, 35.5243336], [-97.5798472, 35.524334]]]}, "properties": {"osm_id": 1015267864, "building": "house", "name": "", "height": null, "height_m": 3.0, "levels": 1, "tract_id": "40109106611", "tract_name": "1066.11", "tags": {"addr:city": "Oklahoma City", "addr:housenumber": "3517", "addr:postcode": "73112", "addr:state": "OK", "addr:street": "Northwest 52nd Street", "building": "house", "building:levels": "1", "source": "microsoft/BuildingFootprints"}}}, {"type": "Feature", "geometry": {"type": "Polygon", "coordinates": [[[-97.5796892, 35.524388], [-97.5796871, 35.524519], [-97.5797914, 35.5245202], [-97.5797919, 35.5244917], [-97.5798251, 35.5244921], [-97.5798276, 35.5243413], [-97.5797435, 35.5243404], [-97.5797427, 35.5243886], [-97.5796892, 35.524388]]]}, "properties": {"osm_id": 1015267865, "building": "house", "name": "", "height": null, "height_m": 3.0, "levels": 1, "tract_id": "40109106611", "tract_name": "1066.11", "tags": {"addr:city": "Oklahoma City", "addr:housenumber": "3515", "addr:postcode": "73112", "addr:state": "OK", "addr:street": "Northwest 52nd Street", "building": "house", "building:levels": "1", "source": "microsoft/BuildingFootprints"}}}, {"type": "Feature", "geometry": {"type": "Polygon", "coordinates": [[[-97.5795149, 35.5243374], [-97.579514, 35.5244646], [-97.5795953, 35.524465], [-97.5795952, 35.5244728], [-97.5796606, 35.5244731], [-97.5796612, 35.5243983], [-97.5796198, 35.5243981], [-97.5796202, 35.5243379], [-97.5795149, 35.5243374]]]}, "properties": {"osm_id": 1015267866, "building": "house", "name": "", "height": null, "height_m": 3.0, "levels": 1, "tract_id": "40109106611", "tract_name": "1066.11", "tags": {"addr:city": "Oklahoma City", "addr:housenumber": "3509", "addr:postcode": "73112", "addr:state": "OK", "addr:street": "Northwest 52nd Street", "building": "house", "building:levels": "1", "source": "microsoft/BuildingFootprints"}}}, {"type": "Feature", "geometry": {"type": "Polygon", "coordinates": [[[-97.57931, 35.524419], [-97.579494, 35.524423], [-97.579496, 35.524333], [-97.579313, 35.524329], [-97.57931, 35.524419]]]}, "properties": {"osm_id": 1015267867, "building": "house", "name": "", "height": null, "height_m": 3.0, "levels": 1, "tract_id": "40109106611", "tract_name": "1066.11", "tags": {"addr:city": "Oklahoma City", "addr:housenumber": "3505", "addr:postcode": "73112", "addr:state": "OK", "addr:street": "Northwest 52nd Street", "building": "house", "building:levels": "1", "source": "microsoft/BuildingFootprints"}}}, {"type": "Feature", "geometry": {"type": "Polygon", "coordinates": [[[-97.5791389, 35.524329], [-97.5791377, 35.5243865], [-97.5791484, 35.5243867], [-97.5791477, 35.5244218], [-97.5791384, 35.5244217], [-97.579137, 35.5244886], [-97.5792744, 35.5244905], [-97.5792777, 35.5243309], [-97.5791389, 35.524329]]]}, "properties": {"osm_id": 1015267868, "building": "house", "name": "", "height": null, "height_m": 3.0, "levels": 1, "tract_id": "40109106611", "tract_name": "1066.11", "tags": {"addr:city": "Oklahoma City", "addr:housenumber": "3501", "addr:postcode": "73112", "addr:state": "OK", "addr:street": "Northwest 52nd Street", "building": "house", "building:levels": "1", "source": "microsoft/BuildingFootprints"}}}, {"type": "Feature", "geometry": {"type": "Polygon", "coordinates": [[[-97.578643, 35.5244898], [-97.5787282, 35.5244892], [-97.578728, 35.5244805], [-97.5788432, 35.5244795], [-97.5788416, 35.524351], [-97.5787507, 35.5243517], [-97.5787508, 35.524364], [-97.5786415, 35.5243649], [-97.578643, 35.5244898]]]}, "properties": {"osm_id": 1015267869, "building": "house", "name": "", "height": null, "height_m": 3.0, "levels": 1, "tract_id": "40109106611", "tract_name": "1066.11", "tags": {"addr:city": "Oklahoma City", "addr:housenumber": "3441", "addr:postcode": "73112", "addr:state": "OK", "addr:street": "Northwest 52nd Street", "building": "house", "building:levels": "1", "source": "microsoft/BuildingFootprints"}}}, {"type": "Feature", "geometry": {"type": "Polygon", "coordinates": [[[-97.5783896, 35.5245146], [-97.5784749, 35.5245155], [-97.5784748, 35.5245257], [-97.5785597, 35.5245266], [-97.5785605, 35.5244782], [-97.5786109, 35.5244787], [-97.5786121, 35.524401], [-97.5785081, 35.5243999], [-97.5785093, 35.5243248], [-97.5783925, 35.5243236], [-97.5783896, 35.5245146]]]}, "properties": {"osm_id": 1015267870, "building": "house", "name": "", "height": null, "height_m": 3.0, "levels": 1, "tract_id": "40109106611", "tract_name": "1066.11", "tags": {"addr:city": "Oklahoma City", "addr:housenumber": "3435", "addr:postcode": "73112", "addr:state": "OK", "addr:street": "Northwest 52nd Street", "building": "house", "building:levels": "1", "source": "microsoft/BuildingFootprints"}}}, {"type": "Feature", "geometry": {"type": "Polygon", "coordinates": [[[-97.578356, 35.524323], [-97.5782701, 35.524322], [-97.5782696, 35.5243478], [-97.5782262, 35.5243474], [-97.5782264, 35.5243312], [-97.5781259, 35.5243301], [-97.5781238, 35.5244632], [-97.5782142, 35.5244642], [-97.5782146, 35.5244395], [-97.5783541, 35.524441], [-97.578356, 35.524323]]]}, "properties": {"osm_id": 1015267871, "building": "house", "name": "", "height": null, "height_m": 3.0, "levels": 1, "tract_id": "40109106611", "tract_name": "1066.11", "tags": {"addr:city": "Oklahoma City", "addr:housenumber": "3427", "addr:postcode": "73112", "addr:state": "OK", "addr:street": "Northwest 52nd Street", "building": "house", "building:levels": "1", "source": "microsoft/BuildingFootprints"}}}, {"type": "Feature", "geometry": {"type": "Polygon", "coordinates": [[[-97.5780629, 35.5243323], [-97.5779208, 35.5243323], [-97.5779208, 35.5243153], [-97.5778058, 35.5243153], [-97.5778058, 35.524492], [-97.5778437, 35.524492], [-97.5778437, 35.524457], [-97.5780629, 35.5244569], [-97.5780629, 35.5243323]]]}, "properties": {"osm_id": 1015267872, "building": "house", "name": "", "height": null, "height_m": 3.0, "levels": 1, "tract_id": "40109106611", "tract_name": "1066.11", "tags": {"addr:city": "Oklahoma City", "addr:housenumber": "3423", "addr:postcode": "73112", "addr:state": "OK", "addr:street": "Northwest 52nd Street", "building": "house", "building:levels": "1", "source": "microsoft/BuildingFootprints"}}}, {"type": "Feature", "geometry": {"type": "Polygon", "coordinates": [[[-97.5778897, 35.5248594], [-97.5778879, 35.5249998], [-97.5779877, 35.5250006], [-97.5779879, 35.5249818], [-97.5780292, 35.5249822], [-97.578029, 35.525002], [-97.5781168, 35.5250027], [-97.5781182, 35.5248896], [-97.5780498, 35.524889], [-97.5780501, 35.5248607], [-97.5778897, 35.5248594]]]}, "properties": {"osm_id": 1015267873, "building": "house", "name": "", "height": null, "height_m": 3.0, "levels": 1, "tract_id": "40109106611", "tract_name": "1066.11", "tags": {"addr:city": "Oklahoma City", "addr:housenumber": "3420", "addr:postcode": "73112", "addr:state": "OK", "addr:street": "Northwest 53rd Street", "building": "house", "building:levels": "1", "source": "microsoft/BuildingFootprints"}}}, {"type": "Feature", "geometry": {"type": "Polygon", "coordinates": [[[-97.5781437, 35.5248604], [-97.578146, 35.5249982], [-97.5783677, 35.5249957], [-97.5783663, 35.5249108], [-97.5783057, 35.5249114], [-97.5783048, 35.5248587], [-97.5781437, 35.5248604]]]}, "properties": {"osm_id": 1015267874, "building": "house", "name": "", "height": null, "height_m": 3.0, "levels": 1, "tract_id": "40109106611", "tract_name": "1066.11", "tags": {"addr:city": "Oklahoma City", "addr:housenumber": "3426", "addr:postcode": "73112", "addr:state": "OK", "addr:street": "Northwest 53rd Street", "building": "house", "building:levels": "1", "source": "microsoft/BuildingFootprints"}}}, {"type": "Feature", "geometry": {"type": "Polygon", "coordinates": [[[-97.5786254, 35.5248971], [-97.5783963, 35.5248956], [-97.5783953, 35.5249958], [-97.5785368, 35.5249967], [-97.5785367, 35.5250053], [-97.5786243, 35.5250058], [-97.5786254, 35.5248971]]]}, "properties": {"osm_id": 1015267875, "building": "house", "name": "", "height": null, "height_m": 3.0, "levels": 1, "tract_id": "40109106611", "tract_name": "1066.11", "tags": {"addr:city": "Oklahoma City", "addr:housenumber": "3432", "addr:postcode": "73112", "addr:state": "OK", "addr:street": "Northwest 53rd Street", "building": "house", "building:levels": "1", "source": "microsoft/BuildingFootprints"}}}, {"type": "Feature", "geometry": {"type": "Polygon", "coordinates": [[[-97.5788387, 35.5249913], [-97.5788404, 35.52484], [-97.5786497, 35.5248386], [-97.5786478, 35.525005], [-97.5787188, 35.5250055], [-97.5787189, 35.5249904], [-97.5788387, 35.5249913]]]}, "properties": {"osm_id": 1015267876, "building": "house", "name": "", "height": null, "height_m": 3.0, "levels": 1, "tract_id": "40109106611", "tract_name": "1066.11", "tags": {"addr:city": "Oklahoma City", "addr:housenumber": "3438", "addr:postcode": "73112", "addr:state": "OK", "addr:street": "Northwest 53rd Street", "building": "house", "building:levels": "1", "source": "microsoft/BuildingFootprints"}}}, {"type": "Feature", "geometry": {"type": "Polygon", "coordinates": [[[-97.5791259, 35.5249985], [-97.5792242, 35.525], [-97.5792239, 35.5250153], [-97.5793088, 35.5250166], [-97.5793111, 35.5249151], [-97.5792431, 35.5249141], [-97.5792449, 35.5248383], [-97.5792162, 35.5248379], [-97.5792172, 35.5247949], [-97.5791307, 35.5247936], [-97.5791259, 35.5249985]]]}, "properties": {"osm_id": 1015267877, "building": "house", "name": "", "height": null, "height_m": 3.0, "levels": 1, "tract_id": "40109106611", "tract_name": "1066.11", "tags": {"addr:city": "Oklahoma City", "addr:housenumber": "3502", "addr:postcode": "73112", "addr:state": "OK", "addr:street": "Northwest 53rd Street", "building": "house", "building:levels": "1", "source": "microsoft/BuildingFootprints"}}}, {"type": "Feature", "geometry": {"type": "Polygon", "coordinates": [[[-97.5795185, 35.5248635], [-97.5793315, 35.5248637], [-97.5793317, 35.5249936], [-97.5794094, 35.5249935], [-97.5794094, 35.5250147], [-97.5795188, 35.5250145], [-97.5795185, 35.5248635]]]}, "properties": {"osm_id": 1015267878, "building": "house", "name": "", "height": null, "height_m": 3.0, "levels": 1, "tract_id": "40109106611", "tract_name": "1066.11", "tags": {"addr:city": "Oklahoma City", "addr:housenumber": "3506", "addr:postcode": "73112", "addr:state": "OK", "addr:street": "Northwest 53rd Street", "building": "house", "building:levels": "1", "source": "microsoft/BuildingFootprints"}}}, {"type": "Feature", "geometry": {"type": "Polygon", "coordinates": [[[-97.579678, 35.524858], [-97.5795696, 35.5248597], [-97.579572, 35.5249648], [-97.5796482, 35.5249637], [-97.5796494, 35.525015], [-97.579752, 35.5250134], [-97.5797478, 35.5248272], [-97.5796773, 35.5248283], [-97.579678, 35.524858]]]}, "properties": {"osm_id": 1015267879, "building": "house", "name": "", "height": null, "height_m": 3.0, "levels": 1, "tract_id": "40109106611", "tract_name": "1066.11", "tags": {"addr:city": "Oklahoma City", "addr:housenumber": "3514", "addr:postcode": "73112", "addr:state": "OK", "addr:street": "Northwest 53rd Street", "building": "house", "building:levels": "1", "source": "microsoft/BuildingFootprints"}}}, {"type": "Feature", "geometry": {"type": "Polygon", "coordinates": [[[-97.5799467, 35.5248973], [-97.5797691, 35.5248972], [-97.579769, 35.5250092], [-97.5798637, 35.5250092], [-97.5798637, 35.5250782], [-97.5799465, 35.5250783], [-97.5799467, 35.5248973]]]}, "properties": {"osm_id": 1015267880, "building": "house", "name": "", "height": null, "height_m": 3.0, "levels": 1, "tract_id": "40109106611", "tract_name": "1066.11", "tags": {"addr:city": "Oklahoma City", "addr:housenumber": "3518", "addr:postcode": "73112", "addr:state": "OK", "addr:street": "Northwest 53rd Street", "building": "house", "building:levels": "1", "source": "microsoft/BuildingFootprints"}}}, {"type": "Feature", "geometry": {"type": "Polygon", "coordinates": [[[-97.5799679, 35.5250175], [-97.580067, 35.5250187], [-97.5800685, 35.524941], [-97.58014, 35.5249419], [-97.5801414, 35.5248667], [-97.5799707, 35.5248646], [-97.5799679, 35.5250175]]]}, "properties": {"osm_id": 1015267881, "building": "house", "name": "", "height": null, "height_m": 3.0, "levels": 1, "tract_id": "40109106611", "tract_name": "1066.11", "tags": {"addr:city": "Oklahoma City", "addr:housenumber": "3522", "addr:postcode": "73112", "addr:state": "OK", "addr:street": "Northwest 53rd Street", "building": "house", "building:levels": "1", "source": "microsoft/BuildingFootprints"}}}, {"type": "Feature", "geometry": {"type": "Polygon", "coordinates": [[[-97.5801641, 35.5250136], [-97.5803137, 35.5250148], [-97.5803135, 35.5250246], [-97.5803508, 35.5250249], [-97.5803522, 35.5249054], [-97.5801655, 35.5249039], [-97.5801641, 35.5250136]]]}, "properties": {"osm_id": 1015267882, "building": "house", "name": "", "height": null, "height_m": 3.0, "levels": 1, "tract_id": "40109106611", "tract_name": "1066.11", "tags": {"addr:city": "Oklahoma City", "addr:housenumber": "3530", "addr:postcode": "73112", "addr:state": "OK", "addr:street": "Northwest 53rd Street", "building": "house", "building:levels": "1", "source": "microsoft/BuildingFootprints"}}}, {"type": "Feature", "geometry": {"type": "Polygon", "coordinates": [[[-97.5803709, 35.525025], [-97.5804735, 35.5250254], [-97.5804739, 35.5249508], [-97.5805472, 35.5249511], [-97.5805478, 35.5248475], [-97.5803718, 35.5248469], [-97.5803709, 35.525025]]]}, "properties": {"osm_id": 1015267883, "building": "house", "name": "", "height": null, "height_m": 3.0, "levels": 1, "tract_id": "40109106611", "tract_name": "1066.11", "tags": {"addr:city": "Oklahoma City", "addr:housenumber": "3534", "addr:postcode": "73112", "addr:state": "OK", "addr:street": "Northwest 53rd Street", "building": "house", "building:levels": "1", "source": "microsoft/BuildingFootprints"}}}, {"type": "Feature", "geometry": {"type": "Polygon", "coordinates": [[[-97.5805776, 35.5248777], [-97.5805774, 35.5249593], [-97.5806565, 35.5249594], [-97.5806562, 35.5250248], [-97.5807568, 35.5250251], [-97.5807571, 35.5249501], [-97.5807426, 35.5249501], [-97.5807428, 35.5248781], [-97.5805776, 35.5248777]]]}, "properties": {"osm_id": 1015267884, "building": "house", "name": "", "height": null, "height_m": 3.0, "levels": 1, "tract_id": "40109106611", "tract_name": "1066.11", "tags": {"addr:city": "Oklahoma City", "addr:housenumber": "3538", "addr:postcode": "73112", "addr:state": "OK", "addr:street": "Northwest 53rd Street", "building": "house", "building:levels": "1", "source": "microsoft/BuildingFootprints"}}}, {"type": "Feature", "geometry": {"type": "Polygon", "coordinates": [[[-97.580953, 35.525034], [-97.581127, 35.525033], [-97.581127, 35.524824], [-97.581213, 35.524824], [-97.581213, 35.52476], [-97.581183, 35.52476], [-97.581183, 35.524723], [-97.581065, 35.524723], [-97.581065, 35.524747], [-97.580995, 35.524748], [-97.580995, 35.524815], [-97.581054, 35.524815], [-97.581054, 35.524881], [-97.581004, 35.524881], [-97.581004, 35.524907], [-97.580953, 35.524907], [-97.580953, 35.525034]]]}, "properties": {"osm_id": 1015267885, "building": "house", "name": "", "height": null, "height_m": 6.0, "levels": 2, "tract_id": "40109106611", "tract_name": "1066.11", "tags": {"addr:city": "Oklahoma City", "addr:housenumber": "3544", "addr:postcode": "73112", "addr:state": "OK", "addr:street": "Northwest 53rd Street", "building": "house", "building:levels": "2", "source": "microsoft/BuildingFootprints"}}}, {"type": "Feature", "geometry": {"type": "Polygon", "coordinates": [[[-97.581433, 35.5249994], [-97.5814328, 35.5248911], [-97.5813368, 35.5248912], [-97.5813368, 35.5248741], [-97.5812727, 35.5248742], [-97.5812729, 35.524974], [-97.5812697, 35.524974], [-97.5812698, 35.5250299], [-97.5813554, 35.5250298], [-97.5813554, 35.5249995], [-97.581433, 35.5249994]]]}, "properties": {"osm_id": 1015267886, "building": "house", "name": "", "height": null, "height_m": 3.0, "levels": 1, "tract_id": "40109106611", "tract_name": "1066.11", "tags": {"addr:city": "Oklahoma City", "addr:housenumber": "3600", "addr:postcode": "73112", "addr:state": "OK", "addr:street": "Northwest 53rd Street", "building": "house", "building:levels": "1", "source": "microsoft/BuildingFootprints"}}}, {"type": "Feature", "geometry": {"type": "Polygon", "coordinates": [[[-97.5815601, 35.5249505], [-97.581558, 35.5250372], [-97.5816407, 35.5250386], [-97.5816429, 35.5249518], [-97.5815601, 35.5249505]]]}, "properties": {"osm_id": 1015267887, "building": "garage", "name": "", "height": null, "height_m": null, "levels": null, "tract_id": "40109106611", "tract_name": "1066.11", "tags": {"building": "garage", "source": "microsoft/BuildingFootprints"}}}, {"type": "Feature", "geometry": {"type": "Polygon", "coordinates": [[[-97.5818124, 35.5250347], [-97.5818134, 35.5249486], [-97.5818017, 35.5249485], [-97.5818021, 35.5249145], [-97.5816818, 35.5249136], [-97.5816814, 35.5249462], [-97.5816645, 35.5249461], [-97.5816635, 35.5250317], [-97.5816963, 35.525032], [-97.5816961, 35.525049], [-97.5817589, 35.5250495], [-97.5817591, 35.5250343], [-97.5818124, 35.5250347]]]}, "properties": {"osm_id": 1015267888, "building": "house", "name": "", "height": null, "height_m": 3.0, "levels": 1, "tract_id": "40109106611", "tract_name": "1066.11", "tags": {"addr:city": "Oklahoma City", "addr:housenumber": "3608", "addr:postcode": "73112", "addr:state": "OK", "addr:street": "Northwest 53rd Street", "building": "house", "building:levels": "1", "source": "microsoft/BuildingFootprints"}}}, {"type": "Feature", "geometry": {"type": "Polygon", "coordinates": [[[-97.5821433, 35.5250366], [-97.5821459, 35.5249399], [-97.5821181, 35.5249394], [-97.5821192, 35.5248974], [-97.5820744, 35.5248967], [-97.5820726, 35.5249647], [-97.582036, 35.524964], [-97.5820338, 35.5250473], [-97.5821059, 35.5250486], [-97.5821063, 35.5250359], [-97.5821433, 35.5250366]]]}, "properties": {"osm_id": 1015267889, "building": "house", "name": "", "height": null, "height_m": 3.0, "levels": 1, "tract_id": "40109106611", "tract_name": "1066.11", "tags": {"addr:city": "Oklahoma City", "addr:housenumber": "3616", "addr:postcode": "73112", "addr:state": "OK", "addr:street": "Northwest 53rd Street", "building": "house", "building:levels": "1", "source": "microsoft/BuildingFootprints"}}}, {"type": "Feature", "geometry": {"type": "Polygon", "coordinates": [[[-97.5820425, 35.5249344], [-97.5819965, 35.5249328], [-97.5819997, 35.5248706], [-97.5820457, 35.5248721], [-97.5820425, 35.5249344]]]}, "properties": {"osm_id": 1015267890, "building": "shed", "name": "", "height": null, "height_m": null, "levels": null, "tract_id": "40109106611", "tract_name": "1066.11", "tags": {"building": "shed"}}}, {"type": "Feature", "geometry": {"type": "Polygon", "coordinates": [[[-97.5822487, 35.5250452], [-97.5823039, 35.5250461], [-97.5823072, 35.5249008], [-97.5821534, 35.5248985], [-97.5821513, 35.5249899], [-97.5822116, 35.5249908], [-97.5822113, 35.5250047], [-97.5822496, 35.5250053], [-97.5822487, 35.5250452]]]}, "properties": {"osm_id": 1015267891, "building": "house", "name": "", "height": null, "height_m": 3.0, "levels": 1, "tract_id": "40109106611", "tract_name": "1066.11", "tags": {"addr:city": "Oklahoma City", "addr:housenumber": "3620", "addr:postcode": "73112", "addr:state": "OK", "addr:street": "Northwest 53rd Street", "building": "house", "building:levels": "1", "source": "microsoft/BuildingFootprints"}}}, {"type": "Feature", "geometry": {"type": "Polygon", "coordinates": [[[-97.5823316, 35.5248944], [-97.5823304, 35.5250173], [-97.5824563, 35.5250181], [-97.582456, 35.5250444], [-97.5825498, 35.525045], [-97.5825513, 35.5248941], [-97.58253, 35.524894], [-97.5825302, 35.5248718], [-97.5824593, 35.5248713], [-97.5824591, 35.5248952], [-97.5823316, 35.5248944]]]}, "properties": {"osm_id": 1015267892, "building": "house", "name": "", "height": null, "height_m": 3.0, "levels": 1, "tract_id": "40109106611", "tract_name": "1066.11", "tags": {"addr:city": "Oklahoma City", "addr:housenumber": "3626", "addr:postcode": "73112", "addr:state": "OK", "addr:street": "Northwest 53rd Street", "building": "house", "building:levels": "1", "source": "microsoft/BuildingFootprints"}}}, {"type": "Feature", "geometry": {"type": "Polygon", "coordinates": [[[-97.582765, 35.525051], [-97.58277, 35.524866], [-97.582684, 35.524865], [-97.582683, 35.524906], [-97.582608, 35.524905], [-97.582606, 35.524981], [-97.582667, 35.524982], [-97.582665, 35.525049], [-97.582765, 35.525051]]]}, "properties": {"osm_id": 1015267893, "building": "house", "name": "", "height": null, "height_m": 3.0, "levels": 1, "tract_id": "40109106611", "tract_name": "1066.11", "tags": {"addr:city": "Oklahoma City", "addr:housenumber": "3628", "addr:postcode": "73112", "addr:state": "OK", "addr:street": "Northwest 53rd Street", "building": "house", "building:levels": "1", "source": "microsoft/BuildingFootprints"}}}, {"type": "Feature", "geometry": {"type": "Polygon", "coordinates": [[[-97.5831032, 35.5247666], [-97.5829252, 35.5247674], [-97.582927, 35.5250396], [-97.583105, 35.5250388], [-97.5831032, 35.5247666]]]}, "properties": {"osm_id": 1015267894, "building": "yes", "name": "Variety Care", "height": null, "height_m": null, "levels": null, "tract_id": "40109106611", "tract_name": "1066.11", "tags": {"addr:city": "Oklahoma City", "addr:housenumber": "5320", "addr:postcode": "73112", "addr:state": "OK", "addr:street": "North Portland Avenue", "amenity": "clinic", "building": "yes", "healthcare": "clinic", "name": "Variety Care", "opening_hours": "Mo-Fr 08:00-17:00", "source": "microsoft/BuildingFootprints"}}}, {"type": "Feature", "geometry": {"type": "Polygon", "coordinates": [[[-97.5818225, 35.5250369], [-97.5819169, 35.5250385], [-97.5819166, 35.5250496], [-97.5819873, 35.5250508], [-97.58199, 35.5249379], [-97.5819761, 35.5249377], [-97.5819768, 35.5249115], [-97.5819, 35.5249103], [-97.5818996, 35.5249246], [-97.5818253, 35.5249234], [-97.5818225, 35.5250369]]]}, "properties": {"osm_id": 1015267895, "building": "house", "name": "", "height": null, "height_m": 3.0, "levels": 1, "tract_id": "40109106611", "tract_name": "1066.11", "tags": {"addr:city": "Oklahoma City", "addr:housenumber": "3612", "addr:postcode": "73112", "addr:state": "OK", "addr:street": "Northwest 53rd Street", "building": "house", "building:levels": "1", "source": "microsoft/BuildingFootprints"}}}, {"type": "Feature", "geometry": {"type": "Polygon", "coordinates": [[[-97.579905, 35.5248045], [-97.5798779, 35.5248034], [-97.5798578, 35.5247878], [-97.5798565, 35.5247626], [-97.5798792, 35.5247463], [-97.5799036, 35.5247463], [-97.579929, 35.524764], [-97.5799272, 35.5247878], [-97.579905, 35.5248045]]]}, "properties": {"osm_id": 1015267896, "building": "yes", "name": "", "height": null, "height_m": null, "levels": null, "tract_id": "40109106611", "tract_name": "1066.11", "tags": {"access": "private", "amenity": "shelter", "building": "yes", "shelter_type": "gazebo"}}}, {"type": "Feature", "geometry": {"type": "Polygon", "coordinates": [[[-97.583088, 35.522472], [-97.583086, 35.522535], [-97.583242, 35.522538], [-97.583244, 35.522475], [-97.583088, 35.522472]]]}, "properties": {"osm_id": 1015267897, "building": "roof", "name": "", "height": null, "height_m": null, "levels": null, "tract_id": "40109106611", "tract_name": "1066.11", "tags": {"building": "roof", "source": "microsoft/BuildingFootprints"}}}, {"type": "Feature", "geometry": {"type": "Polygon", "coordinates": [[[-97.58282, 35.5253745], [-97.5828183, 35.5255124], [-97.5829386, 35.5255133], [-97.5829393, 35.5254561], [-97.5829504, 35.5254562], [-97.5829508, 35.5254169], [-97.5829382, 35.5254168], [-97.5829387, 35.5253753], [-97.5829014, 35.525375], [-97.5829016, 35.5253631], [-97.5828662, 35.5253628], [-97.582866, 35.5253748], [-97.58282, 35.5253745]]]}, "properties": {"osm_id": 1015267903, "building": "house", "name": "", "height": null, "height_m": 3.0, "levels": 1, "tract_id": "40109106611", "tract_name": "1066.11", "tags": {"addr:city": "Oklahoma City", "addr:housenumber": "3637", "addr:postcode": "73112", "addr:state": "OK", "addr:street": "Northwest 53rd Street", "building": "house", "building:levels": "1", "source": "microsoft/BuildingFootprints"}}}, {"type": "Feature", "geometry": {"type": "Polygon", "coordinates": [[[-97.582488, 35.5253722], [-97.5824899, 35.5254789], [-97.5825161, 35.5254788], [-97.5825187, 35.5255365], [-97.5826291, 35.525536], [-97.5826314, 35.5254031], [-97.5826139, 35.5254019], [-97.5826139, 35.5253957], [-97.5825938, 35.5253807], [-97.582581, 35.5253808], [-97.5825809, 35.5253716], [-97.582488, 35.5253722]]]}, "properties": {"osm_id": 1015267905, "building": "house", "name": "", "height": null, "height_m": 3.0, "levels": 1, "tract_id": "40109106611", "tract_name": "1066.11", "tags": {"addr:city": "Oklahoma City", "addr:housenumber": "3629", "addr:postcode": "73112", "addr:state": "OK", "addr:street": "Northwest 53rd Street", "building": "house", "building:levels": "1", "source": "microsoft/BuildingFootprints"}}}, {"type": "Feature", "geometry": {"type": "Polygon", "coordinates": [[[-97.581828, 35.525487], [-97.581966, 35.525488], [-97.581967, 35.525407], [-97.58193, 35.525407], [-97.581931, 35.525336], [-97.58183, 35.525335], [-97.581828, 35.525487]]]}, "properties": {"osm_id": 1015268643, "building": "house", "name": "", "height": null, "height_m": 3.0, "levels": 1, "tract_id": "40109106611", "tract_name": "1066.11", "tags": {"addr:city": "Oklahoma City", "addr:housenumber": "3613", "addr:postcode": "73112", "addr:state": "OK", "addr:street": "Northwest 53rd Street", "building": "house", "building:levels": "1", "source": "microsoft/BuildingFootprints"}}}, {"type": "Feature", "geometry": {"type": "Polygon", "coordinates": [[[-97.58157, 35.525313], [-97.581568, 35.525477], [-97.581801, 35.525478], [-97.581803, 35.525337], [-97.581699, 35.525336], [-97.5817, 35.525314], [-97.58157, 35.525313]]]}, "properties": {"osm_id": 1015268644, "building": "house", "name": "", "height": null, "height_m": 3.0, "levels": 1, "tract_id": "40109106611", "tract_name": "1066.11", "tags": {"addr:city": "Oklahoma City", "addr:housenumber": "3609", "addr:postcode": "73112", "addr:state": "OK", "addr:street": "Northwest 53rd Street", "building": "house", "building:levels": "1", "source": "microsoft/BuildingFootprints"}}}, {"type": "Feature", "geometry": {"type": "Polygon", "coordinates": [[[-97.580964, 35.525325], [-97.580962, 35.525406], [-97.580992, 35.525406], [-97.58099, 35.525446], [-97.581076, 35.525447], [-97.581077, 35.525416], [-97.581141, 35.525417], [-97.581144, 35.525328], [-97.580964, 35.525325]]]}, "properties": {"osm_id": 1015268645, "building": "house", "name": "", "height": null, "height_m": null, "levels": null, "tract_id": "40109106611", "tract_name": "1066.11", "tags": {"addr:city": "Oklahoma City", "addr:postcode": "73112", "addr:state": "OK", "addr:street": "Northwest 53rd Street", "building": "house", "source": "microsoft/BuildingFootprints"}}}, {"type": "Feature", "geometry": {"type": "Polygon", "coordinates": [[[-97.5806586, 35.5255005], [-97.5807556, 35.5255017], [-97.5807561, 35.5254751], [-97.5808132, 35.5254757], [-97.5808137, 35.5254473], [-97.5809079, 35.5254484], [-97.5809101, 35.5253255], [-97.5808265, 35.5253246], [-97.5808263, 35.5253374], [-97.5807239, 35.5253362], [-97.5807236, 35.5253487], [-97.5806613, 35.5253479], [-97.5806586, 35.5255005]]]}, "properties": {"osm_id": 1015268646, "building": "house", "name": "", "height": null, "height_m": 3.0, "levels": 1, "tract_id": "40109106611", "tract_name": "1066.11", "tags": {"addr:city": "Oklahoma City", "addr:housenumber": "3539", "addr:postcode": "73112", "addr:state": "OK", "addr:street": "Northwest 53rd Street", "building": "house", "building:levels": "1", "source": "microsoft/BuildingFootprints"}}}, {"type": "Feature", "geometry": {"type": "Polygon", "coordinates": [[[-97.5805694, 35.5253508], [-97.5804841, 35.5253501], [-97.5804842, 35.5253421], [-97.5803829, 35.5253413], [-97.5803832, 35.5253182], [-97.580299, 35.5253175], [-97.5802977, 35.5254221], [-97.5803833, 35.5254228], [-97.5803831, 35.5254337], [-97.5805683, 35.5254352], [-97.5805694, 35.5253508]]]}, "properties": {"osm_id": 1015268647, "building": "house", "name": "", "height": null, "height_m": 3.0, "levels": 1, "tract_id": "40109106611", "tract_name": "1066.11", "tags": {"addr:city": "Oklahoma City", "addr:housenumber": "3535", "addr:postcode": "73112", "addr:state": "OK", "addr:street": "Northwest 53rd Street", "building": "house", "building:levels": "1", "source": "microsoft/BuildingFootprints"}}}, {"type": "Feature", "geometry": {"type": "Polygon", "coordinates": [[[-97.580236, 35.525428], [-97.580237, 35.525364], [-97.580216, 35.525364], [-97.580217, 35.525322], [-97.580013, 35.525319], [-97.580011, 35.525424], [-97.580236, 35.525428]]]}, "properties": {"osm_id": 1015268648, "building": "house", "name": "", "height": null, "height_m": 6.0, "levels": 2, "tract_id": "40109106611", "tract_name": "1066.11", "tags": {"addr:city": "Oklahoma City", "addr:housenumber": "3525", "addr:postcode": "73112", "addr:state": "OK", "addr:street": "Northwest 53rd Street", "building": "house", "building:levels": "2", "source": "microsoft/BuildingFootprints"}}}, {"type": "Feature", "geometry": {"type": "Polygon", "coordinates": [[[-97.5799192, 35.525313], [-97.5798395, 35.5253124], [-97.5798394, 35.5253245], [-97.5797276, 35.5253237], [-97.5797264, 35.5254346], [-97.5798564, 35.5254355], [-97.5798562, 35.5254551], [-97.5799178, 35.5254555], [-97.5799192, 35.525313]]]}, "properties": {"osm_id": 1015268649, "building": "house", "name": "", "height": null, "height_m": 3.0, "levels": 1, "tract_id": "40109106611", "tract_name": "1066.11", "tags": {"addr:city": "Oklahoma City", "addr:housenumber": "3519", "addr:postcode": "73112", "addr:state": "OK", "addr:street": "Northwest 53rd Street", "building": "house", "building:levels": "1", "source": "microsoft/BuildingFootprints"}}}, {"type": "Feature", "geometry": {"type": "Polygon", "coordinates": [[[-97.579691, 35.525347], [-97.579596, 35.525347], [-97.579596, 35.525318], [-97.579481, 35.525317], [-97.579479, 35.525496], [-97.579538, 35.525497], [-97.579537, 35.525525], [-97.579631, 35.525526], [-97.579632, 35.525482], [-97.579689, 35.525483], [-97.579691, 35.525347]]]}, "properties": {"osm_id": 1015268650, "building": "house", "name": "", "height": null, "height_m": 3.0, "levels": 1, "tract_id": "40109106611", "tract_name": "1066.11", "tags": {"addr:city": "Oklahoma City", "addr:housenumber": "3513", "addr:postcode": "73112", "addr:state": "OK", "addr:street": "Northwest 53rd Street", "building": "house", "building:levels": "1", "source": "microsoft/BuildingFootprints"}}}, {"type": "Feature", "geometry": {"type": "Polygon", "coordinates": [[[-97.5792309, 35.5254391], [-97.5793594, 35.5254385], [-97.5793596, 35.5254673], [-97.579428, 35.525467], [-97.5794269, 35.5253075], [-97.5793421, 35.5253079], [-97.5793422, 35.5253188], [-97.5792301, 35.5253193], [-97.5792309, 35.5254391]]]}, "properties": {"osm_id": 1015268651, "building": "house", "name": "", "height": null, "height_m": 3.0, "levels": 1, "tract_id": "40109106611", "tract_name": "1066.11", "tags": {"addr:city": "Oklahoma City", "addr:housenumber": "3505", "addr:postcode": "73112", "addr:state": "OK", "addr:street": "Northwest 53rd Street", "building": "house", "building:levels": "1", "source": "microsoft/BuildingFootprints"}}}, {"type": "Feature", "geometry": {"type": "Polygon", "coordinates": [[[-97.579002, 35.525376], [-97.579, 35.525472], [-97.579201, 35.525475], [-97.579204, 35.525305], [-97.579113, 35.525303], [-97.579112, 35.525378], [-97.579002, 35.525376]]]}, "properties": {"osm_id": 1015268652, "building": "house", "name": "", "height": null, "height_m": 3.0, "levels": 1, "tract_id": "40109106611", "tract_name": "1066.11", "tags": {"addr:city": "Oklahoma City", "addr:housenumber": "3501", "addr:postcode": "73112", "addr:state": "OK", "addr:street": "Northwest 53rd Street", "building": "house", "building:levels": "1", "source": "microsoft/BuildingFootprints"}}}, {"type": "Feature", "geometry": {"type": "Polygon", "coordinates": [[[-97.5789017, 35.5254284], [-97.5789012, 35.5254566], [-97.5789623, 35.5254574], [-97.5789651, 35.5253044], [-97.5787766, 35.5253021], [-97.5787744, 35.5254269], [-97.5789017, 35.5254284]]]}, "properties": {"osm_id": 1015268653, "building": "house", "name": "", "height": null, "height_m": 3.0, "levels": 1, "tract_id": "40109106611", "tract_name": "1066.11", "tags": {"addr:city": "Oklahoma City", "addr:housenumber": "3439", "addr:postcode": "73112", "addr:state": "OK", "addr:street": "Northwest 53rd Street", "building": "house", "building:levels": "1", "source": "microsoft/BuildingFootprints"}}}, {"type": "Feature", "geometry": {"type": "Polygon", "coordinates": [[[-97.5785428, 35.5252964], [-97.5785392, 35.5254352], [-97.5785967, 35.5254361], [-97.578598, 35.5253858], [-97.5786228, 35.5253862], [-97.578622, 35.5254184], [-97.5787161, 35.5254201], [-97.5787187, 35.5253217], [-97.5786684, 35.5253209], [-97.578669, 35.5252986], [-97.5785428, 35.5252964]]]}, "properties": {"osm_id": 1015268654, "building": "house", "name": "", "height": null, "height_m": null, "levels": null, "tract_id": "40109106611", "tract_name": "1066.11", "tags": {"addr:city": "Oklahoma City", "addr:postcode": "73112", "addr:state": "OK", "addr:street": "Northwest 53rd Street", "building": "house", "source": "microsoft/BuildingFootprints"}}}, {"type": "Feature", "geometry": {"type": "Polygon", "coordinates": [[[-97.5785036, 35.5253063], [-97.5782933, 35.5253049], [-97.578292, 35.5254416], [-97.5784284, 35.5254425], [-97.5784288, 35.5253961], [-97.5785027, 35.5253966], [-97.5785036, 35.5253063]]]}, "properties": {"osm_id": 1015268655, "building": "house", "name": "", "height": null, "height_m": 3.0, "levels": 1, "tract_id": "40109106611", "tract_name": "1066.11", "tags": {"addr:city": "Oklahoma City", "addr:housenumber": "3427", "addr:postcode": "73112", "addr:state": "OK", "addr:street": "Northwest 53rd Street", "building": "house", "building:levels": "1", "source": "microsoft/BuildingFootprints"}}}, {"type": "Feature", "geometry": {"type": "Polygon", "coordinates": [[[-97.5780349, 35.5254292], [-97.5781239, 35.5254299], [-97.5781238, 35.5254389], [-97.5781923, 35.5254394], [-97.5781927, 35.5254076], [-97.5782621, 35.5254081], [-97.5782634, 35.5252921], [-97.578176, 35.5252915], [-97.5781758, 35.5253117], [-97.5781298, 35.5253114], [-97.57813, 35.5252918], [-97.5780363, 35.5252911], [-97.5780349, 35.5254292]]]}, "properties": {"osm_id": 1015268656, "building": "house", "name": "", "height": null, "height_m": 0.0, "levels": 0, "tract_id": "40109106611", "tract_name": "1066.11", "tags": {"addr:city": "Oklahoma City", "addr:housenumber": "3421", "addr:postcode": "73112", "addr:state": "OK", "addr:street": "Northwest 53rd Street", "building": "house", "building:levels": "0", "source": "microsoft/BuildingFootprints"}}}, {"type": "Feature", "geometry": {"type": "Polygon", "coordinates": [[[-97.581874, 35.529563], [-97.581603, 35.52956], [-97.5816, 35.529746], [-97.581871, 35.529749], [-97.581874, 35.529563]]]}, "properties": {"osm_id": 1016427514, "building": "retail", "name": "", "height": null, "height_m": 3.0, "levels": 1, "tract_id": "40109106611", "tract_name": "1066.11", "tags": {"addr:housenumber": "3600,3604", "addr:street": "Northwest 58th Street", "building": "retail", "building:levels": "1", "source": "microsoft/BuildingFootprints"}}}, {"type": "Feature", "geometry": {"type": "Polygon", "coordinates": [[[-97.581956, 35.529793], [-97.582238, 35.529795], [-97.582239, 35.529672], [-97.581958, 35.529669], [-97.581956, 35.529793]]]}, "properties": {"osm_id": 1016427515, "building": "office", "name": "", "height": null, "height_m": 6.0, "levels": 2, "tract_id": "40109106611", "tract_name": "1066.11", "tags": {"addr:housenumber": "3608", "addr:street": "Northwest 58th Street", "building": "office", "building:levels": "2", "source": "microsoft/BuildingFootprints"}}}, {"type": "Feature", "geometry": {"type": "Polygon", "coordinates": [[[-97.582321, 35.529813], [-97.582481, 35.529815], [-97.582485, 35.529651], [-97.582324, 35.529649], [-97.582321, 35.529813]]]}, "properties": {"osm_id": 1016427516, "building": "retail", "name": "", "height": null, "height_m": 3.0, "levels": 1, "tract_id": "40109106611", "tract_name": "1066.11", "tags": {"addr:housenumber": "3616", "addr:street": "Northwest 58th Street", "building": "retail", "building:levels": "1", "source": "microsoft/BuildingFootprints"}}}, {"type": "Feature", "geometry": {"type": "Polygon", "coordinates": [[[-97.5825264, 35.5297612], [-97.5827991, 35.5297653], [-97.5828032, 35.5295856], [-97.5825305, 35.5295815], [-97.5825264, 35.5297612]]]}, "properties": {"osm_id": 1016427517, "building": "retail", "name": "", "height": null, "height_m": 3.0, "levels": 1, "tract_id": "40109106611", "tract_name": "1066.11", "tags": {"building": "retail", "building:levels": "1", "source": "microsoft/BuildingFootprints"}}}, {"type": "Feature", "geometry": {"type": "Polygon", "coordinates": [[[-97.5829409, 35.529753], [-97.5830328, 35.5297532], [-97.5830508, 35.5297506], [-97.5832248, 35.5297258], [-97.5832245, 35.5296673], [-97.5830507, 35.529658], [-97.583051, 35.529585], [-97.582941, 35.529586], [-97.5829409, 35.529753]]]}, "properties": {"osm_id": 1016427518, "building": "industrial", "name": "Portland Tune & Brake Car Care", "height": null, "height_m": null, "levels": null, "tract_id": "40109106611", "tract_name": "1066.11", "tags": {"building": "industrial", "name": "Portland Tune & Brake Car Care", "opening_hours": "Mo-Fr 09:00-18:00; Sa 09:00-16:00", "shop": "car_repair", "source": "microsoft/BuildingFootprints"}}}, {"type": "Feature", "geometry": {"type": "Polygon", "coordinates": [[[-97.573649, 35.5241507], [-97.5738634, 35.524151], [-97.5738625, 35.5245786], [-97.5742767, 35.5245792], [-97.5742763, 35.5247618], [-97.5736476, 35.5247609], [-97.573649, 35.5241507]]]}, "properties": {"osm_id": 1028689701, "building": "yes", "name": "", "height": null, "height_m": null, "levels": null, "tract_id": "40109106611", "tract_name": "1066.11", "tags": {"building": "yes"}}}, {"type": "Feature", "geometry": {"type": "Polygon", "coordinates": [[[-97.5828382, 35.5263258], [-97.5828397, 35.5265466], [-97.5830404, 35.5265457], [-97.5830398, 35.5264647], [-97.5830627, 35.5264645], [-97.5830623, 35.5264043], [-97.5830411, 35.5264044], [-97.5830406, 35.5263248], [-97.5828382, 35.5263258]]]}, "properties": {"osm_id": 1068360903, "building": "yes", "name": "", "height": null, "height_m": null, "levels": null, "tract_id": "40109106611", "tract_name": "1066.11", "tags": {"building": "yes", "source": "microsoft/BuildingFootprints"}}}, {"type": "Feature", "geometry": {"type": "Polygon", "coordinates": [[[-97.5830718, 35.5258948], [-97.5830371, 35.525894], [-97.5829041, 35.5258938], [-97.5828564, 35.5258943], [-97.5828568, 35.5257596], [-97.5830723, 35.5257601], [-97.5830718, 35.5258948]]]}, "properties": {"osm_id": 1068360904, "building": "yes", "name": "", "height": null, "height_m": null, "levels": null, "tract_id": "40109106611", "tract_name": "1066.11", "tags": {"building": "yes"}}}, {"type": "Feature", "geometry": {"type": "Polygon", "coordinates": [[[-97.5830371, 35.525894], [-97.5830369, 35.5259701], [-97.5830636, 35.5259701], [-97.5830633, 35.5260756], [-97.5829036, 35.5260753], [-97.5829041, 35.5258938], [-97.5830371, 35.525894]]]}, "properties": {"osm_id": 1068360905, "building": "yes", "name": "", "height": null, "height_m": 3.0, "levels": 1, "tract_id": "40109106611", "tract_name": "1066.11", "tags": {"addr:city": "Oklahoma City", "addr:housenumber": "5420", "addr:postcode": "73112", "addr:state": "OK", "addr:street": "North Portland Avenue", "amenity": "pharmacy", "building": "yes", "building:levels": "1", "dispensing": "yes", "drive_through": "no", "healthcare": "pharmacy"}}}, {"type": "Feature", "geometry": {"type": "Polygon", "coordinates": [[[-97.5808604, 35.523063], [-97.5806755, 35.5230618], [-97.5806769, 35.5229253], [-97.5808331, 35.5229258], [-97.580833, 35.5229533], [-97.580861, 35.5229534], [-97.5808604, 35.523063]]]}, "properties": {"osm_id": 1069088273, "building": "apartments", "name": "", "height": null, "height_m": 6.0, "levels": 2, "tract_id": "40109106611", "tract_name": "1066.11", "tags": {"addr:city": "Oklahoma City", "addr:housenumber": "3532", "addr:postcode": "73112", "addr:state": "OK", "addr:street": "Northwest 51st Street", "building": "apartments", "building:levels": "2"}}}, {"type": "Feature", "geometry": {"type": "Polygon", "coordinates": [[[-97.582975, 35.526617], [-97.582975, 35.526885], [-97.582979, 35.526885], [-97.582978, 35.527028], [-97.582977, 35.527028], [-97.582976, 35.527285], [-97.583169, 35.527286], [-97.58317, 35.527194], [-97.583168, 35.527194], [-97.583169, 35.527026], [-97.58312, 35.527026], [-97.583121, 35.527004], [-97.583174, 35.527004], [-97.583174, 35.526896], [-97.583122, 35.526896], [-97.583122, 35.526874], [-97.583171, 35.526874], [-97.583171, 35.526618], [-97.582975, 35.526617]]]}, "properties": {"osm_id": 1080385368, "building": "apartments", "name": "", "height": null, "height_m": null, "levels": null, "tract_id": "40109106611", "tract_name": "1066.11", "tags": {"building": "apartments", "source": "microsoft/BuildingFootprints"}}}, {"type": "Feature", "geometry": {"type": "Polygon", "coordinates": [[[-97.582822, 35.526996], [-97.582761, 35.526995], [-97.582757, 35.527194], [-97.582819, 35.527195], [-97.582822, 35.526996]]]}, "properties": {"osm_id": 1080385369, "building": "roof", "name": "", "height": null, "height_m": null, "levels": null, "tract_id": "40109106611", "tract_name": "1066.11", "tags": {"building": "roof", "layer": "1", "source": "microsoft/BuildingFootprints"}}}, {"type": "Feature", "geometry": {"type": "Polygon", "coordinates": [[[-97.582742, 35.527132], [-97.582455, 35.526977], [-97.582382, 35.527066], [-97.58267, 35.527221], [-97.582742, 35.527132]]]}, "properties": {"osm_id": 1080385370, "building": "apartments", "name": "", "height": null, "height_m": null, "levels": null, "tract_id": "40109106611", "tract_name": "1066.11", "tags": {"building": "apartments", "source": "microsoft/BuildingFootprints"}}}, {"type": "Feature", "geometry": {"type": "Polygon", "coordinates": [[[-97.582738, 35.526912], [-97.582701, 35.526912], [-97.5827, 35.526855], [-97.582739, 35.526855], [-97.582738, 35.526772], [-97.582598, 35.526773], [-97.5826, 35.526995], [-97.582739, 35.526995], [-97.582738, 35.526912]]]}, "properties": {"osm_id": 1080385371, "building": "apartments", "name": "", "height": null, "height_m": null, "levels": null, "tract_id": "40109106611", "tract_name": "1066.11", "tags": {"building": "apartments", "source": "microsoft/BuildingFootprints"}}}, {"type": "Feature", "geometry": {"type": "Polygon", "coordinates": [[[-97.582732, 35.52661], [-97.582339, 35.526612], [-97.582339, 35.526726], [-97.582732, 35.526725], [-97.582732, 35.52661]]]}, "properties": {"osm_id": 1080385372, "building": "apartments", "name": "", "height": null, "height_m": null, "levels": null, "tract_id": "40109106611", "tract_name": "1066.11", "tags": {"building": "apartments", "source": "microsoft/BuildingFootprints"}}}, {"type": "Feature", "geometry": {"type": "Polygon", "coordinates": [[[-97.582147, 35.526877], [-97.582275, 35.526876], [-97.582274, 35.526754], [-97.582284, 35.526754], [-97.582281, 35.526553], [-97.582142, 35.526554], [-97.582147, 35.526877]]]}, "properties": {"osm_id": 1080385373, "building": "apartments", "name": "", "height": null, "height_m": null, "levels": null, "tract_id": "40109106611", "tract_name": "1066.11", "tags": {"building": "apartments", "source": "microsoft/BuildingFootprints"}}}, {"type": "Feature", "geometry": {"type": "Polygon", "coordinates": [[[-97.581962, 35.526928], [-97.581963, 35.527041], [-97.582356, 35.527039], [-97.582355, 35.526926], [-97.581962, 35.526928]]]}, "properties": {"osm_id": 1080385374, "building": "apartments", "name": "", "height": null, "height_m": null, "levels": null, "tract_id": "40109106611", "tract_name": "1066.11", "tags": {"building": "apartments", "source": "microsoft/BuildingFootprints"}}}, {"type": "Feature", "geometry": {"type": "Polygon", "coordinates": [[[-97.581703, 35.527037], [-97.581909, 35.527037], [-97.581909, 35.526581], [-97.581869, 35.526581], [-97.581869, 35.526561], [-97.581708, 35.526561], [-97.581708, 35.526755], [-97.581702, 35.526755], [-97.581703, 35.526928], [-97.581742, 35.526928], [-97.581742, 35.526952], [-97.581703, 35.526952], [-97.581703, 35.527037]]]}, "properties": {"osm_id": 1080385375, "building": "apartments", "name": "", "height": null, "height_m": null, "levels": null, "tract_id": "40109106611", "tract_name": "1066.11", "tags": {"building": "apartments", "source": "microsoft/BuildingFootprints"}}}, {"type": "Feature", "geometry": {"type": "Polygon", "coordinates": [[[-97.581207, 35.526633], [-97.581656, 35.526638], [-97.581656, 35.526609], [-97.581678, 35.526609], [-97.58168, 35.526473], [-97.581444, 35.52647], [-97.581444, 35.526464], [-97.581383, 35.526463], [-97.581382, 35.526473], [-97.581231, 35.526472], [-97.58123, 35.526507], [-97.581209, 35.526507], [-97.581207, 35.526633]]]}, "properties": {"osm_id": 1080385376, "building": "apartments", "name": "", "height": null, "height_m": null, "levels": null, "tract_id": "40109106611", "tract_name": "1066.11", "tags": {"building": "apartments", "source": "microsoft/BuildingFootprints"}}}, {"type": "Feature", "geometry": {"type": "Polygon", "coordinates": [[[-97.580991, 35.526324], [-97.580873, 35.526409], [-97.581052, 35.526572], [-97.58117, 35.526486], [-97.580991, 35.526324]]]}, "properties": {"osm_id": 1080385377, "building": "apartments", "name": "", "height": null, "height_m": null, "levels": null, "tract_id": "40109106611", "tract_name": "1066.11", "tags": {"building": "apartments", "source": "microsoft/BuildingFootprints"}}}, {"type": "Feature", "geometry": {"type": "Polygon", "coordinates": [[[-97.580844, 35.526273], [-97.580994, 35.526274], [-97.581, 35.525936], [-97.580842, 35.525934], [-97.580839, 35.526083], [-97.580847, 35.526083], [-97.580844, 35.526273]]]}, "properties": {"osm_id": 1080385378, "building": "apartments", "name": "", "height": null, "height_m": null, "levels": null, "tract_id": "40109106611", "tract_name": "1066.11", "tags": {"building": "apartments", "source": "microsoft/BuildingFootprints"}}}, {"type": "Feature", "geometry": {"type": "Polygon", "coordinates": [[[-97.5806496, 35.5259025], [-97.5806503, 35.5259516], [-97.5808023, 35.5259513], [-97.5808026, 35.5259033], [-97.5806496, 35.5259025]]]}, "properties": {"osm_id": 1080385379, "building": "yes", "name": "", "height": null, "height_m": null, "levels": null, "tract_id": "40109106611", "tract_name": "1066.11", "tags": {"building": "yes", "source": "microsoft/BuildingFootprints"}}}, {"type": "Feature", "geometry": {"type": "Polygon", "coordinates": [[[-97.5804669, 35.5259814], [-97.5806221, 35.5259813], [-97.5806221, 35.5258981], [-97.5804668, 35.5258981], [-97.5804669, 35.5259814]]]}, "properties": {"osm_id": 1080385380, "building": "yes", "name": "", "height": null, "height_m": null, "levels": null, "tract_id": "40109106611", "tract_name": "1066.11", "tags": {"building": "yes", "source": "microsoft/BuildingFootprints"}}}, {"type": "Feature", "geometry": {"type": "Polygon", "coordinates": [[[-97.581257, 35.526186], [-97.581305, 35.526187], [-97.581304, 35.526244], [-97.581406, 35.526245], [-97.581412, 35.525962], [-97.581261, 35.52596], [-97.581257, 35.526186]]]}, "properties": {"osm_id": 1080385381, "building": "apartments", "name": "", "height": null, "height_m": null, "levels": null, "tract_id": "40109106611", "tract_name": "1066.11", "tags": {"building": "apartments", "source": "microsoft/BuildingFootprints"}}}, {"type": "Feature", "geometry": {"type": "Polygon", "coordinates": [[[-97.581461, 35.526265], [-97.581731, 35.526267], [-97.581733, 35.526145], [-97.581582, 35.526144], [-97.581582, 35.526139], [-97.581463, 35.526137], [-97.581461, 35.526265]]]}, "properties": {"osm_id": 1080385382, "building": "apartments", "name": "", "height": null, "height_m": null, "levels": null, "tract_id": "40109106611", "tract_name": "1066.11", "tags": {"building": "apartments", "source": "microsoft/BuildingFootprints"}}}, {"type": "Feature", "geometry": {"type": "Polygon", "coordinates": [[[-97.581739, 35.526077], [-97.58174, 35.525961], [-97.581645, 35.525961], [-97.581645, 35.525995], [-97.58157, 35.525995], [-97.58157, 35.525961], [-97.581472, 35.52596], [-97.581471, 35.526076], [-97.581739, 35.526077]]]}, "properties": {"osm_id": 1080385383, "building": "apartments", "name": "", "height": null, "height_m": null, "levels": null, "tract_id": "40109106611", "tract_name": "1066.11", "tags": {"building": "apartments", "source": "microsoft/BuildingFootprints"}}}, {"type": "Feature", "geometry": {"type": "Polygon", "coordinates": [[[-97.581813, 35.526191], [-97.581855, 35.526192], [-97.581853, 35.526254], [-97.581816, 35.526253], [-97.581813, 35.526331], [-97.581941, 35.526334], [-97.581943, 35.526265], [-97.581953, 35.526266], [-97.581958, 35.526116], [-97.581816, 35.526113], [-97.581813, 35.526191]]]}, "properties": {"osm_id": 1080385384, "building": "apartments", "name": "", "height": null, "height_m": null, "levels": null, "tract_id": "40109106611", "tract_name": "1066.11", "tags": {"building": "apartments", "source": "microsoft/BuildingFootprints"}}}, {"type": "Feature", "geometry": {"type": "Polygon", "coordinates": [[[-97.582049, 35.525959], [-97.581762, 35.52596], [-97.581762, 35.526087], [-97.582049, 35.526086], [-97.582049, 35.525959]]]}, "properties": {"osm_id": 1080385385, "building": "apartments", "name": "", "height": null, "height_m": null, "levels": null, "tract_id": "40109106611", "tract_name": "1066.11", "tags": {"building": "apartments", "source": "microsoft/BuildingFootprints"}}}, {"type": "Feature", "geometry": {"type": "Polygon", "coordinates": [[[-97.582294, 35.525921], [-97.582101, 35.525921], [-97.582102, 35.526243], [-97.582295, 35.526242], [-97.582294, 35.525921]]]}, "properties": {"osm_id": 1080385386, "building": "apartments", "name": "", "height": null, "height_m": null, "levels": null, "tract_id": "40109106611", "tract_name": "1066.11", "tags": {"building": "apartments", "source": "microsoft/BuildingFootprints"}}}, {"type": "Feature", "geometry": {"type": "Polygon", "coordinates": [[[-97.58206, 35.5264], [-97.58237, 35.526404], [-97.582372, 35.526293], [-97.582062, 35.526289], [-97.58206, 35.5264]]]}, "properties": {"osm_id": 1080385387, "building": "apartments", "name": "", "height": null, "height_m": null, "levels": null, "tract_id": "40109106611", "tract_name": "1066.11", "tags": {"building": "apartments", "source": "microsoft/BuildingFootprints"}}}, {"type": "Feature", "geometry": {"type": "Polygon", "coordinates": [[[-97.582632, 35.525956], [-97.582439, 35.525956], [-97.58244, 35.526409], [-97.582633, 35.526409], [-97.582632, 35.525956]]]}, "properties": {"osm_id": 1080385388, "building": "apartments", "name": "", "height": null, "height_m": null, "levels": null, "tract_id": "40109106611", "tract_name": "1066.11", "tags": {"building": "apartments", "source": "microsoft/BuildingFootprints"}}}, {"type": "Feature", "geometry": {"type": "Polygon", "coordinates": [[[-97.58292, 35.528028], [-97.5829897, 35.5280257], [-97.5829907, 35.5280517], [-97.5830455, 35.5280507], [-97.5830551, 35.5280483], [-97.5830599, 35.5280444], [-97.583062, 35.5280377], [-97.583063, 35.528026], [-97.583184, 35.528024], [-97.58318, 35.527789], [-97.58308, 35.52779], [-97.5830793, 35.5277468], [-97.5830061, 35.5277585], [-97.5829983, 35.5277629], [-97.5829937, 35.5277703], [-97.5829918, 35.5277799], [-97.582993, 35.5277888], [-97.5829153, 35.5277895], [-97.58292, 35.528028]]]}, "properties": {"osm_id": 1080389360, "building": "yes", "name": "", "height": null, "height_m": null, "levels": null, "tract_id": "40109106611", "tract_name": "1066.11", "tags": {"building": "yes", "source": "microsoft/BuildingFootprints"}}}, {"type": "Feature", "geometry": {"type": "Polygon", "coordinates": [[[-97.582837, 35.527688], [-97.583008, 35.527689], [-97.583009, 35.5275323], [-97.583018, 35.5275323], [-97.5830194, 35.5274867], [-97.5830107, 35.5274866], [-97.5830094, 35.5274343], [-97.582753, 35.527437], [-97.5827548, 35.5274802], [-97.5827546, 35.5275209], [-97.582836, 35.5275222], [-97.582837, 35.527688]]]}, "properties": {"osm_id": 1080389361, "building": "yes", "name": "", "height": null, "height_m": null, "levels": null, "tract_id": "40109106611", "tract_name": "1066.11", "tags": {"building": "yes", "source": "microsoft/BuildingFootprints"}}}, {"type": "Feature", "geometry": {"type": "Polygon", "coordinates": [[[-97.5827546, 35.5275209], [-97.5827545, 35.5275292], [-97.5826452, 35.5275288], [-97.5826455, 35.5274798], [-97.5827548, 35.5274802], [-97.5827546, 35.5275209]]]}, "properties": {"osm_id": 1080389362, "building": "roof", "name": "", "height": null, "height_m": null, "levels": null, "tract_id": "40109106611", "tract_name": "1066.11", "tags": {"building": "roof", "layer": "1"}}}, {"type": "Feature", "geometry": {"type": "Polygon", "coordinates": [[[-97.5740066, 35.5269598], [-97.5740056, 35.5266977], [-97.5742243, 35.5266971], [-97.574225, 35.5268668], [-97.5742025, 35.5268669], [-97.5742026, 35.5268896], [-97.5742488, 35.526927], [-97.5742748, 35.5269269], [-97.5742747, 35.5269127], [-97.5744778, 35.5269122], [-97.5744784, 35.5270737], [-97.5743159, 35.5270741], [-97.5743159, 35.5270871], [-97.5741623, 35.5270875], [-97.5741623, 35.5270745], [-97.5740577, 35.5270747], [-97.5740577, 35.5270847], [-97.5740386, 35.5270848], [-97.574009, 35.5270609], [-97.574009, 35.5270455], [-97.5740241, 35.5270455], [-97.5740238, 35.5269598], [-97.5740066, 35.5269598]]]}, "properties": {"osm_id": 1090352801, "building": "yes", "name": "", "height": null, "height_m": null, "levels": null, "tract_id": "40109106611", "tract_name": "1066.11", "tags": {"building": "yes"}}}, {"type": "Feature", "geometry": {"type": "Polygon", "coordinates": [[[-97.5734746, 35.5263129], [-97.5734774, 35.5270459], [-97.5730754, 35.5270469], [-97.5730726, 35.5263139], [-97.5734746, 35.5263129]]]}, "properties": {"osm_id": 1090352802, "building": "yes", "name": "", "height": null, "height_m": null, "levels": null, "tract_id": "40109106611", "tract_name": "1066.11", "tags": {"building": "yes"}}}, {"type": "Feature", "geometry": {"type": "Polygon", "coordinates": [[[-97.5742931, 35.5262633], [-97.5738389, 35.5262644], [-97.5738386, 35.5262011], [-97.5738611, 35.526201], [-97.5738607, 35.5261083], [-97.5738386, 35.5261083], [-97.5738383, 35.5260325], [-97.5741093, 35.5260318], [-97.5741094, 35.5260556], [-97.5742923, 35.5260551], [-97.5742931, 35.5262633]]]}, "properties": {"osm_id": 1090352803, "building": "yes", "name": "", "height": null, "height_m": null, "levels": null, "tract_id": "40109106611", "tract_name": "1066.11", "tags": {"building": "yes"}}}, {"type": "Feature", "geometry": {"type": "Polygon", "coordinates": [[[-97.5821288, 35.5255422], [-97.5820793, 35.5255413], [-97.5820803, 35.5255067], [-97.5819911, 35.525505], [-97.5819956, 35.5253464], [-97.5820463, 35.5253473], [-97.5820602, 35.5253599], [-97.582134, 35.5253613], [-97.5821288, 35.5255422]]]}, "properties": {"osm_id": 1111229393, "building": "house", "name": "", "height": null, "height_m": null, "levels": null, "tract_id": "40109106611", "tract_name": "1066.11", "tags": {"addr:city": "Oklahoma City", "addr:housenumber": "3617", "addr:postcode": "73112", "addr:state": "OK", "addr:street": "Northwest 53rd Street", "building": "house"}}}, {"type": "Feature", "geometry": {"type": "Polygon", "coordinates": [[[-97.5826554, 35.525452], [-97.5827439, 35.5254538], [-97.5827433, 35.5254721], [-97.582782, 35.5254729], [-97.582785, 35.5253725], [-97.5826578, 35.52537], [-97.5826554, 35.525452]]]}, "properties": {"osm_id": 1111229394, "building": "house", "name": "", "height": null, "height_m": null, "levels": null, "tract_id": "40109106611", "tract_name": "1066.11", "tags": {"addr:city": "Oklahoma City", "addr:housenumber": "3633", "addr:postcode": "73112", "addr:state": "OK", "addr:street": "Northwest 53rd Street", "building": "house", "source": "microsoft/BuildingFootprints"}}}, {"type": "Feature", "geometry": {"type": "Polygon", "coordinates": [[[-97.5822956, 35.5255463], [-97.5822456, 35.5255451], [-97.5822468, 35.5255103], [-97.5821582, 35.5255082], [-97.5821635, 35.5253602], [-97.5823022, 35.5253636], [-97.5822956, 35.5255463]]]}, "properties": {"osm_id": 1111229395, "building": "house", "name": "", "height": null, "height_m": null, "levels": null, "tract_id": "40109106611", "tract_name": "1066.11", "tags": {"addr:city": "Oklahoma City", "addr:housenumber": "3621", "addr:postcode": "73112", "addr:state": "OK", "addr:street": "Northwest 53rd Street", "building": "house"}}}, {"type": "Feature", "geometry": {"type": "Polygon", "coordinates": [[[-97.5824663, 35.5255444], [-97.5824168, 35.5255435], [-97.5824178, 35.5255088], [-97.5823286, 35.5255071], [-97.5823331, 35.5253485], [-97.5823838, 35.5253495], [-97.5823977, 35.525362], [-97.5824715, 35.5253634], [-97.5824663, 35.5255444]]]}, "properties": {"osm_id": 1111229396, "building": "house", "name": "", "height": null, "height_m": null, "levels": null, "tract_id": "40109106611", "tract_name": "1066.11", "tags": {"addr:city": "Oklahoma City", "addr:housenumber": "3625", "addr:postcode": "73112", "addr:state": "OK", "addr:street": "Northwest 53rd Street", "building": "house"}}}, {"type": "Feature", "geometry": {"type": "Polygon", "coordinates": [[[-97.5828432, 35.5285748], [-97.5828441, 35.52878], [-97.5828909, 35.5287799], [-97.5828916, 35.5289283], [-97.5828406, 35.5289285], [-97.5828415, 35.529138], [-97.5831031, 35.5291373], [-97.5831007, 35.5285741], [-97.5828432, 35.5285748]]]}, "properties": {"osm_id": 1111923766, "building": "yes", "name": "", "height": null, "height_m": null, "levels": null, "tract_id": "40109106611", "tract_name": "1066.11", "tags": {"building": "yes", "source": "microsoft/BuildingFootprints"}}}, {"type": "Feature", "geometry": {"type": "Polygon", "coordinates": [[[-97.5828955, 35.5295027], [-97.5831865, 35.5295018], [-97.5831857, 35.5293339], [-97.5831734, 35.5293339], [-97.5831733, 35.5293094], [-97.5829698, 35.52931], [-97.5829697, 35.5292978], [-97.5829116, 35.529298], [-97.5829119, 35.5293591], [-97.5828948, 35.5293592], [-97.5828955, 35.5295027]]]}, "properties": {"osm_id": 1111923767, "building": "yes", "name": "", "height": null, "height_m": null, "levels": null, "tract_id": "40109106611", "tract_name": "1066.11", "tags": {"building": "yes", "source": "microsoft/BuildingFootprints"}}}, {"type": "Feature", "geometry": {"type": "Polygon", "coordinates": [[[-97.5753734, 35.526713], [-97.5765338, 35.5267405], [-97.5765355, 35.5266935], [-97.5769843, 35.5267041], [-97.5769866, 35.5266409], [-97.576539, 35.5266303], [-97.5765414, 35.5265638], [-97.5753797, 35.5265363], [-97.5753734, 35.526713]]]}, "properties": {"osm_id": 1251295423, "building": "yes", "name": "", "height": null, "height_m": null, "levels": null, "tract_id": "40109106611", "tract_name": "1066.11", "tags": {"building": "yes", "source": "microsoft/BuildingFootprints"}}}, {"type": "Feature", "geometry": {"type": "Polygon", "coordinates": [[[-97.5748524, 35.5261753], [-97.5748496, 35.5262975], [-97.5749327, 35.5262988], [-97.5749324, 35.5263151], [-97.5752139, 35.5263195], [-97.5752139, 35.5263184], [-97.5753962, 35.5263212], [-97.5753964, 35.5263157], [-97.5754822, 35.526317], [-97.5754852, 35.526185], [-97.5748524, 35.5261753]]]}, "properties": {"osm_id": 1251295424, "building": "yes", "name": "", "height": null, "height_m": null, "levels": null, "tract_id": "40109106611", "tract_name": "1066.11", "tags": {"building": "yes", "source": "microsoft/BuildingFootprints"}}}, {"type": "Feature", "geometry": {"type": "Polygon", "coordinates": [[[-97.5748635, 35.525359], [-97.5748603, 35.5257453], [-97.5748737, 35.5257454], [-97.5748728, 35.5258611], [-97.5750203, 35.5258619], [-97.5750207, 35.5258117], [-97.5750449, 35.5258118], [-97.5750454, 35.5257441], [-97.5750079, 35.5257439], [-97.5750083, 35.5256915], [-97.5750378, 35.5256917], [-97.5750386, 35.5255978], [-97.5750183, 35.5255977], [-97.5750187, 35.5255486], [-97.5750336, 35.5255487], [-97.5750351, 35.5253599], [-97.5748635, 35.525359]]]}, "properties": {"osm_id": 1251295425, "building": "yes", "name": "", "height": null, "height_m": null, "levels": null, "tract_id": "40109106611", "tract_name": "1066.11", "tags": {"building": "yes", "source": "microsoft/BuildingFootprints"}}}, {"type": "Feature", "geometry": {"type": "Polygon", "coordinates": [[[-97.5754729, 35.5260652], [-97.5754704, 35.5259441], [-97.5754114, 35.5259449], [-97.5754112, 35.525935], [-97.5752691, 35.525937], [-97.5752684, 35.5259064], [-97.5751344, 35.5259083], [-97.5751348, 35.5259323], [-97.5750678, 35.5259332], [-97.5750679, 35.5259354], [-97.574907, 35.5259376], [-97.5749071, 35.5259441], [-97.5748496, 35.5259449], [-97.5748523, 35.5260737], [-97.5754729, 35.5260652]]]}, "properties": {"osm_id": 1251295426, "building": "yes", "name": "", "height": null, "height_m": null, "levels": null, "tract_id": "40109106611", "tract_name": "1066.11", "tags": {"building": "yes", "source": "microsoft/BuildingFootprints"}}}, {"type": "Feature", "geometry": {"type": "Polygon", "coordinates": [[[-97.5742391, 35.5251856], [-97.5740181, 35.5251836], [-97.5740156, 35.525368], [-97.5736064, 35.5253643], [-97.5736039, 35.5255476], [-97.5742341, 35.5255533], [-97.5742391, 35.5251856]]]}, "properties": {"osm_id": 1251295427, "building": "yes", "name": "", "height": null, "height_m": null, "levels": null, "tract_id": "40109106611", "tract_name": "1066.11", "tags": {"building": "yes", "source": "microsoft/BuildingFootprints"}}}, {"type": "Feature", "geometry": {"type": "Polygon", "coordinates": [[[-97.5753211, 35.5243174], [-97.5748463, 35.524318], [-97.5748465, 35.5244446], [-97.5753213, 35.5244441], [-97.5753211, 35.5243174]]]}, "properties": {"osm_id": 1251295428, "building": "yes", "name": "", "height": null, "height_m": null, "levels": null, "tract_id": "40109106611", "tract_name": "1066.11", "tags": {"building": "yes", "source": "microsoft/BuildingFootprints"}}}, {"type": "Feature", "geometry": {"type": "Polygon", "coordinates": [[[-97.575362, 35.524326], [-97.5753609, 35.5244504], [-97.5755164, 35.5244514], [-97.5755162, 35.524471], [-97.575653, 35.5244719], [-97.5756531, 35.5244609], [-97.5758006, 35.5244618], [-97.5758019, 35.5243287], [-97.575362, 35.524326]]]}, "properties": {"osm_id": 1251295429, "building": "yes", "name": "", "height": null, "height_m": null, "levels": null, "tract_id": "40109106611", "tract_name": "1066.11", "tags": {"building": "yes", "source": "microsoft/BuildingFootprints"}}}, {"type": "Feature", "geometry": {"type": "Polygon", "coordinates": [[[-97.5758359, 35.5244552], [-97.5758367, 35.5245731], [-97.5760271, 35.5245722], [-97.5760264, 35.5244543], [-97.5759818, 35.5244545], [-97.5759808, 35.5242996], [-97.5758805, 35.5243], [-97.5758815, 35.524455], [-97.5758359, 35.5244552]]]}, "properties": {"osm_id": 1251295430, "building": "yes", "name": "", "height": null, "height_m": null, "levels": null, "tract_id": "40109106611", "tract_name": "1066.11", "tags": {"building": "yes", "source": "microsoft/BuildingFootprints"}}}, {"type": "Feature", "geometry": {"type": "Polygon", "coordinates": [[[-97.5748284, 35.5243035], [-97.57469, 35.5243023], [-97.5746878, 35.5244638], [-97.5748262, 35.524465], [-97.5748284, 35.5243035]]]}, "properties": {"osm_id": 1251295431, "building": "yes", "name": "", "height": null, "height_m": null, "levels": null, "tract_id": "40109106611", "tract_name": "1066.11", "tags": {"building": "yes", "source": "microsoft/BuildingFootprints"}}}, {"type": "Feature", "geometry": {"type": "Polygon", "coordinates": [[[-97.5718501, 35.5259128], [-97.5718481, 35.5260591], [-97.5729477, 35.526069], [-97.5729497, 35.5259227], [-97.5718501, 35.5259128]]]}, "properties": {"osm_id": 1251295432, "building": "yes", "name": "", "height": null, "height_m": null, "levels": null, "tract_id": "40109106611", "tract_name": "1066.11", "tags": {"building": "yes", "source": "microsoft/BuildingFootprints"}}}, {"type": "Feature", "geometry": {"type": "Polygon", "coordinates": [[[-97.571792, 35.5258911], [-97.5713831, 35.5258892], [-97.571382, 35.5260551], [-97.5717909, 35.526057], [-97.571792, 35.5258911]]]}, "properties": {"osm_id": 1251295433, "building": "yes", "name": "", "height": null, "height_m": null, "levels": null, "tract_id": "40109106611", "tract_name": "1066.11", "tags": {"building": "yes", "source": "microsoft/BuildingFootprints"}}}, {"type": "Feature", "geometry": {"type": "Polygon", "coordinates": [[[-97.571333, 35.5259098], [-97.570168, 35.5258896], [-97.5701642, 35.5260358], [-97.5713292, 35.526056], [-97.571333, 35.5259098]]]}, "properties": {"osm_id": 1251295434, "building": "yes", "name": "", "height": null, "height_m": null, "levels": null, "tract_id": "40109106611", "tract_name": "1066.11", "tags": {"building": "yes", "source": "microsoft/BuildingFootprints"}}}, {"type": "Feature", "geometry": {"type": "Polygon", "coordinates": [[[-97.5716498, 35.5262061], [-97.5711029, 35.526196], [-97.5711039, 35.526162], [-97.5709281, 35.5261587], [-97.5709232, 35.5263354], [-97.5716458, 35.5263488], [-97.5716498, 35.5262061]]]}, "properties": {"osm_id": 1251295435, "building": "yes", "name": "", "height": null, "height_m": null, "levels": null, "tract_id": "40109106611", "tract_name": "1066.11", "tags": {"building": "yes", "source": "microsoft/BuildingFootprints"}}}, {"type": "Feature", "geometry": {"type": "Polygon", "coordinates": [[[-97.5708689, 35.5263498], [-97.5708705, 35.5262058], [-97.570251, 35.5262011], [-97.5702493, 35.5263452], [-97.5708689, 35.5263498]]]}, "properties": {"osm_id": 1251295436, "building": "yes", "name": "", "height": null, "height_m": null, "levels": null, "tract_id": "40109106611", "tract_name": "1066.11", "tags": {"building": "yes", "source": "microsoft/BuildingFootprints"}}}, {"type": "Feature", "geometry": {"type": "Polygon", "coordinates": [[[-97.5709391, 35.5265458], [-97.5709387, 35.5264004], [-97.5702547, 35.5264017], [-97.5702551, 35.5265471], [-97.5709391, 35.5265458]]]}, "properties": {"osm_id": 1251295437, "building": "yes", "name": "", "height": null, "height_m": null, "levels": null, "tract_id": "40109106611", "tract_name": "1066.11", "tags": {"building": "yes", "source": "microsoft/BuildingFootprints"}}}, {"type": "Feature", "geometry": {"type": "Polygon", "coordinates": [[[-97.5710181, 35.5265043], [-97.5709519, 35.5266578], [-97.5714224, 35.5267922], [-97.5714886, 35.5266386], [-97.5710181, 35.5265043]]]}, "properties": {"osm_id": 1251295438, "building": "yes", "name": "", "height": null, "height_m": null, "levels": null, "tract_id": "40109106611", "tract_name": "1066.11", "tags": {"building": "yes", "source": "microsoft/BuildingFootprints"}}}, {"type": "Feature", "geometry": {"type": "Polygon", "coordinates": [[[-97.5717634, 35.5268579], [-97.5717285, 35.5264175], [-97.5715468, 35.526427], [-97.5715817, 35.5268674], [-97.5717634, 35.5268579]]]}, "properties": {"osm_id": 1251295439, "building": "yes", "name": "", "height": null, "height_m": null, "levels": null, "tract_id": "40109106611", "tract_name": "1066.11", "tags": {"building": "yes", "source": "microsoft/BuildingFootprints"}}}, {"type": "Feature", "geometry": {"type": "Polygon", "coordinates": [[[-97.5719304, 35.5264202], [-97.572774, 35.5264222], [-97.5727744, 35.5263184], [-97.572812, 35.5263184], [-97.5728124, 35.5261984], [-97.5727722, 35.5261983], [-97.5727723, 35.526159], [-97.5726704, 35.5261587], [-97.5726703, 35.5261849], [-97.5726006, 35.5261848], [-97.5726007, 35.5261586], [-97.5724934, 35.5261583], [-97.5724933, 35.5261823], [-97.5724262, 35.5261822], [-97.5724263, 35.526156], [-97.5723163, 35.5261557], [-97.5723163, 35.5261797], [-97.5722519, 35.5261796], [-97.572252, 35.5261534], [-97.5721474, 35.5261531], [-97.5721472, 35.5261902], [-97.5721016, 35.5261901], [-97.5721012, 35.5263102], [-97.5721441, 35.5263103], [-97.5721439, 35.5263649], [-97.5719306, 35.5263644], [-97.5719304, 35.5264202]]]}, "properties": {"osm_id": 1251295440, "building": "yes", "name": "", "height": null, "height_m": null, "levels": null, "tract_id": "40109106611", "tract_name": "1066.11", "tags": {"building": "yes", "source": "microsoft/BuildingFootprints"}}}, {"type": "Feature", "geometry": {"type": "Polygon", "coordinates": [[[-97.572774, 35.5267089], [-97.5727732, 35.5265661], [-97.572631, 35.5265666], [-97.5726312, 35.5265916], [-97.5724315, 35.5265923], [-97.5724313, 35.5265674], [-97.5722892, 35.5265679], [-97.57229, 35.5267107], [-97.572774, 35.5267089]]]}, "properties": {"osm_id": 1251295441, "building": "yes", "name": "", "height": null, "height_m": null, "levels": null, "tract_id": "40109106611", "tract_name": "1066.11", "tags": {"building": "yes", "source": "microsoft/BuildingFootprints"}}}, {"type": "Feature", "geometry": {"type": "Polygon", "coordinates": [[[-97.5728301, 35.52643], [-97.5728303, 35.5265413], [-97.5728625, 35.5265413], [-97.5728627, 35.5267115], [-97.5728279, 35.5267116], [-97.5728281, 35.5268273], [-97.572997, 35.5268271], [-97.5729964, 35.5264298], [-97.5728301, 35.52643]]]}, "properties": {"osm_id": 1251295442, "building": "yes", "name": "", "height": null, "height_m": null, "levels": null, "tract_id": "40109106611", "tract_name": "1066.11", "tags": {"building": "yes", "source": "microsoft/BuildingFootprints"}}}, {"type": "Feature", "geometry": {"type": "Polygon", "coordinates": [[[-97.573009, 35.5270811], [-97.5729514, 35.5270815], [-97.5729506, 35.5270007], [-97.5729935, 35.5270005], [-97.5729927, 35.5269197], [-97.5729498, 35.52692], [-97.5729493, 35.5268742], [-97.5728554, 35.5268748], [-97.5728559, 35.5269163], [-97.5727981, 35.5269166], [-97.572799, 35.5270052], [-97.5728366, 35.5270049], [-97.5728374, 35.5270888], [-97.5727986, 35.5270891], [-97.5727995, 35.5271754], [-97.5728531, 35.5271751], [-97.5728536, 35.5272197], [-97.5729528, 35.527219], [-97.5729524, 35.5271744], [-97.57301, 35.527174], [-97.573009, 35.5270811]]]}, "properties": {"osm_id": 1251295443, "building": "yes", "name": "", "height": null, "height_m": null, "levels": null, "tract_id": "40109106611", "tract_name": "1066.11", "tags": {"building": "yes", "source": "microsoft/BuildingFootprints"}}}, {"type": "Feature", "geometry": {"type": "Polygon", "coordinates": [[[-97.5727712, 35.5265458], [-97.5727718, 35.526489], [-97.5719618, 35.5264834], [-97.5719612, 35.5265402], [-97.5727712, 35.5265458]]]}, "properties": {"osm_id": 1251295444, "building": "yes", "name": "", "height": null, "height_m": null, "levels": null, "tract_id": "40109106611", "tract_name": "1066.11", "tags": {"building": "yes", "source": "microsoft/BuildingFootprints"}}}, {"type": "Feature", "geometry": {"type": "Polygon", "coordinates": [[[-97.5719839, 35.526558], [-97.571995, 35.5266752], [-97.572035, 35.5266726], [-97.5720508, 35.5268397], [-97.5720242, 35.5268414], [-97.5720345, 35.5269508], [-97.5722066, 35.52694], [-97.5721956, 35.5268241], [-97.5721796, 35.5268251], [-97.5721533, 35.5265474], [-97.5719839, 35.526558]]]}, "properties": {"osm_id": 1251295445, "building": "yes", "name": "", "height": null, "height_m": null, "levels": null, "tract_id": "40109106611", "tract_name": "1066.11", "tags": {"building": "yes", "source": "microsoft/BuildingFootprints"}}}, {"type": "Feature", "geometry": {"type": "Polygon", "coordinates": [[[-97.5726456, 35.5271696], [-97.5722048, 35.5269934], [-97.572139, 35.5271024], [-97.5724437, 35.5272242], [-97.572432, 35.5272435], [-97.5725681, 35.527298], [-97.5726456, 35.5271696]]]}, "properties": {"osm_id": 1251295446, "building": "yes", "name": "", "height": null, "height_m": null, "levels": null, "tract_id": "40109106611", "tract_name": "1066.11", "tags": {"building": "yes", "source": "microsoft/BuildingFootprints"}}}, {"type": "Feature", "geometry": {"type": "Polygon", "coordinates": [[[-97.5727951, 35.527283], [-97.5726607, 35.5272382], [-97.5726179, 35.5273234], [-97.5727523, 35.5273681], [-97.5727951, 35.527283]]]}, "properties": {"osm_id": 1251295447, "building": "yes", "name": "", "height": null, "height_m": null, "levels": null, "tract_id": "40109106611", "tract_name": "1066.11", "tags": {"building": "yes", "source": "microsoft/BuildingFootprints"}}}, {"type": "Feature", "geometry": {"type": "Polygon", "coordinates": [[[-97.57254, 35.5269181], [-97.5726821, 35.5269208], [-97.5726832, 35.5268825], [-97.5727288, 35.5268834], [-97.5727318, 35.5267808], [-97.5726715, 35.5267797], [-97.5726722, 35.5267569], [-97.572573, 35.526755], [-97.5725719, 35.5267943], [-97.5725436, 35.5267937], [-97.57254, 35.5269181]]]}, "properties": {"osm_id": 1251295448, "building": "yes", "name": "", "height": null, "height_m": null, "levels": null, "tract_id": "40109106611", "tract_name": "1066.11", "tags": {"building": "yes", "source": "microsoft/BuildingFootprints"}}}, {"type": "Feature", "geometry": {"type": "Polygon", "coordinates": [[[-97.5711144, 35.5269608], [-97.5706589, 35.5267862], [-97.5705814, 35.5269202], [-97.5710368, 35.5270948], [-97.5711144, 35.5269608]]]}, "properties": {"osm_id": 1251296157, "building": "yes", "name": "", "height": null, "height_m": null, "levels": null, "tract_id": "40109106611", "tract_name": "1066.11", "tags": {"building": "yes", "source": "microsoft/BuildingFootprints"}}}, {"type": "Feature", "geometry": {"type": "Polygon", "coordinates": [[[-97.5716008, 35.5271774], [-97.5711516, 35.5269975], [-97.5710702, 35.5271322], [-97.5715194, 35.527312], [-97.5716008, 35.5271774]]]}, "properties": {"osm_id": 1251296158, "building": "yes", "name": "", "height": null, "height_m": null, "levels": null, "tract_id": "40109106611", "tract_name": "1066.11", "tags": {"building": "yes", "source": "microsoft/BuildingFootprints"}}}, {"type": "Feature", "geometry": {"type": "Polygon", "coordinates": [[[-97.5716328, 35.5275798], [-97.5717798, 35.5276374], [-97.5718411, 35.5275339], [-97.5718345, 35.5275313], [-97.5719851, 35.5272769], [-97.5718446, 35.5272218], [-97.5716328, 35.5275798]]]}, "properties": {"osm_id": 1251296159, "building": "yes", "name": "", "height": null, "height_m": null, "levels": null, "tract_id": "40109106611", "tract_name": "1066.11", "tags": {"building": "yes", "source": "microsoft/BuildingFootprints"}}}, {"type": "Feature", "geometry": {"type": "Polygon", "coordinates": [[[-97.5722026, 35.5273696], [-97.5720496, 35.5273114], [-97.5719915, 35.5274124], [-97.5720136, 35.5274208], [-97.5719281, 35.5275695], [-97.5718896, 35.5275548], [-97.5718269, 35.5276641], [-97.5719963, 35.5277286], [-97.5722026, 35.5273696]]]}, "properties": {"osm_id": 1251296160, "building": "yes", "name": "", "height": null, "height_m": null, "levels": null, "tract_id": "40109106611", "tract_name": "1066.11", "tags": {"building": "yes", "source": "microsoft/BuildingFootprints"}}}, {"type": "Feature", "geometry": {"type": "Polygon", "coordinates": [[[-97.5722298, 35.5277406], [-97.5723624, 35.5277928], [-97.5723781, 35.5277662], [-97.5724151, 35.5277808], [-97.5724881, 35.5276579], [-97.5725011, 35.527663], [-97.5725532, 35.5275753], [-97.5725163, 35.5275608], [-97.572531, 35.527536], [-97.5723984, 35.5274839], [-97.5723857, 35.5275051], [-97.572351, 35.5274914], [-97.5722753, 35.5276188], [-97.5722579, 35.527612], [-97.5722116, 35.5276898], [-97.5722508, 35.5277052], [-97.5722298, 35.5277406]]]}, "properties": {"osm_id": 1251296161, "building": "yes", "name": "", "height": null, "height_m": null, "levels": null, "tract_id": "40109106611", "tract_name": "1066.11", "tags": {"building": "yes", "source": "microsoft/BuildingFootprints"}}}, {"type": "Feature", "geometry": {"type": "Polygon", "coordinates": [[[-97.5723199, 35.5280921], [-97.5725511, 35.5281812], [-97.5726102, 35.5280796], [-97.5726113, 35.52808], [-97.5726974, 35.5279321], [-97.5727106, 35.5279371], [-97.5727625, 35.527848], [-97.5725281, 35.5277576], [-97.5724752, 35.5278485], [-97.5725453, 35.5278756], [-97.5724581, 35.5280253], [-97.572377, 35.5279941], [-97.5723199, 35.5280921]]]}, "properties": {"osm_id": 1251296162, "building": "yes", "name": "", "height": null, "height_m": null, "levels": null, "tract_id": "40109106611", "tract_name": "1066.11", "tags": {"building": "yes", "source": "microsoft/BuildingFootprints"}}}, {"type": "Feature", "geometry": {"type": "Polygon", "coordinates": [[[-97.5721003, 35.5280562], [-97.5719948, 35.5282327], [-97.5721488, 35.5282937], [-97.5721467, 35.5282972], [-97.5722964, 35.5283564], [-97.572288, 35.5283705], [-97.5724008, 35.5284152], [-97.5725126, 35.528228], [-97.5723998, 35.5281834], [-97.5723724, 35.5282293], [-97.572188, 35.5281563], [-97.5722196, 35.5281034], [-97.5721003, 35.5280562]]]}, "properties": {"osm_id": 1251296163, "building": "yes", "name": "", "height": null, "height_m": null, "levels": null, "tract_id": "40109106611", "tract_name": "1066.11", "tags": {"building": "yes", "source": "microsoft/BuildingFootprints"}}}, {"type": "Feature", "geometry": {"type": "Polygon", "coordinates": [[[-97.5718453, 35.5280202], [-97.5717341, 35.5279791], [-97.5717088, 35.5280243], [-97.5715231, 35.5279557], [-97.5715564, 35.527896], [-97.571433, 35.5278504], [-97.5713276, 35.5280393], [-97.5717479, 35.5281947], [-97.5718453, 35.5280202]]]}, "properties": {"osm_id": 1251296164, "building": "yes", "name": "", "height": null, "height_m": null, "levels": null, "tract_id": "40109106611", "tract_name": "1066.11", "tags": {"building": "yes", "source": "microsoft/BuildingFootprints"}}}, {"type": "Feature", "geometry": {"type": "Polygon", "coordinates": [[[-97.5714818, 35.5278063], [-97.571593, 35.5278474], [-97.5716263, 35.5277876], [-97.5718098, 35.5278554], [-97.5717665, 35.5279332], [-97.5718899, 35.5279788], [-97.5719953, 35.5277898], [-97.5718918, 35.5277516], [-97.5718813, 35.5277705], [-97.571839, 35.5277549], [-97.5718536, 35.5277288], [-97.5717201, 35.5276795], [-97.5717262, 35.5276686], [-97.5715871, 35.5276173], [-97.5714818, 35.5278063]]]}, "properties": {"osm_id": 1251296165, "building": "yes", "name": "", "height": null, "height_m": null, "levels": null, "tract_id": "40109106611", "tract_name": "1066.11", "tags": {"building": "yes", "source": "microsoft/BuildingFootprints"}}}, {"type": "Feature", "geometry": {"type": "Polygon", "coordinates": [[[-97.5711012, 35.5276174], [-97.5711502, 35.5276329], [-97.5711366, 35.5276613], [-97.5712601, 35.5277003], [-97.5712828, 35.5276529], [-97.5712711, 35.5276492], [-97.5713507, 35.5274823], [-97.5713904, 35.5274948], [-97.5714175, 35.5274379], [-97.571217, 35.5273746], [-97.5711012, 35.5276174]]]}, "properties": {"osm_id": 1251296166, "building": "yes", "name": "", "height": null, "height_m": null, "levels": null, "tract_id": "40109106611", "tract_name": "1066.11", "tags": {"building": "yes", "source": "microsoft/BuildingFootprints"}}}, {"type": "Feature", "geometry": {"type": "Polygon", "coordinates": [[[-97.5711415, 35.5273882], [-97.5706906, 35.5272038], [-97.5706095, 35.5273352], [-97.5710603, 35.5275196], [-97.5711415, 35.5273882]]]}, "properties": {"osm_id": 1251296167, "building": "yes", "name": "", "height": null, "height_m": null, "levels": null, "tract_id": "40109106611", "tract_name": "1066.11", "tags": {"building": "yes", "source": "microsoft/BuildingFootprints"}}}, {"type": "Feature", "geometry": {"type": "Polygon", "coordinates": [[[-97.5708674, 35.5276273], [-97.5707845, 35.5277645], [-97.570845, 35.5277887], [-97.5708525, 35.5277764], [-97.5710534, 35.5278567], [-97.5710385, 35.5278813], [-97.5711011, 35.5279064], [-97.5711202, 35.5278748], [-97.5711494, 35.5278864], [-97.5711813, 35.5278337], [-97.5711575, 35.5278242], [-97.5711968, 35.5277591], [-97.5708674, 35.5276273]]]}, "properties": {"osm_id": 1251296168, "building": "yes", "name": "", "height": null, "height_m": null, "levels": null, "tract_id": "40109106611", "tract_name": "1066.11", "tags": {"building": "yes", "source": "microsoft/BuildingFootprints"}}}, {"type": "Feature", "geometry": {"type": "Polygon", "coordinates": [[[-97.5705393, 35.5270993], [-97.5703423, 35.5270977], [-97.5703416, 35.52715], [-97.5703604, 35.5271502], [-97.5703575, 35.527372], [-97.5704366, 35.5273727], [-97.5704364, 35.5273888], [-97.5705356, 35.5273896], [-97.5705393, 35.5270993]]]}, "properties": {"osm_id": 1251296169, "building": "yes", "name": "", "height": null, "height_m": null, "levels": null, "tract_id": "40109106611", "tract_name": "1066.11", "tags": {"building": "yes", "source": "microsoft/BuildingFootprints"}}}, {"type": "Feature", "geometry": {"type": "Polygon", "coordinates": [[[-97.5705356, 35.5269533], [-97.5705416, 35.5267614], [-97.5703379, 35.5267572], [-97.5703319, 35.5269492], [-97.5705356, 35.5269533]]]}, "properties": {"osm_id": 1251296170, "building": "yes", "name": "", "height": null, "height_m": null, "levels": null, "tract_id": "40109106611", "tract_name": "1066.11", "tags": {"building": "yes", "source": "microsoft/BuildingFootprints"}}}, {"type": "Feature", "geometry": {"type": "Polygon", "coordinates": [[[-97.5707683, 35.5275688], [-97.5704452, 35.527443], [-97.5703638, 35.5275816], [-97.5704161, 35.527602], [-97.5704235, 35.5275896], [-97.5706254, 35.5276682], [-97.5706118, 35.5276912], [-97.5706806, 35.527718], [-97.5707683, 35.5275688]]]}, "properties": {"osm_id": 1251296171, "building": "yes", "name": "", "height": null, "height_m": null, "levels": null, "tract_id": "40109106611", "tract_name": "1066.11", "tags": {"building": "yes", "source": "microsoft/BuildingFootprints"}}}, {"type": "Feature", "geometry": {"type": "Polygon", "coordinates": [[[-97.5696654, 35.5222869], [-97.5696643, 35.5224039], [-97.5698494, 35.522405], [-97.5698472, 35.5226438], [-97.5697765, 35.5226433], [-97.5697755, 35.5227569], [-97.5698462, 35.5227573], [-97.5698442, 35.5229791], [-97.5696609, 35.5229781], [-97.5696598, 35.5230981], [-97.5700594, 35.5231005], [-97.5700604, 35.522987], [-97.56998, 35.5229865], [-97.5699852, 35.5223993], [-97.5700603, 35.5223997], [-97.5700613, 35.5222892], [-97.5696654, 35.5222869]]]}, "properties": {"osm_id": 1251296174, "building": "yes", "name": "", "height": null, "height_m": null, "levels": null, "tract_id": "40109106611", "tract_name": "1066.11", "tags": {"building": "yes", "source": "microsoft/BuildingFootprints"}}}, {"type": "Feature", "geometry": {"type": "Polygon", "coordinates": [[[-97.5690233, 35.5230044], [-97.5693586, 35.5230051], [-97.569359, 35.5228653], [-97.5692474, 35.5228651], [-97.5692475, 35.5228236], [-97.5690239, 35.5228232], [-97.5690233, 35.5230044]]]}, "properties": {"osm_id": 1251296175, "building": "yes", "name": "", "height": null, "height_m": null, "levels": null, "tract_id": "40109106611", "tract_name": "1066.11", "tags": {"building": "yes", "source": "microsoft/BuildingFootprints"}}}, {"type": "Feature", "geometry": {"type": "Polygon", "coordinates": [[[-97.5691967, 35.5225932], [-97.569204, 35.5228048], [-97.5693129, 35.5228023], [-97.5693114, 35.5227573], [-97.5692883, 35.5227579], [-97.5692841, 35.5226371], [-97.5693109, 35.5226365], [-97.5693093, 35.5225907], [-97.5691967, 35.5225932]]]}, "properties": {"osm_id": 1251296176, "building": "yes", "name": "", "height": null, "height_m": null, "levels": null, "tract_id": "40109106611", "tract_name": "1066.11", "tags": {"building": "yes", "source": "microsoft/BuildingFootprints"}}}, {"type": "Feature", "geometry": {"type": "Polygon", "coordinates": [[[-97.5690223, 35.5225736], [-97.5692465, 35.5225761], [-97.5692473, 35.5225317], [-97.5693599, 35.522533], [-97.5693623, 35.5223941], [-97.5690255, 35.5223902], [-97.5690223, 35.5225736]]]}, "properties": {"osm_id": 1251296177, "building": "yes", "name": "", "height": null, "height_m": null, "levels": null, "tract_id": "40109106611", "tract_name": "1066.11", "tags": {"building": "yes", "source": "microsoft/BuildingFootprints"}}}, {"type": "Feature", "geometry": {"type": "Polygon", "coordinates": [[[-97.5702364, 35.5226347], [-97.5702351, 35.5227185], [-97.5701691, 35.5227178], [-97.570167, 35.5228509], [-97.5706202, 35.5228556], [-97.570624, 35.5226156], [-97.5705355, 35.5226146], [-97.5705349, 35.5226539], [-97.5704802, 35.5226533], [-97.5704805, 35.5226372], [-97.5702364, 35.5226347]]]}, "properties": {"osm_id": 1251296178, "building": "yes", "name": "", "height": null, "height_m": null, "levels": null, "tract_id": "40109106611", "tract_name": "1066.11", "tags": {"building": "yes", "source": "microsoft/BuildingFootprints"}}}]}