{"type": "FeatureCollection", "features": [{"type": "Feature", "geometry": {"type": "Polygon", "coordinates": [[[-97.142417, 34.18112], [-97.1424169, 34.1809038], [-97.1424436, 34.1809037], [-97.1424435, 34.1807702], [-97.1422788, 34.1807703], [-97.1422788, 34.1807846], [-97.1419561, 34.1807848], [-97.1419563, 34.1810651], [-97.1418922, 34.1810651], [-97.1418923, 34.1811203], [-97.142417, 34.18112]]]}, "properties": {"osm_id": 865227570, "building": "retail", "name": "ALDI", "height": null, "height_m": null, "levels": null, "tract_id": "40019893100", "tract_name": "8931", "tags": {"addr:city": "Ardmore", "addr:county": "Carter, OK", "addr:housenumber": "510", "addr:postcode": "73401", "addr:state": "OK", "addr:street": "North Commerce Street", "brand": "ALDI", "brand:wikidata": "Q41171672", "building": "retail", "name": "ALDI", "opening_hours": "Mo, We, Fr-Su 09:00-21:00, Tu, Th 08:30-21:00", "phone": "+1 844-475-1021", "shop": "supermarket", "website": "https://stores.aldi.us/ok/ardmore/510-n-commerce-st"}}}, {"type": "Feature", "geometry": {"type": "Polygon", "coordinates": [[[-97.141579, 34.1803768], [-97.1415689, 34.180338], [-97.1416589, 34.180322], [-97.1415948, 34.1800751], [-97.1415084, 34.1800904], [-97.1415041, 34.1800738], [-97.1414456, 34.1800842], [-97.1415241, 34.1803866], [-97.141579, 34.1803768]]]}, "properties": {"osm_id": 865227571, "building": "yes", "name": "Sonic", "height": null, "height_m": null, "levels": null, "tract_id": "40019893100", "tract_name": "8931", "tags": {"addr:city": "Ardmore", "addr:housenumber": "1101", "addr:postcode": "73401", "addr:state": "OK", "addr:street": "Grand Avenue", "amenity": "fast_food", "brand": "Sonic", "brand:wikidata": "Q7561808", "building": "yes", "cuisine": "burger", "drive_in": "yes", "name": "Sonic", "opening_hours": "Mo-Sa 06:00-22:00; Su 07:00-22:00", "phone": "+1 580-223-7050", "takeaway": "yes", "website": "https://locations.sonicdrivein.com/ok/ardmore/1101-grand-avenue.html"}}}, {"type": "Feature", "geometry": {"type": "Polygon", "coordinates": [[[-97.1425572, 34.1881328], [-97.1425554, 34.1877587], [-97.1422464, 34.1877597], [-97.1422478, 34.1880697], [-97.1423214, 34.1881336], [-97.1425572, 34.1881328]]]}, "properties": {"osm_id": 865237548, "building": "yes", "name": "CVS Pharmacy", "height": null, "height_m": null, "levels": null, "tract_id": "40019893100", "tract_name": "8931", "tags": {"addr:city": "Ardmore", "addr:housenumber": "1220", "addr:postcode": "73401", "addr:state": "OK", "addr:street": "North Commerce Street", "brand": "CVS Pharmacy", "brand:website": "https://www.cvs.com/", "brand:wikidata": "Q2078880", "building": "yes", "name": "CVS Pharmacy", "shop": "chemist", "short_name": "CVS", "website": "https://www.cvs.com/store-locator/ardmore-ok-pharmacies/1220-n-commerce-st-ardmore-ok-73401/storeid=6222"}}}, {"type": "Feature", "geometry": {"type": "Polygon", "coordinates": [[[-97.1231619, 34.1859856], [-97.1232553, 34.1857215], [-97.1229934, 34.1856582], [-97.1229001, 34.1859223], [-97.1231619, 34.1859856]]]}, "properties": {"osm_id": 865464317, "building": "yes", "name": "Family Dollar", "height": null, "height_m": null, "levels": null, "tract_id": "40019893100", "tract_name": "8931", "tags": {"addr:city": "Ardmore", "addr:housenumber": "1314", "addr:postcode": "73401", "addr:state": "OK", "addr:street": "North Washington Street", "brand": "Family Dollar", "brand:wikidata": "Q5433101", "building": "yes", "name": "Family Dollar", "shop": "variety_store"}}}, {"type": "Feature", "geometry": {"type": "Polygon", "coordinates": [[[-97.1409403, 34.1802891], [-97.1406104, 34.1803537], [-97.1404899, 34.1799329], [-97.1409175, 34.1798491], [-97.1409409, 34.1799309], [-97.1408433, 34.17995], [-97.1409403, 34.1802891]]]}, "properties": {"osm_id": 1026633853, "building": "yes", "name": "Good Time Lanes", "height": null, "height_m": null, "levels": null, "tract_id": "40019893100", "tract_name": "8931", "tags": {"addr:city": "Ardmore", "addr:housenumber": "1019", "addr:postcode": "73401", "addr:state": "OK", "addr:street": "Grand Avenue", "building": "yes", "leisure": "bowling_alley", "name": "Good Time Lanes"}}}, {"type": "Feature", "geometry": {"type": "Polygon", "coordinates": [[[-97.1362181, 34.1831363], [-97.1363302, 34.1831182], [-97.1363671, 34.1832751], [-97.1362551, 34.1832932], [-97.1362181, 34.1831363]]]}, "properties": {"osm_id": 1134305878, "building": "yes", "name": "", "height": null, "height_m": null, "levels": null, "tract_id": "40019893100", "tract_name": "8931", "tags": {"building": "yes"}}}, {"type": "Feature", "geometry": {"type": "Polygon", "coordinates": [[[-97.1259233, 34.1780127], [-97.1258837, 34.1780333], [-97.1259655, 34.178162], [-97.1259702, 34.1782446], [-97.1259508, 34.1782979], [-97.1259897, 34.1783073], [-97.1260096, 34.1782535], [-97.1260158, 34.178142], [-97.1259233, 34.1780127]]]}, "properties": {"osm_id": 1134305890, "building": "roof", "name": "", "height": null, "height_m": null, "levels": null, "tract_id": "40019893100", "tract_name": "8931", "tags": {"building": "roof", "layer": "1"}}}, {"type": "Feature", "geometry": {"type": "Polygon", "coordinates": [[[-97.1257707, 34.1781045], [-97.1258181, 34.1781665], [-97.1257508, 34.1783563], [-97.1255696, 34.1783139], [-97.1256569, 34.1780762], [-97.1257707, 34.1781045]]]}, "properties": {"osm_id": 1134305891, "building": "yes", "name": "", "height": null, "height_m": null, "levels": null, "tract_id": "40019893100", "tract_name": "8931", "tags": {"building": "yes"}}}, {"type": "Feature", "geometry": {"type": "Polygon", "coordinates": [[[-97.1277867, 34.1792398], [-97.127886, 34.1789569], [-97.1280769, 34.1790027], [-97.1279777, 34.1792857], [-97.1277867, 34.1792398]]]}, "properties": {"osm_id": 1134305892, "building": "yes", "name": "", "height": null, "height_m": null, "levels": null, "tract_id": "40019893100", "tract_name": "8931", "tags": {"building": "yes"}}}, {"type": "Feature", "geometry": {"type": "Polygon", "coordinates": [[[-97.1422065, 34.1869862], [-97.1422496, 34.1865911], [-97.1417505, 34.186558], [-97.1417135, 34.1869633], [-97.1422065, 34.1869862]]]}, "properties": {"osm_id": 1279825394, "building": "retail", "name": "Citizen's Bank", "height": null, "height_m": null, "levels": null, "tract_id": "40019893100", "tract_name": "8931", "tags": {"amenity": "bank", "building": "retail", "name": "Citizen's Bank"}}}, {"type": "Feature", "geometry": {"type": "Polygon", "coordinates": [[[-97.1424544, 34.1856445], [-97.1426135, 34.1856607], [-97.1425729, 34.1859354], [-97.1424366, 34.1859216], [-97.1424298, 34.1859674], [-97.1423745, 34.1859618], [-97.1423633, 34.1860374], [-97.1422715, 34.1860281], [-97.1422866, 34.1859258], [-97.142179, 34.1859149], [-97.1422197, 34.1856387], [-97.1422987, 34.1856466], [-97.1423056, 34.1856001], [-97.1424587, 34.1856156], [-97.1424544, 34.1856445]]]}, "properties": {"osm_id": 1395942181, "building": "yes", "name": "", "height": null, "height_m": null, "levels": null, "tract_id": "40019893100", "tract_name": "8931", "tags": {"building": "yes"}}}]}