{"type": "FeatureCollection", "features": [{"type": "Feature", "geometry": {"type": "Polygon", "coordinates": [[[-99.0275823, 34.3855375], [-99.0274532, 34.3854941], [-99.0273497, 34.3857037], [-99.0271743, 34.3857043], [-99.027175, 34.3858569], [-99.0272811, 34.3858566], [-99.0272808, 34.3857978], [-99.0273556, 34.3857976], [-99.0274566, 34.3858316], [-99.0274767, 34.3857911], [-99.0274996, 34.3857988], [-99.0275181, 34.3857614], [-99.0274783, 34.385748], [-99.0275823, 34.3855375]]]}, "properties": {"osm_id": 1079290885, "building": "church", "name": "First Baptist Church", "height": null, "height_m": null, "levels": null, "tract_id": "40141070400", "tract_name": "704", "tags": {"amenity": "place_of_worship", "building": "church", "denomination": "baptist", "ele": "397", "gnis:feature_id": "1798204", "name": "First Baptist Church", "religion": "christian"}}}, {"type": "Feature", "geometry": {"type": "Polygon", "coordinates": [[[-99.0118119, 34.3777736], [-99.0118131, 34.377864], [-99.0117691, 34.3778644], [-99.0117696, 34.3779015], [-99.0116355, 34.3779027], [-99.0116346, 34.3778355], [-99.0115542, 34.3778362], [-99.0115565, 34.3780067], [-99.0119223, 34.3780033], [-99.0119191, 34.3777725], [-99.0118119, 34.3777736]]]}, "properties": {"osm_id": 1079291563, "building": "church", "name": "Assembly of God Church", "height": null, "height_m": null, "levels": null, "tract_id": "40141070400", "tract_name": "704", "tags": {"amenity": "place_of_worship", "building": "church", "name": "Assembly of God Church", "religion": "christian"}}}, {"type": "Feature", "geometry": {"type": "Polygon", "coordinates": [[[-99.0105249, 34.3791946], [-99.0105225, 34.3790596], [-99.010268, 34.3790627], [-99.0102656, 34.3789303], [-99.0101265, 34.378932], [-99.0101287, 34.3790524], [-99.0101113, 34.3790527], [-99.0101139, 34.3791996], [-99.0105249, 34.3791946]]]}, "properties": {"osm_id": 1079291564, "building": "church", "name": "", "height": null, "height_m": null, "levels": null, "tract_id": "40141070400", "tract_name": "704", "tags": {"amenity": "place_of_worship", "building": "church", "religion": "christian"}}}, {"type": "Feature", "geometry": {"type": "Polygon", "coordinates": [[[-99.0130906, 34.3821167], [-99.0130866, 34.3820052], [-99.0129091, 34.3820096], [-99.0129131, 34.382121], [-99.0130906, 34.3821167]]]}, "properties": {"osm_id": 1079291565, "building": "church", "name": "Carter Church of Christ", "height": null, "height_m": null, "levels": null, "tract_id": "40141070400", "tract_name": "704", "tags": {"amenity": "place_of_worship", "building": "church", "name": "Carter Church of Christ", "religion": "christian"}}}, {"type": "Feature", "geometry": {"type": "Polygon", "coordinates": [[[-99.0043995, 34.386001], [-99.0043993, 34.385879], [-99.0040482, 34.3858795], [-99.0040485, 34.3860015], [-99.0043995, 34.386001]]]}, "properties": {"osm_id": 1079293266, "building": "church", "name": "First Missionary Baptist Church", "height": null, "height_m": null, "levels": null, "tract_id": "40141070400", "tract_name": "704", "tags": {"amenity": "place_of_worship", "building": "church", "denomination": "baptist", "ele": "389", "gnis:feature_id": "1798206", "name": "First Missionary Baptist Church", "religion": "christian"}}}, {"type": "Feature", "geometry": {"type": "Polygon", "coordinates": [[[-99.0027024, 34.3865718], [-99.0027018, 34.3861875], [-99.0025701, 34.3861877], [-99.0025705, 34.3864225], [-99.0025251, 34.3864226], [-99.0025252, 34.3864484], [-99.0023405, 34.3864485], [-99.0023406, 34.3865734], [-99.0025221, 34.3865732], [-99.0025221, 34.3865971], [-99.002595, 34.386597], [-99.0025949, 34.386572], [-99.0027024, 34.3865718]]]}, "properties": {"osm_id": 1079293267, "building": "church", "name": "", "height": null, "height_m": null, "levels": null, "tract_id": "40141070400", "tract_name": "704", "tags": {"amenity": "place_of_worship", "building": "church", "religion": "christian"}}}, {"type": "Feature", "geometry": {"type": "Polygon", "coordinates": [[[-99.0081031, 34.3878595], [-99.0080274, 34.3878612], [-99.0080287, 34.3879006], [-99.0079681, 34.3879019], [-99.0079727, 34.3880451], [-99.0080301, 34.3880438], [-99.0080312, 34.3880761], [-99.0081083, 34.3880744], [-99.0081062, 34.3880075], [-99.008129, 34.388007], [-99.0081266, 34.3879306], [-99.0081054, 34.3879311], [-99.0081031, 34.3878595]]]}, "properties": {"osm_id": 1079293279, "building": "yes", "name": "Municipal Bathing Pool", "height": null, "height_m": null, "levels": null, "tract_id": "40141070400", "tract_name": "704", "tags": {"building": "yes", "name": "Municipal Bathing Pool"}}}, {"type": "Feature", "geometry": {"type": "Polygon", "coordinates": [[[-99.0079061, 34.3898163], [-99.0079027, 34.3897349], [-99.0077096, 34.3897406], [-99.007713, 34.3898219], [-99.0079061, 34.3898163]]]}, "properties": {"osm_id": 1079293280, "building": "church", "name": "", "height": null, "height_m": null, "levels": null, "tract_id": "40141070400", "tract_name": "704", "tags": {"building": "church"}}}, {"type": "Feature", "geometry": {"type": "Polygon", "coordinates": [[[-99.0160694, 34.3810828], [-99.0160724, 34.3805277], [-99.0159362, 34.3805272], [-99.0159333, 34.3810823], [-99.0160694, 34.3810828]]]}, "properties": {"osm_id": 1079295804, "building": "garages", "name": "", "height": null, "height_m": null, "levels": null, "tract_id": "40141070400", "tract_name": "704", "tags": {"building": "garages", "shop": "storage_rental"}}}, {"type": "Feature", "geometry": {"type": "Polygon", "coordinates": [[[-99.01842, 34.3774832], [-99.0184187, 34.3773242], [-99.0180912, 34.377326], [-99.0180925, 34.3774851], [-99.01842, 34.3774832]]]}, "properties": {"osm_id": 1079295810, "building": "commercial", "name": "", "height": null, "height_m": null, "levels": null, "tract_id": "40141070400", "tract_name": "704", "tags": {"building": "commercial", "industrial": "auto_wrecker"}}}, {"type": "Feature", "geometry": {"type": "Polygon", "coordinates": [[[-99.0178439, 34.3915228], [-99.0178452, 34.3912873], [-99.0175354, 34.3912863], [-99.0175342, 34.3915217], [-99.0176025, 34.391522], [-99.0176333, 34.3915448], [-99.0176758, 34.3915516], [-99.0177106, 34.3915511], [-99.0177466, 34.3915441], [-99.0177829, 34.3915226], [-99.0178439, 34.3915228]]]}, "properties": {"osm_id": 1079297146, "building": "yes", "name": "Tillman County Courthouse", "height": null, "height_m": null, "levels": null, "tract_id": "40141070400", "tract_name": "704", "tags": {"amenity": "courthouse", "building": "yes", "layer": "1", "name": "Tillman County Courthouse"}}}, {"type": "Feature", "geometry": {"type": "Polygon", "coordinates": [[[-99.0253856, 34.3897233], [-99.025274, 34.3896367], [-99.0251524, 34.3897435], [-99.0252641, 34.38983], [-99.0253856, 34.3897233]]]}, "properties": {"osm_id": 1079302672, "building": "chapel", "name": "Saint Paul AME Church", "height": null, "height_m": null, "levels": null, "tract_id": "40141070400", "tract_name": "704", "tags": {"amenity": "place_of_worship", "building": "chapel", "denomination": "african_methodist_episcopal", "name": "Saint Paul AME Church", "religion": "christian"}}}, {"type": "Feature", "geometry": {"type": "Polygon", "coordinates": [[[-99.0259688, 34.3874463], [-99.0259675, 34.3873622], [-99.0257258, 34.3873648], [-99.0257271, 34.3874489], [-99.0259688, 34.3874463]]]}, "properties": {"osm_id": 1079302673, "building": "chapel", "name": "Hawkins Chapel Church of God", "height": null, "height_m": null, "levels": null, "tract_id": "40141070400", "tract_name": "704", "tags": {"amenity": "place_of_worship", "building": "chapel", "ele": "400", "gnis:feature_id": "1798208", "name": "Hawkins Chapel Church of God", "religion": "christian"}}}, {"type": "Feature", "geometry": {"type": "Polygon", "coordinates": [[[-99.0247018, 34.3860575], [-99.0247022, 34.3859021], [-99.0246527, 34.385902], [-99.0246526, 34.3859421], [-99.0244629, 34.3859419], [-99.0244627, 34.3860455], [-99.0246438, 34.3860458], [-99.0246437, 34.3860574], [-99.0247018, 34.3860575]]]}, "properties": {"osm_id": 1079302674, "building": "chapel", "name": "", "height": null, "height_m": null, "levels": null, "tract_id": "40141070400", "tract_name": "704", "tags": {"abandoned": "building", "building": "chapel", "disused:amenity": "place_of_worship", "religion": "christian"}}}, {"type": "Feature", "geometry": {"type": "Polygon", "coordinates": [[[-99.0241776, 34.3850354], [-99.0241798, 34.3847563], [-99.0238293, 34.3847544], [-99.0238277, 34.3849428], [-99.0239712, 34.3849436], [-99.023972, 34.3848482], [-99.0240679, 34.3848487], [-99.0240664, 34.3850348], [-99.0241776, 34.3850354]]]}, "properties": {"osm_id": 1079302675, "building": "church", "name": "", "height": null, "height_m": null, "levels": null, "tract_id": "40141070400", "tract_name": "704", "tags": {"amenity": "place_of_worship", "building": "church", "religion": "christian"}}}, {"type": "Feature", "geometry": {"type": "Polygon", "coordinates": [[[-99.0276478, 34.3823198], [-99.027646, 34.3822356], [-99.0276059, 34.3822362], [-99.0276046, 34.3821733], [-99.027565, 34.3821739], [-99.0275645, 34.3821488], [-99.0275025, 34.3821498], [-99.0275043, 34.3822315], [-99.0274497, 34.3822323], [-99.0274516, 34.3823227], [-99.0276478, 34.3823198]]]}, "properties": {"osm_id": 1079302676, "building": "chapel", "name": "", "height": null, "height_m": null, "levels": null, "tract_id": "40141070400", "tract_name": "704", "tags": {"abandoned": "yes", "building": "chapel", "disused:amenity": "place_of_worship", "religion": "christian"}}}, {"type": "Feature", "geometry": {"type": "Polygon", "coordinates": [[[-99.0168392, 34.3781548], [-99.0168319, 34.3776746], [-99.016623, 34.3776768], [-99.0166242, 34.3777573], [-99.0164659, 34.3777589], [-99.0164701, 34.3780263], [-99.0166771, 34.3780241], [-99.0166791, 34.3781565], [-99.0168392, 34.3781548]]]}, "properties": {"osm_id": 1079303592, "building": "yes", "name": "", "height": null, "height_m": null, "levels": null, "tract_id": "40141070400", "tract_name": "704", "tags": {"building": "yes", "office": "government"}}}, {"type": "Feature", "geometry": {"type": "Polygon", "coordinates": [[[-99.0168657, 34.3786355], [-99.0168732, 34.3783407], [-99.0166916, 34.3783375], [-99.0166903, 34.3783876], [-99.0166408, 34.3783867], [-99.0166346, 34.3786315], [-99.0168657, 34.3786355]]]}, "properties": {"osm_id": 1079303593, "building": "yes", "name": "Lucy's", "height": null, "height_m": null, "levels": null, "tract_id": "40141070400", "tract_name": "704", "tags": {"addr:city": "Frederick", "addr:housenumber": "1120", "addr:postcode": "73542", "addr:street": "South Main Street", "amenity": "restaurant", "building": "yes", "name": "Lucy's"}}}, {"type": "Feature", "geometry": {"type": "Polygon", "coordinates": [[[-99.0167813, 34.3834791], [-99.0167817, 34.3833734], [-99.0165447, 34.3833728], [-99.0165443, 34.3834786], [-99.0167813, 34.3834791]]]}, "properties": {"osm_id": 1079303594, "building": "yes", "name": "Pizza Hut", "height": null, "height_m": null, "levels": null, "tract_id": "40141070400", "tract_name": "704", "tags": {"addr:city": "Frederick", "addr:housenumber": "618", "addr:postcode": "73542", "addr:state": "OK", "addr:street": "South Main Street", "amenity": "restaurant", "brand": "Pizza Hut", "brand:wikidata": "Q191615", "building": "yes", "cuisine": "pizza", "name": "Pizza Hut", "opening_hours": "Mo-Su 11:00-22:00", "phone": "+1 580-335-7588", "website": "https://locations.pizzahut.com/ok/frederick/618-s-main-st"}}}, {"type": "Feature", "geometry": {"type": "Polygon", "coordinates": [[[-99.0142533, 34.3899729], [-99.0142572, 34.390093], [-99.0139447, 34.3900998], [-99.0139573, 34.3904907], [-99.0141815, 34.3904858], [-99.0141726, 34.3902082], [-99.0143619, 34.3902041], [-99.0143495, 34.3898124], [-99.0139724, 34.3898206], [-99.0139774, 34.3899789], [-99.0142533, 34.3899729]]]}, "properties": {"osm_id": 1079304337, "building": "church", "name": "First United Methodist Church", "height": null, "height_m": null, "levels": null, "tract_id": "40141070400", "tract_name": "704", "tags": {"amenity": "place_of_worship", "building": "church", "denomination": "methodist", "ele": "395", "gnis:feature_id": "1798202", "name": "First United Methodist Church", "religion": "christian"}}}, {"type": "Feature", "geometry": {"type": "Polygon", "coordinates": [[[-99.0154211, 34.3901306], [-99.0155836, 34.3901291], [-99.0155818, 34.3900002], [-99.0155551, 34.3900004], [-99.0155527, 34.3898264], [-99.015379, 34.389828], [-99.0153807, 34.3899503], [-99.0152039, 34.3899519], [-99.0152063, 34.3901303], [-99.015377, 34.3901287], [-99.0154211, 34.3901306]]]}, "properties": {"osm_id": 1079304338, "building": "church", "name": "First Baptist Church", "height": null, "height_m": null, "levels": null, "tract_id": "40141070400", "tract_name": "704", "tags": {"amenity": "place_of_worship", "building": "church", "denomination": "baptist", "ele": "396", "gnis:feature_id": "1798203", "name": "First Baptist Church", "religion": "christian"}}}, {"type": "Feature", "geometry": {"type": "Polygon", "coordinates": [[[-99.0155734, 34.3903828], [-99.0155694, 34.3901933], [-99.0152045, 34.3901985], [-99.0152078, 34.3903559], [-99.0153544, 34.3903538], [-99.0153551, 34.3903859], [-99.0155734, 34.3903828]]]}, "properties": {"osm_id": 1079304340, "building": "school", "name": "", "height": null, "height_m": null, "levels": null, "tract_id": "40141070400", "tract_name": "704", "tags": {"building": "school"}}}, {"type": "Feature", "geometry": {"type": "Polygon", "coordinates": [[[-99.0176434, 34.3784341], [-99.0176444, 34.3783338], [-99.0174559, 34.3783326], [-99.0174549, 34.3784329], [-99.0176434, 34.3784341]]]}, "properties": {"osm_id": 1079306159, "building": "yes", "name": "Tanglewood Motel", "height": null, "height_m": null, "levels": null, "tract_id": "40141070400", "tract_name": "704", "tags": {"addr:city": "Frederick", "addr:housenumber": "1123", "addr:postcode": "73542", "addr:street": "South Main Street", "building": "yes", "name": "Tanglewood Motel", "tourism": "motel"}}}, {"type": "Feature", "geometry": {"type": "Polygon", "coordinates": [[[-99.0168098, 34.3804448], [-99.0168101, 34.3803291], [-99.0167322, 34.380329], [-99.0167321, 34.3803419], [-99.0166277, 34.3803417], [-99.0166274, 34.3804249], [-99.0167334, 34.3804251], [-99.0167334, 34.3804446], [-99.0168098, 34.3804448]]]}, "properties": {"osm_id": 1079306161, "building": "yes", "name": "", "height": null, "height_m": null, "levels": null, "tract_id": "40141070400", "tract_name": "704", "tags": {"amenity": "car_wash", "building": "yes"}}}, {"type": "Feature", "geometry": {"type": "Polygon", "coordinates": [[[-99.016632, 34.3821155], [-99.0166301, 34.3820286], [-99.0164872, 34.3820308], [-99.0164891, 34.3821176], [-99.016632, 34.3821155]]]}, "properties": {"osm_id": 1079306163, "building": "yes", "name": "Subway", "height": null, "height_m": null, "levels": null, "tract_id": "40141070400", "tract_name": "704", "tags": {"addr:city": "Frederick", "addr:housenumber": "800", "addr:postcode": "73542", "addr:state": "OK", "addr:street": "South Main Street", "amenity": "fast_food", "brand": "Subway", "brand:wikidata": "Q244457", "building": "yes", "cuisine": "sandwich", "name": "Subway", "opening_hours": "Mo-Sa 06:30-20:00; Su 09:00-20:00", "phone": "+1 580-335-7777", "takeaway": "yes", "website": "https://restaurants.subway.com/united-states/ok/frederick/800-s-main"}}}, {"type": "Feature", "geometry": {"type": "Polygon", "coordinates": [[[-99.0172954, 34.3835033], [-99.017296, 34.383416], [-99.0175707, 34.3834172], [-99.0175701, 34.3835046], [-99.0172954, 34.3835033]]]}, "properties": {"osm_id": 1079306164, "building": "yes", "name": "Frederick Florist", "height": null, "height_m": null, "levels": null, "tract_id": "40141070400", "tract_name": "704", "tags": {"addr:city": "Frederick", "addr:housenumber": "621", "addr:postcode": "73542", "addr:street": "South Main Street", "building": "yes", "name": "Frederick Florist", "shop": "florist"}}}, {"type": "Feature", "geometry": {"type": "Polygon", "coordinates": [[[-99.0175204, 34.3851094], [-99.0175202, 34.3849731], [-99.0171995, 34.3849733], [-99.0171996, 34.3851096], [-99.0175204, 34.3851094]]]}, "properties": {"osm_id": 1079306166, "building": "yes", "name": "NAPA Auto Parts", "height": null, "height_m": null, "levels": null, "tract_id": "40141070400", "tract_name": "704", "tags": {"addr:city": "Frederick", "addr:housenumber": "503", "addr:postcode": "73542", "addr:street": "South Main Street", "brand": "NAPA Auto Parts", "brand:wikidata": "Q6970842", "building": "yes", "name": "NAPA Auto Parts", "opening_hours": "Mo-Fr 07:30-18:30; Sa 07:30-16:00", "shop": "car_parts"}}}, {"type": "Feature", "geometry": {"type": "Polygon", "coordinates": [[[-99.0175206, 34.3849691], [-99.0175204, 34.3848329], [-99.0171997, 34.384833], [-99.0171998, 34.3849693], [-99.0175206, 34.3849691]]]}, "properties": {"osm_id": 1079306167, "building": "yes", "name": "", "height": null, "height_m": null, "levels": null, "tract_id": "40141070400", "tract_name": "704", "tags": {"building": "yes"}}}, {"type": "Feature", "geometry": {"type": "Polygon", "coordinates": [[[-99.0167489, 34.3850088], [-99.0167473, 34.3849461], [-99.0164856, 34.3849509], [-99.0164872, 34.3850136], [-99.0167489, 34.3850088]]]}, "properties": {"osm_id": 1079306168, "building": "yes", "name": "Sonic", "height": null, "height_m": null, "levels": null, "tract_id": "40141070400", "tract_name": "704", "tags": {"addr:city": "Frederick", "addr:housenumber": "500", "addr:postcode": "73542", "addr:state": "OK", "addr:street": "South Main Street", "amenity": "fast_food", "brand": "Sonic", "brand:wikidata": "Q7561808", "building": "yes", "cuisine": "burger", "drive_in": "yes", "name": "Sonic", "opening_hours": "Mo-Th 07:00-22:00; Fr,Sa 07:00-23:00; Su 08:00-22:00", "takeaway": "yes", "website": "https://locations.sonicdrivein.com/ok/frederick/500-s-main-street.html"}}}, {"type": "Feature", "geometry": {"type": "Polygon", "coordinates": [[[-99.0176652, 34.3861756], [-99.0176652, 34.3860075], [-99.0176087, 34.3860075], [-99.0176086, 34.3857343], [-99.0175859, 34.3857343], [-99.0175859, 34.3856288], [-99.0172711, 34.3856288], [-99.0172711, 34.3857313], [-99.0172941, 34.3857313], [-99.0172942, 34.386011], [-99.0172001, 34.3860111], [-99.0172001, 34.3861757], [-99.0176652, 34.3861756]]]}, "properties": {"osm_id": 1079306169, "building": "yes", "name": "Quality Implement Co", "height": null, "height_m": null, "levels": null, "tract_id": "40141070400", "tract_name": "704", "tags": {"addr:city": "Frederick", "addr:housenumber": "401", "addr:postcode": "73542", "addr:street": "South Main Street", "brand": "John Deere", "brand:wikidata": "Q496302", "building": "yes", "name": "Quality Implement Co", "shop": "trade", "trade": "agricultural_equipment"}}}, {"type": "Feature", "geometry": {"type": "Polygon", "coordinates": [[[-99.0188896, 34.3914879], [-99.0188899, 34.3913873], [-99.0187226, 34.3913869], [-99.0187223, 34.3914875], [-99.0188896, 34.3914879]]]}, "properties": {"osm_id": 1079525897, "building": "barn", "name": "The Barn", "height": null, "height_m": null, "levels": null, "tract_id": "40141070400", "tract_name": "704", "tags": {"building": "barn", "name": "The Barn"}}}, {"type": "Feature", "geometry": {"type": "Polygon", "coordinates": [[[-99.0188202, 34.3912653], [-99.0188182, 34.3911584], [-99.0187217, 34.3911597], [-99.0187237, 34.3912665], [-99.0187728, 34.3912659], [-99.0188202, 34.3912653]]]}, "properties": {"osm_id": 1079525898, "building": "church", "name": "AME Church", "height": null, "height_m": null, "levels": null, "tract_id": "40141070400", "tract_name": "704", "tags": {"building": "church", "denomination": "african_methodist_episcopal", "disused:amenity": "place_of_worship", "name": "AME Church", "religion": "christian"}}}, {"type": "Feature", "geometry": {"type": "Polygon", "coordinates": [[[-99.0193654, 34.3913489], [-99.0192609, 34.3913485], [-99.0192632, 34.3909061], [-99.0193678, 34.3909064], [-99.0193654, 34.3913489]]]}, "properties": {"osm_id": 1079525900, "building": "yes", "name": "Frisco Depot", "height": null, "height_m": null, "levels": null, "tract_id": "40141070400", "tract_name": "704", "tags": {"building": "yes", "name": "Frisco Depot"}}}, {"type": "Feature", "geometry": {"type": "Polygon", "coordinates": [[[-99.0188569, 34.3910161], [-99.0188567, 34.3910032], [-99.0188553, 34.3909217], [-99.0187305, 34.3909231], [-99.018732, 34.3910176], [-99.0187424, 34.3910175], [-99.0188569, 34.3910161]]]}, "properties": {"osm_id": 1079525902, "building": "yes", "name": "Tillman County Historical Museum", "height": null, "height_m": null, "levels": null, "tract_id": "40141070400", "tract_name": "704", "tags": {"building": "yes", "museum": "history", "name": "Tillman County Historical Museum", "opening_hours": "Tu-Sa 11:30-14:30", "tourism": "museum"}}}, {"type": "Feature", "geometry": {"type": "Polygon", "coordinates": [[[-99.0186382, 34.3910248], [-99.0186361, 34.3909564], [-99.0185147, 34.3909588], [-99.0185152, 34.3909759], [-99.0184855, 34.3909765], [-99.0184866, 34.3910122], [-99.0185153, 34.3910117], [-99.0185158, 34.3910273], [-99.0186382, 34.3910248]]]}, "properties": {"osm_id": 1079525903, "building": "school", "name": "Horse Creek School", "height": null, "height_m": null, "levels": null, "tract_id": "40141070400", "tract_name": "704", "tags": {"building": "school", "name": "Horse Creek School"}}}, {"type": "Feature", "geometry": {"type": "Polygon", "coordinates": [[[-99.0186021, 34.3912687], [-99.0186026, 34.3912414], [-99.0186219, 34.3912417], [-99.0186317, 34.3912418], [-99.0186328, 34.391191], [-99.0186219, 34.3911909], [-99.018602, 34.3911906], [-99.0186029, 34.3911515], [-99.0185144, 34.3911502], [-99.0185119, 34.3912668], [-99.0185215, 34.3912669], [-99.0185211, 34.3912861], [-99.018554, 34.3912866], [-99.0185911, 34.3912872], [-99.0185913, 34.3912758], [-99.0185915, 34.3912686], [-99.0186021, 34.3912687]]]}, "properties": {"osm_id": 1079525904, "building": "yes", "name": "General Store", "height": null, "height_m": null, "levels": null, "tract_id": "40141070400", "tract_name": "704", "tags": {"building": "yes", "name": "General Store"}}}, {"type": "Feature", "geometry": {"type": "Polygon", "coordinates": [[[-99.0192753, 34.3914399], [-99.0194139, 34.3914401], [-99.0194133, 34.3918223], [-99.0192748, 34.3918222], [-99.0192753, 34.3914399]]]}, "properties": {"osm_id": 1079525905, "building": "yes", "name": "Implement Shed", "height": null, "height_m": null, "levels": null, "tract_id": "40141070400", "tract_name": "704", "tags": {"building": "yes", "name": "Implement Shed"}}}, {"type": "Feature", "geometry": {"type": "Polygon", "coordinates": [[[-99.0191388, 34.3918131], [-99.01914, 34.391728], [-99.0190522, 34.3917272], [-99.019051, 34.3918123], [-99.0191388, 34.3918131]]]}, "properties": {"osm_id": 1079525906, "building": "yes", "name": "", "height": null, "height_m": null, "levels": null, "tract_id": "40141070400", "tract_name": "704", "tags": {"building": "yes"}}}, {"type": "Feature", "geometry": {"type": "Polygon", "coordinates": [[[-99.0189077, 34.3917078], [-99.0189069, 34.3916755], [-99.0188615, 34.3916763], [-99.0188624, 34.3917086], [-99.0189077, 34.3917078]]]}, "properties": {"osm_id": 1079525907, "building": "yes", "name": "The Nill House", "height": null, "height_m": null, "levels": null, "tract_id": "40141070400", "tract_name": "704", "tags": {"building": "yes", "name": "The Nill House"}}}, {"type": "Feature", "geometry": {"type": "Polygon", "coordinates": [[[-99.0187457, 34.3917295], [-99.0187461, 34.391682], [-99.0186713, 34.3916816], [-99.018671, 34.3917291], [-99.0187457, 34.3917295]]]}, "properties": {"osm_id": 1079525908, "building": "yes", "name": "", "height": null, "height_m": null, "levels": null, "tract_id": "40141070400", "tract_name": "704", "tags": {"building": "yes"}}}, {"type": "Feature", "geometry": {"type": "Polygon", "coordinates": [[[-99.0186857, 34.3916596], [-99.0186869, 34.3915748], [-99.018491, 34.3915728], [-99.0184898, 34.3916577], [-99.0186857, 34.3916596]]]}, "properties": {"osm_id": 1079525909, "building": "yes", "name": "Farm House", "height": null, "height_m": null, "levels": null, "tract_id": "40141070400", "tract_name": "704", "tags": {"building": "yes", "name": "Farm House"}}}, {"type": "Feature", "geometry": {"type": "Polygon", "coordinates": [[[-99.0185477, 34.3918742], [-99.0185465, 34.3917476], [-99.0184377, 34.3917483], [-99.0184389, 34.3918749], [-99.0185477, 34.3918742]]]}, "properties": {"osm_id": 1079527846, "building": "yes", "name": "", "height": null, "height_m": null, "levels": null, "tract_id": "40141070400", "tract_name": "704", "tags": {"building": "yes"}}}, {"type": "Feature", "geometry": {"type": "Polygon", "coordinates": [[[-99.0194565, 34.3887512], [-99.0194508, 34.3884813], [-99.0189882, 34.3884879], [-99.0189939, 34.3887579], [-99.0194565, 34.3887512]]]}, "properties": {"osm_id": 1082210899, "building": "civic", "name": "", "height": null, "height_m": null, "levels": null, "tract_id": "40141070400", "tract_name": "704", "tags": {"amenity": "fire_station", "building": "civic"}}}, {"type": "Feature", "geometry": {"type": "Polygon", "coordinates": [[[-99.019825, 34.3908964], [-99.0198196, 34.3912815], [-99.019635, 34.3912797], [-99.0196403, 34.3908946], [-99.019825, 34.3908964]]]}, "properties": {"osm_id": 1161308608, "building": "yes", "name": "", "height": null, "height_m": null, "levels": null, "tract_id": "40141070400", "tract_name": "704", "tags": {"building": "yes"}}}, {"type": "Feature", "geometry": {"type": "Polygon", "coordinates": [[[-99.0284751, 34.3916301], [-99.0280929, 34.3916235], [-99.0280987, 34.3913955], [-99.028481, 34.3914021], [-99.0284751, 34.3916301]]]}, "properties": {"osm_id": 1161308616, "building": "yes", "name": "", "height": null, "height_m": null, "levels": null, "tract_id": "40141070400", "tract_name": "704", "tags": {"building": "yes"}}}, {"type": "Feature", "geometry": {"type": "Polygon", "coordinates": [[[-99.0234004, 34.3906507], [-99.023395, 34.3903851], [-99.0235353, 34.3903831], [-99.0235407, 34.3906488], [-99.0234004, 34.3906507]]]}, "properties": {"osm_id": 1161308617, "building": "yes", "name": "", "height": null, "height_m": null, "levels": null, "tract_id": "40141070400", "tract_name": "704", "tags": {"building": "yes"}}}, {"type": "Feature", "geometry": {"type": "Polygon", "coordinates": [[[-99.0235533, 34.3891655], [-99.0236418, 34.3891655], [-99.0236418, 34.3893415], [-99.0235533, 34.3893415], [-99.0235533, 34.3891655]]]}, "properties": {"osm_id": 1161308618, "building": "yes", "name": "", "height": null, "height_m": null, "levels": null, "tract_id": "40141070400", "tract_name": "704", "tags": {"building": "yes"}}}, {"type": "Feature", "geometry": {"type": "Polygon", "coordinates": [[[-99.0238791, 34.3890512], [-99.0237653, 34.3890496], [-99.0237671, 34.3889602], [-99.0238809, 34.3889618], [-99.0238791, 34.3890512]]]}, "properties": {"osm_id": 1161308619, "building": "yes", "name": "", "height": null, "height_m": null, "levels": null, "tract_id": "40141070400", "tract_name": "704", "tags": {"building": "yes"}}}, {"type": "Feature", "geometry": {"type": "Polygon", "coordinates": [[[-99.02322, 34.3893337], [-99.0232124, 34.3889283], [-99.0234488, 34.3889253], [-99.0234563, 34.3893307], [-99.02322, 34.3893337]]]}, "properties": {"osm_id": 1161308620, "building": "yes", "name": "", "height": null, "height_m": null, "levels": null, "tract_id": "40141070400", "tract_name": "704", "tags": {"building": "yes"}}}, {"type": "Feature", "geometry": {"type": "Polygon", "coordinates": [[[-99.0215215, 34.3887704], [-99.0215939, 34.3884472], [-99.0218213, 34.3884819], [-99.0217489, 34.3888051], [-99.0215215, 34.3887704]]]}, "properties": {"osm_id": 1161308621, "building": "yes", "name": "", "height": null, "height_m": null, "levels": null, "tract_id": "40141070400", "tract_name": "704", "tags": {"building": "yes"}}}, {"type": "Feature", "geometry": {"type": "Polygon", "coordinates": [[[-99.0211366, 34.3869532], [-99.0210749, 34.3873339], [-99.0208489, 34.3873089], [-99.0209106, 34.3869282], [-99.0211366, 34.3869532]]]}, "properties": {"osm_id": 1161308622, "building": "yes", "name": "", "height": null, "height_m": null, "levels": null, "tract_id": "40141070400", "tract_name": "704", "tags": {"building": "yes"}}}, {"type": "Feature", "geometry": {"type": "Polygon", "coordinates": [[[-99.0223235, 34.3835372], [-99.022394, 34.3835506], [-99.0223645, 34.3836558], [-99.022294, 34.3836423], [-99.0223235, 34.3835372]]]}, "properties": {"osm_id": 1161308623, "building": "yes", "name": "", "height": null, "height_m": null, "levels": null, "tract_id": "40141070400", "tract_name": "704", "tags": {"building": "yes"}}}, {"type": "Feature", "geometry": {"type": "Polygon", "coordinates": [[[-99.0221266, 34.3838086], [-99.0223235, 34.3838498], [-99.0222552, 34.3840721], [-99.0220583, 34.3840309], [-99.0221266, 34.3838086]]]}, "properties": {"osm_id": 1161308624, "building": "yes", "name": "", "height": null, "height_m": null, "levels": null, "tract_id": "40141070400", "tract_name": "704", "tags": {"building": "yes"}}}, {"type": "Feature", "geometry": {"type": "Polygon", "coordinates": [[[-99.0219635, 34.3842359], [-99.0220987, 34.3842629], [-99.0220418, 34.384457], [-99.0219066, 34.38443], [-99.0219635, 34.3842359]]]}, "properties": {"osm_id": 1161308625, "building": "yes", "name": "", "height": null, "height_m": null, "levels": null, "tract_id": "40141070400", "tract_name": "704", "tags": {"building": "yes"}}}, {"type": "Feature", "geometry": {"type": "Polygon", "coordinates": [[[-99.0200637, 34.385407], [-99.0203977, 34.3854103], [-99.020391, 34.3858785], [-99.020057, 34.3858752], [-99.0200637, 34.385407]]]}, "properties": {"osm_id": 1161308627, "building": "yes", "name": "", "height": null, "height_m": null, "levels": null, "tract_id": "40141070400", "tract_name": "704", "tags": {"building": "yes"}}}, {"type": "Feature", "geometry": {"type": "Polygon", "coordinates": [[[-99.0208496, 34.3856195], [-99.0208469, 34.3852941], [-99.0210998, 34.3852927], [-99.0211025, 34.3856181], [-99.0208496, 34.3856195]]]}, "properties": {"osm_id": 1161308628, "building": "yes", "name": "", "height": null, "height_m": null, "levels": null, "tract_id": "40141070400", "tract_name": "704", "tags": {"building": "yes"}}}, {"type": "Feature", "geometry": {"type": "Polygon", "coordinates": [[[-99.0213056, 34.3842261], [-99.0215046, 34.3842237], [-99.0215113, 34.3846067], [-99.0213123, 34.3846091], [-99.0213056, 34.3842261]]]}, "properties": {"osm_id": 1161308629, "building": "yes", "name": "", "height": null, "height_m": null, "levels": null, "tract_id": "40141070400", "tract_name": "704", "tags": {"building": "yes"}}}, {"type": "Feature", "geometry": {"type": "Polygon", "coordinates": [[[-99.019349, 34.3833437], [-99.0193414, 34.3836004], [-99.0191532, 34.3835967], [-99.0191608, 34.38334], [-99.019349, 34.3833437]]]}, "properties": {"osm_id": 1161308630, "building": "yes", "name": "", "height": null, "height_m": null, "levels": null, "tract_id": "40141070400", "tract_name": "704", "tags": {"building": "yes"}}}, {"type": "Feature", "geometry": {"type": "Polygon", "coordinates": [[[-99.0173993, 34.3824187], [-99.0173998, 34.3823086], [-99.0176568, 34.3823094], [-99.0176563, 34.3824195], [-99.0173993, 34.3824187]]]}, "properties": {"osm_id": 1161308631, "building": "yes", "name": "", "height": null, "height_m": null, "levels": null, "tract_id": "40141070400", "tract_name": "704", "tags": {"building": "yes"}}}, {"type": "Feature", "geometry": {"type": "Polygon", "coordinates": [[[-99.0175406, 34.3818818], [-99.0176577, 34.3818855], [-99.0176501, 34.3820483], [-99.017533, 34.3820446], [-99.0175406, 34.3818818]]]}, "properties": {"osm_id": 1161308632, "building": "yes", "name": "", "height": null, "height_m": null, "levels": null, "tract_id": "40141070400", "tract_name": "704", "tags": {"building": "yes"}}}, {"type": "Feature", "geometry": {"type": "Polygon", "coordinates": [[[-99.0178013, 34.3820922], [-99.0177996, 34.3820334], [-99.0180303, 34.382029], [-99.018032, 34.3820878], [-99.0178013, 34.3820922]]]}, "properties": {"osm_id": 1161308633, "building": "yes", "name": "", "height": null, "height_m": null, "levels": null, "tract_id": "40141070400", "tract_name": "704", "tags": {"building": "yes"}}}, {"type": "Feature", "geometry": {"type": "Polygon", "coordinates": [[[-99.0182881, 34.381862], [-99.0182975, 34.3816429], [-99.0184381, 34.381647], [-99.0184287, 34.3818661], [-99.0182881, 34.381862]]]}, "properties": {"osm_id": 1161308634, "building": "yes", "name": "", "height": null, "height_m": null, "levels": null, "tract_id": "40141070400", "tract_name": "704", "tags": {"building": "yes"}}}, {"type": "Feature", "geometry": {"type": "Polygon", "coordinates": [[[-99.018614, 34.3815632], [-99.0187063, 34.381582], [-99.0186781, 34.3816761], [-99.0185858, 34.3816573], [-99.018614, 34.3815632]]]}, "properties": {"osm_id": 1161308635, "building": "yes", "name": "", "height": null, "height_m": null, "levels": null, "tract_id": "40141070400", "tract_name": "704", "tags": {"building": "yes"}}}, {"type": "Feature", "geometry": {"type": "Polygon", "coordinates": [[[-99.0186958, 34.3809721], [-99.0186918, 34.3807607], [-99.0188191, 34.3807591], [-99.0188231, 34.3809705], [-99.0186958, 34.3809721]]]}, "properties": {"osm_id": 1161308636, "building": "yes", "name": "", "height": null, "height_m": null, "levels": null, "tract_id": "40141070400", "tract_name": "704", "tags": {"building": "yes"}}}, {"type": "Feature", "geometry": {"type": "Polygon", "coordinates": [[[-99.0188769, 34.3802981], [-99.0188862, 34.3805759], [-99.0186966, 34.3805803], [-99.0186872, 34.3803025], [-99.0188769, 34.3802981]]]}, "properties": {"osm_id": 1161308637, "building": "yes", "name": "", "height": null, "height_m": null, "levels": null, "tract_id": "40141070400", "tract_name": "704", "tags": {"building": "yes"}}}, {"type": "Feature", "geometry": {"type": "Polygon", "coordinates": [[[-99.0190029, 34.380297], [-99.0191962, 34.3802919], [-99.0192069, 34.3805686], [-99.0190136, 34.3805737], [-99.0190029, 34.380297]]]}, "properties": {"osm_id": 1161308638, "building": "yes", "name": "", "height": null, "height_m": null, "levels": null, "tract_id": "40141070400", "tract_name": "704", "tags": {"building": "yes"}}}, {"type": "Feature", "geometry": {"type": "Polygon", "coordinates": [[[-99.0198839, 34.3812667], [-99.0198848, 34.381105], [-99.0202859, 34.3811065], [-99.020285, 34.3812682], [-99.0198839, 34.3812667]]]}, "properties": {"osm_id": 1161308639, "building": "yes", "name": "", "height": null, "height_m": null, "levels": null, "tract_id": "40141070400", "tract_name": "704", "tags": {"building": "yes"}}}, {"type": "Feature", "geometry": {"type": "Polygon", "coordinates": [[[-99.0218313, 34.3811813], [-99.021856, 34.3811072], [-99.0221416, 34.3811719], [-99.022117, 34.3812461], [-99.0218313, 34.3811813]]]}, "properties": {"osm_id": 1161308640, "building": "yes", "name": "", "height": null, "height_m": null, "levels": null, "tract_id": "40141070400", "tract_name": "704", "tags": {"building": "yes"}}}, {"type": "Feature", "geometry": {"type": "Polygon", "coordinates": [[[-99.0222489, 34.3813011], [-99.0222797, 34.3812103], [-99.0227614, 34.3813214], [-99.0227307, 34.3814122], [-99.0222489, 34.3813011]]]}, "properties": {"osm_id": 1161308641, "building": "yes", "name": "", "height": null, "height_m": null, "levels": null, "tract_id": "40141070400", "tract_name": "704", "tags": {"building": "yes"}}}, {"type": "Feature", "geometry": {"type": "Polygon", "coordinates": [[[-99.0250673, 34.3817018], [-99.0248928, 34.3817503], [-99.0248327, 34.3816031], [-99.0250072, 34.3815546], [-99.0250673, 34.3817018]]]}, "properties": {"osm_id": 1161308642, "building": "yes", "name": "", "height": null, "height_m": null, "levels": null, "tract_id": "40141070400", "tract_name": "704", "tags": {"building": "yes"}}}, {"type": "Feature", "geometry": {"type": "Polygon", "coordinates": [[[-99.0247616, 34.3812223], [-99.0241581, 34.3813927], [-99.0239396, 34.3808658], [-99.0245431, 34.3806954], [-99.0247616, 34.3812223]]]}, "properties": {"osm_id": 1161308643, "building": "yes", "name": "", "height": null, "height_m": null, "levels": null, "tract_id": "40141070400", "tract_name": "704", "tags": {"building": "yes"}}}, {"type": "Feature", "geometry": {"type": "Polygon", "coordinates": [[[-99.0249172, 34.3805095], [-99.0250756, 34.3799932], [-99.0257113, 34.380126], [-99.0255529, 34.3806423], [-99.0249172, 34.3805095]]]}, "properties": {"osm_id": 1161308644, "building": "yes", "name": "", "height": null, "height_m": null, "levels": null, "tract_id": "40141070400", "tract_name": "704", "tags": {"building": "yes"}}}, {"type": "Feature", "geometry": {"type": "Polygon", "coordinates": [[[-99.0243447, 34.3788702], [-99.0245089, 34.3783571], [-99.025112, 34.3784886], [-99.0249478, 34.3790017], [-99.0243447, 34.3788702]]]}, "properties": {"osm_id": 1161308645, "building": "yes", "name": "", "height": null, "height_m": null, "levels": null, "tract_id": "40141070400", "tract_name": "704", "tags": {"building": "yes"}}}, {"type": "Feature", "geometry": {"type": "Polygon", "coordinates": [[[-99.0240716, 34.3796466], [-99.0242383, 34.379132], [-99.0248908, 34.379276], [-99.024724, 34.3797906], [-99.0240716, 34.3796466]]]}, "properties": {"osm_id": 1161308646, "building": "yes", "name": "", "height": null, "height_m": null, "levels": null, "tract_id": "40141070400", "tract_name": "704", "tags": {"building": "yes"}}}, {"type": "Feature", "geometry": {"type": "Polygon", "coordinates": [[[-99.025183, 34.3796466], [-99.0253518, 34.3791178], [-99.0259853, 34.3792555], [-99.0258165, 34.3797843], [-99.025183, 34.3796466]]]}, "properties": {"osm_id": 1161308647, "building": "yes", "name": "", "height": null, "height_m": null, "levels": null, "tract_id": "40141070400", "tract_name": "704", "tags": {"building": "yes"}}}, {"type": "Feature", "geometry": {"type": "Polygon", "coordinates": [[[-99.0275525, 34.3916589], [-99.0273768, 34.3916655], [-99.0273702, 34.3915467], [-99.0275459, 34.3915401], [-99.0275525, 34.3916589]]]}, "properties": {"osm_id": 1162830559, "building": "yes", "name": "", "height": null, "height_m": null, "levels": null, "tract_id": "40141070400", "tract_name": "704", "tags": {"building": "yes"}}}, {"type": "Feature", "geometry": {"type": "Polygon", "coordinates": [[[-99.0264125, 34.3914342], [-99.0265221, 34.3914317], [-99.0265288, 34.3916331], [-99.0264192, 34.3916356], [-99.0264125, 34.3914342]]]}, "properties": {"osm_id": 1162830560, "building": "yes", "name": "", "height": null, "height_m": null, "levels": null, "tract_id": "40141070400", "tract_name": "704", "tags": {"building": "yes"}}}, {"type": "Feature", "geometry": {"type": "Polygon", "coordinates": [[[-99.0225327, 34.3884373], [-99.0227645, 34.3884384], [-99.0227618, 34.3888301], [-99.02253, 34.3888291], [-99.0225327, 34.3884373]]]}, "properties": {"osm_id": 1162830561, "building": "yes", "name": "", "height": null, "height_m": null, "levels": null, "tract_id": "40141070400", "tract_name": "704", "tags": {"building": "yes"}}}, {"type": "Feature", "geometry": {"type": "Polygon", "coordinates": [[[-99.0227889, 34.3886476], [-99.0230223, 34.3886464], [-99.0230236, 34.3888279], [-99.0227902, 34.3888291], [-99.0227889, 34.3886476]]]}, "properties": {"osm_id": 1162830562, "building": "yes", "name": "", "height": null, "height_m": null, "levels": null, "tract_id": "40141070400", "tract_name": "704", "tags": {"building": "yes"}}}, {"type": "Feature", "geometry": {"type": "Polygon", "coordinates": [[[-99.0193263, 34.3878171], [-99.0193244, 34.3882678], [-99.0189979, 34.3882669], [-99.0189998, 34.3878161], [-99.0193263, 34.3878171]]]}, "properties": {"osm_id": 1162830563, "building": "yes", "name": "", "height": null, "height_m": null, "levels": null, "tract_id": "40141070400", "tract_name": "704", "tags": {"building": "yes"}}}, {"type": "Feature", "geometry": {"type": "Polygon", "coordinates": [[[-99.0166332, 34.3867838], [-99.016734, 34.386783], [-99.0167353, 34.3868903], [-99.0166345, 34.3868912], [-99.0166332, 34.3867838]]]}, "properties": {"osm_id": 1162830564, "building": "yes", "name": "", "height": null, "height_m": null, "levels": null, "tract_id": "40141070400", "tract_name": "704", "tags": {"building": "yes"}}}, {"type": "Feature", "geometry": {"type": "Polygon", "coordinates": [[[-99.0174875, 34.3870882], [-99.0174834, 34.3869222], [-99.0176283, 34.3869198], [-99.0176324, 34.3870858], [-99.0174875, 34.3870882]]]}, "properties": {"osm_id": 1162830565, "building": "yes", "name": "", "height": null, "height_m": null, "levels": null, "tract_id": "40141070400", "tract_name": "704", "tags": {"building": "yes"}}}, {"type": "Feature", "geometry": {"type": "Polygon", "coordinates": [[[-99.0171991, 34.3866709], [-99.0171997, 34.3865394], [-99.0175899, 34.3865405], [-99.0175894, 34.386672], [-99.0171991, 34.3866709]]]}, "properties": {"osm_id": 1162830566, "building": "yes", "name": "", "height": null, "height_m": null, "levels": null, "tract_id": "40141070400", "tract_name": "704", "tags": {"building": "yes"}}}, {"type": "Feature", "geometry": {"type": "Polygon", "coordinates": [[[-99.0176082, 34.3868004], [-99.0172112, 34.3868004], [-99.0172112, 34.3866942], [-99.0176082, 34.3866942], [-99.0176082, 34.3868004]]]}, "properties": {"osm_id": 1162830567, "building": "yes", "name": "", "height": null, "height_m": null, "levels": null, "tract_id": "40141070400", "tract_name": "704", "tags": {"building": "yes"}}}, {"type": "Feature", "geometry": {"type": "Polygon", "coordinates": [[[-99.0172206, 34.3845249], [-99.0172196, 34.3844577], [-99.0173792, 34.3844561], [-99.0173802, 34.3845233], [-99.0172206, 34.3845249]]]}, "properties": {"osm_id": 1162830568, "building": "roof", "name": "", "height": null, "height_m": null, "levels": null, "tract_id": "40141070400", "tract_name": "704", "tags": {"building": "roof", "layer": "1"}}}, {"type": "Feature", "geometry": {"type": "Polygon", "coordinates": [[[-99.0167733, 34.3845], [-99.016768, 34.3843667], [-99.0168509, 34.3843644], [-99.0168563, 34.3844978], [-99.0167733, 34.3845]]]}, "properties": {"osm_id": 1162830569, "building": "roof", "name": "", "height": null, "height_m": null, "levels": null, "tract_id": "40141070400", "tract_name": "704", "tags": {"building": "roof", "layer": "1"}}}, {"type": "Feature", "geometry": {"type": "Polygon", "coordinates": [[[-99.0164861, 34.3845294], [-99.0164795, 34.3843009], [-99.0166576, 34.3842974], [-99.0166642, 34.3845259], [-99.0164861, 34.3845294]]]}, "properties": {"osm_id": 1162830570, "building": "yes", "name": "", "height": null, "height_m": null, "levels": null, "tract_id": "40141070400", "tract_name": "704", "tags": {"building": "yes"}}}, {"type": "Feature", "geometry": {"type": "Polygon", "coordinates": [[[-99.0168057, 34.3839573], [-99.0168076, 34.3840927], [-99.0167094, 34.3840936], [-99.0167075, 34.3839583], [-99.0168057, 34.3839573]]]}, "properties": {"osm_id": 1162830571, "building": "yes", "name": "", "height": null, "height_m": null, "levels": null, "tract_id": "40141070400", "tract_name": "704", "tags": {"building": "yes"}}}, {"type": "Feature", "geometry": {"type": "Polygon", "coordinates": [[[-99.0178858, 34.3837746], [-99.0178858, 34.3840103], [-99.0177999, 34.3840103], [-99.0177999, 34.3837746], [-99.0178858, 34.3837746]]]}, "properties": {"osm_id": 1162830572, "building": "yes", "name": "", "height": null, "height_m": null, "levels": null, "tract_id": "40141070400", "tract_name": "704", "tags": {"building": "yes"}}}, {"type": "Feature", "geometry": {"type": "Polygon", "coordinates": [[[-99.0179729, 34.3840203], [-99.0179676, 34.3837436], [-99.0180475, 34.3837425], [-99.0180528, 34.3840192], [-99.0179729, 34.3840203]]]}, "properties": {"osm_id": 1162830573, "building": "yes", "name": "", "height": null, "height_m": null, "levels": null, "tract_id": "40141070400", "tract_name": "704", "tags": {"building": "yes"}}}, {"type": "Feature", "geometry": {"type": "Polygon", "coordinates": [[[-99.0164681, 34.3805537], [-99.0164671, 34.3803471], [-99.0165325, 34.3803469], [-99.0165334, 34.3805535], [-99.0164681, 34.3805537]]]}, "properties": {"osm_id": 1162830574, "building": "yes", "name": "", "height": null, "height_m": null, "levels": null, "tract_id": "40141070400", "tract_name": "704", "tags": {"building": "yes"}}}, {"type": "Feature", "geometry": {"type": "Polygon", "coordinates": [[[-99.0166046, 34.3805717], [-99.0166039, 34.3805204], [-99.0168419, 34.3805181], [-99.0168427, 34.3805693], [-99.0166046, 34.3805717]]]}, "properties": {"osm_id": 1162830575, "building": "yes", "name": "", "height": null, "height_m": null, "levels": null, "tract_id": "40141070400", "tract_name": "704", "tags": {"building": "yes"}}}, {"type": "Feature", "geometry": {"type": "Polygon", "coordinates": [[[-99.0168038, 34.3808409], [-99.0165999, 34.3808503], [-99.0165945, 34.3807709], [-99.0167984, 34.3807615], [-99.0168038, 34.3808409]]]}, "properties": {"osm_id": 1162830576, "building": "yes", "name": "", "height": null, "height_m": null, "levels": null, "tract_id": "40141070400", "tract_name": "704", "tags": {"building": "yes"}}}, {"type": "Feature", "geometry": {"type": "Polygon", "coordinates": [[[-99.0164026, 34.3818607], [-99.0168066, 34.381856], [-99.0168076, 34.3819114], [-99.0164036, 34.3819161], [-99.0164026, 34.3818607]]]}, "properties": {"osm_id": 1162830577, "building": "yes", "name": "", "height": null, "height_m": null, "levels": null, "tract_id": "40141070400", "tract_name": "704", "tags": {"building": "yes"}}}, {"type": "Feature", "geometry": {"type": "Polygon", "coordinates": [[[-99.0167952, 34.3817464], [-99.0165297, 34.3817464], [-99.0165297, 34.3816869], [-99.0167952, 34.3816869], [-99.0167952, 34.3817464]]]}, "properties": {"osm_id": 1162830578, "building": "yes", "name": "", "height": null, "height_m": null, "levels": null, "tract_id": "40141070400", "tract_name": "704", "tags": {"building": "yes"}}}, {"type": "Feature", "geometry": {"type": "Polygon", "coordinates": [[[-99.0167924, 34.3815273], [-99.0165307, 34.3815281], [-99.0165304, 34.3814679], [-99.0167921, 34.3814671], [-99.0167924, 34.3815273]]]}, "properties": {"osm_id": 1162830579, "building": "yes", "name": "", "height": null, "height_m": null, "levels": null, "tract_id": "40141070400", "tract_name": "704", "tags": {"building": "yes"}}}, {"type": "Feature", "geometry": {"type": "Polygon", "coordinates": [[[-99.0164102, 34.3813864], [-99.0164102, 34.381316], [-99.0168303, 34.381316], [-99.0168303, 34.3813864], [-99.0164102, 34.3813864]]]}, "properties": {"osm_id": 1162830580, "building": "yes", "name": "", "height": null, "height_m": null, "levels": null, "tract_id": "40141070400", "tract_name": "704", "tags": {"building": "yes"}}}, {"type": "Feature", "geometry": {"type": "Polygon", "coordinates": [[[-99.0196534, 34.3812612], [-99.0196563, 34.3809333], [-99.0198388, 34.3809343], [-99.0198359, 34.3812623], [-99.0196534, 34.3812612]]]}, "properties": {"osm_id": 1162830581, "building": "yes", "name": "", "height": null, "height_m": null, "levels": null, "tract_id": "40141070400", "tract_name": "704", "tags": {"building": "yes"}}}, {"type": "Feature", "geometry": {"type": "Polygon", "coordinates": [[[-99.0187132, 34.3788515], [-99.0189732, 34.3788471], [-99.0189799, 34.3791171], [-99.0187199, 34.3791215], [-99.0187132, 34.3788515]]]}, "properties": {"osm_id": 1162830582, "building": "yes", "name": "", "height": null, "height_m": null, "levels": null, "tract_id": "40141070400", "tract_name": "704", "tags": {"building": "yes"}}}, {"type": "Feature", "geometry": {"type": "Polygon", "coordinates": [[[-99.0189734, 34.378671], [-99.0187092, 34.3786766], [-99.0187024, 34.3784553], [-99.0189666, 34.3784498], [-99.0189734, 34.378671]]]}, "properties": {"osm_id": 1162830583, "building": "yes", "name": "", "height": null, "height_m": null, "levels": null, "tract_id": "40141070400", "tract_name": "704", "tags": {"building": "yes"}}}, {"type": "Feature", "geometry": {"type": "Polygon", "coordinates": [[[-99.0189697, 34.3777588], [-99.0192504, 34.3777588], [-99.0192504, 34.3780829], [-99.0189697, 34.3780829], [-99.0189697, 34.3777588]]]}, "properties": {"osm_id": 1162830584, "building": "yes", "name": "", "height": null, "height_m": null, "levels": null, "tract_id": "40141070400", "tract_name": "704", "tags": {"building": "yes"}}}, {"type": "Feature", "geometry": {"type": "Polygon", "coordinates": [[[-99.022964, 34.3793946], [-99.0222926, 34.379404], [-99.0222807, 34.3788262], [-99.0229521, 34.3788168], [-99.022964, 34.3793946]]]}, "properties": {"osm_id": 1162830585, "building": "yes", "name": "", "height": null, "height_m": null, "levels": null, "tract_id": "40141070400", "tract_name": "704", "tags": {"building": "yes"}}}, {"type": "Feature", "geometry": {"type": "Polygon", "coordinates": [[[-99.0227781, 34.3917126], [-99.0227761, 34.3916213], [-99.0229847, 34.3916182], [-99.0229867, 34.3917095], [-99.0227781, 34.3917126]]]}, "properties": {"osm_id": 1162830594, "building": "yes", "name": "", "height": null, "height_m": null, "levels": null, "tract_id": "40141070400", "tract_name": "704", "tags": {"building": "yes"}}}, {"type": "Feature", "geometry": {"type": "Polygon", "coordinates": [[[-99.0237638, 34.3913346], [-99.0237642, 34.3912634], [-99.0239318, 34.3912639], [-99.0239315, 34.3913352], [-99.0237638, 34.3913346]]]}, "properties": {"osm_id": 1162830595, "building": "yes", "name": "", "height": null, "height_m": null, "levels": null, "tract_id": "40141070400", "tract_name": "704", "tags": {"building": "yes"}}}, {"type": "Feature", "geometry": {"type": "Polygon", "coordinates": [[[-99.0236659, 34.391629], [-99.0235633, 34.391629], [-99.0235633, 34.3915759], [-99.0236659, 34.3915759], [-99.0236659, 34.391629]]]}, "properties": {"osm_id": 1162830596, "building": "yes", "name": "", "height": null, "height_m": null, "levels": null, "tract_id": "40141070400", "tract_name": "704", "tags": {"building": "yes"}}}, {"type": "Feature", "geometry": {"type": "Polygon", "coordinates": [[[-99.0268103, 34.3909089], [-99.0268071, 34.3907872], [-99.0270707, 34.3907826], [-99.0270739, 34.3909042], [-99.0268103, 34.3909089]]]}, "properties": {"osm_id": 1162830605, "building": "yes", "name": "", "height": null, "height_m": null, "levels": null, "tract_id": "40141070400", "tract_name": "704", "tags": {"building": "yes"}}}, {"type": "Feature", "geometry": {"type": "Polygon", "coordinates": [[[-99.0276837, 34.3902305], [-99.0273508, 34.3902336], [-99.0273479, 34.3900195], [-99.0276807, 34.3900163], [-99.0276837, 34.3902305]]]}, "properties": {"osm_id": 1162830606, "building": "yes", "name": "", "height": null, "height_m": null, "levels": null, "tract_id": "40141070400", "tract_name": "704", "tags": {"building": "yes"}}}, {"type": "Feature", "geometry": {"type": "Polygon", "coordinates": [[[-99.0267974, 34.3896779], [-99.0267958, 34.3895782], [-99.0269983, 34.389576], [-99.0269999, 34.3896757], [-99.0267974, 34.3896779]]]}, "properties": {"osm_id": 1162830607, "building": "yes", "name": "", "height": null, "height_m": null, "levels": null, "tract_id": "40141070400", "tract_name": "704", "tags": {"building": "yes"}}}, {"type": "Feature", "geometry": {"type": "Polygon", "coordinates": [[[-99.0270805, 34.3891388], [-99.0270824, 34.3892789], [-99.0269552, 34.3892801], [-99.0269533, 34.38914], [-99.0270805, 34.3891388]]]}, "properties": {"osm_id": 1162830608, "building": "yes", "name": "", "height": null, "height_m": null, "levels": null, "tract_id": "40141070400", "tract_name": "704", "tags": {"building": "yes"}}}, {"type": "Feature", "geometry": {"type": "Polygon", "coordinates": [[[-99.0264035, 34.3887295], [-99.0262252, 34.3887327], [-99.0262239, 34.3886842], [-99.0264022, 34.388681], [-99.0264035, 34.3887295]]]}, "properties": {"osm_id": 1162830609, "building": "yes", "name": "", "height": null, "height_m": null, "levels": null, "tract_id": "40141070400", "tract_name": "704", "tags": {"building": "yes"}}}, {"type": "Feature", "geometry": {"type": "Polygon", "coordinates": [[[-99.0213116, 34.3896956], [-99.0213089, 34.3898068], [-99.0212306, 34.3898055], [-99.0212333, 34.3896943], [-99.0213116, 34.3896956]]]}, "properties": {"osm_id": 1162830610, "building": "yes", "name": "", "height": null, "height_m": null, "levels": null, "tract_id": "40141070400", "tract_name": "704", "tags": {"building": "yes"}}}, {"type": "Feature", "geometry": {"type": "Polygon", "coordinates": [[[-99.0217522, 34.3896812], [-99.0217508, 34.3900597], [-99.0215777, 34.3900593], [-99.021579, 34.3896808], [-99.0217522, 34.3896812]]]}, "properties": {"osm_id": 1162830611, "building": "yes", "name": "", "height": null, "height_m": null, "levels": null, "tract_id": "40141070400", "tract_name": "704", "tags": {"building": "yes"}}}, {"type": "Feature", "geometry": {"type": "Polygon", "coordinates": [[[-99.0166888, 34.3914669], [-99.0166861, 34.391379], [-99.0167887, 34.3913768], [-99.0167914, 34.3914646], [-99.0166888, 34.3914669]]]}, "properties": {"osm_id": 1162830612, "building": "yes", "name": "", "height": null, "height_m": null, "levels": null, "tract_id": "40141070400", "tract_name": "704", "tags": {"building": "yes"}}}, {"type": "Feature", "geometry": {"type": "Polygon", "coordinates": [[[-99.0138583, 34.3889901], [-99.0137901, 34.3889893], [-99.0137909, 34.3889384], [-99.0138592, 34.3889392], [-99.0138583, 34.3889901]]]}, "properties": {"osm_id": 1162830613, "building": "yes", "name": "", "height": null, "height_m": null, "levels": null, "tract_id": "40141070400", "tract_name": "704", "tags": {"building": "yes"}}}, {"type": "Feature", "geometry": {"type": "Polygon", "coordinates": [[[-99.0136264, 34.3891068], [-99.0142018, 34.3890936], [-99.0142078, 34.3892717], [-99.0139845, 34.3892769], [-99.0139849, 34.3892906], [-99.0138429, 34.3892939], [-99.0138424, 34.3892801], [-99.0136325, 34.389285], [-99.0136264, 34.3891068]]]}, "properties": {"osm_id": 1162830614, "building": "yes", "name": "", "height": null, "height_m": null, "levels": null, "tract_id": "40141070400", "tract_name": "704", "tags": {"building": "yes"}}}, {"type": "Feature", "geometry": {"type": "Polygon", "coordinates": [[[-99.0135596, 34.3887045], [-99.0135556, 34.3885051], [-99.0141255, 34.3884973], [-99.0141296, 34.3886967], [-99.0135596, 34.3887045]]]}, "properties": {"osm_id": 1162830615, "building": "yes", "name": "", "height": null, "height_m": null, "levels": null, "tract_id": "40141070400", "tract_name": "704", "tags": {"building": "yes"}}}, {"type": "Feature", "geometry": {"type": "Polygon", "coordinates": [[[-99.0139657, 34.3881396], [-99.014222, 34.3881377], [-99.0142247, 34.3883889], [-99.0139684, 34.3883908], [-99.0139657, 34.3881396]]]}, "properties": {"osm_id": 1162830616, "building": "yes", "name": "", "height": null, "height_m": null, "levels": null, "tract_id": "40141070400", "tract_name": "704", "tags": {"building": "yes"}}}, {"type": "Feature", "geometry": {"type": "Polygon", "coordinates": [[[-98.9968315, 34.3606707], [-98.9968682, 34.3606373], [-98.9969299, 34.3606835], [-98.9968932, 34.3607169], [-98.9968315, 34.3606707]]]}, "properties": {"osm_id": 1163938408, "building": "yes", "name": "", "height": null, "height_m": null, "levels": null, "tract_id": "40141070400", "tract_name": "704", "tags": {"building": "yes"}}}, {"type": "Feature", "geometry": {"type": "Polygon", "coordinates": [[[-98.9963422, 34.3609392], [-98.9963887, 34.3609748], [-98.9963404, 34.3610179], [-98.9962939, 34.3609823], [-98.9963422, 34.3609392]]]}, "properties": {"osm_id": 1163938409, "building": "yes", "name": "", "height": null, "height_m": null, "levels": null, "tract_id": "40141070400", "tract_name": "704", "tags": {"building": "yes"}}}, {"type": "Feature", "geometry": {"type": "Polygon", "coordinates": [[[-98.9930244, 34.3570261], [-98.9930201, 34.3568077], [-98.9933541, 34.3568033], [-98.9933583, 34.3570217], [-98.9930244, 34.3570261]]]}, "properties": {"osm_id": 1163938410, "building": "yes", "name": "", "height": null, "height_m": null, "levels": null, "tract_id": "40141070400", "tract_name": "704", "tags": {"building": "yes"}}}, {"type": "Feature", "geometry": {"type": "Polygon", "coordinates": [[[-98.992402, 34.3563267], [-98.9924039, 34.3558789], [-98.9925122, 34.3558792], [-98.9925103, 34.356327], [-98.992402, 34.3563267]]]}, "properties": {"osm_id": 1163938411, "building": "yes", "name": "", "height": null, "height_m": null, "levels": null, "tract_id": "40141070400", "tract_name": "704", "tags": {"building": "yes"}}}, {"type": "Feature", "geometry": {"type": "Polygon", "coordinates": [[[-98.9929824, 34.355626], [-98.9929809, 34.3555089], [-98.9932492, 34.3555066], [-98.9932507, 34.3556237], [-98.9929824, 34.355626]]]}, "properties": {"osm_id": 1163938412, "building": "yes", "name": "", "height": null, "height_m": null, "levels": null, "tract_id": "40141070400", "tract_name": "704", "tags": {"building": "yes"}}}, {"type": "Feature", "geometry": {"type": "Polygon", "coordinates": [[[-98.9920789, 34.3550687], [-98.9920816, 34.3555514], [-98.9919557, 34.3555519], [-98.991953, 34.3550691], [-98.9920789, 34.3550687]]]}, "properties": {"osm_id": 1163938413, "building": "yes", "name": "", "height": null, "height_m": null, "levels": null, "tract_id": "40141070400", "tract_name": "704", "tags": {"building": "yes"}}}, {"type": "Feature", "geometry": {"type": "Polygon", "coordinates": [[[-98.9923914, 34.3555459], [-98.9923967, 34.3550676], [-98.9925031, 34.3550684], [-98.9924977, 34.3555467], [-98.9923914, 34.3555459]]]}, "properties": {"osm_id": 1163938414, "building": "yes", "name": "", "height": null, "height_m": null, "levels": null, "tract_id": "40141070400", "tract_name": "704", "tags": {"building": "yes"}}}, {"type": "Feature", "geometry": {"type": "Polygon", "coordinates": [[[-98.9931183, 34.354473], [-98.9931175, 34.3543456], [-98.9933911, 34.3543444], [-98.9933918, 34.3544719], [-98.9931183, 34.354473]]]}, "properties": {"osm_id": 1163938415, "building": "yes", "name": "", "height": null, "height_m": null, "levels": null, "tract_id": "40141070400", "tract_name": "704", "tags": {"building": "yes"}}}, {"type": "Feature", "geometry": {"type": "Polygon", "coordinates": [[[-98.9930905, 34.3524671], [-98.9934929, 34.3524646], [-98.9934967, 34.3528826], [-98.9930943, 34.3528851], [-98.9930905, 34.3524671]]]}, "properties": {"osm_id": 1163938416, "building": "yes", "name": "", "height": null, "height_m": null, "levels": null, "tract_id": "40141070400", "tract_name": "704", "tags": {"building": "yes"}}}, {"type": "Feature", "geometry": {"type": "Polygon", "coordinates": [[[-98.9943726, 34.3523966], [-98.9945385, 34.3523925], [-98.9945499, 34.3527056], [-98.994384, 34.3527098], [-98.9943726, 34.3523966]]]}, "properties": {"osm_id": 1163938417, "building": "yes", "name": "", "height": null, "height_m": null, "levels": null, "tract_id": "40141070400", "tract_name": "704", "tags": {"building": "yes"}}}, {"type": "Feature", "geometry": {"type": "Polygon", "coordinates": [[[-98.9978188, 34.3610892], [-98.9979047, 34.361016], [-98.9981247, 34.3611921], [-98.9980388, 34.3612652], [-98.9978188, 34.3610892]]]}, "properties": {"osm_id": 1163938418, "building": "yes", "name": "", "height": null, "height_m": null, "levels": null, "tract_id": "40141070400", "tract_name": "704", "tags": {"building": "yes"}}}, {"type": "Feature", "geometry": {"type": "Polygon", "coordinates": [[[-99.0006447, 34.3593422], [-99.0006421, 34.3595345], [-98.9999499, 34.3595283], [-98.9999524, 34.359336], [-99.0006447, 34.3593422]]]}, "properties": {"osm_id": 1163938419, "building": "yes", "name": "", "height": null, "height_m": null, "levels": null, "tract_id": "40141070400", "tract_name": "704", "tags": {"building": "yes"}}}, {"type": "Feature", "geometry": {"type": "Polygon", "coordinates": [[[-98.9999941, 34.3591543], [-98.9999917, 34.3589753], [-99.0006593, 34.3589691], [-99.0006617, 34.3591481], [-98.9999941, 34.3591543]]]}, "properties": {"osm_id": 1163938420, "building": "yes", "name": "", "height": null, "height_m": null, "levels": null, "tract_id": "40141070400", "tract_name": "704", "tags": {"building": "yes"}}}, {"type": "Feature", "geometry": {"type": "Polygon", "coordinates": [[[-98.9957552, 34.3592812], [-98.9958138, 34.3592321], [-98.9959427, 34.359337], [-98.9958842, 34.3593861], [-98.9957552, 34.3592812]]]}, "properties": {"osm_id": 1163938421, "building": "yes", "name": "", "height": null, "height_m": null, "levels": null, "tract_id": "40141070400", "tract_name": "704", "tags": {"building": "yes"}}}, {"type": "Feature", "geometry": {"type": "Polygon", "coordinates": [[[-99.0138157, 34.3804183], [-99.0138233, 34.3805599], [-99.0137235, 34.3805636], [-99.0137159, 34.3804219], [-99.0138157, 34.3804183]]]}, "properties": {"osm_id": 1163938423, "building": "yes", "name": "", "height": null, "height_m": null, "levels": null, "tract_id": "40141070400", "tract_name": "704", "tags": {"building": "yes"}}}, {"type": "Feature", "geometry": {"type": "Polygon", "coordinates": [[[-99.0098451, 34.3775397], [-99.0098424, 34.377434], [-99.0099751, 34.3774317], [-99.0099779, 34.3775373], [-99.0098451, 34.3775397]]]}, "properties": {"osm_id": 1163938424, "building": "yes", "name": "", "height": null, "height_m": null, "levels": null, "tract_id": "40141070400", "tract_name": "704", "tags": {"building": "yes"}}}, {"type": "Feature", "geometry": {"type": "Polygon", "coordinates": [[[-99.005498, 34.3905621], [-99.0056095, 34.390561], [-99.0056149, 34.3909129], [-99.0055034, 34.3909141], [-99.005498, 34.3905621]]]}, "properties": {"osm_id": 1163938438, "building": "yes", "name": "", "height": null, "height_m": null, "levels": null, "tract_id": "40141070400", "tract_name": "704", "tags": {"building": "yes"}}}, {"type": "Feature", "geometry": {"type": "Polygon", "coordinates": [[[-99.0089973, 34.3911241], [-99.0094279, 34.3911241], [-99.0094279, 34.3915483], [-99.0089973, 34.3915483], [-99.0089973, 34.3911241]]]}, "properties": {"osm_id": 1163938439, "building": "yes", "name": "", "height": null, "height_m": null, "levels": null, "tract_id": "40141070400", "tract_name": "704", "tags": {"building": "yes"}}}, {"type": "Feature", "geometry": {"type": "Polygon", "coordinates": [[[-99.0016821, 34.3916297], [-99.0016783, 34.3912212], [-99.0020153, 34.391219], [-99.0020191, 34.3916275], [-99.0016821, 34.3916297]]]}, "properties": {"osm_id": 1163938444, "building": "yes", "name": "", "height": null, "height_m": null, "levels": null, "tract_id": "40141070400", "tract_name": "704", "tags": {"building": "yes"}}}, {"type": "Feature", "geometry": {"type": "Polygon", "coordinates": [[[-99.002345, 34.3892938], [-99.002345, 34.3894597], [-99.0022103, 34.3894597], [-99.0022103, 34.3892938], [-99.002345, 34.3892938]]]}, "properties": {"osm_id": 1163938445, "building": "yes", "name": "", "height": null, "height_m": null, "levels": null, "tract_id": "40141070400", "tract_name": "704", "tags": {"building": "yes"}}}, {"type": "Feature", "geometry": {"type": "Polygon", "coordinates": [[[-99.0026124, 34.3852095], [-99.0026107, 34.3851164], [-99.0027359, 34.3851148], [-99.0027376, 34.3852079], [-99.0026124, 34.3852095]]]}, "properties": {"osm_id": 1163938446, "building": "yes", "name": "", "height": null, "height_m": null, "levels": null, "tract_id": "40141070400", "tract_name": "704", "tags": {"building": "yes"}}}, {"type": "Feature", "geometry": {"type": "Polygon", "coordinates": [[[-99.0042494, 34.3853412], [-99.0042483, 34.3852593], [-99.0044253, 34.3852577], [-99.0044265, 34.3853395], [-99.0042494, 34.3853412]]]}, "properties": {"osm_id": 1163938447, "building": "yes", "name": "", "height": null, "height_m": null, "levels": null, "tract_id": "40141070400", "tract_name": "704", "tags": {"building": "yes"}}}, {"type": "Feature", "geometry": {"type": "Polygon", "coordinates": [[[-99.0043259, 34.385153], [-99.0044171, 34.385153], [-99.0044171, 34.3852322], [-99.0043259, 34.3852322], [-99.0043259, 34.385153]]]}, "properties": {"osm_id": 1163938448, "building": "yes", "name": "", "height": null, "height_m": null, "levels": null, "tract_id": "40141070400", "tract_name": "704", "tags": {"building": "yes"}}}, {"type": "Feature", "geometry": {"type": "Polygon", "coordinates": [[[-98.9762789, 34.3909512], [-98.9762808, 34.3907532], [-98.9764064, 34.390754], [-98.9764045, 34.390952], [-98.9762789, 34.3909512]]]}, "properties": {"osm_id": 1163938455, "building": "yes", "name": "", "height": null, "height_m": null, "levels": null, "tract_id": "40141070400", "tract_name": "704", "tags": {"building": "yes"}}}, {"type": "Feature", "geometry": {"type": "Polygon", "coordinates": [[[-98.9761553, 34.3903524], [-98.9762195, 34.3903529], [-98.9762189, 34.3904193], [-98.9761546, 34.3904188], [-98.9761553, 34.3903524]]]}, "properties": {"osm_id": 1163938456, "building": "yes", "name": "", "height": null, "height_m": null, "levels": null, "tract_id": "40141070400", "tract_name": "704", "tags": {"building": "yes"}}}, {"type": "Feature", "geometry": {"type": "Polygon", "coordinates": [[[-98.9761989, 34.390654], [-98.9760607, 34.3906584], [-98.9760569, 34.3905761], [-98.976195, 34.3905716], [-98.9761989, 34.390654]]]}, "properties": {"osm_id": 1163938457, "building": "yes", "name": "", "height": null, "height_m": null, "levels": null, "tract_id": "40141070400", "tract_name": "704", "tags": {"building": "yes"}}}, {"type": "Feature", "geometry": {"type": "Polygon", "coordinates": [[[-98.977021, 34.390218], [-98.9770304, 34.3903286], [-98.9768992, 34.3903362], [-98.9768899, 34.3902255], [-98.977021, 34.390218]]]}, "properties": {"osm_id": 1163938458, "building": "yes", "name": "", "height": null, "height_m": null, "levels": null, "tract_id": "40141070400", "tract_name": "704", "tags": {"building": "yes"}}}, {"type": "Feature", "geometry": {"type": "Polygon", "coordinates": [[[-98.9784345, 34.3905787], [-98.9781985, 34.3905787], [-98.9781985, 34.3904814], [-98.9784345, 34.3904814], [-98.9784345, 34.3905787]]]}, "properties": {"osm_id": 1163938459, "building": "yes", "name": "", "height": null, "height_m": null, "levels": null, "tract_id": "40141070400", "tract_name": "704", "tags": {"building": "yes"}}}, {"type": "Feature", "geometry": {"type": "Polygon", "coordinates": [[[-98.9768493, 34.3897532], [-98.9768472, 34.3896383], [-98.9771073, 34.389635], [-98.9771095, 34.3897498], [-98.9768493, 34.3897532]]]}, "properties": {"osm_id": 1163938460, "building": "yes", "name": "", "height": null, "height_m": null, "levels": null, "tract_id": "40141070400", "tract_name": "704", "tags": {"building": "yes"}}}, {"type": "Feature", "geometry": {"type": "Polygon", "coordinates": [[[-98.9798165, 34.3909373], [-98.9798165, 34.3910231], [-98.9797052, 34.3910231], [-98.9797052, 34.3909373], [-98.9798165, 34.3909373]]]}, "properties": {"osm_id": 1163938461, "building": "yes", "name": "", "height": null, "height_m": null, "levels": null, "tract_id": "40141070400", "tract_name": "704", "tags": {"building": "yes"}}}, {"type": "Feature", "geometry": {"type": "Polygon", "coordinates": [[[-98.9883184, 34.3919023], [-98.9883211, 34.3916235], [-98.9883885, 34.3916239], [-98.9883858, 34.3919028], [-98.9883184, 34.3919023]]]}, "properties": {"osm_id": 1163938463, "building": "yes", "name": "", "height": null, "height_m": null, "levels": null, "tract_id": "40141070400", "tract_name": "704", "tags": {"building": "yes"}}}, {"type": "Feature", "geometry": {"type": "Polygon", "coordinates": [[[-98.9882977, 34.3914005], [-98.9882977, 34.3913009], [-98.9886195, 34.3913009], [-98.9886195, 34.3914005], [-98.9882977, 34.3914005]]]}, "properties": {"osm_id": 1163938464, "building": "yes", "name": "", "height": null, "height_m": null, "levels": null, "tract_id": "40141070400", "tract_name": "704", "tags": {"building": "yes"}}}, {"type": "Feature", "geometry": {"type": "Polygon", "coordinates": [[[-98.9882978, 34.3910052], [-98.9883005, 34.3908745], [-98.9886267, 34.3908792], [-98.988624, 34.3910099], [-98.9882978, 34.3910052]]]}, "properties": {"osm_id": 1163938465, "building": "yes", "name": "", "height": null, "height_m": null, "levels": null, "tract_id": "40141070400", "tract_name": "704", "tags": {"building": "yes"}}}, {"type": "Feature", "geometry": {"type": "Polygon", "coordinates": [[[-98.9889331, 34.3912979], [-98.9889255, 34.3911052], [-98.9891588, 34.391099], [-98.9891664, 34.3912916], [-98.9889331, 34.3912979]]]}, "properties": {"osm_id": 1163938466, "building": "yes", "name": "", "height": null, "height_m": null, "levels": null, "tract_id": "40141070400", "tract_name": "704", "tags": {"building": "yes"}}}, {"type": "Feature", "geometry": {"type": "Polygon", "coordinates": [[[-99.0097446, 34.3906955], [-99.0097441, 34.3905735], [-99.0099264, 34.390573], [-99.009927, 34.390695], [-99.0097446, 34.3906955]]]}, "properties": {"osm_id": 1163938499, "building": "yes", "name": "", "height": null, "height_m": null, "levels": null, "tract_id": "40141070400", "tract_name": "704", "tags": {"building": "yes"}}}, {"type": "Feature", "geometry": {"type": "Polygon", "coordinates": [[[-99.0097312, 34.3903159], [-99.0097298, 34.3902297], [-99.0098834, 34.390228], [-99.0098847, 34.3903143], [-99.0097312, 34.3903159]]]}, "properties": {"osm_id": 1163938500, "building": "yes", "name": "", "height": null, "height_m": null, "levels": null, "tract_id": "40141070400", "tract_name": "704", "tags": {"building": "yes"}}}, {"type": "Feature", "geometry": {"type": "Polygon", "coordinates": [[[-99.0129358, 34.3834519], [-99.0129364, 34.3833697], [-99.0131389, 34.3833708], [-99.0131383, 34.383453], [-99.0129358, 34.3834519]]]}, "properties": {"osm_id": 1163938501, "building": "yes", "name": "", "height": null, "height_m": null, "levels": null, "tract_id": "40141070400", "tract_name": "704", "tags": {"building": "yes"}}}, {"type": "Feature", "geometry": {"type": "Polygon", "coordinates": [[[-99.0118414, 34.3810823], [-99.0119658, 34.3810832], [-99.0119644, 34.381205], [-99.0118401, 34.381204], [-99.0118414, 34.3810823]]]}, "properties": {"osm_id": 1163938502, "building": "yes", "name": "", "height": null, "height_m": null, "levels": null, "tract_id": "40141070400", "tract_name": "704", "tags": {"building": "yes"}}}, {"type": "Feature", "geometry": {"type": "Polygon", "coordinates": [[[-99.0191947, 34.3766372], [-99.019194, 34.3764933], [-99.0192971, 34.376493], [-99.0192977, 34.3766369], [-99.0191947, 34.3766372]]]}, "properties": {"osm_id": 1163938503, "building": "yes", "name": "", "height": null, "height_m": null, "levels": null, "tract_id": "40141070400", "tract_name": "704", "tags": {"building": "yes"}}}, {"type": "Feature", "geometry": {"type": "Polygon", "coordinates": [[[-99.0253155, 34.373586], [-99.0250741, 34.3737775], [-99.0250171, 34.3737286], [-99.0252585, 34.3735371], [-99.0253155, 34.373586]]]}, "properties": {"osm_id": 1163938504, "building": "yes", "name": "", "height": null, "height_m": null, "levels": null, "tract_id": "40141070400", "tract_name": "704", "tags": {"building": "yes"}}}, {"type": "Feature", "geometry": {"type": "Polygon", "coordinates": [[[-99.0274257, 34.3727714], [-99.0274217, 34.3728926], [-99.0273677, 34.3728913], [-99.0273717, 34.3727701], [-99.0274257, 34.3727714]]]}, "properties": {"osm_id": 1163938505, "building": "yes", "name": "", "height": null, "height_m": null, "levels": null, "tract_id": "40141070400", "tract_name": "704", "tags": {"building": "yes"}}}, {"type": "Feature", "geometry": {"type": "Polygon", "coordinates": [[[-99.0275841, 34.3730619], [-99.0273081, 34.3730799], [-99.0273032, 34.3730283], [-99.0275791, 34.3730103], [-99.0275841, 34.3730619]]]}, "properties": {"osm_id": 1163938506, "building": "yes", "name": "", "height": null, "height_m": null, "levels": null, "tract_id": "40141070400", "tract_name": "704", "tags": {"building": "yes"}}}, {"type": "Feature", "geometry": {"type": "Polygon", "coordinates": [[[-99.0172846, 34.376732], [-99.0173792, 34.3767713], [-99.01731, 34.3768848], [-99.0172153, 34.3768454], [-99.0172846, 34.376732]]]}, "properties": {"osm_id": 1163938507, "building": "yes", "name": "", "height": null, "height_m": null, "levels": null, "tract_id": "40141070400", "tract_name": "704", "tags": {"building": "yes"}}}, {"type": "Feature", "geometry": {"type": "Polygon", "coordinates": [[[-99.0117878, 34.3791769], [-99.0117859, 34.3791034], [-99.0119414, 34.3791007], [-99.0119433, 34.3791741], [-99.0117878, 34.3791769]]]}, "properties": {"osm_id": 1163938508, "building": "yes", "name": "", "height": null, "height_m": null, "levels": null, "tract_id": "40141070400", "tract_name": "704", "tags": {"building": "yes"}}}, {"type": "Feature", "geometry": {"type": "Polygon", "coordinates": [[[-99.0118479, 34.3794462], [-99.0119674, 34.3794462], [-99.0119674, 34.3796513], [-99.0118479, 34.3796513], [-99.0118479, 34.3794462]]]}, "properties": {"osm_id": 1163938509, "building": "yes", "name": "", "height": null, "height_m": null, "levels": null, "tract_id": "40141070400", "tract_name": "704", "tags": {"building": "yes"}}}, {"type": "Feature", "geometry": {"type": "Polygon", "coordinates": [[[-99.0179622, 34.3780783], [-99.0177624, 34.3780828], [-99.0177605, 34.3780235], [-99.0179603, 34.378019], [-99.0179622, 34.3780783]]]}, "properties": {"osm_id": 1163938510, "building": "yes", "name": "", "height": null, "height_m": null, "levels": null, "tract_id": "40141070400", "tract_name": "704", "tags": {"building": "yes"}}}, {"type": "Feature", "geometry": {"type": "Polygon", "coordinates": [[[-99.0164293, 34.3788282], [-99.0164307, 34.3787432], [-99.0166319, 34.3787455], [-99.0166305, 34.3788304], [-99.0164293, 34.3788282]]]}, "properties": {"osm_id": 1163938511, "building": "yes", "name": "", "height": null, "height_m": null, "levels": null, "tract_id": "40141070400", "tract_name": "704", "tags": {"building": "yes"}}}, {"type": "Feature", "geometry": {"type": "Polygon", "coordinates": [[[-99.0181636, 34.380005], [-99.0181636, 34.3801052], [-99.0180973, 34.3801052], [-99.0180973, 34.380005], [-99.0181636, 34.380005]]]}, "properties": {"osm_id": 1163938512, "building": "yes", "name": "", "height": null, "height_m": null, "levels": null, "tract_id": "40141070400", "tract_name": "704", "tags": {"building": "yes"}}}, {"type": "Feature", "geometry": {"type": "Polygon", "coordinates": [[[-99.0185676, 34.3799424], [-99.0185714, 34.3801076], [-99.0184646, 34.3801092], [-99.0184608, 34.3799441], [-99.0185676, 34.3799424]]]}, "properties": {"osm_id": 1163938513, "building": "yes", "name": "", "height": null, "height_m": null, "levels": null, "tract_id": "40141070400", "tract_name": "704", "tags": {"building": "yes"}}}, {"type": "Feature", "geometry": {"type": "Polygon", "coordinates": [[[-99.0192597, 34.3903364], [-99.01937, 34.3903379], [-99.0193674, 34.3904713], [-99.0192571, 34.3904697], [-99.0192597, 34.3903364]]]}, "properties": {"osm_id": 1163938517, "building": "yes", "name": "", "height": null, "height_m": null, "levels": null, "tract_id": "40141070400", "tract_name": "704", "tags": {"building": "yes"}}}, {"type": "Feature", "geometry": {"type": "Polygon", "coordinates": [[[-99.0171924, 34.3892064], [-99.0171879, 34.3889912], [-99.0176506, 34.3889846], [-99.0176551, 34.3891998], [-99.0171924, 34.3892064]]]}, "properties": {"osm_id": 1163938518, "building": "yes", "name": "", "height": null, "height_m": null, "levels": null, "tract_id": "40141070400", "tract_name": "704", "tags": {"building": "yes"}}}, {"type": "Feature", "geometry": {"type": "Polygon", "coordinates": [[[-99.0166113, 34.3886442], [-99.0166103, 34.3885242], [-99.0168929, 34.3885226], [-99.0168939, 34.3886427], [-99.0166113, 34.3886442]]]}, "properties": {"osm_id": 1163938519, "building": "yes", "name": "", "height": null, "height_m": null, "levels": null, "tract_id": "40141070400", "tract_name": "704", "tags": {"building": "yes"}}}, {"type": "Feature", "geometry": {"type": "Polygon", "coordinates": [[[-99.0173855, 34.3877887], [-99.0173855, 34.3877312], [-99.0174435, 34.3877312], [-99.0174435, 34.3877887], [-99.0173855, 34.3877887]]]}, "properties": {"osm_id": 1163938520, "building": "yes", "name": "", "height": null, "height_m": null, "levels": null, "tract_id": "40141070400", "tract_name": "704", "tags": {"building": "yes"}}}, {"type": "Feature", "geometry": {"type": "Polygon", "coordinates": [[[-99.0175842, 34.3876676], [-99.0171897, 34.387666], [-99.0171907, 34.3875008], [-99.0175852, 34.3875024], [-99.0175842, 34.3876676]]]}, "properties": {"osm_id": 1163938521, "building": "yes", "name": "", "height": null, "height_m": null, "levels": null, "tract_id": "40141070400", "tract_name": "704", "tags": {"building": "yes"}}}, {"type": "Feature", "geometry": {"type": "Polygon", "coordinates": [[[-99.0196567, 34.3882541], [-99.0196522, 34.3881167], [-99.0200733, 34.3881072], [-99.0200778, 34.3882447], [-99.0196567, 34.3882541]]]}, "properties": {"osm_id": 1163938522, "building": "yes", "name": "", "height": null, "height_m": null, "levels": null, "tract_id": "40141070400", "tract_name": "704", "tags": {"building": "yes"}}}, {"type": "Feature", "geometry": {"type": "Polygon", "coordinates": [[[-99.0198089, 34.3878457], [-99.0197365, 34.3878463], [-99.0197357, 34.3877793], [-99.0198082, 34.3877788], [-99.0198089, 34.3878457]]]}, "properties": {"osm_id": 1163938523, "building": "yes", "name": "", "height": null, "height_m": null, "levels": null, "tract_id": "40141070400", "tract_name": "704", "tags": {"building": "yes"}}}, {"type": "Feature", "geometry": {"type": "Polygon", "coordinates": [[[-99.0200148, 34.3877528], [-99.0200141, 34.3876166], [-99.0200958, 34.3876164], [-99.0200965, 34.3877525], [-99.0200148, 34.3877528]]]}, "properties": {"osm_id": 1163938524, "building": "yes", "name": "", "height": null, "height_m": null, "levels": null, "tract_id": "40141070400", "tract_name": "704", "tags": {"building": "yes"}}}, {"type": "Feature", "geometry": {"type": "Polygon", "coordinates": [[[-99.0205998, 34.3874743], [-99.0206027, 34.3875995], [-99.0204493, 34.3876019], [-99.0204464, 34.3874767], [-99.0205998, 34.3874743]]]}, "properties": {"osm_id": 1163938525, "building": "yes", "name": "", "height": null, "height_m": null, "levels": null, "tract_id": "40141070400", "tract_name": "704", "tags": {"building": "yes"}}}, {"type": "Feature", "geometry": {"type": "Polygon", "coordinates": [[[-99.0164036, 34.3860602], [-99.0163988, 34.3857808], [-99.0166349, 34.385778], [-99.0166396, 34.3860574], [-99.0164036, 34.3860602]]]}, "properties": {"osm_id": 1163938526, "building": "yes", "name": "", "height": null, "height_m": null, "levels": null, "tract_id": "40141070400", "tract_name": "704", "tags": {"building": "yes"}}}, {"type": "Feature", "geometry": {"type": "Polygon", "coordinates": [[[-99.016825, 34.3851796], [-99.0164743, 34.3851829], [-99.0164737, 34.3851442], [-99.0168244, 34.3851409], [-99.016825, 34.3851796]]]}, "properties": {"osm_id": 1163938527, "building": "yes", "name": "", "height": null, "height_m": null, "levels": null, "tract_id": "40141070400", "tract_name": "704", "tags": {"building": "yes"}}}, {"type": "Feature", "geometry": {"type": "Polygon", "coordinates": [[[-99.0173922, 34.3838371], [-99.0171844, 34.3838387], [-99.0171834, 34.3837521], [-99.0173912, 34.3837504], [-99.0173922, 34.3838371]]]}, "properties": {"osm_id": 1163938528, "building": "yes", "name": "", "height": null, "height_m": null, "levels": null, "tract_id": "40141070400", "tract_name": "704", "tags": {"building": "yes"}}}, {"type": "Feature", "geometry": {"type": "Polygon", "coordinates": [[[-99.0168142, 34.3826785], [-99.0166625, 34.382673], [-99.0166672, 34.3825838], [-99.0168189, 34.3825892], [-99.0168142, 34.3826785]]]}, "properties": {"osm_id": 1163938529, "building": "yes", "name": "", "height": null, "height_m": null, "levels": null, "tract_id": "40141070400", "tract_name": "704", "tags": {"building": "yes"}}}, {"type": "Feature", "geometry": {"type": "Polygon", "coordinates": [[[-99.0160707, 34.3827177], [-99.0160697, 34.3826548], [-99.0162062, 34.3826532], [-99.0162073, 34.3827161], [-99.0160707, 34.3827177]]]}, "properties": {"osm_id": 1163938530, "building": "yes", "name": "", "height": null, "height_m": null, "levels": null, "tract_id": "40141070400", "tract_name": "704", "tags": {"building": "yes"}}}, {"type": "Feature", "geometry": {"type": "Polygon", "coordinates": [[[-99.0159318, 34.3819827], [-99.0159328, 34.3819031], [-99.0160562, 34.3819042], [-99.0160552, 34.3819838], [-99.0159318, 34.3819827]]]}, "properties": {"osm_id": 1163938531, "building": "yes", "name": "", "height": null, "height_m": null, "levels": null, "tract_id": "40141070400", "tract_name": "704", "tags": {"building": "yes"}}}, {"type": "Feature", "geometry": {"type": "Polygon", "coordinates": [[[-99.0162362, 34.3778863], [-99.0163308, 34.3778851], [-99.0163361, 34.3781751], [-99.0162416, 34.3781763], [-99.0162362, 34.3778863]]]}, "properties": {"osm_id": 1163938532, "building": "yes", "name": "", "height": null, "height_m": null, "levels": null, "tract_id": "40141070400", "tract_name": "704", "tags": {"building": "yes"}}}, {"type": "Feature", "geometry": {"type": "Polygon", "coordinates": [[[-99.0310615, 34.3878296], [-99.0310596, 34.3879063], [-99.0309597, 34.3879046], [-99.0309616, 34.3878279], [-99.0310615, 34.3878296]]]}, "properties": {"osm_id": 1163938553, "building": "yes", "name": "", "height": null, "height_m": null, "levels": null, "tract_id": "40141070400", "tract_name": "704", "tags": {"building": "yes"}}}, {"type": "Feature", "geometry": {"type": "Polygon", "coordinates": [[[-99.0126608, 34.3852266], [-99.0122934, 34.3852333], [-99.0122902, 34.3851152], [-99.0126577, 34.3851085], [-99.0126608, 34.3852266]]]}, "properties": {"osm_id": 1163938555, "building": "yes", "name": "", "height": null, "height_m": null, "levels": null, "tract_id": "40141070400", "tract_name": "704", "tags": {"building": "yes"}}}, {"type": "Feature", "geometry": {"type": "Polygon", "coordinates": [[[-99.0101628, 34.3840591], [-99.0101645, 34.3839605], [-99.0105647, 34.3839651], [-99.010563, 34.3840637], [-99.0101628, 34.3840591]]]}, "properties": {"osm_id": 1163938556, "building": "apartments", "name": "", "height": null, "height_m": null, "levels": null, "tract_id": "40141070400", "tract_name": "704", "tags": {"building": "apartments"}}}, {"type": "Feature", "geometry": {"type": "Polygon", "coordinates": [[[-99.0104507, 34.3836484], [-99.0104453, 34.3832721], [-99.0105722, 34.3832708], [-99.0105776, 34.3836472], [-99.0104507, 34.3836484]]]}, "properties": {"osm_id": 1163938557, "building": "apartments", "name": "", "height": null, "height_m": null, "levels": null, "tract_id": "40141070400", "tract_name": "704", "tags": {"building": "apartments"}}}, {"type": "Feature", "geometry": {"type": "Polygon", "coordinates": [[[-99.0101524, 34.3829219], [-99.0101524, 34.3828178], [-99.0105725, 34.3828178], [-99.0105725, 34.3829219], [-99.0101524, 34.3829219]]]}, "properties": {"osm_id": 1163938558, "building": "apartments", "name": "", "height": null, "height_m": null, "levels": null, "tract_id": "40141070400", "tract_name": "704", "tags": {"building": "apartments"}}}, {"type": "Feature", "geometry": {"type": "Polygon", "coordinates": [[[-99.0179579, 34.3803244], [-99.0179626, 34.3805967], [-99.0178221, 34.3805984], [-99.0178174, 34.380326], [-99.0179579, 34.3803244]]]}, "properties": {"osm_id": 1163938559, "building": "yes", "name": "", "height": null, "height_m": null, "levels": null, "tract_id": "40141070400", "tract_name": "704", "tags": {"building": "yes"}}}, {"type": "Feature", "geometry": {"type": "Polygon", "coordinates": [[[-99.0166369, 34.3801631], [-99.0166279, 34.3800072], [-99.0168071, 34.3800001], [-99.0168161, 34.3801561], [-99.0166369, 34.3801631]]]}, "properties": {"osm_id": 1163938560, "building": "yes", "name": "", "height": null, "height_m": null, "levels": null, "tract_id": "40141070400", "tract_name": "704", "tags": {"building": "yes"}}}, {"type": "Feature", "geometry": {"type": "Polygon", "coordinates": [[[-99.0172025, 34.3774574], [-99.0170623, 34.3774502], [-99.0170663, 34.3773975], [-99.0172065, 34.3774047], [-99.0172025, 34.3774574]]]}, "properties": {"osm_id": 1163938561, "building": "yes", "name": "", "height": null, "height_m": null, "levels": null, "tract_id": "40141070400", "tract_name": "704", "tags": {"building": "yes"}}}, {"type": "Feature", "geometry": {"type": "Polygon", "coordinates": [[[-99.0169027, 34.377438], [-99.0166446, 34.3774308], [-99.0166482, 34.377343], [-99.0169063, 34.3773502], [-99.0169027, 34.377438]]]}, "properties": {"osm_id": 1163938562, "building": "yes", "name": "", "height": null, "height_m": null, "levels": null, "tract_id": "40141070400", "tract_name": "704", "tags": {"building": "yes"}}}, {"type": "Feature", "geometry": {"type": "Polygon", "coordinates": [[[-99.0153873, 34.3772609], [-99.01539, 34.3774258], [-99.0152472, 34.3774274], [-99.0152445, 34.3772625], [-99.0153873, 34.3772609]]]}, "properties": {"osm_id": 1163938563, "building": "yes", "name": "", "height": null, "height_m": null, "levels": null, "tract_id": "40141070400", "tract_name": "704", "tags": {"building": "yes"}}}, {"type": "Feature", "geometry": {"type": "Polygon", "coordinates": [[[-99.0126682, 34.376912], [-99.0126682, 34.3770286], [-99.0125677, 34.3770286], [-99.0125677, 34.376912], [-99.0126682, 34.376912]]]}, "properties": {"osm_id": 1163938564, "building": "yes", "name": "", "height": null, "height_m": null, "levels": null, "tract_id": "40141070400", "tract_name": "704", "tags": {"building": "yes"}}}, {"type": "Feature", "geometry": {"type": "Polygon", "coordinates": [[[-99.0125415, 34.3765116], [-99.0125375, 34.3766477], [-99.0123972, 34.3766449], [-99.0124013, 34.3765087], [-99.0125415, 34.3765116]]]}, "properties": {"osm_id": 1163938565, "building": "yes", "name": "", "height": null, "height_m": null, "levels": null, "tract_id": "40141070400", "tract_name": "704", "tags": {"building": "yes"}}}, {"type": "Feature", "geometry": {"type": "Polygon", "coordinates": [[[-99.0128522, 34.3780257], [-99.012763, 34.3780296], [-99.0127598, 34.3779793], [-99.0128489, 34.3779754], [-99.0128522, 34.3780257]]]}, "properties": {"osm_id": 1163938566, "building": "yes", "name": "", "height": null, "height_m": null, "levels": null, "tract_id": "40141070400", "tract_name": "704", "tags": {"building": "yes"}}}, {"type": "Feature", "geometry": {"type": "Polygon", "coordinates": [[[-99.012508, 34.3780265], [-99.0125016, 34.3779209], [-99.0126353, 34.3779154], [-99.0126417, 34.378021], [-99.012508, 34.3780265]]]}, "properties": {"osm_id": 1163938567, "building": "yes", "name": "", "height": null, "height_m": null, "levels": null, "tract_id": "40141070400", "tract_name": "704", "tags": {"building": "yes"}}}, {"type": "Feature", "geometry": {"type": "Polygon", "coordinates": [[[-99.0130305, 34.3767163], [-99.0131966, 34.3767157], [-99.0131975, 34.3768832], [-99.0130314, 34.3768838], [-99.0130305, 34.3767163]]]}, "properties": {"osm_id": 1163938568, "building": "yes", "name": "", "height": null, "height_m": null, "levels": null, "tract_id": "40141070400", "tract_name": "704", "tags": {"building": "yes"}}}, {"type": "Feature", "geometry": {"type": "Polygon", "coordinates": [[[-99.0142566, 34.377153], [-99.0142566, 34.376883], [-99.0144046, 34.376883], [-99.0144046, 34.377153], [-99.0142566, 34.377153]]]}, "properties": {"osm_id": 1163938569, "building": "yes", "name": "", "height": null, "height_m": null, "levels": null, "tract_id": "40141070400", "tract_name": "704", "tags": {"building": "yes"}}}, {"type": "Feature", "geometry": {"type": "Polygon", "coordinates": [[[-99.0120231, 34.3829926], [-99.0119453, 34.3829928], [-99.0119455, 34.3830307], [-99.0118919, 34.3830308], [-99.0118917, 34.382993], [-99.0118092, 34.3829932], [-99.0118091, 34.3829461], [-99.012023, 34.3829456], [-99.0120231, 34.3829926]]]}, "properties": {"osm_id": 1326347768, "building": "yes", "name": "", "height": null, "height_m": null, "levels": null, "tract_id": "40141070400", "tract_name": "704", "tags": {"building": "yes"}}}, {"type": "Feature", "geometry": {"type": "Polygon", "coordinates": [[[-99.0111242, 34.3832136], [-99.0112193, 34.3832121], [-99.0112148, 34.3830196], [-99.0110673, 34.3830219], [-99.0110692, 34.3831025], [-99.0111216, 34.3831017], [-99.0111242, 34.3832136]]]}, "properties": {"osm_id": 1326347769, "building": "detached", "name": "", "height": null, "height_m": null, "levels": null, "tract_id": "40141070400", "tract_name": "704", "tags": {"building": "detached"}}}, {"type": "Feature", "geometry": {"type": "Polygon", "coordinates": [[[-99.0111118, 34.3824292], [-99.01101, 34.3824271], [-99.0110065, 34.3825444], [-99.0111405, 34.3825471], [-99.011143, 34.382463], [-99.0111109, 34.3824624], [-99.0111118, 34.3824292]]]}, "properties": {"osm_id": 1326347770, "building": "detached", "name": "", "height": null, "height_m": null, "levels": null, "tract_id": "40141070400", "tract_name": "704", "tags": {"building": "detached"}}}, {"type": "Feature", "geometry": {"type": "Polygon", "coordinates": [[[-99.0110204, 34.3826237], [-99.0110901, 34.3826227], [-99.0110889, 34.3825652], [-99.0110192, 34.3825662], [-99.0110204, 34.3826237]]]}, "properties": {"osm_id": 1326347771, "building": "yes", "name": "", "height": null, "height_m": null, "levels": null, "tract_id": "40141070400", "tract_name": "704", "tags": {"building": "yes"}}}, {"type": "Feature", "geometry": {"type": "Polygon", "coordinates": [[[-99.0124083, 34.3830971], [-99.0123708, 34.3830962], [-99.0123724, 34.3830498], [-99.0122747, 34.3830474], [-99.0122712, 34.3831492], [-99.0124064, 34.3831524], [-99.0124083, 34.3830971]]]}, "properties": {"osm_id": 1326347772, "building": "yes", "name": "", "height": null, "height_m": null, "levels": null, "tract_id": "40141070400", "tract_name": "704", "tags": {"building": "yes"}}}, {"type": "Feature", "geometry": {"type": "Polygon", "coordinates": [[[-99.0122876, 34.3828178], [-99.012419, 34.3828205], [-99.012422, 34.3827165], [-99.0122907, 34.3827138], [-99.0122876, 34.3828178]]]}, "properties": {"osm_id": 1326347773, "building": "yes", "name": "", "height": null, "height_m": null, "levels": null, "tract_id": "40141070400", "tract_name": "704", "tags": {"building": "yes"}}}, {"type": "Feature", "geometry": {"type": "Polygon", "coordinates": [[[-99.0104534, 34.3824145], [-99.0103327, 34.382416], [-99.0103356, 34.3825731], [-99.0104321, 34.3825719], [-99.01043, 34.3824591], [-99.0104542, 34.3824588], [-99.0104534, 34.3824145]]]}, "properties": {"osm_id": 1326347774, "building": "detached", "name": "", "height": null, "height_m": null, "levels": null, "tract_id": "40141070400", "tract_name": "704", "tags": {"building": "detached"}}}, {"type": "Feature", "geometry": {"type": "Polygon", "coordinates": [[[-99.0104176, 34.3844896], [-99.010549, 34.384491], [-99.0105496, 34.3844533], [-99.0105751, 34.3844536], [-99.0105759, 34.3843952], [-99.010419, 34.3843936], [-99.0104176, 34.3844896]]]}, "properties": {"osm_id": 1326347775, "building": "yes", "name": "", "height": null, "height_m": null, "levels": null, "tract_id": "40141070400", "tract_name": "704", "tags": {"building": "yes"}}}, {"type": "Feature", "geometry": {"type": "Polygon", "coordinates": [[[-99.0112433, 34.3835627], [-99.0112419, 34.3834995], [-99.0111668, 34.3835006], [-99.0111682, 34.3835638], [-99.0112433, 34.3835627]]]}, "properties": {"osm_id": 1326347776, "building": "detached", "name": "", "height": null, "height_m": null, "levels": null, "tract_id": "40141070400", "tract_name": "704", "tags": {"building": "detached"}}}, {"type": "Feature", "geometry": {"type": "Polygon", "coordinates": [[[-99.0103846, 34.3843871], [-99.0102652, 34.3843876], [-99.0102647, 34.3843079], [-99.0101467, 34.3843085], [-99.0101478, 34.3844833], [-99.0102953, 34.3844827], [-99.010295, 34.3844384], [-99.0103849, 34.384438], [-99.0103846, 34.3843871]]]}, "properties": {"osm_id": 1326347777, "building": "yes", "name": "", "height": null, "height_m": null, "levels": null, "tract_id": "40141070400", "tract_name": "704", "tags": {"building": "yes"}}}, {"type": "Feature", "geometry": {"type": "Polygon", "coordinates": [[[-99.0119568, 34.3840844], [-99.0117491, 34.3840806], [-99.0117478, 34.3841182], [-99.0117103, 34.3841173], [-99.0117087, 34.384166], [-99.0119539, 34.3841716], [-99.0119568, 34.3840844]]]}, "properties": {"osm_id": 1326347778, "building": "yes", "name": "", "height": null, "height_m": null, "levels": null, "tract_id": "40141070400", "tract_name": "704", "tags": {"building": "yes"}}}, {"type": "Feature", "geometry": {"type": "Polygon", "coordinates": [[[-99.0111295, 34.3839444], [-99.0109621, 34.3839499], [-99.0109658, 34.3840272], [-99.0111332, 34.3840217], [-99.0111295, 34.3839444]]]}, "properties": {"osm_id": 1326347779, "building": "detached", "name": "", "height": null, "height_m": null, "levels": null, "tract_id": "40141070400", "tract_name": "704", "tags": {"building": "detached"}}}, {"type": "Feature", "geometry": {"type": "Polygon", "coordinates": [[[-99.0119546, 34.3827062], [-99.0118083, 34.3827048], [-99.0118072, 34.3827778], [-99.0119535, 34.3827792], [-99.0119546, 34.3827062]]]}, "properties": {"osm_id": 1326347780, "building": "yes", "name": "", "height": null, "height_m": null, "levels": null, "tract_id": "40141070400", "tract_name": "704", "tags": {"building": "yes"}}}, {"type": "Feature", "geometry": {"type": "Polygon", "coordinates": [[[-99.0109942, 34.3837253], [-99.0111659, 34.3837239], [-99.0111651, 34.3836575], [-99.0109934, 34.3836589], [-99.0109942, 34.3837253]]]}, "properties": {"osm_id": 1326347781, "building": "detached", "name": "", "height": null, "height_m": null, "levels": null, "tract_id": "40141070400", "tract_name": "704", "tags": {"building": "detached"}}}, {"type": "Feature", "geometry": {"type": "Polygon", "coordinates": [[[-99.0119647, 34.3834663], [-99.0118172, 34.3834634], [-99.0118151, 34.3835386], [-99.0119625, 34.3835416], [-99.0119647, 34.3834663]]]}, "properties": {"osm_id": 1326347782, "building": "yes", "name": "", "height": null, "height_m": null, "levels": null, "tract_id": "40141070400", "tract_name": "704", "tags": {"building": "yes"}}}, {"type": "Feature", "geometry": {"type": "Polygon", "coordinates": [[[-99.011087, 34.3837957], [-99.0109744, 34.3837943], [-99.0109731, 34.3838629], [-99.0110857, 34.3838643], [-99.011087, 34.3837957]]]}, "properties": {"osm_id": 1326347783, "building": "detached", "name": "", "height": null, "height_m": null, "levels": null, "tract_id": "40141070400", "tract_name": "704", "tags": {"building": "detached"}}}, {"type": "Feature", "geometry": {"type": "Polygon", "coordinates": [[[-99.0119897, 34.3831189], [-99.0118556, 34.3831173], [-99.0118543, 34.3831903], [-99.0119884, 34.3831919], [-99.0119897, 34.3831189]]]}, "properties": {"osm_id": 1326347784, "building": "yes", "name": "", "height": null, "height_m": null, "levels": null, "tract_id": "40141070400", "tract_name": "704", "tags": {"building": "yes"}}}, {"type": "Feature", "geometry": {"type": "Polygon", "coordinates": [[[-99.011679, 34.3834225], [-99.0116777, 34.3834911], [-99.0117608, 34.3834922], [-99.0117622, 34.3834236], [-99.011679, 34.3834225]]]}, "properties": {"osm_id": 1326347785, "building": "yes", "name": "", "height": null, "height_m": null, "levels": null, "tract_id": "40141070400", "tract_name": "704", "tags": {"building": "yes"}}}, {"type": "Feature", "geometry": {"type": "Polygon", "coordinates": [[[-99.0124006, 34.3836807], [-99.0122803, 34.3836785], [-99.0122782, 34.3837569], [-99.0123985, 34.3837591], [-99.0124006, 34.3836807]]]}, "properties": {"osm_id": 1326347786, "building": "yes", "name": "", "height": null, "height_m": null, "levels": null, "tract_id": "40141070400", "tract_name": "704", "tags": {"building": "yes"}}}, {"type": "Feature", "geometry": {"type": "Polygon", "coordinates": [[[-99.0119463, 34.3828463], [-99.0118793, 34.3828447], [-99.0118774, 34.3828977], [-99.0119444, 34.3828994], [-99.0119463, 34.3828463]]]}, "properties": {"osm_id": 1326347787, "building": "yes", "name": "", "height": null, "height_m": null, "levels": null, "tract_id": "40141070400", "tract_name": "704", "tags": {"building": "yes"}}}, {"type": "Feature", "geometry": {"type": "Polygon", "coordinates": [[[-99.0122564, 34.383819], [-99.0122546, 34.383893], [-99.0123163, 34.383894], [-99.012318, 34.3838199], [-99.0122564, 34.383819]]]}, "properties": {"osm_id": 1326347788, "building": "yes", "name": "", "height": null, "height_m": null, "levels": null, "tract_id": "40141070400", "tract_name": "704", "tags": {"building": "yes"}}}]}