{"type": "FeatureCollection", "features": [{"type": "Feature", "geometry": {"type": "Polygon", "coordinates": [[[-97.1227571, 34.1747322], [-97.1228191, 34.1744585], [-97.1224922, 34.1744078], [-97.1224302, 34.1746815], [-97.1227571, 34.1747322]]]}, "properties": {"osm_id": 865604110, "building": "yes", "name": "", "height": null, "height_m": null, "levels": null, "tract_id": "40019892801", "tract_name": "8928.01", "tags": {"building": "yes"}}}, {"type": "Feature", "geometry": {"type": "Polygon", "coordinates": [[[-97.1255303, 34.1656676], [-97.125545, 34.1655378], [-97.1257347, 34.1655524], [-97.1257374, 34.165528], [-97.1260157, 34.1655492], [-97.1260364, 34.1653624], [-97.1257658, 34.1653418], [-97.1257642, 34.165357], [-97.1255712, 34.1653422], [-97.1255739, 34.1653177], [-97.1255393, 34.165315], [-97.1256112, 34.1646805], [-97.1253283, 34.1646585], [-97.1252839, 34.1650492], [-97.1253059, 34.1650509], [-97.1252751, 34.1653149], [-97.12522, 34.1653105], [-97.1252246, 34.165271], [-97.1251157, 34.1652622], [-97.1251049, 34.1653544], [-97.1250226, 34.1653478], [-97.1250242, 34.1653347], [-97.1249401, 34.1653279], [-97.1249385, 34.1653414], [-97.1247345, 34.165325], [-97.1247156, 34.1654853], [-97.1250327, 34.1655108], [-97.1250292, 34.1655409], [-97.125102, 34.1655466], [-97.125105, 34.1655205], [-97.1253187, 34.165537], [-97.1253059, 34.1656503], [-97.1255303, 34.1656676]]]}, "properties": {"osm_id": 865609725, "building": "yes", "name": "", "height": null, "height_m": null, "levels": null, "tract_id": "40019892801", "tract_name": "8928.01", "tags": {"building": "yes"}}}, {"type": "Feature", "geometry": {"type": "Polygon", "coordinates": [[[-97.1288338, 34.162659], [-97.1289328, 34.1624176], [-97.1287293, 34.1623605], [-97.1286304, 34.1626019], [-97.1288338, 34.162659]]]}, "properties": {"osm_id": 865609728, "building": "yes", "name": "C Street Exchange", "height": null, "height_m": null, "levels": null, "tract_id": "40019892801", "tract_name": "8928.01", "tags": {"addr:city": "Ardmore", "addr:housenumber": "220", "addr:postcode": "73401", "addr:state": "OK", "addr:street": "Lake Murray Drive East", "building": "yes", "name": "C Street Exchange", "shop": "pawnbroker"}}}, {"type": "Feature", "geometry": {"type": "Polygon", "coordinates": [[[-97.1291803, 34.1633016], [-97.1291855, 34.1630834], [-97.1285591, 34.163073], [-97.1285538, 34.1632911], [-97.1291803, 34.1633016]]]}, "properties": {"osm_id": 865609729, "building": "yes", "name": "Tim's Corner Grocery and Deli", "height": null, "height_m": null, "levels": null, "tract_id": "40019892801", "tract_name": "8928.01", "tags": {"addr:city": "Ardmore", "addr:housenumber": "231", "addr:postcode": "73401", "addr:state": "OK", "addr:street": "Lake Murray Drive East", "building": "yes", "name": "Tim's Corner Grocery and Deli", "shop": "supermarket"}}}, {"type": "Feature", "geometry": {"type": "Polygon", "coordinates": [[[-97.1263456, 34.1626535], [-97.1263475, 34.1624437], [-97.126396, 34.162444], [-97.1263969, 34.1623459], [-97.1262124, 34.1623447], [-97.1262127, 34.1623105], [-97.1260318, 34.1623093], [-97.1260322, 34.1622735], [-97.1259014, 34.1622726], [-97.1258994, 34.1624676], [-97.1260395, 34.1624685], [-97.1260378, 34.1626326], [-97.1260629, 34.1626518], [-97.1263456, 34.1626535]]]}, "properties": {"osm_id": 865609732, "building": "yes", "name": "New Hope Church of God", "height": null, "height_m": null, "levels": null, "tract_id": "40019892801", "tract_name": "8928.01", "tags": {"addr:city": "Ardmore", "addr:housenumber": "412", "addr:postcode": "73401", "addr:state": "OK", "addr:street": "Lake Murray Drive East", "amenity": "place_of_worship", "building": "yes", "name": "New Hope Church of God", "religion": "christian"}}}, {"type": "Feature", "geometry": {"type": "Polygon", "coordinates": [[[-97.1227837, 34.1626334], [-97.1227895, 34.1622684], [-97.1225444, 34.1622657], [-97.1225385, 34.1626307], [-97.1227837, 34.1626334]]]}, "properties": {"osm_id": 865609733, "building": "yes", "name": "Dollar General", "height": null, "height_m": null, "levels": null, "tract_id": "40019892801", "tract_name": "8928.01", "tags": {"addr:city": "Ardmore", "addr:housenumber": "702", "addr:postcode": "73401", "addr:state": "OK", "addr:street": "Lake Murray Drive East", "brand": "Dollar General", "brand:wikidata": "Q145168", "building": "yes", "name": "Dollar General", "shop": "variety_store", "website": "https://www.dollargeneral.com/store-directory/ok/ardmore/14445"}}}, {"type": "Feature", "geometry": {"type": "Polygon", "coordinates": [[[-97.1236511, 34.1628815], [-97.1236531, 34.1626968], [-97.1238515, 34.1626983], [-97.1238526, 34.1625972], [-97.1236543, 34.1625958], [-97.1236548, 34.1625409], [-97.1238521, 34.1625423], [-97.1238534, 34.1624211], [-97.1237747, 34.1624206], [-97.123857, 34.1622579], [-97.1237338, 34.1622152], [-97.1236649, 34.1623513], [-97.1236271, 34.162351], [-97.1236284, 34.1622429], [-97.123489, 34.1622418], [-97.1234856, 34.1625303], [-97.1235245, 34.1625306], [-97.1235238, 34.1625927], [-97.1234349, 34.162592], [-97.1234337, 34.1626993], [-97.1235307, 34.1627], [-97.1235287, 34.1628806], [-97.1236511, 34.1628815]]]}, "properties": {"osm_id": 865609734, "building": "yes", "name": "Lakeland Manor", "height": null, "height_m": null, "levels": null, "tract_id": "40019892801", "tract_name": "8928.01", "tags": {"addr:city": "Ardmore", "addr:housenumber": "604", "addr:postcode": "73401", "addr:state": "OK", "addr:street": "Lake Murray Drive East", "amenity": "social_facility", "building": "yes", "name": "Lakeland Manor", "social_facility": "group_home", "social_facility:for": "senior"}}}, {"type": "Feature", "geometry": {"type": "Polygon", "coordinates": [[[-97.1247916, 34.1720068], [-97.124666, 34.171959], [-97.12465, 34.1719877], [-97.1245017, 34.1719309], [-97.1245255, 34.1718884], [-97.1244477, 34.1718585], [-97.1245855, 34.1716126], [-97.1249766, 34.171759], [-97.1247916, 34.1720068]]]}, "properties": {"osm_id": 1026641362, "building": "yes", "name": "Legacy Event Center", "height": null, "height_m": null, "levels": null, "tract_id": "40019892801", "tract_name": "8928.01", "tags": {"addr:city": "Ardmore", "addr:housenumber": "309", "addr:postcode": "73401", "addr:state": "OK", "addr:street": "East Main Street", "amenity": "events_venue", "building": "yes", "name": "Legacy Event Center"}}}, {"type": "Feature", "geometry": {"type": "Polygon", "coordinates": [[[-97.122546, 34.1712775], [-97.1225536, 34.1712041], [-97.1224442, 34.1711964], [-97.1224367, 34.1712697], [-97.1224455, 34.1712706], [-97.122546, 34.1712775]]]}, "properties": {"osm_id": 1383403995, "building": "house", "name": "", "height": null, "height_m": null, "levels": null, "tract_id": "40019892801", "tract_name": "8928.01", "tags": {"building": "house"}}}, {"type": "Feature", "geometry": {"type": "Polygon", "coordinates": [[[-97.122242, 34.170331], [-97.1221992, 34.1704236], [-97.1222903, 34.1704525], [-97.1222535, 34.1705322], [-97.1221589, 34.1705023], [-97.122152, 34.170517], [-97.1220748, 34.1704926], [-97.1221224, 34.1702921], [-97.122242, 34.170331]]]}, "properties": {"osm_id": 1383403996, "building": "yes", "name": "Victory Temple Church of God in Christ", "height": null, "height_m": null, "levels": null, "tract_id": "40019892801", "tract_name": "8928.01", "tags": {"addr:city": "Ardmore", "addr:housenumber": "536", "addr:postcode": "73401", "addr:state": "OK", "addr:street": "East Main Street", "amenity": "place_of_worship", "building": "yes", "denomination": "protestant", "name": "Victory Temple Church of God in Christ", "religion": "christian"}}}, {"type": "Feature", "geometry": {"type": "Polygon", "coordinates": [[[-97.1244536, 34.17157], [-97.1243873, 34.1716918], [-97.124319, 34.1716664], [-97.1243853, 34.1715446], [-97.1244536, 34.17157]]]}, "properties": {"osm_id": 1383910595, "building": "yes", "name": "", "height": null, "height_m": null, "levels": null, "tract_id": "40019892801", "tract_name": "8928.01", "tags": {"building": "yes"}}}, {"type": "Feature", "geometry": {"type": "Polygon", "coordinates": [[[-97.1238733, 34.1713764], [-97.123816, 34.1714833], [-97.1237608, 34.1714631], [-97.123818, 34.1713561], [-97.1238733, 34.1713764]]]}, "properties": {"osm_id": 1383910599, "building": "yes", "name": "", "height": null, "height_m": null, "levels": null, "tract_id": "40019892801", "tract_name": "8928.01", "tags": {"building": "yes"}}}, {"type": "Feature", "geometry": {"type": "Polygon", "coordinates": [[[-97.1235947, 34.1712651], [-97.1235486, 34.1713612], [-97.1234713, 34.1713359], [-97.1235174, 34.1712398], [-97.1235947, 34.1712651]]]}, "properties": {"osm_id": 1383910600, "building": "yes", "name": "", "height": null, "height_m": null, "levels": null, "tract_id": "40019892801", "tract_name": "8928.01", "tags": {"building": "yes"}}}, {"type": "Feature", "geometry": {"type": "Polygon", "coordinates": [[[-97.1234365, 34.1712336], [-97.1233789, 34.1713613], [-97.1232978, 34.1713362], [-97.1233553, 34.1712086], [-97.1234365, 34.1712336]]]}, "properties": {"osm_id": 1383910601, "building": "yes", "name": "", "height": null, "height_m": null, "levels": null, "tract_id": "40019892801", "tract_name": "8928.01", "tags": {"addr:city": "Ardmore", "addr:housenumber": "417", "addr:postcode": "73401", "addr:state": "OK", "addr:street": "East Main Street", "building": "yes"}}}, {"type": "Feature", "geometry": {"type": "Polygon", "coordinates": [[[-97.1224455, 34.1712706], [-97.1224367, 34.1712697], [-97.1223779, 34.171264], [-97.1223735, 34.1712953], [-97.1224411, 34.1713018], [-97.1224455, 34.1712706]]]}, "properties": {"osm_id": 1383910602, "building": "carport", "name": "", "height": null, "height_m": null, "levels": null, "tract_id": "40019892801", "tract_name": "8928.01", "tags": {"building": "carport"}}}]}