{"type": "FeatureCollection", "features": [{"type": "Feature", "geometry": {"type": "Polygon", "coordinates": [[[-97.4577332, 35.666002], [-97.4574464, 35.6660823], [-97.4574192, 35.6660181], [-97.4573839, 35.666028], [-97.4574024, 35.6660717], [-97.4571664, 35.6661377], [-97.4571479, 35.666094], [-97.4571252, 35.6661004], [-97.4570797, 35.6659929], [-97.457433, 35.6658941], [-97.4573921, 35.6657974], [-97.4576195, 35.6657338], [-97.4576456, 35.6657952], [-97.4578492, 35.6657382], [-97.4578924, 35.66584], [-97.4578512, 35.6658516], [-97.4578727, 35.6659023], [-97.4577637, 35.6659329], [-97.4577578, 35.6659191], [-97.4577044, 35.665934], [-97.4577332, 35.666002]]]}, "properties": {"osm_id": 288986524, "building": "yes", "name": "Clubhouse", "height": null, "height_m": null, "levels": null, "tract_id": "40109108114", "tract_name": "1081.14", "tags": {"building": "yes", "name": "Clubhouse", "source": "Bing"}}}, {"type": "Feature", "geometry": {"type": "Polygon", "coordinates": [[[-97.4528322, 35.6652831], [-97.4527954, 35.6652918], [-97.4527842, 35.6652602], [-97.4528209, 35.6652515], [-97.4528322, 35.6652831]]]}, "properties": {"osm_id": 288986525, "building": "yes", "name": "", "height": null, "height_m": null, "levels": null, "tract_id": "40109108114", "tract_name": "1081.14", "tags": {"building": "yes", "roof:shape": "gabled", "source": "Bing"}}}, {"type": "Feature", "geometry": {"type": "Polygon", "coordinates": [[[-97.4596987, 35.6665197], [-97.4594899, 35.6665197], [-97.4594899, 35.6663882], [-97.4596987, 35.6663882], [-97.4596987, 35.6665197]]]}, "properties": {"osm_id": 288986526, "building": "yes", "name": "", "height": null, "height_m": null, "levels": null, "tract_id": "40109108114", "tract_name": "1081.14", "tags": {"building": "yes", "source": "Bing"}}}, {"type": "Feature", "geometry": {"type": "Polygon", "coordinates": [[[-97.4540064, 35.6664646], [-97.4539409, 35.6664646], [-97.4539409, 35.6664065], [-97.4540064, 35.6664065], [-97.4540064, 35.6664646]]]}, "properties": {"osm_id": 288986527, "building": "yes", "name": "", "height": null, "height_m": null, "levels": null, "tract_id": "40109108114", "tract_name": "1081.14", "tags": {"building": "yes", "roof:shape": "gabled", "source": "Bing"}}}, {"type": "Feature", "geometry": {"type": "Polygon", "coordinates": [[[-97.4583375, 35.6615284], [-97.4582576, 35.6615154], [-97.4582659, 35.6614818], [-97.4583458, 35.6614948], [-97.4583375, 35.6615284]]]}, "properties": {"osm_id": 288986528, "building": "yes", "name": "", "height": null, "height_m": null, "levels": null, "tract_id": "40109108114", "tract_name": "1081.14", "tags": {"building": "yes", "roof:shape": "gabled", "source": "Bing"}}}, {"type": "Feature", "geometry": {"type": "Polygon", "coordinates": [[[-97.4598403, 35.6661435], [-97.4596365, 35.6661402], [-97.4592329, 35.6661349], [-97.4592334, 35.6661079], [-97.4592387, 35.6658168], [-97.4598493, 35.665824], [-97.4598403, 35.6661435]]]}, "properties": {"osm_id": 288986529, "building": "yes", "name": "", "height": null, "height_m": null, "levels": null, "tract_id": "40109108114", "tract_name": "1081.14", "tags": {"building": "yes", "source": "Bing"}}}, {"type": "Feature", "geometry": {"type": "Polygon", "coordinates": [[[-97.4559457, 35.6603215], [-97.4558794, 35.6603472], [-97.4558588, 35.660312], [-97.455925, 35.6602863], [-97.4559457, 35.6603215]]]}, "properties": {"osm_id": 288988468, "building": "yes", "name": "", "height": null, "height_m": null, "levels": null, "tract_id": "40109108114", "tract_name": "1081.14", "tags": {"building": "yes", "roof:shape": "gabled", "source": "Bing"}}}, {"type": "Feature", "geometry": {"type": "Polygon", "coordinates": [[[-97.4558901, 35.6602709], [-97.4558204, 35.6602979], [-97.4557975, 35.6602588], [-97.4558671, 35.6602318], [-97.4558901, 35.6602709]]]}, "properties": {"osm_id": 288988469, "building": "yes", "name": "", "height": null, "height_m": null, "levels": null, "tract_id": "40109108114", "tract_name": "1081.14", "tags": {"building": "yes", "roof:shape": "gabled", "source": "Bing"}}}, {"type": "Feature", "geometry": {"type": "Polygon", "coordinates": [[[-97.4577226, 35.6657], [-97.457687, 35.6657097], [-97.4576754, 35.665682], [-97.457711, 35.6656722], [-97.4577226, 35.6657]]]}, "properties": {"osm_id": 289073663, "building": "roof", "name": "", "height": null, "height_m": null, "levels": null, "tract_id": "40109108114", "tract_name": "1081.14", "tags": {"building": "roof", "roof:shape": "pyramidal", "source": "Bing"}}}, {"type": "Feature", "geometry": {"type": "Polygon", "coordinates": [[[-97.4537744, 35.6668036], [-97.4537104, 35.6668134], [-97.4536494, 35.6668036], [-97.4536494, 35.6666837], [-97.4537127, 35.6666721], [-97.4537744, 35.6666837], [-97.4537744, 35.6668036]]]}, "properties": {"osm_id": 289073664, "building": "yes", "name": "", "height": null, "height_m": null, "levels": null, "tract_id": "40109108114", "tract_name": "1081.14", "tags": {"building": "yes", "source": "Bing"}}}, {"type": "Feature", "geometry": {"type": "Polygon", "coordinates": [[[-97.453717, 35.6669429], [-97.4534465, 35.6669429], [-97.4534348, 35.666878], [-97.4534465, 35.6668157], [-97.453717, 35.6668157], [-97.4537266, 35.6668789], [-97.453717, 35.6669429]]]}, "properties": {"osm_id": 289073665, "building": "yes", "name": "", "height": null, "height_m": null, "levels": null, "tract_id": "40109108114", "tract_name": "1081.14", "tags": {"building": "yes", "source": "Bing"}}}, {"type": "Feature", "geometry": {"type": "Polygon", "coordinates": [[[-97.453237, 35.6669907], [-97.4532028, 35.6669907], [-97.4532028, 35.666963], [-97.453237, 35.666963], [-97.453237, 35.6669907]]]}, "properties": {"osm_id": 289074322, "building": "yes", "name": "", "height": null, "height_m": null, "levels": null, "tract_id": "40109108114", "tract_name": "1081.14", "tags": {"building": "yes", "source": "Bing"}}}, {"type": "Feature", "geometry": {"type": "Polygon", "coordinates": [[[-97.4501752, 35.6576557], [-97.450207, 35.657473], [-97.4499656, 35.6574453], [-97.4499372, 35.6576084], [-97.4500081, 35.6576166], [-97.4500114, 35.657598], [-97.4500574, 35.6576033], [-97.4500508, 35.6576414], [-97.4501752, 35.6576557]]]}, "properties": {"osm_id": 312167696, "building": "house", "name": "", "height": null, "height_m": null, "levels": null, "tract_id": "40109108114", "tract_name": "1081.14", "tags": {"addr:city": "Edmond", "addr:country": "US", "addr:housenumber": "2304", "addr:postcode": "73034", "addr:state": "OK", "addr:street": "Foxwood Circle", "building": "house"}}}, {"type": "Feature", "geometry": {"type": "Polygon", "coordinates": [[[-97.4492857, 35.657494], [-97.4493377, 35.6574939], [-97.4493377, 35.6575096], [-97.4494367, 35.6575092], [-97.4494366, 35.6574825], [-97.4495365, 35.6574822], [-97.4495375, 35.6576948], [-97.4494521, 35.6576951], [-97.449452, 35.6576876], [-97.4494281, 35.6576877], [-97.4494279, 35.6576478], [-97.4492865, 35.6576483], [-97.4492857, 35.657494]]]}, "properties": {"osm_id": 312168338, "building": "house", "name": "", "height": null, "height_m": null, "levels": null, "tract_id": "40109108114", "tract_name": "1081.14", "tags": {"addr:city": "Edmond", "addr:country": "US", "addr:postcode": "73034", "addr:state": "OK", "addr:street": "Foxwood Circle", "building": "house"}}}, {"type": "Feature", "geometry": {"type": "Polygon", "coordinates": [[[-97.4494232, 35.6579663], [-97.4494215, 35.6580392], [-97.449455, 35.6580397], [-97.4494541, 35.6580795], [-97.4494727, 35.6580798], [-97.4494708, 35.6581634], [-97.4495317, 35.6581643], [-97.4495323, 35.6581423], [-97.4496854, 35.6581447], [-97.4496883, 35.6580182], [-97.4495465, 35.658016], [-97.4495476, 35.6579682], [-97.4494232, 35.6579663]]]}, "properties": {"osm_id": 312168339, "building": "house", "name": "", "height": null, "height_m": null, "levels": null, "tract_id": "40109108114", "tract_name": "1081.14", "tags": {"addr:city": "Edmond", "addr:country": "US", "addr:postcode": "73034", "addr:state": "OK", "addr:street": "Foxwood Circle", "building": "house"}}}, {"type": "Feature", "geometry": {"type": "Polygon", "coordinates": [[[-97.4495987, 35.6576319], [-97.4495993, 35.6575062], [-97.4497618, 35.6575068], [-97.449761, 35.6576656], [-97.4496839, 35.6576654], [-97.4496841, 35.6576322], [-97.4495987, 35.6576319]]]}, "properties": {"osm_id": 312168340, "building": "house", "name": "", "height": null, "height_m": null, "levels": null, "tract_id": "40109108114", "tract_name": "1081.14", "tags": {"addr:city": "Edmond", "addr:country": "US", "addr:postcode": "73034", "addr:state": "OK", "addr:street": "Foxwood Circle", "building": "house"}}}, {"type": "Feature", "geometry": {"type": "Polygon", "coordinates": [[[-97.4497871, 35.6580216], [-97.4499676, 35.6580183], [-97.449971, 35.6581437], [-97.4498727, 35.6581455], [-97.4498738, 35.6581879], [-97.4497917, 35.6581894], [-97.4497871, 35.6580216]]]}, "properties": {"osm_id": 312168341, "building": "house", "name": "", "height": null, "height_m": null, "levels": null, "tract_id": "40109108114", "tract_name": "1081.14", "tags": {"addr:city": "Edmond", "addr:country": "US", "addr:postcode": "73034", "addr:state": "OK", "addr:street": "Foxwood Circle", "building": "house"}}}, {"type": "Feature", "geometry": {"type": "Polygon", "coordinates": [[[-97.4500765, 35.6580287], [-97.4501893, 35.6581771], [-97.4502593, 35.658142], [-97.4502309, 35.6581045], [-97.4503001, 35.6580698], [-97.4502159, 35.6579588], [-97.4500765, 35.6580287]]]}, "properties": {"osm_id": 312168342, "building": "house", "name": "", "height": null, "height_m": null, "levels": null, "tract_id": "40109108114", "tract_name": "1081.14", "tags": {"addr:city": "Edmond", "addr:country": "US", "addr:postcode": "73034", "addr:state": "OK", "addr:street": "Foxwood Circle", "building": "house"}}}, {"type": "Feature", "geometry": {"type": "Polygon", "coordinates": [[[-97.4492652, 35.6579789], [-97.4490596, 35.65801], [-97.449113, 35.6582431], [-97.4491939, 35.6582308], [-97.449189, 35.6582097], [-97.44924, 35.6582019], [-97.4492219, 35.6581227], [-97.4492956, 35.6581116], [-97.4492652, 35.6579789]]]}, "properties": {"osm_id": 312168343, "building": "house", "name": "", "height": null, "height_m": null, "levels": null, "tract_id": "40109108114", "tract_name": "1081.14", "tags": {"addr:city": "Edmond", "addr:country": "US", "addr:postcode": "73034", "addr:state": "OK", "addr:street": "Foxwood Circle", "building": "house"}}}, {"type": "Feature", "geometry": {"type": "Polygon", "coordinates": [[[-97.4502219, 35.6577402], [-97.45046, 35.6577008], [-97.4504793, 35.6577776], [-97.4504262, 35.6577864], [-97.4504498, 35.6578805], [-97.4503396, 35.6578988], [-97.4503157, 35.6578034], [-97.4502409, 35.6578158], [-97.4502219, 35.6577402]]]}, "properties": {"osm_id": 312168344, "building": "house", "name": "", "height": null, "height_m": null, "levels": null, "tract_id": "40109108114", "tract_name": "1081.14", "tags": {"addr:city": "Edmond", "addr:country": "US", "addr:postcode": "73034", "addr:state": "OK", "addr:street": "Foxwood Circle", "building": "house"}}}, {"type": "Feature", "geometry": {"type": "Polygon", "coordinates": [[[-97.4495501, 35.6583558], [-97.4495569, 35.6585458], [-97.4496583, 35.6585434], [-97.4496565, 35.6584946], [-97.4497103, 35.6584933], [-97.4497115, 35.6585267], [-97.4497761, 35.6585251], [-97.4497706, 35.6583725], [-97.4496445, 35.6583755], [-97.4496437, 35.6583535], [-97.4495501, 35.6583558]]]}, "properties": {"osm_id": 312169205, "building": "house", "name": "", "height": null, "height_m": null, "levels": null, "tract_id": "40109108114", "tract_name": "1081.14", "tags": {"addr:city": "Edmond", "addr:country": "US", "addr:postcode": "73034", "addr:state": "OK", "addr:street": "Halifax Court", "building": "house"}}}, {"type": "Feature", "geometry": {"type": "Polygon", "coordinates": [[[-97.4499506, 35.6584689], [-97.4500357, 35.6584697], [-97.4500367, 35.6584067], [-97.4500993, 35.6584073], [-97.4501009, 35.6583107], [-97.4499462, 35.658309], [-97.4499458, 35.6583345], [-97.4498921, 35.658334], [-97.4498907, 35.658425], [-97.4499513, 35.6584257], [-97.4499506, 35.6584689]]]}, "properties": {"osm_id": 312169206, "building": "house", "name": "", "height": null, "height_m": null, "levels": null, "tract_id": "40109108114", "tract_name": "1081.14", "tags": {"addr:city": "Edmond", "addr:country": "US", "addr:postcode": "73034", "addr:state": "OK", "addr:street": "Halifax Court", "building": "house"}}}, {"type": "Feature", "geometry": {"type": "Polygon", "coordinates": [[[-97.4501392, 35.6588745], [-97.4501571, 35.6589366], [-97.450127, 35.6589423], [-97.4501467, 35.6590106], [-97.4500267, 35.6590335], [-97.4500198, 35.6590096], [-97.4499756, 35.6590181], [-97.4499517, 35.658935], [-97.4500756, 35.6589114], [-97.4500689, 35.6588879], [-97.4501392, 35.6588745]]]}, "properties": {"osm_id": 312169207, "building": "house", "name": "", "height": null, "height_m": null, "levels": null, "tract_id": "40109108114", "tract_name": "1081.14", "tags": {"addr:city": "Edmond", "addr:country": "US", "addr:postcode": "73034", "addr:state": "OK", "addr:street": "Halifax Court", "building": "house"}}}, {"type": "Feature", "geometry": {"type": "Polygon", "coordinates": [[[-97.4491709, 35.6583706], [-97.4491914, 35.6584801], [-97.4492093, 35.6584779], [-97.4492258, 35.6585659], [-97.4494875, 35.6585335], [-97.4494741, 35.6584619], [-97.4494619, 35.6584634], [-97.4494503, 35.6584015], [-97.4493869, 35.6584094], [-97.4493982, 35.6584695], [-97.4493347, 35.6584773], [-97.4493114, 35.6583532], [-97.4491709, 35.6583706]]]}, "properties": {"osm_id": 312169208, "building": "house", "name": "", "height": null, "height_m": null, "levels": null, "tract_id": "40109108114", "tract_name": "1081.14", "tags": {"addr:city": "Edmond", "addr:country": "US", "addr:postcode": "73034", "addr:state": "OK", "addr:street": "Halifax Court", "building": "house"}}}, {"type": "Feature", "geometry": {"type": "Polygon", "coordinates": [[[-97.4502024, 35.6588105], [-97.4503797, 35.6589096], [-97.4504249, 35.6588563], [-97.4503781, 35.6588301], [-97.4504106, 35.6587918], [-97.4504217, 35.658798], [-97.4504415, 35.6587746], [-97.4503274, 35.6587108], [-97.4502814, 35.6587651], [-97.4502659, 35.6587564], [-97.4502468, 35.6587789], [-97.4502348, 35.6587722], [-97.4502024, 35.6588105]]]}, "properties": {"osm_id": 312169209, "building": "house", "name": "", "height": null, "height_m": null, "levels": null, "tract_id": "40109108114", "tract_name": "1081.14", "tags": {"addr:city": "Edmond", "addr:country": "US", "addr:postcode": "73034", "addr:state": "OK", "addr:street": "Halifax Court", "building": "house"}}}, {"type": "Feature", "geometry": {"type": "Polygon", "coordinates": [[[-97.4501959, 35.6585002], [-97.4503844, 35.6584266], [-97.4504265, 35.6584978], [-97.4503931, 35.6585108], [-97.450435, 35.6585817], [-97.4503321, 35.6586219], [-97.4502804, 35.6585344], [-97.4502282, 35.6585548], [-97.4501959, 35.6585002]]]}, "properties": {"osm_id": 312169210, "building": "house", "name": "", "height": null, "height_m": null, "levels": null, "tract_id": "40109108114", "tract_name": "1081.14", "tags": {"addr:city": "Edmond", "addr:country": "US", "addr:postcode": "73034", "addr:state": "OK", "addr:street": "Halifax Court", "building": "house"}}}, {"type": "Feature", "geometry": {"type": "Polygon", "coordinates": [[[-97.4498501, 35.658988], [-97.4498504, 35.6588302], [-97.4497335, 35.65883], [-97.4497334, 35.6588596], [-97.4497156, 35.6588595], [-97.4497156, 35.6588447], [-97.4496326, 35.6588446], [-97.4496323, 35.6589877], [-97.4498501, 35.658988]]]}, "properties": {"osm_id": 312169211, "building": "house", "name": "", "height": null, "height_m": null, "levels": null, "tract_id": "40109108114", "tract_name": "1081.14", "tags": {"addr:city": "Edmond", "addr:country": "US", "addr:postcode": "73034", "addr:state": "OK", "addr:street": "Halifax Court", "building": "house"}}}, {"type": "Feature", "geometry": {"type": "Polygon", "coordinates": [[[-97.4495505, 35.6589844], [-97.4495483, 35.6588213], [-97.4493253, 35.6588233], [-97.4493281, 35.6590333], [-97.4494203, 35.6590325], [-97.4494191, 35.6589473], [-97.4494825, 35.6589468], [-97.449483, 35.658985], [-97.4495505, 35.6589844]]]}, "properties": {"osm_id": 312169212, "building": "house", "name": "", "height": null, "height_m": null, "levels": null, "tract_id": "40109108114", "tract_name": "1081.14", "tags": {"addr:city": "Edmond", "addr:country": "US", "addr:postcode": "73034", "addr:state": "OK", "addr:street": "Halifax Court", "building": "house"}}}, {"type": "Feature", "geometry": {"type": "Polygon", "coordinates": [[[-97.4483994, 35.6568714], [-97.4485913, 35.6567746], [-97.4486677, 35.6568745], [-97.4486315, 35.6568927], [-97.4486373, 35.6569003], [-97.4485965, 35.6569209], [-97.4486024, 35.6569286], [-97.4485686, 35.6569457], [-97.44861, 35.6569999], [-97.448529, 35.6570408], [-97.4483994, 35.6568714]]]}, "properties": {"osm_id": 312169685, "building": "house", "name": "", "height": null, "height_m": null, "levels": null, "tract_id": "40109108114", "tract_name": "1081.14", "tags": {"addr:city": "Edmond", "addr:country": "US", "addr:postcode": "73034", "addr:state": "OK", "addr:street": "Huntwick Drive", "building": "house"}}}, {"type": "Feature", "geometry": {"type": "Polygon", "coordinates": [[[-97.4441408, 35.6582091], [-97.4440686, 35.6580359], [-97.444184, 35.6580042], [-97.4441899, 35.6580183], [-97.4442164, 35.658011], [-97.4442332, 35.6580513], [-97.4442584, 35.6580443], [-97.4442819, 35.6581008], [-97.4442622, 35.6581062], [-97.4442882, 35.6581685], [-97.4441408, 35.6582091]]]}, "properties": {"osm_id": 312169686, "building": "house", "name": "", "height": null, "height_m": null, "levels": null, "tract_id": "40109108114", "tract_name": "1081.14", "tags": {"addr:city": "Edmond", "addr:country": "US", "addr:postcode": "73034", "addr:state": "OK", "addr:street": "Huntwick Drive", "building": "house"}}}, {"type": "Feature", "geometry": {"type": "Polygon", "coordinates": [[[-97.4437815, 35.6581981], [-97.4437736, 35.6580939], [-97.4437502, 35.6580951], [-97.443745, 35.6580261], [-97.443642, 35.6580312], [-97.4436411, 35.6580191], [-97.4434816, 35.6580271], [-97.4434898, 35.6581358], [-97.4436755, 35.6581265], [-97.4436813, 35.6582031], [-97.4437815, 35.6581981]]]}, "properties": {"osm_id": 312169687, "building": "house", "name": "", "height": null, "height_m": null, "levels": null, "tract_id": "40109108114", "tract_name": "1081.14", "tags": {"addr:city": "Edmond", "addr:country": "US", "addr:postcode": "73034", "addr:state": "OK", "addr:street": "Huntwick Drive", "building": "house"}}}, {"type": "Feature", "geometry": {"type": "Polygon", "coordinates": [[[-97.4492649, 35.6570019], [-97.4493797, 35.6570673], [-97.4492945, 35.6571541], [-97.449349, 35.6571855], [-97.4492956, 35.657234], [-97.4492469, 35.6571971], [-97.4492237, 35.6572151], [-97.4492104, 35.6571971], [-97.4491157, 35.6572474], [-97.4490639, 35.6571885], [-97.4491607, 35.6571249], [-97.4492649, 35.6570019]]]}, "properties": {"osm_id": 312169688, "building": "house", "name": "", "height": null, "height_m": null, "levels": null, "tract_id": "40109108114", "tract_name": "1081.14", "tags": {"addr:city": "Edmond", "addr:country": "US", "addr:postcode": "73034", "addr:state": "OK", "addr:street": "Huntwick Drive", "building": "house"}}}, {"type": "Feature", "geometry": {"type": "Polygon", "coordinates": [[[-97.4461979, 35.6571961], [-97.4462553, 35.6573265], [-97.4461659, 35.6573525], [-97.4461582, 35.657335], [-97.4460681, 35.6573612], [-97.4460742, 35.6573752], [-97.4461004, 35.6573676], [-97.4461329, 35.6574413], [-97.4460289, 35.6574715], [-97.4459337, 35.6572556], [-97.4460387, 35.657225], [-97.4460455, 35.6572404], [-97.4461979, 35.6571961]]]}, "properties": {"osm_id": 312169689, "building": "house", "name": "", "height": null, "height_m": null, "levels": null, "tract_id": "40109108114", "tract_name": "1081.14", "tags": {"addr:city": "Edmond", "addr:country": "US", "addr:postcode": "73034", "addr:state": "OK", "addr:street": "Huntwick Drive", "building": "house"}}}, {"type": "Feature", "geometry": {"type": "Polygon", "coordinates": [[[-97.4491945, 35.6569131], [-97.4493513, 35.6568134], [-97.4493399, 35.6568016], [-97.4494, 35.6567634], [-97.4493357, 35.6566966], [-97.4493046, 35.6567163], [-97.4492671, 35.6566774], [-97.4492874, 35.6566645], [-97.4492523, 35.6566281], [-97.4491306, 35.6567055], [-97.4492159, 35.656794], [-97.4491315, 35.6568477], [-97.4491945, 35.6569131]]]}, "properties": {"osm_id": 312169690, "building": "house", "name": "", "height": null, "height_m": null, "levels": null, "tract_id": "40109108114", "tract_name": "1081.14", "tags": {"addr:city": "Edmond", "addr:country": "US", "addr:postcode": "73034", "addr:state": "OK", "addr:street": "Huntwick Drive", "building": "house"}}}, {"type": "Feature", "geometry": {"type": "Polygon", "coordinates": [[[-97.4480177, 35.6573064], [-97.4481152, 35.6572482], [-97.4480882, 35.6572184], [-97.4481737, 35.6571674], [-97.4481643, 35.657157], [-97.4481987, 35.6571365], [-97.4481896, 35.6571264], [-97.4482299, 35.6571024], [-97.4481377, 35.6570003], [-97.4479099, 35.6571361], [-97.4479927, 35.6572277], [-97.4479627, 35.6572456], [-97.4480177, 35.6573064]]]}, "properties": {"osm_id": 312169691, "building": "house", "name": "", "height": null, "height_m": null, "levels": null, "tract_id": "40109108114", "tract_name": "1081.14", "tags": {"addr:city": "Edmond", "addr:country": "US", "addr:postcode": "73034", "addr:state": "OK", "addr:street": "Huntwick Drive", "building": "house"}}}, {"type": "Feature", "geometry": {"type": "Polygon", "coordinates": [[[-97.4487564, 35.6567881], [-97.448879, 35.6567732], [-97.44887, 35.6567244], [-97.4490032, 35.6567083], [-97.4489787, 35.6565747], [-97.4489019, 35.656584], [-97.448907, 35.6566115], [-97.4488564, 35.6566176], [-97.4488518, 35.6565925], [-97.4487481, 35.6566051], [-97.448769, 35.6567192], [-97.4487443, 35.6567222], [-97.4487564, 35.6567881]]]}, "properties": {"osm_id": 312169692, "building": "house", "name": "", "height": null, "height_m": null, "levels": null, "tract_id": "40109108114", "tract_name": "1081.14", "tags": {"addr:city": "Edmond", "addr:country": "US", "addr:postcode": "73034", "addr:state": "OK", "addr:street": "Huntwick Drive", "building": "house"}}}, {"type": "Feature", "geometry": {"type": "Polygon", "coordinates": [[[-97.4478738, 35.657379], [-97.4478647, 35.6573066], [-97.4478274, 35.6573097], [-97.4478138, 35.6572012], [-97.4476972, 35.6572108], [-97.4477005, 35.6572377], [-97.447587, 35.6572471], [-97.4475998, 35.6573495], [-97.4476444, 35.6573458], [-97.4476466, 35.6573632], [-97.447729, 35.6573564], [-97.4477269, 35.6573397], [-97.4477446, 35.6573382], [-97.447751, 35.6573892], [-97.4478738, 35.657379]]]}, "properties": {"osm_id": 312169693, "building": "house", "name": "", "height": null, "height_m": null, "levels": null, "tract_id": "40109108114", "tract_name": "1081.14", "tags": {"addr:city": "Edmond", "addr:country": "US", "addr:postcode": "73034", "addr:state": "OK", "addr:street": "Huntwick Drive", "building": "house"}}}, {"type": "Feature", "geometry": {"type": "Polygon", "coordinates": [[[-97.4431969, 35.658886], [-97.4431969, 35.658798], [-97.4431839, 35.658798], [-97.4431839, 35.6587813], [-97.4431995, 35.6587813], [-97.4431995, 35.6587254], [-97.4431718, 35.6587254], [-97.4431718, 35.6586631], [-97.4430593, 35.6586631], [-97.4430593, 35.6587286], [-97.4430261, 35.6587286], [-97.4430261, 35.6588258], [-97.4430063, 35.6588258], [-97.4430063, 35.658886], [-97.4431969, 35.658886]]]}, "properties": {"osm_id": 312169694, "building": "house", "name": "", "height": null, "height_m": null, "levels": null, "tract_id": "40109108114", "tract_name": "1081.14", "tags": {"addr:city": "Edmond", "addr:country": "US", "addr:postcode": "73034", "addr:state": "OK", "addr:street": "Huntwick Drive", "building": "house"}}}, {"type": "Feature", "geometry": {"type": "Polygon", "coordinates": [[[-97.4444408, 35.6584033], [-97.4445438, 35.6584636], [-97.4444981, 35.6585151], [-97.4445118, 35.6585231], [-97.444403, 35.658646], [-97.4443065, 35.6585896], [-97.4443207, 35.6585737], [-97.4442974, 35.6585601], [-97.4443117, 35.6585439], [-97.4442884, 35.6585302], [-97.4443064, 35.6585098], [-97.4442586, 35.6584819], [-97.4442959, 35.6584398], [-97.4443514, 35.6584722], [-97.44437, 35.6584512], [-97.4443887, 35.6584622], [-97.4444408, 35.6584033]]]}, "properties": {"osm_id": 312169695, "building": "house", "name": "", "height": null, "height_m": null, "levels": null, "tract_id": "40109108114", "tract_name": "1081.14", "tags": {"addr:city": "Edmond", "addr:country": "US", "addr:postcode": "73034", "addr:state": "OK", "addr:street": "Huntwick Drive", "building": "house"}}}, {"type": "Feature", "geometry": {"type": "Polygon", "coordinates": [[[-97.4455487, 35.6580502], [-97.4456608, 35.6580084], [-97.4457551, 35.6581753], [-97.445643, 35.6582171], [-97.4455487, 35.6580502]]]}, "properties": {"osm_id": 312169696, "building": "house", "name": "", "height": null, "height_m": null, "levels": null, "tract_id": "40109108114", "tract_name": "1081.14", "tags": {"addr:city": "Edmond", "addr:country": "US", "addr:postcode": "73034", "addr:state": "OK", "addr:street": "Huntwick Drive", "building": "house"}}}, {"type": "Feature", "geometry": {"type": "Polygon", "coordinates": [[[-97.4460454, 35.6580262], [-97.4459653, 35.6578265], [-97.446098, 35.6577914], [-97.4461781, 35.657991], [-97.4460454, 35.6580262]]]}, "properties": {"osm_id": 312169697, "building": "house", "name": "", "height": null, "height_m": null, "levels": null, "tract_id": "40109108114", "tract_name": "1081.14", "tags": {"addr:city": "Edmond", "addr:country": "US", "addr:postcode": "73034", "addr:state": "OK", "addr:street": "Huntwick Drive", "building": "house"}}}, {"type": "Feature", "geometry": {"type": "Polygon", "coordinates": [[[-97.4462953, 35.6572258], [-97.4463795, 35.6572273], [-97.44638, 35.657211], [-97.4465095, 35.6572134], [-97.4465058, 35.6573426], [-97.4462921, 35.6573386], [-97.4462953, 35.6572258]]]}, "properties": {"osm_id": 312169698, "building": "house", "name": "", "height": null, "height_m": null, "levels": null, "tract_id": "40109108114", "tract_name": "1081.14", "tags": {"addr:city": "Edmond", "addr:country": "US", "addr:postcode": "73034", "addr:state": "OK", "addr:street": "Huntwick Drive", "building": "house"}}}, {"type": "Feature", "geometry": {"type": "Polygon", "coordinates": [[[-97.44588, 35.6573172], [-97.4456858, 35.6574259], [-97.4457705, 35.6575258], [-97.4458769, 35.6574663], [-97.4458602, 35.6574465], [-97.4459479, 35.6573974], [-97.44588, 35.6573172]]]}, "properties": {"osm_id": 312169699, "building": "house", "name": "", "height": null, "height_m": null, "levels": null, "tract_id": "40109108114", "tract_name": "1081.14", "tags": {"addr:city": "Edmond", "addr:country": "US", "addr:postcode": "73034", "addr:state": "OK", "addr:street": "Huntwick Drive", "building": "house"}}}, {"type": "Feature", "geometry": {"type": "Polygon", "coordinates": [[[-97.4466215, 35.6573969], [-97.4467052, 35.6573965], [-97.446705, 35.657372], [-97.446867, 35.6573711], [-97.4468656, 35.6572058], [-97.4466198, 35.6572072], [-97.4466215, 35.6573969]]]}, "properties": {"osm_id": 312169700, "building": "house", "name": "", "height": null, "height_m": null, "levels": null, "tract_id": "40109108114", "tract_name": "1081.14", "tags": {"addr:city": "Edmond", "addr:country": "US", "addr:postcode": "73034", "addr:state": "OK", "addr:street": "Huntwick Drive", "building": "house"}}}, {"type": "Feature", "geometry": {"type": "Polygon", "coordinates": [[[-97.4477153, 35.6576978], [-97.4477909, 35.6579042], [-97.4479388, 35.6578684], [-97.4478952, 35.6577495], [-97.447835, 35.657764], [-97.447803, 35.6576766], [-97.4477153, 35.6576978]]]}, "properties": {"osm_id": 312169701, "building": "house", "name": "", "height": null, "height_m": null, "levels": null, "tract_id": "40109108114", "tract_name": "1081.14", "tags": {"addr:city": "Edmond", "addr:country": "US", "addr:postcode": "73034", "addr:state": "OK", "addr:street": "Huntwick Drive", "building": "house"}}}, {"type": "Feature", "geometry": {"type": "Polygon", "coordinates": [[[-97.4473772, 35.6578253], [-97.4473768, 35.6577551], [-97.4473091, 35.6577554], [-97.4473086, 35.6576726], [-97.4471544, 35.6576733], [-97.4471554, 35.6578262], [-97.4473772, 35.6578253]]]}, "properties": {"osm_id": 312169702, "building": "house", "name": "", "height": null, "height_m": null, "levels": null, "tract_id": "40109108114", "tract_name": "1081.14", "tags": {"addr:city": "Edmond", "addr:country": "US", "addr:postcode": "73034", "addr:state": "OK", "addr:street": "Huntwick Drive", "building": "house"}}}, {"type": "Feature", "geometry": {"type": "Polygon", "coordinates": [[[-97.4484319, 35.6574348], [-97.4481972, 35.6575539], [-97.4483138, 35.6577056], [-97.4484584, 35.6576322], [-97.4483935, 35.6575479], [-97.4484836, 35.6575021], [-97.4484319, 35.6574348]]]}, "properties": {"osm_id": 312169703, "building": "house", "name": "", "height": null, "height_m": null, "levels": null, "tract_id": "40109108114", "tract_name": "1081.14", "tags": {"addr:city": "Edmond", "addr:country": "US", "addr:postcode": "73034", "addr:state": "OK", "addr:street": "Huntwick Drive", "building": "house"}}}, {"type": "Feature", "geometry": {"type": "Polygon", "coordinates": [[[-97.4453422, 35.6583549], [-97.4452288, 35.6581566], [-97.4449948, 35.658245], [-97.4450439, 35.6583308], [-97.4451821, 35.6582785], [-97.4452465, 35.6583911], [-97.4453422, 35.6583549]]]}, "properties": {"osm_id": 312169704, "building": "house", "name": "", "height": null, "height_m": null, "levels": null, "tract_id": "40109108114", "tract_name": "1081.14", "tags": {"addr:city": "Edmond", "addr:country": "US", "addr:postcode": "73034", "addr:state": "OK", "addr:street": "Huntwick Drive", "building": "house"}}}, {"type": "Feature", "geometry": {"type": "Polygon", "coordinates": [[[-97.4488287, 35.6574559], [-97.4489206, 35.6574258], [-97.4489086, 35.6574018], [-97.4489512, 35.6573878], [-97.4489138, 35.6573127], [-97.4489756, 35.6572924], [-97.4489334, 35.6572076], [-97.4487373, 35.657272], [-97.4488287, 35.6574559]]]}, "properties": {"osm_id": 312169705, "building": "house", "name": "", "height": null, "height_m": null, "levels": null, "tract_id": "40109108114", "tract_name": "1081.14", "tags": {"addr:city": "Edmond", "addr:country": "US", "addr:postcode": "73034", "addr:state": "OK", "addr:street": "Huntwick Drive", "building": "house"}}}, {"type": "Feature", "geometry": {"type": "Polygon", "coordinates": [[[-97.4472348, 35.657401], [-97.4472356, 35.6573205], [-97.4471733, 35.6573201], [-97.4471744, 35.6572074], [-97.4471224, 35.6572071], [-97.4471226, 35.6571912], [-97.4469892, 35.6571904], [-97.4469872, 35.6573994], [-97.4472348, 35.657401]]]}, "properties": {"osm_id": 312169706, "building": "house", "name": "", "height": null, "height_m": null, "levels": null, "tract_id": "40109108114", "tract_name": "1081.14", "tags": {"addr:city": "Edmond", "addr:country": "US", "addr:postcode": "73034", "addr:state": "OK", "addr:street": "Huntwick Drive", "building": "house"}}}, {"type": "Feature", "geometry": {"type": "Polygon", "coordinates": [[[-97.4454452, 35.6578105], [-97.4455798, 35.6577329], [-97.4454481, 35.6575819], [-97.4453492, 35.6576389], [-97.445388, 35.6576833], [-97.4453178, 35.6577237], [-97.4453601, 35.6577722], [-97.4453945, 35.6577524], [-97.4454452, 35.6578105]]]}, "properties": {"osm_id": 312169707, "building": "house", "name": "", "height": null, "height_m": null, "levels": null, "tract_id": "40109108114", "tract_name": "1081.14", "tags": {"addr:city": "Edmond", "addr:country": "US", "addr:postcode": "73034", "addr:state": "OK", "addr:street": "Huntwick Drive", "building": "house"}}}, {"type": "Feature", "geometry": {"type": "Polygon", "coordinates": [[[-97.4465316, 35.6579252], [-97.4467051, 35.6578841], [-97.4466745, 35.6577987], [-97.446801, 35.6577687], [-97.4467668, 35.6576735], [-97.4466544, 35.6577001], [-97.4466593, 35.6577138], [-97.4464717, 35.6577582], [-97.4465316, 35.6579252]]]}, "properties": {"osm_id": 312169708, "building": "house", "name": "", "height": null, "height_m": null, "levels": null, "tract_id": "40109108114", "tract_name": "1081.14", "tags": {"addr:city": "Edmond", "addr:country": "US", "addr:postcode": "73034", "addr:state": "OK", "addr:street": "Huntwick Drive", "building": "house"}}}, {"type": "Feature", "geometry": {"type": "Polygon", "coordinates": [[[-97.44749, 35.6574068], [-97.4474915, 35.6573377], [-97.4474584, 35.6573372], [-97.4474604, 35.6572463], [-97.447291, 35.6572437], [-97.4472879, 35.6573814], [-97.4473716, 35.6573826], [-97.4473711, 35.6574051], [-97.44749, 35.6574068]]]}, "properties": {"osm_id": 312169709, "building": "house", "name": "", "height": null, "height_m": null, "levels": null, "tract_id": "40109108114", "tract_name": "1081.14", "tags": {"addr:city": "Edmond", "addr:country": "US", "addr:postcode": "73034", "addr:state": "OK", "addr:street": "Huntwick Drive", "building": "house"}}}, {"type": "Feature", "geometry": {"type": "Polygon", "coordinates": [[[-97.4439312, 35.6586258], [-97.4438319, 35.6586555], [-97.4438585, 35.6587141], [-97.4438188, 35.658726], [-97.4438505, 35.658796], [-97.4438946, 35.6587828], [-97.4439218, 35.658843], [-97.4440168, 35.6588147], [-97.4439312, 35.6586258]]]}, "properties": {"osm_id": 312169710, "building": "house", "name": "", "height": null, "height_m": null, "levels": null, "tract_id": "40109108114", "tract_name": "1081.14", "tags": {"addr:city": "Edmond", "addr:country": "US", "addr:postcode": "73034", "addr:state": "OK", "addr:street": "Huntwick Drive", "building": "house"}}}, {"type": "Feature", "geometry": {"type": "Polygon", "coordinates": [[[-97.442975, 35.666481], [-97.443099, 35.666481], [-97.443099, 35.666525], [-97.443351, 35.666526], [-97.443351, 35.666483], [-97.443464, 35.666483], [-97.443465, 35.666271], [-97.443347, 35.666271], [-97.443347, 35.666236], [-97.443094, 35.666235], [-97.443094, 35.666283], [-97.442976, 35.666283], [-97.442975, 35.666481]]]}, "properties": {"osm_id": 856387195, "building": "yes", "name": "", "height": null, "height_m": null, "levels": null, "tract_id": "40109108114", "tract_name": "1081.14", "tags": {"building": "yes", "source": "microsoft/BuildingFootprints"}}}, {"type": "Feature", "geometry": {"type": "Polygon", "coordinates": [[[-97.459719, 35.658279], [-97.459993, 35.658279], [-97.459993, 35.658063], [-97.459719, 35.658063], [-97.459719, 35.658279]]]}, "properties": {"osm_id": 856390046, "building": "yes", "name": "", "height": null, "height_m": null, "levels": null, "tract_id": "40109108114", "tract_name": "1081.14", "tags": {"building": "yes", "source": "microsoft/BuildingFootprints"}}}, {"type": "Feature", "geometry": {"type": "Polygon", "coordinates": [[[-97.459719, 35.657793], [-97.459719, 35.658], [-97.459993, 35.658], [-97.459993, 35.657793], [-97.459719, 35.657793]]]}, "properties": {"osm_id": 856390047, "building": "yes", "name": "", "height": null, "height_m": null, "levels": null, "tract_id": "40109108114", "tract_name": "1081.14", "tags": {"building": "yes", "source": "microsoft/BuildingFootprints"}}}, {"type": "Feature", "geometry": {"type": "Polygon", "coordinates": [[[-97.459169, 35.657921], [-97.45887, 35.657797], [-97.45876, 35.657974], [-97.458852, 35.658012], [-97.458855, 35.658007], [-97.459083, 35.658101], [-97.459122, 35.658038], [-97.459039, 35.658004], [-97.459075, 35.657947], [-97.459136, 35.657972], [-97.459169, 35.657921]]]}, "properties": {"osm_id": 856390048, "building": "yes", "name": "", "height": null, "height_m": null, "levels": null, "tract_id": "40109108114", "tract_name": "1081.14", "tags": {"building": "yes", "source": "microsoft/BuildingFootprints"}}}, {"type": "Feature", "geometry": {"type": "Polygon", "coordinates": [[[-97.458409, 35.657843], [-97.458682, 35.657934], [-97.458783, 35.657734], [-97.458509, 35.657643], [-97.458409, 35.657843]]]}, "properties": {"osm_id": 856390049, "building": "yes", "name": "", "height": null, "height_m": null, "levels": null, "tract_id": "40109108114", "tract_name": "1081.14", "tags": {"building": "yes", "source": "microsoft/BuildingFootprints"}}}, {"type": "Feature", "geometry": {"type": "Polygon", "coordinates": [[[-97.458992, 35.65761], [-97.458777, 35.657516], [-97.458747, 35.657561], [-97.458961, 35.657656], [-97.458992, 35.65761]]]}, "properties": {"osm_id": 856390050, "building": "yes", "name": "", "height": null, "height_m": null, "levels": null, "tract_id": "40109108114", "tract_name": "1081.14", "tags": {"building": "yes", "source": "microsoft/BuildingFootprints"}}}, {"type": "Feature", "geometry": {"type": "Polygon", "coordinates": [[[-97.45943, 35.657667], [-97.459199, 35.657667], [-97.459199, 35.657713], [-97.45943, 35.657713], [-97.45943, 35.657667]]]}, "properties": {"osm_id": 856390051, "building": "yes", "name": "", "height": null, "height_m": null, "levels": null, "tract_id": "40109108114", "tract_name": "1081.14", "tags": {"building": "yes", "source": "microsoft/BuildingFootprints"}}}, {"type": "Feature", "geometry": {"type": "Polygon", "coordinates": [[[-97.459655, 35.656917], [-97.459598, 35.656917], [-97.459597, 35.657072], [-97.459639, 35.657072], [-97.459638, 35.657115], [-97.459676, 35.657115], [-97.459675, 35.657263], [-97.460021, 35.657265], [-97.460022, 35.657113], [-97.460078, 35.657113], [-97.460079, 35.657059], [-97.460191, 35.657059], [-97.460192, 35.656976], [-97.460076, 35.656975], [-97.460077, 35.656924], [-97.46003, 35.656923], [-97.460031, 35.656784], [-97.459978, 35.656784], [-97.459978, 35.656757], [-97.459649, 35.656759], [-97.459655, 35.656917]]]}, "properties": {"osm_id": 856390052, "building": "yes", "name": "Triad Complete Healthcare - Edmond", "height": null, "height_m": null, "levels": null, "tract_id": "40109108114", "tract_name": "1081.14", "tags": {"addr:city": "Edmond", "addr:housenumber": "200", "addr:postcode": "73034", "addr:state": "OK", "addr:street": "North Bryant Avenue", "addr:unit": "105", "building": "yes", "healthcare": "clinic", "healthcare:speciality": "medical_clinic", "name": "Triad Complete Healthcare - Edmond", "opening_hours": "Mo-Fr: 08:00-18:00; Sa-Su off", "phone": "+1 405 300 8964", "source": "microsoft/BuildingFootprints", "website": "https://www.triadcompletehealthcare.com/edmond.html"}}}, {"type": "Feature", "geometry": {"type": "Polygon", "coordinates": [[[-97.459139, 35.657141], [-97.458849, 35.657142], [-97.45885, 35.657358], [-97.45914, 35.657358], [-97.459139, 35.657141]]]}, "properties": {"osm_id": 856390053, "building": "yes", "name": "", "height": null, "height_m": null, "levels": null, "tract_id": "40109108114", "tract_name": "1081.14", "tags": {"building": "yes", "source": "microsoft/BuildingFootprints"}}}, {"type": "Feature", "geometry": {"type": "Polygon", "coordinates": [[[-97.458752, 35.657338], [-97.458754, 35.657097], [-97.458492, 35.657095], [-97.458489, 35.657299], [-97.458471, 35.657299], [-97.45847, 35.657336], [-97.458752, 35.657338]]]}, "properties": {"osm_id": 856390054, "building": "yes", "name": "", "height": null, "height_m": null, "levels": null, "tract_id": "40109108114", "tract_name": "1081.14", "tags": {"building": "yes", "source": "microsoft/BuildingFootprints"}}}, {"type": "Feature", "geometry": {"type": "Polygon", "coordinates": [[[-97.459154, 35.656832], [-97.458893, 35.656832], [-97.458893, 35.65708], [-97.459154, 35.65708], [-97.459154, 35.656832]]]}, "properties": {"osm_id": 856390055, "building": "yes", "name": "", "height": null, "height_m": null, "levels": null, "tract_id": "40109108114", "tract_name": "1081.14", "tags": {"building": "yes", "source": "microsoft/BuildingFootprints"}}}, {"type": "Feature", "geometry": {"type": "Polygon", "coordinates": [[[-97.459124, 35.656697], [-97.458853, 35.656697], [-97.458853, 35.656738], [-97.459124, 35.656738], [-97.459124, 35.656697]]]}, "properties": {"osm_id": 856390056, "building": "yes", "name": "", "height": null, "height_m": null, "levels": null, "tract_id": "40109108114", "tract_name": "1081.14", "tags": {"building": "yes", "source": "microsoft/BuildingFootprints"}}}, {"type": "Feature", "geometry": {"type": "Polygon", "coordinates": [[[-97.458491, 35.656741], [-97.458754, 35.656741], [-97.458754, 35.656693], [-97.458491, 35.656693], [-97.458491, 35.656741]]]}, "properties": {"osm_id": 856390057, "building": "yes", "name": "", "height": null, "height_m": null, "levels": null, "tract_id": "40109108114", "tract_name": "1081.14", "tags": {"building": "yes", "source": "microsoft/BuildingFootprints"}}}, {"type": "Feature", "geometry": {"type": "Polygon", "coordinates": [[[-97.458844, 35.656665], [-97.459144, 35.656666], [-97.459145, 35.656449], [-97.458845, 35.656449], [-97.458844, 35.656665]]]}, "properties": {"osm_id": 856390058, "building": "yes", "name": "", "height": null, "height_m": null, "levels": null, "tract_id": "40109108114", "tract_name": "1081.14", "tags": {"building": "yes", "source": "microsoft/BuildingFootprints"}}}, {"type": "Feature", "geometry": {"type": "Polygon", "coordinates": [[[-97.458719, 35.656446], [-97.458416, 35.656446], [-97.458416, 35.656664], [-97.458719, 35.656664], [-97.458719, 35.656446]]]}, "properties": {"osm_id": 856390059, "building": "yes", "name": "", "height": null, "height_m": null, "levels": null, "tract_id": "40109108114", "tract_name": "1081.14", "tags": {"building": "yes", "source": "microsoft/BuildingFootprints"}}}, {"type": "Feature", "geometry": {"type": "Polygon", "coordinates": [[[-97.458309, 35.656618], [-97.458309, 35.656431], [-97.458242, 35.656431], [-97.458242, 35.656618], [-97.458309, 35.656618]]]}, "properties": {"osm_id": 856390060, "building": "yes", "name": "", "height": null, "height_m": null, "levels": null, "tract_id": "40109108114", "tract_name": "1081.14", "tags": {"building": "yes", "source": "microsoft/BuildingFootprints"}}}, {"type": "Feature", "geometry": {"type": "Polygon", "coordinates": [[[-97.457978, 35.656954], [-97.457823, 35.656877], [-97.457534, 35.657263], [-97.457688, 35.65734], [-97.457978, 35.656954]]]}, "properties": {"osm_id": 856390061, "building": "yes", "name": "", "height": null, "height_m": null, "levels": null, "tract_id": "40109108114", "tract_name": "1081.14", "tags": {"building": "yes", "source": "microsoft/BuildingFootprints"}}}, {"type": "Feature", "geometry": {"type": "Polygon", "coordinates": [[[-97.457877, 35.656509], [-97.457724, 35.656436], [-97.457433, 35.656834], [-97.457586, 35.656907], [-97.457877, 35.656509]]]}, "properties": {"osm_id": 856390062, "building": "yes", "name": "", "height": null, "height_m": null, "levels": null, "tract_id": "40109108114", "tract_name": "1081.14", "tags": {"building": "yes", "source": "microsoft/BuildingFootprints"}}}, {"type": "Feature", "geometry": {"type": "Polygon", "coordinates": [[[-97.45746, 35.657499], [-97.457396, 35.657594], [-97.457939, 35.657835], [-97.458003, 35.65774], [-97.45746, 35.657499]]]}, "properties": {"osm_id": 856390063, "building": "yes", "name": "", "height": null, "height_m": null, "levels": null, "tract_id": "40109108114", "tract_name": "1081.14", "tags": {"building": "yes", "source": "microsoft/BuildingFootprints"}}}, {"type": "Feature", "geometry": {"type": "Polygon", "coordinates": [[[-97.457036, 35.657235], [-97.456958, 35.657344], [-97.457319, 35.657514], [-97.457397, 35.657405], [-97.457036, 35.657235]]]}, "properties": {"osm_id": 856390064, "building": "yes", "name": "", "height": null, "height_m": null, "levels": null, "tract_id": "40109108114", "tract_name": "1081.14", "tags": {"building": "yes", "source": "microsoft/BuildingFootprints"}}}, {"type": "Feature", "geometry": {"type": "Polygon", "coordinates": [[[-97.45648, 35.657084], [-97.456904, 35.657289], [-97.45698, 35.657185], [-97.456557, 35.65698], [-97.45648, 35.657084]]]}, "properties": {"osm_id": 856390065, "building": "yes", "name": "", "height": null, "height_m": null, "levels": null, "tract_id": "40109108114", "tract_name": "1081.14", "tags": {"building": "yes", "source": "microsoft/BuildingFootprints"}}}, {"type": "Feature", "geometry": {"type": "Polygon", "coordinates": [[[-97.456809, 35.657727], [-97.456871, 35.657637], [-97.456338, 35.657392], [-97.456275, 35.657482], [-97.456809, 35.657727]]]}, "properties": {"osm_id": 856390066, "building": "yes", "name": "", "height": null, "height_m": null, "levels": null, "tract_id": "40109108114", "tract_name": "1081.14", "tags": {"building": "yes", "source": "microsoft/BuildingFootprints"}}}, {"type": "Feature", "geometry": {"type": "Polygon", "coordinates": [[[-97.456287, 35.657959], [-97.456294, 35.657816], [-97.456061, 35.657809], [-97.45606, 35.657826], [-97.455964, 35.657823], [-97.455958, 35.657951], [-97.456102, 35.657956], [-97.456102, 35.657954], [-97.456287, 35.657959]]]}, "properties": {"osm_id": 856390067, "building": "yes", "name": "", "height": null, "height_m": null, "levels": null, "tract_id": "40109108114", "tract_name": "1081.14", "tags": {"building": "yes", "source": "microsoft/BuildingFootprints"}}}, {"type": "Feature", "geometry": {"type": "Polygon", "coordinates": [[[-97.455856, 35.656582], [-97.45575, 35.656634], [-97.456069, 35.65706], [-97.456175, 35.657008], [-97.455856, 35.656582]]]}, "properties": {"osm_id": 856390068, "building": "yes", "name": "", "height": null, "height_m": null, "levels": null, "tract_id": "40109108114", "tract_name": "1081.14", "tags": {"building": "yes", "source": "microsoft/BuildingFootprints"}}}, {"type": "Feature", "geometry": {"type": "Polygon", "coordinates": [[[-97.456312, 35.656755], [-97.456437, 35.656813], [-97.456553, 35.656647], [-97.456598, 35.656667], [-97.456726, 35.656484], [-97.4566, 35.656426], [-97.456485, 35.656591], [-97.456441, 35.656571], [-97.456312, 35.656755]]]}, "properties": {"osm_id": 856390069, "building": "yes", "name": "", "height": null, "height_m": null, "levels": null, "tract_id": "40109108114", "tract_name": "1081.14", "tags": {"building": "yes", "source": "microsoft/BuildingFootprints"}}}, {"type": "Feature", "geometry": {"type": "Polygon", "coordinates": [[[-97.456726, 35.656958], [-97.456907, 35.657045], [-97.457288, 35.656522], [-97.457107, 35.656435], [-97.456726, 35.656958]]]}, "properties": {"osm_id": 856390070, "building": "yes", "name": "", "height": null, "height_m": null, "levels": null, "tract_id": "40109108114", "tract_name": "1081.14", "tags": {"building": "yes", "source": "microsoft/BuildingFootprints"}}}, {"type": "Feature", "geometry": {"type": "Polygon", "coordinates": [[[-97.458157, 35.656058], [-97.457926, 35.656027], [-97.457907, 35.656118], [-97.457952, 35.656124], [-97.457938, 35.656191], [-97.457894, 35.656185], [-97.457873, 35.656288], [-97.458105, 35.656319], [-97.458126, 35.656214], [-97.458087, 35.656209], [-97.458099, 35.65615], [-97.458137, 35.656156], [-97.458157, 35.656058]]]}, "properties": {"osm_id": 856390071, "building": "yes", "name": "", "height": null, "height_m": null, "levels": null, "tract_id": "40109108114", "tract_name": "1081.14", "tags": {"building": "yes", "source": "microsoft/BuildingFootprints"}}}, {"type": "Feature", "geometry": {"type": "Polygon", "coordinates": [[[-97.459717, 35.655758], [-97.4598, 35.655758], [-97.4598, 35.655686], [-97.459753, 35.655686], [-97.459753, 35.655614], [-97.459706, 35.655614], [-97.459706, 35.655503], [-97.459411, 35.655503], [-97.459411, 35.655952], [-97.459717, 35.655952], [-97.459717, 35.655758]]]}, "properties": {"osm_id": 856390072, "building": "yes", "name": "", "height": null, "height_m": null, "levels": null, "tract_id": "40109108114", "tract_name": "1081.14", "tags": {"building": "yes", "source": "microsoft/BuildingFootprints"}}}, {"type": "Feature", "geometry": {"type": "Polygon", "coordinates": [[[-97.458939, 35.6555], [-97.458893, 35.6555], [-97.458893, 35.655455], [-97.458714, 35.655455], [-97.458714, 35.655498], [-97.458622, 35.655498], [-97.458622, 35.655668], [-97.458939, 35.655668], [-97.458939, 35.6555]]]}, "properties": {"osm_id": 856390073, "building": "yes", "name": "", "height": null, "height_m": null, "levels": null, "tract_id": "40109108114", "tract_name": "1081.14", "tags": {"building": "yes", "source": "microsoft/BuildingFootprints"}}}, {"type": "Feature", "geometry": {"type": "Polygon", "coordinates": [[[-97.458664, 35.655835], [-97.458478, 35.655835], [-97.458478, 35.656184], [-97.458665, 35.656184], [-97.458664, 35.655835]]]}, "properties": {"osm_id": 856390074, "building": "yes", "name": "", "height": null, "height_m": null, "levels": null, "tract_id": "40109108114", "tract_name": "1081.14", "tags": {"building": "yes", "source": "microsoft/BuildingFootprints"}}}, {"type": "Feature", "geometry": {"type": "Polygon", "coordinates": [[[-97.457909, 35.655969], [-97.458124, 35.655992], [-97.458173, 35.65569], [-97.457958, 35.655667], [-97.457909, 35.655969]]]}, "properties": {"osm_id": 856390075, "building": "yes", "name": "", "height": null, "height_m": null, "levels": null, "tract_id": "40109108114", "tract_name": "1081.14", "tags": {"building": "yes", "source": "microsoft/BuildingFootprints"}}}, {"type": "Feature", "geometry": {"type": "Polygon", "coordinates": [[[-97.458977, 35.656156], [-97.459255, 35.656156], [-97.459255, 35.655993], [-97.458977, 35.655993], [-97.458977, 35.656156]]]}, "properties": {"osm_id": 856390076, "building": "yes", "name": "", "height": null, "height_m": null, "levels": null, "tract_id": "40109108114", "tract_name": "1081.14", "tags": {"building": "yes", "source": "microsoft/BuildingFootprints"}}}, {"type": "Feature", "geometry": {"type": "Polygon", "coordinates": [[[-97.459875, 35.656217], [-97.460047, 35.656217], [-97.460047, 35.655867], [-97.459875, 35.655867], [-97.459875, 35.656217]]]}, "properties": {"osm_id": 856390077, "building": "yes", "name": "", "height": null, "height_m": null, "levels": null, "tract_id": "40109108114", "tract_name": "1081.14", "tags": {"building": "yes", "source": "microsoft/BuildingFootprints"}}}, {"type": "Feature", "geometry": {"type": "Polygon", "coordinates": [[[-97.452227, 35.653589], [-97.452001, 35.65362], [-97.452105, 35.654111], [-97.45233, 35.65408], [-97.452227, 35.653589]]]}, "properties": {"osm_id": 946221585, "building": "yes", "name": "", "height": null, "height_m": null, "levels": null, "tract_id": "40109108114", "tract_name": "1081.14", "tags": {"building": "yes", "source": "microsoft/BuildingFootprints"}}}, {"type": "Feature", "geometry": {"type": "Polygon", "coordinates": [[[-97.451914, 35.653383], [-97.452098, 35.65353], [-97.452165, 35.653475], [-97.452196, 35.6535], [-97.452323, 35.653395], [-97.452108, 35.653222], [-97.451914, 35.653383]]]}, "properties": {"osm_id": 946221586, "building": "yes", "name": "", "height": null, "height_m": null, "levels": null, "tract_id": "40109108114", "tract_name": "1081.14", "tags": {"building": "yes", "source": "microsoft/BuildingFootprints"}}}, {"type": "Feature", "geometry": {"type": "Polygon", "coordinates": [[[-97.452332, 35.653143], [-97.452333, 35.653318], [-97.452963, 35.653316], [-97.452963, 35.653273], [-97.453033, 35.653272], [-97.453033, 35.65322], [-97.45295, 35.65322], [-97.452949, 35.653142], [-97.452332, 35.653143]]]}, "properties": {"osm_id": 946221587, "building": "yes", "name": "", "height": null, "height_m": null, "levels": null, "tract_id": "40109108114", "tract_name": "1081.14", "tags": {"building": "yes", "source": "microsoft/BuildingFootprints"}}}, {"type": "Feature", "geometry": {"type": "Polygon", "coordinates": [[[-97.45295, 35.653411], [-97.452741, 35.653409], [-97.452731, 35.654198], [-97.45294, 35.654199], [-97.45295, 35.653411]]]}, "properties": {"osm_id": 946221588, "building": "yes", "name": "", "height": null, "height_m": null, "levels": null, "tract_id": "40109108114", "tract_name": "1081.14", "tags": {"building": "yes", "source": "microsoft/BuildingFootprints"}}}, {"type": "Feature", "geometry": {"type": "Polygon", "coordinates": [[[-97.452837, 35.6545431], [-97.4529302, 35.6543868], [-97.4523455, 35.6541564], [-97.4522522, 35.6543127], [-97.452837, 35.6545431]]]}, "properties": {"osm_id": 946221589, "building": "yes", "name": "", "height": null, "height_m": null, "levels": null, "tract_id": "40109108114", "tract_name": "1081.14", "tags": {"building": "yes", "source": "microsoft/BuildingFootprints"}}}, {"type": "Feature", "geometry": {"type": "Polygon", "coordinates": [[[-97.452959, 35.654276], [-97.452965, 35.654403], [-97.453041, 35.6544], [-97.453035, 35.654273], [-97.452959, 35.654276]]]}, "properties": {"osm_id": 946221590, "building": "yes", "name": "", "height": null, "height_m": null, "levels": null, "tract_id": "40109108114", "tract_name": "1081.14", "tags": {"building": "yes", "source": "microsoft/BuildingFootprints"}}}, {"type": "Feature", "geometry": {"type": "Polygon", "coordinates": [[[-97.452794, 35.654712], [-97.452686, 35.654833], [-97.452712, 35.654848], [-97.452689, 35.654874], [-97.453162, 35.655154], [-97.453294, 35.655007], [-97.452794, 35.654712]]]}, "properties": {"osm_id": 946221591, "building": "yes", "name": "", "height": null, "height_m": null, "levels": null, "tract_id": "40109108114", "tract_name": "1081.14", "tags": {"building": "yes", "source": "microsoft/BuildingFootprints"}}}, {"type": "Feature", "geometry": {"type": "Polygon", "coordinates": [[[-97.453514, 35.654987], [-97.453662, 35.655062], [-97.453706, 35.655004], [-97.453558, 35.654929], [-97.453514, 35.654987]]]}, "properties": {"osm_id": 946221592, "building": "yes", "name": "", "height": null, "height_m": null, "levels": null, "tract_id": "40109108114", "tract_name": "1081.14", "tags": {"building": "yes", "source": "microsoft/BuildingFootprints"}}}, {"type": "Feature", "geometry": {"type": "Polygon", "coordinates": [[[-97.454295, 35.6557], [-97.454386, 35.655538], [-97.453504, 35.655211], [-97.453413, 35.655373], [-97.454295, 35.6557]]]}, "properties": {"osm_id": 946221593, "building": "yes", "name": "", "height": null, "height_m": null, "levels": null, "tract_id": "40109108114", "tract_name": "1081.14", "tags": {"building": "yes", "source": "microsoft/BuildingFootprints"}}}, {"type": "Feature", "geometry": {"type": "Polygon", "coordinates": [[[-97.45436, 35.655249], [-97.454329, 35.655186], [-97.454176, 35.655237], [-97.454208, 35.6553], [-97.45436, 35.655249]]]}, "properties": {"osm_id": 946221594, "building": "yes", "name": "", "height": null, "height_m": null, "levels": null, "tract_id": "40109108114", "tract_name": "1081.14", "tags": {"building": "yes", "source": "microsoft/BuildingFootprints"}}}, {"type": "Feature", "geometry": {"type": "Polygon", "coordinates": [[[-97.454832, 35.654803], [-97.454613, 35.654805], [-97.45462, 35.655422], [-97.454838, 35.65542], [-97.454832, 35.654803]]]}, "properties": {"osm_id": 946221595, "building": "yes", "name": "", "height": null, "height_m": null, "levels": null, "tract_id": "40109108114", "tract_name": "1081.14", "tags": {"building": "yes", "source": "microsoft/BuildingFootprints"}}}, {"type": "Feature", "geometry": {"type": "Polygon", "coordinates": [[[-97.454621, 35.654724], [-97.454731, 35.654724], [-97.454731, 35.654747], [-97.454833, 35.654747], [-97.454834, 35.653964], [-97.454623, 35.653963], [-97.454621, 35.654724]]]}, "properties": {"osm_id": 946221596, "building": "yes", "name": "", "height": null, "height_m": null, "levels": null, "tract_id": "40109108114", "tract_name": "1081.14", "tags": {"building": "yes", "source": "microsoft/BuildingFootprints"}}}, {"type": "Feature", "geometry": {"type": "Polygon", "coordinates": [[[-97.454839, 35.655472], [-97.454618, 35.655472], [-97.454617, 35.656052], [-97.454838, 35.656052], [-97.454839, 35.655472]]]}, "properties": {"osm_id": 946221597, "building": "yes", "name": "", "height": null, "height_m": null, "levels": null, "tract_id": "40109108114", "tract_name": "1081.14", "tags": {"building": "yes", "source": "microsoft/BuildingFootprints"}}}, {"type": "Feature", "geometry": {"type": "Polygon", "coordinates": [[[-97.4543567, 35.6550543], [-97.454328, 35.6550579], [-97.4543332, 35.6550857], [-97.4543007, 35.6550897], [-97.4543035, 35.6551046], [-97.454257, 35.6551103], [-97.4542545, 35.6550971], [-97.4542173, 35.6551017], [-97.4542165, 35.6550972], [-97.454192, 35.6551002], [-97.4541933, 35.655107], [-97.4541627, 35.6551107], [-97.4541652, 35.6551244], [-97.4541119, 35.6551309], [-97.4541097, 35.655119], [-97.4540727, 35.6551235], [-97.4540718, 35.6551191], [-97.4540545, 35.6551212], [-97.4540554, 35.6551259], [-97.4540232, 35.65513], [-97.4540259, 35.6551438], [-97.4539714, 35.6551508], [-97.4539687, 35.655137], [-97.4539336, 35.6551415], [-97.4539326, 35.6551366], [-97.4539126, 35.6551392], [-97.4539137, 35.6551449], [-97.4538812, 35.6551493], [-97.4538837, 35.6551612], [-97.4538326, 35.6551682], [-97.4538298, 35.6551547], [-97.4537942, 35.6551596], [-97.4537888, 35.6551337], [-97.4537584, 35.6551379], [-97.453733, 35.6550159], [-97.4537651, 35.6550115], [-97.4537613, 35.6549932], [-97.4538013, 35.6549877], [-97.453799, 35.6549766], [-97.4538426, 35.6549707], [-97.4538451, 35.654983], [-97.4539381, 35.6549704], [-97.4539351, 35.654956], [-97.453985, 35.6549493], [-97.4539881, 35.6549647], [-97.4540813, 35.6549523], [-97.4540787, 35.6549392], [-97.4541234, 35.6549333], [-97.4541266, 35.654949], [-97.4542257, 35.6549362], [-97.454223, 35.6549221], [-97.454264, 35.6549169], [-97.4542664, 35.6549293], [-97.4542994, 35.6549252], [-97.4543031, 35.6549446], [-97.4543353, 35.6549406], [-97.4543567, 35.6550543]]]}, "properties": {"osm_id": 989887561, "building": "yes", "name": "", "height": null, "height_m": null, "levels": null, "tract_id": "40109108114", "tract_name": "1081.14", "tags": {"building": "yes"}}}, {"type": "Feature", "geometry": {"type": "Polygon", "coordinates": [[[-97.444468, 35.666615], [-97.444007, 35.666619], [-97.444005, 35.666518], [-97.44395, 35.666518], [-97.443952, 35.666624], [-97.443898, 35.666625], [-97.4439, 35.666623], [-97.443771, 35.666625], [-97.443772, 35.666748], [-97.443859, 35.666747], [-97.443975, 35.666846], [-97.444101, 35.666748], [-97.44416, 35.666747], [-97.444175, 35.66676], [-97.44447, 35.666757], [-97.444468, 35.666615]]]}, "properties": {"osm_id": 990141105, "building": "yes", "name": "", "height": null, "height_m": null, "levels": null, "tract_id": "40109108114", "tract_name": "1081.14", "tags": {"building": "yes", "source": "microsoft/BuildingFootprints"}}}, {"type": "Feature", "geometry": {"type": "Polygon", "coordinates": [[[-97.44517, 35.66676], [-97.445253, 35.666762], [-97.445252, 35.666788], [-97.445328, 35.66679], [-97.445329, 35.666764], [-97.445379, 35.666765], [-97.445381, 35.666706], [-97.445335, 35.666705], [-97.445338, 35.666605], [-97.44525, 35.666603], [-97.445248, 35.666662], [-97.445173, 35.66666], [-97.44517, 35.66676]]]}, "properties": {"osm_id": 990141106, "building": "yes", "name": "", "height": null, "height_m": null, "levels": null, "tract_id": "40109108114", "tract_name": "1081.14", "tags": {"building": "yes", "source": "microsoft/BuildingFootprints"}}}, {"type": "Feature", "geometry": {"type": "Polygon", "coordinates": [[[-97.445377, 35.666927], [-97.445474, 35.666928], [-97.445475, 35.666841], [-97.445378, 35.66684], [-97.445377, 35.666927]]]}, "properties": {"osm_id": 990141107, "building": "yes", "name": "", "height": null, "height_m": null, "levels": null, "tract_id": "40109108114", "tract_name": "1081.14", "tags": {"building": "yes", "source": "microsoft/BuildingFootprints"}}}, {"type": "Feature", "geometry": {"type": "Polygon", "coordinates": [[[-97.446998, 35.66688], [-97.447057, 35.666544], [-97.446946, 35.666531], [-97.446883, 35.666539], [-97.446799, 35.666529], [-97.446788, 35.666592], [-97.446796, 35.666634], [-97.446784, 35.666702], [-97.446603, 35.666724], [-97.446575, 35.666887], [-97.446583, 35.666928], [-97.446768, 35.666905], [-97.446841, 35.666913], [-97.44685, 35.666863], [-97.446998, 35.66688]]]}, "properties": {"osm_id": 990141108, "building": "yes", "name": "", "height": null, "height_m": null, "levels": null, "tract_id": "40109108114", "tract_name": "1081.14", "tags": {"building": "yes", "source": "microsoft/BuildingFootprints"}}}, {"type": "Feature", "geometry": {"type": "Polygon", "coordinates": [[[-97.446671, 35.666056], [-97.446649, 35.666213], [-97.446715, 35.666219], [-97.446678, 35.666476], [-97.446911, 35.666498], [-97.446947, 35.666245], [-97.447045, 35.666254], [-97.447068, 35.666093], [-97.446671, 35.666056]]]}, "properties": {"osm_id": 990141109, "building": "yes", "name": "", "height": null, "height_m": null, "levels": null, "tract_id": "40109108114", "tract_name": "1081.14", "tags": {"building": "yes", "source": "microsoft/BuildingFootprints"}}}, {"type": "Feature", "geometry": {"type": "Polygon", "coordinates": [[[-97.447395, 35.667056], [-97.447586, 35.667056], [-97.447585, 35.666873], [-97.447341, 35.666873], [-97.447341, 35.666945], [-97.447441, 35.666945], [-97.447441, 35.667002], [-97.447395, 35.667002], [-97.447395, 35.667056]]]}, "properties": {"osm_id": 990141110, "building": "yes", "name": "", "height": null, "height_m": null, "levels": null, "tract_id": "40109108114", "tract_name": "1081.14", "tags": {"building": "yes", "source": "microsoft/BuildingFootprints"}}}, {"type": "Feature", "geometry": {"type": "Polygon", "coordinates": [[[-97.447945, 35.66682], [-97.447946, 35.666909], [-97.447981, 35.666909], [-97.447982, 35.667018], [-97.448086, 35.667018], [-97.448086, 35.667036], [-97.448156, 35.667036], [-97.448156, 35.666967], [-97.448134, 35.666967], [-97.448133, 35.666871], [-97.448157, 35.666871], [-97.448157, 35.666819], [-97.447945, 35.66682]]]}, "properties": {"osm_id": 990141111, "building": "yes", "name": "", "height": null, "height_m": null, "levels": null, "tract_id": "40109108114", "tract_name": "1081.14", "tags": {"building": "yes", "source": "microsoft/BuildingFootprints"}}}, {"type": "Feature", "geometry": {"type": "Polygon", "coordinates": [[[-97.447946, 35.666803], [-97.448119, 35.666801], [-97.448116, 35.666585], [-97.447942, 35.666587], [-97.447943, 35.666696], [-97.447944, 35.666696], [-97.447946, 35.666803]]]}, "properties": {"osm_id": 990141112, "building": "yes", "name": "", "height": null, "height_m": null, "levels": null, "tract_id": "40109108114", "tract_name": "1081.14", "tags": {"building": "yes", "source": "microsoft/BuildingFootprints"}}}, {"type": "Feature", "geometry": {"type": "Polygon", "coordinates": [[[-97.447951, 35.666396], [-97.447948, 35.66656], [-97.448097, 35.666561], [-97.448099, 35.666434], [-97.448075, 35.666434], [-97.448076, 35.666398], [-97.447951, 35.666396]]]}, "properties": {"osm_id": 990141113, "building": "yes", "name": "", "height": null, "height_m": null, "levels": null, "tract_id": "40109108114", "tract_name": "1081.14", "tags": {"building": "yes", "source": "microsoft/BuildingFootprints"}}}, {"type": "Feature", "geometry": {"type": "Polygon", "coordinates": [[[-97.447371, 35.666703], [-97.44737, 35.666783], [-97.447614, 35.666786], [-97.447615, 35.666704], [-97.44757, 35.666704], [-97.447572, 35.666605], [-97.447391, 35.666603], [-97.447389, 35.666703], [-97.447371, 35.666703]]]}, "properties": {"osm_id": 990141114, "building": "yes", "name": "", "height": null, "height_m": null, "levels": null, "tract_id": "40109108114", "tract_name": "1081.14", "tags": {"building": "yes", "source": "microsoft/BuildingFootprints"}}}, {"type": "Feature", "geometry": {"type": "Polygon", "coordinates": [[[-97.447425, 35.666127], [-97.447426, 35.666281], [-97.447385, 35.666281], [-97.447386, 35.666332], [-97.447563, 35.666331], [-97.447562, 35.666219], [-97.447614, 35.666219], [-97.447613, 35.666126], [-97.447425, 35.666127]]]}, "properties": {"osm_id": 990141115, "building": "yes", "name": "", "height": null, "height_m": null, "levels": null, "tract_id": "40109108114", "tract_name": "1081.14", "tags": {"building": "yes", "source": "microsoft/BuildingFootprints"}}}, {"type": "Feature", "geometry": {"type": "Polygon", "coordinates": [[[-97.44758, 35.665993], [-97.447579, 35.66588], [-97.447487, 35.665881], [-97.447486, 35.665799], [-97.447424, 35.665799], [-97.447425, 35.66588], [-97.447375, 35.66588], [-97.447375, 35.665899], [-97.447314, 35.665899], [-97.447315, 35.665995], [-97.44758, 35.665993]]]}, "properties": {"osm_id": 990141116, "building": "yes", "name": "", "height": null, "height_m": null, "levels": null, "tract_id": "40109108114", "tract_name": "1081.14", "tags": {"building": "yes", "source": "microsoft/BuildingFootprints"}}}, {"type": "Feature", "geometry": {"type": "Polygon", "coordinates": [[[-97.447722, 35.665415], [-97.44772, 35.665331], [-97.447563, 35.665334], [-97.447566, 35.665418], [-97.447722, 35.665415]]]}, "properties": {"osm_id": 990141117, "building": "yes", "name": "", "height": null, "height_m": null, "levels": null, "tract_id": "40109108114", "tract_name": "1081.14", "tags": {"building": "yes", "source": "microsoft/BuildingFootprints"}}}, {"type": "Feature", "geometry": {"type": "Polygon", "coordinates": [[[-97.447308, 35.66516], [-97.447482, 35.665158], [-97.44748, 35.665042], [-97.447531, 35.665041], [-97.44753, 35.664971], [-97.447304, 35.664974], [-97.447308, 35.66516]]]}, "properties": {"osm_id": 990141118, "building": "yes", "name": "", "height": null, "height_m": null, "levels": null, "tract_id": "40109108114", "tract_name": "1081.14", "tags": {"building": "yes", "source": "microsoft/BuildingFootprints"}}}, {"type": "Feature", "geometry": {"type": "Polygon", "coordinates": [[[-97.447301, 35.664525], [-97.447301, 35.664576], [-97.44732, 35.664576], [-97.44732, 35.664621], [-97.4473, 35.664621], [-97.447299, 35.664683], [-97.447342, 35.664683], [-97.447342, 35.664707], [-97.447492, 35.664709], [-97.447494, 35.664527], [-97.447301, 35.664525]]]}, "properties": {"osm_id": 990141119, "building": "yes", "name": "", "height": null, "height_m": null, "levels": null, "tract_id": "40109108114", "tract_name": "1081.14", "tags": {"building": "yes", "source": "microsoft/BuildingFootprints"}}}, {"type": "Feature", "geometry": {"type": "Polygon", "coordinates": [[[-97.447433, 35.664265], [-97.44725, 35.664266], [-97.447251, 35.664344], [-97.447307, 35.664344], [-97.447308, 35.664448], [-97.447364, 35.664448], [-97.447364, 35.664477], [-97.447547, 35.664476], [-97.447546, 35.664403], [-97.447434, 35.664404], [-97.447433, 35.664265]]]}, "properties": {"osm_id": 990141120, "building": "yes", "name": "", "height": null, "height_m": null, "levels": null, "tract_id": "40109108114", "tract_name": "1081.14", "tags": {"building": "yes", "source": "microsoft/BuildingFootprints"}}}, {"type": "Feature", "geometry": {"type": "Polygon", "coordinates": [[[-97.447545, 35.664165], [-97.447438, 35.664165], [-97.447438, 35.664041], [-97.447279, 35.664041], [-97.447279, 35.664237], [-97.447545, 35.664237], [-97.447545, 35.664165]]]}, "properties": {"osm_id": 990141121, "building": "yes", "name": "", "height": null, "height_m": null, "levels": null, "tract_id": "40109108114", "tract_name": "1081.14", "tags": {"building": "yes", "source": "microsoft/BuildingFootprints"}}}, {"type": "Feature", "geometry": {"type": "Polygon", "coordinates": [[[-97.446082, 35.666047], [-97.446054, 35.666134], [-97.44612, 35.666148], [-97.446148, 35.666061], [-97.446082, 35.666047]]]}, "properties": {"osm_id": 990141122, "building": "yes", "name": "", "height": null, "height_m": null, "levels": null, "tract_id": "40109108114", "tract_name": "1081.14", "tags": {"building": "yes", "source": "microsoft/BuildingFootprints"}}}, {"type": "Feature", "geometry": {"type": "Polygon", "coordinates": [[[-97.447524, 35.663916], [-97.447522, 35.66381], [-97.447384, 35.663813], [-97.447388, 35.664001], [-97.447506, 35.663999], [-97.447504, 35.663916], [-97.447524, 35.663916]]]}, "properties": {"osm_id": 990141123, "building": "yes", "name": "", "height": null, "height_m": null, "levels": null, "tract_id": "40109108114", "tract_name": "1081.14", "tags": {"building": "yes", "source": "microsoft/BuildingFootprints"}}}, {"type": "Feature", "geometry": {"type": "Polygon", "coordinates": [[[-97.447499, 35.663576], [-97.447309, 35.663579], [-97.447312, 35.663766], [-97.447514, 35.663764], [-97.447513, 35.663674], [-97.447466, 35.663675], [-97.447465, 35.663634], [-97.4475, 35.663633], [-97.447499, 35.663576]]]}, "properties": {"osm_id": 990141124, "building": "yes", "name": "", "height": null, "height_m": null, "levels": null, "tract_id": "40109108114", "tract_name": "1081.14", "tags": {"building": "yes", "source": "microsoft/BuildingFootprints"}}}, {"type": "Feature", "geometry": {"type": "Polygon", "coordinates": [[[-97.447549, 35.663413], [-97.447551, 35.663341], [-97.447291, 35.663337], [-97.447286, 35.663535], [-97.447442, 35.663537], [-97.447445, 35.663411], [-97.447549, 35.663413]]]}, "properties": {"osm_id": 990141125, "building": "yes", "name": "", "height": null, "height_m": null, "levels": null, "tract_id": "40109108114", "tract_name": "1081.14", "tags": {"building": "yes", "source": "microsoft/BuildingFootprints"}}}, {"type": "Feature", "geometry": {"type": "Polygon", "coordinates": [[[-97.446857, 35.663608], [-97.44676, 35.663605], [-97.446756, 35.663684], [-97.446853, 35.663687], [-97.446857, 35.663608]]]}, "properties": {"osm_id": 990141126, "building": "yes", "name": "", "height": null, "height_m": null, "levels": null, "tract_id": "40109108114", "tract_name": "1081.14", "tags": {"building": "yes", "source": "microsoft/BuildingFootprints"}}}, {"type": "Feature", "geometry": {"type": "Polygon", "coordinates": [[[-97.446684, 35.663223], [-97.446582, 35.663219], [-97.446576, 35.663325], [-97.446677, 35.663329], [-97.446684, 35.663223]]]}, "properties": {"osm_id": 990141127, "building": "yes", "name": "", "height": null, "height_m": null, "levels": null, "tract_id": "40109108114", "tract_name": "1081.14", "tags": {"building": "yes", "source": "microsoft/BuildingFootprints"}}}, {"type": "Feature", "geometry": {"type": "Polygon", "coordinates": [[[-97.446069, 35.663486], [-97.446246, 35.66349], [-97.446253, 35.663307], [-97.446077, 35.663303], [-97.446074, 35.663381], [-97.446097, 35.663382], [-97.446096, 35.663428], [-97.446071, 35.663427], [-97.446069, 35.663486]]]}, "properties": {"osm_id": 990141128, "building": "yes", "name": "", "height": null, "height_m": null, "levels": null, "tract_id": "40109108114", "tract_name": "1081.14", "tags": {"building": "yes", "source": "microsoft/BuildingFootprints"}}}, {"type": "Feature", "geometry": {"type": "Polygon", "coordinates": [[[-97.4521955, 35.6531655], [-97.4521231, 35.6531655], [-97.4521231, 35.6531358], [-97.4521955, 35.6531358], [-97.4521955, 35.6531655]]]}, "properties": {"osm_id": 1061692668, "building": "yes", "name": "", "height": null, "height_m": null, "levels": null, "tract_id": "40109108114", "tract_name": "1081.14", "tags": {"building": "yes"}}}, {"type": "Feature", "geometry": {"type": "Polygon", "coordinates": [[[-97.4525516, 35.6536275], [-97.4525503, 35.6536864], [-97.4524886, 35.6536854], [-97.45249, 35.6536266], [-97.4525516, 35.6536275]]]}, "properties": {"osm_id": 1061692669, "building": "yes", "name": "", "height": null, "height_m": null, "levels": null, "tract_id": "40109108114", "tract_name": "1081.14", "tags": {"building": "yes"}}}, {"type": "Feature", "geometry": {"type": "Polygon", "coordinates": [[[-97.4597528, 35.6531979], [-97.4597522, 35.6533682], [-97.4596715, 35.653368], [-97.4596709, 35.6535382], [-97.4595013, 35.6535378], [-97.4595019, 35.6533704], [-97.4590052, 35.6533692], [-97.4590059, 35.6531962], [-97.4597528, 35.6531979]]]}, "properties": {"osm_id": 1061692692, "building": "commercial", "name": "", "height": null, "height_m": null, "levels": null, "tract_id": "40109108114", "tract_name": "1081.14", "tags": {"building": "commercial", "layer": "1"}}}, {"type": "Feature", "geometry": {"type": "Polygon", "coordinates": [[[-97.4588298, 35.653197], [-97.4585903, 35.6531974], [-97.4585901, 35.6531038], [-97.4588295, 35.6531034], [-97.4588298, 35.653197]]]}, "properties": {"osm_id": 1061692694, "building": "yes", "name": "", "height": null, "height_m": null, "levels": null, "tract_id": "40109108114", "tract_name": "1081.14", "tags": {"building": "yes"}}}, {"type": "Feature", "geometry": {"type": "Polygon", "coordinates": [[[-97.4600953, 35.6547512], [-97.4595794, 35.6547512], [-97.4595794, 35.6546117], [-97.4600953, 35.6546117], [-97.4600953, 35.6547512]]]}, "properties": {"osm_id": 1061692696, "building": "yes", "name": "", "height": null, "height_m": null, "levels": null, "tract_id": "40109108114", "tract_name": "1081.14", "tags": {"building": "yes"}}}, {"type": "Feature", "geometry": {"type": "Polygon", "coordinates": [[[-97.4589905, 35.6543882], [-97.458991, 35.6542257], [-97.4591029, 35.6542259], [-97.4591024, 35.6543885], [-97.4589905, 35.6543882]]]}, "properties": {"osm_id": 1061692697, "building": "yes", "name": "", "height": null, "height_m": null, "levels": null, "tract_id": "40109108114", "tract_name": "1081.14", "tags": {"building": "yes"}}}, {"type": "Feature", "geometry": {"type": "Polygon", "coordinates": [[[-97.4594542, 35.6543582], [-97.4592209, 35.6543166], [-97.459262, 35.6541647], [-97.4594952, 35.6542063], [-97.4594542, 35.6543582]]]}, "properties": {"osm_id": 1061692698, "building": "yes", "name": "", "height": null, "height_m": null, "levels": null, "tract_id": "40109108114", "tract_name": "1081.14", "tags": {"building": "yes"}}}, {"type": "Feature", "geometry": {"type": "Polygon", "coordinates": [[[-97.4583855, 35.6539182], [-97.4579426, 35.6540007], [-97.4579012, 35.6538538], [-97.4583441, 35.6537714], [-97.4583855, 35.6539182]]]}, "properties": {"osm_id": 1061692699, "building": "yes", "name": "", "height": null, "height_m": null, "levels": null, "tract_id": "40109108114", "tract_name": "1081.14", "tags": {"building": "yes"}}}, {"type": "Feature", "geometry": {"type": "Polygon", "coordinates": [[[-97.4585353, 35.654362], [-97.4581408, 35.6544391], [-97.4581137, 35.6543474], [-97.4585082, 35.6542704], [-97.4585353, 35.654362]]]}, "properties": {"osm_id": 1061692700, "building": "yes", "name": "", "height": null, "height_m": null, "levels": null, "tract_id": "40109108114", "tract_name": "1081.14", "tags": {"building": "yes"}}}, {"type": "Feature", "geometry": {"type": "Polygon", "coordinates": [[[-97.4580906, 35.6542673], [-97.4580356, 35.6540762], [-97.4582129, 35.6540425], [-97.4582679, 35.6542336], [-97.4580906, 35.6542673]]]}, "properties": {"osm_id": 1061692701, "building": "yes", "name": "", "height": null, "height_m": null, "levels": null, "tract_id": "40109108114", "tract_name": "1081.14", "tags": {"building": "yes"}}}, {"type": "Feature", "geometry": {"type": "Polygon", "coordinates": [[[-97.4588369, 35.6541656], [-97.4588786, 35.654308], [-97.4586396, 35.6543542], [-97.4585979, 35.6542118], [-97.4588369, 35.6541656]]]}, "properties": {"osm_id": 1061692702, "building": "yes", "name": "", "height": null, "height_m": null, "levels": null, "tract_id": "40109108114", "tract_name": "1081.14", "tags": {"building": "yes"}}}, {"type": "Feature", "geometry": {"type": "Polygon", "coordinates": [[[-97.4586757, 35.6538412], [-97.4587316, 35.6540369], [-97.4585586, 35.6540695], [-97.4585026, 35.6538738], [-97.4586757, 35.6538412]]]}, "properties": {"osm_id": 1061692703, "building": "yes", "name": "", "height": null, "height_m": null, "levels": null, "tract_id": "40109108114", "tract_name": "1081.14", "tags": {"building": "yes"}}}, {"type": "Feature", "geometry": {"type": "Polygon", "coordinates": [[[-97.4588179, 35.6539876], [-97.4588175, 35.6538349], [-97.4592746, 35.6538341], [-97.459275, 35.6539868], [-97.4588179, 35.6539876]]]}, "properties": {"osm_id": 1061692704, "building": "yes", "name": "", "height": null, "height_m": null, "levels": null, "tract_id": "40109108114", "tract_name": "1081.14", "tags": {"building": "yes"}}}, {"type": "Feature", "geometry": {"type": "Polygon", "coordinates": [[[-97.4597074, 35.6539167], [-97.4597498, 35.6537741], [-97.460186, 35.6538597], [-97.4601436, 35.6540022], [-97.4597074, 35.6539167]]]}, "properties": {"osm_id": 1061692705, "building": "yes", "name": "", "height": null, "height_m": null, "levels": null, "tract_id": "40109108114", "tract_name": "1081.14", "tags": {"building": "yes"}}}, {"type": "Feature", "geometry": {"type": "Polygon", "coordinates": [[[-97.4594201, 35.6538442], [-97.4595943, 35.6538788], [-97.4595355, 35.6540745], [-97.4593613, 35.65404], [-97.4594201, 35.6538442]]]}, "properties": {"osm_id": 1061692706, "building": "yes", "name": "", "height": null, "height_m": null, "levels": null, "tract_id": "40109108114", "tract_name": "1081.14", "tags": {"building": "yes"}}}, {"type": "Feature", "geometry": {"type": "Polygon", "coordinates": [[[-97.4598791, 35.6540384], [-97.4600567, 35.6540709], [-97.4600027, 35.6542659], [-97.459825, 35.6542334], [-97.4598791, 35.6540384]]]}, "properties": {"osm_id": 1061692707, "building": "yes", "name": "", "height": null, "height_m": null, "levels": null, "tract_id": "40109108114", "tract_name": "1081.14", "tags": {"building": "yes"}}}, {"type": "Feature", "geometry": {"type": "Polygon", "coordinates": [[[-97.4587853, 35.6533796], [-97.4584445, 35.6533865], [-97.4584475, 35.6534847], [-97.4585743, 35.6534822], [-97.4585746, 35.6534924], [-97.4586748, 35.6534903], [-97.4586746, 35.6534813], [-97.4587883, 35.653479], [-97.4587853, 35.6533796]]]}, "properties": {"osm_id": 1061692708, "building": "yes", "name": "", "height": null, "height_m": null, "levels": null, "tract_id": "40109108114", "tract_name": "1081.14", "tags": {"building": "yes"}}}, {"type": "Feature", "geometry": {"type": "Polygon", "coordinates": [[[-97.4581739, 35.6532748], [-97.4580881, 35.6532741], [-97.4580873, 35.6533414], [-97.4581768, 35.6533421], [-97.4581756, 35.6534374], [-97.4579587, 35.6534357], [-97.4579619, 35.6531805], [-97.4578275, 35.6531794], [-97.4578295, 35.6530165], [-97.4579583, 35.6530175], [-97.4579576, 35.6530779], [-97.4580464, 35.6530787], [-97.4580472, 35.6530159], [-97.4581771, 35.653017], [-97.4581739, 35.6532748]]]}, "properties": {"osm_id": 1061692709, "building": "yes", "name": "", "height": null, "height_m": null, "levels": null, "tract_id": "40109108114", "tract_name": "1081.14", "tags": {"building": "yes"}}}, {"type": "Feature", "geometry": {"type": "Polygon", "coordinates": [[[-97.4560818, 35.6530082], [-97.4561804, 35.6530082], [-97.4561804, 35.6530407], [-97.456197, 35.6530407], [-97.456197, 35.6530687], [-97.4561854, 35.6530687], [-97.4561854, 35.6531596], [-97.4561544, 35.6531596], [-97.4561544, 35.6532791], [-97.4561622, 35.6532791], [-97.4561622, 35.6533624], [-97.456158, 35.6533624], [-97.456158, 35.6534812], [-97.456525, 35.6534812], [-97.456525, 35.6535787], [-97.4560386, 35.6535787], [-97.4560386, 35.6530458], [-97.4560818, 35.6530458], [-97.4560818, 35.6530082]]]}, "properties": {"osm_id": 1061692710, "building": "yes", "name": "Executive Inn", "height": null, "height_m": null, "levels": null, "tract_id": "40109108114", "tract_name": "1081.14", "tags": {"addr:city": "Edmond", "addr:housenumber": "1809", "addr:postcode": "73034", "addr:state": "OK", "addr:street": "East 2nd Street", "brand": "Americas Best Value Inn", "brand:wikidata": "Q4742512", "building": "yes", "name": "Executive Inn", "tourism": "motel"}}}, {"type": "Feature", "geometry": {"type": "Polygon", "coordinates": [[[-97.4571177, 35.6534056], [-97.4569805, 35.6534052], [-97.4569811, 35.6532743], [-97.4569612, 35.6532742], [-97.4569617, 35.6531814], [-97.4569839, 35.6531815], [-97.456984, 35.6531569], [-97.4570501, 35.6531572], [-97.4571163, 35.6531574], [-97.4571161, 35.6531813], [-97.4571411, 35.6531813], [-97.4571405, 35.6532996], [-97.4571357, 35.6532996], [-97.4571182, 35.6532995], [-97.4571177, 35.6534056]]]}, "properties": {"osm_id": 1061692712, "building": "yes", "name": "Jimmy's Egg", "height": null, "height_m": 3.0, "levels": 1, "tract_id": "40109108114", "tract_name": "1081.14", "tags": {"addr:city": "Edmond", "addr:housenumber": "1715", "addr:postcode": "73034", "addr:state": "OK", "addr:street": "East 2nd Street", "amenity": "restaurant", "building": "yes", "building:levels": "1", "layer": "1", "name": "Jimmy's Egg", "opening_hours": "Mo-Su 07:00-14:00"}}}, {"type": "Feature", "geometry": {"type": "Polygon", "coordinates": [[[-97.4559449, 35.6532148], [-97.4555768, 35.653217], [-97.4555755, 35.6530761], [-97.4559437, 35.6530739], [-97.4559449, 35.6532148]]]}, "properties": {"osm_id": 1061692714, "building": "yes", "name": "", "height": null, "height_m": null, "levels": null, "tract_id": "40109108114", "tract_name": "1081.14", "tags": {"building": "yes"}}}, {"type": "Feature", "geometry": {"type": "Polygon", "coordinates": [[[-97.454818, 35.6531338], [-97.4548199, 35.6533372], [-97.4546416, 35.6533383], [-97.4546398, 35.6531349], [-97.454818, 35.6531338]]]}, "properties": {"osm_id": 1061692715, "building": "yes", "name": "Freddy's", "height": null, "height_m": null, "levels": null, "tract_id": "40109108114", "tract_name": "1081.14", "tags": {"addr:city": "Edmond", "addr:housenumber": "1925", "addr:postcode": "73034", "addr:state": "OK", "addr:street": "East 2nd Street", "amenity": "fast_food", "brand": "Freddy's", "brand:wikidata": "Q5496837", "building": "yes", "cuisine": "ice_cream;burger", "drive_through": "yes", "name": "Freddy's", "official_name": "Freddy's Frozen Custard & Steakburgers", "opening_hours": "Su-Th 10:30-22:00; Fr-Sa 10:30-23:00", "outdoor_seating": "yes", "phone": "+1-405-844-1514", "takeaway": "yes"}}}, {"type": "Feature", "geometry": {"type": "Polygon", "coordinates": [[[-97.4542092, 35.6534497], [-97.4538298, 35.6534497], [-97.4538298, 35.6532471], [-97.4542092, 35.6532471], [-97.4542092, 35.6534497]]]}, "properties": {"osm_id": 1061692716, "building": "yes", "name": "", "height": null, "height_m": null, "levels": null, "tract_id": "40109108114", "tract_name": "1081.14", "tags": {"building": "yes"}}}, {"type": "Feature", "geometry": {"type": "Polygon", "coordinates": [[[-97.4496654, 35.6658569], [-97.4496066, 35.6658808], [-97.4495868, 35.6658488], [-97.4496456, 35.6658249], [-97.4496654, 35.6658569]]]}, "properties": {"osm_id": 1061745121, "building": "yes", "name": "", "height": null, "height_m": null, "levels": null, "tract_id": "40109108114", "tract_name": "1081.14", "tags": {"building": "yes"}}}, {"type": "Feature", "geometry": {"type": "Polygon", "coordinates": [[[-97.4575742, 35.6530101], [-97.4576809, 35.6530101], [-97.4576809, 35.6532505], [-97.4575742, 35.6532505], [-97.4575742, 35.6530101]]]}, "properties": {"osm_id": 1061745182, "building": "yes", "name": "Taco Bell", "height": null, "height_m": null, "levels": null, "tract_id": "40109108114", "tract_name": "1081.14", "tags": {"addr:city": "Edmond", "addr:housenumber": "1709", "addr:postcode": "73034", "addr:state": "OK", "addr:street": "East 2nd Street", "amenity": "fast_food", "brand": "Taco Bell", "brand:wikidata": "Q752941", "building": "yes", "cuisine": "tex-mex", "drive_through": "yes", "name": "Taco Bell", "opening_hours": "Mo 08:00-01:00; Tu-Sa 08:00-02:00; Su 08:00-01:00", "phone": "+1-405-341-8920", "takeaway": "yes", "website": "https://locations.tacobell.com/ok/edmond/1709-e--2nd-st-.html"}}}, {"type": "Feature", "geometry": {"type": "Polygon", "coordinates": [[[-97.4333025, 35.6534971], [-97.4329418, 35.6534967], [-97.432942, 35.6533252], [-97.4333027, 35.6533255], [-97.4333025, 35.6534971]]]}, "properties": {"osm_id": 1356682235, "building": "yes", "name": "", "height": null, "height_m": null, "levels": null, "tract_id": "40109108114", "tract_name": "1081.14", "tags": {"building": "yes"}}}, {"type": "Feature", "geometry": {"type": "Polygon", "coordinates": [[[-97.4327884, 35.6534968], [-97.4324224, 35.6534971], [-97.4324221, 35.6533289], [-97.4327882, 35.6533285], [-97.4327884, 35.6534968]]]}, "properties": {"osm_id": 1356682236, "building": "yes", "name": "", "height": null, "height_m": null, "levels": null, "tract_id": "40109108114", "tract_name": "1081.14", "tags": {"building": "yes"}}}, {"type": "Feature", "geometry": {"type": "Polygon", "coordinates": [[[-97.4322967, 35.653494], [-97.4322967, 35.6533224], [-97.4319085, 35.6533224], [-97.4319085, 35.653494], [-97.4322967, 35.653494]]]}, "properties": {"osm_id": 1356682237, "building": "yes", "name": "", "height": null, "height_m": null, "levels": null, "tract_id": "40109108114", "tract_name": "1081.14", "tags": {"building": "yes"}}}, {"type": "Feature", "geometry": {"type": "Polygon", "coordinates": [[[-97.4599853, 35.6535428], [-97.4597719, 35.6535422], [-97.4597726, 35.6533864], [-97.459986, 35.653387], [-97.4599853, 35.6535428]]]}, "properties": {"osm_id": 1391493531, "building": "commercial", "name": "", "height": null, "height_m": null, "levels": null, "tract_id": "40109108114", "tract_name": "1081.14", "tags": {"building": "commercial"}}}, {"type": "Feature", "geometry": {"type": "Polygon", "coordinates": [[[-97.4597644, 35.6533756], [-97.4597647, 35.6531527], [-97.4597778, 35.6531527], [-97.4597779, 35.653135], [-97.4599653, 35.6531353], [-97.459986, 35.653153], [-97.4599858, 35.6533641], [-97.4599655, 35.6533641], [-97.4599655, 35.6533758], [-97.4597644, 35.6533756]]]}, "properties": {"osm_id": 1391493532, "building": "commercial", "name": "", "height": null, "height_m": null, "levels": null, "tract_id": "40109108114", "tract_name": "1081.14", "tags": {"abandoned": "yes", "building": "commercial"}}}, {"type": "Feature", "geometry": {"type": "Polygon", "coordinates": [[[-97.4597528, 35.6531979], [-97.4597528, 35.6531638], [-97.4597265, 35.6531555], [-97.459704, 35.6531519], [-97.4596819, 35.6531517], [-97.4596601, 35.6531543], [-97.4596464, 35.6531587], [-97.4596204, 35.6531529], [-97.4595959, 35.6531507], [-97.4595665, 35.6531527], [-97.4595376, 35.6531602], [-97.4595067, 35.6531533], [-97.4594787, 35.6531511], [-97.4594542, 35.6531525], [-97.4594305, 35.6531589], [-97.459404, 35.6531523], [-97.4593773, 35.6531503], [-97.4593503, 35.6531531], [-97.4593236, 35.6531598], [-97.4592939, 35.6531525], [-97.4592692, 35.6531507], [-97.4592432, 35.6531525], [-97.4592167, 35.6531585], [-97.4591873, 35.6531519], [-97.4591601, 35.6531503], [-97.4591314, 35.6531527], [-97.4591037, 35.6531583], [-97.459079, 35.6531519], [-97.4590525, 35.6531505], [-97.4590258, 35.6531533], [-97.4590056, 35.6531601], [-97.4590059, 35.6531962], [-97.4597528, 35.6531979]]]}, "properties": {"osm_id": 1391493533, "building": "roof", "name": "", "height": null, "height_m": null, "levels": null, "tract_id": "40109108114", "tract_name": "1081.14", "tags": {"building": "roof", "layer": "1"}}}, {"type": "Feature", "geometry": {"type": "Polygon", "coordinates": [[[-97.4562739, 35.6537965], [-97.4562207, 35.6537965], [-97.4562207, 35.6538162], [-97.456136, 35.6538161], [-97.456136, 35.653834], [-97.4560716, 35.653834], [-97.4560716, 35.6538151], [-97.4559882, 35.6538151], [-97.4559883, 35.6537948], [-97.455931, 35.6537948], [-97.455931, 35.6538458], [-97.4559167, 35.6538457], [-97.4559166, 35.6539318], [-97.4559321, 35.6539318], [-97.455932, 35.6539833], [-97.455984, 35.6539834], [-97.455984, 35.6539608], [-97.456069, 35.6539609], [-97.456069, 35.653942], [-97.4561355, 35.6539421], [-97.4561354, 35.653961], [-97.4562213, 35.6539611], [-97.4562213, 35.6539822], [-97.4562726, 35.6539822], [-97.4562727, 35.6539316], [-97.4562916, 35.6539316], [-97.4562917, 35.6538473], [-97.4562739, 35.6538473], [-97.4562739, 35.6537965]]]}, "properties": {"osm_id": 1431037388, "building": "apartments", "name": "", "height": null, "height_m": null, "levels": null, "tract_id": "40109108114", "tract_name": "1081.14", "tags": {"building": "apartments"}}}]}