{"type": "FeatureCollection", "features": [{"type": "Feature", "geometry": {"type": "Polygon", "coordinates": [[[-95.9827446, 36.7532338], [-95.9827395, 36.7528894], [-95.9824209, 36.7528924], [-95.9824218, 36.7529548], [-95.9819957, 36.7529589], [-95.9819967, 36.7530222], [-95.9814489, 36.7530274], [-95.9814438, 36.7526799], [-95.9806766, 36.7526872], [-95.9806735, 36.7524807], [-95.9810397, 36.7524772], [-95.9810384, 36.7523897], [-95.9808662, 36.7523913], [-95.9808623, 36.7521251], [-95.9806608, 36.752127], [-95.9806569, 36.7518604], [-95.9810877, 36.7518563], [-95.9810899, 36.7519999], [-95.9812997, 36.751998], [-95.9812977, 36.7518627], [-95.9814979, 36.7518608], [-95.9814988, 36.7519203], [-95.9816528, 36.7519189], [-95.9816543, 36.7520168], [-95.9815016, 36.7520182], [-95.9815074, 36.7524077], [-95.9816283, 36.7524066], [-95.9816232, 36.7520629], [-95.9817189, 36.752062], [-95.9817177, 36.7519846], [-95.9818048, 36.7519838], [-95.9818031, 36.7518629], [-95.9828682, 36.7518528], [-95.9828694, 36.7519371], [-95.9830628, 36.7519353], [-95.9830689, 36.7523453], [-95.9832604, 36.7523434], [-95.9832564, 36.7520726], [-95.9838703, 36.7520668], [-95.9838693, 36.7519975], [-95.9841531, 36.7519948], [-95.9841541, 36.7520655], [-95.9845952, 36.7520614], [-95.9845964, 36.7521386], [-95.9840253, 36.752144], [-95.9840372, 36.7529527], [-95.9841155, 36.752952], [-95.9841186, 36.75316], [-95.9833054, 36.7531677], [-95.9833063, 36.7532285], [-95.9827446, 36.7532338]]]}, "properties": {"osm_id": 223326774, "building": "industrial", "name": "Schlumberger", "height": null, "height_m": null, "levels": null, "tract_id": "40147000200", "tract_name": "2", "tags": {"addr:city": "Bartlesville", "addr:country": "US", "addr:housenumber": "509", "addr:postcode": "74003", "addr:street": "West Hensley Boulevard", "building": "industrial", "name": "Schlumberger"}}}, {"type": "Feature", "geometry": {"type": "Polygon", "coordinates": [[[-95.987816, 36.7513262], [-95.9880321, 36.7513262], [-95.9880321, 36.7514392], [-95.987816, 36.7514392], [-95.987816, 36.7513262]]]}, "properties": {"osm_id": 263904898, "building": "yes", "name": "Circle K", "height": null, "height_m": null, "levels": null, "tract_id": "40147000200", "tract_name": "2", "tags": {"addr:city": "Bartlesville", "addr:country": "US", "addr:housenumber": "925", "addr:postcode": "74006", "addr:street": "Southwest Frank Phillips Boulevard", "brand": "Circle K", "brand:wikidata": "Q3268010", "building": "yes", "name": "Circle K", "shop": "convenience"}}}, {"type": "Feature", "geometry": {"type": "Polygon", "coordinates": [[[-95.9881835, 36.7515137], [-95.9880435, 36.7515137], [-95.9880435, 36.7514179], [-95.9881835, 36.7514179], [-95.9881835, 36.7515137]]]}, "properties": {"osm_id": 263904900, "building": "roof", "name": "Circle K", "height": null, "height_m": null, "levels": null, "tract_id": "40147000200", "tract_name": "2", "tags": {"addr:city": "Bartlesville", "addr:country": "US", "addr:housenumber": "925", "addr:postcode": "74006", "addr:street": "Southwest Frank Phillips Boulevard", "amenity": "fuel", "brand": "Circle K", "brand:wikidata": "Q3268010", "building": "roof", "name": "Circle K"}}}, {"type": "Feature", "geometry": {"type": "Polygon", "coordinates": [[[-95.9972754, 36.7520175], [-95.9969843, 36.7520175], [-95.9969843, 36.7517604], [-95.9971271, 36.7517604], [-95.9971271, 36.7516801], [-95.9972754, 36.7516801], [-95.9972754, 36.7520175]]]}, "properties": {"osm_id": 263904902, "building": "yes", "name": "Sharp's Pawn II", "height": null, "height_m": null, "levels": null, "tract_id": "40147000200", "tract_name": "2", "tags": {"addr:city": "Bartlesville", "addr:country": "US", "addr:housenumber": "1720", "addr:postcode": "74006", "addr:street": "Southwest Frank Phillips Boulevard", "building": "yes", "name": "Sharp's Pawn II", "shop": "pawnbroker"}}}, {"type": "Feature", "geometry": {"type": "Polygon", "coordinates": [[[-95.9804757, 36.7528311], [-95.980478, 36.7524437], [-95.9802842, 36.7524429], [-95.9802819, 36.7528304], [-95.9804757, 36.7528311]]]}, "properties": {"osm_id": 312867401, "building": "industrial", "name": "On the Rock (Main Building)", "height": null, "height_m": 3.0, "levels": 1, "tract_id": "40147000200", "tract_name": "2", "tags": {"addr:city": "Bartlesville", "addr:housenumber": "122", "addr:postcode": "74003", "addr:state": "OK", "addr:street": "Park Avenue", "building": "industrial", "building:levels": "1", "name": "On the Rock (Main Building)", "note": "Cantina/Indoor Skate Park/Performance Stage"}}}, {"type": "Feature", "geometry": {"type": "Polygon", "coordinates": [[[-95.9801215, 36.7526043], [-95.9801203, 36.7524427], [-95.9800115, 36.7524432], [-95.9800128, 36.7526048], [-95.9801215, 36.7526043]]]}, "properties": {"osm_id": 312867402, "building": "industrial", "name": "On the Rock (Rock Climbing Building)", "height": null, "height_m": 3.0, "levels": 1, "tract_id": "40147000200", "tract_name": "2", "tags": {"addr:city": "Bartlesville", "addr:housenumber": "122", "addr:postcode": "74003", "addr:state": "OK", "addr:street": "Park Avenue", "building": "industrial", "building:levels": "1", "name": "On the Rock (Rock Climbing Building)"}}}, {"type": "Feature", "geometry": {"type": "Polygon", "coordinates": [[[-95.9804793, 36.7528943], [-95.9801432, 36.7528926], [-95.9801408, 36.7532072], [-95.9802798, 36.7532079], [-95.9802807, 36.7530946], [-95.9804777, 36.7530955], [-95.9804793, 36.7528943]]]}, "properties": {"osm_id": 312867403, "building": "industrial", "name": "On the Rock Building", "height": null, "height_m": 3.0, "levels": 1, "tract_id": "40147000200", "tract_name": "2", "tags": {"addr:city": "Bartlesville", "addr:housenumber": "309", "addr:postcode": "74003", "addr:state": "OK", "addr:street": "West Hensley Boulevard", "building": "industrial", "building:levels": "1", "name": "On the Rock Building"}}}, {"type": "Feature", "geometry": {"type": "Polygon", "coordinates": [[[-95.9796932, 36.7530149], [-95.9796962, 36.7531954], [-95.9799504, 36.7531927], [-95.9799478, 36.7530372], [-95.9797453, 36.7530394], [-95.9797449, 36.7530143], [-95.9796932, 36.7530149]]]}, "properties": {"osm_id": 312867404, "building": "office", "name": "On the Rock (Education Building)", "height": null, "height_m": 3.0, "levels": 1, "tract_id": "40147000200", "tract_name": "2", "tags": {"addr:city": "Bartlesville", "addr:housenumber": "309", "addr:postcode": "74003", "addr:state": "OK", "addr:street": "West Hensley Boulevard", "building": "office", "building:levels": "1", "name": "On the Rock (Education Building)"}}}, {"type": "Feature", "geometry": {"type": "Polygon", "coordinates": [[[-95.9792311, 36.7532689], [-95.9788259, 36.7532691], [-95.9790469, 36.7530637], [-95.9791447, 36.7530615], [-95.9791418, 36.7529823], [-95.9793095, 36.7529784], [-95.9793146, 36.7531222], [-95.9792474, 36.7531237], [-95.9792525, 36.7532684], [-95.9792311, 36.7532689]]]}, "properties": {"osm_id": 312867412, "building": "industrial", "name": "Former Camco Building", "height": null, "height_m": 6.0, "levels": 2, "tract_id": "40147000200", "tract_name": "2", "tags": {"building": "industrial", "building:levels": "2", "name": "Former Camco Building"}}}, {"type": "Feature", "geometry": {"type": "Polygon", "coordinates": [[[-95.9998119, 36.7415634], [-95.9994518, 36.7415617], [-95.9994528, 36.741421], [-95.9998129, 36.7414226], [-95.9998119, 36.7415634]]]}, "properties": {"osm_id": 684991915, "building": "yes", "name": "", "height": null, "height_m": null, "levels": null, "tract_id": "40147000200", "tract_name": "2", "tags": {"building": "yes"}}}, {"type": "Feature", "geometry": {"type": "Polygon", "coordinates": [[[-96.0002605, 36.7423092], [-96.0000392, 36.7423115], [-96.0000358, 36.7421084], [-96.0002571, 36.7421061], [-96.0002605, 36.7423092]]]}, "properties": {"osm_id": 684991916, "building": "yes", "name": "", "height": null, "height_m": null, "levels": null, "tract_id": "40147000200", "tract_name": "2", "tags": {"building": "yes"}}}, {"type": "Feature", "geometry": {"type": "Polygon", "coordinates": [[[-96.0000694, 36.7411732], [-96.0003859, 36.7411732], [-96.0003859, 36.7418804], [-96.0000694, 36.7418804], [-96.0000694, 36.7411732]]]}, "properties": {"osm_id": 684991917, "building": "yes", "name": "", "height": null, "height_m": null, "levels": null, "tract_id": "40147000200", "tract_name": "2", "tags": {"building": "yes"}}}, {"type": "Feature", "geometry": {"type": "Polygon", "coordinates": [[[-96.0003792, 36.7411158], [-96.0002152, 36.7411145], [-96.0002172, 36.74095], [-96.0003812, 36.7409513], [-96.0003792, 36.7411158]]]}, "properties": {"osm_id": 684991918, "building": "yes", "name": "", "height": null, "height_m": null, "levels": null, "tract_id": "40147000200", "tract_name": "2", "tags": {"building": "yes"}}}, {"type": "Feature", "geometry": {"type": "Polygon", "coordinates": [[[-95.999714, 36.7408358], [-95.9993801, 36.7408315], [-95.9993824, 36.7407152], [-95.9997163, 36.7407195], [-95.999714, 36.7408358]]]}, "properties": {"osm_id": 684991919, "building": "yes", "name": "", "height": null, "height_m": null, "levels": null, "tract_id": "40147000200", "tract_name": "2", "tags": {"building": "yes"}}}, {"type": "Feature", "geometry": {"type": "Polygon", "coordinates": [[[-95.9990273, 36.7404983], [-95.9987363, 36.7405091], [-95.9987264, 36.7403358], [-95.9990174, 36.7403251], [-95.9990273, 36.7404983]]]}, "properties": {"osm_id": 684991920, "building": "yes", "name": "", "height": null, "height_m": null, "levels": null, "tract_id": "40147000200", "tract_name": "2", "tags": {"building": "yes"}}}, {"type": "Feature", "geometry": {"type": "Polygon", "coordinates": [[[-95.998857, 36.7398073], [-95.998617, 36.7398095], [-95.9986151, 36.7396765], [-95.9988552, 36.7396744], [-95.998857, 36.7398073]]]}, "properties": {"osm_id": 684991921, "building": "yes", "name": "", "height": null, "height_m": null, "levels": null, "tract_id": "40147000200", "tract_name": "2", "tags": {"building": "yes"}}}, {"type": "Feature", "geometry": {"type": "Polygon", "coordinates": [[[-95.998389, 36.7398245], [-95.9981422, 36.7398234], [-95.9981433, 36.7396686], [-95.99839, 36.7396697], [-95.998389, 36.7398245]]]}, "properties": {"osm_id": 684991922, "building": "yes", "name": "", "height": null, "height_m": null, "levels": null, "tract_id": "40147000200", "tract_name": "2", "tags": {"building": "yes"}}}, {"type": "Feature", "geometry": {"type": "Polygon", "coordinates": [[[-95.9975025, 36.7392936], [-95.9973939, 36.7394301], [-95.9972771, 36.7393704], [-95.9973857, 36.7392339], [-95.9975025, 36.7392936]]]}, "properties": {"osm_id": 684991923, "building": "yes", "name": "", "height": null, "height_m": null, "levels": null, "tract_id": "40147000200", "tract_name": "2", "tags": {"building": "yes"}}}, {"type": "Feature", "geometry": {"type": "Polygon", "coordinates": [[[-95.9978713, 36.7393172], [-95.9976232, 36.7393172], [-95.9976232, 36.7390915], [-95.9978713, 36.7390915], [-95.9978713, 36.7393172]]]}, "properties": {"osm_id": 684991924, "building": "yes", "name": "", "height": null, "height_m": null, "levels": null, "tract_id": "40147000200", "tract_name": "2", "tags": {"building": "yes"}}}, {"type": "Feature", "geometry": {"type": "Polygon", "coordinates": [[[-95.9975535, 36.7390034], [-95.997532, 36.7391646], [-95.9974174, 36.7391548], [-95.9974389, 36.7389936], [-95.9975535, 36.7390034]]]}, "properties": {"osm_id": 684991925, "building": "yes", "name": "", "height": null, "height_m": null, "levels": null, "tract_id": "40147000200", "tract_name": "2", "tags": {"building": "yes"}}}, {"type": "Feature", "geometry": {"type": "Polygon", "coordinates": [[[-95.9973174, 36.7391936], [-95.9971337, 36.7394193], [-95.9969929, 36.7393457], [-95.9971767, 36.7391201], [-95.9973174, 36.7391936]]]}, "properties": {"osm_id": 684991926, "building": "yes", "name": "", "height": null, "height_m": null, "levels": null, "tract_id": "40147000200", "tract_name": "2", "tags": {"building": "yes"}}}, {"type": "Feature", "geometry": {"type": "Polygon", "coordinates": [[[-95.9971941, 36.7394709], [-95.9970291, 36.7396837], [-95.9967978, 36.7395686], [-95.9969627, 36.7393558], [-95.9971941, 36.7394709]]]}, "properties": {"osm_id": 684991927, "building": "yes", "name": "", "height": null, "height_m": null, "levels": null, "tract_id": "40147000200", "tract_name": "2", "tags": {"building": "yes"}}}, {"type": "Feature", "geometry": {"type": "Polygon", "coordinates": [[[-95.9955311, 36.7428476], [-95.9952307, 36.7428444], [-95.9952335, 36.7426737], [-95.9955339, 36.7426769], [-95.9955311, 36.7428476]]]}, "properties": {"osm_id": 684991928, "building": "yes", "name": "", "height": null, "height_m": null, "levels": null, "tract_id": "40147000200", "tract_name": "2", "tags": {"building": "yes"}}}, {"type": "Feature", "geometry": {"type": "Polygon", "coordinates": [[[-95.9959106, 36.7424844], [-95.9952213, 36.7424811], [-95.995223, 36.7422413], [-95.9959124, 36.7422446], [-95.9959106, 36.7424844]]]}, "properties": {"osm_id": 684991929, "building": "yes", "name": "", "height": null, "height_m": null, "levels": null, "tract_id": "40147000200", "tract_name": "2", "tags": {"building": "yes"}}}, {"type": "Feature", "geometry": {"type": "Polygon", "coordinates": [[[-95.9944072, 36.7425306], [-95.9942356, 36.7425295], [-95.994237, 36.7423876], [-95.9944086, 36.7423887], [-95.9944072, 36.7425306]]]}, "properties": {"osm_id": 684991930, "building": "yes", "name": "", "height": null, "height_m": null, "levels": null, "tract_id": "40147000200", "tract_name": "2", "tags": {"building": "yes"}}}, {"type": "Feature", "geometry": {"type": "Polygon", "coordinates": [[[-95.994414, 36.741918], [-95.9940572, 36.7418417], [-95.9940792, 36.7417757], [-95.994436, 36.741852], [-95.994414, 36.741918]]]}, "properties": {"osm_id": 684991931, "building": "yes", "name": "", "height": null, "height_m": null, "levels": null, "tract_id": "40147000200", "tract_name": "2", "tags": {"building": "yes"}}}, {"type": "Feature", "geometry": {"type": "Polygon", "coordinates": [[[-95.9792192, 36.7551977], [-95.9789537, 36.7551902], [-95.9789577, 36.7550998], [-95.9792232, 36.7551073], [-95.9792192, 36.7551977]]]}, "properties": {"osm_id": 684995889, "building": "yes", "name": "", "height": null, "height_m": null, "levels": null, "tract_id": "40147000200", "tract_name": "2", "tags": {"building": "yes"}}}, {"type": "Feature", "geometry": {"type": "Polygon", "coordinates": [[[-95.9798858, 36.7549603], [-95.9795988, 36.7549689], [-95.979593, 36.754845], [-95.97988, 36.7548364], [-95.9798858, 36.7549603]]]}, "properties": {"osm_id": 684995890, "building": "yes", "name": "", "height": null, "height_m": null, "levels": null, "tract_id": "40147000200", "tract_name": "2", "tags": {"building": "yes"}}}, {"type": "Feature", "geometry": {"type": "Polygon", "coordinates": [[[-95.9799001, 36.7545375], [-95.9794656, 36.7545347], [-95.9794676, 36.7543947], [-95.9798982, 36.7543968], [-95.9799001, 36.7545375]]]}, "properties": {"osm_id": 684995891, "building": "yes", "name": "", "height": null, "height_m": null, "levels": null, "tract_id": "40147000200", "tract_name": "2", "tags": {"building": "yes"}}}, {"type": "Feature", "geometry": {"type": "Polygon", "coordinates": [[[-95.9825479, 36.7535548], [-95.9825519, 36.7540921], [-95.9821931, 36.7540938], [-95.982189, 36.7535565], [-95.9825479, 36.7535548]]]}, "properties": {"osm_id": 689053091, "building": "yes", "name": "", "height": null, "height_m": null, "levels": null, "tract_id": "40147000200", "tract_name": "2", "tags": {"building": "yes"}}}, {"type": "Feature", "geometry": {"type": "Polygon", "coordinates": [[[-95.985678, 36.7543419], [-95.985682, 36.7545579], [-95.9855488, 36.7545595], [-95.9855448, 36.7543435], [-95.985678, 36.7543419]]]}, "properties": {"osm_id": 689053092, "building": "yes", "name": "", "height": null, "height_m": null, "levels": null, "tract_id": "40147000200", "tract_name": "2", "tags": {"building": "yes"}}}, {"type": "Feature", "geometry": {"type": "Polygon", "coordinates": [[[-95.9904335, 36.751121], [-95.9901559, 36.7511199], [-95.9901565, 36.7510274], [-95.9904341, 36.7510285], [-95.9904335, 36.751121]]]}, "properties": {"osm_id": 689053093, "building": "yes", "name": "", "height": null, "height_m": null, "levels": null, "tract_id": "40147000200", "tract_name": "2", "tags": {"building": "yes"}}}, {"type": "Feature", "geometry": {"type": "Polygon", "coordinates": [[[-95.990054, 36.7514928], [-95.9897617, 36.7514928], [-95.9897617, 36.7512102], [-95.990054, 36.7512102], [-95.990054, 36.7514928]]]}, "properties": {"osm_id": 689053094, "building": "yes", "name": "", "height": null, "height_m": null, "levels": null, "tract_id": "40147000200", "tract_name": "2", "tags": {"building": "yes"}}}, {"type": "Feature", "geometry": {"type": "Polygon", "coordinates": [[[-95.9911095, 36.7507299], [-95.9911135, 36.7509878], [-95.9907911, 36.750991], [-95.9907871, 36.7507331], [-95.9911095, 36.7507299]]]}, "properties": {"osm_id": 689053095, "building": "yes", "name": "", "height": null, "height_m": null, "levels": null, "tract_id": "40147000200", "tract_name": "2", "tags": {"building": "yes"}}}, {"type": "Feature", "geometry": {"type": "Polygon", "coordinates": [[[-95.9911135, 36.7503366], [-95.9911135, 36.7505783], [-95.9908278, 36.7505783], [-95.9908278, 36.7503366], [-95.9911135, 36.7503366]]]}, "properties": {"osm_id": 689053096, "building": "yes", "name": "", "height": null, "height_m": null, "levels": null, "tract_id": "40147000200", "tract_name": "2", "tags": {"building": "yes"}}}, {"type": "Feature", "geometry": {"type": "Polygon", "coordinates": [[[-95.9903678, 36.7490675], [-95.9903705, 36.7492674], [-95.9901995, 36.7492688], [-95.9901969, 36.749069], [-95.9903678, 36.7490675]]]}, "properties": {"osm_id": 689053097, "building": "yes", "name": "", "height": null, "height_m": null, "levels": null, "tract_id": "40147000200", "tract_name": "2", "tags": {"building": "yes"}}}, {"type": "Feature", "geometry": {"type": "Polygon", "coordinates": [[[-95.9902525, 36.7482777], [-95.9899923, 36.7483502], [-95.9899344, 36.7482168], [-95.9901945, 36.7481442], [-95.9902525, 36.7482777]]]}, "properties": {"osm_id": 689053098, "building": "yes", "name": "", "height": null, "height_m": null, "levels": null, "tract_id": "40147000200", "tract_name": "2", "tags": {"building": "yes"}}}, {"type": "Feature", "geometry": {"type": "Polygon", "coordinates": [[[-95.9904429, 36.7468463], [-95.9904376, 36.7472117], [-95.9901084, 36.7472086], [-95.9901138, 36.7468432], [-95.9904429, 36.7468463]]]}, "properties": {"osm_id": 689053099, "building": "yes", "name": "", "height": null, "height_m": null, "levels": null, "tract_id": "40147000200", "tract_name": "2", "tags": {"building": "yes"}}}, {"type": "Feature", "geometry": {"type": "Polygon", "coordinates": [[[-95.9929495, 36.7450549], [-95.9927738, 36.745056], [-95.9927726, 36.7449336], [-95.9929483, 36.7449326], [-95.9929495, 36.7450549]]]}, "properties": {"osm_id": 689053100, "building": "yes", "name": "", "height": null, "height_m": null, "levels": null, "tract_id": "40147000200", "tract_name": "2", "tags": {"building": "yes"}}}, {"type": "Feature", "geometry": {"type": "Polygon", "coordinates": [[[-95.9833892, 36.7596844], [-95.9833922, 36.7597701], [-95.9833009, 36.7597722], [-95.9833002, 36.7597505], [-95.9832518, 36.7597516], [-95.9832495, 36.7596876], [-95.9833892, 36.7596844]]]}, "properties": {"osm_id": 889979220, "building": "detached", "name": "", "height": null, "height_m": null, "levels": null, "tract_id": "40147000200", "tract_name": "2", "tags": {"building": "detached"}}}, {"type": "Feature", "geometry": {"type": "Polygon", "coordinates": [[[-95.9834202, 36.7596872], [-95.9834203, 36.7597532], [-95.9834692, 36.7597531], [-95.9834692, 36.7597723], [-95.9835621, 36.7597722], [-95.983562, 36.759687], [-95.9834202, 36.7596872]]]}, "properties": {"osm_id": 889979221, "building": "detached", "name": "", "height": null, "height_m": null, "levels": null, "tract_id": "40147000200", "tract_name": "2", "tags": {"building": "detached"}}}, {"type": "Feature", "geometry": {"type": "Polygon", "coordinates": [[[-95.9833895, 36.7595102], [-95.98339, 36.7593789], [-95.9832945, 36.7593786], [-95.9832945, 36.7593968], [-95.9832454, 36.7593967], [-95.9832451, 36.7594638], [-95.9833278, 36.759464], [-95.9833276, 36.75951], [-95.9833895, 36.7595102]]]}, "properties": {"osm_id": 889979222, "building": "detached", "name": "", "height": null, "height_m": null, "levels": null, "tract_id": "40147000200", "tract_name": "2", "tags": {"building": "detached"}}}, {"type": "Feature", "geometry": {"type": "Polygon", "coordinates": [[[-95.9834779, 36.7594612], [-95.9834779, 36.7595098], [-95.9834212, 36.7595098], [-95.9834213, 36.7593956], [-95.9835027, 36.7593957], [-95.9835027, 36.7593784], [-95.9835594, 36.7593785], [-95.9835593, 36.7594612], [-95.9834779, 36.7594612]]]}, "properties": {"osm_id": 889979223, "building": "detached", "name": "", "height": null, "height_m": null, "levels": null, "tract_id": "40147000200", "tract_name": "2", "tags": {"building": "detached"}}}, {"type": "Feature", "geometry": {"type": "Polygon", "coordinates": [[[-95.9834057, 36.758955], [-95.9834072, 36.7590687], [-95.9834577, 36.7590683], [-95.9834579, 36.759077], [-95.9835097, 36.7590766], [-95.9835098, 36.759087], [-95.9835639, 36.7590865], [-95.9835622, 36.7589537], [-95.9834057, 36.758955]]]}, "properties": {"osm_id": 889979224, "building": "detached", "name": "", "height": null, "height_m": null, "levels": null, "tract_id": "40147000200", "tract_name": "2", "tags": {"building": "detached"}}}, {"type": "Feature", "geometry": {"type": "Polygon", "coordinates": [[[-95.9831832, 36.7590186], [-95.9831884, 36.759082], [-95.9832333, 36.7590797], [-95.9832343, 36.7590915], [-95.9833144, 36.7590874], [-95.9833134, 36.7590749], [-95.9833545, 36.7590727], [-95.9833495, 36.75901], [-95.9831832, 36.7590186]]]}, "properties": {"osm_id": 889979225, "building": "detached", "name": "", "height": null, "height_m": null, "levels": null, "tract_id": "40147000200", "tract_name": "2", "tags": {"building": "detached"}}}, {"type": "Feature", "geometry": {"type": "Polygon", "coordinates": [[[-95.9829961, 36.7590319], [-95.9830348, 36.7590081], [-95.9831261, 36.7591031], [-95.9830454, 36.7591529], [-95.9830577, 36.7591657], [-95.983013, 36.7591933], [-95.9828934, 36.7590688], [-95.9829801, 36.7590153], [-95.9829961, 36.7590319]]]}, "properties": {"osm_id": 889979226, "building": "detached", "name": "", "height": null, "height_m": null, "levels": null, "tract_id": "40147000200", "tract_name": "2", "tags": {"building": "detached"}}}, {"type": "Feature", "geometry": {"type": "Polygon", "coordinates": [[[-95.9828098, 36.7592134], [-95.9828393, 36.7591333], [-95.982749, 36.7591118], [-95.9827194, 36.759192], [-95.9828098, 36.7592134]]]}, "properties": {"osm_id": 889979227, "building": "garage", "name": "", "height": null, "height_m": null, "levels": null, "tract_id": "40147000200", "tract_name": "2", "tags": {"building": "garage"}}}, {"type": "Feature", "geometry": {"type": "Polygon", "coordinates": [[[-95.9827727, 36.7593298], [-95.982925, 36.7593612], [-95.9829461, 36.7592957], [-95.9829318, 36.7592927], [-95.9829457, 36.7592494], [-95.9828077, 36.7592209], [-95.9827727, 36.7593298]]]}, "properties": {"osm_id": 889979228, "building": "detached", "name": "", "height": null, "height_m": null, "levels": null, "tract_id": "40147000200", "tract_name": "2", "tags": {"building": "detached"}}}, {"type": "Feature", "geometry": {"type": "Polygon", "coordinates": [[[-95.9828149, 36.7594545], [-95.9828165, 36.7595334], [-95.9829295, 36.7595319], [-95.9829287, 36.7594944], [-95.9829185, 36.7594946], [-95.9829169, 36.7594156], [-95.9827687, 36.7594176], [-95.9827695, 36.7594551], [-95.9828149, 36.7594545]]]}, "properties": {"osm_id": 889979229, "building": "detached", "name": "", "height": null, "height_m": null, "levels": null, "tract_id": "40147000200", "tract_name": "2", "tags": {"building": "detached"}}}, {"type": "Feature", "geometry": {"type": "Polygon", "coordinates": [[[-95.9829317, 36.7597369], [-95.9828343, 36.7597377], [-95.9828327, 36.7596117], [-95.9829138, 36.759611], [-95.9829142, 36.7596428], [-95.9829304, 36.7596427], [-95.9829317, 36.7597369]]]}, "properties": {"osm_id": 889979230, "building": "detached", "name": "", "height": null, "height_m": null, "levels": null, "tract_id": "40147000200", "tract_name": "2", "tags": {"building": "detached"}}}, {"type": "Feature", "geometry": {"type": "Polygon", "coordinates": [[[-95.9829459, 36.7598726], [-95.9829619, 36.7598689], [-95.9829749, 36.7599051], [-95.982864, 36.7599305], [-95.982838, 36.7598576], [-95.9827854, 36.7598696], [-95.9827717, 36.7598312], [-95.9829074, 36.7598], [-95.982919, 36.7598326], [-95.9829307, 36.75983], [-95.9829459, 36.7598726]]]}, "properties": {"osm_id": 889979231, "building": "detached", "name": "", "height": null, "height_m": null, "levels": null, "tract_id": "40147000200", "tract_name": "2", "tags": {"building": "detached"}}}, {"type": "Feature", "geometry": {"type": "Polygon", "coordinates": [[[-95.9831414, 36.7600367], [-95.983095, 36.7600052], [-95.9830808, 36.7600185], [-95.9830062, 36.7599679], [-95.9829388, 36.7600316], [-95.9830599, 36.7601138], [-95.9831414, 36.7600367]]]}, "properties": {"osm_id": 889979232, "building": "detached", "name": "", "height": null, "height_m": null, "levels": null, "tract_id": "40147000200", "tract_name": "2", "tags": {"building": "detached"}}}, {"type": "Feature", "geometry": {"type": "Polygon", "coordinates": [[[-95.9834579, 36.7600702], [-95.9834577, 36.7600566], [-95.9835661, 36.7600557], [-95.9835674, 36.7601513], [-95.9834696, 36.7601522], [-95.9834702, 36.7601939], [-95.98341, 36.7601945], [-95.9834083, 36.7600706], [-95.9834579, 36.7600702]]]}, "properties": {"osm_id": 889979233, "building": "detached", "name": "", "height": null, "height_m": null, "levels": null, "tract_id": "40147000200", "tract_name": "2", "tags": {"building": "detached"}}}, {"type": "Feature", "geometry": {"type": "Polygon", "coordinates": [[[-95.9833589, 36.7600777], [-95.9833106, 36.7600719], [-95.9833122, 36.7600635], [-95.9832024, 36.7600503], [-95.9831893, 36.7601202], [-95.9833474, 36.7601392], [-95.9833589, 36.7600777]]]}, "properties": {"osm_id": 889979234, "building": "detached", "name": "", "height": null, "height_m": null, "levels": null, "tract_id": "40147000200", "tract_name": "2", "tags": {"addr:city": "Bartlesville", "addr:housenumber": "532", "addr:postcode": "74003", "addr:state": "OK", "addr:street": "Turner Place", "building": "detached"}}}, {"type": "Feature", "geometry": {"type": "Polygon", "coordinates": [[[-96.0002264, 36.7511511], [-96.0002257, 36.7515101], [-96.0001088, 36.7515099], [-96.0001088, 36.7514724], [-95.9997132, 36.751472], [-95.9997133, 36.7514037], [-95.9996842, 36.7514036], [-95.9996843, 36.7513233], [-95.9994916, 36.7513231], [-95.9994917, 36.7512226], [-95.9997239, 36.7512228], [-95.9997239, 36.751188], [-96.0001141, 36.7511884], [-96.0001142, 36.751151], [-96.0002264, 36.7511511]]]}, "properties": {"osm_id": 1101475171, "building": "yes", "name": "Phillips 66", "height": null, "height_m": null, "levels": null, "tract_id": "40147000200", "tract_name": "2", "tags": {"addr:city": "Bartlesville", "addr:housenumber": "1835", "addr:postcode": "74003", "addr:state": "OK", "addr:street": "Southwest Frank Phillips Boulevard", "amenity": "fuel", "brand": "Phillips 66", "brand:wikidata": "Q1656230", "building": "yes", "compressed_air": "yes", "name": "Phillips 66", "self_service": "yes", "website": "https://www.phillips66gas.com/station/P66-ASAP-GENERAL-STORES-308-0000876616/"}}}, {"type": "Feature", "geometry": {"type": "Polygon", "coordinates": [[[-95.9981711, 36.746931], [-95.9953224, 36.746931], [-95.9953037, 36.7462575], [-95.9981898, 36.7463024], [-95.9981711, 36.746931]]]}, "properties": {"osm_id": 1218763235, "building": "commercial", "name": "Phillips 66 Document Conversion Center", "height": null, "height_m": null, "levels": null, "tract_id": "40147000200", "tract_name": "2", "tags": {"building": "commercial", "name": "Phillips 66 Document Conversion Center"}}}, {"type": "Feature", "geometry": {"type": "Polygon", "coordinates": [[[-95.9946334, 36.7514481], [-95.9942025, 36.7514495], [-95.9942012, 36.751195], [-95.9946321, 36.7511935], [-95.9946334, 36.7514481]]]}, "properties": {"osm_id": 1218763236, "building": "yes", "name": "Dollar General", "height": null, "height_m": null, "levels": null, "tract_id": "40147000200", "tract_name": "2", "tags": {"brand": "Dollar General", "brand:wikidata": "Q145168", "building": "yes", "name": "Dollar General", "shop": "variety_store", "website": "https://www.dollargeneral.com/store-directory/ok/bartlesville/4546"}}}, {"type": "Feature", "geometry": {"type": "Polygon", "coordinates": [[[-95.9938546, 36.7513376], [-95.9938485, 36.7511846], [-95.9929611, 36.7511895], [-95.9929488, 36.7513425], [-95.9938546, 36.7513376]]]}, "properties": {"osm_id": 1218763237, "building": "yes", "name": "O'Reilly Auto Parts", "height": null, "height_m": null, "levels": null, "tract_id": "40147000200", "tract_name": "2", "tags": {"brand": "O'Reilly Auto Parts", "brand:wikidata": "Q7071951", "building": "yes", "name": "O'Reilly Auto Parts", "shop": "car_parts", "website": "https://locations.oreillyauto.com/ok/bartlesville/autoparts-149.html"}}}, {"type": "Feature", "geometry": {"type": "Polygon", "coordinates": [[[-95.993709, 36.7521003], [-95.9930841, 36.7521003], [-95.9930814, 36.7518876], [-95.9936956, 36.7518854], [-95.993709, 36.7521003]]]}, "properties": {"osm_id": 1218763238, "building": "yes", "name": "Budget Inn", "height": null, "height_m": null, "levels": null, "tract_id": "40147000200", "tract_name": "2", "tags": {"building": "yes", "name": "Budget Inn", "tourism": "motel"}}}, {"type": "Feature", "geometry": {"type": "Polygon", "coordinates": [[[-95.9961069, 36.7515007], [-95.9958924, 36.7515029], [-95.9959004, 36.7513116], [-95.9961043, 36.7513116], [-95.9961069, 36.7515007]]]}, "properties": {"osm_id": 1218763239, "building": "yes", "name": "Murphy's Origial Steak House", "height": null, "height_m": null, "levels": null, "tract_id": "40147000200", "tract_name": "2", "tags": {"amenity": "restaurant", "building": "yes", "name": "Murphy's Origial Steak House"}}}, {"type": "Feature", "geometry": {"type": "Polygon", "coordinates": [[[-95.9881867, 36.7504546], [-95.9881837, 36.7503212], [-95.9882353, 36.7503187], [-95.9882365, 36.750251], [-95.9883388, 36.7502515], [-95.9883414, 36.7501408], [-95.9883417, 36.7501278], [-95.9883439, 36.7500306], [-95.9878088, 36.7500285], [-95.987807, 36.7500174], [-95.9878046, 36.7500025], [-95.9872554, 36.7500831], [-95.9872963, 36.7502943], [-95.9873371, 36.7502884], [-95.9876808, 36.750239], [-95.9876994, 36.7502363], [-95.9877006, 36.7503455], [-95.9877704, 36.7503456], [-95.987909, 36.7503459], [-95.9879088, 36.7503546], [-95.987908, 36.7503881], [-95.9879065, 36.7504548], [-95.9881445, 36.7504547], [-95.9881867, 36.7504546]]]}, "properties": {"osm_id": 1218763240, "building": "yes", "name": "Boy's and Girl's Club", "height": null, "height_m": null, "levels": null, "tract_id": "40147000200", "tract_name": "2", "tags": {"amenity": "social_centre", "building": "yes", "name": "Boy's and Girl's Club"}}}, {"type": "Feature", "geometry": {"type": "Polygon", "coordinates": [[[-95.9878953, 36.7508004], [-95.9878581, 36.7508009], [-95.9878561, 36.7507154], [-95.9878933, 36.7507149], [-95.9878953, 36.7508004]]]}, "properties": {"osm_id": 1382321791, "building": "yes", "name": "", "height": null, "height_m": null, "levels": null, "tract_id": "40147000200", "tract_name": "2", "tags": {"amenity": "shelter", "building": "yes"}}}, {"type": "Feature", "geometry": {"type": "Polygon", "coordinates": [[[-95.9881633, 36.7505777], [-95.9881632, 36.7505454], [-95.9880577, 36.7505455], [-95.9880578, 36.7505779], [-95.9881633, 36.7505777]]]}, "properties": {"osm_id": 1382321792, "building": "yes", "name": "", "height": null, "height_m": null, "levels": null, "tract_id": "40147000200", "tract_name": "2", "tags": {"amenity": "shelter", "building": "yes"}}}, {"type": "Feature", "geometry": {"type": "Polygon", "coordinates": [[[-95.9891167, 36.7511164], [-95.9891108, 36.7510732], [-95.9890607, 36.7510757], [-95.9890191, 36.7510742], [-95.988976, 36.751064], [-95.9889479, 36.7510538], [-95.9889163, 36.7510374], [-95.9888876, 36.7510751], [-95.9889343, 36.7510971], [-95.9889918, 36.7511126], [-95.9890509, 36.7511184], [-95.9891167, 36.7511164]]]}, "properties": {"osm_id": 1382331271, "building": "yes", "name": "", "height": null, "height_m": null, "levels": null, "tract_id": "40147000200", "tract_name": "2", "tags": {"building": "yes"}}}, {"type": "Feature", "geometry": {"type": "Polygon", "coordinates": [[[-95.9891784, 36.7507801], [-95.989228, 36.7507333], [-95.9892775, 36.7506816], [-95.989229, 36.750656], [-95.9892448, 36.7506344], [-95.989189, 36.7506119], [-95.9891525, 36.7506021], [-95.9891544, 36.7505916], [-95.9891136, 36.7505868], [-95.9890695, 36.7505816], [-95.9890679, 36.7505903], [-95.9890322, 36.7505894], [-95.9889829, 36.7505937], [-95.9889906, 36.7506202], [-95.9889325, 36.7506329], [-95.9889544, 36.7506817], [-95.9889886, 36.7507537], [-95.9890261, 36.7507446], [-95.9890394, 36.750746], [-95.9890378, 36.7507548], [-95.9891227, 36.7507648], [-95.9891242, 36.7507564], [-95.9891435, 36.7507623], [-95.9891784, 36.7507801]]]}, "properties": {"osm_id": 1382331272, "building": "yes", "name": "", "height": null, "height_m": null, "levels": null, "tract_id": "40147000200", "tract_name": "2", "tags": {"building": "yes"}}}, {"type": "Feature", "geometry": {"type": "Polygon", "coordinates": [[[-95.9891987, 36.7510582], [-95.989225, 36.7510334], [-95.9892199, 36.7510299], [-95.989212, 36.7510245], [-95.9892055, 36.7510306], [-95.9891944, 36.7510411], [-95.9891857, 36.7510493], [-95.9891987, 36.7510582]]]}, "properties": {"osm_id": 1382331274, "building": "yes", "name": "", "height": null, "height_m": null, "levels": null, "tract_id": "40147000200", "tract_name": "2", "tags": {"building": "yes", "man_made": "tower", "tower:type": "diving"}}}, {"type": "Feature", "geometry": {"type": "Polygon", "coordinates": [[[-95.9886833, 36.7505005], [-95.9886128, 36.7504625], [-95.9886885, 36.7503721], [-95.9887067, 36.7503819], [-95.9887591, 36.7504101], [-95.9886833, 36.7505005]]]}, "properties": {"osm_id": 1382335674, "building": "yes", "name": "", "height": null, "height_m": null, "levels": null, "tract_id": "40147000200", "tract_name": "2", "tags": {"amenity": "shelter", "building": "yes", "shelter_type": "picnic_shelter"}}}, {"type": "Feature", "geometry": {"type": "Polygon", "coordinates": [[[-95.9887834, 36.7502304], [-95.9888168, 36.7502303], [-95.9888167, 36.7501794], [-95.9887833, 36.7501795], [-95.9887834, 36.7502304]]]}, "properties": {"osm_id": 1382335675, "building": "yes", "name": "", "height": null, "height_m": null, "levels": null, "tract_id": "40147000200", "tract_name": "2", "tags": {"amenity": "toilets", "building": "yes"}}}, {"type": "Feature", "geometry": {"type": "Polygon", "coordinates": [[[-95.9879688, 36.7497363], [-95.9879688, 36.7494598], [-95.9877688, 36.7494598], [-95.9877685, 36.749503], [-95.987767, 36.7497378], [-95.9879688, 36.7497363]]]}, "properties": {"osm_id": 1382339000, "building": "yes", "name": "", "height": null, "height_m": null, "levels": null, "tract_id": "40147000200", "tract_name": "2", "tags": {"amenity": "shelter", "building": "yes"}}}, {"type": "Feature", "geometry": {"type": "Polygon", "coordinates": [[[-95.9874911, 36.7497705], [-95.9874943, 36.7495016], [-95.9874943, 36.7494954], [-95.9872731, 36.7494938], [-95.9872699, 36.7497688], [-95.9874911, 36.7497705]]]}, "properties": {"osm_id": 1382339001, "building": "yes", "name": "BGC", "height": null, "height_m": null, "levels": null, "tract_id": "40147000200", "tract_name": "2", "tags": {"building": "yes", "name": "BGC"}}}, {"type": "Feature", "geometry": {"type": "Polygon", "coordinates": [[[-95.9949285, 36.7409222], [-95.9947259, 36.7406267], [-95.9938945, 36.7409928], [-95.9940983, 36.7412878], [-95.9949285, 36.7409222]]]}, "properties": {"osm_id": 1433727801, "building": "yes", "name": "", "height": null, "height_m": null, "levels": null, "tract_id": "40147000200", "tract_name": "2", "tags": {"building": "yes", "source": "microsoft/BuildingFootprints"}}}]}