{"type": "FeatureCollection", "features": [{"type": "Feature", "geometry": {"type": "Polygon", "coordinates": [[[-97.5538248, 35.5379994], [-97.5536639, 35.5380475], [-97.5534922, 35.5376502], [-97.5534595, 35.5376616], [-97.5533474, 35.5374298], [-97.5535534, 35.5373691], [-97.5538248, 35.5379994]]]}, "properties": {"osm_id": 227848971, "building": "yes", "name": "", "height": null, "height_m": null, "levels": null, "tract_id": "40109106402", "tract_name": "1064.02", "tags": {"building": "yes", "source": "Bing"}}}, {"type": "Feature", "geometry": {"type": "Polygon", "coordinates": [[[-97.5643164, 35.5367968], [-97.5646479, 35.5367922], [-97.5646564, 35.5372024], [-97.5643255, 35.5372085], [-97.5643164, 35.5367968]]]}, "properties": {"osm_id": 229089804, "building": "yes", "name": "AutoZone", "height": null, "height_m": null, "levels": null, "tract_id": "40109106402", "tract_name": "1064.02", "tags": {"addr:city": "Oklahoma City", "addr:housenumber": "6408", "addr:postcode": "73116", "addr:state": "OK", "addr:street": "North May Avenue", "brand": "AutoZone", "brand:wikidata": "Q4826087", "building": "yes", "name": "AutoZone", "opening_hours": "Mo-Sa 07:30-21:00; Su 09:00-20:00", "phone": "+1 405 848 1071", "ref": "0517", "roof:shape": "flat", "shop": "car_parts", "source": "Bing", "website": "https://www.autozone.com/locations/ok/oklahoma-city/6408-n-may-ave.html"}}}, {"type": "Feature", "geometry": {"type": "Polygon", "coordinates": [[[-97.5647597, 35.5404105], [-97.564758, 35.5402954], [-97.5645982, 35.5402969], [-97.564598, 35.5402873], [-97.564576, 35.5402876], [-97.5645758, 35.5402714], [-97.5645307, 35.5402718], [-97.5645311, 35.540299], [-97.5644742, 35.5402995], [-97.564475, 35.5403534], [-97.564448, 35.5403536], [-97.5644489, 35.5404135], [-97.5646342, 35.5404117], [-97.5647597, 35.5404105]]]}, "properties": {"osm_id": 229090387, "building": "yes", "name": "Ted's Cafe Escondito", "height": null, "height_m": null, "levels": null, "tract_id": "40109106402", "tract_name": "1064.02", "tags": {"addr:city": "Oklahoma City", "addr:housenumber": "2836", "addr:postcode": "73116", "addr:state": "OK", "addr:street": "Northwest 68th Street", "amenity": "restaurant", "building": "yes", "craft": "caterer", "cuisine": "mexican", "name": "Ted's Cafe Escondito", "phone": "+1 405 848 8337", "source": "local_knowledge", "website": "https://www.tedscafe.com/"}}}, {"type": "Feature", "geometry": {"type": "Polygon", "coordinates": [[[-97.5653049, 35.5410897], [-97.5649172, 35.5410881], [-97.5649186, 35.5408175], [-97.5653047, 35.5408203], [-97.5653049, 35.5410897]]]}, "properties": {"osm_id": 229090487, "building": "yes", "name": "Four Star Fitness", "height": null, "height_m": null, "levels": null, "tract_id": "40109106402", "tract_name": "1064.02", "tags": {"addr:city": "Oklahoma City", "addr:housenumber": "6900", "addr:postcode": "73116", "addr:state": "OK", "addr:street": "North May Avenue", "building": "yes", "contact:facebook": "FourStarFitness", "contact:twitter": "fourstarfitness", "leisure": "fitness_centre", "name": "Four Star Fitness", "phone": "+1 405 418 4496", "roof:shape": "flat", "source": "Bing", "website": "https://fourstarfitnessokc.com/"}}}, {"type": "Feature", "geometry": {"type": "Polygon", "coordinates": [[[-97.5536075, 35.5368612], [-97.5535538, 35.5368437], [-97.5535002, 35.5368623], [-97.5534814, 35.5369045], [-97.5535036, 35.5369487], [-97.5535556, 35.5369657], [-97.5536088, 35.5369452], [-97.5536276, 35.5369038], [-97.5536075, 35.5368612]]]}, "properties": {"osm_id": 244096520, "building": "yes", "name": "", "height": null, "height_m": null, "levels": null, "tract_id": "40109106402", "tract_name": "1064.02", "tags": {"building": "yes", "source": "Bing"}}}, {"type": "Feature", "geometry": {"type": "Polygon", "coordinates": [[[-97.565322, 35.5381556], [-97.5650188, 35.5381792], [-97.5649981, 35.5380036], [-97.5653014, 35.53798], [-97.565322, 35.5381556]]]}, "properties": {"osm_id": 248308772, "building": "yes", "name": "", "height": null, "height_m": null, "levels": null, "tract_id": "40109106402", "tract_name": "1064.02", "tags": {"building": "yes", "roof:shape": "flat", "source": "Bing"}}}, {"type": "Feature", "geometry": {"type": "Polygon", "coordinates": [[[-97.5654036, 35.5386954], [-97.5652293, 35.5386936], [-97.5652324, 35.5384928], [-97.5654067, 35.5384946], [-97.5654036, 35.5386954]]]}, "properties": {"osm_id": 248308773, "building": "yes", "name": "", "height": null, "height_m": null, "levels": null, "tract_id": "40109106402", "tract_name": "1064.02", "tags": {"addr:city": "Oklahoma City", "addr:postcode": "73116", "addr:state": "OK", "addr:street": "North May Avenue", "building": "yes", "roof:shape": "flat", "source": "Bing"}}}, {"type": "Feature", "geometry": {"type": "Polygon", "coordinates": [[[-97.5652986, 35.5402326], [-97.5651779, 35.5402337], [-97.5651805, 35.5404138], [-97.5653012, 35.5404126], [-97.5652986, 35.5402326]]]}, "properties": {"osm_id": 248308774, "building": "yes", "name": "Likewise Craft", "height": null, "height_m": null, "levels": null, "tract_id": "40109106402", "tract_name": "1064.02", "tags": {"addr:city": "Oklahoma City", "addr:housenumber": "6808", "addr:postcode": "73116", "addr:state": "OK", "addr:street": "North May Avenue", "atm": "yes", "building": "yes", "contact:facebook": "likewise_ok", "contact:instagram": "likewise_ok", "contact:twitter": "likewiseok", "drive_through": "yes", "email": "plaza@likewisecannabis.com", "name": "Likewise Craft", "opening_hours": "Mo-Sa 11:00-21:00; Su 12:00-18:00", "phone": "+1 405 412 2448", "roof:shape": "hipped", "shop": "cannabis", "source": "Bing", "website": "https://likewisecannabis.com/likewise-craft-cannabis-dispensary-drive-thru-okc-dispensary-near-me-oklahoma.html"}}}, {"type": "Feature", "geometry": {"type": "Polygon", "coordinates": [[[-97.5648761, 35.5377215], [-97.565267, 35.5377066], [-97.5652773, 35.537903], [-97.5648036, 35.5379194], [-97.5647952, 35.5377983], [-97.5647931, 35.537723], [-97.5648761, 35.5377215]]]}, "properties": {"osm_id": 248308776, "building": "yes", "name": "Half Price Books", "height": null, "height_m": null, "levels": null, "tract_id": "40109106402", "tract_name": "1064.02", "tags": {"addr:city": "Oklahoma City", "addr:housenumber": "6500", "addr:postcode": "73116", "addr:state": "OK", "addr:street": "North May Avenue", "brand": "Half Price Books", "brand:wikidata": "Q5641744", "building": "yes", "name": "Half Price Books", "opening_hours": "10:00-20:00", "phone": "+1 405 843 5837", "roof:shape": "flat", "shop": "books", "source": "Bing", "website": "https://www.hpb.com/store?storeid=HPB-105"}}}, {"type": "Feature", "geometry": {"type": "Polygon", "coordinates": [[[-97.5654223, 35.5387853], [-97.5651832, 35.5387845], [-97.5651829, 35.5388473], [-97.5651825, 35.5389101], [-97.5654216, 35.5389109], [-97.565422, 35.5388481], [-97.5654223, 35.5387853]]]}, "properties": {"osm_id": 248308777, "building": "commercial", "name": "", "height": null, "height_m": null, "levels": null, "tract_id": "40109106402", "tract_name": "1064.02", "tags": {"building": "commercial", "roof:shape": "flat", "source": "Bing"}}}, {"type": "Feature", "geometry": {"type": "Polygon", "coordinates": [[[-97.5654001, 35.5392283], [-97.5652891, 35.5392294], [-97.5652939, 35.5395437], [-97.5654048, 35.5395426], [-97.5654001, 35.5392283]]]}, "properties": {"osm_id": 248308778, "building": "yes", "name": "McDonald's", "height": null, "height_m": null, "levels": null, "tract_id": "40109106402", "tract_name": "1064.02", "tags": {"addr:city": "Oklahoma City", "addr:housenumber": "6700", "addr:postcode": "73116", "addr:state": "OK", "addr:street": "North May Avenue", "amenity": "fast_food", "brand": "McDonald's", "brand:wikidata": "Q38076", "building": "yes", "cuisine": "burger", "drive_through": "yes", "internet_access": "wlan", "name": "McDonald's", "opening_hours": "24/7", "phone": "+1 405-842-3314", "ref": "6528", "roof:shape": "flat", "source": "Bing", "takeaway": "yes", "website": "https://www.mcdonalds.com/us/en-us/location/6528.html"}}}, {"type": "Feature", "geometry": {"type": "Polygon", "coordinates": [[[-97.5647952, 35.5377983], [-97.5647931, 35.537723], [-97.5648761, 35.5377215], [-97.5648691, 35.5374704], [-97.5648641, 35.5372925], [-97.5648202, 35.5372933], [-97.5648177, 35.5371995], [-97.5646564, 35.5372024], [-97.5643255, 35.5372085], [-97.5643286, 35.537318], [-97.5644191, 35.5373163], [-97.5644327, 35.537805], [-97.5647952, 35.5377983]]]}, "properties": {"osm_id": 248308779, "building": "yes", "name": "Sprouts Farmers Market", "height": null, "height_m": null, "levels": null, "tract_id": "40109106402", "tract_name": "1064.02", "tags": {"addr:city": "Oklahoma City", "addr:housenumber": "6410", "addr:postcode": "73116", "addr:state": "OK", "addr:street": "North May Avenue", "branch": "Oklahoma City", "brand": "Sprouts Farmers Market", "brand:wikidata": "Q7581369", "building": "yes", "dog": "no", "internet_access": "wlan", "internet_access:fee": "no", "name": "Sprouts Farmers Market", "opening_hours": "07:00-22:00", "payment:apple_pay": "yes", "payment:cash": "yes", "payment:cheque": "yes", "payment:credit_cards": "yes", "payment:debit_cards": "yes", "payment:ebt": "yes", "payment:google_pay": "yes", "payment:samsung_pay": "yes", "phone": "+1 405-879-9989", "ref": "801", "roof:shape": "flat", "shop": "supermarket", "short_name": "Sprouts", "source": "Bing", "website": "https://www.sprouts.com/store/ok/oklahoma-city/oklahoma-city/"}}}, {"type": "Feature", "geometry": {"type": "Polygon", "coordinates": [[[-97.5646813, 35.5416522], [-97.5652831, 35.541638], [-97.5652904, 35.541844], [-97.5646633, 35.5418588], [-97.5646569, 35.5416775], [-97.5643894, 35.5416774], [-97.5643895, 35.5408217], [-97.5646814, 35.5408218], [-97.5646813, 35.5416522]]]}, "properties": {"osm_id": 248309614, "building": "yes", "name": "", "height": null, "height_m": null, "levels": null, "tract_id": "40109106402", "tract_name": "1064.02", "tags": {"building": "yes", "roof:shape": "flat", "source": "Bing"}}}, {"type": "Feature", "geometry": {"type": "Polygon", "coordinates": [[[-97.5638134, 35.5467488], [-97.5638215, 35.5470675], [-97.5640253, 35.5470587], [-97.5640253, 35.5469125], [-97.5649534, 35.5468972], [-97.5649534, 35.5469453], [-97.5650875, 35.5470478], [-97.5650902, 35.5471111], [-97.5652645, 35.5471089], [-97.5652488, 35.5467252], [-97.5638134, 35.5467488]]]}, "properties": {"osm_id": 249491541, "building": "yes", "name": "", "height": null, "height_m": null, "levels": null, "tract_id": "40109106402", "tract_name": "1064.02", "tags": {"building": "yes", "shop": "mall", "source": "Bing"}}}, {"type": "Feature", "geometry": {"type": "Polygon", "coordinates": [[[-97.5649858, 35.547339], [-97.5649856, 35.5475472], [-97.5652446, 35.5475473], [-97.5652448, 35.5473391], [-97.5649858, 35.547339]]]}, "properties": {"osm_id": 249491982, "building": "yes", "name": "", "height": null, "height_m": null, "levels": null, "tract_id": "40109106402", "tract_name": "1064.02", "tags": {"building": "yes", "source": "Bing"}}}, {"type": "Feature", "geometry": {"type": "Polygon", "coordinates": [[[-97.5652958, 35.5462936], [-97.5651208, 35.5462959], [-97.5651214, 35.5463269], [-97.5650079, 35.5463284], [-97.5650147, 35.5466728], [-97.5653032, 35.546669], [-97.5652958, 35.5462936]]]}, "properties": {"osm_id": 249491985, "building": "yes", "name": "", "height": null, "height_m": null, "levels": null, "tract_id": "40109106402", "tract_name": "1064.02", "tags": {"building": "yes", "source": "Bing"}}}, {"type": "Feature", "geometry": {"type": "Polygon", "coordinates": [[[-97.5653528, 35.5496733], [-97.5653421, 35.5500858], [-97.5650551, 35.5500858], [-97.5650551, 35.5498566], [-97.5649934, 35.5498566], [-97.5649961, 35.5496842], [-97.565137, 35.5496892], [-97.5651585, 35.5496674], [-97.5653528, 35.5496733]]]}, "properties": {"osm_id": 271367016, "building": "yes", "name": "", "height": null, "height_m": null, "levels": null, "tract_id": "40109106402", "tract_name": "1064.02", "tags": {"building": "yes", "roof:shape": "flat", "source": "Bing"}}}, {"type": "Feature", "geometry": {"type": "Polygon", "coordinates": [[[-97.5653689, 35.5486193], [-97.5652792, 35.5486221], [-97.5652792, 35.5481573], [-97.5648593, 35.5481588], [-97.5648593, 35.548257], [-97.5648915, 35.5483116], [-97.5649707, 35.54831], [-97.5649693, 35.5484272], [-97.5650953, 35.5486367], [-97.5650727, 35.5486439], [-97.5651183, 35.5487159], [-97.5653677, 35.5487159], [-97.5653689, 35.5486193]]]}, "properties": {"osm_id": 271367017, "building": "retail", "name": "", "height": null, "height_m": null, "levels": null, "tract_id": "40109106402", "tract_name": "1064.02", "tags": {"addr:city": "Oklahoma City", "addr:housenumber": "7600", "addr:postcode": "73116", "addr:state": "OK", "addr:street": "North May Avenue", "building": "retail", "roof:shape": "flat", "source": "Bing"}}}, {"type": "Feature", "geometry": {"type": "Polygon", "coordinates": [[[-97.5653603, 35.5488117], [-97.5651759, 35.5488114], [-97.5651753, 35.5489732], [-97.5653598, 35.5489736], [-97.5653603, 35.5488117]]]}, "properties": {"osm_id": 271367018, "building": "yes", "name": "Vito's Ristorante", "height": null, "height_m": null, "levels": null, "tract_id": "40109106402", "tract_name": "1064.02", "tags": {"addr:city": "Oklahoma City", "addr:postcode": "73116", "addr:state": "OK", "addr:street": "North May Avenue", "amenity": "restaurant", "building": "yes", "cuisine": "italian", "name": "Vito's Ristorante", "roof:shape": "flat", "source": "Bing"}}}, {"type": "Feature", "geometry": {"type": "Polygon", "coordinates": [[[-97.5653504, 35.5500942], [-97.5651995, 35.5500919], [-97.565196, 35.5502373], [-97.565347, 35.5502397], [-97.5653504, 35.5500942]]]}, "properties": {"osm_id": 271367019, "building": "commercial", "name": "J & Company Salon", "height": null, "height_m": null, "levels": null, "tract_id": "40109106402", "tract_name": "1064.02", "tags": {"addr:city": "Oklahoma City", "addr:housenumber": "7716", "addr:postcode": "73116", "addr:state": "OK", "addr:street": "North May Avenue", "building": "commercial", "name": "J & Company Salon", "roof:colour": "green", "shop": "hairdresser", "source": "Bing"}}}, {"type": "Feature", "geometry": {"type": "Polygon", "coordinates": [[[-97.5654033, 35.5492086], [-97.565128, 35.5492083], [-97.565128, 35.5492415], [-97.5654026, 35.5492425], [-97.5654033, 35.5492086]]]}, "properties": {"osm_id": 271367712, "building": "roof", "name": "", "height": null, "height_m": null, "levels": null, "tract_id": "40109106402", "tract_name": "1064.02", "tags": {"building": "roof", "roof:material": "metal", "roof:shape": "flat", "source": "Bing"}}}, {"type": "Feature", "geometry": {"type": "Polygon", "coordinates": [[[-97.5648495, 35.5509638], [-97.5646644, 35.5509641], [-97.5646635, 35.5506794], [-97.5648486, 35.550679], [-97.5648495, 35.5509638]]]}, "properties": {"osm_id": 271367713, "building": "yes", "name": "", "height": null, "height_m": null, "levels": null, "tract_id": "40109106402", "tract_name": "1064.02", "tags": {"building": "yes", "roof:shape": "flat", "source": "Bing"}}}, {"type": "Feature", "geometry": {"type": "Polygon", "coordinates": [[[-97.5653392, 35.5456515], [-97.565257, 35.5456529], [-97.5652552, 35.5455834], [-97.5652508, 35.5454045], [-97.5650457, 35.5454079], [-97.5650497, 35.5455869], [-97.5650533, 35.5457248], [-97.565341, 35.5457197], [-97.5653392, 35.5456515]]]}, "properties": {"osm_id": 271367716, "building": "retail", "name": "", "height": null, "height_m": null, "levels": null, "tract_id": "40109106402", "tract_name": "1064.02", "tags": {"addr:city": "Oklahoma City", "addr:postcode": "73116", "addr:state": "OK", "addr:street": "North May Avenue", "building": "retail", "roof:shape": "flat", "source": "Bing"}}}, {"type": "Feature", "geometry": {"type": "Polygon", "coordinates": [[[-97.5652706, 35.5460492], [-97.5651331, 35.5460504], [-97.5651291, 35.5457638], [-97.5652666, 35.5457626], [-97.5652706, 35.5460492]]]}, "properties": {"osm_id": 271367719, "building": "yes", "name": "A1 N.W. Vacuum & Janitor Supplies", "height": null, "height_m": null, "levels": null, "tract_id": "40109106402", "tract_name": "1064.02", "tags": {"addr:city": "Oklahoma City", "addr:housenumber": "2832", "addr:postcode": "73116", "addr:state": "OK", "addr:street": "Pembroke Terrace", "building": "yes", "contact:facebook": "a1nwvacuumjanitorsupplies", "contact:yelp": "https://www.yelp.com/biz/a-1-n-w-vacuum-and-janitor-supplies-oklahoma-city", "email": "a1nwvacuum@sbcglobal.net", "fax": "+1 405 810 0759", "name": "A1 N.W. Vacuum & Janitor Supplies", "opening_hours": "Mo-Fr 09:00-18:00", "phone": "+1 405 848 2929", "roof:material": "metal", "shop": "cleaning_supplies", "source": "Bing", "website": "https://www.a1nwvacuum.com/"}}}, {"type": "Feature", "geometry": {"type": "Polygon", "coordinates": [[[-97.5654273, 35.5490839], [-97.5649651, 35.5490829], [-97.564965, 35.5491268], [-97.5654272, 35.5491278], [-97.5654273, 35.5490839]]]}, "properties": {"osm_id": 271367720, "building": "roof", "name": "", "height": null, "height_m": null, "levels": null, "tract_id": "40109106402", "tract_name": "1064.02", "tags": {"building": "roof", "roof:material": "metal", "roof:shape": "flat", "source": "Bing"}}}, {"type": "Feature", "geometry": {"type": "Polygon", "coordinates": [[[-97.5654116, 35.545885], [-97.5654118, 35.5458037], [-97.5653039, 35.5458035], [-97.5653035, 35.5459489], [-97.565481, 35.5459493], [-97.5654812, 35.5458851], [-97.5654116, 35.545885]]]}, "properties": {"osm_id": 271367723, "building": "yes", "name": "Goodwill", "height": null, "height_m": null, "levels": null, "tract_id": "40109106402", "tract_name": "1064.02", "tags": {"addr:city": "Oklahoma City", "addr:postcode": "73116", "addr:state": "OK", "addr:street": "North May Avenue", "branch": "Donation Center", "brand": "Goodwill", "brand:wikidata": "Q5583655", "building": "yes", "name": "Goodwill", "operator": "Goodwill Industries of Central Oklahoma", "operator:wikidata": "Q126846292", "roof:shape": "flat", "shop": "charity", "source": "Bing"}}}, {"type": "Feature", "geometry": {"type": "Polygon", "coordinates": [[[-97.5654023, 35.5493101], [-97.5654026, 35.5492425], [-97.565128, 35.5492415], [-97.5650869, 35.5492414], [-97.5650865, 35.549309], [-97.5652296, 35.5493095], [-97.5654023, 35.5493101]]]}, "properties": {"osm_id": 271367726, "building": "yes", "name": "Sonic", "height": null, "height_m": null, "levels": null, "tract_id": "40109106402", "tract_name": "1064.02", "tags": {"addr:city": "Oklahoma City", "addr:housenumber": "7640", "addr:postcode": "73116", "addr:state": "OK", "addr:street": "North May Avenue", "amenity": "fast_food", "brand": "Sonic", "brand:wikidata": "Q7561808", "building": "yes", "cuisine": "burger", "drive_in": "yes", "name": "Sonic", "opening_hours": "Mo-Th 06:00-23:00; Fr-Sa 06:00-24:00; Su 07:00-23:00", "phone": "+1 405-848-7557", "source": "Bing", "takeaway": "yes", "website": "https://locations.sonicdrivein.com/ok/oklahomacity/7640-n-may-ave.html"}}}, {"type": "Feature", "geometry": {"type": "Polygon", "coordinates": [[[-97.5653025, 35.5451411], [-97.5651282, 35.5451444], [-97.5651176, 35.5447784], [-97.565292, 35.5447751], [-97.5653012, 35.545096], [-97.5653025, 35.5451411]]]}, "properties": {"osm_id": 271367728, "building": "yes", "name": "", "height": null, "height_m": null, "levels": null, "tract_id": "40109106402", "tract_name": "1064.02", "tags": {"building": "yes", "roof:shape": "flat", "source": "Bing"}}}, {"type": "Feature", "geometry": {"type": "Polygon", "coordinates": [[[-97.5654023, 35.5493101], [-97.5652296, 35.5493095], [-97.5652299, 35.5493369], [-97.5654019, 35.5493357], [-97.5654023, 35.5493101]]]}, "properties": {"osm_id": 271367729, "building": "roof", "name": "", "height": null, "height_m": null, "levels": null, "tract_id": "40109106402", "tract_name": "1064.02", "tags": {"building": "roof", "roof:material": "metal", "roof:shape": "flat", "source": "Bing"}}}, {"type": "Feature", "geometry": {"type": "Polygon", "coordinates": [[[-97.5653049, 35.5441259], [-97.5651216, 35.5441284], [-97.5651153, 35.5438234], [-97.5652602, 35.5438214], [-97.5652631, 35.5439627], [-97.5653015, 35.5439621], [-97.5653049, 35.5441259]]]}, "properties": {"osm_id": 271372342, "building": "yes", "name": "Green Gorilla", "height": null, "height_m": null, "levels": null, "tract_id": "40109106402", "tract_name": "1064.02", "tags": {"addr:city": "Oklahoma City", "addr:housenumber": "7220", "addr:postcode": "73116", "addr:state": "OK", "addr:street": "North May Avenue", "building": "yes", "email": "okc@greengorilla.gg", "name": "Green Gorilla", "phone": "+1 405 810 5253", "roof:shape": "flat", "shop": "tobacco", "source": "Bing", "website": "https://okc.greengorilla.gg/"}}}, {"type": "Feature", "geometry": {"type": "Polygon", "coordinates": [[[-97.5651805, 35.544654], [-97.5651808, 35.5445801], [-97.5651811, 35.5444998], [-97.5651814, 35.5444307], [-97.565077, 35.5444304], [-97.5650761, 35.5446538], [-97.5651805, 35.544654]]]}, "properties": {"osm_id": 271372343, "building": "yes", "name": "Roadies", "height": null, "height_m": null, "levels": null, "tract_id": "40109106402", "tract_name": "1064.02", "tags": {"addr:city": "Oklahoma City", "addr:housenumber": "7308", "addr:postcode": "73116", "addr:state": "OK", "addr:street": "North May Avenue", "building": "yes", "name": "Roadies", "phone": "+1 405 848 3844", "roof:shape": "flat", "shop": "convenience", "source": "Bing", "website": "https://www.conoco.com/station/CON-ROADIES-CONOCO-0000870027/"}}}, {"type": "Feature", "geometry": {"type": "Polygon", "coordinates": [[[-97.5654406, 35.5447026], [-97.5653608, 35.5447024], [-97.5653613, 35.5445806], [-97.5651808, 35.5445801], [-97.5651811, 35.5444998], [-97.5653692, 35.5445002], [-97.5653697, 35.5443817], [-97.5654418, 35.5443818], [-97.5654406, 35.5447026]]]}, "properties": {"osm_id": 271372344, "building": "roof", "name": "Conoco", "height": null, "height_m": null, "levels": null, "tract_id": "40109106402", "tract_name": "1064.02", "tags": {"addr:city": "Oklahoma City", "addr:housenumber": "7308", "addr:postcode": "73116", "addr:state": "OK", "addr:street": "North May Avenue", "amenity": "fuel", "brand": "Conoco", "brand:wikidata": "Q109341187", "building": "roof", "name": "Conoco", "phone": "+1 405 848 3844", "roof:material": "metal", "roof:shape": "flat", "website": "https://www.conoco.com/station/CON-ROADIES-CONOCO-0000870027/"}}}, {"type": "Feature", "geometry": {"type": "Polygon", "coordinates": [[[-97.5541546, 35.550138], [-97.5541573, 35.5500496], [-97.5540272, 35.5500485], [-97.5540299, 35.5500289], [-97.5540084, 35.5500278], [-97.5540124, 35.5498336], [-97.5540768, 35.5498325], [-97.5540795, 35.5497845], [-97.5541747, 35.5497834], [-97.5541787, 35.5495957], [-97.5544054, 35.549588], [-97.5544027, 35.5495269], [-97.5543652, 35.549528], [-97.5543678, 35.5494964], [-97.5542458, 35.5494964], [-97.5542471, 35.5493327], [-97.5542927, 35.5493327], [-97.5542981, 35.549228], [-97.5541667, 35.5492302], [-97.554164, 35.549456], [-97.5541251, 35.5494571], [-97.5541345, 35.5497474], [-97.5540822, 35.5497463], [-97.5540835, 35.549695], [-97.5539132, 35.5496939], [-97.5539092, 35.5498303], [-97.5539709, 35.5498325], [-97.5539695, 35.5499754], [-97.553873, 35.5499754], [-97.5538716, 35.5500125], [-97.5537657, 35.5500125], [-97.5537622, 35.5499828], [-97.553644, 35.5499823], [-97.553641, 35.5501205], [-97.5537402, 35.5501194], [-97.5537402, 35.5501456], [-97.5537845, 35.5501423], [-97.5537885, 35.5501642], [-97.5538368, 35.5501685], [-97.5538341, 35.5501773], [-97.5539172, 35.5501773], [-97.5539132, 35.550126], [-97.5539923, 35.550126], [-97.5539923, 35.5501369], [-97.5541546, 35.550138]]]}, "properties": {"osm_id": 491443166, "building": "house", "name": "", "height": null, "height_m": null, "levels": null, "tract_id": "40109106402", "tract_name": "1064.02", "tags": {"building": "house"}}}, {"type": "Feature", "geometry": {"type": "Polygon", "coordinates": [[[-97.557372, 35.540585], [-97.5573236, 35.5405817], [-97.557322, 35.5405965], [-97.5572335, 35.5405905], [-97.5572375, 35.5405517], [-97.5571633, 35.5405466], [-97.5571685, 35.5404969], [-97.5571593, 35.5404963], [-97.5571717, 35.5403772], [-97.5571965, 35.5403789], [-97.5572027, 35.5403191], [-97.5572275, 35.5403208], [-97.557234, 35.5402584], [-97.5574048, 35.5402702], [-97.557372, 35.540585]]]}, "properties": {"osm_id": 987912458, "building": "house", "name": "", "height": null, "height_m": null, "levels": null, "tract_id": "40109106402", "tract_name": "1064.02", "tags": {"building": "house"}}}, {"type": "Feature", "geometry": {"type": "Polygon", "coordinates": [[[-97.5578589, 35.5402678], [-97.5577675, 35.5402474], [-97.5577558, 35.5402749], [-97.5575898, 35.5402422], [-97.5575653, 35.5402981], [-97.5575892, 35.5403062], [-97.5575531, 35.5403882], [-97.5575752, 35.540391], [-97.5575717, 35.5404043], [-97.557644, 35.5404213], [-97.5576527, 35.5404014], [-97.5576678, 35.5404042], [-97.5576546, 35.5404349], [-97.5577246, 35.5404506], [-97.5577324, 35.5404283], [-97.557752, 35.5404349], [-97.5577748, 35.5403877], [-97.5578082, 35.5403973], [-97.5578273, 35.5403513], [-97.5578048, 35.540345], [-97.5578151, 35.540317], [-97.5578382, 35.5403244], [-97.5578589, 35.5402678]]]}, "properties": {"osm_id": 987912459, "building": "yes", "name": "", "height": null, "height_m": null, "levels": null, "tract_id": "40109106402", "tract_name": "1064.02", "tags": {"building": "yes"}}}, {"type": "Feature", "geometry": {"type": "Polygon", "coordinates": [[[-97.5577165, 35.5398277], [-97.5574427, 35.5398044], [-97.5574363, 35.5398656], [-97.5574276, 35.5398656], [-97.5574218, 35.5399173], [-97.5574981, 35.539922], [-97.5574993, 35.5398997], [-97.5576193, 35.5399106], [-97.557621, 35.5399248], [-97.5577008, 35.5399282], [-97.5577165, 35.5398277]]]}, "properties": {"osm_id": 987912460, "building": "yes", "name": "", "height": null, "height_m": null, "levels": null, "tract_id": "40109106402", "tract_name": "1064.02", "tags": {"building": "yes"}}}, {"type": "Feature", "geometry": {"type": "Polygon", "coordinates": [[[-97.5572208, 35.5396496], [-97.5571718, 35.5396486], [-97.55717, 35.5397022], [-97.5571467, 35.5397017], [-97.5571408, 35.5398834], [-97.557157, 35.5398838], [-97.5571548, 35.5399508], [-97.5572736, 35.5399534], [-97.5572751, 35.5399077], [-97.5573965, 35.5399103], [-97.5574001, 35.5397986], [-97.5573385, 35.5397973], [-97.5573388, 35.5397875], [-97.5572912, 35.5397864], [-97.5572937, 35.5397083], [-97.5572189, 35.5397067], [-97.5572208, 35.5396496]]]}, "properties": {"osm_id": 987912461, "building": "yes", "name": "", "height": null, "height_m": null, "levels": null, "tract_id": "40109106402", "tract_name": "1064.02", "tags": {"building": "yes"}}}, {"type": "Feature", "geometry": {"type": "Polygon", "coordinates": [[[-97.5568262, 35.539631], [-97.5564849, 35.5396192], [-97.5564802, 35.5396974], [-97.5565519, 35.5397035], [-97.5565472, 35.5398652], [-97.5567575, 35.539868], [-97.5567546, 35.5397699], [-97.5567872, 35.5397699], [-97.5567942, 35.5397249], [-97.5568251, 35.5397239], [-97.5568262, 35.539631]]]}, "properties": {"osm_id": 987912462, "building": "yes", "name": "", "height": null, "height_m": null, "levels": null, "tract_id": "40109106402", "tract_name": "1064.02", "tags": {"building": "yes"}}}, {"type": "Feature", "geometry": {"type": "Polygon", "coordinates": [[[-97.5567987, 35.5399065], [-97.5565737, 35.5398985], [-97.5565714, 35.5399406], [-97.5566234, 35.5399424], [-97.5566182, 35.5400381], [-97.556548, 35.5400356], [-97.5565468, 35.5400579], [-97.5565183, 35.5400569], [-97.5565148, 35.5401233], [-97.5566427, 35.5401278], [-97.5566432, 35.5401193], [-97.556787, 35.5401244], [-97.5567987, 35.5399065]]]}, "properties": {"osm_id": 987912463, "building": "yes", "name": "", "height": null, "height_m": null, "levels": null, "tract_id": "40109106402", "tract_name": "1064.02", "tags": {"building": "yes"}}}, {"type": "Feature", "geometry": {"type": "Polygon", "coordinates": [[[-97.556523, 35.5407553], [-97.5564056, 35.5407526], [-97.5564186, 35.5406544], [-97.5562936, 35.5406473], [-97.5562882, 35.5407252], [-97.5561914, 35.540719], [-97.5561936, 35.5405969], [-97.5563046, 35.5406069], [-97.5563046, 35.5406161], [-97.5563585, 35.5406169], [-97.5563585, 35.5405703], [-97.5563964, 35.5405688], [-97.5563789, 35.540526], [-97.556411, 35.5404833], [-97.5563544, 35.5404588], [-97.5563774, 35.5404071], [-97.5564525, 35.5404394], [-97.5564922, 35.5404035], [-97.5565063, 35.540285], [-97.5564754, 35.5402605], [-97.5565452, 35.5401916], [-97.5565575, 35.5402052], [-97.5565805, 35.5401908], [-97.5566529, 35.5402605], [-97.5566476, 35.5403159], [-97.5566688, 35.5403187], [-97.5566414, 35.5404976], [-97.5565743, 35.5405702], [-97.5565505, 35.5406054], [-97.5565063, 35.5406111], [-97.5565037, 35.540688], [-97.5565178, 35.5406966], [-97.556523, 35.5407553]]]}, "properties": {"osm_id": 987912464, "building": "yes", "name": "", "height": null, "height_m": null, "levels": null, "tract_id": "40109106402", "tract_name": "1064.02", "tags": {"building": "yes"}}}, {"type": "Feature", "geometry": {"type": "Polygon", "coordinates": [[[-97.5653273, 35.5504432], [-97.5653275, 35.550519], [-97.5653276, 35.5505949], [-97.5650948, 35.5505951], [-97.5650947, 35.5505193], [-97.5650945, 35.5504435], [-97.5653273, 35.5504432]]]}, "properties": {"osm_id": 1090646746, "building": "commercial", "name": "", "height": null, "height_m": null, "levels": null, "tract_id": "40109106402", "tract_name": "1064.02", "tags": {"building": "commercial"}}}, {"type": "Feature", "geometry": {"type": "Polygon", "coordinates": [[[-97.553518, 35.5490847], [-97.553518, 35.5491203], [-97.5536382, 35.5491203], [-97.5536382, 35.5491048], [-97.5536688, 35.5491049], [-97.5536689, 35.54909], [-97.5537662, 35.5490901], [-97.5537662, 35.5491679], [-97.553724, 35.5491679], [-97.5537238, 35.5493792], [-97.5536238, 35.5493791], [-97.5536239, 35.5493293], [-97.5535375, 35.5493292], [-97.5535376, 35.5492606], [-97.5534397, 35.5492605], [-97.5534396, 35.5492962], [-97.5533739, 35.5492962], [-97.5533739, 35.5492295], [-97.5532871, 35.5492294], [-97.5532872, 35.5490819], [-97.5533467, 35.5490819], [-97.5533467, 35.5491189], [-97.5534346, 35.549119], [-97.5534346, 35.5490847], [-97.553518, 35.5490847]]]}, "properties": {"osm_id": 1149046718, "building": "house", "name": "", "height": null, "height_m": null, "levels": null, "tract_id": "40109106402", "tract_name": "1064.02", "tags": {"addr:housenumber": "2311", "addr:state": "OK", "addr:street": "Northwest Grand Boulevard", "building": "house"}}}, {"type": "Feature", "geometry": {"type": "Polygon", "coordinates": [[[-97.5649164, 35.5420226], [-97.5649137, 35.5419318], [-97.5652901, 35.5419261], [-97.5652901, 35.5420159], [-97.5649164, 35.5420226]]]}, "properties": {"osm_id": 1209953004, "building": "yes", "name": "", "height": null, "height_m": null, "levels": null, "tract_id": "40109106402", "tract_name": "1064.02", "tags": {"addr:city": "Oklahoma City", "addr:postcode": "73116", "addr:state": "OK", "addr:street": "North May Avenue", "amenity": "car_wash", "building": "yes"}}}, {"type": "Feature", "geometry": {"type": "Polygon", "coordinates": [[[-97.5649978, 35.5509476], [-97.5649973, 35.5506884], [-97.5650549, 35.5506883], [-97.5651743, 35.5507876], [-97.5651732, 35.5508298], [-97.5651891, 35.5508301], [-97.5651931, 35.5506776], [-97.5653057, 35.5506796], [-97.565303, 35.5507789], [-97.5653459, 35.550816], [-97.5653462, 35.5509471], [-97.5649978, 35.5509476]]]}, "properties": {"osm_id": 1213684545, "building": "commercial", "name": "Mitchener Farrand", "height": null, "height_m": null, "levels": null, "tract_id": "40109106402", "tract_name": "1064.02", "tags": {"addr:city": "Oklahoma City", "addr:postcode": "73120", "addr:state": "OK", "building": "commercial", "name": "Mitchener Farrand", "shop": "jewelry"}}}, {"type": "Feature", "geometry": {"type": "Polygon", "coordinates": [[[-97.5645086, 35.5504713], [-97.5645076, 35.550383], [-97.5645994, 35.5503822], [-97.5646005, 35.5504706], [-97.5645086, 35.5504713]]]}, "properties": {"osm_id": 1213742608, "building": "garage", "name": "", "height": null, "height_m": null, "levels": null, "tract_id": "40109106402", "tract_name": "1064.02", "tags": {"building": "garage"}}}, {"type": "Feature", "geometry": {"type": "Polygon", "coordinates": [[[-97.5652916, 35.5437603], [-97.5651004, 35.5437623], [-97.565099, 35.5436661], [-97.5650971, 35.5435497], [-97.5650957, 35.5434526], [-97.5652868, 35.5434513], [-97.5652871, 35.5434671], [-97.5652883, 35.5435477], [-97.5652901, 35.5436641], [-97.5652913, 35.5437459], [-97.5652916, 35.5437603]]]}, "properties": {"osm_id": 1215492616, "building": "retail", "name": "", "height": null, "height_m": null, "levels": null, "tract_id": "40109106402", "tract_name": "1064.02", "tags": {"building": "retail"}}}, {"type": "Feature", "geometry": {"type": "Polygon", "coordinates": [[[-97.5645012, 35.5463976], [-97.564343, 35.5463959], [-97.5643409, 35.5465268], [-97.5644991, 35.5465285], [-97.5645012, 35.5463976]]]}, "properties": {"osm_id": 1226340244, "building": "yes", "name": "", "height": null, "height_m": null, "levels": null, "tract_id": "40109106402", "tract_name": "1064.02", "tags": {"building": "yes", "source": "microsoft/BuildingFootprints"}}}, {"type": "Feature", "geometry": {"type": "Polygon", "coordinates": [[[-97.5641012, 35.546323], [-97.5640316, 35.5463247], [-97.5640344, 35.5464032], [-97.563938, 35.5464055], [-97.5639423, 35.5465233], [-97.5641084, 35.5465193], [-97.5641012, 35.546323]]]}, "properties": {"osm_id": 1226340245, "building": "yes", "name": "", "height": null, "height_m": null, "levels": null, "tract_id": "40109106402", "tract_name": "1064.02", "tags": {"building": "yes", "source": "microsoft/BuildingFootprints"}}}, {"type": "Feature", "geometry": {"type": "Polygon", "coordinates": [[[-97.5650399, 35.5444227], [-97.5649112, 35.5444241], [-97.5649121, 35.5444787], [-97.5648665, 35.5444792], [-97.5648673, 35.5445272], [-97.5650416, 35.5445252], [-97.5650399, 35.5444227]]]}, "properties": {"osm_id": 1226340246, "building": "yes", "name": "", "height": null, "height_m": null, "levels": null, "tract_id": "40109106402", "tract_name": "1064.02", "tags": {"building": "yes", "source": "microsoft/BuildingFootprints"}}}, {"type": "Feature", "geometry": {"type": "Polygon", "coordinates": [[[-97.5648371, 35.5444324], [-97.5646854, 35.5444335], [-97.5646864, 35.544523], [-97.5647978, 35.5445222], [-97.5647981, 35.5445539], [-97.5648384, 35.5445536], [-97.5648371, 35.5444324]]]}, "properties": {"osm_id": 1226340247, "building": "yes", "name": "", "height": null, "height_m": null, "levels": null, "tract_id": "40109106402", "tract_name": "1064.02", "tags": {"building": "yes", "source": "microsoft/BuildingFootprints"}}}, {"type": "Feature", "geometry": {"type": "Polygon", "coordinates": [[[-97.5644385, 35.5445561], [-97.5644351, 35.544447], [-97.5642555, 35.5444507], [-97.5642589, 35.5445598], [-97.5643607, 35.5445577], [-97.5643624, 35.5446122], [-97.5644148, 35.5446111], [-97.5644131, 35.5445566], [-97.5644385, 35.5445561]]]}, "properties": {"osm_id": 1226340248, "building": "yes", "name": "", "height": null, "height_m": null, "levels": null, "tract_id": "40109106402", "tract_name": "1064.02", "tags": {"building": "yes", "source": "microsoft/BuildingFootprints"}}}, {"type": "Feature", "geometry": {"type": "Polygon", "coordinates": [[[-97.5646909, 35.5439687], [-97.5646954, 35.5440963], [-97.5648267, 35.5440932], [-97.5648222, 35.5439656], [-97.5646909, 35.5439687]]]}, "properties": {"osm_id": 1226340249, "building": "yes", "name": "", "height": null, "height_m": null, "levels": null, "tract_id": "40109106402", "tract_name": "1064.02", "tags": {"building": "yes", "source": "microsoft/BuildingFootprints"}}}, {"type": "Feature", "geometry": {"type": "Polygon", "coordinates": [[[-97.5646581, 35.543978], [-97.5645401, 35.5439803], [-97.5645406, 35.5439977], [-97.5644763, 35.543999], [-97.5644785, 35.544071], [-97.5645669, 35.5440692], [-97.5645686, 35.5441238], [-97.5646624, 35.5441219], [-97.5646581, 35.543978]]]}, "properties": {"osm_id": 1226340250, "building": "yes", "name": "", "height": null, "height_m": null, "levels": null, "tract_id": "40109106402", "tract_name": "1064.02", "tags": {"building": "yes", "source": "microsoft/BuildingFootprints"}}}, {"type": "Feature", "geometry": {"type": "Polygon", "coordinates": [[[-97.5639612, 35.5439644], [-97.5639623, 35.5440364], [-97.5640749, 35.5440353], [-97.5640759, 35.5441018], [-97.5641832, 35.5441007], [-97.5641806, 35.5439316], [-97.5641228, 35.5439322], [-97.5641233, 35.5439628], [-97.5639612, 35.5439644]]]}, "properties": {"osm_id": 1226340251, "building": "yes", "name": "", "height": null, "height_m": null, "levels": null, "tract_id": "40109106402", "tract_name": "1064.02", "tags": {"building": "yes", "source": "microsoft/BuildingFootprints"}}}, {"type": "Feature", "geometry": {"type": "Polygon", "coordinates": [[[-97.5638911, 35.5441017], [-97.56389, 35.5440581], [-97.5639275, 35.5440575], [-97.563926, 35.5439986], [-97.5637464, 35.5440016], [-97.563749, 35.5441041], [-97.5638911, 35.5441017]]]}, "properties": {"osm_id": 1226340252, "building": "yes", "name": "", "height": null, "height_m": null, "levels": null, "tract_id": "40109106402", "tract_name": "1064.02", "tags": {"building": "yes", "source": "microsoft/BuildingFootprints"}}}, {"type": "Feature", "geometry": {"type": "Polygon", "coordinates": [[[-97.563724, 35.5441099], [-97.5637219, 35.5440237], [-97.5636483, 35.5440249], [-97.5636487, 35.5440424], [-97.5635534, 35.544044], [-97.5635551, 35.5441127], [-97.563724, 35.5441099]]]}, "properties": {"osm_id": 1226340253, "building": "yes", "name": "", "height": null, "height_m": null, "levels": null, "tract_id": "40109106402", "tract_name": "1064.02", "tags": {"building": "yes", "source": "microsoft/BuildingFootprints"}}}, {"type": "Feature", "geometry": {"type": "Polygon", "coordinates": [[[-97.5629361, 35.5440013], [-97.5629381, 35.5441159], [-97.5631124, 35.5441139], [-97.5631105, 35.5439993], [-97.5629361, 35.5440013]]]}, "properties": {"osm_id": 1226340254, "building": "yes", "name": "", "height": null, "height_m": null, "levels": null, "tract_id": "40109106402", "tract_name": "1064.02", "tags": {"building": "yes", "source": "microsoft/BuildingFootprints"}}}, {"type": "Feature", "geometry": {"type": "Polygon", "coordinates": [[[-97.5629696, 35.5444673], [-97.5629727, 35.5445534], [-97.5630544, 35.5445514], [-97.5630552, 35.5445732], [-97.5632335, 35.5445689], [-97.5632295, 35.544461], [-97.5629696, 35.5444673]]]}, "properties": {"osm_id": 1226340255, "building": "yes", "name": "", "height": null, "height_m": null, "levels": null, "tract_id": "40109106402", "tract_name": "1064.02", "tags": {"building": "yes", "source": "microsoft/BuildingFootprints"}}}, {"type": "Feature", "geometry": {"type": "Polygon", "coordinates": [[[-97.5625414, 35.5444842], [-97.5625441, 35.5445846], [-97.5626031, 35.5445835], [-97.562605, 35.5446521], [-97.5626613, 35.5446511], [-97.5626591, 35.5445716], [-97.5627261, 35.5445704], [-97.5627237, 35.544481], [-97.5625414, 35.5444842]]]}, "properties": {"osm_id": 1226340256, "building": "yes", "name": "", "height": null, "height_m": null, "levels": null, "tract_id": "40109106402", "tract_name": "1064.02", "tags": {"building": "yes", "source": "microsoft/BuildingFootprints"}}}, {"type": "Feature", "geometry": {"type": "Polygon", "coordinates": [[[-97.5624959, 35.5440451], [-97.5623752, 35.5440474], [-97.5623775, 35.5441281], [-97.5624579, 35.5441266], [-97.5624584, 35.5441418], [-97.5624986, 35.5441411], [-97.5624959, 35.5440451]]]}, "properties": {"osm_id": 1226340257, "building": "yes", "name": "", "height": null, "height_m": null, "levels": null, "tract_id": "40109106402", "tract_name": "1064.02", "tags": {"building": "yes", "source": "microsoft/BuildingFootprints"}}}, {"type": "Feature", "geometry": {"type": "Polygon", "coordinates": [[[-97.5621251, 35.5441311], [-97.5622043, 35.5441295], [-97.562205, 35.5441491], [-97.5623134, 35.5441468], [-97.5623104, 35.544054], [-97.5621228, 35.544058], [-97.5621251, 35.5441311]]]}, "properties": {"osm_id": 1226340258, "building": "yes", "name": "", "height": null, "height_m": null, "levels": null, "tract_id": "40109106402", "tract_name": "1064.02", "tags": {"building": "yes", "source": "microsoft/BuildingFootprints"}}}, {"type": "Feature", "geometry": {"type": "Polygon", "coordinates": [[[-97.561713, 35.5441324], [-97.5618884, 35.5441292], [-97.5618862, 35.5440506], [-97.5617108, 35.5440539], [-97.561713, 35.5441324]]]}, "properties": {"osm_id": 1226340259, "building": "yes", "name": "", "height": null, "height_m": null, "levels": null, "tract_id": "40109106402", "tract_name": "1064.02", "tags": {"building": "yes", "source": "microsoft/BuildingFootprints"}}}, {"type": "Feature", "geometry": {"type": "Polygon", "coordinates": [[[-97.5617041, 35.5445666], [-97.5617025, 35.5445021], [-97.5616557, 35.5445029], [-97.5616552, 35.5444811], [-97.5615265, 35.5444831], [-97.5615285, 35.5445694], [-97.5617041, 35.5445666]]]}, "properties": {"osm_id": 1226340260, "building": "yes", "name": "", "height": null, "height_m": null, "levels": null, "tract_id": "40109106402", "tract_name": "1064.02", "tags": {"building": "yes", "source": "microsoft/BuildingFootprints"}}}, {"type": "Feature", "geometry": {"type": "Polygon", "coordinates": [[[-97.5613311, 35.5445866], [-97.5613713, 35.5445857], [-97.5613728, 35.5446315], [-97.5615082, 35.5446285], [-97.5615037, 35.5444912], [-97.561328, 35.544495], [-97.5613311, 35.5445866]]]}, "properties": {"osm_id": 1226340261, "building": "yes", "name": "", "height": null, "height_m": null, "levels": null, "tract_id": "40109106402", "tract_name": "1064.02", "tags": {"building": "yes", "source": "microsoft/BuildingFootprints"}}}, {"type": "Feature", "geometry": {"type": "Polygon", "coordinates": [[[-97.5640735, 35.5410362], [-97.5640742, 35.5410079], [-97.563991, 35.5410067], [-97.5639902, 35.5410437], [-97.563958, 35.5410433], [-97.563956, 35.5411349], [-97.5641625, 35.5411379], [-97.5641647, 35.5410376], [-97.5640735, 35.5410362]]]}, "properties": {"osm_id": 1226340262, "building": "house", "name": "", "height": null, "height_m": null, "levels": null, "tract_id": "40109106402", "tract_name": "1064.02", "tags": {"building": "house", "source": "microsoft/BuildingFootprints"}}}, {"type": "Feature", "geometry": {"type": "Polygon", "coordinates": [[[-97.5610979, 35.5445108], [-97.5609209, 35.5445137], [-97.5609232, 35.5446041], [-97.5609741, 35.5446032], [-97.560975, 35.5446394], [-97.5610474, 35.5446382], [-97.5610464, 35.544599], [-97.5611, 35.5445981], [-97.5610979, 35.5445108]]]}, "properties": {"osm_id": 1226340263, "building": "yes", "name": "", "height": null, "height_m": null, "levels": null, "tract_id": "40109106402", "tract_name": "1064.02", "tags": {"building": "yes", "source": "microsoft/BuildingFootprints"}}}, {"type": "Feature", "geometry": {"type": "Polygon", "coordinates": [[[-97.5607208, 35.5446273], [-97.5609018, 35.5446244], [-97.5608998, 35.5445394], [-97.560814, 35.5445407], [-97.5608133, 35.5445123], [-97.560718, 35.5445139], [-97.5607208, 35.5446273]]]}, "properties": {"osm_id": 1226340264, "building": "yes", "name": "", "height": null, "height_m": null, "levels": null, "tract_id": "40109106402", "tract_name": "1064.02", "tags": {"building": "yes", "source": "microsoft/BuildingFootprints"}}}, {"type": "Feature", "geometry": {"type": "Polygon", "coordinates": [[[-97.5603042, 35.5440794], [-97.5603057, 35.5441833], [-97.5604895, 35.5441815], [-97.5604874, 35.5440332], [-97.5604001, 35.544034], [-97.5604008, 35.5440785], [-97.5603042, 35.5440794]]]}, "properties": {"osm_id": 1226340265, "building": "yes", "name": "", "height": null, "height_m": null, "levels": null, "tract_id": "40109106402", "tract_name": "1064.02", "tags": {"building": "yes", "source": "microsoft/BuildingFootprints"}}}, {"type": "Feature", "geometry": {"type": "Polygon", "coordinates": [[[-97.5600923, 35.5445553], [-97.5600077, 35.5445537], [-97.5600083, 35.5445341], [-97.5599159, 35.5445324], [-97.5599129, 35.5446393], [-97.5600899, 35.5446425], [-97.5600923, 35.5445553]]]}, "properties": {"osm_id": 1226340266, "building": "yes", "name": "", "height": null, "height_m": null, "levels": null, "tract_id": "40109106402", "tract_name": "1064.02", "tags": {"building": "yes", "source": "microsoft/BuildingFootprints"}}}, {"type": "Feature", "geometry": {"type": "Polygon", "coordinates": [[[-97.5596582, 35.5445388], [-97.5596608, 35.5446413], [-97.5598913, 35.5446375], [-97.5598884, 35.5445184], [-97.5598026, 35.5445198], [-97.559803, 35.5445364], [-97.5596582, 35.5445388]]]}, "properties": {"osm_id": 1226340267, "building": "yes", "name": "", "height": null, "height_m": null, "levels": null, "tract_id": "40109106402", "tract_name": "1064.02", "tags": {"building": "yes", "source": "microsoft/BuildingFootprints"}}}, {"type": "Feature", "geometry": {"type": "Polygon", "coordinates": [[[-97.5587859, 35.5445419], [-97.5588684, 35.5445668], [-97.5588745, 35.5445534], [-97.5590348, 35.5446018], [-97.5590803, 35.5445021], [-97.5588375, 35.5444287], [-97.5587859, 35.5445419]]]}, "properties": {"osm_id": 1226340268, "building": "yes", "name": "", "height": null, "height_m": null, "levels": null, "tract_id": "40109106402", "tract_name": "1064.02", "tags": {"building": "yes", "source": "microsoft/BuildingFootprints"}}}, {"type": "Feature", "geometry": {"type": "Polygon", "coordinates": [[[-97.5584254, 35.5457322], [-97.5582494, 35.5457021], [-97.5582591, 35.5456645], [-97.5581924, 35.5456531], [-97.5581486, 35.5458224], [-97.5583914, 35.5458639], [-97.5584254, 35.5457322]]]}, "properties": {"osm_id": 1226340269, "building": "yes", "name": "", "height": null, "height_m": null, "levels": null, "tract_id": "40109106402", "tract_name": "1064.02", "tags": {"building": "yes", "source": "microsoft/BuildingFootprints"}}}, {"type": "Feature", "geometry": {"type": "Polygon", "coordinates": [[[-97.5587582, 35.5458009], [-97.5584654, 35.5457562], [-97.558443, 35.5458531], [-97.5587358, 35.5458979], [-97.5587582, 35.5458009]]]}, "properties": {"osm_id": 1226340270, "building": "yes", "name": "", "height": null, "height_m": null, "levels": null, "tract_id": "40109106402", "tract_name": "1064.02", "tags": {"building": "yes", "source": "microsoft/BuildingFootprints"}}}, {"type": "Feature", "geometry": {"type": "Polygon", "coordinates": [[[-97.5606555, 35.5464252], [-97.5606336, 35.5465417], [-97.5608419, 35.5465676], [-97.5608638, 35.5464512], [-97.5606555, 35.5464252]]]}, "properties": {"osm_id": 1226340271, "building": "yes", "name": "", "height": null, "height_m": null, "levels": null, "tract_id": "40109106402", "tract_name": "1064.02", "tags": {"building": "yes", "source": "microsoft/BuildingFootprints"}}}, {"type": "Feature", "geometry": {"type": "Polygon", "coordinates": [[[-97.561096, 35.5464404], [-97.5609055, 35.5464393], [-97.5609046, 35.5465528], [-97.5610306, 35.5465535], [-97.5610304, 35.5465819], [-97.5610947, 35.5465822], [-97.561096, 35.5464404]]]}, "properties": {"osm_id": 1226340272, "building": "yes", "name": "", "height": null, "height_m": null, "levels": null, "tract_id": "40109106402", "tract_name": "1064.02", "tags": {"building": "yes", "source": "microsoft/BuildingFootprints"}}}, {"type": "Feature", "geometry": {"type": "Polygon", "coordinates": [[[-97.5621526, 35.5464252], [-97.5619903, 35.5464224], [-97.5619865, 35.5465698], [-97.562071, 35.5465712], [-97.5620726, 35.5465101], [-97.5621503, 35.5465115], [-97.5621526, 35.5464252]]]}, "properties": {"osm_id": 1226340273, "building": "yes", "name": "", "height": null, "height_m": null, "levels": null, "tract_id": "40109106402", "tract_name": "1064.02", "tags": {"building": "yes", "source": "microsoft/BuildingFootprints"}}}, {"type": "Feature", "geometry": {"type": "Polygon", "coordinates": [[[-97.5625585, 35.5464303], [-97.5624016, 35.5464318], [-97.5624035, 35.5465661], [-97.5625604, 35.5465646], [-97.5625585, 35.5464303]]]}, "properties": {"osm_id": 1226340274, "building": "yes", "name": "", "height": null, "height_m": null, "levels": null, "tract_id": "40109106402", "tract_name": "1064.02", "tags": {"building": "yes", "source": "microsoft/BuildingFootprints"}}}, {"type": "Feature", "geometry": {"type": "Polygon", "coordinates": [[[-97.562881, 35.546945], [-97.562881, 35.546971], [-97.562812, 35.54697], [-97.56281, 35.547066], [-97.562972, 35.547069], [-97.562975, 35.546947], [-97.562881, 35.546945]]]}, "properties": {"osm_id": 1226340275, "building": "yes", "name": "", "height": null, "height_m": null, "levels": null, "tract_id": "40109106402", "tract_name": "1064.02", "tags": {"building": "yes", "source": "microsoft/BuildingFootprints"}}}, {"type": "Feature", "geometry": {"type": "Polygon", "coordinates": [[[-97.563011, 35.546972], [-97.563009, 35.54706], [-97.563074, 35.54706], [-97.563073, 35.547082], [-97.563178, 35.547083], [-97.56318, 35.546974], [-97.563011, 35.546972]]]}, "properties": {"osm_id": 1226340276, "building": "yes", "name": "", "height": null, "height_m": null, "levels": null, "tract_id": "40109106402", "tract_name": "1064.02", "tags": {"building": "yes", "source": "microsoft/BuildingFootprints"}}}, {"type": "Feature", "geometry": {"type": "Polygon", "coordinates": [[[-97.5614967, 35.5480084], [-97.5615691, 35.5480063], [-97.5615684, 35.5479901], [-97.5617199, 35.5479858], [-97.5617132, 35.5478289], [-97.5615525, 35.5478334], [-97.5615547, 35.5478857], [-97.5614916, 35.5478875], [-97.5614967, 35.5480084]]]}, "properties": {"osm_id": 1226340277, "building": "yes", "name": "", "height": null, "height_m": null, "levels": null, "tract_id": "40109106402", "tract_name": "1064.02", "tags": {"building": "yes", "source": "microsoft/BuildingFootprints"}}}, {"type": "Feature", "geometry": {"type": "Polygon", "coordinates": [[[-97.5597799, 35.5473076], [-97.5594934, 35.5472981], [-97.5594881, 35.5474048], [-97.5595309, 35.5474062], [-97.5595272, 35.5474803], [-97.5596626, 35.5474848], [-97.5596615, 35.5475066], [-97.5597698, 35.5475102], [-97.5597799, 35.5473076]]]}, "properties": {"osm_id": 1226340278, "building": "yes", "name": "", "height": null, "height_m": null, "levels": null, "tract_id": "40109106402", "tract_name": "1064.02", "tags": {"building": "yes", "source": "microsoft/BuildingFootprints"}}}, {"type": "Feature", "geometry": {"type": "Polygon", "coordinates": [[[-97.5594403, 35.5473761], [-97.5594463, 35.5472768], [-97.5592296, 35.5472681], [-97.5592288, 35.5472804], [-97.5591619, 35.5472777], [-97.5591519, 35.5474431], [-97.5593659, 35.5474517], [-97.5593707, 35.5473733], [-97.5594403, 35.5473761]]]}, "properties": {"osm_id": 1226340279, "building": "yes", "name": "", "height": null, "height_m": null, "levels": null, "tract_id": "40109106402", "tract_name": "1064.02", "tags": {"building": "yes", "source": "microsoft/BuildingFootprints"}}}, {"type": "Feature", "geometry": {"type": "Polygon", "coordinates": [[[-97.5593663, 35.5479083], [-97.5593653, 35.5480676], [-97.5594469, 35.548068], [-97.5594471, 35.5480404], [-97.5596429, 35.5480413], [-97.5596435, 35.5479444], [-97.5594439, 35.5479436], [-97.5594441, 35.5479087], [-97.5593663, 35.5479083]]]}, "properties": {"osm_id": 1226340280, "building": "yes", "name": "", "height": null, "height_m": null, "levels": null, "tract_id": "40109106402", "tract_name": "1064.02", "tags": {"building": "yes", "source": "microsoft/BuildingFootprints"}}}, {"type": "Feature", "geometry": {"type": "Polygon", "coordinates": [[[-97.5589272, 35.5480567], [-97.5589296, 35.5479454], [-97.5588357, 35.5479441], [-97.5588363, 35.5479158], [-97.5587157, 35.5479141], [-97.5587164, 35.5478813], [-97.5585995, 35.5478797], [-97.5585952, 35.5480812], [-97.5586998, 35.5480827], [-97.5587004, 35.5480535], [-97.5589272, 35.5480567]]]}, "properties": {"osm_id": 1226340281, "building": "yes", "name": "", "height": null, "height_m": null, "levels": null, "tract_id": "40109106402", "tract_name": "1064.02", "tags": {"building": "yes", "source": "microsoft/BuildingFootprints"}}}, {"type": "Feature", "geometry": {"type": "Polygon", "coordinates": [[[-97.5573371, 35.5465048], [-97.5573058, 35.5465805], [-97.5572625, 35.5465686], [-97.5572162, 35.5466803], [-97.5574523, 35.546745], [-97.5574629, 35.5467195], [-97.5575159, 35.546734], [-97.5575602, 35.546627], [-97.5574023, 35.5465837], [-97.557425, 35.5465288], [-97.5573371, 35.5465048]]]}, "properties": {"osm_id": 1226340282, "building": "yes", "name": "", "height": null, "height_m": null, "levels": null, "tract_id": "40109106402", "tract_name": "1064.02", "tags": {"building": "yes", "source": "microsoft/BuildingFootprints"}}}, {"type": "Feature", "geometry": {"type": "Polygon", "coordinates": [[[-97.556937, 35.5459327], [-97.5569004, 35.5460587], [-97.5570197, 35.5460817], [-97.5570125, 35.5461065], [-97.5571624, 35.5461354], [-97.5571816, 35.5460692], [-97.557254, 35.5460832], [-97.5572787, 35.5459984], [-97.556937, 35.5459327]]]}, "properties": {"osm_id": 1226340283, "building": "yes", "name": "", "height": null, "height_m": null, "levels": null, "tract_id": "40109106402", "tract_name": "1064.02", "tags": {"building": "yes", "source": "microsoft/BuildingFootprints"}}}, {"type": "Feature", "geometry": {"type": "Polygon", "coordinates": [[[-97.5568771, 35.5462766], [-97.5567651, 35.546236], [-97.5567084, 35.5463399], [-97.556527, 35.5462743], [-97.5564672, 35.5463836], [-97.5567606, 35.5464897], [-97.5568771, 35.5462766]]]}, "properties": {"osm_id": 1226340284, "building": "yes", "name": "", "height": null, "height_m": null, "levels": null, "tract_id": "40109106402", "tract_name": "1064.02", "tags": {"building": "yes", "source": "microsoft/BuildingFootprints"}}}, {"type": "Feature", "geometry": {"type": "Polygon", "coordinates": [[[-97.5548822, 35.5456153], [-97.5546425, 35.545662], [-97.5546616, 35.5457269], [-97.5546971, 35.54572], [-97.5547666, 35.5459564], [-97.5549645, 35.5459179], [-97.5549496, 35.5458672], [-97.554975, 35.5458623], [-97.554944, 35.545757], [-97.5550531, 35.5457358], [-97.5550294, 35.5456553], [-97.5549013, 35.5456802], [-97.5548822, 35.5456153]]]}, "properties": {"osm_id": 1226340285, "building": "yes", "name": "", "height": null, "height_m": null, "levels": null, "tract_id": "40109106402", "tract_name": "1064.02", "tags": {"building": "yes", "source": "microsoft/BuildingFootprints"}}}, {"type": "Feature", "geometry": {"type": "Polygon", "coordinates": [[[-97.5554453, 35.5464481], [-97.5553785, 35.5467096], [-97.5554839, 35.5467274], [-97.555509, 35.5466291], [-97.5556839, 35.5466587], [-97.5557298, 35.5464788], [-97.5556333, 35.5464624], [-97.5556291, 35.5464792], [-97.5554453, 35.5464481]]]}, "properties": {"osm_id": 1226340286, "building": "yes", "name": "", "height": null, "height_m": null, "levels": null, "tract_id": "40109106402", "tract_name": "1064.02", "tags": {"building": "yes", "source": "microsoft/BuildingFootprints"}}}, {"type": "Feature", "geometry": {"type": "Polygon", "coordinates": [[[-97.5555448, 35.5478347], [-97.5556911, 35.5478541], [-97.5557125, 35.5477468], [-97.5556707, 35.5477413], [-97.5556771, 35.5477094], [-97.5558249, 35.547729], [-97.5558406, 35.5476503], [-97.5554994, 35.5476052], [-97.5554858, 35.5476732], [-97.5555224, 35.5476781], [-97.5555159, 35.5477109], [-97.5555681, 35.5477178], [-97.5555448, 35.5478347]]]}, "properties": {"osm_id": 1226340287, "building": "yes", "name": "", "height": null, "height_m": null, "levels": null, "tract_id": "40109106402", "tract_name": "1064.02", "tags": {"building": "yes", "source": "microsoft/BuildingFootprints"}}}, {"type": "Feature", "geometry": {"type": "Polygon", "coordinates": [[[-97.5641633, 35.5383794], [-97.5640179, 35.5384869], [-97.5641027, 35.5385628], [-97.5641724, 35.5385113], [-97.564159, 35.5384993], [-97.5642348, 35.5384433], [-97.5641633, 35.5383794]]]}, "properties": {"osm_id": 1226340289, "building": "yes", "name": "", "height": null, "height_m": null, "levels": null, "tract_id": "40109106402", "tract_name": "1064.02", "tags": {"building": "yes", "source": "microsoft/BuildingFootprints"}}}, {"type": "Feature", "geometry": {"type": "Polygon", "coordinates": [[[-97.5627324, 35.5383755], [-97.5625748, 35.5383943], [-97.5625936, 35.538499], [-97.562675, 35.5384893], [-97.5626723, 35.5384743], [-97.5627485, 35.5384653], [-97.5627324, 35.5383755]]]}, "properties": {"osm_id": 1226340290, "building": "yes", "name": "", "height": null, "height_m": null, "levels": null, "tract_id": "40109106402", "tract_name": "1064.02", "tags": {"building": "yes", "source": "microsoft/BuildingFootprints"}}}, {"type": "Feature", "geometry": {"type": "Polygon", "coordinates": [[[-97.5625691, 35.5385192], [-97.5625468, 35.5384154], [-97.5623984, 35.5384365], [-97.5624207, 35.5385403], [-97.5625691, 35.5385192]]]}, "properties": {"osm_id": 1226340291, "building": "yes", "name": "", "height": null, "height_m": null, "levels": null, "tract_id": "40109106402", "tract_name": "1064.02", "tags": {"building": "yes", "source": "microsoft/BuildingFootprints"}}}, {"type": "Feature", "geometry": {"type": "Polygon", "coordinates": [[[-97.5623608, 35.5384577], [-97.5621921, 35.5384854], [-97.5622296, 35.5386364], [-97.5623662, 35.538614], [-97.5623532, 35.5385616], [-97.5623852, 35.5385563], [-97.5623608, 35.5384577]]]}, "properties": {"osm_id": 1226340292, "building": "yes", "name": "", "height": null, "height_m": null, "levels": null, "tract_id": "40109106402", "tract_name": "1064.02", "tags": {"building": "yes", "source": "microsoft/BuildingFootprints"}}}, {"type": "Feature", "geometry": {"type": "Polygon", "coordinates": [[[-97.5610709, 35.5396947], [-97.5611796, 35.5396988], [-97.5611863, 35.5395821], [-97.5610123, 35.5395755], [-97.5610074, 35.5396605], [-97.5610728, 35.5396629], [-97.5610709, 35.5396947]]]}, "properties": {"osm_id": 1226340293, "building": "yes", "name": "", "height": null, "height_m": null, "levels": null, "tract_id": "40109106402", "tract_name": "1064.02", "tags": {"building": "yes", "source": "microsoft/BuildingFootprints"}}}, {"type": "Feature", "geometry": {"type": "Polygon", "coordinates": [[[-97.5639682, 35.5408034], [-97.5641495, 35.5408076], [-97.5641515, 35.5407488], [-97.5640899, 35.5407473], [-97.5640924, 35.5406753], [-97.5639728, 35.5406725], [-97.5639682, 35.5408034]]]}, "properties": {"osm_id": 1258188600, "building": "house", "name": "", "height": null, "height_m": null, "levels": null, "tract_id": "40109106402", "tract_name": "1064.02", "tags": {"building": "house", "source": "microsoft/BuildingFootprints"}}}, {"type": "Feature", "geometry": {"type": "Polygon", "coordinates": [[[-97.5639524, 35.5409717], [-97.5640838, 35.5409731], [-97.5640854, 35.5408749], [-97.563954, 35.5408735], [-97.5639524, 35.5409717]]]}, "properties": {"osm_id": 1258188601, "building": "house", "name": "", "height": null, "height_m": null, "levels": null, "tract_id": "40109106402", "tract_name": "1064.02", "tags": {"building": "house", "source": "microsoft/BuildingFootprints"}}}, {"type": "Feature", "geometry": {"type": "Polygon", "coordinates": [[[-97.5640867, 35.541175], [-97.5639634, 35.5411728], [-97.5639599, 35.5413015], [-97.5640832, 35.5413037], [-97.5640867, 35.541175]]]}, "properties": {"osm_id": 1258188602, "building": "house", "name": "", "height": null, "height_m": null, "levels": null, "tract_id": "40109106402", "tract_name": "1064.02", "tags": {"building": "house", "source": "microsoft/BuildingFootprints"}}}, {"type": "Feature", "geometry": {"type": "Polygon", "coordinates": [[[-97.5641619, 35.5413401], [-97.5640655, 35.5413439], [-97.5640706, 35.5414288], [-97.5640385, 35.5414301], [-97.564041, 35.5414725], [-97.5641694, 35.5414675], [-97.5641619, 35.5413401]]]}, "properties": {"osm_id": 1258188603, "building": "house", "name": "", "height": null, "height_m": null, "levels": null, "tract_id": "40109106402", "tract_name": "1064.02", "tags": {"building": "house", "source": "microsoft/BuildingFootprints"}}}, {"type": "Feature", "geometry": {"type": "Polygon", "coordinates": [[[-97.564197, 35.5415473], [-97.5640891, 35.541514], [-97.5640309, 35.541639], [-97.5641387, 35.5416722], [-97.564197, 35.5415473]]]}, "properties": {"osm_id": 1258188604, "building": "house", "name": "", "height": null, "height_m": null, "levels": null, "tract_id": "40109106402", "tract_name": "1064.02", "tags": {"building": "house", "source": "microsoft/BuildingFootprints"}}}, {"type": "Feature", "geometry": {"type": "Polygon", "coordinates": [[[-97.5640716, 35.5417427], [-97.5640036, 35.541681], [-97.5639001, 35.5417566], [-97.563968, 35.5418183], [-97.5640716, 35.5417427]]]}, "properties": {"osm_id": 1258188605, "building": "house", "name": "", "height": null, "height_m": null, "levels": null, "tract_id": "40109106402", "tract_name": "1064.02", "tags": {"building": "house", "source": "microsoft/BuildingFootprints"}}}, {"type": "Feature", "geometry": {"type": "Polygon", "coordinates": [[[-97.5638257, 35.5417348], [-97.5636684, 35.541725], [-97.5636594, 35.5418204], [-97.5638167, 35.5418303], [-97.5638257, 35.5417348]]]}, "properties": {"osm_id": 1258188606, "building": "house", "name": "", "height": null, "height_m": null, "levels": null, "tract_id": "40109106402", "tract_name": "1064.02", "tags": {"building": "house", "source": "microsoft/BuildingFootprints"}}}, {"type": "Feature", "geometry": {"type": "Polygon", "coordinates": [[[-97.5636455, 35.541679], [-97.5635281, 35.5415728], [-97.5634361, 35.54164], [-97.5635535, 35.5417463], [-97.5636455, 35.541679]]]}, "properties": {"osm_id": 1258188607, "building": "house", "name": "", "height": null, "height_m": null, "levels": null, "tract_id": "40109106402", "tract_name": "1064.02", "tags": {"building": "house", "source": "microsoft/BuildingFootprints"}}}, {"type": "Feature", "geometry": {"type": "Polygon", "coordinates": [[[-97.5634287, 35.5415587], [-97.5635682, 35.541557], [-97.5635666, 35.5414729], [-97.563538, 35.5414733], [-97.563537, 35.5414166], [-97.563426, 35.5414179], [-97.5634287, 35.5415587]]]}, "properties": {"osm_id": 1258188608, "building": "house", "name": "", "height": null, "height_m": null, "levels": null, "tract_id": "40109106402", "tract_name": "1064.02", "tags": {"building": "house", "source": "microsoft/BuildingFootprints"}}}, {"type": "Feature", "geometry": {"type": "Polygon", "coordinates": [[[-97.5634985, 35.5413943], [-97.5636343, 35.5413965], [-97.5636364, 35.5413126], [-97.5636079, 35.5413121], [-97.5636094, 35.5412543], [-97.5635021, 35.5412525], [-97.5634985, 35.5413943]]]}, "properties": {"osm_id": 1258188609, "building": "house", "name": "", "height": null, "height_m": null, "levels": null, "tract_id": "40109106402", "tract_name": "1064.02", "tags": {"building": "house", "source": "microsoft/BuildingFootprints"}}}, {"type": "Feature", "geometry": {"type": "Polygon", "coordinates": [[[-97.5636584, 35.540725], [-97.5635753, 35.5407268], [-97.5635759, 35.5407443], [-97.5634848, 35.5407463], [-97.5634882, 35.5408509], [-97.5636624, 35.5408471], [-97.5636584, 35.540725]]]}, "properties": {"osm_id": 1258188610, "building": "house", "name": "", "height": null, "height_m": null, "levels": null, "tract_id": "40109106402", "tract_name": "1064.02", "tags": {"building": "house", "source": "microsoft/BuildingFootprints"}}}, {"type": "Feature", "geometry": {"type": "Polygon", "coordinates": [[[-97.5636956, 35.541225], [-97.5634646, 35.5412294], [-97.5634625, 35.5411536], [-97.5635102, 35.5411527], [-97.5635087, 35.5411016], [-97.5636011, 35.5410998], [-97.5636027, 35.5411548], [-97.5636936, 35.5411531], [-97.5636956, 35.541225]]]}, "properties": {"osm_id": 1258188611, "building": "house", "name": "", "height": null, "height_m": null, "levels": null, "tract_id": "40109106402", "tract_name": "1064.02", "tags": {"building": "house"}}}, {"type": "Feature", "geometry": {"type": "Polygon", "coordinates": [[[-97.5634582, 35.5407437], [-97.5632814, 35.5407477], [-97.5632848, 35.5408502], [-97.5634617, 35.5408462], [-97.5634582, 35.5407437]]]}, "properties": {"osm_id": 1258188612, "building": "house", "name": "", "height": null, "height_m": null, "levels": null, "tract_id": "40109106402", "tract_name": "1064.02", "tags": {"building": "house", "source": "microsoft/BuildingFootprints"}}}, {"type": "Feature", "geometry": {"type": "Polygon", "coordinates": [[[-97.5630724, 35.5407501], [-97.5630756, 35.5408548], [-97.5632542, 35.5408512], [-97.563251, 35.5407465], [-97.5630724, 35.5407501]]]}, "properties": {"osm_id": 1258188613, "building": "house", "name": "", "height": null, "height_m": null, "levels": null, "tract_id": "40109106402", "tract_name": "1064.02", "tags": {"building": "house", "source": "microsoft/BuildingFootprints"}}}, {"type": "Feature", "geometry": {"type": "Polygon", "coordinates": [[[-97.5629659, 35.5409272], [-97.5629632, 35.5408608], [-97.5630446, 35.5408586], [-97.5630405, 35.5407562], [-97.5628627, 35.5407608], [-97.5628694, 35.5409297], [-97.5629659, 35.5409272]]]}, "properties": {"osm_id": 1258188614, "building": "house", "name": "", "height": null, "height_m": null, "levels": null, "tract_id": "40109106402", "tract_name": "1064.02", "tags": {"building": "house", "source": "microsoft/BuildingFootprints"}}}, {"type": "Feature", "geometry": {"type": "Polygon", "coordinates": [[[-97.5648439, 35.5492273], [-97.5647206, 35.5492304], [-97.5647225, 35.5492784], [-97.5646689, 35.5492797], [-97.5646717, 35.5493517], [-97.5648485, 35.5493472], [-97.5648439, 35.5492273]]]}, "properties": {"osm_id": 1272437104, "building": "yes", "name": "", "height": null, "height_m": null, "levels": null, "tract_id": "40109106402", "tract_name": "1064.02", "tags": {"building": "yes", "source": "microsoft/BuildingFootprints"}}}, {"type": "Feature", "geometry": {"type": "Polygon", "coordinates": [[[-97.5645021, 35.5493716], [-97.5644979, 35.5492976], [-97.5643533, 35.5493031], [-97.5643576, 35.5493771], [-97.5645021, 35.5493716]]]}, "properties": {"osm_id": 1272437105, "building": "yes", "name": "", "height": null, "height_m": null, "levels": null, "tract_id": "40109106402", "tract_name": "1064.02", "tags": {"building": "yes", "source": "microsoft/BuildingFootprints"}}}, {"type": "Feature", "geometry": {"type": "Polygon", "coordinates": [[[-97.5642297, 35.5492885], [-97.564104, 35.5492939], [-97.564109, 35.5493722], [-97.5642348, 35.5493669], [-97.5642297, 35.5492885]]]}, "properties": {"osm_id": 1272437106, "building": "yes", "name": "", "height": null, "height_m": null, "levels": null, "tract_id": "40109106402", "tract_name": "1064.02", "tags": {"building": "yes", "source": "microsoft/BuildingFootprints"}}}, {"type": "Feature", "geometry": {"type": "Polygon", "coordinates": [[[-97.5638369, 35.5492908], [-97.5638428, 35.5493953], [-97.5639204, 35.5493924], [-97.5639187, 35.549362], [-97.5640151, 35.5493584], [-97.5640112, 35.5492887], [-97.5639255, 35.5492919], [-97.5639253, 35.5492875], [-97.5638369, 35.5492908]]]}, "properties": {"osm_id": 1272437107, "building": "yes", "name": "", "height": null, "height_m": null, "levels": null, "tract_id": "40109106402", "tract_name": "1064.02", "tags": {"building": "yes", "source": "microsoft/BuildingFootprints"}}}, {"type": "Feature", "geometry": {"type": "Polygon", "coordinates": [[[-97.5635639, 35.5493943], [-97.563695, 35.5493893], [-97.5636892, 35.5492891], [-97.5635581, 35.5492941], [-97.5635639, 35.5493943]]]}, "properties": {"osm_id": 1272437108, "building": "yes", "name": "", "height": null, "height_m": null, "levels": null, "tract_id": "40109106402", "tract_name": "1064.02", "tags": {"building": "yes", "source": "microsoft/BuildingFootprints"}}}, {"type": "Feature", "geometry": {"type": "Polygon", "coordinates": [[[-97.5634631, 35.5494263], [-97.5634652, 35.5493609], [-97.5633034, 35.5493574], [-97.5633013, 35.5494228], [-97.5634631, 35.5494263]]]}, "properties": {"osm_id": 1272437109, "building": "yes", "name": "", "height": null, "height_m": null, "levels": null, "tract_id": "40109106402", "tract_name": "1064.02", "tags": {"building": "yes", "source": "microsoft/BuildingFootprints"}}}, {"type": "Feature", "geometry": {"type": "Polygon", "coordinates": [[[-97.563101, 35.5493226], [-97.5631045, 35.5493804], [-97.5630295, 35.5493833], [-97.5630335, 35.5494497], [-97.5630817, 35.5494478], [-97.5630826, 35.5494642], [-97.5631977, 35.5494596], [-97.5631962, 35.5494345], [-97.5632283, 35.5494333], [-97.5632214, 35.5493179], [-97.563101, 35.5493226]]]}, "properties": {"osm_id": 1272437110, "building": "yes", "name": "", "height": null, "height_m": null, "levels": null, "tract_id": "40109106402", "tract_name": "1064.02", "tags": {"building": "yes", "source": "microsoft/BuildingFootprints"}}}, {"type": "Feature", "geometry": {"type": "Polygon", "coordinates": [[[-97.5627661, 35.5493792], [-97.5627782, 35.5495072], [-97.5628912, 35.5495001], [-97.5628958, 35.549549], [-97.5629518, 35.5495455], [-97.5629341, 35.5493578], [-97.5628408, 35.5493636], [-97.5628418, 35.5493744], [-97.5627661, 35.5493792]]]}, "properties": {"osm_id": 1272437111, "building": "yes", "name": "", "height": null, "height_m": null, "levels": null, "tract_id": "40109106402", "tract_name": "1064.02", "tags": {"building": "yes", "source": "microsoft/BuildingFootprints"}}}, {"type": "Feature", "geometry": {"type": "Polygon", "coordinates": [[[-97.5626992, 35.5494598], [-97.5624605, 35.5494627], [-97.5624601, 35.5494409], [-97.5623958, 35.5494417], [-97.5623973, 35.5495246], [-97.5624536, 35.5495239], [-97.562454, 35.5495436], [-97.5627007, 35.5495406], [-97.5626992, 35.5494598]]]}, "properties": {"osm_id": 1272437112, "building": "yes", "name": "", "height": null, "height_m": null, "levels": null, "tract_id": "40109106402", "tract_name": "1064.02", "tags": {"building": "yes", "source": "microsoft/BuildingFootprints"}}}, {"type": "Feature", "geometry": {"type": "Polygon", "coordinates": [[[-97.5620894, 35.5495689], [-97.5622314, 35.5495661], [-97.5622318, 35.5495802], [-97.5622811, 35.5495792], [-97.5622785, 35.5494898], [-97.5620872, 35.5494935], [-97.5620894, 35.5495689]]]}, "properties": {"osm_id": 1272437113, "building": "yes", "name": "", "height": null, "height_m": null, "levels": null, "tract_id": "40109106402", "tract_name": "1064.02", "tags": {"building": "yes", "source": "microsoft/BuildingFootprints"}}}, {"type": "Feature", "geometry": {"type": "Polygon", "coordinates": [[[-97.5618097, 35.549561], [-97.5619787, 35.549561], [-97.5619787, 35.5494781], [-97.5619482, 35.5494781], [-97.5619482, 35.5493874], [-97.5617829, 35.5493874], [-97.5617829, 35.5494606], [-97.5618097, 35.5494606], [-97.5618097, 35.549561]]]}, "properties": {"osm_id": 1272437114, "building": "yes", "name": "", "height": null, "height_m": null, "levels": null, "tract_id": "40109106402", "tract_name": "1064.02", "tags": {"building": "yes", "source": "microsoft/BuildingFootprints"}}}, {"type": "Feature", "geometry": {"type": "Polygon", "coordinates": [[[-97.5617347, 35.5496116], [-97.5617271, 35.5494394], [-97.5615744, 35.5494438], [-97.5615756, 35.5494712], [-97.561506, 35.5494732], [-97.5615097, 35.549557], [-97.5615847, 35.5495548], [-97.5615864, 35.5495941], [-97.5616463, 35.5495923], [-97.5616473, 35.5496141], [-97.5617347, 35.5496116]]]}, "properties": {"osm_id": 1272437115, "building": "yes", "name": "", "height": null, "height_m": null, "levels": null, "tract_id": "40109106402", "tract_name": "1064.02", "tags": {"building": "yes", "source": "microsoft/BuildingFootprints"}}}, {"type": "Feature", "geometry": {"type": "Polygon", "coordinates": [[[-97.5609424, 35.5494653], [-97.5609434, 35.5495373], [-97.5609836, 35.5495369], [-97.560984, 35.5495619], [-97.5610715, 35.5495611], [-97.5610722, 35.5496156], [-97.5611929, 35.5496145], [-97.561191, 35.5494761], [-97.5611384, 35.5494766], [-97.5611377, 35.5494295], [-97.5610412, 35.5494304], [-97.5610417, 35.5494644], [-97.5609424, 35.5494653]]]}, "properties": {"osm_id": 1272437116, "building": "yes", "name": "", "height": null, "height_m": null, "levels": null, "tract_id": "40109106402", "tract_name": "1064.02", "tags": {"building": "yes", "source": "microsoft/BuildingFootprints"}}}, {"type": "Feature", "geometry": {"type": "Polygon", "coordinates": [[[-97.5608109, 35.5494992], [-97.5605644, 35.5495055], [-97.5605671, 35.5495753], [-97.5608136, 35.5495689], [-97.5608109, 35.5494992]]]}, "properties": {"osm_id": 1272437117, "building": "yes", "name": "", "height": null, "height_m": null, "levels": null, "tract_id": "40109106402", "tract_name": "1064.02", "tags": {"building": "yes", "source": "microsoft/BuildingFootprints"}}}, {"type": "Feature", "geometry": {"type": "Polygon", "coordinates": [[[-97.5604819, 35.5494568], [-97.5602389, 35.5494549], [-97.5602383, 35.5495051], [-97.5602651, 35.5495053], [-97.5602643, 35.5495708], [-97.5603143, 35.5495711], [-97.560314, 35.549593], [-97.5604035, 35.5495936], [-97.5604033, 35.5496142], [-97.5604801, 35.5496148], [-97.5604819, 35.5494568]]]}, "properties": {"osm_id": 1272437118, "building": "yes", "name": "", "height": null, "height_m": null, "levels": null, "tract_id": "40109106402", "tract_name": "1064.02", "tags": {"building": "yes", "source": "microsoft/BuildingFootprints"}}}, {"type": "Feature", "geometry": {"type": "Polygon", "coordinates": [[[-97.5599672, 35.549457], [-97.5599641, 35.5495879], [-97.5601142, 35.5495903], [-97.5601146, 35.5495728], [-97.5601656, 35.5495736], [-97.5601672, 35.5495038], [-97.5600627, 35.5495022], [-97.5600637, 35.5494585], [-97.5599672, 35.549457]]]}, "properties": {"osm_id": 1272437119, "building": "yes", "name": "", "height": null, "height_m": null, "levels": null, "tract_id": "40109106402", "tract_name": "1064.02", "tags": {"building": "yes", "source": "microsoft/BuildingFootprints"}}}, {"type": "Feature", "geometry": {"type": "Polygon", "coordinates": [[[-97.5598737, 35.5496239], [-97.5598768, 35.5495096], [-97.5598366, 35.5495089], [-97.5598395, 35.549405], [-97.5597574, 35.5494035], [-97.5597555, 35.5494733], [-97.5595963, 35.5494704], [-97.559593, 35.5495882], [-97.5596815, 35.5495898], [-97.5596799, 35.5496465], [-97.5597345, 35.5496475], [-97.5597353, 35.5496213], [-97.5598737, 35.5496239]]]}, "properties": {"osm_id": 1272437120, "building": "yes", "name": "", "height": null, "height_m": null, "levels": null, "tract_id": "40109106402", "tract_name": "1064.02", "tags": {"building": "yes", "source": "microsoft/BuildingFootprints"}}}, {"type": "Feature", "geometry": {"type": "Polygon", "coordinates": [[[-97.5599435, 35.5502017], [-97.560092, 35.5502026], [-97.5600919, 35.5502157], [-97.5601526, 35.550216], [-97.5601537, 35.5500895], [-97.5601859, 35.5500896], [-97.5601862, 35.5500547], [-97.5599378, 35.5500532], [-97.5599372, 35.55011], [-97.5599443, 35.55011], [-97.5599435, 35.5502017]]]}, "properties": {"osm_id": 1272437121, "building": "yes", "name": "", "height": null, "height_m": null, "levels": null, "tract_id": "40109106402", "tract_name": "1064.02", "tags": {"building": "yes", "source": "microsoft/BuildingFootprints"}}}, {"type": "Feature", "geometry": {"type": "Polygon", "coordinates": [[[-97.5605245, 35.5502668], [-97.5604574, 35.5502673], [-97.560455, 35.5500722], [-97.5602877, 35.5500736], [-97.560288, 35.5500976], [-97.5602451, 35.550098], [-97.5602467, 35.5502232], [-97.5602798, 35.550223], [-97.5602805, 35.5502745], [-97.5603127, 35.5502742], [-97.5603132, 35.5503178], [-97.5604125, 35.550317], [-97.5604132, 35.5503781], [-97.5605259, 35.5503772], [-97.5605245, 35.5502668]]]}, "properties": {"osm_id": 1272437122, "building": "yes", "name": "", "height": null, "height_m": null, "levels": null, "tract_id": "40109106402", "tract_name": "1064.02", "tags": {"building": "yes", "source": "microsoft/BuildingFootprints"}}}, {"type": "Feature", "geometry": {"type": "Polygon", "coordinates": [[[-97.5606001, 35.5501889], [-97.5608146, 35.5501868], [-97.5608149, 35.5502065], [-97.5608829, 35.5502058], [-97.5608813, 35.5500911], [-97.5605477, 35.5500943], [-97.5605479, 35.5501065], [-97.5605989, 35.550106], [-97.5606001, 35.5501889]]]}, "properties": {"osm_id": 1272437259, "building": "yes", "name": "", "height": null, "height_m": null, "levels": null, "tract_id": "40109106402", "tract_name": "1064.02", "tags": {"building": "yes", "source": "microsoft/BuildingFootprints"}}}, {"type": "Feature", "geometry": {"type": "Polygon", "coordinates": [[[-97.5610751, 35.5501763], [-97.5610792, 35.5502503], [-97.5611853, 35.5502465], [-97.5611777, 35.5501071], [-97.5612376, 35.550105], [-97.5612342, 35.5500428], [-97.5611342, 35.5500463], [-97.5611366, 35.5500899], [-97.561, 35.5500948], [-97.5610046, 35.5501788], [-97.5610751, 35.5501763]]]}, "properties": {"osm_id": 1272437260, "building": "yes", "name": "", "height": null, "height_m": null, "levels": null, "tract_id": "40109106402", "tract_name": "1064.02", "tags": {"building": "yes", "source": "microsoft/BuildingFootprints"}}}, {"type": "Feature", "geometry": {"type": "Polygon", "coordinates": [[[-97.5614621, 35.5502058], [-97.5614595, 35.5501142], [-97.5614836, 35.5501137], [-97.5614819, 35.5500527], [-97.5613157, 35.5500558], [-97.5613161, 35.550071], [-97.5612411, 35.5500725], [-97.561242, 35.5501061], [-97.5613108, 35.5501048], [-97.5613137, 35.5502086], [-97.5614621, 35.5502058]]]}, "properties": {"osm_id": 1272437261, "building": "yes", "name": "", "height": null, "height_m": null, "levels": null, "tract_id": "40109106402", "tract_name": "1064.02", "tags": {"building": "yes", "source": "microsoft/BuildingFootprints"}}}, {"type": "Feature", "geometry": {"type": "Polygon", "coordinates": [[[-97.5623108, 35.5500044], [-97.5620819, 35.550006], [-97.5620844, 35.5502373], [-97.5622543, 35.5502361], [-97.5622534, 35.5501488], [-97.5623124, 35.5501484], [-97.5623108, 35.5500044]]]}, "properties": {"osm_id": 1272437262, "building": "yes", "name": "", "height": null, "height_m": null, "levels": null, "tract_id": "40109106402", "tract_name": "1064.02", "tags": {"building": "yes", "source": "microsoft/BuildingFootprints"}}}, {"type": "Feature", "geometry": {"type": "Polygon", "coordinates": [[[-97.5624011, 35.5500123], [-97.5624026, 35.5500853], [-97.5625688, 35.5500831], [-97.5625699, 35.5501376], [-97.5627174, 35.5501357], [-97.5627143, 35.5499819], [-97.5625346, 35.5499843], [-97.5625352, 35.5500105], [-97.5624011, 35.5500123]]]}, "properties": {"osm_id": 1272437263, "building": "yes", "name": "", "height": null, "height_m": null, "levels": null, "tract_id": "40109106402", "tract_name": "1064.02", "tags": {"building": "yes", "source": "microsoft/BuildingFootprints"}}}, {"type": "Feature", "geometry": {"type": "Polygon", "coordinates": [[[-97.5635211, 35.5502431], [-97.5635223, 35.5500031], [-97.563415, 35.5500027], [-97.5634148, 35.5500398], [-97.5632995, 35.5500394], [-97.5632987, 35.5502053], [-97.5633309, 35.5502054], [-97.5633307, 35.5502425], [-97.5635211, 35.5502431]]]}, "properties": {"osm_id": 1272437264, "building": "yes", "name": "", "height": null, "height_m": null, "levels": null, "tract_id": "40109106402", "tract_name": "1064.02", "tags": {"building": "yes", "source": "microsoft/BuildingFootprints"}}}, {"type": "Feature", "geometry": {"type": "Polygon", "coordinates": [[[-97.5638736, 35.5499939], [-97.5638757, 35.5501401], [-97.5640161, 35.5501387], [-97.564014, 35.5499926], [-97.5638736, 35.5499939]]]}, "properties": {"osm_id": 1272437265, "building": "yes", "name": "", "height": null, "height_m": null, "levels": null, "tract_id": "40109106402", "tract_name": "1064.02", "tags": {"building": "yes", "source": "microsoft/BuildingFootprints"}}}, {"type": "Feature", "geometry": {"type": "Polygon", "coordinates": [[[-97.5645473, 35.5500696], [-97.5645406, 35.549963], [-97.5646011, 35.5499605], [-97.564595, 35.5498636], [-97.5645254, 35.5498665], [-97.5645267, 35.5498861], [-97.5644197, 35.5498906], [-97.5644303, 35.5500582], [-97.5644928, 35.5500556], [-97.5644938, 35.5500719], [-97.5645473, 35.5500696]]]}, "properties": {"osm_id": 1272437266, "building": "yes", "name": "", "height": null, "height_m": null, "levels": null, "tract_id": "40109106402", "tract_name": "1064.02", "tags": {"building": "yes", "source": "microsoft/BuildingFootprints"}}}, {"type": "Feature", "geometry": {"type": "Polygon", "coordinates": [[[-97.5641476, 35.5499962], [-97.5642225, 35.5499934], [-97.5642253, 35.5500435], [-97.5642949, 35.5500409], [-97.5642922, 35.549993], [-97.5643163, 35.5499921], [-97.5643123, 35.5499203], [-97.5641437, 35.5499265], [-97.5641476, 35.5499962]]]}, "properties": {"osm_id": 1272437267, "building": "yes", "name": "", "height": null, "height_m": null, "levels": null, "tract_id": "40109106402", "tract_name": "1064.02", "tags": {"building": "yes", "source": "microsoft/BuildingFootprints"}}}, {"type": "Feature", "geometry": {"type": "Polygon", "coordinates": [[[-97.5648752, 35.5499158], [-97.5648728, 35.549822], [-97.5646797, 35.5498254], [-97.5646822, 35.5499192], [-97.5648752, 35.5499158]]]}, "properties": {"osm_id": 1272437268, "building": "yes", "name": "", "height": null, "height_m": null, "levels": null, "tract_id": "40109106402", "tract_name": "1064.02", "tags": {"building": "yes", "source": "microsoft/BuildingFootprints"}}}, {"type": "Feature", "geometry": {"type": "Polygon", "coordinates": [[[-97.5638321, 35.5506234], [-97.5638368, 35.5508164], [-97.5640138, 35.5508136], [-97.5640121, 35.5507449], [-97.5640694, 35.5507439], [-97.5640659, 35.5506], [-97.5639898, 35.5506012], [-97.5639908, 35.5506415], [-97.563905, 35.5506429], [-97.5639045, 35.5506222], [-97.5638321, 35.5506234]]]}, "properties": {"osm_id": 1272437269, "building": "yes", "name": "", "height": null, "height_m": null, "levels": null, "tract_id": "40109106402", "tract_name": "1064.02", "tags": {"building": "yes", "source": "microsoft/BuildingFootprints"}}}, {"type": "Feature", "geometry": {"type": "Polygon", "coordinates": [[[-97.5641454, 35.550718], [-97.564144, 35.5508173], [-97.5642057, 35.5508178], [-97.564206, 35.5507938], [-97.564324, 35.5507949], [-97.564325, 35.5507196], [-97.5641454, 35.550718]]]}, "properties": {"osm_id": 1272437270, "building": "yes", "name": "", "height": null, "height_m": null, "levels": null, "tract_id": "40109106402", "tract_name": "1064.02", "tags": {"building": "yes", "source": "microsoft/BuildingFootprints"}}}, {"type": "Feature", "geometry": {"type": "Polygon", "coordinates": [[[-97.5645434, 35.5508188], [-97.5645465, 35.5507228], [-97.5643937, 35.5507196], [-97.5643906, 35.5508155], [-97.5645434, 35.5508188]]]}, "properties": {"osm_id": 1272437271, "building": "yes", "name": "", "height": null, "height_m": null, "levels": null, "tract_id": "40109106402", "tract_name": "1064.02", "tags": {"building": "yes", "source": "microsoft/BuildingFootprints"}}}, {"type": "Feature", "geometry": {"type": "Polygon", "coordinates": [[[-97.5636091, 35.5508158], [-97.5638029, 35.5508171], [-97.5638045, 35.5506671], [-97.5637545, 35.5506667], [-97.5637541, 35.5507107], [-97.5636102, 35.5507097], [-97.5636091, 35.5508158]]]}, "properties": {"osm_id": 1272437272, "building": "yes", "name": "", "height": null, "height_m": null, "levels": null, "tract_id": "40109106402", "tract_name": "1064.02", "tags": {"building": "yes", "source": "microsoft/BuildingFootprints"}}}, {"type": "Feature", "geometry": {"type": "Polygon", "coordinates": [[[-97.5634888, 35.5506886], [-97.5633778, 35.5506863], [-97.5633764, 35.5507311], [-97.5633041, 35.5507296], [-97.5633017, 35.5508048], [-97.5635252, 35.5508094], [-97.5635278, 35.5507277], [-97.5634876, 35.5507268], [-97.5634888, 35.5506886]]]}, "properties": {"osm_id": 1272437273, "building": "yes", "name": "", "height": null, "height_m": null, "levels": null, "tract_id": "40109106402", "tract_name": "1064.02", "tags": {"building": "yes", "source": "microsoft/BuildingFootprints"}}}, {"type": "Feature", "geometry": {"type": "Polygon", "coordinates": [[[-97.56304, 35.550794], [-97.5631016, 35.5507955], [-97.563101, 35.5508129], [-97.5631868, 35.550815], [-97.5631876, 35.550791], [-97.5632546, 35.5507926], [-97.5632575, 35.5507119], [-97.5630431, 35.5507068], [-97.56304, 35.550794]]]}, "properties": {"osm_id": 1272437274, "building": "yes", "name": "", "height": null, "height_m": null, "levels": null, "tract_id": "40109106402", "tract_name": "1064.02", "tags": {"building": "yes", "source": "microsoft/BuildingFootprints"}}}, {"type": "Feature", "geometry": {"type": "Polygon", "coordinates": [[[-97.5628062, 35.5506789], [-97.5628075, 35.5507269], [-97.5627817, 35.5507274], [-97.5627845, 35.5508255], [-97.5629856, 35.5508218], [-97.5629815, 35.5506757], [-97.5628062, 35.5506789]]]}, "properties": {"osm_id": 1272437275, "building": "yes", "name": "", "height": null, "height_m": null, "levels": null, "tract_id": "40109106402", "tract_name": "1064.02", "tags": {"building": "yes", "source": "microsoft/BuildingFootprints"}}}, {"type": "Feature", "geometry": {"type": "Polygon", "coordinates": [[[-97.5624658, 35.5507171], [-97.5624635, 35.550801], [-97.5626737, 35.5508047], [-97.5626776, 35.5506586], [-97.5625854, 35.550657], [-97.5625837, 35.5507192], [-97.5624658, 35.5507171]]]}, "properties": {"osm_id": 1272437276, "building": "yes", "name": "", "height": null, "height_m": null, "levels": null, "tract_id": "40109106402", "tract_name": "1064.02", "tags": {"building": "yes", "source": "microsoft/BuildingFootprints"}}}, {"type": "Feature", "geometry": {"type": "Polygon", "coordinates": [[[-97.5620238, 35.5508076], [-97.5620802, 35.5508069], [-97.5620799, 35.550796], [-97.5622113, 35.5507943], [-97.5622098, 35.5507157], [-97.5620221, 35.5507182], [-97.5620238, 35.5508076]]]}, "properties": {"osm_id": 1272437277, "building": "yes", "name": "", "height": null, "height_m": null, "levels": null, "tract_id": "40109106402", "tract_name": "1064.02", "tags": {"building": "yes", "source": "microsoft/BuildingFootprints"}}}, {"type": "Feature", "geometry": {"type": "Polygon", "coordinates": [[[-97.5618977, 35.5508037], [-97.5619013, 35.5507034], [-97.5618102, 35.5507012], [-97.5618115, 35.5506641], [-97.5617472, 35.5506626], [-97.5617452, 35.5507171], [-97.5616488, 35.5507148], [-97.5616462, 35.5507846], [-97.5617293, 35.5507866], [-97.5617288, 35.5507996], [-97.5618977, 35.5508037]]]}, "properties": {"osm_id": 1272437278, "building": "yes", "name": "", "height": null, "height_m": null, "levels": null, "tract_id": "40109106402", "tract_name": "1064.02", "tags": {"building": "yes", "source": "microsoft/BuildingFootprints"}}}, {"type": "Feature", "geometry": {"type": "Polygon", "coordinates": [[[-97.5613271, 35.550636], [-97.5613213, 35.5507952], [-97.5613685, 35.5507963], [-97.5613672, 35.5508334], [-97.5614432, 35.5508352], [-97.5614445, 35.5508003], [-97.5615999, 35.550804], [-97.561604, 35.5506929], [-97.561552, 35.5506916], [-97.5615535, 35.5506502], [-97.5614785, 35.5506484], [-97.5614774, 35.5506789], [-97.5614355, 35.5506779], [-97.5614369, 35.5506387], [-97.5613271, 35.550636]]]}, "properties": {"osm_id": 1272437279, "building": "yes", "name": "", "height": null, "height_m": null, "levels": null, "tract_id": "40109106402", "tract_name": "1064.02", "tags": {"building": "yes", "source": "microsoft/BuildingFootprints"}}}, {"type": "Feature", "geometry": {"type": "Polygon", "coordinates": [[[-97.5609444, 35.5505859], [-97.5609459, 35.5507757], [-97.5610102, 35.5507754], [-97.5610099, 35.5507371], [-97.561101, 35.5507367], [-97.5611015, 35.5508021], [-97.5611847, 35.5508017], [-97.5611841, 35.5507253], [-97.5612254, 35.5507251], [-97.5612244, 35.5505963], [-97.561159, 35.5505967], [-97.5611588, 35.5505674], [-97.5611829, 35.5505673], [-97.5611826, 35.5505267], [-97.5611236, 35.550527], [-97.5611234, 35.5504977], [-97.5610671, 35.550498], [-97.5610677, 35.5505853], [-97.5609444, 35.5505859]]]}, "properties": {"osm_id": 1272437280, "building": "house", "name": "", "height": null, "height_m": null, "levels": null, "tract_id": "40109106402", "tract_name": "1064.02", "tags": {"building": "house", "source": "microsoft/BuildingFootprints"}}}, {"type": "Feature", "geometry": {"type": "Polygon", "coordinates": [[[-97.5602597, 35.5505697], [-97.5602584, 35.5507989], [-97.5604236, 35.5507995], [-97.5604239, 35.5507633], [-97.5605375, 35.5507637], [-97.5605382, 35.5506372], [-97.5603897, 35.5506366], [-97.5603899, 35.550603], [-97.5603524, 35.5506028], [-97.5603526, 35.5505701], [-97.5602597, 35.5505697]]]}, "properties": {"osm_id": 1272437281, "building": "yes", "name": "", "height": null, "height_m": null, "levels": null, "tract_id": "40109106402", "tract_name": "1064.02", "tags": {"building": "yes", "source": "microsoft/BuildingFootprints"}}}, {"type": "Feature", "geometry": {"type": "Polygon", "coordinates": [[[-97.5599751, 35.5504812], [-97.5599774, 35.5506165], [-97.5600471, 35.5506157], [-97.5600483, 35.5506855], [-97.559992, 35.5506862], [-97.5599917, 35.5506687], [-97.5599354, 35.5506693], [-97.559937, 35.5507632], [-97.5601059, 35.5507613], [-97.5601066, 35.5508005], [-97.5601871, 35.5507996], [-97.5601827, 35.5505443], [-97.560113, 35.5505451], [-97.5601119, 35.5504797], [-97.5599751, 35.5504812]]]}, "properties": {"osm_id": 1272437282, "building": "yes", "name": "", "height": null, "height_m": null, "levels": null, "tract_id": "40109106402", "tract_name": "1064.02", "tags": {"building": "yes", "source": "microsoft/BuildingFootprints"}}}, {"type": "Feature", "geometry": {"type": "Polygon", "coordinates": [[[-97.5597368, 35.5506744], [-97.5597382, 35.5506396], [-97.5596444, 35.5506371], [-97.5596393, 35.5507657], [-97.55971, 35.5507676], [-97.5597092, 35.550788], [-97.5597832, 35.55079], [-97.5597841, 35.550766], [-97.5598521, 35.5507678], [-97.5598557, 35.5506776], [-97.5597368, 35.5506744]]]}, "properties": {"osm_id": 1272437283, "building": "yes", "name": "", "height": null, "height_m": null, "levels": null, "tract_id": "40109106402", "tract_name": "1064.02", "tags": {"building": "yes", "source": "microsoft/BuildingFootprints"}}}]}