{"type": "FeatureCollection", "features": [{"type": "Feature", "geometry": {"type": "Polygon", "coordinates": [[[-96.6995653, 34.7723327], [-96.6989619, 34.7722048], [-96.6987032, 34.7722658], [-96.6987239, 34.772325], [-96.6985579, 34.7723642], [-96.6987158, 34.7728163], [-96.6990221, 34.7727441], [-96.6989784, 34.7729021], [-96.6991565, 34.7729353], [-96.6991973, 34.7727877], [-96.6994219, 34.7729633], [-96.6997498, 34.7726802], [-96.6996534, 34.7726049], [-96.6997111, 34.7725551], [-96.699663, 34.7725175], [-96.699729, 34.7724605], [-96.6995653, 34.7723327]]]}, "properties": {"osm_id": 1025279060, "building": "retail", "name": "", "height": null, "height_m": null, "levels": null, "tract_id": "40123089100", "tract_name": "891", "tags": {"building": "retail", "shop": "yes"}}}, {"type": "Feature", "geometry": {"type": "Polygon", "coordinates": [[[-96.699641, 34.7696976], [-96.6999876, 34.7697502], [-96.6999511, 34.7699127], [-96.6996045, 34.7698602], [-96.699641, 34.7696976]]]}, "properties": {"osm_id": 1025279061, "building": "industrial", "name": "", "height": null, "height_m": null, "levels": null, "tract_id": "40123089100", "tract_name": "891", "tags": {"building": "industrial", "shop": "yes"}}}, {"type": "Feature", "geometry": {"type": "Polygon", "coordinates": [[[-96.6942271, 34.7741066], [-96.6942282, 34.7743415], [-96.694042, 34.7743421], [-96.6940409, 34.7741071], [-96.6942271, 34.7741066]]]}, "properties": {"osm_id": 1025279065, "building": "yes", "name": "", "height": null, "height_m": null, "levels": null, "tract_id": "40123089100", "tract_name": "891", "tags": {"building": "yes"}}}, {"type": "Feature", "geometry": {"type": "Polygon", "coordinates": [[[-96.6962269, 34.7709219], [-96.6962276, 34.7710672], [-96.6957915, 34.7710688], [-96.6957907, 34.7709235], [-96.6962269, 34.7709219]]]}, "properties": {"osm_id": 1025279068, "building": "yes", "name": "", "height": null, "height_m": null, "levels": null, "tract_id": "40123089100", "tract_name": "891", "tags": {"building": "yes"}}}, {"type": "Feature", "geometry": {"type": "Polygon", "coordinates": [[[-96.694827, 34.7738563], [-96.6947237, 34.7738556], [-96.6947261, 34.7736325], [-96.6948294, 34.7736333], [-96.694827, 34.7738563]]]}, "properties": {"osm_id": 1025279069, "building": "yes", "name": "", "height": null, "height_m": null, "levels": null, "tract_id": "40123089100", "tract_name": "891", "tags": {"building": "yes"}}}, {"type": "Feature", "geometry": {"type": "Polygon", "coordinates": [[[-96.7002512, 34.767814], [-96.7003278, 34.7675995], [-96.7001637, 34.76756], [-96.7000871, 34.7677745], [-96.7002512, 34.767814]]]}, "properties": {"osm_id": 1025279082, "building": "yes", "name": "", "height": null, "height_m": null, "levels": null, "tract_id": "40123089100", "tract_name": "891", "tags": {"building": "yes"}}}, {"type": "Feature", "geometry": {"type": "Polygon", "coordinates": [[[-96.7007312, 34.7665032], [-96.7012377, 34.7665733], [-96.7012795, 34.7663692], [-96.7011189, 34.766347], [-96.7011335, 34.7662757], [-96.7007876, 34.7662279], [-96.7007312, 34.7665032]]]}, "properties": {"osm_id": 1025279083, "building": "yes", "name": "", "height": null, "height_m": null, "levels": null, "tract_id": "40123089100", "tract_name": "891", "tags": {"building": "yes"}}}, {"type": "Feature", "geometry": {"type": "Polygon", "coordinates": [[[-96.6953462, 34.7693159], [-96.6946816, 34.7693206], [-96.6946802, 34.7691844], [-96.6953448, 34.7691798], [-96.6953462, 34.7693159]]]}, "properties": {"osm_id": 1025279084, "building": "yes", "name": "", "height": null, "height_m": null, "levels": null, "tract_id": "40123089100", "tract_name": "891", "tags": {"building": "yes"}}}, {"type": "Feature", "geometry": {"type": "Polygon", "coordinates": [[[-96.6722409, 34.7874491], [-96.6722382, 34.7882737], [-96.6710736, 34.7882714], [-96.6710745, 34.7875926], [-96.6710755, 34.7875705], [-96.6713113, 34.787571], [-96.6713113, 34.7875907], [-96.6716945, 34.7875916], [-96.671695, 34.7874479], [-96.6722409, 34.7874491]]]}, "properties": {"osm_id": 1225340955, "building": "yes", "name": "The Home Depot", "height": null, "height_m": null, "levels": null, "tract_id": "40123089100", "tract_name": "891", "tags": {"addr:city": "Ada", "addr:housenumber": "515", "addr:postcode": "74820", "addr:state": "OK", "addr:street": "Northeast Richardson Loop", "alt_name": "Home Depot", "branch": "Ada", "brand": "The Home Depot", "brand:wikidata": "Q864407", "building": "yes", "name": "The Home Depot", "opening_hours": "Mo-Sa 06:00-22:00; Su 08:00-20:00", "phone": "+1 580-332-4018", "ref": "3918", "shop": "doityourself", "website": "https://www.homedepot.com/l/Ada/OK/Ada/74820/3918"}}}, {"type": "Feature", "geometry": {"type": "Polygon", "coordinates": [[[-96.6710736, 34.7882714], [-96.6710745, 34.7875926], [-96.6708885, 34.7875924], [-96.670888, 34.788101], [-96.6706866, 34.7881008], [-96.6706864, 34.7882711], [-96.6710736, 34.7882714]]]}, "properties": {"osm_id": 1253796659, "building": "roof", "name": "", "height": null, "height_m": null, "levels": null, "tract_id": "40123089100", "tract_name": "891", "tags": {"building": "roof", "layer": "1"}}}, {"type": "Feature", "geometry": {"type": "Polygon", "coordinates": [[[-96.6776859, 34.7893377], [-96.67768, 34.7891484], [-96.6774307, 34.7891537], [-96.6774366, 34.789343], [-96.6776859, 34.7893377]]]}, "properties": {"osm_id": 1254739098, "building": "retail", "name": "", "height": null, "height_m": null, "levels": null, "tract_id": "40123089100", "tract_name": "891", "tags": {"building": "retail", "roof:shape": "mansard", "shop": "yes"}}}, {"type": "Feature", "geometry": {"type": "Polygon", "coordinates": [[[-96.678338, 34.7887823], [-96.6781343, 34.7887856], [-96.6781363, 34.7888715], [-96.6783401, 34.7888682], [-96.678338, 34.7887823]]]}, "properties": {"osm_id": 1254739099, "building": "industrial", "name": "", "height": null, "height_m": null, "levels": null, "tract_id": "40123089100", "tract_name": "891", "tags": {"building": "industrial"}}}, {"type": "Feature", "geometry": {"type": "Polygon", "coordinates": [[[-96.6814022, 34.7890332], [-96.6806712, 34.7890274], [-96.6806706, 34.7890802], [-96.6814016, 34.789086], [-96.6814022, 34.7890332]]]}, "properties": {"osm_id": 1254739100, "building": "warehouse", "name": "", "height": null, "height_m": null, "levels": null, "tract_id": "40123089100", "tract_name": "891", "tags": {"building": "warehouse", "roof:colour": "white", "roof:material": "metal", "roof:orientation": "along", "roof:shape": "gabled"}}}, {"type": "Feature", "geometry": {"type": "Polygon", "coordinates": [[[-96.6806351, 34.7890288], [-96.6802677, 34.789025], [-96.6802668, 34.7890778], [-96.6806342, 34.7890817], [-96.6806351, 34.7890288]]]}, "properties": {"osm_id": 1254739101, "building": "warehouse", "name": "", "height": null, "height_m": null, "levels": null, "tract_id": "40123089100", "tract_name": "891", "tags": {"building": "warehouse", "roof:colour": "white", "roof:material": "metal", "roof:orientation": "along", "roof:shape": "gabled"}}}, {"type": "Feature", "geometry": {"type": "Polygon", "coordinates": [[[-96.6778783, 34.7893896], [-96.6779829, 34.7893911], [-96.6779874, 34.7891885], [-96.6778829, 34.789187], [-96.6778783, 34.7893896]]]}, "properties": {"osm_id": 1254739102, "building": "detached", "name": "", "height": null, "height_m": null, "levels": null, "tract_id": "40123089100", "tract_name": "891", "tags": {"building": "detached"}}}, {"type": "Feature", "geometry": {"type": "Polygon", "coordinates": [[[-96.6776036, 34.7887331], [-96.6776028, 34.7889005], [-96.6776779, 34.7889007], [-96.6776787, 34.7887333], [-96.6776036, 34.7887331]]]}, "properties": {"osm_id": 1254739104, "building": "yes", "name": "", "height": null, "height_m": null, "levels": null, "tract_id": "40123089100", "tract_name": "891", "tags": {"building": "yes"}}}, {"type": "Feature", "geometry": {"type": "Polygon", "coordinates": [[[-96.6780733, 34.7892817], [-96.6783226, 34.7892773], [-96.6783203, 34.7891914], [-96.678071, 34.7891958], [-96.6780733, 34.7892817]]]}, "properties": {"osm_id": 1254739105, "building": "detached", "name": "Sheppard Heritage Homes", "height": null, "height_m": null, "levels": null, "tract_id": "40123089100", "tract_name": "891", "tags": {"building": "detached", "name": "Sheppard Heritage Homes", "office": "architect"}}}, {"type": "Feature", "geometry": {"type": "Polygon", "coordinates": [[[-96.6770634, 34.788604], [-96.6769787, 34.7885521], [-96.6768304, 34.7887154], [-96.6769151, 34.7887673], [-96.6770634, 34.788604]]]}, "properties": {"osm_id": 1254739106, "building": "yes", "name": "", "height": null, "height_m": null, "levels": null, "tract_id": "40123089100", "tract_name": "891", "tags": {"building": "yes"}}}, {"type": "Feature", "geometry": {"type": "Polygon", "coordinates": [[[-96.679334, 34.7891304], [-96.6789613, 34.7891338], [-96.6789627, 34.7892374], [-96.6793355, 34.7892339], [-96.679334, 34.7891304]]]}, "properties": {"osm_id": 1254739107, "building": "commercial", "name": "", "height": null, "height_m": 3.0, "levels": 1, "tract_id": "40123089100", "tract_name": "891", "tags": {"building": "commercial", "building:colour": "tan", "building:levels": "1", "building:material": "metal", "roof:colour": "white", "roof:levels": "0", "roof:material": "metal", "roof:orientation": "along", "roof:shape": "gabled", "shop": "vacant"}}}, {"type": "Feature", "geometry": {"type": "Polygon", "coordinates": [[[-96.6783557, 34.789097], [-96.6783536, 34.7890257], [-96.6781928, 34.789029], [-96.6781949, 34.7891003], [-96.6783557, 34.789097]]]}, "properties": {"osm_id": 1254739109, "building": "detached", "name": "", "height": null, "height_m": null, "levels": null, "tract_id": "40123089100", "tract_name": "891", "tags": {"building": "detached"}}}, {"type": "Feature", "geometry": {"type": "Polygon", "coordinates": [[[-96.6771234, 34.7890313], [-96.6767844, 34.7890264], [-96.6767839, 34.7890506], [-96.6765866, 34.7890477], [-96.6765806, 34.7893251], [-96.6766476, 34.7893261], [-96.6766467, 34.7893702], [-96.6767903, 34.7893723], [-96.676796, 34.7891124], [-96.6771216, 34.7891172], [-96.6771234, 34.7890313]]]}, "properties": {"osm_id": 1254739111, "building": "yes", "name": "", "height": null, "height_m": null, "levels": null, "tract_id": "40123089100", "tract_name": "891", "tags": {"building": "yes", "shop": "yes"}}}, {"type": "Feature", "geometry": {"type": "Polygon", "coordinates": [[[-96.6768617, 34.7888723], [-96.6768604, 34.7889538], [-96.6771125, 34.7889564], [-96.6771137, 34.7888749], [-96.6768617, 34.7888723]]]}, "properties": {"osm_id": 1254739115, "building": "yes", "name": "", "height": null, "height_m": null, "levels": null, "tract_id": "40123089100", "tract_name": "891", "tags": {"building": "yes"}}}, {"type": "Feature", "geometry": {"type": "Polygon", "coordinates": [[[-96.677271, 34.788622], [-96.6771257, 34.7887864], [-96.6772069, 34.7888348], [-96.6773522, 34.7886704], [-96.677271, 34.788622]]]}, "properties": {"osm_id": 1254739117, "building": "yes", "name": "", "height": null, "height_m": null, "levels": null, "tract_id": "40123089100", "tract_name": "891", "tags": {"building": "yes"}}}, {"type": "Feature", "geometry": {"type": "Polygon", "coordinates": [[[-96.678352, 34.7887827], [-96.6783527, 34.7888729], [-96.6784626, 34.7888723], [-96.6784618, 34.7887821], [-96.678352, 34.7887827]]]}, "properties": {"osm_id": 1254739118, "building": "detached", "name": "Cactus Plumbing", "height": null, "height_m": 6.0, "levels": 2, "tract_id": "40123089100", "tract_name": "891", "tags": {"building": "detached", "building:colour": "white", "building:levels": "2", "building:material": "wood", "craft": "plumber", "name": "Cactus Plumbing", "roof:colour": "grey", "roof:levels": "0", "roof:material": "tar_paper", "roof:shape": "gabled", "website": "http://www.cactusplumbingllc.com/"}}}, {"type": "Feature", "geometry": {"type": "Polygon", "coordinates": [[[-96.677192, 34.7886545], [-96.677111, 34.7886086], [-96.6770094, 34.7887293], [-96.6770903, 34.7887752], [-96.677192, 34.7886545]]]}, "properties": {"osm_id": 1254739119, "building": "yes", "name": "", "height": null, "height_m": null, "levels": null, "tract_id": "40123089100", "tract_name": "891", "tags": {"building": "yes"}}}, {"type": "Feature", "geometry": {"type": "Polygon", "coordinates": [[[-96.6775266, 34.7887691], [-96.67743, 34.7887704], [-96.6774327, 34.7889091], [-96.6775292, 34.7889079], [-96.6775266, 34.7887691]]]}, "properties": {"osm_id": 1254739121, "building": "yes", "name": "", "height": null, "height_m": null, "levels": null, "tract_id": "40123089100", "tract_name": "891", "tags": {"building": "yes"}}}, {"type": "Feature", "geometry": {"type": "Polygon", "coordinates": [[[-96.6809325, 34.7891379], [-96.6802636, 34.7891306], [-96.6802591, 34.7894081], [-96.6809281, 34.7894154], [-96.6809325, 34.7891379]]]}, "properties": {"osm_id": 1254739122, "building": "warehouse", "name": "", "height": null, "height_m": null, "levels": null, "tract_id": "40123089100", "tract_name": "891", "tags": {"building": "warehouse", "roof:colour": "white", "roof:material": "metal", "roof:orientation": "along", "roof:shape": "gabled"}}}, {"type": "Feature", "geometry": {"type": "Polygon", "coordinates": [[[-96.7000662, 34.7708472], [-96.6995475, 34.7707888], [-96.6995613, 34.7707066], [-96.6998298, 34.7707368], [-96.6998488, 34.7706231], [-96.6994565, 34.7705789], [-96.6994253, 34.7707662], [-96.6993673, 34.7707596], [-96.6993608, 34.7707986], [-96.6992318, 34.770784], [-96.6992094, 34.7709181], [-96.6993174, 34.7709303], [-96.6993084, 34.7709843], [-96.7000297, 34.7710656], [-96.7000662, 34.7708472]]]}, "properties": {"osm_id": 1254783135, "building": "industrial", "name": "", "height": null, "height_m": null, "levels": null, "tract_id": "40123089100", "tract_name": "891", "tags": {"building": "industrial", "shop": "yes"}}}, {"type": "Feature", "geometry": {"type": "Polygon", "coordinates": [[[-96.6824566, 34.7886362], [-96.6824543, 34.7889137], [-96.6829049, 34.7889162], [-96.6829072, 34.7886387], [-96.6824566, 34.7886362]]]}, "properties": {"osm_id": 1254783151, "building": "warehouse", "name": "", "height": null, "height_m": null, "levels": null, "tract_id": "40123089100", "tract_name": "891", "tags": {"building": "warehouse"}}}, {"type": "Feature", "geometry": {"type": "Polygon", "coordinates": [[[-96.6819484, 34.7893476], [-96.6819477, 34.7894181], [-96.6829171, 34.7894249], [-96.6829178, 34.7893544], [-96.6819484, 34.7893476]]]}, "properties": {"osm_id": 1254783152, "building": "warehouse", "name": "", "height": null, "height_m": null, "levels": null, "tract_id": "40123089100", "tract_name": "891", "tags": {"building": "warehouse"}}}, {"type": "Feature", "geometry": {"type": "Polygon", "coordinates": [[[-96.6853475, 34.7891156], [-96.6849666, 34.7891115], [-96.6849646, 34.7892392], [-96.6852316, 34.7892421], [-96.6852323, 34.7892003], [-96.6853461, 34.7892015], [-96.6853475, 34.7891156]]]}, "properties": {"osm_id": 1254783153, "building": "detached", "name": "", "height": null, "height_m": null, "levels": null, "tract_id": "40123089100", "tract_name": "891", "tags": {"building": "detached"}}}, {"type": "Feature", "geometry": {"type": "Polygon", "coordinates": [[[-96.6829171, 34.7891458], [-96.6819501, 34.7891383], [-96.6819494, 34.7891956], [-96.6829165, 34.7892031], [-96.6829171, 34.7891458]]]}, "properties": {"osm_id": 1254783154, "building": "warehouse", "name": "", "height": null, "height_m": null, "levels": null, "tract_id": "40123089100", "tract_name": "891", "tags": {"building": "warehouse"}}}, {"type": "Feature", "geometry": {"type": "Polygon", "coordinates": [[[-96.6839114, 34.7890492], [-96.6839105, 34.7892508], [-96.6843116, 34.7892521], [-96.6843119, 34.7891926], [-96.684513, 34.7891932], [-96.6845127, 34.7892769], [-96.6845836, 34.7892772], [-96.6845846, 34.7890513], [-96.6839114, 34.7890492]]]}, "properties": {"osm_id": 1254783155, "building": "industrial", "name": "", "height": null, "height_m": null, "levels": null, "tract_id": "40123089100", "tract_name": "891", "tags": {"building": "industrial"}}}, {"type": "Feature", "geometry": {"type": "Polygon", "coordinates": [[[-96.6830089, 34.7893311], [-96.6830061, 34.7894796], [-96.6830746, 34.7894805], [-96.6830774, 34.789332], [-96.6830089, 34.7893311]]]}, "properties": {"osm_id": 1254783156, "building": "retail", "name": "", "height": null, "height_m": null, "levels": null, "tract_id": "40123089100", "tract_name": "891", "tags": {"building": "retail", "shop": "storage_rental"}}}, {"type": "Feature", "geometry": {"type": "Polygon", "coordinates": [[[-96.6829167, 34.789043], [-96.6819014, 34.7890335], [-96.6819007, 34.7890886], [-96.6829159, 34.7890981], [-96.6829167, 34.789043]]]}, "properties": {"osm_id": 1254783157, "building": "warehouse", "name": "", "height": null, "height_m": null, "levels": null, "tract_id": "40123089100", "tract_name": "891", "tags": {"building": "warehouse"}}}, {"type": "Feature", "geometry": {"type": "Polygon", "coordinates": [[[-96.6819479, 34.7892448], [-96.6819474, 34.7892999], [-96.6829157, 34.7893058], [-96.6829162, 34.7892508], [-96.6819479, 34.7892448]]]}, "properties": {"osm_id": 1254783158, "building": "warehouse", "name": "", "height": null, "height_m": null, "levels": null, "tract_id": "40123089100", "tract_name": "891", "tags": {"building": "warehouse"}}}, {"type": "Feature", "geometry": {"type": "Polygon", "coordinates": [[[-96.6835937, 34.7892262], [-96.6836, 34.7890557], [-96.6831808, 34.7890453], [-96.6831729, 34.7892588], [-96.6833376, 34.7892629], [-96.6833392, 34.7892199], [-96.6835937, 34.7892262]]]}, "properties": {"osm_id": 1254783159, "building": "industrial", "name": "", "height": null, "height_m": null, "levels": null, "tract_id": "40123089100", "tract_name": "891", "tags": {"building": "industrial", "shop": "yes"}}}, {"type": "Feature", "geometry": {"type": "Polygon", "coordinates": [[[-96.69761, 34.7735232], [-96.6978072, 34.7732654], [-96.6978943, 34.7733104], [-96.6976972, 34.7735682], [-96.69761, 34.7735232]]]}, "properties": {"osm_id": 1255062091, "building": "roof", "name": "", "height": null, "height_m": null, "levels": null, "tract_id": "40123089100", "tract_name": "891", "tags": {"building": "roof"}}}, {"type": "Feature", "geometry": {"type": "Polygon", "coordinates": [[[-96.698002, 34.7734549], [-96.6981343, 34.7735206], [-96.6981866, 34.7735463], [-96.6983203, 34.773363], [-96.6981353, 34.773272], [-96.698002, 34.7734549]]]}, "properties": {"osm_id": 1255062092, "building": "retail", "name": "Chickasaw Travel Stop", "height": null, "height_m": null, "levels": null, "tract_id": "40123089100", "tract_name": "891", "tags": {"amenity": "casino", "building": "retail", "name": "Chickasaw Travel Stop", "source": "microsoft/BuildingFootprints"}}}, {"type": "Feature", "geometry": {"type": "Polygon", "coordinates": [[[-96.6967354, 34.7751846], [-96.6964889, 34.7751778], [-96.696487, 34.7752263], [-96.696428, 34.7752246], [-96.6964235, 34.7753347], [-96.6964557, 34.7753356], [-96.6964514, 34.7754412], [-96.6965157, 34.775443], [-96.6965142, 34.7754792], [-96.6966857, 34.7754839], [-96.6966873, 34.7754433], [-96.6967677, 34.7754455], [-96.6967764, 34.775232], [-96.696838, 34.7752337], [-96.6968401, 34.7751831], [-96.6970758, 34.7751896], [-96.6970786, 34.7751213], [-96.6969313, 34.7751173], [-96.6969372, 34.7749717], [-96.6967469, 34.7749036], [-96.6967354, 34.7751846]]]}, "properties": {"osm_id": 1255062093, "building": "industrial", "name": "", "height": null, "height_m": null, "levels": null, "tract_id": "40123089100", "tract_name": "891", "tags": {"building": "industrial", "shop": "agrarian", "source": "microsoft/BuildingFootprints"}}}, {"type": "Feature", "geometry": {"type": "Polygon", "coordinates": [[[-96.6981343, 34.7735206], [-96.698002, 34.7734549], [-96.6978089, 34.7737195], [-96.6978552, 34.7737423], [-96.6978793, 34.7737093], [-96.6979657, 34.7737518], [-96.6981343, 34.7735206]]]}, "properties": {"osm_id": 1255062094, "building": "retail", "name": "Chickasaw Travel Stop", "height": null, "height_m": null, "levels": null, "tract_id": "40123089100", "tract_name": "891", "tags": {"building": "retail", "name": "Chickasaw Travel Stop", "shop": "convenience", "source": "microsoft/BuildingFootprints"}}}, {"type": "Feature", "geometry": {"type": "Polygon", "coordinates": [[[-96.6741404, 34.7875411], [-96.6729353, 34.7875934], [-96.6729919, 34.7885352], [-96.6741953, 34.7884785], [-96.6741404, 34.7875411]]]}, "properties": {"osm_id": 1258651042, "building": "yes", "name": "", "height": null, "height_m": null, "levels": null, "tract_id": "40123089100", "tract_name": "891", "tags": {"building": "yes"}}}, {"type": "Feature", "geometry": {"type": "Polygon", "coordinates": [[[-96.6736354, 34.7851686], [-96.6727969, 34.7851704], [-96.6727987, 34.7857222], [-96.6736372, 34.7857203], [-96.6736354, 34.7851686]]]}, "properties": {"osm_id": 1258651049, "building": "yes", "name": "", "height": null, "height_m": null, "levels": null, "tract_id": "40123089100", "tract_name": "891", "tags": {"building": "yes"}}}]}