{"type": "FeatureCollection", "features": [{"type": "Feature", "geometry": {"type": "Polygon", "coordinates": [[[-95.872476, 35.9634159], [-95.872431, 35.9634159], [-95.8724303, 35.9634333], [-95.8723214, 35.9634326], [-95.8723214, 35.9634146], [-95.8722816, 35.9634146], [-95.8722807, 35.9633136], [-95.8723913, 35.9633136], [-95.8723913, 35.9632964], [-95.8724772, 35.9632964], [-95.872476, 35.9634159]]]}, "properties": {"osm_id": 192563388, "building": "house", "name": "", "height": null, "height_m": null, "levels": null, "tract_id": "40143007655", "tract_name": "76.55", "tags": {"building": "house"}}}, {"type": "Feature", "geometry": {"type": "Polygon", "coordinates": [[[-95.8913215, 35.9705744], [-95.8912709, 35.9705744], [-95.8912709, 35.9703542], [-95.8913215, 35.9703542], [-95.8913215, 35.9705744]]]}, "properties": {"osm_id": 193981109, "building": "yes", "name": "", "height": null, "height_m": null, "levels": null, "tract_id": "40143007655", "tract_name": "76.55", "tags": {"addr:city": "Bixby", "addr:country": "US", "addr:housenumber": "7612", "addr:postcode": "74008", "addr:state": "OK", "addr:street": "East 133rd Place South", "building": "yes"}}}, {"type": "Feature", "geometry": {"type": "Polygon", "coordinates": [[[-95.8887015, 35.969697], [-95.8886963, 35.9693542], [-95.8887545, 35.9693536], [-95.8887433, 35.9691317], [-95.8883764, 35.9691367], [-95.8883783, 35.9692293], [-95.8881691, 35.9692321], [-95.8881727, 35.9694734], [-95.8882707, 35.9694722], [-95.8882763, 35.9697617], [-95.8885119, 35.9697594], [-95.8885109, 35.9696989], [-95.8887015, 35.969697]]]}, "properties": {"osm_id": 236990187, "building": "yes", "name": "Daily family YMCA", "height": null, "height_m": null, "levels": null, "tract_id": "40143007655", "tract_name": "76.55", "tags": {"building": "yes", "leisure": "sports_centre", "name": "Daily family YMCA", "source": "http://www.ymcatulsa.org/locations/daily-family", "sport": "athletics"}}}, {"type": "Feature", "geometry": {"type": "Polygon", "coordinates": [[[-95.8874205, 35.9726414], [-95.8876374, 35.9726423], [-95.8876356, 35.972954], [-95.8874187, 35.9729531], [-95.8874205, 35.9726414]]]}, "properties": {"osm_id": 632343784, "building": "yes", "name": "Maverik", "height": null, "height_m": null, "levels": null, "tract_id": "40143007655", "tract_name": "76.55", "tags": {"brand": "Maverik", "brand:wikidata": "Q64149010", "building": "yes", "name": "Maverik", "opening_hours": "24/7", "shop": "convenience", "website": "https://www.maverik.com/"}}}, {"type": "Feature", "geometry": {"type": "Polygon", "coordinates": [[[-95.8871987, 35.9730371], [-95.8870318, 35.9730365], [-95.8870335, 35.972699], [-95.8872004, 35.9726996], [-95.8871987, 35.9730371]]]}, "properties": {"osm_id": 632343785, "building": "roof", "name": "Maverik", "height": null, "height_m": null, "levels": null, "tract_id": "40143007655", "tract_name": "76.55", "tags": {"amenity": "fuel", "brand": "Maverik", "brand:wikidata": "Q64149010", "building": "roof", "name": "Maverik", "opening_hours": "24/7", "website": "https://www.maverik.com/"}}}, {"type": "Feature", "geometry": {"type": "Polygon", "coordinates": [[[-95.8879347, 35.9625387], [-95.8879372, 35.9624991], [-95.8878598, 35.9624959], [-95.8878573, 35.9625355], [-95.8879347, 35.9625387]]]}, "properties": {"osm_id": 716889381, "building": "yes", "name": "", "height": null, "height_m": null, "levels": null, "tract_id": "40143007655", "tract_name": "76.55", "tags": {"amenity": "shelter", "building": "yes", "shelter_type": "picnic_shelter"}}}, {"type": "Feature", "geometry": {"type": "Polygon", "coordinates": [[[-95.8898068, 35.9633232], [-95.8898201, 35.9632811], [-95.8897484, 35.9632662], [-95.8897351, 35.9633083], [-95.8898068, 35.9633232]]]}, "properties": {"osm_id": 716889382, "building": "yes", "name": "", "height": null, "height_m": null, "levels": null, "tract_id": "40143007655", "tract_name": "76.55", "tags": {"amenity": "shelter", "building": "yes", "shelter_type": "picnic_shelter"}}}, {"type": "Feature", "geometry": {"type": "Polygon", "coordinates": [[[-95.8884981, 35.9631635], [-95.88853, 35.9630846], [-95.8884396, 35.9630607], [-95.8884185, 35.963113], [-95.8884078, 35.9631396], [-95.8884981, 35.9631635]]]}, "properties": {"osm_id": 716889386, "building": "yes", "name": "", "height": null, "height_m": null, "levels": null, "tract_id": "40143007655", "tract_name": "76.55", "tags": {"amenity": "toilets", "building": "yes"}}}, {"type": "Feature", "geometry": {"type": "Polygon", "coordinates": [[[-95.8884981, 35.9631635], [-95.8885701, 35.9631823], [-95.888603, 35.9631049], [-95.88853, 35.9630846], [-95.8884981, 35.9631635]]]}, "properties": {"osm_id": 716889387, "building": "yes", "name": "", "height": null, "height_m": null, "levels": null, "tract_id": "40143007655", "tract_name": "76.55", "tags": {"amenity": "shelter", "building": "yes", "shelter_type": "picnic_shelter"}}}, {"type": "Feature", "geometry": {"type": "Polygon", "coordinates": [[[-95.8820342, 35.9667365], [-95.8819999, 35.966709], [-95.8819647, 35.9667378], [-95.881999, 35.9667653], [-95.8820342, 35.9667365]]]}, "properties": {"osm_id": 733632283, "building": "yes", "name": "", "height": null, "height_m": null, "levels": null, "tract_id": "40143007655", "tract_name": "76.55", "tags": {"amenity": "shelter", "building": "yes", "shelter_type": "picnic_shelter"}}}, {"type": "Feature", "geometry": {"type": "Polygon", "coordinates": [[[-95.8819993, 35.966689], [-95.8819647, 35.9667147], [-95.8819317, 35.9666856], [-95.8819663, 35.9666599], [-95.8819993, 35.966689]]]}, "properties": {"osm_id": 733632284, "building": "yes", "name": "", "height": null, "height_m": null, "levels": null, "tract_id": "40143007655", "tract_name": "76.55", "tags": {"amenity": "shelter", "building": "yes", "shelter_type": "picnic_shelter"}}}, {"type": "Feature", "geometry": {"type": "Polygon", "coordinates": [[[-95.8856598, 35.9678733], [-95.8856604, 35.9679257], [-95.8856609, 35.9679627], [-95.885846, 35.9679612], [-95.8858433, 35.9677514], [-95.8856582, 35.967753], [-95.8856588, 35.9677971], [-95.8856595, 35.9678522], [-95.8856598, 35.9678733]]]}, "properties": {"osm_id": 733632785, "building": "yes", "name": "TTCU Federal Credit Union", "height": null, "height_m": null, "levels": null, "tract_id": "40143007655", "tract_name": "76.55", "tags": {"addr:city": "Bixby", "addr:country": "US", "addr:housenumber": "13475", "addr:postcode": "74008", "addr:state": "OK", "addr:street": "South Memorial Drive East", "amenity": "bank", "building": "yes", "name": "TTCU Federal Credit Union", "old_name": "Tulsa Teacher's Credit Union", "source": "INCOG"}}}, {"type": "Feature", "geometry": {"type": "Polygon", "coordinates": [[[-95.8979378, 35.9666825], [-95.8979476, 35.9666421], [-95.8977478, 35.9666103], [-95.897738, 35.9666506], [-95.8979378, 35.9666825]]]}, "properties": {"osm_id": 846295914, "building": "yes", "name": "", "height": null, "height_m": null, "levels": null, "tract_id": "40143007655", "tract_name": "76.55", "tags": {"building": "yes"}}}, {"type": "Feature", "geometry": {"type": "Polygon", "coordinates": [[[-95.8958969, 35.9661979], [-95.8959106, 35.9661377], [-95.8958346, 35.9661264], [-95.895821, 35.9661866], [-95.8958969, 35.9661979]]]}, "properties": {"osm_id": 846295916, "building": "yes", "name": "", "height": null, "height_m": null, "levels": null, "tract_id": "40143007655", "tract_name": "76.55", "tags": {"building": "yes"}}}, {"type": "Feature", "geometry": {"type": "Polygon", "coordinates": [[[-95.8980052, 35.966552], [-95.8980144, 35.9665223], [-95.8979805, 35.9665154], [-95.8979713, 35.9665452], [-95.8980052, 35.966552]]]}, "properties": {"osm_id": 846299002, "building": "yes", "name": "", "height": null, "height_m": null, "levels": null, "tract_id": "40143007655", "tract_name": "76.55", "tags": {"building": "yes"}}}, {"type": "Feature", "geometry": {"type": "Polygon", "coordinates": [[[-95.9018002, 35.9697625], [-95.9016692, 35.9699204], [-95.901629, 35.9698986], [-95.9016174, 35.9699127], [-95.901558, 35.9698804], [-95.901575, 35.9698598], [-95.9014741, 35.9698049], [-95.9015853, 35.9696709], [-95.9016214, 35.9696906], [-95.9016358, 35.9696732], [-95.9018002, 35.9697625]]]}, "properties": {"osm_id": 986208745, "building": "yes", "name": "", "height": null, "height_m": null, "levels": null, "tract_id": "40143007655", "tract_name": "76.55", "tags": {"building": "yes"}}}, {"type": "Feature", "geometry": {"type": "Polygon", "coordinates": [[[-95.9020752, 35.9698872], [-95.9019235, 35.9700474], [-95.9018427, 35.9699973], [-95.901831, 35.9700098], [-95.9017792, 35.9699777], [-95.9017585, 35.9699995], [-95.9017034, 35.9699654], [-95.9017823, 35.969882], [-95.9018162, 35.969903], [-95.9018885, 35.9698267], [-95.9019645, 35.9698739], [-95.9019975, 35.9698391], [-95.9020752, 35.9698872]]]}, "properties": {"osm_id": 986208746, "building": "yes", "name": "", "height": null, "height_m": null, "levels": null, "tract_id": "40143007655", "tract_name": "76.55", "tags": {"building": "yes"}}}, {"type": "Feature", "geometry": {"type": "Polygon", "coordinates": [[[-95.9022603, 35.9700393], [-95.9021149, 35.9702042], [-95.9019421, 35.9701042], [-95.902091, 35.9699355], [-95.9021465, 35.9699676], [-95.9021267, 35.9699901], [-95.9021795, 35.9700206], [-95.9021959, 35.9700021], [-95.9022603, 35.9700393]]]}, "properties": {"osm_id": 986208747, "building": "yes", "name": "", "height": null, "height_m": null, "levels": null, "tract_id": "40143007655", "tract_name": "76.55", "tags": {"building": "yes"}}}, {"type": "Feature", "geometry": {"type": "Polygon", "coordinates": [[[-95.9024998, 35.9701701], [-95.9023439, 35.9703459], [-95.9022593, 35.9702967], [-95.902274, 35.9702802], [-95.9021891, 35.9702309], [-95.9023317, 35.97007], [-95.9023702, 35.9700924], [-95.9023539, 35.9701107], [-95.9024245, 35.9701517], [-95.9024393, 35.970135], [-95.9024998, 35.9701701]]]}, "properties": {"osm_id": 986208748, "building": "yes", "name": "", "height": null, "height_m": null, "levels": null, "tract_id": "40143007655", "tract_name": "76.55", "tags": {"building": "yes"}}}, {"type": "Feature", "geometry": {"type": "Polygon", "coordinates": [[[-95.9014206, 35.9697393], [-95.9013514, 35.9697218], [-95.901346, 35.9697357], [-95.901268, 35.969716], [-95.9012735, 35.9697019], [-95.9012408, 35.9696936], [-95.9013116, 35.9695102], [-95.9014443, 35.9695438], [-95.9014383, 35.9695593], [-95.9014855, 35.9695712], [-95.9014206, 35.9697393]]]}, "properties": {"osm_id": 986208749, "building": "yes", "name": "", "height": null, "height_m": null, "levels": null, "tract_id": "40143007655", "tract_name": "76.55", "tags": {"building": "yes"}}}, {"type": "Feature", "geometry": {"type": "Polygon", "coordinates": [[[-95.9010885, 35.9699257], [-95.9008636, 35.9699257], [-95.9008636, 35.9699479], [-95.9008384, 35.9699479], [-95.9008384, 35.9699979], [-95.9008635, 35.9699979], [-95.9008635, 35.9700255], [-95.9008356, 35.9700255], [-95.9008355, 35.9700867], [-95.9010731, 35.9700868], [-95.9010732, 35.9700451], [-95.9010377, 35.9700451], [-95.9010377, 35.9700122], [-95.9010592, 35.9700122], [-95.9010592, 35.9699738], [-95.9010885, 35.9699738], [-95.9010885, 35.9699257]]]}, "properties": {"osm_id": 986208750, "building": "yes", "name": "", "height": null, "height_m": null, "levels": null, "tract_id": "40143007655", "tract_name": "76.55", "tags": {"building": "yes"}}}, {"type": "Feature", "geometry": {"type": "Polygon", "coordinates": [[[-95.9010211, 35.9703263], [-95.9008419, 35.9703282], [-95.9008413, 35.9702968], [-95.9008241, 35.970297], [-95.9008225, 35.9702177], [-95.9008573, 35.9702172], [-95.9008563, 35.9701683], [-95.9008687, 35.9701643], [-95.9008687, 35.9701523], [-95.9011163, 35.970153], [-95.9011161, 35.9702087], [-95.9010843, 35.9702086], [-95.9010842, 35.9702651], [-95.9010671, 35.9702651], [-95.9010673, 35.9703024], [-95.9010442, 35.9703024], [-95.9010443, 35.9703117], [-95.9010209, 35.9703118], [-95.9010211, 35.9703263]]]}, "properties": {"osm_id": 986208751, "building": "yes", "name": "", "height": null, "height_m": null, "levels": null, "tract_id": "40143007655", "tract_name": "76.55", "tags": {"building": "yes"}}}, {"type": "Feature", "geometry": {"type": "Polygon", "coordinates": [[[-95.9020639, 35.9706566], [-95.9019797, 35.9706682], [-95.9019731, 35.970637], [-95.9019367, 35.970642], [-95.9019167, 35.9705469], [-95.9019443, 35.9705431], [-95.9019338, 35.9704935], [-95.9020332, 35.9704798], [-95.9020441, 35.9705313], [-95.9020625, 35.9705288], [-95.9020668, 35.9705494], [-95.9020853, 35.9705469], [-95.9020969, 35.9706015], [-95.9020778, 35.9706042], [-95.9020808, 35.9706184], [-95.9020566, 35.9706217], [-95.9020639, 35.9706566]]]}, "properties": {"osm_id": 986208752, "building": "yes", "name": "", "height": null, "height_m": null, "levels": null, "tract_id": "40143007655", "tract_name": "76.55", "tags": {"building": "yes"}}}, {"type": "Feature", "geometry": {"type": "Polygon", "coordinates": [[[-95.8856683, 35.9696908], [-95.885746, 35.9696899], [-95.8857451, 35.9696369], [-95.8856673, 35.9696378], [-95.8856683, 35.9696908]]]}, "properties": {"osm_id": 1184725151, "building": "yes", "name": "", "height": null, "height_m": null, "levels": null, "tract_id": "40143007655", "tract_name": "76.55", "tags": {"building": "yes", "source": "microsoft/BuildingFootprints"}}}, {"type": "Feature", "geometry": {"type": "Polygon", "coordinates": [[[-95.8870417, 35.9697309], [-95.8870385, 35.9698428], [-95.8871913, 35.9698457], [-95.8871945, 35.9697338], [-95.8870417, 35.9697309]]]}, "properties": {"osm_id": 1184725152, "building": "detached", "name": "Whirlwind Roofing & Construction", "height": null, "height_m": null, "levels": null, "tract_id": "40143007655", "tract_name": "76.55", "tags": {"addr:city": "Bixby", "addr:country": "US", "addr:housenumber": "13402", "addr:postcode": "74008", "addr:state": "OK", "addr:street": "South Memorial Drive East", "building": "detached", "craft": "roofer", "name": "Whirlwind Roofing & Construction", "source": "microsoft/BuildingFootprints;INCOG"}}}, {"type": "Feature", "geometry": {"type": "Polygon", "coordinates": [[[-95.887063, 35.9696891], [-95.8872641, 35.9696861], [-95.8872607, 35.9695385], [-95.887169, 35.9695399], [-95.8870472, 35.9695417], [-95.8870497, 35.9696502], [-95.8870621, 35.9696501], [-95.887063, 35.9696891]]]}, "properties": {"osm_id": 1184725153, "building": "detached", "name": "Bixby Vision Clinic", "height": null, "height_m": null, "levels": null, "tract_id": "40143007655", "tract_name": "76.55", "tags": {"addr:city": "Bixby", "addr:country": "US", "addr:housenumber": "13404", "addr:postcode": "74008", "addr:state": "OK", "addr:street": "South Memorial Drive East", "building": "detached", "healthcare": "optometrist", "name": "Bixby Vision Clinic", "source": "microsoft/BuildingFootprints;INCOG"}}}, {"type": "Feature", "geometry": {"type": "Polygon", "coordinates": [[[-95.8872544, 35.9693412], [-95.887251, 35.9691676], [-95.8869748, 35.9691711], [-95.8869782, 35.9693447], [-95.8872544, 35.9693412]]]}, "properties": {"osm_id": 1184725154, "building": "yes", "name": "", "height": null, "height_m": null, "levels": null, "tract_id": "40143007655", "tract_name": "76.55", "tags": {"addr:city": "Bixby", "addr:country": "US", "addr:housenumber": "13406", "addr:postcode": "74008", "addr:state": "OK", "addr:street": "South Memorial Drive East", "building": "yes", "shop": "yes", "source": "microsoft/BuildingFootprints;INCOG"}}}, {"type": "Feature", "geometry": {"type": "Polygon", "coordinates": [[[-95.885739, 35.9694751], [-95.8859257, 35.9694728], [-95.8859242, 35.9693934], [-95.8861182, 35.969391], [-95.8861155, 35.9692468], [-95.8857347, 35.9692516], [-95.885739, 35.9694751]]]}, "properties": {"osm_id": 1184725155, "building": "yes", "name": "Rivercrest", "height": null, "height_m": null, "levels": null, "tract_id": "40143007655", "tract_name": "76.55", "tags": {"addr:city": "Bixby", "addr:country": "US", "addr:housenumber": "13329", "addr:postcode": "74008", "addr:state": "OK", "addr:street": "South Memorial Drive East", "building": "yes", "name": "Rivercrest", "shop": "funeral_directors", "source": "microsoft/BuildingFootprints;INCOG"}}}, {"type": "Feature", "geometry": {"type": "Polygon", "coordinates": [[[-95.8860374, 35.9696281], [-95.8858598, 35.9696272], [-95.8858579, 35.9698863], [-95.8859483, 35.9698867], [-95.8859479, 35.9699404], [-95.8860356, 35.9699408], [-95.8860367, 35.9697978], [-95.8860534, 35.9697979], [-95.8860541, 35.9697141], [-95.8860368, 35.9697141], [-95.8860374, 35.9696281]]]}, "properties": {"osm_id": 1184725156, "building": "yes", "name": "", "height": null, "height_m": null, "levels": null, "tract_id": "40143007655", "tract_name": "76.55", "tags": {"addr:city": "Bixby", "addr:country": "US", "addr:housenumber": "13307", "addr:postcode": "74008", "addr:state": "OK", "addr:street": "South Memorial Drive East", "building": "yes", "shop": "yes", "source": "microsoft/BuildingFootprints;INCOG"}}}, {"type": "Feature", "geometry": {"type": "Polygon", "coordinates": [[[-95.8858197, 35.9674079], [-95.8858176, 35.9673329], [-95.8858471, 35.9673323], [-95.8858451, 35.9672564], [-95.8858209, 35.9672568], [-95.8858189, 35.9671809], [-95.8854168, 35.967188], [-95.8854149, 35.9671186], [-95.8853237, 35.9671202], [-95.8853317, 35.9674165], [-95.8858197, 35.9674079]]]}, "properties": {"osm_id": 1184725157, "building": "yes", "name": "Goodwill", "height": null, "height_m": null, "levels": null, "tract_id": "40143007655", "tract_name": "76.55", "tags": {"addr:city": "Bixby", "addr:country": "US", "addr:housenumber": "13555", "addr:postcode": "74008", "addr:state": "OK", "addr:street": "South Memorial Drive East", "brand": "Goodwill", "brand:wikidata": "Q5583655", "building": "yes", "name": "Goodwill", "operator": "Goodwill Industries of Central Oklahoma", "operator:wikidata": "Q126846292", "shop": "charity", "source": "microsoft/BuildingFootprints;INCOG"}}}, {"type": "Feature", "geometry": {"type": "Polygon", "coordinates": [[[-95.8806835, 35.9735422], [-95.8806415, 35.9735429], [-95.8806418, 35.9735547], [-95.8806093, 35.9735552], [-95.880609, 35.9735434], [-95.8805717, 35.9735439], [-95.88057, 35.9734725], [-95.8806818, 35.9734707], [-95.8806835, 35.9735422]]]}, "properties": {"osm_id": 1357109381, "building": "house", "name": "New Generation Learning Academy", "height": null, "height_m": null, "levels": null, "tract_id": "40143007655", "tract_name": "76.55", "tags": {"addr:city": "Bixby", "addr:postcode": "74008", "amenity": "childcare", "building": "house", "name": "New Generation Learning Academy"}}}, {"type": "Feature", "geometry": {"type": "Polygon", "coordinates": [[[-95.8708875, 35.9731646], [-95.8708218, 35.9731646], [-95.8708218, 35.9731217], [-95.8708875, 35.9731217], [-95.8708875, 35.9731646]]]}, "properties": {"osm_id": 1357109382, "building": "shed", "name": "", "height": null, "height_m": null, "levels": null, "tract_id": "40143007655", "tract_name": "76.55", "tags": {"building": "shed"}}}, {"type": "Feature", "geometry": {"type": "Polygon", "coordinates": [[[-95.8704805, 35.9731831], [-95.8709083, 35.9731831], [-95.8709083, 35.9733507], [-95.8707701, 35.9733507], [-95.8707701, 35.9734028], [-95.8706655, 35.9734028], [-95.8706655, 35.9733507], [-95.8704805, 35.9733507], [-95.8704805, 35.9731831]]]}, "properties": {"osm_id": 1357109383, "building": "church", "name": "Calvary Lighthouse", "height": null, "height_m": null, "levels": null, "tract_id": "40143007655", "tract_name": "76.55", "tags": {"addr:city": "Bixby", "addr:postcode": "74008", "amenity": "place_of_worship", "building": "church", "name": "Calvary Lighthouse", "religion": "christian"}}}, {"type": "Feature", "geometry": {"type": "Polygon", "coordinates": [[[-95.8705361, 35.9735868], [-95.8705295, 35.9735725], [-95.8705138, 35.9735641], [-95.8704949, 35.9735647], [-95.8704801, 35.9735743], [-95.8704751, 35.973589], [-95.8704817, 35.9736033], [-95.8704975, 35.9736117], [-95.8705163, 35.973611], [-95.8705311, 35.9736015], [-95.8705361, 35.9735868]]]}, "properties": {"osm_id": 1357109384, "building": "silo", "name": "", "height": null, "height_m": null, "levels": null, "tract_id": "40143007655", "tract_name": "76.55", "tags": {"building": "silo"}}}, {"type": "Feature", "geometry": {"type": "Polygon", "coordinates": [[[-95.8860738, 35.9691091], [-95.8858332, 35.9691091], [-95.8858332, 35.9690195], [-95.8860738, 35.9690195], [-95.8860738, 35.9691091]]]}, "properties": {"osm_id": 1364918790, "building": "retail", "name": "Domino's", "height": null, "height_m": null, "levels": null, "tract_id": "40143007655", "tract_name": "76.55", "tags": {"addr:city": "Bixby", "addr:country": "US", "addr:housenumber": "13335", "addr:postcode": "74008", "addr:state": "OK", "addr:street": "South Memorial Drive East", "amenity": "fast_food", "brand": "Domino's", "brand:wikidata": "Q839466", "building": "retail", "cuisine": "pizza", "name": "Domino's", "takeaway": "yes"}}}, {"type": "Feature", "geometry": {"type": "Polygon", "coordinates": [[[-95.8856598, 35.9678733], [-95.8856335, 35.9678735], [-95.8856341, 35.9679259], [-95.8856604, 35.9679257], [-95.8856598, 35.9678733]]]}, "properties": {"osm_id": 1364918791, "building": "roof", "name": "", "height": null, "height_m": null, "levels": null, "tract_id": "40143007655", "tract_name": "76.55", "tags": {"amenity": "bank", "building": "roof", "layer": "1", "operator": "TTCU Federal Credit Union"}}}, {"type": "Feature", "geometry": {"type": "Polygon", "coordinates": [[[-95.8856588, 35.9677971], [-95.8854954, 35.9677984], [-95.8854948, 35.9677517], [-95.8854202, 35.9677523], [-95.8854228, 35.9679575], [-95.8854974, 35.9679569], [-95.8854961, 35.9678535], [-95.8856595, 35.9678522], [-95.8856588, 35.9677971]]]}, "properties": {"osm_id": 1364918792, "building": "roof", "name": "", "height": null, "height_m": null, "levels": null, "tract_id": "40143007655", "tract_name": "76.55", "tags": {"amenity": "bank", "building": "roof", "layer": "1", "operator": "TTCU Federal Credit Union"}}}, {"type": "Feature", "geometry": {"type": "Polygon", "coordinates": [[[-95.8860469, 35.973142], [-95.8855616, 35.9731422], [-95.8855612, 35.9725836], [-95.8858464, 35.9725834], [-95.8858466, 35.9729103], [-95.8860467, 35.9729102], [-95.8860469, 35.973142]]]}, "properties": {"osm_id": 1418126464, "building": "retail", "name": "South Plaza Center", "height": null, "height_m": null, "levels": null, "tract_id": "40143007655", "tract_name": "76.55", "tags": {"addr:city": "Bixby", "addr:country": "US", "addr:housenumber": "13161", "addr:postcode": "74008", "addr:state": "OK", "addr:street": "South Memorial Drive East", "building": "retail", "name": "South Plaza Center", "shop": "mall"}}}, {"type": "Feature", "geometry": {"type": "Polygon", "coordinates": [[[-95.8872784, 35.9734627], [-95.8871259, 35.9734634], [-95.8871246, 35.9732719], [-95.8872866, 35.9732712], [-95.8872867, 35.9732905], [-95.8873545, 35.9732902], [-95.8873551, 35.973388], [-95.8873093, 35.9733882], [-95.8873095, 35.9734257], [-95.8872781, 35.9734259], [-95.8872784, 35.9734627]]]}, "properties": {"osm_id": 1418140603, "building": "retail", "name": "Armstrong Bank", "height": null, "height_m": null, "levels": null, "tract_id": "40143007655", "tract_name": "76.55", "tags": {"addr:city": "Bixby", "addr:country": "US", "addr:housenumber": "13112", "addr:postcode": "74008", "addr:state": "OK", "addr:street": "South Memorial Drive East", "amenity": "bank", "building": "retail", "name": "Armstrong Bank"}}}, {"type": "Feature", "geometry": {"type": "Polygon", "coordinates": [[[-95.8871965, 35.9725764], [-95.8869914, 35.972577], [-95.8869908, 35.9724354], [-95.8871958, 35.9724347], [-95.8871965, 35.9725764]]]}, "properties": {"osm_id": 1418142745, "building": "detached", "name": "Twisted Soul Sisters", "height": null, "height_m": null, "levels": null, "tract_id": "40143007655", "tract_name": "76.55", "tags": {"addr:city": "Bixby", "addr:country": "US", "addr:housenumber": "13160", "addr:postcode": "74008", "addr:state": "OK", "addr:street": "South Memorial Drive East", "building": "detached", "name": "Twisted Soul Sisters", "shop": "clothes", "source": "INCOG"}}}, {"type": "Feature", "geometry": {"type": "Polygon", "coordinates": [[[-95.8876892, 35.9723166], [-95.8876974, 35.9720339], [-95.8875481, 35.9720311], [-95.8875439, 35.972177], [-95.8875004, 35.9721762], [-95.8875045, 35.9720373], [-95.8873727, 35.9720347], [-95.887366, 35.9722638], [-95.8875437, 35.9722672], [-95.8875423, 35.9723138], [-95.8876892, 35.9723166]]]}, "properties": {"osm_id": 1418142746, "building": "church", "name": "South Point Church", "height": null, "height_m": null, "levels": null, "tract_id": "40143007655", "tract_name": "76.55", "tags": {"addr:city": "Bixby", "addr:country": "US", "addr:housenumber": "13164", "addr:postcode": "74008", "addr:state": "OK", "addr:street": "South Memorial Drive East", "amenity": "place_of_worship", "building": "church", "name": "South Point Church", "religion": "christian", "source": "INCOG"}}}, {"type": "Feature", "geometry": {"type": "Polygon", "coordinates": [[[-95.8875015, 35.971493], [-95.887049, 35.9714942], [-95.8870496, 35.9716394], [-95.8875021, 35.9716382], [-95.8875015, 35.971493]]]}, "properties": {"osm_id": 1418142747, "building": "detached", "name": "East China Buffet", "height": null, "height_m": null, "levels": null, "tract_id": "40143007655", "tract_name": "76.55", "tags": {"addr:city": "Bixby", "addr:country": "US", "addr:housenumber": "13202", "addr:postcode": "74008", "addr:state": "OK", "addr:street": "South Memorial Drive East", "amenity": "restaurant", "building": "detached", "cuisine": "sushi;chinese", "name": "East China Buffet", "source": "INCOG"}}}, {"type": "Feature", "geometry": {"type": "Polygon", "coordinates": [[[-95.8876283, 35.9713344], [-95.8874202, 35.9713379], [-95.887416, 35.971169], [-95.887624, 35.9711655], [-95.8876283, 35.9713344]]]}, "properties": {"osm_id": 1418142748, "building": "retail", "name": "", "height": null, "height_m": null, "levels": null, "tract_id": "40143007655", "tract_name": "76.55", "tags": {"addr:city": "Bixby", "addr:country": "US", "addr:housenumber": "13288", "addr:postcode": "74008", "addr:state": "OK", "addr:street": "South Memorial Drive East", "building": "retail", "shop": "vacant"}}}, {"type": "Feature", "geometry": {"type": "Polygon", "coordinates": [[[-95.8872303, 35.970838], [-95.8872292, 35.9706629], [-95.8870448, 35.9706637], [-95.887046, 35.9708388], [-95.8872303, 35.970838]]]}, "properties": {"osm_id": 1418142749, "building": "office", "name": "Bixby Family Dentistry", "height": null, "height_m": null, "levels": null, "tract_id": "40143007655", "tract_name": "76.55", "tags": {"addr:city": "Bixby", "addr:country": "US", "addr:housenumber": "13302", "addr:postcode": "74008", "addr:state": "OK", "addr:street": "South Memorial Drive East", "amenity": "dentist", "building": "office", "healthcare": "dentist", "name": "Bixby Family Dentistry"}}}, {"type": "Feature", "geometry": {"type": "Polygon", "coordinates": [[[-95.8875922, 35.9704661], [-95.8872376, 35.9704671], [-95.8872379, 35.970523], [-95.8870385, 35.9705236], [-95.887037, 35.970199], [-95.8875911, 35.9701974], [-95.8875922, 35.9704661]]]}, "properties": {"osm_id": 1418142750, "building": "retail", "name": "Riverbend Shoppes", "height": null, "height_m": null, "levels": null, "tract_id": "40143007655", "tract_name": "76.55", "tags": {"addr:city": "Bixby", "addr:country": "US", "addr:housenumber": "13330", "addr:postcode": "74008", "addr:state": "OK", "addr:street": "South Memorial Drive East", "building": "retail", "name": "Riverbend Shoppes", "shop": "mall"}}}, {"type": "Feature", "geometry": {"type": "Polygon", "coordinates": [[[-95.885983, 35.9722149], [-95.8859816, 35.9720054], [-95.8862296, 35.9720044], [-95.8862304, 35.9721348], [-95.8861473, 35.9721352], [-95.8861478, 35.9722142], [-95.885983, 35.9722149]]]}, "properties": {"osm_id": 1431541611, "building": "yes", "name": "", "height": null, "height_m": null, "levels": null, "tract_id": "40143007655", "tract_name": "76.55", "tags": {"building": "yes"}}}, {"type": "Feature", "geometry": {"type": "Polygon", "coordinates": [[[-95.8861278, 35.9723609], [-95.8857697, 35.9723614], [-95.8857694, 35.972222], [-95.8861275, 35.9722215], [-95.8861278, 35.9723609]]]}, "properties": {"osm_id": 1431541612, "building": "yes", "name": "", "height": null, "height_m": null, "levels": null, "tract_id": "40143007655", "tract_name": "76.55", "tags": {"building": "yes"}}}, {"type": "Feature", "geometry": {"type": "Polygon", "coordinates": [[[-95.885574, 35.9733748], [-95.8858187, 35.9733723], [-95.8858171, 35.9732684], [-95.8855724, 35.9732709], [-95.885574, 35.9733748]]]}, "properties": {"osm_id": 1431541628, "building": "industrial", "name": "", "height": null, "height_m": null, "levels": null, "tract_id": "40143007655", "tract_name": "76.55", "tags": {"building": "industrial", "second_hand": "only", "shop": "car"}}}, {"type": "Feature", "geometry": {"type": "Polygon", "coordinates": [[[-95.8859161, 35.9732691], [-95.8861093, 35.9732685], [-95.8861101, 35.9734337], [-95.885917, 35.9734344], [-95.8859161, 35.9732691]]]}, "properties": {"osm_id": 1431541629, "building": "retail", "name": "Maverik", "height": null, "height_m": null, "levels": null, "tract_id": "40143007655", "tract_name": "76.55", "tags": {"addr:city": "Bixby", "addr:country": "US", "addr:housenumber": "13101", "addr:postcode": "74008", "addr:state": "OK", "addr:street": "South Memorial Drive East", "amenity": "fuel", "brand": "Maverik", "brand:wikidata": "Q64149010", "building": "retail", "name": "Maverik"}}}, {"type": "Feature", "geometry": {"type": "Polygon", "coordinates": [[[-95.8933362, 35.9707258], [-95.8933373, 35.970646], [-95.8933635, 35.9706463], [-95.8933642, 35.9705895], [-95.8935642, 35.9705912], [-95.893563, 35.9706858], [-95.8934676, 35.970685], [-95.893467, 35.9707269], [-95.8933362, 35.9707258]]]}, "properties": {"osm_id": 1431881337, "building": "yes", "name": "", "height": null, "height_m": null, "levels": null, "tract_id": "40143007655", "tract_name": "76.55", "tags": {"building": "yes"}}}, {"type": "Feature", "geometry": {"type": "Polygon", "coordinates": [[[-95.8941738, 35.9704713], [-95.8941147, 35.9704708], [-95.8941154, 35.9704203], [-95.8941744, 35.9704208], [-95.8941738, 35.9704713]]]}, "properties": {"osm_id": 1431881338, "building": "yes", "name": "", "height": null, "height_m": null, "levels": null, "tract_id": "40143007655", "tract_name": "76.55", "tags": {"building": "yes"}}}, {"type": "Feature", "geometry": {"type": "Polygon", "coordinates": [[[-95.8943642, 35.9704713], [-95.8942608, 35.9704704], [-95.8942623, 35.9703573], [-95.8943657, 35.9703582], [-95.8943642, 35.9704713]]]}, "properties": {"osm_id": 1431881339, "building": "yes", "name": "", "height": null, "height_m": null, "levels": null, "tract_id": "40143007655", "tract_name": "76.55", "tags": {"building": "yes"}}}, {"type": "Feature", "geometry": {"type": "Polygon", "coordinates": [[[-95.8948316, 35.9704572], [-95.8948325, 35.9703857], [-95.8945227, 35.970383], [-95.8945218, 35.9704544], [-95.8948316, 35.9704572]]]}, "properties": {"osm_id": 1431881340, "building": "static_caravan", "name": "", "height": null, "height_m": null, "levels": null, "tract_id": "40143007655", "tract_name": "76.55", "tags": {"building": "static_caravan"}}}, {"type": "Feature", "geometry": {"type": "Polygon", "coordinates": [[[-95.8952802, 35.970557], [-95.8950649, 35.9705543], [-95.8950662, 35.9704875], [-95.8951126, 35.9704881], [-95.895113, 35.9704684], [-95.895196, 35.9704694], [-95.8951957, 35.9704891], [-95.8952815, 35.9704902], [-95.8952802, 35.970557]]]}, "properties": {"osm_id": 1431881341, "building": "yes", "name": "", "height": null, "height_m": null, "levels": null, "tract_id": "40143007655", "tract_name": "76.55", "tags": {"addr:city": "Bixby", "addr:country": "US", "addr:housenumber": "13315", "addr:postcode": "74008", "addr:state": "OK", "addr:street": "South 73rd Avenue East", "building": "yes"}}}, {"type": "Feature", "geometry": {"type": "Polygon", "coordinates": [[[-95.886111, 35.9701267], [-95.886111, 35.9702797], [-95.8857704, 35.9702797], [-95.8857704, 35.9701267], [-95.886111, 35.9701267]]]}, "properties": {"osm_id": 1433683717, "building": "yes", "name": "", "height": null, "height_m": null, "levels": null, "tract_id": "40143007655", "tract_name": "76.55", "tags": {"building": "yes"}}}, {"type": "Feature", "geometry": {"type": "Polygon", "coordinates": [[[-95.8858696, 35.9703899], [-95.8860719, 35.9703908], [-95.8860699, 35.9706919], [-95.8860426, 35.9706918], [-95.8860424, 35.9707323], [-95.886075, 35.9707325], [-95.8860747, 35.9707741], [-95.8862486, 35.9707749], [-95.8862474, 35.970946], [-95.886128, 35.9709455], [-95.8861278, 35.9709819], [-95.8862027, 35.9710411], [-95.8862024, 35.9710905], [-95.8862358, 35.9710907], [-95.8862356, 35.9711176], [-95.8862026, 35.9711175], [-95.8862025, 35.9711263], [-95.8862139, 35.9711263], [-95.8862135, 35.9711736], [-95.8862022, 35.9711735], [-95.8862021, 35.9711848], [-95.8862352, 35.9711849], [-95.886235, 35.9712111], [-95.8861536, 35.9712107], [-95.886048, 35.9712985], [-95.8859903, 35.9712982], [-95.885928, 35.9712463], [-95.8858924, 35.9712759], [-95.8857692, 35.9711774], [-95.8857549, 35.9711773], [-95.8857552, 35.9711317], [-95.8857684, 35.9711318], [-95.8858148, 35.9710861], [-95.8857461, 35.9710329], [-95.8857471, 35.970894], [-95.885897, 35.9708947], [-95.8858971, 35.9708728], [-95.885772, 35.9708723], [-95.8857732, 35.9707032], [-95.8858455, 35.9707036], [-95.8858456, 35.9706828], [-95.8858676, 35.9706829], [-95.8858696, 35.9703899]]]}, "properties": {"osm_id": 1433683718, "building": "church", "name": "Riverview Baptist Church", "height": null, "height_m": null, "levels": null, "tract_id": "40143007655", "tract_name": "76.55", "tags": {"addr:city": "Bixby", "addr:country": "US", "addr:housenumber": "13201", "addr:postcode": "74008", "addr:state": "OK", "addr:street": "South Memorial Drive East", "amenity": "place_of_worship", "building": "church", "ele": "184", "gnis:feature_id": "1097238", "name": "Riverview Baptist Church", "religion": "christian"}}}]}