{"type": "FeatureCollection", "features": [{"type": "Feature", "geometry": {"type": "Polygon", "coordinates": [[[-95.9668494, 36.0509522], [-95.9666532, 36.0508119], [-95.9667555, 36.0507185], [-95.9669516, 36.0508588], [-95.9668494, 36.0509522]]]}, "properties": {"osm_id": 189296393, "building": "apartments", "name": "", "height": null, "height_m": 6.0, "levels": 2, "tract_id": "40143007641", "tract_name": "76.41", "tags": {"addr:city": "Tulsa", "addr:country": "US", "addr:housenumber": "7840", "addr:postcode": "74136", "addr:state": "OK", "addr:street": "South Utica Avenue East", "building": "apartments", "building:levels": "2", "roof:levels": "0"}}}, {"type": "Feature", "geometry": {"type": "Polygon", "coordinates": [[[-95.9597146, 36.0577306], [-95.9596312, 36.0578026], [-95.9594919, 36.0578017], [-95.9594313, 36.0577528], [-95.9593537, 36.0577528], [-95.9592657, 36.0576807], [-95.9592657, 36.0575625], [-95.9593502, 36.0574924], [-95.9594907, 36.0574914], [-95.9595616, 36.0575478], [-95.9596324, 36.0575459], [-95.9597169, 36.0576189], [-95.9597146, 36.0577306]]]}, "properties": {"osm_id": 193975581, "building": "office", "name": "", "height": null, "height_m": null, "levels": null, "tract_id": "40143007641", "tract_name": "76.41", "tags": {"addr:city": "Tulsa", "addr:country": "US", "addr:housenumber": "2250", "addr:postcode": "74136", "addr:state": "OK", "addr:street": "East 73rd Street", "building": "office"}}}, {"type": "Feature", "geometry": {"type": "Polygon", "coordinates": [[[-95.9616968, 36.0468156], [-95.9616968, 36.0483954], [-95.961485, 36.0483954], [-95.961485, 36.0484936], [-95.9614173, 36.0484936], [-95.9614173, 36.0485042], [-95.9614173, 36.0486885], [-95.9612321, 36.0486885], [-95.9612321, 36.0485069], [-95.9612321, 36.0484931], [-95.9609108, 36.0484931], [-95.9609108, 36.0486609], [-95.9608457, 36.0486609], [-95.9608457, 36.0488131], [-95.960409, 36.0488131], [-95.960409, 36.0486197], [-95.960409, 36.0484994], [-95.9605724, 36.0484994], [-95.9605724, 36.0481049], [-95.9603958, 36.0481049], [-95.9603958, 36.0480233], [-95.9603958, 36.0474183], [-95.9603958, 36.0473473], [-95.9605724, 36.0473473], [-95.9605724, 36.0470205], [-95.9607328, 36.0470205], [-95.9615751, 36.0470205], [-95.9615751, 36.0468156], [-95.9616968, 36.0468156]]]}, "properties": {"osm_id": 321204618, "building": "retail", "name": "Walmart Supercenter", "height": null, "height_m": 3.0, "levels": 1, "tract_id": "40143007641", "tract_name": "76.41", "tags": {"addr:city": "Tulsa", "addr:country": "US", "addr:housenumber": "2019", "addr:postcode": "74137", "addr:state": "OK", "addr:street": "East 81st Street South", "brand": "Walmart", "brand:wikidata": "Q483551", "building": "retail", "building:colour": "white", "building:levels": "1", "name": "Walmart Supercenter", "opening_hours": "24/7", "operator": "Walmart", "payment:app:walmart": "yes", "payment:apple_pay": "no", "payment:google_pay": "no", "payment:samsung_pay": "no", "phone": "+1 918-488-8791", "ref": "992", "ref:walmart": "992", "roof:levels": "0", "roof:shape": "flat", "sensory_friendly:accommodation": "dimmed_light;static_screens;no_pa", "sensory_friendly:conditional": "yes @ 08:00-10:00", "shop": "supermarket", "website": "https://www.walmart.com/store/992-tulsa-ok", "wheelchair": "yes"}}}, {"type": "Feature", "geometry": {"type": "Polygon", "coordinates": [[[-95.9582336, 36.0468011], [-95.9582335, 36.0467889], [-95.9582329, 36.0467211], [-95.9583455, 36.0467205], [-95.9583454, 36.0467116], [-95.9583877, 36.0467113], [-95.9583879, 36.0467335], [-95.9585418, 36.0467326], [-95.9585423, 36.0467894], [-95.9585423, 36.0467932], [-95.9583465, 36.0467943], [-95.9583466, 36.0468004], [-95.9582336, 36.0468011]]]}, "properties": {"osm_id": 324093528, "building": "yes", "name": "Sonic", "height": null, "height_m": null, "levels": null, "tract_id": "40143007641", "tract_name": "76.41", "tags": {"addr:city": "Tulsa", "addr:housenumber": "8030", "addr:postcode": "74136", "addr:state": "OK", "addr:street": "South Lewis Avenue East", "amenity": "fast_food", "brand": "Sonic", "brand:wikidata": "Q7561808", "building": "yes", "cuisine": "burger", "drive_in": "yes", "indoor_seating": "no", "name": "Sonic", "opening_hours": "Mo-Th 06:00-23:00; Fr-Sa 06:00-24:00; Su 07:00-23:00", "outdoor_seating": "veranda", "phone": "+1 918-492-3396", "smoking": "no", "takeaway": "yes", "website": "https://locations.sonicdrivein.com/ok/tulsa/8030-s.-lewis.html"}}}, {"type": "Feature", "geometry": {"type": "Polygon", "coordinates": [[[-95.9582335, 36.0467889], [-95.9582336, 36.0468011], [-95.9583466, 36.0468004], [-95.9583465, 36.0467943], [-95.9585423, 36.0467932], [-95.9585423, 36.0467894], [-95.9585711, 36.0467893], [-95.9585715, 36.046831], [-95.9581807, 36.0468332], [-95.9581803, 36.0467892], [-95.9582335, 36.0467889]]]}, "properties": {"osm_id": 324093544, "building": "roof", "name": "", "height": null, "height_m": null, "levels": null, "tract_id": "40143007641", "tract_name": "76.41", "tags": {"building": "roof", "layer": "1"}}}, {"type": "Feature", "geometry": {"type": "Polygon", "coordinates": [[[-95.9585739, 36.0469665], [-95.9581827, 36.0469665], [-95.9581827, 36.0469216], [-95.9585739, 36.0469216], [-95.9585739, 36.0469665]]]}, "properties": {"osm_id": 324093545, "building": "roof", "name": "", "height": null, "height_m": null, "levels": null, "tract_id": "40143007641", "tract_name": "76.41", "tags": {"building": "roof", "layer": "1"}}}, {"type": "Feature", "geometry": {"type": "Polygon", "coordinates": [[[-95.9595136, 36.0524933], [-95.9595286, 36.052481], [-95.9598971, 36.0521778], [-95.9600366, 36.0522884], [-95.9601318, 36.0522103], [-95.960301, 36.0520685], [-95.960388, 36.0519957], [-95.9604885, 36.0520802], [-95.9608506, 36.0517853], [-95.9606986, 36.0516637], [-95.9606079, 36.0515912], [-95.9603114, 36.051832], [-95.9602981, 36.0518428], [-95.9602569, 36.0518117], [-95.9600302, 36.0519988], [-95.9594599, 36.0515338], [-95.9590629, 36.0518547], [-95.959079, 36.0518677], [-95.9588886, 36.0520271], [-95.9590871, 36.0521908], [-95.9590723, 36.0522038], [-95.9592936, 36.0523871], [-95.9593338, 36.0523535], [-95.9595136, 36.0524933]]]}, "properties": {"osm_id": 334717638, "building": "yes", "name": "Victory Christian Center", "height": null, "height_m": null, "levels": null, "tract_id": "40143007641", "tract_name": "76.41", "tags": {"amenity": "place_of_worship", "building": "yes", "name": "Victory Christian Center", "religion": "christian"}}}, {"type": "Feature", "geometry": {"type": "Polygon", "coordinates": [[[-95.9595286, 36.052481], [-95.9595538, 36.0525005], [-95.9595622, 36.0524935], [-95.9597664, 36.0526564], [-95.9597181, 36.0526943], [-95.9603179, 36.0531776], [-95.9603282, 36.0531691], [-95.960702, 36.052862], [-95.9608081, 36.0527748], [-95.960793, 36.0527632], [-95.9608402, 36.0527252], [-95.9606528, 36.052577], [-95.9606401, 36.0525888], [-95.960518, 36.0524955], [-95.9606857, 36.0523546], [-95.9606562, 36.05233], [-95.9606448, 36.0523387], [-95.960301, 36.0520685], [-95.9601318, 36.0522103], [-95.9600366, 36.0522884], [-95.9598971, 36.0521778], [-95.9595286, 36.052481]]]}, "properties": {"osm_id": 334717639, "building": "school", "name": "Victory Christian School", "height": null, "height_m": 9.0, "levels": 3, "tract_id": "40143007641", "tract_name": "76.41", "tags": {"building": "school", "building:levels": "3", "name": "Victory Christian School", "wikidata": "Q7927480"}}}, {"type": "Feature", "geometry": {"type": "Polygon", "coordinates": [[[-95.9583737, 36.0478445], [-95.9582034, 36.0478452], [-95.9582021, 36.047612], [-95.9583724, 36.0476114], [-95.9583737, 36.0478445]]]}, "properties": {"osm_id": 438628532, "building": "yes", "name": "Murphy USA", "height": null, "height_m": null, "levels": null, "tract_id": "40143007641", "tract_name": "76.41", "tags": {"amenity": "fuel", "brand": "Murphy USA", "brand:wikidata": "Q19604459", "building": "yes", "check_date": "2025-04-03", "fuel:e10": "yes", "name": "Murphy USA", "opening_hours": "Su-Th 06:00-23:00; Fr,Sa 06:00-23:30", "payment:american_express": "yes", "payment:coins": "yes", "payment:cryptocurrencies": "no", "payment:diners_club": "yes", "payment:discover_card": "yes", "payment:mastercard": "yes", "payment:notes": "yes", "payment:visa": "yes", "payment:visa_debit": "yes", "wheelchair": "yes"}}}, {"type": "Feature", "geometry": {"type": "Polygon", "coordinates": [[[-95.9666687, 36.0473083], [-95.9665269, 36.0471234], [-95.9666086, 36.0470824], [-95.9667504, 36.0472673], [-95.9666687, 36.0473083]]]}, "properties": {"osm_id": 526896027, "building": "retail", "name": "Creek Nation Smoke Shop", "height": null, "height_m": 3.0, "levels": 1, "tract_id": "40143007641", "tract_name": "76.41", "tags": {"addr:city": "Tulsa", "addr:country": "US", "addr:housenumber": "1614", "addr:state": "OK", "addr:street": "Riverside Parkway", "building": "retail", "building:colour": "tan", "building:levels": "1", "check_date": "2024-06-12", "name": "Creek Nation Smoke Shop", "opening_hours": "Mo-Sa 08:00-20:00, Su 12:00-18:00", "payment:credit_cards": "yes", "payment:debit_cards": "no", "roof:colour": "red", "roof:levels": "0", "roof:shape": "gabled", "shop": "tobacco", "wheelchair": "yes"}}}, {"type": "Feature", "geometry": {"type": "Polygon", "coordinates": [[[-95.9584654, 36.0601618], [-95.9582394, 36.0603749], [-95.9581788, 36.0603329], [-95.9582096, 36.0603038], [-95.9581888, 36.0602893], [-95.9582036, 36.0602754], [-95.9581815, 36.0602601], [-95.9582182, 36.0602255], [-95.9581863, 36.0602033], [-95.9582039, 36.0601867], [-95.9581751, 36.0601668], [-95.9583011, 36.060048], [-95.9584654, 36.0601618]]]}, "properties": {"osm_id": 562096306, "building": "retail", "name": "Bank of America", "height": null, "height_m": 3.0, "levels": 1, "tract_id": "40143007641", "tract_name": "76.41", "tags": {"amenity": "bank", "brand": "Bank of America", "brand:wikidata": "Q487907", "building": "retail", "building:levels": "1", "name": "Bank of America", "opening_hours": "Mo-Th 09:00-16:00; Fr 09:00-17:00; Sa 09:00-12:00", "roof:levels": "0", "roof:shape": "hipped", "website": "https://locators.bankofamerica.com/ok/tulsa/financial-centers-tulsa-11711.html", "wheelchair": "yes"}}}, {"type": "Feature", "geometry": {"type": "Polygon", "coordinates": [[[-95.960429, 36.0603863], [-95.9601467, 36.0603879], [-95.9601458, 36.0602801], [-95.9604281, 36.0602785], [-95.960429, 36.0603863]]]}, "properties": {"osm_id": 562096311, "building": "roof", "name": "", "height": null, "height_m": null, "levels": null, "tract_id": "40143007641", "tract_name": "76.41", "tags": {"building": "roof", "layer": "1"}}}, {"type": "Feature", "geometry": {"type": "Polygon", "coordinates": [[[-95.9593762, 36.0587606], [-95.9594265, 36.0587996], [-95.9596478, 36.0587969], [-95.9596485, 36.0587557], [-95.9600703, 36.0583112], [-95.9600703, 36.0582114], [-95.9598731, 36.0582125], [-95.9598731, 36.0582478], [-95.9596445, 36.0584825], [-95.9593749, 36.0584836], [-95.9593762, 36.0587606]]]}, "properties": {"osm_id": 562096381, "building": "retail", "name": "", "height": null, "height_m": 3.0, "levels": 1, "tract_id": "40143007641", "tract_name": "76.41", "tags": {"building": "retail", "building:levels": "1", "roof:levels": "0"}}}, {"type": "Feature", "geometry": {"type": "Polygon", "coordinates": [[[-95.9593749, 36.0584836], [-95.9593742, 36.0583594], [-95.9593997, 36.0583394], [-95.9593454, 36.0582944], [-95.9592918, 36.0582499], [-95.9588733, 36.0582532], [-95.9587962, 36.0583144], [-95.9587969, 36.058412], [-95.9587674, 36.058412], [-95.958767, 36.0585112], [-95.9587667, 36.0585979], [-95.9587989, 36.0585985], [-95.9587989, 36.0586988], [-95.9588753, 36.0587617], [-95.9593762, 36.0587606], [-95.9593749, 36.0584836]]]}, "properties": {"osm_id": 562096383, "building": "retail", "name": "Office Depot", "height": null, "height_m": 3.0, "levels": 1, "tract_id": "40143007641", "tract_name": "76.41", "tags": {"addr:city": "Tulsa", "addr:housenumber": "7286", "addr:postcode": "74136", "addr:state": "OK", "addr:street": "South Lewis Avenue East", "brand": "Office Depot", "brand:wikidata": "Q1337797", "building": "retail", "building:levels": "1", "name": "Office Depot", "opening_hours": "Su 10:00-18:00; Mo-Fr 08:00-20:00; Sa 09:00-19:00", "phone": "+1 918-481-5755", "ref": "359", "roof:levels": "0", "roof:shape": "flat", "shop": "stationery", "website": "https://www.officedepot.com/storelocator/ok/tulsa/office-depot-359", "wheelchair": "yes"}}}, {"type": "Feature", "geometry": {"type": "Polygon", "coordinates": [[[-95.9612927, 36.0601485], [-95.9612934, 36.06017], [-95.9611512, 36.0601716], [-95.9611505, 36.0601304], [-95.9608501, 36.0601347], [-95.9606959, 36.0600095], [-95.9605511, 36.0600139], [-95.9604424, 36.0601017], [-95.9601192, 36.0601022], [-95.9599348, 36.0599556], [-95.9599258, 36.059964], [-95.9598909, 36.059938], [-95.9599325, 36.0599041], [-95.9599137, 36.0598881], [-95.9599321, 36.0598732], [-95.9598983, 36.0598453], [-95.9599288, 36.0598211], [-95.9599124, 36.0598079], [-95.9599315, 36.0597927], [-95.9599124, 36.0597772], [-95.9599486, 36.0597477], [-95.9599311, 36.0597336], [-95.9599995, 36.059678], [-95.9599439, 36.0596325], [-95.960027, 36.0595645], [-95.9602899, 36.0595637], [-95.9602922, 36.0593685], [-95.9601863, 36.0593677], [-95.9601816, 36.0592669], [-95.9602849, 36.0591802], [-95.9603331, 36.0591791], [-95.9603331, 36.0591341], [-95.9603901, 36.0590864], [-95.9607958, 36.0590887], [-95.9609205, 36.0589763], [-95.9609701, 36.0590164], [-95.9610453, 36.0589546], [-95.9611894, 36.0590712], [-95.9612598, 36.0590126], [-95.9613316, 36.0590701], [-95.961404, 36.0590116], [-95.9614771, 36.0590696], [-95.9615978, 36.0589736], [-95.9616742, 36.0590354], [-95.9616273, 36.0590744], [-95.9616923, 36.0591265], [-95.9618365, 36.0590067], [-95.9619083, 36.0590668], [-95.9619793, 36.0590056], [-95.9621295, 36.059127], [-95.9621282, 36.0593628], [-95.9621483, 36.0593623], [-95.9621631, 36.0600366], [-95.962155, 36.0600778], [-95.9621349, 36.0601082], [-95.962092, 36.0601353], [-95.9620491, 36.0601429], [-95.9612927, 36.0601485]]]}, "properties": {"osm_id": 562096386, "building": "commercial", "name": "", "height": null, "height_m": 6.0, "levels": 2, "tract_id": "40143007641", "tract_name": "76.41", "tags": {"building": "commercial", "building:levels": "2", "roof:levels": "0", "roof:shape": "flat"}}}, {"type": "Feature", "geometry": {"type": "Polygon", "coordinates": [[[-95.9590101, 36.0544737], [-95.9585945, 36.0544745], [-95.958594, 36.0543099], [-95.9583988, 36.0543104], [-95.9583974, 36.0538966], [-95.9586069, 36.0538962], [-95.9586071, 36.0539782], [-95.9590085, 36.0539792], [-95.9589095, 36.0540608], [-95.9590088, 36.0540606], [-95.9590101, 36.0544737]]]}, "properties": {"osm_id": 613962928, "building": "yes", "name": "Utica Park Clinic", "height": null, "height_m": null, "levels": null, "tract_id": "40143007641", "tract_name": "76.41", "tags": {"addr:city": "Tulsa", "addr:country": "US", "addr:housenumber": "7600", "addr:postcode": "74136", "addr:state": "OK", "addr:street": "South Lewis Avenue East", "amenity": "doctors", "building": "yes", "healthcare": "doctor", "name": "Utica Park Clinic", "opening_hours": "Mo-Fr 08:00-17:00", "phone": "+1 918 579 3627", "website": "https://uticaparkclinic.com/content/utica-park-clinic-76th-lewis"}}}, {"type": "Feature", "geometry": {"type": "Polygon", "coordinates": [[[-95.9588168, 36.048328], [-95.9588291, 36.0490347], [-95.9590252, 36.0490317], [-95.9590257, 36.0492216], [-95.9593803, 36.0492229], [-95.959379, 36.0487914], [-95.959182, 36.0487914], [-95.959178, 36.04841], [-95.9591021, 36.0484127], [-95.9590051, 36.0483281], [-95.9588168, 36.048328]]]}, "properties": {"osm_id": 680910203, "building": "hotel", "name": "Veteran Services USA", "height": null, "height_m": 36.0, "levels": 12, "tract_id": "40143007641", "tract_name": "76.41", "tags": {"building": "hotel", "building:colour": "beige", "building:levels": "12", "name": "Veteran Services USA", "old_name": "Crowne Plaza Hotel", "operator": "Radission Hotels", "roof:levels": "1", "roof:shape": "flat", "shop": "vacant"}}}, {"type": "Feature", "geometry": {"type": "Polygon", "coordinates": [[[-95.9665335, 36.055218], [-95.9665354, 36.0555515], [-95.9663582, 36.0555522], [-95.9663563, 36.0552186], [-95.9665335, 36.055218]]]}, "properties": {"osm_id": 857163866, "building": "yes", "name": "", "height": null, "height_m": null, "levels": null, "tract_id": "40143007641", "tract_name": "76.41", "tags": {"building": "yes"}}}, {"type": "Feature", "geometry": {"type": "Polygon", "coordinates": [[[-95.966526, 36.0556271], [-95.9664578, 36.0559561], [-95.9662831, 36.0559324], [-95.9663512, 36.0556034], [-95.966526, 36.0556271]]]}, "properties": {"osm_id": 857163867, "building": "yes", "name": "", "height": null, "height_m": null, "levels": null, "tract_id": "40143007641", "tract_name": "76.41", "tags": {"building": "yes"}}}, {"type": "Feature", "geometry": {"type": "Polygon", "coordinates": [[[-95.9670486, 36.0559435], [-95.9671025, 36.0563695], [-95.9669411, 36.0563828], [-95.9668871, 36.0559568], [-95.9670486, 36.0559435]]]}, "properties": {"osm_id": 857163868, "building": "yes", "name": "", "height": null, "height_m": null, "levels": null, "tract_id": "40143007641", "tract_name": "76.41", "tags": {"building": "yes"}}}, {"type": "Feature", "geometry": {"type": "Polygon", "coordinates": [[[-95.9664233, 36.0561133], [-95.9662179, 36.0564026], [-95.9660642, 36.0563313], [-95.9662695, 36.056042], [-95.9664233, 36.0561133]]]}, "properties": {"osm_id": 857163869, "building": "yes", "name": "", "height": null, "height_m": null, "levels": null, "tract_id": "40143007641", "tract_name": "76.41", "tags": {"building": "yes"}}}, {"type": "Feature", "geometry": {"type": "Polygon", "coordinates": [[[-95.9659475, 36.0557697], [-95.965947, 36.0556998], [-95.9658961, 36.0557001], [-95.9658966, 36.0557699], [-95.9659475, 36.0557697]]]}, "properties": {"osm_id": 857491544, "building": "yes", "name": "", "height": null, "height_m": null, "levels": null, "tract_id": "40143007641", "tract_name": "76.41", "tags": {"building": "yes"}}}, {"type": "Feature", "geometry": {"type": "Polygon", "coordinates": [[[-95.9658397, 36.0560899], [-95.9658492, 36.0560154], [-95.9657916, 36.0560106], [-95.9657821, 36.0560852], [-95.9658397, 36.0560899]]]}, "properties": {"osm_id": 857491546, "building": "yes", "name": "", "height": null, "height_m": null, "levels": null, "tract_id": "40143007641", "tract_name": "76.41", "tags": {"building": "yes"}}}, {"type": "Feature", "geometry": {"type": "Polygon", "coordinates": [[[-95.9662876, 36.0565981], [-95.9659922, 36.0565696], [-95.9660136, 36.0564252], [-95.966309, 36.0564537], [-95.9662876, 36.0565981]]]}, "properties": {"osm_id": 857491556, "building": "yes", "name": "", "height": null, "height_m": null, "levels": null, "tract_id": "40143007641", "tract_name": "76.41", "tags": {"building": "yes"}}}, {"type": "Feature", "geometry": {"type": "Polygon", "coordinates": [[[-95.9662424, 36.0569609], [-95.9660647, 36.0569779], [-95.9660162, 36.0566467], [-95.966194, 36.0566297], [-95.9662424, 36.0569609]]]}, "properties": {"osm_id": 857491557, "building": "yes", "name": "", "height": null, "height_m": null, "levels": null, "tract_id": "40143007641", "tract_name": "76.41", "tags": {"building": "yes"}}}, {"type": "Feature", "geometry": {"type": "Polygon", "coordinates": [[[-95.9672607, 36.0567503], [-95.9670828, 36.0567624], [-95.9670475, 36.0564218], [-95.9672255, 36.0564098], [-95.9672607, 36.0567503]]]}, "properties": {"osm_id": 857852822, "building": "yes", "name": "", "height": null, "height_m": null, "levels": null, "tract_id": "40143007641", "tract_name": "76.41", "tags": {"building": "yes"}}}, {"type": "Feature", "geometry": {"type": "Polygon", "coordinates": [[[-95.9670404, 36.0572392], [-95.9670424, 36.0568064], [-95.9672209, 36.056807], [-95.9672188, 36.0572398], [-95.9670404, 36.0572392]]]}, "properties": {"osm_id": 857852823, "building": "yes", "name": "", "height": null, "height_m": null, "levels": null, "tract_id": "40143007641", "tract_name": "76.41", "tags": {"building": "yes"}}}, {"type": "Feature", "geometry": {"type": "Polygon", "coordinates": [[[-95.9672453, 36.0573136], [-95.966857, 36.0573091], [-95.9668543, 36.0574641], [-95.9672425, 36.0574686], [-95.9672453, 36.0573136]]]}, "properties": {"osm_id": 857852824, "building": "yes", "name": "", "height": null, "height_m": null, "levels": null, "tract_id": "40143007641", "tract_name": "76.41", "tags": {"building": "yes"}}}, {"type": "Feature", "geometry": {"type": "Polygon", "coordinates": [[[-95.9671996, 36.0576514], [-95.9672045, 36.0575031], [-95.9668177, 36.0574948], [-95.9668128, 36.0576429], [-95.9671996, 36.0576514]]]}, "properties": {"osm_id": 857852825, "building": "yes", "name": "", "height": null, "height_m": null, "levels": null, "tract_id": "40143007641", "tract_name": "76.41", "tags": {"building": "yes"}}}, {"type": "Feature", "geometry": {"type": "Polygon", "coordinates": [[[-95.9668181, 36.0581063], [-95.9669933, 36.0581465], [-95.9671375, 36.0577355], [-95.9669623, 36.0576954], [-95.9668181, 36.0581063]]]}, "properties": {"osm_id": 859034200, "building": "yes", "name": "", "height": null, "height_m": null, "levels": null, "tract_id": "40143007641", "tract_name": "76.41", "tags": {"building": "yes"}}}, {"type": "Feature", "geometry": {"type": "Polygon", "coordinates": [[[-95.9664239, 36.0578111], [-95.9662876, 36.0577145], [-95.96608, 36.0579059], [-95.9660039, 36.0579761], [-95.9661402, 36.0580727], [-95.9664239, 36.0578111]]]}, "properties": {"osm_id": 859034203, "building": "yes", "name": "", "height": null, "height_m": null, "levels": null, "tract_id": "40143007641", "tract_name": "76.41", "tags": {"building": "yes"}}}, {"type": "Feature", "geometry": {"type": "Polygon", "coordinates": [[[-95.9664467, 36.0572645], [-95.9663011, 36.0573325], [-95.9660947, 36.0570435], [-95.9662404, 36.0569755], [-95.9664467, 36.0572645]]]}, "properties": {"osm_id": 859806184, "building": "yes", "name": "", "height": null, "height_m": null, "levels": null, "tract_id": "40143007641", "tract_name": "76.41", "tags": {"building": "yes"}}}, {"type": "Feature", "geometry": {"type": "Polygon", "coordinates": [[[-95.9664877, 36.0576894], [-95.9664832, 36.0573567], [-95.9663112, 36.0573582], [-95.9663156, 36.0576909], [-95.9664877, 36.0576894]]]}, "properties": {"osm_id": 859806185, "building": "yes", "name": "", "height": null, "height_m": null, "levels": null, "tract_id": "40143007641", "tract_name": "76.41", "tags": {"building": "yes"}}}, {"type": "Feature", "geometry": {"type": "Polygon", "coordinates": [[[-95.965854, 36.0575784], [-95.9657084, 36.0575127], [-95.9655011, 36.057813], [-95.9656468, 36.0578787], [-95.965854, 36.0575784]]]}, "properties": {"osm_id": 859806186, "building": "yes", "name": "", "height": null, "height_m": null, "levels": null, "tract_id": "40143007641", "tract_name": "76.41", "tags": {"building": "yes"}}}, {"type": "Feature", "geometry": {"type": "Polygon", "coordinates": [[[-95.9658612, 36.0573886], [-95.9658316, 36.0572593], [-95.9654357, 36.0573185], [-95.9654653, 36.0574478], [-95.9658612, 36.0573886]]]}, "properties": {"osm_id": 859806187, "building": "yes", "name": "", "height": null, "height_m": null, "levels": null, "tract_id": "40143007641", "tract_name": "76.41", "tags": {"building": "yes"}}}, {"type": "Feature", "geometry": {"type": "Polygon", "coordinates": [[[-95.9657073, 36.0570476], [-95.9653118, 36.0570973], [-95.9653384, 36.057236], [-95.965734, 36.0571863], [-95.9657073, 36.0570476]]]}, "properties": {"osm_id": 859806188, "building": "yes", "name": "", "height": null, "height_m": null, "levels": null, "tract_id": "40143007641", "tract_name": "76.41", "tags": {"building": "yes"}}}, {"type": "Feature", "geometry": {"type": "Polygon", "coordinates": [[[-95.9656449, 36.0566894], [-95.9654562, 36.0566901], [-95.9654577, 36.0569198], [-95.9656463, 36.0569191], [-95.9656449, 36.0566894]]]}, "properties": {"osm_id": 859806189, "building": "yes", "name": "", "height": null, "height_m": null, "levels": null, "tract_id": "40143007641", "tract_name": "76.41", "tags": {"building": "yes"}}}, {"type": "Feature", "geometry": {"type": "Polygon", "coordinates": [[[-95.966388, 36.056906], [-95.9663868, 36.0568629], [-95.9663338, 36.0568639], [-95.966335, 36.056907], [-95.966388, 36.056906]]]}, "properties": {"osm_id": 859806207, "building": "yes", "name": "", "height": null, "height_m": null, "levels": null, "tract_id": "40143007641", "tract_name": "76.41", "tags": {"building": "yes"}}}, {"type": "Feature", "geometry": {"type": "Polygon", "coordinates": [[[-95.9586386, 36.0575577], [-95.958119, 36.0575588], [-95.9581187, 36.0574655], [-95.9582122, 36.0574653], [-95.9582114, 36.0572135], [-95.9586673, 36.0572126], [-95.9586675, 36.0572796], [-95.9587338, 36.0572795], [-95.9587343, 36.0574545], [-95.958668, 36.0574547], [-95.9586682, 36.0575208], [-95.9586385, 36.0575208], [-95.9586386, 36.0575577]]]}, "properties": {"osm_id": 891400737, "building": "yes", "name": "", "height": null, "height_m": null, "levels": null, "tract_id": "40143007641", "tract_name": "76.41", "tags": {"building": "yes"}}}, {"type": "Feature", "geometry": {"type": "Polygon", "coordinates": [[[-95.958652, 36.0569288], [-95.9584804, 36.0569288], [-95.9584804, 36.0569099], [-95.9584676, 36.0569099], [-95.9584676, 36.056876], [-95.9584804, 36.056876], [-95.9584804, 36.056825], [-95.9584676, 36.056825], [-95.9584676, 36.0567914], [-95.9584817, 36.0567914], [-95.9584817, 36.0567603], [-95.9584676, 36.0567603], [-95.9584676, 36.0567134], [-95.9584801, 36.0567134], [-95.9584801, 36.0566643], [-95.9584676, 36.0566643], [-95.9584676, 36.0566307], [-95.9584804, 36.0566307], [-95.9584804, 36.0566128], [-95.958652, 36.0566128], [-95.958652, 36.0566318], [-95.9586648, 36.0566318], [-95.9586648, 36.056664], [-95.9586544, 36.056664], [-95.9586544, 36.0567166], [-95.9586648, 36.0567166], [-95.9586648, 36.0567586], [-95.9586514, 36.0567586], [-95.9586514, 36.0567903], [-95.9586648, 36.0567903], [-95.9586648, 36.0568239], [-95.95865, 36.0568239], [-95.95865, 36.0568779], [-95.9586648, 36.0568779], [-95.9586648, 36.0569061], [-95.958652, 36.0569061], [-95.958652, 36.0569288]]]}, "properties": {"osm_id": 891400746, "building": "yes", "name": "", "height": null, "height_m": null, "levels": null, "tract_id": "40143007641", "tract_name": "76.41", "tags": {"building": "yes"}}}, {"type": "Feature", "geometry": {"type": "Polygon", "coordinates": [[[-95.9590202, 36.0563764], [-95.9590214, 36.0565076], [-95.9589571, 36.056508], [-95.9589573, 36.0565199], [-95.9589173, 36.0565202], [-95.9589171, 36.0565086], [-95.9588575, 36.0565089], [-95.9588576, 36.0565205], [-95.9588185, 36.0565208], [-95.9588184, 36.0565089], [-95.9587565, 36.0565093], [-95.9587553, 36.0563781], [-95.9590202, 36.0563764]]]}, "properties": {"osm_id": 891400748, "building": "yes", "name": "", "height": null, "height_m": null, "levels": null, "tract_id": "40143007641", "tract_name": "76.41", "tags": {"building": "yes"}}}, {"type": "Feature", "geometry": {"type": "Polygon", "coordinates": [[[-95.9587238, 36.0563792], [-95.9587246, 36.0565093], [-95.9586691, 36.0565095], [-95.9586692, 36.0565219], [-95.9586253, 36.056522], [-95.9586252, 36.0565097], [-95.9585662, 36.0565099], [-95.9585663, 36.0565213], [-95.95852, 36.0565215], [-95.95852, 36.0565101], [-95.9584611, 36.0565104], [-95.9584603, 36.0563802], [-95.9587238, 36.0563792]]]}, "properties": {"osm_id": 891400749, "building": "yes", "name": "", "height": null, "height_m": null, "levels": null, "tract_id": "40143007641", "tract_name": "76.41", "tags": {"building": "yes"}}}, {"type": "Feature", "geometry": {"type": "Polygon", "coordinates": [[[-95.9624775, 36.0559285], [-95.9624769, 36.0558922], [-95.9625034, 36.0558919], [-95.9625027, 36.0558513], [-95.962478, 36.0558515], [-95.9624773, 36.0558101], [-95.9624493, 36.0558104], [-95.9624489, 36.0557851], [-95.9623997, 36.0557856], [-95.9623999, 36.0557976], [-95.9623295, 36.0557984], [-95.9623276, 36.0557936], [-95.9622884, 36.055794], [-95.9622885, 36.0557996], [-95.9622677, 36.0557998], [-95.9622676, 36.0557922], [-95.9622502, 36.0557923], [-95.9622502, 36.0557974], [-95.9622188, 36.0557977], [-95.9622154, 36.0557902], [-95.9621695, 36.0557912], [-95.9621703, 36.0558162], [-95.9621171, 36.0558174], [-95.9621161, 36.0557882], [-95.9620725, 36.0557892], [-95.9620691, 36.0557973], [-95.9619982, 36.0557983], [-95.9619996, 36.0557958], [-95.9619598, 36.055796], [-95.9619599, 36.055801], [-95.9619396, 36.0558011], [-95.9619396, 36.0557948], [-95.9619218, 36.0557949], [-95.9619219, 36.0558001], [-95.9618887, 36.0558002], [-95.9618846, 36.055789], [-95.9618357, 36.0557883], [-95.9618351, 36.0558141], [-95.9618128, 36.0558138], [-95.9618104, 36.0559239], [-95.9618415, 36.0559243], [-95.9618409, 36.05595], [-95.9618875, 36.0559507], [-95.9618878, 36.0559378], [-95.9619228, 36.0559382], [-95.9619227, 36.0559433], [-95.9619366, 36.0559435], [-95.9619366, 36.0559377], [-95.9620204, 36.0559384], [-95.9620203, 36.055947], [-95.9620414, 36.0559471], [-95.9620414, 36.055939], [-95.962074, 36.0559392], [-95.9620739, 36.0559513], [-95.9621277, 36.0559515], [-95.9621277, 36.0559405], [-95.9621677, 36.0559406], [-95.9621677, 36.0559486], [-95.9622251, 36.0559487], [-95.9622251, 36.0559382], [-95.962253, 36.0559382], [-95.962253, 36.0559425], [-95.9622711, 36.0559425], [-95.9622711, 36.0559361], [-95.9622893, 36.055936], [-95.9622894, 36.0559419], [-95.9623347, 36.0559416], [-95.9623347, 36.0559372], [-95.9623482, 36.0559371], [-95.9623483, 36.0559448], [-95.962367, 36.0559447], [-95.962367, 36.0559386], [-95.9624017, 36.0559383], [-95.9624018, 36.0559486], [-95.9624462, 36.0559481], [-95.9624459, 36.0559288], [-95.9624775, 36.0559285]]]}, "properties": {"osm_id": 978649297, "building": "yes", "name": "", "height": null, "height_m": null, "levels": null, "tract_id": "40143007641", "tract_name": "76.41", "tags": {"building": "yes"}}}, {"type": "Feature", "geometry": {"type": "Polygon", "coordinates": [[[-95.9632411, 36.0554414], [-95.9632145, 36.0554417], [-95.9632149, 36.0554695], [-95.9631645, 36.05547], [-95.9631643, 36.0554593], [-95.9631342, 36.0554596], [-95.9631343, 36.0554674], [-95.9631089, 36.0554677], [-95.9631088, 36.0554589], [-95.9630376, 36.0554597], [-95.9630377, 36.0554671], [-95.9630095, 36.0554675], [-95.9630093, 36.0554606], [-95.9629898, 36.0554609], [-95.9629899, 36.0554695], [-95.9629316, 36.0554704], [-95.9629311, 36.0554452], [-95.9628857, 36.0554459], [-95.9628862, 36.0554702], [-95.9628317, 36.055471], [-95.9628315, 36.0554619], [-95.962807, 36.0554622], [-95.9628071, 36.0554681], [-95.9627817, 36.0554685], [-95.9627815, 36.0554607], [-95.9627622, 36.055461], [-95.9627623, 36.055465], [-95.9627228, 36.0554656], [-95.9627227, 36.0554599], [-95.9627042, 36.0554602], [-95.9627043, 36.0554657], [-95.9626829, 36.055466], [-95.9626828, 36.0554607], [-95.9626528, 36.0554612], [-95.962653, 36.0554718], [-95.9626061, 36.0554725], [-95.9626055, 36.0554443], [-95.9625762, 36.0554447], [-95.962574, 36.055336], [-95.9626024, 36.0553356], [-95.9626019, 36.0553108], [-95.9626525, 36.0553101], [-95.9626527, 36.0553196], [-95.9626841, 36.0553192], [-95.9626839, 36.0553109], [-95.9627066, 36.0553106], [-95.9627068, 36.0553186], [-95.9627802, 36.0553175], [-95.96278, 36.0553117], [-95.9628, 36.0553114], [-95.9628039, 36.0553184], [-95.9628325, 36.0553179], [-95.9628323, 36.0553073], [-95.9628831, 36.0553065], [-95.9628838, 36.0553339], [-95.9629317, 36.0553331], [-95.9629311, 36.055309], [-95.9629778, 36.0553083], [-95.9629781, 36.0553205], [-95.9630152, 36.05532], [-95.963015, 36.0553139], [-95.9630307, 36.0553137], [-95.9630308, 36.0553217], [-95.9631645, 36.0553202], [-95.9631643, 36.0553107], [-95.9632082, 36.0553103], [-95.9632085, 36.055336], [-95.9632395, 36.0553357], [-95.9632411, 36.0554414]]]}, "properties": {"osm_id": 978649298, "building": "yes", "name": "", "height": null, "height_m": null, "levels": null, "tract_id": "40143007641", "tract_name": "76.41", "tags": {"building": "yes"}}}, {"type": "Feature", "geometry": {"type": "Polygon", "coordinates": [[[-95.962785, 36.047375], [-95.962813, 36.047501], [-95.962857, 36.047494], [-95.962862, 36.047515], [-95.963122, 36.047478], [-95.963125, 36.047492], [-95.963216, 36.047479], [-95.963215, 36.047475], [-95.963277, 36.047466], [-95.96325, 36.047342], [-95.963195, 36.04735], [-95.963189, 36.047325], [-95.963026, 36.047348], [-95.963029, 36.047363], [-95.962964, 36.047373], [-95.962959, 36.047349], [-95.962785, 36.047375]]]}, "properties": {"osm_id": 1015130165, "building": "apartments", "name": "", "height": null, "height_m": null, "levels": null, "tract_id": "40143007641", "tract_name": "76.41", "tags": {"building": "apartments", "source": "microsoft/BuildingFootprints"}}}, {"type": "Feature", "geometry": {"type": "Polygon", "coordinates": [[[-95.963781, 36.047028], [-95.963609, 36.047046], [-95.963615, 36.047086], [-95.963597, 36.047088], [-95.963609, 36.047167], [-95.963633, 36.047165], [-95.963644, 36.047233], [-95.963662, 36.047231], [-95.963685, 36.047375], [-95.963698, 36.047373], [-95.963705, 36.047413], [-95.96387, 36.047396], [-95.96384, 36.047208], [-95.963809, 36.047211], [-95.963781, 36.047028]]]}, "properties": {"osm_id": 1015130166, "building": "apartments", "name": "", "height": null, "height_m": null, "levels": null, "tract_id": "40143007641", "tract_name": "76.41", "tags": {"building": "apartments", "source": "microsoft/BuildingFootprints"}}}, {"type": "Feature", "geometry": {"type": "Polygon", "coordinates": [[[-95.9635658, 36.0474053], [-95.9633588, 36.0473661], [-95.9632962, 36.0475824], [-95.963338, 36.0475903], [-95.9633014, 36.0477165], [-95.9633323, 36.0477223], [-95.9633231, 36.0477541], [-95.963481, 36.047784], [-95.9634972, 36.0477283], [-95.963507, 36.0477301], [-95.9635255, 36.0476661], [-95.9635024, 36.0476617], [-95.9635215, 36.047596], [-95.9634982, 36.0475916], [-95.963515, 36.0475337], [-95.9635279, 36.0475361], [-95.9635658, 36.0474053]]]}, "properties": {"osm_id": 1015130167, "building": "apartments", "name": "", "height": null, "height_m": null, "levels": null, "tract_id": "40143007641", "tract_name": "76.41", "tags": {"building": "apartments", "source": "microsoft/BuildingFootprints"}}}, {"type": "Feature", "geometry": {"type": "Polygon", "coordinates": [[[-95.964043, 36.047647], [-95.964093, 36.047521], [-95.963868, 36.047464], [-95.963815, 36.0476], [-95.963992, 36.047645], [-95.963996, 36.047635], [-95.964043, 36.047647]]]}, "properties": {"osm_id": 1015130168, "building": "apartments", "name": "", "height": null, "height_m": null, "levels": null, "tract_id": "40143007641", "tract_name": "76.41", "tags": {"building": "apartments", "source": "microsoft/BuildingFootprints"}}}, {"type": "Feature", "geometry": {"type": "Polygon", "coordinates": [[[-95.964079, 36.047729], [-95.963852, 36.047771], [-95.963892, 36.047913], [-95.964076, 36.047879], [-95.964072, 36.047865], [-95.964115, 36.047857], [-95.964079, 36.047729]]]}, "properties": {"osm_id": 1015130169, "building": "apartments", "name": "", "height": null, "height_m": null, "levels": null, "tract_id": "40143007641", "tract_name": "76.41", "tags": {"building": "apartments", "source": "microsoft/BuildingFootprints"}}}, {"type": "Feature", "geometry": {"type": "Polygon", "coordinates": [[[-95.9634161, 36.0478532], [-95.9633577, 36.0479681], [-95.9634275, 36.0479913], [-95.9634193, 36.0480074], [-95.9635003, 36.0480343], [-95.963505, 36.0480252], [-95.9635705, 36.048047], [-95.963634, 36.0479221], [-95.9634768, 36.0478698], [-95.9634753, 36.0478729], [-95.9634161, 36.0478532]]]}, "properties": {"osm_id": 1015130170, "building": "apartments", "name": "", "height": null, "height_m": null, "levels": null, "tract_id": "40143007641", "tract_name": "76.41", "tags": {"building": "apartments"}}}, {"type": "Feature", "geometry": {"type": "Polygon", "coordinates": [[[-95.963249, 36.047938], [-95.963015, 36.047949], [-95.963014, 36.047931], [-95.962832, 36.04794], [-95.962833, 36.04795], [-95.962785, 36.047952], [-95.962795, 36.048085], [-95.96287, 36.048081], [-95.962871, 36.048099], [-95.963191, 36.048084], [-95.96319, 36.048076], [-95.96326, 36.048072], [-95.963249, 36.047938]]]}, "properties": {"osm_id": 1015130171, "building": "apartments", "name": "", "height": null, "height_m": null, "levels": null, "tract_id": "40143007641", "tract_name": "76.41", "tags": {"building": "apartments", "source": "microsoft/BuildingFootprints"}}}, {"type": "Feature", "geometry": {"type": "Polygon", "coordinates": [[[-95.962937, 36.048153], [-95.962824, 36.048255], [-95.962997, 36.048381], [-95.96311, 36.048279], [-95.962937, 36.048153]]]}, "properties": {"osm_id": 1015130172, "building": "apartments", "name": "", "height": null, "height_m": null, "levels": null, "tract_id": "40143007641", "tract_name": "76.41", "tags": {"building": "apartments", "source": "microsoft/BuildingFootprints"}}}, {"type": "Feature", "geometry": {"type": "Polygon", "coordinates": [[[-95.963217, 36.048369], [-95.963433, 36.048379], [-95.963431, 36.048407], [-95.963511, 36.048411], [-95.96351, 36.048424], [-95.963673, 36.048432], [-95.963683, 36.048298], [-95.963638, 36.048296], [-95.96364, 36.048266], [-95.963226, 36.048246], [-95.963217, 36.048369]]]}, "properties": {"osm_id": 1015130173, "building": "apartments", "name": "", "height": null, "height_m": null, "levels": null, "tract_id": "40143007641", "tract_name": "76.41", "tags": {"building": "apartments", "source": "microsoft/BuildingFootprints"}}}, {"type": "Feature", "geometry": {"type": "Polygon", "coordinates": [[[-95.963711, 36.048061], [-95.96373, 36.048113], [-95.963718, 36.048116], [-95.963829, 36.048428], [-95.963987, 36.048391], [-95.963975, 36.048358], [-95.963997, 36.048353], [-95.963979, 36.048302], [-95.963975, 36.048303], [-95.963942, 36.048211], [-95.963921, 36.048215], [-95.963898, 36.048151], [-95.963918, 36.048147], [-95.963874, 36.048023], [-95.963711, 36.048061]]]}, "properties": {"osm_id": 1015130174, "building": "apartments", "name": "", "height": null, "height_m": 6.0, "levels": 2, "tract_id": "40143007641", "tract_name": "76.41", "tags": {"building": "apartments", "building:levels": "2", "roof:levels": "0", "source": "microsoft/BuildingFootprints"}}}, {"type": "Feature", "geometry": {"type": "Polygon", "coordinates": [[[-95.963462, 36.046791], [-95.963301, 36.046758], [-95.963289, 36.046797], [-95.963286, 36.046796], [-95.963197, 36.047084], [-95.963214, 36.047087], [-95.963201, 36.047128], [-95.963358, 36.04716], [-95.963375, 36.047104], [-95.963388, 36.047107], [-95.963428, 36.046979], [-95.963405, 36.046975], [-95.963462, 36.046791]]]}, "properties": {"osm_id": 1015130175, "building": "apartments", "name": "", "height": null, "height_m": null, "levels": null, "tract_id": "40143007641", "tract_name": "76.41", "tags": {"building": "apartments", "source": "microsoft/BuildingFootprints"}}}, {"type": "Feature", "geometry": {"type": "Polygon", "coordinates": [[[-95.963539, 36.046842], [-95.963724, 36.046962], [-95.963823, 36.046862], [-95.963767, 36.046825], [-95.963774, 36.046818], [-95.963646, 36.046735], [-95.963539, 36.046842]]]}, "properties": {"osm_id": 1015130176, "building": "apartments", "name": "", "height": null, "height_m": null, "levels": null, "tract_id": "40143007641", "tract_name": "76.41", "tags": {"building": "apartments", "source": "microsoft/BuildingFootprints"}}}, {"type": "Feature", "geometry": {"type": "Polygon", "coordinates": [[[-95.963076, 36.046639], [-95.96292, 36.046654], [-95.962922, 36.046666], [-95.962842, 36.046673], [-95.962862, 36.046808], [-95.963098, 36.046785], [-95.963076, 36.046639]]]}, "properties": {"osm_id": 1015130177, "building": "apartments", "name": "", "height": null, "height_m": null, "levels": null, "tract_id": "40143007641", "tract_name": "76.41", "tags": {"building": "apartments", "source": "microsoft/BuildingFootprints"}}}, {"type": "Feature", "geometry": {"type": "Polygon", "coordinates": [[[-95.962953, 36.0473068], [-95.9629721, 36.0469355], [-95.9628232, 36.0469304], [-95.962804, 36.0473018], [-95.962953, 36.0473068]]]}, "properties": {"osm_id": 1015130178, "building": "apartments", "name": "", "height": null, "height_m": null, "levels": null, "tract_id": "40143007641", "tract_name": "76.41", "tags": {"building": "apartments"}}}, {"type": "Feature", "geometry": {"type": "Polygon", "coordinates": [[[-95.9685588, 36.048727], [-95.9682606, 36.0489365], [-95.967134, 36.047888], [-95.9674323, 36.0476785], [-95.9685588, 36.048727]]]}, "properties": {"osm_id": 1177317126, "building": "office", "name": "", "height": null, "height_m": 6.0, "levels": 2, "tract_id": "40143007641", "tract_name": "76.41", "tags": {"building": "office", "building:levels": "2", "roof:levels": "0", "roof:shape": "flat"}}}, {"type": "Feature", "geometry": {"type": "Polygon", "coordinates": [[[-95.9643953, 36.0468685], [-95.9645589, 36.0468694], [-95.9645589, 36.0468607], [-95.964626, 36.0468611], [-95.9646271, 36.046731], [-95.9643965, 36.0467297], [-95.9643953, 36.0468685]]]}, "properties": {"osm_id": 1341429211, "building": "yes", "name": "", "height": null, "height_m": null, "levels": null, "tract_id": "40143007641", "tract_name": "76.41", "tags": {"building": "yes", "source": "microsoft/BuildingFootprints"}}}, {"type": "Feature", "geometry": {"type": "Polygon", "coordinates": [[[-95.9647823, 36.0468824], [-95.964751, 36.0468501], [-95.9646248, 36.0469301], [-95.9647706, 36.0470806], [-95.9649069, 36.0469943], [-95.9647923, 36.046876], [-95.9647823, 36.0468824]]]}, "properties": {"osm_id": 1341429212, "building": "yes", "name": "", "height": null, "height_m": null, "levels": null, "tract_id": "40143007641", "tract_name": "76.41", "tags": {"building": "yes", "source": "microsoft/BuildingFootprints"}}}, {"type": "Feature", "geometry": {"type": "Polygon", "coordinates": [[[-95.9652056, 36.0471405], [-95.9651279, 36.0471409], [-95.9651278, 36.0471322], [-95.9649776, 36.0471331], [-95.9649774, 36.0471165], [-95.964743, 36.0471178], [-95.9647441, 36.0472515], [-95.9648031, 36.0472511], [-95.9648032, 36.047262], [-95.964976, 36.047261], [-95.9649762, 36.0472849], [-95.9651628, 36.0472838], [-95.9651627, 36.0472687], [-95.9652067, 36.0472684], [-95.9652056, 36.0471405]]]}, "properties": {"osm_id": 1341429213, "building": "yes", "name": "", "height": null, "height_m": null, "levels": null, "tract_id": "40143007641", "tract_name": "76.41", "tags": {"building": "yes", "source": "microsoft/BuildingFootprints"}}}, {"type": "Feature", "geometry": {"type": "Polygon", "coordinates": [[[-95.9646377, 36.0476986], [-95.9647765, 36.0477598], [-95.964805, 36.0477178], [-95.9648284, 36.0477281], [-95.9649114, 36.0476051], [-95.9647492, 36.0475335], [-95.9646377, 36.0476986]]]}, "properties": {"osm_id": 1341429214, "building": "yes", "name": "", "height": null, "height_m": null, "levels": null, "tract_id": "40143007641", "tract_name": "76.41", "tags": {"building": "yes"}}}, {"type": "Feature", "geometry": {"type": "Polygon", "coordinates": [[[-95.9651455, 36.0478995], [-95.9649202, 36.047855], [-95.9649149, 36.0478727], [-95.9646871, 36.0478276], [-95.9646475, 36.0479586], [-95.9648768, 36.0480039], [-95.9648812, 36.0479896], [-95.9651049, 36.0480338], [-95.9651455, 36.0478995]]]}, "properties": {"osm_id": 1341429215, "building": "yes", "name": "", "height": null, "height_m": null, "levels": null, "tract_id": "40143007641", "tract_name": "76.41", "tags": {"building": "yes", "source": "microsoft/BuildingFootprints"}}}, {"type": "Feature", "geometry": {"type": "Polygon", "coordinates": [[[-95.9654162, 36.047695], [-95.9654183, 36.047562], [-95.965185, 36.0475595], [-95.9651854, 36.0475378], [-95.965003, 36.0475359], [-95.9650028, 36.0475476], [-95.9649546, 36.0475471], [-95.9649524, 36.0476837], [-95.965116, 36.0476854], [-95.9651161, 36.0476767], [-95.9651874, 36.0476774], [-95.965187, 36.0477056], [-95.9653479, 36.0477073], [-95.9653481, 36.0476943], [-95.9654162, 36.047695]]]}, "properties": {"osm_id": 1341429216, "building": "yes", "name": "", "height": null, "height_m": null, "levels": null, "tract_id": "40143007641", "tract_name": "76.41", "tags": {"building": "yes", "source": "microsoft/BuildingFootprints"}}}, {"type": "Feature", "geometry": {"type": "Polygon", "coordinates": [[[-95.9652397, 36.0479686], [-95.9653779, 36.0480613], [-95.9655268, 36.0479161], [-95.9655538, 36.0479343], [-95.9656698, 36.0478212], [-95.9656603, 36.0478148], [-95.9656932, 36.0477827], [-95.9655693, 36.0476996], [-95.9654177, 36.0478473], [-95.965386, 36.047826], [-95.9652397, 36.0479686]]]}, "properties": {"osm_id": 1341429217, "building": "yes", "name": "", "height": null, "height_m": null, "levels": null, "tract_id": "40143007641", "tract_name": "76.41", "tags": {"building": "yes", "source": "microsoft/BuildingFootprints"}}}, {"type": "Feature", "geometry": {"type": "Polygon", "coordinates": [[[-95.9656263, 36.0479843], [-95.9657703, 36.0481452], [-95.965802, 36.0481266], [-95.9659293, 36.048269], [-95.9660684, 36.0481876], [-95.9660366, 36.048152], [-95.966043, 36.0481483], [-95.9659372, 36.0480302], [-95.9658974, 36.0480534], [-95.9657637, 36.047904], [-95.9656263, 36.0479843]]]}, "properties": {"osm_id": 1341429218, "building": "yes", "name": "", "height": null, "height_m": null, "levels": null, "tract_id": "40143007641", "tract_name": "76.41", "tags": {"building": "yes", "source": "microsoft/BuildingFootprints"}}}, {"type": "Feature", "geometry": {"type": "Polygon", "coordinates": [[[-95.9662616, 36.0481983], [-95.9661329, 36.0482798], [-95.966277, 36.0484285], [-95.9662593, 36.0484396], [-95.9664026, 36.0485875], [-95.9665349, 36.0485036], [-95.9665015, 36.0484692], [-95.9665155, 36.0484604], [-95.9662616, 36.0481983]]]}, "properties": {"osm_id": 1341429219, "building": "yes", "name": "", "height": null, "height_m": null, "levels": null, "tract_id": "40143007641", "tract_name": "76.41", "tags": {"building": "yes", "source": "microsoft/BuildingFootprints"}}}, {"type": "Feature", "geometry": {"type": "Polygon", "coordinates": [[[-95.9656369, 36.0484662], [-95.965865, 36.0484857], [-95.9658613, 36.0485144], [-95.9660417, 36.0485298], [-95.9660426, 36.0485225], [-95.966093, 36.0485268], [-95.9661095, 36.0484003], [-95.9660379, 36.0483942], [-95.9660396, 36.0483813], [-95.9658884, 36.0483684], [-95.9658901, 36.0483556], [-95.9658158, 36.0483492], [-95.9658172, 36.0483385], [-95.9656554, 36.0483247], [-95.9656369, 36.0484662]]]}, "properties": {"osm_id": 1341429220, "building": "yes", "name": "", "height": null, "height_m": null, "levels": null, "tract_id": "40143007641", "tract_name": "76.41", "tags": {"building": "yes", "source": "microsoft/BuildingFootprints"}}}, {"type": "Feature", "geometry": {"type": "Polygon", "coordinates": [[[-95.965372, 36.0481259], [-95.965338, 36.0484445], [-95.9653459, 36.048445], [-95.9653397, 36.0485032], [-95.9654968, 36.0485141], [-95.9655007, 36.0484775], [-95.9655194, 36.0484788], [-95.9655357, 36.048326], [-95.9655064, 36.048324], [-95.9655135, 36.0482572], [-95.9655375, 36.0482589], [-95.9655458, 36.0481814], [-95.9655245, 36.0481799], [-95.9655291, 36.0481369], [-95.965372, 36.0481259]]]}, "properties": {"osm_id": 1341429221, "building": "yes", "name": "", "height": null, "height_m": null, "levels": null, "tract_id": "40143007641", "tract_name": "76.41", "tags": {"building": "yes", "source": "microsoft/BuildingFootprints"}}}, {"type": "Feature", "geometry": {"type": "Polygon", "coordinates": [[[-95.9650219, 36.0482967], [-95.9650041, 36.048437], [-95.9651845, 36.048452], [-95.9651854, 36.0484456], [-95.9652358, 36.0484498], [-95.9652528, 36.048316], [-95.9650219, 36.0482967]]]}, "properties": {"osm_id": 1341429222, "building": "yes", "name": "", "height": null, "height_m": null, "levels": null, "tract_id": "40143007641", "tract_name": "76.41", "tags": {"building": "yes", "source": "microsoft/BuildingFootprints"}}}, {"type": "Feature", "geometry": {"type": "Polygon", "coordinates": [[[-95.9649601, 36.0487011], [-95.9647878, 36.0486945], [-95.9647819, 36.0487962], [-95.9647749, 36.0487959], [-95.9647678, 36.0489179], [-95.9647517, 36.0489173], [-95.9647482, 36.0489779], [-95.9647428, 36.0489777], [-95.9647346, 36.0491197], [-95.9649103, 36.0491264], [-95.9649155, 36.0490363], [-95.9649271, 36.0490368], [-95.9649402, 36.0488117], [-95.9649536, 36.0488122], [-95.9649601, 36.0487011]]]}, "properties": {"osm_id": 1341429223, "building": "yes", "name": "", "height": null, "height_m": null, "levels": null, "tract_id": "40143007641", "tract_name": "76.41", "tags": {"building": "yes", "source": "microsoft/BuildingFootprints"}}}, {"type": "Feature", "geometry": {"type": "Polygon", "coordinates": [[[-95.9654882, 36.0487385], [-95.9653102, 36.0487245], [-95.9652992, 36.0488155], [-95.9652966, 36.0488153], [-95.9652728, 36.0490129], [-95.9652692, 36.0490126], [-95.965253, 36.049148], [-95.9654293, 36.0491618], [-95.9654407, 36.0490665], [-95.965446, 36.0490669], [-95.9654711, 36.0488586], [-95.9654737, 36.0488588], [-95.9654882, 36.0487385]]]}, "properties": {"osm_id": 1341429224, "building": "yes", "name": "", "height": null, "height_m": null, "levels": null, "tract_id": "40143007641", "tract_name": "76.41", "tags": {"building": "yes", "source": "microsoft/BuildingFootprints"}}}, {"type": "Feature", "geometry": {"type": "Polygon", "coordinates": [[[-95.965523, 36.049172], [-95.9657067, 36.0491845], [-95.9657161, 36.0490941], [-95.9657144, 36.0490939], [-95.9657391, 36.0488563], [-95.9657418, 36.0488565], [-95.9657518, 36.0487603], [-95.9655787, 36.0487486], [-95.9655691, 36.0488404], [-95.9655611, 36.0488399], [-95.9655378, 36.0490646], [-95.9655342, 36.0490643], [-95.965523, 36.049172]]]}, "properties": {"osm_id": 1341429225, "building": "yes", "name": "", "height": null, "height_m": null, "levels": null, "tract_id": "40143007641", "tract_name": "76.41", "tags": {"building": "yes", "source": "microsoft/BuildingFootprints"}}}, {"type": "Feature", "geometry": {"type": "Polygon", "coordinates": [[[-95.9664317, 36.0492344], [-95.9664312, 36.04924], [-95.9665425, 36.0492456], [-95.966553, 36.0491095], [-95.9663643, 36.0491], [-95.9663653, 36.0490871], [-95.9663109, 36.0490843], [-95.9663096, 36.0491016], [-95.9661769, 36.0490949], [-95.9661781, 36.0490798], [-95.9660659, 36.0490741], [-95.9660639, 36.0491], [-95.9660265, 36.0490981], [-95.9660176, 36.0492134], [-95.9664317, 36.0492344]]]}, "properties": {"osm_id": 1341429226, "building": "yes", "name": "", "height": null, "height_m": null, "levels": null, "tract_id": "40143007641", "tract_name": "76.41", "tags": {"building": "yes", "source": "microsoft/BuildingFootprints"}}}, {"type": "Feature", "geometry": {"type": "Polygon", "coordinates": [[[-95.9665798, 36.0488731], [-95.9664701, 36.0488692], [-95.966471, 36.0488528], [-95.9664201, 36.048851], [-95.9664199, 36.0488545], [-95.9661602, 36.0488454], [-95.9661604, 36.0488411], [-95.966056, 36.0488375], [-95.9660485, 36.0489782], [-95.9661556, 36.0489819], [-95.9661552, 36.0489906], [-95.9664185, 36.0489997], [-95.9664181, 36.0490062], [-95.9665725, 36.0490116], [-95.9665798, 36.0488731]]]}, "properties": {"osm_id": 1341429227, "building": "yes", "name": "", "height": null, "height_m": null, "levels": null, "tract_id": "40143007641", "tract_name": "76.41", "tags": {"building": "yes", "source": "microsoft/BuildingFootprints"}}}, {"type": "Feature", "geometry": {"type": "Polygon", "coordinates": [[[-95.9669211, 36.0494969], [-95.9668765, 36.0495613], [-95.9669501, 36.0495946], [-95.9669341, 36.0496177], [-95.9671179, 36.0497009], [-95.9671853, 36.0496034], [-95.9670097, 36.0495239], [-95.9670028, 36.0495339], [-95.9669211, 36.0494969]]]}, "properties": {"osm_id": 1341429228, "building": "yes", "name": "Riverchase Apartment Homes", "height": null, "height_m": null, "levels": null, "tract_id": "40143007641", "tract_name": "76.41", "tags": {"building": "yes", "name": "Riverchase Apartment Homes", "office": "property_management"}}}, {"type": "Feature", "geometry": {"type": "Polygon", "coordinates": [[[-95.9674749, 36.0502759], [-95.9673453, 36.0501829], [-95.9672702, 36.0502513], [-95.9672663, 36.0502485], [-95.9670665, 36.0504304], [-95.9670704, 36.0504332], [-95.9669945, 36.0505023], [-95.967125, 36.050596], [-95.9674007, 36.050345], [-95.9673998, 36.0503443], [-95.9674749, 36.0502759]]]}, "properties": {"osm_id": 1341429229, "building": "yes", "name": "", "height": null, "height_m": null, "levels": null, "tract_id": "40143007641", "tract_name": "76.41", "tags": {"building": "yes", "source": "microsoft/BuildingFootprints"}}}, {"type": "Feature", "geometry": {"type": "Polygon", "coordinates": [[[-95.9670439, 36.0506268], [-95.9669411, 36.0505575], [-95.9668179, 36.0506769], [-95.9669207, 36.0507462], [-95.9669225, 36.0507445], [-95.9670111, 36.0508042], [-95.9671193, 36.0506993], [-95.9670307, 36.0506396], [-95.9670439, 36.0506268]]]}, "properties": {"osm_id": 1341429230, "building": "yes", "name": "", "height": null, "height_m": null, "levels": null, "tract_id": "40143007641", "tract_name": "76.41", "tags": {"building": "yes", "source": "microsoft/BuildingFootprints"}}}, {"type": "Feature", "geometry": {"type": "Polygon", "coordinates": [[[-95.9667343, 36.0504121], [-95.9666128, 36.0505204], [-95.966682, 36.0505711], [-95.9666793, 36.0505735], [-95.9667234, 36.0506059], [-95.9667288, 36.0506011], [-95.9668112, 36.0506615], [-95.9669233, 36.0505616], [-95.966838, 36.050499], [-95.9668446, 36.0504931], [-95.9667343, 36.0504121]]]}, "properties": {"osm_id": 1341429231, "building": "yes", "name": "", "height": null, "height_m": null, "levels": null, "tract_id": "40143007641", "tract_name": "76.41", "tags": {"building": "yes", "source": "microsoft/BuildingFootprints"}}}, {"type": "Feature", "geometry": {"type": "Polygon", "coordinates": [[[-95.9658072, 36.0506404], [-95.9657925, 36.050635], [-95.9656717, 36.050851], [-95.9656672, 36.0508494], [-95.9656175, 36.0509382], [-95.9657746, 36.0509957], [-95.965821, 36.0509129], [-95.9658343, 36.0509178], [-95.9659415, 36.0507264], [-95.9659513, 36.05073], [-95.9660154, 36.0506154], [-95.9658542, 36.0505565], [-95.9658072, 36.0506404]]]}, "properties": {"osm_id": 1341429232, "building": "yes", "name": "", "height": null, "height_m": null, "levels": null, "tract_id": "40143007641", "tract_name": "76.41", "tags": {"building": "yes", "source": "microsoft/BuildingFootprints"}}}, {"type": "Feature", "geometry": {"type": "Polygon", "coordinates": [[[-95.9659372, 36.0501132], [-95.9660475, 36.0501202], [-95.9660471, 36.0501245], [-95.9663099, 36.0501413], [-95.9663095, 36.0501456], [-95.9664598, 36.0501552], [-95.9664735, 36.0500152], [-95.9663605, 36.0500079], [-95.9663624, 36.0499894], [-95.9663127, 36.0499862], [-95.9663118, 36.0499961], [-95.9661012, 36.0499827], [-95.9661018, 36.0499762], [-95.9660512, 36.049973], [-95.9660508, 36.0499773], [-95.9659511, 36.0499709], [-95.9659372, 36.0501132]]]}, "properties": {"osm_id": 1341429233, "building": "yes", "name": "", "height": null, "height_m": null, "levels": null, "tract_id": "40143007641", "tract_name": "76.41", "tags": {"building": "yes", "source": "microsoft/BuildingFootprints"}}}, {"type": "Feature", "geometry": {"type": "Polygon", "coordinates": [[[-95.9658539, 36.0499611], [-95.9657386, 36.0499524], [-95.9657404, 36.0499366], [-95.9657058, 36.049934], [-95.9657041, 36.049949], [-95.9654923, 36.0499332], [-95.9654946, 36.0499138], [-95.9654297, 36.049909], [-95.9654282, 36.0499226], [-95.9653308, 36.0499153], [-95.9653141, 36.0500608], [-95.9657263, 36.0500917], [-95.965726, 36.0500938], [-95.9658377, 36.0501022], [-95.9658539, 36.0499611]]]}, "properties": {"osm_id": 1341429234, "building": "yes", "name": "", "height": null, "height_m": null, "levels": null, "tract_id": "40143007641", "tract_name": "76.41", "tags": {"building": "yes", "source": "microsoft/BuildingFootprints"}}}, {"type": "Feature", "geometry": {"type": "Polygon", "coordinates": [[[-95.9653915, 36.0495182], [-95.9653622, 36.0498069], [-95.965506, 36.0498164], [-95.9655111, 36.0497669], [-95.9656096, 36.0497734], [-95.9656339, 36.0495343], [-95.9653915, 36.0495182]]]}, "properties": {"osm_id": 1341429235, "building": "yes", "name": "", "height": null, "height_m": null, "levels": null, "tract_id": "40143007641", "tract_name": "76.41", "tags": {"building": "yes", "source": "microsoft/BuildingFootprints"}}}, {"type": "Feature", "geometry": {"type": "Polygon", "coordinates": [[[-95.9665062, 36.0512032], [-95.9665099, 36.0512052], [-95.9667256, 36.0509528], [-95.9665833, 36.0508732], [-95.9665218, 36.0509451], [-95.9665153, 36.0509415], [-95.9662757, 36.0512218], [-95.9664209, 36.051303], [-95.9665062, 36.0512032]]]}, "properties": {"osm_id": 1341429236, "building": "yes", "name": "", "height": null, "height_m": null, "levels": null, "tract_id": "40143007641", "tract_name": "76.41", "tags": {"building": "yes", "source": "microsoft/BuildingFootprints"}}}, {"type": "Feature", "geometry": {"type": "Polygon", "coordinates": [[[-95.9654342, 36.050367], [-95.9652558, 36.0503617], [-95.9652502, 36.0504851], [-95.9652545, 36.0504852], [-95.9652493, 36.0505978], [-95.9652386, 36.0505975], [-95.965236, 36.0506538], [-95.9652441, 36.0506541], [-95.9652379, 36.0507883], [-95.9654147, 36.0507936], [-95.965419, 36.0507005], [-95.9654216, 36.0507006], [-95.9654327, 36.050458], [-95.9654301, 36.0504579], [-95.9654342, 36.050367]]]}, "properties": {"osm_id": 1341429351, "building": "yes", "name": "", "height": null, "height_m": null, "levels": null, "tract_id": "40143007641", "tract_name": "76.41", "tags": {"building": "yes", "source": "microsoft/BuildingFootprints"}}}, {"type": "Feature", "geometry": {"type": "Polygon", "coordinates": [[[-95.9648761, 36.0507501], [-95.964714, 36.050699], [-95.9646768, 36.0507762], [-95.9646479, 36.0507671], [-95.9645394, 36.0509923], [-95.9645184, 36.0509857], [-95.964473, 36.0510798], [-95.964636, 36.0511312], [-95.9646738, 36.0510528], [-95.9647004, 36.0510612], [-95.9648078, 36.0508383], [-95.9648301, 36.0508454], [-95.9648761, 36.0507501]]]}, "properties": {"osm_id": 1341429352, "building": "apartments", "name": "", "height": null, "height_m": 6.0, "levels": 2, "tract_id": "40143007641", "tract_name": "76.41", "tags": {"building": "apartments", "building:levels": "2", "roof:levels": "0", "roof:shape": "gabled", "source": "microsoft/BuildingFootprints"}}}, {"type": "Feature", "geometry": {"type": "Polygon", "coordinates": [[[-95.964593, 36.0511787], [-95.9644401, 36.0511154], [-95.9643715, 36.0512236], [-95.9643651, 36.051221], [-95.9642436, 36.0514127], [-95.9642385, 36.0514105], [-95.964188, 36.0514902], [-95.9643525, 36.0515583], [-95.964593, 36.0511787]]]}, "properties": {"osm_id": 1341429353, "building": "apartments", "name": "", "height": null, "height_m": 6.0, "levels": 2, "tract_id": "40143007641", "tract_name": "76.41", "tags": {"building": "apartments", "building:levels": "2", "roof:levels": "0", "roof:shape": "gabled", "source": "microsoft/BuildingFootprints"}}}, {"type": "Feature", "geometry": {"type": "Polygon", "coordinates": [[[-95.9651066, 36.0511293], [-95.9650944, 36.0511237], [-95.9649564, 36.0513207], [-95.9649462, 36.0513161], [-95.9648784, 36.0514129], [-95.9650306, 36.0514827], [-95.9650847, 36.0514055], [-95.9650949, 36.0514102], [-95.965241, 36.0512017], [-95.96525, 36.0512058], [-95.9653109, 36.0511188], [-95.9651619, 36.0510505], [-95.9651066, 36.0511293]]]}, "properties": {"osm_id": 1341429354, "building": "yes", "name": "", "height": null, "height_m": null, "levels": null, "tract_id": "40143007641", "tract_name": "76.41", "tags": {"building": "yes", "source": "microsoft/BuildingFootprints"}}}, {"type": "Feature", "geometry": {"type": "Polygon", "coordinates": [[[-95.9653346, 36.0513078], [-95.9654341, 36.0513449], [-95.9654301, 36.0513521], [-95.9656999, 36.0514527], [-95.9657009, 36.0514509], [-95.9658092, 36.0514913], [-95.9658776, 36.0513716], [-95.9657759, 36.0513336], [-95.965781, 36.0513247], [-95.9657301, 36.0513057], [-95.9657321, 36.0513021], [-95.9654999, 36.0512155], [-95.965505, 36.0512066], [-95.9654122, 36.0511719], [-95.9653346, 36.0513078]]]}, "properties": {"osm_id": 1341429355, "building": "yes", "name": "", "height": null, "height_m": null, "levels": null, "tract_id": "40143007641", "tract_name": "76.41", "tags": {"building": "yes", "source": "microsoft/BuildingFootprints"}}}, {"type": "Feature", "geometry": {"type": "Polygon", "coordinates": [[[-95.9650923, 36.0516996], [-95.9650885, 36.051707], [-95.9653687, 36.0518024], [-95.9653667, 36.0518061], [-95.9654692, 36.051841], [-95.9655393, 36.0517066], [-95.96539, 36.0516557], [-95.9653938, 36.0516483], [-95.9651501, 36.0515653], [-95.9651514, 36.0515628], [-95.965058, 36.051531], [-95.9649885, 36.0516643], [-95.9650923, 36.0516996]]]}, "properties": {"osm_id": 1341429356, "building": "apartments", "name": "", "height": null, "height_m": null, "levels": null, "tract_id": "40143007641", "tract_name": "76.41", "tags": {"building": "apartments", "source": "microsoft/BuildingFootprints"}}}, {"type": "Feature", "geometry": {"type": "Polygon", "coordinates": [[[-95.9660333, 36.0515894], [-95.9660244, 36.0515862], [-95.9659773, 36.0516728], [-95.966138, 36.05173], [-95.9661832, 36.0516471], [-95.9661954, 36.0516515], [-95.9663006, 36.0514582], [-95.9663118, 36.0514622], [-95.9663747, 36.0513466], [-95.966213, 36.0512891], [-95.966154, 36.0513974], [-95.9661405, 36.0513926], [-95.9660333, 36.0515894]]]}, "properties": {"osm_id": 1341429357, "building": "yes", "name": "", "height": null, "height_m": null, "levels": null, "tract_id": "40143007641", "tract_name": "76.41", "tags": {"building": "yes", "source": "microsoft/BuildingFootprints"}}}, {"type": "Feature", "geometry": {"type": "Polygon", "coordinates": [[[-95.9658539, 36.0519258], [-95.965833, 36.0520159], [-95.9658226, 36.0520143], [-95.9657682, 36.0522489], [-95.965763, 36.0522481], [-95.9657412, 36.0523424], [-95.9659134, 36.0523685], [-95.9659338, 36.0522805], [-95.965943, 36.0522819], [-95.9659983, 36.0520431], [-95.9660061, 36.0520443], [-95.9660275, 36.0519521], [-95.9658539, 36.0519258]]]}, "properties": {"osm_id": 1341429358, "building": "apartments", "name": "", "height": null, "height_m": null, "levels": null, "tract_id": "40143007641", "tract_name": "76.41", "tags": {"building": "apartments", "source": "microsoft/BuildingFootprints"}}}, {"type": "Feature", "geometry": {"type": "Polygon", "coordinates": [[[-95.9658956, 36.0524599], [-95.9657508, 36.052463], [-95.9657506, 36.0524565], [-95.9654665, 36.0524627], [-95.9654664, 36.0524605], [-95.9653687, 36.0524626], [-95.9653734, 36.0526049], [-95.9654833, 36.0526025], [-95.9654836, 36.0526098], [-95.9657877, 36.0526032], [-95.9657878, 36.0526067], [-95.9659004, 36.0526043], [-95.9658956, 36.0524599]]]}, "properties": {"osm_id": 1341429359, "building": "apartments", "name": "", "height": null, "height_m": null, "levels": null, "tract_id": "40143007641", "tract_name": "76.41", "tags": {"building": "apartments", "source": "microsoft/BuildingFootprints"}}}, {"type": "Feature", "geometry": {"type": "Polygon", "coordinates": [[[-95.9656432, 36.0533348], [-95.9658215, 36.0533317], [-95.9658191, 36.0532407], [-95.9658257, 36.0532406], [-95.9658193, 36.0529965], [-95.9658219, 36.0529964], [-95.9658195, 36.0529046], [-95.9656426, 36.0529076], [-95.9656458, 36.0530298], [-95.9656404, 36.0530299], [-95.9656449, 36.053199], [-95.9656396, 36.0531991], [-95.9656432, 36.0533348]]]}, "properties": {"osm_id": 1341429360, "building": "apartments", "name": "", "height": null, "height_m": null, "levels": null, "tract_id": "40143007641", "tract_name": "76.41", "tags": {"building": "apartments", "source": "microsoft/BuildingFootprints"}}}, {"type": "Feature", "geometry": {"type": "Polygon", "coordinates": [[[-95.9651159, 36.0535186], [-95.965486, 36.0535152], [-95.965486, 36.0535196], [-95.9656416, 36.0535181], [-95.9656396, 36.053375], [-95.9655269, 36.0533761], [-95.9655267, 36.0533631], [-95.9654758, 36.0533635], [-95.9654759, 36.0533722], [-95.9652131, 36.0533746], [-95.965213, 36.0533703], [-95.9651138, 36.0533712], [-95.9651159, 36.0535186]]]}, "properties": {"osm_id": 1341429361, "building": "apartments", "name": "", "height": null, "height_m": null, "levels": null, "tract_id": "40143007641", "tract_name": "76.41", "tags": {"building": "apartments", "source": "microsoft/BuildingFootprints"}}}, {"type": "Feature", "geometry": {"type": "Polygon", "coordinates": [[[-95.9648499, 36.0524307], [-95.9650197, 36.0524054], [-95.9649977, 36.0523089], [-95.9649925, 36.0523097], [-95.9649388, 36.052074], [-95.9649284, 36.0520755], [-95.9649085, 36.0519882], [-95.9647321, 36.0520145], [-95.964751, 36.0520976], [-95.9647614, 36.0520961], [-95.9648152, 36.0523317], [-95.9648269, 36.05233], [-95.9648499, 36.0524307]]]}, "properties": {"osm_id": 1341429362, "building": "apartments", "name": "", "height": null, "height_m": null, "levels": null, "tract_id": "40143007641", "tract_name": "76.41", "tags": {"building": "apartments", "source": "microsoft/BuildingFootprints"}}}, {"type": "Feature", "geometry": {"type": "Polygon", "coordinates": [[[-95.9643234, 36.0517632], [-95.9645078, 36.0519016], [-95.9645046, 36.0519044], [-95.9645479, 36.0519368], [-95.9645537, 36.0519317], [-95.9646388, 36.0519955], [-95.9647565, 36.0518929], [-95.964675, 36.0518318], [-95.9646803, 36.0518271], [-95.9644612, 36.0516628], [-95.9644599, 36.0516639], [-95.9643742, 36.0515997], [-95.964256, 36.0517027], [-95.9643295, 36.0517578], [-95.9643234, 36.0517632]]]}, "properties": {"osm_id": 1341429363, "building": "apartments", "name": "", "height": null, "height_m": 6.0, "levels": 2, "tract_id": "40143007641", "tract_name": "76.41", "tags": {"building": "apartments", "building:levels": "2", "roof:levels": "0", "roof:shape": "gabled", "source": "microsoft/BuildingFootprints"}}}, {"type": "Feature", "geometry": {"type": "Polygon", "coordinates": [[[-95.9636123, 36.0509328], [-95.9637798, 36.0509982], [-95.9639447, 36.0507221], [-95.9637773, 36.0506567], [-95.9636123, 36.0509328]]]}, "properties": {"osm_id": 1341429364, "building": "apartments", "name": "", "height": null, "height_m": null, "levels": null, "tract_id": "40143007641", "tract_name": "76.41", "tags": {"building": "apartments", "source": "microsoft/BuildingFootprints"}}}, {"type": "Feature", "geometry": {"type": "Polygon", "coordinates": [[[-95.9632535, 36.0504704], [-95.9632032, 36.0506056], [-95.9632809, 36.0506245], [-95.9632787, 36.0506305], [-95.9636895, 36.0507303], [-95.963742, 36.0505891], [-95.9632535, 36.0504704]]]}, "properties": {"osm_id": 1341429365, "building": "yes", "name": "", "height": null, "height_m": null, "levels": null, "tract_id": "40143007641", "tract_name": "76.41", "tags": {"building": "yes", "source": "microsoft/BuildingFootprints"}}}, {"type": "Feature", "geometry": {"type": "Polygon", "coordinates": [[[-95.9631893, 36.0504385], [-95.9628108, 36.0504144], [-95.962796, 36.0505662], [-95.9631745, 36.0505902], [-95.9631893, 36.0504385]]]}, "properties": {"osm_id": 1341429366, "building": "yes", "name": "", "height": null, "height_m": null, "levels": null, "tract_id": "40143007641", "tract_name": "76.41", "tags": {"building": "yes", "source": "microsoft/BuildingFootprints"}}}, {"type": "Feature", "geometry": {"type": "Polygon", "coordinates": [[[-95.9628178, 36.0510609], [-95.9630001, 36.0510631], [-95.963008, 36.0506512], [-95.9628256, 36.0506489], [-95.9628178, 36.0510609]]]}, "properties": {"osm_id": 1341429367, "building": "yes", "name": "", "height": null, "height_m": null, "levels": null, "tract_id": "40143007641", "tract_name": "76.41", "tags": {"building": "yes", "source": "microsoft/BuildingFootprints"}}}, {"type": "Feature", "geometry": {"type": "Polygon", "coordinates": [[[-95.9633849, 36.0507724], [-95.9632097, 36.0507306], [-95.9630644, 36.0511287], [-95.9632396, 36.0511705], [-95.9633849, 36.0507724]]]}, "properties": {"osm_id": 1341429368, "building": "yes", "name": "", "height": null, "height_m": null, "levels": null, "tract_id": "40143007641", "tract_name": "76.41", "tags": {"building": "yes", "source": "microsoft/BuildingFootprints"}}}, {"type": "Feature", "geometry": {"type": "Polygon", "coordinates": [[[-95.9623516, 36.0506766], [-95.9623534, 36.0510907], [-95.9625412, 36.0510902], [-95.9625393, 36.050676], [-95.9623516, 36.0506766]]]}, "properties": {"osm_id": 1341429369, "building": "yes", "name": "", "height": null, "height_m": null, "levels": null, "tract_id": "40143007641", "tract_name": "76.41", "tags": {"building": "yes", "source": "microsoft/BuildingFootprints"}}}, {"type": "Feature", "geometry": {"type": "Polygon", "coordinates": [[[-95.9623518, 36.0502161], [-95.9623535, 36.0506281], [-95.9625374, 36.0506276], [-95.9625358, 36.0502156], [-95.9623518, 36.0502161]]]}, "properties": {"osm_id": 1341429370, "building": "yes", "name": "", "height": null, "height_m": null, "levels": null, "tract_id": "40143007641", "tract_name": "76.41", "tags": {"building": "yes", "source": "microsoft/BuildingFootprints"}}}, {"type": "Feature", "geometry": {"type": "Polygon", "coordinates": [[[-95.9623445, 36.0501083], [-95.962512, 36.0501596], [-95.9626927, 36.0497734], [-95.9625252, 36.0497222], [-95.9623445, 36.0501083]]]}, "properties": {"osm_id": 1341429371, "building": "yes", "name": "", "height": null, "height_m": null, "levels": null, "tract_id": "40143007641", "tract_name": "76.41", "tags": {"building": "yes", "source": "microsoft/BuildingFootprints"}}}, {"type": "Feature", "geometry": {"type": "Polygon", "coordinates": [[[-95.9625462, 36.0493749], [-95.9625333, 36.0496803], [-95.9627182, 36.0496854], [-95.962731, 36.04938], [-95.9625462, 36.0493749]]]}, "properties": {"osm_id": 1341429372, "building": "yes", "name": "", "height": null, "height_m": null, "levels": null, "tract_id": "40143007641", "tract_name": "76.41", "tags": {"building": "yes", "source": "microsoft/BuildingFootprints"}}}, {"type": "Feature", "geometry": {"type": "Polygon", "coordinates": [[[-95.9625598, 36.0490056], [-95.9625474, 36.049311], [-95.9627376, 36.0493161], [-95.9627501, 36.0490107], [-95.9625598, 36.0490056]]]}, "properties": {"osm_id": 1341429373, "building": "yes", "name": "", "height": null, "height_m": null, "levels": null, "tract_id": "40143007641", "tract_name": "76.41", "tags": {"building": "yes", "source": "microsoft/BuildingFootprints"}}}, {"type": "Feature", "geometry": {"type": "Polygon", "coordinates": [[[-95.9625776, 36.0486373], [-95.9625674, 36.0489438], [-95.962755, 36.0489479], [-95.9627652, 36.0486414], [-95.9625776, 36.0486373]]]}, "properties": {"osm_id": 1341429374, "building": "yes", "name": "", "height": null, "height_m": null, "levels": null, "tract_id": "40143007641", "tract_name": "76.41", "tags": {"building": "yes", "source": "microsoft/BuildingFootprints"}}}, {"type": "Feature", "geometry": {"type": "Polygon", "coordinates": [[[-95.9630634, 36.0488103], [-95.9630554, 36.049116], [-95.963235, 36.049119], [-95.963243, 36.0488134], [-95.9630634, 36.0488103]]]}, "properties": {"osm_id": 1341429375, "building": "yes", "name": "", "height": null, "height_m": null, "levels": null, "tract_id": "40143007641", "tract_name": "76.41", "tags": {"building": "yes", "source": "microsoft/BuildingFootprints"}}}, {"type": "Feature", "geometry": {"type": "Polygon", "coordinates": [[[-95.963347, 36.0489528], [-95.9637262, 36.0489502], [-95.9637246, 36.0487984], [-95.9633454, 36.048801], [-95.963347, 36.0489528]]]}, "properties": {"osm_id": 1341429376, "building": "yes", "name": "", "height": null, "height_m": null, "levels": null, "tract_id": "40143007641", "tract_name": "76.41", "tags": {"building": "yes", "source": "microsoft/BuildingFootprints"}}}, {"type": "Feature", "geometry": {"type": "Polygon", "coordinates": [[[-95.9638423, 36.0488018], [-95.9639374, 36.0492079], [-95.9641109, 36.0491813], [-95.9640157, 36.0487752], [-95.9638423, 36.0488018]]]}, "properties": {"osm_id": 1341429377, "building": "apartments", "name": "", "height": null, "height_m": 6.0, "levels": 2, "tract_id": "40143007641", "tract_name": "76.41", "tags": {"building": "apartments", "building:levels": "2", "roof:levels": "0", "source": "microsoft/BuildingFootprints"}}}, {"type": "Feature", "geometry": {"type": "Polygon", "coordinates": [[[-95.9637724, 36.0494127], [-95.9641502, 36.0494352], [-95.9641641, 36.0492833], [-95.9637862, 36.0492609], [-95.9637724, 36.0494127]]]}, "properties": {"osm_id": 1341429378, "building": "apartments", "name": "", "height": null, "height_m": null, "levels": null, "tract_id": "40143007641", "tract_name": "76.41", "tags": {"building": "apartments", "source": "microsoft/BuildingFootprints"}}}, {"type": "Feature", "geometry": {"type": "Polygon", "coordinates": [[[-95.963524, 36.0490742], [-95.9635058, 36.0493793], [-95.9636851, 36.0493863], [-95.9636961, 36.0492023], [-95.9637094, 36.0492029], [-95.9637166, 36.0490817], [-95.963524, 36.0490742]]]}, "properties": {"osm_id": 1341429379, "building": "yes", "name": "", "height": null, "height_m": null, "levels": null, "tract_id": "40143007641", "tract_name": "76.41", "tags": {"building": "yes", "source": "microsoft/BuildingFootprints"}}}, {"type": "Feature", "geometry": {"type": "Polygon", "coordinates": [[[-95.9634155, 36.0492244], [-95.9630399, 36.0491994], [-95.9630249, 36.0493459], [-95.9634006, 36.0493709], [-95.9634155, 36.0492244]]]}, "properties": {"osm_id": 1341429380, "building": "yes", "name": "", "height": null, "height_m": null, "levels": null, "tract_id": "40143007641", "tract_name": "76.41", "tags": {"building": "yes", "source": "microsoft/BuildingFootprints"}}}, {"type": "Feature", "geometry": {"type": "Polygon", "coordinates": [[[-95.9629447, 36.0497229], [-95.963321, 36.0497445], [-95.9633343, 36.0495935], [-95.962958, 36.0495719], [-95.9629447, 36.0497229]]]}, "properties": {"osm_id": 1341429381, "building": "yes", "name": "", "height": null, "height_m": null, "levels": null, "tract_id": "40143007641", "tract_name": "76.41", "tags": {"building": "yes", "source": "microsoft/BuildingFootprints"}}}, {"type": "Feature", "geometry": {"type": "Polygon", "coordinates": [[[-95.9633918, 36.0500133], [-95.9635726, 36.050027], [-95.9636206, 36.0496143], [-95.9634398, 36.0496006], [-95.9633918, 36.0500133]]]}, "properties": {"osm_id": 1341429382, "building": "yes", "name": "", "height": null, "height_m": null, "levels": null, "tract_id": "40143007641", "tract_name": "76.41", "tags": {"building": "yes", "source": "microsoft/BuildingFootprints"}}}, {"type": "Feature", "geometry": {"type": "Polygon", "coordinates": [[[-95.963763, 36.0498034], [-95.9642716, 36.0498336], [-95.964285, 36.0496856], [-95.9637765, 36.0496554], [-95.963763, 36.0498034]]]}, "properties": {"osm_id": 1341429383, "building": "yes", "name": "", "height": null, "height_m": null, "levels": null, "tract_id": "40143007641", "tract_name": "76.41", "tags": {"building": "yes", "source": "microsoft/BuildingFootprints"}}}, {"type": "Feature", "geometry": {"type": "Polygon", "coordinates": [[[-95.9642736, 36.0499489], [-95.9640896, 36.0499276], [-95.9640358, 36.0502315], [-95.9642198, 36.0502528], [-95.9642736, 36.0499489]]]}, "properties": {"osm_id": 1341429384, "building": "apartments", "name": "", "height": null, "height_m": null, "levels": null, "tract_id": "40143007641", "tract_name": "76.41", "tags": {"building": "apartments", "source": "microsoft/BuildingFootprints"}}}, {"type": "Feature", "geometry": {"type": "Polygon", "coordinates": [[[-95.963909, 36.0499204], [-95.9637361, 36.0498726], [-95.9635697, 36.0502659], [-95.9637426, 36.0503137], [-95.963909, 36.0499204]]]}, "properties": {"osm_id": 1341429385, "building": "yes", "name": "", "height": null, "height_m": null, "levels": null, "tract_id": "40143007641", "tract_name": "76.41", "tags": {"building": "yes", "source": "microsoft/BuildingFootprints"}}}, {"type": "Feature", "geometry": {"type": "Polygon", "coordinates": [[[-95.9630554, 36.0497778], [-95.962849, 36.0501551], [-95.9630151, 36.0502144], [-95.9632214, 36.0498371], [-95.9630554, 36.0497778]]]}, "properties": {"osm_id": 1341429386, "building": "yes", "name": "", "height": null, "height_m": null, "levels": null, "tract_id": "40143007641", "tract_name": "76.41", "tags": {"building": "yes", "source": "microsoft/BuildingFootprints"}}}, {"type": "Feature", "geometry": {"type": "Polygon", "coordinates": [[[-95.9631404, 36.0501764], [-95.9635078, 36.0502436], [-95.9635482, 36.0500992], [-95.9632242, 36.0500399], [-95.963223, 36.0500441], [-95.9631796, 36.0500361], [-95.9631404, 36.0501764]]]}, "properties": {"osm_id": 1341429387, "building": "yes", "name": "", "height": null, "height_m": null, "levels": null, "tract_id": "40143007641", "tract_name": "76.41", "tags": {"building": "yes", "source": "microsoft/BuildingFootprints"}}}, {"type": "Feature", "geometry": {"type": "Polygon", "coordinates": [[[-95.9635403, 36.0510526], [-95.9634984, 36.0511573], [-95.9633323, 36.0511138], [-95.9633031, 36.0511869], [-95.9634803, 36.0512334], [-95.9634922, 36.0512038], [-95.9636154, 36.051236], [-95.9636747, 36.0510877], [-95.9635403, 36.0510526]]]}, "properties": {"osm_id": 1341429388, "building": "office", "name": "", "height": null, "height_m": null, "levels": null, "tract_id": "40143007641", "tract_name": "76.41", "tags": {"addr:city": "Tulsa", "addr:country": "US", "addr:housenumber": "7803", "addr:postcode": "74136", "addr:state": "OK", "addr:street": "South Wheeling Avenue East", "building": "office", "office": "property_management"}}}, {"type": "Feature", "geometry": {"type": "Polygon", "coordinates": [[[-95.9655627, 36.0564671], [-95.9651362, 36.0564672], [-95.9651363, 36.0566081], [-95.9655627, 36.056608], [-95.9655627, 36.0564671]]]}, "properties": {"osm_id": 1341429582, "building": "yes", "name": "", "height": null, "height_m": null, "levels": null, "tract_id": "40143007641", "tract_name": "76.41", "tags": {"building": "yes", "source": "microsoft/BuildingFootprints"}}}, {"type": "Feature", "geometry": {"type": "Polygon", "coordinates": [[[-95.965166, 36.0573243], [-95.9651412, 36.0571796], [-95.9647596, 36.0572224], [-95.9647844, 36.0573671], [-95.965166, 36.0573243]]]}, "properties": {"osm_id": 1341429583, "building": "yes", "name": "", "height": null, "height_m": null, "levels": null, "tract_id": "40143007641", "tract_name": "76.41", "tags": {"building": "yes", "source": "microsoft/BuildingFootprints"}}}, {"type": "Feature", "geometry": {"type": "Polygon", "coordinates": [[[-95.9647521, 36.0576959], [-95.9649683, 36.057694], [-95.9649673, 36.0576138], [-95.9649914, 36.0576136], [-95.9649899, 36.0575008], [-95.9648783, 36.0575018], [-95.9648779, 36.0574714], [-95.9648125, 36.057472], [-95.9648138, 36.0575717], [-95.9647505, 36.0575723], [-95.9647521, 36.0576959]]]}, "properties": {"osm_id": 1341429584, "building": "detached", "name": "The Park at Forest Hills", "height": null, "height_m": null, "levels": null, "tract_id": "40143007641", "tract_name": "76.41", "tags": {"addr:city": "Tulsa", "addr:country": "US", "addr:housenumber": "7324", "addr:postcode": "74136", "addr:state": "OK", "addr:street": "South Wheeling Avenue East", "building": "detached", "name": "The Park at Forest Hills", "office": "property_management"}}}, {"type": "Feature", "geometry": {"type": "Polygon", "coordinates": [[[-95.964402, 36.0584352], [-95.9644085, 36.0581243], [-95.9642342, 36.058122], [-95.9642278, 36.0584328], [-95.964402, 36.0584352]]]}, "properties": {"osm_id": 1341429585, "building": "apartments", "name": "", "height": null, "height_m": 6.0, "levels": 2, "tract_id": "40143007641", "tract_name": "76.41", "tags": {"building": "apartments", "building:levels": "2", "roof:levels": "0", "source": "microsoft/BuildingFootprints"}}}, {"type": "Feature", "geometry": {"type": "Polygon", "coordinates": [[[-95.965044, 36.058225], [-95.9645257, 36.0581466], [-95.9644951, 36.0582786], [-95.9647647, 36.0583194], [-95.9647627, 36.0583278], [-95.9650115, 36.0583654], [-95.965044, 36.058225]]]}, "properties": {"osm_id": 1341429586, "building": "yes", "name": "", "height": null, "height_m": null, "levels": null, "tract_id": "40143007641", "tract_name": "76.41", "tags": {"building": "yes", "source": "microsoft/BuildingFootprints"}}}, {"type": "Feature", "geometry": {"type": "Polygon", "coordinates": [[[-95.9653391, 36.0577436], [-95.9651814, 36.0576864], [-95.9650642, 36.0578976], [-95.9652219, 36.0579548], [-95.9653391, 36.0577436]]]}, "properties": {"osm_id": 1341429587, "building": "yes", "name": "", "height": null, "height_m": null, "levels": null, "tract_id": "40143007641", "tract_name": "76.41", "tags": {"building": "yes", "source": "microsoft/BuildingFootprints"}}}, {"type": "Feature", "geometry": {"type": "Polygon", "coordinates": [[[-95.9654576, 36.0580185], [-95.9654813, 36.0579804], [-95.9655241, 36.0579978], [-95.9655672, 36.0579286], [-95.9653874, 36.0578555], [-95.9653077, 36.0579835], [-95.965434, 36.0580349], [-95.9654469, 36.0580141], [-95.9654576, 36.0580185]]]}, "properties": {"osm_id": 1341429588, "building": "yes", "name": "", "height": null, "height_m": null, "levels": null, "tract_id": "40143007641", "tract_name": "76.41", "tags": {"building": "yes", "source": "microsoft/BuildingFootprints"}}}, {"type": "Feature", "geometry": {"type": "Polygon", "coordinates": [[[-95.9651583, 36.0582465], [-95.9650455, 36.0583522], [-95.9653548, 36.0585677], [-95.9654676, 36.058462], [-95.9651583, 36.0582465]]]}, "properties": {"osm_id": 1341429589, "building": "yes", "name": "", "height": null, "height_m": null, "levels": null, "tract_id": "40143007641", "tract_name": "76.41", "tags": {"building": "yes", "source": "microsoft/BuildingFootprints"}}}, {"type": "Feature", "geometry": {"type": "Polygon", "coordinates": [[[-95.9659357, 36.0581005], [-95.9659377, 36.0582414], [-95.9664633, 36.0582366], [-95.9664614, 36.0580957], [-95.9659357, 36.0581005]]]}, "properties": {"osm_id": 1341429590, "building": "yes", "name": "", "height": null, "height_m": null, "levels": null, "tract_id": "40143007641", "tract_name": "76.41", "tags": {"building": "yes", "source": "microsoft/BuildingFootprints"}}}, {"type": "Feature", "geometry": {"type": "Polygon", "coordinates": [[[-95.9670028, 36.0581932], [-95.9667159, 36.0581939], [-95.9667163, 36.0583088], [-95.9667726, 36.0583087], [-95.9667727, 36.0583382], [-95.9670034, 36.0583376], [-95.9670028, 36.0581932]]]}, "properties": {"osm_id": 1341429591, "building": "yes", "name": "", "height": null, "height_m": null, "levels": null, "tract_id": "40143007641", "tract_name": "76.41", "tags": {"building": "yes", "source": "microsoft/BuildingFootprints"}}}, {"type": "Feature", "geometry": {"type": "Polygon", "coordinates": [[[-95.9663936, 36.059], [-95.9663967, 36.0591518], [-95.9667748, 36.0591468], [-95.9667717, 36.058995], [-95.9663936, 36.059]]]}, "properties": {"osm_id": 1341429592, "building": "yes", "name": "", "height": null, "height_m": null, "levels": null, "tract_id": "40143007641", "tract_name": "76.41", "tags": {"building": "yes", "source": "microsoft/BuildingFootprints"}}}, {"type": "Feature", "geometry": {"type": "Polygon", "coordinates": [[[-95.9663435, 36.058688], [-95.9661575, 36.0586909], [-95.9661646, 36.0589965], [-95.9663506, 36.0589937], [-95.9663435, 36.058688]]]}, "properties": {"osm_id": 1341429593, "building": "yes", "name": "", "height": null, "height_m": null, "levels": null, "tract_id": "40143007641", "tract_name": "76.41", "tags": {"building": "yes", "source": "microsoft/BuildingFootprints"}}}, {"type": "Feature", "geometry": {"type": "Polygon", "coordinates": [[[-95.966336, 36.0595955], [-95.9665019, 36.0596258], [-95.9666131, 36.0592276], [-95.9664472, 36.0591973], [-95.966336, 36.0595955]]]}, "properties": {"osm_id": 1341429594, "building": "yes", "name": "", "height": null, "height_m": null, "levels": null, "tract_id": "40143007641", "tract_name": "76.41", "tags": {"building": "yes", "source": "microsoft/BuildingFootprints"}}}, {"type": "Feature", "geometry": {"type": "Polygon", "coordinates": [[[-95.966268, 36.0598129], [-95.9666462, 36.0598154], [-95.9666477, 36.0596645], [-95.9662696, 36.059662], [-95.966268, 36.0598129]]]}, "properties": {"osm_id": 1341429595, "building": "yes", "name": "", "height": null, "height_m": null, "levels": null, "tract_id": "40143007641", "tract_name": "76.41", "tags": {"building": "yes", "source": "microsoft/BuildingFootprints"}}}, {"type": "Feature", "geometry": {"type": "Polygon", "coordinates": [[[-95.9662919, 36.0602719], [-95.966462, 36.060272], [-95.9664624, 36.0598657], [-95.9662923, 36.0598656], [-95.9662919, 36.0602719]]]}, "properties": {"osm_id": 1341429596, "building": "yes", "name": "", "height": null, "height_m": null, "levels": null, "tract_id": "40143007641", "tract_name": "76.41", "tags": {"building": "yes", "source": "microsoft/BuildingFootprints"}}}, {"type": "Feature", "geometry": {"type": "Polygon", "coordinates": [[[-95.9666456, 36.0603235], [-95.9662688, 36.0603309], [-95.9662734, 36.0604848], [-95.9666502, 36.0604774], [-95.9666456, 36.0603235]]]}, "properties": {"osm_id": 1341429597, "building": "yes", "name": "", "height": null, "height_m": null, "levels": null, "tract_id": "40143007641", "tract_name": "76.41", "tags": {"building": "yes", "source": "microsoft/BuildingFootprints"}}}, {"type": "Feature", "geometry": {"type": "Polygon", "coordinates": [[[-95.9658929, 36.0601699], [-95.9658767, 36.0598669], [-95.9656866, 36.0598736], [-95.9657028, 36.0601766], [-95.9658929, 36.0601699]]]}, "properties": {"osm_id": 1341429598, "building": "yes", "name": "", "height": null, "height_m": null, "levels": null, "tract_id": "40143007641", "tract_name": "76.41", "tags": {"building": "yes", "source": "microsoft/BuildingFootprints"}}}, {"type": "Feature", "geometry": {"type": "Polygon", "coordinates": [[[-95.9655229, 36.0602243], [-95.9655267, 36.0603746], [-95.9659021, 36.0603684], [-95.9658983, 36.060218], [-95.9655229, 36.0602243]]]}, "properties": {"osm_id": 1341429599, "building": "yes", "name": "", "height": null, "height_m": null, "levels": null, "tract_id": "40143007641", "tract_name": "76.41", "tags": {"building": "yes", "source": "microsoft/BuildingFootprints"}}}, {"type": "Feature", "geometry": {"type": "Polygon", "coordinates": [[[-95.9653832, 36.0600629], [-95.9652161, 36.0600809], [-95.9652654, 36.0603813], [-95.9654537, 36.0603611], [-95.965412, 36.0601076], [-95.9653909, 36.0601098], [-95.9653832, 36.0600629]]]}, "properties": {"osm_id": 1341429600, "building": "yes", "name": "", "height": null, "height_m": null, "levels": null, "tract_id": "40143007641", "tract_name": "76.41", "tags": {"building": "yes", "source": "microsoft/BuildingFootprints"}}}, {"type": "Feature", "geometry": {"type": "Polygon", "coordinates": [[[-95.9652215, 36.0600074], [-95.9655917, 36.0600085], [-95.9655924, 36.0598546], [-95.9652223, 36.0598534], [-95.9652215, 36.0600074]]]}, "properties": {"osm_id": 1341429601, "building": "yes", "name": "", "height": null, "height_m": null, "levels": null, "tract_id": "40143007641", "tract_name": "76.41", "tags": {"building": "yes", "source": "microsoft/BuildingFootprints"}}}, {"type": "Feature", "geometry": {"type": "Polygon", "coordinates": [[[-95.9653654, 36.0596148], [-95.9657404, 36.0596265], [-95.9657477, 36.0594735], [-95.9653727, 36.0594618], [-95.9653654, 36.0596148]]]}, "properties": {"osm_id": 1341429602, "building": "yes", "name": "", "height": null, "height_m": null, "levels": null, "tract_id": "40143007641", "tract_name": "76.41", "tags": {"building": "yes", "source": "microsoft/BuildingFootprints"}}}, {"type": "Feature", "geometry": {"type": "Polygon", "coordinates": [[[-95.9660607, 36.0592707], [-95.9658777, 36.0592389], [-95.9657983, 36.0595374], [-95.9659814, 36.0595692], [-95.9660607, 36.0592707]]]}, "properties": {"osm_id": 1341429603, "building": "yes", "name": "", "height": null, "height_m": null, "levels": null, "tract_id": "40143007641", "tract_name": "76.41", "tags": {"building": "yes", "source": "microsoft/BuildingFootprints"}}}, {"type": "Feature", "geometry": {"type": "Polygon", "coordinates": [[[-95.9657734, 36.0592142], [-95.9656098, 36.0592128], [-95.9656099, 36.0592106], [-95.9654865, 36.0592096], [-95.9654845, 36.0593578], [-95.9657715, 36.0593603], [-95.9657734, 36.0592142]]]}, "properties": {"osm_id": 1341429604, "building": "yes", "name": "", "height": null, "height_m": null, "levels": null, "tract_id": "40143007641", "tract_name": "76.41", "tags": {"building": "yes", "source": "microsoft/BuildingFootprints"}}}, {"type": "Feature", "geometry": {"type": "Polygon", "coordinates": [[[-95.9651534, 36.0594553], [-95.9653289, 36.0594951], [-95.9654064, 36.059272], [-95.9652308, 36.0592322], [-95.9651534, 36.0594553]]]}, "properties": {"osm_id": 1341429605, "building": "yes", "name": "", "height": null, "height_m": null, "levels": null, "tract_id": "40143007641", "tract_name": "76.41", "tags": {"building": "yes", "source": "microsoft/BuildingFootprints"}}}, {"type": "Feature", "geometry": {"type": "Polygon", "coordinates": [[[-95.9656053, 36.0589427], [-95.9661096, 36.0589433], [-95.9661098, 36.0588067], [-95.9656055, 36.0588061], [-95.9656053, 36.0589427]]]}, "properties": {"osm_id": 1341429606, "building": "yes", "name": "", "height": null, "height_m": null, "levels": null, "tract_id": "40143007641", "tract_name": "76.41", "tags": {"building": "yes", "source": "microsoft/BuildingFootprints"}}}, {"type": "Feature", "geometry": {"type": "Polygon", "coordinates": [[[-95.9653652, 36.0586933], [-95.9653629, 36.0589977], [-95.9655507, 36.0589986], [-95.965553, 36.0586943], [-95.9653652, 36.0586933]]]}, "properties": {"osm_id": 1341429607, "building": "yes", "name": "", "height": null, "height_m": null, "levels": null, "tract_id": "40143007641", "tract_name": "76.41", "tags": {"building": "yes", "source": "microsoft/BuildingFootprints"}}}, {"type": "Feature", "geometry": {"type": "Polygon", "coordinates": [[[-95.9648003, 36.0587708], [-95.9648016, 36.0589095], [-95.9653058, 36.0589066], [-95.9653047, 36.0587843], [-95.9652403, 36.0587847], [-95.9652402, 36.0587682], [-95.9648003, 36.0587708]]]}, "properties": {"osm_id": 1341429608, "building": "yes", "name": "", "height": null, "height_m": null, "levels": null, "tract_id": "40143007641", "tract_name": "76.41", "tags": {"building": "yes", "source": "microsoft/BuildingFootprints"}}}, {"type": "Feature", "geometry": {"type": "Polygon", "coordinates": [[[-95.9647338, 36.0587635], [-95.9643637, 36.0587066], [-95.9643287, 36.0588551], [-95.9646989, 36.0589121], [-95.9647338, 36.0587635]]]}, "properties": {"osm_id": 1341429609, "building": "apartments", "name": "", "height": null, "height_m": null, "levels": null, "tract_id": "40143007641", "tract_name": "76.41", "tags": {"building": "apartments", "source": "microsoft/BuildingFootprints"}}}, {"type": "Feature", "geometry": {"type": "Polygon", "coordinates": [[[-95.9642852, 36.0590836], [-95.9641725, 36.0594188], [-95.9643473, 36.0594572], [-95.9644601, 36.0591221], [-95.9642852, 36.0590836]]]}, "properties": {"osm_id": 1341429610, "building": "apartments", "name": "", "height": null, "height_m": 6.0, "levels": 2, "tract_id": "40143007641", "tract_name": "76.41", "tags": {"building": "apartments", "building:levels": "2", "roof:levels": "0", "source": "microsoft/BuildingFootprints"}}}, {"type": "Feature", "geometry": {"type": "Polygon", "coordinates": [[[-95.9645036, 36.0592683], [-95.9648719, 36.0593255], [-95.9649064, 36.0591804], [-95.964538, 36.0591232], [-95.9645036, 36.0592683]]]}, "properties": {"osm_id": 1341429611, "building": "yes", "name": "", "height": null, "height_m": null, "levels": null, "tract_id": "40143007641", "tract_name": "76.41", "tags": {"building": "yes", "source": "microsoft/BuildingFootprints"}}}, {"type": "Feature", "geometry": {"type": "Polygon", "coordinates": [[[-95.9646715, 36.0593455], [-95.9645952, 36.0596428], [-95.9647789, 36.0596736], [-95.9648551, 36.0593763], [-95.9646715, 36.0593455]]]}, "properties": {"osm_id": 1341429612, "building": "yes", "name": "", "height": null, "height_m": null, "levels": null, "tract_id": "40143007641", "tract_name": "76.41", "tags": {"building": "yes", "source": "microsoft/BuildingFootprints"}}}, {"type": "Feature", "geometry": {"type": "Polygon", "coordinates": [[[-95.9640915, 36.0595147], [-95.9640946, 36.0596634], [-95.9645236, 36.0596576], [-95.9645205, 36.0595088], [-95.9640915, 36.0595147]]]}, "properties": {"osm_id": 1341429613, "building": "apartments", "name": "", "height": null, "height_m": null, "levels": null, "tract_id": "40143007641", "tract_name": "76.41", "tags": {"building": "apartments", "source": "microsoft/BuildingFootprints"}}}, {"type": "Feature", "geometry": {"type": "Polygon", "coordinates": [[[-95.9643565, 36.0600824], [-95.9643523, 36.0599307], [-95.9639796, 36.0599374], [-95.9639838, 36.0600891], [-95.9643565, 36.0600824]]]}, "properties": {"osm_id": 1341429614, "building": "apartments", "name": "", "height": null, "height_m": null, "levels": null, "tract_id": "40143007641", "tract_name": "76.41", "tags": {"building": "apartments", "source": "microsoft/BuildingFootprints"}}}, {"type": "Feature", "geometry": {"type": "Polygon", "coordinates": [[[-95.9645848, 36.0600155], [-95.9644147, 36.060016], [-95.964416, 36.0603196], [-95.9646065, 36.060319], [-95.964606, 36.0602141], [-95.9645991, 36.0602141], [-95.9645984, 36.060058], [-95.964585, 36.0600581], [-95.9645848, 36.0600155]]]}, "properties": {"osm_id": 1341429615, "building": "yes", "name": "", "height": null, "height_m": null, "levels": null, "tract_id": "40143007641", "tract_name": "76.41", "tags": {"building": "yes", "source": "microsoft/BuildingFootprints"}}}, {"type": "Feature", "geometry": {"type": "Polygon", "coordinates": [[[-95.9649596, 36.0602644], [-95.9648535, 36.0599285], [-95.9646762, 36.0599651], [-95.9647822, 36.060301], [-95.9649596, 36.0602644]]]}, "properties": {"osm_id": 1341429616, "building": "yes", "name": "", "height": null, "height_m": null, "levels": null, "tract_id": "40143007641", "tract_name": "76.41", "tags": {"building": "yes", "source": "microsoft/BuildingFootprints"}}}, {"type": "Feature", "geometry": {"type": "Polygon", "coordinates": [[[-95.9639588, 36.0601106], [-95.9639599, 36.0602537], [-95.9640028, 36.0602534], [-95.9640034, 36.0603371], [-95.9641885, 36.0603362], [-95.9641878, 36.0602387], [-95.9640724, 36.0602392], [-95.9640715, 36.06011], [-95.9639588, 36.0601106]]]}, "properties": {"osm_id": 1341429617, "building": "office", "name": "", "height": null, "height_m": null, "levels": null, "tract_id": "40143007641", "tract_name": "76.41", "tags": {"building": "office", "source": "microsoft/BuildingFootprints"}}}, {"type": "Feature", "geometry": {"type": "Polygon", "coordinates": [[[-95.9633404, 36.0564979], [-95.9633416, 36.0563526], [-95.9630588, 36.0563511], [-95.9630577, 36.0564964], [-95.9633404, 36.0564979]]]}, "properties": {"osm_id": 1342537272, "building": "yes", "name": "", "height": null, "height_m": null, "levels": null, "tract_id": "40143007641", "tract_name": "76.41", "tags": {"building": "yes", "source": "microsoft/BuildingFootprints"}}}, {"type": "Feature", "geometry": {"type": "Polygon", "coordinates": [[[-95.963433, 36.056572], [-95.9636234, 36.0565719], [-95.9636231, 36.0563377], [-95.9634327, 36.0563378], [-95.963433, 36.056572]]]}, "properties": {"osm_id": 1342537273, "building": "yes", "name": "", "height": null, "height_m": null, "levels": null, "tract_id": "40143007641", "tract_name": "76.41", "tags": {"building": "yes", "source": "microsoft/BuildingFootprints"}}}, {"type": "Feature", "geometry": {"type": "Polygon", "coordinates": [[[-95.9634831, 36.0569346], [-95.9636226, 36.0569357], [-95.9636264, 36.0566205], [-95.963487, 36.0566194], [-95.9634831, 36.0569346]]]}, "properties": {"osm_id": 1342537274, "building": "yes", "name": "", "height": null, "height_m": null, "levels": null, "tract_id": "40143007641", "tract_name": "76.41", "tags": {"building": "yes", "source": "microsoft/BuildingFootprints"}}}, {"type": "Feature", "geometry": {"type": "Polygon", "coordinates": [[[-95.9634174, 36.0569911], [-95.9634178, 36.0568762], [-95.9630289, 36.0568753], [-95.9630285, 36.0569903], [-95.9634174, 36.0569911]]]}, "properties": {"osm_id": 1342537275, "building": "yes", "name": "", "height": null, "height_m": null, "levels": null, "tract_id": "40143007641", "tract_name": "76.41", "tags": {"building": "yes", "source": "microsoft/BuildingFootprints"}}}, {"type": "Feature", "geometry": {"type": "Polygon", "coordinates": [[[-95.9629621, 36.0569007], [-95.9629591, 36.0565386], [-95.9628196, 36.0565394], [-95.9628227, 36.0569015], [-95.9629621, 36.0569007]]]}, "properties": {"osm_id": 1342537276, "building": "yes", "name": "", "height": null, "height_m": null, "levels": null, "tract_id": "40143007641", "tract_name": "76.41", "tags": {"building": "yes", "source": "microsoft/BuildingFootprints"}}}, {"type": "Feature", "geometry": {"type": "Polygon", "coordinates": [[[-95.9630308, 36.0564925], [-95.9630287, 36.0563506], [-95.9629445, 36.0563514], [-95.9629466, 36.0564933], [-95.9630308, 36.0564925]]]}, "properties": {"osm_id": 1342537277, "building": "yes", "name": "", "height": null, "height_m": null, "levels": null, "tract_id": "40143007641", "tract_name": "76.41", "tags": {"building": "yes", "source": "microsoft/BuildingFootprints"}}}, {"type": "Feature", "geometry": {"type": "Polygon", "coordinates": [[[-95.9623722, 36.0566235], [-95.962517, 36.0566215], [-95.9625118, 36.0563808], [-95.962367, 36.0563829], [-95.9623722, 36.0566235]]]}, "properties": {"osm_id": 1342537278, "building": "yes", "name": "", "height": null, "height_m": null, "levels": null, "tract_id": "40143007641", "tract_name": "76.41", "tags": {"building": "yes", "source": "microsoft/BuildingFootprints"}}}, {"type": "Feature", "geometry": {"type": "Polygon", "coordinates": [[[-95.9625075, 36.0568379], [-95.9625079, 36.0567772], [-95.9624049, 36.0567767], [-95.9624055, 36.0566801], [-95.9623304, 36.0566798], [-95.9623301, 36.0567275], [-95.9622872, 36.0567273], [-95.9622875, 36.056684], [-95.9621598, 36.0566834], [-95.9621588, 36.0568364], [-95.9625075, 36.0568379]]]}, "properties": {"osm_id": 1342537279, "building": "yes", "name": "", "height": null, "height_m": null, "levels": null, "tract_id": "40143007641", "tract_name": "76.41", "tags": {"building": "yes", "source": "microsoft/BuildingFootprints"}}}, {"type": "Feature", "geometry": {"type": "Polygon", "coordinates": [[[-95.9619784, 36.0566741], [-95.9616968, 36.0566719], [-95.9616951, 36.0568162], [-95.9619767, 36.0568184], [-95.9619784, 36.0566741]]]}, "properties": {"osm_id": 1342537280, "building": "yes", "name": "", "height": null, "height_m": null, "levels": null, "tract_id": "40143007641", "tract_name": "76.41", "tags": {"building": "yes", "source": "microsoft/BuildingFootprints"}}}, {"type": "Feature", "geometry": {"type": "Polygon", "coordinates": [[[-95.9617177, 36.0566189], [-95.9618625, 36.0566168], [-95.9618556, 36.0563025], [-95.9617108, 36.0563045], [-95.9617177, 36.0566189]]]}, "properties": {"osm_id": 1342537281, "building": "yes", "name": "", "height": null, "height_m": null, "levels": null, "tract_id": "40143007641", "tract_name": "76.41", "tags": {"building": "yes", "source": "microsoft/BuildingFootprints"}}}, {"type": "Feature", "geometry": {"type": "Polygon", "coordinates": [[[-95.9623022, 36.0564704], [-95.9622985, 36.0563556], [-95.9619098, 36.0563638], [-95.9619135, 36.0564787], [-95.9623022, 36.0564704]]]}, "properties": {"osm_id": 1342537282, "building": "yes", "name": "", "height": null, "height_m": null, "levels": null, "tract_id": "40143007641", "tract_name": "76.41", "tags": {"building": "yes", "source": "microsoft/BuildingFootprints"}}}, {"type": "Feature", "geometry": {"type": "Polygon", "coordinates": [[[-95.9613779, 36.0562042], [-95.9612357, 36.056205], [-95.9612385, 36.0565194], [-95.9613807, 36.0565186], [-95.9613779, 36.0562042]]]}, "properties": {"osm_id": 1342537283, "building": "yes", "name": "", "height": null, "height_m": null, "levels": null, "tract_id": "40143007641", "tract_name": "76.41", "tags": {"building": "yes", "source": "microsoft/BuildingFootprints"}}}, {"type": "Feature", "geometry": {"type": "Polygon", "coordinates": [[[-95.9614071, 36.056544], [-95.9612677, 36.0565428], [-95.9612635, 36.0568571], [-95.961403, 36.0568583], [-95.9614071, 36.056544]]]}, "properties": {"osm_id": 1342537284, "building": "yes", "name": "", "height": null, "height_m": null, "levels": null, "tract_id": "40143007641", "tract_name": "76.41", "tags": {"building": "yes", "source": "microsoft/BuildingFootprints"}}}, {"type": "Feature", "geometry": {"type": "Polygon", "coordinates": [[[-95.9595945, 36.0562582], [-95.9595978, 36.0563991], [-95.9598648, 36.056395], [-95.9598615, 36.0562541], [-95.9595945, 36.0562582]]]}, "properties": {"osm_id": 1342537285, "building": "yes", "name": "", "height": null, "height_m": null, "levels": null, "tract_id": "40143007641", "tract_name": "76.41", "tags": {"building": "yes", "source": "microsoft/BuildingFootprints"}}}, {"type": "Feature", "geometry": {"type": "Polygon", "coordinates": [[[-95.959502, 36.056561], [-95.959504, 36.0566954], [-95.9596032, 36.0566945], [-95.9596034, 36.0567075], [-95.9598995, 36.0567046], [-95.9598973, 36.0565572], [-95.959502, 36.056561]]]}, "properties": {"osm_id": 1342537286, "building": "yes", "name": "", "height": null, "height_m": null, "levels": null, "tract_id": "40143007641", "tract_name": "76.41", "tags": {"building": "yes", "source": "microsoft/BuildingFootprints"}}}, {"type": "Feature", "geometry": {"type": "Polygon", "coordinates": [[[-95.9601604, 36.0565108], [-95.9599888, 36.0565134], [-95.9599938, 36.0567237], [-95.9601654, 36.056721], [-95.9601604, 36.0565108]]]}, "properties": {"osm_id": 1342537287, "building": "yes", "name": "", "height": null, "height_m": null, "levels": null, "tract_id": "40143007641", "tract_name": "76.41", "tags": {"building": "yes", "source": "microsoft/BuildingFootprints"}}}, {"type": "Feature", "geometry": {"type": "Polygon", "coordinates": [[[-95.9591036, 36.0564597], [-95.9590996, 36.0566721], [-95.9592712, 36.0566743], [-95.9592753, 36.0564618], [-95.9591036, 36.0564597]]]}, "properties": {"osm_id": 1342537288, "building": "yes", "name": "", "height": null, "height_m": null, "levels": null, "tract_id": "40143007641", "tract_name": "76.41", "tags": {"building": "yes", "source": "microsoft/BuildingFootprints"}}}, {"type": "Feature", "geometry": {"type": "Polygon", "coordinates": [[[-95.9591249, 36.0567124], [-95.9591263, 36.0568198], [-95.9590979, 36.0568201], [-95.9590994, 36.0569285], [-95.9592764, 36.0569269], [-95.9592734, 36.0567111], [-95.9591249, 36.0567124]]]}, "properties": {"osm_id": 1342537289, "building": "yes", "name": "", "height": null, "height_m": null, "levels": null, "tract_id": "40143007641", "tract_name": "76.41", "tags": {"building": "yes", "source": "microsoft/BuildingFootprints"}}}]}