{"type": "FeatureCollection", "features": [{"type": "Feature", "geometry": {"type": "Polygon", "coordinates": [[[-97.5480411, 35.6387964], [-97.5478913, 35.6387954], [-97.5478877, 35.63915], [-97.5480375, 35.639151], [-97.5480411, 35.6387964]]]}, "properties": {"osm_id": 184857596, "building": "yes", "name": "", "height": null, "height_m": null, "levels": null, "tract_id": "40109108237", "tract_name": "1082.37", "tags": {"building": "yes"}}}, {"type": "Feature", "geometry": {"type": "Polygon", "coordinates": [[[-97.5330098, 35.6398835], [-97.5330022, 35.6394396], [-97.5328581, 35.6394396], [-97.5328581, 35.639415], [-97.5323157, 35.639418], [-97.53232, 35.6394409], [-97.5321797, 35.6394409], [-97.532175, 35.6400419], [-97.53229, 35.6400419], [-97.5322833, 35.6398843], [-97.5330098, 35.6398835]]]}, "properties": {"osm_id": 672740866, "building": "yes", "name": "Walmart Neighborhood Market", "height": null, "height_m": null, "levels": null, "tract_id": "40109108237", "tract_name": "1082.37", "tags": {"addr:city": "Edmond", "addr:country": "US", "addr:housenumber": "1101", "addr:postcode": "73013", "addr:state": "OK", "addr:street": "Northwest 164th Street", "brand": "Walmart", "brand:wikidata": "Q483551", "building": "yes", "name": "Walmart Neighborhood Market", "opening_hours": "Mo-Su 06:00-24:00", "operator": "Walmart", "payment:app:walmart": "yes", "payment:apple_pay": "no", "payment:google_pay": "no", "payment:samsung_pay": "no", "phone": "+1 405-216-8478", "ref": "3275", "ref:walmart": "3275", "sensory_friendly:accommodation": "dimmed_light;static_screens;no_pa", "sensory_friendly:conditional": "yes @ 08:00-10:00", "shop": "supermarket", "website": "https://www.walmart.com/store/3275/edmond-ok", "wheelchair": "yes"}}}, {"type": "Feature", "geometry": {"type": "Polygon", "coordinates": [[[-97.5418865, 35.6388629], [-97.5418779, 35.6390596], [-97.5416336, 35.6390525], [-97.541638, 35.6389521], [-97.5416714, 35.638953], [-97.5416733, 35.6389093], [-97.5416386, 35.6389083], [-97.5416409, 35.6388558], [-97.5418865, 35.6388629]]]}, "properties": {"osm_id": 672806509, "building": "house", "name": "", "height": null, "height_m": null, "levels": null, "tract_id": "40109108237", "tract_name": "1082.37", "tags": {"building": "house"}}}, {"type": "Feature", "geometry": {"type": "Polygon", "coordinates": [[[-97.5416216, 35.6391104], [-97.5416236, 35.6390719], [-97.5418224, 35.6390788], [-97.5418192, 35.6391396], [-97.5417818, 35.6391383], [-97.5417799, 35.6391743], [-97.5417708, 35.639174], [-97.5417669, 35.6392487], [-97.5415581, 35.6392414], [-97.5415629, 35.6391503], [-97.5416152, 35.6391521], [-97.5416161, 35.6391358], [-97.5416066, 35.6391382], [-97.5416081, 35.63911], [-97.5416216, 35.6391104]]]}, "properties": {"osm_id": 672806510, "building": "house", "name": "", "height": null, "height_m": null, "levels": null, "tract_id": "40109108237", "tract_name": "1082.37", "tags": {"building": "house"}}}, {"type": "Feature", "geometry": {"type": "Polygon", "coordinates": [[[-97.5415522, 35.6392689], [-97.5415482, 35.6393615], [-97.5416132, 35.6393634], [-97.5416123, 35.6393835], [-97.541597, 35.639383], [-97.5415957, 35.6394124], [-97.5415783, 35.6394081], [-97.5415758, 35.6394711], [-97.5418091, 35.6394772], [-97.5418123, 35.6393972], [-97.5417939, 35.6393967], [-97.5417962, 35.6393402], [-97.5418129, 35.6393407], [-97.5418157, 35.6392764], [-97.5415522, 35.6392689]]]}, "properties": {"osm_id": 672806511, "building": "house", "name": "", "height": null, "height_m": null, "levels": null, "tract_id": "40109108237", "tract_name": "1082.37", "tags": {"building": "house"}}}, {"type": "Feature", "geometry": {"type": "Polygon", "coordinates": [[[-97.5418088, 35.639512], [-97.541582, 35.6394855], [-97.5415711, 35.639547], [-97.5415843, 35.6395485], [-97.541581, 35.6395672], [-97.5415214, 35.6395603], [-97.5415038, 35.6396603], [-97.5417166, 35.6396851], [-97.541737, 35.6395692], [-97.5417975, 35.6395763], [-97.5418088, 35.639512]]]}, "properties": {"osm_id": 672806512, "building": "house", "name": "", "height": null, "height_m": null, "levels": null, "tract_id": "40109108237", "tract_name": "1082.37", "tags": {"building": "house"}}}, {"type": "Feature", "geometry": {"type": "Polygon", "coordinates": [[[-97.5414348, 35.6397942], [-97.5413833, 35.6398651], [-97.5415811, 35.6399601], [-97.5415896, 35.6399484], [-97.5416483, 35.6399766], [-97.5417036, 35.6399006], [-97.5416622, 35.6398806], [-97.5416925, 35.639839], [-97.5417184, 35.6398514], [-97.5417534, 35.6398032], [-97.5416126, 35.6397355], [-97.5415891, 35.6397678], [-97.5415781, 35.6397626], [-97.5415397, 35.6398153], [-97.5415559, 35.639823], [-97.5415401, 35.6398447], [-97.5414348, 35.6397942]]]}, "properties": {"osm_id": 672806513, "building": "house", "name": "", "height": null, "height_m": null, "levels": null, "tract_id": "40109108237", "tract_name": "1082.37", "tags": {"building": "house"}}}, {"type": "Feature", "geometry": {"type": "Polygon", "coordinates": [[[-97.5425445, 35.6405094], [-97.5425069, 35.640595], [-97.5424238, 35.6405709], [-97.5424135, 35.6405944], [-97.5424446, 35.6406035], [-97.5424292, 35.6406385], [-97.5423986, 35.6406296], [-97.5423929, 35.6406358], [-97.5422634, 35.6405983], [-97.5422826, 35.6405545], [-97.5422925, 35.6405574], [-97.5423094, 35.6405188], [-97.5422932, 35.6405141], [-97.5423107, 35.6404743], [-97.5423313, 35.6404803], [-97.5423381, 35.6404647], [-97.5424395, 35.6404941], [-97.5424454, 35.6404807], [-97.5425445, 35.6405094]]]}, "properties": {"osm_id": 672806514, "building": "house", "name": "", "height": null, "height_m": null, "levels": null, "tract_id": "40109108237", "tract_name": "1082.37", "tags": {"building": "house"}}}, {"type": "Feature", "geometry": {"type": "Polygon", "coordinates": [[[-97.5490681, 35.640291], [-97.5489501, 35.6401395], [-97.5483735, 35.6404719], [-97.5485076, 35.6406288], [-97.5490681, 35.640291]]]}, "properties": {"osm_id": 672806515, "building": "commercial", "name": "", "height": null, "height_m": null, "levels": null, "tract_id": "40109108237", "tract_name": "1082.37", "tags": {"building": "commercial"}}}, {"type": "Feature", "geometry": {"type": "Polygon", "coordinates": [[[-97.5484606, 35.6413262], [-97.5482633, 35.6413264], [-97.5482617, 35.6406759], [-97.5484552, 35.6406756], [-97.5484554, 35.6407201], [-97.5484745, 35.6407201], [-97.5484747, 35.6407956], [-97.5484588, 35.6407957], [-97.5484589, 35.6408373], [-97.5484817, 35.6408427], [-97.5484807, 35.6409127], [-97.5484652, 35.6409125], [-97.5484648, 35.6409474], [-97.5484802, 35.6409475], [-97.548479, 35.6410468], [-97.5484562, 35.6410466], [-97.5484558, 35.6410892], [-97.5484816, 35.6410893], [-97.5484811, 35.6411594], [-97.5484649, 35.6411594], [-97.5484647, 35.641201], [-97.5484847, 35.6412011], [-97.5484847, 35.6412799], [-97.5484605, 35.64128], [-97.5484606, 35.6413262]]]}, "properties": {"osm_id": 672806516, "building": "commercial", "name": "", "height": null, "height_m": null, "levels": null, "tract_id": "40109108237", "tract_name": "1082.37", "tags": {"building": "commercial"}}}, {"type": "Feature", "geometry": {"type": "Polygon", "coordinates": [[[-97.5483678, 35.6415262], [-97.5485083, 35.641363], [-97.5485783, 35.6414029], [-97.5485678, 35.641415], [-97.5486125, 35.6414404], [-97.5486232, 35.6414328], [-97.5486828, 35.6414681], [-97.5486725, 35.6414796], [-97.5487334, 35.6415157], [-97.5487488, 35.6414985], [-97.5488534, 35.6415605], [-97.5488428, 35.6415724], [-97.5488941, 35.6416028], [-97.5489719, 35.6416257], [-97.5489618, 35.6416375], [-97.5490129, 35.6416665], [-97.5490244, 35.6416532], [-97.5490972, 35.6416946], [-97.5489548, 35.64186], [-97.5483678, 35.6415262]]]}, "properties": {"osm_id": 672806517, "building": "commercial", "name": "", "height": null, "height_m": null, "levels": null, "tract_id": "40109108237", "tract_name": "1082.37", "tags": {"building": "commercial"}}}, {"type": "Feature", "geometry": {"type": "Polygon", "coordinates": [[[-97.5490311, 35.6392516], [-97.5488078, 35.6392498], [-97.5488118, 35.6389177], [-97.5490867, 35.6389199], [-97.5490344, 35.6389864], [-97.5490311, 35.6392516]]]}, "properties": {"osm_id": 672806518, "building": "yes", "name": "AutoZone", "height": null, "height_m": null, "levels": null, "tract_id": "40109108237", "tract_name": "1082.37", "tags": {"brand": "AutoZone", "brand:wikidata": "Q4826087", "building": "yes", "name": "AutoZone", "shop": "car_parts", "website": "https://www.autozone.com/locations/ok/edmond/2015-nw-164th-st.html"}}}, {"type": "Feature", "geometry": {"type": "Polygon", "coordinates": [[[-97.5355833, 35.6500247], [-97.5353562, 35.650023], [-97.5353579, 35.6498703], [-97.5355548, 35.6498718], [-97.5355541, 35.6499363], [-97.5355843, 35.6499365], [-97.5355833, 35.6500247]]]}, "properties": {"osm_id": 1016796462, "building": "yes", "name": "", "height": null, "height_m": null, "levels": null, "tract_id": "40109108237", "tract_name": "1082.37", "tags": {"addr:housenumber": "17516", "building": "yes"}}}, {"type": "Feature", "geometry": {"type": "Polygon", "coordinates": [[[-97.5341008, 35.6526264], [-97.5341015, 35.6524782], [-97.5346117, 35.6524799], [-97.534611, 35.6526281], [-97.5341008, 35.6526264]]]}, "properties": {"osm_id": 1149802435, "building": "yes", "name": "", "height": null, "height_m": null, "levels": null, "tract_id": "40109108237", "tract_name": "1082.37", "tags": {"building": "yes", "shop": "yes"}}}, {"type": "Feature", "geometry": {"type": "Polygon", "coordinates": [[[-97.5360277, 35.6520325], [-97.5358376, 35.6520323], [-97.5358378, 35.651921], [-97.5358378, 35.651814], [-97.5358385, 35.6516778], [-97.5359745, 35.6516783], [-97.5359741, 35.6519222], [-97.5360278, 35.6519222], [-97.5360277, 35.6520325]]]}, "properties": {"osm_id": 1149802450, "building": "yes", "name": "Extra Space Storage", "height": null, "height_m": null, "levels": null, "tract_id": "40109108237", "tract_name": "1082.37", "tags": {"addr:city": "Edmond", "addr:housenumber": "17720", "addr:postcode": "73012", "addr:state": "OK", "addr:street": "Griffin Drive", "brand": "Extra Space Storage", "brand:wikidata": "Q5422162", "building": "yes", "name": "Extra Space Storage", "shop": "storage_rental"}}}, {"type": "Feature", "geometry": {"type": "Polygon", "coordinates": [[[-97.5346345, 35.6520333], [-97.5358376, 35.6520323], [-97.5358378, 35.651921], [-97.5346345, 35.6519196], [-97.5346345, 35.6520333]]]}, "properties": {"osm_id": 1149802451, "building": "yes", "name": "", "height": null, "height_m": null, "levels": null, "tract_id": "40109108237", "tract_name": "1082.37", "tags": {"building": "yes"}}}, {"type": "Feature", "geometry": {"type": "Polygon", "coordinates": [[[-97.5358385, 35.6516778], [-97.5347899, 35.6516739], [-97.5347891, 35.6518103], [-97.5358378, 35.651814], [-97.5358385, 35.6516778]]]}, "properties": {"osm_id": 1149802452, "building": "yes", "name": "", "height": null, "height_m": null, "levels": null, "tract_id": "40109108237", "tract_name": "1082.37", "tags": {"building": "yes"}}}, {"type": "Feature", "geometry": {"type": "Polygon", "coordinates": [[[-97.5346322, 35.6517082], [-97.5340156, 35.6517166], [-97.5340144, 35.6516591], [-97.534631, 35.6516505], [-97.5346322, 35.6517082]]]}, "properties": {"osm_id": 1149802453, "building": "yes", "name": "", "height": null, "height_m": null, "levels": null, "tract_id": "40109108237", "tract_name": "1082.37", "tags": {"building": "yes"}}}, {"type": "Feature", "geometry": {"type": "Polygon", "coordinates": [[[-97.5360351, 35.6516049], [-97.5347892, 35.6516032], [-97.5347893, 35.6515775], [-97.5340163, 35.6515766], [-97.5340164, 35.6515093], [-97.5360353, 35.6515119], [-97.5360351, 35.6516049]]]}, "properties": {"osm_id": 1149802454, "building": "yes", "name": "", "height": null, "height_m": null, "levels": null, "tract_id": "40109108237", "tract_name": "1082.37", "tags": {"building": "yes"}}}, {"type": "Feature", "geometry": {"type": "Polygon", "coordinates": [[[-97.5340151, 35.6514355], [-97.5340159, 35.6513], [-97.5360403, 35.6513076], [-97.5360395, 35.6514434], [-97.5340151, 35.6514355]]]}, "properties": {"osm_id": 1149802455, "building": "yes", "name": "", "height": null, "height_m": null, "levels": null, "tract_id": "40109108237", "tract_name": "1082.37", "tags": {"building": "yes"}}}, {"type": "Feature", "geometry": {"type": "Polygon", "coordinates": [[[-97.5375664, 35.6519116], [-97.5375627, 35.6516596], [-97.5377972, 35.6516574], [-97.5377999, 35.6518411], [-97.5377691, 35.6518414], [-97.5377701, 35.6519097], [-97.5375664, 35.6519116]]]}, "properties": {"osm_id": 1149802456, "building": "yes", "name": "Edmond Trinity Christian", "height": null, "height_m": null, "levels": null, "tract_id": "40109108237", "tract_name": "1082.37", "tags": {"addr:city": "Edmond", "addr:housenumber": "1400", "addr:postcode": "73012", "addr:state": "OK", "addr:street": "Northwest 178th Street", "amenity": "place_of_worship", "building": "yes", "name": "Edmond Trinity Christian", "religion": "christian"}}}, {"type": "Feature", "geometry": {"type": "Polygon", "coordinates": [[[-97.5337115, 35.6525591], [-97.5337119, 35.6523884], [-97.5335996, 35.6523882], [-97.5335992, 35.6525589], [-97.5337115, 35.6525591]]]}, "properties": {"osm_id": 1150082346, "building": "retail", "name": "", "height": null, "height_m": null, "levels": null, "tract_id": "40109108237", "tract_name": "1082.37", "tags": {"amenity": "fast_food", "building": "retail"}}}, {"type": "Feature", "geometry": {"type": "Polygon", "coordinates": [[[-97.5330569, 35.6525821], [-97.5329656, 35.6525829], [-97.5328753, 35.6525837], [-97.5328698, 35.6521797], [-97.5329588, 35.6521789], [-97.5330515, 35.6521781], [-97.5330569, 35.6525821]]]}, "properties": {"osm_id": 1150082347, "building": "industrial", "name": "", "height": null, "height_m": null, "levels": null, "tract_id": "40109108237", "tract_name": "1082.37", "tags": {"amenity": "car_wash", "building": "industrial"}}}, {"type": "Feature", "geometry": {"type": "Polygon", "coordinates": [[[-97.5322894, 35.6525969], [-97.5324387, 35.6525942], [-97.5324415, 35.6522988], [-97.5322843, 35.6522974], [-97.5322312, 35.6522517], [-97.5322324, 35.6520671], [-97.5321273, 35.652068], [-97.5321319, 35.6527166], [-97.5322289, 35.6527155], [-97.5322289, 35.6526442], [-97.5322894, 35.6525969]]]}, "properties": {"osm_id": 1150082349, "building": "roof", "name": "OnCue", "height": null, "height_m": null, "levels": null, "tract_id": "40109108237", "tract_name": "1082.37", "tags": {"amenity": "fuel", "building": "roof", "name": "OnCue"}}}, {"type": "Feature", "geometry": {"type": "Polygon", "coordinates": [[[-97.5396885, 35.6523626], [-97.5398414, 35.6523626], [-97.5398414, 35.6524284], [-97.5399691, 35.6524284], [-97.5399691, 35.6525623], [-97.5398619, 35.6525623], [-97.5398619, 35.6526452], [-97.5396885, 35.6526452], [-97.5396885, 35.6523626]]]}, "properties": {"osm_id": 1150082350, "building": "yes", "name": "", "height": null, "height_m": null, "levels": null, "tract_id": "40109108237", "tract_name": "1082.37", "tags": {"building": "yes"}}}, {"type": "Feature", "geometry": {"type": "Polygon", "coordinates": [[[-97.5324378, 35.6526896], [-97.5325924, 35.6526906], [-97.5325973, 35.6521781], [-97.5324209, 35.6521769], [-97.5324199, 35.6522814], [-97.5324417, 35.6522815], [-97.5324415, 35.6522988], [-97.5324387, 35.6525942], [-97.5324378, 35.6526896]]]}, "properties": {"osm_id": 1157486881, "building": "yes", "name": "OnCue", "height": null, "height_m": null, "levels": null, "tract_id": "40109108237", "tract_name": "1082.37", "tags": {"building": "yes", "name": "OnCue", "shop": "convenience"}}}, {"type": "Feature", "geometry": {"type": "Polygon", "coordinates": [[[-97.5333952, 35.6518388], [-97.5333938, 35.6517429], [-97.5333092, 35.6517438], [-97.5333085, 35.651697], [-97.5331973, 35.6516982], [-97.5331954, 35.6515718], [-97.5333268, 35.6515704], [-97.5333276, 35.6516237], [-97.5335112, 35.6516218], [-97.5335072, 35.6513659], [-97.5330406, 35.6513706], [-97.533042, 35.651461], [-97.533081, 35.6514606], [-97.5330833, 35.6516121], [-97.5329868, 35.6516131], [-97.5329843, 35.6514528], [-97.5327295, 35.6514554], [-97.5327285, 35.6513901], [-97.5326171, 35.6513912], [-97.5326156, 35.6513315], [-97.5326156, 35.6512931], [-97.5325259, 35.651294], [-97.5325265, 35.6513314], [-97.5325271, 35.6513737], [-97.5321302, 35.6513777], [-97.5321361, 35.6517579], [-97.5320985, 35.6517583], [-97.5321003, 35.6518727], [-97.5327371, 35.6518663], [-97.5327341, 35.6516702], [-97.5328628, 35.6516689], [-97.5328655, 35.6518442], [-97.5333952, 35.6518388]]]}, "properties": {"osm_id": 1252221563, "building": "yes", "name": "", "height": null, "height_m": null, "levels": null, "tract_id": "40109108237", "tract_name": "1082.37", "tags": {"building": "yes", "source": "microsoft/BuildingFootprints"}}}]}