{"type": "FeatureCollection", "features": [{"type": "Feature", "geometry": {"type": "Polygon", "coordinates": [[[-95.3773162, 35.7704444], [-95.377321, 35.7707122], [-95.3771366, 35.7707144], [-95.3771318, 35.7704466], [-95.3773162, 35.7704444]]]}, "properties": {"osm_id": 679089995, "building": "retail", "name": "Buffalo Wild Wings", "height": null, "height_m": 3.0, "levels": 1, "tract_id": "40101000200", "tract_name": "2", "tags": {"addr:city": "Muskogee", "addr:housenumber": "1130", "addr:postcode": "74401", "addr:state": "OK", "addr:street": "West Shawnee Street", "amenity": "restaurant", "brand": "Buffalo Wild Wings", "brand:wikidata": "Q509255", "building": "retail", "building:colour": "brown", "building:levels": "1", "building:use": "retail", "cuisine": "wings", "name": "Buffalo Wild Wings", "opening_hours": "Mo-Su 11:00-23:00; Fr,Sa 11:00-24:00", "phone": "+1 918 682 9464", "roof:shape": "flat", "short_name": "BW3", "website": "https://www.buffalowildwings.com/locations/us/ok/muskogee/1130-west-shawnee-street/sports-bar-713/"}}}, {"type": "Feature", "geometry": {"type": "Polygon", "coordinates": [[[-95.3768089, 35.7701671], [-95.3768065, 35.7703717], [-95.3766411, 35.7703704], [-95.3766435, 35.7701658], [-95.3768089, 35.7701671]]]}, "properties": {"osm_id": 679089998, "building": "yes", "name": "Panda Express", "height": null, "height_m": 3.0, "levels": 1, "tract_id": "40101000200", "tract_name": "2", "tags": {"addr:city": "Muskogee", "addr:housenumber": "1102", "addr:postcode": "74401", "addr:state": "OK", "addr:street": "West Shawnee Street", "amenity": "fast_food", "brand": "Panda Express", "brand:wikidata": "Q1358690", "building": "yes", "building:levels": "1", "building:material": "wood", "building:use": "retail", "cuisine": "chinese", "name": "Panda Express", "opening_hours": "10:00-22:00", "outdoor_seating": "yes", "phone": "+1 918 682 2009", "roof:shape": "flat", "survey:date": "2024-03-24", "takeaway": "yes", "toilets": "yes", "website": "https://www.pandaexpress.com/locations/ok/muskogee/1102-w-shawnee"}}}, {"type": "Feature", "geometry": {"type": "Polygon", "coordinates": [[[-95.398052, 35.7717079], [-95.3980568, 35.7713348], [-95.3972684, 35.7713281], [-95.3972637, 35.7716921], [-95.3974964, 35.7716941], [-95.3974961, 35.7717175], [-95.3977708, 35.7717198], [-95.3977712, 35.771689], [-95.3978792, 35.7716899], [-95.397879, 35.7717064], [-95.398052, 35.7717079]]]}, "properties": {"osm_id": 737917386, "building": "yes", "name": "Apex Cinema Muskogee", "height": null, "height_m": null, "levels": null, "tract_id": "40101000200", "tract_name": "2", "tags": {"addr:city": "Muskogee", "addr:housenumber": "2812", "addr:postcode": "74401", "addr:state": "OK", "addr:street": "West Shawnee Street", "amenity": "cinema", "building": "yes", "name": "Apex Cinema Muskogee", "screen": "10", "website": "https://www.apexcinemas.movie/location/44328/Apex-Cinema-Muskogee-Showtimes", "wikidata": "Q43193450"}}}, {"type": "Feature", "geometry": {"type": "Polygon", "coordinates": [[[-95.4036382, 35.7669926], [-95.4033869, 35.7669946], [-95.4033793, 35.7663868], [-95.4034818, 35.7663859], [-95.4034825, 35.7664448], [-95.4036315, 35.7664436], [-95.4036382, 35.7669926]]]}, "properties": {"osm_id": 956578498, "building": "yes", "name": "La Quinta Inn & Suites Muskogee", "height": null, "height_m": null, "levels": null, "tract_id": "40101000200", "tract_name": "2", "tags": {"addr:city": "Muskogee", "addr:housenumber": "1701", "addr:postcode": "74401", "addr:state": "OK", "addr:street": "North 32nd Street", "branch": "Muskogee", "brand": "La Quinta Inn & Suites", "brand:wikidata": "Q6464734", "building": "yes", "name": "La Quinta Inn & Suites Muskogee", "official_name": "La Quinta Inn & Suites by Wyndham", "phone": "+1 918-913-9541", "ref": "53324", "tourism": "hotel", "website": "https://www.wyndhamhotels.com/laquinta/muskogee-oklahoma/la-quinta-muskogee/overview"}}}, {"type": "Feature", "geometry": {"type": "Polygon", "coordinates": [[[-95.4045755, 35.7765203], [-95.4045744, 35.7764737], [-95.4048397, 35.7764645], [-95.4048428, 35.7765128], [-95.4045755, 35.7765203]]]}, "properties": {"osm_id": 989815609, "building": "yes", "name": "", "height": null, "height_m": null, "levels": null, "tract_id": "40101000200", "tract_name": "2", "tags": {"building": "yes"}}}, {"type": "Feature", "geometry": {"type": "Polygon", "coordinates": [[[-95.4054021, 35.7763717], [-95.4054036, 35.7764087], [-95.4056305, 35.7764033], [-95.4056294, 35.7763665], [-95.4054021, 35.7763717]]]}, "properties": {"osm_id": 989815610, "building": "yes", "name": "", "height": null, "height_m": null, "levels": null, "tract_id": "40101000200", "tract_name": "2", "tags": {"building": "yes"}}}, {"type": "Feature", "geometry": {"type": "Polygon", "coordinates": [[[-95.4004845, 35.783481], [-95.4001884, 35.7834834], [-95.4001896, 35.7835811], [-95.4004857, 35.7835786], [-95.4004845, 35.783481]]]}, "properties": {"osm_id": 990221607, "building": "yes", "name": "", "height": null, "height_m": null, "levels": null, "tract_id": "40101000200", "tract_name": "2", "tags": {"building": "yes"}}}, {"type": "Feature", "geometry": {"type": "Polygon", "coordinates": [[[-95.4030749, 35.765657], [-95.4032872, 35.7656594], [-95.4032958, 35.7651688], [-95.4030833, 35.7651664], [-95.4030749, 35.765657]]]}, "properties": {"osm_id": 1057390732, "building": "yes", "name": "Candlewood Suites", "height": null, "height_m": null, "levels": null, "tract_id": "40101000200", "tract_name": "2", "tags": {"addr:city": "Muskogee", "addr:housenumber": "1601", "addr:postcode": "74401", "addr:state": "OK", "addr:street": "North 32nd Street", "brand": "Candlewood Suites", "brand:wikidata": "Q5032010", "building": "yes", "name": "Candlewood Suites", "phone": "+1 918 910 5253", "tourism": "hotel", "website": "https://www.ihg.com/candlewood/hotels/us/en/muskogee/mkocs/hoteldetail"}}}, {"type": "Feature", "geometry": {"type": "Polygon", "coordinates": [[[-95.3782174, 35.7709368], [-95.3782157, 35.7705462], [-95.3780964, 35.7705466], [-95.3780962, 35.7704927], [-95.377935, 35.7704932], [-95.3779352, 35.7705345], [-95.3778013, 35.7705349], [-95.3778031, 35.770938], [-95.3782174, 35.7709368]]]}, "properties": {"osm_id": 1112552352, "building": "yes", "name": "Tractor Supply Company", "height": null, "height_m": null, "levels": null, "tract_id": "40101000200", "tract_name": "2", "tags": {"addr:city": "Muskogee", "addr:housenumber": "1140", "addr:postcode": "74401", "addr:state": "OK", "addr:street": "West Shawnee Street", "brand": "Tractor Supply Company", "brand:wikidata": "Q15109925", "building": "yes", "name": "Tractor Supply Company", "opening_hours": "Mo-Sa 08:00-21:00; Su 09:00-19:00", "phone": "+1 918-686-0419", "ref": "790", "shop": "country_store"}}}, {"type": "Feature", "geometry": {"type": "Polygon", "coordinates": [[[-95.3864223, 35.7725269], [-95.3864264, 35.7720442], [-95.3867769, 35.7720462], [-95.3867781, 35.7718953], [-95.3868292, 35.7718956], [-95.3868312, 35.7716595], [-95.3869154, 35.7716599], [-95.386916, 35.7715919], [-95.3867628, 35.7715911], [-95.3867651, 35.771314], [-95.3861125, 35.7713105], [-95.3861102, 35.7715856], [-95.3859438, 35.7715847], [-95.3859432, 35.771659], [-95.3860462, 35.7716596], [-95.3860442, 35.7718898], [-95.3861017, 35.7718901], [-95.3860962, 35.7725251], [-95.3864223, 35.7725269]]]}, "properties": {"osm_id": 1112556480, "building": "yes", "name": "Bouelevard Christian Church", "height": null, "height_m": null, "levels": null, "tract_id": "40101000200", "tract_name": "2", "tags": {"addr:city": "Muskogee", "addr:housenumber": "1700", "addr:postcode": "74401", "addr:state": "OK", "addr:street": "West Shawnee Street", "amenity": "place_of_worship", "building": "yes", "ele": "182", "gnis:feature_id": "1798864", "name": "Bouelevard Christian Church", "religion": "christian"}}}, {"type": "Feature", "geometry": {"type": "Polygon", "coordinates": [[[-95.4016267, 35.7680251], [-95.401787, 35.7678971], [-95.4016818, 35.7678104], [-95.4015216, 35.7679385], [-95.4016267, 35.7680251]]]}, "properties": {"osm_id": 1112556481, "building": "yes", "name": "Starbucks", "height": null, "height_m": null, "levels": null, "tract_id": "40101000200", "tract_name": "2", "tags": {"addr:city": "Muskogee", "addr:housenumber": "3138", "addr:postcode": "74401", "addr:state": "OK", "addr:street": "Azalea Park Drive", "amenity": "cafe", "branch": "North 32nd & Shawnee Bypass - Musk", "brand": "Starbucks", "brand:wikidata": "Q37158", "building": "yes", "cuisine": "coffee_shop", "internet_access": "wlan", "internet_access:fee": "no", "name": "Starbucks", "official_name": "Starbucks Coffee", "opening_hours": "Mo-Th 04:30-21:30, Fr 04:30-22:00, Sa 05:00-22:00, Su 05:00-21:30", "outdoor_seating": "yes", "phone": "+1 918-683-1800", "ref": "1027944", "takeaway": "yes", "website": "https://www.starbucks.com/store-locator/store/1027944/n-32nd-shawnee-bypass-musk-3138-azalea-park-drive-muskogee-ok-744012203-us"}}}, {"type": "Feature", "geometry": {"type": "Polygon", "coordinates": [[[-95.4037339, 35.7686515], [-95.4037351, 35.7683106], [-95.4036008, 35.7683103], [-95.4036007, 35.7683387], [-95.403541, 35.7683616], [-95.4035408, 35.76843], [-95.4035037, 35.7684299], [-95.4035034, 35.7685551], [-95.4035348, 35.7685552], [-95.4035345, 35.7686511], [-95.4037339, 35.7686515]]]}, "properties": {"osm_id": 1112556482, "building": "yes", "name": "QuikTrip", "height": null, "height_m": null, "levels": null, "tract_id": "40101000200", "tract_name": "2", "tags": {"addr:city": "Muskogee", "addr:housenumber": "1919", "addr:postcode": "74401", "addr:state": "OK", "addr:street": "North 32nd Street", "brand": "QuikTrip", "brand:wikidata": "Q7271953", "building": "yes", "name": "QuikTrip", "shop": "convenience", "short_name": "QT"}}}, {"type": "Feature", "geometry": {"type": "Polygon", "coordinates": [[[-95.4033112, 35.7688609], [-95.4033132, 35.7684993], [-95.4032071, 35.7684989], [-95.4032051, 35.7688605], [-95.4033112, 35.7688609]]]}, "properties": {"osm_id": 1112556483, "building": "roof", "name": "", "height": null, "height_m": null, "levels": null, "tract_id": "40101000200", "tract_name": "2", "tags": {"building": "roof"}}}, {"type": "Feature", "geometry": {"type": "Polygon", "coordinates": [[[-95.4033172, 35.768405], [-95.403314, 35.7680541], [-95.403206, 35.7680548], [-95.4032094, 35.7684057], [-95.4033172, 35.768405]]]}, "properties": {"osm_id": 1112556484, "building": "roof", "name": "", "height": null, "height_m": null, "levels": null, "tract_id": "40101000200", "tract_name": "2", "tags": {"building": "roof"}}}, {"type": "Feature", "geometry": {"type": "Polygon", "coordinates": [[[-95.4045416, 35.7683996], [-95.4045416, 35.7682996], [-95.4040955, 35.7682996], [-95.4040955, 35.7683996], [-95.4045416, 35.7683996]]]}, "properties": {"osm_id": 1112556485, "building": "roof", "name": "QuikTrip", "height": null, "height_m": null, "levels": null, "tract_id": "40101000200", "tract_name": "2", "tags": {"amenity": "fuel", "brand": "QuikTrip", "brand:wikidata": "Q7271953", "building": "roof", "hgv": "yes", "name": "QuikTrip", "short_name": "QT"}}}, {"type": "Feature", "geometry": {"type": "Polygon", "coordinates": [[[-95.4039792, 35.7685198], [-95.4039812, 35.7683135], [-95.4038753, 35.7683128], [-95.4038733, 35.7685192], [-95.4039792, 35.7685198]]]}, "properties": {"osm_id": 1112556486, "building": "roof", "name": "QuikTrip", "height": null, "height_m": null, "levels": null, "tract_id": "40101000200", "tract_name": "2", "tags": {"amenity": "fuel", "brand": "QuikTrip", "brand:wikidata": "Q7271953", "building": "roof", "name": "QuikTrip", "short_name": "QT"}}}, {"type": "Feature", "geometry": {"type": "Polygon", "coordinates": [[[-95.3974861, 35.7706348], [-95.3974868, 35.7704969], [-95.397447, 35.7704967], [-95.3974471, 35.770463], [-95.3973138, 35.7704626], [-95.3973136, 35.7704939], [-95.3972796, 35.7704938], [-95.3972789, 35.7706341], [-95.3974861, 35.7706348]]]}, "properties": {"osm_id": 1112556487, "building": "yes", "name": "Oklahoma AgCredit", "height": null, "height_m": null, "levels": null, "tract_id": "40101000200", "tract_name": "2", "tags": {"addr:city": "Muskogee", "addr:housenumber": "2810", "addr:postcode": "74401", "addr:state": "OK", "addr:street": "West Shawnee Street", "amenity": "bank", "building": "yes", "name": "Oklahoma AgCredit"}}}, {"type": "Feature", "geometry": {"type": "Polygon", "coordinates": [[[-95.3977134, 35.7690077], [-95.3977133, 35.7689865], [-95.3977619, 35.7689862], [-95.3977604, 35.7688023], [-95.3977415, 35.7688024], [-95.3977386, 35.7684575], [-95.3976908, 35.7684577], [-95.3976895, 35.7683016], [-95.3975577, 35.7683023], [-95.397559, 35.7684542], [-95.3975286, 35.7684544], [-95.3975331, 35.7689704], [-95.3975752, 35.7689701], [-95.3975755, 35.7690085], [-95.3977134, 35.7690077]]]}, "properties": {"osm_id": 1112556488, "building": "yes", "name": "Holiday Inn Express & Suites Muskogee", "height": null, "height_m": null, "levels": null, "tract_id": "40101000200", "tract_name": "2", "tags": {"addr:city": "Muskogee", "addr:housenumber": "2701", "addr:postcode": "74401", "addr:state": "OK", "addr:street": "West Shawnee Street", "brand": "Holiday Inn Express & Suites", "brand:wikidata": "Q5880423", "building": "yes", "name": "Holiday Inn Express & Suites Muskogee", "tourism": "hotel"}}}, {"type": "Feature", "geometry": {"type": "Polygon", "coordinates": [[[-95.400408, 35.7682474], [-95.400551, 35.7681243], [-95.400026, 35.7677225], [-95.399883, 35.7678454], [-95.400408, 35.7682474]]]}, "properties": {"osm_id": 1112556489, "building": "yes", "name": "Hotel Muskogee", "height": null, "height_m": null, "levels": null, "tract_id": "40101000200", "tract_name": "2", "tags": {"addr:city": "Muskogee", "addr:housenumber": "3133", "addr:postcode": "74401", "addr:state": "OK", "addr:street": "Azalea Park Drive", "building": "yes", "name": "Hotel Muskogee", "tourism": "hotel"}}}, {"type": "Feature", "geometry": {"type": "Polygon", "coordinates": [[[-95.4012552, 35.7676778], [-95.4012282, 35.7676068], [-95.4011473, 35.7676271], [-95.4011398, 35.7676075], [-95.4009772, 35.7676482], [-95.4010117, 35.7677387], [-95.4012552, 35.7676778]]]}, "properties": {"osm_id": 1112556490, "building": "commercial", "name": "", "height": null, "height_m": null, "levels": null, "tract_id": "40101000200", "tract_name": "2", "tags": {"addr:city": "Muskogee", "addr:housenumber": "3143", "addr:postcode": "74401", "addr:state": "OK", "addr:street": "Azalea Park Drive", "building": "commercial"}}}, {"type": "Feature", "geometry": {"type": "Polygon", "coordinates": [[[-95.4000373, 35.7686417], [-95.4002126, 35.7684982], [-95.3997505, 35.7681263], [-95.3990671, 35.7686853], [-95.3983909, 35.7686863], [-95.3983913, 35.768877], [-95.3991579, 35.768876], [-95.3996912, 35.7684257], [-95.3997676, 35.7684245], [-95.4000373, 35.7686417]]]}, "properties": {"osm_id": 1112556491, "building": "retail", "name": "University Heights Center", "height": null, "height_m": null, "levels": null, "tract_id": "40101000200", "tract_name": "2", "tags": {"building": "retail", "name": "University Heights Center"}}}, {"type": "Feature", "geometry": {"type": "Polygon", "coordinates": [[[-95.4018946, 35.7658566], [-95.4018965, 35.7657433], [-95.4019181, 35.7657436], [-95.4019196, 35.765651], [-95.4016565, 35.7656482], [-95.4016532, 35.7658521], [-95.4017594, 35.7658533], [-95.4017589, 35.7658872], [-95.4018713, 35.7658884], [-95.4018718, 35.7658563], [-95.4018946, 35.7658566]]]}, "properties": {"osm_id": 1112556492, "building": "yes", "name": "IHOP", "height": null, "height_m": null, "levels": null, "tract_id": "40101000200", "tract_name": "2", "tags": {"addr:city": "Muskogee", "addr:housenumber": "1600", "addr:postcode": "74401", "addr:state": "OK", "addr:street": "North 32nd Street", "amenity": "restaurant", "brand": "IHOP", "brand:wikidata": "Q1185675", "building": "yes", "cuisine": "breakfast;pancake", "name": "IHOP", "phone": "+1 918 683 0500", "website": "https://restaurants.ihop.com/en-us/ok/muskogee/breakfast-1600-north-32nd-st-3228"}}}, {"type": "Feature", "geometry": {"type": "Polygon", "coordinates": [[[-95.4011824, 35.7658245], [-95.4011833, 35.7656603], [-95.4009456, 35.7656594], [-95.4009457, 35.7656388], [-95.4007423, 35.765638], [-95.4007422, 35.7656643], [-95.4004954, 35.7656632], [-95.4004944, 35.7658193], [-95.4005442, 35.7658195], [-95.400544, 35.7658522], [-95.4011055, 35.7658545], [-95.4011057, 35.7658242], [-95.4011824, 35.7658245]]]}, "properties": {"osm_id": 1112556493, "building": "yes", "name": "Fairfield Inn & Suites", "height": null, "height_m": null, "levels": null, "tract_id": "40101000200", "tract_name": "2", "tags": {"addr:city": "Muskogee", "addr:housenumber": "1650", "addr:postcode": "74401", "addr:state": "OK", "addr:street": "North 32nd Street", "branch": "Muskogee", "brand": "Fairfield Inn", "brand:wikidata": "Q5430314", "building": "yes", "name": "Fairfield Inn & Suites", "official_name": "Fairfield Inn & Suites by Marriott", "phone": "+1 918-683-6700", "ref": "TULMK", "tourism": "hotel", "website": "https://www.marriott.com/en-us/hotels/tulmk-fairfield-inn-and-suites-muskogee/overview/"}}}, {"type": "Feature", "geometry": {"type": "Polygon", "coordinates": [[[-95.4003215, 35.7670586], [-95.4003242, 35.7663532], [-95.4001111, 35.7663526], [-95.4001098, 35.7666944], [-95.4000292, 35.7666942], [-95.4000291, 35.7667236], [-95.3999888, 35.7667235], [-95.3999884, 35.7668476], [-95.4000227, 35.7668477], [-95.4000226, 35.7668803], [-95.4001065, 35.7668805], [-95.4001058, 35.767058], [-95.4003215, 35.7670586]]]}, "properties": {"osm_id": 1112556494, "building": "yes", "name": "Hampton", "height": null, "height_m": null, "levels": null, "tract_id": "40101000200", "tract_name": "2", "tags": {"addr:city": "Muskogee", "addr:housenumber": "3101", "addr:postcode": "74401", "addr:state": "OK", "addr:street": "Military Boulevard", "alt_name": "Hampton Inn", "branch": "Muskogee", "brand": "Hampton", "brand:wikidata": "Q5646230", "building": "yes", "name": "Hampton", "official_name": "Hampton by Hilton", "phone": "+1 918-682-2587", "ref": "MSGOKHX", "tourism": "hotel", "website": "https://www.hilton.com/en/hotels/msgokhx-hampton-muskogee/"}}}, {"type": "Feature", "geometry": {"type": "Polygon", "coordinates": [[[-95.3996001, 35.7670455], [-95.3995991, 35.766567], [-95.3993844, 35.7665673], [-95.3993851, 35.766902], [-95.3993307, 35.7669021], [-95.3993301, 35.7666641], [-95.3991321, 35.7666644], [-95.399133, 35.767045], [-95.3993318, 35.7670447], [-95.3993317, 35.7670015], [-95.3993691, 35.7670015], [-95.3993692, 35.7670446], [-95.3994124, 35.7670445], [-95.3994125, 35.7670768], [-95.3995504, 35.7670767], [-95.3995504, 35.7670455], [-95.3996001, 35.7670455]]]}, "properties": {"osm_id": 1112556495, "building": "yes", "name": "Comfort Inn & Suites", "height": null, "height_m": null, "levels": null, "tract_id": "40101000200", "tract_name": "2", "tags": {"addr:city": "Muskogee", "addr:housenumber": "3031", "addr:postcode": "74401", "addr:state": "OK", "addr:street": "Military Boulevard", "brand": "Comfort Inn & Suites", "brand:wikidata": "Q113152349", "building": "yes", "name": "Comfort Inn & Suites", "phone": "+1 918-687-9000", "ref": "OK222", "tourism": "hotel", "website": "https://www.choicehotels.com/oklahoma/tahlequah/rodeway-inn-hotels"}}}, {"type": "Feature", "geometry": {"type": "Polygon", "coordinates": [[[-95.3987457, 35.7670339], [-95.3987462, 35.7668065], [-95.398723, 35.7668064], [-95.3987236, 35.7665405], [-95.3984941, 35.7665402], [-95.3984929, 35.7670335], [-95.3987457, 35.7670339]]]}, "properties": {"osm_id": 1112556496, "building": "yes", "name": "Home2 Suites", "height": null, "height_m": null, "levels": null, "tract_id": "40101000200", "tract_name": "2", "tags": {"addr:city": "Muskogee", "addr:housenumber": "2819", "addr:postcode": "74401", "addr:state": "OK", "addr:street": "Military Boulevard", "branch": "Muskogee", "brand": "Home2 Suites", "brand:wikidata": "Q5887912", "building": "yes", "name": "Home2 Suites", "official_name": "Home2 Suites by Hilton", "phone": "+1 918-910-5444", "ref": "MKOHTHT", "tourism": "hotel", "website": "https://www.hilton.com/en/hotels/mkohtht-home2-suites-muskogee/"}}}, {"type": "Feature", "geometry": {"type": "Polygon", "coordinates": [[[-95.3979847, 35.7671381], [-95.3979842, 35.7669905], [-95.3979259, 35.7669906], [-95.3979246, 35.7666038], [-95.3979011, 35.7666038], [-95.3979009, 35.7665449], [-95.3978624, 35.766545], [-95.3978623, 35.7665155], [-95.3977208, 35.7665158], [-95.3977209, 35.7665401], [-95.3976878, 35.7665402], [-95.3976895, 35.7669942], [-95.3976531, 35.7669943], [-95.3976536, 35.7671388], [-95.3979847, 35.7671381]]]}, "properties": {"osm_id": 1112556497, "building": "yes", "name": "Best Western Plus", "height": null, "height_m": null, "levels": null, "tract_id": "40101000200", "tract_name": "2", "tags": {"addr:city": "Muskogee", "addr:housenumber": "2701", "addr:postcode": "74401", "addr:state": "OK", "addr:street": "Military Boulevard", "branch": "The Inn & Suites at Muskogee", "brand": "Best Western Plus", "brand:wikidata": "Q830334", "building": "yes", "name": "Best Western Plus", "phone": "+1 918-910-5060", "ref": "37129", "tourism": "hotel", "website": "https://www.bestwestern.com/en_US/book/hotels-in-muskogee/best-western-plus-the-inn-suites-at-muskogee/propertyCode.37129.html"}}}, {"type": "Feature", "geometry": {"type": "Polygon", "coordinates": [[[-95.3918598, 35.7658365], [-95.3919065, 35.7657387], [-95.3918743, 35.7657285], [-95.3918827, 35.765711], [-95.3918062, 35.7656868], [-95.391751, 35.7658022], [-95.3918598, 35.7658365]]]}, "properties": {"osm_id": 1112559188, "building": "house", "name": "", "height": null, "height_m": null, "levels": null, "tract_id": "40101000200", "tract_name": "2", "tags": {"building": "house"}}}, {"type": "Feature", "geometry": {"type": "Polygon", "coordinates": [[[-95.3916517, 35.765748], [-95.391786, 35.7656657], [-95.3917345, 35.7656103], [-95.3917118, 35.7656242], [-95.391683, 35.7655933], [-95.3915714, 35.7656617], [-95.3916517, 35.765748]]]}, "properties": {"osm_id": 1112559189, "building": "house", "name": "", "height": null, "height_m": null, "levels": null, "tract_id": "40101000200", "tract_name": "2", "tags": {"building": "house"}}}, {"type": "Feature", "geometry": {"type": "Polygon", "coordinates": [[[-95.3916887, 35.7655499], [-95.3916903, 35.7654346], [-95.3916054, 35.7654338], [-95.3916049, 35.7654678], [-95.3915357, 35.7654672], [-95.3915346, 35.7655486], [-95.3916887, 35.7655499]]]}, "properties": {"osm_id": 1112559190, "building": "house", "name": "", "height": null, "height_m": null, "levels": null, "tract_id": "40101000200", "tract_name": "2", "tags": {"building": "house"}}}, {"type": "Feature", "geometry": {"type": "Polygon", "coordinates": [[[-95.3916901, 35.7653765], [-95.3916923, 35.7652849], [-95.3915251, 35.7652822], [-95.3915229, 35.7653739], [-95.3916901, 35.7653765]]]}, "properties": {"osm_id": 1112559191, "building": "house", "name": "", "height": null, "height_m": null, "levels": null, "tract_id": "40101000200", "tract_name": "2", "tags": {"building": "house"}}}, {"type": "Feature", "geometry": {"type": "Polygon", "coordinates": [[[-95.3916879, 35.7652037], [-95.3916869, 35.7650883], [-95.3916081, 35.7650887], [-95.3916084, 35.7651251], [-95.39152, 35.7651256], [-95.3915206, 35.7652047], [-95.3916879, 35.7652037]]]}, "properties": {"osm_id": 1112559192, "building": "house", "name": "", "height": null, "height_m": null, "levels": null, "tract_id": "40101000200", "tract_name": "2", "tags": {"building": "house"}}}, {"type": "Feature", "geometry": {"type": "Polygon", "coordinates": [[[-95.3921312, 35.7658457], [-95.3921329, 35.7657301], [-95.3919871, 35.7657288], [-95.3919863, 35.7657878], [-95.3920256, 35.7657882], [-95.3920248, 35.7658447], [-95.3921312, 35.7658457]]]}, "properties": {"osm_id": 1112559193, "building": "house", "name": "", "height": null, "height_m": null, "levels": null, "tract_id": "40101000200", "tract_name": "2", "tags": {"building": "house"}}}, {"type": "Feature", "geometry": {"type": "Polygon", "coordinates": [[[-95.3923347, 35.7657927], [-95.3923347, 35.765734], [-95.392185, 35.765734], [-95.392185, 35.7658516], [-95.3922866, 35.7658516], [-95.3922865, 35.7657927], [-95.3923347, 35.7657927]]]}, "properties": {"osm_id": 1112559194, "building": "house", "name": "", "height": null, "height_m": null, "levels": null, "tract_id": "40101000200", "tract_name": "2", "tags": {"building": "house"}}}, {"type": "Feature", "geometry": {"type": "Polygon", "coordinates": [[[-95.3925415, 35.7658488], [-95.3925422, 35.7657293], [-95.392385, 35.7657287], [-95.3923847, 35.7657875], [-95.392427, 35.7657877], [-95.3924266, 35.7658484], [-95.3925415, 35.7658488]]]}, "properties": {"osm_id": 1112559195, "building": "house", "name": "", "height": null, "height_m": null, "levels": null, "tract_id": "40101000200", "tract_name": "2", "tags": {"building": "house"}}}, {"type": "Feature", "geometry": {"type": "Polygon", "coordinates": [[[-95.392723, 35.7658523], [-95.3927211, 35.7657281], [-95.3926399, 35.765729], [-95.3926402, 35.7657453], [-95.3925815, 35.7657458], [-95.3925832, 35.7658537], [-95.392723, 35.7658523]]]}, "properties": {"osm_id": 1112559196, "building": "house", "name": "", "height": null, "height_m": null, "levels": null, "tract_id": "40101000200", "tract_name": "2", "tags": {"building": "house"}}}, {"type": "Feature", "geometry": {"type": "Polygon", "coordinates": [[[-95.3929361, 35.765791], [-95.3929357, 35.7657314], [-95.3927879, 35.765732], [-95.3927887, 35.76585], [-95.3928952, 35.7658496], [-95.3928948, 35.7657912], [-95.3929361, 35.765791]]]}, "properties": {"osm_id": 1112559197, "building": "house", "name": "", "height": null, "height_m": null, "levels": null, "tract_id": "40101000200", "tract_name": "2", "tags": {"building": "house"}}}, {"type": "Feature", "geometry": {"type": "Polygon", "coordinates": [[[-95.3931278, 35.7658516], [-95.393128, 35.7657315], [-95.3929955, 35.7657313], [-95.3929953, 35.7658514], [-95.3931278, 35.7658516]]]}, "properties": {"osm_id": 1112559198, "building": "house", "name": "", "height": null, "height_m": null, "levels": null, "tract_id": "40101000200", "tract_name": "2", "tags": {"building": "house"}}}, {"type": "Feature", "geometry": {"type": "Polygon", "coordinates": [[[-95.3933481, 35.7658467], [-95.393349, 35.7657328], [-95.3931935, 35.765732], [-95.393193, 35.7657859], [-95.3932437, 35.7657861], [-95.3932432, 35.7658462], [-95.3933481, 35.7658467]]]}, "properties": {"osm_id": 1112559199, "building": "house", "name": "", "height": null, "height_m": null, "levels": null, "tract_id": "40101000200", "tract_name": "2", "tags": {"building": "house"}}}, {"type": "Feature", "geometry": {"type": "Polygon", "coordinates": [[[-95.3935693, 35.765848], [-95.3935702, 35.7657423], [-95.3935309, 35.7657421], [-95.393531, 35.7657282], [-95.3934503, 35.7657277], [-95.3934493, 35.7658473], [-95.3935693, 35.765848]]]}, "properties": {"osm_id": 1112559200, "building": "house", "name": "", "height": null, "height_m": null, "levels": null, "tract_id": "40101000200", "tract_name": "2", "tags": {"building": "house"}}}, {"type": "Feature", "geometry": {"type": "Polygon", "coordinates": [[[-95.3935805, 35.7654839], [-95.3935808, 35.7653691], [-95.3934671, 35.7653689], [-95.393467, 35.7654164], [-95.3934289, 35.7654164], [-95.3934288, 35.7654818], [-95.3934884, 35.7654819], [-95.3934884, 35.7654987], [-95.3935468, 35.7654988], [-95.3935468, 35.7654838], [-95.3935805, 35.7654839]]]}, "properties": {"osm_id": 1112559201, "building": "house", "name": "", "height": null, "height_m": null, "levels": null, "tract_id": "40101000200", "tract_name": "2", "tags": {"building": "house"}}}, {"type": "Feature", "geometry": {"type": "Polygon", "coordinates": [[[-95.3932139, 35.7654932], [-95.3933499, 35.7654924], [-95.3933491, 35.7654134], [-95.3933032, 35.7654137], [-95.3933028, 35.7653717], [-95.3932127, 35.7653722], [-95.3932139, 35.7654932]]]}, "properties": {"osm_id": 1112559202, "building": "house", "name": "", "height": null, "height_m": null, "levels": null, "tract_id": "40101000200", "tract_name": "2", "tags": {"building": "house"}}}, {"type": "Feature", "geometry": {"type": "Polygon", "coordinates": [[[-95.3931472, 35.7654857], [-95.393146, 35.765372], [-95.3930362, 35.7653727], [-95.3930368, 35.7654252], [-95.3929927, 35.7654255], [-95.3929933, 35.7654826], [-95.3930557, 35.7654822], [-95.3930559, 35.7655024], [-95.3931172, 35.7655019], [-95.393117, 35.7654859], [-95.3931472, 35.7654857]]]}, "properties": {"osm_id": 1112559203, "building": "house", "name": "", "height": null, "height_m": null, "levels": null, "tract_id": "40101000200", "tract_name": "2", "tags": {"building": "house"}}}, {"type": "Feature", "geometry": {"type": "Polygon", "coordinates": [[[-95.3929275, 35.7654987], [-95.3929278, 35.7653621], [-95.3927893, 35.7653619], [-95.3927891, 35.7654773], [-95.3928618, 35.7654774], [-95.3928617, 35.7654986], [-95.3929275, 35.7654987]]]}, "properties": {"osm_id": 1112559204, "building": "house", "name": "", "height": null, "height_m": null, "levels": null, "tract_id": "40101000200", "tract_name": "2", "tags": {"building": "house"}}}, {"type": "Feature", "geometry": {"type": "Polygon", "coordinates": [[[-95.392742, 35.7654856], [-95.3927424, 35.7653715], [-95.3926346, 35.7653712], [-95.3926344, 35.7654195], [-95.3925809, 35.7654193], [-95.3925806, 35.7654852], [-95.392742, 35.7654856]]]}, "properties": {"osm_id": 1112559205, "building": "house", "name": "", "height": null, "height_m": null, "levels": null, "tract_id": "40101000200", "tract_name": "2", "tags": {"building": "house"}}}, {"type": "Feature", "geometry": {"type": "Polygon", "coordinates": [[[-95.3925315, 35.7654841], [-95.3925315, 35.7653655], [-95.3924006, 35.7653655], [-95.3924006, 35.7654841], [-95.3925315, 35.7654841]]]}, "properties": {"osm_id": 1112559206, "building": "house", "name": "", "height": null, "height_m": null, "levels": null, "tract_id": "40101000200", "tract_name": "2", "tags": {"building": "house"}}}, {"type": "Feature", "geometry": {"type": "Polygon", "coordinates": [[[-95.3923316, 35.7654876], [-95.3923308, 35.7654199], [-95.3922881, 35.7654203], [-95.3922875, 35.7653748], [-95.3921772, 35.7653756], [-95.3921786, 35.7654888], [-95.3923316, 35.7654876]]]}, "properties": {"osm_id": 1112559207, "building": "house", "name": "", "height": null, "height_m": null, "levels": null, "tract_id": "40101000200", "tract_name": "2", "tags": {"building": "house"}}}, {"type": "Feature", "geometry": {"type": "Polygon", "coordinates": [[[-95.3923321, 35.7651645], [-95.3923311, 35.7650971], [-95.3921663, 35.7650987], [-95.3921681, 35.7652143], [-95.3922877, 35.7652131], [-95.392287, 35.765165], [-95.3923321, 35.7651645]]]}, "properties": {"osm_id": 1112559208, "building": "house", "name": "", "height": null, "height_m": null, "levels": null, "tract_id": "40101000200", "tract_name": "2", "tags": {"building": "house"}}}, {"type": "Feature", "geometry": {"type": "Polygon", "coordinates": [[[-95.3925207, 35.765218], [-95.3925199, 35.7650973], [-95.3923749, 35.7650979], [-95.3923757, 35.7652187], [-95.3925207, 35.765218]]]}, "properties": {"osm_id": 1112559209, "building": "house", "name": "", "height": null, "height_m": null, "levels": null, "tract_id": "40101000200", "tract_name": "2", "tags": {"building": "house"}}}, {"type": "Feature", "geometry": {"type": "Polygon", "coordinates": [[[-95.3927453, 35.7652151], [-95.3927445, 35.7650965], [-95.392587, 35.7650972], [-95.3925874, 35.7651579], [-95.3926257, 35.7651578], [-95.392626, 35.7652156], [-95.3927453, 35.7652151]]]}, "properties": {"osm_id": 1112559210, "building": "house", "name": "", "height": null, "height_m": null, "levels": null, "tract_id": "40101000200", "tract_name": "2", "tags": {"building": "house"}}}, {"type": "Feature", "geometry": {"type": "Polygon", "coordinates": [[[-95.3929305, 35.7652226], [-95.3929308, 35.7651032], [-95.3928016, 35.765103], [-95.3928013, 35.7652224], [-95.3929305, 35.7652226]]]}, "properties": {"osm_id": 1112559211, "building": "house", "name": "", "height": null, "height_m": null, "levels": null, "tract_id": "40101000200", "tract_name": "2", "tags": {"building": "house"}}}, {"type": "Feature", "geometry": {"type": "Polygon", "coordinates": [[[-95.3931477, 35.7651582], [-95.3931467, 35.7650972], [-95.3929866, 35.7650989], [-95.3929884, 35.7652134], [-95.3930938, 35.7652123], [-95.3930929, 35.7651587], [-95.3931477, 35.7651582]]]}, "properties": {"osm_id": 1112559212, "building": "house", "name": "", "height": null, "height_m": null, "levels": null, "tract_id": "40101000200", "tract_name": "2", "tags": {"building": "house"}}}, {"type": "Feature", "geometry": {"type": "Polygon", "coordinates": [[[-95.3933327, 35.7652131], [-95.3933325, 35.7651016], [-95.3931956, 35.7651019], [-95.3931959, 35.7652134], [-95.3933327, 35.7652131]]]}, "properties": {"osm_id": 1112559213, "building": "house", "name": "", "height": null, "height_m": null, "levels": null, "tract_id": "40101000200", "tract_name": "2", "tags": {"building": "house"}}}, {"type": "Feature", "geometry": {"type": "Polygon", "coordinates": [[[-95.3935745, 35.7652066], [-95.3935737, 35.7650971], [-95.3935399, 35.7650973], [-95.3935398, 35.7650824], [-95.3934912, 35.7650826], [-95.3934913, 35.7650959], [-95.3934232, 35.7650962], [-95.3934236, 35.7651547], [-95.3934672, 35.7651545], [-95.3934676, 35.7652071], [-95.3935745, 35.7652066]]]}, "properties": {"osm_id": 1112559214, "building": "house", "name": "", "height": null, "height_m": null, "levels": null, "tract_id": "40101000200", "tract_name": "2", "tags": {"building": "house"}}}, {"type": "Feature", "geometry": {"type": "Polygon", "coordinates": [[[-95.3935763, 35.7648546], [-95.3935757, 35.7647262], [-95.3934371, 35.7647266], [-95.3934375, 35.7648216], [-95.3934866, 35.7648215], [-95.3934868, 35.7648548], [-95.3935763, 35.7648546]]]}, "properties": {"osm_id": 1112559215, "building": "house", "name": "", "height": null, "height_m": null, "levels": null, "tract_id": "40101000200", "tract_name": "2", "tags": {"building": "house"}}}, {"type": "Feature", "geometry": {"type": "Polygon", "coordinates": [[[-95.393169, 35.764858], [-95.3933195, 35.7648559], [-95.3933181, 35.7647889], [-95.3932739, 35.7647895], [-95.393273, 35.7647454], [-95.3931666, 35.7647468], [-95.393169, 35.764858]]]}, "properties": {"osm_id": 1112559216, "building": "house", "name": "", "height": null, "height_m": null, "levels": null, "tract_id": "40101000200", "tract_name": "2", "tags": {"building": "house"}}}, {"type": "Feature", "geometry": {"type": "Polygon", "coordinates": [[[-95.3930537, 35.7648624], [-95.3930517, 35.7647318], [-95.392913, 35.7647333], [-95.3929146, 35.7648369], [-95.3929763, 35.7648363], [-95.3929767, 35.7648632], [-95.3930537, 35.7648624]]]}, "properties": {"osm_id": 1112559217, "building": "house", "name": "", "height": null, "height_m": null, "levels": null, "tract_id": "40101000200", "tract_name": "2", "tags": {"building": "house"}}}, {"type": "Feature", "geometry": {"type": "Polygon", "coordinates": [[[-95.3928143, 35.7648498], [-95.3928144, 35.7647896], [-95.3927709, 35.7647896], [-95.3927709, 35.7647349], [-95.3926619, 35.7647349], [-95.3926619, 35.7648489], [-95.3926913, 35.7648489], [-95.3926913, 35.7648665], [-95.3927502, 35.7648665], [-95.3927502, 35.7648498], [-95.3928143, 35.7648498]]]}, "properties": {"osm_id": 1112559218, "building": "house", "name": "", "height": null, "height_m": null, "levels": null, "tract_id": "40101000200", "tract_name": "2", "tags": {"building": "house"}}}, {"type": "Feature", "geometry": {"type": "Polygon", "coordinates": [[[-95.3925893, 35.764855], [-95.3925866, 35.7647425], [-95.3924789, 35.7647442], [-95.3924801, 35.7647981], [-95.3924205, 35.7647991], [-95.3924219, 35.7648577], [-95.3925893, 35.764855]]]}, "properties": {"osm_id": 1112559219, "building": "house", "name": "", "height": null, "height_m": null, "levels": null, "tract_id": "40101000200", "tract_name": "2", "tags": {"building": "house"}}}, {"type": "Feature", "geometry": {"type": "Polygon", "coordinates": [[[-95.3923706, 35.7648538], [-95.3923691, 35.7647339], [-95.3922426, 35.7647349], [-95.392244, 35.7648548], [-95.3923706, 35.7648538]]]}, "properties": {"osm_id": 1112559220, "building": "house", "name": "", "height": null, "height_m": null, "levels": null, "tract_id": "40101000200", "tract_name": "2", "tags": {"building": "house"}}}, {"type": "Feature", "geometry": {"type": "Polygon", "coordinates": [[[-95.3921763, 35.7648565], [-95.3921754, 35.7647977], [-95.3921337, 35.7647981], [-95.3921329, 35.7647457], [-95.3920311, 35.7647467], [-95.3920327, 35.7648579], [-95.3921763, 35.7648565]]]}, "properties": {"osm_id": 1112559221, "building": "house", "name": "", "height": null, "height_m": null, "levels": null, "tract_id": "40101000200", "tract_name": "2", "tags": {"building": "house"}}}, {"type": "Feature", "geometry": {"type": "Polygon", "coordinates": [[[-95.3918997, 35.764863], [-95.3918985, 35.7647262], [-95.3917635, 35.7647269], [-95.3917645, 35.7648402], [-95.3918017, 35.76484], [-95.3918019, 35.7648636], [-95.3918997, 35.764863]]]}, "properties": {"osm_id": 1112559222, "building": "house", "name": "", "height": null, "height_m": null, "levels": null, "tract_id": "40101000200", "tract_name": "2", "tags": {"building": "house"}}}, {"type": "Feature", "geometry": {"type": "Polygon", "coordinates": [[[-95.3916805, 35.7648491], [-95.3916791, 35.7647306], [-95.3915444, 35.7647317], [-95.3915458, 35.7648502], [-95.3916805, 35.7648491]]]}, "properties": {"osm_id": 1112559223, "building": "house", "name": "", "height": null, "height_m": null, "levels": null, "tract_id": "40101000200", "tract_name": "2", "tags": {"building": "house"}}}, {"type": "Feature", "geometry": {"type": "Polygon", "coordinates": [[[-95.3946138, 35.7658456], [-95.3946118, 35.7656958], [-95.3946563, 35.7656955], [-95.3946552, 35.7656134], [-95.3945102, 35.7656147], [-95.3945118, 35.7657373], [-95.3943986, 35.7657383], [-95.3944, 35.7658474], [-95.3946138, 35.7658456]]]}, "properties": {"osm_id": 1112559224, "building": "yes", "name": "Old Agency Ba[tist Church", "height": null, "height_m": null, "levels": null, "tract_id": "40101000200", "tract_name": "2", "tags": {"addr:city": "Muskogee", "addr:housenumber": "1115", "addr:postcode": "74401", "addr:state": "OK", "addr:street": "North 24th Street West", "amenity": "place_of_worship", "building": "yes", "denomination": "baptist", "ele": "187", "gnis:feature_id": "1799042", "name": "Old Agency Ba[tist Church", "religion": "christian"}}}, {"type": "Feature", "geometry": {"type": "Polygon", "coordinates": [[[-95.3917721, 35.7673467], [-95.3917733, 35.767259], [-95.3908228, 35.7672503], [-95.3908216, 35.7673378], [-95.3917721, 35.7673467]]]}, "properties": {"osm_id": 1112559225, "building": "yes", "name": "", "height": null, "height_m": null, "levels": null, "tract_id": "40101000200", "tract_name": "2", "tags": {"building": "yes"}}}, {"type": "Feature", "geometry": {"type": "Polygon", "coordinates": [[[-95.391365, 35.7670575], [-95.3913741, 35.766507], [-95.3912309, 35.7665055], [-95.3912218, 35.767056], [-95.391365, 35.7670575]]]}, "properties": {"osm_id": 1112559226, "building": "yes", "name": "", "height": null, "height_m": null, "levels": null, "tract_id": "40101000200", "tract_name": "2", "tags": {"building": "yes"}}}, {"type": "Feature", "geometry": {"type": "Polygon", "coordinates": [[[-95.3911208, 35.7670542], [-95.3911281, 35.7665009], [-95.390986, 35.7664997], [-95.3909787, 35.7670529], [-95.3911208, 35.7670542]]]}, "properties": {"osm_id": 1112559227, "building": "yes", "name": "", "height": null, "height_m": null, "levels": null, "tract_id": "40101000200", "tract_name": "2", "tags": {"building": "yes"}}}, {"type": "Feature", "geometry": {"type": "Polygon", "coordinates": [[[-95.3908792, 35.766237], [-95.3908789, 35.7660092], [-95.3905491, 35.7660095], [-95.3905492, 35.7660639], [-95.3904327, 35.766064], [-95.3904329, 35.7661646], [-95.3906991, 35.7661643], [-95.3906992, 35.7662372], [-95.3908792, 35.766237]]]}, "properties": {"osm_id": 1112559229, "building": "yes", "name": "House of Winn Funeral Home & Cremations", "height": null, "height_m": null, "levels": null, "tract_id": "40101000200", "tract_name": "2", "tags": {"addr:city": "Muskogee", "addr:housenumber": "2200", "addr:postcode": "74401", "addr:state": "OK", "addr:street": "Military Boulevard", "building": "yes", "name": "House of Winn Funeral Home & Cremations", "shop": "funeral_directors"}}}, {"type": "Feature", "geometry": {"type": "Polygon", "coordinates": [[[-95.3901362, 35.7663269], [-95.3901362, 35.7661632], [-95.3900243, 35.7661632], [-95.3900243, 35.7663269], [-95.3901362, 35.7663269]]]}, "properties": {"osm_id": 1112559230, "building": "yes", "name": "", "height": null, "height_m": null, "levels": null, "tract_id": "40101000200", "tract_name": "2", "tags": {"building": "yes"}}}, {"type": "Feature", "geometry": {"type": "Polygon", "coordinates": [[[-95.4036786, 35.7660121], [-95.4036787, 35.7659227], [-95.402975, 35.7659221], [-95.4029748, 35.7660466], [-95.4030854, 35.7660467], [-95.4030854, 35.7660117], [-95.4036786, 35.7660121]]]}, "properties": {"osm_id": 1112559231, "building": "yes", "name": "Muskogee Inn & Suites", "height": null, "height_m": null, "levels": null, "tract_id": "40101000200", "tract_name": "2", "tags": {"addr:city": "Muskogee", "addr:housenumber": "1651", "addr:postcode": "74401", "addr:state": "OK", "addr:street": "North 32nd Street", "building": "yes", "name": "Muskogee Inn & Suites", "tourism": "hotel"}}}, {"type": "Feature", "geometry": {"type": "Polygon", "coordinates": [[[-95.4016922, 35.7667864], [-95.4016904, 35.7666787], [-95.4016533, 35.7666787], [-95.4016515, 35.7665754], [-95.4015949, 35.7665711], [-95.4015896, 35.7662667], [-95.4014869, 35.7662652], [-95.4014869, 35.7662135], [-95.4013277, 35.7662135], [-95.4013277, 35.7661891], [-95.4011985, 35.7661877], [-95.4012003, 35.7662997], [-95.4012187, 35.7663002], [-95.4012203, 35.7663384], [-95.4012234, 35.7663385], [-95.4012252, 35.7664693], [-95.4012045, 35.766469], [-95.4012076, 35.7665639], [-95.4012285, 35.7665637], [-95.4012311, 35.7667763], [-95.40142, 35.7667751], [-95.40142, 35.7667863], [-95.4016922, 35.7667864]]]}, "properties": {"osm_id": 1171583734, "building": "yes", "name": "Triad Eye Institute", "height": null, "height_m": null, "levels": null, "tract_id": "40101000200", "tract_name": "2", "tags": {"addr:city": "Muskogee", "addr:housenumber": "3131", "addr:postcode": "74401", "addr:state": "OK", "addr:street": "Military Boulevard", "amenity": "clinic", "branch": "Muskogee", "building": "yes", "healthcare": "clinic", "name": "Triad Eye Institute", "website": "https://triadeye.com/"}}}, {"type": "Feature", "geometry": {"type": "Polygon", "coordinates": [[[-95.3766864, 35.7711261], [-95.376688, 35.771032], [-95.3763323, 35.7710283], [-95.3763308, 35.7711223], [-95.3766864, 35.7711261]]]}, "properties": {"osm_id": 1171742322, "building": "yes", "name": "Take 5 Car Wash", "height": null, "height_m": null, "levels": null, "tract_id": "40101000200", "tract_name": "2", "tags": {"addr:city": "Muskogee", "addr:housenumber": "2037", "addr:postcode": "74403", "addr:state": "OK", "addr:street": "North 11th Street West", "amenity": "car_wash", "automated": "yes", "brand": "Take 5", "brand:wikidata": "Q112359190", "building": "yes", "name": "Take 5 Car Wash", "shop": "car_repair"}}}, {"type": "Feature", "geometry": {"type": "Polygon", "coordinates": [[[-95.3766114, 35.7693468], [-95.3762848, 35.7693468], [-95.3762848, 35.7688768], [-95.3765991, 35.7688743], [-95.3766114, 35.7693468]]]}, "properties": {"osm_id": 1171747052, "building": "yes", "name": "Cooper's Furniture", "height": null, "height_m": null, "levels": null, "tract_id": "40101000200", "tract_name": "2", "tags": {"addr:city": "Muskogee", "addr:housenumber": "1101", "addr:postcode": "74401", "addr:state": "OK", "addr:street": "West Shawnee Bypass", "building": "yes", "name": "Cooper's Furniture", "shop": "furniture"}}}, {"type": "Feature", "geometry": {"type": "Polygon", "coordinates": [[[-95.3768363, 35.7693793], [-95.3766299, 35.7693768], [-95.3766206, 35.7687893], [-95.3768332, 35.7687968], [-95.3768363, 35.7693793]]]}, "properties": {"osm_id": 1171747053, "building": "yes", "name": "Grease Monkey", "height": null, "height_m": null, "levels": null, "tract_id": "40101000200", "tract_name": "2", "tags": {"addr:city": "Muskogee", "addr:housenumber": "1107", "addr:postcode": "74401", "addr:state": "OK", "addr:street": "West Shawnee Street", "brand": "Grease Monkey", "brand:wikidata": "Q5598563", "building": "yes", "name": "Grease Monkey", "shop": "car_repair"}}}, {"type": "Feature", "geometry": {"type": "Polygon", "coordinates": [[[-95.3815692, 35.7702483], [-95.3815703, 35.7701384], [-95.381129, 35.770127], [-95.381129, 35.770254], [-95.3814699, 35.7702577], [-95.3814711, 35.7702464], [-95.3815692, 35.7702483]]]}, "properties": {"osm_id": 1171747054, "building": "yes", "name": "Arnold Fruit Company", "height": null, "height_m": null, "levels": null, "tract_id": "40101000200", "tract_name": "2", "tags": {"addr:city": "Muskogee", "addr:housenumber": "1412", "addr:postcode": "74401", "addr:state": "OK", "addr:street": "West Shawnee Street", "building": "yes", "name": "Arnold Fruit Company", "shop": "farm"}}}, {"type": "Feature", "geometry": {"type": "Polygon", "coordinates": [[[-95.3879203, 35.770532], [-95.3879188, 35.7702908], [-95.3877832, 35.770292], [-95.3877401, 35.770297], [-95.3877401, 35.7703295], [-95.3874982, 35.7703258], [-95.3874967, 35.770312], [-95.3874089, 35.7703108], [-95.3874089, 35.7703283], [-95.3873873, 35.7703283], [-95.3873858, 35.7704807], [-95.3874043, 35.7704832], [-95.3874027, 35.7706432], [-95.3874998, 35.7706432], [-95.3874998, 35.7706595], [-95.3875907, 35.7706595], [-95.3875876, 35.7705082], [-95.3876307, 35.7705082], [-95.3876307, 35.7704857], [-95.3877709, 35.7704845], [-95.3877694, 35.7705045], [-95.387831, 35.7705032], [-95.387831, 35.770532], [-95.3879203, 35.770532]]]}, "properties": {"osm_id": 1171747055, "building": "yes", "name": "Muskogee Federal Credit Union", "height": null, "height_m": null, "levels": null, "tract_id": "40101000200", "tract_name": "2", "tags": {"addr:city": "Muskogee", "addr:housenumber": "1910", "addr:postcode": "74403", "addr:state": "OK", "addr:street": "West Shawnee Street", "amenity": "bank", "atm": "yes", "building": "yes", "drive_through": "yes", "name": "Muskogee Federal Credit Union"}}}, {"type": "Feature", "geometry": {"type": "Polygon", "coordinates": [[[-95.3910441, 35.7711523], [-95.3906274, 35.7711506], [-95.3906234, 35.7708059], [-95.3905644, 35.7708043], [-95.3905624, 35.7707103], [-95.3906477, 35.7707119], [-95.3906396, 35.7705635], [-95.3909588, 35.7705635], [-95.3909608, 35.7705453], [-95.3910563, 35.7705453], [-95.3910563, 35.770707], [-95.3912901, 35.7707103], [-95.3912901, 35.7709032], [-95.3910441, 35.7709032], [-95.3910441, 35.7711523]]]}, "properties": {"osm_id": 1171747056, "building": "yes", "name": "James Hodge Toyota", "height": null, "height_m": null, "levels": null, "tract_id": "40101000200", "tract_name": "2", "tags": {"addr:city": "Muskogee", "addr:housenumber": "2314", "addr:postcode": "74403", "addr:state": "OK", "addr:street": "West Shawnee Street", "brand": "Toyota", "brand:wikidata": "Q53268", "building": "yes", "name": "James Hodge Toyota", "shop": "car"}}}, {"type": "Feature", "geometry": {"type": "Polygon", "coordinates": [[[-95.4041693, 35.7595117], [-95.4042444, 35.7595117], [-95.4042445, 35.7595987], [-95.4043115, 35.7595987], [-95.4043114, 35.7594637], [-95.4042524, 35.7594638], [-95.4042523, 35.7594268], [-95.4040968, 35.7594269], [-95.404097, 35.7595901], [-95.4041694, 35.7595901], [-95.4041693, 35.7595117]]]}, "properties": {"osm_id": 1312907534, "building": "detached", "name": "", "height": null, "height_m": null, "levels": null, "tract_id": "40101000200", "tract_name": "2", "tags": {"building": "detached"}}}, {"type": "Feature", "geometry": {"type": "Polygon", "coordinates": [[[-95.404988, 35.759573], [-95.4048469, 35.7595439], [-95.4048168, 35.75964], [-95.4049579, 35.7596691], [-95.404988, 35.759573]]]}, "properties": {"osm_id": 1312907537, "building": "detached", "name": "", "height": null, "height_m": null, "levels": null, "tract_id": "40101000200", "tract_name": "2", "tags": {"building": "detached"}}}, {"type": "Feature", "geometry": {"type": "Polygon", "coordinates": [[[-95.4039657, 35.7596109], [-95.4040247, 35.7596122], [-95.4040282, 35.7595078], [-95.4038392, 35.7595036], [-95.4038364, 35.7595871], [-95.4039664, 35.75959], [-95.4039657, 35.7596109]]]}, "properties": {"osm_id": 1312907539, "building": "detached", "name": "", "height": null, "height_m": null, "levels": null, "tract_id": "40101000200", "tract_name": "2", "tags": {"building": "detached"}}}, {"type": "Feature", "geometry": {"type": "Polygon", "coordinates": [[[-95.4044629, 35.7595491], [-95.404463, 35.7596427], [-95.40451, 35.7596426], [-95.4045098, 35.759549], [-95.4044629, 35.7595491]]]}, "properties": {"osm_id": 1312907540, "building": "yes", "name": "", "height": null, "height_m": null, "levels": null, "tract_id": "40101000200", "tract_name": "2", "tags": {"building": "yes"}}}, {"type": "Feature", "geometry": {"type": "Polygon", "coordinates": [[[-95.4033948, 35.7595453], [-95.4033977, 35.7596397], [-95.4034379, 35.7596389], [-95.4034387, 35.759665], [-95.4034736, 35.7596642], [-95.4034748, 35.7597034], [-95.4035552, 35.7597018], [-95.4035505, 35.7595508], [-95.4034513, 35.7595528], [-95.4034511, 35.7595441], [-95.4033948, 35.7595453]]]}, "properties": {"osm_id": 1312907541, "building": "detached", "name": "", "height": null, "height_m": null, "levels": null, "tract_id": "40101000200", "tract_name": "2", "tags": {"building": "detached"}}}, {"type": "Feature", "geometry": {"type": "Polygon", "coordinates": [[[-95.4035971, 35.7600005], [-95.4036963, 35.7600005], [-95.4036963, 35.7599178], [-95.4033195, 35.7599179], [-95.4033196, 35.7603053], [-95.4035194, 35.7603053], [-95.4035194, 35.7602496], [-95.4035972, 35.7602495], [-95.4035971, 35.7600005]]]}, "properties": {"osm_id": 1312907545, "building": "industrial", "name": "Discount Tire", "height": null, "height_m": null, "levels": null, "tract_id": "40101000200", "tract_name": "2", "tags": {"air_conditioning": "yes", "brand": "Discount Tire", "brand:wikidata": "Q5281735", "building": "industrial", "name": "Discount Tire", "shop": "tyres"}}}, {"type": "Feature", "geometry": {"type": "Polygon", "coordinates": [[[-95.4047885, 35.7595292], [-95.4047363, 35.7595181], [-95.4047272, 35.7595461], [-95.4046897, 35.759538], [-95.4046955, 35.7595202], [-95.4046074, 35.7595014], [-95.4045708, 35.7596139], [-95.4046401, 35.7596288], [-95.4046476, 35.7596057], [-95.4046925, 35.7596153], [-95.4046896, 35.759624], [-95.4047532, 35.7596377], [-95.4047885, 35.7595292]]]}, "properties": {"osm_id": 1312907547, "building": "detached", "name": "", "height": null, "height_m": null, "levels": null, "tract_id": "40101000200", "tract_name": "2", "tags": {"building": "detached"}}}, {"type": "Feature", "geometry": {"type": "Polygon", "coordinates": [[[-95.4044955, 35.7593678], [-95.4044472, 35.7593684], [-95.4044482, 35.7594215], [-95.4043516, 35.7594226], [-95.4043533, 35.759511], [-95.4044949, 35.7595093], [-95.4044946, 35.7594934], [-95.4045353, 35.7594929], [-95.4045341, 35.7594291], [-95.4044966, 35.7594296], [-95.4044955, 35.7593678]]]}, "properties": {"osm_id": 1312907549, "building": "detached", "name": "", "height": null, "height_m": null, "levels": null, "tract_id": "40101000200", "tract_name": "2", "tags": {"building": "detached"}}}, {"type": "Feature", "geometry": {"type": "Polygon", "coordinates": [[[-95.4036002, 35.7596172], [-95.4036712, 35.7596161], [-95.4036729, 35.7596901], [-95.403736, 35.7596891], [-95.4037343, 35.7596173], [-95.4037959, 35.7596164], [-95.4037937, 35.7595185], [-95.4035979, 35.7595215], [-95.4036002, 35.7596172]]]}, "properties": {"osm_id": 1312907550, "building": "detached", "name": "", "height": null, "height_m": null, "levels": null, "tract_id": "40101000200", "tract_name": "2", "tags": {"building": "detached"}}}, {"type": "Feature", "geometry": {"type": "Polygon", "coordinates": [[[-95.4006904, 35.7688493], [-95.400604, 35.768778], [-95.4004866, 35.7688717], [-95.4004123, 35.7688103], [-95.4003518, 35.7688585], [-95.4004415, 35.7689325], [-95.400413, 35.7689553], [-95.4004861, 35.7690156], [-95.4005291, 35.7689812], [-95.4005446, 35.7689941], [-95.4005815, 35.7689646], [-95.4005692, 35.7689459], [-95.4006904, 35.7688493]]]}, "properties": {"osm_id": 1346397575, "building": "yes", "name": "Whataburger", "height": null, "height_m": null, "levels": null, "tract_id": "40101000200", "tract_name": "2", "tags": {"addr:city": "Muskogee", "addr:housenumber": "3113", "addr:postcode": "74401", "addr:state": "OK", "addr:street": "West Shawnee Bypass", "amenity": "fast_food", "brand": "Whataburger", "brand:wikidata": "Q376627", "building": "yes", "cuisine": "burger", "delivery": "yes", "drive_through": "yes", "layer": "1", "name": "Whataburger", "opening_hours": "Mo-Su 06:00-23:00", "opening_hours:drive_through": "24/7", "phone": "+1-918-913-4135", "takeaway": "yes", "website": "https://whataburger.com"}}}, {"type": "Feature", "geometry": {"type": "Polygon", "coordinates": [[[-95.3853133, 35.7685329], [-95.3858382, 35.7685363], [-95.3858332, 35.769042], [-95.3853081, 35.7690386], [-95.3853133, 35.7685329]]]}, "properties": {"osm_id": 1395942167, "building": "yes", "name": "", "height": null, "height_m": null, "levels": null, "tract_id": "40101000200", "tract_name": "2", "tags": {"building": "yes"}}}, {"type": "Feature", "geometry": {"type": "Polygon", "coordinates": [[[-95.3820883, 35.7688376], [-95.3825902, 35.7688339], [-95.3825948, 35.769245], [-95.382093, 35.7692488], [-95.3820883, 35.7688376]]]}, "properties": {"osm_id": 1395942168, "building": "yes", "name": "", "height": null, "height_m": null, "levels": null, "tract_id": "40101000200", "tract_name": "2", "tags": {"building": "yes"}}}, {"type": "Feature", "geometry": {"type": "Polygon", "coordinates": [[[-95.3809079, 35.7687629], [-95.3811671, 35.7687608], [-95.3811738, 35.7693159], [-95.3809147, 35.769318], [-95.3809079, 35.7687629]]]}, "properties": {"osm_id": 1395942169, "building": "yes", "name": "", "height": null, "height_m": null, "levels": null, "tract_id": "40101000200", "tract_name": "2", "tags": {"building": "yes"}}}, {"type": "Feature", "geometry": {"type": "Polygon", "coordinates": [[[-95.396309, 35.7703956], [-95.3969254, 35.7704], [-95.3969216, 35.7707486], [-95.3963052, 35.7707441], [-95.396309, 35.7703956]]]}, "properties": {"osm_id": 1395942171, "building": "yes", "name": "", "height": null, "height_m": null, "levels": null, "tract_id": "40101000200", "tract_name": "2", "tags": {"building": "yes"}}}, {"type": "Feature", "geometry": {"type": "Polygon", "coordinates": [[[-95.4013403, 35.7716447], [-95.4012405, 35.7717214], [-95.4011247, 35.7716223], [-95.4012244, 35.7715455], [-95.4013403, 35.7716447]]]}, "properties": {"osm_id": 1409336893, "building": "yes", "name": "", "height": null, "height_m": null, "levels": null, "tract_id": "40101000200", "tract_name": "2", "tags": {"addr:city": "Muskogee", "addr:housenumber": "2238", "addr:postcode": "74401", "addr:state": "OK", "addr:street": "North 32nd Street West", "building": "yes"}}}, {"type": "Feature", "geometry": {"type": "Polygon", "coordinates": [[[-95.401672, 35.7686927], [-95.401681, 35.7684436], [-95.4013859, 35.7684412], [-95.40138, 35.7686879], [-95.401672, 35.7686927]]]}, "properties": {"osm_id": 1421668720, "building": "yes", "name": "Olive Garden", "height": null, "height_m": null, "levels": null, "tract_id": "40101000200", "tract_name": "2", "tags": {"addr:city": "Muskogee", "addr:housenumber": "3141", "addr:postcode": "74401", "addr:state": "OK", "addr:street": "West Shawnee Bypass", "amenity": "restaurant", "brand": "Olive Garden", "brand:wikidata": "Q3045312", "building": "yes", "cuisine": "italian", "name": "Olive Garden", "opening_hours": "Su-Th 11:00-22:00, Fr-Sa 11:00-23:00", "phone": "+1-539-218-1114", "website": "https://www.olivegarden.com/locations/ok/muskogee/muskogee-ok-n-32nd-street/6503"}}}, {"type": "Feature", "geometry": {"type": "Polygon", "coordinates": [[[-95.3893742, 35.7710844], [-95.3893794, 35.7703964], [-95.3892466, 35.7703957], [-95.3892468, 35.7703774], [-95.3891346, 35.7703768], [-95.3891345, 35.7703839], [-95.3889942, 35.7703831], [-95.3889903, 35.7708805], [-95.3890577, 35.7708808], [-95.3890555, 35.7711593], [-95.3892797, 35.7711604], [-95.3892803, 35.7710839], [-95.3893742, 35.7710844]]]}, "properties": {"osm_id": 1421668721, "building": "yes", "name": "Golden Rule Industries", "height": null, "height_m": null, "levels": null, "tract_id": "40101000200", "tract_name": "2", "tags": {"addr:city": "Muskogee", "addr:housenumber": "2022", "addr:postcode": "74401", "addr:state": "OK", "addr:street": "West Shawnee Street", "building": "yes", "name": "Golden Rule Industries", "opening_hours": "Mo-Fr 09:00-16:00", "shop": "second_hand", "website": "https://www.goldenrulejobs.org/"}}}, {"type": "Feature", "geometry": {"type": "Polygon", "coordinates": [[[-95.3883173, 35.7704149], [-95.3883173, 35.7703091], [-95.3881868, 35.770309], [-95.3881868, 35.7704149], [-95.3883173, 35.7704149]]]}, "properties": {"osm_id": 1421668723, "building": "yes", "name": "Shawnee Restaurant", "height": null, "height_m": null, "levels": null, "tract_id": "40101000200", "tract_name": "2", "tags": {"addr:city": "Muskogee", "addr:housenumber": "2010", "addr:postcode": "74401", "addr:state": "OK", "addr:street": "West Shawnee Street", "amenity": "restaurant", "building": "yes", "cuisine": "breakfast;american", "name": "Shawnee Restaurant", "opening_hours": "Tu-Su 06:00-13:45", "phone": "+19186833140"}}}, {"type": "Feature", "geometry": {"type": "Polygon", "coordinates": [[[-95.3926898, 35.7705532], [-95.3926868, 35.7703887], [-95.3925169, 35.7703887], [-95.3925139, 35.7705532], [-95.3926898, 35.7705532]]]}, "properties": {"osm_id": 1421668724, "building": "commercial", "name": "West Termite, Pest & Lawn", "height": null, "height_m": null, "levels": null, "tract_id": "40101000200", "tract_name": "2", "tags": {"addr:city": "Muskogee", "addr:housenumber": "2320", "addr:postcode": "74401", "addr:state": "OK", "addr:street": "West Shawnee Street", "building": "commercial", "name": "West Termite, Pest & Lawn", "website": "https://westtermite.com/"}}}, {"type": "Feature", "geometry": {"type": "Polygon", "coordinates": [[[-95.3935362, 35.7707901], [-95.3935332, 35.7703501], [-95.3931905, 35.7703476], [-95.3931905, 35.7707901], [-95.3935362, 35.7707901]]]}, "properties": {"osm_id": 1421668725, "building": "yes", "name": "Allen Furniture", "height": null, "height_m": null, "levels": null, "tract_id": "40101000200", "tract_name": "2", "tags": {"addr:city": "Muskogee", "addr:housenumber": "2332", "addr:postcode": "74401", "addr:state": "OK", "addr:street": "West Shawnee Street", "building": "yes", "name": "Allen Furniture", "opening_hours": "Mo-Sa 10:00-18:00", "phone": "(918) 682-0033", "shop": "furniture", "website": "https://www.allenfurniture.biz/"}}}, {"type": "Feature", "geometry": {"type": "Polygon", "coordinates": [[[-95.394655, 35.7711667], [-95.3945074, 35.7711692], [-95.394506, 35.7711319], [-95.394393, 35.7711352], [-95.3943908, 35.7710133], [-95.3943078, 35.7710155], [-95.3943087, 35.7708571], [-95.3943701, 35.7708545], [-95.3943646, 35.7707129], [-95.3944042, 35.7707128], [-95.3944078, 35.7706723], [-95.394898, 35.7706697], [-95.3948991, 35.7707025], [-95.3949316, 35.7707015], [-95.3949316, 35.7707334], [-95.3950006, 35.7707334], [-95.3949982, 35.77081], [-95.3949666, 35.770817], [-95.3949668, 35.7708442], [-95.3947435, 35.770847], [-95.3947451, 35.7709163], [-95.3947226, 35.7709644], [-95.3946959, 35.7709795], [-95.394651, 35.7709876], [-95.394655, 35.7711667]]]}, "properties": {"osm_id": 1421668726, "building": "university", "name": "Administration Building", "height": null, "height_m": null, "levels": null, "tract_id": "40101000200", "tract_name": "2", "tags": {"building": "university", "name": "Administration Building"}}}, {"type": "Feature", "geometry": {"type": "Polygon", "coordinates": [[[-95.3951808, 35.7711312], [-95.3951864, 35.7707998], [-95.3951367, 35.7708009], [-95.3951367, 35.770792], [-95.3950912, 35.7707909], [-95.3950925, 35.7707998], [-95.3950277, 35.7708009], [-95.3950277, 35.770886], [-95.3948608, 35.7708905], [-95.3948594, 35.7709834], [-95.3947738, 35.7709823], [-95.3947752, 35.7710091], [-95.3947352, 35.7710091], [-95.3947338, 35.7711334], [-95.3951808, 35.7711312]]]}, "properties": {"osm_id": 1421668727, "building": "college", "name": "CSC Student Center", "height": null, "height_m": null, "levels": null, "tract_id": "40101000200", "tract_name": "2", "tags": {"building": "college", "name": "CSC Student Center"}}}, {"type": "Feature", "geometry": {"type": "Polygon", "coordinates": [[[-95.3955175, 35.7713013], [-95.3952857, 35.7713047], [-95.3952857, 35.7712912], [-95.3952567, 35.7712912], [-95.395254, 35.7711591], [-95.3952788, 35.7711591], [-95.3952729, 35.7707332], [-95.3952725, 35.7707041], [-95.3952719, 35.7706588], [-95.3952512, 35.7706588], [-95.3952471, 35.770567], [-95.3952719, 35.7705681], [-95.3952829, 35.7705367], [-95.3953009, 35.7705065], [-95.395334, 35.7704886], [-95.3953823, 35.7704785], [-95.3954319, 35.7704853], [-95.3954761, 35.7705099], [-95.395494, 35.77053], [-95.3955023, 35.7705647], [-95.3955299, 35.7705647], [-95.395534, 35.7706476], [-95.3955092, 35.7706487], [-95.3955092, 35.770764], [-95.3955865, 35.7707606], [-95.3955878, 35.7709341], [-95.3955106, 35.7709353], [-95.3955175, 35.7713013]]]}, "properties": {"osm_id": 1421668728, "building": "university", "name": "Mike Synar Center", "height": null, "height_m": null, "levels": null, "tract_id": "40101000200", "tract_name": "2", "tags": {"building": "university", "name": "Mike Synar Center"}}}, {"type": "Feature", "geometry": {"type": "Polygon", "coordinates": [[[-95.3944132, 35.769166], [-95.3944146, 35.768866], [-95.3942567, 35.7688655], [-95.394257, 35.7688172], [-95.3941413, 35.7688169], [-95.3941411, 35.7688609], [-95.3939749, 35.7688603], [-95.3939733, 35.7691606], [-95.3941359, 35.7691612], [-95.3941356, 35.7692112], [-95.3942445, 35.7692116], [-95.3942447, 35.7691655], [-95.3944132, 35.769166]]]}, "properties": {"osm_id": 1424254427, "building": "yes", "name": "Social Security Administration", "height": null, "height_m": null, "levels": null, "tract_id": "40101000200", "tract_name": "2", "tags": {"addr:city": "Muskogee", "addr:housenumber": "2401", "addr:postcode": "74401", "addr:state": "OK", "addr:street": "West Shawnee Street", "building": "yes", "fax": "+1-833-950-3013", "government": "social_security", "name": "Social Security Administration", "office": "government", "opening_hours": "Mo-Fr 09:00-16:00", "operator": "Social Security Administration", "operator:short": "SSA", "operator:wikidata": "Q2824618", "phone": "+1-877-575-5195", "website": "https://ssa.gov"}}}, {"type": "Feature", "geometry": {"type": "Polygon", "coordinates": [[[-95.4086635, 35.7674862], [-95.4086162, 35.7674883], [-95.4085434, 35.7675267], [-95.4084425, 35.7675287], [-95.4084451, 35.767564], [-95.4078409, 35.7675692], [-95.407837, 35.7673194], [-95.4079411, 35.7673251], [-95.4079395, 35.7672813], [-95.4083769, 35.7672884], [-95.408377, 35.767299], [-95.4085739, 35.7672971], [-95.4086174, 35.7673388], [-95.4086647, 35.7673379], [-95.4086794, 35.7673934], [-95.4086843, 35.7674357], [-95.4086635, 35.7674862]]]}, "properties": {"osm_id": 1427955119, "building": "yes", "name": "Oldham Memorial Baptist Church", "height": null, "height_m": null, "levels": null, "tract_id": "40101000200", "tract_name": "2", "tags": {"addr:city": "Muskogee", "addr:housenumber": "3605", "addr:postcode": "74401", "addr:state": "OK", "addr:street": "Tahlequah Street", "amenity": "place_of_worship", "building": "yes", "denomination": "southern_baptist", "name": "Oldham Memorial Baptist Church", "religion": "christian"}}}, {"type": "Feature", "geometry": {"type": "Polygon", "coordinates": [[[-95.4021344, 35.7792384], [-95.4019597, 35.7792388], [-95.4019595, 35.7791715], [-95.401893, 35.7791717], [-95.4018926, 35.7790547], [-95.4019641, 35.7790546], [-95.4019639, 35.7789891], [-95.4021337, 35.7789888], [-95.4021344, 35.7792384]]]}, "properties": {"osm_id": 1432611479, "building": "yes", "name": "Amish Country Store & Restaurant", "height": null, "height_m": null, "levels": null, "tract_id": "40101000200", "tract_name": "2", "tags": {"addr:city": "Muskogee", "addr:housenumber": "2410", "addr:postcode": "74401", "addr:state": "OK", "addr:street": "North 32nd Street West", "amenity": "restaurant", "building": "yes", "name": "Amish Country Store & Restaurant", "website": "https://www.amishcountrystoreok.com/"}}}, {"type": "Feature", "geometry": {"type": "Polygon", "coordinates": [[[-95.4017989, 35.780347], [-95.4018009, 35.7801397], [-95.4013548, 35.7801331], [-95.4013548, 35.7803453], [-95.4017989, 35.780347]]]}, "properties": {"osm_id": 1432611480, "building": "yes", "name": "", "height": null, "height_m": null, "levels": null, "tract_id": "40101000200", "tract_name": "2", "tags": {"addr:city": "Muskogee", "addr:housenumber": "2426", "addr:postcode": "74401", "addr:state": "OK", "addr:street": "North 32nd Street West", "building": "yes"}}}, {"type": "Feature", "geometry": {"type": "Polygon", "coordinates": [[[-95.4013568, 35.7800311], [-95.4010141, 35.7800328], [-95.4010101, 35.7796166], [-95.4014075, 35.7796182], [-95.4014055, 35.7798798], [-95.4013507, 35.7798831], [-95.4013568, 35.7800311]]]}, "properties": {"osm_id": 1432611481, "building": "yes", "name": "", "height": null, "height_m": null, "levels": null, "tract_id": "40101000200", "tract_name": "2", "tags": {"addr:city": "Muskogee", "addr:housenumber": "2424", "addr:postcode": "74401", "addr:state": "OK", "addr:street": "North 32nd Street West", "building": "yes"}}}, {"type": "Feature", "geometry": {"type": "Polygon", "coordinates": [[[-95.4022082, 35.7799125], [-95.4022077, 35.7797505], [-95.4020434, 35.7797508], [-95.402044, 35.7799129], [-95.4022082, 35.7799125]]]}, "properties": {"osm_id": 1432611482, "building": "yes", "name": "", "height": null, "height_m": null, "levels": null, "tract_id": "40101000200", "tract_name": "2", "tags": {"addr:city": "Muskogee", "addr:housenumber": "2422", "addr:postcode": "74401", "addr:state": "OK", "addr:street": "North 32nd Street West", "building": "yes"}}}, {"type": "Feature", "geometry": {"type": "Polygon", "coordinates": [[[-95.4018354, 35.7805575], [-95.401367, 35.7805575], [-95.401367, 35.7804013], [-95.4018333, 35.7804062], [-95.4018354, 35.7805575]]]}, "properties": {"osm_id": 1432611483, "building": "yes", "name": "", "height": null, "height_m": null, "levels": null, "tract_id": "40101000200", "tract_name": "2", "tags": {"addr:city": "Muskogee", "addr:housenumber": "2428", "addr:postcode": "74401", "addr:state": "OK", "addr:street": "North 32nd Street West", "building": "yes"}}}, {"type": "Feature", "geometry": {"type": "Polygon", "coordinates": [[[-95.4022012, 35.7809044], [-95.4021423, 35.7809048], [-95.4021422, 35.7808934], [-95.4016416, 35.780897], [-95.4016386, 35.7806256], [-95.4021705, 35.7806217], [-95.4021712, 35.7806895], [-95.4021988, 35.7806893], [-95.4022012, 35.7809044]]]}, "properties": {"osm_id": 1432611484, "building": "yes", "name": "", "height": null, "height_m": null, "levels": null, "tract_id": "40101000200", "tract_name": "2", "tags": {"addr:city": "Muskogee", "addr:housenumber": "2430", "addr:postcode": "74401", "addr:state": "OK", "addr:street": "North 32nd Street West", "building": "yes"}}}, {"type": "Feature", "geometry": {"type": "Polygon", "coordinates": [[[-95.4022289, 35.7812223], [-95.4019022, 35.7812249], [-95.4019013, 35.7811509], [-95.4019965, 35.7811501], [-95.4019962, 35.7811271], [-95.402093, 35.7811264], [-95.4020933, 35.7811467], [-95.4022279, 35.7811456], [-95.4022289, 35.7812223]]]}, "properties": {"osm_id": 1432611485, "building": "yes", "name": "", "height": null, "height_m": null, "levels": null, "tract_id": "40101000200", "tract_name": "2", "tags": {"addr:city": "Muskogee", "addr:housenumber": "2432", "addr:postcode": "74401", "addr:state": "OK", "addr:street": "North 32nd Street West", "building": "yes"}}}, {"type": "Feature", "geometry": {"type": "Polygon", "coordinates": [[[-95.4022531, 35.7822433], [-95.4022529, 35.782145], [-95.4021663, 35.7821452], [-95.4021661, 35.7820677], [-95.4020341, 35.7820679], [-95.4020343, 35.7821441], [-95.4020748, 35.782144], [-95.4020749, 35.7821882], [-95.402089, 35.7821881], [-95.4020891, 35.7822436], [-95.4022531, 35.7822433]]]}, "properties": {"osm_id": 1432611486, "building": "yes", "name": "", "height": null, "height_m": null, "levels": null, "tract_id": "40101000200", "tract_name": "2", "tags": {"addr:city": "Muskogee", "addr:housenumber": "2900", "addr:postcode": "74401", "addr:state": "OK", "addr:street": "North 32nd Street West", "building": "yes"}}}, {"type": "Feature", "geometry": {"type": "Polygon", "coordinates": [[[-95.402251, 35.783566], [-95.4018052, 35.7835635], [-95.4018065, 35.7834113], [-95.4022523, 35.7834137], [-95.402251, 35.783566]]]}, "properties": {"osm_id": 1432611487, "building": "yes", "name": "", "height": null, "height_m": null, "levels": null, "tract_id": "40101000200", "tract_name": "2", "tags": {"addr:city": "Muskogee", "addr:housenumber": "2950", "addr:postcode": "74401", "addr:state": "OK", "addr:street": "North 32nd Street West", "building": "yes"}}}, {"type": "Feature", "geometry": {"type": "Polygon", "coordinates": [[[-95.4034681, 35.7811598], [-95.4032505, 35.7811607], [-95.4032493, 35.7809938], [-95.4034669, 35.7809928], [-95.4034681, 35.7811598]]]}, "properties": {"osm_id": 1432611488, "building": "yes", "name": "", "height": null, "height_m": null, "levels": null, "tract_id": "40101000200", "tract_name": "2", "tags": {"addr:city": "Muskogee", "addr:housenumber": "2433", "addr:postcode": "74401", "addr:state": "OK", "addr:street": "North 32nd Street West", "building": "yes"}}}, {"type": "Feature", "geometry": {"type": "Polygon", "coordinates": [[[-95.4021147, 35.7749408], [-95.40144, 35.7749436], [-95.4014399, 35.7749264], [-95.4010997, 35.774928], [-95.4010956, 35.7743617], [-95.401427, 35.7743601], [-95.401426, 35.7742189], [-95.4017509, 35.7742174], [-95.4017511, 35.774246], [-95.4020365, 35.7742447], [-95.4020374, 35.7743802], [-95.4020564, 35.7743801], [-95.4020589, 35.7747753], [-95.4021136, 35.7747751], [-95.4021147, 35.7749408]]]}, "properties": {"osm_id": 1432611489, "building": "retail", "name": "Sooner Surplus Sales", "height": null, "height_m": null, "levels": null, "tract_id": "40101000200", "tract_name": "2", "tags": {"addr:city": "Muskogee", "addr:housenumber": "2300", "addr:postcode": "74401", "addr:state": "OK", "addr:street": "North 32nd Street West", "building": "retail", "name": "Sooner Surplus Sales", "shop": "variety_store"}}}, {"type": "Feature", "geometry": {"type": "Polygon", "coordinates": [[[-95.403611, 35.7752966], [-95.4035051, 35.7752948], [-95.4035068, 35.7752263], [-95.40347, 35.7752257], [-95.4034716, 35.775163], [-95.403507, 35.7751636], [-95.4035086, 35.7750987], [-95.4036158, 35.7751004], [-95.403611, 35.7752966]]]}, "properties": {"osm_id": 1432611490, "building": "commercial", "name": "Clayton Homes", "height": null, "height_m": null, "levels": null, "tract_id": "40101000200", "tract_name": "2", "tags": {"addr:city": "Muskogee", "addr:housenumber": "2235", "addr:postcode": "74401", "addr:state": "OK", "addr:street": "North 32nd Street West", "building": "commercial", "name": "Clayton Homes", "website": "https://www.claytonmuskogee.com/"}}}, {"type": "Feature", "geometry": {"type": "Polygon", "coordinates": [[[-95.4030482, 35.776682], [-95.4030469, 35.7763958], [-95.4028806, 35.7763963], [-95.402882, 35.7766825], [-95.4030482, 35.776682]]]}, "properties": {"osm_id": 1432611491, "building": "yes", "name": "", "height": null, "height_m": null, "levels": null, "tract_id": "40101000200", "tract_name": "2", "tags": {"building": "yes"}}}, {"type": "Feature", "geometry": {"type": "Polygon", "coordinates": [[[-95.4017155, 35.7761371], [-95.4013834, 35.7761364], [-95.401384, 35.7759668], [-95.4017093, 35.7759675], [-95.4017095, 35.7759035], [-95.4018223, 35.7759038], [-95.4018219, 35.7760587], [-95.4017158, 35.7760585], [-95.4017155, 35.7761371]]]}, "properties": {"osm_id": 1432611492, "building": "commercial", "name": "The Home Store", "height": null, "height_m": null, "levels": null, "tract_id": "40101000200", "tract_name": "2", "tags": {"addr:city": "Muskogee", "addr:housenumber": "2400", "addr:postcode": "74401", "addr:state": "OK", "addr:street": "North 32nd Street West", "building": "commercial", "name": "The Home Store"}}}, {"type": "Feature", "geometry": {"type": "Polygon", "coordinates": [[[-95.4020525, 35.7826268], [-95.402053, 35.7825284], [-95.4019987, 35.7825282], [-95.4019983, 35.7826267], [-95.4020525, 35.7826268]]]}, "properties": {"osm_id": 1432611493, "building": "yes", "name": "", "height": null, "height_m": null, "levels": null, "tract_id": "40101000200", "tract_name": "2", "tags": {"addr:city": "Muskogee", "addr:housenumber": "2910", "addr:postcode": "74401", "addr:state": "OK", "addr:street": "North 32nd Street West", "building": "yes"}}}, {"type": "Feature", "geometry": {"type": "Polygon", "coordinates": [[[-95.3925839, 35.7628047], [-95.3925845, 35.7625849], [-95.3924602, 35.7625846], [-95.39246, 35.7626389], [-95.3923385, 35.7626387], [-95.392339, 35.7624579], [-95.3921615, 35.7624576], [-95.392161, 35.7626458], [-95.3921354, 35.7626458], [-95.3921352, 35.7627353], [-95.3924397, 35.7627358], [-95.3924396, 35.7627806], [-95.3924663, 35.7627806], [-95.3924662, 35.7628045], [-95.3925839, 35.7628047]]]}, "properties": {"osm_id": 1433389816, "building": "school", "name": "Wheatley School", "height": null, "height_m": null, "levels": null, "tract_id": "40101000200", "tract_name": "2", "tags": {"building": "school", "disused": "yes", "ele": "186", "gnis:feature_id": "1099662", "name": "Wheatley School"}}}]}