{"type": "FeatureCollection", "features": [{"type": "Feature", "geometry": {"type": "Polygon", "coordinates": [[[-96.370068, 35.0274734], [-96.3698891, 35.0274782], [-96.3698815, 35.0272902], [-96.3700604, 35.0272854], [-96.370068, 35.0274734]]]}, "properties": {"osm_id": 139873193, "building": "yes", "name": "", "height": null, "height_m": null, "levels": null, "tract_id": "40063484700", "tract_name": "4847", "tags": {"building": "yes", "source": "bing"}}}, {"type": "Feature", "geometry": {"type": "Polygon", "coordinates": [[[-96.3678116, 35.0329422], [-96.3676473, 35.0329694], [-96.3676142, 35.0328354], [-96.3677784, 35.0328082], [-96.3678116, 35.0329422]]]}, "properties": {"osm_id": 139873196, "building": "yes", "name": "", "height": null, "height_m": null, "levels": null, "tract_id": "40063484700", "tract_name": "4847", "tags": {"building": "yes", "source": "bing"}}}, {"type": "Feature", "geometry": {"type": "Polygon", "coordinates": [[[-96.1922444, 35.0002265], [-96.1922555, 35.0000097], [-96.1918986, 34.9999974], [-96.191894, 35.0000865], [-96.1920485, 35.0000918], [-96.1920474, 35.0001129], [-96.1921497, 35.0001164], [-96.1921442, 35.0002231], [-96.1922444, 35.0002265]]]}, "properties": {"osm_id": 1098123888, "building": "church", "name": "Spring Creek Church", "height": null, "height_m": null, "levels": null, "tract_id": "40063484700", "tract_name": "4847", "tags": {"amenity": "place_of_worship", "building": "church", "ele": "233", "gnis:feature_id": "1098432", "name": "Spring Creek Church", "religion": "christian"}}}, {"type": "Feature", "geometry": {"type": "Polygon", "coordinates": [[[-96.2538799, 35.1601139], [-96.2539887, 35.1600578], [-96.2540477, 35.1601343], [-96.2539876, 35.1601652], [-96.2540091, 35.1601941], [-96.2538952, 35.1602506], [-96.253875, 35.1602233], [-96.2537904, 35.1602669], [-96.2537315, 35.1601904], [-96.2537634, 35.160174], [-96.2537489, 35.1601542], [-96.2538668, 35.1600961], [-96.2538799, 35.1601139]]]}, "properties": {"osm_id": 1155618839, "building": "yes", "name": "", "height": null, "height_m": null, "levels": null, "tract_id": "40063484700", "tract_name": "4847", "tags": {"building": "yes"}}}, {"type": "Feature", "geometry": {"type": "Polygon", "coordinates": [[[-96.2547327, 35.1597703], [-96.2547291, 35.1598831], [-96.2545726, 35.1598798], [-96.2545762, 35.159767], [-96.2547327, 35.1597703]]]}, "properties": {"osm_id": 1155618840, "building": "yes", "name": "", "height": null, "height_m": null, "levels": null, "tract_id": "40063484700", "tract_name": "4847", "tags": {"building": "yes"}}}, {"type": "Feature", "geometry": {"type": "Polygon", "coordinates": [[[-96.2519987, 35.159556], [-96.2519987, 35.1596557], [-96.2518849, 35.1596557], [-96.2518849, 35.159556], [-96.2519987, 35.159556]]]}, "properties": {"osm_id": 1155618841, "building": "yes", "name": "", "height": null, "height_m": null, "levels": null, "tract_id": "40063484700", "tract_name": "4847", "tags": {"building": "yes"}}}, {"type": "Feature", "geometry": {"type": "Polygon", "coordinates": [[[-96.2521207, 35.1598368], [-96.2519377, 35.1598401], [-96.2519365, 35.159797], [-96.2521195, 35.1597937], [-96.2521207, 35.1598368]]]}, "properties": {"osm_id": 1155618842, "building": "yes", "name": "", "height": null, "height_m": null, "levels": null, "tract_id": "40063484700", "tract_name": "4847", "tags": {"building": "yes"}}}, {"type": "Feature", "geometry": {"type": "Polygon", "coordinates": [[[-96.2521369, 35.1600445], [-96.2519479, 35.1600545], [-96.2519379, 35.1599287], [-96.252127, 35.1599188], [-96.2521369, 35.1600445]]]}, "properties": {"osm_id": 1155618843, "building": "yes", "name": "", "height": null, "height_m": null, "levels": null, "tract_id": "40063484700", "tract_name": "4847", "tags": {"building": "yes"}}}, {"type": "Feature", "geometry": {"type": "Polygon", "coordinates": [[[-96.2468409, 35.1576177], [-96.2468373, 35.15755], [-96.2469435, 35.1575462], [-96.2469471, 35.1576128], [-96.2469975, 35.1576105], [-96.2470021, 35.1576772], [-96.2469506, 35.1576796], [-96.2469507, 35.1576799], [-96.2469204, 35.157681], [-96.2467306, 35.1576898], [-96.246726, 35.157623], [-96.2468409, 35.1576177]]]}, "properties": {"osm_id": 1155618846, "building": "yes", "name": "", "height": null, "height_m": null, "levels": null, "tract_id": "40063484700", "tract_name": "4847", "tags": {"building": "yes"}}}, {"type": "Feature", "geometry": {"type": "Polygon", "coordinates": [[[-96.2469389, 35.1568737], [-96.2469374, 35.1568371], [-96.2470388, 35.1568343], [-96.2470403, 35.1568708], [-96.2469389, 35.1568737]]]}, "properties": {"osm_id": 1155618847, "building": "yes", "name": "", "height": null, "height_m": null, "levels": null, "tract_id": "40063484700", "tract_name": "4847", "tags": {"building": "yes"}}}, {"type": "Feature", "geometry": {"type": "Polygon", "coordinates": [[[-96.246885, 35.1568447], [-96.2468943, 35.1570059], [-96.2466826, 35.157014], [-96.2466734, 35.1568528], [-96.246885, 35.1568447]]]}, "properties": {"osm_id": 1155618848, "building": "yes", "name": "", "height": null, "height_m": null, "levels": null, "tract_id": "40063484700", "tract_name": "4847", "tags": {"building": "yes"}}}, {"type": "Feature", "geometry": {"type": "Polygon", "coordinates": [[[-96.2441955, 35.1565643], [-96.2441916, 35.1565965], [-96.2440842, 35.1565879], [-96.2441029, 35.1564313], [-96.2442103, 35.1564398], [-96.2441996, 35.1565298], [-96.2442232, 35.1565324], [-96.2442174, 35.1565668], [-96.2441955, 35.1565643]]]}, "properties": {"osm_id": 1155618849, "building": "house", "name": "", "height": null, "height_m": null, "levels": null, "tract_id": "40063484700", "tract_name": "4847", "tags": {"building": "house"}}}, {"type": "Feature", "geometry": {"type": "Polygon", "coordinates": [[[-96.2441438, 35.1569095], [-96.2441252, 35.1570151], [-96.2440037, 35.1570008], [-96.2440224, 35.1568952], [-96.2441438, 35.1569095]]]}, "properties": {"osm_id": 1155618850, "building": "yes", "name": "", "height": null, "height_m": null, "levels": null, "tract_id": "40063484700", "tract_name": "4847", "tags": {"building": "yes"}}}, {"type": "Feature", "geometry": {"type": "Polygon", "coordinates": [[[-96.2423851, 35.158608], [-96.2423965, 35.1587609], [-96.2423456, 35.1587634], [-96.2423343, 35.1586105], [-96.2423851, 35.158608]]]}, "properties": {"osm_id": 1155618854, "building": "yes", "name": "", "height": null, "height_m": null, "levels": null, "tract_id": "40063484700", "tract_name": "4847", "tags": {"building": "yes"}}}, {"type": "Feature", "geometry": {"type": "Polygon", "coordinates": [[[-96.2423345, 35.1588071], [-96.2423466, 35.158773], [-96.2424052, 35.1587868], [-96.2423617, 35.1589095], [-96.2423032, 35.1588956], [-96.242315, 35.1588623], [-96.2422403, 35.158841], [-96.2422634, 35.1587868], [-96.2423345, 35.1588071]]]}, "properties": {"osm_id": 1155618855, "building": "yes", "name": "", "height": null, "height_m": null, "levels": null, "tract_id": "40063484700", "tract_name": "4847", "tags": {"building": "yes"}}}, {"type": "Feature", "geometry": {"type": "Polygon", "coordinates": [[[-96.242063, 35.1591483], [-96.2420647, 35.1592478], [-96.2419538, 35.1592491], [-96.2419526, 35.159181], [-96.2419076, 35.1591836], [-96.2418983, 35.1590752], [-96.2419508, 35.1590723], [-96.2419506, 35.159064], [-96.2420539, 35.1590628], [-96.2420539, 35.1590627], [-96.242151, 35.1590627], [-96.242151, 35.1591483], [-96.242063, 35.1591483]]]}, "properties": {"osm_id": 1155618856, "building": "house", "name": "", "height": null, "height_m": null, "levels": null, "tract_id": "40063484700", "tract_name": "4847", "tags": {"addr:city": "Wetumka", "addr:country": "US", "addr:housenumber": "2802", "addr:postcode": "74883", "addr:state": "OK", "addr:street": "US 75 (OK, Super)", "building": "house"}}}, {"type": "Feature", "geometry": {"type": "Polygon", "coordinates": [[[-96.4054467, 35.2249424], [-96.4054459, 35.2248631], [-96.4053728, 35.2248636], [-96.4053737, 35.2249429], [-96.4054467, 35.2249424]]]}, "properties": {"osm_id": 1168348734, "building": "yes", "name": "", "height": null, "height_m": null, "levels": null, "tract_id": "40063484700", "tract_name": "4847", "tags": {"addr:city": "Holdenville", "addr:housenumber": "2345", "addr:postcode": "74848", "addr:state": "OK", "addr:street": "State Highway 48", "building": "yes"}}}, {"type": "Feature", "geometry": {"type": "Polygon", "coordinates": [[[-96.3701925, 35.0248231], [-96.37014, 35.025011], [-96.3704305, 35.0250654], [-96.3704404, 35.02503], [-96.3705054, 35.0250421], [-96.3705165, 35.0250025], [-96.3705012, 35.0249996], [-96.3705122, 35.02496], [-96.3703173, 35.0249234], [-96.3703378, 35.0248504], [-96.3701925, 35.0248231]]]}, "properties": {"osm_id": 1389845569, "building": "yes", "name": "", "height": null, "height_m": null, "levels": null, "tract_id": "40063484700", "tract_name": "4847", "tags": {"building": "yes"}}}, {"type": "Feature", "geometry": {"type": "Polygon", "coordinates": [[[-96.3729046, 35.0212493], [-96.372916, 35.0213428], [-96.373091, 35.0213284], [-96.3730771, 35.0212154], [-96.3729843, 35.021223], [-96.3729867, 35.0212426], [-96.3729046, 35.0212493]]]}, "properties": {"osm_id": 1389845570, "building": "yes", "name": "", "height": null, "height_m": null, "levels": null, "tract_id": "40063484700", "tract_name": "4847", "tags": {"building": "yes"}}}, {"type": "Feature", "geometry": {"type": "Polygon", "coordinates": [[[-96.3694677, 35.023726], [-96.3695023, 35.0239039], [-96.3696381, 35.0238862], [-96.3696036, 35.0237083], [-96.3694677, 35.023726]]]}, "properties": {"osm_id": 1389845571, "building": "yes", "name": "", "height": null, "height_m": null, "levels": null, "tract_id": "40063484700", "tract_name": "4847", "tags": {"building": "yes"}}}, {"type": "Feature", "geometry": {"type": "Polygon", "coordinates": [[[-96.3701002, 35.0244129], [-96.3701289, 35.0245504], [-96.3703009, 35.0245263], [-96.3702722, 35.0243888], [-96.3701002, 35.0244129]]]}, "properties": {"osm_id": 1389845572, "building": "yes", "name": "", "height": null, "height_m": null, "levels": null, "tract_id": "40063484700", "tract_name": "4847", "tags": {"building": "yes"}}}, {"type": "Feature", "geometry": {"type": "Polygon", "coordinates": [[[-96.3696528, 35.02395], [-96.3695504, 35.0239648], [-96.3695739, 35.0240745], [-96.3696764, 35.0240597], [-96.3696528, 35.02395]]]}, "properties": {"osm_id": 1389845573, "building": "yes", "name": "", "height": null, "height_m": null, "levels": null, "tract_id": "40063484700", "tract_name": "4847", "tags": {"building": "yes"}}}, {"type": "Feature", "geometry": {"type": "Polygon", "coordinates": [[[-96.3696791, 35.024099], [-96.3695452, 35.0241187], [-96.3695928, 35.0243359], [-96.3697267, 35.0243162], [-96.3696791, 35.024099]]]}, "properties": {"osm_id": 1389845574, "building": "yes", "name": "", "height": null, "height_m": null, "levels": null, "tract_id": "40063484700", "tract_name": "4847", "tags": {"building": "yes"}}}, {"type": "Feature", "geometry": {"type": "Polygon", "coordinates": [[[-96.3707216, 35.0233497], [-96.37074, 35.0232639], [-96.3706743, 35.0232544], [-96.3706797, 35.0232293], [-96.3705833, 35.0232155], [-96.3705773, 35.0232436], [-96.3705309, 35.023237], [-96.3705132, 35.0233197], [-96.3707216, 35.0233497]]]}, "properties": {"osm_id": 1389845575, "building": "yes", "name": "", "height": null, "height_m": null, "levels": null, "tract_id": "40063484700", "tract_name": "4847", "tags": {"building": "yes"}}}, {"type": "Feature", "geometry": {"type": "Polygon", "coordinates": [[[-96.3702914, 35.0241178], [-96.3703209, 35.0242206], [-96.3704683, 35.0241922], [-96.3704388, 35.0240894], [-96.3702914, 35.0241178]]]}, "properties": {"osm_id": 1389845576, "building": "yes", "name": "", "height": null, "height_m": null, "levels": null, "tract_id": "40063484700", "tract_name": "4847", "tags": {"building": "yes"}}}]}