{"type": "FeatureCollection", "features": [{"type": "Feature", "geometry": {"type": "Polygon", "coordinates": [[[-97.1524134, 34.7847246], [-97.1523061, 34.7846035], [-97.1524801, 34.7844995], [-97.1525577, 34.7845871], [-97.152524, 34.7846072], [-97.1525987, 34.7846915], [-97.1524961, 34.7847527], [-97.1524512, 34.7847021], [-97.1524134, 34.7847246]]]}, "properties": {"osm_id": 907945895, "building": "yes", "name": "", "height": null, "height_m": null, "levels": null, "tract_id": "40049681200", "tract_name": "6812", "tags": {"building": "yes"}}}, {"type": "Feature", "geometry": {"type": "Polygon", "coordinates": [[[-97.1531792, 34.7855375], [-97.1530357, 34.7854802], [-97.1530959, 34.7853784], [-97.1532394, 34.7854357], [-97.1531792, 34.7855375]]]}, "properties": {"osm_id": 907945896, "building": "yes", "name": "", "height": null, "height_m": null, "levels": null, "tract_id": "40049681200", "tract_name": "6812", "tags": {"building": "yes"}}}, {"type": "Feature", "geometry": {"type": "Polygon", "coordinates": [[[-97.1534461, 34.7855309], [-97.1533334, 34.7854824], [-97.1533953, 34.7853854], [-97.153508, 34.7854338], [-97.1534461, 34.7855309]]]}, "properties": {"osm_id": 907945897, "building": "yes", "name": "", "height": null, "height_m": null, "levels": null, "tract_id": "40049681200", "tract_name": "6812", "tags": {"building": "yes"}}}, {"type": "Feature", "geometry": {"type": "Polygon", "coordinates": [[[-97.2660331, 34.7404532], [-97.2660331, 34.7402636], [-97.2661163, 34.7402636], [-97.2661163, 34.7404532], [-97.2660331, 34.7404532]]]}, "properties": {"osm_id": 967605847, "building": "roof", "name": "", "height": null, "height_m": null, "levels": null, "tract_id": "40049681200", "tract_name": "6812", "tags": {"building": "roof"}}}, {"type": "Feature", "geometry": {"type": "Polygon", "coordinates": [[[-97.2663027, 34.7401137], [-97.2660439, 34.7401137], [-97.2660439, 34.7399264], [-97.2662464, 34.7399264], [-97.2662464, 34.739998], [-97.2663027, 34.739998], [-97.2663027, 34.7401137]]]}, "properties": {"osm_id": 967605849, "building": "yes", "name": "Shell", "height": null, "height_m": null, "levels": null, "tract_id": "40049681200", "tract_name": "6812", "tags": {"brand": "Shell", "brand:wikidata": "Q110716465", "building": "yes", "name": "Shell", "shop": "convenience"}}}, {"type": "Feature", "geometry": {"type": "Polygon", "coordinates": [[[-97.2658239, 34.7386535], [-97.2658239, 34.7387003], [-97.2658239, 34.7388028], [-97.2658239, 34.738821], [-97.2655892, 34.738821], [-97.2655892, 34.7386535], [-97.2658239, 34.7386535]]]}, "properties": {"osm_id": 967605854, "building": "retail", "name": "Phillips 66", "height": null, "height_m": null, "levels": null, "tract_id": "40049681200", "tract_name": "6812", "tags": {"building": "retail", "name": "Phillips 66", "shop": "convenience"}}}, {"type": "Feature", "geometry": {"type": "Polygon", "coordinates": [[[-97.3072555, 34.8279812], [-97.3079244, 34.8279839], [-97.3079257, 34.8277664], [-97.3072568, 34.8277636], [-97.3072555, 34.8279812]]]}, "properties": {"osm_id": 1010187844, "building": "yes", "name": "Washita Casino", "height": null, "height_m": null, "levels": null, "tract_id": "40049681200", "tract_name": "6812", "tags": {"addr:city": "Paoli", "addr:housenumber": "30639", "addr:postcode": "73074", "addr:state": "OK", "addr:street": "OK-145", "amenity": "casino", "building": "yes", "name": "Washita Casino"}}}, {"type": "Feature", "geometry": {"type": "Polygon", "coordinates": [[[-97.2404789, 34.8190509], [-97.2402543, 34.8190595], [-97.2402478, 34.8189465], [-97.2404724, 34.8189377], [-97.2404789, 34.8190509]]]}, "properties": {"osm_id": 1026613585, "building": "yes", "name": "Dancing Rabbit Creek Winery", "height": null, "height_m": null, "levels": null, "tract_id": "40049681200", "tract_name": "6812", "tags": {"addr:city": "Paoli", "addr:housenumber": "12403", "addr:postcode": "73074", "addr:state": "OK", "addr:street": "East County Road", "building": "yes", "craft": "winery", "name": "Dancing Rabbit Creek Winery"}}}, {"type": "Feature", "geometry": {"type": "Polygon", "coordinates": [[[-97.2084703, 34.770461], [-97.2084462, 34.7704077], [-97.208325, 34.7704446], [-97.2083491, 34.770498], [-97.2084703, 34.770461]]]}, "properties": {"osm_id": 1091536383, "building": "yes", "name": "", "height": null, "height_m": null, "levels": null, "tract_id": "40049681200", "tract_name": "6812", "tags": {"building": "yes"}}}, {"type": "Feature", "geometry": {"type": "Polygon", "coordinates": [[[-97.2075337, 34.7697261], [-97.2075177, 34.7696752], [-97.2074068, 34.7696987], [-97.2074228, 34.7697496], [-97.2075337, 34.7697261]]]}, "properties": {"osm_id": 1091536384, "building": "yes", "name": "", "height": null, "height_m": null, "levels": null, "tract_id": "40049681200", "tract_name": "6812", "tags": {"building": "yes"}}}, {"type": "Feature", "geometry": {"type": "Polygon", "coordinates": [[[-97.2080517, 34.7697143], [-97.2080438, 34.7696418], [-97.2081319, 34.7696353], [-97.2081398, 34.7697077], [-97.2080517, 34.7697143]]]}, "properties": {"osm_id": 1091536386, "building": "yes", "name": "", "height": null, "height_m": null, "levels": null, "tract_id": "40049681200", "tract_name": "6812", "tags": {"building": "yes"}}}, {"type": "Feature", "geometry": {"type": "Polygon", "coordinates": [[[-97.2720822, 34.8411827], [-97.2720272, 34.8411851], [-97.2720267, 34.8411765], [-97.2719868, 34.8411781], [-97.2719779, 34.8410364], [-97.2720178, 34.8410347], [-97.2720165, 34.8410145], [-97.2720715, 34.8410121], [-97.2720822, 34.8411827]]]}, "properties": {"osm_id": 1234233871, "building": "yes", "name": "", "height": null, "height_m": null, "levels": null, "tract_id": "40049681200", "tract_name": "6812", "tags": {"building": "yes"}}}, {"type": "Feature", "geometry": {"type": "Polygon", "coordinates": [[[-97.2718395, 34.8413522], [-97.2718327, 34.8412658], [-97.2719144, 34.8412616], [-97.2719211, 34.841348], [-97.2718395, 34.8413522]]]}, "properties": {"osm_id": 1234233872, "building": "yes", "name": "", "height": null, "height_m": null, "levels": null, "tract_id": "40049681200", "tract_name": "6812", "tags": {"building": "yes"}}}, {"type": "Feature", "geometry": {"type": "Polygon", "coordinates": [[[-97.2694691, 34.7422958], [-97.2693422, 34.7421729], [-97.2692547, 34.7422339], [-97.2691796, 34.7421612], [-97.269267, 34.7421002], [-97.2691205, 34.7419583], [-97.2686625, 34.7422778], [-97.2685988, 34.7422161], [-97.2685171, 34.7422731], [-97.2684645, 34.7422221], [-97.268302, 34.7423354], [-97.2683547, 34.7423864], [-97.2682875, 34.7424313], [-97.2683533, 34.7425382], [-97.2684284, 34.742633], [-97.2685196, 34.7427244], [-97.2686242, 34.7428115], [-97.2687314, 34.7428743], [-97.2688833, 34.7427741], [-97.2689865, 34.7428741], [-97.2691548, 34.7427567], [-97.2690097, 34.7426162], [-97.2694691, 34.7422958]]]}, "properties": {"osm_id": 1267305896, "building": "retail", "name": "Ford", "height": null, "height_m": null, "levels": null, "tract_id": "40049681200", "tract_name": "6812", "tags": {"brand": "Ford", "brand:wikidata": "Q44294", "building": "retail", "name": "Ford", "shop": "car"}}}, {"type": "Feature", "geometry": {"type": "Polygon", "coordinates": [[[-97.29091, 34.7553608], [-97.2908466, 34.7553594], [-97.2908486, 34.7552982], [-97.290912, 34.7552996], [-97.29091, 34.7553608]]]}, "properties": {"osm_id": 1272534492, "building": "yes", "name": "", "height": null, "height_m": null, "levels": null, "tract_id": "40049681200", "tract_name": "6812", "tags": {"building": "yes"}}}, {"type": "Feature", "geometry": {"type": "Polygon", "coordinates": [[[-97.2908315, 34.7553597], [-97.2907712, 34.7553597], [-97.2907712, 34.7552974], [-97.2908315, 34.7552974], [-97.2908315, 34.7553597]]]}, "properties": {"osm_id": 1272534493, "building": "yes", "name": "", "height": null, "height_m": null, "levels": null, "tract_id": "40049681200", "tract_name": "6812", "tags": {"building": "yes"}}}, {"type": "Feature", "geometry": {"type": "Polygon", "coordinates": [[[-97.2909898, 34.754947], [-97.2909181, 34.7549774], [-97.2908907, 34.7549337], [-97.2909181, 34.754922], [-97.2909113, 34.7549112], [-97.2909556, 34.7548925], [-97.2909898, 34.754947]]]}, "properties": {"osm_id": 1272534494, "building": "yes", "name": "", "height": null, "height_m": null, "levels": null, "tract_id": "40049681200", "tract_name": "6812", "tags": {"building": "yes"}}}, {"type": "Feature", "geometry": {"type": "Polygon", "coordinates": [[[-97.289996, 34.7542143], [-97.2899686, 34.7541849], [-97.2900256, 34.7541491], [-97.290053, 34.7541785], [-97.289996, 34.7542143]]]}, "properties": {"osm_id": 1272534495, "building": "yes", "name": "", "height": null, "height_m": null, "levels": null, "tract_id": "40049681200", "tract_name": "6812", "tags": {"building": "yes"}}}, {"type": "Feature", "geometry": {"type": "Polygon", "coordinates": [[[-97.2900872, 34.7540606], [-97.2900522, 34.7540236], [-97.2901125, 34.753985], [-97.2901475, 34.754022], [-97.2900872, 34.7540606]]]}, "properties": {"osm_id": 1272534496, "building": "yes", "name": "", "height": null, "height_m": null, "levels": null, "tract_id": "40049681200", "tract_name": "6812", "tags": {"building": "yes"}}}, {"type": "Feature", "geometry": {"type": "Polygon", "coordinates": [[[-97.2897077, 34.7543003], [-97.2897003, 34.7542121], [-97.2897462, 34.7542095], [-97.2897536, 34.7542977], [-97.2897077, 34.7543003]]]}, "properties": {"osm_id": 1272534497, "building": "yes", "name": "", "height": null, "height_m": null, "levels": null, "tract_id": "40049681200", "tract_name": "6812", "tags": {"building": "yes"}}}, {"type": "Feature", "geometry": {"type": "Polygon", "coordinates": [[[-97.2892812, 34.7545735], [-97.2892778, 34.7545124], [-97.2893203, 34.7545108], [-97.2893237, 34.7545719], [-97.2892812, 34.7545735]]]}, "properties": {"osm_id": 1272534498, "building": "yes", "name": "", "height": null, "height_m": null, "levels": null, "tract_id": "40049681200", "tract_name": "6812", "tags": {"building": "yes"}}}, {"type": "Feature", "geometry": {"type": "Polygon", "coordinates": [[[-97.2889191, 34.7540556], [-97.2889171, 34.7540066], [-97.2889693, 34.7540052], [-97.2889713, 34.7540542], [-97.2889191, 34.7540556]]]}, "properties": {"osm_id": 1272534499, "building": "yes", "name": "", "height": null, "height_m": null, "levels": null, "tract_id": "40049681200", "tract_name": "6812", "tags": {"building": "yes"}}}, {"type": "Feature", "geometry": {"type": "Polygon", "coordinates": [[[-97.2889942, 34.7541614], [-97.2889922, 34.7541008], [-97.2890526, 34.7540995], [-97.2890546, 34.7541601], [-97.2889942, 34.7541614]]]}, "properties": {"osm_id": 1272534500, "building": "yes", "name": "", "height": null, "height_m": null, "levels": null, "tract_id": "40049681200", "tract_name": "6812", "tags": {"building": "yes"}}}, {"type": "Feature", "geometry": {"type": "Polygon", "coordinates": [[[-97.2907, 34.7547984], [-97.2905766, 34.7546641], [-97.290467, 34.7547326], [-97.2905904, 34.7548669], [-97.2907, 34.7547984]]]}, "properties": {"osm_id": 1272534501, "building": "yes", "name": "", "height": null, "height_m": null, "levels": null, "tract_id": "40049681200", "tract_name": "6812", "tags": {"building": "yes"}}}, {"type": "Feature", "geometry": {"type": "Polygon", "coordinates": [[[-97.2909956, 34.7538161], [-97.2909966, 34.7538481], [-97.2909426, 34.7538491], [-97.2909456, 34.7539281], [-97.2912056, 34.7539221], [-97.2912026, 34.7538361], [-97.2910816, 34.7538391], [-97.2910806, 34.7538131], [-97.2909956, 34.7538161]]]}, "properties": {"osm_id": 1272534502, "building": "detached", "name": "", "height": null, "height_m": null, "levels": null, "tract_id": "40049681200", "tract_name": "6812", "tags": {"building": "detached"}}}, {"type": "Feature", "geometry": {"type": "Polygon", "coordinates": [[[-97.289091, 34.753956], [-97.289185, 34.753956], [-97.289185, 34.753782], [-97.289107, 34.753782], [-97.289107, 34.753829], [-97.289024, 34.753829], [-97.289024, 34.753912], [-97.289091, 34.753912], [-97.289091, 34.753956]]]}, "properties": {"osm_id": 1272534503, "building": "detached", "name": "", "height": null, "height_m": null, "levels": null, "tract_id": "40049681200", "tract_name": "6812", "tags": {"building": "detached"}}}, {"type": "Feature", "geometry": {"type": "Polygon", "coordinates": [[[-97.289358, 34.75392], [-97.289472, 34.753922], [-97.289474, 34.753828], [-97.28936, 34.753827], [-97.289358, 34.75392]]]}, "properties": {"osm_id": 1272534504, "building": "detached", "name": "", "height": null, "height_m": null, "levels": null, "tract_id": "40049681200", "tract_name": "6812", "tags": {"building": "detached"}}}, {"type": "Feature", "geometry": {"type": "Polygon", "coordinates": [[[-97.291392, 34.753923], [-97.291507, 34.753923], [-97.291507, 34.75384], [-97.291392, 34.75384], [-97.291392, 34.753923]]]}, "properties": {"osm_id": 1272534505, "building": "yes", "name": "", "height": null, "height_m": null, "levels": null, "tract_id": "40049681200", "tract_name": "6812", "tags": {"building": "yes"}}}, {"type": "Feature", "geometry": {"type": "Polygon", "coordinates": [[[-97.288487, 34.753915], [-97.288629, 34.753915], [-97.288629, 34.753829], [-97.288487, 34.753829], [-97.288487, 34.753915]]]}, "properties": {"osm_id": 1272534506, "building": "detached", "name": "", "height": null, "height_m": null, "levels": null, "tract_id": "40049681200", "tract_name": "6812", "tags": {"building": "detached"}}}, {"type": "Feature", "geometry": {"type": "Polygon", "coordinates": [[[-97.2907458, 34.7550715], [-97.2907822, 34.7551411], [-97.2909498, 34.7550819], [-97.2909099, 34.7550056], [-97.2908333, 34.7550326], [-97.2908141, 34.7549958], [-97.290774, 34.75501], [-97.2907968, 34.7550535], [-97.2907458, 34.7550715]]]}, "properties": {"osm_id": 1272534507, "building": "yes", "name": "", "height": null, "height_m": null, "levels": null, "tract_id": "40049681200", "tract_name": "6812", "tags": {"building": "yes"}}}, {"type": "Feature", "geometry": {"type": "Polygon", "coordinates": [[[-97.289051, 34.754479], [-97.289051, 34.754554], [-97.289163, 34.754554], [-97.289163, 34.754479], [-97.289051, 34.754479]]]}, "properties": {"osm_id": 1272534508, "building": "yes", "name": "", "height": null, "height_m": null, "levels": null, "tract_id": "40049681200", "tract_name": "6812", "tags": {"building": "yes"}}}, {"type": "Feature", "geometry": {"type": "Polygon", "coordinates": [[[-97.2881312, 34.7538172], [-97.2881288, 34.7538971], [-97.2882697, 34.7538999], [-97.2882683, 34.7539466], [-97.2883551, 34.7539484], [-97.2883589, 34.7538218], [-97.2881312, 34.7538172]]]}, "properties": {"osm_id": 1272534509, "building": "detached", "name": "", "height": null, "height_m": null, "levels": null, "tract_id": "40049681200", "tract_name": "6812", "tags": {"building": "detached"}}}, {"type": "Feature", "geometry": {"type": "Polygon", "coordinates": [[[-97.288742, 34.753818], [-97.288742, 34.753906], [-97.288849, 34.753906], [-97.288849, 34.753831], [-97.288785, 34.753831], [-97.288785, 34.753818], [-97.288742, 34.753818]]]}, "properties": {"osm_id": 1272534510, "building": "detached", "name": "", "height": null, "height_m": null, "levels": null, "tract_id": "40049681200", "tract_name": "6812", "tags": {"building": "detached"}}}, {"type": "Feature", "geometry": {"type": "Polygon", "coordinates": [[[-97.2907639, 34.7537677], [-97.2907088, 34.7537947], [-97.2907358, 34.7538319], [-97.2907909, 34.753805], [-97.2907639, 34.7537677]]]}, "properties": {"osm_id": 1272534511, "building": "yes", "name": "", "height": null, "height_m": null, "levels": null, "tract_id": "40049681200", "tract_name": "6812", "tags": {"building": "yes"}}}, {"type": "Feature", "geometry": {"type": "Polygon", "coordinates": [[[-97.2899432, 34.7539779], [-97.2900074, 34.7540463], [-97.2900558, 34.7540156], [-97.2899156, 34.7538661], [-97.2898108, 34.7539325], [-97.2898869, 34.7540136], [-97.2899432, 34.7539779]]]}, "properties": {"osm_id": 1272534512, "building": "detached", "name": "", "height": null, "height_m": null, "levels": null, "tract_id": "40049681200", "tract_name": "6812", "tags": {"building": "detached"}}}, {"type": "Feature", "geometry": {"type": "Polygon", "coordinates": [[[-97.2887728, 34.7605133], [-97.2887752, 34.7604376], [-97.2887543, 34.7604372], [-97.2887545, 34.7604322], [-97.2886093, 34.7604291], [-97.2886066, 34.7605137], [-97.2887519, 34.7605168], [-97.288752, 34.7605128], [-97.2887728, 34.7605133]]]}, "properties": {"osm_id": 1303982477, "building": "yes", "name": "", "height": null, "height_m": null, "levels": null, "tract_id": "40049681200", "tract_name": "6812", "tags": {"building": "yes"}}}]}