{"type": "FeatureCollection", "features": [{"type": "Feature", "geometry": {"type": "Polygon", "coordinates": [[[-97.1682359, 34.6420011], [-97.1682031, 34.6418383], [-97.1680754, 34.6418558], [-97.1681049, 34.6420016], [-97.168147, 34.6419959], [-97.1681504, 34.6420128], [-97.1682359, 34.6420011]]]}, "properties": {"osm_id": 1066667993, "building": "yes", "name": "", "height": null, "height_m": null, "levels": null, "tract_id": "40049681500", "tract_name": "6815", "tags": {"addr:city": "Wynnewood", "addr:housenumber": "207", "addr:postcode": "73098", "addr:state": "OK", "addr:street": "East Cherokee Street", "building": "yes"}}}, {"type": "Feature", "geometry": {"type": "Polygon", "coordinates": [[[-97.173494, 34.6417387], [-97.1734633, 34.6415636], [-97.1731984, 34.6416018], [-97.1732308, 34.6417701], [-97.173494, 34.6417387]]]}, "properties": {"osm_id": 1378104140, "building": "yes", "name": "", "height": null, "height_m": null, "levels": null, "tract_id": "40049681500", "tract_name": "6815", "tags": {"building": "yes"}}}, {"type": "Feature", "geometry": {"type": "Polygon", "coordinates": [[[-97.1736578, 34.6419922], [-97.1736424, 34.6419111], [-97.1732172, 34.6419709], [-97.1732338, 34.6420473], [-97.1736578, 34.6419922]]]}, "properties": {"osm_id": 1378104141, "building": "yes", "name": "", "height": null, "height_m": null, "levels": null, "tract_id": "40049681500", "tract_name": "6815", "tags": {"building": "yes"}}}]}