{"type": "FeatureCollection", "features": [{"type": "Feature", "geometry": {"type": "Polygon", "coordinates": [[[-97.0624847, 36.1232719], [-97.0622165, 36.1232719], [-97.0622192, 36.1233564], [-97.0624794, 36.1233542], [-97.0624847, 36.1232719]]]}, "properties": {"osm_id": 209302149, "building": "residential", "name": "", "height": null, "height_m": null, "levels": null, "tract_id": "40119010502", "tract_name": "105.02", "tags": {"building": "residential"}}}, {"type": "Feature", "geometry": {"type": "Polygon", "coordinates": [[[-97.0624942, 36.1228382], [-97.0621865, 36.1228351], [-97.06219, 36.1229337], [-97.0624973, 36.122924], [-97.0624942, 36.1228382]]]}, "properties": {"osm_id": 209302150, "building": "residential", "name": "", "height": null, "height_m": null, "levels": null, "tract_id": "40119010502", "tract_name": "105.02", "tags": {"building": "residential"}}}, {"type": "Feature", "geometry": {"type": "Polygon", "coordinates": [[[-97.0625056, 36.1226973], [-97.0622882, 36.122693], [-97.0622884, 36.1227861], [-97.062511, 36.1227861], [-97.0625056, 36.1226973]]]}, "properties": {"osm_id": 209302151, "building": "residential", "name": "", "height": null, "height_m": null, "levels": null, "tract_id": "40119010502", "tract_name": "105.02", "tags": {"building": "residential"}}}, {"type": "Feature", "geometry": {"type": "Polygon", "coordinates": [[[-97.0624993, 36.1235448], [-97.0623265, 36.1235483], [-97.0623288, 36.1236242], [-97.0625016, 36.1236207], [-97.0624993, 36.1235448]]]}, "properties": {"osm_id": 209302152, "building": "residential", "name": "", "height": null, "height_m": null, "levels": null, "tract_id": "40119010502", "tract_name": "105.02", "tags": {"building": "residential"}}}, {"type": "Feature", "geometry": {"type": "Polygon", "coordinates": [[[-97.0614915, 36.1236506], [-97.0614898, 36.1231669], [-97.061174, 36.1231677], [-97.0611743, 36.1232592], [-97.0610264, 36.1232596], [-97.0610268, 36.1233939], [-97.0611569, 36.1233936], [-97.0611568, 36.1233658], [-97.0613483, 36.1233654], [-97.0613487, 36.1234758], [-97.0611433, 36.1234763], [-97.0611433, 36.1234609], [-97.0610386, 36.1234611], [-97.0610389, 36.1235527], [-97.0609703, 36.1235528], [-97.0606203, 36.1235537], [-97.0606202, 36.1235304], [-97.0605307, 36.1235306], [-97.0605311, 36.1236528], [-97.0614915, 36.1236506]]]}, "properties": {"osm_id": 209302153, "building": "apartments", "name": "Stillwater Flats Student Living", "height": null, "height_m": null, "levels": null, "tract_id": "40119010502", "tract_name": "105.02", "tags": {"addr:city": "Stillwater", "addr:country": "US", "addr:housenumber": "205", "addr:postcode": "74075", "addr:state": "OK", "addr:street": "West Miller Avenue", "building": "apartments", "name": "Stillwater Flats Student Living", "phone": "4055640508", "website": "http://stillwaterflats.com/"}}}, {"type": "Feature", "geometry": {"type": "Polygon", "coordinates": [[[-97.0625721, 36.1224398], [-97.0624513, 36.1224368], [-97.0624492, 36.1226143], [-97.0625646, 36.1226118], [-97.0625721, 36.1224398]]]}, "properties": {"osm_id": 209302154, "building": "residential", "name": "", "height": null, "height_m": null, "levels": null, "tract_id": "40119010502", "tract_name": "105.02", "tags": {"building": "residential"}}}, {"type": "Feature", "geometry": {"type": "Polygon", "coordinates": [[[-97.0625728, 36.1223916], [-97.0625728, 36.1223028], [-97.0623527, 36.1222985], [-97.0623501, 36.1223895], [-97.0625728, 36.1223916]]]}, "properties": {"osm_id": 209302156, "building": "residential", "name": "", "height": null, "height_m": null, "levels": null, "tract_id": "40119010502", "tract_name": "105.02", "tags": {"building": "residential"}}}, {"type": "Feature", "geometry": {"type": "Polygon", "coordinates": [[[-97.0618745, 36.1235499], [-97.0617057, 36.123556], [-97.0617103, 36.1236396], [-97.0618791, 36.1236336], [-97.0618745, 36.1235499]]]}, "properties": {"osm_id": 209302157, "building": "residential", "name": "", "height": null, "height_m": null, "levels": null, "tract_id": "40119010502", "tract_name": "105.02", "tags": {"building": "residential"}}}, {"type": "Feature", "geometry": {"type": "Polygon", "coordinates": [[[-97.0620875, 36.1230287], [-97.0616762, 36.1230353], [-97.0616705, 36.1232126], [-97.0620883, 36.123211], [-97.0620875, 36.1230287]]]}, "properties": {"osm_id": 209302158, "building": "residential", "name": "", "height": null, "height_m": null, "levels": null, "tract_id": "40119010502", "tract_name": "105.02", "tags": {"building": "residential"}}}, {"type": "Feature", "geometry": {"type": "Polygon", "coordinates": [[[-97.0620983, 36.1235068], [-97.061669, 36.1235006], [-97.0616711, 36.1234041], [-97.0619875, 36.1234087], [-97.0621004, 36.1234104], [-97.0620983, 36.1235068]]]}, "properties": {"osm_id": 209302159, "building": "residential", "name": "", "height": null, "height_m": null, "levels": null, "tract_id": "40119010502", "tract_name": "105.02", "tags": {"building": "residential"}}}, {"type": "Feature", "geometry": {"type": "Polygon", "coordinates": [[[-97.0623343, 36.1234057], [-97.0621948, 36.1234035], [-97.0621975, 36.1234989], [-97.0623396, 36.1234989], [-97.0623343, 36.1234057]]]}, "properties": {"osm_id": 209302160, "building": "residential", "name": "", "height": null, "height_m": null, "levels": null, "tract_id": "40119010502", "tract_name": "105.02", "tags": {"building": "residential"}}}, {"type": "Feature", "geometry": {"type": "Polygon", "coordinates": [[[-97.0624984, 36.123111], [-97.0622082, 36.123111], [-97.0622059, 36.1232107], [-97.0625021, 36.123215], [-97.0624984, 36.123111]]]}, "properties": {"osm_id": 209302161, "building": "residential", "name": "", "height": null, "height_m": null, "levels": null, "tract_id": "40119010502", "tract_name": "105.02", "tags": {"building": "residential"}}}, {"type": "Feature", "geometry": {"type": "Polygon", "coordinates": [[[-97.0623493, 36.122657], [-97.0622691, 36.1226547], [-97.0622717, 36.1224125], [-97.0623529, 36.1224149], [-97.0623493, 36.122657]]]}, "properties": {"osm_id": 209302162, "building": "residential", "name": "", "height": null, "height_m": null, "levels": null, "tract_id": "40119010502", "tract_name": "105.02", "tags": {"building": "residential"}}}, {"type": "Feature", "geometry": {"type": "Polygon", "coordinates": [[[-97.062083, 36.1233969], [-97.0620876, 36.123234], [-97.0619532, 36.1232356], [-97.0619509, 36.1233975], [-97.062083, 36.1233969]]]}, "properties": {"osm_id": 209302163, "building": "residential", "name": "", "height": null, "height_m": null, "levels": null, "tract_id": "40119010502", "tract_name": "105.02", "tags": {"building": "residential"}}}, {"type": "Feature", "geometry": {"type": "Polygon", "coordinates": [[[-97.0620415, 36.1227498], [-97.0616746, 36.1227519], [-97.0616748, 36.1228506], [-97.0619712, 36.1228474], [-97.0619718, 36.1228322], [-97.0620421, 36.1228297], [-97.0620415, 36.1227498]]]}, "properties": {"osm_id": 209302164, "building": "residential", "name": "", "height": null, "height_m": null, "levels": null, "tract_id": "40119010502", "tract_name": "105.02", "tags": {"building": "residential"}}}, {"type": "Feature", "geometry": {"type": "Polygon", "coordinates": [[[-97.0635324, 36.1241491], [-97.0633647, 36.1241484], [-97.0633664, 36.1239048], [-97.063534, 36.1239055], [-97.0635324, 36.1241491]]]}, "properties": {"osm_id": 209303700, "building": "apartments", "name": "", "height": null, "height_m": null, "levels": null, "tract_id": "40119010502", "tract_name": "105.02", "tags": {"building": "apartments"}}}, {"type": "Feature", "geometry": {"type": "Polygon", "coordinates": [[[-97.0635431, 36.1241736], [-97.0630719, 36.1241727], [-97.0630692, 36.12432], [-97.0635493, 36.1243222], [-97.0635431, 36.1241736]]]}, "properties": {"osm_id": 209303702, "building": "apartments", "name": "", "height": null, "height_m": null, "levels": null, "tract_id": "40119010502", "tract_name": "105.02", "tags": {"building": "apartments"}}}, {"type": "Feature", "geometry": {"type": "Polygon", "coordinates": [[[-97.0634637, 36.1250319], [-97.0629105, 36.1250353], [-97.0629085, 36.1248238], [-97.0632599, 36.1248216], [-97.0632599, 36.1247566], [-97.0632141, 36.1247545], [-97.0632138, 36.1247155], [-97.0628955, 36.1247174], [-97.0628939, 36.1245492], [-97.0634573, 36.1245458], [-97.063459, 36.1247203], [-97.063314, 36.1247212], [-97.0633149, 36.1248274], [-97.0634618, 36.1248265], [-97.0634637, 36.1250319]]]}, "properties": {"osm_id": 209303704, "building": "church", "name": "First Christian Church", "height": null, "height_m": null, "levels": null, "tract_id": "40119010502", "tract_name": "105.02", "tags": {"addr:city": "Stillwater", "addr:country": "US", "addr:housenumber": "411", "addr:postcode": "74075", "addr:state": "OK", "addr:street": "West Mathews Avenue", "amenity": "place_of_worship", "building": "church", "ele": "274", "gnis:feature_id": "1810054", "name": "First Christian Church", "phone": "+1 405 372 7722", "religion": "christian", "website": "https://www.fcc-stillwater.org/"}}}, {"type": "Feature", "geometry": {"type": "Polygon", "coordinates": [[[-97.0630546, 36.1240064], [-97.0628627, 36.1240053], [-97.0628597, 36.1243693], [-97.0630516, 36.1243703], [-97.0630546, 36.1240064]]]}, "properties": {"osm_id": 209303708, "building": "apartments", "name": "", "height": null, "height_m": null, "levels": null, "tract_id": "40119010502", "tract_name": "105.02", "tags": {"building": "apartments"}}}, {"type": "Feature", "geometry": {"type": "Polygon", "coordinates": [[[-97.0634637, 36.1250319], [-97.0636537, 36.1250311], [-97.0636486, 36.124507], [-97.0634569, 36.1245082], [-97.0634573, 36.1245458], [-97.0634618, 36.1248265], [-97.0634637, 36.1250319]]]}, "properties": {"osm_id": 209303711, "building": "yes", "name": "", "height": null, "height_m": null, "levels": null, "tract_id": "40119010502", "tract_name": "105.02", "tags": {"building": "yes"}}}, {"type": "Feature", "geometry": {"type": "Polygon", "coordinates": [[[-97.063335, 36.1239812], [-97.0633344, 36.1238783], [-97.0629092, 36.12388], [-97.0629098, 36.1239828], [-97.063335, 36.1239812]]]}, "properties": {"osm_id": 209303713, "building": "apartments", "name": "", "height": null, "height_m": null, "levels": null, "tract_id": "40119010502", "tract_name": "105.02", "tags": {"building": "apartments"}}}, {"type": "Feature", "geometry": {"type": "Polygon", "coordinates": [[[-97.0624515, 36.1240977], [-97.0621049, 36.1240982], [-97.0621048, 36.1240092], [-97.0622673, 36.1240091], [-97.0622671, 36.123928], [-97.0624816, 36.1239278], [-97.0624818, 36.1240157], [-97.0624513, 36.1240158], [-97.0624515, 36.1240977]]]}, "properties": {"osm_id": 209303715, "building": "yes", "name": "Mason Lodge", "height": null, "height_m": null, "levels": null, "tract_id": "40119010502", "tract_name": "105.02", "tags": {"building": "yes", "club": "yes", "name": "Mason Lodge"}}}, {"type": "Feature", "geometry": {"type": "Polygon", "coordinates": [[[-97.0641402, 36.1224139], [-97.0639794, 36.1224107], [-97.0639809, 36.122361], [-97.0640219, 36.1223618], [-97.0640241, 36.12229], [-97.0641439, 36.1222924], [-97.0641402, 36.1224139]]]}, "properties": {"osm_id": 209305193, "building": "business", "name": "Georges Stable's", "height": null, "height_m": null, "levels": null, "tract_id": "40119010502", "tract_name": "105.02", "tags": {"addr:city": "Stillwater", "addr:postcode": "74074", "addr:street": "West Elm Avenue", "amenity": "pub", "building": "business", "name": "Georges Stable's", "smoking": "yes"}}}, {"type": "Feature", "geometry": {"type": "Polygon", "coordinates": [[[-97.0644469, 36.122778], [-97.0640768, 36.1227745], [-97.0640758, 36.1228482], [-97.0644459, 36.1228517], [-97.0644469, 36.122778]]]}, "properties": {"osm_id": 209305195, "building": "residential", "name": "", "height": null, "height_m": null, "levels": null, "tract_id": "40119010502", "tract_name": "105.02", "tags": {"building": "residential"}}}, {"type": "Feature", "geometry": {"type": "Polygon", "coordinates": [[[-97.0647277, 36.1225203], [-97.0645332, 36.1225177], [-97.0645367, 36.1223444], [-97.0647313, 36.122347], [-97.0647277, 36.1225203]]]}, "properties": {"osm_id": 209305196, "building": "business", "name": "", "height": null, "height_m": null, "levels": null, "tract_id": "40119010502", "tract_name": "105.02", "tags": {"building": "business"}}}, {"type": "Feature", "geometry": {"type": "Polygon", "coordinates": [[[-97.0648941, 36.1226225], [-97.0646701, 36.1226242], [-97.0646693, 36.1225521], [-97.0647711, 36.1225514], [-97.0647682, 36.1222803], [-97.0649675, 36.1222788], [-97.0649702, 36.1225187], [-97.0648498, 36.1225195], [-97.0648502, 36.1225546], [-97.0648933, 36.1225542], [-97.0648941, 36.1226225]]]}, "properties": {"osm_id": 209305197, "building": "yes", "name": "The Garage Burgers and Beer", "height": null, "height_m": null, "levels": null, "tract_id": "40119010502", "tract_name": "105.02", "tags": {"addr:city": "Stillwater", "addr:housenumber": "510", "addr:postcode": "74074", "addr:street": "West Elm Avenue", "amenity": "restaurant", "building": "yes", "cuisine": "american", "name": "The Garage Burgers and Beer", "opening_hours": "11:00-23:59", "payment:american_express": "yes", "payment:coins": "yes", "payment:cryptocurrencies": "no", "payment:discover_card": "yes", "payment:electronic_purses": "no", "payment:mastercard": "yes", "payment:notes": "yes", "payment:visa": "yes", "payment:visa_debit": "yes", "smoking": "no", "takeaway": "yes", "wheelchair": "yes"}}}, {"type": "Feature", "geometry": {"type": "Polygon", "coordinates": [[[-97.0602095, 36.1263179], [-97.0598406, 36.1263145], [-97.0598385, 36.1264658], [-97.0601071, 36.1264683], [-97.0601074, 36.1264426], [-97.0602078, 36.1264435], [-97.0602095, 36.1263179]]]}, "properties": {"osm_id": 209460689, "building": "yes", "name": "Panera Bread", "height": null, "height_m": null, "levels": null, "tract_id": "40119010502", "tract_name": "105.02", "tags": {"addr:city": "Stillwater", "addr:housenumber": "113", "addr:postcode": "74075", "addr:state": "OK", "addr:street": "West Hall of Fame Avenue", "amenity": "fast_food", "brand": "Panera Bread", "brand:wikidata": "Q7130852", "building": "yes", "cuisine": "sandwich;bakery", "internet_access": "wlan", "name": "Panera Bread", "opening_hours": "Mo-Sa 06:00-20:30; Su 07:00-20:30", "phone": "+1 405-385-0276", "short_name": "Panera", "takeaway": "yes", "website": "https://locations.panerabread.com/ok/stillwater/113-west-hall-of-fame-avenue.html"}}}, {"type": "Feature", "geometry": {"type": "Polygon", "coordinates": [[[-97.0602051, 36.1260554], [-97.05981, 36.1260605], [-97.0598072, 36.125918], [-97.0598785, 36.1259171], [-97.0598696, 36.1254619], [-97.0601631, 36.1254582], [-97.0601651, 36.1255562], [-97.0602824, 36.1255547], [-97.060285, 36.1256846], [-97.0601979, 36.1256857], [-97.0602051, 36.1260554]]]}, "properties": {"osm_id": 209460701, "building": "yes", "name": "Best Western Plus Cimarron Hotel & Suites", "height": null, "height_m": null, "levels": null, "tract_id": "40119010502", "tract_name": "105.02", "tags": {"addr:city": "Stillwater", "addr:housenumber": "315", "addr:postcode": "74075", "addr:state": "OK", "addr:street": "North Husband Street", "air_conditioning": "yes", "branch": "Cimarron Hotel & Suites", "brand": "Best Western Plus", "brand:wikidata": "Q830334", "building": "yes", "fax": "+1 405-372-2879", "internet_access": "wlan", "internet_access:fee": "no", "name": "Best Western Plus Cimarron Hotel & Suites", "phone": "+1 405-372-2878", "ref": "37120", "rooms": "77", "smoking": "no", "tourism": "hotel", "website": "https://www.bestwestern.com/en_US/book/hotels-in-stillwater/best-western-plus-cimarron-hotel-suites/propertyCode.37120.html", "wheelchair": "yes"}}}, {"type": "Feature", "geometry": {"type": "Polygon", "coordinates": [[[-97.0595097, 36.1261735], [-97.0593444, 36.1261711], [-97.0590789, 36.1261729], [-97.0590558, 36.1261716], [-97.0590562, 36.1261016], [-97.0590477, 36.1261015], [-97.0590484, 36.125964], [-97.059053, 36.125964], [-97.0590533, 36.1258936], [-97.0590928, 36.1258937], [-97.0590932, 36.1258108], [-97.0590405, 36.1258107], [-97.0590408, 36.1257555], [-97.0591174, 36.1257558], [-97.0591815, 36.125756], [-97.0591822, 36.1256217], [-97.0593294, 36.1256222], [-97.0593287, 36.1257518], [-97.0595676, 36.1257526], [-97.0595664, 36.1259831], [-97.0595124, 36.1259829], [-97.0595097, 36.1261735]]]}, "properties": {"osm_id": 209461281, "building": "yes", "name": "Exchange Bank", "height": null, "height_m": null, "levels": null, "tract_id": "40119010502", "tract_name": "105.02", "tags": {"amenity": "bank", "building": "yes", "name": "Exchange Bank"}}}, {"type": "Feature", "geometry": {"type": "Polygon", "coordinates": [[[-97.0607023, 36.126084], [-97.0607021, 36.1260121], [-97.0607286, 36.1260121], [-97.0607286, 36.1259933], [-97.0608924, 36.125993], [-97.0608926, 36.1260836], [-97.0607023, 36.126084]]]}, "properties": {"osm_id": 257715931, "building": "house", "name": "Fellowship of Christian Students", "height": null, "height_m": null, "levels": null, "tract_id": "40119010502", "tract_name": "105.02", "tags": {"addr:city": "Stillwater", "addr:housename": "The Table", "addr:housenumber": "316", "addr:postcode": "74075", "addr:street": "North Husband Street", "amenity": "place_of_worship", "building": "house", "ele": "271", "gnis:feature_id": "1810051", "name": "Fellowship of Christian Students", "phone": "405-624-9902", "religion": "christian", "website": "https://www.thetableosu.com/"}}}, {"type": "Feature", "geometry": {"type": "Polygon", "coordinates": [[[-97.0609225, 36.1260576], [-97.0610017, 36.1260576], [-97.0610017, 36.1261109], [-97.0609237, 36.1261139], [-97.0609225, 36.1260576]]]}, "properties": {"osm_id": 257715932, "building": "shed", "name": "", "height": null, "height_m": null, "levels": null, "tract_id": "40119010502", "tract_name": "105.02", "tags": {"building": "shed"}}}, {"type": "Feature", "geometry": {"type": "Polygon", "coordinates": [[[-97.0590275, 36.1240884], [-97.0590252, 36.1239821], [-97.058899, 36.1239839], [-97.0589013, 36.1240901], [-97.0590275, 36.1240884]]]}, "properties": {"osm_id": 260551014, "building": "yes", "name": "", "height": null, "height_m": null, "levels": null, "tract_id": "40119010502", "tract_name": "105.02", "tags": {"building": "yes"}}}, {"type": "Feature", "geometry": {"type": "Polygon", "coordinates": [[[-97.0590275, 36.1240884], [-97.0591646, 36.1240865], [-97.0591617, 36.1239806], [-97.0590252, 36.1239821], [-97.0590275, 36.1240884]]]}, "properties": {"osm_id": 260551015, "building": "yes", "name": "", "height": null, "height_m": null, "levels": null, "tract_id": "40119010502", "tract_name": "105.02", "tags": {"building": "yes"}}}, {"type": "Feature", "geometry": {"type": "Polygon", "coordinates": [[[-97.0593121, 36.1236606], [-97.0593091, 36.1235346], [-97.0591453, 36.1235346], [-97.0590787, 36.1235826], [-97.0590775, 36.123602], [-97.0591393, 36.1236674], [-97.0593121, 36.1236606]]]}, "properties": {"osm_id": 260551022, "building": "yes", "name": "", "height": null, "height_m": null, "levels": null, "tract_id": "40119010502", "tract_name": "105.02", "tags": {"building": "yes"}}}, {"type": "Feature", "geometry": {"type": "Polygon", "coordinates": [[[-97.0591903, 36.1234386], [-97.0591843, 36.1232772], [-97.058943, 36.1232738], [-97.0589424, 36.1234391], [-97.0591903, 36.1234386]]]}, "properties": {"osm_id": 260551023, "building": "yes", "name": "Brown's Bottle Shop", "height": null, "height_m": null, "levels": null, "tract_id": "40119010502", "tract_name": "105.02", "tags": {"addr:city": "Stillwater", "addr:postcode": "74074", "addr:street": "South Main Street", "building": "yes", "name": "Brown's Bottle Shop", "shop": "alcohol"}}}, {"type": "Feature", "geometry": {"type": "Polygon", "coordinates": [[[-97.0590998, 36.122921], [-97.0591004, 36.1228488], [-97.0588982, 36.1228477], [-97.0588976, 36.12292], [-97.0590998, 36.122921]]]}, "properties": {"osm_id": 260551688, "building": "yes", "name": "", "height": null, "height_m": null, "levels": null, "tract_id": "40119010502", "tract_name": "105.02", "tags": {"addr:city": "Stillwater", "addr:housenumber": "118", "addr:postcode": "74075", "addr:street": "North Main Street", "building": "yes"}}}, {"type": "Feature", "geometry": {"type": "Polygon", "coordinates": [[[-97.0592225, 36.1230737], [-97.0592169, 36.1229528], [-97.059117, 36.1229558], [-97.0591227, 36.1230767], [-97.0592225, 36.1230737]]]}, "properties": {"osm_id": 260551689, "building": "yes", "name": "", "height": null, "height_m": null, "levels": null, "tract_id": "40119010502", "tract_name": "105.02", "tags": {"building": "yes"}}}, {"type": "Feature", "geometry": {"type": "Polygon", "coordinates": [[[-97.0593873, 36.1230495], [-97.0593861, 36.1229326], [-97.0592858, 36.1229332], [-97.059287, 36.1230502], [-97.0593873, 36.1230495]]]}, "properties": {"osm_id": 260551690, "building": "yes", "name": "", "height": null, "height_m": null, "levels": null, "tract_id": "40119010502", "tract_name": "105.02", "tags": {"building": "yes"}}}, {"type": "Feature", "geometry": {"type": "Polygon", "coordinates": [[[-97.0590865, 36.1231387], [-97.0590855, 36.1230668], [-97.0588878, 36.1230653], [-97.0588858, 36.1231339], [-97.0590865, 36.1231387]]]}, "properties": {"osm_id": 260551691, "building": "yes", "name": "Cake Crazy, LLC", "height": null, "height_m": null, "levels": null, "tract_id": "40119010502", "tract_name": "105.02", "tags": {"addr:city": "Stillwater", "addr:housenumber": "116", "addr:postcode": "74075", "addr:street": "North Main Street", "amenity": "fast_food", "building": "yes", "cuisine": "cake", "name": "Cake Crazy, LLC", "phone": "405-624-1273"}}}, {"type": "Feature", "geometry": {"type": "Polygon", "coordinates": [[[-97.0591815, 36.1253058], [-97.059066, 36.1253059], [-97.0590659, 36.1252153], [-97.0591814, 36.1252152], [-97.0591815, 36.1253058]]]}, "properties": {"osm_id": 270127010, "building": "yes", "name": "Allstate", "height": null, "height_m": null, "levels": null, "tract_id": "40119010502", "tract_name": "105.02", "tags": {"brand": "Allstate", "brand:wikidata": "Q2645636", "building": "yes", "name": "Allstate", "office": "insurance"}}}, {"type": "Feature", "geometry": {"type": "Polygon", "coordinates": [[[-97.0591814, 36.1252152], [-97.0591815, 36.1251167], [-97.0590658, 36.1251167], [-97.0590659, 36.1252153], [-97.0591814, 36.1252152]]]}, "properties": {"osm_id": 270127013, "building": "yes", "name": "Stillwater Democrats", "height": null, "height_m": null, "levels": null, "tract_id": "40119010502", "tract_name": "105.02", "tags": {"building": "yes", "name": "Stillwater Democrats", "office": "company"}}}, {"type": "Feature", "geometry": {"type": "Polygon", "coordinates": [[[-97.0609033, 36.1265504], [-97.0608999, 36.1264628], [-97.0606822, 36.1264683], [-97.0606856, 36.1265559], [-97.0609033, 36.1265504]]]}, "properties": {"osm_id": 301015273, "building": "yes", "name": "The Carpenter Agency", "height": null, "height_m": null, "levels": null, "tract_id": "40119010502", "tract_name": "105.02", "tags": {"addr:city": "Stillwater", "addr:housenumber": "201", "addr:postcode": "74075", "addr:street": "West Hall of Fame Avenue", "building": "yes", "fax": "+1-405-372-5234", "name": "The Carpenter Agency", "office": "insurance", "opening_hours": "Mo-Fr 08:30-17:00", "phone": "+1-405-624-2277", "website": "https://www.thecarpenteragency.com/"}}}, {"type": "Feature", "geometry": {"type": "Polygon", "coordinates": [[[-97.0591314, 36.1245357], [-97.0591349, 36.12469], [-97.0591412, 36.1246899], [-97.0591419, 36.1247724], [-97.0589169, 36.1247742], [-97.0589157, 36.1246692], [-97.0589242, 36.1246691], [-97.0589206, 36.1245354], [-97.0591314, 36.1245357]]]}, "properties": {"osm_id": 341647028, "building": "yes", "name": "McCollom's", "height": null, "height_m": null, "levels": null, "tract_id": "40119010502", "tract_name": "105.02", "tags": {"addr:city": "Stillwater", "addr:country": "US", "addr:housenumber": "224", "addr:postcode": "74075", "addr:state": "OK", "addr:street": "North Main Street", "building": "yes", "name": "McCollom's", "phone": "+1-405-372-1665", "shop": "furniture"}}}, {"type": "Feature", "geometry": {"type": "Polygon", "coordinates": [[[-97.059982, 36.1239665], [-97.0599852, 36.1238708], [-97.0598807, 36.1238685], [-97.0598775, 36.1239642], [-97.059982, 36.1239665]]]}, "properties": {"osm_id": 366343800, "building": "retail", "name": "Your Hair Rocks!", "height": null, "height_m": null, "levels": null, "tract_id": "40119010502", "tract_name": "105.02", "tags": {"addr:city": "Stillwater", "addr:country": "US", "addr:housenumber": "201", "addr:postcode": "74075", "addr:state": "OK", "addr:street": "North Hoke Street", "building": "retail", "landuse": "retail", "name": "Your Hair Rocks!", "shop": "hairdresser", "website": "http://yourhairrocks.net/index.html"}}}, {"type": "Feature", "geometry": {"type": "Polygon", "coordinates": [[[-97.0630006, 36.1227171], [-97.0629978, 36.1225823], [-97.0630081, 36.1225823], [-97.0633022, 36.1225823], [-97.0633543, 36.1225823], [-97.0633533, 36.1227149], [-97.0630006, 36.1227171]]]}, "properties": {"osm_id": 374778728, "building": "apartments", "name": "", "height": null, "height_m": null, "levels": null, "tract_id": "40119010502", "tract_name": "105.02", "tags": {"addr:city": "Stillwater", "addr:housenumber": "112", "addr:state": "OK", "addr:street": "North Duck Street", "building": "apartments", "operator": "Campbell Property Management", "operator:phone": "+1 405 372 9225"}}}, {"type": "Feature", "geometry": {"type": "Polygon", "coordinates": [[[-97.0613982, 36.1255892], [-97.0613893, 36.1254429], [-97.0610536, 36.1254322], [-97.061058, 36.1255856], [-97.0613982, 36.1255892]]]}, "properties": {"osm_id": 539543057, "building": "apartments", "name": "Duncan Street Studios", "height": null, "height_m": null, "levels": null, "tract_id": "40119010502", "tract_name": "105.02", "tags": {"building": "apartments", "name": "Duncan Street Studios"}}}, {"type": "Feature", "geometry": {"type": "Polygon", "coordinates": [[[-97.0614026, 36.1259103], [-97.0613982, 36.1257854], [-97.0610536, 36.1257712], [-97.0610491, 36.1259032], [-97.0614026, 36.1259103]]]}, "properties": {"osm_id": 539543058, "building": "apartments", "name": "Duncan Street Studios", "height": null, "height_m": null, "levels": null, "tract_id": "40119010502", "tract_name": "105.02", "tags": {"building": "apartments", "name": "Duncan Street Studios"}}}, {"type": "Feature", "geometry": {"type": "Polygon", "coordinates": [[[-97.0620264, 36.1226579], [-97.0620258, 36.1223188], [-97.0618039, 36.1223231], [-97.061796, 36.1224479], [-97.0617676, 36.1224463], [-97.06177, 36.1223255], [-97.0615645, 36.1223234], [-97.0615641, 36.1224493], [-97.0615339, 36.1224434], [-97.0615338, 36.1223251], [-97.0613283, 36.1223258], [-97.0613291, 36.1224488], [-97.0613059, 36.1224474], [-97.0613007, 36.1223272], [-97.0611475, 36.1223256], [-97.0611241, 36.1223419], [-97.061092, 36.122346], [-97.0610914, 36.1224053], [-97.0611009, 36.1224034], [-97.0611032, 36.1224346], [-97.0610913, 36.1224318], [-97.0610959, 36.1226183], [-97.0610966, 36.1226773], [-97.061303, 36.1226733], [-97.0613037, 36.1225796], [-97.0613244, 36.1225774], [-97.0613233, 36.1226715], [-97.0615439, 36.1226647], [-97.061529, 36.1225661], [-97.0615428, 36.1225649], [-97.0615582, 36.1226649], [-97.0617736, 36.1226581], [-97.0617691, 36.122566], [-97.0617888, 36.1225647], [-97.061797, 36.1226651], [-97.0620264, 36.1226579]]]}, "properties": {"osm_id": 1229578803, "building": "apartments", "name": "Prime Place Apartments", "height": null, "height_m": 15.0, "levels": 5, "tract_id": "40119010502", "tract_name": "105.02", "tags": {"addr:city": "Stillwater", "addr:housenumber": "231", "addr:postcode": "74881", "addr:state": "OK", "addr:street": "West Elm Avenue", "building": "apartments", "building:levels": "5", "name": "Prime Place Apartments"}}}, {"type": "Feature", "geometry": {"type": "Polygon", "coordinates": [[[-97.0611215, 36.1232352], [-97.0611211, 36.1232035], [-97.0611503, 36.1232033], [-97.0611487, 36.123089], [-97.061114, 36.1230893], [-97.0611139, 36.1230808], [-97.0610835, 36.1230811], [-97.0610837, 36.1230927], [-97.0610465, 36.123093], [-97.0610484, 36.1232358], [-97.0611215, 36.1232352]]]}, "properties": {"osm_id": 1229578815, "building": "yes", "name": "", "height": null, "height_m": null, "levels": null, "tract_id": "40119010502", "tract_name": "105.02", "tags": {"building": "yes"}}}, {"type": "Feature", "geometry": {"type": "Polygon", "coordinates": [[[-97.0614319, 36.1231113], [-97.0614317, 36.1230951], [-97.0614551, 36.1230949], [-97.0614545, 36.1230443], [-97.0614312, 36.1230445], [-97.061431, 36.1230273], [-97.0613644, 36.1230278], [-97.0613643, 36.1230179], [-97.0613274, 36.1230182], [-97.0613275, 36.1230291], [-97.0612951, 36.1230294], [-97.0612961, 36.1231123], [-97.0614319, 36.1231113]]]}, "properties": {"osm_id": 1229578816, "building": "house", "name": "", "height": null, "height_m": null, "levels": null, "tract_id": "40119010502", "tract_name": "105.02", "tags": {"building": "house"}}}, {"type": "Feature", "geometry": {"type": "Polygon", "coordinates": [[[-97.0614245, 36.1228366], [-97.0614242, 36.1228173], [-97.0614451, 36.1228171], [-97.0614443, 36.1227697], [-97.0614228, 36.1227699], [-97.0614227, 36.1227628], [-97.0612957, 36.1227641], [-97.0612968, 36.1228379], [-97.0614245, 36.1228366]]]}, "properties": {"osm_id": 1229578818, "building": "house", "name": "", "height": null, "height_m": null, "levels": null, "tract_id": "40119010502", "tract_name": "105.02", "tags": {"building": "house"}}}, {"type": "Feature", "geometry": {"type": "Polygon", "coordinates": [[[-97.0611405, 36.1228666], [-97.061046, 36.1228678], [-97.0610446, 36.1227944], [-97.0611391, 36.1227932], [-97.0611405, 36.1228666]]]}, "properties": {"osm_id": 1229578819, "building": "house", "name": "", "height": null, "height_m": null, "levels": null, "tract_id": "40119010502", "tract_name": "105.02", "tags": {"building": "house"}}}, {"type": "Feature", "geometry": {"type": "Polygon", "coordinates": [[[-97.0609427, 36.1229377], [-97.0609425, 36.1228131], [-97.0608474, 36.1228132], [-97.0608475, 36.1229378], [-97.0609427, 36.1229377]]]}, "properties": {"osm_id": 1229578820, "building": "yes", "name": "", "height": null, "height_m": null, "levels": null, "tract_id": "40119010502", "tract_name": "105.02", "tags": {"building": "yes"}}}, {"type": "Feature", "geometry": {"type": "Polygon", "coordinates": [[[-97.0607553, 36.1228445], [-97.0605992, 36.1228458], [-97.060598, 36.1227592], [-97.0607541, 36.1227578], [-97.0607553, 36.1228445]]]}, "properties": {"osm_id": 1229578821, "building": "yes", "name": "", "height": null, "height_m": null, "levels": null, "tract_id": "40119010502", "tract_name": "105.02", "tags": {"building": "yes"}}}, {"type": "Feature", "geometry": {"type": "Polygon", "coordinates": [[[-97.0605861, 36.1229835], [-97.0606074, 36.1229832], [-97.0606075, 36.1229883], [-97.0607514, 36.1229868], [-97.0607501, 36.1229071], [-97.060609, 36.1229086], [-97.0606091, 36.1229129], [-97.060585, 36.1229132], [-97.0605861, 36.1229835]]]}, "properties": {"osm_id": 1229578822, "building": "yes", "name": "", "height": null, "height_m": null, "levels": null, "tract_id": "40119010502", "tract_name": "105.02", "tags": {"building": "yes"}}}, {"type": "Feature", "geometry": {"type": "Polygon", "coordinates": [[[-97.0607351, 36.123022], [-97.0607358, 36.1230934], [-97.0605799, 36.1230945], [-97.0605792, 36.1230231], [-97.0607351, 36.123022]]]}, "properties": {"osm_id": 1229578823, "building": "yes", "name": "", "height": null, "height_m": null, "levels": null, "tract_id": "40119010502", "tract_name": "105.02", "tags": {"building": "yes"}}}, {"type": "Feature", "geometry": {"type": "Polygon", "coordinates": [[[-97.0603087, 36.123052], [-97.0603078, 36.1228176], [-97.060216, 36.1228178], [-97.0602169, 36.1230522], [-97.0603087, 36.123052]]]}, "properties": {"osm_id": 1229578824, "building": "apartments", "name": "", "height": null, "height_m": null, "levels": null, "tract_id": "40119010502", "tract_name": "105.02", "tags": {"building": "apartments"}}}, {"type": "Feature", "geometry": {"type": "Polygon", "coordinates": [[[-97.0601638, 36.1230534], [-97.0600466, 36.1230549], [-97.0600488, 36.1228206], [-97.0601671, 36.1228217], [-97.0601638, 36.1230534]]]}, "properties": {"osm_id": 1229578825, "building": "apartments", "name": "", "height": null, "height_m": null, "levels": null, "tract_id": "40119010502", "tract_name": "105.02", "tags": {"building": "apartments"}}}, {"type": "Feature", "geometry": {"type": "Polygon", "coordinates": [[[-97.0607701, 36.1232153], [-97.0606029, 36.1232155], [-97.0606027, 36.1231412], [-97.0607699, 36.123141], [-97.0607701, 36.1232153]]]}, "properties": {"osm_id": 1229578828, "building": "apartments", "name": "", "height": null, "height_m": null, "levels": null, "tract_id": "40119010502", "tract_name": "105.02", "tags": {"building": "apartments"}}}, {"type": "Feature", "geometry": {"type": "Polygon", "coordinates": [[[-97.0610473, 36.1224836], [-97.0609369, 36.1224828], [-97.0609381, 36.122367], [-97.0609676, 36.1223672], [-97.0609678, 36.1223508], [-97.0610058, 36.1223511], [-97.0610056, 36.1223669], [-97.0610485, 36.1223672], [-97.0610473, 36.1224836]]]}, "properties": {"osm_id": 1229578829, "building": "house", "name": "", "height": null, "height_m": null, "levels": null, "tract_id": "40119010502", "tract_name": "105.02", "tags": {"building": "house"}}}, {"type": "Feature", "geometry": {"type": "Polygon", "coordinates": [[[-97.0608958, 36.1224714], [-97.0608983, 36.1225029], [-97.0608275, 36.1225029], [-97.0608284, 36.1224767], [-97.0607983, 36.122474], [-97.0607958, 36.1223637], [-97.0608072, 36.1223637], [-97.0608064, 36.1223479], [-97.0608926, 36.122346], [-97.0608942, 36.122363], [-97.0609032, 36.122363], [-97.0609064, 36.1224714], [-97.0608958, 36.1224714]]]}, "properties": {"osm_id": 1229578830, "building": "house", "name": "", "height": null, "height_m": null, "levels": null, "tract_id": "40119010502", "tract_name": "105.02", "tags": {"building": "house"}}}, {"type": "Feature", "geometry": {"type": "Polygon", "coordinates": [[[-97.0605987, 36.1224941], [-97.0607424, 36.1224912], [-97.0607572, 36.1224901], [-97.060753, 36.1223477], [-97.0605916, 36.1223471], [-97.0605987, 36.1224941]]]}, "properties": {"osm_id": 1229578831, "building": "apartments", "name": "", "height": null, "height_m": null, "levels": null, "tract_id": "40119010502", "tract_name": "105.02", "tags": {"building": "apartments"}}}, {"type": "Feature", "geometry": {"type": "Polygon", "coordinates": [[[-97.0603311, 36.1224855], [-97.0603261, 36.1223329], [-97.0602136, 36.122334], [-97.060215, 36.1224889], [-97.0603311, 36.1224855]]]}, "properties": {"osm_id": 1229578832, "building": "house", "name": "", "height": null, "height_m": null, "levels": null, "tract_id": "40119010502", "tract_name": "105.02", "tags": {"building": "house"}}}, {"type": "Feature", "geometry": {"type": "Polygon", "coordinates": [[[-97.0600593, 36.1224741], [-97.060174, 36.1224735], [-97.0601733, 36.1224535], [-97.060157, 36.1224512], [-97.0601598, 36.1223912], [-97.0601414, 36.1223906], [-97.0601414, 36.122378], [-97.0601591, 36.1223797], [-97.0601492, 36.1223386], [-97.0600848, 36.1223409], [-97.0600834, 36.1223569], [-97.0600508, 36.1223552], [-97.0600593, 36.1224741]]]}, "properties": {"osm_id": 1229578833, "building": "house", "name": "", "height": null, "height_m": null, "levels": null, "tract_id": "40119010502", "tract_name": "105.02", "tags": {"building": "house"}}}, {"type": "Feature", "geometry": {"type": "Polygon", "coordinates": [[[-97.0603593, 36.1226469], [-97.0603766, 36.122647], [-97.0603769, 36.1226217], [-97.0603566, 36.1226215], [-97.0603568, 36.1226019], [-97.0603372, 36.1226018], [-97.0603373, 36.1225937], [-97.0602669, 36.1225932], [-97.0602668, 36.1226048], [-97.0602512, 36.1226047], [-97.0602505, 36.1226699], [-97.0603591, 36.1226706], [-97.0603593, 36.1226469]]]}, "properties": {"osm_id": 1229578834, "building": "house", "name": "", "height": null, "height_m": null, "levels": null, "tract_id": "40119010502", "tract_name": "105.02", "tags": {"building": "house"}}}, {"type": "Feature", "geometry": {"type": "Polygon", "coordinates": [[[-97.0601906, 36.1224987], [-97.0600654, 36.1224983], [-97.0600649, 36.1226089], [-97.0601082, 36.122609], [-97.0601081, 36.1226221], [-97.0601425, 36.1226222], [-97.0601426, 36.1226105], [-97.06019, 36.1226107], [-97.0601906, 36.1224987]]]}, "properties": {"osm_id": 1229578835, "building": "apartments", "name": "", "height": null, "height_m": null, "levels": null, "tract_id": "40119010502", "tract_name": "105.02", "tags": {"building": "apartments"}}}, {"type": "Feature", "geometry": {"type": "Polygon", "coordinates": [[[-97.0600521, 36.1226037], [-97.0600512, 36.1225329], [-97.0599774, 36.1225334], [-97.0599783, 36.1226043], [-97.0600521, 36.1226037]]]}, "properties": {"osm_id": 1229578836, "building": "house", "name": "", "height": null, "height_m": null, "levels": null, "tract_id": "40119010502", "tract_name": "105.02", "tags": {"building": "house"}}}, {"type": "Feature", "geometry": {"type": "Polygon", "coordinates": [[[-97.0600052, 36.12251], [-97.060008, 36.1223515], [-97.0599024, 36.1223502], [-97.0598996, 36.1225088], [-97.0600052, 36.12251]]]}, "properties": {"osm_id": 1229578837, "building": "house", "name": "", "height": null, "height_m": null, "levels": null, "tract_id": "40119010502", "tract_name": "105.02", "tags": {"building": "house"}}}, {"type": "Feature", "geometry": {"type": "Polygon", "coordinates": [[[-97.0597476, 36.1224527], [-97.0598496, 36.1224541], [-97.0598521, 36.122343], [-97.05975, 36.1223416], [-97.0597476, 36.1224527]]]}, "properties": {"osm_id": 1229578838, "building": "house", "name": "", "height": null, "height_m": null, "levels": null, "tract_id": "40119010502", "tract_name": "105.02", "tags": {"building": "house"}}}, {"type": "Feature", "geometry": {"type": "Polygon", "coordinates": [[[-97.0597009, 36.1226298], [-97.0595782, 36.1226294], [-97.0595801, 36.1223347], [-97.0597026, 36.1223352], [-97.0597009, 36.1226298]]]}, "properties": {"osm_id": 1229578839, "building": "apartments", "name": "", "height": null, "height_m": null, "levels": null, "tract_id": "40119010502", "tract_name": "105.02", "tags": {"building": "apartments"}}}, {"type": "Feature", "geometry": {"type": "Polygon", "coordinates": [[[-97.0593986, 36.1224825], [-97.0595, 36.1224819], [-97.0595, 36.1224338], [-97.0595129, 36.122433], [-97.0595108, 36.1223485], [-97.0594061, 36.1223493], [-97.0594083, 36.1224256], [-97.0593981, 36.122426], [-97.0593986, 36.1224825]]]}, "properties": {"osm_id": 1229578840, "building": "house", "name": "", "height": null, "height_m": null, "levels": null, "tract_id": "40119010502", "tract_name": "105.02", "tags": {"building": "house"}}}, {"type": "Feature", "geometry": {"type": "Polygon", "coordinates": [[[-97.060713, 36.1226712], [-97.0607469, 36.1226706], [-97.0607451, 36.1226024], [-97.0606129, 36.1226046], [-97.060613, 36.1226102], [-97.0605891, 36.1226106], [-97.0605907, 36.1226685], [-97.0606023, 36.1226683], [-97.0606026, 36.1226801], [-97.0607132, 36.1226782], [-97.060713, 36.1226712]]]}, "properties": {"osm_id": 1229585907, "building": "residential", "name": "", "height": null, "height_m": null, "levels": null, "tract_id": "40119010502", "tract_name": "105.02", "tags": {"building": "residential"}}}, {"type": "Feature", "geometry": {"type": "Polygon", "coordinates": [[[-97.0590317, 36.12263], [-97.058902, 36.1226324], [-97.0588994, 36.1225396], [-97.0590291, 36.1225372], [-97.0590317, 36.12263]]]}, "properties": {"osm_id": 1229585916, "building": "yes", "name": "", "height": null, "height_m": null, "levels": null, "tract_id": "40119010502", "tract_name": "105.02", "tags": {"building": "yes"}}}, {"type": "Feature", "geometry": {"type": "Polygon", "coordinates": [[[-97.0590301, 36.1224793], [-97.0590301, 36.1222786], [-97.0589143, 36.1222793], [-97.0589208, 36.1224793], [-97.0590301, 36.1224793]]]}, "properties": {"osm_id": 1229585917, "building": "yes", "name": "Doc Green's Dispensary", "height": null, "height_m": null, "levels": null, "tract_id": "40119010502", "tract_name": "105.02", "tags": {"building": "yes", "name": "Doc Green's Dispensary", "shop": "cannabis"}}}, {"type": "Feature", "geometry": {"type": "Polygon", "coordinates": [[[-97.0601647, 36.1242345], [-97.0603243, 36.1242363], [-97.0603257, 36.1241561], [-97.0601661, 36.1241543], [-97.0601647, 36.1242345]]]}, "properties": {"osm_id": 1233753759, "building": "detached", "name": "", "height": null, "height_m": null, "levels": null, "tract_id": "40119010502", "tract_name": "105.02", "tags": {"building": "detached", "source": "microsoft/BuildingFootprints"}}}, {"type": "Feature", "geometry": {"type": "Polygon", "coordinates": [[[-97.0601473, 36.1240153], [-97.0603296, 36.1240108], [-97.0603258, 36.1239112], [-97.0601436, 36.1239157], [-97.0601473, 36.1240153]]]}, "properties": {"osm_id": 1233753760, "building": "detached", "name": "", "height": null, "height_m": null, "levels": null, "tract_id": "40119010502", "tract_name": "105.02", "tags": {"building": "detached", "source": "microsoft/BuildingFootprints"}}}, {"type": "Feature", "geometry": {"type": "Polygon", "coordinates": [[[-97.0601215, 36.124115], [-97.0602932, 36.1241168], [-97.0602945, 36.1240323], [-97.0601228, 36.1240305], [-97.0601215, 36.124115]]]}, "properties": {"osm_id": 1233753761, "building": "detached", "name": "", "height": null, "height_m": null, "levels": null, "tract_id": "40119010502", "tract_name": "105.02", "tags": {"building": "detached", "source": "microsoft/BuildingFootprints"}}}, {"type": "Feature", "geometry": {"type": "Polygon", "coordinates": [[[-97.0601128, 36.1241527], [-97.0600243, 36.1241542], [-97.0600263, 36.1242269], [-97.0601147, 36.1242253], [-97.0601128, 36.1241527]]]}, "properties": {"osm_id": 1233753762, "building": "yes", "name": "", "height": null, "height_m": null, "levels": null, "tract_id": "40119010502", "tract_name": "105.02", "tags": {"building": "yes", "source": "microsoft/BuildingFootprints"}}}, {"type": "Feature", "geometry": {"type": "Polygon", "coordinates": [[[-97.060133, 36.1243213], [-97.0602885, 36.1243233], [-97.06029, 36.1242487], [-97.0601345, 36.1242466], [-97.060133, 36.1243213]]]}, "properties": {"osm_id": 1233753763, "building": "detached", "name": "", "height": null, "height_m": null, "levels": null, "tract_id": "40119010502", "tract_name": "105.02", "tags": {"building": "detached", "source": "microsoft/BuildingFootprints"}}}, {"type": "Feature", "geometry": {"type": "Polygon", "coordinates": [[[-97.0592754, 36.1242419], [-97.0592057, 36.1242425], [-97.0592053, 36.1242089], [-97.059275, 36.1242084], [-97.0592754, 36.1242419]]]}, "properties": {"osm_id": 1233869894, "building": "garage", "name": "", "height": null, "height_m": null, "levels": null, "tract_id": "40119010502", "tract_name": "105.02", "tags": {"building": "garage"}}}, {"type": "Feature", "geometry": {"type": "Polygon", "coordinates": [[[-97.0599864, 36.1234008], [-97.06004, 36.1233992], [-97.0600375, 36.1233451], [-97.0599839, 36.1233467], [-97.0599864, 36.1234008]]]}, "properties": {"osm_id": 1233869895, "building": "detached", "name": "", "height": null, "height_m": null, "levels": null, "tract_id": "40119010502", "tract_name": "105.02", "tags": {"building": "detached", "source": "microsoft/BuildingFootprints"}}}, {"type": "Feature", "geometry": {"type": "Polygon", "coordinates": [[[-97.0592985, 36.1241428], [-97.0592994, 36.1241656], [-97.0592802, 36.1241661], [-97.0592815, 36.1242018], [-97.0593941, 36.1241989], [-97.0593918, 36.1241405], [-97.0592985, 36.1241428]]]}, "properties": {"osm_id": 1233869896, "building": "detached", "name": "", "height": null, "height_m": null, "levels": null, "tract_id": "40119010502", "tract_name": "105.02", "tags": {"building": "detached", "source": "microsoft/BuildingFootprints"}}}, {"type": "Feature", "geometry": {"type": "Polygon", "coordinates": [[[-97.0596511, 36.1241616], [-97.0597824, 36.1241638], [-97.0597844, 36.1240891], [-97.059653, 36.1240868], [-97.0596511, 36.1241616]]]}, "properties": {"osm_id": 1233869897, "building": "detached", "name": "", "height": null, "height_m": null, "levels": null, "tract_id": "40119010502", "tract_name": "105.02", "tags": {"building": "detached", "source": "microsoft/BuildingFootprints"}}}, {"type": "Feature", "geometry": {"type": "Polygon", "coordinates": [[[-97.0596078, 36.1235473], [-97.0594925, 36.123547], [-97.0594921, 36.1236564], [-97.0595232, 36.1236564], [-97.0595231, 36.12367], [-97.0595808, 36.1236701], [-97.0595809, 36.1236566], [-97.0596074, 36.1236567], [-97.0596078, 36.1235473]]]}, "properties": {"osm_id": 1233869898, "building": "detached", "name": "", "height": null, "height_m": null, "levels": null, "tract_id": "40119010502", "tract_name": "105.02", "tags": {"building": "detached", "source": "microsoft/BuildingFootprints"}}}, {"type": "Feature", "geometry": {"type": "Polygon", "coordinates": [[[-97.0602589, 36.1233344], [-97.0601398, 36.1233369], [-97.0601402, 36.1233498], [-97.0601166, 36.1233503], [-97.0601179, 36.123392], [-97.0601415, 36.1233915], [-97.0601427, 36.1234278], [-97.0602618, 36.1234253], [-97.0602589, 36.1233344]]]}, "properties": {"osm_id": 1233869899, "building": "detached", "name": "", "height": null, "height_m": null, "levels": null, "tract_id": "40119010502", "tract_name": "105.02", "tags": {"building": "detached", "source": "microsoft/BuildingFootprints"}}}, {"type": "Feature", "geometry": {"type": "Polygon", "coordinates": [[[-97.0597001, 36.12365], [-97.0598207, 36.1236497], [-97.0598205, 36.123548], [-97.0596999, 36.1235482], [-97.0597001, 36.12365]]]}, "properties": {"osm_id": 1233869900, "building": "detached", "name": "", "height": null, "height_m": null, "levels": null, "tract_id": "40119010502", "tract_name": "105.02", "tags": {"building": "detached", "source": "microsoft/BuildingFootprints"}}}, {"type": "Feature", "geometry": {"type": "Polygon", "coordinates": [[[-97.0597999, 36.1234033], [-97.0598548, 36.1234046], [-97.0598579, 36.1233214], [-97.0598031, 36.12332], [-97.0597999, 36.1234033]]]}, "properties": {"osm_id": 1233869901, "building": "detached", "name": "", "height": null, "height_m": null, "levels": null, "tract_id": "40119010502", "tract_name": "105.02", "tags": {"building": "detached", "source": "microsoft/BuildingFootprints"}}}, {"type": "Feature", "geometry": {"type": "Polygon", "coordinates": [[[-97.0598925, 36.123493], [-97.0598174, 36.1234917], [-97.059816, 36.1235415], [-97.0598911, 36.1235428], [-97.0598925, 36.123493]]]}, "properties": {"osm_id": 1233869902, "building": "yes", "name": "", "height": null, "height_m": null, "levels": null, "tract_id": "40119010502", "tract_name": "105.02", "tags": {"building": "yes", "source": "microsoft/BuildingFootprints"}}}, {"type": "Feature", "geometry": {"type": "Polygon", "coordinates": [[[-97.0592955, 36.1242859], [-97.0592961, 36.1243595], [-97.0594136, 36.1243589], [-97.0594135, 36.1243535], [-97.0594388, 36.1243534], [-97.0594383, 36.1242954], [-97.059413, 36.1242956], [-97.0594129, 36.1242852], [-97.0592955, 36.1242859]]]}, "properties": {"osm_id": 1233869903, "building": "detached", "name": "", "height": null, "height_m": null, "levels": null, "tract_id": "40119010502", "tract_name": "105.02", "tags": {"building": "detached", "source": "microsoft/BuildingFootprints"}}}, {"type": "Feature", "geometry": {"type": "Polygon", "coordinates": [[[-97.0625178, 36.1251613], [-97.0624034, 36.1251618], [-97.0624028, 36.1250758], [-97.0625173, 36.1250753], [-97.0625178, 36.1251613]]]}, "properties": {"osm_id": 1234572265, "building": "residential", "name": "", "height": null, "height_m": null, "levels": null, "tract_id": "40119010502", "tract_name": "105.02", "tags": {"building": "residential"}}}, {"type": "Feature", "geometry": {"type": "Polygon", "coordinates": [[[-97.0625062, 36.1250398], [-97.0625034, 36.1249465], [-97.06239, 36.1249487], [-97.0623928, 36.125042], [-97.0625062, 36.1250398]]]}, "properties": {"osm_id": 1234572266, "building": "residential", "name": "", "height": null, "height_m": null, "levels": null, "tract_id": "40119010502", "tract_name": "105.02", "tags": {"building": "residential"}}}, {"type": "Feature", "geometry": {"type": "Polygon", "coordinates": [[[-97.0623538, 36.1250658], [-97.0623523, 36.1249553], [-97.0621867, 36.1249568], [-97.0621882, 36.1250672], [-97.0623538, 36.1250658]]]}, "properties": {"osm_id": 1234572267, "building": "residential", "name": "", "height": null, "height_m": null, "levels": null, "tract_id": "40119010502", "tract_name": "105.02", "tags": {"building": "residential"}}}, {"type": "Feature", "geometry": {"type": "Polygon", "coordinates": [[[-97.0644787, 36.1243305], [-97.0640642, 36.1243305], [-97.0640623, 36.1242071], [-97.0640767, 36.1242078], [-97.0640757, 36.1241376], [-97.0640241, 36.1241369], [-97.0640213, 36.1240829], [-97.0640277, 36.1240816], [-97.0640266, 36.1239864], [-97.0640198, 36.123986], [-97.064021, 36.1239268], [-97.0640289, 36.1239268], [-97.0640289, 36.1239173], [-97.0644284, 36.1239163], [-97.0644237, 36.1241347], [-97.0644801, 36.1241338], [-97.0644787, 36.1243305]]]}, "properties": {"osm_id": 1309090740, "building": "church", "name": "", "height": null, "height_m": null, "levels": null, "tract_id": "40119010502", "tract_name": "105.02", "tags": {"building": "church"}}}, {"type": "Feature", "geometry": {"type": "Polygon", "coordinates": [[[-97.0593456, 36.12631], [-97.0594403, 36.1263113], [-97.0594397, 36.1263349], [-97.0595061, 36.1263358], [-97.0595097, 36.1261735], [-97.0593444, 36.1261711], [-97.0593456, 36.12631]]]}, "properties": {"osm_id": 1417654368, "building": "yes", "name": "", "height": null, "height_m": null, "levels": null, "tract_id": "40119010502", "tract_name": "105.02", "tags": {"building": "yes"}}}, {"type": "Feature", "geometry": {"type": "Polygon", "coordinates": [[[-97.0590789, 36.1261729], [-97.0590797, 36.1262635], [-97.0590522, 36.1262636], [-97.0590526, 36.1263125], [-97.0592106, 36.1263116], [-97.0592108, 36.1263287], [-97.0593457, 36.1263279], [-97.0593456, 36.12631], [-97.0593444, 36.1261711], [-97.0590789, 36.1261729]]]}, "properties": {"osm_id": 1417654369, "building": "yes", "name": "", "height": 9.0, "height_m": 9.0, "levels": 1, "tract_id": "40119010502", "tract_name": "105.02", "tags": {"addr:city": "Stillwater", "addr:postcode": "74075", "amenity": "restaurant", "building": "yes", "building:levels": "1", "cuisine": "asian", "height": "9", "wheelchair": "yes"}}}]}