{"type": "FeatureCollection", "features": [{"type": "Feature", "geometry": {"type": "Polygon", "coordinates": [[[-94.8461684, 36.8754919], [-94.8461029, 36.8754914], [-94.8461025, 36.8755195], [-94.8460301, 36.8755189], [-94.8460305, 36.8754912], [-94.8459537, 36.8754906], [-94.8459542, 36.8754556], [-94.8459145, 36.8754553], [-94.845916, 36.8753344], [-94.8459489, 36.8753347], [-94.8459496, 36.8752789], [-94.8461711, 36.8752807], [-94.8461684, 36.8754919]]]}, "properties": {"osm_id": 64624928, "building": "yes", "name": "", "height": null, "height_m": null, "levels": null, "tract_id": "40115574600", "tract_name": "5746", "tags": {"amenity": "toilets", "building": "yes", "information": "office", "opening_hours": "08:00-17:00", "operator": "Oklahoma Turnpike Authority", "tourism": "information", "wheelchair": "yes"}}}, {"type": "Feature", "geometry": {"type": "Polygon", "coordinates": [[[-94.8518857, 36.8685825], [-94.8518847, 36.8687306], [-94.8518404, 36.8687311], [-94.8517836, 36.8687305], [-94.8517299, 36.8687299], [-94.851731, 36.8685818], [-94.851783, 36.8685814], [-94.8518398, 36.8685809], [-94.8518857, 36.8685825]]]}, "properties": {"osm_id": 416629611, "building": "yes", "name": "", "height": null, "height_m": null, "levels": null, "tract_id": "40115574600", "tract_name": "5746", "tags": {"building": "yes"}}}, {"type": "Feature", "geometry": {"type": "Polygon", "coordinates": [[[-94.8700023, 36.8676686], [-94.8695346, 36.8676653], [-94.8695371, 36.8674376], [-94.8694523, 36.867437], [-94.8694532, 36.867348], [-94.8695454, 36.8673486], [-94.8695478, 36.8671235], [-94.8700082, 36.8671267], [-94.8700023, 36.8676686]]]}, "properties": {"osm_id": 467611433, "building": "yes", "name": "", "height": null, "height_m": null, "levels": null, "tract_id": "40115574600", "tract_name": "5746", "tags": {"building": "yes", "layer": "1"}}}, {"type": "Feature", "geometry": {"type": "Polygon", "coordinates": [[[-94.8483926, 36.8730611], [-94.8484298, 36.8729883], [-94.8484085, 36.8729813], [-94.8484741, 36.872853], [-94.8483717, 36.8728194], [-94.8484235, 36.8727182], [-94.8481626, 36.8726327], [-94.8481047, 36.872746], [-94.8482596, 36.8727968], [-94.848227, 36.8728605], [-94.8481854, 36.8728468], [-94.8481588, 36.8728987], [-94.8481748, 36.8729039], [-94.8481252, 36.8730008], [-94.8481421, 36.8730063], [-94.8481157, 36.873058], [-94.848249, 36.8731017], [-94.8482749, 36.873051], [-94.8483476, 36.8730749], [-94.8483601, 36.8730504], [-94.8483926, 36.8730611]]]}, "properties": {"osm_id": 608449385, "building": "yes", "name": "Peoria Tribe of Oklahoma", "height": null, "height_m": 3.0, "levels": 1, "tract_id": "40115574600", "tract_name": "5746", "tags": {"addr:city": "Miami", "addr:housenumber": "118", "addr:postcode": "74354", "addr:state": "OK", "addr:street": "South Tribe Trail", "building": "yes", "building:levels": "1", "name": "Peoria Tribe of Oklahoma"}}}, {"type": "Feature", "geometry": {"type": "Polygon", "coordinates": [[[-94.8487459, 36.8729178], [-94.8487104, 36.8729882], [-94.8486992, 36.8729846], [-94.8486869, 36.873009], [-94.8486365, 36.8729927], [-94.8486488, 36.8729683], [-94.8485961, 36.8729513], [-94.848554, 36.8730349], [-94.8484691, 36.8730076], [-94.8485112, 36.872924], [-94.8484925, 36.8729179], [-94.848528, 36.8728475], [-94.8487459, 36.8729178]]]}, "properties": {"osm_id": 609356886, "building": "yes", "name": "", "height": null, "height_m": null, "levels": null, "tract_id": "40115574600", "tract_name": "5746", "tags": {"building": "yes"}}}, {"type": "Feature", "geometry": {"type": "Polygon", "coordinates": [[[-94.848471, 36.8731763], [-94.8483885, 36.8731475], [-94.8484509, 36.8730333], [-94.8485333, 36.8730621], [-94.848471, 36.8731763]]]}, "properties": {"osm_id": 609356887, "building": "yes", "name": "", "height": null, "height_m": null, "levels": null, "tract_id": "40115574600", "tract_name": "5746", "tags": {"building": "yes"}}}, {"type": "Feature", "geometry": {"type": "Polygon", "coordinates": [[[-94.8468167, 36.8762274], [-94.8465596, 36.8761469], [-94.8466513, 36.8759506], [-94.8466437, 36.8759394], [-94.8466873, 36.8758385], [-94.8467423, 36.8758214], [-94.8468395, 36.8756159], [-94.8469542, 36.8756503], [-94.8469669, 36.8756224], [-94.847087, 36.8756588], [-94.8469488, 36.8759495], [-94.8469864, 36.8759609], [-94.8469234, 36.8760935], [-94.8468858, 36.8760821], [-94.8468295, 36.8760998], [-94.8468548, 36.8761473], [-94.84688, 36.876155], [-94.8468638, 36.8761889], [-94.8468387, 36.8761812], [-94.8468167, 36.8762274]]]}, "properties": {"osm_id": 930326187, "building": "yes", "name": "", "height": null, "height_m": null, "levels": null, "tract_id": "40115574600", "tract_name": "5746", "tags": {"building": "yes"}}}, {"type": "Feature", "geometry": {"type": "Polygon", "coordinates": [[[-94.8464824, 36.8771243], [-94.8464021, 36.8770194], [-94.8462764, 36.877081], [-94.8462059, 36.8769891], [-94.8463312, 36.8769277], [-94.8462455, 36.8768159], [-94.8464634, 36.8767091], [-94.8465273, 36.8767925], [-94.846617, 36.8767485], [-94.8467265, 36.8768915], [-94.8466448, 36.8769315], [-94.8467078, 36.8770138], [-94.8464824, 36.8771243]]]}, "properties": {"osm_id": 930326188, "building": "yes", "name": "", "height": null, "height_m": null, "levels": null, "tract_id": "40115574600", "tract_name": "5746", "tags": {"building": "yes"}}}, {"type": "Feature", "geometry": {"type": "Polygon", "coordinates": [[[-94.8546392, 36.8708793], [-94.8544381, 36.8708757], [-94.8544551, 36.870275], [-94.854656, 36.8702787], [-94.8546392, 36.8708793]]]}, "properties": {"osm_id": 956576573, "building": "yes", "name": "Days Inn by Wyndham Miami", "height": null, "height_m": null, "levels": null, "tract_id": "40115574600", "tract_name": "5746", "tags": {"addr:city": "Miami", "addr:housenumber": "2120", "addr:postcode": "74354", "addr:state": "OK", "addr:street": "East Steve Owens Boulevard", "branch": "Miami", "brand": "Days Inn", "brand:wikidata": "Q1047239", "building": "yes", "name": "Days Inn by Wyndham Miami", "phone": "+1 918-542-3382", "ref": "03869", "tourism": "hotel", "website": "https://www.wyndhamhotels.com/days-inn/miami-oklahoma/days-inn-miami/overview"}}}, {"type": "Feature", "geometry": {"type": "Polygon", "coordinates": [[[-94.8560342, 36.8728011], [-94.8556445, 36.8727991], [-94.8556452, 36.8727108], [-94.8557586, 36.8727114], [-94.8557634, 36.8721318], [-94.8559436, 36.8721328], [-94.8559387, 36.8727268], [-94.8560348, 36.8727273], [-94.8560342, 36.8728011]]]}, "properties": {"osm_id": 956577194, "building": "yes", "name": "Microtel Inn & Suites by Wyndham Miami", "height": null, "height_m": null, "levels": null, "tract_id": "40115574600", "tract_name": "5746", "tags": {"addr:city": "Miami", "addr:housenumber": "2015", "addr:postcode": "74354", "addr:state": "OK", "addr:street": "East Steve Owens Boulevard", "building": "yes", "name": "Microtel Inn & Suites by Wyndham Miami", "tourism": "hotel"}}}, {"type": "Feature", "geometry": {"type": "Polygon", "coordinates": [[[-94.8361189, 36.8906268], [-94.8364523, 36.8903748], [-94.8368426, 36.8907113], [-94.8368097, 36.8907304], [-94.8368564, 36.8907697], [-94.8367175, 36.890878], [-94.8366649, 36.8908369], [-94.836512, 36.8909527], [-94.8365388, 36.8909732], [-94.8363053, 36.8911488], [-94.8362855, 36.8911273], [-94.8361466, 36.89123], [-94.8361851, 36.8912786], [-94.8360532, 36.8913822], [-94.8360041, 36.8913439], [-94.8359644, 36.891371], [-94.8357295, 36.8912014], [-94.8355707, 36.8910468], [-94.8361189, 36.8906268]]]}, "properties": {"osm_id": 963949567, "building": "yes", "name": "Buffalo Run Casino", "height": null, "height_m": null, "levels": null, "tract_id": "40115574600", "tract_name": "5746", "tags": {"addr:city": "Miami", "addr:housenumber": "1000", "addr:postcode": "74354", "addr:state": "OK", "addr:street": "Will Rogers Turnpike", "amenity": "casino", "building": "yes", "name": "Buffalo Run Casino"}}}, {"type": "Feature", "geometry": {"type": "Polygon", "coordinates": [[[-94.8480347, 36.8737887], [-94.8479656, 36.8739215], [-94.8478099, 36.8738697], [-94.8477779, 36.8739312], [-94.8475904, 36.8738688], [-94.8476825, 36.8736917], [-94.8476146, 36.8736692], [-94.8476342, 36.8736315], [-94.8476968, 36.8736524], [-94.8477153, 36.8736168], [-94.8478906, 36.8736752], [-94.8478616, 36.873731], [-94.8480347, 36.8737887]]]}, "properties": {"osm_id": 988501290, "building": "yes", "name": "", "height": null, "height_m": null, "levels": null, "tract_id": "40115574600", "tract_name": "5746", "tags": {"building": "yes"}}}, {"type": "Feature", "geometry": {"type": "Polygon", "coordinates": [[[-94.8530073, 36.8714812], [-94.8530069, 36.871537], [-94.853041, 36.8715372], [-94.8530406, 36.8715994], [-94.8530064, 36.8715993], [-94.853006, 36.8716594], [-94.852961, 36.8716592], [-94.8529601, 36.87178], [-94.8528429, 36.8717795], [-94.8528437, 36.8716741], [-94.852814, 36.871674], [-94.8528142, 36.8716585], [-94.8527686, 36.8716583], [-94.8527689, 36.871618], [-94.8527387, 36.8716179], [-94.8527392, 36.8715541], [-94.8527694, 36.8715542], [-94.8527699, 36.8714802], [-94.8528249, 36.8714804], [-94.852825, 36.8714645], [-94.8529557, 36.8714651], [-94.8529556, 36.871481], [-94.8530073, 36.8714812]]]}, "properties": {"osm_id": 1129921591, "building": "yes", "name": "", "height": null, "height_m": null, "levels": null, "tract_id": "40115574600", "tract_name": "5746", "tags": {"building": "yes", "shop": "yes"}}}, {"type": "Feature", "geometry": {"type": "Polygon", "coordinates": [[[-94.842231, 36.9157006], [-94.8422292, 36.916256], [-94.8429212, 36.9162574], [-94.842923, 36.9157042], [-94.8425689, 36.9157034], [-94.8425692, 36.9156134], [-94.8425236, 36.9156133], [-94.8425242, 36.9154181], [-94.8424572, 36.915418], [-94.8424564, 36.9156689], [-94.8423545, 36.9156687], [-94.8423544, 36.9157009], [-94.842231, 36.9157006]]]}, "properties": {"osm_id": 1187716323, "building": "yes", "name": "", "height": null, "height_m": null, "levels": null, "tract_id": "40115574600", "tract_name": "5746", "tags": {"building": "yes", "source": "microsoft/BuildingFootprints"}}}, {"type": "Feature", "geometry": {"type": "Polygon", "coordinates": [[[-94.8487298, 36.8752877], [-94.8487211, 36.8752874], [-94.8487204, 36.875307], [-94.8486715, 36.8753058], [-94.8486722, 36.8752863], [-94.8483536, 36.8752785], [-94.8483614, 36.8750743], [-94.8485675, 36.8750793], [-94.848569, 36.8750384], [-94.8487391, 36.8750425], [-94.8487298, 36.8752877]]]}, "properties": {"osm_id": 1187716330, "building": "yes", "name": "Ottawa Tribe of Oklahoma", "height": null, "height_m": null, "levels": null, "tract_id": "40115574600", "tract_name": "5746", "tags": {"building": "yes", "government": "administrative", "name": "Ottawa Tribe of Oklahoma", "office": "government"}}}, {"type": "Feature", "geometry": {"type": "Polygon", "coordinates": [[[-94.8525643, 36.8681913], [-94.8532896, 36.8681864], [-94.8532877, 36.8680107], [-94.8525624, 36.8680158], [-94.8525643, 36.8681913]]]}, "properties": {"osm_id": 1225898349, "building": "yes", "name": "Holiday Inn Express & Suites Miami", "height": null, "height_m": null, "levels": null, "tract_id": "40115574600", "tract_name": "5746", "tags": {"addr:city": "Miami", "addr:housenumber": "509", "addr:postcode": "74354", "addr:state": "OK", "addr:street": "Henley Street", "branch": "Miami", "brand": "Holiday Inn Express", "brand:wikidata": "Q5880423", "building": "yes", "name": "Holiday Inn Express & Suites Miami", "phone": "+1 918-542-7424", "ref": "JLNMI", "tourism": "hotel", "website": "https://www.ihg.com/holidayinnexpress/hotels/us/en/miami/jlnmi/hoteldetail"}}}, {"type": "Feature", "geometry": {"type": "Polygon", "coordinates": [[[-94.868094, 36.8712195], [-94.8680924, 36.871151], [-94.8681799, 36.8711497], [-94.8681815, 36.8712181], [-94.868094, 36.8712195]]]}, "properties": {"osm_id": 1323783551, "building": "roof", "name": "", "height": null, "height_m": null, "levels": null, "tract_id": "40115574600", "tract_name": "5746", "tags": {"building": "roof"}}}, {"type": "Feature", "geometry": {"type": "Polygon", "coordinates": [[[-94.8680538, 36.8713257], [-94.8680573, 36.8714734], [-94.8678258, 36.8714769], [-94.8678223, 36.8713292], [-94.8680538, 36.8713257]]]}, "properties": {"osm_id": 1323783552, "building": "yes", "name": "", "height": null, "height_m": null, "levels": null, "tract_id": "40115574600", "tract_name": "5746", "tags": {"building": "yes"}}}, {"type": "Feature", "geometry": {"type": "Polygon", "coordinates": [[[-94.8540055, 36.8720511], [-94.8542117, 36.8720552], [-94.8542083, 36.8721652], [-94.8542606, 36.8721662], [-94.8542565, 36.8722999], [-94.8542238, 36.8722993], [-94.8542114, 36.8726958], [-94.8539855, 36.8726913], [-94.8540055, 36.8720511]]]}, "properties": {"osm_id": 1391228428, "building": "yes", "name": "", "height": null, "height_m": null, "levels": null, "tract_id": "40115574600", "tract_name": "5746", "tags": {"building": "yes"}}}, {"type": "Feature", "geometry": {"type": "Polygon", "coordinates": [[[-94.8639756, 36.8712844], [-94.8640835, 36.8712844], [-94.8640835, 36.8716886], [-94.8646473, 36.8716911], [-94.8646473, 36.871452], [-94.8645764, 36.8713707], [-94.8646966, 36.8712943], [-94.8647551, 36.8713485], [-94.8647367, 36.8717034], [-94.8646997, 36.8717034], [-94.8646812, 36.87177], [-94.8639756, 36.8717626], [-94.8639756, 36.8712844]]]}, "properties": {"osm_id": 1391228429, "building": "yes", "name": "", "height": null, "height_m": null, "levels": null, "tract_id": "40115574600", "tract_name": "5746", "tags": {"building": "yes"}}}, {"type": "Feature", "geometry": {"type": "Polygon", "coordinates": [[[-94.8687156, 36.870681], [-94.8688181, 36.8706818], [-94.8688253, 36.8700665], [-94.8675165, 36.8700568], [-94.8675154, 36.8701544], [-94.8687218, 36.8701636], [-94.8687156, 36.870681]]]}, "properties": {"osm_id": 1391228430, "building": "yes", "name": "", "height": null, "height_m": null, "levels": null, "tract_id": "40115574600", "tract_name": "5746", "tags": {"building": "yes"}}}, {"type": "Feature", "geometry": {"type": "Polygon", "coordinates": [[[-94.8691966, 36.8711603], [-94.8695822, 36.8711597], [-94.8695834, 36.8716566], [-94.8691977, 36.8716571], [-94.8691966, 36.8711603]]]}, "properties": {"osm_id": 1391228431, "building": "yes", "name": "", "height": null, "height_m": null, "levels": null, "tract_id": "40115574600", "tract_name": "5746", "tags": {"building": "yes"}}}, {"type": "Feature", "geometry": {"type": "Polygon", "coordinates": [[[-94.8680702, 36.8707868], [-94.8681221, 36.8708435], [-94.8681822, 36.8708471], [-94.8682884, 36.8708188], [-94.8683026, 36.870731], [-94.8683077, 36.8702852], [-94.8676083, 36.87028], [-94.8676042, 36.8706327], [-94.8677669, 36.870634], [-94.8677698, 36.8703817], [-94.868173, 36.8703847], [-94.8681694, 36.8706942], [-94.8680684, 36.8706934], [-94.8680702, 36.8707868]]]}, "properties": {"osm_id": 1391228432, "building": "yes", "name": "", "height": null, "height_m": null, "levels": null, "tract_id": "40115574600", "tract_name": "5746", "tags": {"building": "yes"}}}, {"type": "Feature", "geometry": {"type": "Polygon", "coordinates": [[[-94.8628316, 36.8708448], [-94.8631974, 36.8708466], [-94.8631972, 36.8708838], [-94.8633753, 36.8708847], [-94.8633756, 36.8708431], [-94.8637414, 36.870845], [-94.8637424, 36.8707288], [-94.8633601, 36.8707268], [-94.863361, 36.8706093], [-94.8632147, 36.8706086], [-94.8632138, 36.8707359], [-94.8628325, 36.870734], [-94.8628316, 36.8708448]]]}, "properties": {"osm_id": 1391228433, "building": "yes", "name": "", "height": null, "height_m": null, "levels": null, "tract_id": "40115574600", "tract_name": "5746", "tags": {"building": "yes"}}}]}