{"type": "FeatureCollection", "features": [{"type": "Feature", "geometry": {"type": "Polygon", "coordinates": [[[-96.4101939, 33.972326], [-96.4101875, 33.9721498], [-96.4100491, 33.9721498], [-96.4100567, 33.9698606], [-96.410056, 33.9694547], [-96.4060976, 33.9694316], [-96.4060663, 33.9721493], [-96.4076515, 33.9721619], [-96.4076571, 33.9723285], [-96.4079761, 33.9723309], [-96.4079857, 33.9721645], [-96.409883, 33.9721796], [-96.4098747, 33.9723336], [-96.4101939, 33.972326]]]}, "properties": {"osm_id": 165355253, "building": "warehouse", "name": "Big Lots Distribution Center", "height": null, "height_m": null, "levels": null, "tract_id": "40013796400", "tract_name": "7964", "tags": {"brand": "Big Lots", "brand:wikidata": "Q4905973", "building": "warehouse", "name": "Big Lots Distribution Center"}}}, {"type": "Feature", "geometry": {"type": "Polygon", "coordinates": [[[-96.4148356, 33.9562202], [-96.4145834, 33.9562157], [-96.4145674, 33.9560956], [-96.4144542, 33.9560934], [-96.4144547, 33.9560377], [-96.4143903, 33.9560377], [-96.414385, 33.9559665], [-96.4142938, 33.9559621], [-96.4142133, 33.9559487], [-96.4142187, 33.9560333], [-96.4141167, 33.9560377], [-96.4141108, 33.9560978], [-96.4139987, 33.9560911], [-96.4139875, 33.9562046], [-96.413752, 33.9562113], [-96.4137359, 33.9571323], [-96.4139504, 33.9571368], [-96.413966, 33.9572458], [-96.4140658, 33.9572605], [-96.4140733, 33.957584], [-96.414503, 33.9575817], [-96.4145008, 33.957268], [-96.4145566, 33.9572658], [-96.4145596, 33.9571439], [-96.4148624, 33.9571457], [-96.4148356, 33.9562202]]]}, "properties": {"osm_id": 202566989, "building": "yes", "name": "Choctaw Event Center", "height": null, "height_m": null, "levels": null, "tract_id": "40013796400", "tract_name": "7964", "tags": {"addr:city": "Durant", "addr:housenumber": "3702", "addr:postcode": "74701", "addr:state": "OK", "addr:street": "Choctaw Road", "amenity": "events_venue", "building": "yes", "name": "Choctaw Event Center"}}}, {"type": "Feature", "geometry": {"type": "Polygon", "coordinates": [[[-96.3862109, 33.9900216], [-96.3863072, 33.9897526], [-96.3862508, 33.9897387], [-96.3862671, 33.989693], [-96.3859746, 33.989621], [-96.3859583, 33.9896667], [-96.3855822, 33.9895741], [-96.3855501, 33.9896639], [-96.3850919, 33.9895511], [-96.3850302, 33.9897235], [-96.3858638, 33.9899287], [-96.3858999, 33.9898279], [-96.3860778, 33.9898717], [-96.3860393, 33.9899793], [-96.3862109, 33.9900216]]]}, "properties": {"osm_id": 608003941, "building": "school", "name": "", "height": null, "height_m": null, "levels": null, "tract_id": "40013796400", "tract_name": "7964", "tags": {"building": "school"}}}, {"type": "Feature", "geometry": {"type": "Polygon", "coordinates": [[[-96.4023218, 33.973962], [-96.4021985, 33.9738775], [-96.4021663, 33.9739264], [-96.4019839, 33.9738152], [-96.4018122, 33.9739843], [-96.4016566, 33.9738819], [-96.401603, 33.9738642], [-96.401544, 33.9738775], [-96.4014313, 33.973962], [-96.4013294, 33.9738997], [-96.4012329, 33.9739976], [-96.4016191, 33.9742378], [-96.4013241, 33.9745537], [-96.401265, 33.9745226], [-96.4009807, 33.974874], [-96.4010076, 33.9750075], [-96.4011095, 33.9748962], [-96.4011739, 33.9749318], [-96.401147, 33.9749897], [-96.4013884, 33.9751365], [-96.4015011, 33.9750208], [-96.4015923, 33.9750786], [-96.4015655, 33.9751142], [-96.4016137, 33.9751632], [-96.4018927, 33.9748784], [-96.4020965, 33.9750164], [-96.4021985, 33.9749051], [-96.4020214, 33.9747717], [-96.4021126, 33.9746115], [-96.4021555, 33.9746427], [-96.4023487, 33.9744425], [-96.4022843, 33.9743802], [-96.4025257, 33.9740821], [-96.4023218, 33.973962]]]}, "properties": {"osm_id": 608977846, "building": "hospital", "name": "Choctaw Nation Regional Medical Clinic", "height": null, "height_m": null, "levels": null, "tract_id": "40013796400", "tract_name": "7964", "tags": {"addr:city": "Durant", "addr:housenumber": "1801", "addr:postcode": "74701", "addr:street": "Chukka Hina", "building": "hospital", "name": "Choctaw Nation Regional Medical Clinic"}}}, {"type": "Feature", "geometry": {"type": "Polygon", "coordinates": [[[-96.3994228, 33.9745221], [-96.3997125, 33.9741862], [-96.3988933, 33.9736583], [-96.3986638, 33.9735633], [-96.3984001, 33.9735527], [-96.3973684, 33.9735422], [-96.3973522, 33.9739437], [-96.398387, 33.973961], [-96.3983937, 33.9739097], [-96.3986224, 33.973986], [-96.3985888, 33.9740137], [-96.3994228, 33.9745221]]]}, "properties": {"osm_id": 608977847, "building": "yes", "name": "Choctaw Nation of Oklahoma Headquarters", "height": null, "height_m": null, "levels": null, "tract_id": "40013796400", "tract_name": "7964", "tags": {"addr:city": "Durant", "addr:housenumber": "1802", "addr:postcode": "74701", "addr:state": "OK", "addr:street": "Chukka Hina", "building": "yes", "name": "Choctaw Nation of Oklahoma Headquarters", "office": "government"}}}, {"type": "Feature", "geometry": {"type": "Polygon", "coordinates": [[[-96.4021371, 33.9700666], [-96.4021055, 33.9700664], [-96.4021063, 33.969973], [-96.4017837, 33.9699711], [-96.4017844, 33.9698831], [-96.4015988, 33.969882], [-96.401598, 33.9699696], [-96.4015624, 33.9699694], [-96.4015585, 33.9704057], [-96.4021349, 33.9704092], [-96.4021376, 33.9701111], [-96.4022128, 33.9701115], [-96.4022131, 33.9700771], [-96.402137, 33.9700766], [-96.4021371, 33.9700666]]]}, "properties": {"osm_id": 608977848, "building": "yes", "name": "Choctaw Wellness Center", "height": null, "height_m": null, "levels": null, "tract_id": "40013796400", "tract_name": "7964", "tags": {"building": "yes", "leisure": "fitness_centre", "name": "Choctaw Wellness Center"}}}, {"type": "Feature", "geometry": {"type": "Polygon", "coordinates": [[[-96.4030658, 33.9718664], [-96.4026291, 33.9718632], [-96.4026319, 33.9716056], [-96.4028779, 33.9716074], [-96.402879, 33.9715035], [-96.4029757, 33.9715042], [-96.4029746, 33.9716108], [-96.4030686, 33.9716115], [-96.4030658, 33.9718664]]]}, "properties": {"osm_id": 726150321, "building": "yes", "name": "", "height": null, "height_m": 3.0, "levels": 1, "tract_id": "40013796400", "tract_name": "7964", "tags": {"addr:city": "Durant", "addr:housenumber": "2053", "addr:postcode": "74701", "addr:state": "OK", "addr:street": "Chukka Hina", "building": "yes", "building:levels": "1"}}}, {"type": "Feature", "geometry": {"type": "Polygon", "coordinates": [[[-96.3986546, 33.9759122], [-96.3986707, 33.974978], [-96.3973135, 33.9749647], [-96.3973276, 33.9757851], [-96.3973296, 33.9758989], [-96.3986546, 33.9759122]]]}, "properties": {"osm_id": 726154324, "building": "parking", "name": "", "height": null, "height_m": null, "levels": null, "tract_id": "40013796400", "tract_name": "7964", "tags": {"amenity": "parking", "building": "parking", "parking": "multi-storey"}}}, {"type": "Feature", "geometry": {"type": "Polygon", "coordinates": [[[-96.4022793, 33.9711666], [-96.4022808, 33.9709586], [-96.4021456, 33.9709579], [-96.4021449, 33.9710454], [-96.4020067, 33.9710446], [-96.4020075, 33.9709425], [-96.4018726, 33.9709418], [-96.4018732, 33.9708698], [-96.4018734, 33.9708428], [-96.4017862, 33.9708424], [-96.401786, 33.970868], [-96.4017854, 33.9709503], [-96.4016302, 33.9709495], [-96.4016304, 33.9709252], [-96.4014923, 33.9709245], [-96.4014906, 33.9711392], [-96.4016266, 33.9711399], [-96.4016273, 33.9710449], [-96.401676, 33.9710451], [-96.401673, 33.9714259], [-96.4018952, 33.9714271], [-96.401895, 33.9714506], [-96.4020342, 33.9714513], [-96.4020364, 33.9711645], [-96.4020527, 33.9711646], [-96.4020528, 33.971146], [-96.4021487, 33.9711465], [-96.4021485, 33.9711659], [-96.4022793, 33.9711666]]]}, "properties": {"osm_id": 726161491, "building": "yes", "name": "", "height": null, "height_m": null, "levels": null, "tract_id": "40013796400", "tract_name": "7964", "tags": {"building": "yes"}}}, {"type": "Feature", "geometry": {"type": "Polygon", "coordinates": [[[-96.4105644, 33.9698601], [-96.4105638, 33.9694541], [-96.410056, 33.9694547], [-96.4100567, 33.9698606], [-96.4105644, 33.9698601]]]}, "properties": {"osm_id": 732156951, "building": "yes", "name": "Big Lots", "height": null, "height_m": null, "levels": null, "tract_id": "40013796400", "tract_name": "7964", "tags": {"brand": "Big Lots", "brand:wikidata": "Q4905973", "building": "yes", "fixme:atp": "check if location still exists; no corresponding ATP location found", "name": "Big Lots", "shop": "department_store"}}}, {"type": "Feature", "geometry": {"type": "Polygon", "coordinates": [[[-96.4125826, 33.9549584], [-96.4125788, 33.9546155], [-96.4128319, 33.9546136], [-96.4128333, 33.9547343], [-96.4129387, 33.9547334], [-96.4129409, 33.954929], [-96.412834, 33.9549298], [-96.4128343, 33.9549565], [-96.4125826, 33.9549584]]]}, "properties": {"osm_id": 959839954, "building": "yes", "name": "Naifeh's Steak House", "height": null, "height_m": null, "levels": null, "tract_id": "40013796400", "tract_name": "7964", "tags": {"addr:city": "Durant", "addr:housenumber": "3950", "addr:postcode": "74701", "addr:state": "OK", "addr:street": "Choctaw Road", "amenity": "restaurant", "building": "yes", "cuisine": "steak_house", "name": "Naifeh's Steak House"}}}, {"type": "Feature", "geometry": {"type": "Polygon", "coordinates": [[[-96.4115793, 33.9656006], [-96.4110093, 33.9655995], [-96.4110097, 33.965436], [-96.4115797, 33.9654371], [-96.4115793, 33.9656006]]]}, "properties": {"osm_id": 1003813387, "building": "yes", "name": "Choctaw Nation Print Services", "height": null, "height_m": null, "levels": null, "tract_id": "40013796400", "tract_name": "7964", "tags": {"building": "yes", "name": "Choctaw Nation Print Services", "shop": "copyshop"}}}, {"type": "Feature", "geometry": {"type": "Polygon", "coordinates": [[[-96.411767, 33.9650856], [-96.411553, 33.9650874], [-96.4115523, 33.9650304], [-96.4116054, 33.96503], [-96.4116007, 33.9646465], [-96.4117616, 33.9646451], [-96.411767, 33.9650856]]]}, "properties": {"osm_id": 1003813388, "building": "yes", "name": "Choctaw Nation Emergency Response Complex", "height": null, "height_m": null, "levels": null, "tract_id": "40013796400", "tract_name": "7964", "tags": {"amenity": "fire_station", "building": "yes", "name": "Choctaw Nation Emergency Response Complex"}}}, {"type": "Feature", "geometry": {"type": "Polygon", "coordinates": [[[-96.3864778, 33.9906114], [-96.386404, 33.9905942], [-96.3864128, 33.9905684], [-96.3864866, 33.9905856], [-96.3864778, 33.9906114]]]}, "properties": {"osm_id": 1004014133, "building": "yes", "name": "", "height": null, "height_m": null, "levels": null, "tract_id": "40013796400", "tract_name": "7964", "tags": {"building": "yes"}}}, {"type": "Feature", "geometry": {"type": "Polygon", "coordinates": [[[-96.3866729, 33.9901605], [-96.386461, 33.9901183], [-96.3865083, 33.9899553], [-96.3866492, 33.9899834], [-96.3866312, 33.9900456], [-96.3867022, 33.9900597], [-96.3866729, 33.9901605]]]}, "properties": {"osm_id": 1069465395, "building": "yes", "name": "Wright's Drive In", "height": null, "height_m": null, "levels": null, "tract_id": "40013796400", "tract_name": "7964", "tags": {"amenity": "fast_food", "building": "yes", "name": "Wright's Drive In"}}}, {"type": "Feature", "geometry": {"type": "Polygon", "coordinates": [[[-96.3807896, 33.9870651], [-96.3806094, 33.9870195], [-96.3806505, 33.9869079], [-96.3808307, 33.9869535], [-96.3807896, 33.9870651]]]}, "properties": {"osm_id": 1133405387, "building": "yes", "name": "", "height": null, "height_m": null, "levels": null, "tract_id": "40013796400", "tract_name": "7964", "tags": {"building": "yes"}}}, {"type": "Feature", "geometry": {"type": "Polygon", "coordinates": [[[-96.3897099, 33.9750144], [-96.3897606, 33.9748477], [-96.3902703, 33.9749545], [-96.3902195, 33.9751211], [-96.3897099, 33.9750144]]]}, "properties": {"osm_id": 1133405389, "building": "yes", "name": "", "height": null, "height_m": null, "levels": null, "tract_id": "40013796400", "tract_name": "7964", "tags": {"building": "yes"}}}, {"type": "Feature", "geometry": {"type": "Polygon", "coordinates": [[[-96.3921067, 33.9766798], [-96.392112, 33.9765911], [-96.3924363, 33.9766045], [-96.392431, 33.9766932], [-96.3921067, 33.9766798]]]}, "properties": {"osm_id": 1133405390, "building": "yes", "name": "", "height": null, "height_m": null, "levels": null, "tract_id": "40013796400", "tract_name": "7964", "tags": {"building": "yes"}}}, {"type": "Feature", "geometry": {"type": "Polygon", "coordinates": [[[-96.3932257, 33.9763975], [-96.3932124, 33.9765784], [-96.3930786, 33.9765716], [-96.3930919, 33.9763908], [-96.3932257, 33.9763975]]]}, "properties": {"osm_id": 1133405391, "building": "yes", "name": "", "height": null, "height_m": null, "levels": null, "tract_id": "40013796400", "tract_name": "7964", "tags": {"building": "yes"}}}, {"type": "Feature", "geometry": {"type": "Polygon", "coordinates": [[[-96.389679, 33.9798349], [-96.3896314, 33.9799972], [-96.3895155, 33.9799739], [-96.3895631, 33.9798115], [-96.389679, 33.9798349]]]}, "properties": {"osm_id": 1133405392, "building": "yes", "name": "", "height": null, "height_m": null, "levels": null, "tract_id": "40013796400", "tract_name": "7964", "tags": {"building": "yes"}}}, {"type": "Feature", "geometry": {"type": "Polygon", "coordinates": [[[-96.3887108, 33.9804694], [-96.3885325, 33.9804631], [-96.3885376, 33.9803641], [-96.3887159, 33.9803704], [-96.3887108, 33.9804694]]]}, "properties": {"osm_id": 1133405393, "building": "yes", "name": "", "height": null, "height_m": null, "levels": null, "tract_id": "40013796400", "tract_name": "7964", "tags": {"building": "yes"}}}, {"type": "Feature", "geometry": {"type": "Polygon", "coordinates": [[[-96.3882916, 33.980294], [-96.3882993, 33.9802028], [-96.3887886, 33.9802311], [-96.388781, 33.9803223], [-96.3882916, 33.980294]]]}, "properties": {"osm_id": 1133405394, "building": "yes", "name": "", "height": null, "height_m": null, "levels": null, "tract_id": "40013796400", "tract_name": "7964", "tags": {"building": "yes"}}}, {"type": "Feature", "geometry": {"type": "Polygon", "coordinates": [[[-96.3891091, 33.9811158], [-96.3891353, 33.9810264], [-96.3894511, 33.9810901], [-96.3894249, 33.9811795], [-96.3891091, 33.9811158]]]}, "properties": {"osm_id": 1133405395, "building": "yes", "name": "", "height": null, "height_m": null, "levels": null, "tract_id": "40013796400", "tract_name": "7964", "tags": {"building": "yes"}}}, {"type": "Feature", "geometry": {"type": "Polygon", "coordinates": [[[-96.3782736, 33.9871882], [-96.3781194, 33.987156], [-96.3781418, 33.9870824], [-96.378296, 33.9871146], [-96.3782736, 33.9871882]]]}, "properties": {"osm_id": 1133405398, "building": "yes", "name": "", "height": null, "height_m": null, "levels": null, "tract_id": "40013796400", "tract_name": "7964", "tags": {"building": "yes"}}}, {"type": "Feature", "geometry": {"type": "Polygon", "coordinates": [[[-96.3783856, 33.9889941], [-96.3784274, 33.9888852], [-96.3788526, 33.9889975], [-96.3788107, 33.9891064], [-96.3783856, 33.9889941]]]}, "properties": {"osm_id": 1133405399, "building": "yes", "name": "", "height": null, "height_m": null, "levels": null, "tract_id": "40013796400", "tract_name": "7964", "tags": {"building": "yes"}}}, {"type": "Feature", "geometry": {"type": "Polygon", "coordinates": [[[-96.3774575, 33.9893177], [-96.3773715, 33.9892991], [-96.3774305, 33.9891112], [-96.3775165, 33.9891298], [-96.3774575, 33.9893177]]]}, "properties": {"osm_id": 1133405400, "building": "yes", "name": "", "height": null, "height_m": null, "levels": null, "tract_id": "40013796400", "tract_name": "7964", "tags": {"building": "yes"}}}, {"type": "Feature", "geometry": {"type": "Polygon", "coordinates": [[[-96.3777834, 33.9890419], [-96.3777137, 33.989241], [-96.3775531, 33.9892023], [-96.3776228, 33.9890032], [-96.3777834, 33.9890419]]]}, "properties": {"osm_id": 1133405401, "building": "yes", "name": "", "height": null, "height_m": null, "levels": null, "tract_id": "40013796400", "tract_name": "7964", "tags": {"building": "yes"}}}, {"type": "Feature", "geometry": {"type": "Polygon", "coordinates": [[[-96.3777861, 33.9891909], [-96.3778473, 33.9890333], [-96.3781182, 33.9891056], [-96.378057, 33.9892632], [-96.3777861, 33.9891909]]]}, "properties": {"osm_id": 1133405402, "building": "yes", "name": "", "height": null, "height_m": null, "levels": null, "tract_id": "40013796400", "tract_name": "7964", "tags": {"building": "yes"}}}, {"type": "Feature", "geometry": {"type": "Polygon", "coordinates": [[[-96.3781552, 33.9888421], [-96.3778982, 33.9887792], [-96.3779404, 33.9886607], [-96.3781974, 33.9887237], [-96.3781552, 33.9888421]]]}, "properties": {"osm_id": 1133405403, "building": "yes", "name": "", "height": null, "height_m": null, "levels": null, "tract_id": "40013796400", "tract_name": "7964", "tags": {"building": "yes"}}}, {"type": "Feature", "geometry": {"type": "Polygon", "coordinates": [[[-96.3775322, 33.9886401], [-96.3771055, 33.9885237], [-96.3771663, 33.9883704], [-96.377593, 33.9884867], [-96.3775322, 33.9886401]]]}, "properties": {"osm_id": 1133405404, "building": "yes", "name": "", "height": null, "height_m": null, "levels": null, "tract_id": "40013796400", "tract_name": "7964", "tags": {"building": "yes"}}}, {"type": "Feature", "geometry": {"type": "Polygon", "coordinates": [[[-96.3787839, 33.9895293], [-96.3788137, 33.989448], [-96.3791987, 33.9895447], [-96.379169, 33.9896261], [-96.3787839, 33.9895293]]]}, "properties": {"osm_id": 1133596679, "building": "yes", "name": "", "height": null, "height_m": null, "levels": null, "tract_id": "40013796400", "tract_name": "7964", "tags": {"building": "yes"}}}, {"type": "Feature", "geometry": {"type": "Polygon", "coordinates": [[[-96.3796384, 33.9895364], [-96.3798051, 33.989564], [-96.3797406, 33.9898321], [-96.3795739, 33.9898045], [-96.3796384, 33.9895364]]]}, "properties": {"osm_id": 1133596680, "building": "yes", "name": "", "height": null, "height_m": null, "levels": null, "tract_id": "40013796400", "tract_name": "7964", "tags": {"building": "yes"}}}, {"type": "Feature", "geometry": {"type": "Polygon", "coordinates": [[[-96.3795578, 33.9895207], [-96.3794961, 33.9897055], [-96.379372, 33.989677], [-96.3794336, 33.9894922], [-96.3795578, 33.9895207]]]}, "properties": {"osm_id": 1133596681, "building": "yes", "name": "", "height": null, "height_m": null, "levels": null, "tract_id": "40013796400", "tract_name": "7964", "tags": {"building": "yes"}}}, {"type": "Feature", "geometry": {"type": "Polygon", "coordinates": [[[-96.3802215, 33.9899548], [-96.3800345, 33.9899092], [-96.3800775, 33.9897878], [-96.3802646, 33.9898334], [-96.3802215, 33.9899548]]]}, "properties": {"osm_id": 1133596682, "building": "yes", "name": "", "height": null, "height_m": null, "levels": null, "tract_id": "40013796400", "tract_name": "7964", "tags": {"building": "yes"}}}, {"type": "Feature", "geometry": {"type": "Polygon", "coordinates": [[[-96.3853386, 33.9908613], [-96.3849707, 33.9907717], [-96.3850454, 33.9905609], [-96.3854133, 33.9906505], [-96.3853386, 33.9908613]]]}, "properties": {"osm_id": 1133596683, "building": "yes", "name": "", "height": null, "height_m": null, "levels": null, "tract_id": "40013796400", "tract_name": "7964", "tags": {"building": "yes"}}}, {"type": "Feature", "geometry": {"type": "Polygon", "coordinates": [[[-96.387478, 33.9884278], [-96.3872258, 33.9883656], [-96.387259, 33.9882729], [-96.3875112, 33.988335], [-96.387478, 33.9884278]]]}, "properties": {"osm_id": 1133596684, "building": "yes", "name": "", "height": null, "height_m": null, "levels": null, "tract_id": "40013796400", "tract_name": "7964", "tags": {"building": "yes"}}}, {"type": "Feature", "geometry": {"type": "Polygon", "coordinates": [[[-96.3861987, 33.9867498], [-96.3861504, 33.9868717], [-96.3860643, 33.9868482], [-96.3861126, 33.9867263], [-96.3861987, 33.9867498]]]}, "properties": {"osm_id": 1133596685, "building": "yes", "name": "", "height": null, "height_m": null, "levels": null, "tract_id": "40013796400", "tract_name": "7964", "tags": {"building": "yes"}}}, {"type": "Feature", "geometry": {"type": "Polygon", "coordinates": [[[-96.3855632, 33.9867034], [-96.3856013, 33.9866039], [-96.3858293, 33.9866639], [-96.3857912, 33.9867635], [-96.3855632, 33.9867034]]]}, "properties": {"osm_id": 1133596686, "building": "yes", "name": "", "height": null, "height_m": null, "levels": null, "tract_id": "40013796400", "tract_name": "7964", "tags": {"building": "yes"}}}, {"type": "Feature", "geometry": {"type": "Polygon", "coordinates": [[[-96.3853003, 33.9866378], [-96.3853313, 33.9865462], [-96.3855607, 33.9865996], [-96.3855296, 33.9866912], [-96.3853003, 33.9866378]]]}, "properties": {"osm_id": 1133596687, "building": "yes", "name": "", "height": null, "height_m": null, "levels": null, "tract_id": "40013796400", "tract_name": "7964", "tags": {"building": "yes"}}}, {"type": "Feature", "geometry": {"type": "Polygon", "coordinates": [[[-96.3868949, 33.9867579], [-96.3870987, 33.9868124], [-96.3870475, 33.9869441], [-96.3868437, 33.9868896], [-96.3868949, 33.9867579]]]}, "properties": {"osm_id": 1133596688, "building": "yes", "name": "", "height": null, "height_m": null, "levels": null, "tract_id": "40013796400", "tract_name": "7964", "tags": {"building": "yes"}}}, {"type": "Feature", "geometry": {"type": "Polygon", "coordinates": [[[-96.3870263, 33.9866589], [-96.3867782, 33.9865922], [-96.3868321, 33.9864543], [-96.3870802, 33.9865211], [-96.3870263, 33.9866589]]]}, "properties": {"osm_id": 1133596689, "building": "yes", "name": "", "height": null, "height_m": null, "levels": null, "tract_id": "40013796400", "tract_name": "7964", "tags": {"building": "yes"}}}, {"type": "Feature", "geometry": {"type": "Polygon", "coordinates": [[[-96.3871939, 33.9864955], [-96.3870142, 33.9864521], [-96.3870501, 33.9863498], [-96.3872298, 33.9863932], [-96.3871939, 33.9864955]]]}, "properties": {"osm_id": 1133596690, "building": "yes", "name": "", "height": null, "height_m": null, "levels": null, "tract_id": "40013796400", "tract_name": "7964", "tags": {"building": "yes"}}}, {"type": "Feature", "geometry": {"type": "Polygon", "coordinates": [[[-96.3769992, 33.9889145], [-96.3771438, 33.9889507], [-96.3770679, 33.989159], [-96.3769234, 33.9891228], [-96.3769992, 33.9889145]]]}, "properties": {"osm_id": 1133596832, "building": "yes", "name": "", "height": null, "height_m": null, "levels": null, "tract_id": "40013796400", "tract_name": "7964", "tags": {"building": "yes"}}}, {"type": "Feature", "geometry": {"type": "Polygon", "coordinates": [[[-96.386396, 33.989398], [-96.3864366, 33.9894055], [-96.3864224, 33.9894589], [-96.3863818, 33.9894515], [-96.386396, 33.989398]]]}, "properties": {"osm_id": 1164810419, "building": "yes", "name": "", "height": null, "height_m": null, "levels": null, "tract_id": "40013796400", "tract_name": "7964", "tags": {"building": "yes"}}}, {"type": "Feature", "geometry": {"type": "Polygon", "coordinates": [[[-96.3868707, 33.9896452], [-96.3867507, 33.9896201], [-96.3867918, 33.9894845], [-96.3869119, 33.9895095], [-96.3868707, 33.9896452]]]}, "properties": {"osm_id": 1164810420, "building": "yes", "name": "", "height": null, "height_m": null, "levels": null, "tract_id": "40013796400", "tract_name": "7964", "tags": {"building": "yes"}}}, {"type": "Feature", "geometry": {"type": "Polygon", "coordinates": [[[-96.3871061, 33.9893032], [-96.386799, 33.9892348], [-96.3868418, 33.9891028], [-96.3871489, 33.9891712], [-96.3871061, 33.9893032]]]}, "properties": {"osm_id": 1164810421, "building": "yes", "name": "", "height": null, "height_m": null, "levels": null, "tract_id": "40013796400", "tract_name": "7964", "tags": {"building": "yes"}}}, {"type": "Feature", "geometry": {"type": "Polygon", "coordinates": [[[-96.3860929, 33.9887194], [-96.3861494, 33.9885477], [-96.3863264, 33.9885878], [-96.3862699, 33.9887595], [-96.3860929, 33.9887194]]]}, "properties": {"osm_id": 1164810422, "building": "yes", "name": "", "height": null, "height_m": null, "levels": null, "tract_id": "40013796400", "tract_name": "7964", "tags": {"building": "yes"}}}, {"type": "Feature", "geometry": {"type": "Polygon", "coordinates": [[[-96.3854043, 33.9888818], [-96.3856791, 33.9889516], [-96.3856604, 33.9890023], [-96.3858051, 33.989039], [-96.3856897, 33.9893515], [-96.385647, 33.9893407], [-96.385631, 33.989384], [-96.385543, 33.9893616], [-96.38556, 33.9893155], [-96.3855224, 33.9893059], [-96.3855467, 33.9892401], [-96.3853467, 33.9891893], [-96.3853062, 33.9892992], [-96.3851329, 33.9892552], [-96.3852716, 33.9888795], [-96.3853937, 33.9889105], [-96.3854043, 33.9888818]]]}, "properties": {"osm_id": 1164810424, "building": "church", "name": "Calvary Baptist Church", "height": null, "height_m": null, "levels": null, "tract_id": "40013796400", "tract_name": "7964", "tags": {"amenity": "place_of_worship", "building": "church", "denomination": "baptist", "ele": "199", "name": "Calvary Baptist Church", "religion": "christian"}}}, {"type": "Feature", "geometry": {"type": "Polygon", "coordinates": [[[-96.3806453, 33.981762], [-96.3807324, 33.981789], [-96.3807587, 33.9817303], [-96.3806716, 33.9817034], [-96.3806453, 33.981762]]]}, "properties": {"osm_id": 1255060722, "building": "yes", "name": "", "height": null, "height_m": null, "levels": null, "tract_id": "40013796400", "tract_name": "7964", "tags": {"building": "yes", "source": "microsoft/BuildingFootprints"}}}, {"type": "Feature", "geometry": {"type": "Polygon", "coordinates": [[[-96.381643, 33.9817616], [-96.3816058, 33.9818243], [-96.3816813, 33.9818551], [-96.3817185, 33.9817925], [-96.381643, 33.9817616]]]}, "properties": {"osm_id": 1255060727, "building": "yes", "name": "", "height": null, "height_m": null, "levels": null, "tract_id": "40013796400", "tract_name": "7964", "tags": {"building": "yes", "source": "microsoft/BuildingFootprints"}}}, {"type": "Feature", "geometry": {"type": "Polygon", "coordinates": [[[-96.3857471, 33.9884527], [-96.3857227, 33.98852], [-96.3859171, 33.9885684], [-96.3859415, 33.9885011], [-96.3857471, 33.9884527]]]}, "properties": {"osm_id": 1265996567, "building": "yes", "name": "", "height": null, "height_m": null, "levels": null, "tract_id": "40013796400", "tract_name": "7964", "tags": {"building": "yes"}}}, {"type": "Feature", "geometry": {"type": "Polygon", "coordinates": [[[-96.3856541, 33.9883216], [-96.3856689, 33.9882736], [-96.3855446, 33.9882472], [-96.3855184, 33.9883319], [-96.3856075, 33.9883508], [-96.3856188, 33.9883141], [-96.3856541, 33.9883216]]]}, "properties": {"osm_id": 1265996568, "building": "yes", "name": "", "height": null, "height_m": null, "levels": null, "tract_id": "40013796400", "tract_name": "7964", "tags": {"building": "yes"}}}, {"type": "Feature", "geometry": {"type": "Polygon", "coordinates": [[[-96.385591, 33.9884957], [-96.3854928, 33.9884723], [-96.3854209, 33.9886798], [-96.3855192, 33.9887032], [-96.385591, 33.9884957]]]}, "properties": {"osm_id": 1265996569, "building": "yes", "name": "", "height": null, "height_m": null, "levels": null, "tract_id": "40013796400", "tract_name": "7964", "tags": {"building": "yes"}}}, {"type": "Feature", "geometry": {"type": "Polygon", "coordinates": [[[-96.3861452, 33.9884157], [-96.3862946, 33.9884475], [-96.3863231, 33.9883558], [-96.386235, 33.988337], [-96.3862402, 33.9883203], [-96.3861789, 33.9883072], [-96.3861452, 33.9884157]]]}, "properties": {"osm_id": 1265996570, "building": "yes", "name": "", "height": null, "height_m": null, "levels": null, "tract_id": "40013796400", "tract_name": "7964", "tags": {"building": "yes"}}}, {"type": "Feature", "geometry": {"type": "Polygon", "coordinates": [[[-96.4030767, 33.9914804], [-96.4028688, 33.9914816], [-96.4028675, 33.9913159], [-96.4030753, 33.9913147], [-96.403076, 33.9914059], [-96.4031088, 33.9914137], [-96.4031081, 33.9913976], [-96.4033121, 33.9913965], [-96.4033128, 33.9914823], [-96.4031097, 33.9914835], [-96.4031095, 33.9914307], [-96.4030762, 33.9914218], [-96.4030767, 33.9914804]]]}, "properties": {"osm_id": 1267916279, "building": "yes", "name": "Bryan County EMS", "height": null, "height_m": null, "levels": null, "tract_id": "40013796400", "tract_name": "7964", "tags": {"addr:city": "Durant", "addr:housenumber": "306", "addr:postcode": "74701", "addr:state": "OK", "addr:street": "South 22nd Avenue", "building": "yes", "emergency": "ambulance_station", "name": "Bryan County EMS"}}}, {"type": "Feature", "geometry": {"type": "Polygon", "coordinates": [[[-96.3760175, 33.9889281], [-96.375895, 33.9888961], [-96.3758892, 33.9889113], [-96.3758474, 33.9889004], [-96.3758827, 33.9888076], [-96.375947, 33.9888244], [-96.3759655, 33.9887755], [-96.3760655, 33.9888016], [-96.3760175, 33.9889281]]]}, "properties": {"osm_id": 1280721203, "building": "yes", "name": "", "height": null, "height_m": null, "levels": null, "tract_id": "40013796400", "tract_name": "7964", "tags": {"building": "yes"}}}, {"type": "Feature", "geometry": {"type": "Polygon", "coordinates": [[[-96.4084838, 33.9546487], [-96.4083492, 33.9546494], [-96.4083482, 33.9545067], [-96.4083599, 33.9545066], [-96.4083594, 33.954432], [-96.4083782, 33.9544319], [-96.4083778, 33.9543747], [-96.408486, 33.9543742], [-96.4084865, 33.954444], [-96.4086232, 33.9544433], [-96.4086238, 33.9545265], [-96.4084829, 33.9545271], [-96.4084838, 33.9546487]]]}, "properties": {"osm_id": 1337267002, "building": "yes", "name": "", "height": null, "height_m": null, "levels": null, "tract_id": "40013796400", "tract_name": "7964", "tags": {"building": "yes"}}}]}