{"type": "FeatureCollection", "features": [{"type": "Feature", "geometry": {"type": "Polygon", "coordinates": [[[-97.0701234, 36.1742573], [-97.0700453, 36.174203], [-97.0701659, 36.1740753], [-97.070248, 36.1741272], [-97.0701234, 36.1742573]]]}, "properties": {"osm_id": 260550279, "building": "yes", "name": "Phillips 66", "height": null, "height_m": null, "levels": null, "tract_id": "40119011001", "tract_name": "110.01", "tags": {"addr:city": "Stillwater", "addr:housenumber": "5000", "addr:postcode": "74075", "addr:street": "North Washington Street", "amenity": "fuel", "building": "yes", "fuel:e10": "yes", "name": "Phillips 66"}}}, {"type": "Feature", "geometry": {"type": "Polygon", "coordinates": [[[-97.0702233, 36.1743594], [-97.0703716, 36.174452], [-97.070417, 36.1744041], [-97.0702697, 36.1743091], [-97.0702233, 36.1743594]]]}, "properties": {"osm_id": 260550280, "building": "retail", "name": "", "height": null, "height_m": null, "levels": null, "tract_id": "40119011001", "tract_name": "110.01", "tags": {"addr:city": "Stillwater", "addr:housenumber": "5000", "addr:postcode": "74075", "addr:street": "North Washington Street", "building": "retail", "shop": "vacant"}}}, {"type": "Feature", "geometry": {"type": "Polygon", "coordinates": [[[-97.0702697, 36.1743091], [-97.0703656, 36.1742094], [-97.070507, 36.1743051], [-97.070417, 36.1744041], [-97.0702697, 36.1743091]]]}, "properties": {"osm_id": 260550454, "building": "yes", "name": "On Cue", "height": null, "height_m": null, "levels": null, "tract_id": "40119011001", "tract_name": "110.01", "tags": {"addr:city": "Stillwater", "addr:housenumber": "5000", "addr:postcode": "74075", "addr:street": "North Washington Street", "building": "yes", "name": "On Cue", "shop": "convenience"}}}, {"type": "Feature", "geometry": {"type": "Polygon", "coordinates": [[[-97.1802581, 36.11723], [-97.1802389, 36.116877], [-97.179658, 36.116877], [-97.1796484, 36.1172145], [-97.1802581, 36.11723]]]}, "properties": {"osm_id": 260632678, "building": "yes", "name": "", "height": null, "height_m": null, "levels": null, "tract_id": "40119011001", "tract_name": "110.01", "tags": {"building": "yes"}}}, {"type": "Feature", "geometry": {"type": "Polygon", "coordinates": [[[-97.1791019, 36.116667], [-97.1790152, 36.1166655], [-97.1790099, 36.1177362], [-97.1790577, 36.1177377], [-97.1790612, 36.1175704], [-97.1791019, 36.1175747], [-97.1791019, 36.116667]]]}, "properties": {"osm_id": 260632679, "building": "yes", "name": "", "height": null, "height_m": null, "levels": null, "tract_id": "40119011001", "tract_name": "110.01", "tags": {"building": "yes"}}}, {"type": "Feature", "geometry": {"type": "Polygon", "coordinates": [[[-97.1789833, 36.1178063], [-97.1790559, 36.1178077], [-97.179047, 36.1180279], [-97.1789763, 36.1180221], [-97.1789833, 36.1178063]]]}, "properties": {"osm_id": 260632680, "building": "yes", "name": "", "height": null, "height_m": null, "levels": null, "tract_id": "40119011001", "tract_name": "110.01", "tags": {"building": "yes"}}}, {"type": "Feature", "geometry": {"type": "Polygon", "coordinates": [[[-97.17841, 36.1179893], [-97.1784135, 36.1178292], [-97.1783268, 36.1178149], [-97.1783303, 36.1179921], [-97.17841, 36.1179893]]]}, "properties": {"osm_id": 260632681, "building": "yes", "name": "", "height": null, "height_m": null, "levels": null, "tract_id": "40119011001", "tract_name": "110.01", "tags": {"building": "yes"}}}, {"type": "Feature", "geometry": {"type": "Polygon", "coordinates": [[[-97.1779534, 36.1180393], [-97.1779587, 36.1177963], [-97.1777145, 36.117792], [-97.1777039, 36.1180364], [-97.1779534, 36.1180393]]]}, "properties": {"osm_id": 260632682, "building": "yes", "name": "", "height": null, "height_m": null, "levels": null, "tract_id": "40119011001", "tract_name": "110.01", "tags": {"building": "yes"}}}, {"type": "Feature", "geometry": {"type": "Polygon", "coordinates": [[[-97.1784259, 36.1177348], [-97.1783392, 36.117732], [-97.1783445, 36.1168199], [-97.1784418, 36.1168257], [-97.1784259, 36.1177348]]]}, "properties": {"osm_id": 260632683, "building": "yes", "name": "", "height": null, "height_m": null, "levels": null, "tract_id": "40119011001", "tract_name": "110.01", "tags": {"building": "yes"}}}, {"type": "Feature", "geometry": {"type": "Polygon", "coordinates": [[[-97.1785852, 36.1167299], [-97.1789143, 36.1167342], [-97.1789072, 36.1177277], [-97.1785746, 36.1177205], [-97.1785852, 36.1167299]]]}, "properties": {"osm_id": 260632684, "building": "yes", "name": "", "height": null, "height_m": null, "levels": null, "tract_id": "40119011001", "tract_name": "110.01", "tags": {"building": "yes"}}}, {"type": "Feature", "geometry": {"type": "Polygon", "coordinates": [[[-97.1779587, 36.1171316], [-97.1779693, 36.1169486], [-97.1778384, 36.1169486], [-97.1778331, 36.1168528], [-97.1776756, 36.1168457], [-97.1776809, 36.11695], [-97.177419, 36.1169515], [-97.1774119, 36.1171187], [-97.1778384, 36.1171173], [-97.1778384, 36.1171344], [-97.1779587, 36.1171316]]]}, "properties": {"osm_id": 260632685, "building": "yes", "name": "", "height": null, "height_m": null, "levels": null, "tract_id": "40119011001", "tract_name": "110.01", "tags": {"building": "yes"}}}, {"type": "Feature", "geometry": {"type": "Polygon", "coordinates": [[[-97.1775722, 36.118448], [-97.1775839, 36.1177722], [-97.1773332, 36.1177722], [-97.1773303, 36.1184409], [-97.1775722, 36.118448]]]}, "properties": {"osm_id": 260632686, "building": "yes", "name": "", "height": null, "height_m": null, "levels": null, "tract_id": "40119011001", "tract_name": "110.01", "tags": {"building": "yes"}}}, {"type": "Feature", "geometry": {"type": "Polygon", "coordinates": [[[-97.1771117, 36.1184433], [-97.1771379, 36.1178334], [-97.1770505, 36.1178334], [-97.1770505, 36.1177769], [-97.1769718, 36.1177816], [-97.1769688, 36.1178287], [-97.1768989, 36.1178358], [-97.1768814, 36.1184456], [-97.1771117, 36.1184433]]]}, "properties": {"osm_id": 260632687, "building": "yes", "name": "", "height": null, "height_m": null, "levels": null, "tract_id": "40119011001", "tract_name": "110.01", "tags": {"building": "yes"}}}, {"type": "Feature", "geometry": {"type": "Polygon", "coordinates": [[[-97.1766919, 36.1185869], [-97.1767065, 36.1178193], [-97.1765608, 36.1178193], [-97.1765549, 36.1185798], [-97.1766919, 36.1185869]]]}, "properties": {"osm_id": 260632688, "building": "yes", "name": "", "height": null, "height_m": null, "levels": null, "tract_id": "40119011001", "tract_name": "110.01", "tags": {"building": "yes"}}}, {"type": "Feature", "geometry": {"type": "Polygon", "coordinates": [[[-97.1767211, 36.1185987], [-97.1767153, 36.1187187], [-97.1772895, 36.1187282], [-97.1772895, 36.118601], [-97.1767211, 36.1185987]]]}, "properties": {"osm_id": 260632689, "building": "yes", "name": "", "height": null, "height_m": null, "levels": null, "tract_id": "40119011001", "tract_name": "110.01", "tags": {"building": "yes"}}}, {"type": "Feature", "geometry": {"type": "Polygon", "coordinates": [[[-97.176243, 36.1178358], [-97.1762518, 36.117678], [-97.1751237, 36.1176615], [-97.175115, 36.1178075], [-97.176243, 36.1178358]]]}, "properties": {"osm_id": 260632690, "building": "yes", "name": "", "height": null, "height_m": null, "levels": null, "tract_id": "40119011001", "tract_name": "110.01", "tags": {"building": "yes"}}}, {"type": "Feature", "geometry": {"type": "Polygon", "coordinates": [[[-97.1759807, 36.1174849], [-97.1759749, 36.1172141], [-97.1758408, 36.1172212], [-97.1758437, 36.1174873], [-97.1759807, 36.1174849]]]}, "properties": {"osm_id": 260632691, "building": "yes", "name": "", "height": null, "height_m": null, "levels": null, "tract_id": "40119011001", "tract_name": "110.01", "tags": {"building": "yes"}}}, {"type": "Feature", "geometry": {"type": "Polygon", "coordinates": [[[-97.1757038, 36.1175179], [-97.1757009, 36.1171929], [-97.1755085, 36.1171953], [-97.1755143, 36.1172283], [-97.175459, 36.1172259], [-97.1754706, 36.1174873], [-97.1755173, 36.1174826], [-97.1755202, 36.1175132], [-97.1757038, 36.1175179]]]}, "properties": {"osm_id": 260632692, "building": "yes", "name": "", "height": null, "height_m": null, "levels": null, "tract_id": "40119011001", "tract_name": "110.01", "tags": {"building": "yes"}}}, {"type": "Feature", "geometry": {"type": "Polygon", "coordinates": [[[-97.1761527, 36.1170305], [-97.1761527, 36.1166443], [-97.1760915, 36.116642], [-97.1761002, 36.1170328], [-97.1761527, 36.1170305]]]}, "properties": {"osm_id": 260632693, "building": "yes", "name": "", "height": null, "height_m": null, "levels": null, "tract_id": "40119011001", "tract_name": "110.01", "tags": {"building": "yes"}}}, {"type": "Feature", "geometry": {"type": "Polygon", "coordinates": [[[-97.1759661, 36.1170493], [-97.1759603, 36.1167715], [-97.1758321, 36.1167762], [-97.1758379, 36.1170493], [-97.1759661, 36.1170493]]]}, "properties": {"osm_id": 260632694, "building": "yes", "name": "", "height": null, "height_m": null, "levels": null, "tract_id": "40119011001", "tract_name": "110.01", "tags": {"building": "yes"}}}, {"type": "Feature", "geometry": {"type": "Polygon", "coordinates": [[[-97.1756921, 36.1170705], [-97.1756951, 36.1168916], [-97.1757242, 36.1168916], [-97.1757213, 36.1168233], [-97.1756892, 36.1168233], [-97.1756863, 36.1167785], [-97.1754531, 36.1167856], [-97.1754648, 36.117047], [-97.1755289, 36.1170446], [-97.1755202, 36.1170705], [-97.1756921, 36.1170705]]]}, "properties": {"osm_id": 260632695, "building": "yes", "name": "", "height": null, "height_m": null, "levels": null, "tract_id": "40119011001", "tract_name": "110.01", "tags": {"building": "yes"}}}, {"type": "Feature", "geometry": {"type": "Polygon", "coordinates": [[[-97.28073, 36.1151383], [-97.2807281, 36.1151041], [-97.2807157, 36.1151046], [-97.2807157, 36.1150335], [-97.2805174, 36.1150356], [-97.2805213, 36.1151436], [-97.2805637, 36.1151436], [-97.2805657, 36.1151351], [-97.2806831, 36.1151362], [-97.2806844, 36.1151446], [-97.28073, 36.1151383]]]}, "properties": {"osm_id": 260633183, "building": "yes", "name": "", "height": null, "height_m": null, "levels": null, "tract_id": "40119011001", "tract_name": "110.01", "tags": {"building": "yes"}}}, {"type": "Feature", "geometry": {"type": "Polygon", "coordinates": [[[-97.3371679, 36.1162825], [-97.3371691, 36.1162175], [-97.3367658, 36.1162136], [-97.3367634, 36.1162815], [-97.3371679, 36.1162825]]]}, "properties": {"osm_id": 260635887, "building": "roof", "name": "Phillips 66", "height": null, "height_m": null, "levels": null, "tract_id": "40119011001", "tract_name": "110.01", "tags": {"amenity": "fuel", "brand": "Phillips 66", "brand:wikidata": "Q1656230", "building": "roof", "layer": "1", "level": "1", "name": "Phillips 66"}}}, {"type": "Feature", "geometry": {"type": "Polygon", "coordinates": [[[-97.3366424, 36.1165785], [-97.336646, 36.1165232], [-97.3364155, 36.1166289], [-97.3364179, 36.1166851], [-97.3366424, 36.1165785]]]}, "properties": {"osm_id": 260635889, "building": "roof", "name": "Conoco", "height": null, "height_m": null, "levels": null, "tract_id": "40119011001", "tract_name": "110.01", "tags": {"amenity": "fuel", "brand": "Conoco", "brand:wikidata": "Q214763", "building": "roof", "hgv": "yes", "layer": "1", "level": "1", "name": "Conoco"}}}, {"type": "Feature", "geometry": {"type": "Polygon", "coordinates": [[[-97.3372071, 36.1166991], [-97.3372324, 36.1166882], [-97.3372309, 36.1166585], [-97.3372903, 36.1166565], [-97.3373143, 36.1166345], [-97.3373142, 36.1166121], [-97.3373421, 36.116612], [-97.3373417, 36.1165081], [-97.3373414, 36.1164501], [-97.3373414, 36.1164357], [-97.3371869, 36.1164361], [-97.3369506, 36.1164367], [-97.3367143, 36.1164373], [-97.3367156, 36.1167571], [-97.3369005, 36.1167567], [-97.3369007, 36.1167927], [-97.337, 36.1167924], [-97.3369996, 36.1166996], [-97.3372071, 36.1166991]]]}, "properties": {"osm_id": 260635890, "building": "yes", "name": "Cowboy Travel Plaza", "height": null, "height_m": null, "levels": null, "tract_id": "40119011001", "tract_name": "110.01", "tags": {"addr:state": "OK", "building": "yes", "name": "Cowboy Travel Plaza", "shop": "convenience"}}}, {"type": "Feature", "geometry": {"type": "Polygon", "coordinates": [[[-97.335372, 36.1162155], [-97.3353648, 36.1159498], [-97.3354897, 36.1159488], [-97.3354849, 36.1161311], [-97.3355365, 36.1161331], [-97.3355449, 36.1162135], [-97.335372, 36.1162155]]]}, "properties": {"osm_id": 260635894, "building": "yes", "name": "", "height": null, "height_m": null, "levels": null, "tract_id": "40119011001", "tract_name": "110.01", "tags": {"building": "yes"}}}, {"type": "Feature", "geometry": {"type": "Polygon", "coordinates": [[[-97.3355797, 36.1161961], [-97.3355737, 36.1161408], [-97.3357189, 36.1161399], [-97.3357129, 36.1161922], [-97.3355797, 36.1161961]]]}, "properties": {"osm_id": 260635896, "building": "yes", "name": "", "height": null, "height_m": null, "levels": null, "tract_id": "40119011001", "tract_name": "110.01", "tags": {"building": "yes"}}}, {"type": "Feature", "geometry": {"type": "Polygon", "coordinates": [[[-97.336636, 36.115276], [-97.3366384, 36.115146], [-97.3364896, 36.115148], [-97.3364824, 36.1152779], [-97.336636, 36.115276]]]}, "properties": {"osm_id": 260635897, "building": "retail", "name": "", "height": null, "height_m": null, "levels": null, "tract_id": "40119011001", "tract_name": "110.01", "tags": {"building": "retail"}}}, {"type": "Feature", "geometry": {"type": "Polygon", "coordinates": [[[-97.3397329, 36.1164615], [-97.3398896, 36.1165674], [-97.3399165, 36.1165339], [-97.3399428, 36.116558], [-97.3399806, 36.1165203], [-97.3398058, 36.1163926], [-97.3397329, 36.1164615]]]}, "properties": {"osm_id": 260635899, "building": "house", "name": "", "height": null, "height_m": null, "levels": null, "tract_id": "40119011001", "tract_name": "110.01", "tags": {"building": "house"}}}, {"type": "Feature", "geometry": {"type": "Polygon", "coordinates": [[[-97.343138, 36.0575239], [-97.34318, 36.0574355], [-97.3430828, 36.0574064], [-97.3431164, 36.0573414], [-97.3432437, 36.0573744], [-97.3432737, 36.0572958], [-97.3431476, 36.057257], [-97.343186, 36.0571648], [-97.3430336, 36.0571221], [-97.342928, 36.0573667], [-97.3427791, 36.0573191], [-97.3427347, 36.05742], [-97.343138, 36.0575239]]]}, "properties": {"osm_id": 260636849, "building": "yes", "name": "Vassar Church", "height": null, "height_m": null, "levels": null, "tract_id": "40119011001", "tract_name": "110.01", "tags": {"amenity": "place_of_worship", "building": "yes", "name": "Vassar Church", "religion": "christian"}}}, {"type": "Feature", "geometry": {"type": "Polygon", "coordinates": [[[-97.1676879, 36.1174012], [-97.1676879, 36.1172322], [-97.1680385, 36.1172322], [-97.1680385, 36.1173417], [-97.1681021, 36.1173417], [-97.1681021, 36.1174012], [-97.1676879, 36.1174012]]]}, "properties": {"osm_id": 266066183, "building": "yes", "name": "H2O Sports", "height": null, "height_m": null, "levels": null, "tract_id": "40119011001", "tract_name": "110.01", "tags": {"addr:city": "Stillwater", "addr:country": "US", "addr:postcode": "74074", "addr:state": "OK", "amenity": "boat", "building": "yes", "name": "H2O Sports"}}}, {"type": "Feature", "geometry": {"type": "Polygon", "coordinates": [[[-97.0768433, 36.1774665], [-97.0769159, 36.177633], [-97.0769388, 36.1776238], [-97.0769779, 36.1777048], [-97.0768189, 36.1777496], [-97.0767862, 36.1776818], [-97.0767381, 36.177687], [-97.0766785, 36.1775573], [-97.0767356, 36.1775362], [-97.0767218, 36.1774954], [-97.0768433, 36.1774665]]]}, "properties": {"osm_id": 268477401, "building": "house", "name": "", "height": null, "height_m": null, "levels": null, "tract_id": "40119011001", "tract_name": "110.01", "tags": {"addr:city": "Stillwater", "addr:country": "US", "addr:postcode": "74075", "addr:state": "OK", "addr:street": "North Hunters Ridge", "building": "house"}}}, {"type": "Feature", "geometry": {"type": "Polygon", "coordinates": [[[-97.078219, 36.1782495], [-97.0782087, 36.1781881], [-97.078256, 36.1781788], [-97.078241, 36.1780838], [-97.0781925, 36.1780856], [-97.0781706, 36.178027], [-97.0780195, 36.1780521], [-97.0780564, 36.1782179], [-97.078106, 36.1782086], [-97.0781279, 36.1782626], [-97.078219, 36.1782495]]]}, "properties": {"osm_id": 268477402, "building": "house", "name": "", "height": null, "height_m": null, "levels": null, "tract_id": "40119011001", "tract_name": "110.01", "tags": {"addr:city": "Stillwater", "addr:country": "US", "addr:postcode": "74075", "addr:state": "OK", "addr:street": "North Hunters Ridge", "building": "house"}}}, {"type": "Feature", "geometry": {"type": "Polygon", "coordinates": [[[-97.0756455, 36.1744345], [-97.0754612, 36.1744905], [-97.0755444, 36.1746538], [-97.0755786, 36.1746426], [-97.0756137, 36.1747051], [-97.075701, 36.1746735], [-97.0756757, 36.1746189], [-97.0757508, 36.1745912], [-97.0756986, 36.174472], [-97.0756651, 36.1744773], [-97.0756455, 36.1744345]]]}, "properties": {"osm_id": 268477403, "building": "house", "name": "", "height": null, "height_m": null, "levels": null, "tract_id": "40119011001", "tract_name": "110.01", "tags": {"addr:city": "Stillwater", "addr:country": "US", "addr:postcode": "74075", "addr:state": "OK", "addr:street": "North Hunters Ridge", "building": "house"}}}, {"type": "Feature", "geometry": {"type": "Polygon", "coordinates": [[[-97.0765751, 36.1833392], [-97.0767286, 36.1833522], [-97.0767032, 36.1834258], [-97.0768335, 36.1834407], [-97.0768082, 36.1835524], [-97.0766536, 36.1835385], [-97.0766467, 36.1835673], [-97.0765636, 36.1835599], [-97.0765855, 36.1834295], [-97.0765498, 36.1834193], [-97.0765751, 36.1833392]]]}, "properties": {"osm_id": 268477404, "building": "house", "name": "", "height": null, "height_m": null, "levels": null, "tract_id": "40119011001", "tract_name": "110.01", "tags": {"addr:city": "Stillwater", "addr:country": "US", "addr:postcode": "74075", "addr:state": "OK", "addr:street": "North Hunters Ridge", "building": "house"}}}, {"type": "Feature", "geometry": {"type": "Polygon", "coordinates": [[[-97.0760168, 36.1827414], [-97.0761587, 36.1827014], [-97.0761829, 36.1827749], [-97.0761598, 36.1827824], [-97.0761956, 36.1828699], [-97.0762129, 36.1828615], [-97.0762348, 36.1829249], [-97.0761148, 36.1829556], [-97.0760883, 36.1829034], [-97.0760675, 36.18291], [-97.0760272, 36.1828066], [-97.076041, 36.1828001], [-97.0760168, 36.1827414]]]}, "properties": {"osm_id": 268477405, "building": "house", "name": "", "height": null, "height_m": null, "levels": null, "tract_id": "40119011001", "tract_name": "110.01", "tags": {"addr:city": "Stillwater", "addr:country": "US", "addr:postcode": "74075", "addr:state": "OK", "addr:street": "North Hunters Ridge", "building": "house"}}}, {"type": "Feature", "geometry": {"type": "Polygon", "coordinates": [[[-97.0759353, 36.1819526], [-97.075932, 36.181869], [-97.0759524, 36.1818558], [-97.0759548, 36.1817333], [-97.0760641, 36.1817281], [-97.0760568, 36.1817551], [-97.0760984, 36.1817551], [-97.0761009, 36.1818466], [-97.0761792, 36.1818446], [-97.0761759, 36.181921], [-97.0760576, 36.181921], [-97.076056, 36.1819513], [-97.0759353, 36.1819526]]]}, "properties": {"osm_id": 268477406, "building": "house", "name": "", "height": null, "height_m": null, "levels": null, "tract_id": "40119011001", "tract_name": "110.01", "tags": {"addr:city": "Stillwater", "addr:country": "US", "addr:postcode": "74075", "addr:state": "OK", "addr:street": "North Hunters Ridge", "building": "house"}}}, {"type": "Feature", "geometry": {"type": "Polygon", "coordinates": [[[-97.075937, 36.1750221], [-97.0761034, 36.1749727], [-97.0761303, 36.175028], [-97.0761711, 36.1750195], [-97.076198, 36.1750761], [-97.0761711, 36.1750866], [-97.0761923, 36.1751301], [-97.0761564, 36.1751485], [-97.0761695, 36.1751643], [-97.0760545, 36.1751986], [-97.0759933, 36.1751024], [-97.0759754, 36.1751103], [-97.075937, 36.1750221]]]}, "properties": {"osm_id": 268477407, "building": "house", "name": "", "height": null, "height_m": null, "levels": null, "tract_id": "40119011001", "tract_name": "110.01", "tags": {"addr:city": "Stillwater", "addr:country": "US", "addr:postcode": "74075", "addr:state": "OK", "addr:street": "North Hunters Ridge", "building": "house"}}}, {"type": "Feature", "geometry": {"type": "Polygon", "coordinates": [[[-97.0758851, 36.1812948], [-97.0758761, 36.1812198], [-97.0760547, 36.181202], [-97.0760621, 36.1812488], [-97.0761127, 36.1812455], [-97.0761167, 36.1813172], [-97.0760898, 36.1813133], [-97.0760915, 36.1813653], [-97.0760629, 36.181366], [-97.0760662, 36.1813818], [-97.0759438, 36.1813936], [-97.0759389, 36.1812922], [-97.0758851, 36.1812948]]]}, "properties": {"osm_id": 268477408, "building": "house", "name": "", "height": null, "height_m": null, "levels": null, "tract_id": "40119011001", "tract_name": "110.01", "tags": {"addr:city": "Stillwater", "addr:country": "US", "addr:postcode": "74075", "addr:state": "OK", "addr:street": "North Hunters Ridge", "building": "house"}}}, {"type": "Feature", "geometry": {"type": "Polygon", "coordinates": [[[-97.0775465, 36.1832461], [-97.0775976, 36.1831627], [-97.0776243, 36.1831733], [-97.0776653, 36.1831064], [-97.0776768, 36.1830561], [-97.0774864, 36.18298], [-97.0774619, 36.18302], [-97.0775124, 36.1830402], [-97.0774866, 36.1830822], [-97.0774237, 36.1830571], [-97.0773791, 36.1831299], [-97.0774664, 36.1831648], [-97.0774422, 36.1832044], [-97.0775465, 36.1832461]]]}, "properties": {"osm_id": 268477409, "building": "house", "name": "", "height": null, "height_m": null, "levels": null, "tract_id": "40119011001", "tract_name": "110.01", "tags": {"addr:city": "Stillwater", "addr:country": "US", "addr:postcode": "74075", "addr:state": "OK", "addr:street": "North Hunters Ridge", "building": "house"}}}, {"type": "Feature", "geometry": {"type": "Polygon", "coordinates": [[[-97.0767496, 36.1744694], [-97.0767789, 36.1745135], [-97.0767414, 36.1745267], [-97.0767708, 36.1745734], [-97.0767846, 36.1745668], [-97.076814, 36.1746241], [-97.0768009, 36.174632], [-97.0768458, 36.174715], [-97.0767145, 36.1747591], [-97.0766647, 36.1746524], [-97.0766468, 36.1746557], [-97.0765962, 36.1745616], [-97.076619, 36.1745504], [-97.0766068, 36.1745221], [-97.0767496, 36.1744694]]]}, "properties": {"osm_id": 268477410, "building": "house", "name": "", "height": null, "height_m": null, "levels": null, "tract_id": "40119011001", "tract_name": "110.01", "tags": {"addr:city": "Stillwater", "addr:country": "US", "addr:postcode": "74075", "addr:state": "OK", "addr:street": "North Hunters Ridge", "building": "house"}}}, {"type": "Feature", "geometry": {"type": "Polygon", "coordinates": [[[-97.0777737, 36.1819807], [-97.0777864, 36.1819341], [-97.0777599, 36.1819257], [-97.0777714, 36.1818801], [-97.0778153, 36.1818792], [-97.0778349, 36.1818177], [-97.0777991, 36.1818121], [-97.0778003, 36.1817647], [-97.0776618, 36.1817423], [-97.0776399, 36.1818261], [-97.0775776, 36.1818159], [-97.0775499, 36.1819239], [-97.0776399, 36.1819351], [-97.0776365, 36.1819574], [-97.0777737, 36.1819807]]]}, "properties": {"osm_id": 268477411, "building": "house", "name": "", "height": null, "height_m": null, "levels": null, "tract_id": "40119011001", "tract_name": "110.01", "tags": {"addr:city": "Stillwater", "addr:country": "US", "addr:postcode": "74075", "addr:state": "OK", "addr:street": "North Hunters Ridge", "building": "house"}}}, {"type": "Feature", "geometry": {"type": "Polygon", "coordinates": [[[-97.0767802, 36.1799932], [-97.0764931, 36.1799392], [-97.0765078, 36.1798793], [-97.0765942, 36.1798918], [-97.0766293, 36.1798727], [-97.0766375, 36.179824], [-97.0766097, 36.1798134], [-97.0766318, 36.1797575], [-97.0766742, 36.1797568], [-97.0767239, 36.1797074], [-97.0768504, 36.1797785], [-97.0768063, 36.1798279], [-97.0767729, 36.1799293], [-97.0768031, 36.1799353], [-97.0767802, 36.1799932]]]}, "properties": {"osm_id": 268477412, "building": "house", "name": "", "height": null, "height_m": null, "levels": null, "tract_id": "40119011001", "tract_name": "110.01", "tags": {"addr:city": "Stillwater", "addr:country": "US", "addr:postcode": "74075", "addr:state": "OK", "addr:street": "North Hunters Ridge", "building": "house"}}}, {"type": "Feature", "geometry": {"type": "Polygon", "coordinates": [[[-97.0782652, 36.1796817], [-97.0782906, 36.179596], [-97.0782352, 36.1795839], [-97.0782352, 36.1795522], [-97.0781994, 36.1795457], [-97.0782283, 36.1794247], [-97.0781302, 36.1794079], [-97.0781291, 36.1794312], [-97.0781071, 36.1794275], [-97.0780979, 36.1794805], [-97.0780806, 36.1794759], [-97.0780448, 36.179583], [-97.0781325, 36.179596], [-97.0781233, 36.1796565], [-97.0782652, 36.1796817]]]}, "properties": {"osm_id": 268477413, "building": "house", "name": "", "height": null, "height_m": null, "levels": null, "tract_id": "40119011001", "tract_name": "110.01", "tags": {"addr:city": "Stillwater", "addr:country": "US", "addr:postcode": "74075", "addr:state": "OK", "addr:street": "North Hunters Ridge", "building": "house"}}}, {"type": "Feature", "geometry": {"type": "Polygon", "coordinates": [[[-97.0763745, 36.1758413], [-97.076529, 36.1757952], [-97.0765562, 36.1758711], [-97.0765239, 36.1758795], [-97.0765314, 36.175892], [-97.0765654, 36.1758841], [-97.0766, 36.1759675], [-97.0765602, 36.1759791], [-97.0765746, 36.1760112], [-97.0764512, 36.1760457], [-97.076435, 36.176007], [-97.0764091, 36.1760112], [-97.076375, 36.1759358], [-97.0764022, 36.1759251], [-97.0763745, 36.1758413]]]}, "properties": {"osm_id": 268477414, "building": "house", "name": "", "height": null, "height_m": null, "levels": null, "tract_id": "40119011001", "tract_name": "110.01", "tags": {"addr:city": "Stillwater", "addr:country": "US", "addr:postcode": "74075", "addr:state": "OK", "addr:street": "North Hunters Ridge", "building": "house"}}}, {"type": "Feature", "geometry": {"type": "Polygon", "coordinates": [[[-97.0769764, 36.1783419], [-97.0769429, 36.1782525], [-97.0771067, 36.1782134], [-97.0771315, 36.1783005], [-97.0771546, 36.1782921], [-97.0771598, 36.1783163], [-97.0771886, 36.1783047], [-97.077225, 36.178395], [-97.0771978, 36.1784052], [-97.0772059, 36.1784206], [-97.0770761, 36.178456], [-97.0770634, 36.1784318], [-97.0770392, 36.1784388], [-97.0770098, 36.1783722], [-97.077034, 36.1783661], [-97.0770202, 36.1783345], [-97.0769764, 36.1783419]]]}, "properties": {"osm_id": 268477415, "building": "house", "name": "", "height": null, "height_m": null, "levels": null, "tract_id": "40119011001", "tract_name": "110.01", "tags": {"addr:city": "Stillwater", "addr:country": "US", "addr:postcode": "74075", "addr:state": "OK", "addr:street": "North Hunters Ridge", "building": "house"}}}, {"type": "Feature", "geometry": {"type": "Polygon", "coordinates": [[[-97.0780275, 36.1809155], [-97.0780241, 36.1808475], [-97.0779872, 36.1808503], [-97.0779872, 36.1808177], [-97.0780068, 36.1808186], [-97.0780102, 36.1807814], [-97.0780287, 36.1807814], [-97.0780298, 36.1807283], [-97.0779906, 36.1807246], [-97.0779975, 36.1806845], [-97.0778603, 36.1806873], [-97.0778649, 36.1807115], [-97.0778464, 36.1807125], [-97.0778533, 36.1808894], [-97.0778891, 36.1808903], [-97.0778903, 36.1809071], [-97.0779064, 36.1809052], [-97.0779076, 36.1809257], [-97.0780275, 36.1809155]]]}, "properties": {"osm_id": 268477416, "building": "house", "name": "", "height": null, "height_m": null, "levels": null, "tract_id": "40119011001", "tract_name": "110.01", "tags": {"addr:city": "Stillwater", "addr:country": "US", "addr:postcode": "74075", "addr:state": "OK", "addr:street": "North Hunters Ridge", "building": "house"}}}, {"type": "Feature", "geometry": {"type": "Polygon", "coordinates": [[[-97.0780541, 36.1814788], [-97.0780518, 36.1812665], [-97.0779572, 36.1812684], [-97.0779618, 36.1813131], [-97.0778856, 36.181314], [-97.0778787, 36.1814769], [-97.0780541, 36.1814788]]]}, "properties": {"osm_id": 268477417, "building": "house", "name": "", "height": null, "height_m": null, "levels": null, "tract_id": "40119011001", "tract_name": "110.01", "tags": {"addr:city": "Stillwater", "addr:country": "US", "addr:postcode": "74075", "addr:state": "OK", "addr:street": "North Hunters Ridge", "building": "house"}}}, {"type": "Feature", "geometry": {"type": "Polygon", "coordinates": [[[-97.0775753, 36.1764272], [-97.0775799, 36.1761311], [-97.0773942, 36.1761245], [-97.0773954, 36.1762726], [-97.0773757, 36.1762745], [-97.0773757, 36.1763378], [-97.0774842, 36.1763452], [-97.0774715, 36.176429], [-97.0775753, 36.1764272]]]}, "properties": {"osm_id": 268477418, "building": "house", "name": "", "height": null, "height_m": null, "levels": null, "tract_id": "40119011001", "tract_name": "110.01", "tags": {"addr:city": "Stillwater", "addr:country": "US", "addr:postcode": "74075", "addr:state": "OK", "addr:street": "North Hunters Ridge", "building": "house"}}}, {"type": "Feature", "geometry": {"type": "Polygon", "coordinates": [[[-97.0776976, 36.1775511], [-97.0775073, 36.1775716], [-97.0774923, 36.1774813], [-97.0775315, 36.1774785], [-97.0775084, 36.177323], [-97.0776399, 36.17731], [-97.077663, 36.1774711], [-97.0776872, 36.1774692], [-97.0776976, 36.1775511]]]}, "properties": {"osm_id": 268477419, "building": "house", "name": "", "height": null, "height_m": null, "levels": null, "tract_id": "40119011001", "tract_name": "110.01", "tags": {"addr:city": "Stillwater", "addr:country": "US", "addr:postcode": "74075", "addr:state": "OK", "addr:street": "North Hunters Ridge", "building": "house"}}}, {"type": "Feature", "geometry": {"type": "Polygon", "coordinates": [[[-97.0765164, 36.1767946], [-97.0765256, 36.1770484], [-97.0766536, 36.1770433], [-97.0766542, 36.1770116], [-97.0766992, 36.1770116], [-97.07669, 36.1768775], [-97.0766473, 36.1768738], [-97.0766484, 36.1767932], [-97.0765164, 36.1767946]]]}, "properties": {"osm_id": 268477420, "building": "house", "name": "", "height": null, "height_m": null, "levels": null, "tract_id": "40119011001", "tract_name": "110.01", "tags": {"addr:city": "Stillwater", "addr:country": "US", "addr:postcode": "74075", "addr:state": "OK", "addr:street": "North Hunters Ridge", "building": "house"}}}, {"type": "Feature", "geometry": {"type": "Polygon", "coordinates": [[[-97.0770142, 36.179116], [-97.077011, 36.1790508], [-97.0770868, 36.1790482], [-97.0770876, 36.1789764], [-97.0770322, 36.1789771], [-97.0770346, 36.1789046], [-97.0772133, 36.1788961], [-97.0772133, 36.179114], [-97.0770142, 36.179116]]]}, "properties": {"osm_id": 268477421, "building": "house", "name": "", "height": null, "height_m": null, "levels": null, "tract_id": "40119011001", "tract_name": "110.01", "tags": {"addr:city": "Stillwater", "addr:country": "US", "addr:postcode": "74075", "addr:state": "OK", "addr:street": "North Hunters Ridge", "building": "house"}}}, {"type": "Feature", "geometry": {"type": "Polygon", "coordinates": [[[-97.0774646, 36.1757204], [-97.0773757, 36.1755314], [-97.0772281, 36.1755798], [-97.0772362, 36.1756003], [-97.0772039, 36.1756105], [-97.0772823, 36.1757511], [-97.0773204, 36.1757344], [-97.0773354, 36.1757604], [-97.0774646, 36.1757204]]]}, "properties": {"osm_id": 268477422, "building": "house", "name": "", "height": null, "height_m": null, "levels": null, "tract_id": "40119011001", "tract_name": "110.01", "tags": {"addr:city": "Stillwater", "addr:country": "US", "addr:postcode": "74075", "addr:state": "OK", "addr:street": "North Hunters Ridge", "building": "house"}}}, {"type": "Feature", "geometry": {"type": "Polygon", "coordinates": [[[-97.0782686, 36.1789647], [-97.0782756, 36.1788427], [-97.0783021, 36.1788445], [-97.0782998, 36.1787803], [-97.0782721, 36.1787738], [-97.0782721, 36.1786984], [-97.0781221, 36.1786993], [-97.0781152, 36.1789637], [-97.0782686, 36.1789647]]]}, "properties": {"osm_id": 268477423, "building": "house", "name": "", "height": null, "height_m": null, "levels": null, "tract_id": "40119011001", "tract_name": "110.01", "tags": {"addr:city": "Stillwater", "addr:country": "US", "addr:postcode": "74075", "addr:state": "OK", "addr:street": "North Hunters Ridge", "building": "house"}}}, {"type": "Feature", "geometry": {"type": "Polygon", "coordinates": [[[-97.0760722, 36.1824801], [-97.075951, 36.182482], [-97.0759453, 36.1822724], [-97.0760964, 36.1822762], [-97.0760998, 36.1823739], [-97.076146, 36.1823702], [-97.0761483, 36.182441], [-97.0760779, 36.1824447], [-97.0760722, 36.1824801]]]}, "properties": {"osm_id": 268477424, "building": "house", "name": "", "height": null, "height_m": null, "levels": null, "tract_id": "40119011001", "tract_name": "110.01", "tags": {"addr:city": "Stillwater", "addr:country": "US", "addr:postcode": "74075", "addr:state": "OK", "addr:street": "North Hunters Ridge", "building": "house"}}}, {"type": "Feature", "geometry": {"type": "Polygon", "coordinates": [[[-97.0772223, 36.1824677], [-97.0772811, 36.1822684], [-97.0774, 36.1822954], [-97.0773942, 36.182315], [-97.0774888, 36.1823345], [-97.077445, 36.1824528], [-97.0773596, 36.1824351], [-97.0773319, 36.1824872], [-97.0772223, 36.1824677]]]}, "properties": {"osm_id": 268477425, "building": "house", "name": "", "height": null, "height_m": null, "levels": null, "tract_id": "40119011001", "tract_name": "110.01", "tags": {"addr:city": "Stillwater", "addr:country": "US", "addr:postcode": "74075", "addr:state": "OK", "addr:street": "North Hunters Ridge", "building": "house"}}}, {"type": "Feature", "geometry": {"type": "Polygon", "coordinates": [[[-97.0779549, 36.1803307], [-97.0779849, 36.1802785], [-97.077941, 36.180259], [-97.0780218, 36.1801649], [-97.0778822, 36.1800951], [-97.0778233, 36.1801621], [-97.0777899, 36.180151], [-97.0777437, 36.1802273], [-97.0779549, 36.1803307]]]}, "properties": {"osm_id": 268477426, "building": "house", "name": "", "height": null, "height_m": null, "levels": null, "tract_id": "40119011001", "tract_name": "110.01", "tags": {"addr:city": "Stillwater", "addr:country": "US", "addr:postcode": "74075", "addr:state": "OK", "addr:street": "North Hunters Ridge", "building": "house"}}}, {"type": "Feature", "geometry": {"type": "Polygon", "coordinates": [[[-97.0833986, 36.1875808], [-97.0833993, 36.1873812], [-97.0833439, 36.1873811], [-97.0833445, 36.1872133], [-97.0831673, 36.1872129], [-97.0831671, 36.1872805], [-97.0830901, 36.1872804], [-97.0830894, 36.1874935], [-97.0832647, 36.1874939], [-97.0832645, 36.1875805], [-97.083352, 36.1875807], [-97.0833986, 36.1875808]]]}, "properties": {"osm_id": 301016803, "building": "yes", "name": "B and L Heating and Air Conditioning", "height": null, "height_m": 3.0, "levels": 1, "tract_id": "40119011001", "tract_name": "110.01", "tags": {"addr:city": "Stillwater", "addr:housenumber": "1907", "addr:postcode": "74075", "addr:street": "McMurtry Road", "building": "yes", "building:levels": "1", "email": "roy@blhvac.com", "fax": "405-372-8907", "name": "B and L Heating and Air Conditioning", "opening_hours": "Mo-Fr 08:00-18:00", "phone": "405-372-8140", "website": "http://www.bandlheatandcool.com/"}}}, {"type": "Feature", "geometry": {"type": "Polygon", "coordinates": [[[-97.1937587, 36.0705305], [-97.1937816, 36.0705316], [-97.1938039, 36.0705258], [-97.1938117, 36.0705108], [-97.1938096, 36.0704922], [-97.1937845, 36.0704795], [-97.1937608, 36.0704818], [-97.1937465, 36.0704911], [-97.1937408, 36.0705067], [-97.1937458, 36.0705235], [-97.1937587, 36.0705305]]]}, "properties": {"osm_id": 318098170, "building": "yes", "name": "", "height": null, "height_m": null, "levels": null, "tract_id": "40119011001", "tract_name": "110.01", "tags": {"building": "yes", "source": "bing"}}}, {"type": "Feature", "geometry": {"type": "Polygon", "coordinates": [[[-97.0745716, 36.2039417], [-97.0745982, 36.2039921], [-97.0746444, 36.2040322], [-97.0747049, 36.2040572], [-97.0747722, 36.204064], [-97.0748318, 36.204054], [-97.0748847, 36.2040298], [-97.0749258, 36.2039936], [-97.0749512, 36.203949], [-97.0749585, 36.2039003], [-97.0749469, 36.2038521], [-97.0749176, 36.2038091], [-97.0748734, 36.2037755], [-97.0748185, 36.2037543], [-97.0747511, 36.203748], [-97.074685, 36.2037607], [-97.0746282, 36.2037907], [-97.0745876, 36.2038346], [-97.0745679, 36.203887], [-97.0745716, 36.2039417]]]}, "properties": {"osm_id": 318121895, "building": "yes", "name": "", "height": null, "height_m": null, "levels": null, "tract_id": "40119011001", "tract_name": "110.01", "tags": {"building": "yes", "source": "bing"}}}, {"type": "Feature", "geometry": {"type": "Polygon", "coordinates": [[[-97.0732611, 36.2045707], [-97.0732996, 36.2045969], [-97.0733464, 36.2046118], [-97.0733966, 36.2046137], [-97.073445, 36.2046025], [-97.0734873, 36.2045786], [-97.0735174, 36.2045448], [-97.0735321, 36.2045048], [-97.0735297, 36.2044632], [-97.0735104, 36.2044246], [-97.0734764, 36.2043932], [-97.0734315, 36.2043727], [-97.0733807, 36.2043652], [-97.073331, 36.2043713], [-97.0732863, 36.2043899], [-97.0732514, 36.2044192], [-97.07323, 36.2044559], [-97.0732244, 36.2044963], [-97.0732352, 36.2045359], [-97.0732611, 36.2045707]]]}, "properties": {"osm_id": 318121896, "building": "yes", "name": "", "height": null, "height_m": null, "levels": null, "tract_id": "40119011001", "tract_name": "110.01", "tags": {"building": "yes", "source": "bing"}}}, {"type": "Feature", "geometry": {"type": "Polygon", "coordinates": [[[-97.073312, 36.2043041], [-97.0733622, 36.204318], [-97.0734154, 36.2043175], [-97.0734616, 36.2043041], [-97.0735002, 36.2042798], [-97.0735275, 36.2042469], [-97.0735407, 36.2042088], [-97.0735385, 36.2041692], [-97.0735211, 36.2041322], [-97.0734902, 36.2041015], [-97.0734489, 36.2040801], [-97.0734014, 36.2040702], [-97.0733525, 36.2040727], [-97.0733034, 36.2040893], [-97.0732642, 36.2041182], [-97.0732394, 36.2041562], [-97.073232, 36.2041986], [-97.0732428, 36.2042406], [-97.0732705, 36.2042772], [-97.073312, 36.2043041]]]}, "properties": {"osm_id": 318121897, "building": "yes", "name": "", "height": null, "height_m": null, "levels": null, "tract_id": "40119011001", "tract_name": "110.01", "tags": {"building": "yes", "source": "bing"}}}, {"type": "Feature", "geometry": {"type": "Polygon", "coordinates": [[[-97.0732773, 36.2039935], [-97.0733167, 36.2040156], [-97.0733627, 36.2040265], [-97.0734106, 36.2040252], [-97.0734585, 36.2040104], [-97.0734975, 36.2039835], [-97.073523, 36.2039476], [-97.0735321, 36.2039069], [-97.0735237, 36.2038661], [-97.0734988, 36.20383], [-97.0734604, 36.2038026], [-97.0734128, 36.2037873], [-97.0733615, 36.2037858], [-97.0733156, 36.203797], [-97.0732764, 36.2038193], [-97.0732479, 36.2038504], [-97.073233, 36.2038872], [-97.0732332, 36.2039259], [-97.0732485, 36.2039626], [-97.0732773, 36.2039935]]]}, "properties": {"osm_id": 318121898, "building": "yes", "name": "", "height": null, "height_m": null, "levels": null, "tract_id": "40119011001", "tract_name": "110.01", "tags": {"building": "yes", "source": "bing"}}}, {"type": "Feature", "geometry": {"type": "Polygon", "coordinates": [[[-97.0745523, 36.2037006], [-97.0745505, 36.2035353], [-97.0747901, 36.2035336], [-97.0747919, 36.203699], [-97.0745523, 36.2037006]]]}, "properties": {"osm_id": 318121900, "building": "yes", "name": "", "height": null, "height_m": null, "levels": null, "tract_id": "40119011001", "tract_name": "110.01", "tags": {"building": "yes", "source": "bing"}}}, {"type": "Feature", "geometry": {"type": "Polygon", "coordinates": [[[-97.0728327, 36.2046345], [-97.0728316, 36.2045192], [-97.0725589, 36.2045209], [-97.07256, 36.2046362], [-97.0728327, 36.2046345]]]}, "properties": {"osm_id": 318121914, "building": "yes", "name": "", "height": null, "height_m": null, "levels": null, "tract_id": "40119011001", "tract_name": "110.01", "tags": {"building": "yes", "source": "bing"}}}, {"type": "Feature", "geometry": {"type": "Polygon", "coordinates": [[[-97.0742885, 36.204248], [-97.0742876, 36.2041712], [-97.0744864, 36.2041696], [-97.0744874, 36.2042464], [-97.0742885, 36.204248]]]}, "properties": {"osm_id": 318121916, "building": "yes", "name": "", "height": null, "height_m": null, "levels": null, "tract_id": "40119011001", "tract_name": "110.01", "tags": {"building": "yes", "source": "bing"}}}, {"type": "Feature", "geometry": {"type": "Polygon", "coordinates": [[[-97.0744896, 36.2043739], [-97.0744894, 36.2042899], [-97.0742491, 36.2042903], [-97.0742494, 36.2043743], [-97.0744896, 36.2043739]]]}, "properties": {"osm_id": 318121917, "building": "yes", "name": "", "height": null, "height_m": null, "levels": null, "tract_id": "40119011001", "tract_name": "110.01", "tags": {"building": "yes", "source": "bing"}}}, {"type": "Feature", "geometry": {"type": "Polygon", "coordinates": [[[-97.0741557, 36.2037857], [-97.0741558, 36.203646], [-97.073914, 36.2036459], [-97.0739139, 36.2037855], [-97.0741557, 36.2037857]]]}, "properties": {"osm_id": 318121918, "building": "yes", "name": "", "height": null, "height_m": null, "levels": null, "tract_id": "40119011001", "tract_name": "110.01", "tags": {"building": "yes", "source": "bing"}}}, {"type": "Feature", "geometry": {"type": "Polygon", "coordinates": [[[-97.07499, 36.2047312], [-97.0749906, 36.2041663], [-97.0745852, 36.204166], [-97.0745846, 36.2047309], [-97.07499, 36.2047312]]]}, "properties": {"osm_id": 318121919, "building": "yes", "name": "", "height": null, "height_m": null, "levels": null, "tract_id": "40119011001", "tract_name": "110.01", "tags": {"building": "yes", "source": "bing"}}}, {"type": "Feature", "geometry": {"type": "Polygon", "coordinates": [[[-97.0728757, 36.2041324], [-97.0728757, 36.2039585], [-97.0730153, 36.2039635], [-97.0730112, 36.2041324], [-97.0728757, 36.2041324]]]}, "properties": {"osm_id": 318121920, "building": "yes", "name": "", "height": null, "height_m": null, "levels": null, "tract_id": "40119011001", "tract_name": "110.01", "tags": {"building": "yes", "source": "bing"}}}, {"type": "Feature", "geometry": {"type": "Polygon", "coordinates": [[[-97.073937, 36.2041902], [-97.0739369, 36.2040993], [-97.0735965, 36.2040997], [-97.0735963, 36.2040073], [-97.0739128, 36.2040069], [-97.0739125, 36.2038687], [-97.0741783, 36.2038684], [-97.0741789, 36.2041899], [-97.073937, 36.2041902]]]}, "properties": {"osm_id": 318121922, "building": "yes", "name": "", "height": null, "height_m": null, "levels": null, "tract_id": "40119011001", "tract_name": "110.01", "tags": {"building": "yes", "source": "bing"}}}, {"type": "Feature", "geometry": {"type": "Polygon", "coordinates": [[[-97.1215738, 36.1417727], [-97.1215706, 36.1414932], [-97.1215314, 36.1414892], [-97.1215085, 36.1414629], [-97.121484, 36.1414642], [-97.1214807, 36.1411569], [-97.1213305, 36.1411569], [-97.1213289, 36.1411319], [-97.1210497, 36.1411292], [-97.1210562, 36.141447], [-97.1210741, 36.141447], [-97.1210725, 36.1415552], [-97.1210823, 36.1417793], [-97.1215738, 36.1417727]]]}, "properties": {"osm_id": 369712325, "building": "yes", "name": "Life Church", "height": null, "height_m": null, "levels": null, "tract_id": "40119011001", "tract_name": "110.01", "tags": {"addr:city": "Stillwater", "addr:country": "US", "addr:housenumber": "1917", "addr:postcode": "74075", "addr:state": "OK", "addr:street": "North Country Club Raod", "amenity": "place_of_worship", "building": "yes", "name": "Life Church", "religion": "christian", "website": "http://www.lifechurch.tv/stillwater/"}}}, {"type": "Feature", "geometry": {"type": "Polygon", "coordinates": [[[-97.1227984, 36.1383712], [-97.1227926, 36.1380831], [-97.1226108, 36.138086], [-97.122612, 36.1383713], [-97.1227984, 36.1383712]]]}, "properties": {"osm_id": 473918317, "building": "yes", "name": "", "height": null, "height_m": null, "levels": null, "tract_id": "40119011001", "tract_name": "110.01", "tags": {"building": "yes"}}}, {"type": "Feature", "geometry": {"type": "Polygon", "coordinates": [[[-97.1204065, 36.139237], [-97.1203988, 36.13878], [-97.1198851, 36.1387856], [-97.1198929, 36.1392427], [-97.1204065, 36.139237]]]}, "properties": {"osm_id": 473918318, "building": "yes", "name": "Wheel Dock", "height": null, "height_m": null, "levels": null, "tract_id": "40119011001", "tract_name": "110.01", "tags": {"addr:housenumber": "4520", "addr:street": "Territory Lane", "building": "yes", "name": "Wheel Dock", "phone": "14057438080", "shop": "motorcycle_repair"}}}, {"type": "Feature", "geometry": {"type": "Polygon", "coordinates": [[[-97.1208457, 36.1393291], [-97.1208433, 36.1390562], [-97.120622, 36.1390575], [-97.1206244, 36.1393304], [-97.1208457, 36.1393291]]]}, "properties": {"osm_id": 473918322, "building": "yes", "name": "ABC Supply Company", "height": null, "height_m": null, "levels": null, "tract_id": "40119011001", "tract_name": "110.01", "tags": {"addr:street": "Territory Lane", "building": "yes", "name": "ABC Supply Company", "shop": "hardware"}}}, {"type": "Feature", "geometry": {"type": "Polygon", "coordinates": [[[-97.1212863, 36.1393227], [-97.1212798, 36.1390508], [-97.1210612, 36.1390542], [-97.1210677, 36.1393261], [-97.1212863, 36.1393227]]]}, "properties": {"osm_id": 473918323, "building": "yes", "name": "ABC Supply Company", "height": null, "height_m": null, "levels": null, "tract_id": "40119011001", "tract_name": "110.01", "tags": {"addr:street": "Territory Lane", "building": "yes", "name": "ABC Supply Company", "shop": "hardware"}}}, {"type": "Feature", "geometry": {"type": "Polygon", "coordinates": [[[-97.1220194, 36.1382727], [-97.1220086, 36.1379944], [-97.121586, 36.1380052], [-97.1215969, 36.1382835], [-97.1220194, 36.1382727]]]}, "properties": {"osm_id": 473918324, "building": "yes", "name": "", "height": null, "height_m": null, "levels": null, "tract_id": "40119011001", "tract_name": "110.01", "tags": {"addr:street": "Territory Lane", "building": "yes"}}}, {"type": "Feature", "geometry": {"type": "Polygon", "coordinates": [[[-97.1212855, 36.1382594], [-97.1212793, 36.1378943], [-97.1209682, 36.1378977], [-97.1209728, 36.1381715], [-97.1208826, 36.1381725], [-97.1208788, 36.1379474], [-97.1205287, 36.1379512], [-97.120534, 36.1382677], [-97.1212855, 36.1382594]]]}, "properties": {"osm_id": 473918325, "building": "yes", "name": "Youth Fitness Zone", "height": null, "height_m": null, "levels": null, "tract_id": "40119011001", "tract_name": "110.01", "tags": {"addr:street": "Territory Lane", "building": "yes", "name": "Youth Fitness Zone", "phone": "405-714-5255", "sport": "gymnastics", "website": "http://www.youthfitnesszone.com"}}}, {"type": "Feature", "geometry": {"type": "Polygon", "coordinates": [[[-97.143437, 36.1033089], [-97.143456, 36.1033636], [-97.1433914, 36.1033784], [-97.1433966, 36.1033934], [-97.1434232, 36.1033873], [-97.1434338, 36.1034177], [-97.1434284, 36.1034189], [-97.143439, 36.1034493], [-97.1433179, 36.1034771], [-97.1432725, 36.1033467], [-97.143437, 36.1033089]]]}, "properties": {"osm_id": 475194167, "building": "yes", "name": "", "height": null, "height_m": null, "levels": null, "tract_id": "40119011001", "tract_name": "110.01", "tags": {"addr:city": "Stillwater", "addr:country": "US", "addr:full": "1703 S HIDDEN OAKS DR", "addr:housenumber": "1703", "addr:postcode": "74074", "addr:state": "OK", "addr:street": "South Hidden Oaks Drive", "building": "yes"}}}, {"type": "Feature", "geometry": {"type": "Polygon", "coordinates": [[[-97.1420692, 36.1028614], [-97.1420597, 36.102861], [-97.1420601, 36.1028533], [-97.1420693, 36.1028534], [-97.1420692, 36.1028614]]]}, "properties": {"osm_id": 475194173, "building": "yes", "name": "", "height": null, "height_m": null, "levels": null, "tract_id": "40119011001", "tract_name": "110.01", "tags": {"building": "yes"}}}, {"type": "Feature", "geometry": {"type": "Polygon", "coordinates": [[[-97.142421, 36.1078261], [-97.1422592, 36.1078283], [-97.1422574, 36.1077423], [-97.1424193, 36.1077401], [-97.142421, 36.1078261]]]}, "properties": {"osm_id": 475194181, "building": "shed", "name": "", "height": null, "height_m": null, "levels": null, "tract_id": "40119011001", "tract_name": "110.01", "tags": {"building": "shed"}}}, {"type": "Feature", "geometry": {"type": "Polygon", "coordinates": [[[-97.1411462, 36.1076252], [-97.1409241, 36.1076256], [-97.1409239, 36.1075231], [-97.1410224, 36.107523], [-97.1410223, 36.1075307], [-97.1412112, 36.1075304], [-97.1412114, 36.1075817], [-97.141146, 36.1075818], [-97.1411462, 36.1076252]]]}, "properties": {"osm_id": 475194503, "building": "yes", "name": "", "height": null, "height_m": null, "levels": null, "tract_id": "40119011001", "tract_name": "110.01", "tags": {"building": "yes"}}}, {"type": "Feature", "geometry": {"type": "Polygon", "coordinates": [[[-97.1420976, 36.1078966], [-97.1419747, 36.1078968], [-97.1419745, 36.1078213], [-97.1420974, 36.1078211], [-97.1420976, 36.1078966]]]}, "properties": {"osm_id": 475194509, "building": "yes", "name": "", "height": null, "height_m": null, "levels": null, "tract_id": "40119011001", "tract_name": "110.01", "tags": {"building": "yes"}}}, {"type": "Feature", "geometry": {"type": "Polygon", "coordinates": [[[-97.1428886, 36.102473], [-97.1427537, 36.1024509], [-97.1427711, 36.1023812], [-97.1429059, 36.1024034], [-97.1428886, 36.102473]]]}, "properties": {"osm_id": 475194511, "building": "yes", "name": "", "height": null, "height_m": null, "levels": null, "tract_id": "40119011001", "tract_name": "110.01", "tags": {"building": "yes"}}}, {"type": "Feature", "geometry": {"type": "Polygon", "coordinates": [[[-97.1396524, 36.0908305], [-97.1396577, 36.0909462], [-97.1394675, 36.0909519], [-97.1394677, 36.0909563], [-97.1393167, 36.0909609], [-97.139314, 36.0909001], [-97.1393743, 36.0908983], [-97.1393688, 36.0907761], [-97.1394228, 36.0907745], [-97.139423, 36.0907807], [-97.1394701, 36.0907793], [-97.1394714, 36.0908069], [-97.1395127, 36.0908057], [-97.1395119, 36.0907895], [-97.1395654, 36.0907879], [-97.1395662, 36.0908042], [-97.1396032, 36.0908031], [-97.1396035, 36.0908102], [-97.1396129, 36.0908099], [-97.1396139, 36.0908308], [-97.1396524, 36.0908305]]]}, "properties": {"osm_id": 475987445, "building": "house", "name": "", "height": null, "height_m": null, "levels": null, "tract_id": "40119011001", "tract_name": "110.01", "tags": {"addr:city": "Stillwater", "addr:country": "US", "addr:full": "5916 W DEER CREEK RD", "addr:housenumber": "5916", "addr:postcode": "74074", "addr:state": "OK", "addr:street": "West Deer Creek Road", "building": "house"}}}, {"type": "Feature", "geometry": {"type": "Polygon", "coordinates": [[[-97.1399141, 36.0873879], [-97.1399201, 36.0873664], [-97.1400957, 36.0873988], [-97.1400847, 36.0874383], [-97.1401024, 36.0874416], [-97.1400806, 36.0875198], [-97.1400675, 36.0875174], [-97.1400541, 36.0875655], [-97.1400186, 36.087559], [-97.1400196, 36.0875553], [-97.1399787, 36.0875478], [-97.1399832, 36.0875318], [-97.1399498, 36.0875257], [-97.1399343, 36.0875811], [-97.1399083, 36.0875763], [-97.1399073, 36.08758], [-97.1398668, 36.0875726], [-97.1398676, 36.0875695], [-97.1398438, 36.0875651], [-97.1398669, 36.0874823], [-97.1398118, 36.0874721], [-97.1398391, 36.0873748], [-97.1399141, 36.0873879]]]}, "properties": {"osm_id": 475987470, "building": "house", "name": "", "height": null, "height_m": null, "levels": null, "tract_id": "40119011001", "tract_name": "110.01", "tags": {"addr:city": "Stillwater", "addr:country": "US", "addr:full": "3118 S DEER CREEK RD", "addr:housenumber": "3118", "addr:postcode": "74074", "addr:state": "OK", "addr:street": "South Deer Creek Road", "building": "house"}}}, {"type": "Feature", "geometry": {"type": "Polygon", "coordinates": [[[-97.1379998, 36.08999], [-97.1378535, 36.0899601], [-97.1378685, 36.0899118], [-97.1378203, 36.0899019], [-97.137807, 36.0898877], [-97.1378159, 36.089859], [-97.1378286, 36.089856], [-97.1378388, 36.0898229], [-97.1378306, 36.0898124], [-97.1378405, 36.0897808], [-97.1378577, 36.0897712], [-97.1378694, 36.0897335], [-97.1379782, 36.0897557], [-97.1379669, 36.0897923], [-97.1379785, 36.0898036], [-97.1379743, 36.0898171], [-97.137966, 36.0898225], [-97.1379428, 36.0898974], [-97.1380184, 36.0899128], [-97.1379998, 36.08999]]]}, "properties": {"osm_id": 475987477, "building": "house", "name": "", "height": null, "height_m": null, "levels": null, "tract_id": "40119011001", "tract_name": "110.01", "tags": {"addr:city": "Stillwater", "addr:country": "US", "addr:full": "2917 S DEER CREEK RD", "addr:housenumber": "2917", "addr:postcode": "74074", "addr:state": "OK", "addr:street": "South Deer Creek Road", "building": "house"}}}, {"type": "Feature", "geometry": {"type": "Polygon", "coordinates": [[[-97.1389743, 36.0883196], [-97.1391223, 36.0883899], [-97.1390961, 36.0884262], [-97.1390793, 36.0884182], [-97.1390669, 36.0884354], [-97.1390582, 36.0884313], [-97.1390477, 36.088446], [-97.1390671, 36.0884552], [-97.1390312, 36.0885048], [-97.1390502, 36.0885138], [-97.1389988, 36.0885851], [-97.1388774, 36.0885274], [-97.1388701, 36.0885375], [-97.1387901, 36.0884995], [-97.1388735, 36.0883837], [-97.1389139, 36.0884029], [-97.1389743, 36.0883196]]]}, "properties": {"osm_id": 475987504, "building": "house", "name": "", "height": null, "height_m": null, "levels": null, "tract_id": "40119011001", "tract_name": "110.01", "tags": {"addr:city": "Stillwater", "addr:country": "US", "addr:full": "3023 S DEER CREEK RD", "addr:housenumber": "3023", "addr:postcode": "74074", "addr:state": "OK", "addr:street": "South Deer Creek Road", "building": "house"}}}, {"type": "Feature", "geometry": {"type": "Polygon", "coordinates": [[[-97.140178, 36.0911408], [-97.1401777, 36.0912093], [-97.1400761, 36.0912083], [-97.140076, 36.0911404], [-97.140178, 36.0911408]]]}, "properties": {"osm_id": 475987585, "building": "shed", "name": "", "height": null, "height_m": null, "levels": null, "tract_id": "40119011001", "tract_name": "110.01", "tags": {"building": "shed"}}}, {"type": "Feature", "geometry": {"type": "Polygon", "coordinates": [[[-97.1232223, 36.0953261], [-97.1231959, 36.0953262], [-97.1231957, 36.0953107], [-97.1232221, 36.0953105], [-97.1232223, 36.0953261]]]}, "properties": {"osm_id": 475987648, "building": "house", "name": "", "height": null, "height_m": null, "levels": null, "tract_id": "40119011001", "tract_name": "110.01", "tags": {"building": "house"}}}, {"type": "Feature", "geometry": {"type": "Polygon", "coordinates": [[[-97.1397376, 36.0893136], [-97.1397947, 36.0893873], [-97.1397655, 36.0894022], [-97.139827, 36.0894816], [-97.1397552, 36.0895182], [-97.139734, 36.0894908], [-97.1396873, 36.0895147], [-97.1396979, 36.0895284], [-97.1396582, 36.0895486], [-97.1396531, 36.089542], [-97.1396361, 36.0895507], [-97.1395793, 36.0894773], [-97.1396004, 36.0894665], [-97.1395867, 36.0894488], [-97.1396236, 36.08943], [-97.1396323, 36.0894412], [-97.1396861, 36.0894137], [-97.1396458, 36.0893617], [-97.1397376, 36.0893136]]]}, "properties": {"osm_id": 475987653, "building": "house", "name": "", "height": null, "height_m": null, "levels": null, "tract_id": "40119011001", "tract_name": "110.01", "tags": {"addr:city": "Stillwater", "addr:country": "US", "addr:full": "3008 S DEER CREEK RD", "addr:housenumber": "3008", "addr:postcode": "74074", "addr:state": "OK", "addr:street": "South Deer Creek Road", "building": "house"}}}, {"type": "Feature", "geometry": {"type": "Polygon", "coordinates": [[[-97.1381643, 36.0901945], [-97.1381946, 36.0902406], [-97.1381907, 36.090242], [-97.1382006, 36.0902598], [-97.1381508, 36.0902809], [-97.1381814, 36.0903285], [-97.1381875, 36.0903258], [-97.1382063, 36.090355], [-97.1381926, 36.0903608], [-97.1382042, 36.0903787], [-97.1380678, 36.0904366], [-97.1380313, 36.0903798], [-97.1380399, 36.0903762], [-97.1380178, 36.0903418], [-97.1380241, 36.0903392], [-97.138, 36.0903018], [-97.1379964, 36.0903033], [-97.1379696, 36.0902617], [-97.1380526, 36.0902265], [-97.1380604, 36.0902386], [-97.1381643, 36.0901945]]]}, "properties": {"osm_id": 475987664, "building": "house", "name": "", "height": null, "height_m": null, "levels": null, "tract_id": "40119011001", "tract_name": "110.01", "tags": {"addr:city": "Stillwater", "addr:country": "US", "addr:full": "2909 S DEER CREEK RD", "addr:housenumber": "2909", "addr:postcode": "74074", "addr:state": "OK", "addr:street": "South Deer Creek Road", "building": "house"}}}, {"type": "Feature", "geometry": {"type": "Polygon", "coordinates": [[[-97.1399166, 36.0897403], [-97.1398536, 36.0897442], [-97.1398511, 36.0897189], [-97.1398588, 36.0897184], [-97.1398557, 36.0896852], [-97.1399015, 36.0896823], [-97.1399046, 36.0897145], [-97.1399142, 36.0897138], [-97.1399166, 36.0897403]]]}, "properties": {"osm_id": 475988033, "building": "shed", "name": "", "height": null, "height_m": null, "levels": null, "tract_id": "40119011001", "tract_name": "110.01", "tags": {"building": "shed"}}}, {"type": "Feature", "geometry": {"type": "Polygon", "coordinates": [[[-97.1232065, 36.0954221], [-97.1231083, 36.0954239], [-97.1231076, 36.0953897], [-97.1230474, 36.0953907], [-97.1230453, 36.0953135], [-97.1231938, 36.0953109], [-97.1231946, 36.0953424], [-97.1231721, 36.0953428], [-97.1231731, 36.0953816], [-97.1232055, 36.0953809], [-97.1232065, 36.0954221]]]}, "properties": {"osm_id": 475988034, "building": "house", "name": "", "height": null, "height_m": null, "levels": null, "tract_id": "40119011001", "tract_name": "110.01", "tags": {"addr:city": "Stillwater", "addr:country": "US", "addr:full": "2414 S COUNTRY CLUB RD", "addr:housenumber": "2414", "addr:postcode": "74074", "addr:state": "OK", "addr:street": "South Country Club Road", "building": "house"}}}, {"type": "Feature", "geometry": {"type": "Polygon", "coordinates": [[[-97.1398661, 36.0891009], [-97.1397006, 36.0890572], [-97.1397169, 36.0890164], [-97.1397377, 36.089022], [-97.1397424, 36.0890101], [-97.139732, 36.0890074], [-97.1397479, 36.0889677], [-97.1397542, 36.0889694], [-97.1397672, 36.0889369], [-97.1397649, 36.0889363], [-97.1397887, 36.0888769], [-97.1399699, 36.0889247], [-97.1399418, 36.0889948], [-97.1398856, 36.08898], [-97.1398596, 36.0890448], [-97.139884, 36.0890512], [-97.1398661, 36.0891009]]]}, "properties": {"osm_id": 475988061, "building": "house", "name": "", "height": null, "height_m": null, "levels": null, "tract_id": "40119011001", "tract_name": "110.01", "tags": {"addr:city": "Stillwater", "addr:country": "US", "addr:full": "3020 S DEER CREEK RD", "addr:housenumber": "3020", "addr:postcode": "74074", "addr:state": "OK", "addr:street": "South Deer Creek Road", "building": "house"}}}, {"type": "Feature", "geometry": {"type": "Polygon", "coordinates": [[[-97.1386026, 36.0890929], [-97.1385036, 36.0890474], [-97.1385449, 36.0889881], [-97.1385402, 36.0889729], [-97.138555, 36.0889516], [-97.1385759, 36.0889461], [-97.1386025, 36.088908], [-97.1385963, 36.0888905], [-97.1386113, 36.088869], [-97.1386313, 36.0888666], [-97.1386822, 36.0887936], [-97.1386748, 36.0887772], [-97.1386861, 36.0887609], [-97.1387125, 36.0887596], [-97.1388055, 36.0888024], [-97.1387907, 36.0888236], [-97.1388521, 36.0888519], [-97.13882, 36.0888979], [-97.1388092, 36.0888929], [-97.1388004, 36.0889055], [-97.1387732, 36.088893], [-97.1387637, 36.0889066], [-97.1387699, 36.0889095], [-97.1387065, 36.0890003], [-97.1387009, 36.0889978], [-97.1386606, 36.0890556], [-97.1386388, 36.0890456], [-97.1386026, 36.0890929]]]}, "properties": {"osm_id": 475988066, "building": "house", "name": "", "height": null, "height_m": null, "levels": null, "tract_id": "40119011001", "tract_name": "110.01", "tags": {"addr:city": "Stillwater", "addr:country": "US", "addr:full": "3011 S DEER CREEK RD", "addr:housenumber": "3011", "addr:postcode": "74074", "addr:state": "OK", "addr:street": "South Deer Creek Road", "building": "house"}}}, {"type": "Feature", "geometry": {"type": "Polygon", "coordinates": [[[-97.1401012, 36.0908707], [-97.1401072, 36.0910146], [-97.1400958, 36.0910242], [-97.1400493, 36.0910255], [-97.1400369, 36.0910147], [-97.1399563, 36.0910169], [-97.1399588, 36.091078], [-97.1398564, 36.0910807], [-97.1398534, 36.09101], [-97.1398886, 36.0910091], [-97.1398845, 36.0909103], [-97.1399092, 36.0908887], [-97.1400024, 36.0908862], [-97.1400016, 36.0908644], [-97.1400473, 36.0908632], [-97.1400476, 36.0908702], [-97.1401012, 36.0908707]]]}, "properties": {"osm_id": 475988079, "building": "house", "name": "", "height": null, "height_m": null, "levels": null, "tract_id": "40119011001", "tract_name": "110.01", "tags": {"addr:city": "Stillwater", "addr:country": "US", "addr:full": "5924 W DEER CREEK RD", "addr:housenumber": "5924", "addr:postcode": "74074", "addr:state": "OK", "addr:street": "West Deer Creek Road", "building": "house"}}}, {"type": "Feature", "geometry": {"type": "Polygon", "coordinates": [[[-97.1385106, 36.0903944], [-97.1385402, 36.09042], [-97.1385511, 36.090412], [-97.1385828, 36.0904402], [-97.1385934, 36.0904324], [-97.1386762, 36.0905061], [-97.1386672, 36.0905128], [-97.1386958, 36.0905383], [-97.1386114, 36.0906007], [-97.1386042, 36.0905942], [-97.1385413, 36.0906407], [-97.1384404, 36.0905508], [-97.1383679, 36.0906044], [-97.1383038, 36.0905473], [-97.1385106, 36.0903944]]]}, "properties": {"osm_id": 475988128, "building": "house", "name": "", "height": null, "height_m": null, "levels": null, "tract_id": "40119011001", "tract_name": "110.01", "tags": {"addr:city": "Stillwater", "addr:country": "US", "addr:full": "5902 W DEER CREEK RD", "addr:housenumber": "5902", "addr:postcode": "74074", "addr:state": "OK", "addr:street": "West Deer Creek Road", "building": "house"}}}, {"type": "Feature", "geometry": {"type": "Polygon", "coordinates": [[[-97.1241777, 36.0944342], [-97.1241179, 36.0944322], [-97.1241194, 36.094398], [-97.1241792, 36.0944], [-97.1241777, 36.0944342]]]}, "properties": {"osm_id": 475988178, "building": "shed", "name": "", "height": null, "height_m": null, "levels": null, "tract_id": "40119011001", "tract_name": "110.01", "tags": {"building": "shed"}}}, {"type": "Feature", "geometry": {"type": "Polygon", "coordinates": [[[-97.1394167, 36.0899697], [-97.1394201, 36.0900435], [-97.1394062, 36.0900439], [-97.1394098, 36.0901223], [-97.139319, 36.090125], [-97.139318, 36.0901031], [-97.1392831, 36.0901041], [-97.1392837, 36.0901176], [-97.1392449, 36.0901188], [-97.1392441, 36.0901026], [-97.1391915, 36.0901042], [-97.1391897, 36.0900652], [-97.139178, 36.0900656], [-97.1391761, 36.0900251], [-97.1391893, 36.0900247], [-97.1391874, 36.0899824], [-97.1394167, 36.0899697]]]}, "properties": {"osm_id": 475988182, "building": "house", "name": "", "height": null, "height_m": null, "levels": null, "tract_id": "40119011001", "tract_name": "110.01", "tags": {"addr:city": "Stillwater", "addr:country": "US", "addr:full": "5909 W DEER CREEK RD", "addr:housenumber": "5909", "addr:postcode": "74074", "addr:state": "OK", "addr:street": "West Deer Creek Road", "building": "house"}}}, {"type": "Feature", "geometry": {"type": "Polygon", "coordinates": [[[-97.138275, 36.0891903], [-97.1383882, 36.0892435], [-97.1383549, 36.0892902], [-97.1383452, 36.0892856], [-97.1383357, 36.0892989], [-97.1383548, 36.0893079], [-97.1382813, 36.0894111], [-97.1382616, 36.0894018], [-97.1382507, 36.0894171], [-97.1382593, 36.0894211], [-97.1382272, 36.0894661], [-97.1380542, 36.0893848], [-97.1380988, 36.0893222], [-97.1381542, 36.0893482], [-97.138275, 36.0891903]]]}, "properties": {"osm_id": 475988188, "building": "house", "name": "", "height": null, "height_m": null, "levels": null, "tract_id": "40119011001", "tract_name": "110.01", "tags": {"addr:city": "Stillwater", "addr:country": "US", "addr:full": "3001 S DEER CREEK RD", "addr:housenumber": "3001", "addr:postcode": "74074", "addr:state": "OK", "addr:street": "South Deer Creek Road", "building": "house"}}}, {"type": "Feature", "geometry": {"type": "Polygon", "coordinates": [[[-97.1399804, 36.088185], [-97.1399802, 36.0881693], [-97.1400779, 36.0881686], [-97.1400782, 36.0882023], [-97.1400863, 36.0882022], [-97.1400869, 36.0882608], [-97.1400717, 36.0882609], [-97.1400719, 36.0882888], [-97.1400799, 36.0882888], [-97.1400808, 36.0883738], [-97.1400513, 36.0883739], [-97.1400514, 36.0883873], [-97.1399743, 36.0883878], [-97.1399742, 36.0883758], [-97.1399366, 36.0883761], [-97.1399362, 36.0883365], [-97.1399252, 36.0883366], [-97.1399248, 36.0882956], [-97.1399162, 36.0882957], [-97.139916, 36.0882727], [-97.1399271, 36.0882726], [-97.1399269, 36.0882508], [-97.1398796, 36.0882512], [-97.1398794, 36.0882308], [-97.1398725, 36.0882308], [-97.1398721, 36.0881855], [-97.1399804, 36.088185]]]}, "properties": {"osm_id": 475988209, "building": "house", "name": "", "height": null, "height_m": null, "levels": null, "tract_id": "40119011001", "tract_name": "110.01", "tags": {"addr:city": "Stillwater", "addr:country": "US", "addr:full": "3104 S DEER CREEK RD", "addr:housenumber": "3104", "addr:postcode": "74074", "addr:state": "OK", "addr:street": "South Deer Creek Road", "building": "house"}}}, {"type": "Feature", "geometry": {"type": "Polygon", "coordinates": [[[-97.1389385, 36.0908041], [-97.138779, 36.0907604], [-97.1387843, 36.0907477], [-97.1387524, 36.0907389], [-97.1387779, 36.0906775], [-97.1387673, 36.0906746], [-97.1387782, 36.0906483], [-97.1387879, 36.090651], [-97.1387956, 36.0906322], [-97.1388069, 36.0906353], [-97.13881, 36.0906278], [-97.1388554, 36.0906402], [-97.1388467, 36.0906612], [-97.1388642, 36.090666], [-97.1388654, 36.0906631], [-97.1388865, 36.0906545], [-97.1389153, 36.0906624], [-97.1389364, 36.0906116], [-97.1389863, 36.0906252], [-97.1389633, 36.0906806], [-97.1389948, 36.0906892], [-97.139007, 36.0907136], [-97.1390261, 36.0907128], [-97.1390335, 36.0907202], [-97.1391231, 36.0906868], [-97.1391268, 36.090692], [-97.1391673, 36.0906785], [-97.1392059, 36.0907473], [-97.1390763, 36.0907947], [-97.1391373, 36.090903], [-97.139054, 36.0909352], [-97.1390296, 36.0909285], [-97.1390171, 36.0909103], [-97.1390016, 36.0909158], [-97.1389385, 36.0908041]]]}, "properties": {"osm_id": 475988213, "building": "house", "name": "", "height": null, "height_m": null, "levels": null, "tract_id": "40119011001", "tract_name": "110.01", "tags": {"addr:city": "Stillwater", "addr:country": "US", "addr:full": "5908 W DEER CREEK RD", "addr:housenumber": "5908", "addr:postcode": "74074", "addr:state": "OK", "addr:street": "West Deer Creek Road", "building": "house"}}}, {"type": "Feature", "geometry": {"type": "Polygon", "coordinates": [[[-97.124926, 36.0944818], [-97.1248975, 36.0944776], [-97.124907, 36.0944334], [-97.1249355, 36.0944376], [-97.124926, 36.0944818]]]}, "properties": {"osm_id": 475988216, "building": "shed", "name": "", "height": null, "height_m": null, "levels": null, "tract_id": "40119011001", "tract_name": "110.01", "tags": {"building": "shed"}}}, {"type": "Feature", "geometry": {"type": "Polygon", "coordinates": [[[-97.1245986, 36.0944629], [-97.1245081, 36.0944543], [-97.1245236, 36.0943457], [-97.1247621, 36.0943683], [-97.1247495, 36.0944573], [-97.1247006, 36.0944526], [-97.1246998, 36.0944591], [-97.1246006, 36.0944498], [-97.1245986, 36.0944629]]]}, "properties": {"osm_id": 475988228, "building": "house", "name": "", "height": null, "height_m": null, "levels": null, "tract_id": "40119011001", "tract_name": "110.01", "tags": {"addr:city": "Stillwater", "addr:country": "US", "addr:full": "2420 S COUNTRY CLUB RD", "addr:housenumber": "2420", "addr:postcode": "74074", "addr:state": "OK", "addr:street": "South Country Club Road", "building": "house"}}}, {"type": "Feature", "geometry": {"type": "Polygon", "coordinates": [[[-97.1400509, 36.0898503], [-97.1400557, 36.0899013], [-97.1400592, 36.0899011], [-97.1400692, 36.0900057], [-97.1400039, 36.0900099], [-97.1400022, 36.0899923], [-97.139993, 36.0899929], [-97.1399939, 36.0900022], [-97.1399634, 36.0900248], [-97.1399219, 36.0900274], [-97.1398919, 36.0900088], [-97.1398864, 36.0899516], [-97.1398756, 36.0899523], [-97.1398652, 36.0899652], [-97.1397536, 36.0899189], [-97.1397915, 36.0898541], [-97.1398497, 36.0898773], [-97.1398481, 36.0898607], [-97.1398666, 36.089843], [-97.1398947, 36.0898412], [-97.1399148, 36.0898558], [-97.1399151, 36.0898596], [-97.1399237, 36.0898591], [-97.1399422, 36.089872], [-97.1399431, 36.0898808], [-97.1399874, 36.0898781], [-97.1399851, 36.0898546], [-97.1399953, 36.089854], [-97.1400047, 36.0898457], [-97.1400281, 36.0898442], [-97.1400371, 36.0898502], [-97.1400509, 36.0898503]]]}, "properties": {"osm_id": 475988232, "building": "house", "name": "", "height": null, "height_m": null, "levels": null, "tract_id": "40119011001", "tract_name": "110.01", "tags": {"addr:city": "Stillwater", "addr:country": "US", "addr:full": "5921 W DEER CREEK RD", "addr:housenumber": "5921", "addr:postcode": "74074", "addr:state": "OK", "addr:street": "West Deer Creek Road", "building": "house"}}}, {"type": "Feature", "geometry": {"type": "Polygon", "coordinates": [[[-97.1391489, 36.0875236], [-97.1393909, 36.0873553], [-97.139434, 36.0873962], [-97.1394027, 36.087418], [-97.1394369, 36.0874504], [-97.1394653, 36.0874306], [-97.139554, 36.0875146], [-97.1394958, 36.0875551], [-97.1394735, 36.0875339], [-97.1394575, 36.0875425], [-97.1393993, 36.0874921], [-97.13934, 36.0875348], [-97.1393547, 36.0875493], [-97.139302, 36.0875811], [-97.1392935, 36.0875741], [-97.1392379, 36.0876077], [-97.1392203, 36.087591], [-97.139184, 36.0876135], [-97.1391263, 36.0875561], [-97.1391613, 36.0875354], [-97.1391489, 36.0875236]]]}, "properties": {"osm_id": 475988240, "building": "house", "name": "", "height": null, "height_m": null, "levels": null, "tract_id": "40119011001", "tract_name": "110.01", "tags": {"addr:city": "Stillwater", "addr:country": "US", "addr:full": "3121 S DEER CREEK RD", "addr:housenumber": "3121", "addr:postcode": "74074", "addr:state": "OK", "addr:street": "South Deer Creek Road", "building": "house"}}}, {"type": "Feature", "geometry": {"type": "Polygon", "coordinates": [[[-97.1851976, 36.1030745], [-97.1850177, 36.1029968], [-97.1851773, 36.1027564], [-97.1852355, 36.1027779], [-97.1852503, 36.1027549], [-97.1853564, 36.1027986], [-97.1854042, 36.1027874], [-97.1854523, 36.1027845], [-97.1855068, 36.1027364], [-97.1854959, 36.1027291], [-97.1856217, 36.1026222], [-97.1856326, 36.1026294], [-97.1856413, 36.1026212], [-97.18566, 36.1023278], [-97.1856836, 36.102328], [-97.185684, 36.1022925], [-97.1858254, 36.1022934], [-97.1858206, 36.102328], [-97.185898, 36.1023322], [-97.1858928, 36.1024095], [-97.1859174, 36.1024098], [-97.1859091, 36.1025877], [-97.1858807, 36.1025872], [-97.1858768, 36.1026455], [-97.1858353, 36.1026443], [-97.1857708, 36.1026958], [-97.1858376, 36.1027454], [-97.1858149, 36.1027653], [-97.1858417, 36.1027837], [-97.1857137, 36.1028931], [-97.1856881, 36.1028738], [-97.1856292, 36.1029235], [-97.1856169, 36.1029134], [-97.1855614, 36.1029613], [-97.1854545, 36.1028822], [-97.1854635, 36.1028732], [-97.1854169, 36.1028811], [-97.1853758, 36.1028881], [-97.1853303, 36.1028683], [-97.1851976, 36.1030745]]]}, "properties": {"osm_id": 482767853, "building": "yes", "name": "", "height": null, "height_m": null, "levels": null, "tract_id": "40119011001", "tract_name": "110.01", "tags": {"addr:city": "Stillwater", "addr:country": "US", "addr:full": "1801 S MEMORIAL DR", "addr:housenumber": "1801", "addr:postcode": "74074", "addr:state": "OK", "addr:street": "South Memorial Drive", "building": "yes"}}}, {"type": "Feature", "geometry": {"type": "Polygon", "coordinates": [[[-97.1751234, 36.1128215], [-97.1751223, 36.1129243], [-97.1749943, 36.1129222], [-97.1749953, 36.1128229], [-97.1751234, 36.1128215]]]}, "properties": {"osm_id": 482767854, "building": "yes", "name": "", "height": null, "height_m": null, "levels": null, "tract_id": "40119011001", "tract_name": "110.01", "tags": {"building": "yes"}}}, {"type": "Feature", "geometry": {"type": "Polygon", "coordinates": [[[-97.1850586, 36.1026885], [-97.1850102, 36.1027023], [-97.1849915, 36.1027147], [-97.1849642, 36.1027155], [-97.1849161, 36.1027292], [-97.1848666, 36.1026112], [-97.184916, 36.1025967], [-97.1849323, 36.1025832], [-97.1849588, 36.1025842], [-97.1850087, 36.1025695], [-97.1850586, 36.1026885]]]}, "properties": {"osm_id": 482767855, "building": "yes", "name": "", "height": null, "height_m": null, "levels": null, "tract_id": "40119011001", "tract_name": "110.01", "tags": {"building": "yes"}}}, {"type": "Feature", "geometry": {"type": "Polygon", "coordinates": [[[-97.1845454, 36.1031199], [-97.1844828, 36.1031608], [-97.1845073, 36.1031864], [-97.1844668, 36.1032122], [-97.1844438, 36.1031862], [-97.1843845, 36.1032249], [-97.1843809, 36.1032212], [-97.1843428, 36.1032437], [-97.1842946, 36.1031919], [-97.1843302, 36.1031699], [-97.1843239, 36.1031635], [-97.1844848, 36.1030585], [-97.1845013, 36.1030753], [-97.1845278, 36.1030797], [-97.184528, 36.1031024], [-97.1845454, 36.1031199]]]}, "properties": {"osm_id": 482767856, "building": "yes", "name": "", "height": null, "height_m": null, "levels": null, "tract_id": "40119011001", "tract_name": "110.01", "tags": {"building": "yes"}}}, {"type": "Feature", "geometry": {"type": "Polygon", "coordinates": [[[-97.1738814, 36.1190662], [-97.1738001, 36.1190022], [-97.1739024, 36.1189157], [-97.1739237, 36.1189325], [-97.1739689, 36.1188951], [-97.1740283, 36.1189421], [-97.1738814, 36.1190662]]]}, "properties": {"osm_id": 484297723, "building": "house", "name": "", "height": null, "height_m": null, "levels": null, "tract_id": "40119011001", "tract_name": "110.01", "tags": {"building": "house"}}}, {"type": "Feature", "geometry": {"type": "Polygon", "coordinates": [[[-97.173961, 36.1191287], [-97.1738814, 36.1190662], [-97.1740283, 36.1189421], [-97.1740819, 36.1189841], [-97.1740357, 36.1190225], [-97.1740617, 36.1190429], [-97.173961, 36.1191287]]]}, "properties": {"osm_id": 484297724, "building": "house", "name": "", "height": null, "height_m": null, "levels": null, "tract_id": "40119011001", "tract_name": "110.01", "tags": {"addr:city": "Stillwater", "addr:country": "US", "addr:full": "8504 W KELLY SUE DR", "addr:housenumber": "8504", "addr:postcode": "74074", "addr:state": "OK", "addr:street": "West Kelly Sue Drive", "building": "house"}}}, {"type": "Feature", "geometry": {"type": "Polygon", "coordinates": [[[-97.1737097, 36.1184652], [-97.1737126, 36.1183735], [-97.1739185, 36.118378], [-97.1739177, 36.1184021], [-97.1739824, 36.1184035], [-97.17398, 36.1184706], [-97.1737097, 36.1184652]]]}, "properties": {"osm_id": 484297725, "building": "house", "name": "", "height": null, "height_m": null, "levels": null, "tract_id": "40119011001", "tract_name": "110.01", "tags": {"addr:city": "Stillwater", "addr:country": "US", "addr:full": "8421 W KELLY SUE DR", "addr:housenumber": "8421", "addr:postcode": "74074", "addr:state": "OK", "addr:street": "West Kelly Sue Drive", "building": "house"}}}, {"type": "Feature", "geometry": {"type": "Polygon", "coordinates": [[[-97.173707, 36.1185548], [-97.1737097, 36.1184652], [-97.17398, 36.1184706], [-97.1739782, 36.1185309], [-97.173912, 36.1185296], [-97.1739111, 36.1185589], [-97.173707, 36.1185548]]]}, "properties": {"osm_id": 484297726, "building": "house", "name": "", "height": null, "height_m": null, "levels": null, "tract_id": "40119011001", "tract_name": "110.01", "tags": {"addr:city": "Stillwater", "addr:country": "US", "addr:full": "8423 W KELLY SUE DR", "addr:housenumber": "8423", "addr:postcode": "74074", "addr:state": "OK", "addr:street": "West Kelly Sue Drive", "building": "house"}}}, {"type": "Feature", "geometry": {"type": "Polygon", "coordinates": [[[-97.1737309, 36.1180809], [-97.1737336, 36.1179913], [-97.174004, 36.1179966], [-97.1740022, 36.1180569], [-97.1739359, 36.1180556], [-97.173935, 36.1180849], [-97.1737309, 36.1180809]]]}, "properties": {"osm_id": 484297727, "building": "house", "name": "", "height": null, "height_m": null, "levels": null, "tract_id": "40119011001", "tract_name": "110.01", "tags": {"addr:city": "Stillwater", "addr:country": "US", "addr:full": "8415 W KELLY SUE DR", "addr:housenumber": "8415", "addr:postcode": "74074", "addr:state": "OK", "addr:street": "West Kelly Sue Drive", "building": "house"}}}, {"type": "Feature", "geometry": {"type": "Polygon", "coordinates": [[[-97.1737336, 36.1179913], [-97.1737366, 36.1178995], [-97.1739425, 36.117904], [-97.1739417, 36.1179281], [-97.1740063, 36.1179295], [-97.174004, 36.1179966], [-97.1737336, 36.1179913]]]}, "properties": {"osm_id": 484297728, "building": "house", "name": "", "height": null, "height_m": null, "levels": null, "tract_id": "40119011001", "tract_name": "110.01", "tags": {"addr:city": "Stillwater", "addr:country": "US", "addr:full": "8413 W KELLY SUE DR", "addr:housenumber": "8413", "addr:postcode": "74074", "addr:state": "OK", "addr:street": "West Kelly Sue Drive", "building": "house"}}}, {"type": "Feature", "geometry": {"type": "Polygon", "coordinates": [[[-97.1749298, 36.1179303], [-97.1749291, 36.11802], [-97.1746587, 36.1180186], [-97.1746592, 36.1179583], [-97.1747254, 36.1179586], [-97.1747257, 36.1179293], [-97.1749298, 36.1179303]]]}, "properties": {"osm_id": 484297729, "building": "house", "name": "", "height": null, "height_m": null, "levels": null, "tract_id": "40119011001", "tract_name": "110.01", "tags": {"addr:city": "Stillwater", "addr:country": "US", "addr:full": "8412 W KELLY SUE DR", "addr:housenumber": "8412", "addr:postcode": "74074", "addr:state": "OK", "addr:street": "West Kelly Sue Drive", "building": "house"}}}, {"type": "Feature", "geometry": {"type": "Polygon", "coordinates": [[[-97.1749291, 36.11802], [-97.1749283, 36.1181117], [-97.1747223, 36.1181103], [-97.1747226, 36.1180862], [-97.1746579, 36.1180857], [-97.1746587, 36.1180186], [-97.1749291, 36.11802]]]}, "properties": {"osm_id": 484297730, "building": "house", "name": "", "height": null, "height_m": null, "levels": null, "tract_id": "40119011001", "tract_name": "110.01", "tags": {"addr:city": "Stillwater", "addr:country": "US", "addr:full": "8414 W KELLY SUE DR", "addr:housenumber": "8414", "addr:postcode": "74074", "addr:state": "OK", "addr:street": "West Kelly Sue Drive", "building": "house"}}}, {"type": "Feature", "geometry": {"type": "Polygon", "coordinates": [[[-97.1746084, 36.1183892], [-97.1747194, 36.1183906], [-97.1747151, 36.118609], [-97.1746404, 36.1186081], [-97.1746415, 36.1185546], [-97.1746052, 36.1185541], [-97.1746084, 36.1183892]]]}, "properties": {"osm_id": 484297731, "building": "house", "name": "", "height": null, "height_m": null, "levels": null, "tract_id": "40119011001", "tract_name": "110.01", "tags": {"addr:city": "Stillwater", "addr:country": "US", "addr:full": "8507 W KELLY SUE DR", "addr:housenumber": "8507", "addr:postcode": "74074", "addr:state": "OK", "addr:street": "West Kelly Sue Drive", "building": "house"}}}, {"type": "Feature", "geometry": {"type": "Polygon", "coordinates": [[[-97.1747194, 36.1183906], [-97.1748329, 36.1183922], [-97.1748292, 36.1185585], [-97.1747994, 36.1185581], [-97.1747982, 36.1186103], [-97.1747151, 36.118609], [-97.1747194, 36.1183906]]]}, "properties": {"osm_id": 484297732, "building": "house", "name": "", "height": null, "height_m": null, "levels": null, "tract_id": "40119011001", "tract_name": "110.01", "tags": {"addr:city": "Stillwater", "addr:country": "US", "addr:full": "8509 W KELLY SUE DR", "addr:housenumber": "8509", "addr:postcode": "74074", "addr:state": "OK", "addr:street": "West Kelly Sue Drive", "building": "house"}}}, {"type": "Feature", "geometry": {"type": "Polygon", "coordinates": [[[-97.1752012, 36.1183925], [-97.1753121, 36.1183939], [-97.1753079, 36.1186123], [-97.1752332, 36.1186113], [-97.1752342, 36.1185578], [-97.175198, 36.1185574], [-97.1752012, 36.1183925]]]}, "properties": {"osm_id": 484297733, "building": "house", "name": "", "height": null, "height_m": null, "levels": null, "tract_id": "40119011001", "tract_name": "110.01", "tags": {"addr:city": "Stillwater", "addr:country": "US", "addr:full": "8513 W KELLY SUE DR", "addr:housenumber": "8513", "addr:postcode": "74074", "addr:state": "OK", "addr:street": "West Kelly Sue Drive", "building": "house"}}}, {"type": "Feature", "geometry": {"type": "Polygon", "coordinates": [[[-97.1753121, 36.1183939], [-97.1754257, 36.1183955], [-97.175422, 36.1185618], [-97.1753922, 36.1185614], [-97.175391, 36.1186136], [-97.1753079, 36.1186123], [-97.1753121, 36.1183939]]]}, "properties": {"osm_id": 484297734, "building": "house", "name": "", "height": null, "height_m": null, "levels": null, "tract_id": "40119011001", "tract_name": "110.01", "tags": {"addr:city": "Stillwater", "addr:country": "US", "addr:full": "8515 W KELLY SUE DR", "addr:housenumber": "8515", "addr:postcode": "74074", "addr:state": "OK", "addr:street": "West Kelly Sue Drive", "building": "house"}}}, {"type": "Feature", "geometry": {"type": "Polygon", "coordinates": [[[-97.1759391, 36.1183982], [-97.1760526, 36.1183998], [-97.1760489, 36.1185661], [-97.1760191, 36.1185657], [-97.1760179, 36.1186179], [-97.1759348, 36.1186166], [-97.1759391, 36.1183982]]]}, "properties": {"osm_id": 484297735, "building": "house", "name": "", "height": null, "height_m": null, "levels": null, "tract_id": "40119011001", "tract_name": "110.01", "tags": {"addr:city": "Stillwater", "addr:country": "US", "addr:full": "8523 W KELLY SUE DR", "addr:housenumber": "8523", "addr:postcode": "74074", "addr:state": "OK", "addr:street": "West Kelly Sue Drive", "building": "house"}}}, {"type": "Feature", "geometry": {"type": "Polygon", "coordinates": [[[-97.1758281, 36.1183968], [-97.1759391, 36.1183982], [-97.1759348, 36.1186166], [-97.1758601, 36.1186157], [-97.1758612, 36.1185622], [-97.1758249, 36.1185617], [-97.1758281, 36.1183968]]]}, "properties": {"osm_id": 484297736, "building": "house", "name": "", "height": null, "height_m": null, "levels": null, "tract_id": "40119011001", "tract_name": "110.01", "tags": {"addr:city": "Stillwater", "addr:country": "US", "addr:full": "8521 W KELLY SUE DR", "addr:housenumber": "8521", "addr:postcode": "74074", "addr:state": "OK", "addr:street": "West Kelly Sue Drive", "building": "house"}}}, {"type": "Feature", "geometry": {"type": "Polygon", "coordinates": [[[-97.1743424, 36.1192436], [-97.1742288, 36.119245], [-97.1742258, 36.1190787], [-97.1742556, 36.1190783], [-97.1742546, 36.1190261], [-97.1743378, 36.1190252], [-97.1743424, 36.1192436]]]}, "properties": {"osm_id": 484297737, "building": "house", "name": "", "height": null, "height_m": null, "levels": null, "tract_id": "40119011001", "tract_name": "110.01", "tags": {"addr:city": "Stillwater", "addr:country": "US", "addr:full": "8506 W KELLY SUE DR", "addr:housenumber": "8506", "addr:postcode": "74074", "addr:state": "OK", "addr:street": "West Kelly Sue Drive", "building": "house"}}}, {"type": "Feature", "geometry": {"type": "Polygon", "coordinates": [[[-97.1744533, 36.1192421], [-97.1743424, 36.1192436], [-97.1743378, 36.1190252], [-97.1744124, 36.1190242], [-97.1744136, 36.1190777], [-97.1744498, 36.1190772], [-97.1744533, 36.1192421]]]}, "properties": {"osm_id": 484297738, "building": "house", "name": "", "height": null, "height_m": null, "levels": null, "tract_id": "40119011001", "tract_name": "110.01", "tags": {"addr:city": "Stillwater", "addr:country": "US", "addr:full": "8508 W KELLY SUE DR", "addr:housenumber": "8508", "addr:postcode": "74074", "addr:state": "OK", "addr:street": "West Kelly Sue Drive", "building": "house"}}}, {"type": "Feature", "geometry": {"type": "Polygon", "coordinates": [[[-97.1747393, 36.1192382], [-97.1746258, 36.1192396], [-97.1746227, 36.1190733], [-97.1746526, 36.1190729], [-97.1746516, 36.1190207], [-97.1747347, 36.1190198], [-97.1747393, 36.1192382]]]}, "properties": {"osm_id": 484297739, "building": "house", "name": "", "height": null, "height_m": null, "levels": null, "tract_id": "40119011001", "tract_name": "110.01", "tags": {"addr:city": "Stillwater", "addr:country": "US", "addr:full": "8510 W KELLY SUE DR", "addr:housenumber": "8510", "addr:postcode": "74074", "addr:state": "OK", "addr:street": "West Kelly Sue Drive", "building": "house"}}}, {"type": "Feature", "geometry": {"type": "Polygon", "coordinates": [[[-97.1748503, 36.1192367], [-97.1747393, 36.1192382], [-97.1747347, 36.1190198], [-97.1748094, 36.1190188], [-97.1748105, 36.1190723], [-97.1748468, 36.1190718], [-97.1748503, 36.1192367]]]}, "properties": {"osm_id": 484297740, "building": "house", "name": "", "height": null, "height_m": null, "levels": null, "tract_id": "40119011001", "tract_name": "110.01", "tags": {"addr:city": "Stillwater", "addr:country": "US", "addr:full": "8512 W KELLY SUE DR", "addr:housenumber": "8512", "addr:postcode": "74074", "addr:state": "OK", "addr:street": "West Kelly Sue Drive", "building": "house"}}}, {"type": "Feature", "geometry": {"type": "Polygon", "coordinates": [[[-97.175151, 36.119223], [-97.1750375, 36.1192245], [-97.1750344, 36.1190581], [-97.1750643, 36.1190578], [-97.1750633, 36.1190055], [-97.1751464, 36.1190046], [-97.175151, 36.119223]]]}, "properties": {"osm_id": 484297741, "building": "house", "name": "", "height": null, "height_m": null, "levels": null, "tract_id": "40119011001", "tract_name": "110.01", "tags": {"addr:city": "Stillwater", "addr:country": "US", "addr:full": "8514 W KELLY SUE DR", "addr:housenumber": "8514", "addr:postcode": "74074", "addr:state": "OK", "addr:street": "West Kelly Sue Drive", "building": "house"}}}, {"type": "Feature", "geometry": {"type": "Polygon", "coordinates": [[[-97.175262, 36.1192215], [-97.175151, 36.119223], [-97.1751464, 36.1190046], [-97.1752211, 36.1190036], [-97.1752223, 36.1190571], [-97.1752585, 36.1190566], [-97.175262, 36.1192215]]]}, "properties": {"osm_id": 484297742, "building": "house", "name": "", "height": null, "height_m": null, "levels": null, "tract_id": "40119011001", "tract_name": "110.01", "tags": {"addr:city": "Stillwater", "addr:country": "US", "addr:full": "8516 W KELLY SUE DR", "addr:housenumber": "8516", "addr:postcode": "74074", "addr:state": "OK", "addr:street": "West Kelly Sue Drive", "building": "house"}}}, {"type": "Feature", "geometry": {"type": "Polygon", "coordinates": [[[-97.1756151, 36.1192284], [-97.1755015, 36.1192299], [-97.1754985, 36.1190635], [-97.1755283, 36.1190632], [-97.1755273, 36.119011], [-97.1756105, 36.11901], [-97.1756151, 36.1192284]]]}, "properties": {"osm_id": 484297743, "building": "house", "name": "", "height": null, "height_m": null, "levels": null, "tract_id": "40119011001", "tract_name": "110.01", "tags": {"addr:city": "Stillwater", "addr:country": "US", "addr:full": "8518 W KELLY SUE DR", "addr:housenumber": "8518", "addr:postcode": "74074", "addr:state": "OK", "addr:street": "West Kelly Sue Drive", "building": "house"}}}, {"type": "Feature", "geometry": {"type": "Polygon", "coordinates": [[[-97.175726, 36.1192269], [-97.1756151, 36.1192284], [-97.1756105, 36.11901], [-97.1756851, 36.119009], [-97.1756863, 36.1190625], [-97.1757225, 36.119062], [-97.175726, 36.1192269]]]}, "properties": {"osm_id": 484297744, "building": "house", "name": "", "height": null, "height_m": null, "levels": null, "tract_id": "40119011001", "tract_name": "110.01", "tags": {"addr:city": "Stillwater", "addr:country": "US", "addr:full": "8520 W KELLY SUE DR", "addr:housenumber": "8520", "addr:postcode": "74074", "addr:state": "OK", "addr:street": "West Kelly Sue Drive", "building": "house"}}}, {"type": "Feature", "geometry": {"type": "Polygon", "coordinates": [[[-97.1760355, 36.1192138], [-97.1759219, 36.1192153], [-97.1759189, 36.1190489], [-97.1759487, 36.1190486], [-97.1759477, 36.1189963], [-97.1760309, 36.1189954], [-97.1760355, 36.1192138]]]}, "properties": {"osm_id": 484297745, "building": "house", "name": "", "height": null, "height_m": null, "levels": null, "tract_id": "40119011001", "tract_name": "110.01", "tags": {"addr:city": "Stillwater", "addr:country": "US", "addr:full": "8522 W KELLY SUE DR", "addr:housenumber": "8522", "addr:postcode": "74074", "addr:state": "OK", "addr:street": "West Kelly Sue Drive", "building": "house"}}}, {"type": "Feature", "geometry": {"type": "Polygon", "coordinates": [[[-97.1761464, 36.1192123], [-97.1760355, 36.1192138], [-97.1760309, 36.1189954], [-97.1761055, 36.1189944], [-97.1761067, 36.1190479], [-97.1761429, 36.1190474], [-97.1761464, 36.1192123]]]}, "properties": {"osm_id": 484297746, "building": "house", "name": "", "height": null, "height_m": null, "levels": null, "tract_id": "40119011001", "tract_name": "110.01", "tags": {"addr:city": "Stillwater", "addr:country": "US", "addr:full": "8524 W KELLY SUE DR", "addr:housenumber": "8524", "addr:postcode": "74074", "addr:state": "OK", "addr:street": "West Kelly Sue Drive", "building": "house"}}}, {"type": "Feature", "geometry": {"type": "Polygon", "coordinates": [[[-97.1565572, 36.1232436], [-97.1565584, 36.1232956], [-97.1563757, 36.1232958], [-97.1563747, 36.1232445], [-97.1565572, 36.1232436]]]}, "properties": {"osm_id": 484297750, "building": "yes", "name": "", "height": null, "height_m": null, "levels": null, "tract_id": "40119011001", "tract_name": "110.01", "tags": {"building": "yes"}}}, {"type": "Feature", "geometry": {"type": "Polygon", "coordinates": [[[-97.1574267, 36.1233509], [-97.1572861, 36.123353], [-97.1572823, 36.1231859], [-97.1573437, 36.123185], [-97.1573451, 36.1232443], [-97.1573542, 36.1232442], [-97.1573553, 36.1232924], [-97.1574262, 36.1232914], [-97.1574267, 36.1233509]]]}, "properties": {"osm_id": 484297751, "building": "yes", "name": "", "height": null, "height_m": null, "levels": null, "tract_id": "40119011001", "tract_name": "110.01", "tags": {"building": "yes"}}}, {"type": "Feature", "geometry": {"type": "Polygon", "coordinates": [[[-97.1579377, 36.1230514], [-97.1579373, 36.1230883], [-97.1578805, 36.1230879], [-97.1578809, 36.1230518], [-97.1579377, 36.1230514]]]}, "properties": {"osm_id": 484297752, "building": "yes", "name": "", "height": null, "height_m": null, "levels": null, "tract_id": "40119011001", "tract_name": "110.01", "tags": {"building": "yes"}}}, {"type": "Feature", "geometry": {"type": "Polygon", "coordinates": [[[-97.1570671, 36.1232835], [-97.1567346, 36.1232834], [-97.1567314, 36.1231446], [-97.1570638, 36.1231395], [-97.1570671, 36.1232835]]]}, "properties": {"osm_id": 484297753, "building": "yes", "name": "", "height": null, "height_m": null, "levels": null, "tract_id": "40119011001", "tract_name": "110.01", "tags": {"building": "yes"}}}, {"type": "Feature", "geometry": {"type": "Polygon", "coordinates": [[[-97.1573997, 36.1230457], [-97.1574019, 36.1231409], [-97.1572976, 36.1231425], [-97.1572954, 36.1230482], [-97.1573997, 36.1230457]]]}, "properties": {"osm_id": 484297754, "building": "yes", "name": "", "height": null, "height_m": null, "levels": null, "tract_id": "40119011001", "tract_name": "110.01", "tags": {"building": "yes"}}}, {"type": "Feature", "geometry": {"type": "Polygon", "coordinates": [[[-97.1599895, 36.1274664], [-97.1600821, 36.1274683], [-97.1600759, 36.1275808], [-97.1599836, 36.127577], [-97.1599895, 36.1274664]]]}, "properties": {"osm_id": 484297755, "building": "yes", "name": "", "height": null, "height_m": null, "levels": null, "tract_id": "40119011001", "tract_name": "110.01", "tags": {"building": "yes"}}}, {"type": "Feature", "geometry": {"type": "Polygon", "coordinates": [[[-97.1581416, 36.1230622], [-97.1581425, 36.1231808], [-97.1579862, 36.1231812], [-97.1579871, 36.1231733], [-97.1579541, 36.1231738], [-97.1579529, 36.1231187], [-97.1579824, 36.1231182], [-97.1579829, 36.12311], [-97.1580891, 36.1231086], [-97.1580897, 36.1230954], [-97.1580681, 36.1230953], [-97.1580685, 36.1230613], [-97.1581416, 36.1230622]]]}, "properties": {"osm_id": 484297756, "building": "yes", "name": "", "height": null, "height_m": null, "levels": null, "tract_id": "40119011001", "tract_name": "110.01", "tags": {"building": "yes"}}}, {"type": "Feature", "geometry": {"type": "Polygon", "coordinates": [[[-97.1581014, 36.145187], [-97.1581007, 36.1451302], [-97.1581604, 36.1451297], [-97.1581611, 36.1451865], [-97.1581014, 36.145187]]]}, "properties": {"osm_id": 497316327, "building": "roof", "name": "", "height": null, "height_m": null, "levels": null, "tract_id": "40119011001", "tract_name": "110.01", "tags": {"building": "roof", "tourism": "picnic_site"}}}, {"type": "Feature", "geometry": {"type": "Polygon", "coordinates": [[[-97.1581599, 36.1452708], [-97.1581602, 36.1452172], [-97.1581012, 36.145217], [-97.1581009, 36.1452706], [-97.1581599, 36.1452708]]]}, "properties": {"osm_id": 497316328, "building": "roof", "name": "", "height": null, "height_m": null, "levels": null, "tract_id": "40119011001", "tract_name": "110.01", "tags": {"building": "roof", "tourism": "picnic_site"}}}, {"type": "Feature", "geometry": {"type": "Polygon", "coordinates": [[[-97.1583536, 36.1453079], [-97.1582631, 36.1453072], [-97.1582649, 36.1451377], [-97.1583555, 36.1451384], [-97.1583536, 36.1453079]]]}, "properties": {"osm_id": 497316329, "building": "yes", "name": "Cottonwood Community Center", "height": null, "height_m": null, "levels": null, "tract_id": "40119011001", "tract_name": "110.01", "tags": {"addr:city": "Stillwater", "addr:housenumber": "2303", "addr:postcode": "74075", "addr:state": "OK", "addr:street": "North Cottonwood Road", "amenity": "community_centre", "building": "yes", "name": "Cottonwood Community Center"}}}, {"type": "Feature", "geometry": {"type": "Polygon", "coordinates": [[[-97.1193702, 36.1383376], [-97.1192286, 36.138339], [-97.1192243, 36.1380555], [-97.1194284, 36.1380535], [-97.1194295, 36.1381257], [-97.119367, 36.1381263], [-97.1193702, 36.1383376]]]}, "properties": {"osm_id": 622160527, "building": "yes", "name": "Austin Paving", "height": null, "height_m": null, "levels": null, "tract_id": "40119011001", "tract_name": "110.01", "tags": {"addr:housenumber": "4508", "addr:street": "Territory Lane", "building": "yes", "name": "Austin Paving"}}}, {"type": "Feature", "geometry": {"type": "Polygon", "coordinates": [[[-97.122223, 36.1407734], [-97.1222153, 36.1403164], [-97.1217016, 36.140322], [-97.1217094, 36.1407791], [-97.122223, 36.1407734]]]}, "properties": {"osm_id": 622162420, "building": "yes", "name": "Ultimate Air Trampoline Park", "height": null, "height_m": null, "levels": null, "tract_id": "40119011001", "tract_name": "110.01", "tags": {"building": "yes", "leisure": "fitness_centre", "name": "Ultimate Air Trampoline Park", "website": "https://www.ultimateairstillwater.com/"}}}, {"type": "Feature", "geometry": {"type": "Polygon", "coordinates": [[[-97.1624077, 36.1153591], [-97.1624103, 36.1151638], [-97.1622822, 36.1151633], [-97.1622612, 36.1151625], [-97.1622618, 36.1151128], [-97.1622823, 36.1151126], [-97.162409, 36.115114], [-97.1624123, 36.1148651], [-97.1628156, 36.1148685], [-97.1628091, 36.1153625], [-97.1624077, 36.1153591]]]}, "properties": {"osm_id": 903631716, "building": "yes", "name": "Stillwater Bible Church", "height": null, "height_m": null, "levels": null, "tract_id": "40119011001", "tract_name": "110.01", "tags": {"addr:city": "Stillwater", "addr:housenumber": "7617", "addr:postcode": "74074", "addr:state": "OK", "addr:street": "W 6th Ave", "amenity": "place_of_worship", "building": "yes", "denomination": "nondenominational", "layer": "1", "name": "Stillwater Bible Church", "religion": "christian", "website": "https://www.stillwaterbible.org"}}}, {"type": "Feature", "geometry": {"type": "Polygon", "coordinates": [[[-97.1628302, 36.1142541], [-97.1627855, 36.1142526], [-97.1627912, 36.1141388], [-97.162836, 36.1141403], [-97.1628302, 36.1142541]]]}, "properties": {"osm_id": 903631723, "building": "cabin", "name": "", "height": null, "height_m": 6.0, "levels": 2, "tract_id": "40119011001", "tract_name": "110.01", "tags": {"addr:city": "Stillwater", "addr:housenumber": "7619", "addr:postcode": "74074", "addr:state": "OK", "addr:street": "W 6th Ave", "building": "cabin", "building:levels": "2"}}}, {"type": "Feature", "geometry": {"type": "Polygon", "coordinates": [[[-97.1628701, 36.1137919], [-97.1627695, 36.1137931], [-97.1627675, 36.113681], [-97.1628681, 36.1136798], [-97.1628701, 36.1137919]]]}, "properties": {"osm_id": 903631724, "building": "shed", "name": "", "height": null, "height_m": null, "levels": null, "tract_id": "40119011001", "tract_name": "110.01", "tags": {"building": "shed"}}}, {"type": "Feature", "geometry": {"type": "Polygon", "coordinates": [[[-97.1611009, 36.1153062], [-97.1610547, 36.1153327], [-97.1609295, 36.1151449], [-97.1609742, 36.115122], [-97.1611009, 36.1153062]]]}, "properties": {"osm_id": 903631725, "building": "static_caravan", "name": "", "height": null, "height_m": null, "levels": null, "tract_id": "40119011001", "tract_name": "110.01", "tags": {"addr:city": "Stillwater", "addr:housenumber": "7613", "addr:postcode": "74074", "addr:state": "OK", "addr:street": "W 6th Avenue", "building": "static_caravan"}}}, {"type": "Feature", "geometry": {"type": "Polygon", "coordinates": [[[-97.1649658, 36.1142545], [-97.1648531, 36.1142468], [-97.1648547, 36.114052], [-97.1649753, 36.1140558], [-97.1649658, 36.1142545]]]}, "properties": {"osm_id": 903631726, "building": "house", "name": "", "height": null, "height_m": null, "levels": null, "tract_id": "40119011001", "tract_name": "110.01", "tags": {"building": "house"}}}, {"type": "Feature", "geometry": {"type": "Polygon", "coordinates": [[[-97.1646014, 36.1141803], [-97.164529, 36.1141767], [-97.1645209, 36.1140627], [-97.1646119, 36.1140683], [-97.1646014, 36.1141803]]]}, "properties": {"osm_id": 903631727, "building": "house", "name": "", "height": null, "height_m": null, "levels": null, "tract_id": "40119011001", "tract_name": "110.01", "tags": {"building": "house"}}}, {"type": "Feature", "geometry": {"type": "Polygon", "coordinates": [[[-97.0528902, 36.2182481], [-97.0528891, 36.2182004], [-97.0528455, 36.2182011], [-97.0528466, 36.2182487], [-97.0528902, 36.2182481]]]}, "properties": {"osm_id": 923103316, "building": "yes", "name": "", "height": null, "height_m": null, "levels": null, "tract_id": "40119011001", "tract_name": "110.01", "tags": {"building": "yes"}}}, {"type": "Feature", "geometry": {"type": "Polygon", "coordinates": [[[-97.0527508, 36.2167524], [-97.0526315, 36.2167533], [-97.0526294, 36.2165809], [-97.0527486, 36.2165799], [-97.0527508, 36.2167524]]]}, "properties": {"osm_id": 923103317, "building": "yes", "name": "", "height": null, "height_m": null, "levels": null, "tract_id": "40119011001", "tract_name": "110.01", "tags": {"building": "yes"}}}, {"type": "Feature", "geometry": {"type": "Polygon", "coordinates": [[[-97.0818396, 36.2143841], [-97.0818052, 36.2144554], [-97.0815903, 36.214388], [-97.0816247, 36.2143167], [-97.0818396, 36.2143841]]]}, "properties": {"osm_id": 923104387, "building": "yes", "name": "", "height": null, "height_m": null, "levels": null, "tract_id": "40119011001", "tract_name": "110.01", "tags": {"addr:city": "Stillwater", "addr:housenumber": "1701", "addr:postcode": "74075", "addr:state": "OK", "addr:street": "W Glencoe Road", "building": "yes"}}}, {"type": "Feature", "geometry": {"type": "Polygon", "coordinates": [[[-97.0845247, 36.2158169], [-97.0845261, 36.2157408], [-97.084265, 36.2157378], [-97.0842636, 36.215814], [-97.0845247, 36.2158169]]]}, "properties": {"osm_id": 923124451, "building": "yes", "name": "", "height": null, "height_m": null, "levels": null, "tract_id": "40119011001", "tract_name": "110.01", "tags": {"building": "yes"}}}, {"type": "Feature", "geometry": {"type": "Polygon", "coordinates": [[[-97.0824306, 36.2165799], [-97.0824248, 36.2166509], [-97.0823338, 36.216646], [-97.0823396, 36.2165751], [-97.0824306, 36.2165799]]]}, "properties": {"osm_id": 923124452, "building": "yes", "name": "", "height": null, "height_m": null, "levels": null, "tract_id": "40119011001", "tract_name": "110.01", "tags": {"building": "yes"}}}, {"type": "Feature", "geometry": {"type": "Polygon", "coordinates": [[[-97.0825123, 36.2163806], [-97.0825497, 36.2161501], [-97.0827565, 36.2161719], [-97.0827425, 36.2162581], [-97.0826408, 36.2162474], [-97.0826174, 36.2163918], [-97.0825123, 36.2163806]]]}, "properties": {"osm_id": 923124453, "building": "yes", "name": "", "height": null, "height_m": null, "levels": null, "tract_id": "40119011001", "tract_name": "110.01", "tags": {"building": "yes"}}}, {"type": "Feature", "geometry": {"type": "Polygon", "coordinates": [[[-97.0829498, 36.2164501], [-97.082759, 36.2163972], [-97.0827946, 36.2163134], [-97.0829854, 36.2163663], [-97.0829498, 36.2164501]]]}, "properties": {"osm_id": 923124454, "building": "yes", "name": "", "height": null, "height_m": null, "levels": null, "tract_id": "40119011001", "tract_name": "110.01", "tags": {"building": "yes"}}}, {"type": "Feature", "geometry": {"type": "Polygon", "coordinates": [[[-97.0829862, 36.216257], [-97.0829702, 36.2162914], [-97.082825, 36.2162475], [-97.082841, 36.2162131], [-97.0829862, 36.216257]]]}, "properties": {"osm_id": 923124455, "building": "yes", "name": "", "height": null, "height_m": null, "levels": null, "tract_id": "40119011001", "tract_name": "110.01", "tags": {"building": "yes"}}}, {"type": "Feature", "geometry": {"type": "Polygon", "coordinates": [[[-97.0831012, 36.2163373], [-97.0830956, 36.216361], [-97.0830634, 36.2163561], [-97.083069, 36.2163323], [-97.0831012, 36.2163373]]]}, "properties": {"osm_id": 923124456, "building": "yes", "name": "", "height": null, "height_m": null, "levels": null, "tract_id": "40119011001", "tract_name": "110.01", "tags": {"building": "yes"}}}, {"type": "Feature", "geometry": {"type": "Polygon", "coordinates": [[[-97.0799409, 36.2156489], [-97.0799684, 36.2155033], [-97.0796804, 36.2154679], [-97.0796575, 36.2155893], [-97.0797494, 36.2156006], [-97.0797448, 36.2156247], [-97.0799409, 36.2156489]]]}, "properties": {"osm_id": 923124457, "building": "yes", "name": "", "height": null, "height_m": null, "levels": null, "tract_id": "40119011001", "tract_name": "110.01", "tags": {"building": "yes"}}}, {"type": "Feature", "geometry": {"type": "Polygon", "coordinates": [[[-97.0791309, 36.2154943], [-97.0790199, 36.2154978], [-97.0790131, 36.2153597], [-97.0791241, 36.2153562], [-97.0791309, 36.2154943]]]}, "properties": {"osm_id": 923124458, "building": "yes", "name": "", "height": null, "height_m": null, "levels": null, "tract_id": "40119011001", "tract_name": "110.01", "tags": {"building": "yes"}}}, {"type": "Feature", "geometry": {"type": "Polygon", "coordinates": [[[-97.0790489, 36.2161311], [-97.0790517, 36.2160571], [-97.0790046, 36.2160559], [-97.0790018, 36.21613], [-97.0790489, 36.2161311]]]}, "properties": {"osm_id": 923124459, "building": "yes", "name": "", "height": null, "height_m": null, "levels": null, "tract_id": "40119011001", "tract_name": "110.01", "tags": {"building": "yes"}}}, {"type": "Feature", "geometry": {"type": "Polygon", "coordinates": [[[-97.0750336, 36.2167953], [-97.0750347, 36.2167016], [-97.0750737, 36.2167019], [-97.0750754, 36.2165543], [-97.0750399, 36.216554], [-97.0750421, 36.2163627], [-97.0747476, 36.2163605], [-97.0747469, 36.2164238], [-97.0746749, 36.2164233], [-97.0746741, 36.2164951], [-97.0747573, 36.2164957], [-97.0747537, 36.2167931], [-97.0750336, 36.2167953]]]}, "properties": {"osm_id": 923124465, "building": "yes", "name": "", "height": null, "height_m": null, "levels": null, "tract_id": "40119011001", "tract_name": "110.01", "tags": {"building": "yes"}}}, {"type": "Feature", "geometry": {"type": "Polygon", "coordinates": [[[-97.0729937, 36.2187375], [-97.0733002, 36.218756], [-97.0732951, 36.2182861], [-97.0729068, 36.2182841], [-97.0728991, 36.2184325], [-97.0732338, 36.2184325], [-97.0732338, 36.2186942], [-97.0729962, 36.2186777], [-97.0729937, 36.2187375]]]}, "properties": {"osm_id": 923125271, "building": "yes", "name": "", "height": null, "height_m": null, "levels": null, "tract_id": "40119011001", "tract_name": "110.01", "tags": {"building": "yes"}}}, {"type": "Feature", "geometry": {"type": "Polygon", "coordinates": [[[-97.0734551, 36.2179969], [-97.0733019, 36.2179943], [-97.0733064, 36.2178253], [-97.0734595, 36.2178279], [-97.0734551, 36.2179969]]]}, "properties": {"osm_id": 923125272, "building": "yes", "name": "", "height": null, "height_m": null, "levels": null, "tract_id": "40119011001", "tract_name": "110.01", "tags": {"building": "yes"}}}, {"type": "Feature", "geometry": {"type": "Polygon", "coordinates": [[[-97.0705899, 36.2170908], [-97.0704962, 36.2170934], [-97.0704413, 36.2170929], [-97.0704378, 36.2169109], [-97.0704343, 36.2168683], [-97.0704841, 36.2168669], [-97.0705803, 36.2168643], [-97.0705899, 36.2170908]]]}, "properties": {"osm_id": 923131979, "building": "yes", "name": "", "height": null, "height_m": null, "levels": null, "tract_id": "40119011001", "tract_name": "110.01", "tags": {"addr:city": "Stillwater", "addr:housenumber": "8550", "addr:postcode": "74075", "addr:state": "OK", "addr:street": "North Washington Street", "building": "yes"}}}, {"type": "Feature", "geometry": {"type": "Polygon", "coordinates": [[[-97.0710897, 36.2170991], [-97.070924, 36.2171009], [-97.0709197, 36.2168476], [-97.071156, 36.216845], [-97.0711593, 36.2170377], [-97.0710887, 36.2170385], [-97.0710897, 36.2170991]]]}, "properties": {"osm_id": 923131980, "building": "yes", "name": "", "height": null, "height_m": null, "levels": null, "tract_id": "40119011001", "tract_name": "110.01", "tags": {"building": "yes"}}}, {"type": "Feature", "geometry": {"type": "Polygon", "coordinates": [[[-97.0708767, 36.2165003], [-97.0708784, 36.2166941], [-97.0705783, 36.2166958], [-97.0705771, 36.2165587], [-97.0706443, 36.2165583], [-97.0706438, 36.2165016], [-97.0708767, 36.2165003]]]}, "properties": {"osm_id": 923131981, "building": "yes", "name": "", "height": null, "height_m": null, "levels": null, "tract_id": "40119011001", "tract_name": "110.01", "tags": {"building": "yes"}}}, {"type": "Feature", "geometry": {"type": "Polygon", "coordinates": [[[-97.0668162, 36.216699], [-97.066687, 36.2167202], [-97.0666521, 36.2165814], [-97.0667814, 36.2165603], [-97.0668162, 36.216699]]]}, "properties": {"osm_id": 923142496, "building": "yes", "name": "", "height": null, "height_m": null, "levels": null, "tract_id": "40119011001", "tract_name": "110.01", "tags": {"building": "yes"}}}, {"type": "Feature", "geometry": {"type": "Polygon", "coordinates": [[[-97.0643787, 36.2160462], [-97.0641597, 36.2160335], [-97.0641673, 36.2159492], [-97.0643863, 36.2159619], [-97.0643787, 36.2160462]]]}, "properties": {"osm_id": 923144482, "building": "yes", "name": "", "height": null, "height_m": null, "levels": null, "tract_id": "40119011001", "tract_name": "110.01", "tags": {"building": "yes"}}}, {"type": "Feature", "geometry": {"type": "Polygon", "coordinates": [[[-97.0633165, 36.2163395], [-97.0631975, 36.2163406], [-97.0631956, 36.2162079], [-97.0633146, 36.2162068], [-97.0633165, 36.2163395]]]}, "properties": {"osm_id": 923144489, "building": "yes", "name": "", "height": null, "height_m": null, "levels": null, "tract_id": "40119011001", "tract_name": "110.01", "tags": {"building": "yes"}}}, {"type": "Feature", "geometry": {"type": "Polygon", "coordinates": [[[-97.0608272, 36.2157408], [-97.060679, 36.2157419], [-97.0606774, 36.2156011], [-97.0608256, 36.2156], [-97.0608272, 36.2157408]]]}, "properties": {"osm_id": 923144491, "building": "yes", "name": "", "height": null, "height_m": null, "levels": null, "tract_id": "40119011001", "tract_name": "110.01", "tags": {"building": "yes"}}}, {"type": "Feature", "geometry": {"type": "Polygon", "coordinates": [[[-97.0603398, 36.2159132], [-97.0600934, 36.2159511], [-97.0600817, 36.2159014], [-97.0603281, 36.2158636], [-97.0603398, 36.2159132]]]}, "properties": {"osm_id": 923144492, "building": "yes", "name": "", "height": null, "height_m": null, "levels": null, "tract_id": "40119011001", "tract_name": "110.01", "tags": {"building": "yes"}}}, {"type": "Feature", "geometry": {"type": "Polygon", "coordinates": [[[-97.0594171, 36.2163887], [-97.0592249, 36.2163914], [-97.0592224, 36.216279], [-97.0594146, 36.2162763], [-97.0594171, 36.2163887]]]}, "properties": {"osm_id": 923144495, "building": "yes", "name": "", "height": null, "height_m": null, "levels": null, "tract_id": "40119011001", "tract_name": "110.01", "tags": {"building": "yes"}}}, {"type": "Feature", "geometry": {"type": "Polygon", "coordinates": [[[-97.1236709, 36.1519587], [-97.1237808, 36.1519583], [-97.1237796, 36.1517538], [-97.1236696, 36.1517543], [-97.1236709, 36.1519587]]]}, "properties": {"osm_id": 985109848, "building": "yes", "name": "", "height": null, "height_m": null, "levels": null, "tract_id": "40119011001", "tract_name": "110.01", "tags": {"building": "yes"}}}, {"type": "Feature", "geometry": {"type": "Polygon", "coordinates": [[[-97.0540637, 36.2095561], [-97.0538273, 36.2095597], [-97.0538235, 36.2094781], [-97.0538179, 36.2093562], [-97.0540587, 36.2093529], [-97.0540637, 36.2095561]]]}, "properties": {"osm_id": 1016663858, "building": "yes", "name": "Attaboy Boarding Kennels", "height": null, "height_m": null, "levels": null, "tract_id": "40119011001", "tract_name": "110.01", "tags": {"amenity": "animal_boarding", "building": "yes", "name": "Attaboy Boarding Kennels"}}}, {"type": "Feature", "geometry": {"type": "Polygon", "coordinates": [[[-97.1217923, 36.1337526], [-97.1214671, 36.1337531], [-97.1214667, 36.1335963], [-97.1213995, 36.1335964], [-97.1213993, 36.1335207], [-97.1217917, 36.1335201], [-97.1217923, 36.1337526]]]}, "properties": {"osm_id": 1139703152, "building": "yes", "name": "Meditations Weddings & Events", "height": null, "height_m": null, "levels": null, "tract_id": "40119011001", "tract_name": "110.01", "tags": {"addr:city": "Stillwater", "addr:housenumber": "1205", "addr:postcode": "74075", "addr:state": "OK", "addr:street": "North Country Club Road", "amenity": "events_venue", "building": "yes", "name": "Meditations Weddings & Events"}}}, {"type": "Feature", "geometry": {"type": "Polygon", "coordinates": [[[-97.1933185, 36.1001992], [-97.1931349, 36.1000342], [-97.1932111, 36.0999789], [-97.1933947, 36.1001438], [-97.1933185, 36.1001992]]]}, "properties": {"osm_id": 1178726959, "building": "yes", "name": "", "height": null, "height_m": null, "levels": null, "tract_id": "40119011001", "tract_name": "110.01", "tags": {"building": "yes"}}}, {"type": "Feature", "geometry": {"type": "Polygon", "coordinates": [[[-97.1929135, 36.1004764], [-97.1924207, 36.1000402], [-97.192739, 36.0998054], [-97.1931535, 36.1001724], [-97.1929739, 36.1003049], [-97.1930522, 36.1003742], [-97.1929135, 36.1004764]]]}, "properties": {"osm_id": 1178726960, "building": "yes", "name": "", "height": null, "height_m": null, "levels": null, "tract_id": "40119011001", "tract_name": "110.01", "tags": {"building": "yes"}}}, {"type": "Feature", "geometry": {"type": "Polygon", "coordinates": [[[-97.12602, 36.1455831], [-97.1261095, 36.145588], [-97.1261074, 36.145529], [-97.1261034, 36.1454748], [-97.1263595, 36.1454748], [-97.1263615, 36.1455306], [-97.1263575, 36.1455733], [-97.126703, 36.1455651], [-97.126699, 36.1455848], [-97.1268717, 36.1455848], [-97.1268738, 36.1457817], [-97.1267051, 36.1457834], [-97.1267051, 36.1458014], [-97.1264428, 36.1458047], [-97.1264428, 36.1458376], [-97.1263656, 36.1458376], [-97.1263656, 36.146046], [-97.1261908, 36.1460477], [-97.1261887, 36.1458408], [-97.1260221, 36.1458408], [-97.12602, 36.1455831]]]}, "properties": {"osm_id": 1186642981, "building": "yes", "name": "Tumbleweed Dancehall & Concert Venue", "height": null, "height_m": null, "levels": null, "tract_id": "40119011001", "tract_name": "110.01", "tags": {"addr:city": "Stillwater", "addr:postcode": "74075", "addr:state": "OK", "addr:street": "West Lakeview Road", "amenity": "events_venue", "building": "yes", "name": "Tumbleweed Dancehall & Concert Venue"}}}, {"type": "Feature", "geometry": {"type": "Polygon", "coordinates": [[[-97.1497157, 36.1153041], [-97.1497701, 36.1152795], [-97.1498357, 36.115374], [-97.1499495, 36.1153224], [-97.1498594, 36.1151924], [-97.1498144, 36.1152128], [-97.1497952, 36.1151851], [-97.1497304, 36.1152144], [-97.1497133, 36.1151898], [-97.1496548, 36.1152163], [-97.1497157, 36.1153041]]]}, "properties": {"osm_id": 1191698756, "building": "detached", "name": "", "height": null, "height_m": null, "levels": null, "tract_id": "40119011001", "tract_name": "110.01", "tags": {"addr:city": "Stillwater", "addr:country": "US", "addr:full": "6809 W 6TH AVE", "addr:housenumber": "6809", "addr:postcode": "74074", "addr:state": "OK", "addr:street": "West 6th Avenue", "building": "detached", "source": "microsoft/BuildingFootprints"}}}, {"type": "Feature", "geometry": {"type": "Polygon", "coordinates": [[[-97.1508282, 36.1152633], [-97.1508337, 36.1150334], [-97.1504099, 36.1150269], [-97.1504045, 36.1152568], [-97.1508282, 36.1152633]]]}, "properties": {"osm_id": 1191698767, "building": "ruins", "name": "", "height": null, "height_m": null, "levels": null, "tract_id": "40119011001", "tract_name": "110.01", "tags": {"building": "ruins"}}}, {"type": "Feature", "geometry": {"type": "Polygon", "coordinates": [[[-97.0874975, 36.2169787], [-97.0874183, 36.2169276], [-97.0875941, 36.2167628], [-97.0876701, 36.2168216], [-97.0874975, 36.2169787]]]}, "properties": {"osm_id": 1201188386, "building": "static_caravan", "name": "", "height": 4.5, "height_m": 4.5, "levels": 1, "tract_id": "40119011001", "tract_name": "110.01", "tags": {"building": "static_caravan", "building:levels": "1", "height": "4.5"}}}, {"type": "Feature", "geometry": {"type": "Polygon", "coordinates": [[[-97.0873692, 36.2170465], [-97.0873201, 36.2170107], [-97.0873771, 36.2169608], [-97.0874246, 36.2169953], [-97.0873692, 36.2170465]]]}, "properties": {"osm_id": 1201188387, "building": "garage", "name": "", "height": null, "height_m": null, "levels": null, "tract_id": "40119011001", "tract_name": "110.01", "tags": {"building": "garage", "capacity": "2"}}}, {"type": "Feature", "geometry": {"type": "Polygon", "coordinates": [[[-97.0875101, 36.216534], [-97.087564, 36.2164625], [-97.0876242, 36.2164906], [-97.0875703, 36.216566], [-97.0875101, 36.216534]]]}, "properties": {"osm_id": 1201188388, "building": "garage", "name": "", "height": null, "height_m": null, "levels": null, "tract_id": "40119011001", "tract_name": "110.01", "tags": {"building": "garage", "capacity": "2"}}}, {"type": "Feature", "geometry": {"type": "Polygon", "coordinates": [[[-97.0874695, 36.2161299], [-97.0874647, 36.2159019], [-97.0875743, 36.2159011], [-97.0875762, 36.2161307], [-97.0874695, 36.2161299]]]}, "properties": {"osm_id": 1201188390, "building": "static_caravan", "name": "", "height": null, "height_m": null, "levels": null, "tract_id": "40119011001", "tract_name": "110.01", "tags": {"building": "static_caravan"}}}, {"type": "Feature", "geometry": {"type": "Polygon", "coordinates": [[[-97.0875406, 36.2162704], [-97.087508, 36.2162005], [-97.0875964, 36.2161749], [-97.0876301, 36.2162479], [-97.0875406, 36.2162704]]]}, "properties": {"osm_id": 1201188391, "building": "garage", "name": "", "height": null, "height_m": null, "levels": null, "tract_id": "40119011001", "tract_name": "110.01", "tags": {"building": "garage", "capacity": "2"}}}, {"type": "Feature", "geometry": {"type": "Polygon", "coordinates": [[[-97.0845475, 36.2158015], [-97.0845449, 36.2157182], [-97.0847138, 36.2157193], [-97.0847138, 36.2158005], [-97.0845475, 36.2158015]]]}, "properties": {"osm_id": 1201188398, "building": "farm_auxiliary", "name": "", "height": 8.0, "height_m": 8.0, "levels": null, "tract_id": "40119011001", "tract_name": "110.01", "tags": {"building": "farm_auxiliary", "height": "8"}}}, {"type": "Feature", "geometry": {"type": "Polygon", "coordinates": [[[-97.0871807, 36.2141371], [-97.0871796, 36.2140602], [-97.0872699, 36.2140611], [-97.0872707, 36.214035], [-97.0873438, 36.2140357], [-97.087342, 36.214062], [-97.0874453, 36.2140638], [-97.0874442, 36.2141417], [-97.0871807, 36.2141371]]]}, "properties": {"osm_id": 1201188399, "building": "house", "name": "", "height": null, "height_m": null, "levels": null, "tract_id": "40119011001", "tract_name": "110.01", "tags": {"building": "house"}}}, {"type": "Feature", "geometry": {"type": "Polygon", "coordinates": [[[-97.0822197, 36.2074859], [-97.0820851, 36.2073019], [-97.0821326, 36.2072801], [-97.0822672, 36.2074603], [-97.0822197, 36.2074859]]]}, "properties": {"osm_id": 1201188400, "building": "static_caravan", "name": "", "height": null, "height_m": null, "levels": null, "tract_id": "40119011001", "tract_name": "110.01", "tags": {"building": "static_caravan"}}}, {"type": "Feature", "geometry": {"type": "Polygon", "coordinates": [[[-97.0816668, 36.2084957], [-97.0816182, 36.20846], [-97.0817949, 36.2083014], [-97.0818457, 36.2083353], [-97.0816668, 36.2084957]]]}, "properties": {"osm_id": 1201188401, "building": "static_caravan", "name": "", "height": null, "height_m": null, "levels": null, "tract_id": "40119011001", "tract_name": "110.01", "tags": {"building": "static_caravan"}}}, {"type": "Feature", "geometry": {"type": "Polygon", "coordinates": [[[-97.0818811, 36.2081303], [-97.0818236, 36.2081107], [-97.0819297, 36.20792], [-97.0819849, 36.2079413], [-97.0818811, 36.2081303]]]}, "properties": {"osm_id": 1201188402, "building": "static_caravan", "name": "", "height": null, "height_m": null, "levels": null, "tract_id": "40119011001", "tract_name": "110.01", "tags": {"building": "static_caravan"}}}, {"type": "Feature", "geometry": {"type": "Polygon", "coordinates": [[[-97.0821837, 36.2089163], [-97.0820931, 36.2087238], [-97.0821439, 36.2087078], [-97.0822389, 36.2088985], [-97.0821837, 36.2089163]]]}, "properties": {"osm_id": 1201188403, "building": "static_caravan", "name": "", "height": null, "height_m": null, "levels": null, "tract_id": "40119011001", "tract_name": "110.01", "tags": {"building": "static_caravan"}}}, {"type": "Feature", "geometry": {"type": "Polygon", "coordinates": [[[-97.082451, 36.209419], [-97.0822919, 36.2092586], [-97.0823428, 36.2092283], [-97.082504, 36.2093904], [-97.082451, 36.209419]]]}, "properties": {"osm_id": 1201188404, "building": "static_caravan", "name": "", "height": null, "height_m": null, "levels": null, "tract_id": "40119011001", "tract_name": "110.01", "tags": {"building": "static_caravan"}}}, {"type": "Feature", "geometry": {"type": "Polygon", "coordinates": [[[-97.083233, 36.2096507], [-97.0829878, 36.2095919], [-97.0830033, 36.2095491], [-97.0832507, 36.2096026], [-97.083233, 36.2096507]]]}, "properties": {"osm_id": 1201188405, "building": "static_caravan", "name": "", "height": null, "height_m": null, "levels": null, "tract_id": "40119011001", "tract_name": "110.01", "tags": {"building": "static_caravan"}}}, {"type": "Feature", "geometry": {"type": "Polygon", "coordinates": [[[-97.0832463, 36.2090108], [-97.0831866, 36.2090072], [-97.0832175, 36.2087916], [-97.0832816, 36.2087951], [-97.0832463, 36.2090108]]]}, "properties": {"osm_id": 1201188406, "building": "static_caravan", "name": "", "height": null, "height_m": null, "levels": null, "tract_id": "40119011001", "tract_name": "110.01", "tags": {"building": "static_caravan"}}}, {"type": "Feature", "geometry": {"type": "Polygon", "coordinates": [[[-97.0827183, 36.2078611], [-97.0824643, 36.2078059], [-97.0824731, 36.2077649], [-97.0827249, 36.2078219], [-97.0827183, 36.2078611]]]}, "properties": {"osm_id": 1201188407, "building": "static_caravan", "name": "", "height": null, "height_m": null, "levels": null, "tract_id": "40119011001", "tract_name": "110.01", "tags": {"building": "static_caravan"}}}, {"type": "Feature", "geometry": {"type": "Polygon", "coordinates": [[[-97.0832153, 36.2079788], [-97.0829944, 36.2078647], [-97.0830276, 36.2078237], [-97.0832485, 36.2079413], [-97.0832153, 36.2079788]]]}, "properties": {"osm_id": 1201188408, "building": "static_caravan", "name": "", "height": null, "height_m": null, "levels": null, "tract_id": "40119011001", "tract_name": "110.01", "tags": {"building": "static_caravan"}}}, {"type": "Feature", "geometry": {"type": "Polygon", "coordinates": [[[-97.0818871, 36.2063672], [-97.0819158, 36.2061605], [-97.081971, 36.206164], [-97.0819423, 36.2063726], [-97.0818871, 36.2063672]]]}, "properties": {"osm_id": 1201188415, "building": "static_caravan", "name": "", "height": null, "height_m": null, "levels": null, "tract_id": "40119011001", "tract_name": "110.01", "tags": {"building": "static_caravan"}}}, {"type": "Feature", "geometry": {"type": "Polygon", "coordinates": [[[-97.0821323, 36.2056168], [-97.0820704, 36.2056061], [-97.0821544, 36.2054118], [-97.082214, 36.2054243], [-97.0821323, 36.2056168]]]}, "properties": {"osm_id": 1201188416, "building": "static_caravan", "name": "", "height": null, "height_m": null, "levels": null, "tract_id": "40119011001", "tract_name": "110.01", "tags": {"building": "static_caravan"}}}, {"type": "Feature", "geometry": {"type": "Polygon", "coordinates": [[[-97.0802855, 36.2056275], [-97.0802192, 36.2056133], [-97.0802944, 36.2054154], [-97.0803584, 36.2054243], [-97.0802855, 36.2056275]]]}, "properties": {"osm_id": 1201188417, "building": "static_caravan", "name": "", "height": null, "height_m": null, "levels": null, "tract_id": "40119011001", "tract_name": "110.01", "tags": {"building": "static_caravan"}}}, {"type": "Feature", "geometry": {"type": "Polygon", "coordinates": [[[-97.0805639, 36.2052229], [-97.0805042, 36.2052086], [-97.0805904, 36.205009], [-97.0806434, 36.2050233], [-97.0805639, 36.2052229]]]}, "properties": {"osm_id": 1201188418, "building": "static_caravan", "name": "", "height": null, "height_m": null, "levels": null, "tract_id": "40119011001", "tract_name": "110.01", "tags": {"building": "static_caravan"}}}, {"type": "Feature", "geometry": {"type": "Polygon", "coordinates": [[[-97.0807362, 36.2047791], [-97.0806787, 36.2047577], [-97.0807848, 36.2045634], [-97.0808422, 36.2045848], [-97.0807362, 36.2047791]]]}, "properties": {"osm_id": 1201188419, "building": "static_caravan", "name": "", "height": null, "height_m": null, "levels": null, "tract_id": "40119011001", "tract_name": "110.01", "tags": {"building": "static_caravan"}}}, {"type": "Feature", "geometry": {"type": "Polygon", "coordinates": [[[-97.0809504, 36.2043994], [-97.0809018, 36.2043673], [-97.0810653, 36.2042069], [-97.0811117, 36.2042318], [-97.0809504, 36.2043994]]]}, "properties": {"osm_id": 1201188420, "building": "static_caravan", "name": "", "height": null, "height_m": null, "levels": null, "tract_id": "40119011001", "tract_name": "110.01", "tags": {"building": "static_caravan"}}}, {"type": "Feature", "geometry": {"type": "Polygon", "coordinates": [[[-97.0820793, 36.2044368], [-97.0818517, 36.2043388], [-97.0818782, 36.2043031], [-97.0821146, 36.2043994], [-97.0820793, 36.2044368]]]}, "properties": {"osm_id": 1201188421, "building": "static_caravan", "name": "", "height": null, "height_m": null, "levels": null, "tract_id": "40119011001", "tract_name": "110.01", "tags": {"building": "static_caravan"}}}, {"type": "Feature", "geometry": {"type": "Polygon", "coordinates": [[[-97.0822538, 36.2052603], [-97.0821986, 36.2052496], [-97.0822648, 36.2050446], [-97.0823267, 36.2050553], [-97.0822538, 36.2052603]]]}, "properties": {"osm_id": 1201188422, "building": "static_caravan", "name": "", "height": null, "height_m": null, "levels": null, "tract_id": "40119011001", "tract_name": "110.01", "tags": {"building": "static_caravan"}}}, {"type": "Feature", "geometry": {"type": "Polygon", "coordinates": [[[-97.0824636, 36.2047987], [-97.0823046, 36.2046258], [-97.0823598, 36.204599], [-97.08251, 36.2047719], [-97.0824636, 36.2047987]]]}, "properties": {"osm_id": 1201188423, "building": "static_caravan", "name": "", "height": null, "height_m": null, "levels": null, "tract_id": "40119011001", "tract_name": "110.01", "tags": {"building": "static_caravan"}}}, {"type": "Feature", "geometry": {"type": "Polygon", "coordinates": [[[-97.0730526, 36.2036352], [-97.0730521, 36.2035252], [-97.0729408, 36.2035255], [-97.0729413, 36.2036355], [-97.0730526, 36.2036352]]]}, "properties": {"osm_id": 1301770068, "building": "yes", "name": "", "height": null, "height_m": null, "levels": null, "tract_id": "40119011001", "tract_name": "110.01", "tags": {"building": "yes"}}}, {"type": "Feature", "geometry": {"type": "Polygon", "coordinates": [[[-97.0721602, 36.2038004], [-97.0721598, 36.2037199], [-97.0722474, 36.2037196], [-97.0722478, 36.2038], [-97.0721602, 36.2038004]]]}, "properties": {"osm_id": 1301770070, "building": "yes", "name": "", "height": null, "height_m": null, "levels": null, "tract_id": "40119011001", "tract_name": "110.01", "tags": {"building": "yes"}}}, {"type": "Feature", "geometry": {"type": "Polygon", "coordinates": [[[-97.1515659, 36.0871177], [-97.1514374, 36.0871061], [-97.15144, 36.0870869], [-97.1513382, 36.0870777], [-97.1513245, 36.087177], [-97.151389, 36.0871828], [-97.1513841, 36.0872184], [-97.1513295, 36.0872135], [-97.1513209, 36.0872756], [-97.1512972, 36.0872735], [-97.1512512, 36.0873013], [-97.1513433, 36.087401], [-97.1514282, 36.0873497], [-97.1513978, 36.0873168], [-97.1514212, 36.0873027], [-97.1514315, 36.0873057], [-97.1514366, 36.0873149], [-97.151452, 36.0873195], [-97.1514699, 36.0873154], [-97.1514808, 36.0873029], [-97.1514801, 36.0872929], [-97.1514689, 36.0872828], [-97.1514816, 36.0872646], [-97.1515448, 36.0872703], [-97.1515659, 36.0871177]]]}, "properties": {"osm_id": 1424240607, "building": "yes", "name": "", "height": null, "height_m": null, "levels": null, "tract_id": "40119011001", "tract_name": "110.01", "tags": {"addr:city": "Stillwater", "addr:country": "US", "addr:full": "3007 S CHAPEL HILL RD", "addr:housenumber": "3007", "addr:postcode": "74074", "addr:state": "OK", "addr:street": "South Chapel Hill Road", "building": "yes", "source": "microsoft/BuildingFootprints"}}}, {"type": "Feature", "geometry": {"type": "Polygon", "coordinates": [[[-97.1522573, 36.0874236], [-97.1524246, 36.0875222], [-97.1524338, 36.087512], [-97.1524453, 36.0875135], [-97.1524969, 36.0874616], [-97.1524606, 36.087438], [-97.1524714, 36.0874271], [-97.1523752, 36.0873646], [-97.1523085, 36.0873668], [-97.1522573, 36.0874236]]]}, "properties": {"osm_id": 1424240608, "building": "yes", "name": "", "height": null, "height_m": null, "levels": null, "tract_id": "40119011001", "tract_name": "110.01", "tags": {"addr:city": "Stillwater", "addr:country": "US", "addr:full": "3004 S CHAPEL HILL RD", "addr:housenumber": "3004", "addr:postcode": "74074", "addr:state": "OK", "addr:street": "South Chapel Hill Road", "building": "yes", "source": "microsoft/BuildingFootprints"}}}, {"type": "Feature", "geometry": {"type": "Polygon", "coordinates": [[[-97.1514647, 36.0892428], [-97.1514657, 36.0893252], [-97.151506, 36.0893249], [-97.1515062, 36.0893465], [-97.1515599, 36.0893461], [-97.1515606, 36.0894133], [-97.1517511, 36.0894118], [-97.1517502, 36.0893403], [-97.1517234, 36.0893405], [-97.1517222, 36.0892408], [-97.1514647, 36.0892428]]]}, "properties": {"osm_id": 1424240609, "building": "yes", "name": "", "height": null, "height_m": null, "levels": null, "tract_id": "40119011001", "tract_name": "110.01", "tags": {"addr:city": "Stillwater", "addr:country": "US", "addr:full": "6716 W COVENTRY DR", "addr:housenumber": "6716", "addr:postcode": "74074", "addr:state": "OK", "addr:street": "West Coventry Drive", "building": "yes", "source": "microsoft/BuildingFootprints"}}}, {"type": "Feature", "geometry": {"type": "Polygon", "coordinates": [[[-97.1517347, 36.090447], [-97.1516997, 36.0905026], [-97.1518076, 36.090547], [-97.1518987, 36.0904023], [-97.1516346, 36.0902937], [-97.1515786, 36.0903828], [-97.1517347, 36.090447]]]}, "properties": {"osm_id": 1424240610, "building": "yes", "name": "", "height": null, "height_m": null, "levels": null, "tract_id": "40119011001", "tract_name": "110.01", "tags": {"addr:city": "Stillwater", "addr:country": "US", "addr:full": "6719 W DEVONSHIRE RD", "addr:housenumber": "6719", "addr:postcode": "74074", "addr:state": "OK", "addr:street": "West Devonshire Road", "building": "yes", "source": "microsoft/BuildingFootprints"}}}, {"type": "Feature", "geometry": {"type": "Polygon", "coordinates": [[[-97.150805, 36.09019], [-97.150699, 36.090142], [-97.150536, 36.090377], [-97.150642, 36.090425], [-97.150805, 36.09019]]]}, "properties": {"osm_id": 1424240611, "building": "yes", "name": "", "height": null, "height_m": null, "levels": null, "tract_id": "40119011001", "tract_name": "110.01", "tags": {"addr:city": "Stillwater", "addr:country": "US", "addr:full": "6711 W DEVONSHIRE RD", "addr:housenumber": "6711", "addr:postcode": "74074", "addr:state": "OK", "addr:street": "West Devonshire Road", "building": "yes", "source": "microsoft/BuildingFootprints"}}}, {"type": "Feature", "geometry": {"type": "Polygon", "coordinates": [[[-97.1497606, 36.0919883], [-97.1496833, 36.0918344], [-97.1494961, 36.0918958], [-97.1495378, 36.0919789], [-97.1495604, 36.0919715], [-97.1495974, 36.0920454], [-97.1496372, 36.0920323], [-97.149678, 36.0921136], [-97.1498933, 36.0920429], [-97.1498508, 36.0919586], [-97.1497606, 36.0919883]]]}, "properties": {"osm_id": 1424240612, "building": "yes", "name": "", "height": null, "height_m": null, "levels": null, "tract_id": "40119011001", "tract_name": "110.01", "tags": {"addr:city": "Stillwater", "addr:country": "US", "addr:full": "6623 W DEVONSHIRE RD", "addr:housenumber": "6623", "addr:postcode": "74074", "addr:state": "OK", "addr:street": "West Devonshire Road", "building": "yes", "source": "microsoft/BuildingFootprints"}}}, {"type": "Feature", "geometry": {"type": "Polygon", "coordinates": [[[-97.1505319, 36.0931239], [-97.1504657, 36.0930549], [-97.1502434, 36.093194], [-97.1503096, 36.0932631], [-97.1505319, 36.0931239]]]}, "properties": {"osm_id": 1424240613, "building": "yes", "name": "", "height": null, "height_m": null, "levels": null, "tract_id": "40119011001", "tract_name": "110.01", "tags": {"addr:city": "Stillwater", "addr:country": "US", "addr:full": "6620 W DEVONSHIRE RD", "addr:housenumber": "6620", "addr:postcode": "74074", "addr:state": "OK", "addr:street": "West Devonshire Road", "building": "yes", "source": "microsoft/BuildingFootprints"}}}, {"type": "Feature", "geometry": {"type": "Polygon", "coordinates": [[[-97.1494014, 36.0934527], [-97.1496804, 36.093479], [-97.1497023, 36.0933277], [-97.1496358, 36.0933215], [-97.1496403, 36.0932902], [-97.1494277, 36.0932701], [-97.1494014, 36.0934527]]]}, "properties": {"osm_id": 1424240614, "building": "yes", "name": "", "height": null, "height_m": null, "levels": null, "tract_id": "40119011001", "tract_name": "110.01", "tags": {"addr:city": "Stillwater", "addr:country": "US", "addr:full": "6610 W DEVONSHIRE RD", "addr:housenumber": "6610", "addr:postcode": "74074", "addr:state": "OK", "addr:street": "West Devonshire Road", "building": "yes", "source": "microsoft/BuildingFootprints"}}}, {"type": "Feature", "geometry": {"type": "Polygon", "coordinates": [[[-97.1475166, 36.0919991], [-97.1473985, 36.0917901], [-97.1472629, 36.0918401], [-97.1473811, 36.0920492], [-97.1475166, 36.0919991]]]}, "properties": {"osm_id": 1424240615, "building": "yes", "name": "", "height": null, "height_m": null, "levels": null, "tract_id": "40119011001", "tract_name": "110.01", "tags": {"addr:city": "Stillwater", "addr:country": "US", "addr:full": "6420 W CANTERBURY DR", "addr:housenumber": "6420", "addr:postcode": "74074", "addr:state": "OK", "addr:street": "West Cantebury Drive", "building": "yes", "source": "microsoft/BuildingFootprints"}}}, {"type": "Feature", "geometry": {"type": "Polygon", "coordinates": [[[-97.1464093, 36.091708], [-97.1464646, 36.091567], [-97.1463349, 36.0915338], [-97.1463298, 36.0915469], [-97.1462125, 36.0915169], [-97.1461885, 36.0915783], [-97.1462483, 36.0915937], [-97.1462325, 36.091634], [-97.1463149, 36.091655], [-97.1463046, 36.0916812], [-97.1464093, 36.091708]]]}, "properties": {"osm_id": 1424240616, "building": "yes", "name": "", "height": null, "height_m": null, "levels": null, "tract_id": "40119011001", "tract_name": "110.01", "tags": {"addr:city": "Stillwater", "addr:country": "US", "addr:full": "6324 W CANTERBURY DR", "addr:housenumber": "6324", "addr:postcode": "74074", "addr:state": "OK", "addr:street": "West Cantebury Drive", "building": "yes", "source": "microsoft/BuildingFootprints"}}}, {"type": "Feature", "geometry": {"type": "Polygon", "coordinates": [[[-97.145442, 36.091744], [-97.145451, 36.091668], [-97.145262, 36.091653], [-97.145259, 36.091682], [-97.145089, 36.091669], [-97.145079, 36.091746], [-97.145149, 36.091751], [-97.145144, 36.091786], [-97.145216, 36.091791], [-97.14522, 36.091763], [-97.145352, 36.091774], [-97.145357, 36.091737], [-97.145442, 36.091744]]]}, "properties": {"osm_id": 1424240617, "building": "yes", "name": "", "height": null, "height_m": null, "levels": null, "tract_id": "40119011001", "tract_name": "110.01", "tags": {"addr:city": "Stillwater", "addr:country": "US", "addr:full": "6310 W CANTERBURY DR", "addr:housenumber": "6310", "addr:postcode": "74074", "addr:state": "OK", "addr:street": "West Cantebury Drive", "building": "yes", "source": "microsoft/BuildingFootprints"}}}, {"type": "Feature", "geometry": {"type": "Polygon", "coordinates": [[[-97.1446278, 36.0918194], [-97.144845, 36.0918425], [-97.1448618, 36.0917399], [-97.1445477, 36.0917064], [-97.144523, 36.0918577], [-97.1446198, 36.091868], [-97.1446278, 36.0918194]]]}, "properties": {"osm_id": 1424240618, "building": "yes", "name": "", "height": null, "height_m": null, "levels": null, "tract_id": "40119011001", "tract_name": "110.01", "tags": {"addr:city": "Stillwater", "addr:country": "US", "addr:full": "6220 W CANTERBURY DR", "addr:housenumber": "6220", "addr:postcode": "74074", "addr:state": "OK", "addr:street": "West Cantebury Drive", "building": "yes", "source": "microsoft/BuildingFootprints"}}}, {"type": "Feature", "geometry": {"type": "Polygon", "coordinates": [[[-97.1435395, 36.0917275], [-97.143514, 36.0918426], [-97.1437958, 36.0918835], [-97.1438148, 36.0917979], [-97.1437939, 36.091795], [-97.1438124, 36.0917117], [-97.1437158, 36.0916978], [-97.1436959, 36.0917873], [-97.1436203, 36.0917763], [-97.1436282, 36.0917404], [-97.1435395, 36.0917275]]]}, "properties": {"osm_id": 1424240619, "building": "yes", "name": "", "height": null, "height_m": null, "levels": null, "tract_id": "40119011001", "tract_name": "110.01", "tags": {"addr:city": "Stillwater", "addr:country": "US", "addr:full": "6212 W CANTERBURY DR", "addr:housenumber": "6212", "addr:postcode": "74074", "addr:state": "OK", "addr:street": "West Cantebury Drive", "building": "yes", "source": "microsoft/BuildingFootprints"}}}, {"type": "Feature", "geometry": {"type": "Polygon", "coordinates": [[[-97.1421973, 36.0908414], [-97.1421161, 36.0909391], [-97.1421023, 36.0909317], [-97.142001, 36.0910537], [-97.1421322, 36.0911248], [-97.1422575, 36.090974], [-97.1422753, 36.0909836], [-97.1423325, 36.0909147], [-97.1421973, 36.0908414]]]}, "properties": {"osm_id": 1424240620, "building": "yes", "name": "", "height": null, "height_m": null, "levels": null, "tract_id": "40119011001", "tract_name": "110.01", "tags": {"addr:city": "Stillwater", "addr:country": "US", "addr:full": "6114 W CANTERBURY DR", "addr:housenumber": "6114", "addr:postcode": "74074", "addr:state": "OK", "addr:street": "West Cantebury Drive", "building": "yes", "source": "microsoft/BuildingFootprints"}}}, {"type": "Feature", "geometry": {"type": "Polygon", "coordinates": [[[-97.1427299, 36.0890533], [-97.1428363, 36.0892897], [-97.1428243, 36.0892931], [-97.142856, 36.0893634], [-97.1430154, 36.0893166], [-97.1429146, 36.0890926], [-97.142949, 36.0890824], [-97.1429205, 36.089019], [-97.1428385, 36.0890431], [-97.1428299, 36.0890239], [-97.1427299, 36.0890533]]]}, "properties": {"osm_id": 1424240621, "building": "yes", "name": "", "height": null, "height_m": null, "levels": null, "tract_id": "40119011001", "tract_name": "110.01", "tags": {"addr:city": "Stillwater", "addr:country": "US", "addr:full": "2921 S CHARRING CROSS ST", "addr:housenumber": "2921", "addr:postcode": "74074", "addr:state": "OK", "addr:street": "South Charring Cross Street", "building": "yes", "source": "microsoft/BuildingFootprints"}}}, {"type": "Feature", "geometry": {"type": "Polygon", "coordinates": [[[-97.1491252, 36.0953194], [-97.1489765, 36.0954336], [-97.1489337, 36.0953972], [-97.1488275, 36.0954789], [-97.1488952, 36.0955364], [-97.1489712, 36.0954779], [-97.1490396, 36.095536], [-97.1489748, 36.0955857], [-97.149041, 36.095642], [-97.1491269, 36.095576], [-97.1490995, 36.0955527], [-97.1492085, 36.0954689], [-97.1491737, 36.0954393], [-97.1492224, 36.0954019], [-97.1491252, 36.0953194]]]}, "properties": {"osm_id": 1424240623, "building": "yes", "name": "", "height": null, "height_m": null, "levels": null, "tract_id": "40119011001", "tract_name": "110.01", "tags": {"addr:city": "Stillwater", "addr:country": "US", "addr:full": "6718 W KENSLOW DR", "addr:housenumber": "6718", "addr:postcode": "74074", "addr:state": "OK", "addr:street": "West Kenslow Drive", "building": "yes", "source": "microsoft/BuildingFootprints"}}}, {"type": "Feature", "geometry": {"type": "Polygon", "coordinates": [[[-97.1486359, 36.0957011], [-97.148638, 36.0957227], [-97.1486888, 36.0957193], [-97.1486691, 36.095523], [-97.1485008, 36.095534], [-97.1485054, 36.0955793], [-97.1483986, 36.0955863], [-97.1484116, 36.0957157], [-97.1486359, 36.0957011]]]}, "properties": {"osm_id": 1424240624, "building": "yes", "name": "", "height": null, "height_m": null, "levels": null, "tract_id": "40119011001", "tract_name": "110.01", "tags": {"addr:city": "Stillwater", "addr:country": "US", "addr:full": "6710 W KENSLOW DR", "addr:housenumber": "6710", "addr:postcode": "74074", "addr:state": "OK", "addr:street": "West Kenslow Drive", "building": "yes", "source": "microsoft/BuildingFootprints"}}}, {"type": "Feature", "geometry": {"type": "Polygon", "coordinates": [[[-97.1484577, 36.0947345], [-97.1481439, 36.0949177], [-97.1481791, 36.0949571], [-97.1481363, 36.0949821], [-97.1482236, 36.0950799], [-97.1483104, 36.0950292], [-97.1483221, 36.0950423], [-97.1484, 36.0949969], [-97.1484136, 36.0950121], [-97.1484959, 36.0949641], [-97.148447, 36.0949094], [-97.1485568, 36.0948454], [-97.1484577, 36.0947345]]]}, "properties": {"osm_id": 1424240625, "building": "yes", "name": "", "height": null, "height_m": null, "levels": null, "tract_id": "40119011001", "tract_name": "110.01", "tags": {"addr:city": "Stillwater", "addr:country": "US", "addr:full": "6705 W KENSLOW DR", "addr:housenumber": "6705", "addr:postcode": "74074", "addr:state": "OK", "addr:street": "West Kenslow Drive", "building": "yes", "source": "microsoft/BuildingFootprints"}}}, {"type": "Feature", "geometry": {"type": "Polygon", "coordinates": [[[-97.1474866, 36.0954837], [-97.1474828, 36.0955497], [-97.1474196, 36.0955473], [-97.1474118, 36.0956793], [-97.1476785, 36.0956896], [-97.1476876, 36.095535], [-97.1475789, 36.0955307], [-97.1475815, 36.0954874], [-97.1474866, 36.0954837]]]}, "properties": {"osm_id": 1424240626, "building": "yes", "name": "", "height": null, "height_m": null, "levels": null, "tract_id": "40119011001", "tract_name": "110.01", "tags": {"addr:city": "Stillwater", "addr:country": "US", "addr:full": "6618 W KENSLOW DR", "addr:housenumber": "6618", "addr:postcode": "74074", "addr:state": "OK", "addr:street": "West Kenslow Drive", "building": "yes", "source": "microsoft/BuildingFootprints"}}}, {"type": "Feature", "geometry": {"type": "Polygon", "coordinates": [[[-97.1469982, 36.0956275], [-97.1470917, 36.0956319], [-97.1470951, 36.0955757], [-97.1472905, 36.0955834], [-97.1472975, 36.0954677], [-97.1471905, 36.0954635], [-97.1471911, 36.0954527], [-97.1470866, 36.0954516], [-97.1470091, 36.0953853], [-97.1469319, 36.0954443], [-97.1470078, 36.0955106], [-97.1469982, 36.0956275]]]}, "properties": {"osm_id": 1424240627, "building": "yes", "name": "", "height": null, "height_m": null, "levels": null, "tract_id": "40119011001", "tract_name": "110.01", "tags": {"addr:city": "Stillwater", "addr:country": "US", "addr:full": "6610 W KENSLOW DR", "addr:housenumber": "6610", "addr:postcode": "74074", "addr:state": "OK", "addr:street": "West Kenslow Drive", "building": "yes", "source": "microsoft/BuildingFootprints"}}}, {"type": "Feature", "geometry": {"type": "Polygon", "coordinates": [[[-97.1466881, 36.0956799], [-97.1466581, 36.0957568], [-97.1467923, 36.0957909], [-97.1468223, 36.095714], [-97.1466881, 36.0956799]]]}, "properties": {"osm_id": 1424240628, "building": "yes", "name": "", "height": null, "height_m": null, "levels": null, "tract_id": "40119011001", "tract_name": "110.01", "tags": {"building": "yes", "source": "microsoft/BuildingFootprints"}}}, {"type": "Feature", "geometry": {"type": "Polygon", "coordinates": [[[-97.1465686, 36.0955776], [-97.1465329, 36.0956571], [-97.1466206, 36.0956828], [-97.1466563, 36.0956033], [-97.1465686, 36.0955776]]]}, "properties": {"osm_id": 1424240629, "building": "yes", "name": "", "height": null, "height_m": null, "levels": null, "tract_id": "40119011001", "tract_name": "110.01", "tags": {"building": "yes", "source": "microsoft/BuildingFootprints"}}}, {"type": "Feature", "geometry": {"type": "Polygon", "coordinates": [[[-97.1463893, 36.095444], [-97.1465256, 36.0954933], [-97.1465396, 36.095468], [-97.1466245, 36.0954988], [-97.1466865, 36.0953869], [-97.1466588, 36.0953768], [-97.1467058, 36.095292], [-97.1466241, 36.0952624], [-97.1466031, 36.0953003], [-97.1464914, 36.0952599], [-97.1463893, 36.095444]]]}, "properties": {"osm_id": 1424240630, "building": "yes", "name": "", "height": null, "height_m": null, "levels": null, "tract_id": "40119011001", "tract_name": "110.01", "tags": {"addr:city": "Stillwater", "addr:country": "US", "addr:full": "6524 W KENSLOW DR", "addr:housenumber": "6524", "addr:postcode": "74074", "addr:state": "OK", "addr:street": "West Kenslow Drive", "building": "yes", "source": "microsoft/BuildingFootprints"}}}, {"type": "Feature", "geometry": {"type": "Polygon", "coordinates": [[[-97.1457886, 36.0950725], [-97.1457928, 36.0949295], [-97.1456668, 36.0949271], [-97.1456674, 36.0949077], [-97.1455548, 36.0949055], [-97.14555, 36.095068], [-97.1457886, 36.0950725]]]}, "properties": {"osm_id": 1424240631, "building": "yes", "name": "", "height": null, "height_m": null, "levels": null, "tract_id": "40119011001", "tract_name": "110.01", "tags": {"addr:city": "Stillwater", "addr:country": "US", "addr:full": "6512 W KENSLOW DR", "addr:housenumber": "6512", "addr:postcode": "74074", "addr:state": "OK", "addr:street": "West Kenslow Drive", "building": "yes", "source": "microsoft/BuildingFootprints"}}}, {"type": "Feature", "geometry": {"type": "Polygon", "coordinates": [[[-97.1451482, 36.0949003], [-97.1450507, 36.094911], [-97.1450572, 36.0949493], [-97.1449993, 36.0949557], [-97.1450047, 36.0949876], [-97.1449573, 36.0949929], [-97.1449541, 36.0949737], [-97.1448803, 36.0949819], [-97.1449047, 36.0951256], [-97.1450468, 36.0951098], [-97.1450477, 36.0951151], [-97.1452505, 36.0950927], [-97.1452368, 36.0950118], [-97.1451683, 36.0950194], [-97.1451482, 36.0949003]]]}, "properties": {"osm_id": 1424240632, "building": "yes", "name": "", "height": null, "height_m": null, "levels": null, "tract_id": "40119011001", "tract_name": "110.01", "tags": {"addr:city": "Stillwater", "addr:country": "US", "addr:full": "6500 W KENSLOW DR", "addr:housenumber": "6500", "addr:postcode": "74074", "addr:state": "OK", "addr:street": "West Kenslow Drive", "building": "yes", "source": "microsoft/BuildingFootprints"}}}, {"type": "Feature", "geometry": {"type": "Polygon", "coordinates": [[[-97.1439502, 36.0952448], [-97.1437165, 36.0953016], [-97.1437469, 36.0953831], [-97.1438109, 36.0953676], [-97.1438417, 36.0954502], [-97.143764, 36.0954691], [-97.1437907, 36.0955406], [-97.1439544, 36.0955007], [-97.1439384, 36.0954579], [-97.144022, 36.0954375], [-97.1439502, 36.0952448]]]}, "properties": {"osm_id": 1424242958, "building": "yes", "name": "", "height": null, "height_m": null, "levels": null, "tract_id": "40119011001", "tract_name": "110.01", "tags": {"addr:city": "Stillwater", "addr:country": "US", "addr:full": "6410 W KENSLOW DR", "addr:housenumber": "6410", "addr:postcode": "74074", "addr:state": "OK", "addr:street": "West Kenslow Drive", "building": "yes", "source": "microsoft/BuildingFootprints"}}}, {"type": "Feature", "geometry": {"type": "Polygon", "coordinates": [[[-97.1433536, 36.0955042], [-97.1434223, 36.0954981], [-97.1434262, 36.0955273], [-97.1434985, 36.0955209], [-97.1434959, 36.0955013], [-97.1435539, 36.0954962], [-97.1435454, 36.0954328], [-97.143583, 36.0954295], [-97.1435727, 36.0953527], [-97.1435239, 36.095357], [-97.1435149, 36.0952903], [-97.1434147, 36.0952992], [-97.1434166, 36.0953132], [-97.1433288, 36.095321], [-97.1433536, 36.0955042]]]}, "properties": {"osm_id": 1424242959, "building": "yes", "name": "", "height": null, "height_m": null, "levels": null, "tract_id": "40119011001", "tract_name": "110.01", "tags": {"addr:city": "Stillwater", "addr:country": "US", "addr:full": "6402 W KENSLOW DR", "addr:housenumber": "6402", "addr:postcode": "74074", "addr:state": "OK", "addr:street": "West Kenslow Drive", "building": "yes", "source": "microsoft/BuildingFootprints"}}}, {"type": "Feature", "geometry": {"type": "Polygon", "coordinates": [[[-97.1428936, 36.0955695], [-97.1430527, 36.0955595], [-97.1430483, 36.0955142], [-97.1431429, 36.0955082], [-97.1431385, 36.0954629], [-97.1431839, 36.0954601], [-97.1431732, 36.0953487], [-97.1431091, 36.0953528], [-97.1431102, 36.0953648], [-97.1429126, 36.0953773], [-97.1429223, 36.0954774], [-97.1428849, 36.0954798], [-97.1428936, 36.0955695]]]}, "properties": {"osm_id": 1424242960, "building": "yes", "name": "", "height": null, "height_m": null, "levels": null, "tract_id": "40119011001", "tract_name": "110.01", "tags": {"addr:city": "Stillwater", "addr:country": "US", "addr:full": "6320 W KENSLOW DR", "addr:housenumber": "6320", "addr:postcode": "74074", "addr:state": "OK", "addr:street": "West Kenslow Drive", "building": "yes", "source": "microsoft/BuildingFootprints"}}}, {"type": "Feature", "geometry": {"type": "Polygon", "coordinates": [[[-97.1427768, 36.0954351], [-97.1425149, 36.0954527], [-97.1425237, 36.0955378], [-97.1424756, 36.095541], [-97.1424829, 36.0956123], [-97.1427021, 36.0955975], [-97.1427035, 36.0956118], [-97.1427944, 36.0956057], [-97.1427768, 36.0954351]]]}, "properties": {"osm_id": 1424242961, "building": "yes", "name": "", "height": null, "height_m": null, "levels": null, "tract_id": "40119011001", "tract_name": "110.01", "tags": {"addr:city": "Stillwater", "addr:country": "US", "addr:full": "6312 W KENSLOW DR", "addr:housenumber": "6312", "addr:postcode": "74074", "addr:state": "OK", "addr:street": "West Kenslow Drive", "building": "yes", "source": "microsoft/BuildingFootprints"}}}, {"type": "Feature", "geometry": {"type": "Polygon", "coordinates": [[[-97.1421011, 36.0956864], [-97.1423194, 36.0956826], [-97.142315, 36.095518], [-97.1422105, 36.0955198], [-97.1422092, 36.095473], [-97.14211, 36.0954747], [-97.1421119, 36.0955453], [-97.1420556, 36.0955463], [-97.1420577, 36.0956243], [-97.1420994, 36.0956236], [-97.1421011, 36.0956864]]]}, "properties": {"osm_id": 1424242962, "building": "yes", "name": "", "height": null, "height_m": null, "levels": null, "tract_id": "40119011001", "tract_name": "110.01", "tags": {"addr:city": "Stillwater", "addr:country": "US", "addr:full": "6304 W KENSLOW DR", "addr:housenumber": "6304", "addr:postcode": "74074", "addr:state": "OK", "addr:street": "West Kenslow Drive", "building": "yes", "source": "microsoft/BuildingFootprints"}}}, {"type": "Feature", "geometry": {"type": "Polygon", "coordinates": [[[-97.1416467, 36.0957171], [-97.1417153, 36.0957157], [-97.1417147, 36.0956941], [-97.1419157, 36.0956903], [-97.1419136, 36.0956188], [-97.1418707, 36.0956195], [-97.1418699, 36.0955906], [-97.1418404, 36.0955911], [-97.1418376, 36.0954945], [-97.1417491, 36.0954962], [-97.1417509, 36.095559], [-97.1416422, 36.095561], [-97.1416467, 36.0957171]]]}, "properties": {"osm_id": 1424242963, "building": "yes", "name": "", "height": null, "height_m": null, "levels": null, "tract_id": "40119011001", "tract_name": "110.01", "tags": {"addr:city": "Stillwater", "addr:country": "US", "addr:full": "6222 W KENSLOW DR", "addr:housenumber": "6222", "addr:postcode": "74074", "addr:state": "OK", "addr:street": "West Kenslow Drive", "building": "yes", "source": "microsoft/BuildingFootprints"}}}, {"type": "Feature", "geometry": {"type": "Polygon", "coordinates": [[[-97.1412892, 36.0955648], [-97.1411427, 36.0955935], [-97.1410252, 36.0955344], [-97.1410128, 36.0955505], [-97.1409694, 36.0955286], [-97.1409071, 36.0956095], [-97.140986, 36.0956492], [-97.1409479, 36.0956986], [-97.1410228, 36.0957363], [-97.1410422, 36.0957111], [-97.1411152, 36.0957478], [-97.1411705, 36.0956761], [-97.1413141, 36.0956479], [-97.1412892, 36.0955648]]]}, "properties": {"osm_id": 1424242964, "building": "yes", "name": "", "height": null, "height_m": null, "levels": null, "tract_id": "40119011001", "tract_name": "110.01", "tags": {"addr:city": "Stillwater", "addr:country": "US", "addr:full": "6206 W KENSLOW DR", "addr:housenumber": "6206", "addr:postcode": "74074", "addr:state": "OK", "addr:street": "West Kenslow Drive", "building": "yes", "source": "microsoft/BuildingFootprints"}}}, {"type": "Feature", "geometry": {"type": "Polygon", "coordinates": [[[-97.1411021, 36.0949244], [-97.1410469, 36.0948675], [-97.1409869, 36.0949054], [-97.1408851, 36.0948911], [-97.1408477, 36.0950654], [-97.1408013, 36.095059], [-97.1407878, 36.0951221], [-97.141, 36.0951518], [-97.1410298, 36.0950127], [-97.1410025, 36.0950089], [-97.1410078, 36.0949841], [-97.1411021, 36.0949244]]]}, "properties": {"osm_id": 1424242965, "building": "yes", "name": "", "height": null, "height_m": null, "levels": null, "tract_id": "40119011001", "tract_name": "110.01", "tags": {"addr:city": "Stillwater", "addr:country": "US", "addr:full": "2505 S DURHAM CT", "addr:housenumber": "2505", "addr:postcode": "74074", "addr:state": "OK", "addr:street": "South Durham Court", "building": "yes", "source": "microsoft/BuildingFootprints"}}}, {"type": "Feature", "geometry": {"type": "Polygon", "coordinates": [[[-97.1407361, 36.094734], [-97.1407376, 36.0947911], [-97.1410577, 36.0947859], [-97.1410524, 36.0945771], [-97.140833, 36.0945801], [-97.1408332, 36.0947325], [-97.1407361, 36.094734]]]}, "properties": {"osm_id": 1424242966, "building": "yes", "name": "", "height": null, "height_m": null, "levels": null, "tract_id": "40119011001", "tract_name": "110.01", "tags": {"addr:city": "Stillwater", "addr:country": "US", "addr:full": "2513 S DURHAM CT", "addr:housenumber": "2513", "addr:postcode": "74074", "addr:state": "OK", "addr:street": "South Durham Court", "building": "yes", "source": "microsoft/BuildingFootprints"}}}, {"type": "Feature", "geometry": {"type": "Polygon", "coordinates": [[[-97.140946, 36.0945624], [-97.1408352, 36.0945624], [-97.1408352, 36.0945121], [-97.140946, 36.0945121], [-97.140946, 36.0945624]]]}, "properties": {"osm_id": 1424242967, "building": "yes", "name": "", "height": null, "height_m": null, "levels": null, "tract_id": "40119011001", "tract_name": "110.01", "tags": {"building": "yes"}}}, {"type": "Feature", "geometry": {"type": "Polygon", "coordinates": [[[-97.1409174, 36.094166], [-97.1408607, 36.0943127], [-97.1409008, 36.0943228], [-97.1408869, 36.0943588], [-97.1410304, 36.094395], [-97.1410768, 36.0942748], [-97.1412005, 36.0942205], [-97.1411521, 36.0941484], [-97.1410409, 36.0941972], [-97.1409174, 36.094166]]]}, "properties": {"osm_id": 1424242968, "building": "yes", "name": "", "height": null, "height_m": null, "levels": null, "tract_id": "40119011001", "tract_name": "110.01", "tags": {"addr:city": "Stillwater", "addr:country": "US", "addr:full": "2521 S DURHAM CT", "addr:housenumber": "2521", "addr:postcode": "74074", "addr:state": "OK", "addr:street": "South Durham Court", "building": "yes", "source": "microsoft/BuildingFootprints"}}}, {"type": "Feature", "geometry": {"type": "Polygon", "coordinates": [[[-97.1415922, 36.0943391], [-97.1416804, 36.0942992], [-97.1417274, 36.094367], [-97.1417945, 36.0943365], [-97.1417475, 36.0942688], [-97.1418733, 36.0942117], [-97.1418274, 36.0941457], [-97.1417729, 36.0941703], [-97.1417188, 36.0940925], [-97.1416475, 36.0941248], [-97.1416345, 36.0941061], [-97.1414793, 36.0941765], [-97.1415922, 36.0943391]]]}, "properties": {"osm_id": 1424242969, "building": "yes", "name": "", "height": null, "height_m": null, "levels": null, "tract_id": "40119011001", "tract_name": "110.01", "tags": {"addr:city": "Stillwater", "addr:country": "US", "addr:full": "2520 S DURHAM CT", "addr:housenumber": "2520", "addr:postcode": "74074", "addr:state": "OK", "addr:street": "South Durham Court", "building": "yes", "source": "microsoft/BuildingFootprints"}}}, {"type": "Feature", "geometry": {"type": "Polygon", "coordinates": [[[-97.1415944, 36.0945178], [-97.1415951, 36.094572], [-97.1415281, 36.0945726], [-97.1415291, 36.0946463], [-97.1415801, 36.0946458], [-97.1415814, 36.0947455], [-97.1417424, 36.0947441], [-97.1417417, 36.0946986], [-97.1417632, 36.0946984], [-97.1417611, 36.094551], [-97.1416968, 36.0945516], [-97.1416963, 36.0945169], [-97.1415944, 36.0945178]]]}, "properties": {"osm_id": 1424242970, "building": "yes", "name": "", "height": null, "height_m": null, "levels": null, "tract_id": "40119011001", "tract_name": "110.01", "tags": {"addr:city": "Stillwater", "addr:country": "US", "addr:full": "2512 S DURHAM CT", "addr:housenumber": "2512", "addr:postcode": "74074", "addr:state": "OK", "addr:street": "South Durham Court", "building": "yes", "source": "microsoft/BuildingFootprints"}}}, {"type": "Feature", "geometry": {"type": "Polygon", "coordinates": [[[-97.1415744, 36.0949397], [-97.1415744, 36.0951673], [-97.1417514, 36.0951673], [-97.1417514, 36.0950047], [-97.1417809, 36.0950047], [-97.1417809, 36.0949397], [-97.1415744, 36.0949397]]]}, "properties": {"osm_id": 1424242971, "building": "yes", "name": "", "height": null, "height_m": null, "levels": null, "tract_id": "40119011001", "tract_name": "110.01", "tags": {"addr:city": "Stillwater", "addr:country": "US", "addr:full": "2504 S DURHAM CT", "addr:housenumber": "2504", "addr:postcode": "74074", "addr:state": "OK", "addr:street": "South Durham Court", "building": "yes", "source": "microsoft/BuildingFootprints"}}}, {"type": "Feature", "geometry": {"type": "Polygon", "coordinates": [[[-97.1424933, 36.0949257], [-97.1422332, 36.0949268], [-97.1422342, 36.0950936], [-97.1424101, 36.0950929], [-97.1424096, 36.0950084], [-97.1424939, 36.0950081], [-97.1424933, 36.0949257]]]}, "properties": {"osm_id": 1424242972, "building": "yes", "name": "", "height": null, "height_m": null, "levels": null, "tract_id": "40119011001", "tract_name": "110.01", "tags": {"addr:city": "Stillwater", "addr:country": "US", "addr:full": "2507 S ASHFORD CT", "addr:housenumber": "2507", "addr:postcode": "74074", "addr:state": "OK", "addr:street": "South Ashford Court", "building": "yes", "source": "microsoft/BuildingFootprints"}}}, {"type": "Feature", "geometry": {"type": "Polygon", "coordinates": [[[-97.1422891, 36.0947329], [-97.1424511, 36.0947319], [-97.1424502, 36.0946317], [-97.1425067, 36.0946313], [-97.1425061, 36.0945639], [-97.1424098, 36.0945645], [-97.1424096, 36.0945428], [-97.1422669, 36.0945437], [-97.1422674, 36.094594], [-97.1422956, 36.0945938], [-97.1422959, 36.0946291], [-97.1422694, 36.0946292], [-97.14227, 36.094693], [-97.1422887, 36.0946929], [-97.1422891, 36.0947329]]]}, "properties": {"osm_id": 1424242973, "building": "yes", "name": "", "height": null, "height_m": null, "levels": null, "tract_id": "40119011001", "tract_name": "110.01", "tags": {"addr:city": "Stillwater", "addr:country": "US", "addr:full": "2515 S ASHFORD CT", "addr:housenumber": "2515", "addr:postcode": "74074", "addr:state": "OK", "addr:street": "South Ashford Court", "building": "yes", "source": "microsoft/BuildingFootprints"}}}, {"type": "Feature", "geometry": {"type": "Polygon", "coordinates": [[[-97.1422373, 36.0943388], [-97.1423897, 36.094352], [-97.1424018, 36.0942609], [-97.1424283, 36.0942632], [-97.142432, 36.0942355], [-97.1425668, 36.0942172], [-97.1425503, 36.0941379], [-97.1424383, 36.0941531], [-97.1422482, 36.0941368], [-97.1422396, 36.0942025], [-97.1422275, 36.0942015], [-97.1422177, 36.094275], [-97.1422455, 36.0942774], [-97.1422373, 36.0943388]]]}, "properties": {"osm_id": 1424242974, "building": "yes", "name": "", "height": null, "height_m": null, "levels": null, "tract_id": "40119011001", "tract_name": "110.01", "tags": {"addr:city": "Stillwater", "addr:country": "US", "addr:full": "2523 S ASHFORD CT", "addr:housenumber": "2523", "addr:postcode": "74074", "addr:state": "OK", "addr:street": "South Ashford Court", "building": "yes", "source": "microsoft/BuildingFootprints"}}}, {"type": "Feature", "geometry": {"type": "Polygon", "coordinates": [[[-97.1432529, 36.0942455], [-97.1432496, 36.0941762], [-97.1432388, 36.0941766], [-97.1432344, 36.0940847], [-97.1429825, 36.0940928], [-97.1429872, 36.0941902], [-97.1430515, 36.0941882], [-97.1430566, 36.094293], [-97.1431933, 36.0942886], [-97.1431913, 36.0942475], [-97.1432529, 36.0942455]]]}, "properties": {"osm_id": 1424242975, "building": "yes", "name": "", "height": null, "height_m": null, "levels": null, "tract_id": "40119011001", "tract_name": "110.01", "tags": {"addr:city": "Stillwater", "addr:country": "US", "addr:full": "2522 S ASHFORD CT", "addr:housenumber": "2522", "addr:postcode": "74074", "addr:state": "OK", "addr:street": "South Ashford Court", "building": "yes", "source": "microsoft/BuildingFootprints"}}}, {"type": "Feature", "geometry": {"type": "Polygon", "coordinates": [[[-97.1432661, 36.0944437], [-97.1431534, 36.0944441], [-97.1431537, 36.0944939], [-97.1430544, 36.0944943], [-97.1430554, 36.0946633], [-97.1432334, 36.0946627], [-97.1432332, 36.0946172], [-97.143267, 36.094617], [-97.1432661, 36.0944437]]]}, "properties": {"osm_id": 1424242976, "building": "yes", "name": "", "height": null, "height_m": null, "levels": null, "tract_id": "40119011001", "tract_name": "110.01", "tags": {"addr:city": "Stillwater", "addr:country": "US", "addr:full": "2514 S ASHFORD CT", "addr:housenumber": "2514", "addr:postcode": "74074", "addr:state": "OK", "addr:street": "South Ashford Court", "building": "yes", "source": "microsoft/BuildingFootprints"}}}, {"type": "Feature", "geometry": {"type": "Polygon", "coordinates": [[[-97.1430075, 36.0948282], [-97.143007, 36.09493], [-97.1430887, 36.0949303], [-97.1431851, 36.0950006], [-97.1431995, 36.0949877], [-97.1432155, 36.0949944], [-97.143326, 36.0949052], [-97.1432862, 36.094873], [-97.1433054, 36.0948575], [-97.1432618, 36.0948223], [-97.143242, 36.0948383], [-97.1431597, 36.0947717], [-97.1430893, 36.0948285], [-97.1430075, 36.0948282]]]}, "properties": {"osm_id": 1424242977, "building": "yes", "name": "", "height": null, "height_m": null, "levels": null, "tract_id": "40119011001", "tract_name": "110.01", "tags": {"addr:city": "Stillwater", "addr:country": "US", "addr:full": "2506 S ASHFORD CT", "addr:housenumber": "2506", "addr:postcode": "74074", "addr:state": "OK", "addr:street": "South Ashford Court", "building": "yes", "source": "microsoft/BuildingFootprints"}}}, {"type": "Feature", "geometry": {"type": "Polygon", "coordinates": [[[-97.1436695, 36.0947815], [-97.1437526, 36.0947825], [-97.1437547, 36.0946742], [-97.1438486, 36.0946754], [-97.1438513, 36.0945336], [-97.1436743, 36.0945314], [-97.1436695, 36.0947815]]]}, "properties": {"osm_id": 1424242978, "building": "yes", "name": "", "height": null, "height_m": null, "levels": null, "tract_id": "40119011001", "tract_name": "110.01", "tags": {"addr:city": "Stillwater", "addr:country": "US", "addr:full": "6415 W KENSLOW DR", "addr:housenumber": "6415", "addr:postcode": "74074", "addr:state": "OK", "addr:street": "West Kenslow Drive", "building": "yes", "source": "microsoft/BuildingFootprints"}}}, {"type": "Feature", "geometry": {"type": "Polygon", "coordinates": [[[-97.1447397, 36.0942837], [-97.1445022, 36.0942997], [-97.1445173, 36.0944464], [-97.1446107, 36.0944401], [-97.1446085, 36.0944186], [-97.1446619, 36.0944149], [-97.1446691, 36.094484], [-97.1447598, 36.0944779], [-97.1447397, 36.0942837]]]}, "properties": {"osm_id": 1424242979, "building": "yes", "name": "", "height": null, "height_m": null, "levels": null, "tract_id": "40119011001", "tract_name": "110.01", "tags": {"addr:city": "Stillwater", "addr:country": "US", "addr:full": "6423 W KENSLOW DR", "addr:housenumber": "6423", "addr:postcode": "74074", "addr:state": "OK", "addr:street": "West Kenslow Drive", "building": "yes", "source": "microsoft/BuildingFootprints"}}}, {"type": "Feature", "geometry": {"type": "Polygon", "coordinates": [[[-97.1451254, 36.0943927], [-97.1452245, 36.0943973], [-97.1452527, 36.0945043], [-97.145331, 36.094488], [-97.1453127, 36.0944089], [-97.1453201, 36.0942481], [-97.1452653, 36.0942458], [-97.1452668, 36.0942261], [-97.145205, 36.094225], [-97.145202, 36.0942661], [-97.1451351, 36.0942628], [-97.1451254, 36.0943927]]]}, "properties": {"osm_id": 1424242980, "building": "yes", "name": "", "height": null, "height_m": null, "levels": null, "tract_id": "40119011001", "tract_name": "110.01", "tags": {"addr:city": "Stillwater", "addr:country": "US", "addr:full": "6501 W KENSLOW DR", "addr:housenumber": "6501", "addr:postcode": "74074", "addr:state": "OK", "addr:street": "West Kenslow Drive", "building": "yes", "source": "microsoft/BuildingFootprints"}}}, {"type": "Feature", "geometry": {"type": "Polygon", "coordinates": [[[-97.1458656, 36.0945326], [-97.1458608, 36.094406], [-97.1458749, 36.0944082], [-97.1458853, 36.0943639], [-97.1458715, 36.0943618], [-97.14589, 36.0942827], [-97.1458684, 36.0942632], [-97.1458491, 36.0942603], [-97.1458182, 36.0942749], [-97.1458159, 36.0942849], [-97.1456376, 36.0942577], [-97.1456026, 36.0944078], [-97.1456588, 36.0944164], [-97.1456674, 36.0943799], [-97.145688, 36.094383], [-97.1456776, 36.0944271], [-97.1457472, 36.0944367], [-97.1457586, 36.0945406], [-97.1458656, 36.0945326]]]}, "properties": {"osm_id": 1424242981, "building": "yes", "name": "", "height": null, "height_m": null, "levels": null, "tract_id": "40119011001", "tract_name": "110.01", "tags": {"addr:city": "Stillwater", "addr:country": "US", "addr:full": "6509 W KENSLOW DR", "addr:housenumber": "6509", "addr:postcode": "74074", "addr:state": "OK", "addr:street": "West Kenslow Drive", "building": "yes", "source": "microsoft/BuildingFootprints"}}}, {"type": "Feature", "geometry": {"type": "Polygon", "coordinates": [[[-97.1461653, 36.0944354], [-97.146305, 36.0944688], [-97.1462626, 36.0945848], [-97.1463549, 36.0946068], [-97.1464541, 36.0943356], [-97.1462959, 36.0942978], [-97.1462801, 36.0943412], [-97.1462062, 36.0943235], [-97.1461653, 36.0944354]]]}, "properties": {"osm_id": 1424242982, "building": "yes", "name": "", "height": null, "height_m": null, "levels": null, "tract_id": "40119011001", "tract_name": "110.01", "tags": {"addr:city": "Stillwater", "addr:country": "US", "addr:full": "6517 W KENSLOW DR", "addr:housenumber": "6517", "addr:postcode": "74074", "addr:state": "OK", "addr:street": "West Kenslow Drive", "building": "yes", "source": "microsoft/BuildingFootprints"}}}, {"type": "Feature", "geometry": {"type": "Polygon", "coordinates": [[[-97.1470625, 36.0946445], [-97.1469327, 36.0946111], [-97.1469458, 36.0945775], [-97.1468518, 36.0945534], [-97.1467792, 36.0947384], [-97.1468732, 36.0947625], [-97.146895, 36.0947072], [-97.1469782, 36.0947284], [-97.1469697, 36.0947502], [-97.1470163, 36.0947621], [-97.1470625, 36.0946445]]]}, "properties": {"osm_id": 1424242983, "building": "yes", "name": "", "height": null, "height_m": null, "levels": null, "tract_id": "40119011001", "tract_name": "110.01", "tags": {"addr:city": "Stillwater", "addr:country": "US", "addr:full": "6603 W KENSLOW DR", "addr:housenumber": "6603", "addr:postcode": "74074", "addr:state": "OK", "addr:street": "West Kenslow Drive", "building": "yes", "source": "microsoft/BuildingFootprints"}}}]}