{"type": "FeatureCollection", "features": [{"type": "Feature", "geometry": {"type": "Polygon", "coordinates": [[[-96.9100659, 35.392414], [-96.910069, 35.3920154], [-96.9098264, 35.3920141], [-96.9098266, 35.391982], [-96.9097193, 35.3919815], [-96.909719, 35.3920187], [-96.909484, 35.3920175], [-96.909481, 35.392411], [-96.9100659, 35.392414]]]}, "properties": {"osm_id": 672993851, "building": "yes", "name": "Blackhawk Casino", "height": null, "height_m": null, "levels": null, "tract_id": "40125500901", "tract_name": "5009.01", "tags": {"amenity": "casino", "building": "yes", "name": "Blackhawk Casino"}}}, {"type": "Feature", "geometry": {"type": "Polygon", "coordinates": [[[-96.9091729, 35.3926871], [-96.909169, 35.3925904], [-96.9090204, 35.3925945], [-96.9090243, 35.3926911], [-96.9091729, 35.3926871]]]}, "properties": {"osm_id": 672993852, "building": "yes", "name": "", "height": null, "height_m": null, "levels": null, "tract_id": "40125500901", "tract_name": "5009.01", "tags": {"building": "yes"}}}, {"type": "Feature", "geometry": {"type": "Polygon", "coordinates": [[[-96.9089573, 35.3926758], [-96.9089543, 35.3925056], [-96.9086747, 35.3925089], [-96.9086778, 35.3926791], [-96.9089573, 35.3926758]]]}, "properties": {"osm_id": 672993853, "building": "yes", "name": "", "height": null, "height_m": null, "levels": null, "tract_id": "40125500901", "tract_name": "5009.01", "tags": {"building": "yes"}}}, {"type": "Feature", "geometry": {"type": "Polygon", "coordinates": [[[-96.84636, 35.332586], [-96.84636, 35.332449], [-96.846258, 35.332449], [-96.846258, 35.332586], [-96.84636, 35.332586]]]}, "properties": {"osm_id": 825345437, "building": "yes", "name": "", "height": null, "height_m": null, "levels": null, "tract_id": "40125500901", "tract_name": "5009.01", "tags": {"building": "yes", "source": "microsoft/BuildingFootprints"}}}, {"type": "Feature", "geometry": {"type": "Polygon", "coordinates": [[[-96.845901, 35.33284], [-96.845901, 35.332943], [-96.845987, 35.332943], [-96.845987, 35.33284], [-96.845901, 35.33284]]]}, "properties": {"osm_id": 825345438, "building": "yes", "name": "", "height": null, "height_m": null, "levels": null, "tract_id": "40125500901", "tract_name": "5009.01", "tags": {"building": "yes", "source": "microsoft/BuildingFootprints"}}}, {"type": "Feature", "geometry": {"type": "Polygon", "coordinates": [[[-96.846255, 35.332801], [-96.846148, 35.332801], [-96.846148, 35.332886], [-96.846255, 35.332886], [-96.846255, 35.332801]]]}, "properties": {"osm_id": 825345439, "building": "yes", "name": "", "height": null, "height_m": null, "levels": null, "tract_id": "40125500901", "tract_name": "5009.01", "tags": {"building": "yes", "source": "microsoft/BuildingFootprints"}}}, {"type": "Feature", "geometry": {"type": "Polygon", "coordinates": [[[-96.9112296, 35.3876868], [-96.9112312, 35.3875052], [-96.9105324, 35.3875012], [-96.9105309, 35.3876829], [-96.9112296, 35.3876868]]]}, "properties": {"osm_id": 829277638, "building": "yes", "name": "Fairfield Inn & Suites Shawnee", "height": null, "height_m": null, "levels": null, "tract_id": "40125500901", "tract_name": "5009.01", "tags": {"addr:city": "Shawnee", "addr:housenumber": "14012", "addr:postcode": "74804", "addr:state": "OK", "addr:street": "Transportation Parkway", "branch": "Shawnee", "brand": "Fairfield Inn", "brand:wikidata": "Q5430314", "building": "yes", "name": "Fairfield Inn & Suites Shawnee", "ref": "OKCFW", "tourism": "hotel", "website": "https://www.marriott.com/okcfw"}}}, {"type": "Feature", "geometry": {"type": "Polygon", "coordinates": [[[-96.8335509, 35.4095952], [-96.8333617, 35.4095849], [-96.833369, 35.409496], [-96.8335582, 35.4095063], [-96.8335509, 35.4095952]]]}, "properties": {"osm_id": 976163804, "building": "yes", "name": "", "height": null, "height_m": null, "levels": null, "tract_id": "40125500901", "tract_name": "5009.01", "tags": {"building": "yes"}}}, {"type": "Feature", "geometry": {"type": "Polygon", "coordinates": [[[-96.8336207, 35.4094254], [-96.833592, 35.4094231], [-96.8335878, 35.4094568], [-96.8335143, 35.4094508], [-96.8335231, 35.4093793], [-96.8336254, 35.4093877], [-96.8336207, 35.4094254]]]}, "properties": {"osm_id": 976163805, "building": "yes", "name": "", "height": null, "height_m": null, "levels": null, "tract_id": "40125500901", "tract_name": "5009.01", "tags": {"building": "yes"}}}, {"type": "Feature", "geometry": {"type": "Polygon", "coordinates": [[[-96.8735699, 35.3046293], [-96.8734827, 35.3046285], [-96.8734818, 35.3046965], [-96.8733027, 35.3046949], [-96.873305, 35.3045313], [-96.8733653, 35.3045319], [-96.8733657, 35.3045042], [-96.8734401, 35.3045049], [-96.8734397, 35.3045342], [-96.8734906, 35.3045347], [-96.8734904, 35.3045512], [-96.873571, 35.3045519], [-96.8735699, 35.3046293]]]}, "properties": {"osm_id": 984198082, "building": "yes", "name": "", "height": null, "height_m": null, "levels": null, "tract_id": "40125500901", "tract_name": "5009.01", "tags": {"building": "yes"}}}, {"type": "Feature", "geometry": {"type": "Polygon", "coordinates": [[[-96.8743134, 35.3049632], [-96.8742569, 35.3049626], [-96.8742576, 35.3049152], [-96.8743141, 35.3049158], [-96.8743134, 35.3049632]]]}, "properties": {"osm_id": 984198085, "building": "yes", "name": "", "height": null, "height_m": null, "levels": null, "tract_id": "40125500901", "tract_name": "5009.01", "tags": {"building": "yes"}}}, {"type": "Feature", "geometry": {"type": "Polygon", "coordinates": [[[-96.8898655, 35.3971363], [-96.8897688, 35.397141], [-96.8897635, 35.3970735], [-96.8896804, 35.3970769], [-96.8896773, 35.397003], [-96.8897386, 35.3970013], [-96.8897317, 35.3969033], [-96.8898518, 35.3968977], [-96.8898551, 35.3969708], [-96.8898772, 35.3969701], [-96.8898772, 35.3969772], [-96.889886, 35.3969767], [-96.8898862, 35.3970182], [-96.8898591, 35.397018], [-96.8898655, 35.3971363]]]}, "properties": {"osm_id": 985130567, "building": "yes", "name": "", "height": null, "height_m": null, "levels": null, "tract_id": "40125500901", "tract_name": "5009.01", "tags": {"building": "yes"}}}, {"type": "Feature", "geometry": {"type": "Polygon", "coordinates": [[[-96.7879223, 35.3627829], [-96.7881503, 35.3627886], [-96.7881534, 35.3627113], [-96.7879269, 35.3627069], [-96.7879223, 35.3627829]]]}, "properties": {"osm_id": 985464856, "building": "yes", "name": "", "height": null, "height_m": null, "levels": null, "tract_id": "40125500901", "tract_name": "5009.01", "tags": {"building": "yes"}}}, {"type": "Feature", "geometry": {"type": "Polygon", "coordinates": [[[-96.9101701, 35.3862519], [-96.9101584, 35.3856267], [-96.9102601, 35.3856254], [-96.9102589, 35.3855644], [-96.9103378, 35.3855634], [-96.910339, 35.3856289], [-96.9103924, 35.3856282], [-96.9104042, 35.386249], [-96.9101701, 35.3862519]]]}, "properties": {"osm_id": 1118688301, "building": "hotel", "name": "Comfort Inn & Suites Shawnee North near I-40", "height": null, "height_m": null, "levels": null, "tract_id": "40125500901", "tract_name": "5009.01", "tags": {"addr:city": "Shawnee", "addr:housenumber": "5400", "addr:postcode": "74804", "addr:state": "OK", "addr:street": "Enterprise Court", "branch": "Shawnee North near I-40", "brand": "Comfort Inn & Suites", "brand:wikidata": "Q113152349", "building": "hotel", "name": "Comfort Inn & Suites Shawnee North near I-40", "phone": "+1 405-310-0993", "ref": "OK158", "tourism": "hotel", "website": "https://www.choicehotels.com/oklahoma/shawnee/comfort-inn-hotels"}}}, {"type": "Feature", "geometry": {"type": "Polygon", "coordinates": [[[-96.9087552, 35.3850619], [-96.9087564, 35.3849109], [-96.9094734, 35.3849147], [-96.9094732, 35.3849311], [-96.9095011, 35.3849312], [-96.9095003, 35.3850341], [-96.9094647, 35.3850339], [-96.9094644, 35.3850657], [-96.9087552, 35.3850619]]]}, "properties": {"osm_id": 1118688553, "building": "hotel", "name": "Baymont Shawnee", "height": null, "height_m": null, "levels": null, "tract_id": "40125500901", "tract_name": "5009.01", "tags": {"addr:city": "Shawnee", "addr:housenumber": "4981", "addr:postcode": "74804-9105", "addr:state": "OK", "addr:street": "North Harrison Street", "branch": "Shawnee", "brand": "Baymont", "brand:wikidata": "Q4874634", "building": "hotel", "name": "Baymont Shawnee", "official_name": "Baymont by Wyndham", "phone": "+1 405-585-0733", "ref": "50723", "tourism": "hotel", "website": "https://www.wyndhamhotels.com/baymont/shawnee-oklahoma/baymont-shawnee/overview"}}}, {"type": "Feature", "geometry": {"type": "Polygon", "coordinates": [[[-96.909578, 35.3856251], [-96.9095865, 35.3861845], [-96.9096334, 35.3861841], [-96.909634, 35.3862249], [-96.9098133, 35.3862231], [-96.9098034, 35.3855897], [-96.909615, 35.3855916], [-96.9096155, 35.3856247], [-96.909578, 35.3856251]]]}, "properties": {"osm_id": 1118688839, "building": "hotel", "name": "La Quinta Inn & Suites Shawnee", "height": null, "height_m": null, "levels": null, "tract_id": "40125500901", "tract_name": "5009.01", "tags": {"addr:state": "OK", "branch": "Shawnee", "brand": "La Quinta Inn & Suites", "brand:wikidata": "Q6464734", "building": "hotel", "name": "La Quinta Inn & Suites Shawnee", "official_name": "La Quinta Inn & Suites by Wyndham", "phone": "+1 405-275-7930", "ref": "53331", "tourism": "hotel", "website": "https://www.wyndhamhotels.com/laquinta/shawnee-oklahoma/la-quinta-shawnee/overview"}}}, {"type": "Feature", "geometry": {"type": "Polygon", "coordinates": [[[-96.8785036, 35.332854], [-96.8785049, 35.3329349], [-96.8784373, 35.3329357], [-96.878436, 35.3328547], [-96.8785036, 35.332854]]]}, "properties": {"osm_id": 1207718448, "building": "yes", "name": "", "height": null, "height_m": null, "levels": null, "tract_id": "40125500901", "tract_name": "5009.01", "tags": {"building": "yes"}}}, {"type": "Feature", "geometry": {"type": "Polygon", "coordinates": [[[-96.8774454, 35.333401], [-96.8774595, 35.3333255], [-96.8775329, 35.3333346], [-96.8775188, 35.3334101], [-96.8774454, 35.333401]]]}, "properties": {"osm_id": 1207718449, "building": "yes", "name": "", "height": null, "height_m": null, "levels": null, "tract_id": "40125500901", "tract_name": "5009.01", "tags": {"building": "yes"}}}, {"type": "Feature", "geometry": {"type": "Polygon", "coordinates": [[[-96.8781817, 35.3339267], [-96.8782752, 35.3339237], [-96.8782819, 35.3340616], [-96.8781884, 35.3340646], [-96.8781817, 35.3339267]]]}, "properties": {"osm_id": 1207718469, "building": "yes", "name": "", "height": null, "height_m": null, "levels": null, "tract_id": "40125500901", "tract_name": "5009.01", "tags": {"building": "yes"}}}, {"type": "Feature", "geometry": {"type": "Polygon", "coordinates": [[[-96.8800217, 35.3334738], [-96.8799084, 35.3334738], [-96.8799084, 35.3334059], [-96.8800217, 35.3334059], [-96.8800217, 35.3334738]]]}, "properties": {"osm_id": 1207718470, "building": "yes", "name": "", "height": null, "height_m": null, "levels": null, "tract_id": "40125500901", "tract_name": "5009.01", "tags": {"building": "yes"}}}, {"type": "Feature", "geometry": {"type": "Polygon", "coordinates": [[[-96.8785693, 35.3330165], [-96.8785678, 35.332937], [-96.8788374, 35.3329337], [-96.8788388, 35.3330132], [-96.8785693, 35.3330165]]]}, "properties": {"osm_id": 1207718472, "building": "yes", "name": "", "height": null, "height_m": null, "levels": null, "tract_id": "40125500901", "tract_name": "5009.01", "tags": {"building": "yes"}}}, {"type": "Feature", "geometry": {"type": "Polygon", "coordinates": [[[-96.8786082, 35.3333677], [-96.8784542, 35.3333663], [-96.8784569, 35.3331693], [-96.8786109, 35.3331707], [-96.8786082, 35.3333677]]]}, "properties": {"osm_id": 1207718473, "building": "yes", "name": "", "height": null, "height_m": null, "levels": null, "tract_id": "40125500901", "tract_name": "5009.01", "tags": {"building": "yes"}}}, {"type": "Feature", "geometry": {"type": "Polygon", "coordinates": [[[-96.8076865, 35.3704642], [-96.8076885, 35.370603], [-96.8077904, 35.370602], [-96.8077884, 35.3704632], [-96.8076865, 35.3704642]]]}, "properties": {"osm_id": 1222882114, "building": "garage", "name": "", "height": null, "height_m": null, "levels": null, "tract_id": "40125500901", "tract_name": "5009.01", "tags": {"building": "garage", "source": "microsoft/BuildingFootprints"}}}, {"type": "Feature", "geometry": {"type": "Polygon", "coordinates": [[[-96.8077225, 35.3690298], [-96.8078726, 35.3690273], [-96.8078706, 35.3689464], [-96.8077205, 35.3689489], [-96.8077225, 35.3690298]]]}, "properties": {"osm_id": 1222882115, "building": "garage", "name": "", "height": null, "height_m": null, "levels": null, "tract_id": "40125500901", "tract_name": "5009.01", "tags": {"building": "garage", "source": "microsoft/BuildingFootprints"}}}, {"type": "Feature", "geometry": {"type": "Polygon", "coordinates": [[[-96.8078215, 35.3704285], [-96.8078226, 35.3703607], [-96.80777, 35.3703602], [-96.8077711, 35.3702946], [-96.8076692, 35.3702934], [-96.8076665, 35.3704564], [-96.8077701, 35.3704576], [-96.8077706, 35.370428], [-96.8078215, 35.3704285]]]}, "properties": {"osm_id": 1222882116, "building": "detached", "name": "", "height": null, "height_m": null, "levels": null, "tract_id": "40125500901", "tract_name": "5009.01", "tags": {"building": "detached", "source": "microsoft/BuildingFootprints"}}}, {"type": "Feature", "geometry": {"type": "Polygon", "coordinates": [[[-96.808299, 35.369451], [-96.808404, 35.369451], [-96.808404, 35.369377], [-96.808299, 35.369377], [-96.808299, 35.369451]]]}, "properties": {"osm_id": 1222882117, "building": "yes", "name": "", "height": null, "height_m": null, "levels": null, "tract_id": "40125500901", "tract_name": "5009.01", "tags": {"building": "yes", "source": "microsoft/BuildingFootprints"}}}, {"type": "Feature", "geometry": {"type": "Polygon", "coordinates": [[[-96.8081024, 35.3704207], [-96.8081912, 35.3704178], [-96.8081884, 35.3703613], [-96.8080996, 35.3703642], [-96.8081024, 35.3704207]]]}, "properties": {"osm_id": 1222882118, "building": "yes", "name": "", "height": null, "height_m": null, "levels": null, "tract_id": "40125500901", "tract_name": "5009.01", "tags": {"building": "yes", "source": "microsoft/BuildingFootprints"}}}, {"type": "Feature", "geometry": {"type": "Polygon", "coordinates": [[[-96.8077935, 35.368878], [-96.8077913, 35.3687643], [-96.8077416, 35.3687649], [-96.8077407, 35.3687202], [-96.8076135, 35.3687218], [-96.807615, 35.3688037], [-96.8075829, 35.3688041], [-96.8075843, 35.3688828], [-96.8076138, 35.3688824], [-96.8076149, 35.3689426], [-96.8077303, 35.3689412], [-96.8077291, 35.3688788], [-96.8077935, 35.368878]]]}, "properties": {"osm_id": 1222882119, "building": "detached", "name": "", "height": null, "height_m": null, "levels": null, "tract_id": "40125500901", "tract_name": "5009.01", "tags": {"building": "detached", "source": "microsoft/BuildingFootprints"}}}, {"type": "Feature", "geometry": {"type": "Polygon", "coordinates": [[[-96.8076886, 35.3711118], [-96.8077905, 35.3711098], [-96.8077846, 35.3709153], [-96.8076828, 35.3709173], [-96.8076886, 35.3711118]]]}, "properties": {"osm_id": 1222882120, "building": "detached", "name": "", "height": null, "height_m": null, "levels": null, "tract_id": "40125500901", "tract_name": "5009.01", "tags": {"building": "detached", "source": "microsoft/BuildingFootprints"}}}, {"type": "Feature", "geometry": {"type": "Polygon", "coordinates": [[[-96.8085222, 35.3712112], [-96.8085196, 35.3711063], [-96.8083212, 35.3711095], [-96.8083238, 35.3712145], [-96.8085222, 35.3712112]]]}, "properties": {"osm_id": 1222882121, "building": "yes", "name": "", "height": null, "height_m": null, "levels": null, "tract_id": "40125500901", "tract_name": "5009.01", "tags": {"building": "yes", "source": "microsoft/BuildingFootprints"}}}, {"type": "Feature", "geometry": {"type": "Polygon", "coordinates": [[[-96.8077923, 35.3693591], [-96.8076878, 35.369358], [-96.8076864, 35.3694455], [-96.8076543, 35.3694452], [-96.8076525, 35.3695633], [-96.8077866, 35.3695646], [-96.8077877, 35.3694902], [-96.807844, 35.3694908], [-96.8078448, 35.3694383], [-96.8077912, 35.3694378], [-96.8077923, 35.3693591]]]}, "properties": {"osm_id": 1222882122, "building": "detached", "name": "", "height": null, "height_m": null, "levels": null, "tract_id": "40125500901", "tract_name": "5009.01", "tags": {"building": "detached", "source": "microsoft/BuildingFootprints"}}}, {"type": "Feature", "geometry": {"type": "Polygon", "coordinates": [[[-96.9110843, 35.3766203], [-96.9112678, 35.3766231], [-96.9112595, 35.3769844], [-96.9110761, 35.3769816], [-96.9110843, 35.3766203]]]}, "properties": {"osm_id": 1395942146, "building": "yes", "name": "", "height": null, "height_m": null, "levels": null, "tract_id": "40125500901", "tract_name": "5009.01", "tags": {"building": "yes"}}}, {"type": "Feature", "geometry": {"type": "Polygon", "coordinates": [[[-96.9110965, 35.3789148], [-96.9115792, 35.3791204], [-96.9113692, 35.379448], [-96.9108865, 35.3792424], [-96.9110965, 35.3789148]]]}, "properties": {"osm_id": 1395942147, "building": "yes", "name": "", "height": null, "height_m": null, "levels": null, "tract_id": "40125500901", "tract_name": "5009.01", "tags": {"building": "yes"}}}, {"type": "Feature", "geometry": {"type": "Polygon", "coordinates": [[[-96.9111716, 35.3812878], [-96.9114009, 35.381285], [-96.9113951, 35.3809701], [-96.9111656, 35.380973], [-96.9111716, 35.3812878]]]}, "properties": {"osm_id": 1395942148, "building": "yes", "name": "", "height": null, "height_m": null, "levels": null, "tract_id": "40125500901", "tract_name": "5009.01", "tags": {"building": "yes"}}}, {"type": "Feature", "geometry": {"type": "Polygon", "coordinates": [[[-96.9113158, 35.3807279], [-96.9116349, 35.3807264], [-96.9116357, 35.3808379], [-96.9113166, 35.3808394], [-96.9113158, 35.3807279]]]}, "properties": {"osm_id": 1395942149, "building": "yes", "name": "", "height": null, "height_m": null, "levels": null, "tract_id": "40125500901", "tract_name": "5009.01", "tags": {"building": "yes"}}}]}