{"type": "FeatureCollection", "features": [{"type": "Feature", "geometry": {"type": "Polygon", "coordinates": [[[-95.3673936, 35.1230318], [-95.3674403, 35.1232077], [-95.3673452, 35.1232246], [-95.3672984, 35.1230487], [-95.3673936, 35.1230318]]]}, "properties": {"osm_id": 111425965, "building": "yes", "name": "Quinton, Oklahoma 74561", "height": null, "height_m": null, "levels": null, "tract_id": "40121485700", "tract_name": "4857", "tags": {"amenity": "post_office", "building": "yes", "name": "Quinton, Oklahoma 74561", "operator": "United States Postal Service", "operator:short": "USPS", "operator:type": "public", "operator:website": "https://www.usps.com", "operator:wikidata": "Q668687", "operator:wikipedia": "en:United States Postal Service"}}}, {"type": "Feature", "geometry": {"type": "Polygon", "coordinates": [[[-95.3647755, 35.1234922], [-95.364423, 35.1235617], [-95.3643919, 35.123456], [-95.3644557, 35.1234434], [-95.36445, 35.1234239], [-95.364505, 35.123413], [-95.3645108, 35.1234326], [-95.3646344, 35.1234082], [-95.3646231, 35.1233697], [-95.3647329, 35.123348], [-95.3647755, 35.1234922]]]}, "properties": {"osm_id": 499677141, "building": "yes", "name": "EZ Mart", "height": null, "height_m": null, "levels": null, "tract_id": "40121485700", "tract_name": "4857", "tags": {"building": "yes", "name": "EZ Mart", "shop": "convenience"}}}, {"type": "Feature", "geometry": {"type": "Polygon", "coordinates": [[[-95.3649909, 35.1234377], [-95.3648952, 35.1234565], [-95.3648751, 35.1233881], [-95.3649707, 35.1233692], [-95.3649909, 35.1234377]]]}, "properties": {"osm_id": 499677142, "building": "yes", "name": "Shell", "height": null, "height_m": null, "levels": null, "tract_id": "40121485700", "tract_name": "4857", "tags": {"amenity": "fuel", "brand": "Shell", "brand:wikidata": "Q110716465", "building": "yes", "name": "Shell"}}}, {"type": "Feature", "geometry": {"type": "Polygon", "coordinates": [[[-95.3648318, 35.1236512], [-95.3646816, 35.1236809], [-95.3646581, 35.1236009], [-95.3648083, 35.1235713], [-95.3648318, 35.1236512]]]}, "properties": {"osm_id": 499677143, "building": "yes", "name": "Shell", "height": null, "height_m": null, "levels": null, "tract_id": "40121485700", "tract_name": "4857", "tags": {"amenity": "fuel", "brand": "Shell", "brand:wikidata": "Q110716465", "building": "yes", "name": "Shell"}}}, {"type": "Feature", "geometry": {"type": "Polygon", "coordinates": [[[-95.3638155, 35.1237979], [-95.3637723, 35.1236575], [-95.3638864, 35.1236341], [-95.3639295, 35.1237743], [-95.3638155, 35.1237979]]]}, "properties": {"osm_id": 499677144, "building": "yes", "name": "", "height": null, "height_m": null, "levels": null, "tract_id": "40121485700", "tract_name": "4857", "tags": {"addr:housenumber": "609", "addr:street": "Main Street", "building": "yes", "shop": "laundry"}}}, {"type": "Feature", "geometry": {"type": "Polygon", "coordinates": [[[-95.3696004, 35.1231096], [-95.3696208, 35.1231792], [-95.3696562, 35.1231723], [-95.3696952, 35.1233055], [-95.3696382, 35.1233167], [-95.3696446, 35.1233386], [-95.3694933, 35.1233682], [-95.3695122, 35.1234327], [-95.3694056, 35.1234536], [-95.3693868, 35.1233892], [-95.3692694, 35.1234122], [-95.3692483, 35.1233404], [-95.3691271, 35.1233642], [-95.3690986, 35.123267], [-95.3691874, 35.1232496], [-95.3691819, 35.1232311], [-95.3692144, 35.1232247], [-95.3692035, 35.1231875], [-95.3693141, 35.1231658], [-95.3693071, 35.1231416], [-95.3693839, 35.1231265], [-95.369391, 35.1231507], [-95.3696004, 35.1231096]]]}, "properties": {"osm_id": 499677429, "building": "yes", "name": "Farmer's State Bank", "height": null, "height_m": null, "levels": null, "tract_id": "40121485700", "tract_name": "4857", "tags": {"amenity": "bank", "building": "yes", "name": "Farmer's State Bank"}}}, {"type": "Feature", "geometry": {"type": "Polygon", "coordinates": [[[-95.3696773, 35.1226129], [-95.3697277, 35.1227933], [-95.3695947, 35.1228182], [-95.3695442, 35.1226377], [-95.3696773, 35.1226129]]]}, "properties": {"osm_id": 499677430, "building": "roof", "name": "", "height": null, "height_m": null, "levels": null, "tract_id": "40121485700", "tract_name": "4857", "tags": {"building": "roof"}}}, {"type": "Feature", "geometry": {"type": "Polygon", "coordinates": [[[-95.3697879, 35.1225911], [-95.3696773, 35.1226129], [-95.3695442, 35.1226377], [-95.36947, 35.1226525], [-95.3694383, 35.1225427], [-95.3695325, 35.1225245], [-95.3695169, 35.1224706], [-95.3696771, 35.1224396], [-95.3696927, 35.1224936], [-95.3697561, 35.1224813], [-95.3697879, 35.1225911]]]}, "properties": {"osm_id": 499677432, "building": "yes", "name": "Sam's Food Mart", "height": null, "height_m": null, "levels": null, "tract_id": "40121485700", "tract_name": "4857", "tags": {"building": "yes", "name": "Sam's Food Mart", "shop": "convenience"}}}, {"type": "Feature", "geometry": {"type": "Polygon", "coordinates": [[[-95.3693269, 35.1226707], [-95.3692108, 35.12269], [-95.3691713, 35.1225309], [-95.3692875, 35.1225116], [-95.3693269, 35.1226707]]]}, "properties": {"osm_id": 499677434, "building": "yes", "name": "", "height": null, "height_m": null, "levels": null, "tract_id": "40121485700", "tract_name": "4857", "tags": {"building": "yes", "shop": "vacant"}}}, {"type": "Feature", "geometry": {"type": "Polygon", "coordinates": [[[-95.3685373, 35.1235898], [-95.3683296, 35.1236271], [-95.3682384, 35.123287], [-95.3684461, 35.1232498], [-95.3685373, 35.1235898]]]}, "properties": {"osm_id": 499677435, "building": "yes", "name": "Quinton True Value Hardware", "height": null, "height_m": null, "levels": null, "tract_id": "40121485700", "tract_name": "4857", "tags": {"addr:city": "Quinton", "addr:housenumber": "1020", "addr:postcode": "74561", "addr:state": "OK", "addr:street": "Main Street", "brand": "True Value", "brand:wikidata": "Q7847545", "building": "yes", "name": "Quinton True Value Hardware", "opening_hours": "Mo-Fr 08:00-17:00; Sa 08:00-12:00", "phone": "+1 918-469-2970", "ref": "1397", "shop": "hardware", "website": "https://www.truevalue.com/quintontruevalue"}}}, {"type": "Feature", "geometry": {"type": "Polygon", "coordinates": [[[-95.3686298, 35.1230019], [-95.3683652, 35.1230499], [-95.3682727, 35.1227087], [-95.3685373, 35.1226607], [-95.3686298, 35.1230019]]]}, "properties": {"osm_id": 499677436, "building": "industrial", "name": "", "height": null, "height_m": null, "levels": null, "tract_id": "40121485700", "tract_name": "4857", "tags": {"building": "industrial"}}}, {"type": "Feature", "geometry": {"type": "Polygon", "coordinates": [[[-95.3690407, 35.122918], [-95.3690104, 35.1228107], [-95.3689625, 35.122641], [-95.3688833, 35.1226559], [-95.3689615, 35.1229329], [-95.3690407, 35.122918]]]}, "properties": {"osm_id": 794212170, "building": "yes", "name": "Medicinal Marvels", "height": null, "height_m": null, "levels": null, "tract_id": "40121485700", "tract_name": "4857", "tags": {"addr:city": "Quinton", "addr:housenumber": "1103", "addr:postcode": "74561", "addr:state": "OK", "addr:street": "Main Street", "building": "yes", "name": "Medicinal Marvels", "payment:cash": "yes", "shop": "cannabis"}}}, {"type": "Feature", "geometry": {"type": "Polygon", "coordinates": [[[-95.3930385, 35.1522097], [-95.3930208, 35.1520542], [-95.3931244, 35.1520463], [-95.3931421, 35.1522018], [-95.3930385, 35.1522097]]]}, "properties": {"osm_id": 1033642068, "building": "yes", "name": "", "height": null, "height_m": null, "levels": null, "tract_id": "40121485700", "tract_name": "4857", "tags": {"building": "yes"}}}, {"type": "Feature", "geometry": {"type": "Polygon", "coordinates": [[[-95.3933148, 35.152656], [-95.3932043, 35.1526644], [-95.3931926, 35.1525615], [-95.3931576, 35.1525642], [-95.3931498, 35.1524961], [-95.3931849, 35.1524934], [-95.3931789, 35.1524407], [-95.3932893, 35.1524323], [-95.3933148, 35.152656]]]}, "properties": {"osm_id": 1033642069, "building": "yes", "name": "", "height": null, "height_m": null, "levels": null, "tract_id": "40121485700", "tract_name": "4857", "tags": {"building": "yes"}}}, {"type": "Feature", "geometry": {"type": "Polygon", "coordinates": [[[-95.3933349, 35.1527744], [-95.3932223, 35.1527832], [-95.393214, 35.1527123], [-95.3933267, 35.1527035], [-95.3933349, 35.1527744]]]}, "properties": {"osm_id": 1033642070, "building": "yes", "name": "", "height": null, "height_m": null, "levels": null, "tract_id": "40121485700", "tract_name": "4857", "tags": {"building": "yes"}}}, {"type": "Feature", "geometry": {"type": "Polygon", "coordinates": [[[-95.3942844, 35.1526154], [-95.3941651, 35.1526143], [-95.3941655, 35.1525837], [-95.3941406, 35.1525835], [-95.3941412, 35.1525384], [-95.3941661, 35.1525386], [-95.3941668, 35.1524848], [-95.3942742, 35.1524858], [-95.3942734, 35.1525441], [-95.3942854, 35.1525442], [-95.3942844, 35.1526154]]]}, "properties": {"osm_id": 1033642074, "building": "yes", "name": "", "height": null, "height_m": null, "levels": null, "tract_id": "40121485700", "tract_name": "4857", "tags": {"building": "yes"}}}, {"type": "Feature", "geometry": {"type": "Polygon", "coordinates": [[[-95.3942442, 35.1526911], [-95.3941798, 35.1526911], [-95.3941798, 35.1526341], [-95.3942442, 35.1526341], [-95.3942442, 35.1526911]]]}, "properties": {"osm_id": 1033642075, "building": "yes", "name": "", "height": null, "height_m": null, "levels": null, "tract_id": "40121485700", "tract_name": "4857", "tags": {"building": "yes"}}}, {"type": "Feature", "geometry": {"type": "Polygon", "coordinates": [[[-95.3942455, 35.1528446], [-95.3942403, 35.1529345], [-95.3941558, 35.1529312], [-95.394161, 35.1528413], [-95.3942455, 35.1528446]]]}, "properties": {"osm_id": 1033642076, "building": "yes", "name": "", "height": null, "height_m": null, "levels": null, "tract_id": "40121485700", "tract_name": "4857", "tags": {"building": "yes"}}}, {"type": "Feature", "geometry": {"type": "Polygon", "coordinates": [[[-95.3944682, 35.1553578], [-95.394499, 35.155201], [-95.3946424, 35.1552198], [-95.3946364, 35.1552502], [-95.3947017, 35.1552588], [-95.3946886, 35.155325], [-95.3946234, 35.1553164], [-95.3946115, 35.1553766], [-95.3944682, 35.1553578]]]}, "properties": {"osm_id": 1033642078, "building": "yes", "name": "", "height": null, "height_m": null, "levels": null, "tract_id": "40121485700", "tract_name": "4857", "tags": {"building": "yes"}}}, {"type": "Feature", "geometry": {"type": "Polygon", "coordinates": [[[-95.3946894, 35.1556889], [-95.3946076, 35.1556714], [-95.3946216, 35.1556279], [-95.3947034, 35.1556455], [-95.3946894, 35.1556889]]]}, "properties": {"osm_id": 1033642079, "building": "yes", "name": "", "height": null, "height_m": null, "levels": null, "tract_id": "40121485700", "tract_name": "4857", "tags": {"building": "yes"}}}, {"type": "Feature", "geometry": {"type": "Polygon", "coordinates": [[[-95.3947726, 35.1556429], [-95.3946438, 35.1556111], [-95.3946661, 35.1555508], [-95.3947948, 35.1555826], [-95.3947726, 35.1556429]]]}, "properties": {"osm_id": 1033642080, "building": "yes", "name": "", "height": null, "height_m": null, "levels": null, "tract_id": "40121485700", "tract_name": "4857", "tags": {"building": "yes"}}}, {"type": "Feature", "geometry": {"type": "Polygon", "coordinates": [[[-95.3953332, 35.1557788], [-95.3954043, 35.1555869], [-95.3956091, 35.1556377], [-95.395538, 35.1558295], [-95.3953332, 35.1557788]]]}, "properties": {"osm_id": 1033642081, "building": "yes", "name": "", "height": null, "height_m": null, "levels": null, "tract_id": "40121485700", "tract_name": "4857", "tags": {"building": "yes"}}}, {"type": "Feature", "geometry": {"type": "Polygon", "coordinates": [[[-95.3889951, 35.1577766], [-95.3889173, 35.1578018], [-95.3888973, 35.1577605], [-95.3889751, 35.1577353], [-95.3889951, 35.1577766]]]}, "properties": {"osm_id": 1033642086, "building": "yes", "name": "", "height": null, "height_m": null, "levels": null, "tract_id": "40121485700", "tract_name": "4857", "tags": {"building": "yes"}}}, {"type": "Feature", "geometry": {"type": "Polygon", "coordinates": [[[-95.3889388, 35.158111], [-95.3888731, 35.1579476], [-95.3890285, 35.1579058], [-95.3890942, 35.1580692], [-95.3889388, 35.158111]]]}, "properties": {"osm_id": 1033642087, "building": "yes", "name": "", "height": null, "height_m": null, "levels": null, "tract_id": "40121485700", "tract_name": "4857", "tags": {"building": "yes"}}}, {"type": "Feature", "geometry": {"type": "Polygon", "coordinates": [[[-95.3889763, 35.1569652], [-95.3888838, 35.1568873], [-95.3889601, 35.1568268], [-95.3890526, 35.1569046], [-95.3889763, 35.1569652]]]}, "properties": {"osm_id": 1033642088, "building": "yes", "name": "", "height": null, "height_m": null, "levels": null, "tract_id": "40121485700", "tract_name": "4857", "tags": {"building": "yes"}}}, {"type": "Feature", "geometry": {"type": "Polygon", "coordinates": [[[-95.388625, 35.1571055], [-95.3886219, 35.1570098], [-95.3887775, 35.1570065], [-95.3887805, 35.1571023], [-95.388625, 35.1571055]]]}, "properties": {"osm_id": 1033642089, "building": "yes", "name": "", "height": null, "height_m": null, "levels": null, "tract_id": "40121485700", "tract_name": "4857", "tags": {"building": "yes"}}}, {"type": "Feature", "geometry": {"type": "Polygon", "coordinates": [[[-95.3886116, 35.1570935], [-95.3884292, 35.1570913], [-95.3884307, 35.1570058], [-95.3886131, 35.157008], [-95.3886116, 35.1570935]]]}, "properties": {"osm_id": 1033642090, "building": "yes", "name": "", "height": null, "height_m": null, "levels": null, "tract_id": "40121485700", "tract_name": "4857", "tags": {"building": "yes"}}}, {"type": "Feature", "geometry": {"type": "Polygon", "coordinates": [[[-95.3882816, 35.1570507], [-95.3882897, 35.1569707], [-95.3883572, 35.1569752], [-95.3883491, 35.1570553], [-95.3882816, 35.1570507]]]}, "properties": {"osm_id": 1033642091, "building": "yes", "name": "", "height": null, "height_m": null, "levels": null, "tract_id": "40121485700", "tract_name": "4857", "tags": {"building": "yes"}}}, {"type": "Feature", "geometry": {"type": "Polygon", "coordinates": [[[-95.3881542, 35.1570408], [-95.3880362, 35.1570398], [-95.388037, 35.1569817], [-95.388155, 35.1569828], [-95.3881542, 35.1570408]]]}, "properties": {"osm_id": 1033642092, "building": "yes", "name": "", "height": null, "height_m": null, "levels": null, "tract_id": "40121485700", "tract_name": "4857", "tags": {"building": "yes"}}}, {"type": "Feature", "geometry": {"type": "Polygon", "coordinates": [[[-95.3881931, 35.1567613], [-95.3881918, 35.1569301], [-95.3879759, 35.156929], [-95.3879772, 35.1567602], [-95.3881931, 35.1567613]]]}, "properties": {"osm_id": 1033642093, "building": "yes", "name": "", "height": null, "height_m": null, "levels": null, "tract_id": "40121485700", "tract_name": "4857", "tags": {"building": "yes"}}}, {"type": "Feature", "geometry": {"type": "Polygon", "coordinates": [[[-95.3494459, 35.1228922], [-95.3494392, 35.1227847], [-95.3494917, 35.1227825], [-95.3494984, 35.12289], [-95.3494459, 35.1228922]]]}, "properties": {"osm_id": 1033663661, "building": "yes", "name": "", "height": null, "height_m": null, "levels": null, "tract_id": "40121485700", "tract_name": "4857", "tags": {"building": "yes"}}}, {"type": "Feature", "geometry": {"type": "Polygon", "coordinates": [[[-95.3496981, 35.1228966], [-95.3496822, 35.1229406], [-95.3495092, 35.1228989], [-95.3495251, 35.1228549], [-95.3496981, 35.1228966]]]}, "properties": {"osm_id": 1033663662, "building": "yes", "name": "", "height": null, "height_m": null, "levels": null, "tract_id": "40121485700", "tract_name": "4857", "tags": {"building": "yes"}}}, {"type": "Feature", "geometry": {"type": "Polygon", "coordinates": [[[-95.3502459, 35.1231736], [-95.3499301, 35.1231868], [-95.3499292, 35.1231729], [-95.3498479, 35.1231763], [-95.3498428, 35.1230936], [-95.3499241, 35.1230902], [-95.3499219, 35.1230559], [-95.3502378, 35.1230428], [-95.3502459, 35.1231736]]]}, "properties": {"osm_id": 1033663663, "building": "yes", "name": "", "height": null, "height_m": null, "levels": null, "tract_id": "40121485700", "tract_name": "4857", "tags": {"building": "yes"}}}, {"type": "Feature", "geometry": {"type": "Polygon", "coordinates": [[[-95.3597496, 35.1229548], [-95.3596115, 35.1229921], [-95.3595775, 35.1229077], [-95.3597156, 35.1228704], [-95.3597496, 35.1229548]]]}, "properties": {"osm_id": 1033663669, "building": "yes", "name": "", "height": null, "height_m": null, "levels": null, "tract_id": "40121485700", "tract_name": "4857", "tags": {"building": "yes"}}}, {"type": "Feature", "geometry": {"type": "Polygon", "coordinates": [[[-95.3587478, 35.1252572], [-95.3587761, 35.1253744], [-95.3585944, 35.1254036], [-95.358587, 35.1253729], [-95.3585031, 35.1253864], [-95.3584823, 35.1252999], [-95.3587478, 35.1252572]]]}, "properties": {"osm_id": 1033663672, "building": "yes", "name": "", "height": null, "height_m": null, "levels": null, "tract_id": "40121485700", "tract_name": "4857", "tags": {"building": "yes"}}}, {"type": "Feature", "geometry": {"type": "Polygon", "coordinates": [[[-95.3590912, 35.12504], [-95.3591195, 35.1251481], [-95.3588566, 35.1251942], [-95.3588283, 35.125086], [-95.3590912, 35.12504]]]}, "properties": {"osm_id": 1033663673, "building": "yes", "name": "", "height": null, "height_m": null, "levels": null, "tract_id": "40121485700", "tract_name": "4857", "tags": {"building": "yes"}}}, {"type": "Feature", "geometry": {"type": "Polygon", "coordinates": [[[-95.36038, 35.1249062], [-95.3604063, 35.1249999], [-95.3602078, 35.1250372], [-95.3601815, 35.1249434], [-95.36038, 35.1249062]]]}, "properties": {"osm_id": 1033663676, "building": "yes", "name": "Big Red Tire & Supply", "height": null, "height_m": null, "levels": null, "tract_id": "40121485700", "tract_name": "4857", "tags": {"building": "yes", "name": "Big Red Tire & Supply", "phone": "+1 918 469 3438", "shop": "tyres"}}}, {"type": "Feature", "geometry": {"type": "Polygon", "coordinates": [[[-95.3614341, 35.1245913], [-95.3615573, 35.1250397], [-95.3615098, 35.1250485], [-95.3615292, 35.1251188], [-95.3614682, 35.1251301], [-95.361512, 35.1252892], [-95.3612632, 35.1253349], [-95.3612194, 35.1251758], [-95.361167, 35.1251854], [-95.3611477, 35.1251151], [-95.361104, 35.1251231], [-95.3609808, 35.1246747], [-95.3614341, 35.1245913]]]}, "properties": {"osm_id": 1033663681, "building": "yes", "name": "Quinton Event Center", "height": null, "height_m": null, "levels": null, "tract_id": "40121485700", "tract_name": "4857", "tags": {"amenity": "community_centre", "building": "yes", "name": "Quinton Event Center"}}}, {"type": "Feature", "geometry": {"type": "Polygon", "coordinates": [[[-95.3619638, 35.1248447], [-95.361882, 35.1245628], [-95.3619793, 35.1245439], [-95.3620611, 35.1248258], [-95.3619638, 35.1248447]]]}, "properties": {"osm_id": 1033663685, "building": "yes", "name": "", "height": null, "height_m": null, "levels": null, "tract_id": "40121485700", "tract_name": "4857", "tags": {"building": "yes"}}}, {"type": "Feature", "geometry": {"type": "Polygon", "coordinates": [[[-95.3622562, 35.1249731], [-95.3620027, 35.1250169], [-95.361974, 35.1249059], [-95.3622274, 35.124862], [-95.3622562, 35.1249731]]]}, "properties": {"osm_id": 1033663686, "building": "yes", "name": "", "height": null, "height_m": null, "levels": null, "tract_id": "40121485700", "tract_name": "4857", "tags": {"building": "yes"}}}, {"type": "Feature", "geometry": {"type": "Polygon", "coordinates": [[[-95.3621945, 35.1224721], [-95.3621663, 35.1223394], [-95.362301, 35.1223203], [-95.3623291, 35.122453], [-95.3621945, 35.1224721]]]}, "properties": {"osm_id": 1033663687, "building": "yes", "name": "", "height": null, "height_m": null, "levels": null, "tract_id": "40121485700", "tract_name": "4857", "tags": {"building": "yes"}}}, {"type": "Feature", "geometry": {"type": "Polygon", "coordinates": [[[-95.3617801, 35.122708], [-95.3616849, 35.1225324], [-95.3618162, 35.1224848], [-95.3618578, 35.1225616], [-95.3619183, 35.1225397], [-95.3619718, 35.1226384], [-95.3617801, 35.122708]]]}, "properties": {"osm_id": 1033663688, "building": "yes", "name": "", "height": null, "height_m": null, "levels": null, "tract_id": "40121485700", "tract_name": "4857", "tags": {"building": "yes"}}}, {"type": "Feature", "geometry": {"type": "Polygon", "coordinates": [[[-95.3626853, 35.1249774], [-95.3625039, 35.1250022], [-95.3624637, 35.1248047], [-95.3626451, 35.12478], [-95.3626853, 35.1249774]]]}, "properties": {"osm_id": 1033663690, "building": "yes", "name": "", "height": null, "height_m": null, "levels": null, "tract_id": "40121485700", "tract_name": "4857", "tags": {"building": "yes"}}}, {"type": "Feature", "geometry": {"type": "Polygon", "coordinates": [[[-95.3634873, 35.1244323], [-95.3635106, 35.1245106], [-95.3634076, 35.1245311], [-95.3634168, 35.1245623], [-95.3633584, 35.1245739], [-95.3633491, 35.1245427], [-95.3632679, 35.1245589], [-95.3632446, 35.1244806], [-95.3634873, 35.1244323]]]}, "properties": {"osm_id": 1033663692, "building": "yes", "name": "", "height": null, "height_m": null, "levels": null, "tract_id": "40121485700", "tract_name": "4857", "tags": {"building": "yes"}}}, {"type": "Feature", "geometry": {"type": "Polygon", "coordinates": [[[-95.3638655, 35.1243621], [-95.3638935, 35.1244494], [-95.363699, 35.1244911], [-95.363671, 35.1244038], [-95.3638655, 35.1243621]]]}, "properties": {"osm_id": 1033663693, "building": "yes", "name": "", "height": null, "height_m": null, "levels": null, "tract_id": "40121485700", "tract_name": "4857", "tags": {"building": "yes"}}}, {"type": "Feature", "geometry": {"type": "Polygon", "coordinates": [[[-95.3636321, 35.1235016], [-95.3636874, 35.1236974], [-95.3632515, 35.1237797], [-95.3631963, 35.1235838], [-95.3636321, 35.1235016]]]}, "properties": {"osm_id": 1033663697, "building": "yes", "name": "Dollar General", "height": null, "height_m": null, "levels": null, "tract_id": "40121485700", "tract_name": "4857", "tags": {"addr:housenumber": "621", "addr:street": "Main Street", "brand": "Dollar General", "brand:wikidata": "Q145168", "building": "yes", "name": "Dollar General", "opening_hours": "Mo-Su 08:00-22:00", "shop": "variety_store", "website": "https://www.dollargeneral.com/store-directory/ok/quinton/15204"}}}, {"type": "Feature", "geometry": {"type": "Polygon", "coordinates": [[[-95.3644542, 35.124265], [-95.3642806, 35.1242974], [-95.364265, 35.1242414], [-95.3644387, 35.1242091], [-95.3644542, 35.124265]]]}, "properties": {"osm_id": 1033663699, "building": "yes", "name": "", "height": null, "height_m": null, "levels": null, "tract_id": "40121485700", "tract_name": "4857", "tags": {"amenity": "car_wash", "building": "yes"}}}, {"type": "Feature", "geometry": {"type": "Polygon", "coordinates": [[[-95.3647365, 35.1243303], [-95.3644972, 35.1243742], [-95.364449, 35.1241984], [-95.3646884, 35.1241545], [-95.3647365, 35.1243303]]]}, "properties": {"osm_id": 1033663700, "building": "yes", "name": "Quinton Fire Department", "height": null, "height_m": null, "levels": null, "tract_id": "40121485700", "tract_name": "4857", "tags": {"amenity": "fire_station", "building": "yes", "name": "Quinton Fire Department"}}}, {"type": "Feature", "geometry": {"type": "Polygon", "coordinates": [[[-95.3652374, 35.1240473], [-95.3652915, 35.1242387], [-95.3647546, 35.1243402], [-95.3647005, 35.1241487], [-95.3652374, 35.1240473]]]}, "properties": {"osm_id": 1033663701, "building": "yes", "name": "", "height": null, "height_m": null, "levels": null, "tract_id": "40121485700", "tract_name": "4857", "tags": {"building": "yes"}}}, {"type": "Feature", "geometry": {"type": "Polygon", "coordinates": [[[-95.3656049, 35.1239881], [-95.365498, 35.1240063], [-95.3654645, 35.1238746], [-95.3655714, 35.1238564], [-95.3656049, 35.1239881]]]}, "properties": {"osm_id": 1033663709, "building": "yes", "name": "", "height": null, "height_m": null, "levels": null, "tract_id": "40121485700", "tract_name": "4857", "tags": {"building": "yes"}}}, {"type": "Feature", "geometry": {"type": "Polygon", "coordinates": [[[-95.3662352, 35.1237467], [-95.3663347, 35.1237277], [-95.3663642, 35.1238308], [-95.3662647, 35.1238498], [-95.3662352, 35.1237467]]]}, "properties": {"osm_id": 1033663710, "building": "yes", "name": "", "height": null, "height_m": null, "levels": null, "tract_id": "40121485700", "tract_name": "4857", "tags": {"building": "yes"}}}, {"type": "Feature", "geometry": {"type": "Polygon", "coordinates": [[[-95.3667998, 35.1237314], [-95.3667116, 35.1237457], [-95.3666874, 35.1236458], [-95.3667757, 35.1236316], [-95.3667998, 35.1237314]]]}, "properties": {"osm_id": 1033663711, "building": "yes", "name": "", "height": null, "height_m": null, "levels": null, "tract_id": "40121485700", "tract_name": "4857", "tags": {"building": "yes", "shop": "vacant"}}}, {"type": "Feature", "geometry": {"type": "Polygon", "coordinates": [[[-95.36685, 35.1232867], [-95.3667022, 35.123313], [-95.3666028, 35.1229392], [-95.3667507, 35.1229129], [-95.3667843, 35.1230394], [-95.36685, 35.1232867]]]}, "properties": {"osm_id": 1033663713, "building": "yes", "name": "", "height": null, "height_m": null, "levels": null, "tract_id": "40121485700", "tract_name": "4857", "tags": {"building": "yes"}}}, {"type": "Feature", "geometry": {"type": "Polygon", "coordinates": [[[-95.3670239, 35.1232817], [-95.3668566, 35.1233115], [-95.36685, 35.1232867], [-95.3667843, 35.1230394], [-95.3669516, 35.1230096], [-95.3670239, 35.1232817]]]}, "properties": {"osm_id": 1033663714, "building": "yes", "name": "", "height": null, "height_m": null, "levels": null, "tract_id": "40121485700", "tract_name": "4857", "tags": {"building": "yes", "shop": "vacant"}}}, {"type": "Feature", "geometry": {"type": "Polygon", "coordinates": [[[-95.3671801, 35.1232539], [-95.3670239, 35.1232817], [-95.3669516, 35.1230096], [-95.3671078, 35.1229818], [-95.3671801, 35.1232539]]]}, "properties": {"osm_id": 1033663715, "building": "yes", "name": "", "height": null, "height_m": null, "levels": null, "tract_id": "40121485700", "tract_name": "4857", "tags": {"building": "yes", "shop": "vacant"}}}, {"type": "Feature", "geometry": {"type": "Polygon", "coordinates": [[[-95.3671801, 35.1232539], [-95.3671078, 35.1229818], [-95.3672728, 35.1229525], [-95.3672984, 35.1230487], [-95.3673452, 35.1232246], [-95.3671801, 35.1232539]]]}, "properties": {"osm_id": 1033663716, "building": "yes", "name": "Quinton Tag Agency", "height": null, "height_m": null, "levels": null, "tract_id": "40121485700", "tract_name": "4857", "tags": {"addr:housenumber": "909", "building": "yes", "government": "tax", "name": "Quinton Tag Agency", "office": "government"}}}, {"type": "Feature", "geometry": {"type": "Polygon", "coordinates": [[[-95.3672571, 35.1235625], [-95.3672804, 35.1236445], [-95.3671355, 35.1236719], [-95.3671123, 35.1235899], [-95.3672571, 35.1235625]]]}, "properties": {"osm_id": 1033663717, "building": "yes", "name": "", "height": null, "height_m": null, "levels": null, "tract_id": "40121485700", "tract_name": "4857", "tags": {"building": "yes"}}}, {"type": "Feature", "geometry": {"type": "Polygon", "coordinates": [[[-95.3678385, 35.1234418], [-95.3677862, 35.1234523], [-95.3677708, 35.1234007], [-95.3678231, 35.1233902], [-95.3678385, 35.1234418]]]}, "properties": {"osm_id": 1033663719, "building": "yes", "name": "", "height": null, "height_m": null, "levels": null, "tract_id": "40121485700", "tract_name": "4857", "tags": {"building": "yes"}}}, {"type": "Feature", "geometry": {"type": "Polygon", "coordinates": [[[-95.3680916, 35.1235939], [-95.3678247, 35.12364], [-95.3677977, 35.1235355], [-95.3680646, 35.1234895], [-95.3680916, 35.1235939]]]}, "properties": {"osm_id": 1033663720, "building": "yes", "name": "", "height": null, "height_m": null, "levels": null, "tract_id": "40121485700", "tract_name": "4857", "tags": {"building": "yes", "shop": "yes"}}}, {"type": "Feature", "geometry": {"type": "Polygon", "coordinates": [[[-95.368146, 35.1236627], [-95.3680534, 35.1233254], [-95.3682218, 35.1232945], [-95.3683144, 35.1236318], [-95.368146, 35.1236627]]]}, "properties": {"osm_id": 1033663721, "building": "yes", "name": "", "height": null, "height_m": null, "levels": null, "tract_id": "40121485700", "tract_name": "4857", "tags": {"building": "yes", "shop": "yes"}}}, {"type": "Feature", "geometry": {"type": "Polygon", "coordinates": [[[-95.3677695, 35.1227946], [-95.3678821, 35.1227738], [-95.367898, 35.1228314], [-95.3677854, 35.1228522], [-95.3677695, 35.1227946]]]}, "properties": {"osm_id": 1033663722, "building": "yes", "name": "", "height": null, "height_m": null, "levels": null, "tract_id": "40121485700", "tract_name": "4857", "tags": {"building": "yes"}}}, {"type": "Feature", "geometry": {"type": "Polygon", "coordinates": [[[-95.3677098, 35.122986], [-95.3676702, 35.1228198], [-95.3677643, 35.1228048], [-95.3678039, 35.122971], [-95.3677098, 35.122986]]]}, "properties": {"osm_id": 1033663723, "building": "yes", "name": "", "height": null, "height_m": null, "levels": null, "tract_id": "40121485700", "tract_name": "4857", "tags": {"building": "yes"}}}, {"type": "Feature", "geometry": {"type": "Polygon", "coordinates": [[[-95.3681302, 35.1229723], [-95.3679995, 35.1229946], [-95.3679974, 35.122986], [-95.3679215, 35.122999], [-95.367897, 35.1229025], [-95.3679675, 35.1228905], [-95.3679526, 35.122832], [-95.3680886, 35.1228089], [-95.3681302, 35.1229723]]]}, "properties": {"osm_id": 1033663724, "building": "yes", "name": "", "height": null, "height_m": null, "levels": null, "tract_id": "40121485700", "tract_name": "4857", "tags": {"building": "yes"}}}, {"type": "Feature", "geometry": {"type": "Polygon", "coordinates": [[[-95.3681959, 35.123071], [-95.3681141, 35.1228089], [-95.3682691, 35.1227765], [-95.3683509, 35.1230387], [-95.3681959, 35.123071]]]}, "properties": {"osm_id": 1033663725, "building": "yes", "name": "", "height": null, "height_m": null, "levels": null, "tract_id": "40121485700", "tract_name": "4857", "tags": {"building": "yes", "shop": "yes"}}}, {"type": "Feature", "geometry": {"type": "Polygon", "coordinates": [[[-95.3689615, 35.1229329], [-95.3688785, 35.1229486], [-95.3687793, 35.1225971], [-95.3688623, 35.1225814], [-95.3688833, 35.1226559], [-95.3689615, 35.1229329]]]}, "properties": {"osm_id": 1033663726, "building": "yes", "name": "", "height": null, "height_m": null, "levels": null, "tract_id": "40121485700", "tract_name": "4857", "tags": {"building": "yes"}}}, {"type": "Feature", "geometry": {"type": "Polygon", "coordinates": [[[-95.3691185, 35.1229033], [-95.3690407, 35.122918], [-95.3690104, 35.1228107], [-95.3690882, 35.122796], [-95.3690957, 35.1228226], [-95.3691185, 35.1229033]]]}, "properties": {"osm_id": 1033663727, "building": "yes", "name": "Workman's TV", "height": null, "height_m": null, "levels": null, "tract_id": "40121485700", "tract_name": "4857", "tags": {"building": "yes", "name": "Workman's TV", "shop": "electronics"}}}, {"type": "Feature", "geometry": {"type": "Polygon", "coordinates": [[[-95.3691185, 35.1229033], [-95.3692023, 35.1228875], [-95.3691795, 35.1228067], [-95.3690957, 35.1228226], [-95.3691185, 35.1229033]]]}, "properties": {"osm_id": 1033663728, "building": "yes", "name": "", "height": null, "height_m": null, "levels": null, "tract_id": "40121485700", "tract_name": "4857", "tags": {"building": "yes", "shop": "vacant"}}}, {"type": "Feature", "geometry": {"type": "Polygon", "coordinates": [[[-95.3692058, 35.122878], [-95.3691602, 35.1227299], [-95.3692173, 35.1227181], [-95.3692629, 35.1228662], [-95.3692058, 35.122878]]]}, "properties": {"osm_id": 1033663730, "building": "yes", "name": "Perfect Salon & Spa", "height": null, "height_m": null, "levels": null, "tract_id": "40121485700", "tract_name": "4857", "tags": {"addr:housenumber": "1113", "building": "yes", "name": "Perfect Salon & Spa", "shop": "beauty"}}}, {"type": "Feature", "geometry": {"type": "Polygon", "coordinates": [[[-95.3699011, 35.1232147], [-95.3697832, 35.1232318], [-95.3697453, 35.1230573], [-95.3698634, 35.1230402], [-95.3699011, 35.1232147]]]}, "properties": {"osm_id": 1033663731, "building": "commercial", "name": "Choctaw Gas Company", "height": null, "height_m": null, "levels": null, "tract_id": "40121485700", "tract_name": "4857", "tags": {"building": "commercial", "name": "Choctaw Gas Company", "shop": "gas"}}}, {"type": "Feature", "geometry": {"type": "Polygon", "coordinates": [[[-95.37016, 35.1226449], [-95.3700344, 35.1226706], [-95.3700102, 35.1225916], [-95.3701358, 35.1225659], [-95.37016, 35.1226449]]]}, "properties": {"osm_id": 1033663732, "building": "yes", "name": "Hallmark Medical", "height": null, "height_m": null, "levels": null, "tract_id": "40121485700", "tract_name": "4857", "tags": {"building": "yes", "name": "Hallmark Medical", "shop": "medical_supply"}}}, {"type": "Feature", "geometry": {"type": "Polygon", "coordinates": [[[-95.3709693, 35.1224666], [-95.3706433, 35.1225247], [-95.3706598, 35.1225867], [-95.3705479, 35.1226066], [-95.3705314, 35.1225446], [-95.3701928, 35.1226048], [-95.3701641, 35.1224969], [-95.3704427, 35.1224473], [-95.3704201, 35.1223623], [-95.3705061, 35.122347], [-95.3704812, 35.1222537], [-95.3703602, 35.1222753], [-95.3703279, 35.122154], [-95.3708857, 35.1220547], [-95.3709181, 35.1221768], [-95.3705743, 35.122238], [-95.3705938, 35.1223114], [-95.3707202, 35.1222889], [-95.3707339, 35.1223402], [-95.3706075, 35.1223627], [-95.3706215, 35.1224155], [-95.3709406, 35.1223587], [-95.3709693, 35.1224666]]]}, "properties": {"osm_id": 1033663736, "building": "yes", "name": "Quinton Manor", "height": null, "height_m": null, "levels": null, "tract_id": "40121485700", "tract_name": "4857", "tags": {"addr:housenumber": "1209", "addr:street": "West Main Street", "building": "yes", "name": "Quinton Manor"}}}, {"type": "Feature", "geometry": {"type": "Polygon", "coordinates": [[[-95.3721669, 35.1222363], [-95.3720049, 35.1222733], [-95.3719606, 35.1221439], [-95.3721227, 35.1221068], [-95.3721669, 35.1222363]]]}, "properties": {"osm_id": 1033663737, "building": "yes", "name": "", "height": null, "height_m": null, "levels": null, "tract_id": "40121485700", "tract_name": "4857", "tags": {"building": "yes"}}}, {"type": "Feature", "geometry": {"type": "Polygon", "coordinates": [[[-95.3717297, 35.1217273], [-95.371797, 35.1219567], [-95.3715938, 35.1219966], [-95.3716125, 35.1220604], [-95.3715179, 35.1220789], [-95.3714992, 35.1220151], [-95.3714671, 35.1220214], [-95.3713998, 35.121792], [-95.3717297, 35.1217273]]]}, "properties": {"osm_id": 1033663738, "building": "yes", "name": "", "height": null, "height_m": null, "levels": null, "tract_id": "40121485700", "tract_name": "4857", "tags": {"amenity": "place_of_worship", "building": "yes", "religion": "christian"}}}, {"type": "Feature", "geometry": {"type": "Polygon", "coordinates": [[[-95.3707802, 35.1232257], [-95.3702116, 35.1233321], [-95.3701079, 35.1229615], [-95.3702881, 35.1229277], [-95.3703458, 35.1231338], [-95.3707342, 35.1230611], [-95.3707802, 35.1232257]]]}, "properties": {"osm_id": 1033663739, "building": "yes", "name": "Wimberly's Home Furnishings", "height": null, "height_m": null, "levels": null, "tract_id": "40121485700", "tract_name": "4857", "tags": {"building": "yes", "name": "Wimberly's Home Furnishings", "phone": "+1 918 469 2994", "shop": "furniture"}}}, {"type": "Feature", "geometry": {"type": "Polygon", "coordinates": [[[-95.3711222, 35.1230074], [-95.370942, 35.1230372], [-95.3708924, 35.1228365], [-95.3710726, 35.1228067], [-95.3711222, 35.1230074]]]}, "properties": {"osm_id": 1033663740, "building": "yes", "name": "", "height": null, "height_m": null, "levels": null, "tract_id": "40121485700", "tract_name": "4857", "tags": {"building": "yes"}}}, {"type": "Feature", "geometry": {"type": "Polygon", "coordinates": [[[-95.3719724, 35.1234739], [-95.3718512, 35.1234918], [-95.371832, 35.1234049], [-95.3718735, 35.1233988], [-95.3718405, 35.1232494], [-95.371814, 35.1232533], [-95.3718161, 35.1232626], [-95.3717436, 35.1232733], [-95.3717415, 35.123264], [-95.3716778, 35.1232734], [-95.3716589, 35.123188], [-95.3719014, 35.1231522], [-95.3719724, 35.1234739]]]}, "properties": {"osm_id": 1033663741, "building": "yes", "name": "", "height": null, "height_m": null, "levels": null, "tract_id": "40121485700", "tract_name": "4857", "tags": {"building": "yes"}}}, {"type": "Feature", "geometry": {"type": "Polygon", "coordinates": [[[-95.3716895, 35.123059], [-95.3716316, 35.1230692], [-95.3716169, 35.1230132], [-95.3716747, 35.123003], [-95.3716895, 35.123059]]]}, "properties": {"osm_id": 1033663742, "building": "yes", "name": "", "height": null, "height_m": null, "levels": null, "tract_id": "40121485700", "tract_name": "4857", "tags": {"building": "yes"}}}, {"type": "Feature", "geometry": {"type": "Polygon", "coordinates": [[[-95.3717043, 35.1230568], [-95.3716815, 35.1229767], [-95.3717783, 35.1229582], [-95.3718011, 35.1230383], [-95.3717043, 35.1230568]]]}, "properties": {"osm_id": 1033663743, "building": "yes", "name": "", "height": null, "height_m": null, "levels": null, "tract_id": "40121485700", "tract_name": "4857", "tags": {"building": "yes"}}}, {"type": "Feature", "geometry": {"type": "Polygon", "coordinates": [[[-95.3717163, 35.1228352], [-95.3716425, 35.1228487], [-95.3716143, 35.1227456], [-95.3716882, 35.1227321], [-95.3717163, 35.1228352]]]}, "properties": {"osm_id": 1033663744, "building": "yes", "name": "", "height": null, "height_m": null, "levels": null, "tract_id": "40121485700", "tract_name": "4857", "tags": {"building": "yes"}}}, {"type": "Feature", "geometry": {"type": "Polygon", "coordinates": [[[-95.3715044, 35.1228736], [-95.3714789, 35.1227716], [-95.3716031, 35.1227508], [-95.3716286, 35.1228528], [-95.3715044, 35.1228736]]]}, "properties": {"osm_id": 1033663745, "building": "yes", "name": "", "height": null, "height_m": null, "levels": null, "tract_id": "40121485700", "tract_name": "4857", "tags": {"building": "yes"}}}, {"type": "Feature", "geometry": {"type": "Polygon", "coordinates": [[[-95.3714387, 35.122878], [-95.3714516, 35.1229327], [-95.3713819, 35.1229437], [-95.371369, 35.1228889], [-95.3714387, 35.122878]]]}, "properties": {"osm_id": 1033663746, "building": "yes", "name": "", "height": null, "height_m": null, "levels": null, "tract_id": "40121485700", "tract_name": "4857", "tags": {"building": "yes"}}}, {"type": "Feature", "geometry": {"type": "Polygon", "coordinates": [[[-95.3719886, 35.123738], [-95.3720167, 35.123839], [-95.3718517, 35.1238697], [-95.3718236, 35.1237687], [-95.3719886, 35.123738]]]}, "properties": {"osm_id": 1033663747, "building": "yes", "name": "", "height": null, "height_m": null, "levels": null, "tract_id": "40121485700", "tract_name": "4857", "tags": {"building": "yes"}}}, {"type": "Feature", "geometry": {"type": "Polygon", "coordinates": [[[-95.371255, 35.1239211], [-95.3712295, 35.1238257], [-95.3713195, 35.1238096], [-95.3713449, 35.1239051], [-95.371255, 35.1239211]]]}, "properties": {"osm_id": 1033663748, "building": "yes", "name": "", "height": null, "height_m": null, "levels": null, "tract_id": "40121485700", "tract_name": "4857", "tags": {"building": "yes"}}}, {"type": "Feature", "geometry": {"type": "Polygon", "coordinates": [[[-95.3713368, 35.1242831], [-95.3713582, 35.1243771], [-95.3713191, 35.124383], [-95.371315, 35.1243648], [-95.3712738, 35.1243711], [-95.3712853, 35.1244215], [-95.3712446, 35.1244277], [-95.3712331, 35.1243773], [-95.3712173, 35.1243797], [-95.3712, 35.124304], [-95.3713368, 35.1242831]]]}, "properties": {"osm_id": 1033663750, "building": "yes", "name": "", "height": null, "height_m": null, "levels": null, "tract_id": "40121485700", "tract_name": "4857", "tags": {"building": "yes"}}}, {"type": "Feature", "geometry": {"type": "Polygon", "coordinates": [[[-95.3714776, 35.1245244], [-95.3713889, 35.1245397], [-95.3713567, 35.1244147], [-95.3714454, 35.1243994], [-95.3714776, 35.1245244]]]}, "properties": {"osm_id": 1033663751, "building": "yes", "name": "", "height": null, "height_m": null, "levels": null, "tract_id": "40121485700", "tract_name": "4857", "tags": {"building": "yes"}}}, {"type": "Feature", "geometry": {"type": "Polygon", "coordinates": [[[-95.3721596, 35.1249232], [-95.3721138, 35.1249304], [-95.3720964, 35.1248563], [-95.3721421, 35.1248491], [-95.3721596, 35.1249232]]]}, "properties": {"osm_id": 1033663753, "building": "yes", "name": "", "height": null, "height_m": null, "levels": null, "tract_id": "40121485700", "tract_name": "4857", "tags": {"building": "yes"}}}, {"type": "Feature", "geometry": {"type": "Polygon", "coordinates": [[[-95.372116, 35.1246934], [-95.3720368, 35.1247043], [-95.3720244, 35.1246444], [-95.3721036, 35.1246334], [-95.372116, 35.1246934]]]}, "properties": {"osm_id": 1033663754, "building": "yes", "name": "", "height": null, "height_m": null, "levels": null, "tract_id": "40121485700", "tract_name": "4857", "tags": {"building": "yes"}}}, {"type": "Feature", "geometry": {"type": "Polygon", "coordinates": [[[-95.3720905, 35.12478], [-95.3721073, 35.1248499], [-95.3719303, 35.1248784], [-95.3719135, 35.1248085], [-95.3720905, 35.12478]]]}, "properties": {"osm_id": 1033663755, "building": "yes", "name": "", "height": null, "height_m": null, "levels": null, "tract_id": "40121485700", "tract_name": "4857", "tags": {"building": "yes"}}}, {"type": "Feature", "geometry": {"type": "Polygon", "coordinates": [[[-95.3716224, 35.1250093], [-95.3715582, 35.1250206], [-95.3715273, 35.1249032], [-95.3715916, 35.1248919], [-95.3716224, 35.1250093]]]}, "properties": {"osm_id": 1033663756, "building": "yes", "name": "", "height": null, "height_m": null, "levels": null, "tract_id": "40121485700", "tract_name": "4857", "tags": {"building": "yes"}}}, {"type": "Feature", "geometry": {"type": "Polygon", "coordinates": [[[-95.3716694, 35.1255094], [-95.371641, 35.125413], [-95.3717418, 35.1253932], [-95.3717702, 35.1254896], [-95.3716694, 35.1255094]]]}, "properties": {"osm_id": 1033663757, "building": "yes", "name": "", "height": null, "height_m": null, "levels": null, "tract_id": "40121485700", "tract_name": "4857", "tags": {"building": "yes"}}}, {"type": "Feature", "geometry": {"type": "Polygon", "coordinates": [[[-95.372348, 35.1253811], [-95.3722031, 35.1254096], [-95.3721873, 35.1253559], [-95.3722379, 35.1253459], [-95.3722278, 35.1253116], [-95.3723221, 35.125293], [-95.372348, 35.1253811]]]}, "properties": {"osm_id": 1033663758, "building": "yes", "name": "", "height": null, "height_m": null, "levels": null, "tract_id": "40121485700", "tract_name": "4857", "tags": {"building": "yes"}}}, {"type": "Feature", "geometry": {"type": "Polygon", "coordinates": [[[-95.3724378, 35.1257738], [-95.3722595, 35.1258034], [-95.3722338, 35.1256999], [-95.3724121, 35.1256703], [-95.3724378, 35.1257738]]]}, "properties": {"osm_id": 1033663760, "building": "yes", "name": "", "height": null, "height_m": null, "levels": null, "tract_id": "40121485700", "tract_name": "4857", "tags": {"building": "yes"}}}, {"type": "Feature", "geometry": {"type": "Polygon", "coordinates": [[[-95.3718424, 35.1259548], [-95.371728, 35.1259754], [-95.3717142, 35.1259243], [-95.3715683, 35.1259507], [-95.371549, 35.1258791], [-95.3716281, 35.1258648], [-95.3716217, 35.1258411], [-95.3716885, 35.125829], [-95.3716824, 35.1258065], [-95.3717968, 35.1257859], [-95.3718424, 35.1259548]]]}, "properties": {"osm_id": 1033663761, "building": "yes", "name": "", "height": null, "height_m": null, "levels": null, "tract_id": "40121485700", "tract_name": "4857", "tags": {"building": "yes"}}}, {"type": "Feature", "geometry": {"type": "Polygon", "coordinates": [[[-95.3716721, 35.1271032], [-95.3715742, 35.1267785], [-95.3716854, 35.1267561], [-95.3717833, 35.1270808], [-95.3716721, 35.1271032]]]}, "properties": {"osm_id": 1033663764, "building": "yes", "name": "", "height": null, "height_m": null, "levels": null, "tract_id": "40121485700", "tract_name": "4857", "tags": {"building": "yes"}}}, {"type": "Feature", "geometry": {"type": "Polygon", "coordinates": [[[-95.3718813, 35.1270516], [-95.3717887, 35.1267368], [-95.3718859, 35.1267177], [-95.3719784, 35.1270325], [-95.3718813, 35.1270516]]]}, "properties": {"osm_id": 1033663765, "building": "yes", "name": "", "height": null, "height_m": null, "levels": null, "tract_id": "40121485700", "tract_name": "4857", "tags": {"building": "yes"}}}, {"type": "Feature", "geometry": {"type": "Polygon", "coordinates": [[[-95.3720583, 35.1269145], [-95.3719886, 35.1266941], [-95.3720628, 35.1266784], [-95.3721326, 35.1268988], [-95.3720583, 35.1269145]]]}, "properties": {"osm_id": 1033663766, "building": "yes", "name": "", "height": null, "height_m": null, "levels": null, "tract_id": "40121485700", "tract_name": "4857", "tags": {"amenity": "car_wash", "building": "yes", "self_service": "yes"}}}, {"type": "Feature", "geometry": {"type": "Polygon", "coordinates": [[[-95.3726859, 35.1272754], [-95.3726417, 35.1271295], [-95.3727323, 35.1271111], [-95.3727765, 35.127257], [-95.3726859, 35.1272754]]]}, "properties": {"osm_id": 1033663768, "building": "yes", "name": "", "height": null, "height_m": null, "levels": null, "tract_id": "40121485700", "tract_name": "4857", "tags": {"building": "yes"}}}, {"type": "Feature", "geometry": {"type": "Polygon", "coordinates": [[[-95.3740941, 35.1284808], [-95.3739077, 35.1285022], [-95.3738955, 35.1284311], [-95.3739527, 35.1284245], [-95.3739408, 35.1283549], [-95.3739913, 35.1283491], [-95.3740033, 35.1284187], [-95.3740819, 35.1284097], [-95.3740941, 35.1284808]]]}, "properties": {"osm_id": 1033663771, "building": "yes", "name": "", "height": null, "height_m": null, "levels": null, "tract_id": "40121485700", "tract_name": "4857", "tags": {"building": "yes"}}}, {"type": "Feature", "geometry": {"type": "Polygon", "coordinates": [[[-95.3743529, 35.1279664], [-95.3743094, 35.1279841], [-95.3742142, 35.1278272], [-95.3742577, 35.1278096], [-95.3743529, 35.1279664]]]}, "properties": {"osm_id": 1033663772, "building": "yes", "name": "", "height": null, "height_m": null, "levels": null, "tract_id": "40121485700", "tract_name": "4857", "tags": {"building": "yes"}}}, {"type": "Feature", "geometry": {"type": "Polygon", "coordinates": [[[-95.3758188, 35.1282527], [-95.3757229, 35.1282597], [-95.3757068, 35.1281127], [-95.3758027, 35.1281057], [-95.3758188, 35.1282527]]]}, "properties": {"osm_id": 1033663775, "building": "yes", "name": "", "height": null, "height_m": null, "levels": null, "tract_id": "40121485700", "tract_name": "4857", "tags": {"building": "yes"}}}, {"type": "Feature", "geometry": {"type": "Polygon", "coordinates": [[[-95.3767817, 35.1281156], [-95.3766502, 35.1280235], [-95.376555, 35.1280147], [-95.3765644, 35.1279401], [-95.3767165, 35.1279602], [-95.3768479, 35.1280524], [-95.3767817, 35.1281156]]]}, "properties": {"osm_id": 1033663776, "building": "yes", "name": "", "height": null, "height_m": null, "levels": null, "tract_id": "40121485700", "tract_name": "4857", "tags": {"building": "yes"}}}, {"type": "Feature", "geometry": {"type": "Polygon", "coordinates": [[[-95.3764839, 35.1283755], [-95.3762063, 35.1284808], [-95.376137, 35.1283585], [-95.376031, 35.1283987], [-95.3759947, 35.1283346], [-95.3761006, 35.1282944], [-95.3760632, 35.1282285], [-95.3761562, 35.1281932], [-95.3762454, 35.1283506], [-95.3764301, 35.1282805], [-95.3764839, 35.1283755]]]}, "properties": {"osm_id": 1033663777, "building": "yes", "name": "", "height": null, "height_m": null, "levels": null, "tract_id": "40121485700", "tract_name": "4857", "tags": {"building": "yes"}}}, {"type": "Feature", "geometry": {"type": "Polygon", "coordinates": [[[-95.3786391, 35.1333748], [-95.3785332, 35.1333847], [-95.3785218, 35.1333034], [-95.3786278, 35.1332936], [-95.3786391, 35.1333748]]]}, "properties": {"osm_id": 1033663778, "building": "yes", "name": "", "height": null, "height_m": null, "levels": null, "tract_id": "40121485700", "tract_name": "4857", "tags": {"building": "yes"}}}, {"type": "Feature", "geometry": {"type": "Polygon", "coordinates": [[[-95.3783025, 35.1333781], [-95.3782381, 35.13323], [-95.3783366, 35.1332014], [-95.3784009, 35.1333495], [-95.3783025, 35.1333781]]]}, "properties": {"osm_id": 1033663779, "building": "yes", "name": "", "height": null, "height_m": null, "levels": null, "tract_id": "40121485700", "tract_name": "4857", "tags": {"building": "yes"}}}, {"type": "Feature", "geometry": {"type": "Polygon", "coordinates": [[[-95.3807205, 35.1289722], [-95.3806172, 35.1289722], [-95.3806172, 35.1289327], [-95.3807205, 35.1289327], [-95.3807205, 35.1289722]]]}, "properties": {"osm_id": 1033663781, "building": "yes", "name": "", "height": null, "height_m": null, "levels": null, "tract_id": "40121485700", "tract_name": "4857", "tags": {"building": "yes"}}}, {"type": "Feature", "geometry": {"type": "Polygon", "coordinates": [[[-95.3808211, 35.1288252], [-95.3808228, 35.1289163], [-95.3806444, 35.1289185], [-95.3806427, 35.1288274], [-95.3808211, 35.1288252]]]}, "properties": {"osm_id": 1033663782, "building": "yes", "name": "", "height": null, "height_m": null, "levels": null, "tract_id": "40121485700", "tract_name": "4857", "tags": {"building": "yes"}}}, {"type": "Feature", "geometry": {"type": "Polygon", "coordinates": [[[-95.378973, 35.1306372], [-95.3787142, 35.130612], [-95.3787417, 35.1304234], [-95.3788745, 35.1304363], [-95.3788637, 35.13051], [-95.3789898, 35.1305223], [-95.378973, 35.1306372]]]}, "properties": {"osm_id": 1033663783, "building": "yes", "name": "", "height": null, "height_m": null, "levels": null, "tract_id": "40121485700", "tract_name": "4857", "tags": {"building": "yes"}}}, {"type": "Feature", "geometry": {"type": "Polygon", "coordinates": [[[-95.3808533, 35.1308258], [-95.3808197, 35.1307853], [-95.3808497, 35.1307687], [-95.3808832, 35.1308093], [-95.3808533, 35.1308258]]]}, "properties": {"osm_id": 1033663784, "building": "yes", "name": "", "height": null, "height_m": null, "levels": null, "tract_id": "40121485700", "tract_name": "4857", "tags": {"building": "yes"}}}, {"type": "Feature", "geometry": {"type": "Polygon", "coordinates": [[[-95.38086, 35.1307293], [-95.3809498, 35.1306712], [-95.3810116, 35.1307351], [-95.3809218, 35.1307932], [-95.38086, 35.1307293]]]}, "properties": {"osm_id": 1033663785, "building": "yes", "name": "", "height": null, "height_m": null, "levels": null, "tract_id": "40121485700", "tract_name": "4857", "tags": {"building": "yes"}}}, {"type": "Feature", "geometry": {"type": "Polygon", "coordinates": [[[-95.3808747, 35.1306822], [-95.3807446, 35.1305516], [-95.3808091, 35.1305086], [-95.3809392, 35.1306392], [-95.3808747, 35.1306822]]]}, "properties": {"osm_id": 1033663786, "building": "yes", "name": "", "height": null, "height_m": null, "levels": null, "tract_id": "40121485700", "tract_name": "4857", "tags": {"building": "yes"}}}, {"type": "Feature", "geometry": {"type": "Polygon", "coordinates": [[[-95.3806213, 35.1317132], [-95.3805891, 35.1316781], [-95.3806331, 35.1316511], [-95.3806652, 35.1316862], [-95.3806213, 35.1317132]]]}, "properties": {"osm_id": 1033663787, "building": "yes", "name": "", "height": null, "height_m": null, "levels": null, "tract_id": "40121485700", "tract_name": "4857", "tags": {"building": "yes"}}}, {"type": "Feature", "geometry": {"type": "Polygon", "coordinates": [[[-95.3840867, 35.1309629], [-95.3840322, 35.1309625], [-95.384033, 35.1309015], [-95.3840875, 35.130902], [-95.3840867, 35.1309629]]]}, "properties": {"osm_id": 1033663789, "building": "yes", "name": "", "height": null, "height_m": null, "levels": null, "tract_id": "40121485700", "tract_name": "4857", "tags": {"building": "yes"}}}, {"type": "Feature", "geometry": {"type": "Polygon", "coordinates": [[[-95.3840692, 35.1310397], [-95.3839909, 35.131039], [-95.3839915, 35.1309969], [-95.3840698, 35.1309976], [-95.3840692, 35.1310397]]]}, "properties": {"osm_id": 1033663790, "building": "yes", "name": "", "height": null, "height_m": null, "levels": null, "tract_id": "40121485700", "tract_name": "4857", "tags": {"building": "yes"}}}, {"type": "Feature", "geometry": {"type": "Polygon", "coordinates": [[[-95.3839915, 35.1311242], [-95.3839224, 35.1311236], [-95.3839231, 35.1310704], [-95.3839922, 35.131071], [-95.3839915, 35.1311242]]]}, "properties": {"osm_id": 1033663791, "building": "yes", "name": "", "height": null, "height_m": null, "levels": null, "tract_id": "40121485700", "tract_name": "4857", "tags": {"building": "yes"}}}, {"type": "Feature", "geometry": {"type": "Polygon", "coordinates": [[[-95.3839244, 35.1308664], [-95.3839228, 35.1309866], [-95.3838734, 35.1309862], [-95.3838731, 35.1310095], [-95.383798, 35.1310088], [-95.3837984, 35.1309855], [-95.3837273, 35.1309849], [-95.3837288, 35.1308647], [-95.3839244, 35.1308664]]]}, "properties": {"osm_id": 1033663792, "building": "yes", "name": "", "height": null, "height_m": null, "levels": null, "tract_id": "40121485700", "tract_name": "4857", "tags": {"building": "yes"}}}, {"type": "Feature", "geometry": {"type": "Polygon", "coordinates": [[[-95.3840478, 35.1306405], [-95.3837997, 35.1306383], [-95.3838004, 35.13058], [-95.3838613, 35.1305805], [-95.3838619, 35.1305371], [-95.3840491, 35.1305387], [-95.3840478, 35.1306405]]]}, "properties": {"osm_id": 1033663793, "building": "yes", "name": "", "height": null, "height_m": null, "levels": null, "tract_id": "40121485700", "tract_name": "4857", "tags": {"building": "yes"}}}, {"type": "Feature", "geometry": {"type": "Polygon", "coordinates": [[[-95.386152, 35.1308708], [-95.3860366, 35.1308752], [-95.3860323, 35.1307989], [-95.3861476, 35.1307945], [-95.386152, 35.1308708]]]}, "properties": {"osm_id": 1033663795, "building": "yes", "name": "", "height": null, "height_m": null, "levels": null, "tract_id": "40121485700", "tract_name": "4857", "tags": {"building": "yes"}}}, {"type": "Feature", "geometry": {"type": "Polygon", "coordinates": [[[-95.385236, 35.1315037], [-95.3851495, 35.1315135], [-95.3851394, 35.1314543], [-95.385226, 35.1314445], [-95.385236, 35.1315037]]]}, "properties": {"osm_id": 1033663796, "building": "yes", "name": "", "height": null, "height_m": null, "levels": null, "tract_id": "40121485700", "tract_name": "4857", "tags": {"building": "yes"}}}, {"type": "Feature", "geometry": {"type": "Polygon", "coordinates": [[[-95.3852414, 35.1317834], [-95.3851241, 35.1317966], [-95.3851131, 35.1317319], [-95.3850775, 35.131736], [-95.3850677, 35.1316785], [-95.3851034, 35.1316745], [-95.3850932, 35.1316146], [-95.3852105, 35.1316013], [-95.3852414, 35.1317834]]]}, "properties": {"osm_id": 1033663797, "building": "yes", "name": "", "height": null, "height_m": null, "levels": null, "tract_id": "40121485700", "tract_name": "4857", "tags": {"building": "yes"}}}, {"type": "Feature", "geometry": {"type": "Polygon", "coordinates": [[[-95.3904878, 35.1462335], [-95.3903577, 35.1462281], [-95.3903561, 35.1462534], [-95.3902142, 35.1462475], [-95.3902237, 35.1460949], [-95.3903749, 35.1461012], [-95.3903723, 35.1461426], [-95.3904931, 35.1461476], [-95.3904878, 35.1462335]]]}, "properties": {"osm_id": 1033663804, "building": "yes", "name": "", "height": null, "height_m": null, "levels": null, "tract_id": "40121485700", "tract_name": "4857", "tags": {"building": "yes"}}}, {"type": "Feature", "geometry": {"type": "Polygon", "coordinates": [[[-95.390245, 35.1460657], [-95.3901645, 35.1460623], [-95.3901713, 35.1459538], [-95.3902517, 35.1459572], [-95.390245, 35.1460657]]]}, "properties": {"osm_id": 1033663805, "building": "yes", "name": "", "height": null, "height_m": null, "levels": null, "tract_id": "40121485700", "tract_name": "4857", "tags": {"building": "yes"}}}, {"type": "Feature", "geometry": {"type": "Polygon", "coordinates": [[[-95.3904127, 35.1458694], [-95.390408, 35.1459449], [-95.3903054, 35.1459407], [-95.3903101, 35.1458651], [-95.3904127, 35.1458694]]]}, "properties": {"osm_id": 1033663806, "building": "yes", "name": "", "height": null, "height_m": null, "levels": null, "tract_id": "40121485700", "tract_name": "4857", "tags": {"building": "yes"}}}, {"type": "Feature", "geometry": {"type": "Polygon", "coordinates": [[[-95.3911798, 35.1459056], [-95.3911768, 35.1459532], [-95.3910336, 35.1459472], [-95.3910365, 35.1458996], [-95.3911798, 35.1459056]]]}, "properties": {"osm_id": 1033663807, "building": "yes", "name": "", "height": null, "height_m": null, "levels": null, "tract_id": "40121485700", "tract_name": "4857", "tags": {"building": "yes"}}}, {"type": "Feature", "geometry": {"type": "Polygon", "coordinates": [[[-95.3906755, 35.1460898], [-95.3906903, 35.1458518], [-95.390848, 35.1458584], [-95.3908395, 35.1459956], [-95.3907952, 35.1459937], [-95.390789, 35.1460945], [-95.3906755, 35.1460898]]]}, "properties": {"osm_id": 1033663808, "building": "yes", "name": "", "height": null, "height_m": null, "levels": null, "tract_id": "40121485700", "tract_name": "4857", "tags": {"building": "yes"}}}, {"type": "Feature", "geometry": {"type": "Polygon", "coordinates": [[[-95.3892043, 35.1445271], [-95.3893076, 35.144378], [-95.3893943, 35.1444181], [-95.389291, 35.1445673], [-95.3892043, 35.1445271]]]}, "properties": {"osm_id": 1033663809, "building": "yes", "name": "", "height": null, "height_m": null, "levels": null, "tract_id": "40121485700", "tract_name": "4857", "tags": {"building": "yes"}}}, {"type": "Feature", "geometry": {"type": "Polygon", "coordinates": [[[-95.3901418, 35.1447596], [-95.3900089, 35.1447359], [-95.3900438, 35.1446054], [-95.3901766, 35.1446291], [-95.3901418, 35.1447596]]]}, "properties": {"osm_id": 1033663810, "building": "yes", "name": "", "height": null, "height_m": null, "levels": null, "tract_id": "40121485700", "tract_name": "4857", "tags": {"building": "yes"}}}, {"type": "Feature", "geometry": {"type": "Polygon", "coordinates": [[[-95.3927234, 35.1389824], [-95.3927347, 35.1390594], [-95.3926848, 35.1390643], [-95.3926886, 35.1390903], [-95.392559, 35.1391031], [-95.3925552, 35.1390771], [-95.3924679, 35.1390857], [-95.3924565, 35.1390087], [-95.3927234, 35.1389824]]]}, "properties": {"osm_id": 1033663814, "building": "yes", "name": "", "height": null, "height_m": null, "levels": null, "tract_id": "40121485700", "tract_name": "4857", "tags": {"building": "yes"}}}, {"type": "Feature", "geometry": {"type": "Polygon", "coordinates": [[[-95.3919442, 35.1390175], [-95.3918852, 35.1389857], [-95.3919197, 35.1389428], [-95.3919788, 35.1389746], [-95.3919442, 35.1390175]]]}, "properties": {"osm_id": 1033663815, "building": "yes", "name": "", "height": null, "height_m": null, "levels": null, "tract_id": "40121485700", "tract_name": "4857", "tags": {"building": "yes"}}}, {"type": "Feature", "geometry": {"type": "Polygon", "coordinates": [[[-95.3920247, 35.1392533], [-95.3918557, 35.1391656], [-95.3919284, 35.1390718], [-95.3920974, 35.1391596], [-95.3920247, 35.1392533]]]}, "properties": {"osm_id": 1033663816, "building": "yes", "name": "", "height": null, "height_m": null, "levels": null, "tract_id": "40121485700", "tract_name": "4857", "tags": {"building": "yes"}}}, {"type": "Feature", "geometry": {"type": "Polygon", "coordinates": [[[-95.3907077, 35.1396678], [-95.3906278, 35.139608], [-95.3906554, 35.1395834], [-95.3907353, 35.1396432], [-95.3907077, 35.1396678]]]}, "properties": {"osm_id": 1033663817, "building": "yes", "name": "", "height": null, "height_m": null, "levels": null, "tract_id": "40121485700", "tract_name": "4857", "tags": {"building": "yes"}}}, {"type": "Feature", "geometry": {"type": "Polygon", "coordinates": [[[-95.3905736, 35.1395275], [-95.3904761, 35.1396146], [-95.3903755, 35.1395392], [-95.3904012, 35.1395163], [-95.3903429, 35.1394726], [-95.3904147, 35.1394085], [-95.3905736, 35.1395275]]]}, "properties": {"osm_id": 1033663818, "building": "yes", "name": "", "height": null, "height_m": null, "levels": null, "tract_id": "40121485700", "tract_name": "4857", "tags": {"building": "yes"}}}, {"type": "Feature", "geometry": {"type": "Polygon", "coordinates": [[[-95.3924699, 35.140509], [-95.3923278, 35.1404827], [-95.3923448, 35.1404211], [-95.392487, 35.1404475], [-95.3924699, 35.140509]]]}, "properties": {"osm_id": 1033663819, "building": "yes", "name": "", "height": null, "height_m": null, "levels": null, "tract_id": "40121485700", "tract_name": "4857", "tags": {"building": "yes"}}}, {"type": "Feature", "geometry": {"type": "Polygon", "coordinates": [[[-95.3920206, 35.1406307], [-95.391963, 35.1405529], [-95.39202, 35.1405246], [-95.3920776, 35.1406025], [-95.3920206, 35.1406307]]]}, "properties": {"osm_id": 1033663820, "building": "yes", "name": "", "height": null, "height_m": null, "levels": null, "tract_id": "40121485700", "tract_name": "4857", "tags": {"building": "yes"}}}, {"type": "Feature", "geometry": {"type": "Polygon", "coordinates": [[[-95.3916787, 35.1408632], [-95.3915969, 35.1408281], [-95.3916223, 35.1407885], [-95.3917041, 35.1408236], [-95.3916787, 35.1408632]]]}, "properties": {"osm_id": 1033663821, "building": "yes", "name": "", "height": null, "height_m": null, "levels": null, "tract_id": "40121485700", "tract_name": "4857", "tags": {"building": "yes"}}}, {"type": "Feature", "geometry": {"type": "Polygon", "coordinates": [[[-95.3916505, 35.1413611], [-95.3914453, 35.1414017], [-95.3914143, 35.1412969], [-95.3916195, 35.1412563], [-95.3916505, 35.1413611]]]}, "properties": {"osm_id": 1033663822, "building": "yes", "name": "", "height": null, "height_m": null, "levels": null, "tract_id": "40121485700", "tract_name": "4857", "tags": {"building": "yes"}}}, {"type": "Feature", "geometry": {"type": "Polygon", "coordinates": [[[-95.3925303, 35.1408687], [-95.3923506, 35.1409641], [-95.3922687, 35.140861], [-95.3924484, 35.1407656], [-95.3925303, 35.1408687]]]}, "properties": {"osm_id": 1033663823, "building": "yes", "name": "", "height": null, "height_m": null, "levels": null, "tract_id": "40121485700", "tract_name": "4857", "tags": {"building": "yes"}}}, {"type": "Feature", "geometry": {"type": "Polygon", "coordinates": [[[-95.3913662, 35.1428317], [-95.3913035, 35.1428438], [-95.3912875, 35.1427879], [-95.3913501, 35.1427758], [-95.3913662, 35.1428317]]]}, "properties": {"osm_id": 1033663825, "building": "yes", "name": "", "height": null, "height_m": null, "levels": null, "tract_id": "40121485700", "tract_name": "4857", "tags": {"building": "yes"}}}, {"type": "Feature", "geometry": {"type": "Polygon", "coordinates": [[[-95.3911677, 35.1432167], [-95.3910968, 35.1430746], [-95.3912014, 35.1430397], [-95.3912724, 35.1431817], [-95.3911677, 35.1432167]]]}, "properties": {"osm_id": 1033663826, "building": "yes", "name": "", "height": null, "height_m": null, "levels": null, "tract_id": "40121485700", "tract_name": "4857", "tags": {"building": "yes"}}}, {"type": "Feature", "geometry": {"type": "Polygon", "coordinates": [[[-95.3908619, 35.1428679], [-95.3907815, 35.142687], [-95.3909012, 35.1426514], [-95.3909817, 35.1428323], [-95.3908619, 35.1428679]]]}, "properties": {"osm_id": 1033663827, "building": "yes", "name": "", "height": null, "height_m": null, "levels": null, "tract_id": "40121485700", "tract_name": "4857", "tags": {"building": "yes"}}}, {"type": "Feature", "geometry": {"type": "Polygon", "coordinates": [[[-95.3935213, 35.1467171], [-95.3934489, 35.146727], [-95.3934074, 35.1465253], [-95.3934798, 35.1465153], [-95.3935213, 35.1467171]]]}, "properties": {"osm_id": 1033663831, "building": "yes", "name": "", "height": null, "height_m": null, "levels": null, "tract_id": "40121485700", "tract_name": "4857", "tags": {"building": "yes"}}}, {"type": "Feature", "geometry": {"type": "Polygon", "coordinates": [[[-95.3928092, 35.1465888], [-95.3927261, 35.1463969], [-95.3928192, 35.1463699], [-95.3928674, 35.1464812], [-95.3929227, 35.1464652], [-95.3929576, 35.1465458], [-95.3928092, 35.1465888]]]}, "properties": {"osm_id": 1033663832, "building": "yes", "name": "", "height": null, "height_m": null, "levels": null, "tract_id": "40121485700", "tract_name": "4857", "tags": {"building": "yes"}}}, {"type": "Feature", "geometry": {"type": "Polygon", "coordinates": [[[-95.3932625, 35.1466557], [-95.3930949, 35.1466842], [-95.3930722, 35.1465952], [-95.3932399, 35.1465667], [-95.3932625, 35.1466557]]]}, "properties": {"osm_id": 1033663833, "building": "yes", "name": "", "height": null, "height_m": null, "levels": null, "tract_id": "40121485700", "tract_name": "4857", "tags": {"building": "yes"}}}, {"type": "Feature", "geometry": {"type": "Polygon", "coordinates": [[[-95.3933725, 35.1469254], [-95.3931753, 35.1469594], [-95.3931413, 35.1468274], [-95.3933384, 35.1467934], [-95.3933725, 35.1469254]]]}, "properties": {"osm_id": 1033663834, "building": "yes", "name": "", "height": null, "height_m": null, "levels": null, "tract_id": "40121485700", "tract_name": "4857", "tags": {"building": "yes"}}}, {"type": "Feature", "geometry": {"type": "Polygon", "coordinates": [[[-95.3920059, 35.1480363], [-95.3918262, 35.148048], [-95.3918061, 35.1478418], [-95.3919858, 35.1478301], [-95.3920059, 35.1480363]]]}, "properties": {"osm_id": 1033663836, "building": "yes", "name": "", "height": null, "height_m": null, "levels": null, "tract_id": "40121485700", "tract_name": "4857", "tags": {"building": "yes"}}}, {"type": "Feature", "geometry": {"type": "Polygon", "coordinates": [[[-95.3906862, 35.1485138], [-95.3907104, 35.1483751], [-95.3908407, 35.1483903], [-95.3908166, 35.148529], [-95.3906862, 35.1485138]]]}, "properties": {"osm_id": 1033663838, "building": "yes", "name": "", "height": null, "height_m": null, "levels": null, "tract_id": "40121485700", "tract_name": "4857", "tags": {"building": "yes"}}}, {"type": "Feature", "geometry": {"type": "Polygon", "coordinates": [[[-95.3905401, 35.1486087], [-95.3905629, 35.148502], [-95.3906848, 35.1485194], [-95.3906434, 35.1487127], [-95.3905753, 35.148703], [-95.3905939, 35.1486164], [-95.3905401, 35.1486087]]]}, "properties": {"osm_id": 1033663839, "building": "yes", "name": "", "height": null, "height_m": null, "levels": null, "tract_id": "40121485700", "tract_name": "4857", "tags": {"building": "yes"}}}, {"type": "Feature", "geometry": {"type": "Polygon", "coordinates": [[[-95.3902477, 35.1489201], [-95.3901092, 35.1488978], [-95.3901427, 35.1487585], [-95.3902812, 35.1487808], [-95.3902477, 35.1489201]]]}, "properties": {"osm_id": 1033663840, "building": "yes", "name": "", "height": null, "height_m": null, "levels": null, "tract_id": "40121485700", "tract_name": "4857", "tags": {"building": "yes"}}}, {"type": "Feature", "geometry": {"type": "Polygon", "coordinates": [[[-95.3907801, 35.148896], [-95.3907713, 35.1489399], [-95.3906077, 35.148918], [-95.3906165, 35.148874], [-95.3907801, 35.148896]]]}, "properties": {"osm_id": 1033663841, "building": "yes", "name": "", "height": null, "height_m": null, "levels": null, "tract_id": "40121485700", "tract_name": "4857", "tags": {"building": "yes"}}}, {"type": "Feature", "geometry": {"type": "Polygon", "coordinates": [[[-95.3908391, 35.1488543], [-95.3906299, 35.1488291], [-95.3906526, 35.1487031], [-95.3908618, 35.1487283], [-95.3908391, 35.1488543]]]}, "properties": {"osm_id": 1033663842, "building": "yes", "name": "", "height": null, "height_m": null, "levels": null, "tract_id": "40121485700", "tract_name": "4857", "tags": {"building": "yes"}}}, {"type": "Feature", "geometry": {"type": "Polygon", "coordinates": [[[-95.3925826, 35.1501504], [-95.3925855, 35.1501904], [-95.3925184, 35.1501937], [-95.3925155, 35.1501537], [-95.3925826, 35.1501504]]]}, "properties": {"osm_id": 1033663844, "building": "yes", "name": "", "height": null, "height_m": null, "levels": null, "tract_id": "40121485700", "tract_name": "4857", "tags": {"building": "yes"}}}, {"type": "Feature", "geometry": {"type": "Polygon", "coordinates": [[[-95.3926818, 35.1501767], [-95.3927738, 35.1502424], [-95.3926263, 35.1503806], [-95.3925343, 35.1503149], [-95.3926818, 35.1501767]]]}, "properties": {"osm_id": 1033663846, "building": "yes", "name": "", "height": null, "height_m": null, "levels": null, "tract_id": "40121485700", "tract_name": "4857", "tags": {"building": "yes"}}}, {"type": "Feature", "geometry": {"type": "Polygon", "coordinates": [[[-95.3921735, 35.151111], [-95.3922808, 35.151111], [-95.3922808, 35.1512952], [-95.3922379, 35.1512952], [-95.3922379, 35.1513237], [-95.3921735, 35.1513237], [-95.3921735, 35.151111]]]}, "properties": {"osm_id": 1033663848, "building": "yes", "name": "", "height": null, "height_m": null, "levels": null, "tract_id": "40121485700", "tract_name": "4857", "tags": {"building": "yes"}}}, {"type": "Feature", "geometry": {"type": "Polygon", "coordinates": [[[-95.3502761, 35.0938188], [-95.3502814, 35.0937453], [-95.3503728, 35.0937497], [-95.3503674, 35.0938232], [-95.3502761, 35.0938188]]]}, "properties": {"osm_id": 1033670842, "building": "yes", "name": "", "height": null, "height_m": null, "levels": null, "tract_id": "40121485700", "tract_name": "4857", "tags": {"building": "yes"}}}, {"type": "Feature", "geometry": {"type": "Polygon", "coordinates": [[[-95.3507522, 35.0937859], [-95.3507608, 35.0938545], [-95.3505381, 35.0938731], [-95.3505296, 35.0938045], [-95.3507522, 35.0937859]]]}, "properties": {"osm_id": 1033670843, "building": "yes", "name": "", "height": null, "height_m": null, "levels": null, "tract_id": "40121485700", "tract_name": "4857", "tags": {"building": "yes"}}}, {"type": "Feature", "geometry": {"type": "Polygon", "coordinates": [[[-95.3500025, 35.0940426], [-95.3499131, 35.0940281], [-95.3499498, 35.0938773], [-95.3499824, 35.0938826], [-95.349998, 35.0938183], [-95.3500548, 35.0938276], [-95.3500025, 35.0940426]]]}, "properties": {"osm_id": 1033670844, "building": "yes", "name": "", "height": null, "height_m": null, "levels": null, "tract_id": "40121485700", "tract_name": "4857", "tags": {"building": "yes"}}}, {"type": "Feature", "geometry": {"type": "Polygon", "coordinates": [[[-95.3555788, 35.0943861], [-95.3555848, 35.0944357], [-95.3554628, 35.0944456], [-95.3554568, 35.094396], [-95.3555788, 35.0943861]]]}, "properties": {"osm_id": 1033670846, "building": "yes", "name": "", "height": null, "height_m": null, "levels": null, "tract_id": "40121485700", "tract_name": "4857", "tags": {"building": "yes"}}}, {"type": "Feature", "geometry": {"type": "Polygon", "coordinates": [[[-95.3528376, 35.0944607], [-95.3527742, 35.0944558], [-95.3527809, 35.0943977], [-95.3528443, 35.0944025], [-95.3528376, 35.0944607]]]}, "properties": {"osm_id": 1033670847, "building": "yes", "name": "", "height": null, "height_m": null, "levels": null, "tract_id": "40121485700", "tract_name": "4857", "tags": {"building": "yes"}}}, {"type": "Feature", "geometry": {"type": "Polygon", "coordinates": [[[-95.3531273, 35.0944914], [-95.3529301, 35.094475], [-95.3529406, 35.0943913], [-95.3531377, 35.0944078], [-95.3531273, 35.0944914]]]}, "properties": {"osm_id": 1033670848, "building": "yes", "name": "", "height": null, "height_m": null, "levels": null, "tract_id": "40121485700", "tract_name": "4857", "tags": {"building": "yes"}}}, {"type": "Feature", "geometry": {"type": "Polygon", "coordinates": [[[-95.353602, 35.0946033], [-95.3534719, 35.0945968], [-95.3534767, 35.0945341], [-95.3536068, 35.0945407], [-95.353602, 35.0946033]]]}, "properties": {"osm_id": 1033670849, "building": "yes", "name": "", "height": null, "height_m": null, "levels": null, "tract_id": "40121485700", "tract_name": "4857", "tags": {"building": "yes"}}}, {"type": "Feature", "geometry": {"type": "Polygon", "coordinates": [[[-95.3537589, 35.094284], [-95.3535765, 35.0942687], [-95.3535911, 35.0941531], [-95.3537735, 35.0941685], [-95.3537589, 35.094284]]]}, "properties": {"osm_id": 1033670850, "building": "yes", "name": "", "height": null, "height_m": null, "levels": null, "tract_id": "40121485700", "tract_name": "4857", "tags": {"building": "yes"}}}, {"type": "Feature", "geometry": {"type": "Polygon", "coordinates": [[[-95.3517996, 35.0912982], [-95.3518007, 35.0913345], [-95.3518263, 35.0913339], [-95.3518294, 35.0914292], [-95.3516509, 35.0914331], [-95.3516467, 35.0913015], [-95.3517996, 35.0912982]]]}, "properties": {"osm_id": 1033670851, "building": "yes", "name": "", "height": null, "height_m": null, "levels": null, "tract_id": "40121485700", "tract_name": "4857", "tags": {"building": "yes"}}}, {"type": "Feature", "geometry": {"type": "Polygon", "coordinates": [[[-95.3519779, 35.0911292], [-95.3519779, 35.0911775], [-95.3518988, 35.0911775], [-95.3518988, 35.0911292], [-95.3519779, 35.0911292]]]}, "properties": {"osm_id": 1033670852, "building": "yes", "name": "", "height": null, "height_m": null, "levels": null, "tract_id": "40121485700", "tract_name": "4857", "tags": {"building": "yes"}}}, {"type": "Feature", "geometry": {"type": "Polygon", "coordinates": [[[-95.351821, 35.0912082], [-95.3518197, 35.0911259], [-95.3518801, 35.0911253], [-95.3518814, 35.0912076], [-95.351821, 35.0912082]]]}, "properties": {"osm_id": 1033670853, "building": "yes", "name": "", "height": null, "height_m": null, "levels": null, "tract_id": "40121485700", "tract_name": "4857", "tags": {"building": "yes"}}}, {"type": "Feature", "geometry": {"type": "Polygon", "coordinates": [[[-95.3517661, 35.0911325], [-95.3517652, 35.0911918], [-95.3515412, 35.0911896], [-95.3515421, 35.0911303], [-95.3517661, 35.0911325]]]}, "properties": {"osm_id": 1033670854, "building": "yes", "name": "", "height": null, "height_m": null, "levels": null, "tract_id": "40121485700", "tract_name": "4857", "tags": {"building": "yes"}}}, {"type": "Feature", "geometry": {"type": "Polygon", "coordinates": [[[-95.5699289, 35.0543039], [-95.5699266, 35.054395], [-95.5697023, 35.0543912], [-95.5697017, 35.0544158], [-95.5696077, 35.0544142], [-95.5696083, 35.0543896], [-95.5694049, 35.0543862], [-95.5694072, 35.0542952], [-95.5695696, 35.0542979], [-95.5695704, 35.0542651], [-95.569699, 35.0542673], [-95.5696982, 35.0543001], [-95.5699289, 35.0543039]]]}, "properties": {"osm_id": 1073674054, "building": "yes", "name": "Blocker Church", "height": null, "height_m": null, "levels": null, "tract_id": "40121485700", "tract_name": "4857", "tags": {"amenity": "place_of_worship", "building": "yes", "ele": "199", "gnis:feature_id": "1090256", "name": "Blocker Church", "religion": "christian"}}}]}