{"type": "FeatureCollection", "features": [{"type": "Feature", "geometry": {"type": "Polygon", "coordinates": [[[-95.8658469, 36.1112425], [-95.8657591, 36.1111686], [-95.8657843, 36.1111496], [-95.8658506, 36.1110993], [-95.8659373, 36.1111738], [-95.8659211, 36.1111862], [-95.8658469, 36.1112425]]]}, "properties": {"osm_id": 158189189, "building": "service", "name": "", "height": null, "height_m": null, "levels": null, "tract_id": "40143009011", "tract_name": "90.11", "tags": {"building": "service", "source": "Bing"}}}, {"type": "Feature", "geometry": {"type": "Polygon", "coordinates": [[[-95.8639894, 36.1101768], [-95.8638016, 36.110465], [-95.8636407, 36.1104043], [-95.8635388, 36.1105755], [-95.8632813, 36.1104758], [-95.8631659, 36.1106687], [-95.8629594, 36.1105885], [-95.8631123, 36.110335], [-95.8630265, 36.1103003], [-95.8628762, 36.1105538], [-95.8626697, 36.1104693], [-95.8628065, 36.1102331], [-95.8627448, 36.1102136], [-95.8626778, 36.1102288], [-95.862482, 36.1101573], [-95.8625142, 36.1100858], [-95.8624712, 36.1100685], [-95.8625705, 36.1098864], [-95.8625946, 36.1098929], [-95.8626241, 36.1098518], [-95.8628092, 36.1099276], [-95.862836, 36.1098951], [-95.8629889, 36.1099536], [-95.8630881, 36.1097629], [-95.8632947, 36.1098409], [-95.8631472, 36.1100988], [-95.863233, 36.110127], [-95.8633912, 36.1098669], [-95.8636031, 36.1099493], [-95.8635468, 36.110036], [-95.8636782, 36.1100858], [-95.8636085, 36.110205], [-95.8637211, 36.110244], [-95.863815, 36.1101161], [-95.8639894, 36.1101768]]]}, "properties": {"osm_id": 250022720, "building": "school", "name": "Roy Clark Elementary", "height": null, "height_m": null, "levels": null, "tract_id": "40143009011", "tract_name": "90.11", "tags": {"addr:city": "Tulsa", "addr:country": "US", "addr:housenumber": "3656", "addr:postcode": "74146", "addr:state": "OK", "addr:street": "South 103rd Avenue East", "amenity": "school", "building": "school", "name": "Roy Clark Elementary", "operator": "Union Public Schools"}}}, {"type": "Feature", "geometry": {"type": "Polygon", "coordinates": [[[-95.862563, 36.1185595], [-95.8625626, 36.1186466], [-95.8620385, 36.1186449], [-95.8620389, 36.1185578], [-95.862563, 36.1185595]]]}, "properties": {"osm_id": 336105099, "building": "roof", "name": "QuikTrip", "height": null, "height_m": null, "levels": null, "tract_id": "40143009011", "tract_name": "90.11", "tags": {"amenity": "fuel", "brand": "QuikTrip", "brand:wikidata": "Q7271953", "building": "roof", "layer": "1", "name": "QuikTrip", "opening_hours": "24/7", "short_name": "QT"}}}, {"type": "Feature", "geometry": {"type": "Polygon", "coordinates": [[[-95.8624932, 36.1182967], [-95.8624927, 36.1183914], [-95.8623939, 36.118391], [-95.8623939, 36.1184054], [-95.8622265, 36.1184049], [-95.8622266, 36.1183905], [-95.8621041, 36.1183901], [-95.8621045, 36.1182954], [-95.8624932, 36.1182967]]]}, "properties": {"osm_id": 336105100, "building": "yes", "name": "QuikTrip", "height": null, "height_m": null, "levels": null, "tract_id": "40143009011", "tract_name": "90.11", "tags": {"addr:city": "Tulsa", "addr:country": "US", "addr:housenumber": "10220", "addr:postcode": "74146", "addr:state": "OK", "addr:street": "East 31st Street South", "brand": "QuikTrip", "brand:wikidata": "Q7271953", "building": "yes", "name": "QuikTrip", "opening_hours": "24/7", "shop": "convenience", "short_name": "QT"}}}, {"type": "Feature", "geometry": {"type": "Polygon", "coordinates": [[[-95.8667133, 36.1048205], [-95.8665674, 36.1048202], [-95.8665676, 36.1047314], [-95.8665419, 36.1047314], [-95.8665418, 36.1047584], [-95.866515, 36.1047583], [-95.8665152, 36.1046563], [-95.8667096, 36.1046566], [-95.8667095, 36.1046972], [-95.8667522, 36.1046973], [-95.8667521, 36.1047469], [-95.8667135, 36.1047468], [-95.8667133, 36.1048205]]]}, "properties": {"osm_id": 724432561, "building": "detached", "name": "", "height": null, "height_m": null, "levels": null, "tract_id": "40143009011", "tract_name": "90.11", "tags": {"addr:city": "Tulsa", "addr:country": "US", "addr:housenumber": "4020", "addr:postcode": "74146", "addr:state": "OK", "addr:street": "South 100th Avenue East", "building": "detached", "source": "INCOG"}}}, {"type": "Feature", "geometry": {"type": "Polygon", "coordinates": [[[-95.8665771, 36.1049558], [-95.866511, 36.1049514], [-95.8665031, 36.1050517], [-95.866515, 36.1050517], [-95.8665142, 36.1050601], [-95.8665431, 36.1050619], [-95.8665445, 36.1050523], [-95.8667553, 36.1050583], [-95.8667598, 36.1049974], [-95.8667982, 36.1049998], [-95.8668019, 36.1049531], [-95.866762, 36.1049519], [-95.8667664, 36.1048946], [-95.8665793, 36.104885], [-95.8665771, 36.1049558]]]}, "properties": {"osm_id": 724432562, "building": "yes", "name": "", "height": null, "height_m": null, "levels": null, "tract_id": "40143009011", "tract_name": "90.11", "tags": {"addr:city": "Tulsa", "addr:country": "US", "addr:housenumber": "4014", "addr:postcode": "74146", "addr:state": "OK", "addr:street": "South 100th Avenue East", "building": "yes", "source": "INCOG"}}}, {"type": "Feature", "geometry": {"type": "Polygon", "coordinates": [[[-95.8667376, 36.1052582], [-95.8664884, 36.1052424], [-95.8664994, 36.1051288], [-95.8667486, 36.1051446], [-95.8667376, 36.1052582]]]}, "properties": {"osm_id": 724432563, "building": "detached", "name": "", "height": null, "height_m": null, "levels": null, "tract_id": "40143009011", "tract_name": "90.11", "tags": {"addr:city": "Tulsa", "addr:country": "US", "addr:housenumber": "9910", "addr:postcode": "74146", "addr:state": "OK", "addr:street": "East 40th Street South", "building": "detached"}}}, {"type": "Feature", "geometry": {"type": "Polygon", "coordinates": [[[-95.866832, 36.1056787], [-95.866688, 36.1056784], [-95.8666882, 36.1056095], [-95.8666499, 36.1056095], [-95.8666501, 36.1055586], [-95.8666858, 36.1055586], [-95.8666859, 36.1055206], [-95.8668896, 36.1055209], [-95.8668894, 36.1055971], [-95.8668545, 36.105597], [-95.8668545, 36.1056203], [-95.8668322, 36.1056202], [-95.866832, 36.1056787]]]}, "properties": {"osm_id": 724432564, "building": "detached", "name": "", "height": null, "height_m": null, "levels": null, "tract_id": "40143009011", "tract_name": "90.11", "tags": {"addr:city": "Tulsa", "addr:country": "US", "addr:housenumber": "3873", "addr:postcode": "74146", "addr:state": "OK", "addr:street": "South 99th Avenue East", "building": "detached"}}}, {"type": "Feature", "geometry": {"type": "Polygon", "coordinates": [[[-95.8612503, 36.1075557], [-95.8608953, 36.1075578], [-95.8608937, 36.1073736], [-95.8610437, 36.1073728], [-95.8610441, 36.1074229], [-95.8610936, 36.1074226], [-95.8610937, 36.1074423], [-95.8612493, 36.1074414], [-95.8612503, 36.1075557]]]}, "properties": {"osm_id": 734035635, "building": "yes", "name": "", "height": null, "height_m": null, "levels": null, "tract_id": "40143009011", "tract_name": "90.11", "tags": {"addr:city": "Tulsa", "addr:country": "US", "addr:housenumber": "3845", "addr:postcode": "74146", "addr:state": "OK", "addr:street": "South 103rd Avenue East", "building": "yes"}}}, {"type": "Feature", "geometry": {"type": "Polygon", "coordinates": [[[-95.8625418, 36.1078336], [-95.8619591, 36.1076375], [-95.8620652, 36.1074317], [-95.8622262, 36.1074859], [-95.8622693, 36.1074023], [-95.8621083, 36.1073481], [-95.862213, 36.107145], [-95.8627957, 36.1073411], [-95.8626907, 36.1075449], [-95.8624788, 36.1074736], [-95.8624362, 36.1075563], [-95.862648, 36.1076276], [-95.8625418, 36.1078336]]]}, "properties": {"osm_id": 734035636, "building": "yes", "name": "", "height": null, "height_m": null, "levels": null, "tract_id": "40143009011", "tract_name": "90.11", "tags": {"addr:city": "Tulsa", "addr:country": "US", "addr:housenumber": "3840", "addr:postcode": "74146", "addr:state": "OK", "addr:street": "South 103rd Avenue East", "building": "yes"}}}, {"type": "Feature", "geometry": {"type": "Polygon", "coordinates": [[[-95.8626759, 36.1085179], [-95.862065, 36.1086116], [-95.8620137, 36.1083931], [-95.8621868, 36.1083666], [-95.862166, 36.1082782], [-95.8619929, 36.1083048], [-95.8619414, 36.1080858], [-95.8625523, 36.107992], [-95.8626041, 36.1082125], [-95.8625908, 36.1082146], [-95.8625965, 36.1082386], [-95.8623981, 36.108269], [-95.8624076, 36.1083094], [-95.8626059, 36.108279], [-95.8626115, 36.1083028], [-95.8626249, 36.1083007], [-95.8626759, 36.1085179]]]}, "properties": {"osm_id": 734035637, "building": "office", "name": "", "height": null, "height_m": null, "levels": null, "tract_id": "40143009011", "tract_name": "90.11", "tags": {"addr:city": "Tulsa", "addr:country": "US", "addr:housenumber": "3810", "addr:postcode": "74146", "addr:state": "OK", "addr:street": "South 103rd Avenue East", "building": "office"}}}, {"type": "Feature", "geometry": {"type": "Polygon", "coordinates": [[[-95.8674482, 36.1158329], [-95.8673721, 36.1158329], [-95.8673721, 36.1158159], [-95.8673691, 36.1158159], [-95.8673691, 36.1157812], [-95.8673595, 36.1157812], [-95.8673595, 36.1157053], [-95.8673212, 36.1157053], [-95.8673212, 36.1156366], [-95.8673386, 36.1156366], [-95.8673386, 36.1156019], [-95.8673554, 36.1156019], [-95.8673554, 36.115581], [-95.8674482, 36.115581], [-95.8674482, 36.1155973], [-95.8674536, 36.1155973], [-95.8674536, 36.1156089], [-95.8674975, 36.1156089], [-95.8674975, 36.1157059], [-95.8674593, 36.1157059], [-95.8674593, 36.1157827], [-95.8674511, 36.1157827], [-95.8674511, 36.1158164], [-95.8674482, 36.1158164], [-95.8674482, 36.1158329]]]}, "properties": {"osm_id": 752883221, "building": "office", "name": "", "height": null, "height_m": null, "levels": null, "tract_id": "40143009011", "tract_name": "90.11", "tags": {"addr:city": "Tulsa", "addr:country": "US", "addr:housenumber": "9730", "addr:postcode": "74146", "addr:state": "OK", "addr:street": "East 33rd Street South", "building": "office", "office": "property_management"}}}, {"type": "Feature", "geometry": {"type": "Polygon", "coordinates": [[[-95.8636442, 36.1186959], [-95.8636442, 36.1186147], [-95.8636613, 36.1186009], [-95.8636613, 36.1185589], [-95.8636442, 36.1185445], [-95.8636442, 36.1183956], [-95.8635887, 36.1183956], [-95.8635887, 36.1184037], [-95.8635404, 36.1184037], [-95.8635404, 36.1183956], [-95.8634883, 36.1183956], [-95.8634883, 36.1186959], [-95.8636442, 36.1186959]]]}, "properties": {"osm_id": 1173558930, "building": "retail", "name": "Braum's", "height": null, "height_m": null, "levels": null, "tract_id": "40143009011", "tract_name": "90.11", "tags": {"addr:city": "Tulsa", "addr:country": "US", "addr:housenumber": "10142", "addr:postcode": "74146", "addr:state": "OK", "addr:street": "East 31st Street South", "amenity": "fast_food", "brand": "Braum's", "brand:wikidata": "Q4958263", "building": "retail", "cuisine": "ice_cream;burger", "name": "Braum's", "opening_hours": "Mo-Su 06:00-22:45", "phone": "+1-918-622-0041", "ref": "63", "shop": "dairy", "takeaway": "yes"}}}, {"type": "Feature", "geometry": {"type": "Polygon", "coordinates": [[[-95.8681429, 36.1187783], [-95.8680095, 36.118778], [-95.8680097, 36.1187106], [-95.8681431, 36.1187109], [-95.8681429, 36.1187783]]]}, "properties": {"osm_id": 1179617222, "building": "roof", "name": "QS Foods", "height": null, "height_m": null, "levels": null, "tract_id": "40143009011", "tract_name": "90.11", "tags": {"amenity": "fuel", "building": "roof", "name": "QS Foods"}}}, {"type": "Feature", "geometry": {"type": "Polygon", "coordinates": [[[-95.8684359, 36.1185838], [-95.8683545, 36.1185842], [-95.8683538, 36.1184737], [-95.8684353, 36.1184733], [-95.8684359, 36.1185838]]]}, "properties": {"osm_id": 1179617223, "building": "roof", "name": "QS Foods", "height": null, "height_m": null, "levels": null, "tract_id": "40143009011", "tract_name": "90.11", "tags": {"amenity": "fuel", "building": "roof", "name": "QS Foods"}}}, {"type": "Feature", "geometry": {"type": "Polygon", "coordinates": [[[-95.8679528, 36.1183913], [-95.8681573, 36.118391], [-95.8681576, 36.11851], [-95.8681092, 36.1185492], [-95.8679531, 36.1185494], [-95.8679528, 36.1183913]]]}, "properties": {"osm_id": 1179617224, "building": "commercial", "name": "QS Foods", "height": null, "height_m": null, "levels": null, "tract_id": "40143009011", "tract_name": "90.11", "tags": {"addr:city": "Tulsa", "addr:housenumber": "3111", "addr:postcode": "74146", "addr:street": "South Mingo Road East", "building": "commercial", "name": "QS Foods", "shop": "convenience"}}}, {"type": "Feature", "geometry": {"type": "Polygon", "coordinates": [[[-95.8659469, 36.118695], [-95.8658136, 36.118696], [-95.8658112, 36.118496], [-95.8659459, 36.118495], [-95.865947, 36.1185814], [-95.865974, 36.1185812], [-95.8659745, 36.1186243], [-95.865946, 36.1186245], [-95.8659469, 36.118695]]]}, "properties": {"osm_id": 1191893412, "building": "yes", "name": "Taco Bueno", "height": null, "height_m": null, "levels": null, "tract_id": "40143009011", "tract_name": "90.11", "tags": {"addr:city": "Tulsa", "addr:country": "US", "addr:housenumber": "9760", "addr:postcode": "74146", "addr:state": "OK", "addr:street": "East 31st Street South", "amenity": "fast_food", "brand": "Taco Bueno", "brand:wikidata": "Q7673958", "building": "yes", "cuisine": "mexican", "drive_through": "yes", "name": "Taco Bueno", "opening_hours": "Mo-Su 10:30-22:00", "phone": "+19186229512", "takeaway": "yes", "website": "https://www.tacobueno.com/"}}}, {"type": "Feature", "geometry": {"type": "Polygon", "coordinates": [[[-95.8616479, 36.1159901], [-95.8618744, 36.1158184], [-95.8618541, 36.115801], [-95.8618714, 36.1157879], [-95.8617578, 36.1156901], [-95.8615642, 36.1158369], [-95.8615936, 36.1158622], [-95.8615438, 36.1159], [-95.8613578, 36.1157398], [-95.8612265, 36.1158394], [-95.8612444, 36.1158548], [-95.8612102, 36.1158807], [-95.8613462, 36.1159978], [-95.8611094, 36.1161773], [-95.8612272, 36.1162787], [-95.86126, 36.1162538], [-95.8612854, 36.1162757], [-95.8614683, 36.1161371], [-95.8614415, 36.116114], [-95.8614726, 36.1160905], [-95.8616814, 36.1162702], [-95.8617864, 36.1161906], [-95.8617679, 36.1161747], [-95.8617986, 36.1161515], [-95.8617801, 36.1161356], [-95.8617996, 36.1161208], [-95.8616479, 36.1159901]]]}, "properties": {"osm_id": 1197850796, "building": "yes", "name": "", "height": null, "height_m": null, "levels": null, "tract_id": "40143009011", "tract_name": "90.11", "tags": {"building": "yes", "source": "microsoft/BuildingFootprints"}}}, {"type": "Feature", "geometry": {"type": "Polygon", "coordinates": [[[-95.8612182, 36.1150934], [-95.8612154, 36.1152169], [-95.8612664, 36.1152176], [-95.8612653, 36.1152631], [-95.8614101, 36.1152653], [-95.8614112, 36.1152176], [-95.8614568, 36.1152183], [-95.8614595, 36.115097], [-95.8612182, 36.1150934]]]}, "properties": {"osm_id": 1197850812, "building": "semidetached_house", "name": "", "height": null, "height_m": null, "levels": null, "tract_id": "40143009011", "tract_name": "90.11", "tags": {"building": "semidetached_house", "source": "microsoft/BuildingFootprints"}}}, {"type": "Feature", "geometry": {"type": "Polygon", "coordinates": [[[-95.860997, 36.115267], [-95.8611418, 36.1152682], [-95.8611425, 36.1152173], [-95.8611907, 36.1152177], [-95.8611923, 36.1150964], [-95.860947, 36.1150943], [-95.8609454, 36.1152178], [-95.8609976, 36.1152182], [-95.860997, 36.115267]]]}, "properties": {"osm_id": 1197850841, "building": "semidetached_house", "name": "", "height": null, "height_m": null, "levels": null, "tract_id": "40143009011", "tract_name": "90.11", "tags": {"building": "semidetached_house", "source": "microsoft/BuildingFootprints"}}}, {"type": "Feature", "geometry": {"type": "Polygon", "coordinates": [[[-95.8628283, 36.1057036], [-95.8627679, 36.1056437], [-95.8627551, 36.1056521], [-95.8627305, 36.1056277], [-95.8627925, 36.105587], [-95.8627671, 36.1055617], [-95.8629055, 36.1054707], [-95.862931, 36.105496], [-95.8629885, 36.1054582], [-95.8630131, 36.1054826], [-95.8629938, 36.1054952], [-95.863045, 36.1055462], [-95.8630845, 36.1055202], [-95.8631647, 36.1055999], [-95.8631252, 36.1056258], [-95.8631837, 36.1056839], [-95.8632023, 36.1056717], [-95.8632286, 36.1056978], [-95.8631718, 36.1057352], [-95.8631892, 36.1057525], [-95.8630507, 36.1058435], [-95.8630333, 36.1058262], [-95.8629666, 36.10587], [-95.8629403, 36.1058438], [-95.8629578, 36.1058323], [-95.8629052, 36.10578], [-95.8628428, 36.105821], [-95.8627659, 36.1057446], [-95.8628283, 36.1057036]]]}, "properties": {"osm_id": 1315569031, "building": "commercial", "name": "", "height": null, "height_m": null, "levels": null, "tract_id": "40143009011", "tract_name": "90.11", "tags": {"addr:city": "Tulsa", "addr:country": "US", "addr:housenumber": "4005", "addr:postcode": "74146", "addr:state": "OK", "addr:street": "South 102nd Avenue East", "building": "commercial", "source": "INCOG"}}}, {"type": "Feature", "geometry": {"type": "Polygon", "coordinates": [[[-95.8632939, 36.1055364], [-95.8632179, 36.105507], [-95.8632282, 36.1054897], [-95.8631757, 36.1054694], [-95.8631664, 36.1054852], [-95.8630931, 36.1054569], [-95.8631025, 36.1054411], [-95.8630806, 36.1054327], [-95.8631816, 36.1052622], [-95.8633242, 36.1053174], [-95.863332, 36.1053043], [-95.8633767, 36.1053216], [-95.863369, 36.1053347], [-95.863443, 36.1053633], [-95.8633933, 36.1054471], [-95.8634195, 36.1054572], [-95.8633835, 36.105518], [-95.8633573, 36.1055078], [-95.863342, 36.1055337], [-95.8633042, 36.1055191], [-95.8632939, 36.1055364]]]}, "properties": {"osm_id": 1315569032, "building": "commercial", "name": "Animal Emergency Center", "height": null, "height_m": null, "levels": null, "tract_id": "40143009011", "tract_name": "90.11", "tags": {"addr:city": "Tulsa", "addr:country": "US", "addr:housenumber": "4055", "addr:postcode": "74146", "addr:state": "OK", "addr:street": "South 102nd Avenue East", "amenity": "veterinary", "building": "commercial", "emergency": "yes", "name": "Animal Emergency Center", "phone": "+1 918 665 0508", "source": "INCOG", "website": "http://www.tulsaanimalemergency.com/"}}}, {"type": "Feature", "geometry": {"type": "Polygon", "coordinates": [[[-95.8635181, 36.1048341], [-95.863518, 36.1048259], [-95.8635784, 36.1048254], [-95.8635785, 36.1048336], [-95.8635942, 36.1048335], [-95.8635949, 36.1048878], [-95.8636052, 36.1048877], [-95.863606, 36.1049593], [-95.8635957, 36.1049593], [-95.8635966, 36.1050342], [-95.8635, 36.1050349], [-95.8634983, 36.104897], [-95.8635078, 36.1048969], [-95.863507, 36.1048342], [-95.8635181, 36.1048341]]]}, "properties": {"osm_id": 1315569033, "building": "retail", "name": "Popeyes", "height": null, "height_m": null, "levels": null, "tract_id": "40143009011", "tract_name": "90.11", "tags": {"addr:city": "Tulsa", "addr:country": "US", "addr:housenumber": "10207", "addr:postcode": "74146", "addr:state": "OK", "addr:street": "East 41st Street South", "amenity": "fast_food", "brand": "Popeyes", "brand:wikidata": "Q1330910", "building": "retail", "cuisine": "chicken", "delivery": "yes", "drive_through": "yes", "indoor_seating": "yes", "name": "Popeyes", "official_name": "Popeyes Louisiana Kitchen", "opening_hours": "Su-Sa 10:00-21:00", "phone": "+1 918 660 7227", "source": "INCOG", "takeaway": "yes", "website": "https://www.popeyes.com/store-locator/store/restaurant_83931"}}}, {"type": "Feature", "geometry": {"type": "Polygon", "coordinates": [[[-95.8677914, 36.1184021], [-95.8677918, 36.118569], [-95.8668919, 36.1185706], [-95.8668915, 36.1184037], [-95.8677914, 36.1184021]]]}, "properties": {"osm_id": 1389418794, "building": "retail", "name": "", "height": null, "height_m": 3.0, "levels": 1, "tract_id": "40143009011", "tract_name": "90.11", "tags": {"addr:city": "Tulsa", "addr:country": "US", "addr:housenumber": "9720", "addr:postcode": "74146", "addr:state": "OK", "addr:street": "East 31st Street South", "building": "retail", "building:levels": "1", "roof:levels": "0", "roof:shape": "flat"}}}, {"type": "Feature", "geometry": {"type": "Polygon", "coordinates": [[[-95.8630884, 36.1050129], [-95.8630883, 36.1050563], [-95.8630736, 36.1050563], [-95.8630736, 36.1050905], [-95.8629419, 36.1050904], [-95.8629419, 36.1050835], [-95.8628325, 36.1050834], [-95.8628326, 36.1050126], [-95.8630884, 36.1050129]]]}, "properties": {"osm_id": 1417952789, "building": "retail", "name": "Dunkin'", "height": null, "height_m": null, "levels": null, "tract_id": "40143009011", "tract_name": "90.11", "tags": {"addr:city": "Tulsa", "addr:country": "US", "addr:housenumber": "10249", "addr:postcode": "74146", "addr:state": "OK", "addr:street": "East 41st Street South", "alt_name": "Dunkin' Donuts", "amenity": "fast_food", "brand": "Dunkin'", "brand:wikidata": "Q847743", "building": "retail", "cuisine": "donut;coffee_shop", "drive_through": "yes", "name": "Dunkin'", "opening_hours": "Su-Sa 05:00-18:00", "phone": "+1 918 805 3334", "ref": "363662", "source": "INCOG", "takeaway": "yes", "website": "https://locations.dunkindonuts.com/en/ok/tulsa/10249-east-41st-street/363662"}}}]}