{"type": "FeatureCollection", "features": [{"type": "Feature", "geometry": {"type": "Polygon", "coordinates": [[[-96.6986147, 36.1159432], [-96.6985397, 36.1159418], [-96.6985415, 36.1158785], [-96.6986165, 36.1158799], [-96.6986147, 36.1159432]]]}, "properties": {"osm_id": 99405986, "building": "yes", "name": "Phillips 66", "height": null, "height_m": null, "levels": null, "tract_id": "40119011200", "tract_name": "112", "tags": {"amenity": "fuel", "brand": "Phillips", "building": "yes", "name": "Phillips 66"}}}, {"type": "Feature", "geometry": {"type": "Polygon", "coordinates": [[[-96.6986374, 36.1158573], [-96.6984316, 36.1158558], [-96.6984327, 36.1157445], [-96.6986386, 36.115746], [-96.6986374, 36.1158573]]]}, "properties": {"osm_id": 99405987, "building": "yes", "name": "", "height": null, "height_m": null, "levels": null, "tract_id": "40119011200", "tract_name": "112", "tags": {"building": "yes", "shop": "convenience"}}}, {"type": "Feature", "geometry": {"type": "Polygon", "coordinates": [[[-96.7659837, 36.0953935], [-96.7659595, 36.0952266], [-96.7656108, 36.095257], [-96.7656323, 36.095426], [-96.7659837, 36.0953935]]]}, "properties": {"osm_id": 312650468, "building": "commercial", "name": "Guthrie Industrical Coating", "height": null, "height_m": null, "levels": null, "tract_id": "40119011200", "tract_name": "112", "tags": {"building": "commercial", "name": "Guthrie Industrical Coating"}}}, {"type": "Feature", "geometry": {"type": "Polygon", "coordinates": [[[-96.7663665, 36.0877147], [-96.7663653, 36.0875175], [-96.7660649, 36.0875187], [-96.7660661, 36.0877159], [-96.7663665, 36.0877147]]]}, "properties": {"osm_id": 312650469, "building": "retail", "name": "", "height": null, "height_m": null, "levels": null, "tract_id": "40119011200", "tract_name": "112", "tags": {"building": "retail", "shop": "vacant"}}}, {"type": "Feature", "geometry": {"type": "Polygon", "coordinates": [[[-96.7006919, 36.1116153], [-96.7007362, 36.1113182], [-96.7005894, 36.1113039], [-96.7005862, 36.1113255], [-96.6999314, 36.1112616], [-96.6998943, 36.1115104], [-96.7005524, 36.1115745], [-96.7005484, 36.1116014], [-96.7006919, 36.1116153]]]}, "properties": {"osm_id": 488327275, "building": "yes", "name": "", "height": null, "height_m": null, "levels": null, "tract_id": "40119011200", "tract_name": "112", "tags": {"building": "yes"}}}, {"type": "Feature", "geometry": {"type": "Polygon", "coordinates": [[[-96.7009775, 36.1114573], [-96.7008473, 36.1114437], [-96.7009251, 36.1109551], [-96.7010553, 36.1109686], [-96.7009775, 36.1114573]]]}, "properties": {"osm_id": 488327276, "building": "yes", "name": "", "height": null, "height_m": null, "levels": null, "tract_id": "40119011200", "tract_name": "112", "tags": {"building": "yes"}}}, {"type": "Feature", "geometry": {"type": "Polygon", "coordinates": [[[-96.7011385, 36.110831], [-96.70094, 36.1108111], [-96.7009897, 36.1104883], [-96.7011881, 36.1105082], [-96.7011385, 36.110831]]]}, "properties": {"osm_id": 488327277, "building": "yes", "name": "", "height": null, "height_m": null, "levels": null, "tract_id": "40119011200", "tract_name": "112", "tags": {"building": "yes"}}}, {"type": "Feature", "geometry": {"type": "Polygon", "coordinates": [[[-96.6464274, 36.1159827], [-96.6463896, 36.1159697], [-96.6464254, 36.1159014], [-96.6464633, 36.1159144], [-96.6464274, 36.1159827]]]}, "properties": {"osm_id": 825328035, "building": "yes", "name": "", "height": null, "height_m": null, "levels": null, "tract_id": "40119011200", "tract_name": "112", "tags": {"building": "yes"}}}, {"type": "Feature", "geometry": {"type": "Polygon", "coordinates": [[[-96.6682251, 36.1015703], [-96.6681887, 36.1015713], [-96.6681875, 36.1015445], [-96.6682239, 36.1015434], [-96.6682251, 36.1015703]]]}, "properties": {"osm_id": 1015722545, "building": "service", "name": "", "height": null, "height_m": null, "levels": null, "tract_id": "40119011200", "tract_name": "112", "tags": {"building": "service"}}}, {"type": "Feature", "geometry": {"type": "Polygon", "coordinates": [[[-96.6981326, 36.115271], [-96.6981297, 36.1151886], [-96.6980411, 36.1151906], [-96.6980441, 36.1152731], [-96.6981326, 36.115271]]]}, "properties": {"osm_id": 1065565332, "building": "yes", "name": "", "height": null, "height_m": null, "levels": null, "tract_id": "40119011200", "tract_name": "112", "tags": {"addr:city": "Yale", "addr:housenumber": "115", "addr:postcode": "74085", "addr:state": "OK", "addr:street": "East Boston Avenue", "building": "yes", "office": "telecommunication"}}}, {"type": "Feature", "geometry": {"type": "Polygon", "coordinates": [[[-96.6906042, 36.1148551], [-96.6906022, 36.1150153], [-96.6905204, 36.1150144], [-96.6905215, 36.1148568], [-96.6906042, 36.1148551]]]}, "properties": {"osm_id": 1196213835, "building": "yes", "name": "Jim Thorpe House", "height": null, "height_m": null, "levels": null, "tract_id": "40119011200", "tract_name": "112", "tags": {"building": "yes", "name": "Jim Thorpe House", "tourism": "museum"}}}, {"type": "Feature", "geometry": {"type": "Polygon", "coordinates": [[[-96.6936786, 36.1163575], [-96.6937982, 36.1163565], [-96.6937996, 36.1164619], [-96.6938292, 36.1164616], [-96.6938299, 36.1165226], [-96.6938016, 36.1165228], [-96.6938018, 36.116541], [-96.6937752, 36.1165412], [-96.6937757, 36.1165833], [-96.6936768, 36.1165841], [-96.693676, 36.1165187], [-96.693564, 36.1165196], [-96.693563, 36.1164452], [-96.6936797, 36.1164442], [-96.6936786, 36.1163575]]]}, "properties": {"osm_id": 1252126447, "building": "detached", "name": "", "height": null, "height_m": null, "levels": null, "tract_id": "40119011200", "tract_name": "112", "tags": {"addr:city": "Yale", "addr:housenumber": "306", "addr:postcode": "74085", "addr:state": "OK", "addr:street": "North E Street", "building": "detached"}}}, {"type": "Feature", "geometry": {"type": "Polygon", "coordinates": [[[-96.6974045, 36.1147587], [-96.697404, 36.1149226], [-96.6970668, 36.1149221], [-96.6970671, 36.1147958], [-96.6972064, 36.114796], [-96.6972065, 36.1147584], [-96.6974045, 36.1147587]]]}, "properties": {"osm_id": 1252130205, "building": "church", "name": "Yale First Baptist", "height": null, "height_m": 9.0, "levels": 3, "tract_id": "40119011200", "tract_name": "112", "tags": {"addr:city": "Yale", "addr:housenumber": "202", "addr:postcode": "74085", "addr:state": "OK", "addr:street": "East Boston Avenue", "amenity": "place_of_worship", "building": "church", "building:levels": "3", "contact:facebook": "https://www.facebook.com/p/Yale-First-Baptist-100069256278639/", "denomination": "baptist", "ele": "250", "gnis:feature_id": "1790148", "name": "Yale First Baptist", "religion": "christian"}}}, {"type": "Feature", "geometry": {"type": "Polygon", "coordinates": [[[-96.6893555, 36.1166322], [-96.689354, 36.1164372], [-96.6889423, 36.1164393], [-96.6889438, 36.1166343], [-96.6893555, 36.1166322]]]}, "properties": {"osm_id": 1252130206, "building": "fire_station", "name": "", "height": null, "height_m": null, "levels": null, "tract_id": "40119011200", "tract_name": "112", "tags": {"building": "fire_station"}}}, {"type": "Feature", "geometry": {"type": "Polygon", "coordinates": [[[-96.6881478, 36.1168654], [-96.6881493, 36.1169068], [-96.6881359, 36.1169072], [-96.6881413, 36.1170521], [-96.6880084, 36.1170554], [-96.6880072, 36.1170219], [-96.6879935, 36.1170223], [-96.687991, 36.1169553], [-96.6877667, 36.1169609], [-96.6877692, 36.1170269], [-96.6877554, 36.1170272], [-96.6877568, 36.117063], [-96.6876256, 36.1170662], [-96.6876185, 36.1168784], [-96.6881478, 36.1168654]]]}, "properties": {"osm_id": 1252130209, "building": "church", "name": "Yale Church of Christ", "height": null, "height_m": null, "levels": null, "tract_id": "40119011200", "tract_name": "112", "tags": {"addr:city": "Yale", "addr:housenumber": "826", "addr:postcode": "74085", "addr:state": "OK", "addr:street": "East Detroit Avenue", "amenity": "place_of_worship", "building": "church", "denomination": "church_of_christ", "ele": "277", "gnis:feature_id": "1790149", "name": "Yale Church of Christ", "religion": "christian"}}}, {"type": "Feature", "geometry": {"type": "Polygon", "coordinates": [[[-96.7659152, 36.0864854], [-96.7658903, 36.0864437], [-96.7659192, 36.0864325], [-96.7659441, 36.0864742], [-96.7659152, 36.0864854]]]}, "properties": {"osm_id": 1287542810, "building": "yes", "name": "", "height": null, "height_m": null, "levels": null, "tract_id": "40119011200", "tract_name": "112", "tags": {"building": "yes"}}}, {"type": "Feature", "geometry": {"type": "Polygon", "coordinates": [[[-96.7676807, 36.0766652], [-96.7675086, 36.0766694], [-96.7675044, 36.0765552], [-96.7676765, 36.076551], [-96.7676807, 36.0766652]]]}, "properties": {"osm_id": 1287542811, "building": "yes", "name": "", "height": null, "height_m": null, "levels": null, "tract_id": "40119011200", "tract_name": "112", "tags": {"building": "yes"}}}, {"type": "Feature", "geometry": {"type": "Polygon", "coordinates": [[[-96.7656657, 36.0732361], [-96.7656332, 36.0732354], [-96.7656349, 36.0731819], [-96.7656674, 36.0731826], [-96.7656657, 36.0732361]]]}, "properties": {"osm_id": 1287542812, "building": "yes", "name": "", "height": null, "height_m": null, "levels": null, "tract_id": "40119011200", "tract_name": "112", "tags": {"building": "yes"}}}, {"type": "Feature", "geometry": {"type": "Polygon", "coordinates": [[[-96.7661405, 36.0577349], [-96.7661059, 36.0577351], [-96.7661056, 36.0576872], [-96.7661402, 36.0576871], [-96.7661405, 36.0577349]]]}, "properties": {"osm_id": 1287542813, "building": "yes", "name": "", "height": null, "height_m": null, "levels": null, "tract_id": "40119011200", "tract_name": "112", "tags": {"building": "yes"}}}, {"type": "Feature", "geometry": {"type": "Polygon", "coordinates": [[[-96.7661163, 36.0579192], [-96.7660765, 36.0579194], [-96.7660761, 36.0578618], [-96.7661159, 36.0578616], [-96.7661163, 36.0579192]]]}, "properties": {"osm_id": 1287542814, "building": "yes", "name": "", "height": null, "height_m": null, "levels": null, "tract_id": "40119011200", "tract_name": "112", "tags": {"building": "yes"}}}, {"type": "Feature", "geometry": {"type": "Polygon", "coordinates": [[[-96.7653373, 36.0752235], [-96.7653872, 36.075222], [-96.7653833, 36.0751333], [-96.7653324, 36.0751347], [-96.7653373, 36.0752235]]]}, "properties": {"osm_id": 1287542825, "building": "yes", "name": "", "height": null, "height_m": null, "levels": null, "tract_id": "40119011200", "tract_name": "112", "tags": {"building": "yes"}}}, {"type": "Feature", "geometry": {"type": "Polygon", "coordinates": [[[-96.7661676, 36.0570838], [-96.7660309, 36.0570812], [-96.7660298, 36.0571159], [-96.7661666, 36.0571185], [-96.7661676, 36.0570838]]]}, "properties": {"osm_id": 1287542826, "building": "yes", "name": "", "height": null, "height_m": null, "levels": null, "tract_id": "40119011200", "tract_name": "112", "tags": {"building": "yes"}}}, {"type": "Feature", "geometry": {"type": "Polygon", "coordinates": [[[-96.7675943, 36.0762501], [-96.7674683, 36.0762518], [-96.767471, 36.0763795], [-96.7674924, 36.0763792], [-96.767494, 36.0764546], [-96.7675986, 36.0764532], [-96.7675943, 36.0762501]]]}, "properties": {"osm_id": 1287542827, "building": "yes", "name": "", "height": null, "height_m": null, "levels": null, "tract_id": "40119011200", "tract_name": "112", "tags": {"building": "yes"}}}, {"type": "Feature", "geometry": {"type": "Polygon", "coordinates": [[[-96.767742, 36.0747004], [-96.7678905, 36.0747016], [-96.7678925, 36.0745303], [-96.7677316, 36.0745291], [-96.7677335, 36.074373], [-96.767594, 36.0743719], [-96.7675911, 36.0746212], [-96.7677429, 36.0746224], [-96.767742, 36.0747004]]]}, "properties": {"osm_id": 1287542828, "building": "yes", "name": "", "height": null, "height_m": null, "levels": null, "tract_id": "40119011200", "tract_name": "112", "tags": {"building": "yes"}}}, {"type": "Feature", "geometry": {"type": "Polygon", "coordinates": [[[-96.7681302, 36.058734], [-96.768183, 36.0587394], [-96.7681904, 36.0586925], [-96.7682748, 36.0587011], [-96.7682812, 36.0586606], [-96.7680928, 36.0586413], [-96.7680829, 36.058704], [-96.7681341, 36.0587092], [-96.7681302, 36.058734]]]}, "properties": {"osm_id": 1287542829, "building": "yes", "name": "", "height": null, "height_m": null, "levels": null, "tract_id": "40119011200", "tract_name": "112", "tags": {"building": "yes"}}}, {"type": "Feature", "geometry": {"type": "Polygon", "coordinates": [[[-96.7682389, 36.1119949], [-96.7681289, 36.1119957], [-96.7681302, 36.1121148], [-96.7682402, 36.112114], [-96.7682389, 36.1119949]]]}, "properties": {"osm_id": 1287542830, "building": "yes", "name": "", "height": null, "height_m": null, "levels": null, "tract_id": "40119011200", "tract_name": "112", "tags": {"building": "yes"}}}, {"type": "Feature", "geometry": {"type": "Polygon", "coordinates": [[[-96.768451, 36.0788056], [-96.7683119, 36.0788854], [-96.7684207, 36.0790094], [-96.7685599, 36.0789296], [-96.768451, 36.0788056]]]}, "properties": {"osm_id": 1287542832, "building": "yes", "name": "", "height": null, "height_m": null, "levels": null, "tract_id": "40119011200", "tract_name": "112", "tags": {"building": "yes"}}}, {"type": "Feature", "geometry": {"type": "Polygon", "coordinates": [[[-96.7657985, 36.0896818], [-96.765818, 36.0897533], [-96.7658859, 36.0897412], [-96.7658663, 36.0896697], [-96.7657985, 36.0896818]]]}, "properties": {"osm_id": 1287542833, "building": "yes", "name": "", "height": null, "height_m": null, "levels": null, "tract_id": "40119011200", "tract_name": "112", "tags": {"building": "yes"}}}, {"type": "Feature", "geometry": {"type": "Polygon", "coordinates": [[[-96.7664839, 36.0668646], [-96.7664815, 36.0669426], [-96.7666155, 36.0669453], [-96.7666179, 36.0668673], [-96.7664839, 36.0668646]]]}, "properties": {"osm_id": 1287542834, "building": "yes", "name": "", "height": null, "height_m": null, "levels": null, "tract_id": "40119011200", "tract_name": "112", "tags": {"building": "yes"}}}, {"type": "Feature", "geometry": {"type": "Polygon", "coordinates": [[[-96.7659172, 36.079587], [-96.7659004, 36.0796626], [-96.7660758, 36.0796881], [-96.7660926, 36.0796125], [-96.7659172, 36.079587]]]}, "properties": {"osm_id": 1287542835, "building": "yes", "name": "", "height": null, "height_m": null, "levels": null, "tract_id": "40119011200", "tract_name": "112", "tags": {"building": "yes"}}}, {"type": "Feature", "geometry": {"type": "Polygon", "coordinates": [[[-96.7651317, 36.057863], [-96.7653328, 36.0578622], [-96.7653323, 36.057795], [-96.7651312, 36.0577958], [-96.7651317, 36.057863]]]}, "properties": {"osm_id": 1287542836, "building": "yes", "name": "", "height": null, "height_m": null, "levels": null, "tract_id": "40119011200", "tract_name": "112", "tags": {"building": "yes"}}}, {"type": "Feature", "geometry": {"type": "Polygon", "coordinates": [[[-96.7649271, 36.0788523], [-96.7648092, 36.0788542], [-96.7648103, 36.0788997], [-96.7649283, 36.0788978], [-96.7649271, 36.0788523]]]}, "properties": {"osm_id": 1287542837, "building": "yes", "name": "", "height": null, "height_m": null, "levels": null, "tract_id": "40119011200", "tract_name": "112", "tags": {"building": "yes"}}}, {"type": "Feature", "geometry": {"type": "Polygon", "coordinates": [[[-96.7679135, 36.1120766], [-96.7679993, 36.1120749], [-96.7679969, 36.1119948], [-96.7679111, 36.1119965], [-96.7679135, 36.1120766]]]}, "properties": {"osm_id": 1287542838, "building": "yes", "name": "", "height": null, "height_m": null, "levels": null, "tract_id": "40119011200", "tract_name": "112", "tags": {"building": "yes"}}}, {"type": "Feature", "geometry": {"type": "Polygon", "coordinates": [[[-96.7673263, 36.082016], [-96.7674242, 36.0820179], [-96.7674259, 36.0819623], [-96.7674433, 36.0819626], [-96.7674456, 36.0818883], [-96.7672996, 36.0818854], [-96.7672976, 36.0819525], [-96.7673283, 36.0819531], [-96.7673263, 36.082016]]]}, "properties": {"osm_id": 1287542839, "building": "yes", "name": "", "height": null, "height_m": null, "levels": null, "tract_id": "40119011200", "tract_name": "112", "tags": {"building": "yes"}}}, {"type": "Feature", "geometry": {"type": "Polygon", "coordinates": [[[-96.7665059, 36.05775], [-96.7665033, 36.0578649], [-96.7666025, 36.0578663], [-96.7666019, 36.0578945], [-96.7666662, 36.0578955], [-96.7666687, 36.0577879], [-96.7665524, 36.0577862], [-96.7665532, 36.0577507], [-96.7665059, 36.05775]]]}, "properties": {"osm_id": 1287542840, "building": "yes", "name": "", "height": null, "height_m": null, "levels": null, "tract_id": "40119011200", "tract_name": "112", "tags": {"building": "yes"}}}, {"type": "Feature", "geometry": {"type": "Polygon", "coordinates": [[[-96.7677124, 36.0764132], [-96.7677177, 36.0765569], [-96.767833, 36.0765541], [-96.7678276, 36.0764104], [-96.7677124, 36.0764132]]]}, "properties": {"osm_id": 1287542841, "building": "yes", "name": "", "height": null, "height_m": null, "levels": null, "tract_id": "40119011200", "tract_name": "112", "tags": {"building": "yes"}}}, {"type": "Feature", "geometry": {"type": "Polygon", "coordinates": [[[-96.7683786, 36.0740867], [-96.7685393, 36.0740831], [-96.7685371, 36.0740191], [-96.7683764, 36.0740227], [-96.7683786, 36.0740867]]]}, "properties": {"osm_id": 1287542843, "building": "yes", "name": "", "height": null, "height_m": null, "levels": null, "tract_id": "40119011200", "tract_name": "112", "tags": {"building": "yes"}}}, {"type": "Feature", "geometry": {"type": "Polygon", "coordinates": [[[-96.7658172, 36.087356], [-96.7657038, 36.0873689], [-96.7657227, 36.0874782], [-96.7658361, 36.0874654], [-96.7658172, 36.087356]]]}, "properties": {"osm_id": 1287542845, "building": "yes", "name": "", "height": null, "height_m": null, "levels": null, "tract_id": "40119011200", "tract_name": "112", "tags": {"building": "yes"}}}, {"type": "Feature", "geometry": {"type": "Polygon", "coordinates": [[[-96.7665057, 36.0751568], [-96.7664282, 36.0751602], [-96.7664323, 36.0752207], [-96.7665098, 36.0752173], [-96.7665057, 36.0751568]]]}, "properties": {"osm_id": 1287542846, "building": "yes", "name": "", "height": null, "height_m": null, "levels": null, "tract_id": "40119011200", "tract_name": "112", "tags": {"building": "yes"}}}, {"type": "Feature", "geometry": {"type": "Polygon", "coordinates": [[[-96.766266, 36.1118859], [-96.7660898, 36.111775], [-96.7660235, 36.1118439], [-96.7661997, 36.1119547], [-96.766266, 36.1118859]]]}, "properties": {"osm_id": 1287542847, "building": "yes", "name": "", "height": null, "height_m": null, "levels": null, "tract_id": "40119011200", "tract_name": "112", "tags": {"building": "yes"}}}, {"type": "Feature", "geometry": {"type": "Polygon", "coordinates": [[[-96.7650886, 36.074771], [-96.7650852, 36.0746866], [-96.7648601, 36.0746926], [-96.7648636, 36.074777], [-96.7650886, 36.074771]]]}, "properties": {"osm_id": 1287542848, "building": "yes", "name": "", "height": null, "height_m": null, "levels": null, "tract_id": "40119011200", "tract_name": "112", "tags": {"building": "yes"}}}, {"type": "Feature", "geometry": {"type": "Polygon", "coordinates": [[[-96.7676125, 36.0737553], [-96.7676141, 36.0738246], [-96.7677213, 36.073823], [-96.7677197, 36.0737536], [-96.7676125, 36.0737553]]]}, "properties": {"osm_id": 1287542849, "building": "yes", "name": "", "height": null, "height_m": null, "levels": null, "tract_id": "40119011200", "tract_name": "112", "tags": {"building": "yes"}}}, {"type": "Feature", "geometry": {"type": "Polygon", "coordinates": [[[-96.765785, 36.0791775], [-96.7657867, 36.0792317], [-96.7660708, 36.0792257], [-96.7660691, 36.0791716], [-96.765785, 36.0791775]]]}, "properties": {"osm_id": 1287542850, "building": "yes", "name": "", "height": null, "height_m": null, "levels": null, "tract_id": "40119011200", "tract_name": "112", "tags": {"building": "yes"}}}, {"type": "Feature", "geometry": {"type": "Polygon", "coordinates": [[[-96.7661975, 36.0892216], [-96.7661036, 36.0892204], [-96.7661018, 36.0893114], [-96.7660616, 36.0893109], [-96.7660608, 36.0893512], [-96.7661023, 36.0893517], [-96.7661009, 36.0894254], [-96.7661934, 36.0894266], [-96.7661975, 36.0892216]]]}, "properties": {"osm_id": 1287542851, "building": "detached", "name": "", "height": null, "height_m": null, "levels": null, "tract_id": "40119011200", "tract_name": "112", "tags": {"building": "detached"}}}, {"type": "Feature", "geometry": {"type": "Polygon", "coordinates": [[[-96.767595, 36.0817104], [-96.767515, 36.0817113], [-96.7675158, 36.0817556], [-96.7675958, 36.0817546], [-96.767595, 36.0817104]]]}, "properties": {"osm_id": 1287542852, "building": "yes", "name": "", "height": null, "height_m": null, "levels": null, "tract_id": "40119011200", "tract_name": "112", "tags": {"building": "yes"}}}, {"type": "Feature", "geometry": {"type": "Polygon", "coordinates": [[[-96.7658472, 36.0575849], [-96.7658713, 36.0575853], [-96.7658729, 36.0575311], [-96.7658032, 36.0575298], [-96.7658016, 36.057584], [-96.765748, 36.057583], [-96.7657448, 36.0576957], [-96.765844, 36.0576976], [-96.7658472, 36.0575849]]]}, "properties": {"osm_id": 1287542853, "building": "yes", "name": "", "height": null, "height_m": null, "levels": null, "tract_id": "40119011200", "tract_name": "112", "tags": {"building": "yes"}}}, {"type": "Feature", "geometry": {"type": "Polygon", "coordinates": [[[-96.7661694, 36.0811183], [-96.766166, 36.0812114], [-96.7662208, 36.0812127], [-96.7662242, 36.0811196], [-96.7661694, 36.0811183]]]}, "properties": {"osm_id": 1287542855, "building": "yes", "name": "", "height": null, "height_m": null, "levels": null, "tract_id": "40119011200", "tract_name": "112", "tags": {"building": "yes"}}}, {"type": "Feature", "geometry": {"type": "Polygon", "coordinates": [[[-96.7658938, 36.0740823], [-96.7658875, 36.0742417], [-96.7659931, 36.0742444], [-96.7659994, 36.074085], [-96.7658938, 36.0740823]]]}, "properties": {"osm_id": 1287542856, "building": "yes", "name": "", "height": null, "height_m": null, "levels": null, "tract_id": "40119011200", "tract_name": "112", "tags": {"building": "yes"}}}, {"type": "Feature", "geometry": {"type": "Polygon", "coordinates": [[[-96.7684434, 36.0588049], [-96.7683336, 36.0588011], [-96.7683309, 36.0588531], [-96.7684407, 36.0588569], [-96.7684434, 36.0588049]]]}, "properties": {"osm_id": 1287542857, "building": "yes", "name": "", "height": null, "height_m": null, "levels": null, "tract_id": "40119011200", "tract_name": "112", "tags": {"building": "yes"}}}, {"type": "Feature", "geometry": {"type": "Polygon", "coordinates": [[[-96.7658, 36.0969439], [-96.7659593, 36.0968771], [-96.7659256, 36.0968246], [-96.7659061, 36.0968328], [-96.7658901, 36.0968079], [-96.7658677, 36.0968173], [-96.7658511, 36.0967915], [-96.7657924, 36.0968162], [-96.765809, 36.096842], [-96.7656849, 36.0968941], [-96.7657493, 36.0969944], [-96.7658148, 36.0969669], [-96.7658, 36.0969439]]]}, "properties": {"osm_id": 1287542860, "building": "detached", "name": "", "height": null, "height_m": null, "levels": null, "tract_id": "40119011200", "tract_name": "112", "tags": {"building": "detached"}}}, {"type": "Feature", "geometry": {"type": "Polygon", "coordinates": [[[-96.7659205, 36.0727858], [-96.7659192, 36.0728747], [-96.7661927, 36.0728774], [-96.7661941, 36.0727885], [-96.7659205, 36.0727858]]]}, "properties": {"osm_id": 1287542861, "building": "yes", "name": "", "height": null, "height_m": null, "levels": null, "tract_id": "40119011200", "tract_name": "112", "tags": {"building": "yes"}}}, {"type": "Feature", "geometry": {"type": "Polygon", "coordinates": [[[-96.7664638, 36.1114551], [-96.7663243, 36.1114548], [-96.7663236, 36.1117061], [-96.7664631, 36.1117064], [-96.7664638, 36.1114551]]]}, "properties": {"osm_id": 1287542862, "building": "yes", "name": "", "height": null, "height_m": null, "levels": null, "tract_id": "40119011200", "tract_name": "112", "tags": {"building": "yes"}}}, {"type": "Feature", "geometry": {"type": "Polygon", "coordinates": [[[-96.7686318, 36.1120435], [-96.7686297, 36.1121345], [-96.7686994, 36.1121355], [-96.768697, 36.1122438], [-96.7688069, 36.1122455], [-96.7688114, 36.1120462], [-96.7686318, 36.1120435]]]}, "properties": {"osm_id": 1287542863, "building": "yes", "name": "", "height": null, "height_m": null, "levels": null, "tract_id": "40119011200", "tract_name": "112", "tags": {"building": "yes"}}}, {"type": "Feature", "geometry": {"type": "Polygon", "coordinates": [[[-96.767623, 36.0747153], [-96.76762, 36.0747962], [-96.7677202, 36.0747986], [-96.7677232, 36.0747176], [-96.767623, 36.0747153]]]}, "properties": {"osm_id": 1287542864, "building": "yes", "name": "", "height": null, "height_m": null, "levels": null, "tract_id": "40119011200", "tract_name": "112", "tags": {"building": "yes"}}}, {"type": "Feature", "geometry": {"type": "Polygon", "coordinates": [[[-96.7676882, 36.0867569], [-96.7679484, 36.0867593], [-96.767949, 36.0867138], [-96.7676889, 36.0867114], [-96.7676882, 36.0867569]]]}, "properties": {"osm_id": 1287542865, "building": "yes", "name": "", "height": null, "height_m": null, "levels": null, "tract_id": "40119011200", "tract_name": "112", "tags": {"building": "yes"}}}, {"type": "Feature", "geometry": {"type": "Polygon", "coordinates": [[[-96.7666603, 36.0675837], [-96.7665714, 36.0677569], [-96.7666218, 36.0677737], [-96.7667107, 36.0676006], [-96.7666603, 36.0675837]]]}, "properties": {"osm_id": 1287542866, "building": "yes", "name": "", "height": null, "height_m": null, "levels": null, "tract_id": "40119011200", "tract_name": "112", "tags": {"building": "yes"}}}, {"type": "Feature", "geometry": {"type": "Polygon", "coordinates": [[[-96.7658623, 36.0862854], [-96.7659464, 36.0864327], [-96.7660511, 36.0863936], [-96.7660113, 36.0863239], [-96.7660376, 36.0863141], [-96.7659882, 36.0862276], [-96.765908, 36.0862575], [-96.7658713, 36.0861932], [-96.7657829, 36.0862262], [-96.7658247, 36.0862994], [-96.7658623, 36.0862854]]]}, "properties": {"osm_id": 1287542867, "building": "yes", "name": "", "height": null, "height_m": null, "levels": null, "tract_id": "40119011200", "tract_name": "112", "tags": {"building": "yes"}}}, {"type": "Feature", "geometry": {"type": "Polygon", "coordinates": [[[-96.767842, 36.079097], [-96.767914, 36.079159], [-96.768051, 36.079056], [-96.767979, 36.078993], [-96.767842, 36.079097]]]}, "properties": {"osm_id": 1287542868, "building": "yes", "name": "", "height": null, "height_m": null, "levels": null, "tract_id": "40119011200", "tract_name": "112", "tags": {"building": "yes"}}}, {"type": "Feature", "geometry": {"type": "Polygon", "coordinates": [[[-96.7652085, 36.0727722], [-96.7652055, 36.0728653], [-96.7654923, 36.0728713], [-96.7654953, 36.0727781], [-96.7652085, 36.0727722]]]}, "properties": {"osm_id": 1287542870, "building": "yes", "name": "", "height": null, "height_m": null, "levels": null, "tract_id": "40119011200", "tract_name": "112", "tags": {"building": "yes"}}}, {"type": "Feature", "geometry": {"type": "Polygon", "coordinates": [[[-96.7656953, 36.060931], [-96.7657902, 36.0609388], [-96.7658034, 36.060834], [-96.7657085, 36.0608262], [-96.7656953, 36.060931]]]}, "properties": {"osm_id": 1287542871, "building": "yes", "name": "", "height": null, "height_m": null, "levels": null, "tract_id": "40119011200", "tract_name": "112", "tags": {"building": "yes"}}}, {"type": "Feature", "geometry": {"type": "Polygon", "coordinates": [[[-96.7661809, 36.0814532], [-96.7661153, 36.0814518], [-96.7661141, 36.0814886], [-96.7660497, 36.0814872], [-96.7660485, 36.081524], [-96.7661021, 36.0815252], [-96.766101, 36.0815577], [-96.7661773, 36.0815593], [-96.7661809, 36.0814532]]]}, "properties": {"osm_id": 1287542872, "building": "yes", "name": "", "height": null, "height_m": null, "levels": null, "tract_id": "40119011200", "tract_name": "112", "tags": {"building": "yes"}}}, {"type": "Feature", "geometry": {"type": "Polygon", "coordinates": [[[-96.7661888, 36.0795325], [-96.766103, 36.0795311], [-96.766099, 36.0796915], [-96.7663725, 36.0796959], [-96.7663751, 36.0795941], [-96.7661874, 36.079591], [-96.7661888, 36.0795325]]]}, "properties": {"osm_id": 1287542875, "building": "yes", "name": "", "height": null, "height_m": null, "levels": null, "tract_id": "40119011200", "tract_name": "112", "tags": {"building": "yes"}}}, {"type": "Feature", "geometry": {"type": "Polygon", "coordinates": [[[-96.7662501, 36.0788298], [-96.7661575, 36.078828], [-96.7661524, 36.0790079], [-96.7662449, 36.0790096], [-96.7662501, 36.0788298]]]}, "properties": {"osm_id": 1287542876, "building": "yes", "name": "", "height": null, "height_m": null, "levels": null, "tract_id": "40119011200", "tract_name": "112", "tags": {"building": "yes"}}}, {"type": "Feature", "geometry": {"type": "Polygon", "coordinates": [[[-96.7658887, 36.0870979], [-96.7659164, 36.0872361], [-96.766021, 36.0872224], [-96.7659933, 36.0870842], [-96.7658887, 36.0870979]]]}, "properties": {"osm_id": 1287542880, "building": "yes", "name": "", "height": null, "height_m": null, "levels": null, "tract_id": "40119011200", "tract_name": "112", "tags": {"building": "yes"}}}, {"type": "Feature", "geometry": {"type": "Polygon", "coordinates": [[[-96.7681028, 36.0789223], [-96.7680225, 36.0789713], [-96.7680839, 36.0790371], [-96.7681642, 36.0789881], [-96.7681028, 36.0789223]]]}, "properties": {"osm_id": 1287542881, "building": "yes", "name": "", "height": null, "height_m": null, "levels": null, "tract_id": "40119011200", "tract_name": "112", "tags": {"building": "yes"}}}, {"type": "Feature", "geometry": {"type": "Polygon", "coordinates": [[[-96.7658202, 36.0872903], [-96.7658706, 36.0872842], [-96.7658551, 36.0872006], [-96.7658047, 36.0872068], [-96.7658202, 36.0872903]]]}, "properties": {"osm_id": 1287542882, "building": "yes", "name": "", "height": null, "height_m": null, "levels": null, "tract_id": "40119011200", "tract_name": "112", "tags": {"building": "yes"}}}, {"type": "Feature", "geometry": {"type": "Polygon", "coordinates": [[[-96.7652222, 36.0787197], [-96.7652199, 36.078673], [-96.7651303, 36.0786759], [-96.7651326, 36.0787226], [-96.7652222, 36.0787197]]]}, "properties": {"osm_id": 1287542883, "building": "yes", "name": "", "height": null, "height_m": null, "levels": null, "tract_id": "40119011200", "tract_name": "112", "tags": {"building": "yes"}}}, {"type": "Feature", "geometry": {"type": "Polygon", "coordinates": [[[-96.7657671, 36.0898456], [-96.7656209, 36.0898568], [-96.7656292, 36.0899277], [-96.7657754, 36.0899165], [-96.7657671, 36.0898456]]]}, "properties": {"osm_id": 1287542885, "building": "yes", "name": "", "height": null, "height_m": null, "levels": null, "tract_id": "40119011200", "tract_name": "112", "tags": {"building": "yes"}}}, {"type": "Feature", "geometry": {"type": "Polygon", "coordinates": [[[-96.76579, 36.0750213], [-96.7658489, 36.0750231], [-96.765852, 36.0749538], [-96.7657931, 36.074952], [-96.76579, 36.0750213]]]}, "properties": {"osm_id": 1287542886, "building": "yes", "name": "", "height": null, "height_m": null, "levels": null, "tract_id": "40119011200", "tract_name": "112", "tags": {"building": "yes"}}}, {"type": "Feature", "geometry": {"type": "Polygon", "coordinates": [[[-96.7674801, 36.0781107], [-96.7676624, 36.0781134], [-96.767665, 36.0779985], [-96.7674827, 36.0779958], [-96.7674801, 36.0781107]]]}, "properties": {"osm_id": 1287542888, "building": "yes", "name": "", "height": null, "height_m": null, "levels": null, "tract_id": "40119011200", "tract_name": "112", "tags": {"building": "yes"}}}, {"type": "Feature", "geometry": {"type": "Polygon", "coordinates": [[[-96.766274, 36.0812226], [-96.7664483, 36.0812225], [-96.7664482, 36.0811185], [-96.7662739, 36.0811186], [-96.766274, 36.0812226]]]}, "properties": {"osm_id": 1287542889, "building": "yes", "name": "", "height": null, "height_m": null, "levels": null, "tract_id": "40119011200", "tract_name": "112", "tags": {"building": "yes"}}}, {"type": "Feature", "geometry": {"type": "Polygon", "coordinates": [[[-96.7655986, 36.0579485], [-96.7655977, 36.0578588], [-96.7654251, 36.0578599], [-96.765426, 36.0579496], [-96.7655986, 36.0579485]]]}, "properties": {"osm_id": 1287542890, "building": "yes", "name": "", "height": null, "height_m": null, "levels": null, "tract_id": "40119011200", "tract_name": "112", "tags": {"building": "yes"}}}, {"type": "Feature", "geometry": {"type": "Polygon", "coordinates": [[[-96.7658082, 36.0743252], [-96.7658699, 36.0743243], [-96.7658685, 36.0742658], [-96.7658069, 36.0742667], [-96.7658082, 36.0743252]]]}, "properties": {"osm_id": 1287542891, "building": "yes", "name": "", "height": null, "height_m": null, "levels": null, "tract_id": "40119011200", "tract_name": "112", "tags": {"building": "yes"}}}, {"type": "Feature", "geometry": {"type": "Polygon", "coordinates": [[[-96.768557, 36.058356], [-96.768678, 36.058356], [-96.768678, 36.058224], [-96.768557, 36.058224], [-96.768557, 36.058356]]]}, "properties": {"osm_id": 1287542892, "building": "yes", "name": "", "height": null, "height_m": null, "levels": null, "tract_id": "40119011200", "tract_name": "112", "tags": {"building": "yes"}}}, {"type": "Feature", "geometry": {"type": "Polygon", "coordinates": [[[-96.7653601, 36.0748575], [-96.765353, 36.0747559], [-96.7653022, 36.0747582], [-96.7653093, 36.0748598], [-96.7653601, 36.0748575]]]}, "properties": {"osm_id": 1287542893, "building": "yes", "name": "", "height": null, "height_m": null, "levels": null, "tract_id": "40119011200", "tract_name": "112", "tags": {"building": "yes"}}}, {"type": "Feature", "geometry": {"type": "Polygon", "coordinates": [[[-96.7653503, 36.0740822], [-96.7651681, 36.074077], [-96.7651647, 36.0741558], [-96.7653468, 36.0741611], [-96.7653503, 36.0740822]]]}, "properties": {"osm_id": 1287542894, "building": "yes", "name": "", "height": null, "height_m": null, "levels": null, "tract_id": "40119011200", "tract_name": "112", "tags": {"building": "yes"}}}, {"type": "Feature", "geometry": {"type": "Polygon", "coordinates": [[[-96.7663411, 36.0671431], [-96.7664564, 36.067144], [-96.7664567, 36.0671137], [-96.7665238, 36.0671142], [-96.7665246, 36.0670513], [-96.7664565, 36.0670508], [-96.7664575, 36.0669749], [-96.7663431, 36.066974], [-96.7663411, 36.0671431]]]}, "properties": {"osm_id": 1287542895, "building": "yes", "name": "", "height": null, "height_m": null, "levels": null, "tract_id": "40119011200", "tract_name": "112", "tags": {"building": "yes"}}}, {"type": "Feature", "geometry": {"type": "Polygon", "coordinates": [[[-96.7673057, 36.0872075], [-96.7673081, 36.0871482], [-96.7671864, 36.087145], [-96.7671812, 36.0872728], [-96.7672535, 36.0872747], [-96.7672563, 36.0872062], [-96.7673057, 36.0872075]]]}, "properties": {"osm_id": 1287542896, "building": "detached", "name": "", "height": null, "height_m": null, "levels": null, "tract_id": "40119011200", "tract_name": "112", "tags": {"building": "detached"}}}, {"type": "Feature", "geometry": {"type": "Polygon", "coordinates": [[[-96.7662631, 36.0749297], [-96.7662068, 36.0749306], [-96.7662106, 36.0750832], [-96.7662669, 36.0750823], [-96.7662631, 36.0749297]]]}, "properties": {"osm_id": 1287542897, "building": "yes", "name": "", "height": null, "height_m": null, "levels": null, "tract_id": "40119011200", "tract_name": "112", "tags": {"building": "yes"}}}, {"type": "Feature", "geometry": {"type": "Polygon", "coordinates": [[[-96.7664346, 36.0674478], [-96.7664359, 36.067515], [-96.7664949, 36.0675142], [-96.7664936, 36.067447], [-96.7664346, 36.0674478]]]}, "properties": {"osm_id": 1287542898, "building": "yes", "name": "", "height": null, "height_m": null, "levels": null, "tract_id": "40119011200", "tract_name": "112", "tags": {"building": "yes"}}}, {"type": "Feature", "geometry": {"type": "Polygon", "coordinates": [[[-96.7660126, 36.0745376], [-96.76602, 36.0747824], [-96.7661219, 36.0747804], [-96.7661145, 36.0745356], [-96.7660126, 36.0745376]]]}, "properties": {"osm_id": 1287542899, "building": "yes", "name": "", "height": null, "height_m": null, "levels": null, "tract_id": "40119011200", "tract_name": "112", "tags": {"building": "yes"}}}, {"type": "Feature", "geometry": {"type": "Polygon", "coordinates": [[[-96.7656537, 36.0575451], [-96.7656514, 36.0576765], [-96.7657282, 36.0576774], [-96.7657304, 36.057546], [-96.7656537, 36.0575451]]]}, "properties": {"osm_id": 1287542900, "building": "yes", "name": "", "height": null, "height_m": null, "levels": null, "tract_id": "40119011200", "tract_name": "112", "tags": {"building": "yes"}}}, {"type": "Feature", "geometry": {"type": "Polygon", "coordinates": [[[-96.765107, 36.0785979], [-96.7653684, 36.0785947], [-96.765365, 36.0784139], [-96.7651037, 36.0784171], [-96.765107, 36.0785979]]]}, "properties": {"osm_id": 1287542901, "building": "yes", "name": "", "height": null, "height_m": null, "levels": null, "tract_id": "40119011200", "tract_name": "112", "tags": {"building": "yes"}}}, {"type": "Feature", "geometry": {"type": "Polygon", "coordinates": [[[-96.766313, 36.0870717], [-96.7662102, 36.0870912], [-96.7662329, 36.0871693], [-96.7661603, 36.0871831], [-96.7661836, 36.0872632], [-96.7662638, 36.0872479], [-96.7662929, 36.0873478], [-96.7663874, 36.0873298], [-96.7663672, 36.0872603], [-96.7663958, 36.0872549], [-96.7663744, 36.0871814], [-96.7663465, 36.0871867], [-96.766313, 36.0870717]]]}, "properties": {"osm_id": 1287542902, "building": "detached", "name": "", "height": null, "height_m": null, "levels": null, "tract_id": "40119011200", "tract_name": "112", "tags": {"building": "detached"}}}, {"type": "Feature", "geometry": {"type": "Polygon", "coordinates": [[[-96.7677498, 36.0875127], [-96.7677442, 36.0876165], [-96.767878, 36.0876212], [-96.7678836, 36.0875173], [-96.7677498, 36.0875127]]]}, "properties": {"osm_id": 1287542903, "building": "yes", "name": "", "height": null, "height_m": null, "levels": null, "tract_id": "40119011200", "tract_name": "112", "tags": {"building": "yes"}}}, {"type": "Feature", "geometry": {"type": "Polygon", "coordinates": [[[-96.7658991, 36.0971142], [-96.7659305, 36.0972215], [-96.7661427, 36.097181], [-96.7661114, 36.0970737], [-96.7658991, 36.0971142]]]}, "properties": {"osm_id": 1287542904, "building": "yes", "name": "", "height": null, "height_m": null, "levels": null, "tract_id": "40119011200", "tract_name": "112", "tags": {"building": "yes"}}}, {"type": "Feature", "geometry": {"type": "Polygon", "coordinates": [[[-96.7663356, 36.0730661], [-96.7664655, 36.0730675], [-96.7664678, 36.0729237], [-96.7664946, 36.072924], [-96.7664957, 36.0728595], [-96.7666252, 36.0728609], [-96.7666267, 36.0727712], [-96.7664919, 36.0727698], [-96.7664924, 36.072736], [-96.7663593, 36.0727346], [-96.7663574, 36.0728512], [-96.7663161, 36.0728508], [-96.7663149, 36.0729253], [-96.7663378, 36.0729255], [-96.7663356, 36.0730661]]]}, "properties": {"osm_id": 1287542905, "building": "yes", "name": "Advent Church", "height": null, "height_m": null, "levels": null, "tract_id": "40119011200", "tract_name": "112", "tags": {"amenity": "place_of_worship", "building": "yes", "ele": "250", "gnis:feature_id": "1089545", "name": "Advent Church", "religion": "christian"}}}, {"type": "Feature", "geometry": {"type": "Polygon", "coordinates": [[[-96.7673884, 36.1117253], [-96.7673892, 36.1117715], [-96.7673666, 36.1117717], [-96.7673671, 36.1118037], [-96.7673897, 36.1118035], [-96.7673903, 36.1118446], [-96.7674091, 36.1118444], [-96.76741, 36.1119049], [-96.7674951, 36.111904], [-96.7674942, 36.111849], [-96.7675067, 36.1118489], [-96.767506, 36.111805], [-96.7675425, 36.1118047], [-96.767542, 36.1117714], [-96.7675152, 36.1117717], [-96.7675145, 36.111724], [-96.7673884, 36.1117253]]]}, "properties": {"osm_id": 1287542907, "building": "yes", "name": "", "height": null, "height_m": null, "levels": null, "tract_id": "40119011200", "tract_name": "112", "tags": {"building": "yes"}}}, {"type": "Feature", "geometry": {"type": "Polygon", "coordinates": [[[-96.766742, 36.0673042], [-96.7666026, 36.0673005], [-96.7665992, 36.067385], [-96.7667385, 36.0673887], [-96.766742, 36.0673042]]]}, "properties": {"osm_id": 1287542908, "building": "yes", "name": "", "height": null, "height_m": null, "levels": null, "tract_id": "40119011200", "tract_name": "112", "tags": {"building": "yes"}}}, {"type": "Feature", "geometry": {"type": "Polygon", "coordinates": [[[-96.6913131, 36.115961], [-96.6909256, 36.1159621], [-96.690924, 36.1155981], [-96.6913114, 36.115597], [-96.6913131, 36.115961]]]}, "properties": {"osm_id": 1447364053, "building": "yes", "name": "", "height": null, "height_m": null, "levels": null, "tract_id": "40119011200", "tract_name": "112", "tags": {"building": "yes"}}}]}