{"type": "FeatureCollection", "features": [{"type": "Feature", "geometry": {"type": "Polygon", "coordinates": [[[-97.5651277, 35.5788353], [-97.5650499, 35.5788353], [-97.5650526, 35.5789727], [-97.5651277, 35.5789749], [-97.5651277, 35.5788353]]]}, "properties": {"osm_id": 190764068, "building": "yes", "name": "", "height": null, "height_m": null, "levels": null, "tract_id": "40109108403", "tract_name": "1084.03", "tags": {"building": "yes"}}}, {"type": "Feature", "geometry": {"type": "Polygon", "coordinates": [[[-97.5662769, 35.5683827], [-97.5658143, 35.5679936], [-97.5657683, 35.5680354], [-97.5657607, 35.5682445], [-97.5657991, 35.5682743], [-97.5659831, 35.5684171], [-97.5661093, 35.568515], [-97.5662769, 35.5683827]]]}, "properties": {"osm_id": 193030864, "building": "office", "name": "", "height": null, "height_m": null, "levels": null, "tract_id": "40109108403", "tract_name": "1084.03", "tags": {"addr:housenumber": "9658", "addr:street": "North May Avenue", "building": "office", "source": "Bing"}}}, {"type": "Feature", "geometry": {"type": "Polygon", "coordinates": [[[-97.5664794, 35.5663965], [-97.5662833, 35.566399], [-97.5662889, 35.565958], [-97.5664847, 35.565958], [-97.5664794, 35.5663965]]]}, "properties": {"osm_id": 193032643, "building": "yes", "name": "", "height": null, "height_m": null, "levels": null, "tract_id": "40109108403", "tract_name": "1084.03", "tags": {"building": "yes", "source": "Bing"}}}, {"type": "Feature", "geometry": {"type": "Polygon", "coordinates": [[[-97.5668006, 35.5680613], [-97.5666741, 35.5680595], [-97.5665542, 35.5679655], [-97.5665569, 35.5678761], [-97.5664389, 35.5677714], [-97.5663289, 35.5677735], [-97.5662058, 35.5676794], [-97.5662055, 35.5675794], [-97.5666805, 35.567579], [-97.5666805, 35.5676772], [-97.5668012, 35.567771], [-97.5668006, 35.5680613]]]}, "properties": {"osm_id": 193032658, "building": "yes", "name": "", "height": null, "height_m": null, "levels": null, "tract_id": "40109108403", "tract_name": "1084.03", "tags": {"building": "yes", "source": "Bing"}}}, {"type": "Feature", "geometry": {"type": "Polygon", "coordinates": [[[-97.5665142, 35.5662394], [-97.5665142, 35.566403], [-97.5668093, 35.566403], [-97.566809, 35.5662354], [-97.5665142, 35.5662394]]]}, "properties": {"osm_id": 193032659, "building": "yes", "name": "Meddys", "height": null, "height_m": 3.0, "levels": 1, "tract_id": "40109108403", "tract_name": "1084.03", "tags": {"addr:city": "Oklahoma City", "addr:housenumber": "9404", "addr:postcode": "73120", "addr:state": "OK", "addr:street": "N May Ave", "amenity": "restaurant", "building": "yes", "building:levels": "1", "name": "Meddys", "source": "Bing"}}}, {"type": "Feature", "geometry": {"type": "Polygon", "coordinates": [[[-97.5669578, 35.5659394], [-97.5669089, 35.5659392], [-97.5669082, 35.5660283], [-97.566957, 35.5660286], [-97.5669578, 35.5659394]]]}, "properties": {"osm_id": 193032670, "building": "yes", "name": "Scooter's Coffee", "height": null, "height_m": 3.0, "levels": 1, "tract_id": "40109108403", "tract_name": "1084.03", "tags": {"addr:city": "Oklahoma City", "addr:postcode": "73120", "addr:state": "OK", "amenity": "cafe", "brand": "Scooter's Coffee", "brand:wikidata": "Q117280308", "building": "yes", "building:levels": "1", "cuisine": "coffee_shop", "name": "Scooter's Coffee", "takeaway": "yes"}}}, {"type": "Feature", "geometry": {"type": "Polygon", "coordinates": [[[-97.5663669, 35.5789447], [-97.5668725, 35.5789406], [-97.5668737, 35.5786216], [-97.5663631, 35.5786216], [-97.5663669, 35.5789447]]]}, "properties": {"osm_id": 370064372, "building": "yes", "name": "", "height": null, "height_m": null, "levels": null, "tract_id": "40109108403", "tract_name": "1084.03", "tags": {"addr:housenumber": "10712", "addr:street": "North May Avenue", "building": "yes", "source": "http://www.coindesk.com/menufy-now-supports-bitcoin-payments-400-us-restaurants/"}}}, {"type": "Feature", "geometry": {"type": "Polygon", "coordinates": [[[-97.5652885, 35.5799727], [-97.5652854, 35.5798297], [-97.5656107, 35.579833], [-97.5656097, 35.5799338], [-97.5653993, 35.5799347], [-97.5653993, 35.5799735], [-97.5652885, 35.5799727]]]}, "properties": {"osm_id": 464455197, "building": "commercial", "name": "", "height": null, "height_m": null, "levels": null, "tract_id": "40109108403", "tract_name": "1084.03", "tags": {"building": "commercial"}}}, {"type": "Feature", "geometry": {"type": "Polygon", "coordinates": [[[-97.5659644, 35.5799735], [-97.5659644, 35.5798404], [-97.5661798, 35.5798429], [-97.5661758, 35.5799727], [-97.5659644, 35.5799735]]]}, "properties": {"osm_id": 464455198, "building": "yes", "name": "", "height": null, "height_m": null, "levels": null, "tract_id": "40109108403", "tract_name": "1084.03", "tags": {"building": "yes"}}}, {"type": "Feature", "geometry": {"type": "Polygon", "coordinates": [[[-97.5663628, 35.5799595], [-97.5663597, 35.5798024], [-97.5662124, 35.5798041], [-97.5662195, 35.5799603], [-97.5663628, 35.5799595]]]}, "properties": {"osm_id": 464455199, "building": "yes", "name": "", "height": null, "height_m": null, "levels": null, "tract_id": "40109108403", "tract_name": "1084.03", "tags": {"building": "yes"}}}, {"type": "Feature", "geometry": {"type": "Polygon", "coordinates": [[[-97.5655223, 35.5797065], [-97.5655212, 35.57948], [-97.5652814, 35.5794784], [-97.5652854, 35.5797057], [-97.5655223, 35.5797065]]]}, "properties": {"osm_id": 464455200, "building": "yes", "name": "", "height": null, "height_m": null, "levels": null, "tract_id": "40109108403", "tract_name": "1084.03", "tags": {"building": "yes"}}}, {"type": "Feature", "geometry": {"type": "Polygon", "coordinates": [[[-97.5659529, 35.5797187], [-97.5659482, 35.5796067], [-97.5659693, 35.5796076], [-97.5659669, 35.5794358], [-97.5659202, 35.5794348], [-97.5659179, 35.5793512], [-97.5661385, 35.5793512], [-97.5661374, 35.5797187], [-97.5659529, 35.5797187]]]}, "properties": {"osm_id": 464455201, "building": "yes", "name": "", "height": null, "height_m": null, "levels": null, "tract_id": "40109108403", "tract_name": "1084.03", "tags": {"building": "yes"}}}, {"type": "Feature", "geometry": {"type": "Polygon", "coordinates": [[[-97.5654684, 35.5792876], [-97.5654672, 35.5787844], [-97.5657288, 35.5787844], [-97.5657217, 35.5789885], [-97.565856, 35.5789885], [-97.5658525, 35.5786761], [-97.5653341, 35.5786771], [-97.5653411, 35.5792895], [-97.5654684, 35.5792876]]]}, "properties": {"osm_id": 464455202, "building": "yes", "name": "", "height": null, "height_m": null, "levels": null, "tract_id": "40109108403", "tract_name": "1084.03", "tags": {"building": "yes", "office": "yes"}}}, {"type": "Feature", "geometry": {"type": "Polygon", "coordinates": [[[-97.5665675, 35.5785458], [-97.5665657, 35.5783975], [-97.5667515, 35.5783975], [-97.5667515, 35.5784206], [-97.5668736, 35.5784206], [-97.5668701, 35.5785443], [-97.5665675, 35.5785458]]]}, "properties": {"osm_id": 464455203, "building": "yes", "name": "", "height": null, "height_m": null, "levels": null, "tract_id": "40109108403", "tract_name": "1084.03", "tags": {"building": "yes"}}}, {"type": "Feature", "geometry": {"type": "Polygon", "coordinates": [[[-97.5666162, 35.5782179], [-97.5666127, 35.5778077], [-97.5667542, 35.5778092], [-97.566756, 35.5777919], [-97.5668056, 35.5777904], [-97.5668073, 35.5782309], [-97.5667542, 35.5782309], [-97.5667525, 35.578215], [-97.5666162, 35.5782179]]]}, "properties": {"osm_id": 464455204, "building": "commercial", "name": "", "height": null, "height_m": null, "levels": null, "tract_id": "40109108403", "tract_name": "1084.03", "tags": {"building": "commercial"}}}, {"type": "Feature", "geometry": {"type": "Polygon", "coordinates": [[[-97.5668421, 35.5775397], [-97.5668441, 35.5773413], [-97.5668157, 35.577343], [-97.5668177, 35.5773099], [-97.5664335, 35.5773099], [-97.5664335, 35.5772934], [-97.5664539, 35.5772818], [-97.5664661, 35.5772636], [-97.5664661, 35.5772471], [-97.56646, 35.5772223], [-97.5664457, 35.5772008], [-97.5664213, 35.5771776], [-97.5667242, 35.5771776], [-97.5667222, 35.577014], [-97.5662892, 35.5770156], [-97.5662872, 35.5769462], [-97.5662262, 35.5769429], [-97.5662282, 35.5770123], [-97.5660554, 35.5770074], [-97.5660575, 35.5770487], [-97.5660128, 35.5770503], [-97.5660128, 35.5771132], [-97.5657627, 35.5771099], [-97.5657587, 35.5770107], [-97.5655534, 35.5770107], [-97.5655554, 35.5773149], [-97.5656265, 35.5773149], [-97.5656245, 35.5775381], [-97.5668421, 35.5775397]]]}, "properties": {"osm_id": 464455228, "building": "yes", "name": "Village Baptist Church", "height": null, "height_m": null, "levels": null, "tract_id": "40109108403", "tract_name": "1084.03", "tags": {"addr:city": "Oklahoma City", "addr:postcode": "73120", "addr:state": "OK", "addr:street": "North May Avenue", "amenity": "place_of_worship", "building": "yes", "denomination": "baptist", "name": "Village Baptist Church", "religion": "christian"}}}, {"type": "Feature", "geometry": {"type": "Polygon", "coordinates": [[[-97.5652685, 35.5785132], [-97.5652638, 35.5783955], [-97.565467, 35.5783993], [-97.565467, 35.5785151], [-97.5652685, 35.5785132]]]}, "properties": {"osm_id": 464455232, "building": "commercial", "name": "", "height": null, "height_m": null, "levels": null, "tract_id": "40109108403", "tract_name": "1084.03", "tags": {"building": "commercial"}}}, {"type": "Feature", "geometry": {"type": "Polygon", "coordinates": [[[-97.5644562, 35.5662624], [-97.5644508, 35.5659744], [-97.564542, 35.5659744], [-97.564542, 35.5658304], [-97.5646305, 35.5658325], [-97.5646386, 35.5659656], [-97.5647217, 35.5659656], [-97.5647298, 35.5662667], [-97.5644562, 35.5662624]]]}, "properties": {"osm_id": 466837212, "building": "commercial", "name": "", "height": null, "height_m": null, "levels": null, "tract_id": "40109108403", "tract_name": "1084.03", "tags": {"building": "commercial"}}}, {"type": "Feature", "geometry": {"type": "Polygon", "coordinates": [[[-97.5596035, 35.5663841], [-97.5595025, 35.5663832], [-97.5595019, 35.5664003], [-97.5594108, 35.5663998], [-97.5594097, 35.5663803], [-97.5592451, 35.5663803], [-97.5592451, 35.5663936], [-97.5590898, 35.5663898], [-97.5590898, 35.566122], [-97.5591131, 35.5661211], [-97.559112, 35.5660176], [-97.5590874, 35.5660157], [-97.5590839, 35.5659197], [-97.5591096, 35.5659207], [-97.5591073, 35.5659017], [-97.5591668, 35.5659008], [-97.5591858, 35.5658885], [-97.559386, 35.5658889], [-97.5594082, 35.5659008], [-97.559428, 35.5659018], [-97.5594263, 35.5658733], [-97.5595611, 35.5658742], [-97.55956, 35.5660224], [-97.5595862, 35.5660224], [-97.5595834, 35.566223], [-97.5596012, 35.5662234], [-97.5596035, 35.5663841]]]}, "properties": {"osm_id": 472789898, "building": "yes", "name": "Village Christian Church", "height": null, "height_m": null, "levels": null, "tract_id": "40109108403", "tract_name": "1084.03", "tags": {"amenity": "place_of_worship", "building": "yes", "name": "Village Christian Church", "religion": "christian"}}}, {"type": "Feature", "geometry": {"type": "Polygon", "coordinates": [[[-97.5630676, 35.5661464], [-97.5630667, 35.5659154], [-97.5628481, 35.565914], [-97.5628464, 35.5660298], [-97.5627278, 35.5660291], [-97.5627225, 35.5661436], [-97.5630676, 35.5661464]]]}, "properties": {"osm_id": 472789908, "building": "yes", "name": "", "height": null, "height_m": null, "levels": null, "tract_id": "40109108403", "tract_name": "1084.03", "tags": {"building": "yes"}}}, {"type": "Feature", "geometry": {"type": "Polygon", "coordinates": [[[-97.5624799, 35.5665554], [-97.5624799, 35.5664338], [-97.5624337, 35.5664351], [-97.5624337, 35.5661656], [-97.5621102, 35.5661669], [-97.5621025, 35.5658185], [-97.5619068, 35.565816], [-97.561913, 35.5661644], [-97.5618606, 35.5661631], [-97.5618621, 35.5662296], [-97.5619145, 35.5662296], [-97.561913, 35.5665516], [-97.5624799, 35.5665554]]]}, "properties": {"osm_id": 472789909, "building": "yes", "name": "", "height": null, "height_m": null, "levels": null, "tract_id": "40109108403", "tract_name": "1084.03", "tags": {"building": "yes"}}}, {"type": "Feature", "geometry": {"type": "Polygon", "coordinates": [[[-97.5623782, 35.5659802], [-97.5623782, 35.5658724], [-97.5621702, 35.5658724], [-97.562172, 35.5659791], [-97.5623782, 35.5659802]]]}, "properties": {"osm_id": 472789910, "building": "yes", "name": "", "height": null, "height_m": null, "levels": null, "tract_id": "40109108403", "tract_name": "1084.03", "tags": {"building": "yes"}}}, {"type": "Feature", "geometry": {"type": "Polygon", "coordinates": [[[-97.5639201, 35.5666538], [-97.5639219, 35.5662263], [-97.5640847, 35.5662263], [-97.5640847, 35.5666538], [-97.5639201, 35.5666538]]]}, "properties": {"osm_id": 472789962, "building": "apartments", "name": "", "height": null, "height_m": null, "levels": null, "tract_id": "40109108403", "tract_name": "1084.03", "tags": {"building": "apartments"}}}, {"type": "Feature", "geometry": {"type": "Polygon", "coordinates": [[[-97.5638405, 35.5666322], [-97.5638812, 35.5665099], [-97.5633698, 35.5664048], [-97.5633291, 35.5665286], [-97.5638405, 35.5666322]]]}, "properties": {"osm_id": 472789964, "building": "apartments", "name": "", "height": null, "height_m": null, "levels": null, "tract_id": "40109108403", "tract_name": "1084.03", "tags": {"building": "apartments"}}}, {"type": "Feature", "geometry": {"type": "Polygon", "coordinates": [[[-97.5633114, 35.5665329], [-97.5633114, 35.5663991], [-97.5627911, 35.5663991], [-97.5627876, 35.5665315], [-97.5633114, 35.5665329]]]}, "properties": {"osm_id": 472789966, "building": "apartments", "name": "", "height": null, "height_m": null, "levels": null, "tract_id": "40109108403", "tract_name": "1084.03", "tags": {"building": "apartments"}}}, {"type": "Feature", "geometry": {"type": "Polygon", "coordinates": [[[-97.5637446, 35.5663776], [-97.5637446, 35.5662205], [-97.5634804, 35.5662183], [-97.5634791, 35.5663754], [-97.5637446, 35.5663776]]]}, "properties": {"osm_id": 472789968, "building": "apartments", "name": "", "height": null, "height_m": null, "levels": null, "tract_id": "40109108403", "tract_name": "1084.03", "tags": {"building": "apartments"}}}, {"type": "Feature", "geometry": {"type": "Polygon", "coordinates": [[[-97.5634241, 35.5663514], [-97.5634227, 35.5662183], [-97.5632752, 35.566215], [-97.5632792, 35.5663514], [-97.5634241, 35.5663514]]]}, "properties": {"osm_id": 472789970, "building": "apartments", "name": "", "height": null, "height_m": null, "levels": null, "tract_id": "40109108403", "tract_name": "1084.03", "tags": {"building": "apartments"}}}, {"type": "Feature", "geometry": {"type": "Polygon", "coordinates": [[[-97.5630593, 35.566347], [-97.5630606, 35.5662118], [-97.5627844, 35.5662096], [-97.5627857, 35.5663459], [-97.5630593, 35.566347]]]}, "properties": {"osm_id": 472789971, "building": "apartments", "name": "", "height": null, "height_m": null, "levels": null, "tract_id": "40109108403", "tract_name": "1084.03", "tags": {"building": "apartments"}}}, {"type": "Feature", "geometry": {"type": "Polygon", "coordinates": [[[-97.5641489, 35.5661751], [-97.5641502, 35.5659591], [-97.5639477, 35.5659558], [-97.5639491, 35.5661751], [-97.5641489, 35.5661751]]]}, "properties": {"osm_id": 472789972, "building": "apartments", "name": "", "height": null, "height_m": null, "levels": null, "tract_id": "40109108403", "tract_name": "1084.03", "tags": {"building": "apartments"}}}, {"type": "Feature", "geometry": {"type": "Polygon", "coordinates": [[[-97.5638706, 35.5661735], [-97.5638719, 35.5659575], [-97.5636694, 35.5659542], [-97.5636708, 35.5661735], [-97.5638706, 35.5661735]]]}, "properties": {"osm_id": 472789973, "building": "apartments", "name": "", "height": null, "height_m": null, "levels": null, "tract_id": "40109108403", "tract_name": "1084.03", "tags": {"building": "apartments"}}}, {"type": "Feature", "geometry": {"type": "Polygon", "coordinates": [[[-97.5635903, 35.5661735], [-97.5635916, 35.5659575], [-97.5633891, 35.5659542], [-97.5633905, 35.5661735], [-97.5635903, 35.5661735]]]}, "properties": {"osm_id": 472789974, "building": "apartments", "name": "", "height": null, "height_m": null, "levels": null, "tract_id": "40109108403", "tract_name": "1084.03", "tags": {"building": "apartments"}}}, {"type": "Feature", "geometry": {"type": "Polygon", "coordinates": [[[-97.5633181, 35.5661713], [-97.5633194, 35.5659553], [-97.5631169, 35.565952], [-97.5631182, 35.5661713], [-97.5633181, 35.5661713]]]}, "properties": {"osm_id": 472789975, "building": "apartments", "name": "", "height": null, "height_m": null, "levels": null, "tract_id": "40109108403", "tract_name": "1084.03", "tags": {"building": "apartments"}}}, {"type": "Feature", "geometry": {"type": "Polygon", "coordinates": [[[-97.5653255, 35.5660235], [-97.5653296, 35.5662703], [-97.5653076, 35.5662692], [-97.5653076, 35.5663937], [-97.5656247, 35.5663881], [-97.5656205, 35.5662523], [-97.5657336, 35.5662523], [-97.5657309, 35.5661705], [-97.5656192, 35.5661682], [-97.5656178, 35.5660202], [-97.5653255, 35.5660235]]]}, "properties": {"osm_id": 720792755, "building": "retail", "name": "", "height": null, "height_m": null, "levels": null, "tract_id": "40109108403", "tract_name": "1084.03", "tags": {"addr:postcode": "73120", "addr:state": "OK", "building": "retail"}}}, {"type": "Feature", "geometry": {"type": "Polygon", "coordinates": [[[-97.5653076, 35.5663937], [-97.5653089, 35.5665653], [-97.5656439, 35.5665631], [-97.5656605, 35.566563], [-97.5656578, 35.5663858], [-97.5656247, 35.5663881], [-97.5653076, 35.5663937]]]}, "properties": {"osm_id": 720792756, "building": "retail", "name": "", "height": null, "height_m": null, "levels": null, "tract_id": "40109108403", "tract_name": "1084.03", "tags": {"addr:postcode": "73120", "addr:state": "OK", "building": "retail"}}}, {"type": "Feature", "geometry": {"type": "Polygon", "coordinates": [[[-97.5653089, 35.5665653], [-97.5653076, 35.5668636], [-97.565644, 35.5668636], [-97.5656439, 35.5665631], [-97.5653089, 35.5665653]]]}, "properties": {"osm_id": 720792757, "building": "retail", "name": "", "height": null, "height_m": null, "levels": null, "tract_id": "40109108403", "tract_name": "1084.03", "tags": {"addr:postcode": "73120", "addr:state": "OK", "building": "retail"}}}, {"type": "Feature", "geometry": {"type": "Polygon", "coordinates": [[[-97.5653076, 35.5668636], [-97.5653089, 35.5669735], [-97.5653531, 35.5669737], [-97.565644, 35.5669746], [-97.565644, 35.5668636], [-97.5653076, 35.5668636]]]}, "properties": {"osm_id": 720792758, "building": "retail", "name": "", "height": null, "height_m": null, "levels": null, "tract_id": "40109108403", "tract_name": "1084.03", "tags": {"addr:postcode": "73120", "addr:state": "OK", "building": "retail"}}}, {"type": "Feature", "geometry": {"type": "Polygon", "coordinates": [[[-97.5653531, 35.5669737], [-97.5653531, 35.5670262], [-97.5655295, 35.5671698], [-97.5655295, 35.5671866], [-97.5654827, 35.5672203], [-97.5654799, 35.5673122], [-97.5660976, 35.5673066], [-97.5661045, 35.5669679], [-97.565644, 35.5669746], [-97.5653531, 35.5669737]]]}, "properties": {"osm_id": 720792759, "building": "retail", "name": "", "height": null, "height_m": null, "levels": null, "tract_id": "40109108403", "tract_name": "1084.03", "tags": {"addr:postcode": "73120", "addr:state": "OK", "building": "retail"}}}, {"type": "Feature", "geometry": {"type": "Polygon", "coordinates": [[[-97.5660976, 35.5673066], [-97.566099, 35.5673167], [-97.5668215, 35.5673201], [-97.5668242, 35.5669735], [-97.5661045, 35.5669679], [-97.5660976, 35.5673066]]]}, "properties": {"osm_id": 720792760, "building": "retail", "name": "", "height": null, "height_m": null, "levels": null, "tract_id": "40109108403", "tract_name": "1084.03", "tags": {"addr:postcode": "73120", "addr:state": "OK", "building": "retail"}}}, {"type": "Feature", "geometry": {"type": "Polygon", "coordinates": [[[-97.5651029, 35.5683408], [-97.5650965, 35.5686757], [-97.5653183, 35.5686783], [-97.5653214, 35.5683446], [-97.5651029, 35.5683408]]]}, "properties": {"osm_id": 720792765, "building": "retail", "name": "", "height": null, "height_m": null, "levels": null, "tract_id": "40109108403", "tract_name": "1084.03", "tags": {"building": "retail"}}}, {"type": "Feature", "geometry": {"type": "Polygon", "coordinates": [[[-97.5650965, 35.5686757], [-97.5650902, 35.5689205], [-97.5654022, 35.5691705], [-97.5657063, 35.5691732], [-97.5657031, 35.5689862], [-97.5655099, 35.5689849], [-97.565342, 35.5688406], [-97.565342, 35.5686783], [-97.5653183, 35.5686783], [-97.5650965, 35.5686757]]]}, "properties": {"osm_id": 720792766, "building": "retail", "name": "", "height": null, "height_m": null, "levels": null, "tract_id": "40109108403", "tract_name": "1084.03", "tags": {"building": "retail"}}}, {"type": "Feature", "geometry": {"type": "Polygon", "coordinates": [[[-97.5657031, 35.5689862], [-97.5663097, 35.568991], [-97.5663119, 35.5691795], [-97.5657063, 35.5691732], [-97.5657031, 35.5689862]]]}, "properties": {"osm_id": 720792767, "building": "retail", "name": "", "height": null, "height_m": null, "levels": null, "tract_id": "40109108403", "tract_name": "1084.03", "tags": {"building": "retail"}}}, {"type": "Feature", "geometry": {"type": "Polygon", "coordinates": [[[-97.5663119, 35.5691795], [-97.5663926, 35.5691804], [-97.5663926, 35.5692293], [-97.566823, 35.569233], [-97.5668286, 35.5689883], [-97.5663097, 35.568991], [-97.5663119, 35.5691795]]]}, "properties": {"osm_id": 720792768, "building": "retail", "name": "Lindsey Medical Supply", "height": null, "height_m": null, "levels": null, "tract_id": "40109108403", "tract_name": "1084.03", "tags": {"addr:city": "Oklahoma City", "addr:housenumber": "9600", "addr:postcode": "73120", "addr:state": "OK", "addr:street": "North May Avenue", "building": "retail", "email": "cs@lindseymedicalsupply.com", "name": "Lindsey Medical Supply", "phone": "+1 405 607 5905", "shop": "medical_supply", "website": "https://www.lindseymedicalsupply.com/"}}}, {"type": "Feature", "geometry": {"type": "Polygon", "coordinates": [[[-97.5664491, 35.5794672], [-97.5664534, 35.5799262], [-97.5665956, 35.5799253], [-97.5665947, 35.5798293], [-97.5668039, 35.579828], [-97.5668054, 35.5799916], [-97.5668993, 35.579991], [-97.5668931, 35.5793453], [-97.5668073, 35.5793459], [-97.5668092, 35.5795422], [-97.5665973, 35.5795435], [-97.5665966, 35.5794663], [-97.5664491, 35.5794672]]]}, "properties": {"osm_id": 1435967828, "building": "yes", "name": "", "height": null, "height_m": null, "levels": null, "tract_id": "40109108403", "tract_name": "1084.03", "tags": {"building": "yes", "source": "microsoft/BuildingFootprints"}}}]}