{"type": "FeatureCollection", "features": [{"type": "Feature", "geometry": {"type": "Polygon", "coordinates": [[[-99.3723153, 35.4228752], [-99.3722028, 35.4229324], [-99.3721946, 35.4229366], [-99.3722026, 35.4229543], [-99.3721778, 35.4229624], [-99.37231, 35.4231506], [-99.3724602, 35.4230829], [-99.3723153, 35.4228752]]]}, "properties": {"osm_id": 226290386, "building": "yes", "name": "", "height": null, "height_m": null, "levels": null, "tract_id": "40009966100", "tract_name": "9661", "tags": {"building": "yes"}}}, {"type": "Feature", "geometry": {"type": "Polygon", "coordinates": [[[-99.3723226, 35.4226596], [-99.3722758, 35.422687], [-99.3722354, 35.4227106], [-99.3723395, 35.4228288], [-99.3723823, 35.4228038], [-99.3724267, 35.4227778], [-99.3723226, 35.4226596]]]}, "properties": {"osm_id": 226290387, "building": "roof", "name": "", "height": null, "height_m": null, "levels": null, "tract_id": "40009966100", "tract_name": "9661", "tags": {"building": "roof", "layer": "1"}}}, {"type": "Feature", "geometry": {"type": "Polygon", "coordinates": [[[-99.4098504, 35.4240199], [-99.4098505, 35.4238281], [-99.4100036, 35.4238281], [-99.4100035, 35.4239428], [-99.41003, 35.4239429], [-99.4100299, 35.4240351], [-99.4099444, 35.4240351], [-99.4099445, 35.4240199], [-99.4098504, 35.4240199]]]}, "properties": {"osm_id": 246053990, "building": "detached", "name": "", "height": null, "height_m": null, "levels": null, "tract_id": "40009966100", "tract_name": "9661", "tags": {"building": "detached", "source": "Bing"}}}, {"type": "Feature", "geometry": {"type": "Polygon", "coordinates": [[[-99.4104004, 35.4237842], [-99.4104008, 35.4237156], [-99.4104309, 35.4237157], [-99.4104316, 35.4235967], [-99.4104316, 35.423595], [-99.410559, 35.4235955], [-99.410559, 35.4235977], [-99.4105588, 35.4236351], [-99.4105943, 35.4236352], [-99.4105934, 35.423785], [-99.4104004, 35.4237842]]]}, "properties": {"osm_id": 246053991, "building": "detached", "name": "", "height": null, "height_m": null, "levels": null, "tract_id": "40009966100", "tract_name": "9661", "tags": {"building": "detached", "source": "Bing"}}}, {"type": "Feature", "geometry": {"type": "Polygon", "coordinates": [[[-99.40935, 35.4240223], [-99.4093516, 35.4239599], [-99.4094153, 35.423961], [-99.4094181, 35.4238496], [-99.4095814, 35.4238524], [-99.409577, 35.4240262], [-99.40935, 35.4240223]]]}, "properties": {"osm_id": 246053992, "building": "detached", "name": "", "height": null, "height_m": null, "levels": null, "tract_id": "40009966100", "tract_name": "9661", "tags": {"building": "detached", "source": "Bing"}}}, {"type": "Feature", "geometry": {"type": "Polygon", "coordinates": [[[-99.4100316, 35.4233549], [-99.4100311, 35.4234204], [-99.4099903, 35.4234202], [-99.4099896, 35.4235321], [-99.4098456, 35.4235315], [-99.4098467, 35.423355], [-99.4100316, 35.4233549]]]}, "properties": {"osm_id": 246053993, "building": "detached", "name": "", "height": null, "height_m": null, "levels": null, "tract_id": "40009966100", "tract_name": "9661", "tags": {"building": "detached", "source": "Bing"}}}, {"type": "Feature", "geometry": {"type": "Polygon", "coordinates": [[[-99.4100282, 35.4231829], [-99.4100016, 35.4231826], [-99.41, 35.4233038], [-99.4098387, 35.4233024], [-99.4098412, 35.4231119], [-99.4100291, 35.4231136], [-99.4100282, 35.4231829]]]}, "properties": {"osm_id": 246053994, "building": "detached", "name": "", "height": null, "height_m": null, "levels": null, "tract_id": "40009966100", "tract_name": "9661", "tags": {"building": "detached", "source": "Bing"}}}, {"type": "Feature", "geometry": {"type": "Polygon", "coordinates": [[[-99.410521, 35.423828], [-99.4105209, 35.4238358], [-99.4105408, 35.4238359], [-99.4105404, 35.4238687], [-99.4105566, 35.4238688], [-99.4105557, 35.4239471], [-99.4106263, 35.4239476], [-99.4106253, 35.4240326], [-99.410405, 35.4240309], [-99.4104074, 35.4238271], [-99.410521, 35.423828]]]}, "properties": {"osm_id": 246053995, "building": "detached", "name": "", "height": null, "height_m": null, "levels": null, "tract_id": "40009966100", "tract_name": "9661", "tags": {"building": "detached", "source": "Bing"}}}, {"type": "Feature", "geometry": {"type": "Polygon", "coordinates": [[[-99.4110327, 35.4233593], [-99.4110308, 35.4234661], [-99.4110818, 35.4234667], [-99.4110809, 35.4235222], [-99.4108496, 35.4235195], [-99.4108506, 35.423464], [-99.4108972, 35.4234645], [-99.410899, 35.4233577], [-99.4110327, 35.4233593]]]}, "properties": {"osm_id": 246053996, "building": "detached", "name": "", "height": null, "height_m": null, "levels": null, "tract_id": "40009966100", "tract_name": "9661", "tags": {"building": "detached", "source": "Bing"}}}, {"type": "Feature", "geometry": {"type": "Polygon", "coordinates": [[[-99.410627, 35.4235539], [-99.4104559, 35.4235526], [-99.4104569, 35.4234682], [-99.410402, 35.4234678], [-99.4104028, 35.4234013], [-99.4105068, 35.4234021], [-99.4105073, 35.4233616], [-99.4106293, 35.4233626], [-99.410627, 35.4235539]]]}, "properties": {"osm_id": 246053997, "building": "detached", "name": "", "height": null, "height_m": null, "levels": null, "tract_id": "40009966100", "tract_name": "9661", "tags": {"building": "detached", "source": "Bing"}}}, {"type": "Feature", "geometry": {"type": "Polygon", "coordinates": [[[-99.4098317, 35.4237261], [-99.4098098, 35.423726], [-99.4098106, 35.4236022], [-99.4099661, 35.4236028], [-99.4099657, 35.4236683], [-99.4100311, 35.4236686], [-99.4100305, 35.4237577], [-99.4098315, 35.4237569], [-99.4098317, 35.4237261]]]}, "properties": {"osm_id": 246053998, "building": "detached", "name": "", "height": null, "height_m": null, "levels": null, "tract_id": "40009966100", "tract_name": "9661", "tags": {"building": "detached", "source": "Bing"}}}, {"type": "Feature", "geometry": {"type": "Polygon", "coordinates": [[[-99.4005036, 35.4112132], [-99.4005057, 35.4112896], [-99.4000782, 35.4112972], [-99.4000787, 35.411318], [-99.3999483, 35.4113203], [-99.3999537, 35.4115219], [-99.3997883, 35.4115249], [-99.3997828, 35.4113185], [-99.3997553, 35.411319], [-99.3997517, 35.4111865], [-99.3998359, 35.411185], [-99.3998338, 35.411107], [-99.4000152, 35.4111037], [-99.4000174, 35.411185], [-99.4000783, 35.4111839], [-99.4000793, 35.4112207], [-99.4005036, 35.4112132]]]}, "properties": {"osm_id": 293423784, "building": "yes", "name": "Elk City Police Department", "height": null, "height_m": null, "levels": null, "tract_id": "40009966100", "tract_name": "9661", "tags": {"addr:city": "Elk City", "addr:housenumber": "422", "addr:postcode": "73644", "addr:state": "OK", "addr:street": "East 3rd Street", "amenity": "police", "building": "yes", "emergency": "psap", "name": "Elk City Police Department"}}}, {"type": "Feature", "geometry": {"type": "Polygon", "coordinates": [[[-99.374037, 35.4201633], [-99.373595, 35.4201614], [-99.373596, 35.4199974], [-99.3740381, 35.4199993], [-99.374037, 35.4201633]]]}, "properties": {"osm_id": 310626102, "building": "industrial", "name": "Elk Skating Center", "height": null, "height_m": null, "levels": null, "tract_id": "40009966100", "tract_name": "9661", "tags": {"addr:city": "Elk City", "addr:housenumber": "900", "addr:postcode": "73644", "addr:state": "OK", "addr:street": "North Highway 34", "building": "industrial", "contact:facebook": "https://www.facebook.com/groups/265207608157386", "leisure": "sports_centre", "name": "Elk Skating Center", "phone": "+1 580 225 0557", "sport": "roller_skating"}}}, {"type": "Feature", "geometry": {"type": "Polygon", "coordinates": [[[-99.3886217, 35.4054778], [-99.3877904, 35.4049071], [-99.3871807, 35.405497], [-99.3870103, 35.4053799], [-99.3869546, 35.4054338], [-99.3868653, 35.4053724], [-99.3867916, 35.4054437], [-99.3866446, 35.405586], [-99.3869043, 35.4057642], [-99.3870066, 35.4056652], [-99.3878381, 35.4062361], [-99.3879183, 35.4061585], [-99.3880618, 35.406257], [-99.3881464, 35.4061752], [-99.3882021, 35.4062134], [-99.3884972, 35.4059279], [-99.3883806, 35.4058478], [-99.38844, 35.4057903], [-99.3883574, 35.4057336], [-99.3886217, 35.4054778]]]}, "properties": {"osm_id": 396821009, "building": "industrial", "name": "Bar-S Foods Company", "height": null, "height_m": null, "levels": null, "tract_id": "40009966100", "tract_name": "9661", "tags": {"building": "industrial", "name": "Bar-S Foods Company"}}}, {"type": "Feature", "geometry": {"type": "Polygon", "coordinates": [[[-99.3771747, 35.4086548], [-99.3770309, 35.4086219], [-99.3770747, 35.408495], [-99.3767848, 35.4084286], [-99.376741, 35.4085555], [-99.3761741, 35.4084255], [-99.3759593, 35.4090482], [-99.375786, 35.4090085], [-99.3756509, 35.4094003], [-99.3758241, 35.40944], [-99.3756843, 35.4098451], [-99.376685, 35.4100744], [-99.3767437, 35.4099042], [-99.3768135, 35.4099202], [-99.3769325, 35.409575], [-99.3768628, 35.409559], [-99.3769312, 35.4093607], [-99.3769922, 35.4093747], [-99.3771308, 35.408973], [-99.3770698, 35.4089591], [-99.3771747, 35.4086548]]]}, "properties": {"osm_id": 396821010, "building": "retail", "name": "Walmart Supercenter", "height": null, "height_m": null, "levels": null, "tract_id": "40009966100", "tract_name": "9661", "tags": {"addr:city": "Elk City", "addr:country": "US", "addr:housenumber": "210", "addr:postcode": "73644", "addr:state": "OK", "addr:street": "Regional Drive", "brand": "Walmart", "brand:wikidata": "Q483551", "building": "retail", "name": "Walmart Supercenter", "opening_hours": "24/7", "operator": "Walmart", "payment:app:walmart": "yes", "payment:apple_pay": "no", "payment:google_pay": "no", "payment:samsung_pay": "no", "phone": "+1 580-225-3003", "ref": "134", "ref:walmart": "134", "sensory_friendly:accommodation": "dimmed_light;static_screens;no_pa", "sensory_friendly:conditional": "yes @ 08:00-10:00", "shop": "supermarket", "website": "https://www.walmart.com/store/134-elk-city-ok"}}}, {"type": "Feature", "geometry": {"type": "Polygon", "coordinates": [[[-99.3782785, 35.4076454], [-99.3781369, 35.4076109], [-99.3778913, 35.4082807], [-99.3780329, 35.4083152], [-99.3782785, 35.4076454]]]}, "properties": {"osm_id": 396821011, "building": "hotel", "name": "Hampton", "height": null, "height_m": null, "levels": null, "tract_id": "40009966100", "tract_name": "9661", "tags": {"alt_name": "Hampton Inn", "brand": "Hampton", "brand:wikidata": "Q5646230", "building": "hotel", "name": "Hampton", "official_name": "Hampton by Hilton", "tourism": "hotel"}}}, {"type": "Feature", "geometry": {"type": "Polygon", "coordinates": [[[-99.4034554, 35.3632892], [-99.4028681, 35.3632989], [-99.4028639, 35.3631305], [-99.4034512, 35.3631208], [-99.4034554, 35.3632892]]]}, "properties": {"osm_id": 448354364, "building": "yes", "name": "", "height": null, "height_m": null, "levels": null, "tract_id": "40009966100", "tract_name": "9661", "tags": {"building": "yes", "golf": "clubhouse", "website": "https://www.elkcitygolf.com/"}}}, {"type": "Feature", "geometry": {"type": "Polygon", "coordinates": [[[-99.407499, 35.3919132], [-99.4069548, 35.3920833], [-99.4062824, 35.3906541], [-99.4068266, 35.390484], [-99.407499, 35.3919132]]]}, "properties": {"osm_id": 448384898, "building": "yes", "name": "", "height": null, "height_m": null, "levels": null, "tract_id": "40009966100", "tract_name": "9661", "tags": {"building": "yes"}}}, {"type": "Feature", "geometry": {"type": "Polygon", "coordinates": [[[-99.4055463, 35.4098724], [-99.4050645, 35.4098723], [-99.4050646, 35.4097432], [-99.4055463, 35.4097433], [-99.4055463, 35.4098724]]]}, "properties": {"osm_id": 457640813, "building": "yes", "name": "", "height": null, "height_m": null, "levels": null, "tract_id": "40009966100", "tract_name": "9661", "tags": {"building": "yes", "shop": "yes"}}}, {"type": "Feature", "geometry": {"type": "Polygon", "coordinates": [[[-99.3738271, 35.4224976], [-99.3738228, 35.423145], [-99.3741275, 35.4231476], [-99.3741453, 35.4225111], [-99.3738271, 35.4224976]]]}, "properties": {"osm_id": 538593698, "building": "hotel", "name": "La Quinta Inn & Suites", "height": null, "height_m": null, "levels": null, "tract_id": "40009966100", "tract_name": "9661", "tags": {"addr:city": "Elk City", "addr:country": "US", "addr:housenumber": "2611", "addr:postcode": "73644", "addr:state": "OK", "addr:street": "East State Highway 66", "branch": "Elk City", "brand": "La Quinta Inn & Suites", "brand:wikidata": "Q6464734", "building": "hotel", "name": "La Quinta Inn & Suites", "official_name": "La Quinta Inn & Suites by Wyndham", "phone": "+1 580-303-4536", "ref": "53003", "tourism": "hotel", "website": "https://www.wyndhamhotels.com/laquinta/elk-city-oklahoma/la-quinta-elk-city/overview"}}}, {"type": "Feature", "geometry": {"type": "Polygon", "coordinates": [[[-99.400044, 35.4110173], [-99.399907, 35.4110197], [-99.3999037, 35.4108952], [-99.4000407, 35.4108927], [-99.400044, 35.4110173]]]}, "properties": {"osm_id": 657444852, "building": "yes", "name": "", "height": null, "height_m": null, "levels": null, "tract_id": "40009966100", "tract_name": "9661", "tags": {"building": "yes"}}}, {"type": "Feature", "geometry": {"type": "Polygon", "coordinates": [[[-99.3668257, 35.4223628], [-99.3669248, 35.4222777], [-99.3670266, 35.4222543], [-99.3671054, 35.4222555], [-99.3671795, 35.4222816], [-99.3672785, 35.4223586], [-99.3672948, 35.4223508], [-99.3672918, 35.4223386], [-99.3672376, 35.4222952], [-99.3673752, 35.4222687], [-99.3675092, 35.4222967], [-99.3674581, 35.4223467], [-99.3674339, 35.422421], [-99.3674652, 35.4224224], [-99.3674842, 35.4223751], [-99.3674742, 35.4223642], [-99.3677296, 35.4221736], [-99.3678202, 35.4221779], [-99.3679154, 35.4222658], [-99.3679181, 35.4223025], [-99.3679402, 35.4223178], [-99.3679407, 35.4223569], [-99.3676964, 35.4225521], [-99.3675848, 35.4224636], [-99.3675379, 35.4225068], [-99.3674755, 35.4225046], [-99.3674782, 35.4225571], [-99.3674428, 35.4225632], [-99.3674513, 35.4225877], [-99.3673652, 35.4226069], [-99.3672875, 35.4225892], [-99.3673112, 35.4225117], [-99.367296, 35.4225081], [-99.3672737, 35.4225693], [-99.3671743, 35.4226467], [-99.3670443, 35.4226712], [-99.3669428, 35.422647], [-99.3669169, 35.4226408], [-99.3668201, 35.4225567], [-99.3667377, 35.4225554], [-99.3667384, 35.4226352], [-99.366454, 35.4226289], [-99.3664543, 35.422338], [-99.3665247, 35.4223412], [-99.366526, 35.4223325], [-99.3666346, 35.4223276], [-99.366742, 35.4223367], [-99.3667421, 35.4223651], [-99.3668257, 35.4223628]]]}, "properties": {"osm_id": 657444854, "building": "church", "name": "Saint Matthew Catholic Church", "height": null, "height_m": null, "levels": null, "tract_id": "40009966100", "tract_name": "9661", "tags": {"addr:city": "Elk City", "addr:housenumber": "3001", "addr:postcode": "73644", "addr:state": "OK", "addr:street": "East State Highway 66", "amenity": "place_of_worship", "building": "church", "denomination": "roman_catholic", "diocese": "Oklahoma_City", "ele": "611", "gnis:feature_id": "1777783", "name": "Saint Matthew Catholic Church", "phone": "+1-580-225-0066", "religion": "christian"}}}, {"type": "Feature", "geometry": {"type": "Polygon", "coordinates": [[[-99.3715907, 35.4225985], [-99.3715184, 35.4227533], [-99.3712093, 35.4226575], [-99.3712815, 35.4225027], [-99.3713095, 35.4225114], [-99.3713454, 35.4224345], [-99.3714249, 35.4224591], [-99.371389, 35.422536], [-99.3715907, 35.4225985]]]}, "properties": {"osm_id": 657444855, "building": "yes", "name": "", "height": null, "height_m": null, "levels": null, "tract_id": "40009966100", "tract_name": "9661", "tags": {"addr:city": "Elk City", "addr:housenumber": "2707", "addr:postcode": "73644", "addr:state": "OK", "addr:street": "East Highway 66", "building": "yes"}}}, {"type": "Feature", "geometry": {"type": "Polygon", "coordinates": [[[-99.3708133, 35.4227955], [-99.3703884, 35.4227986], [-99.3703826, 35.4222652], [-99.3704586, 35.4222647], [-99.3704582, 35.422235], [-99.3705857, 35.422234], [-99.3705847, 35.4221375], [-99.3707174, 35.4221365], [-99.3707185, 35.4222331], [-99.3708071, 35.4222324], [-99.3708133, 35.4227955]]]}, "properties": {"osm_id": 657444856, "building": "yes", "name": "Super 8", "height": null, "height_m": null, "levels": null, "tract_id": "40009966100", "tract_name": "9661", "tags": {"addr:city": "Elk City", "addr:housenumber": "2801", "addr:postcode": "73644", "addr:state": "OK", "addr:street": "East State Highway 66", "brand": "Super 8", "brand:wikidata": "Q5364003", "building": "yes", "name": "Super 8", "tourism": "motel"}}}, {"type": "Feature", "geometry": {"type": "Polygon", "coordinates": [[[-99.3736506, 35.41944], [-99.3739275, 35.4184509], [-99.3741262, 35.4184878], [-99.3738638, 35.4194252], [-99.3737726, 35.4194083], [-99.3737581, 35.41946], [-99.3736506, 35.41944]]]}, "properties": {"osm_id": 657444857, "building": "yes", "name": "Hiway Inn Express of Elk City", "height": null, "height_m": null, "levels": null, "tract_id": "40009966100", "tract_name": "9661", "tags": {"addr:city": "Elk City", "addr:housenumber": "301", "addr:postcode": "73644", "addr:state": "OK", "addr:street": "Sleepy Hollow Court", "building": "yes", "name": "Hiway Inn Express of Elk City", "tourism": "motel"}}}, {"type": "Feature", "geometry": {"type": "Polygon", "coordinates": [[[-99.3752152, 35.4213719], [-99.3744237, 35.4213699], [-99.3744243, 35.4212143], [-99.3752158, 35.4212163], [-99.3752152, 35.4213719]]]}, "properties": {"osm_id": 657444858, "building": "yes", "name": "Motel 6", "height": null, "height_m": null, "levels": null, "tract_id": "40009966100", "tract_name": "9661", "tags": {"addr:city": "Elk City", "addr:housenumber": "2604", "addr:postcode": "73644", "addr:state": "OK", "addr:street": "East State Highway 66", "brand": "Motel 6", "brand:wikidata": "Q2188884", "building": "yes", "name": "Motel 6", "tourism": "motel", "website": "https://www.motel6.com/en/home/motels.ok.elkcity.4774.html"}}}, {"type": "Feature", "geometry": {"type": "Polygon", "coordinates": [[[-99.3750332, 35.4208883], [-99.3744339, 35.4208867], [-99.3744346, 35.4206982], [-99.3743197, 35.4206979], [-99.3743204, 35.4205294], [-99.3744353, 35.4205297], [-99.374436, 35.4203457], [-99.3750353, 35.4203473], [-99.3750347, 35.4204988], [-99.3751894, 35.4204992], [-99.3751885, 35.4207309], [-99.3751009, 35.4207306], [-99.3751005, 35.4208297], [-99.3750335, 35.4208295], [-99.3750332, 35.4208883]]]}, "properties": {"osm_id": 657444859, "building": "yes", "name": "Econo Lodge", "height": null, "height_m": null, "levels": null, "tract_id": "40009966100", "tract_name": "9661", "tags": {"addr:city": "Elk City", "addr:housenumber": "2606", "addr:postcode": "73644", "addr:state": "OK", "addr:street": "East State Highway 66", "branch": "Elk City", "brand": "Econo Lodge", "brand:wikidata": "Q5333330", "building": "yes", "name": "Econo Lodge", "phone": "+1 580-225-3111", "ref": "OK251", "tourism": "motel", "website": "https://www.choicehotels.com/oklahoma/elk-city/econo-lodge-hotels/ok251"}}}, {"type": "Feature", "geometry": {"type": "Polygon", "coordinates": [[[-99.4091475, 35.4224446], [-99.4089544, 35.4224437], [-99.4089551, 35.4223627], [-99.4088095, 35.422362], [-99.4088108, 35.4221918], [-99.4090028, 35.4221927], [-99.4090032, 35.4221317], [-99.4091499, 35.4221324], [-99.4091493, 35.4222112], [-99.4092353, 35.4222117], [-99.409234, 35.4223786], [-99.409148, 35.4223782], [-99.4091475, 35.4224446]]]}, "properties": {"osm_id": 657445840, "building": "yes", "name": "Whinery-Savage Funeral Service", "height": null, "height_m": null, "levels": null, "tract_id": "40009966100", "tract_name": "9661", "tags": {"addr:city": "Elk City", "addr:housenumber": "403", "addr:postcode": "73662", "addr:state": "OK", "addr:street": "West Country Club Boulevard", "building": "yes", "name": "Whinery-Savage Funeral Service", "phone": "580-225-2112", "shop": "funeral_directors"}}}, {"type": "Feature", "geometry": {"type": "Polygon", "coordinates": [[[-99.3761176, 35.4117266], [-99.3754123, 35.4115647], [-99.3756269, 35.410944], [-99.3763321, 35.4111059], [-99.3762592, 35.4113168], [-99.376297, 35.4113254], [-99.3762313, 35.4115156], [-99.3761935, 35.411507], [-99.3761176, 35.4117266]]]}, "properties": {"osm_id": 657607866, "building": "yes", "name": "", "height": null, "height_m": null, "levels": null, "tract_id": "40009966100", "tract_name": "9661", "tags": {"building": "yes"}}}, {"type": "Feature", "geometry": {"type": "Polygon", "coordinates": [[[-99.3796045, 35.4088935], [-99.3794355, 35.4088585], [-99.3794798, 35.4087163], [-99.3795261, 35.4087259], [-99.3795493, 35.4086516], [-99.3796252, 35.4086673], [-99.3796021, 35.4087416], [-99.3796488, 35.4087512], [-99.3796045, 35.4088935]]]}, "properties": {"osm_id": 657607867, "building": "yes", "name": "", "height": null, "height_m": null, "levels": null, "tract_id": "40009966100", "tract_name": "9661", "tags": {"building": "yes"}}}, {"type": "Feature", "geometry": {"type": "Polygon", "coordinates": [[[-99.3796554, 35.4084978], [-99.3795366, 35.408475], [-99.3795688, 35.4083635], [-99.3796876, 35.4083863], [-99.3796554, 35.4084978]]]}, "properties": {"osm_id": 657607868, "building": "yes", "name": "", "height": null, "height_m": null, "levels": null, "tract_id": "40009966100", "tract_name": "9661", "tags": {"building": "yes"}}}, {"type": "Feature", "geometry": {"type": "Polygon", "coordinates": [[[-99.3803206, 35.4081524], [-99.3799022, 35.4081524], [-99.3799022, 35.4080387], [-99.3803206, 35.4080387], [-99.3803206, 35.4081524]]]}, "properties": {"osm_id": 657607869, "building": "yes", "name": "", "height": null, "height_m": null, "levels": null, "tract_id": "40009966100", "tract_name": "9661", "tags": {"building": "yes"}}}, {"type": "Feature", "geometry": {"type": "Polygon", "coordinates": [[[-99.3806908, 35.4079797], [-99.3804172, 35.407984], [-99.3804156, 35.4079184], [-99.3806892, 35.407914], [-99.3806908, 35.4079797]]]}, "properties": {"osm_id": 657607870, "building": "yes", "name": "", "height": null, "height_m": null, "levels": null, "tract_id": "40009966100", "tract_name": "9661", "tags": {"building": "yes"}}}, {"type": "Feature", "geometry": {"type": "Polygon", "coordinates": [[[-99.380267, 35.4078616], [-99.3798539, 35.4078594], [-99.3798551, 35.4077043], [-99.3802682, 35.4077065], [-99.380267, 35.4078616]]]}, "properties": {"osm_id": 657607871, "building": "yes", "name": "", "height": null, "height_m": null, "levels": null, "tract_id": "40009966100", "tract_name": "9661", "tags": {"building": "yes"}}}, {"type": "Feature", "geometry": {"type": "Polygon", "coordinates": [[[-99.3787783, 35.4081414], [-99.3785994, 35.4080978], [-99.3786603, 35.4079316], [-99.3788393, 35.4079752], [-99.3787783, 35.4081414]]]}, "properties": {"osm_id": 657607872, "building": "retail", "name": "", "height": null, "height_m": null, "levels": null, "tract_id": "40009966100", "tract_name": "9661", "tags": {"building": "retail"}}}, {"type": "Feature", "geometry": {"type": "Polygon", "coordinates": [[[-99.3719577, 35.4210893], [-99.3719571, 35.4210208], [-99.3719672, 35.4210208], [-99.3719652, 35.4207573], [-99.3719551, 35.4207573], [-99.3719546, 35.4206869], [-99.3719419, 35.420687], [-99.3719417, 35.4206645], [-99.3717612, 35.4206656], [-99.3717614, 35.4206895], [-99.3717386, 35.4206897], [-99.3717422, 35.4210932], [-99.3717582, 35.4210931], [-99.3717584, 35.4211173], [-99.3719428, 35.4211162], [-99.3719426, 35.4210894], [-99.3719577, 35.4210893]]]}, "properties": {"osm_id": 756142089, "building": "yes", "name": "Sleep Inn & Suites", "height": null, "height_m": null, "levels": null, "tract_id": "40009966100", "tract_name": "9661", "tags": {"addr:city": "Elk City", "addr:housenumber": "2710", "addr:postcode": "73644", "addr:state": "OK", "addr:street": "East State Highway 66", "brand": "Sleep Inn & Suites", "brand:wikidata": "Q1075788", "building": "yes", "name": "Sleep Inn & Suites", "phone": "+1 580-303-4574", "ref": "OK203", "tourism": "hotel", "website": "https://www.choicehotels.com/oklahoma/elk-city/sleep-inn-hotels/ok203"}}}, {"type": "Feature", "geometry": {"type": "Polygon", "coordinates": [[[-99.4037924, 35.4086425], [-99.403725, 35.4085856], [-99.4038635, 35.4084767], [-99.4039309, 35.4085336], [-99.4037924, 35.4086425]]]}, "properties": {"osm_id": 797526941, "building": "yes", "name": "", "height": null, "height_m": null, "levels": null, "tract_id": "40009966100", "tract_name": "9661", "tags": {"building": "yes"}}}, {"type": "Feature", "geometry": {"type": "Polygon", "coordinates": [[[-99.4042633, 35.4082843], [-99.4041718, 35.4082264], [-99.4044049, 35.4079816], [-99.4044965, 35.4080396], [-99.4042633, 35.4082843]]]}, "properties": {"osm_id": 797526942, "building": "yes", "name": "Elk City", "height": null, "height_m": null, "levels": null, "tract_id": "40009966100", "tract_name": "9661", "tags": {"building": "yes", "name": "Elk City"}}}, {"type": "Feature", "geometry": {"type": "Polygon", "coordinates": [[[-99.4067343, 35.4060616], [-99.4066562, 35.4060074], [-99.4068768, 35.405796], [-99.4069549, 35.4058501], [-99.4067343, 35.4060616]]]}, "properties": {"osm_id": 797526947, "building": "yes", "name": "", "height": null, "height_m": null, "levels": null, "tract_id": "40009966100", "tract_name": "9661", "tags": {"building": "yes"}}}, {"type": "Feature", "geometry": {"type": "Polygon", "coordinates": [[[-99.4021431, 35.3847225], [-99.4021082, 35.3847226], [-99.4021089, 35.3848456], [-99.401712, 35.3848472], [-99.4017115, 35.3847759], [-99.4013965, 35.3847772], [-99.4013922, 35.3840596], [-99.402139, 35.3840566], [-99.4021431, 35.3847225]]]}, "properties": {"osm_id": 851852221, "building": "retail", "name": "Atwoods", "height": null, "height_m": null, "levels": null, "tract_id": "40009966100", "tract_name": "9661", "tags": {"brand": "Atwoods", "brand:wikidata": "Q4818874", "building": "retail", "ele": "592", "name": "Atwoods", "note": "farm & ranch supply", "shop": "country_store"}}}, {"type": "Feature", "geometry": {"type": "Polygon", "coordinates": [[[-99.4022276, 35.3855491], [-99.4019513, 35.3855491], [-99.4019513, 35.3852878], [-99.4022276, 35.3852878], [-99.4022276, 35.3855491]]]}, "properties": {"osm_id": 851852223, "building": "yes", "name": "Innovative Technology", "height": null, "height_m": null, "levels": null, "tract_id": "40009966100", "tract_name": "9661", "tags": {"addr:city": "Elk City", "addr:country": "US", "addr:housenumber": "105", "addr:state": "OK", "addr:street": "Carter Road", "building": "yes", "check_date": "2025-04-18", "name": "Innovative Technology", "office": "it", "opening_hours": "Mo-Fr 08:00-17:00", "phone": "+1 580 243 1559", "website": "https://www.itlpros.com"}}}, {"type": "Feature", "geometry": {"type": "Polygon", "coordinates": [[[-99.406752, 35.398967], [-99.406933, 35.39897], [-99.406938, 35.398755], [-99.406758, 35.398752], [-99.406752, 35.398967]]]}, "properties": {"osm_id": 852373299, "building": "yes", "name": "", "height": null, "height_m": null, "levels": null, "tract_id": "40009966100", "tract_name": "9661", "tags": {"building": "yes", "source": "microsoft/BuildingFootprints"}}}, {"type": "Feature", "geometry": {"type": "Polygon", "coordinates": [[[-99.406634, 35.40054], [-99.406635, 35.400821], [-99.406847, 35.400821], [-99.406847, 35.40071], [-99.40701, 35.40071], [-99.40701, 35.400539], [-99.406634, 35.40054]]]}, "properties": {"osm_id": 852373300, "building": "yes", "name": "", "height": null, "height_m": null, "levels": null, "tract_id": "40009966100", "tract_name": "9661", "tags": {"building": "yes", "source": "microsoft/BuildingFootprints"}}}, {"type": "Feature", "geometry": {"type": "Polygon", "coordinates": [[[-99.405374, 35.401577], [-99.405492, 35.401578], [-99.405497, 35.401265], [-99.405384, 35.401264], [-99.405387, 35.401066], [-99.405199, 35.401064], [-99.405194, 35.401446], [-99.405376, 35.401448], [-99.405374, 35.401577]]]}, "properties": {"osm_id": 852373301, "building": "yes", "name": "", "height": null, "height_m": null, "levels": null, "tract_id": "40009966100", "tract_name": "9661", "tags": {"building": "yes", "source": "microsoft/BuildingFootprints"}}}, {"type": "Feature", "geometry": {"type": "Polygon", "coordinates": [[[-99.405727, 35.401092], [-99.405727, 35.401069], [-99.405644, 35.401069], [-99.405642, 35.401401], [-99.405727, 35.401401], [-99.405728, 35.401206], [-99.406007, 35.401207], [-99.406007, 35.401093], [-99.405727, 35.401092]]]}, "properties": {"osm_id": 852373302, "building": "yes", "name": "", "height": null, "height_m": null, "levels": null, "tract_id": "40009966100", "tract_name": "9661", "tags": {"building": "yes", "source": "microsoft/BuildingFootprints"}}}, {"type": "Feature", "geometry": {"type": "Polygon", "coordinates": [[[-99.404219, 35.401705], [-99.404069, 35.401705], [-99.404069, 35.401895], [-99.404219, 35.401895], [-99.404219, 35.401705]]]}, "properties": {"osm_id": 852373303, "building": "yes", "name": "", "height": null, "height_m": null, "levels": null, "tract_id": "40009966100", "tract_name": "9661", "tags": {"building": "yes", "source": "microsoft/BuildingFootprints"}}}, {"type": "Feature", "geometry": {"type": "Polygon", "coordinates": [[[-99.404023, 35.401703], [-99.403878, 35.401703], [-99.403878, 35.401893], [-99.404023, 35.401893], [-99.404023, 35.401703]]]}, "properties": {"osm_id": 852373304, "building": "yes", "name": "", "height": null, "height_m": null, "levels": null, "tract_id": "40009966100", "tract_name": "9661", "tags": {"building": "yes", "source": "microsoft/BuildingFootprints"}}}, {"type": "Feature", "geometry": {"type": "Polygon", "coordinates": [[[-99.405115, 35.401747], [-99.405115, 35.401891], [-99.40548, 35.401891], [-99.40548, 35.401747], [-99.405115, 35.401747]]]}, "properties": {"osm_id": 852373305, "building": "yes", "name": "", "height": null, "height_m": null, "levels": null, "tract_id": "40009966100", "tract_name": "9661", "tags": {"building": "yes", "source": "microsoft/BuildingFootprints"}}}, {"type": "Feature", "geometry": {"type": "Polygon", "coordinates": [[[-99.405737, 35.401747], [-99.40556, 35.401747], [-99.40556, 35.401889], [-99.405737, 35.401889], [-99.405737, 35.401747]]]}, "properties": {"osm_id": 852373306, "building": "yes", "name": "", "height": null, "height_m": null, "levels": null, "tract_id": "40009966100", "tract_name": "9661", "tags": {"building": "yes", "source": "microsoft/BuildingFootprints"}}}, {"type": "Feature", "geometry": {"type": "Polygon", "coordinates": [[[-99.406185, 35.401856], [-99.406271, 35.401856], [-99.406271, 35.401738], [-99.406185, 35.401738], [-99.406185, 35.401856]]]}, "properties": {"osm_id": 852373307, "building": "yes", "name": "", "height": null, "height_m": null, "levels": null, "tract_id": "40009966100", "tract_name": "9661", "tags": {"building": "yes", "source": "microsoft/BuildingFootprints"}}}, {"type": "Feature", "geometry": {"type": "Polygon", "coordinates": [[[-99.406225, 35.402315], [-99.406225, 35.402162], [-99.406083, 35.402162], [-99.406083, 35.402315], [-99.406225, 35.402315]]]}, "properties": {"osm_id": 852373308, "building": "yes", "name": "", "height": null, "height_m": null, "levels": null, "tract_id": "40009966100", "tract_name": "9661", "tags": {"building": "yes", "source": "microsoft/BuildingFootprints"}}}, {"type": "Feature", "geometry": {"type": "Polygon", "coordinates": [[[-99.405635, 35.402425], [-99.405783, 35.402425], [-99.405783, 35.40216], [-99.405635, 35.40216], [-99.405635, 35.402425]]]}, "properties": {"osm_id": 852373309, "building": "yes", "name": "", "height": null, "height_m": null, "levels": null, "tract_id": "40009966100", "tract_name": "9661", "tags": {"building": "yes", "source": "microsoft/BuildingFootprints"}}}, {"type": "Feature", "geometry": {"type": "Polygon", "coordinates": [[[-99.40468, 35.402452], [-99.40468, 35.40217], [-99.404494, 35.40217], [-99.404494, 35.402452], [-99.40468, 35.402452]]]}, "properties": {"osm_id": 852373310, "building": "yes", "name": "", "height": null, "height_m": null, "levels": null, "tract_id": "40009966100", "tract_name": "9661", "tags": {"building": "yes", "source": "microsoft/BuildingFootprints"}}}, {"type": "Feature", "geometry": {"type": "Polygon", "coordinates": [[[-99.404739, 35.403338], [-99.404739, 35.403032], [-99.404528, 35.403032], [-99.404528, 35.403264], [-99.404648, 35.403264], [-99.404648, 35.403338], [-99.404739, 35.403338]]]}, "properties": {"osm_id": 852373311, "building": "yes", "name": "", "height": null, "height_m": null, "levels": null, "tract_id": "40009966100", "tract_name": "9661", "tags": {"building": "yes", "source": "microsoft/BuildingFootprints"}}}, {"type": "Feature", "geometry": {"type": "Polygon", "coordinates": [[[-99.403832, 35.403722], [-99.404011, 35.403723], [-99.404011, 35.403642], [-99.404109, 35.403642], [-99.40411, 35.403511], [-99.404016, 35.403511], [-99.404017, 35.403303], [-99.403781, 35.403302], [-99.40378, 35.403407], [-99.403834, 35.403407], [-99.403832, 35.403722]]]}, "properties": {"osm_id": 852373312, "building": "yes", "name": "", "height": null, "height_m": null, "levels": null, "tract_id": "40009966100", "tract_name": "9661", "tags": {"building": "yes", "source": "microsoft/BuildingFootprints"}}}, {"type": "Feature", "geometry": {"type": "Polygon", "coordinates": [[[-99.405839, 35.403292], [-99.405839, 35.403435], [-99.406097, 35.403435], [-99.406097, 35.403292], [-99.405839, 35.403292]]]}, "properties": {"osm_id": 852373313, "building": "yes", "name": "", "height": null, "height_m": null, "levels": null, "tract_id": "40009966100", "tract_name": "9661", "tags": {"building": "yes", "source": "microsoft/BuildingFootprints"}}}, {"type": "Feature", "geometry": {"type": "Polygon", "coordinates": [[[-99.410689, 35.402053], [-99.410689, 35.402167], [-99.410791, 35.402167], [-99.410791, 35.402053], [-99.410689, 35.402053]]]}, "properties": {"osm_id": 852373314, "building": "yes", "name": "", "height": null, "height_m": null, "levels": null, "tract_id": "40009966100", "tract_name": "9661", "tags": {"building": "yes", "source": "microsoft/BuildingFootprints"}}}, {"type": "Feature", "geometry": {"type": "Polygon", "coordinates": [[[-99.410691, 35.402215], [-99.410691, 35.402331], [-99.410793, 35.402331], [-99.410793, 35.402215], [-99.410691, 35.402215]]]}, "properties": {"osm_id": 852373315, "building": "yes", "name": "", "height": null, "height_m": null, "levels": null, "tract_id": "40009966100", "tract_name": "9661", "tags": {"building": "yes", "source": "microsoft/BuildingFootprints"}}}, {"type": "Feature", "geometry": {"type": "Polygon", "coordinates": [[[-99.410689, 35.402492], [-99.410791, 35.402492], [-99.410791, 35.402376], [-99.410689, 35.402376], [-99.410689, 35.402492]]]}, "properties": {"osm_id": 852373316, "building": "yes", "name": "", "height": null, "height_m": null, "levels": null, "tract_id": "40009966100", "tract_name": "9661", "tags": {"building": "yes", "source": "microsoft/BuildingFootprints"}}}, {"type": "Feature", "geometry": {"type": "Polygon", "coordinates": [[[-99.4106844, 35.4026751], [-99.4107864, 35.4026751], [-99.4107864, 35.4025591], [-99.4106844, 35.4025591], [-99.4106844, 35.4026751]]]}, "properties": {"osm_id": 852373317, "building": "yes", "name": "", "height": null, "height_m": null, "levels": null, "tract_id": "40009966100", "tract_name": "9661", "tags": {"building": "yes", "source": "microsoft/BuildingFootprints"}}}, {"type": "Feature", "geometry": {"type": "Polygon", "coordinates": [[[-99.410788, 35.402721], [-99.410683, 35.402721], [-99.410683, 35.402851], [-99.410788, 35.402851], [-99.410788, 35.402721]]]}, "properties": {"osm_id": 852373318, "building": "yes", "name": "", "height": null, "height_m": null, "levels": null, "tract_id": "40009966100", "tract_name": "9661", "tags": {"building": "yes", "source": "microsoft/BuildingFootprints"}}}, {"type": "Feature", "geometry": {"type": "Polygon", "coordinates": [[[-99.410686, 35.402896], [-99.410684, 35.403016], [-99.410789, 35.403017], [-99.410791, 35.402897], [-99.410686, 35.402896]]]}, "properties": {"osm_id": 852373319, "building": "yes", "name": "", "height": null, "height_m": null, "levels": null, "tract_id": "40009966100", "tract_name": "9661", "tags": {"building": "yes", "source": "microsoft/BuildingFootprints"}}}, {"type": "Feature", "geometry": {"type": "Polygon", "coordinates": [[[-99.410791, 35.403065], [-99.410683, 35.403065], [-99.410683, 35.403183], [-99.410791, 35.403183], [-99.410791, 35.403065]]]}, "properties": {"osm_id": 852373320, "building": "yes", "name": "", "height": null, "height_m": null, "levels": null, "tract_id": "40009966100", "tract_name": "9661", "tags": {"building": "yes", "source": "microsoft/BuildingFootprints"}}}, {"type": "Feature", "geometry": {"type": "Polygon", "coordinates": [[[-99.410791, 35.403231], [-99.410686, 35.403231], [-99.410686, 35.403347], [-99.410791, 35.403347], [-99.410791, 35.403231]]]}, "properties": {"osm_id": 852373321, "building": "yes", "name": "", "height": null, "height_m": null, "levels": null, "tract_id": "40009966100", "tract_name": "9661", "tags": {"building": "yes", "source": "microsoft/BuildingFootprints"}}}, {"type": "Feature", "geometry": {"type": "Polygon", "coordinates": [[[-99.409994, 35.402716], [-99.409995, 35.402835], [-99.410102, 35.402835], [-99.410102, 35.402716], [-99.409994, 35.402716]]]}, "properties": {"osm_id": 852373322, "building": "yes", "name": "", "height": null, "height_m": null, "levels": null, "tract_id": "40009966100", "tract_name": "9661", "tags": {"building": "yes", "source": "microsoft/BuildingFootprints"}}}, {"type": "Feature", "geometry": {"type": "Polygon", "coordinates": [[[-99.409994, 35.402881], [-99.409994, 35.403], [-99.410101, 35.403], [-99.410101, 35.402881], [-99.409994, 35.402881]]]}, "properties": {"osm_id": 852373323, "building": "yes", "name": "", "height": null, "height_m": null, "levels": null, "tract_id": "40009966100", "tract_name": "9661", "tags": {"building": "yes", "source": "microsoft/BuildingFootprints"}}}, {"type": "Feature", "geometry": {"type": "Polygon", "coordinates": [[[-99.409997, 35.403155], [-99.410219, 35.403155], [-99.410219, 35.403059], [-99.409997, 35.403059], [-99.409997, 35.403155]]]}, "properties": {"osm_id": 852373324, "building": "yes", "name": "", "height": null, "height_m": null, "levels": null, "tract_id": "40009966100", "tract_name": "9661", "tags": {"building": "yes", "source": "microsoft/BuildingFootprints"}}}, {"type": "Feature", "geometry": {"type": "Polygon", "coordinates": [[[-99.409999, 35.40322], [-99.409999, 35.403314], [-99.410219, 35.403314], [-99.410219, 35.40322], [-99.409999, 35.40322]]]}, "properties": {"osm_id": 852373325, "building": "yes", "name": "", "height": null, "height_m": null, "levels": null, "tract_id": "40009966100", "tract_name": "9661", "tags": {"building": "yes", "source": "microsoft/BuildingFootprints"}}}, {"type": "Feature", "geometry": {"type": "Polygon", "coordinates": [[[-99.409999, 35.403491], [-99.410222, 35.403491], [-99.410222, 35.403395], [-99.409999, 35.403395], [-99.409999, 35.403491]]]}, "properties": {"osm_id": 852373326, "building": "yes", "name": "", "height": null, "height_m": null, "levels": null, "tract_id": "40009966100", "tract_name": "9661", "tags": {"building": "yes", "source": "microsoft/BuildingFootprints"}}}, {"type": "Feature", "geometry": {"type": "Polygon", "coordinates": [[[-99.410227, 35.403555], [-99.409999, 35.403555], [-99.409999, 35.403651], [-99.410227, 35.403651], [-99.410227, 35.403555]]]}, "properties": {"osm_id": 852373327, "building": "yes", "name": "", "height": null, "height_m": null, "levels": null, "tract_id": "40009966100", "tract_name": "9661", "tags": {"building": "yes", "source": "microsoft/BuildingFootprints"}}}, {"type": "Feature", "geometry": {"type": "Polygon", "coordinates": [[[-99.410568, 35.403679], [-99.410788, 35.403679], [-99.410788, 35.403585], [-99.410568, 35.403585], [-99.410568, 35.403679]]]}, "properties": {"osm_id": 852373328, "building": "yes", "name": "", "height": null, "height_m": null, "levels": null, "tract_id": "40009966100", "tract_name": "9661", "tags": {"building": "yes", "source": "microsoft/BuildingFootprints"}}}, {"type": "Feature", "geometry": {"type": "Polygon", "coordinates": [[[-99.410565, 35.403515], [-99.410791, 35.403515], [-99.410791, 35.403419], [-99.410565, 35.403419], [-99.410565, 35.403515]]]}, "properties": {"osm_id": 852373329, "building": "yes", "name": "", "height": null, "height_m": null, "levels": null, "tract_id": "40009966100", "tract_name": "9661", "tags": {"building": "yes", "source": "microsoft/BuildingFootprints"}}}, {"type": "Feature", "geometry": {"type": "Polygon", "coordinates": [[[-99.411367, 35.403583], [-99.411142, 35.403583], [-99.411142, 35.403677], [-99.411367, 35.403677], [-99.411367, 35.403583]]]}, "properties": {"osm_id": 852373330, "building": "yes", "name": "", "height": null, "height_m": null, "levels": null, "tract_id": "40009966100", "tract_name": "9661", "tags": {"building": "yes", "source": "microsoft/BuildingFootprints"}}}, {"type": "Feature", "geometry": {"type": "Polygon", "coordinates": [[[-99.411142, 35.403518], [-99.411364, 35.403518], [-99.411364, 35.403421], [-99.411142, 35.403421], [-99.411142, 35.403518]]]}, "properties": {"osm_id": 852373331, "building": "yes", "name": "", "height": null, "height_m": null, "levels": null, "tract_id": "40009966100", "tract_name": "9661", "tags": {"building": "yes", "source": "microsoft/BuildingFootprints"}}}, {"type": "Feature", "geometry": {"type": "Polygon", "coordinates": [[[-99.411137, 35.403334], [-99.411359, 35.403334], [-99.411359, 35.40324], [-99.411137, 35.40324], [-99.411137, 35.403334]]]}, "properties": {"osm_id": 852373332, "building": "yes", "name": "", "height": null, "height_m": null, "levels": null, "tract_id": "40009966100", "tract_name": "9661", "tags": {"building": "yes", "source": "microsoft/BuildingFootprints"}}}, {"type": "Feature", "geometry": {"type": "Polygon", "coordinates": [[[-99.411137, 35.403174], [-99.411362, 35.403174], [-99.411362, 35.403078], [-99.411137, 35.403078], [-99.411137, 35.403174]]]}, "properties": {"osm_id": 852373333, "building": "yes", "name": "", "height": null, "height_m": null, "levels": null, "tract_id": "40009966100", "tract_name": "9661", "tags": {"building": "yes", "source": "microsoft/BuildingFootprints"}}}, {"type": "Feature", "geometry": {"type": "Polygon", "coordinates": [[[-99.411137, 35.402993], [-99.411362, 35.402993], [-99.411362, 35.402897], [-99.411137, 35.402897], [-99.411137, 35.402993]]]}, "properties": {"osm_id": 852373334, "building": "yes", "name": "", "height": null, "height_m": null, "levels": null, "tract_id": "40009966100", "tract_name": "9661", "tags": {"building": "yes", "source": "microsoft/BuildingFootprints"}}}, {"type": "Feature", "geometry": {"type": "Polygon", "coordinates": [[[-99.411139, 35.402827], [-99.411359, 35.402827], [-99.411359, 35.402735], [-99.411139, 35.402735], [-99.411139, 35.402827]]]}, "properties": {"osm_id": 852373335, "building": "yes", "name": "", "height": null, "height_m": null, "levels": null, "tract_id": "40009966100", "tract_name": "9661", "tags": {"building": "yes", "source": "microsoft/BuildingFootprints"}}}, {"type": "Feature", "geometry": {"type": "Polygon", "coordinates": [[[-99.411139, 35.402632], [-99.411362, 35.402632], [-99.411362, 35.402538], [-99.411139, 35.402538], [-99.411139, 35.402632]]]}, "properties": {"osm_id": 852373336, "building": "yes", "name": "", "height": null, "height_m": null, "levels": null, "tract_id": "40009966100", "tract_name": "9661", "tags": {"building": "yes", "source": "microsoft/BuildingFootprints"}}}, {"type": "Feature", "geometry": {"type": "Polygon", "coordinates": [[[-99.411139, 35.40247], [-99.411362, 35.40247], [-99.411362, 35.402374], [-99.411139, 35.402374], [-99.411139, 35.40247]]]}, "properties": {"osm_id": 852373337, "building": "yes", "name": "", "height": null, "height_m": null, "levels": null, "tract_id": "40009966100", "tract_name": "9661", "tags": {"building": "yes", "source": "microsoft/BuildingFootprints"}}}, {"type": "Feature", "geometry": {"type": "Polygon", "coordinates": [[[-99.410466, 35.402094], [-99.410467, 35.402183], [-99.410512, 35.402183], [-99.410512, 35.402094], [-99.410466, 35.402094]]]}, "properties": {"osm_id": 852373338, "building": "yes", "name": "", "height": null, "height_m": null, "levels": null, "tract_id": "40009966100", "tract_name": "9661", "tags": {"building": "yes", "source": "microsoft/BuildingFootprints"}}}, {"type": "Feature", "geometry": {"type": "Polygon", "coordinates": [[[-99.411367, 35.402278], [-99.411367, 35.402186], [-99.411142, 35.402186], [-99.411142, 35.402278], [-99.411367, 35.402278]]]}, "properties": {"osm_id": 852373339, "building": "yes", "name": "", "height": null, "height_m": null, "levels": null, "tract_id": "40009966100", "tract_name": "9661", "tags": {"building": "yes", "source": "microsoft/BuildingFootprints"}}}, {"type": "Feature", "geometry": {"type": "Polygon", "coordinates": [[[-99.411362, 35.402018], [-99.411139, 35.402018], [-99.411139, 35.402114], [-99.411362, 35.402114], [-99.411362, 35.402018]]]}, "properties": {"osm_id": 852373340, "building": "yes", "name": "", "height": null, "height_m": null, "levels": null, "tract_id": "40009966100", "tract_name": "9661", "tags": {"building": "yes", "source": "microsoft/BuildingFootprints"}}}, {"type": "Feature", "geometry": {"type": "Polygon", "coordinates": [[[-99.411142, 35.401922], [-99.411362, 35.401922], [-99.411362, 35.40183], [-99.411142, 35.40183], [-99.411142, 35.401922]]]}, "properties": {"osm_id": 852373341, "building": "yes", "name": "", "height": null, "height_m": null, "levels": null, "tract_id": "40009966100", "tract_name": "9661", "tags": {"building": "yes", "source": "microsoft/BuildingFootprints"}}}, {"type": "Feature", "geometry": {"type": "Polygon", "coordinates": [[[-99.411139, 35.401758], [-99.411359, 35.401758], [-99.411359, 35.401664], [-99.411139, 35.401664], [-99.411139, 35.401758]]]}, "properties": {"osm_id": 852373342, "building": "yes", "name": "", "height": null, "height_m": null, "levels": null, "tract_id": "40009966100", "tract_name": "9661", "tags": {"building": "yes", "source": "microsoft/BuildingFootprints"}}}, {"type": "Feature", "geometry": {"type": "Polygon", "coordinates": [[[-99.411198, 35.401574], [-99.4113, 35.401574], [-99.4113, 35.401458], [-99.411198, 35.401458], [-99.411198, 35.401574]]]}, "properties": {"osm_id": 852373343, "building": "yes", "name": "", "height": null, "height_m": null, "levels": null, "tract_id": "40009966100", "tract_name": "9661", "tags": {"building": "yes", "source": "microsoft/BuildingFootprints"}}}, {"type": "Feature", "geometry": {"type": "Polygon", "coordinates": [[[-99.411826, 35.400982], [-99.411826, 35.4011], [-99.411936, 35.4011], [-99.411936, 35.400982], [-99.411826, 35.400982]]]}, "properties": {"osm_id": 852373344, "building": "yes", "name": "", "height": null, "height_m": null, "levels": null, "tract_id": "40009966100", "tract_name": "9661", "tags": {"building": "yes", "source": "microsoft/BuildingFootprints"}}}, {"type": "Feature", "geometry": {"type": "Polygon", "coordinates": [[[-99.411936, 35.40115], [-99.411826, 35.40115], [-99.411826, 35.401268], [-99.411936, 35.401268], [-99.411936, 35.40115]]]}, "properties": {"osm_id": 852373345, "building": "yes", "name": "", "height": null, "height_m": null, "levels": null, "tract_id": "40009966100", "tract_name": "9661", "tags": {"building": "yes", "source": "microsoft/BuildingFootprints"}}}, {"type": "Feature", "geometry": {"type": "Polygon", "coordinates": [[[-99.411936, 35.401432], [-99.411936, 35.401314], [-99.411826, 35.401315], [-99.411826, 35.401433], [-99.411936, 35.401432]]]}, "properties": {"osm_id": 852373346, "building": "yes", "name": "", "height": null, "height_m": null, "levels": null, "tract_id": "40009966100", "tract_name": "9661", "tags": {"building": "yes", "source": "microsoft/BuildingFootprints"}}}, {"type": "Feature", "geometry": {"type": "Polygon", "coordinates": [[[-99.411834, 35.401594], [-99.411936, 35.401594], [-99.411936, 35.40148], [-99.411834, 35.40148], [-99.411834, 35.401594]]]}, "properties": {"osm_id": 852373347, "building": "yes", "name": "", "height": null, "height_m": null, "levels": null, "tract_id": "40009966100", "tract_name": "9661", "tags": {"building": "yes", "source": "microsoft/BuildingFootprints"}}}, {"type": "Feature", "geometry": {"type": "Polygon", "coordinates": [[[-99.411708, 35.401762], [-99.411933, 35.401762], [-99.411933, 35.401666], [-99.411708, 35.401666], [-99.411708, 35.401762]]]}, "properties": {"osm_id": 852373348, "building": "yes", "name": "", "height": null, "height_m": null, "levels": null, "tract_id": "40009966100", "tract_name": "9661", "tags": {"building": "yes", "source": "microsoft/BuildingFootprints"}}}, {"type": "Feature", "geometry": {"type": "Polygon", "coordinates": [[[-99.411711, 35.401825], [-99.411711, 35.401917], [-99.411933, 35.401917], [-99.411933, 35.401825], [-99.411711, 35.401825]]]}, "properties": {"osm_id": 852373349, "building": "yes", "name": "", "height": null, "height_m": null, "levels": null, "tract_id": "40009966100", "tract_name": "9661", "tags": {"building": "yes", "source": "microsoft/BuildingFootprints"}}}, {"type": "Feature", "geometry": {"type": "Polygon", "coordinates": [[[-99.411708, 35.402108], [-99.411933, 35.402108], [-99.411933, 35.402011], [-99.411708, 35.402011], [-99.411708, 35.402108]]]}, "properties": {"osm_id": 852382827, "building": "yes", "name": "", "height": null, "height_m": null, "levels": null, "tract_id": "40009966100", "tract_name": "9661", "tags": {"building": "yes", "source": "microsoft/BuildingFootprints"}}}, {"type": "Feature", "geometry": {"type": "Polygon", "coordinates": [[[-99.411708, 35.402265], [-99.411936, 35.402265], [-99.411936, 35.402171], [-99.411708, 35.402171], [-99.411708, 35.402265]]]}, "properties": {"osm_id": 852382828, "building": "yes", "name": "", "height": null, "height_m": null, "levels": null, "tract_id": "40009966100", "tract_name": "9661", "tags": {"building": "yes", "source": "microsoft/BuildingFootprints"}}}, {"type": "Feature", "geometry": {"type": "Polygon", "coordinates": [[[-99.411705, 35.402453], [-99.411933, 35.402453], [-99.411933, 35.402357], [-99.411705, 35.402357], [-99.411705, 35.402453]]]}, "properties": {"osm_id": 852382829, "building": "yes", "name": "", "height": null, "height_m": null, "levels": null, "tract_id": "40009966100", "tract_name": "9661", "tags": {"building": "yes", "source": "microsoft/BuildingFootprints"}}}, {"type": "Feature", "geometry": {"type": "Polygon", "coordinates": [[[-99.411928, 35.402613], [-99.411928, 35.402519], [-99.4117, 35.402519], [-99.4117, 35.402613], [-99.411928, 35.402613]]]}, "properties": {"osm_id": 852382830, "building": "yes", "name": "", "height": null, "height_m": null, "levels": null, "tract_id": "40009966100", "tract_name": "9661", "tags": {"building": "yes", "source": "microsoft/BuildingFootprints"}}}, {"type": "Feature", "geometry": {"type": "Polygon", "coordinates": [[[-99.411708, 35.402956], [-99.411936, 35.402956], [-99.411936, 35.402864], [-99.411708, 35.402864], [-99.411708, 35.402956]]]}, "properties": {"osm_id": 852382831, "building": "yes", "name": "", "height": null, "height_m": null, "levels": null, "tract_id": "40009966100", "tract_name": "9661", "tags": {"building": "yes", "source": "microsoft/BuildingFootprints"}}}, {"type": "Feature", "geometry": {"type": "Polygon", "coordinates": [[[-99.411708, 35.403142], [-99.41193, 35.403142], [-99.41193, 35.40305], [-99.411708, 35.40305], [-99.411708, 35.403142]]]}, "properties": {"osm_id": 852382832, "building": "yes", "name": "", "height": null, "height_m": null, "levels": null, "tract_id": "40009966100", "tract_name": "9661", "tags": {"building": "yes", "source": "microsoft/BuildingFootprints"}}}, {"type": "Feature", "geometry": {"type": "Polygon", "coordinates": [[[-99.411705, 35.402795], [-99.41193, 35.402797], [-99.411931, 35.402702], [-99.411706, 35.4027], [-99.411705, 35.402795]]]}, "properties": {"osm_id": 852382833, "building": "yes", "name": "", "height": null, "height_m": null, "levels": null, "tract_id": "40009966100", "tract_name": "9661", "tags": {"building": "yes", "source": "microsoft/BuildingFootprints"}}}, {"type": "Feature", "geometry": {"type": "Polygon", "coordinates": [[[-99.411708, 35.403303], [-99.41193, 35.403303], [-99.41193, 35.403209], [-99.411708, 35.403209], [-99.411708, 35.403303]]]}, "properties": {"osm_id": 852382834, "building": "yes", "name": "", "height": null, "height_m": null, "levels": null, "tract_id": "40009966100", "tract_name": "9661", "tags": {"building": "yes", "source": "microsoft/BuildingFootprints"}}}, {"type": "Feature", "geometry": {"type": "Polygon", "coordinates": [[[-99.411711, 35.403487], [-99.411933, 35.403487], [-99.411933, 35.403391], [-99.411711, 35.403391], [-99.411711, 35.403487]]]}, "properties": {"osm_id": 852382835, "building": "yes", "name": "", "height": null, "height_m": null, "levels": null, "tract_id": "40009966100", "tract_name": "9661", "tags": {"building": "yes", "source": "microsoft/BuildingFootprints"}}}, {"type": "Feature", "geometry": {"type": "Polygon", "coordinates": [[[-99.411708, 35.403553], [-99.411708, 35.403647], [-99.411933, 35.403647], [-99.411933, 35.403553], [-99.411708, 35.403553]]]}, "properties": {"osm_id": 852382836, "building": "yes", "name": "", "height": null, "height_m": null, "levels": null, "tract_id": "40009966100", "tract_name": "9661", "tags": {"building": "yes", "source": "microsoft/BuildingFootprints"}}}, {"type": "Feature", "geometry": {"type": "Polygon", "coordinates": [[[-99.412268, 35.403443], [-99.412378, 35.403443], [-99.412378, 35.403382], [-99.412416, 35.403382], [-99.412416, 35.403258], [-99.412268, 35.403258], [-99.412268, 35.403443]]]}, "properties": {"osm_id": 852382837, "building": "yes", "name": "", "height": null, "height_m": null, "levels": null, "tract_id": "40009966100", "tract_name": "9661", "tags": {"building": "yes", "source": "microsoft/BuildingFootprints"}}}, {"type": "Feature", "geometry": {"type": "Polygon", "coordinates": [[[-99.412698, 35.403529], [-99.412523, 35.403529], [-99.412523, 35.403651], [-99.412698, 35.403651], [-99.412698, 35.403529]]]}, "properties": {"osm_id": 852382838, "building": "yes", "name": "", "height": null, "height_m": null, "levels": null, "tract_id": "40009966100", "tract_name": "9661", "tags": {"building": "yes", "source": "microsoft/BuildingFootprints"}}}, {"type": "Feature", "geometry": {"type": "Polygon", "coordinates": [[[-99.409416, 35.403657], [-99.409554, 35.403786], [-99.409628, 35.403733], [-99.409491, 35.403604], [-99.409416, 35.403657]]]}, "properties": {"osm_id": 852382839, "building": "yes", "name": "", "height": null, "height_m": null, "levels": null, "tract_id": "40009966100", "tract_name": "9661", "tags": {"building": "yes", "source": "microsoft/BuildingFootprints"}}}, {"type": "Feature", "geometry": {"type": "Polygon", "coordinates": [[[-99.41115, 35.403944], [-99.41115, 35.403828], [-99.411061, 35.403828], [-99.411061, 35.403944], [-99.41115, 35.403944]]]}, "properties": {"osm_id": 852382840, "building": "yes", "name": "", "height": null, "height_m": null, "levels": null, "tract_id": "40009966100", "tract_name": "9661", "tags": {"building": "yes", "source": "microsoft/BuildingFootprints"}}}, {"type": "Feature", "geometry": {"type": "Polygon", "coordinates": [[[-99.411136, 35.404099], [-99.411135, 35.404176], [-99.411409, 35.404177], [-99.411409, 35.4041], [-99.411136, 35.404099]]]}, "properties": {"osm_id": 852382841, "building": "yes", "name": "", "height": null, "height_m": null, "levels": null, "tract_id": "40009966100", "tract_name": "9661", "tags": {"building": "yes", "source": "microsoft/BuildingFootprints"}}}, {"type": "Feature", "geometry": {"type": "Polygon", "coordinates": [[[-99.411063, 35.404432], [-99.411229, 35.404431], [-99.411228, 35.404258], [-99.411111, 35.404259], [-99.411112, 35.404313], [-99.411062, 35.404313], [-99.411063, 35.404432]]]}, "properties": {"osm_id": 852382842, "building": "yes", "name": "", "height": null, "height_m": null, "levels": null, "tract_id": "40009966100", "tract_name": "9661", "tags": {"building": "yes", "source": "microsoft/BuildingFootprints"}}}, {"type": "Feature", "geometry": {"type": "Polygon", "coordinates": [[[-99.408808, 35.404738], [-99.408918, 35.404738], [-99.408918, 35.4046], [-99.408808, 35.4046], [-99.408808, 35.404738]]]}, "properties": {"osm_id": 852382843, "building": "yes", "name": "", "height": null, "height_m": null, "levels": null, "tract_id": "40009966100", "tract_name": "9661", "tags": {"building": "yes", "source": "microsoft/BuildingFootprints"}}}, {"type": "Feature", "geometry": {"type": "Polygon", "coordinates": [[[-99.403716, 35.404676], [-99.403713, 35.40507], [-99.403917, 35.405071], [-99.40392, 35.404678], [-99.403716, 35.404676]]]}, "properties": {"osm_id": 852382844, "building": "yes", "name": "", "height": null, "height_m": null, "levels": null, "tract_id": "40009966100", "tract_name": "9661", "tags": {"building": "yes", "source": "microsoft/BuildingFootprints"}}}, {"type": "Feature", "geometry": {"type": "Polygon", "coordinates": [[[-99.405312, 35.404215], [-99.405307, 35.404845], [-99.405366, 35.404845], [-99.405367, 35.404758], [-99.405455, 35.404758], [-99.405459, 35.404216], [-99.405312, 35.404215]]]}, "properties": {"osm_id": 852382845, "building": "yes", "name": "", "height": null, "height_m": null, "levels": null, "tract_id": "40009966100", "tract_name": "9661", "tags": {"building": "yes", "source": "microsoft/BuildingFootprints"}}}, {"type": "Feature", "geometry": {"type": "Polygon", "coordinates": [[[-99.405552, 35.404414], [-99.405665, 35.404414], [-99.405665, 35.404274], [-99.405552, 35.404274], [-99.405552, 35.404414]]]}, "properties": {"osm_id": 852382846, "building": "yes", "name": "", "height": null, "height_m": null, "levels": null, "tract_id": "40009966100", "tract_name": "9661", "tags": {"building": "yes", "source": "microsoft/BuildingFootprints"}}}, {"type": "Feature", "geometry": {"type": "Polygon", "coordinates": [[[-99.407178, 35.40766], [-99.407312, 35.40766], [-99.407312, 35.407562], [-99.407178, 35.407562], [-99.407178, 35.40766]]]}, "properties": {"osm_id": 852382847, "building": "yes", "name": "", "height": null, "height_m": null, "levels": null, "tract_id": "40009966100", "tract_name": "9661", "tags": {"building": "yes", "source": "microsoft/BuildingFootprints"}}}, {"type": "Feature", "geometry": {"type": "Polygon", "coordinates": [[[-99.407105, 35.407901], [-99.407105, 35.407995], [-99.407301, 35.407995], [-99.407301, 35.407901], [-99.407105, 35.407901]]]}, "properties": {"osm_id": 852382848, "building": "yes", "name": "", "height": null, "height_m": null, "levels": null, "tract_id": "40009966100", "tract_name": "9661", "tags": {"building": "yes", "source": "microsoft/BuildingFootprints"}}}, {"type": "Feature", "geometry": {"type": "Polygon", "coordinates": [[[-99.405925, 35.408406], [-99.405925, 35.408096], [-99.405764, 35.408096], [-99.405764, 35.408406], [-99.405925, 35.408406]]]}, "properties": {"osm_id": 852382849, "building": "yes", "name": "", "height": null, "height_m": null, "levels": null, "tract_id": "40009966100", "tract_name": "9661", "tags": {"building": "yes", "source": "microsoft/BuildingFootprints"}}}, {"type": "Feature", "geometry": {"type": "Polygon", "coordinates": [[[-99.405265, 35.408948], [-99.405421, 35.408948], [-99.405421, 35.408767], [-99.405265, 35.408767], [-99.405265, 35.408948]]]}, "properties": {"osm_id": 852382850, "building": "yes", "name": "", "height": null, "height_m": null, "levels": null, "tract_id": "40009966100", "tract_name": "9661", "tags": {"building": "yes", "source": "microsoft/BuildingFootprints"}}}, {"type": "Feature", "geometry": {"type": "Polygon", "coordinates": [[[-99.407242, 35.409106], [-99.407242, 35.409503], [-99.407352, 35.409503], [-99.407352, 35.409106], [-99.407242, 35.409106]]]}, "properties": {"osm_id": 852382851, "building": "yes", "name": "", "height": null, "height_m": null, "levels": null, "tract_id": "40009966100", "tract_name": "9661", "tags": {"building": "yes", "source": "microsoft/BuildingFootprints"}}}, {"type": "Feature", "geometry": {"type": "Polygon", "coordinates": [[[-99.407392, 35.40972], [-99.407053, 35.409719], [-99.407051, 35.409971], [-99.40739, 35.409973], [-99.407392, 35.40972]]]}, "properties": {"osm_id": 852382852, "building": "yes", "name": "", "height": null, "height_m": null, "levels": null, "tract_id": "40009966100", "tract_name": "9661", "tags": {"building": "yes", "source": "microsoft/BuildingFootprints"}}}, {"type": "Feature", "geometry": {"type": "Polygon", "coordinates": [[[-99.407826, 35.410039], [-99.407689, 35.410038], [-99.407686, 35.410362], [-99.408087, 35.410365], [-99.408088, 35.410236], [-99.408151, 35.410237], [-99.408153, 35.410097], [-99.407825, 35.410095], [-99.407826, 35.410039]]]}, "properties": {"osm_id": 852382853, "building": "yes", "name": "United States Post Office", "height": null, "height_m": null, "levels": null, "tract_id": "40009966100", "tract_name": "9661", "tags": {"addr:city": "Elk City", "addr:housenumber": "101", "addr:postcode": "73644", "addr:state": "OK", "addr:street": "South Adams Avenue", "amenity": "post_office", "brand": "United States Post Office", "brand:wikidata": "Q668687", "building": "yes", "name": "United States Post Office", "operator": "United States Postal Service", "operator:short": "USPS", "operator:type": "public", "operator:website": "https://www.usps.com", "operator:wikidata": "Q668687", "operator:wikipedia": "en:United States Postal Service", "phone": "(580) 225-0294", "short_name": "USPS", "source": "microsoft/BuildingFootprints"}}}, {"type": "Feature", "geometry": {"type": "Polygon", "coordinates": [[[-99.408369, 35.4108382], [-99.40788, 35.4108352], [-99.4078781, 35.4110695], [-99.4081763, 35.4110713], [-99.4081761, 35.4110938], [-99.4082338, 35.4110942], [-99.408234, 35.4110704], [-99.4083661, 35.4110712], [-99.408369, 35.4108382]]]}, "properties": {"osm_id": 852382854, "building": "public", "name": "", "height": null, "height_m": null, "levels": null, "tract_id": "40009966100", "tract_name": "9661", "tags": {"building": "public", "source": "microsoft/BuildingFootprints"}}}, {"type": "Feature", "geometry": {"type": "Polygon", "coordinates": [[[-99.406908, 35.411596], [-99.407011, 35.411595], [-99.40701, 35.411502], [-99.407234, 35.411501], [-99.407235, 35.411595], [-99.40735, 35.411595], [-99.407349, 35.411352], [-99.406906, 35.411354], [-99.406908, 35.411596]]]}, "properties": {"osm_id": 852382855, "building": "yes", "name": "", "height": null, "height_m": null, "levels": null, "tract_id": "40009966100", "tract_name": "9661", "tags": {"building": "yes", "source": "microsoft/BuildingFootprints"}}}, {"type": "Feature", "geometry": {"type": "Polygon", "coordinates": [[[-99.407339, 35.411239], [-99.407212, 35.411239], [-99.407212, 35.411324], [-99.407339, 35.411324], [-99.407339, 35.411239]]]}, "properties": {"osm_id": 852382856, "building": "yes", "name": "", "height": null, "height_m": null, "levels": null, "tract_id": "40009966100", "tract_name": "9661", "tags": {"building": "yes", "source": "microsoft/BuildingFootprints"}}}, {"type": "Feature", "geometry": {"type": "Polygon", "coordinates": [[[-99.406075, 35.411204], [-99.405946, 35.411204], [-99.405946, 35.411342], [-99.406075, 35.411342], [-99.406075, 35.411204]]]}, "properties": {"osm_id": 852382857, "building": "yes", "name": "", "height": null, "height_m": null, "levels": null, "tract_id": "40009966100", "tract_name": "9661", "tags": {"building": "yes", "source": "microsoft/BuildingFootprints"}}}, {"type": "Feature", "geometry": {"type": "Polygon", "coordinates": [[[-99.407931, 35.412452], [-99.407931, 35.412282], [-99.407789, 35.412282], [-99.407789, 35.412452], [-99.407931, 35.412452]]]}, "properties": {"osm_id": 852382859, "building": "yes", "name": "", "height": null, "height_m": null, "levels": null, "tract_id": "40009966100", "tract_name": "9661", "tags": {"building": "yes", "source": "microsoft/BuildingFootprints"}}}, {"type": "Feature", "geometry": {"type": "Polygon", "coordinates": [[[-99.405064, 35.412653], [-99.405549, 35.412658], [-99.405551, 35.412523], [-99.405419, 35.412521], [-99.405421, 35.412458], [-99.405525, 35.412459], [-99.405527, 35.412378], [-99.405069, 35.412373], [-99.405064, 35.412653]]]}, "properties": {"osm_id": 852382860, "building": "yes", "name": "", "height": null, "height_m": null, "levels": null, "tract_id": "40009966100", "tract_name": "9661", "tags": {"building": "yes", "source": "microsoft/BuildingFootprints"}}}, {"type": "Feature", "geometry": {"type": "Polygon", "coordinates": [[[-99.403273, 35.411283], [-99.403338, 35.411284], [-99.403342, 35.410979], [-99.402859, 35.410974], [-99.402855, 35.411281], [-99.403126, 35.411284], [-99.403123, 35.411455], [-99.403271, 35.411456], [-99.403273, 35.411283]]]}, "properties": {"osm_id": 852382861, "building": "yes", "name": "Bank of Western Oklahoma", "height": null, "height_m": null, "levels": null, "tract_id": "40009966100", "tract_name": "9661", "tags": {"addr:city": "Elk City", "addr:country": "US", "addr:housenumber": "201", "addr:state": "OK", "addr:street": "East Broadway", "amenity": "bank", "building": "yes", "name": "Bank of Western Oklahoma", "source": "microsoft/BuildingFootprints"}}}, {"type": "Feature", "geometry": {"type": "Polygon", "coordinates": [[[-99.401979, 35.412457], [-99.401979, 35.412363], [-99.401636, 35.412363], [-99.401636, 35.412457], [-99.401979, 35.412457]]]}, "properties": {"osm_id": 852382862, "building": "yes", "name": "", "height": null, "height_m": null, "levels": null, "tract_id": "40009966100", "tract_name": "9661", "tags": {"building": "yes", "source": "microsoft/BuildingFootprints"}}}, {"type": "Feature", "geometry": {"type": "Polygon", "coordinates": [[[-99.399968, 35.415738], [-99.399968, 35.415848], [-99.399941, 35.415848], [-99.399942, 35.415989], [-99.400111, 35.415989], [-99.40011, 35.415738], [-99.399968, 35.415738]]]}, "properties": {"osm_id": 852382863, "building": "yes", "name": "", "height": null, "height_m": null, "levels": null, "tract_id": "40009966100", "tract_name": "9661", "tags": {"building": "yes", "source": "microsoft/BuildingFootprints"}}}, {"type": "Feature", "geometry": {"type": "Polygon", "coordinates": [[[-99.401558, 35.416131], [-99.401269, 35.416131], [-99.401269, 35.416245], [-99.401558, 35.416245], [-99.401558, 35.416131]]]}, "properties": {"osm_id": 852382864, "building": "yes", "name": "", "height": null, "height_m": null, "levels": null, "tract_id": "40009966100", "tract_name": "9661", "tags": {"building": "yes", "source": "microsoft/BuildingFootprints"}}}, {"type": "Feature", "geometry": {"type": "Polygon", "coordinates": [[[-99.407102, 35.40216], [-99.406931, 35.40216], [-99.406931, 35.402385], [-99.407102, 35.402385], [-99.407102, 35.40216]]]}, "properties": {"osm_id": 852382865, "building": "yes", "name": "", "height": null, "height_m": null, "levels": null, "tract_id": "40009966100", "tract_name": "9661", "tags": {"building": "yes", "source": "microsoft/BuildingFootprints"}}}, {"type": "Feature", "geometry": {"type": "Polygon", "coordinates": [[[-99.408073, 35.402553], [-99.408285, 35.402555], [-99.408288, 35.402193], [-99.408076, 35.402192], [-99.408073, 35.402553]]]}, "properties": {"osm_id": 852382866, "building": "yes", "name": "", "height": null, "height_m": null, "levels": null, "tract_id": "40009966100", "tract_name": "9661", "tags": {"building": "yes", "source": "microsoft/BuildingFootprints"}}}, {"type": "Feature", "geometry": {"type": "Polygon", "coordinates": [[[-99.407604, 35.402525], [-99.407768, 35.402525], [-99.407768, 35.40218], [-99.407604, 35.40218], [-99.407604, 35.402525]]]}, "properties": {"osm_id": 852382867, "building": "yes", "name": "", "height": null, "height_m": null, "levels": null, "tract_id": "40009966100", "tract_name": "9661", "tags": {"building": "yes", "source": "microsoft/BuildingFootprints"}}}, {"type": "Feature", "geometry": {"type": "Polygon", "coordinates": [[[-99.404345, 35.399875], [-99.404691, 35.399875], [-99.404691, 35.399735], [-99.404345, 35.399735], [-99.404345, 35.399875]]]}, "properties": {"osm_id": 852382868, "building": "yes", "name": "", "height": null, "height_m": null, "levels": null, "tract_id": "40009966100", "tract_name": "9661", "tags": {"building": "yes", "source": "microsoft/BuildingFootprints"}}}, {"type": "Feature", "geometry": {"type": "Polygon", "coordinates": [[[-99.404431, 35.400098], [-99.404595, 35.400098], [-99.404595, 35.399954], [-99.404431, 35.399954], [-99.404431, 35.400098]]]}, "properties": {"osm_id": 852382869, "building": "yes", "name": "", "height": null, "height_m": null, "levels": null, "tract_id": "40009966100", "tract_name": "9661", "tags": {"building": "yes", "source": "microsoft/BuildingFootprints"}}}, {"type": "Feature", "geometry": {"type": "Polygon", "coordinates": [[[-99.409219, 35.401373], [-99.409565, 35.401373], [-99.409565, 35.401235], [-99.409219, 35.401235], [-99.409219, 35.401373]]]}, "properties": {"osm_id": 852382870, "building": "yes", "name": "", "height": null, "height_m": null, "levels": null, "tract_id": "40009966100", "tract_name": "9661", "tags": {"building": "yes", "source": "microsoft/BuildingFootprints"}}}, {"type": "Feature", "geometry": {"type": "Polygon", "coordinates": [[[-99.410037, 35.401373], [-99.41038, 35.401373], [-99.41038, 35.401237], [-99.410037, 35.401237], [-99.410037, 35.401373]]]}, "properties": {"osm_id": 852382871, "building": "yes", "name": "", "height": null, "height_m": null, "levels": null, "tract_id": "40009966100", "tract_name": "9661", "tags": {"building": "yes", "source": "microsoft/BuildingFootprints"}}}, {"type": "Feature", "geometry": {"type": "Polygon", "coordinates": [[[-99.409106, 35.402164], [-99.408763, 35.402164], [-99.408763, 35.402306], [-99.409173, 35.402306], [-99.409173, 35.40224], [-99.409106, 35.40224], [-99.409106, 35.402164]]]}, "properties": {"osm_id": 852382872, "building": "yes", "name": "", "height": null, "height_m": null, "levels": null, "tract_id": "40009966100", "tract_name": "9661", "tags": {"building": "yes", "source": "microsoft/BuildingFootprints"}}}, {"type": "Feature", "geometry": {"type": "Polygon", "coordinates": [[[-99.414004, 35.401747], [-99.414004, 35.401819], [-99.414111, 35.401819], [-99.414111, 35.401747], [-99.414004, 35.401747]]]}, "properties": {"osm_id": 852382873, "building": "yes", "name": "", "height": null, "height_m": null, "levels": null, "tract_id": "40009966100", "tract_name": "9661", "tags": {"building": "yes", "source": "microsoft/BuildingFootprints"}}}, {"type": "Feature", "geometry": {"type": "Polygon", "coordinates": [[[-99.414729, 35.401481], [-99.414718, 35.401374], [-99.414612, 35.401381], [-99.414623, 35.401488], [-99.414729, 35.401481]]]}, "properties": {"osm_id": 852382874, "building": "yes", "name": "", "height": null, "height_m": null, "levels": null, "tract_id": "40009966100", "tract_name": "9661", "tags": {"building": "yes", "source": "microsoft/BuildingFootprints"}}}, {"type": "Feature", "geometry": {"type": "Polygon", "coordinates": [[[-99.415262, 35.404237], [-99.415262, 35.404442], [-99.415407, 35.404442], [-99.415407, 35.404237], [-99.415262, 35.404237]]]}, "properties": {"osm_id": 852382875, "building": "yes", "name": "", "height": null, "height_m": null, "levels": null, "tract_id": "40009966100", "tract_name": "9661", "tags": {"building": "yes", "source": "microsoft/BuildingFootprints"}}}, {"type": "Feature", "geometry": {"type": "Polygon", "coordinates": [[[-99.416361, 35.405127], [-99.416533, 35.405127], [-99.416533, 35.404858], [-99.416361, 35.404858], [-99.416361, 35.405127]]]}, "properties": {"osm_id": 852382876, "building": "yes", "name": "", "height": null, "height_m": null, "levels": null, "tract_id": "40009966100", "tract_name": "9661", "tags": {"building": "yes", "source": "microsoft/BuildingFootprints"}}}, {"type": "Feature", "geometry": {"type": "Polygon", "coordinates": [[[-99.3991739, 35.3844918], [-99.3991685, 35.3848242], [-99.3991417, 35.3848239], [-99.3991405, 35.3848981], [-99.3989528, 35.3848961], [-99.398954, 35.3848219], [-99.3989365, 35.3848217], [-99.3989418, 35.3844893], [-99.3991739, 35.3844918]]]}, "properties": {"osm_id": 996659531, "building": "hotel", "name": "Comfort Inn & Suites", "height": null, "height_m": null, "levels": null, "tract_id": "40009966100", "tract_name": "9661", "tags": {"addr:city": "Elk City", "addr:housenumber": "2802", "addr:postcode": "73644-9760", "addr:state": "OK", "addr:street": "South Main Street", "brand": "Comfort Inn & Suites", "brand:wikidata": "Q113152349", "building": "hotel", "name": "Comfort Inn & Suites", "phone": "+1 580-303-4772", "ref": "OK148", "tourism": "hotel", "website": "https://www.choicehotels.com/oklahoma/elk-city/sleep-inn-hotels"}}}, {"type": "Feature", "geometry": {"type": "Polygon", "coordinates": [[[-99.3960243, 35.4247245], [-99.3958835, 35.4247204], [-99.3959149, 35.4240166], [-99.3960557, 35.4240208], [-99.3960243, 35.4247245]]]}, "properties": {"osm_id": 1052140465, "building": "hangar", "name": "", "height": null, "height_m": null, "levels": null, "tract_id": "40009966100", "tract_name": "9661", "tags": {"aeroway": "hangar", "building": "hangar"}}}, {"type": "Feature", "geometry": {"type": "Polygon", "coordinates": [[[-99.3963657, 35.424404], [-99.3963726, 35.4240141], [-99.3963736, 35.4239567], [-99.3964645, 35.4239578], [-99.3964567, 35.424405], [-99.3963657, 35.424404]]]}, "properties": {"osm_id": 1052140466, "building": "hangar", "name": "", "height": null, "height_m": null, "levels": null, "tract_id": "40009966100", "tract_name": "9661", "tags": {"aeroway": "hangar", "building": "hangar"}}}, {"type": "Feature", "geometry": {"type": "Polygon", "coordinates": [[[-99.3966857, 35.4244578], [-99.3967053, 35.4239252], [-99.3968344, 35.4239284], [-99.3968147, 35.424461], [-99.3966857, 35.4244578]]]}, "properties": {"osm_id": 1052140467, "building": "hangar", "name": "", "height": null, "height_m": null, "levels": null, "tract_id": "40009966100", "tract_name": "9661", "tags": {"aeroway": "hangar", "building": "hangar"}}}, {"type": "Feature", "geometry": {"type": "Polygon", "coordinates": [[[-99.3965296, 35.4269267], [-99.3960249, 35.4269071], [-99.3960413, 35.4266285], [-99.396546, 35.4266482], [-99.3965296, 35.4269267]]]}, "properties": {"osm_id": 1052140468, "building": "hangar", "name": "", "height": null, "height_m": null, "levels": null, "tract_id": "40009966100", "tract_name": "9661", "tags": {"aeroway": "hangar", "building": "hangar"}}}, {"type": "Feature", "geometry": {"type": "Polygon", "coordinates": [[[-99.3960709, 35.4262088], [-99.3960738, 35.4261615], [-99.3960923, 35.4261623], [-99.396099, 35.4260521], [-99.3960821, 35.4260514], [-99.3960852, 35.4260004], [-99.3959808, 35.4259962], [-99.3959768, 35.4260633], [-99.395958, 35.4260626], [-99.395953, 35.4261466], [-99.3959912, 35.4261482], [-99.3959877, 35.4262055], [-99.3960709, 35.4262088]]]}, "properties": {"osm_id": 1052140469, "building": "yes", "name": "", "height": null, "height_m": 3.0, "levels": 1, "tract_id": "40009966100", "tract_name": "9661", "tags": {"building": "yes", "building:levels": "1"}}}, {"type": "Feature", "geometry": {"type": "Polygon", "coordinates": [[[-99.3970785, 35.4254959], [-99.3970792, 35.4253288], [-99.397256, 35.4253293], [-99.3972553, 35.4254964], [-99.3970785, 35.4254959]]]}, "properties": {"osm_id": 1052140471, "building": "hangar", "name": "", "height": null, "height_m": null, "levels": null, "tract_id": "40009966100", "tract_name": "9661", "tags": {"aeroway": "hangar", "building": "hangar"}}}, {"type": "Feature", "geometry": {"type": "Polygon", "coordinates": [[[-99.3967389, 35.4252968], [-99.396694, 35.4252957], [-99.3965575, 35.4252926], [-99.3965691, 35.4250766], [-99.3967479, 35.4250766], [-99.3967389, 35.4252968]]]}, "properties": {"osm_id": 1052140472, "building": "hangar", "name": "", "height": null, "height_m": null, "levels": null, "tract_id": "40009966100", "tract_name": "9661", "tags": {"aeroway": "hangar", "building": "hangar"}}}, {"type": "Feature", "geometry": {"type": "Polygon", "coordinates": [[[-99.3965041, 35.425291], [-99.3965152, 35.4250714], [-99.39635, 35.4250658], [-99.3963388, 35.4252854], [-99.3965041, 35.425291]]]}, "properties": {"osm_id": 1052140473, "building": "hangar", "name": "", "height": null, "height_m": null, "levels": null, "tract_id": "40009966100", "tract_name": "9661", "tags": {"aeroway": "hangar", "building": "hangar"}}}, {"type": "Feature", "geometry": {"type": "Polygon", "coordinates": [[[-99.3976724, 35.4256664], [-99.397538, 35.4256647], [-99.3975397, 35.4255781], [-99.3976741, 35.4255799], [-99.3976724, 35.4256664]]]}, "properties": {"osm_id": 1052140474, "building": "garage", "name": "", "height": null, "height_m": 3.0, "levels": 1, "tract_id": "40009966100", "tract_name": "9661", "tags": {"building": "garage", "building:levels": "1"}}}, {"type": "Feature", "geometry": {"type": "Polygon", "coordinates": [[[-99.3965206, 35.4250246], [-99.3965288, 35.4248464], [-99.396348, 35.424841], [-99.3963399, 35.4250192], [-99.3965206, 35.4250246]]]}, "properties": {"osm_id": 1052140475, "building": "hangar", "name": "", "height": null, "height_m": null, "levels": null, "tract_id": "40009966100", "tract_name": "9661", "tags": {"aeroway": "hangar", "building": "hangar"}}}, {"type": "Feature", "geometry": {"type": "Polygon", "coordinates": [[[-99.3963569, 35.4247936], [-99.3963613, 35.4246579], [-99.3965369, 35.4246617], [-99.3965325, 35.4247973], [-99.3963569, 35.4247936]]]}, "properties": {"osm_id": 1052140476, "building": "hangar", "name": "", "height": null, "height_m": null, "levels": null, "tract_id": "40009966100", "tract_name": "9661", "tags": {"aeroway": "hangar", "building": "hangar"}}}, {"type": "Feature", "geometry": {"type": "Polygon", "coordinates": [[[-99.3969801, 35.423393], [-99.3968625, 35.4233919], [-99.3968644, 35.4232563], [-99.3969422, 35.423257], [-99.3969821, 35.4232574], [-99.3969801, 35.423393]]]}, "properties": {"osm_id": 1052140477, "building": "hangar", "name": "", "height": null, "height_m": null, "levels": null, "tract_id": "40009966100", "tract_name": "9661", "tags": {"aeroway": "hangar", "building": "hangar"}}}, {"type": "Feature", "geometry": {"type": "Polygon", "coordinates": [[[-99.396748, 35.4235277], [-99.3967496, 35.4233681], [-99.3966624, 35.4233675], [-99.3966608, 35.4235271], [-99.396748, 35.4235277]]]}, "properties": {"osm_id": 1052140478, "building": "yes", "name": "", "height": null, "height_m": 3.0, "levels": 1, "tract_id": "40009966100", "tract_name": "9661", "tags": {"building": "yes", "building:levels": "1"}}}, {"type": "Feature", "geometry": {"type": "Polygon", "coordinates": [[[-99.3972139, 35.4239948], [-99.3971062, 35.4239954], [-99.3971047, 35.4238136], [-99.3972123, 35.423813], [-99.3972139, 35.4239948]]]}, "properties": {"osm_id": 1052140479, "building": "hangar", "name": "", "height": null, "height_m": null, "levels": null, "tract_id": "40009966100", "tract_name": "9661", "tags": {"aeroway": "hangar", "building": "hangar"}}}, {"type": "Feature", "geometry": {"type": "Polygon", "coordinates": [[[-99.3971106, 35.4241561], [-99.3971106, 35.4240436], [-99.3972351, 35.4240436], [-99.3972351, 35.4241561], [-99.3971106, 35.4241561]]]}, "properties": {"osm_id": 1052140480, "building": "hangar", "name": "", "height": null, "height_m": null, "levels": null, "tract_id": "40009966100", "tract_name": "9661", "tags": {"aeroway": "hangar", "building": "hangar"}}}, {"type": "Feature", "geometry": {"type": "Polygon", "coordinates": [[[-99.397098, 35.4243675], [-99.3970994, 35.4241802], [-99.3972229, 35.4241809], [-99.3972214, 35.4243682], [-99.397098, 35.4243675]]]}, "properties": {"osm_id": 1052140481, "building": "hangar", "name": "", "height": null, "height_m": null, "levels": null, "tract_id": "40009966100", "tract_name": "9661", "tags": {"aeroway": "hangar", "building": "hangar"}}}, {"type": "Feature", "geometry": {"type": "Polygon", "coordinates": [[[-99.3971044, 35.4245284], [-99.3971078, 35.4243882], [-99.3972267, 35.4243901], [-99.3972233, 35.4245303], [-99.3971044, 35.4245284]]]}, "properties": {"osm_id": 1052140482, "building": "hangar", "name": "", "height": null, "height_m": null, "levels": null, "tract_id": "40009966100", "tract_name": "9661", "tags": {"aeroway": "hangar", "building": "hangar"}}}, {"type": "Feature", "geometry": {"type": "Polygon", "coordinates": [[[-99.3970986, 35.4247122], [-99.3970999, 35.4245849], [-99.3972019, 35.4245856], [-99.3972005, 35.4247129], [-99.3970986, 35.4247122]]]}, "properties": {"osm_id": 1052140483, "building": "hangar", "name": "", "height": null, "height_m": null, "levels": null, "tract_id": "40009966100", "tract_name": "9661", "tags": {"aeroway": "hangar", "building": "hangar"}}}, {"type": "Feature", "geometry": {"type": "Polygon", "coordinates": [[[-99.3970977, 35.424903], [-99.3970964, 35.4247591], [-99.3972323, 35.4247583], [-99.3972336, 35.4249022], [-99.3970977, 35.424903]]]}, "properties": {"osm_id": 1052140484, "building": "hangar", "name": "", "height": null, "height_m": null, "levels": null, "tract_id": "40009966100", "tract_name": "9661", "tags": {"aeroway": "hangar", "building": "hangar"}}}, {"type": "Feature", "geometry": {"type": "Polygon", "coordinates": [[[-99.3961582, 35.4294677], [-99.3958863, 35.4294689], [-99.3958847, 35.4292228], [-99.3961566, 35.4292216], [-99.3961582, 35.4294677]]]}, "properties": {"osm_id": 1052140492, "building": "hangar", "name": "", "height": null, "height_m": null, "levels": null, "tract_id": "40009966100", "tract_name": "9661", "tags": {"aeroway": "hangar", "building": "hangar"}}}, {"type": "Feature", "geometry": {"type": "Polygon", "coordinates": [[[-99.4053935, 35.4102221], [-99.4053935, 35.4102922], [-99.4050644, 35.4102922], [-99.4050644, 35.4102221], [-99.4053935, 35.4102221]]]}, "properties": {"osm_id": 1085526238, "building": "yes", "name": "", "height": null, "height_m": null, "levels": null, "tract_id": "40009966100", "tract_name": "9661", "tags": {"building": "yes", "shop": "yes"}}}, {"type": "Feature", "geometry": {"type": "Polygon", "coordinates": [[[-99.4050644, 35.4103627], [-99.4050644, 35.4102922], [-99.4053935, 35.4102922], [-99.4053934, 35.4103628], [-99.4050644, 35.4103627]]]}, "properties": {"osm_id": 1085526239, "building": "yes", "name": "", "height": null, "height_m": null, "levels": null, "tract_id": "40009966100", "tract_name": "9661", "tags": {"building": "yes", "shop": "yes"}}}, {"type": "Feature", "geometry": {"type": "Polygon", "coordinates": [[[-99.4050644, 35.4103627], [-99.4053934, 35.4103628], [-99.4055465, 35.4103628], [-99.4055465, 35.410432], [-99.4050644, 35.4104319], [-99.4050644, 35.4103627]]]}, "properties": {"osm_id": 1085526240, "building": "yes", "name": "", "height": null, "height_m": null, "levels": null, "tract_id": "40009966100", "tract_name": "9661", "tags": {"building": "yes", "shop": "yes"}}}, {"type": "Feature", "geometry": {"type": "Polygon", "coordinates": [[[-99.4055465, 35.410432], [-99.4055464, 35.410497], [-99.4050644, 35.4104969], [-99.4050644, 35.4104319], [-99.4055465, 35.410432]]]}, "properties": {"osm_id": 1085526241, "building": "yes", "name": "", "height": null, "height_m": null, "levels": null, "tract_id": "40009966100", "tract_name": "9661", "tags": {"building": "yes", "shop": "yes"}}}, {"type": "Feature", "geometry": {"type": "Polygon", "coordinates": [[[-99.4055464, 35.410497], [-99.4055464, 35.4105681], [-99.4050643, 35.410568], [-99.4050644, 35.4104969], [-99.4055464, 35.410497]]]}, "properties": {"osm_id": 1085526242, "building": "yes", "name": "", "height": null, "height_m": null, "levels": null, "tract_id": "40009966100", "tract_name": "9661", "tags": {"building": "yes", "shop": "yes"}}}, {"type": "Feature", "geometry": {"type": "Polygon", "coordinates": [[[-99.4055463, 35.4101538], [-99.4055463, 35.4102222], [-99.4053935, 35.4102221], [-99.4050644, 35.4102221], [-99.4050645, 35.4101537], [-99.4055463, 35.4101538]]]}, "properties": {"osm_id": 1085526243, "building": "yes", "name": "", "height": null, "height_m": null, "levels": null, "tract_id": "40009966100", "tract_name": "9661", "tags": {"building": "yes", "shop": "yes"}}}, {"type": "Feature", "geometry": {"type": "Polygon", "coordinates": [[[-99.4055462, 35.4099467], [-99.4055462, 35.4100121], [-99.4054395, 35.4100121], [-99.4050645, 35.410012], [-99.4050645, 35.4099466], [-99.4055462, 35.4099467]]]}, "properties": {"osm_id": 1085526244, "building": "yes", "name": "", "height": null, "height_m": null, "levels": null, "tract_id": "40009966100", "tract_name": "9661", "tags": {"building": "yes", "shop": "yes"}}}, {"type": "Feature", "geometry": {"type": "Polygon", "coordinates": [[[-99.4050645, 35.4101537], [-99.4050645, 35.4100819], [-99.4054395, 35.410082], [-99.4055464, 35.410082], [-99.4055463, 35.4101538], [-99.4050645, 35.4101537]]]}, "properties": {"osm_id": 1085526245, "building": "yes", "name": "", "height": null, "height_m": null, "levels": null, "tract_id": "40009966100", "tract_name": "9661", "tags": {"building": "yes", "shop": "yes"}}}, {"type": "Feature", "geometry": {"type": "Polygon", "coordinates": [[[-99.4054395, 35.410082], [-99.4050645, 35.4100819], [-99.4050645, 35.410012], [-99.4054395, 35.4100121], [-99.4054395, 35.410082]]]}, "properties": {"osm_id": 1085526246, "building": "yes", "name": "", "height": null, "height_m": null, "levels": null, "tract_id": "40009966100", "tract_name": "9661", "tags": {"building": "yes", "shop": "yes"}}}, {"type": "Feature", "geometry": {"type": "Polygon", "coordinates": [[[-99.4050645, 35.4099466], [-99.4050645, 35.4098723], [-99.4055463, 35.4098724], [-99.4055462, 35.4099467], [-99.4050645, 35.4099466]]]}, "properties": {"osm_id": 1085526247, "building": "yes", "name": "", "height": null, "height_m": null, "levels": null, "tract_id": "40009966100", "tract_name": "9661", "tags": {"building": "yes", "shop": "yes"}}}, {"type": "Feature", "geometry": {"type": "Polygon", "coordinates": [[[-99.4047166, 35.4103599], [-99.4047165, 35.410496], [-99.4042485, 35.4104957], [-99.4042487, 35.4103597], [-99.4047166, 35.4103599]]]}, "properties": {"osm_id": 1085526248, "building": "yes", "name": "", "height": null, "height_m": null, "levels": null, "tract_id": "40009966100", "tract_name": "9661", "tags": {"building": "yes", "shop": "yes"}}}, {"type": "Feature", "geometry": {"type": "Polygon", "coordinates": [[[-99.4047165, 35.410496], [-99.4047164, 35.4105517], [-99.4042485, 35.4105515], [-99.4042485, 35.4104957], [-99.4047165, 35.410496]]]}, "properties": {"osm_id": 1085526249, "building": "yes", "name": "", "height": null, "height_m": null, "levels": null, "tract_id": "40009966100", "tract_name": "9661", "tags": {"building": "yes", "shop": "yes"}}}, {"type": "Feature", "geometry": {"type": "Polygon", "coordinates": [[[-99.4047167, 35.4102173], [-99.4047166, 35.4103599], [-99.4042487, 35.4103597], [-99.4042488, 35.410217], [-99.4047167, 35.4102173]]]}, "properties": {"osm_id": 1085526250, "building": "yes", "name": "", "height": null, "height_m": null, "levels": null, "tract_id": "40009966100", "tract_name": "9661", "tags": {"building": "yes", "shop": "yes"}}}, {"type": "Feature", "geometry": {"type": "Polygon", "coordinates": [[[-99.4047168, 35.4100785], [-99.4047167, 35.4102173], [-99.4042488, 35.410217], [-99.4042489, 35.4100782], [-99.4047168, 35.4100785]]]}, "properties": {"osm_id": 1085526251, "building": "yes", "name": "", "height": null, "height_m": null, "levels": null, "tract_id": "40009966100", "tract_name": "9661", "tags": {"building": "yes", "shop": "yes"}}}, {"type": "Feature", "geometry": {"type": "Polygon", "coordinates": [[[-99.4042489, 35.4100782], [-99.404249, 35.4099431], [-99.4043431, 35.4099432], [-99.4047169, 35.4099434], [-99.4047168, 35.4100785], [-99.4042489, 35.4100782]]]}, "properties": {"osm_id": 1085526252, "building": "yes", "name": "", "height": null, "height_m": null, "levels": null, "tract_id": "40009966100", "tract_name": "9661", "tags": {"building": "yes", "shop": "yes"}}}, {"type": "Feature", "geometry": {"type": "Polygon", "coordinates": [[[-99.404717, 35.4098063], [-99.404717, 35.4098756], [-99.4044162, 35.4098754], [-99.4044163, 35.4098061], [-99.404717, 35.4098063]]]}, "properties": {"osm_id": 1085526253, "building": "yes", "name": "", "height": null, "height_m": null, "levels": null, "tract_id": "40009966100", "tract_name": "9661", "tags": {"building": "yes", "shop": "yes"}}}, {"type": "Feature", "geometry": {"type": "Polygon", "coordinates": [[[-99.404717, 35.4098756], [-99.4047169, 35.4099434], [-99.4043431, 35.4099432], [-99.4043432, 35.4098754], [-99.4044162, 35.4098754], [-99.404717, 35.4098756]]]}, "properties": {"osm_id": 1085526254, "building": "yes", "name": "", "height": null, "height_m": null, "levels": null, "tract_id": "40009966100", "tract_name": "9661", "tags": {"building": "yes", "shop": "yes"}}}, {"type": "Feature", "geometry": {"type": "Polygon", "coordinates": [[[-99.4042489, 35.409806], [-99.4042489, 35.4097361], [-99.4047171, 35.4097363], [-99.404717, 35.4098063], [-99.4044163, 35.4098061], [-99.4042489, 35.409806]]]}, "properties": {"osm_id": 1085526255, "building": "yes", "name": "", "height": null, "height_m": null, "levels": null, "tract_id": "40009966100", "tract_name": "9661", "tags": {"building": "yes", "shop": "yes"}}}, {"type": "Feature", "geometry": {"type": "Polygon", "coordinates": [[[-99.4055239, 35.4109201], [-99.405524, 35.4107895], [-99.4050431, 35.4107892], [-99.405043, 35.4109198], [-99.4055239, 35.4109201]]]}, "properties": {"osm_id": 1085526256, "building": "yes", "name": "", "height": null, "height_m": null, "levels": null, "tract_id": "40009966100", "tract_name": "9661", "tags": {"building": "yes", "shop": "yes"}}}, {"type": "Feature", "geometry": {"type": "Polygon", "coordinates": [[[-99.4055239, 35.4109945], [-99.4055239, 35.4109201], [-99.405043, 35.4109198], [-99.4050429, 35.4109943], [-99.4055239, 35.4109945]]]}, "properties": {"osm_id": 1085526257, "building": "yes", "name": "", "height": null, "height_m": null, "levels": null, "tract_id": "40009966100", "tract_name": "9661", "tags": {"building": "yes", "shop": "yes"}}}, {"type": "Feature", "geometry": {"type": "Polygon", "coordinates": [[[-99.4053597, 35.4111298], [-99.4053597, 35.4110582], [-99.4050429, 35.411058], [-99.4050428, 35.4111297], [-99.4053597, 35.4111298]]]}, "properties": {"osm_id": 1085526258, "building": "yes", "name": "", "height": null, "height_m": null, "levels": null, "tract_id": "40009966100", "tract_name": "9661", "tags": {"building": "yes", "shop": "yes"}}}, {"type": "Feature", "geometry": {"type": "Polygon", "coordinates": [[[-99.4055238, 35.4110583], [-99.4055239, 35.4109945], [-99.4050429, 35.4109943], [-99.4050429, 35.411058], [-99.4053597, 35.4110582], [-99.4055238, 35.4110583]]]}, "properties": {"osm_id": 1085526259, "building": "yes", "name": "", "height": null, "height_m": null, "levels": null, "tract_id": "40009966100", "tract_name": "9661", "tags": {"building": "yes", "shop": "yes"}}}, {"type": "Feature", "geometry": {"type": "Polygon", "coordinates": [[[-99.4055259, 35.4112688], [-99.405526, 35.4111299], [-99.4053597, 35.4111298], [-99.4050428, 35.4111297], [-99.4050427, 35.4112685], [-99.4055259, 35.4112688]]]}, "properties": {"osm_id": 1085526260, "building": "yes", "name": "", "height": null, "height_m": null, "levels": null, "tract_id": "40009966100", "tract_name": "9661", "tags": {"building": "yes", "shop": "yes"}}}, {"type": "Feature", "geometry": {"type": "Polygon", "coordinates": [[[-99.4055258, 35.4114076], [-99.4055259, 35.4112688], [-99.4050427, 35.4112685], [-99.4050426, 35.4114073], [-99.4055258, 35.4114076]]]}, "properties": {"osm_id": 1085526261, "building": "yes", "name": "", "height": null, "height_m": null, "levels": null, "tract_id": "40009966100", "tract_name": "9661", "tags": {"building": "yes", "shop": "yes"}}}, {"type": "Feature", "geometry": {"type": "Polygon", "coordinates": [[[-99.4055257, 35.4114741], [-99.4055258, 35.4114076], [-99.4050426, 35.4114073], [-99.4050425, 35.4114738], [-99.4055257, 35.4114741]]]}, "properties": {"osm_id": 1085526262, "building": "yes", "name": "", "height": null, "height_m": null, "levels": null, "tract_id": "40009966100", "tract_name": "9661", "tags": {"building": "yes", "shop": "yes"}}}, {"type": "Feature", "geometry": {"type": "Polygon", "coordinates": [[[-99.4055256, 35.4116098], [-99.4050424, 35.4116095], [-99.4050425, 35.4114738], [-99.4055257, 35.4114741], [-99.4055256, 35.4116098]]]}, "properties": {"osm_id": 1085526263, "building": "yes", "name": "", "height": null, "height_m": null, "levels": null, "tract_id": "40009966100", "tract_name": "9661", "tags": {"building": "yes", "shop": "yes"}}}, {"type": "Feature", "geometry": {"type": "Polygon", "coordinates": [[[-99.4047166, 35.4115296], [-99.4047171, 35.4115977], [-99.4042517, 35.4115998], [-99.4042512, 35.4115318], [-99.4047166, 35.4115296]]]}, "properties": {"osm_id": 1085526264, "building": "yes", "name": "", "height": null, "height_m": null, "levels": null, "tract_id": "40009966100", "tract_name": "9661", "tags": {"building": "yes", "shop": "yes"}}}, {"type": "Feature", "geometry": {"type": "Polygon", "coordinates": [[[-99.4047161, 35.4114616], [-99.4047166, 35.4115296], [-99.4042512, 35.4115318], [-99.4042507, 35.4114638], [-99.4047161, 35.4114616]]]}, "properties": {"osm_id": 1085526265, "building": "yes", "name": "", "height": null, "height_m": null, "levels": null, "tract_id": "40009966100", "tract_name": "9661", "tags": {"building": "yes", "shop": "yes"}}}, {"type": "Feature", "geometry": {"type": "Polygon", "coordinates": [[[-99.4047156, 35.4113935], [-99.4047161, 35.4114616], [-99.4042507, 35.4114638], [-99.4042502, 35.4113957], [-99.4047156, 35.4113935]]]}, "properties": {"osm_id": 1085526266, "building": "yes", "name": "", "height": null, "height_m": null, "levels": null, "tract_id": "40009966100", "tract_name": "9661", "tags": {"building": "yes", "shop": "yes"}}}, {"type": "Feature", "geometry": {"type": "Polygon", "coordinates": [[[-99.4047151, 35.4113255], [-99.4047156, 35.4113935], [-99.4042502, 35.4113957], [-99.4042498, 35.4113277], [-99.4047151, 35.4113255]]]}, "properties": {"osm_id": 1085526267, "building": "yes", "name": "", "height": null, "height_m": null, "levels": null, "tract_id": "40009966100", "tract_name": "9661", "tags": {"building": "yes", "shop": "yes"}}}, {"type": "Feature", "geometry": {"type": "Polygon", "coordinates": [[[-99.4047146, 35.4112574], [-99.4047151, 35.4113255], [-99.4042498, 35.4113277], [-99.4042493, 35.4112596], [-99.4047146, 35.4112574]]]}, "properties": {"osm_id": 1085526268, "building": "yes", "name": "", "height": null, "height_m": null, "levels": null, "tract_id": "40009966100", "tract_name": "9661", "tags": {"building": "yes", "shop": "yes"}}}, {"type": "Feature", "geometry": {"type": "Polygon", "coordinates": [[[-99.4047142, 35.4111894], [-99.4047146, 35.4112574], [-99.4042493, 35.4112596], [-99.4042488, 35.4111916], [-99.4047142, 35.4111894]]]}, "properties": {"osm_id": 1085526269, "building": "yes", "name": "", "height": null, "height_m": null, "levels": null, "tract_id": "40009966100", "tract_name": "9661", "tags": {"building": "yes", "shop": "yes"}}}, {"type": "Feature", "geometry": {"type": "Polygon", "coordinates": [[[-99.4047137, 35.4111214], [-99.4047142, 35.4111894], [-99.4042488, 35.4111916], [-99.4042483, 35.4111235], [-99.4047137, 35.4111214]]]}, "properties": {"osm_id": 1085526270, "building": "yes", "name": "", "height": null, "height_m": null, "levels": null, "tract_id": "40009966100", "tract_name": "9661", "tags": {"building": "yes", "shop": "yes"}}}, {"type": "Feature", "geometry": {"type": "Polygon", "coordinates": [[[-99.4047132, 35.4110533], [-99.4047137, 35.4111214], [-99.4042483, 35.4111235], [-99.4042478, 35.4110555], [-99.4047132, 35.4110533]]]}, "properties": {"osm_id": 1085526271, "building": "yes", "name": "", "height": null, "height_m": null, "levels": null, "tract_id": "40009966100", "tract_name": "9661", "tags": {"building": "yes", "shop": "yes"}}}, {"type": "Feature", "geometry": {"type": "Polygon", "coordinates": [[[-99.4047127, 35.4109853], [-99.4047132, 35.4110533], [-99.4042478, 35.4110555], [-99.4042474, 35.4109875], [-99.4047127, 35.4109853]]]}, "properties": {"osm_id": 1085526272, "building": "yes", "name": "", "height": null, "height_m": null, "levels": null, "tract_id": "40009966100", "tract_name": "9661", "tags": {"building": "yes", "shop": "yes"}}}, {"type": "Feature", "geometry": {"type": "Polygon", "coordinates": [[[-99.4047122, 35.4109172], [-99.4047127, 35.4109853], [-99.4042474, 35.4109875], [-99.4042469, 35.4109194], [-99.4047122, 35.4109172]]]}, "properties": {"osm_id": 1085526273, "building": "yes", "name": "", "height": null, "height_m": null, "levels": null, "tract_id": "40009966100", "tract_name": "9661", "tags": {"building": "yes", "shop": "yes"}}}, {"type": "Feature", "geometry": {"type": "Polygon", "coordinates": [[[-99.4047118, 35.4108492], [-99.4047122, 35.4109172], [-99.4042469, 35.4109194], [-99.4042464, 35.4108514], [-99.4047118, 35.4108492]]]}, "properties": {"osm_id": 1085526274, "building": "yes", "name": "", "height": null, "height_m": null, "levels": null, "tract_id": "40009966100", "tract_name": "9661", "tags": {"building": "yes", "shop": "yes"}}}, {"type": "Feature", "geometry": {"type": "Polygon", "coordinates": [[[-99.4047113, 35.4107811], [-99.4047118, 35.4108492], [-99.4042464, 35.4108514], [-99.4042459, 35.4107833], [-99.4047113, 35.4107811]]]}, "properties": {"osm_id": 1085526275, "building": "yes", "name": "", "height": null, "height_m": null, "levels": null, "tract_id": "40009966100", "tract_name": "9661", "tags": {"building": "yes", "shop": "yes"}}}, {"type": "Feature", "geometry": {"type": "Polygon", "coordinates": [[[-99.4104595, 35.4109986], [-99.4104586, 35.4108816], [-99.4100599, 35.4108836], [-99.4100606, 35.4109744], [-99.4100395, 35.4109745], [-99.4100402, 35.4110582], [-99.4102065, 35.4110573], [-99.4102061, 35.411], [-99.4104595, 35.4109986]]]}, "properties": {"osm_id": 1101364070, "building": "yes", "name": "", "height": null, "height_m": null, "levels": null, "tract_id": "40009966100", "tract_name": "9661", "tags": {"addr:city": "Elk City", "addr:housenumber": "515", "addr:postcode": "73644", "addr:state": "OK", "addr:street": "West Broadway Avenue", "building": "yes", "telecom": "exchange"}}}, {"type": "Feature", "geometry": {"type": "Polygon", "coordinates": [[[-99.3660758, 35.4228828], [-99.3660776, 35.4227077], [-99.3659678, 35.422707], [-99.3659672, 35.4227655], [-99.3658922, 35.422765], [-99.3658911, 35.4228816], [-99.3660758, 35.4228828]]]}, "properties": {"osm_id": 1121047326, "building": "yes", "name": "", "height": null, "height_m": null, "levels": null, "tract_id": "40009966100", "tract_name": "9661", "tags": {"building": "yes"}}}, {"type": "Feature", "geometry": {"type": "Polygon", "coordinates": [[[-99.3666201, 35.4228877], [-99.3666156, 35.4230026], [-99.3665554, 35.4230011], [-99.3665516, 35.423101], [-99.3664451, 35.4230983], [-99.366446, 35.4230746], [-99.3663134, 35.4230713], [-99.366315, 35.4230295], [-99.3662096, 35.4230268], [-99.3662133, 35.4229305], [-99.3664506, 35.4229366], [-99.3664526, 35.4228834], [-99.3666201, 35.4228877]]]}, "properties": {"osm_id": 1121047327, "building": "yes", "name": "", "height": null, "height_m": null, "levels": null, "tract_id": "40009966100", "tract_name": "9661", "tags": {"building": "yes"}}}, {"type": "Feature", "geometry": {"type": "Polygon", "coordinates": [[[-99.3669099, 35.4230923], [-99.3669119, 35.4229803], [-99.3667812, 35.4229787], [-99.3667791, 35.4230907], [-99.3669099, 35.4230923]]]}, "properties": {"osm_id": 1121047328, "building": "yes", "name": "", "height": null, "height_m": null, "levels": null, "tract_id": "40009966100", "tract_name": "9661", "tags": {"building": "yes"}}}, {"type": "Feature", "geometry": {"type": "Polygon", "coordinates": [[[-99.3683138, 35.4226364], [-99.3683739, 35.4226876], [-99.368416, 35.4226548], [-99.3684338, 35.4226701], [-99.3684502, 35.4226574], [-99.3685071, 35.4227059], [-99.3684965, 35.4227142], [-99.3685281, 35.4227411], [-99.3684487, 35.422803], [-99.3684756, 35.4228259], [-99.3684031, 35.4228824], [-99.3683448, 35.4228327], [-99.3683554, 35.4228244], [-99.3682783, 35.4227588], [-99.3683146, 35.4227305], [-99.3682566, 35.422681], [-99.3683138, 35.4226364]]]}, "properties": {"osm_id": 1121047338, "building": "yes", "name": "", "height": null, "height_m": null, "levels": null, "tract_id": "40009966100", "tract_name": "9661", "tags": {"building": "yes"}}}, {"type": "Feature", "geometry": {"type": "Polygon", "coordinates": [[[-99.3904308, 35.420751], [-99.3904308, 35.4211353], [-99.3897031, 35.421137], [-99.3897051, 35.420746], [-99.3904308, 35.420751]]]}, "properties": {"osm_id": 1186640053, "building": "yes", "name": "Elk City Convention Center", "height": null, "height_m": null, "levels": null, "tract_id": "40009966100", "tract_name": "9661", "tags": {"addr:city": "Elk City", "addr:housenumber": "1016", "addr:postcode": "73644", "addr:state": "OK", "addr:street": "Airport Industrial", "amenity": "conference_centre", "building": "yes", "name": "Elk City Convention Center"}}}, {"type": "Feature", "geometry": {"type": "Polygon", "coordinates": [[[-99.3808068, 35.413012], [-99.380663, 35.4129074], [-99.3807191, 35.4128561], [-99.3806356, 35.4127954], [-99.3811944, 35.4122848], [-99.3813712, 35.4124133], [-99.3809476, 35.4128003], [-99.3809982, 35.4128371], [-99.3808068, 35.413012]]]}, "properties": {"osm_id": 1206803108, "building": "yes", "name": "Holiday Inn Express & Suites", "height": null, "height_m": null, "levels": null, "tract_id": "40009966100", "tract_name": "9661", "tags": {"brand": "Holiday Inn Express & Suites", "brand:wikidata": "Q5880423", "building": "yes", "name": "Holiday Inn Express & Suites", "tourism": "hotel"}}}, {"type": "Feature", "geometry": {"type": "Polygon", "coordinates": [[[-99.4050839, 35.3910948], [-99.4048647, 35.3911637], [-99.4048144, 35.39105], [-99.4049934, 35.3909937], [-99.4049981, 35.391003], [-99.4050343, 35.3909926], [-99.4050839, 35.3910948]]]}, "properties": {"osm_id": 1230264915, "building": "yes", "name": "Arby's", "height": null, "height_m": null, "levels": null, "tract_id": "40009966100", "tract_name": "9661", "tags": {"addr:city": "Elk City", "addr:housenumber": "2105", "addr:postcode": "73644", "addr:state": "OK", "addr:street": "South Main Street", "amenity": "fast_food", "brand": "Arby's", "brand:wikidata": "Q630866", "building": "yes", "check_date": "2024-06-21", "cuisine": "sandwich", "name": "Arby's", "opening_hours": "Mo-Sa 10:00-23:00; Su 10:00-22:30", "phone": "+1 580-225-6303", "takeaway": "yes", "website": "https://www.arbys.com/locations/us/ok/elk-city/2105-s-main-st/store-6050/"}}}, {"type": "Feature", "geometry": {"type": "Polygon", "coordinates": [[[-99.4057141, 35.3925994], [-99.4057131, 35.39249], [-99.4056567, 35.39249], [-99.4056577, 35.3924598], [-99.4054712, 35.3924623], [-99.4054732, 35.3924958], [-99.4053965, 35.3924971], [-99.405397, 35.3925994], [-99.4057141, 35.3925994]]]}, "properties": {"osm_id": 1230265046, "building": "yes", "name": "McDonald's", "height": null, "height_m": null, "levels": null, "tract_id": "40009966100", "tract_name": "9661", "tags": {"amenity": "fast_food", "brand": "McDonald's", "brand:wikidata": "Q38076", "building": "yes", "cuisine": "burger", "name": "McDonald's", "takeaway": "yes", "website": "https://www.mcdonalds.com/us/en-us/location/ok/elk-city/2009-s-main-st/6696.html"}}}, {"type": "Feature", "geometry": {"type": "Polygon", "coordinates": [[[-99.3999203, 35.4180945], [-99.4001803, 35.4180934], [-99.4001795, 35.4179801], [-99.3999203, 35.4179813], [-99.3999206, 35.4180241], [-99.3998999, 35.4180242], [-99.3999001, 35.4180526], [-99.39992, 35.4180525], [-99.3999203, 35.4180945]]]}, "properties": {"osm_id": 1233500112, "building": "industrial", "name": "", "height": null, "height_m": null, "levels": null, "tract_id": "40009966100", "tract_name": "9661", "tags": {"building": "industrial", "shop": "yes"}}}, {"type": "Feature", "geometry": {"type": "Polygon", "coordinates": [[[-99.4023185, 35.409568], [-99.4023583, 35.4096243], [-99.4023389, 35.4096334], [-99.4023638, 35.4096687], [-99.4023832, 35.4096596], [-99.4024191, 35.4097105], [-99.4025065, 35.4096695], [-99.4025096, 35.4096739], [-99.402536, 35.4096615], [-99.4025328, 35.4096569], [-99.4029919, 35.4094409], [-99.40296, 35.4093958], [-99.4029817, 35.4093856], [-99.4029465, 35.4093359], [-99.4029227, 35.409347], [-99.4028895, 35.4093], [-99.4023185, 35.409568]]]}, "properties": {"osm_id": 1233500116, "building": "yes", "name": "", "height": null, "height_m": null, "levels": null, "tract_id": "40009966100", "tract_name": "9661", "tags": {"building": "yes"}}}, {"type": "Feature", "geometry": {"type": "Polygon", "coordinates": [[[-99.368073, 35.4059314], [-99.3682002, 35.4059313], [-99.3682, 35.4058176], [-99.3680281, 35.4058177], [-99.3680281, 35.4057888], [-99.3679081, 35.4057889], [-99.3679082, 35.4058184], [-99.3678311, 35.4058185], [-99.3678313, 35.405953], [-99.367893, 35.405953], [-99.3678931, 35.4059737], [-99.3679578, 35.4059737], [-99.3679578, 35.4059545], [-99.368073, 35.4059544], [-99.368073, 35.4059314]]]}, "properties": {"osm_id": 1233500117, "building": "house", "name": "", "height": null, "height_m": null, "levels": null, "tract_id": "40009966100", "tract_name": "9661", "tags": {"building": "house"}}}, {"type": "Feature", "geometry": {"type": "Polygon", "coordinates": [[[-99.400561, 35.4122901], [-99.4008246, 35.4122868], [-99.4008287, 35.4125054], [-99.4005651, 35.4125087], [-99.400561, 35.4122901]]]}, "properties": {"osm_id": 1235820353, "building": "yes", "name": "", "height": null, "height_m": null, "levels": null, "tract_id": "40009966100", "tract_name": "9661", "tags": {"building": "yes"}}}, {"type": "Feature", "geometry": {"type": "Polygon", "coordinates": [[[-99.4003684, 35.412642], [-99.4005245, 35.4126429], [-99.4005262, 35.4124534], [-99.4003701, 35.4124524], [-99.4003684, 35.412642]]]}, "properties": {"osm_id": 1235820354, "building": "yes", "name": "", "height": null, "height_m": null, "levels": null, "tract_id": "40009966100", "tract_name": "9661", "tags": {"building": "yes"}}}, {"type": "Feature", "geometry": {"type": "Polygon", "coordinates": [[[-99.4167487, 35.4121917], [-99.4165083, 35.4121955], [-99.4165049, 35.4120552], [-99.4167453, 35.4120514], [-99.4167487, 35.4121917]]]}, "properties": {"osm_id": 1249350084, "building": "retail", "name": "Verizon", "height": null, "height_m": null, "levels": null, "tract_id": "40009966100", "tract_name": "9661", "tags": {"alt_name": "Verizon Wireless", "brand": "Verizon", "brand:wikidata": "Q919641", "building": "retail", "name": "Verizon", "shop": "mobile_phone"}}}, {"type": "Feature", "geometry": {"type": "Polygon", "coordinates": [[[-99.4169891, 35.4121879], [-99.4167487, 35.4121917], [-99.4167453, 35.4120514], [-99.4169857, 35.4120475], [-99.4169891, 35.4121879]]]}, "properties": {"osm_id": 1249350085, "building": "retail", "name": "", "height": null, "height_m": null, "levels": null, "tract_id": "40009966100", "tract_name": "9661", "tags": {"building": "retail", "shop": "vacant"}}}, {"type": "Feature", "geometry": {"type": "Polygon", "coordinates": [[[-99.415888, 35.411913], [-99.4158042, 35.4119135], [-99.4158035, 35.411842], [-99.4158873, 35.4118414], [-99.415888, 35.411913]]]}, "properties": {"osm_id": 1249350089, "building": "roof", "name": "", "height": null, "height_m": null, "levels": null, "tract_id": "40009966100", "tract_name": "9661", "tags": {"building": "roof"}}}, {"type": "Feature", "geometry": {"type": "Polygon", "coordinates": [[[-99.4162072, 35.4121644], [-99.4160321, 35.4121671], [-99.4160281, 35.4119949], [-99.4162032, 35.4119922], [-99.4162072, 35.4121644]]]}, "properties": {"osm_id": 1249350090, "building": "retail", "name": "Love's", "height": null, "height_m": null, "levels": null, "tract_id": "40009966100", "tract_name": "9661", "tags": {"addr:housenumber": "1001", "addr:street": "West 3rd Street", "brand": "Love's", "brand:wikidata": "Q1872496", "building": "retail", "name": "Love's", "shop": "convenience"}}}, {"type": "Feature", "geometry": {"type": "Polygon", "coordinates": [[[-99.4152537, 35.411908], [-99.415532, 35.4119075], [-99.4155325, 35.4120917], [-99.4155587, 35.4120916], [-99.4155588, 35.4121316], [-99.4155481, 35.4121316], [-99.4155482, 35.4121511], [-99.4155327, 35.4121512], [-99.4154917, 35.412154], [-99.4154635, 35.4120982], [-99.4154635, 35.4120954], [-99.4154126, 35.4120955], [-99.4154126, 35.4120919], [-99.4152319, 35.4120922], [-99.4152318, 35.4120589], [-99.4152135, 35.4120589], [-99.4152133, 35.4119759], [-99.4152539, 35.4119758], [-99.4152537, 35.411908]]]}, "properties": {"osm_id": 1249350091, "building": "yes", "name": "Legacy Bank", "height": null, "height_m": null, "levels": null, "tract_id": "40009966100", "tract_name": "9661", "tags": {"amenity": "bank", "building": "yes", "name": "Legacy Bank"}}}, {"type": "Feature", "geometry": {"type": "Polygon", "coordinates": [[[-99.4136846, 35.4114823], [-99.4134928, 35.411484], [-99.4134917, 35.4113933], [-99.4136834, 35.4113917], [-99.4136846, 35.4114823]]]}, "properties": {"osm_id": 1249350093, "building": "yes", "name": "", "height": null, "height_m": null, "levels": null, "tract_id": "40009966100", "tract_name": "9661", "tags": {"building": "yes", "shop": "yes"}}}, {"type": "Feature", "geometry": {"type": "Polygon", "coordinates": [[[-99.4141017, 35.4114905], [-99.4139448, 35.4114889], [-99.4139475, 35.4113173], [-99.4141044, 35.4113189], [-99.4141017, 35.4114905]]]}, "properties": {"osm_id": 1249350094, "building": "yes", "name": "", "height": null, "height_m": null, "levels": null, "tract_id": "40009966100", "tract_name": "9661", "tags": {"building": "yes", "shop": "yes"}}}, {"type": "Feature", "geometry": {"type": "Polygon", "coordinates": [[[-99.4141252, 35.4115222], [-99.4141245, 35.4112287], [-99.4143028, 35.4112285], [-99.4143035, 35.4115219], [-99.4141252, 35.4115222]]]}, "properties": {"osm_id": 1249350095, "building": "yes", "name": "Ladonna's Wine & Spirits", "height": null, "height_m": null, "levels": null, "tract_id": "40009966100", "tract_name": "9661", "tags": {"building": "yes", "name": "Ladonna's Wine & Spirits", "shop": "alcohol"}}}, {"type": "Feature", "geometry": {"type": "Polygon", "coordinates": [[[-99.4138482, 35.4114861], [-99.4137623, 35.4114858], [-99.4137637, 35.4112574], [-99.4138496, 35.4112577], [-99.4138482, 35.4114861]]]}, "properties": {"osm_id": 1249350096, "building": "yes", "name": "State Farm", "height": null, "height_m": null, "levels": null, "tract_id": "40009966100", "tract_name": "9661", "tags": {"brand": "State Farm", "brand:wikidata": "Q2007336", "building": "yes", "name": "State Farm", "office": "insurance"}}}, {"type": "Feature", "geometry": {"type": "Polygon", "coordinates": [[[-99.4128826, 35.4115856], [-99.4128826, 35.4112522], [-99.4132058, 35.4112522], [-99.4132058, 35.4115856], [-99.4128826, 35.4115856]]]}, "properties": {"osm_id": 1249350097, "building": "yes", "name": "NAPA Auto Parts", "height": null, "height_m": null, "levels": null, "tract_id": "40009966100", "tract_name": "9661", "tags": {"brand": "NAPA Auto Parts", "brand:wikidata": "Q6970842", "building": "yes", "name": "NAPA Auto Parts", "shop": "car_parts"}}}, {"type": "Feature", "geometry": {"type": "Polygon", "coordinates": [[[-99.4143364, 35.4122228], [-99.4139126, 35.4122228], [-99.4139126, 35.4120064], [-99.4142506, 35.4120064], [-99.4142506, 35.4121409], [-99.4143364, 35.4121409], [-99.4143364, 35.4122228]]]}, "properties": {"osm_id": 1249350098, "building": "yes", "name": "H&H Electronics", "height": null, "height_m": null, "levels": null, "tract_id": "40009966100", "tract_name": "9661", "tags": {"building": "yes", "name": "H&H Electronics", "shop": "electronics"}}}, {"type": "Feature", "geometry": {"type": "Polygon", "coordinates": [[[-99.4138402, 35.4122152], [-99.4137906, 35.4122156], [-99.4137866, 35.4118986], [-99.4138362, 35.4118982], [-99.4138402, 35.4122152]]]}, "properties": {"osm_id": 1249350099, "building": "yes", "name": "", "height": null, "height_m": null, "levels": null, "tract_id": "40009966100", "tract_name": "9661", "tags": {"building": "yes"}}}, {"type": "Feature", "geometry": {"type": "Polygon", "coordinates": [[[-99.4136477, 35.4121485], [-99.4135346, 35.4121495], [-99.4135317, 35.411931], [-99.4136448, 35.41193], [-99.4136477, 35.4121485]]]}, "properties": {"osm_id": 1249350100, "building": "yes", "name": "Sonic", "height": null, "height_m": null, "levels": null, "tract_id": "40009966100", "tract_name": "9661", "tags": {"addr:city": "Elk City", "addr:housenumber": "801", "addr:postcode": "73644", "addr:state": "OK", "addr:street": "West Third Street", "amenity": "fast_food", "brand": "Sonic", "brand:wikidata": "Q7561808", "building": "yes", "cuisine": "burger", "drive_in": "yes", "name": "Sonic", "opening_hours": "Mo-Sa 06:00-23:00; Su 07:00-23:00", "phone": "+1 580-225-2432", "takeaway": "yes", "website": "https://locations.sonicdrivein.com/ok/elkcity/801-w.-third-street.html"}}}, {"type": "Feature", "geometry": {"type": "Polygon", "coordinates": [[[-99.4131783, 35.4119785], [-99.4129933, 35.4119802], [-99.4129916, 35.4118551], [-99.4131283, 35.4118539], [-99.413129, 35.4119101], [-99.4131774, 35.4119097], [-99.4131783, 35.4119785]]]}, "properties": {"osm_id": 1249350101, "building": "yes", "name": "Zybach & Fairchild CPAs", "height": null, "height_m": null, "levels": null, "tract_id": "40009966100", "tract_name": "9661", "tags": {"building": "yes", "name": "Zybach & Fairchild CPAs", "office": "accountant"}}}, {"type": "Feature", "geometry": {"type": "Polygon", "coordinates": [[[-99.4115429, 35.4118862], [-99.4117682, 35.4118873], [-99.4117676, 35.4119617], [-99.4115423, 35.4119606], [-99.4115429, 35.4118862]]]}, "properties": {"osm_id": 1249350102, "building": "yes", "name": "", "height": null, "height_m": null, "levels": null, "tract_id": "40009966100", "tract_name": "9661", "tags": {"building": "yes", "shop": "hairdresser"}}}, {"type": "Feature", "geometry": {"type": "Polygon", "coordinates": [[[-99.4117856, 35.4121168], [-99.4117856, 35.4119561], [-99.4119492, 35.4119561], [-99.4119492, 35.4121168], [-99.4117856, 35.4121168]]]}, "properties": {"osm_id": 1249350103, "building": "yes", "name": "", "height": null, "height_m": null, "levels": null, "tract_id": "40009966100", "tract_name": "9661", "tags": {"amenity": "cafe", "building": "yes"}}}, {"type": "Feature", "geometry": {"type": "Polygon", "coordinates": [[[-99.411343, 35.4122152], [-99.4110823, 35.4122143], [-99.411083, 35.4120782], [-99.4111855, 35.4120786], [-99.4111861, 35.4119436], [-99.4113444, 35.4119441], [-99.411343, 35.4122152]]]}, "properties": {"osm_id": 1249350104, "building": "yes", "name": "100.7 FM Catholic Radio", "height": null, "height_m": null, "levels": null, "tract_id": "40009966100", "tract_name": "9661", "tags": {"amenity": "studio", "building": "yes", "name": "100.7 FM Catholic Radio"}}}, {"type": "Feature", "geometry": {"type": "Polygon", "coordinates": [[[-99.4106825, 35.4120633], [-99.4106812, 35.4118687], [-99.4108093, 35.4118681], [-99.4108095, 35.4118982], [-99.4108279, 35.4118981], [-99.410829, 35.4120626], [-99.4106825, 35.4120633]]]}, "properties": {"osm_id": 1249350106, "building": "yes", "name": "United Country Wilson Realty", "height": null, "height_m": null, "levels": null, "tract_id": "40009966100", "tract_name": "9661", "tags": {"building": "yes", "name": "United Country Wilson Realty", "office": "estate_agent"}}}, {"type": "Feature", "geometry": {"type": "Polygon", "coordinates": [[[-99.4103361, 35.4120611], [-99.4102731, 35.4120616], [-99.4102721, 35.4119933], [-99.4102125, 35.4119938], [-99.4102103, 35.4118338], [-99.4103331, 35.4118327], [-99.4103361, 35.4120611]]]}, "properties": {"osm_id": 1249350107, "building": "yes", "name": "", "height": null, "height_m": null, "levels": null, "tract_id": "40009966100", "tract_name": "9661", "tags": {"building": "yes", "tourism": "gallery"}}}, {"type": "Feature", "geometry": {"type": "Polygon", "coordinates": [[[-99.410069, 35.4120537], [-99.4100656, 35.4118886], [-99.4101767, 35.4118871], [-99.410179, 35.4119992], [-99.4101492, 35.4119996], [-99.4101503, 35.4120526], [-99.410069, 35.4120537]]]}, "properties": {"osm_id": 1249350108, "building": "yes", "name": "RE/MAX", "height": null, "height_m": null, "levels": null, "tract_id": "40009966100", "tract_name": "9661", "tags": {"brand": "RE/MAX", "brand:wikidata": "Q965845", "building": "yes", "name": "RE/MAX", "office": "estate_agent"}}}, {"type": "Feature", "geometry": {"type": "Polygon", "coordinates": [[[-99.410017, 35.4121324], [-99.4098963, 35.4121313], [-99.409898, 35.4120124], [-99.4100187, 35.4120135], [-99.410017, 35.4121324]]]}, "properties": {"osm_id": 1249350109, "building": "yes", "name": "Farm Bureau Financial Services", "height": null, "height_m": null, "levels": null, "tract_id": "40009966100", "tract_name": "9661", "tags": {"brand": "Farm Bureau Financial Services", "brand:wikidata": "Q121587731", "building": "yes", "name": "Farm Bureau Financial Services", "office": "insurance"}}}, {"type": "Feature", "geometry": {"type": "Polygon", "coordinates": [[[-99.4096231, 35.4121594], [-99.4093488, 35.41216], [-99.4093483, 35.4119993], [-99.4096369, 35.4119987], [-99.4096372, 35.4121058], [-99.4096229, 35.4121059], [-99.4096231, 35.4121594]]]}, "properties": {"osm_id": 1249350110, "building": "yes", "name": "Xpress Wellness", "height": null, "height_m": null, "levels": null, "tract_id": "40009966100", "tract_name": "9661", "tags": {"amenity": "clinic", "building": "yes", "name": "Xpress Wellness"}}}, {"type": "Feature", "geometry": {"type": "Polygon", "coordinates": [[[-99.4088707, 35.4120168], [-99.4087493, 35.4120173], [-99.4087487, 35.4118965], [-99.40887, 35.411896], [-99.4088707, 35.4120168]]]}, "properties": {"osm_id": 1249350111, "building": "yes", "name": "Progressive", "height": null, "height_m": null, "levels": null, "tract_id": "40009966100", "tract_name": "9661", "tags": {"brand": "Progressive", "brand:wikidata": "Q7248721", "building": "yes", "name": "Progressive", "office": "insurance"}}}, {"type": "Feature", "geometry": {"type": "Polygon", "coordinates": [[[-99.4059733, 35.4124469], [-99.4056447, 35.4124469], [-99.4056447, 35.4120698], [-99.405693, 35.4120305], [-99.4059733, 35.4120305], [-99.4059733, 35.4124469]]]}, "properties": {"osm_id": 1249350126, "building": "retail", "name": "Walgreens", "height": null, "height_m": null, "levels": null, "tract_id": "40009966100", "tract_name": "9661", "tags": {"amenity": "pharmacy", "brand": "Walgreens", "brand:wikidata": "Q1591889", "building": "retail", "healthcare": "pharmacy", "name": "Walgreens", "website": "https://www.walgreens.com/locator/walgreens-115+w+3rd+st-elk+city-ok-73644/id=9874"}}}, {"type": "Feature", "geometry": {"type": "Polygon", "coordinates": [[[-99.4037846, 35.4121857], [-99.4037839, 35.4120327], [-99.4039099, 35.4120323], [-99.4039106, 35.4121853], [-99.4037846, 35.4121857]]]}, "properties": {"osm_id": 1249350129, "building": "yes", "name": "Parker Drilling Rig 114", "height": 54.864000000000004, "height_m": 54.864000000000004, "levels": null, "tract_id": "40009966100", "tract_name": "9661", "tags": {"addr:city": "Elk City", "addr:country": "US", "addr:housenumber": "107", "addr:state": "OK", "addr:street": "East 3rd Street", "building": "yes", "height": "180'", "man_made": "tower", "name": "Parker Drilling Rig 114", "tourism": "attraction", "tower:type": "oil_drilling_rig", "website": "https://visitelkcity.com/places/parker-driller-rig/"}}}, {"type": "Feature", "geometry": {"type": "Polygon", "coordinates": [[[-99.4017313, 35.4111429], [-99.4017341, 35.4113762], [-99.4013238, 35.4113795], [-99.401321, 35.4111462], [-99.4017313, 35.4111429]]]}, "properties": {"osm_id": 1249350130, "building": "yes", "name": "", "height": null, "height_m": null, "levels": null, "tract_id": "40009966100", "tract_name": "9661", "tags": {"building": "yes", "shop": "yes"}}}, {"type": "Feature", "geometry": {"type": "Polygon", "coordinates": [[[-99.4015811, 35.4120523], [-99.4013746, 35.4120523], [-99.4013746, 35.4119638], [-99.4015811, 35.4119638], [-99.4015811, 35.4120523]]]}, "properties": {"osm_id": 1249350131, "building": "yes", "name": "R & K Superette", "height": null, "height_m": null, "levels": null, "tract_id": "40009966100", "tract_name": "9661", "tags": {"addr:city": "Elk City", "addr:country": "US", "addr:housenumber": "1303", "addr:state": "OK", "addr:street": "East 3rd Street", "brand": "Shell", "brand:wikidata": "Q110716465", "building": "yes", "name": "R & K Superette", "phone": "+1 580 225 1052", "shop": "convenience", "website": "https://find.shell.com/us/fuel/12498040-1303-w-3rd-st/en_US"}}}, {"type": "Feature", "geometry": {"type": "Polygon", "coordinates": [[[-99.4015751, 35.4118856], [-99.4014752, 35.4118856], [-99.4014752, 35.4118222], [-99.4015751, 35.4118222], [-99.4015751, 35.4118856]]]}, "properties": {"osm_id": 1249350140, "building": "roof", "name": "", "height": null, "height_m": null, "levels": null, "tract_id": "40009966100", "tract_name": "9661", "tags": {"building": "roof"}}}, {"type": "Feature", "geometry": {"type": "Polygon", "coordinates": [[[-99.4013384, 35.411943], [-99.4013388, 35.4120059], [-99.401204, 35.4120064], [-99.4012036, 35.4119436], [-99.4013384, 35.411943]]]}, "properties": {"osm_id": 1249350141, "building": "retail", "name": "M&P Liquor", "height": null, "height_m": null, "levels": null, "tract_id": "40009966100", "tract_name": "9661", "tags": {"building": "retail", "name": "M&P Liquor", "shop": "alcohol"}}}, {"type": "Feature", "geometry": {"type": "Polygon", "coordinates": [[[-99.4001757, 35.412859], [-99.4001757, 35.4129502], [-99.4001099, 35.4129502], [-99.4001099, 35.4130032], [-99.4000449, 35.4130032], [-99.4000449, 35.412942], [-99.3999289, 35.412942], [-99.3999289, 35.412859], [-99.4001757, 35.412859]]]}, "properties": {"osm_id": 1249350142, "building": "retail", "name": "", "height": null, "height_m": null, "levels": null, "tract_id": "40009966100", "tract_name": "9661", "tags": {"building": "retail", "roof:shape": "gabled", "shop": "yes"}}}, {"type": "Feature", "geometry": {"type": "Polygon", "coordinates": [[[-99.4002722, 35.4136885], [-99.4001564, 35.4136882], [-99.400157, 35.4135205], [-99.4002729, 35.4135208], [-99.4002722, 35.4136885]]]}, "properties": {"osm_id": 1249350145, "building": "industrial", "name": "", "height": null, "height_m": null, "levels": null, "tract_id": "40009966100", "tract_name": "9661", "tags": {"building": "industrial", "shop": "car_repair"}}}, {"type": "Feature", "geometry": {"type": "Polygon", "coordinates": [[[-99.400055, 35.4154756], [-99.3999742, 35.4154756], [-99.3999735, 35.4150876], [-99.4000543, 35.4150876], [-99.400055, 35.4154756]]]}, "properties": {"osm_id": 1249350146, "building": "industrial", "name": "", "height": null, "height_m": null, "levels": null, "tract_id": "40009966100", "tract_name": "9661", "tags": {"amenity": "car_wash", "automated": "no", "building": "industrial", "self_service": "only"}}}, {"type": "Feature", "geometry": {"type": "Polygon", "coordinates": [[[-99.3998739, 35.414952], [-99.400291, 35.4149542], [-99.40029, 35.4150856], [-99.3998729, 35.4150834], [-99.3998739, 35.414952]]]}, "properties": {"osm_id": 1249350147, "building": "commercial", "name": "", "height": null, "height_m": null, "levels": null, "tract_id": "40009966100", "tract_name": "9661", "tags": {"building": "commercial", "shop": "trade", "trade": "windows"}}}, {"type": "Feature", "geometry": {"type": "Polygon", "coordinates": [[[-99.40001, 35.4167937], [-99.4002796, 35.4167898], [-99.4002834, 35.4169669], [-99.4000256, 35.4169706], [-99.4000242, 35.4169053], [-99.4000124, 35.4169055], [-99.40001, 35.4167937]]]}, "properties": {"osm_id": 1249350148, "building": "yes", "name": "Kawasaki", "height": null, "height_m": null, "levels": null, "tract_id": "40009966100", "tract_name": "9661", "tags": {"brand": "Kawasaki", "brand:wikidata": "Q6379855", "building": "yes", "name": "Kawasaki", "shop": "motorcycle"}}}, {"type": "Feature", "geometry": {"type": "Polygon", "coordinates": [[[-99.4003648, 35.418632], [-99.4000161, 35.4186363], [-99.4000133, 35.4184919], [-99.400362, 35.4184875], [-99.4003648, 35.418632]]]}, "properties": {"osm_id": 1249350149, "building": "industrial", "name": "", "height": null, "height_m": null, "levels": null, "tract_id": "40009966100", "tract_name": "9661", "tags": {"building": "industrial", "shop": "yes"}}}, {"type": "Feature", "geometry": {"type": "Polygon", "coordinates": [[[-99.4000389, 35.4193598], [-99.400527, 35.4193598], [-99.400527, 35.4192823], [-99.4009079, 35.4192823], [-99.4009079, 35.4193588], [-99.4006142, 35.4193588], [-99.4006142, 35.4196243], [-99.4005243, 35.4196243], [-99.4005243, 35.4195019], [-99.4000389, 35.4195019], [-99.4000389, 35.4193598]]]}, "properties": {"osm_id": 1249350150, "building": "industrial", "name": "", "height": null, "height_m": null, "levels": null, "tract_id": "40009966100", "tract_name": "9661", "tags": {"building": "industrial", "shop": "motorcycle"}}}, {"type": "Feature", "geometry": {"type": "Polygon", "coordinates": [[[-99.4001287, 35.41995], [-99.3998578, 35.4199511], [-99.3998568, 35.4197817], [-99.4001277, 35.4197806], [-99.4001287, 35.41995]]]}, "properties": {"osm_id": 1249350151, "building": "retail", "name": "Western Pawn", "height": null, "height_m": null, "levels": null, "tract_id": "40009966100", "tract_name": "9661", "tags": {"building": "retail", "check_date": "2016-10-05", "name": "Western Pawn", "shop": "pawnbroker"}}}, {"type": "Feature", "geometry": {"type": "Polygon", "coordinates": [[[-99.3967243, 35.4210697], [-99.3966499, 35.4210693], [-99.3966506, 35.4209819], [-99.396725, 35.4209823], [-99.3967243, 35.4210697]]]}, "properties": {"osm_id": 1249350154, "building": "service", "name": "", "height": null, "height_m": null, "levels": null, "tract_id": "40009966100", "tract_name": "9661", "tags": {"amenity": "car_wash", "building": "service"}}}, {"type": "Feature", "geometry": {"type": "Polygon", "coordinates": [[[-99.3967478, 35.4206986], [-99.3969838, 35.4206993], [-99.3969832, 35.4208429], [-99.3970257, 35.420843], [-99.397025, 35.4210004], [-99.3969825, 35.4210003], [-99.3969821, 35.4210866], [-99.3970472, 35.4210868], [-99.3970462, 35.4213017], [-99.3967352, 35.4213008], [-99.3967359, 35.42115], [-99.3967458, 35.42115], [-99.3967478, 35.4206986]]]}, "properties": {"osm_id": 1249350155, "building": "retail", "name": "", "height": null, "height_m": null, "levels": null, "tract_id": "40009966100", "tract_name": "9661", "tags": {"building": "retail", "shop": "car"}}}, {"type": "Feature", "geometry": {"type": "Polygon", "coordinates": [[[-99.3959753, 35.4208145], [-99.396214, 35.4208158], [-99.3962118, 35.4210812], [-99.3962304, 35.4210813], [-99.3962286, 35.4212913], [-99.3959591, 35.4212898], [-99.3959608, 35.4210822], [-99.3959731, 35.4210823], [-99.3959753, 35.4208145]]]}, "properties": {"osm_id": 1249350156, "building": "retail", "name": "", "height": null, "height_m": null, "levels": null, "tract_id": "40009966100", "tract_name": "9661", "tags": {"building": "retail", "shop": "car"}}}, {"type": "Feature", "geometry": {"type": "Polygon", "coordinates": [[[-99.3952297, 35.4212932], [-99.395231, 35.4208243], [-99.3954094, 35.4208247], [-99.3954095, 35.4207817], [-99.3955017, 35.4207819], [-99.3955009, 35.4210374], [-99.3955879, 35.4210376], [-99.3955875, 35.4211928], [-99.3954875, 35.4211926], [-99.3954872, 35.4212937], [-99.3952297, 35.4212932]]]}, "properties": {"osm_id": 1249350157, "building": "retail", "name": "", "height": null, "height_m": null, "levels": null, "tract_id": "40009966100", "tract_name": "9661", "tags": {"building": "retail", "shop": "car"}}}, {"type": "Feature", "geometry": {"type": "Polygon", "coordinates": [[[-99.3824784, 35.42135], [-99.3823295, 35.4213492], [-99.3823309, 35.4211755], [-99.3824798, 35.4211762], [-99.3824784, 35.42135]]]}, "properties": {"osm_id": 1249350161, "building": "yes", "name": "", "height": null, "height_m": null, "levels": null, "tract_id": "40009966100", "tract_name": "9661", "tags": {"building": "yes", "shop": "convenience"}}}, {"type": "Feature", "geometry": {"type": "Polygon", "coordinates": [[[-99.3929424, 35.4212642], [-99.3927594, 35.4212633], [-99.3927608, 35.4210786], [-99.3929438, 35.4210795], [-99.3929424, 35.4212642]]]}, "properties": {"osm_id": 1249350164, "building": "yes", "name": "", "height": null, "height_m": null, "levels": null, "tract_id": "40009966100", "tract_name": "9661", "tags": {"building": "yes"}}}, {"type": "Feature", "geometry": {"type": "Polygon", "coordinates": [[[-99.3724464, 35.4211888], [-99.3723663, 35.4211892], [-99.3723667, 35.4212398], [-99.3722731, 35.4212403], [-99.3722727, 35.4211905], [-99.3722295, 35.4211907], [-99.3722277, 35.4209943], [-99.3724407, 35.4209931], [-99.3724464, 35.4211888]]]}, "properties": {"osm_id": 1249350185, "building": "retail", "name": "Roma's Italian Restaurant", "height": null, "height_m": null, "levels": null, "tract_id": "40009966100", "tract_name": "9661", "tags": {"addr:city": "Elk City", "addr:housenumber": "2700", "addr:postcode": "73644", "addr:state": "OK", "addr:street": "E State Hwy 66", "amenity": "restaurant", "building": "retail", "cuisine": "italian", "name": "Roma's Italian Restaurant", "phone": "+1-580-225-8881", "website": "https://www.facebook.com/RomasElkCity/"}}}, {"type": "Feature", "geometry": {"type": "Polygon", "coordinates": [[[-99.3749763, 35.4224014], [-99.3748613, 35.4223991], [-99.3748644, 35.4222912], [-99.3748442, 35.4222909], [-99.3748478, 35.4221671], [-99.374983, 35.4221697], [-99.3749763, 35.4224014]]]}, "properties": {"osm_id": 1249350187, "building": "yes", "name": "HB Window Tinting", "height": null, "height_m": null, "levels": null, "tract_id": "40009966100", "tract_name": "9661", "tags": {"addr:city": "Elk City", "addr:housenumber": "2615", "addr:postcode": "73644", "addr:state": "OK", "addr:street": "East Highway 66", "building": "yes", "check_date": "2024-11-23", "contact:facebook": "https://www.facebook.com/hayesistinting/", "name": "HB Window Tinting", "phone": "+1-580-340-2684", "shop": "window_tinting"}}}, {"type": "Feature", "geometry": {"type": "Polygon", "coordinates": [[[-99.3745646, 35.4221729], [-99.3745617, 35.4222674], [-99.3744942, 35.422266], [-99.3744935, 35.4222908], [-99.3743881, 35.4222887], [-99.3743891, 35.4222576], [-99.3742897, 35.4222556], [-99.3742923, 35.4221675], [-99.3745646, 35.4221729]]]}, "properties": {"osm_id": 1249350189, "building": "retail", "name": "", "height": null, "height_m": null, "levels": null, "tract_id": "40009966100", "tract_name": "9661", "tags": {"addr:city": "Elk City", "addr:housenumber": "2609", "addr:postcode": "73644", "addr:state": "OK", "addr:street": "East Highway 66", "building": "retail", "check_date": "2024-11-23", "shop": "vacant"}}}, {"type": "Feature", "geometry": {"type": "Polygon", "coordinates": [[[-99.4082643, 35.4294161], [-99.4079213, 35.4294197], [-99.4079177, 35.4291982], [-99.4082608, 35.4291946], [-99.4082643, 35.4294161]]]}, "properties": {"osm_id": 1274554637, "building": "yes", "name": "", "height": null, "height_m": null, "levels": null, "tract_id": "40009966100", "tract_name": "9661", "tags": {"building": "yes"}}}, {"type": "Feature", "geometry": {"type": "Polygon", "coordinates": [[[-99.3721946, 35.4229366], [-99.3721237, 35.4229408], [-99.3718877, 35.4228848], [-99.3718869, 35.4228003], [-99.37212, 35.4228551], [-99.3722011, 35.4228533], [-99.3722028, 35.4229324], [-99.3721946, 35.4229366]]]}, "properties": {"osm_id": 1274554638, "building": "roof", "name": "", "height": null, "height_m": null, "levels": null, "tract_id": "40009966100", "tract_name": "9661", "tags": {"building": "roof", "layer": "1"}}}, {"type": "Feature", "geometry": {"type": "Polygon", "coordinates": [[[-99.4045316, 35.4147518], [-99.4045286, 35.4148337], [-99.404661, 35.414837], [-99.4046641, 35.4147551], [-99.4045316, 35.4147518]]]}, "properties": {"osm_id": 1328413972, "building": "yes", "name": "", "height": null, "height_m": null, "levels": null, "tract_id": "40009966100", "tract_name": "9661", "tags": {"building": "yes", "source": "microsoft/BuildingFootprints"}}}, {"type": "Feature", "geometry": {"type": "Polygon", "coordinates": [[[-99.4051124, 35.4154581], [-99.4052053, 35.4154567], [-99.4052062, 35.4154982], [-99.4052689, 35.4154973], [-99.4052678, 35.4154493], [-99.4052427, 35.4154496], [-99.4052413, 35.4153841], [-99.4051109, 35.415386], [-99.4051124, 35.4154581]]]}, "properties": {"osm_id": 1328413973, "building": "yes", "name": "", "height": null, "height_m": null, "levels": null, "tract_id": "40009966100", "tract_name": "9661", "tags": {"building": "yes", "source": "microsoft/BuildingFootprints"}}}, {"type": "Feature", "geometry": {"type": "Polygon", "coordinates": [[[-99.4039958, 35.4157114], [-99.4039235, 35.4157134], [-99.4039262, 35.4157767], [-99.4039985, 35.4157747], [-99.4039958, 35.4157114]]]}, "properties": {"osm_id": 1328413974, "building": "yes", "name": "", "height": null, "height_m": null, "levels": null, "tract_id": "40009966100", "tract_name": "9661", "tags": {"building": "yes", "source": "microsoft/BuildingFootprints"}}}, {"type": "Feature", "geometry": {"type": "Polygon", "coordinates": [[[-99.4043932, 35.4151145], [-99.4043934, 35.4150293], [-99.4042561, 35.4150292], [-99.4042559, 35.4151143], [-99.4043932, 35.4151145]]]}, "properties": {"osm_id": 1328413975, "building": "yes", "name": "", "height": null, "height_m": null, "levels": null, "tract_id": "40009966100", "tract_name": "9661", "tags": {"building": "yes", "source": "microsoft/BuildingFootprints"}}}, {"type": "Feature", "geometry": {"type": "Polygon", "coordinates": [[[-99.40439, 35.4148629], [-99.4043882, 35.4149219], [-99.404482, 35.4149237], [-99.4044838, 35.4148648], [-99.40439, 35.4148629]]]}, "properties": {"osm_id": 1328413976, "building": "yes", "name": "", "height": null, "height_m": null, "levels": null, "tract_id": "40009966100", "tract_name": "9661", "tags": {"building": "yes", "source": "microsoft/BuildingFootprints"}}}, {"type": "Feature", "geometry": {"type": "Polygon", "coordinates": [[[-99.4046669, 35.4150988], [-99.4044722, 35.4151015], [-99.4044739, 35.4151824], [-99.4046686, 35.4151797], [-99.4046669, 35.4150988]]]}, "properties": {"osm_id": 1328413977, "building": "yes", "name": "", "height": null, "height_m": null, "levels": null, "tract_id": "40009966100", "tract_name": "9661", "tags": {"building": "yes", "source": "microsoft/BuildingFootprints"}}}, {"type": "Feature", "geometry": {"type": "Polygon", "coordinates": [[[-99.4053836, 35.4156824], [-99.4053847, 35.4158091], [-99.4054738, 35.4158086], [-99.4054728, 35.4156819], [-99.4053836, 35.4156824]]]}, "properties": {"osm_id": 1328413978, "building": "yes", "name": "", "height": null, "height_m": null, "levels": null, "tract_id": "40009966100", "tract_name": "9661", "tags": {"building": "yes", "source": "microsoft/BuildingFootprints"}}}, {"type": "Feature", "geometry": {"type": "Polygon", "coordinates": [[[-99.4046657, 35.4152152], [-99.4044801, 35.415217], [-99.4044813, 35.4152985], [-99.404667, 35.4152967], [-99.4046657, 35.4152152]]]}, "properties": {"osm_id": 1328413979, "building": "yes", "name": "", "height": null, "height_m": null, "levels": null, "tract_id": "40009966100", "tract_name": "9661", "tags": {"building": "yes", "source": "microsoft/BuildingFootprints"}}}, {"type": "Feature", "geometry": {"type": "Polygon", "coordinates": [[[-99.4055322, 35.415376], [-99.4053607, 35.4153721], [-99.4053576, 35.4154639], [-99.4054772, 35.4154666], [-99.4054789, 35.4154155], [-99.4055309, 35.4154166], [-99.4055322, 35.415376]]]}, "properties": {"osm_id": 1328413980, "building": "yes", "name": "", "height": null, "height_m": null, "levels": null, "tract_id": "40009966100", "tract_name": "9661", "tags": {"building": "yes", "source": "microsoft/BuildingFootprints"}}}, {"type": "Feature", "geometry": {"type": "Polygon", "coordinates": [[[-99.4057666, 35.4154096], [-99.4056228, 35.4154071], [-99.405621, 35.4154742], [-99.4057648, 35.4154768], [-99.4057666, 35.4154096]]]}, "properties": {"osm_id": 1328413981, "building": "yes", "name": "", "height": null, "height_m": null, "levels": null, "tract_id": "40009966100", "tract_name": "9661", "tags": {"building": "yes", "source": "microsoft/BuildingFootprints"}}}, {"type": "Feature", "geometry": {"type": "Polygon", "coordinates": [[[-99.404708, 35.4154385], [-99.404708, 35.4153285], [-99.4043164, 35.4153285], [-99.4043164, 35.4154385], [-99.404708, 35.4154385]]]}, "properties": {"osm_id": 1328413982, "building": "yes", "name": "Urology Associates Western Oklahoma", "height": null, "height_m": null, "levels": null, "tract_id": "40009966100", "tract_name": "9661", "tags": {"addr:housenumber": "522", "addr:street": "North Main Street", "amenity": "clinic", "building": "yes", "name": "Urology Associates Western Oklahoma", "source": "microsoft/BuildingFootprints"}}}, {"type": "Feature", "geometry": {"type": "Polygon", "coordinates": [[[-99.4055236, 35.4148826], [-99.4055217, 35.4148214], [-99.4054011, 35.414824], [-99.405403, 35.4148851], [-99.4055236, 35.4148826]]]}, "properties": {"osm_id": 1328413983, "building": "yes", "name": "", "height": null, "height_m": null, "levels": null, "tract_id": "40009966100", "tract_name": "9661", "tags": {"building": "yes", "source": "microsoft/BuildingFootprints"}}}, {"type": "Feature", "geometry": {"type": "Polygon", "coordinates": [[[-99.4051129, 35.4157974], [-99.4052658, 35.4157977], [-99.4052661, 35.4157037], [-99.4051686, 35.4157035], [-99.4051686, 35.4156948], [-99.4050916, 35.4156946], [-99.4050914, 35.415763], [-99.405113, 35.415763], [-99.4051129, 35.4157974]]]}, "properties": {"osm_id": 1328413984, "building": "yes", "name": "", "height": null, "height_m": null, "levels": null, "tract_id": "40009966100", "tract_name": "9661", "tags": {"building": "yes", "source": "microsoft/BuildingFootprints"}}}, {"type": "Feature", "geometry": {"type": "Polygon", "coordinates": [[[-99.4051098, 35.4151147], [-99.405108, 35.4151981], [-99.4052802, 35.4152006], [-99.4052804, 35.4151928], [-99.4053411, 35.4151937], [-99.4053404, 35.4152246], [-99.4054797, 35.4152267], [-99.4054821, 35.4151201], [-99.4051098, 35.4151147]]]}, "properties": {"osm_id": 1328413985, "building": "yes", "name": "", "height": null, "height_m": null, "levels": null, "tract_id": "40009966100", "tract_name": "9661", "tags": {"building": "yes", "source": "microsoft/BuildingFootprints"}}}, {"type": "Feature", "geometry": {"type": "Polygon", "coordinates": [[[-99.4051082, 35.4150449], [-99.4052663, 35.4150421], [-99.4052642, 35.4149614], [-99.4051061, 35.4149641], [-99.4051082, 35.4150449]]]}, "properties": {"osm_id": 1328413986, "building": "yes", "name": "", "height": null, "height_m": null, "levels": null, "tract_id": "40009966100", "tract_name": "9661", "tags": {"building": "yes", "source": "microsoft/BuildingFootprints"}}}, {"type": "Feature", "geometry": {"type": "Polygon", "coordinates": [[[-99.4057104, 35.4149908], [-99.4058445, 35.4149901], [-99.4058441, 35.4149507], [-99.40571, 35.4149515], [-99.4057104, 35.4149908]]]}, "properties": {"osm_id": 1328413987, "building": "yes", "name": "", "height": null, "height_m": null, "levels": null, "tract_id": "40009966100", "tract_name": "9661", "tags": {"building": "yes", "source": "microsoft/BuildingFootprints"}}}, {"type": "Feature", "geometry": {"type": "Polygon", "coordinates": [[[-99.4039173, 35.4156677], [-99.4037403, 35.4156694], [-99.4037417, 35.4157656], [-99.4039187, 35.4157638], [-99.4039173, 35.4156677]]]}, "properties": {"osm_id": 1328413988, "building": "yes", "name": "", "height": null, "height_m": null, "levels": null, "tract_id": "40009966100", "tract_name": "9661", "tags": {"building": "yes", "source": "microsoft/BuildingFootprints"}}}, {"type": "Feature", "geometry": {"type": "Polygon", "coordinates": [[[-99.4046583, 35.4157057], [-99.4045028, 35.415704], [-99.4045036, 35.4156537], [-99.4044312, 35.4156529], [-99.404429, 35.4157863], [-99.404657, 35.4157888], [-99.4046583, 35.4157057]]]}, "properties": {"osm_id": 1328413989, "building": "yes", "name": "", "height": null, "height_m": null, "levels": null, "tract_id": "40009966100", "tract_name": "9661", "tags": {"building": "yes", "source": "microsoft/BuildingFootprints"}}}, {"type": "Feature", "geometry": {"type": "Polygon", "coordinates": [[[-99.4045624, 35.4148865], [-99.404559, 35.4149615], [-99.40468, 35.4149651], [-99.4046833, 35.4148901], [-99.4045624, 35.4148865]]]}, "properties": {"osm_id": 1328413990, "building": "yes", "name": "", "height": null, "height_m": null, "levels": null, "tract_id": "40009966100", "tract_name": "9661", "tags": {"building": "yes", "source": "microsoft/BuildingFootprints"}}}, {"type": "Feature", "geometry": {"type": "Polygon", "coordinates": [[[-99.4056093, 35.4156702], [-99.4056091, 35.4157619], [-99.4057015, 35.4157621], [-99.4057017, 35.4156703], [-99.4056093, 35.4156702]]]}, "properties": {"osm_id": 1328413991, "building": "yes", "name": "", "height": null, "height_m": null, "levels": null, "tract_id": "40009966100", "tract_name": "9661", "tags": {"building": "yes", "source": "microsoft/BuildingFootprints"}}}, {"type": "Feature", "geometry": {"type": "Polygon", "coordinates": [[[-99.4056122, 35.4105743], [-99.4060767, 35.4105695], [-99.4060723, 35.4102862], [-99.4061061, 35.4102859], [-99.4061041, 35.4101578], [-99.4056292, 35.4101628], [-99.4056301, 35.4102169], [-99.405845, 35.4102147], [-99.4058463, 35.4103002], [-99.4059675, 35.410299], [-99.4059681, 35.4103413], [-99.4057775, 35.4103432], [-99.405776, 35.4102466], [-99.4056072, 35.4102484], [-99.4056122, 35.4105743]]]}, "properties": {"osm_id": 1336667520, "building": "yes", "name": "", "height": null, "height_m": null, "levels": null, "tract_id": "40009966100", "tract_name": "9661", "tags": {"building": "yes"}}}, {"type": "Feature", "geometry": {"type": "Polygon", "coordinates": [[[-99.4063597, 35.4107681], [-99.4070338, 35.4107782], [-99.4070255, 35.4111487], [-99.4068483, 35.411146], [-99.4068501, 35.4110658], [-99.4066215, 35.4110624], [-99.4066193, 35.4111605], [-99.406519, 35.411159], [-99.4065223, 35.4110096], [-99.4064392, 35.4110084], [-99.4064358, 35.4111608], [-99.4063509, 35.4111595], [-99.4063597, 35.4107681]]]}, "properties": {"osm_id": 1336667521, "building": "yes", "name": "", "height": null, "height_m": null, "levels": null, "tract_id": "40009966100", "tract_name": "9661", "tags": {"building": "yes"}}}, {"type": "Feature", "geometry": {"type": "Polygon", "coordinates": [[[-99.4071134, 35.4108758], [-99.4073194, 35.4108758], [-99.4073194, 35.4110961], [-99.4071134, 35.4110961], [-99.4071134, 35.4108758]]]}, "properties": {"osm_id": 1336667522, "building": "yes", "name": "", "height": null, "height_m": null, "levels": null, "tract_id": "40009966100", "tract_name": "9661", "tags": {"building": "yes"}}}, {"type": "Feature", "geometry": {"type": "Polygon", "coordinates": [[[-99.4068229, 35.4103607], [-99.4068212, 35.4105782], [-99.4063488, 35.4105757], [-99.4063511, 35.4102898], [-99.4065588, 35.4102908], [-99.4065583, 35.4103593], [-99.4068229, 35.4103607]]]}, "properties": {"osm_id": 1336667523, "building": "yes", "name": "", "height": null, "height_m": null, "levels": null, "tract_id": "40009966100", "tract_name": "9661", "tags": {"building": "yes"}}}, {"type": "Feature", "geometry": {"type": "Polygon", "coordinates": [[[-99.4042811, 35.4118219], [-99.4047504, 35.4118258], [-99.4047454, 35.4122248], [-99.4045122, 35.4122229], [-99.4045142, 35.4120657], [-99.404278, 35.4120636], [-99.4042811, 35.4118219]]]}, "properties": {"osm_id": 1336667524, "building": "yes", "name": "", "height": null, "height_m": null, "levels": null, "tract_id": "40009966100", "tract_name": "9661", "tags": {"building": "yes"}}}, {"type": "Feature", "geometry": {"type": "Polygon", "coordinates": [[[-99.4047361, 35.4124268], [-99.4047356, 35.4126506], [-99.4043333, 35.4126501], [-99.4043337, 35.4124263], [-99.4047361, 35.4124268]]]}, "properties": {"osm_id": 1336667525, "building": "yes", "name": "", "height": null, "height_m": null, "levels": null, "tract_id": "40009966100", "tract_name": "9661", "tags": {"building": "yes"}}}, {"type": "Feature", "geometry": {"type": "Polygon", "coordinates": [[[-99.4071399, 35.4102823], [-99.4071416, 35.4105718], [-99.4068886, 35.4105728], [-99.4068866, 35.4102327], [-99.4070577, 35.410232], [-99.407058, 35.4102826], [-99.4071399, 35.4102823]]]}, "properties": {"osm_id": 1336667526, "building": "yes", "name": "", "height": null, "height_m": null, "levels": null, "tract_id": "40009966100", "tract_name": "9661", "tags": {"building": "yes"}}}, {"type": "Feature", "geometry": {"type": "Polygon", "coordinates": [[[-99.4063493, 35.4097266], [-99.4068158, 35.4097331], [-99.4068125, 35.4098921], [-99.4065302, 35.4098882], [-99.4065289, 35.4099517], [-99.4063447, 35.4099492], [-99.4063493, 35.4097266]]]}, "properties": {"osm_id": 1336667527, "building": "yes", "name": "", "height": null, "height_m": null, "levels": null, "tract_id": "40009966100", "tract_name": "9661", "tags": {"building": "yes"}}}, {"type": "Feature", "geometry": {"type": "Polygon", "coordinates": [[[-99.405073, 35.4091056], [-99.4050655, 35.4093802], [-99.4055408, 35.4093889], [-99.4055484, 35.4091143], [-99.405073, 35.4091056]]]}, "properties": {"osm_id": 1336667528, "building": "yes", "name": "", "height": null, "height_m": null, "levels": null, "tract_id": "40009966100", "tract_name": "9661", "tags": {"building": "yes"}}}, {"type": "Feature", "geometry": {"type": "Polygon", "coordinates": [[[-99.405933, 35.4107757], [-99.4060875, 35.4107753], [-99.4060891, 35.41116], [-99.4059346, 35.4111604], [-99.405933, 35.4107757]]]}, "properties": {"osm_id": 1336667529, "building": "yes", "name": "", "height": null, "height_m": null, "levels": null, "tract_id": "40009966100", "tract_name": "9661", "tags": {"building": "yes"}}}, {"type": "Feature", "geometry": {"type": "Polygon", "coordinates": [[[-99.4073604, 35.4103324], [-99.4073579, 35.4105448], [-99.4071808, 35.4105434], [-99.4071834, 35.410331], [-99.4073604, 35.4103324]]]}, "properties": {"osm_id": 1336667530, "building": "yes", "name": "", "height": null, "height_m": null, "levels": null, "tract_id": "40009966100", "tract_name": "9661", "tags": {"building": "yes"}}}, {"type": "Feature", "geometry": {"type": "Polygon", "coordinates": [[[-99.4001448, 35.436072], [-99.4000404, 35.4360721], [-99.4000404, 35.4360983], [-99.3998705, 35.4360986], [-99.3998702, 35.4359663], [-99.4001446, 35.4359659], [-99.4001448, 35.436072]]]}, "properties": {"osm_id": 1336996155, "building": "yes", "name": "Blockhouse", "height": null, "height_m": null, "levels": null, "tract_id": "40009966100", "tract_name": "9661", "tags": {"addr:city": "Elk City", "addr:housenumber": "20096", "addr:postcode": "73644", "addr:state": "OK", "addr:street": "East 1090 Road", "amenity": "bar", "building": "yes", "contact:facebook": "https://www.facebook.com/Blockhouse.ec/", "name": "Blockhouse"}}}, {"type": "Feature", "geometry": {"type": "Polygon", "coordinates": [[[-99.3699714, 35.4232488], [-99.369832, 35.4232461], [-99.3698368, 35.4230778], [-99.3699762, 35.4230805], [-99.3699714, 35.4232488]]]}, "properties": {"osm_id": 1336997457, "building": "yes", "name": "", "height": null, "height_m": null, "levels": null, "tract_id": "40009966100", "tract_name": "9661", "tags": {"building": "yes"}}}, {"type": "Feature", "geometry": {"type": "Polygon", "coordinates": [[[-99.3747372, 35.4231452], [-99.3746654, 35.4231394], [-99.3746878, 35.4229542], [-99.3747596, 35.42296], [-99.3747372, 35.4231452]]]}, "properties": {"osm_id": 1337196713, "building": "yes", "name": "", "height": null, "height_m": null, "levels": null, "tract_id": "40009966100", "tract_name": "9661", "tags": {"building": "yes"}}}, {"type": "Feature", "geometry": {"type": "Polygon", "coordinates": [[[-99.3762113, 35.4222479], [-99.3760276, 35.4222446], [-99.3760235, 35.4223507], [-99.376208, 35.4223545], [-99.3762113, 35.4222479]]]}, "properties": {"osm_id": 1337199152, "building": "house", "name": "", "height": null, "height_m": null, "levels": null, "tract_id": "40009966100", "tract_name": "9661", "tags": {"addr:city": "Elk City", "addr:housenumber": "2201", "addr:postcode": "73644", "addr:state": "OK", "addr:street": "East Highway 66", "building": "house", "house": "detached"}}}, {"type": "Feature", "geometry": {"type": "Polygon", "coordinates": [[[-99.3758586, 35.4224021], [-99.3758046, 35.422397], [-99.3758138, 35.4223313], [-99.3758679, 35.4223363], [-99.3758586, 35.4224021]]]}, "properties": {"osm_id": 1337199153, "building": "yes", "name": "", "height": null, "height_m": null, "levels": null, "tract_id": "40009966100", "tract_name": "9661", "tags": {"building": "yes"}}}, {"type": "Feature", "geometry": {"type": "Polygon", "coordinates": [[[-99.3761552, 35.4224139], [-99.3760767, 35.4224126], [-99.3760749, 35.4224847], [-99.3761534, 35.422486], [-99.3761552, 35.4224139]]]}, "properties": {"osm_id": 1337199154, "building": "yes", "name": "", "height": null, "height_m": null, "levels": null, "tract_id": "40009966100", "tract_name": "9661", "tags": {"building": "yes"}}}, {"type": "Feature", "geometry": {"type": "Polygon", "coordinates": [[[-99.3749791, 35.423323], [-99.3749033, 35.4233228], [-99.3749037, 35.4232376], [-99.3749794, 35.4232378], [-99.3749791, 35.423323]]]}, "properties": {"osm_id": 1337246882, "building": "yes", "name": "", "height": null, "height_m": null, "levels": null, "tract_id": "40009966100", "tract_name": "9661", "tags": {"building": "yes"}}}, {"type": "Feature", "geometry": {"type": "Polygon", "coordinates": [[[-99.4056335, 35.4090493], [-99.405634, 35.4087043], [-99.4057186, 35.4086327], [-99.4060952, 35.4086333], [-99.4060943, 35.4090609], [-99.4059317, 35.4090607], [-99.4059322, 35.4088271], [-99.4057879, 35.4088269], [-99.4057875, 35.4090495], [-99.4056335, 35.4090493]]]}, "properties": {"osm_id": 1348765434, "building": "yes", "name": "", "height": null, "height_m": null, "levels": null, "tract_id": "40009966100", "tract_name": "9661", "tags": {"building": "yes"}}}, {"type": "Feature", "geometry": {"type": "Polygon", "coordinates": [[[-99.4068351, 35.4095292], [-99.4068415, 35.4092682], [-99.4063519, 35.4092602], [-99.4063455, 35.4095212], [-99.4068351, 35.4095292]]]}, "properties": {"osm_id": 1348765435, "building": "yes", "name": "", "height": null, "height_m": null, "levels": null, "tract_id": "40009966100", "tract_name": "9661", "tags": {"building": "yes"}}}]}