{"type": "FeatureCollection", "features": [{"type": "Feature", "geometry": {"type": "Polygon", "coordinates": [[[-94.9324892, 35.8216054], [-94.9325277, 35.8216908], [-94.9323427, 35.8217456], [-94.9322962, 35.8216425], [-94.9324344, 35.8216016], [-94.9324501, 35.821574], [-94.932416, 35.8215612], [-94.9324567, 35.8214899], [-94.93255, 35.8215249], [-94.9325093, 35.8215962], [-94.9324971, 35.8215916], [-94.9324892, 35.8216054]]]}, "properties": {"osm_id": 231777323, "building": "house", "name": "", "height": null, "height_m": null, "levels": null, "tract_id": "40021978301", "tract_name": "9783.01", "tags": {"addr:city": "Park Hill", "addr:country": "US", "addr:housenumber": "21608", "addr:postcode": "74451", "addr:state": "OK", "addr:street": "East Horseshoe Bend Road", "building": "house"}}}, {"type": "Feature", "geometry": {"type": "Polygon", "coordinates": [[[-94.9786303, 35.7061467], [-94.9787664, 35.7060593], [-94.9788541, 35.7061493], [-94.9787181, 35.7062367], [-94.9786303, 35.7061467]]]}, "properties": {"osm_id": 301640238, "building": "yes", "name": "", "height": null, "height_m": null, "levels": null, "tract_id": "40021978301", "tract_name": "9783.01", "tags": {"building": "yes"}}}, {"type": "Feature", "geometry": {"type": "Polygon", "coordinates": [[[-94.9759175, 35.7231426], [-94.9760588, 35.7231062], [-94.9760896, 35.7231852], [-94.9759483, 35.7232216], [-94.9759175, 35.7231426]]]}, "properties": {"osm_id": 426296620, "building": "yes", "name": "", "height": null, "height_m": null, "levels": null, "tract_id": "40021978301", "tract_name": "9783.01", "tags": {"building": "yes"}}}, {"type": "Feature", "geometry": {"type": "Polygon", "coordinates": [[[-94.9769797, 35.7239056], [-94.9771244, 35.7239201], [-94.9771113, 35.7240054], [-94.976897, 35.7239838], [-94.9769038, 35.723939], [-94.9769735, 35.7239461], [-94.9769797, 35.7239056]]]}, "properties": {"osm_id": 426296621, "building": "yes", "name": "", "height": null, "height_m": null, "levels": null, "tract_id": "40021978301", "tract_name": "9783.01", "tags": {"building": "yes"}}}, {"type": "Feature", "geometry": {"type": "Polygon", "coordinates": [[[-94.9738101, 35.7209195], [-94.9737077, 35.7208716], [-94.9737848, 35.720763], [-94.9738872, 35.720811], [-94.9738101, 35.7209195]]]}, "properties": {"osm_id": 426296622, "building": "yes", "name": "", "height": null, "height_m": null, "levels": null, "tract_id": "40021978301", "tract_name": "9783.01", "tags": {"building": "yes"}}}, {"type": "Feature", "geometry": {"type": "Polygon", "coordinates": [[[-94.9826443, 35.7258341], [-94.9828452, 35.7258388], [-94.9828357, 35.7261068], [-94.9826347, 35.7261021], [-94.9826443, 35.7258341]]]}, "properties": {"osm_id": 426296623, "building": "yes", "name": "", "height": null, "height_m": null, "levels": null, "tract_id": "40021978301", "tract_name": "9783.01", "tags": {"building": "yes"}}}, {"type": "Feature", "geometry": {"type": "Polygon", "coordinates": [[[-94.9835559, 35.7243094], [-94.9837353, 35.7243063], [-94.9837396, 35.7244719], [-94.9835601, 35.7244749], [-94.9835559, 35.7243094]]]}, "properties": {"osm_id": 426296624, "building": "yes", "name": "", "height": null, "height_m": null, "levels": null, "tract_id": "40021978301", "tract_name": "9783.01", "tags": {"building": "yes"}}}, {"type": "Feature", "geometry": {"type": "Polygon", "coordinates": [[[-94.9766997, 35.7238479], [-94.9768071, 35.723858], [-94.9767953, 35.7239406], [-94.9766879, 35.7239305], [-94.9766997, 35.7238479]]]}, "properties": {"osm_id": 426296625, "building": "yes", "name": "", "height": null, "height_m": null, "levels": null, "tract_id": "40021978301", "tract_name": "9783.01", "tags": {"building": "yes"}}}, {"type": "Feature", "geometry": {"type": "Polygon", "coordinates": [[[-94.9757484, 35.7232717], [-94.9759328, 35.723357], [-94.9758743, 35.7234405], [-94.9756898, 35.7233553], [-94.9757484, 35.7232717]]]}, "properties": {"osm_id": 426296626, "building": "yes", "name": "", "height": null, "height_m": null, "levels": null, "tract_id": "40021978301", "tract_name": "9783.01", "tags": {"building": "yes"}}}, {"type": "Feature", "geometry": {"type": "Polygon", "coordinates": [[[-94.9829451, 35.7234031], [-94.9831054, 35.723415], [-94.9830851, 35.723596], [-94.9829248, 35.7235842], [-94.9829451, 35.7234031]]]}, "properties": {"osm_id": 426296627, "building": "yes", "name": "", "height": null, "height_m": null, "levels": null, "tract_id": "40021978301", "tract_name": "9783.01", "tags": {"building": "yes"}}}, {"type": "Feature", "geometry": {"type": "Polygon", "coordinates": [[[-94.9591222, 35.8556963], [-94.9589253, 35.8556936], [-94.9589293, 35.8555021], [-94.9590576, 35.8555039], [-94.9590569, 35.8555403], [-94.9591254, 35.8555413], [-94.9591222, 35.8556963]]]}, "properties": {"osm_id": 722088572, "building": "house", "name": "Hunter's Home", "height": null, "height_m": null, "levels": null, "tract_id": "40021978301", "tract_name": "9783.01", "tags": {"addr:housenumber": "19479", "addr:street": "East Murrel Road", "alt_name": "Murrell Home", "boundary": "protected_area", "building": "house", "heritage": "2", "heritage:operator": "nrhp", "name": "Hunter's Home", "name:chr": "\u13a6\u13c3\u13ad\u13b4\u13a9 \u13e7\u13ea\u13c5\u13d2", "nrhp:criteria": "(A),(C)", "nrhp:inscription_date": "May 30, 1974", "nrhp:nhl": "yes", "protection_title": "protected_site", "ref:nrhp": "70000530", "start_date": "1844-1845", "tourism": "museum", "wikidata": "Q6939576", "wikipedia": "en:Murrell Home"}}}, {"type": "Feature", "geometry": {"type": "Polygon", "coordinates": [[[-94.9494824, 35.8512716], [-94.9494851, 35.8511446], [-94.9493371, 35.8511425], [-94.9493343, 35.8512695], [-94.9494824, 35.8512716]]]}, "properties": {"osm_id": 1005678393, "building": "house", "name": "John Ross Museum", "height": null, "height_m": null, "levels": null, "tract_id": "40021978301", "tract_name": "9783.01", "tags": {"addr:city": "Park Hill", "addr:housenumber": "22366", "addr:postcode": "74451", "addr:state": "OK", "addr:street": "CR S530", "building": "house", "museum": "person", "name": "John Ross Museum", "name:chr": "\u13e3\u13c2 \u13ab\u13eb\u13cd\u13ab\u13eb \u13a4\u13ea\u13d8 \u13a0\u13cd\u13c6\u13c2\u13aa\u13db", "name:en": "John Ross Museum", "tourism": "museum"}}}, {"type": "Feature", "geometry": {"type": "Polygon", "coordinates": [[[-94.9555777, 35.8667455], [-94.9554892, 35.8675639], [-94.955347, 35.8675552], [-94.9554369, 35.8667335], [-94.9555777, 35.8667455]]]}, "properties": {"osm_id": 1196225971, "building": "yes", "name": "", "height": null, "height_m": null, "levels": null, "tract_id": "40021978301", "tract_name": "9783.01", "tags": {"building": "yes"}}}, {"type": "Feature", "geometry": {"type": "Polygon", "coordinates": [[[-94.9631036, 35.8654322], [-94.9629723, 35.8654273], [-94.9629811, 35.8652733], [-94.9628753, 35.8652694], [-94.9628796, 35.8651937], [-94.9631466, 35.8652037], [-94.9631424, 35.8652759], [-94.9631072, 35.8652745], [-94.9631064, 35.8652881], [-94.9631492, 35.8652897], [-94.9631435, 35.8653887], [-94.9631062, 35.8653873], [-94.9631036, 35.8654322]]]}, "properties": {"osm_id": 1228665429, "building": "house", "name": "", "height": null, "height_m": null, "levels": null, "tract_id": "40021978301", "tract_name": "9783.01", "tags": {"addr:city": "Tahlequah", "addr:housenumber": "21436", "addr:postcode": "74464", "addr:state": "OK", "addr:street": "S Park Hill Rd", "building": "house"}}}, {"type": "Feature", "geometry": {"type": "Polygon", "coordinates": [[[-94.9772174, 35.860699], [-94.9771178, 35.8608553], [-94.97692, 35.8607724], [-94.9770195, 35.8606162], [-94.9772174, 35.860699]]]}, "properties": {"osm_id": 1232061520, "building": "retail", "name": "", "height": null, "height_m": null, "levels": null, "tract_id": "40021978301", "tract_name": "9783.01", "tags": {"building": "retail", "roof:shape": "mansard", "shop": "vacant"}}}, {"type": "Feature", "geometry": {"type": "Polygon", "coordinates": [[[-94.9773169, 35.8605428], [-94.9772174, 35.860699], [-94.9770195, 35.8606162], [-94.9771191, 35.86046], [-94.9773169, 35.8605428]]]}, "properties": {"osm_id": 1232061521, "building": "retail", "name": "At The Y Liquor", "height": null, "height_m": null, "levels": null, "tract_id": "40021978301", "tract_name": "9783.01", "tags": {"addr:city": "Tahlequah", "addr:housenumber": "5571", "addr:postcode": "74464", "addr:street": "South Muskogee Avenue", "building": "retail", "contact:facebook": "https://www.facebook.com/AtTheYLiquor/", "email": "AtTheYLiquor@outlook.com", "name": "At The Y Liquor", "opening_hours": "Mo-Sa 09:00-22:00; Su 12:00-17:00", "phone": "+1 918 456 9463", "roof:shape": "mansard", "shop": "alcohol"}}}, {"type": "Feature", "geometry": {"type": "Polygon", "coordinates": [[[-94.9591863, 35.8675095], [-94.9589475, 35.8675138], [-94.9589471, 35.8674981], [-94.9589209, 35.8674986], [-94.9589202, 35.8674733], [-94.9588978, 35.8674737], [-94.9588971, 35.8674502], [-94.9589198, 35.8674497], [-94.9589191, 35.8674235], [-94.9589402, 35.8674241], [-94.9589408, 35.8674107], [-94.9591834, 35.8674064], [-94.9591863, 35.8675095]]]}, "properties": {"osm_id": 1237142992, "building": "school", "name": "Historic Owen School", "height": null, "height_m": null, "levels": null, "tract_id": "40021978301", "tract_name": "9783.01", "tags": {"building": "school", "name": "Historic Owen School", "name:chr": "\u13a0\u13a6\u13f4\u13b5 Owen \u13e7\u13be\u13d5\u13b6\u13c6\u13cd\u13d7", "start_date": "1913"}}}, {"type": "Feature", "geometry": {"type": "Polygon", "coordinates": [[[-94.9756183, 35.8705961], [-94.9757233, 35.8704192], [-94.9758687, 35.8704759], [-94.9758138, 35.8705684], [-94.9758713, 35.8705908], [-94.9758212, 35.8706752], [-94.9756183, 35.8705961]]]}, "properties": {"osm_id": 1385051222, "building": "yes", "name": "Pasti Italian Grill", "height": null, "height_m": null, "levels": null, "tract_id": "40021978301", "tract_name": "9783.01", "tags": {"addr:city": "Tahlequah", "addr:housenumber": "4601", "addr:postcode": "74464-5425", "addr:street": "South Muskogee Avenue", "amenity": "restaurant", "building": "yes", "cuisine": "italian", "name": "Pasti Italian Grill"}}}]}