{"type": "FeatureCollection", "features": [{"type": "Feature", "geometry": {"type": "Polygon", "coordinates": [[[-97.25683, 34.7399751], [-97.2568241, 34.7399751], [-97.2568239, 34.7400797], [-97.2569404, 34.7400799], [-97.2569404, 34.7400995], [-97.257047, 34.7400997], [-97.257047, 34.7400872], [-97.2571137, 34.7400874], [-97.257114, 34.7399665], [-97.2570338, 34.7399664], [-97.2570339, 34.7399438], [-97.2569659, 34.7399437], [-97.2569632, 34.7399344], [-97.2569537, 34.739927], [-97.2568348, 34.7399258], [-97.2568301, 34.7399282], [-97.25683, 34.7399751]]]}, "properties": {"osm_id": 382633739, "building": "yes", "name": "Happy Days Diner", "height": null, "height_m": null, "levels": null, "tract_id": "40049681300", "tract_name": "6813", "tags": {"addr:city": "Pauls Valley", "addr:housenumber": "2503", "addr:postcode": "73075", "addr:state": "OK", "addr:street": "West Grant Avenue", "amenity": "restaurant", "building": "yes", "cuisine": "american", "name": "Happy Days Diner"}}}, {"type": "Feature", "geometry": {"type": "Polygon", "coordinates": [[[-97.255681, 34.7405655], [-97.2554669, 34.7405647], [-97.2554709, 34.7398608], [-97.25605, 34.739863], [-97.2563481, 34.7398642], [-97.2563441, 34.7405784], [-97.256124, 34.7405776], [-97.2561271, 34.7400166], [-97.2560509, 34.7400163], [-97.2560067, 34.7400161], [-97.2560066, 34.7400424], [-97.2556728, 34.7400411], [-97.2556727, 34.7400673], [-97.2556838, 34.7400674], [-97.255681, 34.7405655]]]}, "properties": {"osm_id": 382635453, "building": "hotel", "name": "Rodeway Inn", "height": null, "height_m": null, "levels": null, "tract_id": "40049681300", "tract_name": "6813", "tags": {"addr:city": "Pauls Valley", "addr:housenumber": "2415", "addr:postcode": "73075", "addr:state": "OK", "addr:street": "West Grant Avenue", "brand": "Rodeway Inn", "brand:wikidata": "Q7356709", "building": "hotel", "name": "Rodeway Inn", "phone": "+1 405-238-6415", "ref": "OK297", "tourism": "motel", "website": "https://www.choicehotels.com/oklahoma/purcell/econo-lodge-hotels"}}}, {"type": "Feature", "geometry": {"type": "Polygon", "coordinates": [[[-97.2589142, 34.7400792], [-97.2587507, 34.7400788], [-97.2587516, 34.7398254], [-97.2589232, 34.7398258], [-97.258923, 34.7398917], [-97.2589568, 34.7398904], [-97.258983, 34.7398918], [-97.2589827, 34.7399671], [-97.2589558, 34.7399671], [-97.2589146, 34.739967], [-97.2589142, 34.7400792]]]}, "properties": {"osm_id": 382635864, "building": "retail", "name": "", "height": null, "height_m": null, "levels": null, "tract_id": "40049681300", "tract_name": "6813", "tags": {"addr:city": "Pauls Valley", "addr:housenumber": "2609", "addr:postcode": "73075", "addr:state": "OK", "addr:street": "West Grant Avenue", "building": "retail"}}}, {"type": "Feature", "geometry": {"type": "Polygon", "coordinates": [[[-97.2573967, 34.7403383], [-97.2573994, 34.7401582], [-97.257308, 34.7401573], [-97.2572795, 34.740157], [-97.2572768, 34.7403371], [-97.2573967, 34.7403383]]]}, "properties": {"osm_id": 382641104, "building": "retail", "name": "Sonic", "height": null, "height_m": null, "levels": null, "tract_id": "40049681300", "tract_name": "6813", "tags": {"addr:city": "Pauls Valley", "addr:housenumber": "2505", "addr:postcode": "73075", "addr:state": "OK", "addr:street": "West Grant Avenue", "amenity": "fast_food", "brand": "Sonic", "brand:wikidata": "Q7561808", "building": "retail", "cuisine": "burger", "drive_in": "yes", "name": "Sonic", "opening_hours": "Mo-Th 06:00-22:00; Fr-Sa 06:00-23:00; Su 07:00-22:00", "takeaway": "yes", "website": "https://locations.sonicdrivein.com/ok/paulsvalley/2505-west-grant-street.html"}}}, {"type": "Feature", "geometry": {"type": "Polygon", "coordinates": [[[-97.257308, 34.7401573], [-97.2573131, 34.7398158], [-97.2574115, 34.7398168], [-97.2574064, 34.7401583], [-97.2573994, 34.7401582], [-97.257308, 34.7401573]]]}, "properties": {"osm_id": 382641105, "building": "roof", "name": "", "height": null, "height_m": null, "levels": null, "tract_id": "40049681300", "tract_name": "6813", "tags": {"building": "roof"}}}, {"type": "Feature", "geometry": {"type": "Polygon", "coordinates": [[[-97.2579512, 34.7403601], [-97.2579516, 34.7399113], [-97.2578047, 34.7399112], [-97.2578043, 34.74036], [-97.2579512, 34.7403601]]]}, "properties": {"osm_id": 382641374, "building": "yes", "name": "", "height": null, "height_m": null, "levels": null, "tract_id": "40049681300", "tract_name": "6813", "tags": {"building": "yes"}}}, {"type": "Feature", "geometry": {"type": "Polygon", "coordinates": [[[-97.2581972, 34.740101], [-97.2581954, 34.740005], [-97.2582988, 34.7400034], [-97.2583, 34.7398055], [-97.258228, 34.7398052], [-97.2582282, 34.7397746], [-97.2582285, 34.73973], [-97.2581268, 34.7397296], [-97.2581265, 34.7397746], [-97.2581263, 34.7398116], [-97.2580861, 34.7398114], [-97.2580823, 34.7400995], [-97.2581972, 34.740101]]]}, "properties": {"osm_id": 382641815, "building": "yes", "name": "", "height": null, "height_m": null, "levels": null, "tract_id": "40049681300", "tract_name": "6813", "tags": {"addr:city": "Pauls Valley", "addr:housenumber": "2511", "addr:postcode": "73075", "addr:state": "OK", "addr:street": "West Grant Avenue", "building": "yes", "operator": "Americas Best Value Inn", "tourism": "hotel", "website": "https://americasbestvalueinn.com/bestv.cfm?idp=1880"}}}, {"type": "Feature", "geometry": {"type": "Polygon", "coordinates": [[[-97.2581972, 34.740101], [-97.2581853, 34.7406475], [-97.2581839, 34.7407588], [-97.2580689, 34.7407573], [-97.2580823, 34.7400995], [-97.2581972, 34.740101]]]}, "properties": {"osm_id": 382641819, "building": "yes", "name": "", "height": null, "height_m": null, "levels": null, "tract_id": "40049681300", "tract_name": "6813", "tags": {"building": "yes"}}}, {"type": "Feature", "geometry": {"type": "Polygon", "coordinates": [[[-97.2581839, 34.7407588], [-97.2588251, 34.7407644], [-97.2588267, 34.7406526], [-97.2581853, 34.7406475], [-97.2581839, 34.7407588]]]}, "properties": {"osm_id": 382641821, "building": "yes", "name": "", "height": null, "height_m": null, "levels": null, "tract_id": "40049681300", "tract_name": "6813", "tags": {"building": "yes"}}}, {"type": "Feature", "geometry": {"type": "Polygon", "coordinates": [[[-97.2588251, 34.7407644], [-97.2589501, 34.7407656], [-97.2589559, 34.7403676], [-97.2584695, 34.7403671], [-97.2584684, 34.7404476], [-97.2588296, 34.7404495], [-97.2588267, 34.7406526], [-97.2588251, 34.7407644]]]}, "properties": {"osm_id": 382641823, "building": "yes", "name": "", "height": null, "height_m": null, "levels": null, "tract_id": "40049681300", "tract_name": "6813", "tags": {"building": "yes"}}}, {"type": "Feature", "geometry": {"type": "Polygon", "coordinates": [[[-97.2599768, 34.7402461], [-97.2599768, 34.7402895], [-97.259716, 34.7402893], [-97.2597161, 34.7402151], [-97.2596366, 34.7402151], [-97.2596367, 34.7401163], [-97.2598511, 34.7401164], [-97.2598511, 34.7400976], [-97.2599016, 34.7400976], [-97.2599016, 34.7401194], [-97.2600625, 34.7401195], [-97.2600624, 34.7402462], [-97.2599768, 34.7402461]]]}, "properties": {"osm_id": 382641943, "building": "retail", "name": "", "height": null, "height_m": null, "levels": null, "tract_id": "40049681300", "tract_name": "6813", "tags": {"addr:city": "Pauls Valley", "addr:housenumber": "2625", "addr:postcode": "73075", "addr:state": "OK", "addr:street": "Grant Avenue", "building": "retail"}}}, {"type": "Feature", "geometry": {"type": "Polygon", "coordinates": [[[-97.2599898, 34.7400479], [-97.2599912, 34.7399837], [-97.2599924, 34.7399288], [-97.2597933, 34.7399258], [-97.259792, 34.7399866], [-97.2597907, 34.740045], [-97.2599898, 34.7400479]]]}, "properties": {"osm_id": 382641944, "building": "roof", "name": "", "height": null, "height_m": null, "levels": null, "tract_id": "40049681300", "tract_name": "6813", "tags": {"building": "roof"}}}, {"type": "Feature", "geometry": {"type": "Polygon", "coordinates": [[[-97.2604722, 34.7402863], [-97.2604963, 34.7402277], [-97.2603482, 34.7401866], [-97.2602102, 34.7401483], [-97.2601861, 34.7402069], [-97.2603171, 34.7402433], [-97.2604722, 34.7402863]]]}, "properties": {"osm_id": 382641968, "building": "roof", "name": "", "height": null, "height_m": null, "levels": null, "tract_id": "40049681300", "tract_name": "6813", "tags": {"building": "roof"}}}, {"type": "Feature", "geometry": {"type": "Polygon", "coordinates": [[[-97.2611661, 34.7408698], [-97.2610231, 34.7408697], [-97.2610233, 34.7405229], [-97.2610063, 34.7405228], [-97.2610063, 34.7404727], [-97.261141, 34.7404727], [-97.2611409, 34.7406442], [-97.2611663, 34.7406442], [-97.2611661, 34.7408698]]]}, "properties": {"osm_id": 382652275, "building": "retail", "name": "McDonald's", "height": null, "height_m": null, "levels": null, "tract_id": "40049681300", "tract_name": "6813", "tags": {"addr:housenumber": "2635", "addr:street": "Grant Avenue", "amenity": "fast_food", "brand": "McDonald's", "brand:wikidata": "Q38076", "building": "retail", "cuisine": "burger", "name": "McDonald's", "opening_hours": "Mo-Th 05:00-00:00; Fr-Su 00:00-24:00", "takeaway": "yes", "website": "https://www.mcdonalds.com/us/en-us/location/ok/pauls-valley/2635-west-grant-ave/31357.html"}}}, {"type": "Feature", "geometry": {"type": "Polygon", "coordinates": [[[-97.2602955, 34.7411626], [-97.260299, 34.7409606], [-97.2601636, 34.740959], [-97.2601625, 34.7410216], [-97.2600327, 34.7410201], [-97.2600303, 34.7411595], [-97.2602955, 34.7411626]]]}, "properties": {"osm_id": 382652353, "building": "yes", "name": "", "height": null, "height_m": null, "levels": null, "tract_id": "40049681300", "tract_name": "6813", "tags": {"building": "yes"}}}, {"type": "Feature", "geometry": {"type": "Polygon", "coordinates": [[[-97.2601669, 34.7409469], [-97.2601651, 34.7408633], [-97.2600331, 34.7408652], [-97.2600349, 34.7409487], [-97.2601669, 34.7409469]]]}, "properties": {"osm_id": 382652354, "building": "yes", "name": "", "height": null, "height_m": null, "levels": null, "tract_id": "40049681300", "tract_name": "6813", "tags": {"building": "yes"}}}, {"type": "Feature", "geometry": {"type": "Polygon", "coordinates": [[[-97.2508952, 34.7408369], [-97.2508943, 34.7406787], [-97.2509147, 34.7406786], [-97.2509137, 34.7404699], [-97.2509287, 34.7404699], [-97.2509281, 34.7402631], [-97.2508288, 34.7402633], [-97.2508281, 34.7400074], [-97.2511924, 34.7400068], [-97.2511929, 34.7401749], [-97.2511827, 34.7401749], [-97.2511829, 34.7402711], [-97.2510846, 34.7402712], [-97.251085, 34.7404671], [-97.2511066, 34.7404671], [-97.251107, 34.7406764], [-97.2511192, 34.7406797], [-97.2511201, 34.740836], [-97.2508952, 34.7408369]]]}, "properties": {"osm_id": 382663800, "building": "yes", "name": "", "height": null, "height_m": null, "levels": null, "tract_id": "40049681300", "tract_name": "6813", "tags": {"building": "yes"}}}, {"type": "Feature", "geometry": {"type": "Polygon", "coordinates": [[[-97.2634217, 34.7421775], [-97.2634432, 34.7421841], [-97.263531, 34.7420767], [-97.2632122, 34.7419006], [-97.2631215, 34.7420115], [-97.2631983, 34.7420539], [-97.2631713, 34.7420869], [-97.2631996, 34.7421025], [-97.262909, 34.7424579], [-97.2631042, 34.7425657], [-97.2634217, 34.7421775]]]}, "properties": {"osm_id": 382664515, "building": "yes", "name": "", "height": null, "height_m": null, "levels": null, "tract_id": "40049681300", "tract_name": "6813", "tags": {"building": "yes"}}}, {"type": "Feature", "geometry": {"type": "Polygon", "coordinates": [[[-97.2636558, 34.7426535], [-97.2637287, 34.7425635], [-97.2635601, 34.7424714], [-97.2634803, 34.74257], [-97.2635004, 34.742581], [-97.2634586, 34.7426325], [-97.2635952, 34.7427072], [-97.2636439, 34.742647], [-97.2636558, 34.7426535]]]}, "properties": {"osm_id": 382664516, "building": "yes", "name": "", "height": null, "height_m": null, "levels": null, "tract_id": "40049681300", "tract_name": "6813", "tags": {"building": "yes"}}}, {"type": "Feature", "geometry": {"type": "Polygon", "coordinates": [[[-97.2457275, 34.7441625], [-97.2453687, 34.7441625], [-97.2453687, 34.7439317], [-97.2454633, 34.7439317], [-97.2454633, 34.7439047], [-97.2455471, 34.7439047], [-97.2455471, 34.7439317], [-97.2457275, 34.7439317], [-97.2457275, 34.7441625]]]}, "properties": {"osm_id": 604100316, "building": "yes", "name": "Covercraft Industries LLC", "height": null, "height_m": null, "levels": null, "tract_id": "40049681300", "tract_name": "6813", "tags": {"addr:city": "Pauls Valley", "addr:housenumber": "100", "addr:postcode": "73075", "addr:state": "OK", "addr:street": "Enterprise Boulevard", "building": "yes", "name": "Covercraft Industries LLC"}}}, {"type": "Feature", "geometry": {"type": "Polygon", "coordinates": [[[-97.2287297, 34.7482118], [-97.2288639, 34.7481058], [-97.2287907, 34.7480389], [-97.2286525, 34.7481442], [-97.2287297, 34.7482118]]]}, "properties": {"osm_id": 628590997, "building": "yes", "name": "Amphitheater", "height": null, "height_m": null, "levels": null, "tract_id": "40049681300", "tract_name": "6813", "tags": {"amenity": "theatre", "building": "yes", "name": "Amphitheater"}}}, {"type": "Feature", "geometry": {"type": "Polygon", "coordinates": [[[-97.2289472, 34.7480481], [-97.2288639, 34.7481058], [-97.2287297, 34.7482118], [-97.228622, 34.748292], [-97.2288883, 34.7484949], [-97.2292064, 34.7482586], [-97.2289472, 34.7480481]]]}, "properties": {"osm_id": 628591356, "building": "yes", "name": "Wacker Park Gymnasium", "height": null, "height_m": null, "levels": null, "tract_id": "40049681300", "tract_name": "6813", "tags": {"building": "yes", "leisure": "fitness_centre", "name": "Wacker Park Gymnasium", "sport": "basketball;volleyball;wrestling"}}}, {"type": "Feature", "geometry": {"type": "Polygon", "coordinates": [[[-97.2181469, 34.7416345], [-97.2182367, 34.7415651], [-97.2177351, 34.7411265], [-97.2176453, 34.7411959], [-97.2181469, 34.7416345]]]}, "properties": {"osm_id": 628595188, "building": "yes", "name": "Santa Fe Depot Museum", "height": null, "height_m": null, "levels": null, "tract_id": "40049681300", "tract_name": "6813", "tags": {"addr:city": "Pauls Valley", "addr:housenumber": "110", "addr:postcode": "73075", "addr:state": "OK", "addr:street": "South Santa Fe Street", "building": "yes", "check_date:opening_hours": "2023-07-24", "name": "Santa Fe Depot Museum", "opening_hours": "We-Sa 09:00-16:30; Su 13:00-16:30", "phone": "+1 405 238 2244", "tourism": "museum", "website": "https://www.paulsvalley.com/santa-fe-depot"}}}, {"type": "Feature", "geometry": {"type": "Polygon", "coordinates": [[[-97.2188473, 34.7397118], [-97.2187387, 34.7396177], [-97.2190422, 34.7393923], [-97.2191545, 34.7394813], [-97.2188473, 34.7397118]]]}, "properties": {"osm_id": 628596487, "building": "yes", "name": "", "height": null, "height_m": null, "levels": null, "tract_id": "40049681300", "tract_name": "6813", "tags": {"building": "yes"}}}, {"type": "Feature", "geometry": {"type": "Polygon", "coordinates": [[[-97.2193051, 34.7416004], [-97.2194256, 34.7415048], [-97.2192163, 34.7413267], [-97.2190958, 34.7414224], [-97.2193051, 34.7416004]]]}, "properties": {"osm_id": 761280499, "building": "yes", "name": "Royal Twin Theatre", "height": null, "height_m": null, "levels": null, "tract_id": "40049681300", "tract_name": "6813", "tags": {"addr:city": "Pauls Valley", "addr:housenumber": "119", "addr:postcode": "73075", "addr:state": "OK", "addr:street": "East Paul Avenue", "amenity": "cinema", "building": "yes", "name": "Royal Twin Theatre", "screen": "2", "wikidata": "Q43194154"}}}, {"type": "Feature", "geometry": {"type": "Polygon", "coordinates": [[[-97.2194976, 34.7402742], [-97.2198285, 34.7400095], [-97.2197188, 34.7399063], [-97.2193596, 34.7401739], [-97.2194976, 34.7402742]]]}, "properties": {"osm_id": 1026615086, "building": "yes", "name": "The Toy & Action Figure Museum", "height": null, "height_m": null, "levels": null, "tract_id": "40049681300", "tract_name": "6813", "tags": {"addr:city": "Pauls Valley", "addr:housenumber": "111", "addr:postcode": "73075", "addr:state": "OK", "addr:street": "South Chickasaw Street", "building": "yes", "fee": "yes", "name": "The Toy & Action Figure Museum", "opening_hours:url": "https://www.toyandactionfiguremuseum.com/about-us", "tourism": "museum", "website": "https://www.actionfiguremuseum.com/"}}}, {"type": "Feature", "geometry": {"type": "Polygon", "coordinates": [[[-97.2198019, 34.7412637], [-97.2195572, 34.7410501], [-97.2194484, 34.7411474], [-97.2196842, 34.7413478], [-97.2198019, 34.7412637]]]}, "properties": {"osm_id": 1026615519, "building": "yes", "name": "The Vault Art Space and Gathering Place", "height": null, "height_m": null, "levels": null, "tract_id": "40049681300", "tract_name": "6813", "tags": {"addr:city": "Pauls Valley", "addr:housenumber": "111", "addr:postcode": "73075", "addr:state": "OK", "addr:street": "East Paul Avenue", "building": "yes", "name": "The Vault Art Space and Gathering Place", "tourism": "gallery", "website": "https://thevaultpaulsvalley.com/"}}}, {"type": "Feature", "geometry": {"type": "Polygon", "coordinates": [[[-97.2299587, 34.7479465], [-97.2298693, 34.7476649], [-97.2299378, 34.7476135], [-97.2301591, 34.7473332], [-97.2302143, 34.7473341], [-97.2302087, 34.7475811], [-97.2302463, 34.7476395], [-97.2304294, 34.7476421], [-97.2304315, 34.7475442], [-97.2306676, 34.7475476], [-97.2306589, 34.7479565], [-97.2299587, 34.7479465]]]}, "properties": {"osm_id": 1026621551, "building": "yes", "name": "Donald W. Reynolds Recreation Center", "height": null, "height_m": null, "levels": null, "tract_id": "40049681300", "tract_name": "6813", "tags": {"addr:city": "Pauls Valley", "addr:housenumber": "1005", "addr:postcode": "73075", "addr:state": "OK", "addr:street": "North Willow Street", "amenity": "community_centre", "building": "yes", "name": "Donald W. Reynolds Recreation Center"}}}, {"type": "Feature", "geometry": {"type": "Polygon", "coordinates": [[[-97.2198935, 34.7400548], [-97.2198285, 34.7400095], [-97.2194976, 34.7402742], [-97.2195401, 34.7403173], [-97.2196153, 34.7402631], [-97.2197614, 34.7401537], [-97.2198935, 34.7400548]]]}, "properties": {"osm_id": 1033050198, "building": "yes", "name": "", "height": null, "height_m": null, "levels": null, "tract_id": "40049681300", "tract_name": "6813", "tags": {"building": "yes"}}}, {"type": "Feature", "geometry": {"type": "Polygon", "coordinates": [[[-97.2138588, 34.7460436], [-97.2137046, 34.7461604], [-97.2136315, 34.7460953], [-97.2137857, 34.7459784], [-97.2138588, 34.7460436]]]}, "properties": {"osm_id": 1062797496, "building": "yes", "name": "E-Z Mart", "height": null, "height_m": null, "levels": null, "tract_id": "40049681300", "tract_name": "6813", "tags": {"building": "yes", "name": "E-Z Mart", "shop": "convenience"}}}, {"type": "Feature", "geometry": {"type": "Polygon", "coordinates": [[[-97.2140023, 34.7461164], [-97.2139058, 34.7461177], [-97.2139031, 34.7459877], [-97.2139996, 34.7459863], [-97.2140023, 34.7461164]]]}, "properties": {"osm_id": 1062797497, "building": "yes", "name": "E-Z Mart", "height": null, "height_m": null, "levels": null, "tract_id": "40049681300", "tract_name": "6813", "tags": {"amenity": "fuel", "building": "yes", "fuel:diesel": "yes", "fuel:e10": "yes", "name": "E-Z Mart"}}}, {"type": "Feature", "geometry": {"type": "Polygon", "coordinates": [[[-97.222584, 34.7405171], [-97.22212, 34.7408763], [-97.2219643, 34.7407405], [-97.2220692, 34.7406593], [-97.2218828, 34.7404968], [-97.2221307, 34.7403048], [-97.2223171, 34.7404674], [-97.2224283, 34.7403813], [-97.222584, 34.7405171]]]}, "properties": {"osm_id": 1063064320, "building": "yes", "name": "Garvin County Courthouse", "height": null, "height_m": null, "levels": null, "tract_id": "40049681300", "tract_name": "6813", "tags": {"building": "yes", "name": "Garvin County Courthouse"}}}, {"type": "Feature", "geometry": {"type": "Polygon", "coordinates": [[[-97.2195401, 34.7403173], [-97.2196153, 34.7402631], [-97.2198309, 34.7404652], [-97.2197556, 34.7405194], [-97.2195401, 34.7403173]]]}, "properties": {"osm_id": 1063064321, "building": "yes", "name": "First National Bank", "height": null, "height_m": null, "levels": null, "tract_id": "40049681300", "tract_name": "6813", "tags": {"building": "yes", "name": "First National Bank"}}}, {"type": "Feature", "geometry": {"type": "Polygon", "coordinates": [[[-97.2394945, 34.740275], [-97.2394231, 34.7402161], [-97.2393211, 34.7402995], [-97.2392771, 34.7402994], [-97.239278, 34.7400075], [-97.2391084, 34.7400071], [-97.2391068, 34.7405466], [-97.2393999, 34.7405472], [-97.2394004, 34.7403519], [-97.2394945, 34.740275]]]}, "properties": {"osm_id": 1091538490, "building": "church", "name": "", "height": null, "height_m": null, "levels": null, "tract_id": "40049681300", "tract_name": "6813", "tags": {"amenity": "place_of_worship", "building": "church", "religion": "christian"}}}, {"type": "Feature", "geometry": {"type": "Polygon", "coordinates": [[[-97.2456254, 34.7422359], [-97.2456283, 34.7419285], [-97.2456783, 34.7419288], [-97.2456793, 34.7418296], [-97.2453261, 34.7418274], [-97.2453265, 34.7417852], [-97.2451733, 34.7417842], [-97.2451742, 34.7416866], [-97.2449637, 34.7416853], [-97.2449628, 34.7417812], [-97.2448113, 34.7417802], [-97.2448084, 34.742092], [-97.2451531, 34.7420942], [-97.2451517, 34.7422329], [-97.2456254, 34.7422359]]]}, "properties": {"osm_id": 1091539819, "building": "church", "name": "", "height": null, "height_m": null, "levels": null, "tract_id": "40049681300", "tract_name": "6813", "tags": {"amenity": "place_of_worship", "building": "church", "religion": "christian"}}}, {"type": "Feature", "geometry": {"type": "Polygon", "coordinates": [[[-97.2188271, 34.7420515], [-97.2188476, 34.7420361], [-97.2189465, 34.7421249], [-97.218926, 34.7421403], [-97.2188271, 34.7420515]]]}, "properties": {"osm_id": 1091541899, "building": "train", "name": "", "height": null, "height_m": null, "levels": null, "tract_id": "40049681300", "tract_name": "6813", "tags": {"building": "train", "historic": "train", "layer": "1", "tourism": "attraction"}}}, {"type": "Feature", "geometry": {"type": "Polygon", "coordinates": [[[-97.2187688, 34.7419965], [-97.218789, 34.7419817], [-97.2188449, 34.7420331], [-97.2188247, 34.7420479], [-97.2188069, 34.7420316], [-97.2187688, 34.7419965]]]}, "properties": {"osm_id": 1091541900, "building": "train", "name": "", "height": null, "height_m": null, "levels": null, "tract_id": "40049681300", "tract_name": "6813", "tags": {"building": "train", "historic": "train", "layer": "1", "tourism": "attraction"}}}, {"type": "Feature", "geometry": {"type": "Polygon", "coordinates": [[[-97.2186793, 34.7419204], [-97.2186985, 34.7419054], [-97.2187785, 34.7419745], [-97.2187593, 34.7419895], [-97.2186793, 34.7419204]]]}, "properties": {"osm_id": 1091541901, "building": "train", "name": "", "height": null, "height_m": null, "levels": null, "tract_id": "40049681300", "tract_name": "6813", "tags": {"building": "train", "historic": "train", "layer": "1", "tourism": "attraction"}}}, {"type": "Feature", "geometry": {"type": "Polygon", "coordinates": [[[-97.2274576, 34.7455931], [-97.2274727, 34.7456062], [-97.2274819, 34.7455991], [-97.2275913, 34.7456945], [-97.2276099, 34.7456801], [-97.2276592, 34.7457231], [-97.2275547, 34.7458041], [-97.2275029, 34.7457589], [-97.2275161, 34.7457488], [-97.2274919, 34.7457277], [-97.227502, 34.7457199], [-97.227418, 34.7456467], [-97.2274289, 34.7456383], [-97.2274149, 34.7456261], [-97.2274576, 34.7455931]]]}, "properties": {"osm_id": 1117690718, "building": "church", "name": "Saint Catherine of Siena Catholic Church", "height": null, "height_m": null, "levels": null, "tract_id": "40049681300", "tract_name": "6813", "tags": {"addr:city": "Pauls Valley", "addr:housenumber": "205", "addr:postcode": "73075", "addr:state": "OK", "addr:street": "West Bert Avenue", "amenity": "place_of_worship", "building": "church", "denomination": "roman_catholic", "diocese": "Oklahoma_City", "name": "Saint Catherine of Siena Catholic Church", "phone": "+1-405-238-3741", "religion": "christian"}}}, {"type": "Feature", "geometry": {"type": "Polygon", "coordinates": [[[-97.2201461, 34.7381425], [-97.2199293, 34.7379503], [-97.2197798, 34.7380642], [-97.2199966, 34.7382564], [-97.2201461, 34.7381425]]]}, "properties": {"osm_id": 1127874857, "building": "yes", "name": "", "height": null, "height_m": null, "levels": null, "tract_id": "40049681300", "tract_name": "6813", "tags": {"addr:city": "Pauls Valley", "addr:housenumber": "300", "addr:postcode": "73075", "addr:state": "OK", "addr:street": "South Walnut Street", "building": "yes", "roof:shape": "flat", "telecom": "exchange"}}}, {"type": "Feature", "geometry": {"type": "Polygon", "coordinates": [[[-97.2575878, 34.7411454], [-97.2574312, 34.7411458], [-97.2574311, 34.7411252], [-97.2569775, 34.7411262], [-97.2569773, 34.7410432], [-97.2568916, 34.7410434], [-97.2568913, 34.7409557], [-97.2569261, 34.7409556], [-97.256926, 34.7409215], [-97.257044, 34.7409212], [-97.2570441, 34.740935], [-97.2571471, 34.7409348], [-97.2571471, 34.7409207], [-97.257311, 34.7409203], [-97.2573111, 34.7409405], [-97.2574289, 34.7409402], [-97.2574289, 34.7409242], [-97.257587, 34.7409238], [-97.2575878, 34.7411454]]]}, "properties": {"osm_id": 1206792315, "building": "yes", "name": "Best Western Plus", "height": null, "height_m": null, "levels": null, "tract_id": "40049681300", "tract_name": "6813", "tags": {"addr:city": "Pauls Valley", "addr:housenumber": "2509", "addr:postcode": "73075-9218", "addr:state": "OK", "addr:street": "West Grant Avenue", "branch": "Pauls Valley", "brand": "Best Western Plus", "brand:wikidata": "Q830334", "building": "yes", "name": "Best Western Plus", "phone": "+1 405-444-6035", "ref": "37145", "tourism": "hotel", "website": "https://www.bestwestern.com/en_US/book/hotels-in-pauls-valley/best-western-plus-pauls-valley/propertyCode.37145.html"}}}, {"type": "Feature", "geometry": {"type": "Polygon", "coordinates": [[[-97.2125475, 34.7412172], [-97.2126627, 34.7411288], [-97.2128567, 34.7412997], [-97.2128888, 34.7412751], [-97.2128936, 34.7412794], [-97.2129105, 34.7412665], [-97.2128307, 34.7411962], [-97.2129147, 34.7411318], [-97.2129475, 34.7411607], [-97.2130578, 34.7410761], [-97.2128058, 34.7408543], [-97.2129441, 34.7407481], [-97.2133431, 34.7410993], [-97.213295, 34.7411362], [-97.213328, 34.7411653], [-97.2132896, 34.7411948], [-97.2132767, 34.7411835], [-97.2130343, 34.7413693], [-97.212957, 34.7413012], [-97.2129329, 34.7413197], [-97.2130248, 34.7414007], [-97.212881, 34.741511], [-97.2125475, 34.7412172]]]}, "properties": {"osm_id": 1303535776, "building": "school", "name": "", "height": null, "height_m": null, "levels": null, "tract_id": "40049681300", "tract_name": "6813", "tags": {"building": "school"}}}, {"type": "Feature", "geometry": {"type": "Polygon", "coordinates": [[[-97.2307956, 34.7464447], [-97.2309828, 34.746437], [-97.2310016, 34.7467444], [-97.2308144, 34.7467521], [-97.2307956, 34.7464447]]]}, "properties": {"osm_id": 1321593643, "building": "yes", "name": "", "height": null, "height_m": null, "levels": null, "tract_id": "40049681300", "tract_name": "6813", "tags": {"building": "yes"}}}, {"type": "Feature", "geometry": {"type": "Polygon", "coordinates": [[[-97.2311161, 34.7464315], [-97.2309828, 34.746437], [-97.2307956, 34.7464447], [-97.2307873, 34.746308], [-97.2311078, 34.7462947], [-97.2311161, 34.7464315]]]}, "properties": {"osm_id": 1321593644, "building": "yes", "name": "", "height": null, "height_m": null, "levels": null, "tract_id": "40049681300", "tract_name": "6813", "tags": {"building": "yes"}}}, {"type": "Feature", "geometry": {"type": "Polygon", "coordinates": [[[-97.2299682, 34.7461373], [-97.2302164, 34.7462047], [-97.2301212, 34.7464416], [-97.2298729, 34.7463742], [-97.2299682, 34.7461373]]]}, "properties": {"osm_id": 1321593645, "building": "yes", "name": "", "height": null, "height_m": null, "levels": null, "tract_id": "40049681300", "tract_name": "6813", "tags": {"building": "yes"}}}, {"type": "Feature", "geometry": {"type": "Polygon", "coordinates": [[[-97.2282033, 34.7483631], [-97.2280881, 34.7482606], [-97.2281442, 34.748218], [-97.2282594, 34.7483206], [-97.2282033, 34.7483631]]]}, "properties": {"osm_id": 1321593646, "building": "yes", "name": "", "height": null, "height_m": null, "levels": null, "tract_id": "40049681300", "tract_name": "6813", "tags": {"building": "yes"}}}, {"type": "Feature", "geometry": {"type": "Polygon", "coordinates": [[[-97.2282529, 34.7484073], [-97.2280855, 34.7485342], [-97.2278776, 34.7483491], [-97.228045, 34.7482222], [-97.2280881, 34.7482606], [-97.2282033, 34.7483631], [-97.2282529, 34.7484073]]]}, "properties": {"osm_id": 1321593647, "building": "yes", "name": "", "height": null, "height_m": null, "levels": null, "tract_id": "40049681300", "tract_name": "6813", "tags": {"building": "yes"}}}, {"type": "Feature", "geometry": {"type": "Polygon", "coordinates": [[[-97.2192284, 34.7409464], [-97.2195835, 34.7406507], [-97.219371, 34.7404784], [-97.2192781, 34.7405558], [-97.2193149, 34.7405856], [-97.2191703, 34.7407061], [-97.2190997, 34.7406489], [-97.2190501, 34.7406902], [-97.2189822, 34.7407468], [-97.2192284, 34.7409464]]]}, "properties": {"osm_id": 1354788623, "building": "yes", "name": "", "height": null, "height_m": null, "levels": null, "tract_id": "40049681300", "tract_name": "6813", "tags": {"building": "yes"}}}, {"type": "Feature", "geometry": {"type": "Polygon", "coordinates": [[[-97.2195572, 34.7410501], [-97.2198007, 34.7408617], [-97.2202683, 34.7412699], [-97.2199154, 34.7415428], [-97.2198097, 34.7414506], [-97.2199875, 34.7413131], [-97.2198703, 34.7412108], [-97.2198019, 34.7412637], [-97.2195572, 34.7410501]]]}, "properties": {"osm_id": 1354788624, "building": "yes", "name": "", "height": null, "height_m": null, "levels": null, "tract_id": "40049681300", "tract_name": "6813", "tags": {"building": "yes"}}}, {"type": "Feature", "geometry": {"type": "Polygon", "coordinates": [[[-97.2192163, 34.7413267], [-97.2193895, 34.7411878], [-97.2196044, 34.7413701], [-97.2194256, 34.7415048], [-97.2192163, 34.7413267]]]}, "properties": {"osm_id": 1354788625, "building": "yes", "name": "", "height": null, "height_m": null, "levels": null, "tract_id": "40049681300", "tract_name": "6813", "tags": {"building": "yes"}}}, {"type": "Feature", "geometry": {"type": "Polygon", "coordinates": [[[-97.2202019, 34.7409341], [-97.2199768, 34.7407446], [-97.2203281, 34.7404627], [-97.2205533, 34.7406523], [-97.2202019, 34.7409341]]]}, "properties": {"osm_id": 1354788626, "building": "yes", "name": "", "height": null, "height_m": null, "levels": null, "tract_id": "40049681300", "tract_name": "6813", "tags": {"building": "yes"}}}, {"type": "Feature", "geometry": {"type": "Polygon", "coordinates": [[[-97.2206038, 34.7406135], [-97.2203748, 34.7404087], [-97.2207249, 34.7401444], [-97.2211937, 34.7405639], [-97.2210001, 34.74071], [-97.2207603, 34.7404954], [-97.2206038, 34.7406135]]]}, "properties": {"osm_id": 1354788627, "building": "yes", "name": "", "height": null, "height_m": null, "levels": null, "tract_id": "40049681300", "tract_name": "6813", "tags": {"building": "yes"}}}, {"type": "Feature", "geometry": {"type": "Polygon", "coordinates": [[[-97.2198309, 34.7404652], [-97.2201181, 34.7402515], [-97.2199546, 34.7401076], [-97.2198192, 34.7402169], [-97.2197614, 34.7401537], [-97.2196153, 34.7402631], [-97.2198309, 34.7404652]]]}, "properties": {"osm_id": 1354788628, "building": "yes", "name": "", "height": null, "height_m": null, "levels": null, "tract_id": "40049681300", "tract_name": "6813", "tags": {"building": "yes"}}}, {"type": "Feature", "geometry": {"type": "Polygon", "coordinates": [[[-97.2201502, 34.7402401], [-97.2203265, 34.7401025], [-97.2199772, 34.7398003], [-97.2201524, 34.7396636], [-97.2200245, 34.739553], [-97.2196731, 34.7398273], [-97.2201502, 34.7402401]]]}, "properties": {"osm_id": 1354788629, "building": "yes", "name": "", "height": null, "height_m": null, "levels": null, "tract_id": "40049681300", "tract_name": "6813", "tags": {"building": "yes"}}}, {"type": "Feature", "geometry": {"type": "Polygon", "coordinates": [[[-97.2191316, 34.7399677], [-97.2188473, 34.7397118], [-97.2191545, 34.7394813], [-97.2191807, 34.7395049], [-97.2192124, 34.7394811], [-97.2194706, 34.7397135], [-97.2191316, 34.7399677]]]}, "properties": {"osm_id": 1354788630, "building": "yes", "name": "", "height": null, "height_m": null, "levels": null, "tract_id": "40049681300", "tract_name": "6813", "tags": {"building": "yes"}}}, {"type": "Feature", "geometry": {"type": "Polygon", "coordinates": [[[-97.2186238, 34.7397984], [-97.2189675, 34.740096], [-97.2185966, 34.7403853], [-97.2182529, 34.7400877], [-97.2186238, 34.7397984]]]}, "properties": {"osm_id": 1354788631, "building": "yes", "name": "", "height": null, "height_m": null, "levels": null, "tract_id": "40049681300", "tract_name": "6813", "tags": {"building": "yes"}}}, {"type": "Feature", "geometry": {"type": "Polygon", "coordinates": [[[-97.2187684, 34.7405431], [-97.2189973, 34.7403704], [-97.2192214, 34.7405719], [-97.2190997, 34.7406489], [-97.2190501, 34.7406902], [-97.2189903, 34.7406525], [-97.2189272, 34.7406947], [-97.2187684, 34.7405431]]]}, "properties": {"osm_id": 1354788632, "building": "yes", "name": "", "height": null, "height_m": null, "levels": null, "tract_id": "40049681300", "tract_name": "6813", "tags": {"building": "yes"}}}, {"type": "Feature", "geometry": {"type": "Polygon", "coordinates": [[[-97.2189101, 34.7408198], [-97.2191261, 34.7410181], [-97.2188792, 34.7411996], [-97.2186632, 34.7410014], [-97.2189101, 34.7408198]]]}, "properties": {"osm_id": 1354788633, "building": "yes", "name": "", "height": null, "height_m": null, "levels": null, "tract_id": "40049681300", "tract_name": "6813", "tags": {"building": "yes"}}}, {"type": "Feature", "geometry": {"type": "Polygon", "coordinates": [[[-97.2209235, 34.741189], [-97.2206672, 34.7413846], [-97.2205713, 34.7412997], [-97.2208276, 34.7411041], [-97.2209235, 34.741189]]]}, "properties": {"osm_id": 1354788634, "building": "yes", "name": "", "height": null, "height_m": null, "levels": null, "tract_id": "40049681300", "tract_name": "6813", "tags": {"building": "yes"}}}, {"type": "Feature", "geometry": {"type": "Polygon", "coordinates": [[[-97.2193051, 34.7416004], [-97.2192094, 34.7416687], [-97.2190133, 34.7415114], [-97.2190133, 34.7414826], [-97.2190958, 34.7414224], [-97.2193051, 34.7416004]]]}, "properties": {"osm_id": 1354788635, "building": "yes", "name": "", "height": null, "height_m": null, "levels": null, "tract_id": "40049681300", "tract_name": "6813", "tags": {"building": "yes"}}}, {"type": "Feature", "geometry": {"type": "Polygon", "coordinates": [[[-97.2210427, 34.7395729], [-97.2206892, 34.7398453], [-97.2203328, 34.7395331], [-97.2204491, 34.7394434], [-97.220636, 34.739607], [-97.2207015, 34.7395565], [-97.2205606, 34.7394331], [-97.2207322, 34.7393008], [-97.2210427, 34.7395729]]]}, "properties": {"osm_id": 1354788636, "building": "yes", "name": "", "height": null, "height_m": null, "levels": null, "tract_id": "40049681300", "tract_name": "6813", "tags": {"building": "yes"}}}, {"type": "Feature", "geometry": {"type": "Polygon", "coordinates": [[[-97.2208826, 34.7400243], [-97.2212411, 34.7397584], [-97.221457, 34.739955], [-97.2210984, 34.7402208], [-97.2208826, 34.7400243]]]}, "properties": {"osm_id": 1354788637, "building": "yes", "name": "", "height": null, "height_m": null, "levels": null, "tract_id": "40049681300", "tract_name": "6813", "tags": {"building": "yes"}}}, {"type": "Feature", "geometry": {"type": "Polygon", "coordinates": [[[-97.2210763, 34.7395567], [-97.2214318, 34.7392866], [-97.2211038, 34.7389951], [-97.2209605, 34.7391039], [-97.2210388, 34.7391735], [-97.2209569, 34.7392357], [-97.2208133, 34.739108], [-97.2210354, 34.7389393], [-97.2209531, 34.7388661], [-97.2206006, 34.7391339], [-97.2210763, 34.7395567]]]}, "properties": {"osm_id": 1354788638, "building": "yes", "name": "", "height": null, "height_m": null, "levels": null, "tract_id": "40049681300", "tract_name": "6813", "tags": {"building": "yes"}}}, {"type": "Feature", "geometry": {"type": "Polygon", "coordinates": [[[-97.2185211, 34.7388797], [-97.218857, 34.7391827], [-97.2187705, 34.7392475], [-97.2186542, 34.7391425], [-97.2186219, 34.7391667], [-97.2187405, 34.7392737], [-97.2185093, 34.7394467], [-97.2181711, 34.7391417], [-97.2185211, 34.7388797]]]}, "properties": {"osm_id": 1354788639, "building": "yes", "name": "", "height": null, "height_m": null, "levels": null, "tract_id": "40049681300", "tract_name": "6813", "tags": {"building": "yes"}}}, {"type": "Feature", "geometry": {"type": "Polygon", "coordinates": [[[-97.2178863, 34.739195], [-97.2180938, 34.7393756], [-97.218115, 34.7393592], [-97.2183677, 34.7395793], [-97.2179903, 34.739872], [-97.2176667, 34.7395903], [-97.2177951, 34.7394906], [-97.2176585, 34.7393718], [-97.2178863, 34.739195]]]}, "properties": {"osm_id": 1354788640, "building": "yes", "name": "", "height": null, "height_m": null, "levels": null, "tract_id": "40049681300", "tract_name": "6813", "tags": {"building": "yes"}}}, {"type": "Feature", "geometry": {"type": "Polygon", "coordinates": [[[-97.2192506, 34.7388676], [-97.2189136, 34.7391238], [-97.218707, 34.7389403], [-97.219044, 34.7386841], [-97.2192506, 34.7388676]]]}, "properties": {"osm_id": 1354788641, "building": "yes", "name": "", "height": null, "height_m": null, "levels": null, "tract_id": "40049681300", "tract_name": "6813", "tags": {"building": "yes"}}}, {"type": "Feature", "geometry": {"type": "Polygon", "coordinates": [[[-97.2186585, 34.7389024], [-97.2184541, 34.7387155], [-97.218803, 34.7384577], [-97.2190075, 34.7386447], [-97.2186585, 34.7389024]]]}, "properties": {"osm_id": 1354788642, "building": "yes", "name": "", "height": null, "height_m": null, "levels": null, "tract_id": "40049681300", "tract_name": "6813", "tags": {"building": "yes"}}}, {"type": "Feature", "geometry": {"type": "Polygon", "coordinates": [[[-97.218497, 34.7410314], [-97.2188732, 34.7407391], [-97.2187003, 34.7405889], [-97.2183242, 34.7408812], [-97.218497, 34.7410314]]]}, "properties": {"osm_id": 1354788643, "building": "yes", "name": "", "height": null, "height_m": null, "levels": null, "tract_id": "40049681300", "tract_name": "6813", "tags": {"building": "yes"}}}, {"type": "Feature", "geometry": {"type": "Polygon", "coordinates": [[[-97.2227855, 34.7398741], [-97.2227055, 34.7398098], [-97.2228667, 34.7396809], [-97.2229407, 34.7397518], [-97.2227855, 34.7398741]]]}, "properties": {"osm_id": 1378100103, "building": "yes", "name": "", "height": null, "height_m": null, "levels": null, "tract_id": "40049681300", "tract_name": "6813", "tags": {"building": "yes"}}}, {"type": "Feature", "geometry": {"type": "Polygon", "coordinates": [[[-97.2225591, 34.7398814], [-97.2225063, 34.7398383], [-97.2225652, 34.7397907], [-97.2226214, 34.7398323], [-97.2225591, 34.7398814]]]}, "properties": {"osm_id": 1378100104, "building": "yes", "name": "", "height": null, "height_m": null, "levels": null, "tract_id": "40049681300", "tract_name": "6813", "tags": {"building": "yes"}}}, {"type": "Feature", "geometry": {"type": "Polygon", "coordinates": [[[-97.2297097, 34.7496653], [-97.2296528, 34.7497398], [-97.2295595, 34.7496918], [-97.2296165, 34.7496172], [-97.2297097, 34.7496653]]]}, "properties": {"osm_id": 1429038438, "building": "yes", "name": "", "height": null, "height_m": null, "levels": null, "tract_id": "40049681300", "tract_name": "6813", "tags": {"building": "yes"}}}, {"type": "Feature", "geometry": {"type": "Polygon", "coordinates": [[[-97.2267563, 34.7488016], [-97.2266773, 34.748848], [-97.2266251, 34.7487878], [-97.2267041, 34.7487415], [-97.2267563, 34.7488016]]]}, "properties": {"osm_id": 1429038445, "building": "yes", "name": "", "height": null, "height_m": null, "levels": null, "tract_id": "40049681300", "tract_name": "6813", "tags": {"building": "yes"}}}, {"type": "Feature", "geometry": {"type": "Polygon", "coordinates": [[[-97.2264768, 34.7483895], [-97.2265546, 34.7482339], [-97.2264759, 34.7482073], [-97.2263981, 34.748363], [-97.2264768, 34.7483895]]]}, "properties": {"osm_id": 1429038446, "building": "yes", "name": "", "height": null, "height_m": null, "levels": null, "tract_id": "40049681300", "tract_name": "6813", "tags": {"building": "yes"}}}]}