{"type": "FeatureCollection", "features": [{"type": "Feature", "geometry": {"type": "Polygon", "coordinates": [[[-95.9253621, 35.9571956], [-95.925166, 35.9571707], [-95.9251758, 35.9571202], [-95.9251855, 35.9571214], [-95.9251914, 35.9570908], [-95.9252037, 35.9570923], [-95.9252055, 35.9570829], [-95.9251526, 35.9570762], [-95.9251589, 35.9570432], [-95.925165, 35.957012], [-95.9253872, 35.9570402], [-95.9253974, 35.9570526], [-95.925392, 35.9570792], [-95.9253779, 35.9570885], [-95.9253663, 35.957087], [-95.9253626, 35.9571064], [-95.925379, 35.9571085], [-95.9253621, 35.9571956]]]}, "properties": {"osm_id": 248782276, "building": "house", "name": "", "height": null, "height_m": null, "levels": null, "tract_id": "40143007803", "tract_name": "78.03", "tags": {"addr:city": "Bixby", "addr:country": "US", "addr:housenumber": "14218", "addr:postcode": "74008", "addr:state": "OK", "addr:street": "South Urbana Avenue", "building": "house"}}}, {"type": "Feature", "geometry": {"type": "Polygon", "coordinates": [[[-95.8871456, 35.9443183], [-95.8869379, 35.9443183], [-95.8869379, 35.9438864], [-95.8871456, 35.9438864], [-95.8871456, 35.9443183]]]}, "properties": {"osm_id": 375122311, "building": "yes", "name": "QuikTrip", "height": null, "height_m": null, "levels": null, "tract_id": "40143007803", "tract_name": "78.03", "tags": {"addr:city": "Bixby", "addr:housenumber": "15102", "addr:state": "OK", "addr:street": "South Memorial Drive East", "amenity": "fuel", "brand": "QuikTrip", "brand:short": "QT", "brand:wikidata": "Q7271953", "building": "yes", "name": "QuikTrip", "opening_hours": "24/7", "short_name": "QT"}}}, {"type": "Feature", "geometry": {"type": "Polygon", "coordinates": [[[-95.8874805, 35.9442399], [-95.8873519, 35.9442408], [-95.8873484, 35.9439044], [-95.887477, 35.9439035], [-95.8874805, 35.9442399]]]}, "properties": {"osm_id": 375122312, "building": "retail", "name": "QuikTrip", "height": null, "height_m": null, "levels": null, "tract_id": "40143007803", "tract_name": "78.03", "tags": {"addr:city": "Bixby", "addr:country": "US", "addr:housenumber": "15102", "addr:postcode": "74008", "addr:state": "OK", "addr:street": "South Memorial Drive East", "brand": "QuikTrip", "brand:wikidata": "Q7271953", "building": "retail", "name": "QuikTrip", "phone": "+1 918 366 2700", "ref": "51", "shop": "convenience", "short_name": "QT", "source": "INCOG"}}}, {"type": "Feature", "geometry": {"type": "Polygon", "coordinates": [[[-95.8872569, 35.9458272], [-95.8869957, 35.9458286], [-95.8869949, 35.9457417], [-95.8872562, 35.9457403], [-95.8872569, 35.9458272]]]}, "properties": {"osm_id": 426002257, "building": "retail", "name": "Taco Bueno", "height": null, "height_m": null, "levels": null, "tract_id": "40143007803", "tract_name": "78.03", "tags": {"addr:city": "Bixby", "addr:country": "US", "addr:housenumber": "15040", "addr:postcode": "74008", "addr:state": "OK", "addr:street": "South Memorial Drive East", "amenity": "fast_food", "brand": "Taco Bueno", "brand:wikidata": "Q7673958", "building": "retail", "cuisine": "mexican", "name": "Taco Bueno", "takeaway": "yes"}}}, {"type": "Feature", "geometry": {"type": "Polygon", "coordinates": [[[-95.887364, 35.9452235], [-95.8870207, 35.9452248], [-95.8870205, 35.9451844], [-95.8873637, 35.9451832], [-95.887364, 35.9452235]]]}, "properties": {"osm_id": 426002260, "building": "roof", "name": "", "height": null, "height_m": null, "levels": null, "tract_id": "40143007803", "tract_name": "78.03", "tags": {"building": "roof", "layer": "1"}}}, {"type": "Feature", "geometry": {"type": "Polygon", "coordinates": [[[-95.8870956, 35.9454746], [-95.8873367, 35.9454747], [-95.8873368, 35.9452526], [-95.8870957, 35.9452526], [-95.8870956, 35.9454746]]]}, "properties": {"osm_id": 426002261, "building": "retail", "name": "O'Reilly Auto Parts", "height": null, "height_m": null, "levels": null, "tract_id": "40143007803", "tract_name": "78.03", "tags": {"addr:city": "Bixby", "addr:country": "US", "addr:housenumber": "15070", "addr:postcode": "74008", "addr:state": "OK", "addr:street": "South Memorial Drive East", "brand": "O'Reilly Auto Parts", "brand:wikidata": "Q7071951", "building": "retail", "name": "O'Reilly Auto Parts", "shop": "car_parts"}}}, {"type": "Feature", "geometry": {"type": "Polygon", "coordinates": [[[-95.8873642, 35.9450444], [-95.887065, 35.9450465], [-95.8870642, 35.9449702], [-95.8872142, 35.9449692], [-95.8872143, 35.9449832], [-95.8873635, 35.9449822], [-95.8873642, 35.9450444]]]}, "properties": {"osm_id": 426002263, "building": "retail", "name": "Sonic", "height": null, "height_m": null, "levels": null, "tract_id": "40143007803", "tract_name": "78.03", "tags": {"addr:city": "Bixby", "addr:country": "US", "addr:housenumber": "15098", "addr:postcode": "74008", "addr:state": "OK", "addr:street": "South Memorial Drive East", "amenity": "fast_food", "brand": "Sonic", "brand:wikidata": "Q7561808", "building": "retail", "cuisine": "burger", "drive_in": "yes", "name": "Sonic", "opening_hours": "Mo-Sa 06:00-23:00; Su 07:00-23:00", "phone": "+1 918-366-8559", "takeaway": "yes", "website": "https://locations.sonicdrivein.com/ok/bixby/15098-s.-memorial.html"}}}, {"type": "Feature", "geometry": {"type": "Polygon", "coordinates": [[[-95.8887696, 35.9461208], [-95.88877, 35.9462656], [-95.8888426, 35.9462686], [-95.8888427, 35.9463361], [-95.8887703, 35.9463436], [-95.8887709, 35.9465674], [-95.8886995, 35.946655], [-95.8884421, 35.9466555], [-95.8882625, 35.9466559], [-95.8882626, 35.9463481], [-95.8882627, 35.9461203], [-95.8886725, 35.9461206], [-95.8887696, 35.9461208]]]}, "properties": {"osm_id": 426002265, "building": "retail", "name": "Country Mart", "height": null, "height_m": null, "levels": null, "tract_id": "40143007803", "tract_name": "78.03", "tags": {"addr:city": "Bixby", "addr:housenumber": "15028", "addr:postcode": "74008", "addr:street": "South Memorial Drive East", "building": "retail", "name": "Country Mart", "operator": "Doc's Foods", "phone": "+1 918 366 8238", "shop": "supermarket"}}}, {"type": "Feature", "geometry": {"type": "Polygon", "coordinates": [[[-95.9197847, 35.9558482], [-95.9197291, 35.9557735], [-95.9197556, 35.9557607], [-95.9197086, 35.955696], [-95.9196992, 35.9557012], [-95.9196821, 35.9556835], [-95.9195894, 35.9557337], [-95.9196009, 35.9557499], [-95.9195381, 35.9557821], [-95.9195296, 35.9557714], [-95.919477, 35.9557994], [-95.9195527, 35.9558924], [-95.9196766, 35.9558316], [-95.9197138, 35.9558838], [-95.9197847, 35.9558482]]]}, "properties": {"osm_id": 718984641, "building": "yes", "name": "", "height": null, "height_m": null, "levels": null, "tract_id": "40143007803", "tract_name": "78.03", "tags": {"building": "yes"}}}, {"type": "Feature", "geometry": {"type": "Polygon", "coordinates": [[[-95.9195188, 35.9559393], [-95.9194804, 35.9559594], [-95.9194908, 35.9559723], [-95.9194382, 35.9559998], [-95.9194258, 35.9559842], [-95.9193602, 35.9560185], [-95.9193472, 35.9560022], [-95.9192726, 35.9560411], [-95.9192089, 35.9559611], [-95.9192294, 35.9559504], [-95.9192128, 35.9559295], [-95.9193807, 35.9558419], [-95.9193971, 35.9558625], [-95.9194399, 35.9558402], [-95.9195188, 35.9559393]]]}, "properties": {"osm_id": 718984642, "building": "yes", "name": "", "height": null, "height_m": null, "levels": null, "tract_id": "40143007803", "tract_name": "78.03", "tags": {"building": "yes"}}}, {"type": "Feature", "geometry": {"type": "Polygon", "coordinates": [[[-95.9190229, 35.9563971], [-95.9190997, 35.9561762], [-95.9190859, 35.9561731], [-95.9191071, 35.9561121], [-95.9189864, 35.9560846], [-95.9189659, 35.9561438], [-95.9189495, 35.9561401], [-95.9189328, 35.9561882], [-95.9189243, 35.9561926], [-95.9189198, 35.9562071], [-95.9189222, 35.9562147], [-95.9189262, 35.9562156], [-95.9189009, 35.9562885], [-95.9189625, 35.9563025], [-95.9189365, 35.9563774], [-95.9190229, 35.9563971]]]}, "properties": {"osm_id": 718984643, "building": "yes", "name": "", "height": null, "height_m": null, "levels": null, "tract_id": "40143007803", "tract_name": "78.03", "tags": {"building": "yes"}}}, {"type": "Feature", "geometry": {"type": "Polygon", "coordinates": [[[-95.919719, 35.9564836], [-95.9196859, 35.9564903], [-95.9196743, 35.9564849], [-95.9195613, 35.9565077], [-95.919555, 35.9564871], [-95.919527, 35.9564927], [-95.9195042, 35.9564189], [-95.9195304, 35.9564136], [-95.9195222, 35.9563871], [-95.91965, 35.9563613], [-95.9196275, 35.9562885], [-95.9197129, 35.9562712], [-95.9197725, 35.956464], [-95.919724, 35.9564739], [-95.919719, 35.9564836]]]}, "properties": {"osm_id": 718984644, "building": "yes", "name": "", "height": null, "height_m": null, "levels": null, "tract_id": "40143007803", "tract_name": "78.03", "tags": {"building": "yes"}}}, {"type": "Feature", "geometry": {"type": "Polygon", "coordinates": [[[-95.919903, 35.9561648], [-95.9199589, 35.9560871], [-95.9200309, 35.9561211], [-95.9200397, 35.9561089], [-95.9200744, 35.9561253], [-95.9200808, 35.9561164], [-95.9201233, 35.9561364], [-95.9201181, 35.9561436], [-95.9201534, 35.9561603], [-95.9201431, 35.9561747], [-95.9202132, 35.9562078], [-95.9201565, 35.9562864], [-95.9200945, 35.9562572], [-95.9200797, 35.9562777], [-95.9199495, 35.9562163], [-95.9199654, 35.9561942], [-95.919903, 35.9561648]]]}, "properties": {"osm_id": 718984645, "building": "yes", "name": "", "height": null, "height_m": null, "levels": null, "tract_id": "40143007803", "tract_name": "78.03", "tags": {"building": "yes"}}}, {"type": "Feature", "geometry": {"type": "Polygon", "coordinates": [[[-95.9397912, 35.9366468], [-95.9397908, 35.936518], [-95.9397635, 35.9365181], [-95.9397633, 35.9364575], [-95.9397905, 35.9364574], [-95.9397902, 35.9363894], [-95.939922, 35.9363891], [-95.9399224, 35.9364996], [-95.9399151, 35.9364996], [-95.9399154, 35.9365907], [-95.9399002, 35.9365907], [-95.9399003, 35.9366466], [-95.9397912, 35.9366468]]]}, "properties": {"osm_id": 719982495, "building": "detached", "name": "", "height": null, "height_m": null, "levels": null, "tract_id": "40143007803", "tract_name": "78.03", "tags": {"addr:city": "Bixby", "addr:housenumber": "15625", "addr:postcode": "74008", "addr:state": "OK", "addr:street": "South Harvard Avenue", "building": "detached"}}}, {"type": "Feature", "geometry": {"type": "Polygon", "coordinates": [[[-95.9396422, 35.9365348], [-95.9396439, 35.9364673], [-95.9396025, 35.9364666], [-95.9396008, 35.9365341], [-95.9396422, 35.9365348]]]}, "properties": {"osm_id": 719982496, "building": "yes", "name": "", "height": null, "height_m": null, "levels": null, "tract_id": "40143007803", "tract_name": "78.03", "tags": {"building": "yes"}}}, {"type": "Feature", "geometry": {"type": "Polygon", "coordinates": [[[-95.9394707, 35.9366089], [-95.9393747, 35.9366119], [-95.9393769, 35.9366576], [-95.9394729, 35.9366545], [-95.9394707, 35.9366089]]]}, "properties": {"osm_id": 719982497, "building": "yes", "name": "", "height": null, "height_m": null, "levels": null, "tract_id": "40143007803", "tract_name": "78.03", "tags": {"building": "yes"}}}, {"type": "Feature", "geometry": {"type": "Polygon", "coordinates": [[[-95.9392248, 35.9366648], [-95.9392255, 35.9366205], [-95.9392629, 35.9366209], [-95.9392622, 35.9366652], [-95.9392248, 35.9366648]]]}, "properties": {"osm_id": 719982498, "building": "yes", "name": "", "height": null, "height_m": null, "levels": null, "tract_id": "40143007803", "tract_name": "78.03", "tags": {"building": "yes"}}}, {"type": "Feature", "geometry": {"type": "Polygon", "coordinates": [[[-95.9349047, 35.9433212], [-95.9346408, 35.9433198], [-95.9346407, 35.9433317], [-95.9345524, 35.9433312], [-95.9345524, 35.9433218], [-95.9343049, 35.9433205], [-95.9343085, 35.9429051], [-95.9344715, 35.942906], [-95.9344727, 35.9427734], [-95.9343679, 35.9427728], [-95.9343684, 35.942709], [-95.9343118, 35.9427087], [-95.9343125, 35.9426247], [-95.9343677, 35.942625], [-95.93437, 35.9423565], [-95.9348516, 35.9423591], [-95.9348494, 35.9426279], [-95.9349045, 35.9426282], [-95.9349039, 35.9427131], [-95.9348472, 35.9427128], [-95.9348467, 35.9427728], [-95.9347328, 35.9427722], [-95.9347316, 35.9429148], [-95.9349074, 35.9429157], [-95.9349064, 35.94304], [-95.9350893, 35.9430409], [-95.9350886, 35.9431297], [-95.9349063, 35.9431288], [-95.9349047, 35.9433212]]]}, "properties": {"osm_id": 719982499, "building": "yes", "name": "", "height": null, "height_m": null, "levels": null, "tract_id": "40143007803", "tract_name": "78.03", "tags": {"building": "yes"}}}, {"type": "Feature", "geometry": {"type": "Polygon", "coordinates": [[[-95.9333347, 35.941853], [-95.9327639, 35.941853], [-95.9327639, 35.9417699], [-95.9333347, 35.9417699], [-95.9333347, 35.941853]]]}, "properties": {"osm_id": 719982500, "building": "yes", "name": "", "height": null, "height_m": null, "levels": null, "tract_id": "40143007803", "tract_name": "78.03", "tags": {"building": "yes"}}}, {"type": "Feature", "geometry": {"type": "Polygon", "coordinates": [[[-95.9326957, 35.9426368], [-95.9326938, 35.941965], [-95.9327289, 35.941965], [-95.932728, 35.942636], [-95.9326957, 35.9426368]]]}, "properties": {"osm_id": 719982501, "building": "yes", "name": "", "height": null, "height_m": null, "levels": null, "tract_id": "40143007803", "tract_name": "78.03", "tags": {"building": "yes"}}}, {"type": "Feature", "geometry": {"type": "Polygon", "coordinates": [[[-95.9328304, 35.942635], [-95.9328309, 35.9419637], [-95.9329341, 35.9419637], [-95.9329334, 35.9426351], [-95.9328304, 35.942635]]]}, "properties": {"osm_id": 719982502, "building": "yes", "name": "", "height": null, "height_m": null, "levels": null, "tract_id": "40143007803", "tract_name": "78.03", "tags": {"building": "yes"}}}, {"type": "Feature", "geometry": {"type": "Polygon", "coordinates": [[[-95.9330339, 35.9426355], [-95.9330331, 35.9419645], [-95.9331365, 35.9419644], [-95.9331371, 35.9426354], [-95.9330339, 35.9426355]]]}, "properties": {"osm_id": 719982503, "building": "yes", "name": "", "height": null, "height_m": null, "levels": null, "tract_id": "40143007803", "tract_name": "78.03", "tags": {"building": "yes"}}}, {"type": "Feature", "geometry": {"type": "Polygon", "coordinates": [[[-95.9332358, 35.9426361], [-95.9332376, 35.9419649], [-95.9333418, 35.9419651], [-95.9333399, 35.9426363], [-95.9332358, 35.9426361]]]}, "properties": {"osm_id": 719982504, "building": "yes", "name": "", "height": null, "height_m": null, "levels": null, "tract_id": "40143007803", "tract_name": "78.03", "tags": {"building": "yes"}}}, {"type": "Feature", "geometry": {"type": "Polygon", "coordinates": [[[-95.9217207, 35.9294846], [-95.9215885, 35.9293645], [-95.9215229, 35.9294119], [-95.9215511, 35.9294375], [-95.921509, 35.9294679], [-95.9215943, 35.9295454], [-95.9215988, 35.9295422], [-95.9216051, 35.9295479], [-95.9216389, 35.9295235], [-95.9216453, 35.9295293], [-95.9216625, 35.9295168], [-95.9216685, 35.9295223], [-95.9217207, 35.9294846]]]}, "properties": {"osm_id": 722034892, "building": "yes", "name": "", "height": null, "height_m": null, "levels": null, "tract_id": "40143007803", "tract_name": "78.03", "tags": {"addr:city": "Bixby", "addr:country": "US", "addr:housenumber": "16117", "addr:postcode": "74008", "addr:state": "OK", "addr:street": "South Yale Avenue East", "building": "yes"}}}, {"type": "Feature", "geometry": {"type": "Polygon", "coordinates": [[[-95.9130621, 35.9262437], [-95.9130289, 35.9262191], [-95.9130029, 35.9262422], [-95.9130361, 35.9262668], [-95.9130621, 35.9262437]]]}, "properties": {"osm_id": 722034893, "building": "yes", "name": "", "height": null, "height_m": null, "levels": null, "tract_id": "40143007803", "tract_name": "78.03", "tags": {"building": "yes"}}}, {"type": "Feature", "geometry": {"type": "Polygon", "coordinates": [[[-95.912896, 35.9262594], [-95.9126986, 35.9263015], [-95.9126512, 35.9261554], [-95.9127359, 35.9261374], [-95.9127394, 35.9261479], [-95.912852, 35.926124], [-95.912896, 35.9262594]]]}, "properties": {"osm_id": 722034894, "building": "yes", "name": "", "height": null, "height_m": null, "levels": null, "tract_id": "40143007803", "tract_name": "78.03", "tags": {"building": "yes"}}}, {"type": "Feature", "geometry": {"type": "Polygon", "coordinates": [[[-95.9124721, 35.9262582], [-95.9124099, 35.9262582], [-95.91241, 35.9262206], [-95.9123023, 35.9262205], [-95.9123024, 35.9262028], [-95.9122795, 35.9262028], [-95.9122797, 35.9260949], [-95.9124724, 35.9260951], [-95.9124721, 35.9262582]]]}, "properties": {"osm_id": 722034895, "building": "yes", "name": "", "height": null, "height_m": null, "levels": null, "tract_id": "40143007803", "tract_name": "78.03", "tags": {"building": "yes"}}}, {"type": "Feature", "geometry": {"type": "Polygon", "coordinates": [[[-95.9121539, 35.9262207], [-95.9121548, 35.9261632], [-95.9121658, 35.9261633], [-95.9121664, 35.926125], [-95.9121557, 35.9261249], [-95.9121564, 35.9260811], [-95.9120151, 35.9260796], [-95.9120145, 35.9261135], [-95.9119046, 35.9261124], [-95.9119043, 35.9261354], [-95.911891, 35.9261353], [-95.9118902, 35.9261882], [-95.9119014, 35.9261883], [-95.9119005, 35.9262495], [-95.9119941, 35.9262505], [-95.9119938, 35.9262648], [-95.9120688, 35.9262655], [-95.9120695, 35.9262198], [-95.9121539, 35.9262207]]]}, "properties": {"osm_id": 722034896, "building": "yes", "name": "", "height": null, "height_m": null, "levels": null, "tract_id": "40143007803", "tract_name": "78.03", "tags": {"building": "yes"}}}, {"type": "Feature", "geometry": {"type": "Polygon", "coordinates": [[[-95.9122616, 35.9264631], [-95.9122262, 35.9264632], [-95.912226, 35.9264421], [-95.9122615, 35.926442], [-95.9122616, 35.9264631]]]}, "properties": {"osm_id": 722034897, "building": "yes", "name": "", "height": null, "height_m": null, "levels": null, "tract_id": "40143007803", "tract_name": "78.03", "tags": {"building": "yes"}}}, {"type": "Feature", "geometry": {"type": "Polygon", "coordinates": [[[-95.9121725, 35.9264465], [-95.9120964, 35.9264488], [-95.9120948, 35.9264124], [-95.9121709, 35.9264102], [-95.9121725, 35.9264465]]]}, "properties": {"osm_id": 722034898, "building": "yes", "name": "", "height": null, "height_m": null, "levels": null, "tract_id": "40143007803", "tract_name": "78.03", "tags": {"building": "yes"}}}, {"type": "Feature", "geometry": {"type": "Polygon", "coordinates": [[[-95.9117627, 35.9264598], [-95.9117626, 35.9264262], [-95.9117952, 35.9264261], [-95.9117953, 35.9264598], [-95.9117627, 35.9264598]]]}, "properties": {"osm_id": 722034899, "building": "yes", "name": "", "height": null, "height_m": null, "levels": null, "tract_id": "40143007803", "tract_name": "78.03", "tags": {"building": "yes"}}}, {"type": "Feature", "geometry": {"type": "Polygon", "coordinates": [[[-95.9117358, 35.9262371], [-95.9115227, 35.9262369], [-95.9115229, 35.9261081], [-95.9116418, 35.9261082], [-95.9116419, 35.9260673], [-95.911736, 35.9260674], [-95.9117358, 35.9262371]]]}, "properties": {"osm_id": 722034900, "building": "yes", "name": "", "height": null, "height_m": null, "levels": null, "tract_id": "40143007803", "tract_name": "78.03", "tags": {"building": "yes"}}}, {"type": "Feature", "geometry": {"type": "Polygon", "coordinates": [[[-95.9112656, 35.9262501], [-95.911207, 35.9262493], [-95.9112076, 35.926218], [-95.911158, 35.9262173], [-95.91116, 35.9261238], [-95.911207, 35.9261245], [-95.9112075, 35.9261017], [-95.9112275, 35.926102], [-95.9112279, 35.9260836], [-95.9113038, 35.9260847], [-95.911301, 35.9262207], [-95.9112662, 35.9262202], [-95.9112656, 35.9262501]]]}, "properties": {"osm_id": 722034901, "building": "yes", "name": "", "height": null, "height_m": null, "levels": null, "tract_id": "40143007803", "tract_name": "78.03", "tags": {"building": "yes"}}}, {"type": "Feature", "geometry": {"type": "Polygon", "coordinates": [[[-95.9110743, 35.9263957], [-95.9110742, 35.9263455], [-95.9111149, 35.9263454], [-95.9111151, 35.9263957], [-95.9110743, 35.9263957]]]}, "properties": {"osm_id": 722034902, "building": "yes", "name": "", "height": null, "height_m": null, "levels": null, "tract_id": "40143007803", "tract_name": "78.03", "tags": {"building": "yes"}}}, {"type": "Feature", "geometry": {"type": "Polygon", "coordinates": [[[-95.9109313, 35.9263798], [-95.9109292, 35.9263126], [-95.9110133, 35.9263108], [-95.9110154, 35.9263781], [-95.9109313, 35.9263798]]]}, "properties": {"osm_id": 722034903, "building": "yes", "name": "", "height": null, "height_m": null, "levels": null, "tract_id": "40143007803", "tract_name": "78.03", "tags": {"building": "yes"}}}, {"type": "Feature", "geometry": {"type": "Polygon", "coordinates": [[[-95.9107138, 35.9262893], [-95.9106727, 35.9262899], [-95.9106719, 35.9262539], [-95.910713, 35.9262533], [-95.9107138, 35.9262893]]]}, "properties": {"osm_id": 722034904, "building": "yes", "name": "", "height": null, "height_m": null, "levels": null, "tract_id": "40143007803", "tract_name": "78.03", "tags": {"building": "yes"}}}, {"type": "Feature", "geometry": {"type": "Polygon", "coordinates": [[[-95.9108239, 35.926211], [-95.9107254, 35.9262093], [-95.9107261, 35.9261858], [-95.9107119, 35.9261856], [-95.9107147, 35.9260787], [-95.9108314, 35.9260807], [-95.9108312, 35.9260879], [-95.9109254, 35.9260895], [-95.9109232, 35.9261734], [-95.9108525, 35.9261722], [-95.9108521, 35.9261878], [-95.9108245, 35.9261874], [-95.9108239, 35.926211]]]}, "properties": {"osm_id": 722034905, "building": "yes", "name": "", "height": null, "height_m": null, "levels": null, "tract_id": "40143007803", "tract_name": "78.03", "tags": {"building": "yes"}}}, {"type": "Feature", "geometry": {"type": "Polygon", "coordinates": [[[-95.9129846, 35.9267711], [-95.9128412, 35.9267703], [-95.9128415, 35.9267334], [-95.9129849, 35.9267342], [-95.9129846, 35.9267711]]]}, "properties": {"osm_id": 722034906, "building": "yes", "name": "", "height": null, "height_m": null, "levels": null, "tract_id": "40143007803", "tract_name": "78.03", "tags": {"building": "yes"}}}, {"type": "Feature", "geometry": {"type": "Polygon", "coordinates": [[[-95.9133612, 35.9272926], [-95.913318, 35.9272902], [-95.9133197, 35.9272705], [-95.9133629, 35.9272729], [-95.9133612, 35.9272926]]]}, "properties": {"osm_id": 722034907, "building": "yes", "name": "", "height": null, "height_m": null, "levels": null, "tract_id": "40143007803", "tract_name": "78.03", "tags": {"building": "yes"}}}, {"type": "Feature", "geometry": {"type": "Polygon", "coordinates": [[[-95.9133355, 35.9274884], [-95.9133369, 35.9273535], [-95.913201, 35.9273526], [-95.9131996, 35.9274875], [-95.9133355, 35.9274884]]]}, "properties": {"osm_id": 722034908, "building": "yes", "name": "", "height": null, "height_m": null, "levels": null, "tract_id": "40143007803", "tract_name": "78.03", "tags": {"building": "yes"}}}, {"type": "Feature", "geometry": {"type": "Polygon", "coordinates": [[[-95.9122554, 35.9276745], [-95.912254, 35.9276154], [-95.9123137, 35.9276146], [-95.912315, 35.9276736], [-95.9122554, 35.9276745]]]}, "properties": {"osm_id": 722034909, "building": "yes", "name": "", "height": null, "height_m": null, "levels": null, "tract_id": "40143007803", "tract_name": "78.03", "tags": {"building": "yes"}}}, {"type": "Feature", "geometry": {"type": "Polygon", "coordinates": [[[-95.9123457, 35.9280443], [-95.9123478, 35.9279073], [-95.9122428, 35.9279063], [-95.9122408, 35.9280433], [-95.9123457, 35.9280443]]]}, "properties": {"osm_id": 722034910, "building": "yes", "name": "", "height": null, "height_m": null, "levels": null, "tract_id": "40143007803", "tract_name": "78.03", "tags": {"building": "yes"}}}, {"type": "Feature", "geometry": {"type": "Polygon", "coordinates": [[[-95.9131118, 35.928135], [-95.9131117, 35.9279684], [-95.9130348, 35.9279684], [-95.9130348, 35.9279895], [-95.9129055, 35.9279896], [-95.9129055, 35.9279742], [-95.9128112, 35.9279743], [-95.9128112, 35.927979], [-95.9127854, 35.927979], [-95.9127853, 35.9279637], [-95.9126948, 35.9279639], [-95.9126954, 35.9281067], [-95.9127429, 35.9281066], [-95.9127429, 35.9281208], [-95.9127542, 35.9281208], [-95.9127542, 35.9281325], [-95.9128086, 35.9281324], [-95.9128086, 35.9281213], [-95.9128438, 35.9281212], [-95.9128439, 35.9281351], [-95.9129092, 35.928135], [-95.9129092, 35.92813], [-95.9129365, 35.92813], [-95.9129365, 35.928135], [-95.9131118, 35.928135]]]}, "properties": {"osm_id": 722034911, "building": "yes", "name": "", "height": null, "height_m": null, "levels": null, "tract_id": "40143007803", "tract_name": "78.03", "tags": {"building": "yes"}}}, {"type": "Feature", "geometry": {"type": "Polygon", "coordinates": [[[-95.9122685, 35.9287427], [-95.9122703, 35.9285309], [-95.9122122, 35.9285306], [-95.9122104, 35.9287424], [-95.9122685, 35.9287427]]]}, "properties": {"osm_id": 722034912, "building": "yes", "name": "", "height": null, "height_m": null, "levels": null, "tract_id": "40143007803", "tract_name": "78.03", "tags": {"building": "yes"}}}, {"type": "Feature", "geometry": {"type": "Polygon", "coordinates": [[[-95.9120045, 35.9286306], [-95.9119321, 35.9286253], [-95.9119376, 35.9285765], [-95.91201, 35.9285818], [-95.9120045, 35.9286306]]]}, "properties": {"osm_id": 722034913, "building": "yes", "name": "", "height": null, "height_m": null, "levels": null, "tract_id": "40143007803", "tract_name": "78.03", "tags": {"building": "yes"}}}, {"type": "Feature", "geometry": {"type": "Polygon", "coordinates": [[[-95.911132, 35.9284939], [-95.9109228, 35.9284949], [-95.9109218, 35.9283506], [-95.911131, 35.9283496], [-95.911132, 35.9284939]]]}, "properties": {"osm_id": 722034914, "building": "yes", "name": "", "height": null, "height_m": null, "levels": null, "tract_id": "40143007803", "tract_name": "78.03", "tags": {"building": "yes"}}}, {"type": "Feature", "geometry": {"type": "Polygon", "coordinates": [[[-95.9109527, 35.9289665], [-95.910952, 35.9291614], [-95.9109289, 35.9291613], [-95.9109286, 35.9292427], [-95.9110877, 35.929243], [-95.9110877, 35.9292673], [-95.9111853, 35.9292676], [-95.9111854, 35.9292449], [-95.911364, 35.9292454], [-95.9113643, 35.929164], [-95.9113381, 35.9291639], [-95.9113382, 35.9291385], [-95.9112443, 35.9291383], [-95.9112442, 35.9291639], [-95.9111825, 35.9291638], [-95.9111827, 35.9291354], [-95.9110883, 35.9291351], [-95.9110882, 35.9291635], [-95.9110466, 35.9291634], [-95.9110473, 35.9289667], [-95.9109527, 35.9289665]]]}, "properties": {"osm_id": 722034915, "building": "yes", "name": "", "height": null, "height_m": null, "levels": null, "tract_id": "40143007803", "tract_name": "78.03", "tags": {"building": "yes"}}}, {"type": "Feature", "geometry": {"type": "Polygon", "coordinates": [[[-95.9176287, 35.9307225], [-95.9173712, 35.9307218], [-95.9173718, 35.9305546], [-95.9174183, 35.9305547], [-95.9174183, 35.9305339], [-95.9174818, 35.930534], [-95.9174817, 35.9305569], [-95.9176294, 35.9305573], [-95.9176287, 35.9307225]]]}, "properties": {"osm_id": 722034916, "building": "yes", "name": "", "height": null, "height_m": null, "levels": null, "tract_id": "40143007803", "tract_name": "78.03", "tags": {"building": "yes"}}}, {"type": "Feature", "geometry": {"type": "Polygon", "coordinates": [[[-95.917881, 35.9308314], [-95.917713, 35.930832], [-95.9177124, 35.9307193], [-95.9178804, 35.9307186], [-95.917881, 35.9308314]]]}, "properties": {"osm_id": 722034917, "building": "yes", "name": "", "height": null, "height_m": null, "levels": null, "tract_id": "40143007803", "tract_name": "78.03", "tags": {"building": "yes"}}}, {"type": "Feature", "geometry": {"type": "Polygon", "coordinates": [[[-95.91864, 35.9309845], [-95.9186395, 35.9309269], [-95.9186829, 35.9309265], [-95.9186846, 35.9309845], [-95.91864, 35.9309845]]]}, "properties": {"osm_id": 722034918, "building": "yes", "name": "", "height": null, "height_m": null, "levels": null, "tract_id": "40143007803", "tract_name": "78.03", "tags": {"building": "yes"}}}, {"type": "Feature", "geometry": {"type": "Polygon", "coordinates": [[[-95.9186894, 35.9309611], [-95.9186894, 35.9309371], [-95.9187198, 35.9309371], [-95.9187198, 35.9309611], [-95.9186894, 35.9309611]]]}, "properties": {"osm_id": 722034919, "building": "yes", "name": "", "height": null, "height_m": null, "levels": null, "tract_id": "40143007803", "tract_name": "78.03", "tags": {"building": "yes"}}}, {"type": "Feature", "geometry": {"type": "Polygon", "coordinates": [[[-95.9190937, 35.9308811], [-95.9190975, 35.9307604], [-95.9189645, 35.9307577], [-95.9189633, 35.9307958], [-95.9189281, 35.9307951], [-95.9189286, 35.9307803], [-95.9188388, 35.9307785], [-95.918837, 35.9308359], [-95.9186984, 35.930833], [-95.9186957, 35.9309166], [-95.9188119, 35.9309189], [-95.9188132, 35.9308787], [-95.9188311, 35.9308791], [-95.9188288, 35.9309521], [-95.9189296, 35.9309541], [-95.9189317, 35.9308879], [-95.9189692, 35.9308887], [-95.9189695, 35.9308786], [-95.9190937, 35.9308811]]]}, "properties": {"osm_id": 722034920, "building": "yes", "name": "", "height": null, "height_m": null, "levels": null, "tract_id": "40143007803", "tract_name": "78.03", "tags": {"building": "yes"}}}, {"type": "Feature", "geometry": {"type": "Polygon", "coordinates": [[[-95.9200038, 35.9310816], [-95.9200042, 35.9309942], [-95.9198937, 35.9309938], [-95.9198933, 35.9310812], [-95.9200038, 35.9310816]]]}, "properties": {"osm_id": 722034921, "building": "yes", "name": "", "height": null, "height_m": null, "levels": null, "tract_id": "40143007803", "tract_name": "78.03", "tags": {"building": "yes"}}}, {"type": "Feature", "geometry": {"type": "Polygon", "coordinates": [[[-95.919763, 35.9309633], [-95.919669, 35.930964], [-95.9196687, 35.9309394], [-95.9195647, 35.9309403], [-95.9195632, 35.9308261], [-95.919641, 35.9308254], [-95.9196409, 35.9308171], [-95.9197206, 35.9308164], [-95.9197207, 35.930826], [-95.9197501, 35.9308257], [-95.9197502, 35.9308346], [-95.9198421, 35.9308339], [-95.9198433, 35.9309287], [-95.9197625, 35.9309294], [-95.919763, 35.9309633]]]}, "properties": {"osm_id": 722034922, "building": "yes", "name": "", "height": null, "height_m": null, "levels": null, "tract_id": "40143007803", "tract_name": "78.03", "tags": {"building": "yes"}}}, {"type": "Feature", "geometry": {"type": "Polygon", "coordinates": [[[-95.9196079, 35.9320359], [-95.9194948, 35.9320359], [-95.9194948, 35.9319976], [-95.9194333, 35.9319976], [-95.9194335, 35.931838], [-95.9194924, 35.9318381], [-95.9194925, 35.9317264], [-95.9195486, 35.9317265], [-95.9195486, 35.9317427], [-95.9195995, 35.9317428], [-95.9195995, 35.9317312], [-95.9196664, 35.9317312], [-95.9196664, 35.9318078], [-95.9196767, 35.9318078], [-95.9196767, 35.9318514], [-95.9196683, 35.9318514], [-95.9196682, 35.9318761], [-95.9196611, 35.9318776], [-95.9196611, 35.9319075], [-95.9196838, 35.9319075], [-95.9196837, 35.9319856], [-95.9196079, 35.9319856], [-95.9196079, 35.9320359]]]}, "properties": {"osm_id": 722034923, "building": "yes", "name": "", "height": null, "height_m": null, "levels": null, "tract_id": "40143007803", "tract_name": "78.03", "tags": {"building": "yes"}}}, {"type": "Feature", "geometry": {"type": "Polygon", "coordinates": [[[-95.9193059, 35.9321053], [-95.9191619, 35.932103], [-95.9191621, 35.9320961], [-95.9191357, 35.9320957], [-95.9191368, 35.932049], [-95.9191631, 35.9320494], [-95.9191646, 35.9319874], [-95.9193087, 35.9319896], [-95.9193059, 35.9321053]]]}, "properties": {"osm_id": 722034924, "building": "yes", "name": "", "height": null, "height_m": null, "levels": null, "tract_id": "40143007803", "tract_name": "78.03", "tags": {"building": "yes"}}}, {"type": "Feature", "geometry": {"type": "Polygon", "coordinates": [[[-95.919236, 35.9322538], [-95.9191292, 35.9322513], [-95.9191314, 35.9321889], [-95.9192382, 35.9321913], [-95.919236, 35.9322538]]]}, "properties": {"osm_id": 722034925, "building": "yes", "name": "", "height": null, "height_m": null, "levels": null, "tract_id": "40143007803", "tract_name": "78.03", "tags": {"building": "yes"}}}, {"type": "Feature", "geometry": {"type": "Polygon", "coordinates": [[[-95.9194287, 35.9322826], [-95.9193499, 35.9322815], [-95.9193512, 35.9322203], [-95.91943, 35.9322214], [-95.9194287, 35.9322826]]]}, "properties": {"osm_id": 722034926, "building": "yes", "name": "", "height": null, "height_m": null, "levels": null, "tract_id": "40143007803", "tract_name": "78.03", "tags": {"building": "yes"}}}, {"type": "Feature", "geometry": {"type": "Polygon", "coordinates": [[[-95.9204277, 35.9304994], [-95.9204267, 35.9306255], [-95.9204333, 35.9306255], [-95.9204329, 35.9306679], [-95.9205393, 35.9306685], [-95.9205397, 35.9306223], [-95.9205779, 35.9306225], [-95.9205784, 35.9305678], [-95.920539, 35.9305676], [-95.9205396, 35.9305], [-95.9204277, 35.9304994]]]}, "properties": {"osm_id": 722034927, "building": "yes", "name": "", "height": null, "height_m": null, "levels": null, "tract_id": "40143007803", "tract_name": "78.03", "tags": {"building": "yes"}}}, {"type": "Feature", "geometry": {"type": "Polygon", "coordinates": [[[-95.9213739, 35.9311322], [-95.921375, 35.9308628], [-95.9215346, 35.9308632], [-95.9215345, 35.9308833], [-95.9216165, 35.9308835], [-95.9216161, 35.930963], [-95.9215384, 35.9309628], [-95.9215377, 35.9311327], [-95.9213739, 35.9311322]]]}, "properties": {"osm_id": 722034928, "building": "yes", "name": "", "height": null, "height_m": null, "levels": null, "tract_id": "40143007803", "tract_name": "78.03", "tags": {"addr:city": "Bixby", "addr:country": "US", "addr:housenumber": "16033", "addr:postcode": "74008", "addr:state": "OK", "addr:street": "South Yale Avenue East", "amenity": "place_of_worship", "building": "yes", "denomination": "jehovahs_witness", "religion": "christian"}}}, {"type": "Feature", "geometry": {"type": "Polygon", "coordinates": [[[-95.9213977, 35.9313108], [-95.9213287, 35.9313115], [-95.9213277, 35.9312442], [-95.9213966, 35.9312435], [-95.9213977, 35.9313108]]]}, "properties": {"osm_id": 722034929, "building": "yes", "name": "", "height": null, "height_m": null, "levels": null, "tract_id": "40143007803", "tract_name": "78.03", "tags": {"building": "yes"}}}, {"type": "Feature", "geometry": {"type": "Polygon", "coordinates": [[[-95.9217015, 35.9314963], [-95.9215717, 35.9314965], [-95.9215715, 35.9314048], [-95.9217013, 35.9314047], [-95.9217015, 35.9314963]]]}, "properties": {"osm_id": 722034930, "building": "yes", "name": "", "height": null, "height_m": null, "levels": null, "tract_id": "40143007803", "tract_name": "78.03", "tags": {"building": "yes"}}}, {"type": "Feature", "geometry": {"type": "Polygon", "coordinates": [[[-95.9212812, 35.9314823], [-95.92128, 35.9314252], [-95.9212369, 35.9314258], [-95.9212381, 35.9314828], [-95.9212812, 35.9314823]]]}, "properties": {"osm_id": 722034931, "building": "yes", "name": "", "height": null, "height_m": null, "levels": null, "tract_id": "40143007803", "tract_name": "78.03", "tags": {"building": "yes"}}}, {"type": "Feature", "geometry": {"type": "Polygon", "coordinates": [[[-95.9214207, 35.9329458], [-95.9213825, 35.9329462], [-95.9213829, 35.9329713], [-95.9214211, 35.9329709], [-95.9214207, 35.9329458]]]}, "properties": {"osm_id": 722034932, "building": "yes", "name": "", "height": null, "height_m": null, "levels": null, "tract_id": "40143007803", "tract_name": "78.03", "tags": {"building": "yes"}}}, {"type": "Feature", "geometry": {"type": "Polygon", "coordinates": [[[-95.9216184, 35.9330774], [-95.9215193, 35.9330781], [-95.9215185, 35.9330075], [-95.9216176, 35.9330068], [-95.9216184, 35.9330774]]]}, "properties": {"osm_id": 722034933, "building": "yes", "name": "", "height": null, "height_m": null, "levels": null, "tract_id": "40143007803", "tract_name": "78.03", "tags": {"building": "yes"}}}, {"type": "Feature", "geometry": {"type": "Polygon", "coordinates": [[[-95.9215025, 35.9335746], [-95.9215039, 35.9334877], [-95.9214155, 35.9334867], [-95.9214154, 35.933498], [-95.9213772, 35.9334976], [-95.9213763, 35.9335529], [-95.9214167, 35.9335533], [-95.9214164, 35.9335737], [-95.9215025, 35.9335746]]]}, "properties": {"osm_id": 722034934, "building": "yes", "name": "", "height": null, "height_m": null, "levels": null, "tract_id": "40143007803", "tract_name": "78.03", "tags": {"building": "yes"}}}, {"type": "Feature", "geometry": {"type": "Polygon", "coordinates": [[[-95.9194225, 35.931665], [-95.9193549, 35.9316651], [-95.9193548, 35.931628], [-95.9194224, 35.9316279], [-95.9194225, 35.931665]]]}, "properties": {"osm_id": 722034935, "building": "shed", "name": "", "height": null, "height_m": null, "levels": null, "tract_id": "40143007803", "tract_name": "78.03", "tags": {"building": "shed"}}}, {"type": "Feature", "geometry": {"type": "Polygon", "coordinates": [[[-95.9193013, 35.9317455], [-95.9193009, 35.9317131], [-95.9192699, 35.9317133], [-95.9192702, 35.9317457], [-95.9193013, 35.9317455]]]}, "properties": {"osm_id": 722034936, "building": "shed", "name": "", "height": null, "height_m": null, "levels": null, "tract_id": "40143007803", "tract_name": "78.03", "tags": {"building": "shed"}}}, {"type": "Feature", "geometry": {"type": "Polygon", "coordinates": [[[-95.9197326, 35.9325444], [-95.9196599, 35.9325467], [-95.9196573, 35.9324933], [-95.9197299, 35.9324909], [-95.9197326, 35.9325444]]]}, "properties": {"osm_id": 722034937, "building": "yes", "name": "", "height": null, "height_m": null, "levels": null, "tract_id": "40143007803", "tract_name": "78.03", "tags": {"building": "yes"}}}, {"type": "Feature", "geometry": {"type": "Polygon", "coordinates": [[[-95.9196685, 35.9324859], [-95.9195172, 35.9324893], [-95.9195153, 35.9324332], [-95.9195318, 35.9324329], [-95.9195289, 35.9323495], [-95.9196487, 35.9323468], [-95.9196516, 35.9324311], [-95.9196666, 35.9324308], [-95.9196685, 35.9324859]]]}, "properties": {"osm_id": 722034938, "building": "yes", "name": "", "height": null, "height_m": null, "levels": null, "tract_id": "40143007803", "tract_name": "78.03", "tags": {"building": "yes"}}}, {"type": "Feature", "geometry": {"type": "Polygon", "coordinates": [[[-95.9195282, 35.9325297], [-95.9195274, 35.9324955], [-95.9195005, 35.9324959], [-95.9195012, 35.9325301], [-95.9195282, 35.9325297]]]}, "properties": {"osm_id": 722034939, "building": "yes", "name": "", "height": null, "height_m": null, "levels": null, "tract_id": "40143007803", "tract_name": "78.03", "tags": {"building": "yes"}}}, {"type": "Feature", "geometry": {"type": "Polygon", "coordinates": [[[-95.9192914, 35.9326202], [-95.9192911, 35.9325838], [-95.9192484, 35.9325841], [-95.9192488, 35.9326205], [-95.9192914, 35.9326202]]]}, "properties": {"osm_id": 722034940, "building": "yes", "name": "", "height": null, "height_m": null, "levels": null, "tract_id": "40143007803", "tract_name": "78.03", "tags": {"building": "yes"}}}, {"type": "Feature", "geometry": {"type": "Polygon", "coordinates": [[[-95.9191363, 35.9325728], [-95.9190916, 35.9325732], [-95.919092, 35.9326026], [-95.9191367, 35.9326023], [-95.9191363, 35.9325728]]]}, "properties": {"osm_id": 722034941, "building": "yes", "name": "", "height": null, "height_m": null, "levels": null, "tract_id": "40143007803", "tract_name": "78.03", "tags": {"building": "yes"}}}, {"type": "Feature", "geometry": {"type": "Polygon", "coordinates": [[[-95.9191461, 35.9328176], [-95.9193681, 35.932812], [-95.9193693, 35.9328432], [-95.9193789, 35.9328429], [-95.9193805, 35.9328848], [-95.9193574, 35.9328854], [-95.9193597, 35.932947], [-95.9193661, 35.9329468], [-95.9193675, 35.9329836], [-95.9193597, 35.9329838], [-95.9193611, 35.9330197], [-95.9193397, 35.9330202], [-95.9193405, 35.9330424], [-95.9193242, 35.9330428], [-95.9193247, 35.9330557], [-95.9192689, 35.9330571], [-95.9192684, 35.9330442], [-95.9192396, 35.9330449], [-95.9192383, 35.9330105], [-95.9191612, 35.9330124], [-95.919157, 35.9328999], [-95.9191493, 35.9329001], [-95.9191461, 35.9328176]]]}, "properties": {"osm_id": 722034942, "building": "yes", "name": "", "height": null, "height_m": null, "levels": null, "tract_id": "40143007803", "tract_name": "78.03", "tags": {"building": "yes"}}}, {"type": "Feature", "geometry": {"type": "Polygon", "coordinates": [[[-95.9275689, 35.9440172], [-95.9275457, 35.9440168], [-95.9275467, 35.9439718], [-95.9275699, 35.9439721], [-95.9275689, 35.9440172]]]}, "properties": {"osm_id": 723010511, "building": "yes", "name": "", "height": null, "height_m": null, "levels": null, "tract_id": "40143007803", "tract_name": "78.03", "tags": {"building": "yes"}}}, {"type": "Feature", "geometry": {"type": "Polygon", "coordinates": [[[-95.927299, 35.9440193], [-95.927299, 35.9439802], [-95.9273279, 35.9439802], [-95.9273279, 35.9440193], [-95.927299, 35.9440193]]]}, "properties": {"osm_id": 723010512, "building": "yes", "name": "", "height": null, "height_m": null, "levels": null, "tract_id": "40143007803", "tract_name": "78.03", "tags": {"building": "yes"}}}, {"type": "Feature", "geometry": {"type": "Polygon", "coordinates": [[[-95.9039585, 35.9563069], [-95.9039451, 35.956137], [-95.9040598, 35.9561311], [-95.9040732, 35.9563009], [-95.9039585, 35.9563069]]]}, "properties": {"osm_id": 725940455, "building": "yes", "name": "", "height": null, "height_m": null, "levels": null, "tract_id": "40143007803", "tract_name": "78.03", "tags": {"building": "yes"}}}, {"type": "Feature", "geometry": {"type": "Polygon", "coordinates": [[[-95.9236494, 35.9427856], [-95.9232421, 35.9427852], [-95.9232423, 35.9426736], [-95.9234416, 35.9426738], [-95.9234417, 35.9426326], [-95.9235836, 35.9426327], [-95.9235835, 35.9426746], [-95.9236496, 35.9426747], [-95.9236494, 35.9427856]]]}, "properties": {"osm_id": 726965796, "building": "yes", "name": "", "height": null, "height_m": null, "levels": null, "tract_id": "40143007803", "tract_name": "78.03", "tags": {"building": "yes"}}}, {"type": "Feature", "geometry": {"type": "Polygon", "coordinates": [[[-95.9232226, 35.9427673], [-95.9231529, 35.9427676], [-95.9231527, 35.9427391], [-95.9232223, 35.9427387], [-95.9232226, 35.9427673]]]}, "properties": {"osm_id": 726965797, "building": "yes", "name": "", "height": null, "height_m": null, "levels": null, "tract_id": "40143007803", "tract_name": "78.03", "tags": {"building": "yes"}}}, {"type": "Feature", "geometry": {"type": "Polygon", "coordinates": [[[-95.9230344, 35.9428029], [-95.9230342, 35.9427439], [-95.9229746, 35.9427441], [-95.9229748, 35.942803], [-95.9230344, 35.9428029]]]}, "properties": {"osm_id": 726965798, "building": "yes", "name": "", "height": null, "height_m": null, "levels": null, "tract_id": "40143007803", "tract_name": "78.03", "tags": {"building": "yes"}}}, {"type": "Feature", "geometry": {"type": "Polygon", "coordinates": [[[-95.9236361, 35.9426294], [-95.9234292, 35.9426253], [-95.9234323, 35.9425219], [-95.9236393, 35.942526], [-95.9236361, 35.9426294]]]}, "properties": {"osm_id": 726965799, "building": "yes", "name": "", "height": null, "height_m": null, "levels": null, "tract_id": "40143007803", "tract_name": "78.03", "tags": {"building": "yes"}}}, {"type": "Feature", "geometry": {"type": "Polygon", "coordinates": [[[-95.922987, 35.9426529], [-95.9228091, 35.9426033], [-95.9228659, 35.9424696], [-95.9229174, 35.942484], [-95.922912, 35.9424966], [-95.9229398, 35.9425044], [-95.9229532, 35.9424731], [-95.9230197, 35.9424916], [-95.9230115, 35.9425109], [-95.9231211, 35.9425414], [-95.9230934, 35.9426066], [-95.9230158, 35.942585], [-95.922987, 35.9426529]]]}, "properties": {"osm_id": 726965800, "building": "yes", "name": "", "height": null, "height_m": null, "levels": null, "tract_id": "40143007803", "tract_name": "78.03", "tags": {"addr:city": "Bixby", "addr:country": "US", "addr:housenumber": "15220", "addr:postcode": "74008", "addr:state": "OK", "addr:street": "South Yale Avenue East", "building": "yes"}}}, {"type": "Feature", "geometry": {"type": "Polygon", "coordinates": [[[-95.9198129, 35.9547484], [-95.9198416, 35.9545661], [-95.9198964, 35.9545718], [-95.9198974, 35.9545656], [-95.9199786, 35.954574], [-95.9199777, 35.9545796], [-95.9200034, 35.9545823], [-95.920005, 35.9545726], [-95.920146, 35.9545871], [-95.9201327, 35.9546716], [-95.9200126, 35.9546591], [-95.9199956, 35.9547673], [-95.9198129, 35.9547484]]]}, "properties": {"osm_id": 727895547, "building": "yes", "name": "", "height": null, "height_m": null, "levels": null, "tract_id": "40143007803", "tract_name": "78.03", "tags": {"building": "yes"}}}, {"type": "Feature", "geometry": {"type": "Polygon", "coordinates": [[[-95.9201801, 35.9545103], [-95.9199703, 35.9544723], [-95.9199784, 35.9544433], [-95.919954, 35.9544388], [-95.9199945, 35.9542928], [-95.9201956, 35.9543293], [-95.920181, 35.9543818], [-95.9201783, 35.9543813], [-95.9201635, 35.9544348], [-95.9201992, 35.9544413], [-95.9201801, 35.9545103]]]}, "properties": {"osm_id": 727895548, "building": "yes", "name": "", "height": null, "height_m": null, "levels": null, "tract_id": "40143007803", "tract_name": "78.03", "tags": {"building": "yes"}}}, {"type": "Feature", "geometry": {"type": "Polygon", "coordinates": [[[-95.9202701, 35.9542393], [-95.9202392, 35.954229], [-95.920235, 35.9542373], [-95.9200697, 35.9541824], [-95.920083, 35.9541563], [-95.9200703, 35.9541521], [-95.92006, 35.9541357], [-95.9200688, 35.954117], [-95.9200902, 35.9541115], [-95.9200738, 35.9541062], [-95.9201089, 35.9540345], [-95.9201253, 35.9540397], [-95.9201134, 35.9540217], [-95.9201227, 35.9540032], [-95.9201466, 35.9539965], [-95.9201615, 35.9540014], [-95.9201665, 35.9539916], [-95.9203185, 35.9540421], [-95.9202895, 35.9540992], [-95.9202785, 35.9540955], [-95.9202699, 35.9541125], [-95.9202751, 35.9541142], [-95.9202607, 35.9541426], [-95.9202549, 35.9541407], [-95.920245, 35.9541602], [-95.9203007, 35.9541787], [-95.9202701, 35.9542393]]]}, "properties": {"osm_id": 727895549, "building": "yes", "name": "", "height": null, "height_m": null, "levels": null, "tract_id": "40143007803", "tract_name": "78.03", "tags": {"building": "yes"}}}, {"type": "Feature", "geometry": {"type": "Polygon", "coordinates": [[[-95.9203698, 35.9539637], [-95.9202707, 35.9539322], [-95.9202685, 35.9539368], [-95.9202034, 35.9539162], [-95.920208, 35.9539067], [-95.9201586, 35.953891], [-95.9201617, 35.9538846], [-95.9201419, 35.9538783], [-95.9201648, 35.9538311], [-95.9201854, 35.9538377], [-95.9201878, 35.9538326], [-95.9202336, 35.9538472], [-95.9202288, 35.9538406], [-95.9202391, 35.9538191], [-95.9202521, 35.9538149], [-95.920262, 35.9537939], [-95.9202548, 35.9537836], [-95.9202657, 35.9537584], [-95.9202829, 35.9537557], [-95.920286, 35.9537493], [-95.9204161, 35.9537907], [-95.9203913, 35.9538417], [-95.9203863, 35.9538402], [-95.9203636, 35.953887], [-95.9204012, 35.953899], [-95.9203698, 35.9539637]]]}, "properties": {"osm_id": 727895550, "building": "yes", "name": "", "height": null, "height_m": null, "levels": null, "tract_id": "40143007803", "tract_name": "78.03", "tags": {"building": "yes"}}}, {"type": "Feature", "geometry": {"type": "Polygon", "coordinates": [[[-95.9180582, 35.9583368], [-95.9180072, 35.9583375], [-95.9180063, 35.9582983], [-95.9180573, 35.9582975], [-95.9180582, 35.9583368]]]}, "properties": {"osm_id": 739587739, "building": "yes", "name": "", "height": null, "height_m": null, "levels": null, "tract_id": "40143007803", "tract_name": "78.03", "tags": {"building": "yes"}}}, {"type": "Feature", "geometry": {"type": "Polygon", "coordinates": [[[-95.9177665, 35.9585925], [-95.9177033, 35.9585916], [-95.9177027, 35.9586216], [-95.9176289, 35.9586206], [-95.9176295, 35.9585909], [-95.9175951, 35.9585904], [-95.9175971, 35.958498], [-95.9175578, 35.9584975], [-95.9175594, 35.9584195], [-95.9176502, 35.9584208], [-95.9176491, 35.9584747], [-95.9176585, 35.9584748], [-95.9176582, 35.9584873], [-95.9177004, 35.9584879], [-95.9176999, 35.9585125], [-95.9177682, 35.9585135], [-95.9177665, 35.9585925]]]}, "properties": {"osm_id": 739587740, "building": "yes", "name": "", "height": null, "height_m": null, "levels": null, "tract_id": "40143007803", "tract_name": "78.03", "tags": {"building": "yes"}}}, {"type": "Feature", "geometry": {"type": "Polygon", "coordinates": [[[-95.8902096, 35.9517361], [-95.8900017, 35.9517375], [-95.8899994, 35.9515149], [-95.8902073, 35.9515135], [-95.8902096, 35.9517361]]]}, "properties": {"osm_id": 739821428, "building": "yes", "name": "", "height": null, "height_m": null, "levels": null, "tract_id": "40143007803", "tract_name": "78.03", "tags": {"building": "yes"}}}, {"type": "Feature", "geometry": {"type": "Polygon", "coordinates": [[[-95.8902688, 35.9513525], [-95.8900652, 35.9513535], [-95.8900625, 35.9509655], [-95.8901247, 35.9509652], [-95.8901245, 35.9509363], [-95.8901887, 35.950936], [-95.8901889, 35.9509645], [-95.8905746, 35.9509627], [-95.890575, 35.9510193], [-95.8905391, 35.9510194], [-95.890541, 35.9512967], [-95.8902685, 35.9512979], [-95.8902688, 35.9513525]]]}, "properties": {"osm_id": 739821429, "building": "yes", "name": "", "height": null, "height_m": null, "levels": null, "tract_id": "40143007803", "tract_name": "78.03", "tags": {"building": "yes"}}}, {"type": "Feature", "geometry": {"type": "Polygon", "coordinates": [[[-95.8921796, 35.956078], [-95.8921798, 35.9559893], [-95.8921477, 35.9559892], [-95.8921475, 35.956078], [-95.8921796, 35.956078]]]}, "properties": {"osm_id": 739821430, "building": "yes", "name": "", "height": null, "height_m": null, "levels": null, "tract_id": "40143007803", "tract_name": "78.03", "tags": {"building": "yes"}}}, {"type": "Feature", "geometry": {"type": "Polygon", "coordinates": [[[-95.89212, 35.9559809], [-95.8921207, 35.955933], [-95.8920869, 35.9559327], [-95.8920862, 35.9559806], [-95.89212, 35.9559809]]]}, "properties": {"osm_id": 739821431, "building": "yes", "name": "", "height": null, "height_m": null, "levels": null, "tract_id": "40143007803", "tract_name": "78.03", "tags": {"building": "yes"}}}, {"type": "Feature", "geometry": {"type": "Polygon", "coordinates": [[[-95.8924386, 35.9562291], [-95.8923183, 35.9562287], [-95.8923187, 35.9561548], [-95.892439, 35.9561552], [-95.8924386, 35.9562291]]]}, "properties": {"osm_id": 739821432, "building": "yes", "name": "", "height": null, "height_m": null, "levels": null, "tract_id": "40143007803", "tract_name": "78.03", "tags": {"building": "yes"}}}, {"type": "Feature", "geometry": {"type": "Polygon", "coordinates": [[[-95.8942874, 35.9567627], [-95.8942057, 35.9567637], [-95.8942049, 35.9567214], [-95.8942866, 35.9567204], [-95.8942874, 35.9567627]]]}, "properties": {"osm_id": 739821433, "building": "yes", "name": "", "height": null, "height_m": null, "levels": null, "tract_id": "40143007803", "tract_name": "78.03", "tags": {"building": "yes"}}}, {"type": "Feature", "geometry": {"type": "Polygon", "coordinates": [[[-95.8945218, 35.9578207], [-95.8944641, 35.9577937], [-95.8944904, 35.9577569], [-95.8945481, 35.957784], [-95.8945218, 35.9578207]]]}, "properties": {"osm_id": 739821434, "building": "yes", "name": "", "height": null, "height_m": null, "levels": null, "tract_id": "40143007803", "tract_name": "78.03", "tags": {"building": "yes"}}}, {"type": "Feature", "geometry": {"type": "Polygon", "coordinates": [[[-95.8942036, 35.9581269], [-95.8941564, 35.9581094], [-95.8941742, 35.9580779], [-95.8942215, 35.9580955], [-95.8942036, 35.9581269]]]}, "properties": {"osm_id": 739821435, "building": "yes", "name": "", "height": null, "height_m": null, "levels": null, "tract_id": "40143007803", "tract_name": "78.03", "tags": {"building": "yes"}}}, {"type": "Feature", "geometry": {"type": "Polygon", "coordinates": [[[-95.9107961, 35.9588249], [-95.9108007, 35.9586664], [-95.9108073, 35.9586665], [-95.9108085, 35.9586248], [-95.9108963, 35.9586265], [-95.9108951, 35.958669], [-95.9109079, 35.9586693], [-95.9109068, 35.9587074], [-95.9109806, 35.9587088], [-95.9109777, 35.9588078], [-95.9108893, 35.9588061], [-95.9108887, 35.9588266], [-95.9107961, 35.9588249]]]}, "properties": {"osm_id": 741017316, "building": "house", "name": "", "height": null, "height_m": null, "levels": null, "tract_id": "40143007803", "tract_name": "78.03", "tags": {"building": "house"}}}, {"type": "Feature", "geometry": {"type": "Polygon", "coordinates": [[[-95.9118629, 35.9588659], [-95.9117045, 35.9588634], [-95.9117039, 35.9587713], [-95.9117717, 35.9587721], [-95.9117728, 35.958694], [-95.9118511, 35.9586945], [-95.91185, 35.9587734], [-95.9119354, 35.9587742], [-95.9119342, 35.9588556], [-95.9118631, 35.9588558], [-95.9118629, 35.9588659]]]}, "properties": {"osm_id": 741995010, "building": "yes", "name": "", "height": null, "height_m": null, "levels": null, "tract_id": "40143007803", "tract_name": "78.03", "tags": {"building": "yes"}}}, {"type": "Feature", "geometry": {"type": "Polygon", "coordinates": [[[-95.9117446, 35.958753], [-95.9116742, 35.9587534], [-95.9116738, 35.9587135], [-95.9117443, 35.9587131], [-95.9117446, 35.958753]]]}, "properties": {"osm_id": 741995011, "building": "yes", "name": "", "height": null, "height_m": null, "levels": null, "tract_id": "40143007803", "tract_name": "78.03", "tags": {"building": "yes"}}}, {"type": "Feature", "geometry": {"type": "Polygon", "coordinates": [[[-95.9111576, 35.9587904], [-95.911064, 35.9587805], [-95.9110809, 35.9586766], [-95.9113481, 35.958705], [-95.9113331, 35.9587977], [-95.9111594, 35.9587792], [-95.9111576, 35.9587904]]]}, "properties": {"osm_id": 741995012, "building": "yes", "name": "", "height": null, "height_m": null, "levels": null, "tract_id": "40143007803", "tract_name": "78.03", "tags": {"building": "yes"}}}, {"type": "Feature", "geometry": {"type": "Polygon", "coordinates": [[[-95.9120388, 35.9585082], [-95.9120387, 35.9584247], [-95.9119982, 35.9584248], [-95.9119983, 35.9585082], [-95.9120388, 35.9585082]]]}, "properties": {"osm_id": 741995013, "building": "yes", "name": "", "height": null, "height_m": null, "levels": null, "tract_id": "40143007803", "tract_name": "78.03", "tags": {"building": "yes"}}}, {"type": "Feature", "geometry": {"type": "Polygon", "coordinates": [[[-95.9119855, 35.9585138], [-95.9118484, 35.9585127], [-95.9118494, 35.9584273], [-95.9119866, 35.9584284], [-95.9119855, 35.9585138]]]}, "properties": {"osm_id": 741995014, "building": "yes", "name": "", "height": null, "height_m": null, "levels": null, "tract_id": "40143007803", "tract_name": "78.03", "tags": {"building": "yes"}}}, {"type": "Feature", "geometry": {"type": "Polygon", "coordinates": [[[-95.9118298, 35.9584307], [-95.9118297, 35.9584141], [-95.9118093, 35.9584141], [-95.9118094, 35.9584308], [-95.9118298, 35.9584307]]]}, "properties": {"osm_id": 741995015, "building": "yes", "name": "", "height": null, "height_m": null, "levels": null, "tract_id": "40143007803", "tract_name": "78.03", "tags": {"building": "yes"}}}, {"type": "Feature", "geometry": {"type": "Polygon", "coordinates": [[[-95.9119488, 35.9583488], [-95.9118454, 35.9583484], [-95.9118459, 35.958277], [-95.9119493, 35.9582775], [-95.9119488, 35.9583488]]]}, "properties": {"osm_id": 741995016, "building": "yes", "name": "", "height": null, "height_m": null, "levels": null, "tract_id": "40143007803", "tract_name": "78.03", "tags": {"building": "yes"}}}, {"type": "Feature", "geometry": {"type": "Polygon", "coordinates": [[[-95.9116825, 35.9583535], [-95.9116267, 35.9583539], [-95.9116262, 35.9583027], [-95.9116819, 35.9583023], [-95.9116825, 35.9583535]]]}, "properties": {"osm_id": 741995017, "building": "yes", "name": "", "height": null, "height_m": null, "levels": null, "tract_id": "40143007803", "tract_name": "78.03", "tags": {"building": "yes"}}}, {"type": "Feature", "geometry": {"type": "Polygon", "coordinates": [[[-95.9109837, 35.9263941], [-95.9109843, 35.926414], [-95.9109558, 35.9264146], [-95.9109552, 35.9263947], [-95.9109837, 35.9263941]]]}, "properties": {"osm_id": 782882643, "building": "shed", "name": "", "height": null, "height_m": null, "levels": null, "tract_id": "40143007803", "tract_name": "78.03", "tags": {"building": "shed"}}}, {"type": "Feature", "geometry": {"type": "Polygon", "coordinates": [[[-95.920675, 35.955732], [-95.920651, 35.955586], [-95.920456, 35.955607], [-95.920472, 35.955705], [-95.920438, 35.955709], [-95.920451, 35.955787], [-95.92056, 35.955775], [-95.920565, 35.955805], [-95.920656, 35.955795], [-95.920646, 35.955735], [-95.920675, 35.955732]]]}, "properties": {"osm_id": 820215076, "building": "yes", "name": "", "height": null, "height_m": null, "levels": null, "tract_id": "40143007803", "tract_name": "78.03", "tags": {"building": "yes", "source": "microsoft/BuildingFootprints"}}}, {"type": "Feature", "geometry": {"type": "Polygon", "coordinates": [[[-95.920632, 35.955335], [-95.920529, 35.955339], [-95.92053, 35.955353], [-95.920484, 35.955354], [-95.92049, 35.955452], [-95.920411, 35.955455], [-95.920415, 35.95553], [-95.920643, 35.955521], [-95.920632, 35.955335]]]}, "properties": {"osm_id": 820215077, "building": "yes", "name": "", "height": null, "height_m": null, "levels": null, "tract_id": "40143007803", "tract_name": "78.03", "tags": {"building": "yes", "source": "microsoft/BuildingFootprints"}}}, {"type": "Feature", "geometry": {"type": "Polygon", "coordinates": [[[-95.920658, 35.955074], [-95.920493, 35.955071], [-95.920489, 35.955179], [-95.920414, 35.955177], [-95.920411, 35.955252], [-95.920651, 35.955258], [-95.920658, 35.955074]]]}, "properties": {"osm_id": 820215078, "building": "yes", "name": "", "height": null, "height_m": null, "levels": null, "tract_id": "40143007803", "tract_name": "78.03", "tags": {"building": "yes", "source": "microsoft/BuildingFootprints"}}}, {"type": "Feature", "geometry": {"type": "Polygon", "coordinates": [[[-95.920478, 35.95479], [-95.920467, 35.954885], [-95.920441, 35.954883], [-95.920432, 35.954958], [-95.920667, 35.954977], [-95.920678, 35.954891], [-95.92065, 35.954889], [-95.92066, 35.954804], [-95.920478, 35.95479]]]}, "properties": {"osm_id": 820215079, "building": "yes", "name": "", "height": null, "height_m": null, "levels": null, "tract_id": "40143007803", "tract_name": "78.03", "tags": {"building": "yes", "source": "microsoft/BuildingFootprints"}}}, {"type": "Feature", "geometry": {"type": "Polygon", "coordinates": [[[-95.920581, 35.954735], [-95.920724, 35.954758], [-95.920773, 35.954555], [-95.920586, 35.954525], [-95.920566, 35.954609], [-95.920514, 35.954601], [-95.920498, 35.954666], [-95.920594, 35.954681], [-95.920581, 35.954735]]]}, "properties": {"osm_id": 820215080, "building": "yes", "name": "", "height": null, "height_m": null, "levels": null, "tract_id": "40143007803", "tract_name": "78.03", "tags": {"building": "yes", "source": "microsoft/BuildingFootprints"}}}, {"type": "Feature", "geometry": {"type": "Polygon", "coordinates": [[[-95.9061507, 35.9425859], [-95.9063421, 35.9424363], [-95.9064804, 35.9425522], [-95.906289, 35.9427019], [-95.9061507, 35.9425859]]]}, "properties": {"osm_id": 837922255, "building": "yes", "name": "", "height": null, "height_m": null, "levels": null, "tract_id": "40143007803", "tract_name": "78.03", "tags": {"building": "yes"}}}, {"type": "Feature", "geometry": {"type": "Polygon", "coordinates": [[[-95.9051916, 35.9468462], [-95.9051884, 35.9467573], [-95.9051091, 35.9467592], [-95.9051124, 35.9468481], [-95.9051916, 35.9468462]]]}, "properties": {"osm_id": 837934086, "building": "yes", "name": "", "height": null, "height_m": null, "levels": null, "tract_id": "40143007803", "tract_name": "78.03", "tags": {"building": "yes"}}}, {"type": "Feature", "geometry": {"type": "Polygon", "coordinates": [[[-95.9054401, 35.9468153], [-95.90537, 35.9468168], [-95.905371, 35.9468497], [-95.9054411, 35.9468482], [-95.9054401, 35.9468153]]]}, "properties": {"osm_id": 837934087, "building": "yes", "name": "", "height": null, "height_m": null, "levels": null, "tract_id": "40143007803", "tract_name": "78.03", "tags": {"building": "yes"}}}, {"type": "Feature", "geometry": {"type": "Polygon", "coordinates": [[[-95.9075324, 35.9454597], [-95.9075303, 35.9451842], [-95.9075402, 35.9451842], [-95.90754, 35.9451591], [-95.907661, 35.9451585], [-95.9076612, 35.9451821], [-95.9076714, 35.945182], [-95.9076735, 35.945459], [-95.9075324, 35.9454597]]]}, "properties": {"osm_id": 837934088, "building": "industrial", "name": "Kubota", "height": null, "height_m": null, "levels": null, "tract_id": "40143007803", "tract_name": "78.03", "tags": {"brand": "Kubota", "building": "industrial", "name": "Kubota", "shop": "tractor"}}}, {"type": "Feature", "geometry": {"type": "Polygon", "coordinates": [[[-95.907891, 35.9461907], [-95.9078939, 35.9460916], [-95.9079645, 35.9460929], [-95.9079616, 35.9461921], [-95.907891, 35.9461907]]]}, "properties": {"osm_id": 837934089, "building": "garage", "name": "", "height": null, "height_m": null, "levels": null, "tract_id": "40143007803", "tract_name": "78.03", "tags": {"building": "garage"}}}, {"type": "Feature", "geometry": {"type": "Polygon", "coordinates": [[[-95.9078963, 35.9327792], [-95.9078575, 35.932708], [-95.9077721, 35.9327386], [-95.907785, 35.9327623], [-95.9077559, 35.9327727], [-95.9077256, 35.9327637], [-95.9077291, 35.9327559], [-95.9076421, 35.93273], [-95.907633, 35.9327502], [-95.9075956, 35.9327391], [-95.9075926, 35.9327457], [-95.9075647, 35.9327375], [-95.9075454, 35.9327804], [-95.9075283, 35.9327753], [-95.9074617, 35.9329236], [-95.9074428, 35.932918], [-95.9074197, 35.9329696], [-95.90746, 35.9329814], [-95.9074539, 35.9329952], [-95.907609, 35.9330407], [-95.9075918, 35.933079], [-95.9076757, 35.9331036], [-95.9077192, 35.9330061], [-95.9076699, 35.9329917], [-95.9076753, 35.9329797], [-95.9077493, 35.9330013], [-95.9078104, 35.9330191], [-95.9078463, 35.9329385], [-95.9077898, 35.932922], [-95.9077119, 35.9328992], [-95.9077508, 35.932812], [-95.907804, 35.9327929], [-95.9078128, 35.9328091], [-95.9078963, 35.9327792]]]}, "properties": {"osm_id": 837949579, "building": "yes", "name": "", "height": null, "height_m": null, "levels": null, "tract_id": "40143007803", "tract_name": "78.03", "tags": {"building": "yes"}}}, {"type": "Feature", "geometry": {"type": "Polygon", "coordinates": [[[-95.907641, 35.9331959], [-95.9076824, 35.9331031], [-95.9077968, 35.9331366], [-95.9077553, 35.9332293], [-95.907641, 35.9331959]]]}, "properties": {"osm_id": 837949580, "building": "yes", "name": "", "height": null, "height_m": null, "levels": null, "tract_id": "40143007803", "tract_name": "78.03", "tags": {"building": "yes"}}}, {"type": "Feature", "geometry": {"type": "Polygon", "coordinates": [[[-95.9003144, 35.9287877], [-95.9001124, 35.928787], [-95.9001121, 35.9288555], [-95.900314, 35.9288562], [-95.9003144, 35.9287877]]]}, "properties": {"osm_id": 837949588, "building": "yes", "name": "", "height": null, "height_m": null, "levels": null, "tract_id": "40143007803", "tract_name": "78.03", "tags": {"building": "yes"}}}, {"type": "Feature", "geometry": {"type": "Polygon", "coordinates": [[[-95.9008942, 35.9294789], [-95.9008933, 35.9293531], [-95.9009479, 35.9293528], [-95.9009478, 35.9293409], [-95.9009785, 35.9293408], [-95.9009784, 35.9293217], [-95.9010571, 35.9293213], [-95.9010575, 35.9293783], [-95.9010972, 35.9293781], [-95.9010969, 35.9293259], [-95.9011886, 35.9293255], [-95.901189, 35.9293785], [-95.9011948, 35.9293785], [-95.9011949, 35.9293981], [-95.901235, 35.9293979], [-95.9012357, 35.9294914], [-95.9011193, 35.929492], [-95.9011192, 35.9294788], [-95.9010622, 35.9294791], [-95.9010623, 35.9294874], [-95.9009855, 35.9294878], [-95.9009855, 35.9294785], [-95.9008942, 35.9294789]]]}, "properties": {"osm_id": 837949589, "building": "yes", "name": "", "height": null, "height_m": null, "levels": null, "tract_id": "40143007803", "tract_name": "78.03", "tags": {"building": "yes"}}}, {"type": "Feature", "geometry": {"type": "Polygon", "coordinates": [[[-95.9027046, 35.9291744], [-95.9025391, 35.9290347], [-95.9025596, 35.9290192], [-95.9024994, 35.9289671], [-95.9026062, 35.9288839], [-95.9026728, 35.9289449], [-95.9026658, 35.9289491], [-95.9026765, 35.9289601], [-95.902684, 35.9289551], [-95.9027166, 35.928987], [-95.9027127, 35.9289895], [-95.9027457, 35.9290231], [-95.9027645, 35.9290108], [-95.9027912, 35.9290391], [-95.9027777, 35.9290476], [-95.9027875, 35.9290567], [-95.9027959, 35.9290513], [-95.9028278, 35.9290832], [-95.9027991, 35.9291037], [-95.9028046, 35.9291084], [-95.9027589, 35.9291415], [-95.9027547, 35.9291377], [-95.9027046, 35.9291744]]]}, "properties": {"osm_id": 837949590, "building": "yes", "name": "", "height": null, "height_m": null, "levels": null, "tract_id": "40143007803", "tract_name": "78.03", "tags": {"building": "yes"}}}, {"type": "Feature", "geometry": {"type": "Polygon", "coordinates": [[[-95.9032104, 35.9292215], [-95.9031621, 35.9291827], [-95.9031865, 35.9291628], [-95.9032348, 35.9292016], [-95.9032104, 35.9292215]]]}, "properties": {"osm_id": 837949594, "building": "yes", "name": "", "height": null, "height_m": null, "levels": null, "tract_id": "40143007803", "tract_name": "78.03", "tags": {"building": "yes"}}}, {"type": "Feature", "geometry": {"type": "Polygon", "coordinates": [[[-95.9034389, 35.929383], [-95.9033894, 35.9293867], [-95.9033859, 35.929357], [-95.9034354, 35.9293533], [-95.9034389, 35.929383]]]}, "properties": {"osm_id": 837949595, "building": "yes", "name": "", "height": null, "height_m": null, "levels": null, "tract_id": "40143007803", "tract_name": "78.03", "tags": {"building": "yes"}}}, {"type": "Feature", "geometry": {"type": "Polygon", "coordinates": [[[-95.9039297, 35.9293434], [-95.9038862, 35.9292199], [-95.9036313, 35.9292788], [-95.9036592, 35.9293578], [-95.9037217, 35.9293434], [-95.9037315, 35.929371], [-95.9038347, 35.9293472], [-95.9038407, 35.929364], [-95.9039297, 35.9293434]]]}, "properties": {"osm_id": 837949596, "building": "yes", "name": "", "height": null, "height_m": null, "levels": null, "tract_id": "40143007803", "tract_name": "78.03", "tags": {"building": "yes"}}}, {"type": "Feature", "geometry": {"type": "Polygon", "coordinates": [[[-95.9042325, 35.9294328], [-95.9042848, 35.9293302], [-95.9042049, 35.9293035], [-95.9041525, 35.929406], [-95.9042325, 35.9294328]]]}, "properties": {"osm_id": 837949597, "building": "yes", "name": "", "height": null, "height_m": null, "levels": null, "tract_id": "40143007803", "tract_name": "78.03", "tags": {"building": "yes"}}}, {"type": "Feature", "geometry": {"type": "Polygon", "coordinates": [[[-95.9037639, 35.9283013], [-95.9039019, 35.9283024], [-95.9039024, 35.9283132], [-95.9039794, 35.9283128], [-95.9039785, 35.9284328], [-95.9040242, 35.9284332], [-95.9040696, 35.9284335], [-95.9040687, 35.9285482], [-95.9040231, 35.9285485], [-95.9039771, 35.9285489], [-95.9039891, 35.9285546], [-95.9039886, 35.9286055], [-95.9039749, 35.9286109], [-95.903974, 35.9286184], [-95.9038621, 35.9286173], [-95.9038634, 35.928584], [-95.9038254, 35.9285829], [-95.9038263, 35.9286048], [-95.9038369, 35.9286055], [-95.9038343, 35.9287122], [-95.9036157, 35.9287061], [-95.9036184, 35.9286646], [-95.9036431, 35.928665], [-95.9036471, 35.9285998], [-95.9038095, 35.9286041], [-95.9038099, 35.9285689], [-95.9038639, 35.9285693], [-95.9038665, 35.9284056], [-95.9037639, 35.9284034], [-95.9037639, 35.9283966], [-95.9037281, 35.9283959], [-95.9037276, 35.9283601], [-95.9037617, 35.9283597], [-95.9037639, 35.9283013]]]}, "properties": {"osm_id": 837949598, "building": "yes", "name": "", "height": null, "height_m": null, "levels": null, "tract_id": "40143007803", "tract_name": "78.03", "tags": {"building": "yes"}}}, {"type": "Feature", "geometry": {"type": "Polygon", "coordinates": [[[-95.9033953, 35.9286884], [-95.9032707, 35.9286835], [-95.9032747, 35.9286162], [-95.9033992, 35.928621], [-95.9033953, 35.9286884]]]}, "properties": {"osm_id": 837949603, "building": "yes", "name": "", "height": null, "height_m": null, "levels": null, "tract_id": "40143007803", "tract_name": "78.03", "tags": {"building": "yes"}}}, {"type": "Feature", "geometry": {"type": "Polygon", "coordinates": [[[-95.9032417, 35.9286577], [-95.903199, 35.9286564], [-95.9031999, 35.9286388], [-95.9032425, 35.9286401], [-95.9032417, 35.9286577]]]}, "properties": {"osm_id": 837949604, "building": "yes", "name": "", "height": null, "height_m": null, "levels": null, "tract_id": "40143007803", "tract_name": "78.03", "tags": {"building": "yes"}}}, {"type": "Feature", "geometry": {"type": "Polygon", "coordinates": [[[-95.9040269, 35.9281171], [-95.9038556, 35.9281181], [-95.903855, 35.9280461], [-95.9038192, 35.9280463], [-95.9038181, 35.927911], [-95.9038908, 35.9279106], [-95.9038907, 35.9278982], [-95.9039615, 35.9278978], [-95.9039616, 35.9279096], [-95.9039858, 35.9279094], [-95.9039861, 35.9279462], [-95.9040107, 35.927946], [-95.9040113, 35.9280151], [-95.9040261, 35.928015], [-95.9040269, 35.9281171]]]}, "properties": {"osm_id": 837949607, "building": "yes", "name": "", "height": null, "height_m": null, "levels": null, "tract_id": "40143007803", "tract_name": "78.03", "tags": {"building": "yes"}}}, {"type": "Feature", "geometry": {"type": "Polygon", "coordinates": [[[-95.9037739, 35.9281502], [-95.9037742, 35.9280972], [-95.9037066, 35.928097], [-95.9037063, 35.92815], [-95.9037739, 35.9281502]]]}, "properties": {"osm_id": 837949608, "building": "yes", "name": "", "height": null, "height_m": null, "levels": null, "tract_id": "40143007803", "tract_name": "78.03", "tags": {"building": "yes"}}}, {"type": "Feature", "geometry": {"type": "Polygon", "coordinates": [[[-95.9030163, 35.9276402], [-95.903016, 35.9275795], [-95.9029826, 35.9275796], [-95.902982, 35.9274549], [-95.9030164, 35.9274548], [-95.9030162, 35.9274168], [-95.9031391, 35.9274165], [-95.9031393, 35.9274532], [-95.9031721, 35.9274531], [-95.9031728, 35.9275975], [-95.9031414, 35.9275976], [-95.9031416, 35.9276399], [-95.9030163, 35.9276402]]]}, "properties": {"osm_id": 837949610, "building": "yes", "name": "", "height": null, "height_m": null, "levels": null, "tract_id": "40143007803", "tract_name": "78.03", "tags": {"building": "yes"}}}, {"type": "Feature", "geometry": {"type": "Polygon", "coordinates": [[[-95.9028139, 35.9286363], [-95.9027135, 35.9286342], [-95.9027162, 35.9285443], [-95.9028167, 35.9285463], [-95.9028139, 35.9286363]]]}, "properties": {"osm_id": 837949611, "building": "yes", "name": "", "height": null, "height_m": null, "levels": null, "tract_id": "40143007803", "tract_name": "78.03", "tags": {"building": "yes"}}}, {"type": "Feature", "geometry": {"type": "Polygon", "coordinates": [[[-95.9024145, 35.9284545], [-95.9024133, 35.9283283], [-95.9024746, 35.9283279], [-95.9024746, 35.9283193], [-95.9025214, 35.928319], [-95.9025213, 35.9283014], [-95.9026095, 35.9283008], [-95.9026097, 35.92832], [-95.902654, 35.9283197], [-95.9026541, 35.9283291], [-95.9027336, 35.9283285], [-95.9027345, 35.9284207], [-95.9026906, 35.928421], [-95.9026906, 35.92843], [-95.9026675, 35.9284302], [-95.9026677, 35.9284502], [-95.9026075, 35.9284506], [-95.9026077, 35.9284702], [-95.9025528, 35.9284705], [-95.9025528, 35.9284742], [-95.9024987, 35.9284745], [-95.9024984, 35.9284423], [-95.9024469, 35.9284427], [-95.902447, 35.9284543], [-95.9024145, 35.9284545]]]}, "properties": {"osm_id": 837949612, "building": "yes", "name": "", "height": null, "height_m": null, "levels": null, "tract_id": "40143007803", "tract_name": "78.03", "tags": {"building": "yes"}}}, {"type": "Feature", "geometry": {"type": "Polygon", "coordinates": [[[-95.9019243, 35.9277254], [-95.9019187, 35.9275534], [-95.901744, 35.9275572], [-95.9017495, 35.9277291], [-95.9019243, 35.9277254]]]}, "properties": {"osm_id": 837949613, "building": "yes", "name": "", "height": null, "height_m": null, "levels": null, "tract_id": "40143007803", "tract_name": "78.03", "tags": {"building": "yes"}}}, {"type": "Feature", "geometry": {"type": "Polygon", "coordinates": [[[-95.9017467, 35.9278072], [-95.9016334, 35.9278096], [-95.9016315, 35.9277519], [-95.9017448, 35.9277495], [-95.9017467, 35.9278072]]]}, "properties": {"osm_id": 837949614, "building": "yes", "name": "", "height": null, "height_m": null, "levels": null, "tract_id": "40143007803", "tract_name": "78.03", "tags": {"building": "yes"}}}, {"type": "Feature", "geometry": {"type": "Polygon", "coordinates": [[[-95.9013613, 35.9279185], [-95.9013256, 35.9279204], [-95.9013231, 35.9278891], [-95.9013588, 35.9278872], [-95.9013613, 35.9279185]]]}, "properties": {"osm_id": 837949615, "building": "yes", "name": "", "height": null, "height_m": null, "levels": null, "tract_id": "40143007803", "tract_name": "78.03", "tags": {"building": "yes"}}}, {"type": "Feature", "geometry": {"type": "Polygon", "coordinates": [[[-95.9015293, 35.927667], [-95.9015273, 35.9276003], [-95.9014429, 35.927602], [-95.9014449, 35.9276686], [-95.9015293, 35.927667]]]}, "properties": {"osm_id": 837949616, "building": "yes", "name": "", "height": null, "height_m": null, "levels": null, "tract_id": "40143007803", "tract_name": "78.03", "tags": {"building": "yes"}}}, {"type": "Feature", "geometry": {"type": "Polygon", "coordinates": [[[-95.9206456, 35.9558455], [-95.9205394, 35.9558656], [-95.9205624, 35.955963], [-95.9205412, 35.9559673], [-95.9205518, 35.956016], [-95.9205005, 35.9560303], [-95.9205252, 35.956099], [-95.9207429, 35.9560561], [-95.9207093, 35.9559372], [-95.9206703, 35.9559429], [-95.9206456, 35.9558455]]]}, "properties": {"osm_id": 932960782, "building": "yes", "name": "", "height": null, "height_m": null, "levels": null, "tract_id": "40143007803", "tract_name": "78.03", "tags": {"building": "yes"}}}, {"type": "Feature", "geometry": {"type": "Polygon", "coordinates": [[[-95.920749, 35.9562062], [-95.9205738, 35.9562449], [-95.920595, 35.9563208], [-95.9206287, 35.956315], [-95.9206694, 35.9564354], [-95.9208499, 35.9563824], [-95.9208003, 35.9562363], [-95.9207614, 35.9562391], [-95.920749, 35.9562062]]]}, "properties": {"osm_id": 932960783, "building": "yes", "name": "", "height": null, "height_m": null, "levels": null, "tract_id": "40143007803", "tract_name": "78.03", "tags": {"building": "yes"}}}, {"type": "Feature", "geometry": {"type": "Polygon", "coordinates": [[[-95.920864, 35.9564225], [-95.9206817, 35.9564798], [-95.9207242, 35.9565715], [-95.92068, 35.9565901], [-95.9207065, 35.9566488], [-95.9208251, 35.9566144], [-95.9208516, 35.956666], [-95.920979, 35.9566302], [-95.9209189, 35.9565041], [-95.9209401, 35.9564955], [-95.9209083, 35.9564354], [-95.9208746, 35.9564454], [-95.920864, 35.9564225]]]}, "properties": {"osm_id": 932960784, "building": "yes", "name": "", "height": null, "height_m": null, "levels": null, "tract_id": "40143007803", "tract_name": "78.03", "tags": {"building": "yes"}}}, {"type": "Feature", "geometry": {"type": "Polygon", "coordinates": [[[-95.9209189, 35.9567219], [-95.9207614, 35.9567534], [-95.9207897, 35.9568622], [-95.9207543, 35.9568665], [-95.9207808, 35.9569625], [-95.921002, 35.9569238], [-95.9209861, 35.9568665], [-95.9209631, 35.956868], [-95.9209189, 35.9567219]]]}, "properties": {"osm_id": 932960785, "building": "yes", "name": "", "height": null, "height_m": null, "levels": null, "tract_id": "40143007803", "tract_name": "78.03", "tags": {"building": "yes"}}}, {"type": "Feature", "geometry": {"type": "Polygon", "coordinates": [[[-95.9209373, 35.9569715], [-95.9207478, 35.9570114], [-95.9207832, 35.9571187], [-95.9207124, 35.9571386], [-95.9207355, 35.9572084], [-95.9209927, 35.9571498], [-95.9209758, 35.9571012], [-95.9210097, 35.9570937], [-95.9209712, 35.9569852], [-95.9209419, 35.9569915], [-95.9209373, 35.9569715]]]}, "properties": {"osm_id": 932960786, "building": "yes", "name": "", "height": null, "height_m": null, "levels": null, "tract_id": "40143007803", "tract_name": "78.03", "tags": {"building": "yes"}}}, {"type": "Feature", "geometry": {"type": "Polygon", "coordinates": [[[-95.9211536, 35.9571451], [-95.9210396, 35.9571887], [-95.9210535, 35.9572186], [-95.921035, 35.9572261], [-95.9210843, 35.9573084], [-95.9210566, 35.9573159], [-95.9210951, 35.957382], [-95.9212476, 35.9573358], [-95.9211536, 35.9571451]]]}, "properties": {"osm_id": 932960787, "building": "yes", "name": "", "height": null, "height_m": null, "levels": null, "tract_id": "40143007803", "tract_name": "78.03", "tags": {"building": "yes"}}}, {"type": "Feature", "geometry": {"type": "Polygon", "coordinates": [[[-95.9211228, 35.9574568], [-95.9211028, 35.9575453], [-95.9211398, 35.9575516], [-95.9211244, 35.9576039], [-95.9211013, 35.9576027], [-95.9210951, 35.9576451], [-95.9211213, 35.9576476], [-95.9211074, 35.9577037], [-95.9212907, 35.9577286], [-95.9213092, 35.9576401], [-95.9212307, 35.9576251], [-95.9212414, 35.9575827], [-95.9211937, 35.9575765], [-95.9212122, 35.9574768], [-95.9211228, 35.9574568]]]}, "properties": {"osm_id": 932960788, "building": "yes", "name": "", "height": null, "height_m": null, "levels": null, "tract_id": "40143007803", "tract_name": "78.03", "tags": {"building": "yes"}}}, {"type": "Feature", "geometry": {"type": "Polygon", "coordinates": [[[-95.920941, 35.9577212], [-95.920787, 35.9577473], [-95.920824, 35.9578608], [-95.9209426, 35.9578396], [-95.9209549, 35.9578696], [-95.921035, 35.9578533], [-95.9209919, 35.9577311], [-95.9209472, 35.9577374], [-95.920941, 35.9577212]]]}, "properties": {"osm_id": 932960789, "building": "yes", "name": "", "height": null, "height_m": null, "levels": null, "tract_id": "40143007803", "tract_name": "78.03", "tags": {"building": "yes"}}}, {"type": "Feature", "geometry": {"type": "Polygon", "coordinates": [[[-95.9362185, 35.9576124], [-95.9362242, 35.957567], [-95.9362273, 35.9575673], [-95.936231, 35.9575375], [-95.9361657, 35.9575321], [-95.936173, 35.9574745], [-95.936067, 35.9574658], [-95.9360468, 35.9576268], [-95.9361536, 35.9576355], [-95.9361571, 35.9576073], [-95.9362185, 35.9576124]]]}, "properties": {"osm_id": 986161175, "building": "yes", "name": "", "height": null, "height_m": null, "levels": null, "tract_id": "40143007803", "tract_name": "78.03", "tags": {"building": "yes"}}}, {"type": "Feature", "geometry": {"type": "Polygon", "coordinates": [[[-95.9358757, 35.9575924], [-95.9357944, 35.9575721], [-95.9358168, 35.9575132], [-95.9357867, 35.9575057], [-95.935775, 35.9575365], [-95.935707, 35.9575195], [-95.9357519, 35.9574014], [-95.9358987, 35.9574379], [-95.9358678, 35.9575191], [-95.9359005, 35.9575272], [-95.9358757, 35.9575924]]]}, "properties": {"osm_id": 986161176, "building": "yes", "name": "", "height": null, "height_m": null, "levels": null, "tract_id": "40143007803", "tract_name": "78.03", "tags": {"building": "yes"}}}, {"type": "Feature", "geometry": {"type": "Polygon", "coordinates": [[[-95.9117088, 35.9533713], [-95.9116698, 35.9533712], [-95.9116698, 35.9533777], [-95.9116068, 35.9533775], [-95.9116068, 35.9533872], [-95.9115321, 35.953387], [-95.9115328, 35.9531852], [-95.9115703, 35.9531852], [-95.9115703, 35.9531813], [-95.9116473, 35.9531815], [-95.9116472, 35.9532063], [-95.9116743, 35.9532063], [-95.9116742, 35.9532158], [-95.9117093, 35.9532159], [-95.9117088, 35.9533713]]]}, "properties": {"osm_id": 986197318, "building": "yes", "name": "", "height": null, "height_m": null, "levels": null, "tract_id": "40143007803", "tract_name": "78.03", "tags": {"building": "yes"}}}, {"type": "Feature", "geometry": {"type": "Polygon", "coordinates": [[[-95.9119278, 35.9533764], [-95.9117558, 35.9533771], [-95.9117548, 35.9531892], [-95.9118207, 35.953189], [-95.9118207, 35.953183], [-95.9118639, 35.9531828], [-95.911864, 35.9532031], [-95.9119269, 35.9532028], [-95.9119278, 35.9533764]]]}, "properties": {"osm_id": 986197319, "building": "yes", "name": "", "height": null, "height_m": null, "levels": null, "tract_id": "40143007803", "tract_name": "78.03", "tags": {"building": "yes"}}}, {"type": "Feature", "geometry": {"type": "Polygon", "coordinates": [[[-95.9121527, 35.9533567], [-95.912112, 35.9533567], [-95.912112, 35.9533414], [-95.911993, 35.9533414], [-95.9119929, 35.9532497], [-95.9119706, 35.9532497], [-95.9119705, 35.9531864], [-95.9120061, 35.9531864], [-95.9120061, 35.9531784], [-95.9120822, 35.9531784], [-95.9120822, 35.95319], [-95.9120928, 35.95319], [-95.9120927, 35.9531855], [-95.9121462, 35.9531855], [-95.9121463, 35.9532845], [-95.9121526, 35.9532845], [-95.9121527, 35.9533567]]]}, "properties": {"osm_id": 986197320, "building": "yes", "name": "", "height": null, "height_m": null, "levels": null, "tract_id": "40143007803", "tract_name": "78.03", "tags": {"building": "yes"}}}, {"type": "Feature", "geometry": {"type": "Polygon", "coordinates": [[[-95.912261, 35.9533618], [-95.9122143, 35.9533617], [-95.9122147, 35.9532759], [-95.9122001, 35.9532759], [-95.9122002, 35.9532474], [-95.9121844, 35.9532473], [-95.9121847, 35.9531929], [-95.9122223, 35.953193], [-95.9122224, 35.9531858], [-95.9122868, 35.953186], [-95.9122868, 35.9531823], [-95.9123142, 35.9531824], [-95.9123141, 35.9531887], [-95.9123245, 35.9531887], [-95.9123245, 35.9531821], [-95.9123743, 35.9531822], [-95.9123735, 35.9533378], [-95.9122611, 35.9533374], [-95.912261, 35.9533618]]]}, "properties": {"osm_id": 986197321, "building": "yes", "name": "", "height": null, "height_m": null, "levels": null, "tract_id": "40143007803", "tract_name": "78.03", "tags": {"building": "yes"}}}, {"type": "Feature", "geometry": {"type": "Polygon", "coordinates": [[[-95.9114896, 35.9533839], [-95.9113051, 35.953386], [-95.9113015, 35.9531833], [-95.9114194, 35.953182], [-95.9114195, 35.9531895], [-95.9114255, 35.9531895], [-95.9114256, 35.9531941], [-95.9114418, 35.9531939], [-95.9114416, 35.9531859], [-95.9114986, 35.9531853], [-95.9115017, 35.9533626], [-95.9114892, 35.9533627], [-95.9114896, 35.9533839]]]}, "properties": {"osm_id": 986197322, "building": "yes", "name": "", "height": null, "height_m": null, "levels": null, "tract_id": "40143007803", "tract_name": "78.03", "tags": {"building": "yes"}}}, {"type": "Feature", "geometry": {"type": "Polygon", "coordinates": [[[-95.9111951, 35.9533811], [-95.9110925, 35.9533817], [-95.9110912, 35.9532527], [-95.9110633, 35.9532529], [-95.9110626, 35.9531835], [-95.9111698, 35.9531828], [-95.91117, 35.9531986], [-95.911198, 35.9531985], [-95.9111979, 35.953183], [-95.9112367, 35.9531828], [-95.9112369, 35.953209], [-95.9112748, 35.9532088], [-95.911276, 35.953341], [-95.9112538, 35.9533561], [-95.9111949, 35.9533564], [-95.9111951, 35.9533811]]]}, "properties": {"osm_id": 986197323, "building": "yes", "name": "", "height": null, "height_m": null, "levels": null, "tract_id": "40143007803", "tract_name": "78.03", "tags": {"building": "yes"}}}, {"type": "Feature", "geometry": {"type": "Polygon", "coordinates": [[[-95.9117933, 35.9529331], [-95.9117653, 35.952933], [-95.9117653, 35.9529369], [-95.9117408, 35.9529368], [-95.9117408, 35.9529328], [-95.9117144, 35.9529327], [-95.9117146, 35.9529122], [-95.9116783, 35.952912], [-95.9116796, 35.9527526], [-95.911753, 35.952753], [-95.911753, 35.9527573], [-95.911812, 35.9527576], [-95.9118119, 35.9527683], [-95.9118587, 35.9527685], [-95.9118577, 35.9529033], [-95.9118394, 35.9529032], [-95.9118394, 35.9529069], [-95.9118218, 35.9529068], [-95.9118217, 35.9529182], [-95.9117934, 35.952918], [-95.9117933, 35.9529331]]]}, "properties": {"osm_id": 986197324, "building": "yes", "name": "", "height": null, "height_m": null, "levels": null, "tract_id": "40143007803", "tract_name": "78.03", "tags": {"building": "yes"}}}, {"type": "Feature", "geometry": {"type": "Polygon", "coordinates": [[[-95.9116471, 35.9529427], [-95.9115886, 35.9529432], [-95.9115882, 35.9529189], [-95.9115705, 35.9529191], [-95.9115709, 35.9529455], [-95.9114926, 35.9529462], [-95.9114925, 35.9529409], [-95.9114541, 35.9529412], [-95.9114515, 35.9527401], [-95.9115468, 35.9527393], [-95.9115469, 35.9527438], [-95.911605, 35.9527433], [-95.9116053, 35.9527683], [-95.9116447, 35.952768], [-95.9116471, 35.9529427]]]}, "properties": {"osm_id": 986197325, "building": "yes", "name": "", "height": null, "height_m": null, "levels": null, "tract_id": "40143007803", "tract_name": "78.03", "tags": {"building": "yes"}}}, {"type": "Feature", "geometry": {"type": "Polygon", "coordinates": [[[-95.9120885, 35.9529393], [-95.9120474, 35.9529398], [-95.9120473, 35.9529344], [-95.9120249, 35.9529347], [-95.9120251, 35.9529478], [-95.9119833, 35.9529484], [-95.9119832, 35.9529435], [-95.911948, 35.9529439], [-95.9119478, 35.9529343], [-95.9119014, 35.9529349], [-95.9119004, 35.9528856], [-95.9119272, 35.9528853], [-95.9119268, 35.9528657], [-95.9119132, 35.9528659], [-95.9119128, 35.9528458], [-95.9119291, 35.9528456], [-95.9119284, 35.9528086], [-95.9120166, 35.9528075], [-95.9120161, 35.9527814], [-95.9120855, 35.9527805], [-95.9120885, 35.9529393]]]}, "properties": {"osm_id": 986197326, "building": "yes", "name": "", "height": null, "height_m": null, "levels": null, "tract_id": "40143007803", "tract_name": "78.03", "tags": {"building": "yes"}}}, {"type": "Feature", "geometry": {"type": "Polygon", "coordinates": [[[-95.911428, 35.9529188], [-95.9113875, 35.9529195], [-95.9113879, 35.9529369], [-95.9113496, 35.9529375], [-95.9113494, 35.95293], [-95.9113206, 35.9529304], [-95.9113209, 35.9529461], [-95.911252, 35.9529472], [-95.9112519, 35.9529396], [-95.9112166, 35.9529401], [-95.9112149, 35.9528637], [-95.9112374, 35.9528634], [-95.9112346, 35.9527435], [-95.9113367, 35.952742], [-95.9113371, 35.9527585], [-95.9113868, 35.9527577], [-95.9113871, 35.9527727], [-95.9114246, 35.9527721], [-95.911428, 35.9529188]]]}, "properties": {"osm_id": 986197327, "building": "yes", "name": "", "height": null, "height_m": null, "levels": null, "tract_id": "40143007803", "tract_name": "78.03", "tags": {"building": "yes"}}}, {"type": "Feature", "geometry": {"type": "Polygon", "coordinates": [[[-95.911189, 35.9529295], [-95.9111444, 35.9529298], [-95.9111445, 35.952939], [-95.9111173, 35.9529392], [-95.9111174, 35.9529478], [-95.9110731, 35.9529481], [-95.911073, 35.9529377], [-95.9109997, 35.9529381], [-95.9109978, 35.9527492], [-95.9110986, 35.9527485], [-95.9110987, 35.952761], [-95.9111415, 35.9527607], [-95.9111417, 35.952776], [-95.9111874, 35.9527757], [-95.911189, 35.9529295]]]}, "properties": {"osm_id": 986197328, "building": "yes", "name": "", "height": null, "height_m": null, "levels": null, "tract_id": "40143007803", "tract_name": "78.03", "tags": {"building": "yes"}}}, {"type": "Feature", "geometry": {"type": "Polygon", "coordinates": [[[-95.9110218, 35.9533419], [-95.9109793, 35.9533422], [-95.9109795, 35.9533598], [-95.9109345, 35.9533602], [-95.9109347, 35.9533782], [-95.9108313, 35.953379], [-95.9108291, 35.9531852], [-95.9109471, 35.9531843], [-95.9109473, 35.9532003], [-95.9109748, 35.9532001], [-95.9109749, 35.9532098], [-95.9110203, 35.9532095], [-95.9110218, 35.9533419]]]}, "properties": {"osm_id": 986197329, "building": "yes", "name": "", "height": null, "height_m": null, "levels": null, "tract_id": "40143007803", "tract_name": "78.03", "tags": {"building": "yes"}}}, {"type": "Feature", "geometry": {"type": "Polygon", "coordinates": [[[-95.9109477, 35.9529481], [-95.9108919, 35.9529478], [-95.9108919, 35.9529392], [-95.9108676, 35.9529391], [-95.9108675, 35.9529497], [-95.9107917, 35.9529495], [-95.9107917, 35.9529434], [-95.9107468, 35.9529433], [-95.9107478, 35.952747], [-95.9108412, 35.9527473], [-95.9108412, 35.9527515], [-95.9108986, 35.9527518], [-95.9108984, 35.9527747], [-95.9109487, 35.9527749], [-95.9109477, 35.9529481]]]}, "properties": {"osm_id": 986197330, "building": "yes", "name": "", "height": null, "height_m": null, "levels": null, "tract_id": "40143007803", "tract_name": "78.03", "tags": {"building": "yes"}}}, {"type": "Feature", "geometry": {"type": "Polygon", "coordinates": [[[-95.9116409, 35.9525541], [-95.9115979, 35.952554], [-95.9115979, 35.9525795], [-95.9115075, 35.9525793], [-95.9115074, 35.9525859], [-95.911467, 35.9525858], [-95.9114676, 35.9524008], [-95.9116413, 35.9524012], [-95.9116409, 35.9525541]]]}, "properties": {"osm_id": 986197331, "building": "yes", "name": "", "height": null, "height_m": null, "levels": null, "tract_id": "40143007803", "tract_name": "78.03", "tags": {"building": "yes"}}}, {"type": "Feature", "geometry": {"type": "Polygon", "coordinates": [[[-95.9113334, 35.9525908], [-95.9112428, 35.9525909], [-95.9112425, 35.9524631], [-95.9112161, 35.9524631], [-95.9112159, 35.9523995], [-95.9112493, 35.9523995], [-95.9112493, 35.952392], [-95.9113231, 35.9523919], [-95.9113231, 35.9524106], [-95.9113606, 35.9524105], [-95.9113606, 35.952417], [-95.9113886, 35.952417], [-95.9113887, 35.9524281], [-95.9114221, 35.952428], [-95.9114225, 35.9525586], [-95.9113792, 35.9525586], [-95.9113792, 35.9525756], [-95.9113334, 35.9525757], [-95.9113334, 35.9525908]]]}, "properties": {"osm_id": 986197332, "building": "yes", "name": "", "height": null, "height_m": null, "levels": null, "tract_id": "40143007803", "tract_name": "78.03", "tags": {"building": "yes"}}}, {"type": "Feature", "geometry": {"type": "Polygon", "coordinates": [[[-95.9118626, 35.9525566], [-95.911799, 35.9525575], [-95.9117983, 35.952528], [-95.9117083, 35.9525294], [-95.9117066, 35.9524589], [-95.9116748, 35.9524594], [-95.9116734, 35.9524002], [-95.9117095, 35.9523997], [-95.9117094, 35.9523941], [-95.911783, 35.9523929], [-95.9117832, 35.9524], [-95.9118083, 35.9523996], [-95.9118086, 35.952412], [-95.9118592, 35.9524112], [-95.9118626, 35.9525566]]]}, "properties": {"osm_id": 986197333, "building": "yes", "name": "", "height": null, "height_m": null, "levels": null, "tract_id": "40143007803", "tract_name": "78.03", "tags": {"building": "yes"}}}, {"type": "Feature", "geometry": {"type": "Polygon", "coordinates": [[[-95.9373618, 35.954873], [-95.9373796, 35.9548325], [-95.9373626, 35.9548277], [-95.9373704, 35.9548099], [-95.9373108, 35.9547928], [-95.9373032, 35.9548101], [-95.9372806, 35.9548036], [-95.9372662, 35.9548365], [-95.9372816, 35.9548409], [-95.9372721, 35.9548626], [-95.9373403, 35.9548822], [-95.9373462, 35.9548686], [-95.9373618, 35.954873]]]}, "properties": {"osm_id": 1086188219, "building": "yes", "name": "", "height": null, "height_m": null, "levels": null, "tract_id": "40143007803", "tract_name": "78.03", "tags": {"building": "yes"}}}, {"type": "Feature", "geometry": {"type": "Polygon", "coordinates": [[[-95.9378202, 35.9551672], [-95.9378396, 35.9551243], [-95.9378529, 35.9551283], [-95.9378682, 35.9550945], [-95.9378431, 35.9550871], [-95.9378707, 35.9550262], [-95.9380827, 35.9550891], [-95.9380492, 35.9551633], [-95.9380051, 35.9551502], [-95.937994, 35.9551746], [-95.938024, 35.9551835], [-95.9380064, 35.9552224], [-95.9378202, 35.9551672]]]}, "properties": {"osm_id": 1086188228, "building": "residential", "name": "", "height": null, "height_m": 3.0, "levels": 1, "tract_id": "40143007803", "tract_name": "78.03", "tags": {"addr:city": "Bixby", "addr:housenumber": "14402", "addr:postcode": "74008", "addr:state": "OK", "addr:street": "South Jamestown Avenue", "building": "residential", "building:levels": "1"}}}, {"type": "Feature", "geometry": {"type": "Polygon", "coordinates": [[[-95.9378818, 35.9549914], [-95.938101, 35.9550579], [-95.9381339, 35.9549869], [-95.9381061, 35.9549785], [-95.9381339, 35.9549184], [-95.9379599, 35.9548656], [-95.9379389, 35.954911], [-95.9379215, 35.9549057], [-95.9378818, 35.9549914]]]}, "properties": {"osm_id": 1086188229, "building": "residential", "name": "", "height": null, "height_m": 3.0, "levels": 1, "tract_id": "40143007803", "tract_name": "78.03", "tags": {"addr:city": "Bixby", "addr:housenumber": "14412", "addr:postcode": "74008", "addr:state": "OK", "addr:street": "South Jamestown Avenue", "building": "residential", "building:levels": "1"}}}, {"type": "Feature", "geometry": {"type": "Polygon", "coordinates": [[[-95.9376383, 35.9546677], [-95.9374516, 35.9546599], [-95.9374562, 35.9545875], [-95.9374182, 35.9545859], [-95.9374211, 35.9545397], [-95.9376458, 35.9545491], [-95.9376383, 35.9546677]]]}, "properties": {"osm_id": 1086188230, "building": "residential", "name": "", "height": null, "height_m": 3.0, "levels": 1, "tract_id": "40143007803", "tract_name": "78.03", "tags": {"addr:city": "Bixby", "addr:housenumber": "14431", "addr:postcode": "74008", "addr:state": "OK", "addr:street": "South Jamestown Avenue", "building": "residential", "building:levels": "1"}}}, {"type": "Feature", "geometry": {"type": "Polygon", "coordinates": [[[-95.9379462, 35.9548229], [-95.9379561, 35.954759], [-95.9379753, 35.954761], [-95.9379877, 35.9546813], [-95.9381503, 35.9546979], [-95.9381395, 35.9547676], [-95.9381858, 35.9547723], [-95.9381779, 35.9548229], [-95.9381706, 35.9548222], [-95.938167, 35.9548454], [-95.9379462, 35.9548229]]]}, "properties": {"osm_id": 1086188231, "building": "residential", "name": "", "height": null, "height_m": 3.0, "levels": 1, "tract_id": "40143007803", "tract_name": "78.03", "tags": {"addr:city": "Bixby", "addr:housenumber": "14422", "addr:postcode": "74008", "addr:state": "OK", "addr:street": "South Jamestown Avenue", "building": "residential", "building:levels": "1"}}}, {"type": "Feature", "geometry": {"type": "Polygon", "coordinates": [[[-95.9379937, 35.9546387], [-95.9382053, 35.9546482], [-95.9382086, 35.9545997], [-95.9381861, 35.9545987], [-95.9381901, 35.9545413], [-95.9381111, 35.9545377], [-95.9381122, 35.954522], [-95.9380021, 35.954517], [-95.9379937, 35.9546387]]]}, "properties": {"osm_id": 1086188232, "building": "residential", "name": "", "height": null, "height_m": 3.0, "levels": 1, "tract_id": "40143007803", "tract_name": "78.03", "tags": {"addr:city": "Bixby", "addr:housenumber": "14432", "addr:postcode": "74008", "addr:state": "OK", "addr:street": "South Jamestown Avenue", "building": "residential", "building:levels": "1"}}}, {"type": "Feature", "geometry": {"type": "Polygon", "coordinates": [[[-95.93807, 35.9544435], [-95.9382649, 35.954448], [-95.938269, 35.9543342], [-95.9380891, 35.95433], [-95.9380873, 35.9543826], [-95.9380721, 35.9543822], [-95.93807, 35.9544435]]]}, "properties": {"osm_id": 1086188233, "building": "residential", "name": "", "height": null, "height_m": 3.0, "levels": 1, "tract_id": "40143007803", "tract_name": "78.03", "tags": {"addr:city": "Bixby", "addr:housenumber": "14442", "addr:postcode": "74008", "addr:state": "OK", "addr:street": "South Jamestown Avenue", "building": "residential", "building:levels": "1"}}}, {"type": "Feature", "geometry": {"type": "Polygon", "coordinates": [[[-95.9360812, 35.9485499], [-95.9356563, 35.9482028], [-95.9356256, 35.9482273], [-95.9360505, 35.9485745], [-95.9360812, 35.9485499]]]}, "properties": {"osm_id": 1086188333, "building": "roof", "name": "", "height": null, "height_m": null, "levels": null, "tract_id": "40143007803", "tract_name": "78.03", "tags": {"building": "roof"}}}, {"type": "Feature", "geometry": {"type": "Polygon", "coordinates": [[[-95.9348512, 35.9478581], [-95.9347402, 35.9479493], [-95.933735, 35.9479261], [-95.9337337, 35.947964], [-95.9347454, 35.9479874], [-95.934876, 35.9478782], [-95.9348512, 35.9478581]]]}, "properties": {"osm_id": 1086188335, "building": "roof", "name": "", "height": null, "height_m": null, "levels": null, "tract_id": "40143007803", "tract_name": "78.03", "tags": {"building": "roof"}}}, {"type": "Feature", "geometry": {"type": "Polygon", "coordinates": [[[-95.935626, 35.9473323], [-95.936067, 35.9469808], [-95.9361026, 35.9470101], [-95.9356616, 35.9473616], [-95.935626, 35.9473323]]]}, "properties": {"osm_id": 1086188336, "building": "roof", "name": "", "height": null, "height_m": null, "levels": null, "tract_id": "40143007803", "tract_name": "78.03", "tags": {"building": "roof"}}}, {"type": "Feature", "geometry": {"type": "Polygon", "coordinates": [[[-95.9356563, 35.9482028], [-95.9356256, 35.9482273], [-95.9353858, 35.9484181], [-95.9352669, 35.9483217], [-95.9352397, 35.9483437], [-95.9352786, 35.9483753], [-95.9351442, 35.948484], [-95.9353594, 35.9486584], [-95.9352934, 35.9487118], [-95.9353202, 35.9487335], [-95.9352555, 35.9487859], [-95.9352267, 35.9487625], [-95.9351668, 35.9488109], [-95.934763, 35.9484837], [-95.9348961, 35.9483761], [-95.9349138, 35.9483904], [-95.9351378, 35.9482092], [-95.9350382, 35.9481285], [-95.9351116, 35.9480691], [-95.934876, 35.9478782], [-95.9348512, 35.9478581], [-95.9347529, 35.9477785], [-95.9351134, 35.9474869], [-95.9350409, 35.9474282], [-95.9351401, 35.9473479], [-95.9349827, 35.9472203], [-95.9347709, 35.9473916], [-95.934711, 35.947343], [-95.9346758, 35.9473715], [-95.9346074, 35.9473161], [-95.9346396, 35.9472901], [-95.9345794, 35.9472413], [-95.9351893, 35.9467481], [-95.9352494, 35.9467969], [-95.9352766, 35.9467749], [-95.935348, 35.9468327], [-95.9353168, 35.9468579], [-95.9353719, 35.9469025], [-95.9351539, 35.9470788], [-95.9352843, 35.9471845], [-95.9352458, 35.9472157], [-95.9352766, 35.9472407], [-95.9353947, 35.9471451], [-95.935626, 35.9473323], [-95.9356616, 35.9473616], [-95.9356661, 35.9473651], [-95.9355753, 35.9474385], [-95.9356266, 35.9475029], [-95.9356628, 35.94758], [-95.9356897, 35.9476712], [-95.9357019, 35.9477849], [-95.935695, 35.9478731], [-95.9356602, 35.9479751], [-95.9356213, 35.9480631], [-95.935573, 35.9481315], [-95.9356599, 35.9481999], [-95.9356563, 35.9482028]]]}, "properties": {"osm_id": 1086188358, "building": "school", "name": "", "height": null, "height_m": null, "levels": null, "tract_id": "40143007803", "tract_name": "78.03", "tags": {"building": "school"}}}, {"type": "Feature", "geometry": {"type": "Polygon", "coordinates": [[[-95.8909795, 35.9455728], [-95.8907115, 35.9455715], [-95.8907144, 35.9451861], [-95.8909825, 35.9451875], [-95.8909795, 35.9455728]]]}, "properties": {"osm_id": 1230520928, "building": "yes", "name": "Dollar General", "height": null, "height_m": null, "levels": null, "tract_id": "40143007803", "tract_name": "78.03", "tags": {"brand": "Dollar General", "brand:wikidata": "Q145168", "building": "yes", "name": "Dollar General", "shop": "variety_store", "website": "https://www.dollargeneral.com/store-directory/ok/bixby/1985"}}}, {"type": "Feature", "geometry": {"type": "Polygon", "coordinates": [[[-95.8882625, 35.9466559], [-95.8882361, 35.9466771], [-95.8882097, 35.9466984], [-95.8882141, 35.946809], [-95.8882186, 35.9469195], [-95.8882735, 35.9469687], [-95.8884442, 35.946968], [-95.8884421, 35.9466555], [-95.8882625, 35.9466559]]]}, "properties": {"osm_id": 1293503664, "building": "retail", "name": "", "height": null, "height_m": null, "levels": null, "tract_id": "40143007803", "tract_name": "78.03", "tags": {"building": "retail"}}}, {"type": "Feature", "geometry": {"type": "Polygon", "coordinates": [[[-95.888252, 35.9471186], [-95.8878812, 35.9471199], [-95.8877131, 35.9469819], [-95.8877121, 35.9469338], [-95.8877906, 35.9469328], [-95.8878423, 35.9469322], [-95.8878429, 35.9469611], [-95.887951, 35.9469597], [-95.8880229, 35.9469588], [-95.8880874, 35.946958], [-95.8881458, 35.9469573], [-95.8881951, 35.9469567], [-95.8882174, 35.9469564], [-95.8882513, 35.9469829], [-95.888252, 35.9471186]]]}, "properties": {"osm_id": 1293503665, "building": "retail", "name": "", "height": null, "height_m": null, "levels": null, "tract_id": "40143007803", "tract_name": "78.03", "tags": {"building": "retail"}}}, {"type": "Feature", "geometry": {"type": "Polygon", "coordinates": [[[-95.8886725, 35.9461206], [-95.8886727, 35.94595], [-95.8884711, 35.9459499], [-95.8882629, 35.9459497], [-95.8882628, 35.9459912], [-95.8882627, 35.9461203], [-95.8886725, 35.9461206]]]}, "properties": {"osm_id": 1293503666, "building": "retail", "name": "Medicap Pharmacy", "height": null, "height_m": null, "levels": null, "tract_id": "40143007803", "tract_name": "78.03", "tags": {"building": "retail", "name": "Medicap Pharmacy", "shop": "chemist"}}}, {"type": "Feature", "geometry": {"type": "Polygon", "coordinates": [[[-95.8882629, 35.9459497], [-95.8882388, 35.9459296], [-95.8882129, 35.9459079], [-95.8882115, 35.9457484], [-95.8882103, 35.9456083], [-95.8884736, 35.9456069], [-95.8884711, 35.9459499], [-95.8882629, 35.9459497]]]}, "properties": {"osm_id": 1293503667, "building": "retail", "name": "", "height": null, "height_m": null, "levels": null, "tract_id": "40143007803", "tract_name": "78.03", "tags": {"building": "retail"}}}, {"type": "Feature", "geometry": {"type": "Polygon", "coordinates": [[[-95.8889688, 35.9455958], [-95.8881335, 35.9455952], [-95.8881338, 35.9453005], [-95.8881342, 35.9449771], [-95.8889695, 35.9449778], [-95.8889688, 35.9455958]]]}, "properties": {"osm_id": 1293503668, "building": "industrial", "name": "Sutherland's", "height": null, "height_m": null, "levels": null, "tract_id": "40143007803", "tract_name": "78.03", "tags": {"addr:city": "Bixby", "addr:country": "US", "addr:housenumber": "15050", "addr:postcode": "74008", "addr:state": "OK", "addr:street": "South Memorial Drive East", "building": "industrial", "name": "Sutherland's", "shop": "doityourself", "source": "INCOG"}}}, {"type": "Feature", "geometry": {"type": "Polygon", "coordinates": [[[-95.9374965, 35.9393866], [-95.937541, 35.9394692], [-95.9375701, 35.9394589], [-95.9375933, 35.939502], [-95.9377563, 35.9394445], [-95.9376887, 35.9393188], [-95.9374965, 35.9393866]]]}, "properties": {"osm_id": 1408792571, "building": "detached", "name": "", "height": null, "height_m": null, "levels": null, "tract_id": "40143007803", "tract_name": "78.03", "tags": {"addr:city": "Bixby", "addr:housenumber": "15454", "addr:postcode": "74008", "addr:state": "OK", "addr:street": "South 36th Avenue East", "building": "detached"}}}, {"type": "Feature", "geometry": {"type": "Polygon", "coordinates": [[[-95.9374138, 35.9389881], [-95.9373567, 35.938874], [-95.9374261, 35.9388512], [-95.9374031, 35.9388054], [-95.9374614, 35.9387862], [-95.9375329, 35.9389289], [-95.9374942, 35.9389417], [-95.9375107, 35.9389747], [-95.9374675, 35.9389889], [-95.9374595, 35.9389731], [-95.9374138, 35.9389881]]]}, "properties": {"osm_id": 1408792572, "building": "detached", "name": "", "height": null, "height_m": null, "levels": null, "tract_id": "40143007803", "tract_name": "78.03", "tags": {"addr:city": "Bixby", "addr:housenumber": "3555", "addr:postcode": "74008-3066", "addr:state": "OK", "addr:street": "East 155th Street South", "building": "detached"}}}, {"type": "Feature", "geometry": {"type": "Polygon", "coordinates": [[[-95.9379666, 35.9398068], [-95.9379026, 35.9396819], [-95.9377311, 35.9397395], [-95.9377754, 35.9398259], [-95.9378103, 35.9398142], [-95.93783, 35.9398527], [-95.9379666, 35.9398068]]]}, "properties": {"osm_id": 1408792573, "building": "detached", "name": "", "height": null, "height_m": null, "levels": null, "tract_id": "40143007803", "tract_name": "78.03", "tags": {"addr:city": "Bixby", "addr:housenumber": "3506", "addr:postcode": "74008", "addr:state": "OK", "addr:street": "East 154th Street South", "building": "detached"}}}, {"type": "Feature", "geometry": {"type": "Polygon", "coordinates": [[[-95.938404, 35.9397961], [-95.9385118, 35.9396481], [-95.9383479, 35.9395698], [-95.9382887, 35.939651], [-95.9382399, 35.939718], [-95.9383009, 35.9397471], [-95.938321, 35.9397196], [-95.9383584, 35.9397375], [-95.9383385, 35.9397648], [-95.938404, 35.9397961]]]}, "properties": {"osm_id": 1408792574, "building": "detached", "name": "", "height": null, "height_m": null, "levels": null, "tract_id": "40143007803", "tract_name": "78.03", "tags": {"addr:city": "Bixby", "addr:housenumber": "3485", "addr:postcode": "74008", "addr:state": "OK", "addr:street": "East 154th Court South", "building": "detached"}}}, {"type": "Feature", "geometry": {"type": "Polygon", "coordinates": [[[-95.9362236, 35.9395872], [-95.9361329, 35.9394213], [-95.9362868, 35.9393662], [-95.9363613, 35.9395023], [-95.9363145, 35.9395191], [-95.9363307, 35.9395489], [-95.9362236, 35.9395872]]]}, "properties": {"osm_id": 1408792575, "building": "detached", "name": "", "height": null, "height_m": null, "levels": null, "tract_id": "40143007803", "tract_name": "78.03", "tags": {"addr:city": "Bixby", "addr:housenumber": "3648", "addr:postcode": "74008", "addr:state": "OK", "addr:street": "East 154th Place South", "building": "detached"}}}, {"type": "Feature", "geometry": {"type": "Polygon", "coordinates": [[[-95.9387499, 35.9383364], [-95.9385288, 35.9383461], [-95.938524, 35.9382752], [-95.9385749, 35.938273], [-95.9385722, 35.9382326], [-95.9386791, 35.9382279], [-95.9387424, 35.9382251], [-95.9387499, 35.9383364]]]}, "properties": {"osm_id": 1408792576, "building": "detached", "name": "", "height": null, "height_m": null, "levels": null, "tract_id": "40143007803", "tract_name": "78.03", "tags": {"addr:city": "Bixby", "addr:housenumber": "3454", "addr:postcode": "74008", "addr:state": "OK", "addr:street": "East 155th Street South", "building": "detached"}}}, {"type": "Feature", "geometry": {"type": "Polygon", "coordinates": [[[-95.9397667, 35.9385679], [-95.939626, 35.9385666], [-95.9396271, 35.9384872], [-95.9395882, 35.9384868], [-95.9395891, 35.938424], [-95.9397686, 35.9384256], [-95.9397667, 35.9385679]]]}, "properties": {"osm_id": 1408792577, "building": "detached", "name": "", "height": null, "height_m": null, "levels": null, "tract_id": "40143007803", "tract_name": "78.03", "tags": {"addr:city": "Bixby", "addr:housenumber": "15502", "addr:postcode": "74008", "addr:state": "OK", "addr:street": "South 34th Avenue East", "building": "detached"}}}, {"type": "Feature", "geometry": {"type": "Polygon", "coordinates": [[[-95.9382372, 35.9383205], [-95.9381753, 35.9383212], [-95.9381756, 35.9383385], [-95.9380768, 35.9383396], [-95.9380745, 35.9382162], [-95.9381932, 35.9382148], [-95.9381927, 35.938189], [-95.9382348, 35.9381885], [-95.9382372, 35.9383205]]]}, "properties": {"osm_id": 1408792578, "building": "detached", "name": "", "height": null, "height_m": null, "levels": null, "tract_id": "40143007803", "tract_name": "78.03", "tags": {"addr:city": "Bixby", "addr:housenumber": "3494", "addr:postcode": "74008", "addr:state": "OK", "addr:street": "East 155th Street South", "building": "detached"}}}, {"type": "Feature", "geometry": {"type": "Polygon", "coordinates": [[[-95.9371738, 35.9385346], [-95.9373274, 35.938472], [-95.9372415, 35.9383338], [-95.9372006, 35.9383504], [-95.9372239, 35.9383879], [-95.9371112, 35.9384338], [-95.9371738, 35.9385346]]]}, "properties": {"osm_id": 1408792579, "building": "detached", "name": "", "height": null, "height_m": null, "levels": null, "tract_id": "40143007803", "tract_name": "78.03", "tags": {"addr:city": "Bixby", "addr:housenumber": "3574", "addr:postcode": "74008", "addr:state": "OK", "addr:street": "East 155th Street South", "building": "detached"}}}, {"type": "Feature", "geometry": {"type": "Polygon", "coordinates": [[[-95.9375806, 35.9383977], [-95.9377671, 35.9383392], [-95.9377028, 35.9382048], [-95.9376281, 35.9382282], [-95.9376381, 35.9382491], [-95.9375969, 35.938262], [-95.9375887, 35.9382448], [-95.9375473, 35.9382578], [-95.937575, 35.9383159], [-95.9375458, 35.9383251], [-95.9375806, 35.9383977]]]}, "properties": {"osm_id": 1408792580, "building": "detached", "name": "", "height": null, "height_m": null, "levels": null, "tract_id": "40143007803", "tract_name": "78.03", "tags": {"addr:city": "Bixby", "addr:housenumber": "3524", "addr:postcode": "74008", "addr:state": "OK", "addr:street": "East 155th Street South", "building": "detached"}}}, {"type": "Feature", "geometry": {"type": "Polygon", "coordinates": [[[-95.9384806, 35.9404135], [-95.9386736, 35.9404573], [-95.9387221, 35.9403173], [-95.9385554, 35.9402795], [-95.9385299, 35.9403533], [-95.938501, 35.9403544], [-95.9384806, 35.9404135]]]}, "properties": {"osm_id": 1408792581, "building": "detached", "name": "", "height": null, "height_m": null, "levels": null, "tract_id": "40143007803", "tract_name": "78.03", "tags": {"addr:city": "Bixby", "addr:housenumber": "3456", "addr:postcode": "74008", "addr:state": "OK", "addr:street": "East 154th Street South", "building": "detached"}}}, {"type": "Feature", "geometry": {"type": "Polygon", "coordinates": [[[-95.9382135, 35.940781], [-95.9382999, 35.9406671], [-95.9381671, 35.9406011], [-95.938147, 35.9406276], [-95.9381184, 35.9406134], [-95.9380895, 35.9406514], [-95.9381184, 35.9406811], [-95.9380894, 35.9407193], [-95.9382135, 35.940781]]]}, "properties": {"osm_id": 1408792582, "building": "detached", "name": "", "height": null, "height_m": null, "levels": null, "tract_id": "40143007803", "tract_name": "78.03", "tags": {"addr:city": "Bixby", "addr:housenumber": "3485", "addr:postcode": "74008", "addr:state": "OK", "addr:street": "East 154th Street South", "building": "detached"}}}, {"type": "Feature", "geometry": {"type": "Polygon", "coordinates": [[[-95.9379024, 35.9406085], [-95.938025, 35.9405282], [-95.937964, 35.9404672], [-95.9379815, 35.9404558], [-95.9379345, 35.9404088], [-95.9377945, 35.9405005], [-95.9379024, 35.9406085]]]}, "properties": {"osm_id": 1408792583, "building": "detached", "name": "", "height": null, "height_m": null, "levels": null, "tract_id": "40143007803", "tract_name": "78.03", "tags": {"addr:city": "Bixby", "addr:housenumber": "3505", "addr:postcode": "74008", "addr:state": "OK", "addr:street": "East 154th Court South", "building": "detached"}}}, {"type": "Feature", "geometry": {"type": "Polygon", "coordinates": [[[-95.9397474, 35.9403618], [-95.9396464, 35.9403626], [-95.9396467, 35.9403866], [-95.9395744, 35.9403872], [-95.9395724, 35.9402245], [-95.9397457, 35.9402231], [-95.9397474, 35.9403618]]]}, "properties": {"osm_id": 1408792584, "building": "detached", "name": "", "height": null, "height_m": null, "levels": null, "tract_id": "40143007803", "tract_name": "78.03", "tags": {"addr:city": "Bixby", "addr:housenumber": "15404", "addr:postcode": "74008", "addr:state": "OK", "addr:street": "South 34th Avenue East", "building": "detached"}}}, {"type": "Feature", "geometry": {"type": "Polygon", "coordinates": [[[-95.9397433, 35.9395395], [-95.93954, 35.9395365], [-95.9395433, 35.9393861], [-95.9397612, 35.9393892], [-95.9397602, 35.9394343], [-95.9397123, 35.9394336], [-95.9397115, 35.93947], [-95.9397449, 35.9394704], [-95.9397433, 35.9395395]]]}, "properties": {"osm_id": 1408792585, "building": "detached", "name": "", "height": null, "height_m": null, "levels": null, "tract_id": "40143007803", "tract_name": "78.03", "tags": {"addr:city": "Bixby", "addr:housenumber": "15444", "addr:postcode": "74008", "addr:state": "OK", "addr:street": "South 34th Avenue East", "building": "detached"}}}, {"type": "Feature", "geometry": {"type": "Polygon", "coordinates": [[[-95.9348369, 35.9401235], [-95.9348305, 35.9399526], [-95.9349331, 35.9399501], [-95.9349346, 35.9399891], [-95.9350047, 35.9399874], [-95.9350086, 35.9400917], [-95.9349473, 35.9400932], [-95.9349483, 35.9401207], [-95.9348369, 35.9401235]]]}, "properties": {"osm_id": 1408792586, "building": "detached", "name": "", "height": null, "height_m": null, "levels": null, "tract_id": "40143007803", "tract_name": "78.03", "tags": {"addr:city": "Bixby", "addr:housenumber": "3805", "addr:postcode": "74008", "addr:state": "OK", "addr:street": "East 154th Place South", "building": "detached"}}}, {"type": "Feature", "geometry": {"type": "Polygon", "coordinates": [[[-95.9354604, 35.940276], [-95.9353168, 35.9403144], [-95.935266, 35.9401898], [-95.9354096, 35.9401514], [-95.9354604, 35.940276]]]}, "properties": {"osm_id": 1408792587, "building": "detached", "name": "", "height": null, "height_m": null, "levels": null, "tract_id": "40143007803", "tract_name": "78.03", "tags": {"addr:city": "Bixby", "addr:housenumber": "15415", "addr:postcode": "74008", "addr:state": "OK", "addr:street": "South 37th Court East", "building": "detached"}}}, {"type": "Feature", "geometry": {"type": "Polygon", "coordinates": [[[-95.9342681, 35.9404245], [-95.9340485, 35.9404221], [-95.9340497, 35.9403499], [-95.9340983, 35.9403504], [-95.9340992, 35.9402983], [-95.9342211, 35.9402996], [-95.9342206, 35.9403318], [-95.9342696, 35.9403324], [-95.9342681, 35.9404245]]]}, "properties": {"osm_id": 1408792588, "building": "detached", "name": "", "height": null, "height_m": null, "levels": null, "tract_id": "40143007803", "tract_name": "78.03", "tags": {"addr:city": "Bixby", "addr:housenumber": "15410", "addr:postcode": "74008", "addr:state": "OK", "addr:street": "South 39th Court East", "building": "detached"}}}, {"type": "Feature", "geometry": {"type": "Polygon", "coordinates": [[[-95.9340981, 35.9409142], [-95.9340992, 35.9408362], [-95.9340512, 35.9408358], [-95.9340522, 35.940761], [-95.9341983, 35.9407623], [-95.9341976, 35.940811], [-95.9342644, 35.9408116], [-95.934263, 35.9409156], [-95.9340981, 35.9409142]]]}, "properties": {"osm_id": 1408792589, "building": "detached", "name": "", "height": null, "height_m": null, "levels": null, "tract_id": "40143007803", "tract_name": "78.03", "tags": {"addr:city": "Bixby", "addr:housenumber": "15365", "addr:postcode": "74008", "addr:state": "OK", "addr:street": "South 39th Court East", "building": "detached"}}}, {"type": "Feature", "geometry": {"type": "Polygon", "coordinates": [[[-95.9333477, 35.9434664], [-95.9326819, 35.9434563], [-95.932684, 35.9433682], [-95.9333497, 35.9433781], [-95.9333477, 35.9434664]]]}, "properties": {"osm_id": 1408792604, "building": "industrial", "name": "", "height": null, "height_m": null, "levels": null, "tract_id": "40143007803", "tract_name": "78.03", "tags": {"building": "industrial"}}}, {"type": "Feature", "geometry": {"type": "Polygon", "coordinates": [[[-95.9333435, 35.9432629], [-95.933142, 35.9432608], [-95.9331501, 35.9427371], [-95.9333518, 35.9427391], [-95.9333435, 35.9432629]]]}, "properties": {"osm_id": 1408792605, "building": "industrial", "name": "", "height": null, "height_m": null, "levels": null, "tract_id": "40143007803", "tract_name": "78.03", "tags": {"building": "industrial"}}}, {"type": "Feature", "geometry": {"type": "Polygon", "coordinates": [[[-95.9330429, 35.9432604], [-95.9328526, 35.9432642], [-95.9328368, 35.9427454], [-95.9330273, 35.9427417], [-95.9330429, 35.9432604]]]}, "properties": {"osm_id": 1408792606, "building": "industrial", "name": "", "height": null, "height_m": null, "levels": null, "tract_id": "40143007803", "tract_name": "78.03", "tags": {"building": "industrial"}}}, {"type": "Feature", "geometry": {"type": "Polygon", "coordinates": [[[-95.9326547, 35.9432607], [-95.9327474, 35.9432602], [-95.9327431, 35.9427383], [-95.932703, 35.9427385], [-95.9327061, 35.9431277], [-95.9326536, 35.943128], [-95.9326547, 35.9432607]]]}, "properties": {"osm_id": 1408792607, "building": "industrial", "name": "", "height": null, "height_m": null, "levels": null, "tract_id": "40143007803", "tract_name": "78.03", "tags": {"building": "industrial"}}}, {"type": "Feature", "geometry": {"type": "Polygon", "coordinates": [[[-95.8877325, 35.9516213], [-95.8877332, 35.9512108], [-95.8874014, 35.9512104], [-95.8874013, 35.9512701], [-95.8872806, 35.9512699], [-95.8872802, 35.9515575], [-95.8873964, 35.9515576], [-95.8873963, 35.9516209], [-95.8877325, 35.9516213]]]}, "properties": {"osm_id": 1418150360, "building": "retail", "name": "Surfaces", "height": null, "height_m": null, "levels": null, "tract_id": "40143007803", "tract_name": "78.03", "tags": {"addr:city": "Bixby", "addr:country": "US", "addr:housenumber": "14602", "addr:postcode": "74008", "addr:state": "OK", "addr:street": "South Memorial Drive East", "building": "retail", "name": "Surfaces", "shop": "kitchen"}}}, {"type": "Feature", "geometry": {"type": "Polygon", "coordinates": [[[-95.8875764, 35.9493541], [-95.8872291, 35.9493552], [-95.8872283, 35.9491879], [-95.8875756, 35.9491868], [-95.8875764, 35.9493541]]]}, "properties": {"osm_id": 1418167908, "building": "retail", "name": "Nelson Car Country", "height": null, "height_m": null, "levels": null, "tract_id": "40143007803", "tract_name": "78.03", "tags": {"addr:city": "Bixby", "addr:country": "US", "addr:housenumber": "14780", "addr:postcode": "74008", "addr:state": "OK", "addr:street": "South Memorial Drive East", "building": "retail", "name": "Nelson Car Country", "second_hand": "only", "shop": "car", "source": "INCOG"}}}, {"type": "Feature", "geometry": {"type": "Polygon", "coordinates": [[[-95.8872399, 35.9487156], [-95.8872414, 35.9484371], [-95.8874423, 35.9484378], [-95.8874418, 35.9485376], [-95.8876331, 35.9485382], [-95.887633, 35.9485547], [-95.8876885, 35.9485549], [-95.8876877, 35.9487171], [-95.8872399, 35.9487156]]]}, "properties": {"osm_id": 1418167910, "building": "retail", "name": "", "height": null, "height_m": null, "levels": null, "tract_id": "40143007803", "tract_name": "78.03", "tags": {"addr:city": "Bixby", "addr:country": "US", "addr:housenumber": "14802", "addr:postcode": "74008", "addr:state": "OK", "addr:street": "South Memorial Drive East", "building": "retail", "shop": "vacant", "source": "INCOG"}}}, {"type": "Feature", "geometry": {"type": "Polygon", "coordinates": [[[-95.8872334, 35.9475959], [-95.8871422, 35.9475974], [-95.8871403, 35.9475238], [-95.8872314, 35.9475222], [-95.8872334, 35.9475959]]]}, "properties": {"osm_id": 1418167913, "building": "retail", "name": "Bixby Auto Sales", "height": null, "height_m": null, "levels": null, "tract_id": "40143007803", "tract_name": "78.03", "tags": {"addr:city": "Bixby", "addr:country": "US", "addr:housenumber": "14850", "addr:postcode": "74008", "addr:state": "OK", "addr:street": "South Memorial Drive East", "building": "retail", "name": "Bixby Auto Sales", "second_hand": "only", "shop": "car", "source": "INCOG"}}}, {"type": "Feature", "geometry": {"type": "Polygon", "coordinates": [[[-95.8872351, 35.9434627], [-95.8870877, 35.9434627], [-95.8870877, 35.9433488], [-95.8872351, 35.9433488], [-95.8872351, 35.9434627]]]}, "properties": {"osm_id": 1418167915, "building": "industrial", "name": "QuikTrip", "height": null, "height_m": null, "levels": null, "tract_id": "40143007803", "tract_name": "78.03", "tags": {"amenity": "car_wash", "automated": "yes", "brand": "QuikTrip", "brand:wikidata": "Q7271953", "building": "industrial", "name": "QuikTrip", "self_service": "no", "short_name": "QT"}}}, {"type": "Feature", "geometry": {"type": "Polygon", "coordinates": [[[-95.8871606, 35.9430843], [-95.8869874, 35.9430836], [-95.8869881, 35.9429747], [-95.886882, 35.9429743], [-95.8868828, 35.942861], [-95.8871215, 35.942862], [-95.8871209, 35.9429661], [-95.8871614, 35.9429663], [-95.8871606, 35.9430843]]]}, "properties": {"osm_id": 1418167916, "building": "retail", "name": "", "height": null, "height_m": null, "levels": null, "tract_id": "40143007803", "tract_name": "78.03", "tags": {"addr:city": "Bixby", "addr:country": "US", "addr:housenumber": "15208", "addr:postcode": "74008", "addr:state": "OK", "addr:street": "South Memorial Drive East", "building": "retail", "source": "INCOG"}}}, {"type": "Feature", "geometry": {"type": "Polygon", "coordinates": [[[-95.8872274, 35.9427311], [-95.8868183, 35.9427297], [-95.8868193, 35.9425452], [-95.8872285, 35.9425467], [-95.8872274, 35.9427311]]]}, "properties": {"osm_id": 1418167917, "building": "retail", "name": "Breezee's", "height": null, "height_m": null, "levels": null, "tract_id": "40143007803", "tract_name": "78.03", "tags": {"addr:city": "Bixby", "addr:country": "US", "addr:housenumber": "15230", "addr:postcode": "74008", "addr:state": "OK", "addr:street": "South Memorial Drive East", "building": "retail", "name": "Breezee's", "shop": "second_hand", "source": "INCOG"}}}, {"type": "Feature", "geometry": {"type": "Polygon", "coordinates": [[[-95.9086291, 35.9462668], [-95.9085546, 35.9462663], [-95.908555, 35.946223], [-95.908503, 35.9462227], [-95.9085031, 35.94621], [-95.9084615, 35.9462098], [-95.908462, 35.9461626], [-95.9084915, 35.9461628], [-95.9084916, 35.9461535], [-95.9085557, 35.946154], [-95.9085564, 35.9460869], [-95.9086309, 35.9460874], [-95.9086291, 35.9462668]]]}, "properties": {"osm_id": 1419917807, "building": "house", "name": "", "height": null, "height_m": null, "levels": null, "tract_id": "40143007803", "tract_name": "78.03", "tags": {"building": "house"}}}, {"type": "Feature", "geometry": {"type": "Polygon", "coordinates": [[[-95.908772, 35.9462297], [-95.9087001, 35.9462293], [-95.9087007, 35.9461739], [-95.9087725, 35.9461743], [-95.908772, 35.9462297]]]}, "properties": {"osm_id": 1419917808, "building": "carport", "name": "", "height": null, "height_m": null, "levels": null, "tract_id": "40143007803", "tract_name": "78.03", "tags": {"building": "carport", "layer": "1"}}}, {"type": "Feature", "geometry": {"type": "Polygon", "coordinates": [[[-95.9217619, 35.9486381], [-95.921668, 35.9486897], [-95.921658, 35.9486747], [-95.9215758, 35.9487154], [-95.9215557, 35.9486924], [-95.9214568, 35.9487372], [-95.9214484, 35.9487222], [-95.9214216, 35.9487331], [-95.9214115, 35.9487141], [-95.9214417, 35.9486883], [-95.921378, 35.9486123], [-95.9215825, 35.9485024], [-95.9216328, 35.9484779], [-95.9217619, 35.9486381]]]}, "properties": {"osm_id": 1427356458, "building": "yes", "name": "", "height": null, "height_m": null, "levels": null, "tract_id": "40143007803", "tract_name": "78.03", "tags": {"building": "yes", "golf": "clubhouse"}}}, {"type": "Feature", "geometry": {"type": "Polygon", "coordinates": [[[-95.9218927, 35.9485268], [-95.92173, 35.9484929], [-95.9218005, 35.9482717], [-95.9219647, 35.9483002], [-95.9218927, 35.9485268]]]}, "properties": {"osm_id": 1427356459, "building": "yes", "name": "", "height": null, "height_m": null, "levels": null, "tract_id": "40143007803", "tract_name": "78.03", "tags": {"building": "yes"}}}, {"type": "Feature", "geometry": {"type": "Polygon", "coordinates": [[[-95.9211718, 35.9487521], [-95.9210494, 35.9487548], [-95.9210494, 35.9487752], [-95.9209857, 35.9487792], [-95.9209857, 35.9487616], [-95.920922, 35.9487629], [-95.9209137, 35.9486191], [-95.9211299, 35.9486014], [-95.9211349, 35.9486299], [-95.9211634, 35.9486299], [-95.9211718, 35.9487521]]]}, "properties": {"osm_id": 1427356460, "building": "yes", "name": "", "height": null, "height_m": null, "levels": null, "tract_id": "40143007803", "tract_name": "78.03", "tags": {"building": "yes"}}}, {"type": "Feature", "geometry": {"type": "Polygon", "coordinates": [[[-95.9211225, 35.945366], [-95.9207939, 35.9453552], [-95.9207738, 35.9450648], [-95.920747, 35.945062], [-95.920757, 35.9449915], [-95.9208945, 35.9449915], [-95.9208945, 35.944967], [-95.9210085, 35.9449698], [-95.9210085, 35.9450023], [-95.9211493, 35.9450023], [-95.921156, 35.9450675], [-95.9211158, 35.9450675], [-95.9211225, 35.945366]]]}, "properties": {"osm_id": 1427356461, "building": "yes", "name": "", "height": null, "height_m": null, "levels": null, "tract_id": "40143007803", "tract_name": "78.03", "tags": {"building": "yes"}}}, {"type": "Feature", "geometry": {"type": "Polygon", "coordinates": [[[-95.8871685, 35.9350837], [-95.8869942, 35.9350846], [-95.8869928, 35.9349239], [-95.8871672, 35.934923], [-95.8871685, 35.9350837]]]}, "properties": {"osm_id": 1431431979, "building": "retail", "name": "", "height": null, "height_m": 3.0, "levels": 1, "tract_id": "40143007803", "tract_name": "78.03", "tags": {"addr:city": "Bixby", "addr:country": "US", "addr:housenumber": "15700", "addr:postcode": "74008", "addr:state": "OK", "addr:street": "South Memorial Drive East", "building": "retail", "building:levels": "1", "roof:levels": "0"}}}, {"type": "Feature", "geometry": {"type": "Polygon", "coordinates": [[[-95.8871591, 35.9347579], [-95.8869881, 35.9347586], [-95.8869872, 35.9345995], [-95.8870241, 35.9345994], [-95.8870237, 35.9345369], [-95.8871578, 35.9345364], [-95.8871591, 35.9347579]]]}, "properties": {"osm_id": 1431431980, "building": "retail", "name": "Jujax's Jumpin' Juke Joint", "height": null, "height_m": 3.0, "levels": 1, "tract_id": "40143007803", "tract_name": "78.03", "tags": {"addr:city": "Bixby", "addr:country": "US", "addr:housenumber": "15722", "addr:postcode": "74008", "addr:state": "OK", "addr:street": "South Memorial Drive East", "amenity": "bar", "building": "retail", "building:levels": "1", "name": "Jujax's Jumpin' Juke Joint", "roof:levels": "0"}}}, {"type": "Feature", "geometry": {"type": "Polygon", "coordinates": [[[-95.8871411, 35.9367152], [-95.8872604, 35.9367157], [-95.8872608, 35.9366375], [-95.8872957, 35.9366376], [-95.8872959, 35.936589], [-95.8872584, 35.9365888], [-95.8872589, 35.9364892], [-95.8871489, 35.9364888], [-95.8871486, 35.9365589], [-95.8870976, 35.9365587], [-95.8870973, 35.9366195], [-95.8871416, 35.9366197], [-95.8871411, 35.9367152]]]}, "properties": {"osm_id": 1431542988, "building": "detached", "name": "", "height": null, "height_m": null, "levels": null, "tract_id": "40143007803", "tract_name": "78.03", "tags": {"addr:city": "Bixby", "addr:country": "US", "addr:housenumber": "15644", "addr:postcode": "74008", "addr:state": "OK", "addr:street": "South Memorial Drive East", "building": "detached"}}}, {"type": "Feature", "geometry": {"type": "Polygon", "coordinates": [[[-95.8872567, 35.9362827], [-95.887258, 35.9361719], [-95.887294, 35.9361722], [-95.8872947, 35.9361136], [-95.8872545, 35.9361133], [-95.8872552, 35.9360481], [-95.8871372, 35.9360473], [-95.8871345, 35.9362818], [-95.8872567, 35.9362827]]]}, "properties": {"osm_id": 1431542989, "building": "yes", "name": "", "height": null, "height_m": null, "levels": null, "tract_id": "40143007803", "tract_name": "78.03", "tags": {"addr:city": "Bixby", "addr:country": "US", "addr:housenumber": "15720", "addr:postcode": "74008", "addr:state": "OK", "addr:street": "South Memorial Drive East", "building": "yes"}}}, {"type": "Feature", "geometry": {"type": "Polygon", "coordinates": [[[-95.8872463, 35.9223758], [-95.8871095, 35.9223753], [-95.8871122, 35.9218768], [-95.887249, 35.9218773], [-95.8872463, 35.9223758]]]}, "properties": {"osm_id": 1433690923, "building": "warehouse", "name": "Bixby Farm & Ranch Supply", "height": null, "height_m": null, "levels": null, "tract_id": "40143007803", "tract_name": "78.03", "tags": {"addr:city": "Bixby", "addr:country": "US", "addr:housenumber": "16614", "addr:postcode": "74008", "addr:state": "OK", "addr:street": "South Memorial Drive East", "building": "warehouse", "name": "Bixby Farm & Ranch Supply", "shop": "agrarian"}}}, {"type": "Feature", "geometry": {"type": "Polygon", "coordinates": [[[-95.8874196, 35.9204826], [-95.8872774, 35.9204826], [-95.8872774, 35.9203777], [-95.8874196, 35.9203777], [-95.8874196, 35.9204826]]]}, "properties": {"osm_id": 1433774362, "building": "barn", "name": "", "height": null, "height_m": null, "levels": null, "tract_id": "40143007803", "tract_name": "78.03", "tags": {"building": "barn"}}}, {"type": "Feature", "geometry": {"type": "Polygon", "coordinates": [[[-95.8871595, 35.920063], [-95.8871595, 35.9201534], [-95.8869668, 35.9201534], [-95.8869668, 35.920063], [-95.8871595, 35.920063]]]}, "properties": {"osm_id": 1433774363, "building": "barn", "name": "", "height": null, "height_m": null, "levels": null, "tract_id": "40143007803", "tract_name": "78.03", "tags": {"addr:city": "Bixby", "addr:country": "US", "addr:housenumber": "16830", "addr:postcode": "74008", "addr:state": "OK", "addr:street": "South Memorial Drive East", "building": "barn"}}}, {"type": "Feature", "geometry": {"type": "Polygon", "coordinates": [[[-95.8874333, 35.9215837], [-95.8874319, 35.9215134], [-95.8873034, 35.9215151], [-95.8873048, 35.9215854], [-95.8874333, 35.9215837]]]}, "properties": {"osm_id": 1433774364, "building": "detached", "name": "", "height": null, "height_m": null, "levels": null, "tract_id": "40143007803", "tract_name": "78.03", "tags": {"addr:city": "Bixby", "addr:country": "US", "addr:housenumber": "16800", "addr:postcode": "74008", "addr:state": "OK", "addr:street": "South Memorial Drive East", "building": "detached"}}}, {"type": "Feature", "geometry": {"type": "Polygon", "coordinates": [[[-95.8878293, 35.9210847], [-95.887646, 35.9210847], [-95.887646, 35.920909], [-95.8878293, 35.920909], [-95.8878293, 35.9210847]]]}, "properties": {"osm_id": 1433774365, "building": "detached", "name": "", "height": null, "height_m": null, "levels": null, "tract_id": "40143007803", "tract_name": "78.03", "tags": {"building": "detached"}}}]}