{"type": "FeatureCollection", "features": [{"type": "Feature", "geometry": {"type": "Polygon", "coordinates": [[[-97.4803563, 34.2335145], [-97.4802541, 34.2334271], [-97.4801167, 34.2335158], [-97.480226, 34.2336047], [-97.4803563, 34.2335145]]]}, "properties": {"osm_id": 1032984317, "building": "yes", "name": "", "height": null, "height_m": null, "levels": null, "tract_id": "40019892302", "tract_name": "8923.02", "tags": {"building": "yes"}}}, {"type": "Feature", "geometry": {"type": "Polygon", "coordinates": [[[-97.4869921, 34.2321635], [-97.486992, 34.2320685], [-97.4866869, 34.2320687], [-97.486687, 34.2321638], [-97.4869921, 34.2321635]]]}, "properties": {"osm_id": 1063729858, "building": "yes", "name": "", "height": null, "height_m": null, "levels": null, "tract_id": "40019892302", "tract_name": "8923.02", "tags": {"addr:city": "Healdton", "addr:housenumber": "23", "addr:postcode": "73438", "addr:state": "OK", "addr:street": "South 3rd Street", "building": "yes"}}}, {"type": "Feature", "geometry": {"type": "Polygon", "coordinates": [[[-97.4778361, 34.2305856], [-97.4778355, 34.2307011], [-97.4777545, 34.2307009], [-97.4777542, 34.2307803], [-97.4778336, 34.2307806], [-97.4778361, 34.230787], [-97.4779824, 34.2307875], [-97.4779834, 34.2305861], [-97.4778361, 34.2305856]]]}, "properties": {"osm_id": 1149647923, "building": "yes", "name": "", "height": null, "height_m": null, "levels": null, "tract_id": "40019892302", "tract_name": "8923.02", "tags": {"amenity": "place_of_worship", "building": "yes", "denomination": "jehovahs_witness", "religion": "christian", "source": "microsoft/BuildingFootprints"}}}, {"type": "Feature", "geometry": {"type": "Polygon", "coordinates": [[[-97.4571835, 34.2682653], [-97.4571866, 34.2683032], [-97.4569787, 34.2683148], [-97.4569756, 34.2682769], [-97.4571835, 34.2682653]]]}, "properties": {"osm_id": 1350421322, "building": "yes", "name": "", "height": null, "height_m": null, "levels": null, "tract_id": "40019892302", "tract_name": "8923.02", "tags": {"building": "yes"}}}, {"type": "Feature", "geometry": {"type": "Polygon", "coordinates": [[[-97.4559986, 34.2684692], [-97.4557599, 34.268493], [-97.4557519, 34.2684383], [-97.455794, 34.2684341], [-97.4557973, 34.268456], [-97.4559938, 34.2684364], [-97.4559986, 34.2684692]]]}, "properties": {"osm_id": 1350421323, "building": "yes", "name": "", "height": null, "height_m": null, "levels": null, "tract_id": "40019892302", "tract_name": "8923.02", "tags": {"building": "yes"}}}, {"type": "Feature", "geometry": {"type": "Polygon", "coordinates": [[[-97.4561548, 34.2694246], [-97.456153, 34.2693824], [-97.45621, 34.2693807], [-97.4562118, 34.2694229], [-97.4561548, 34.2694246]]]}, "properties": {"osm_id": 1350421324, "building": "yes", "name": "", "height": null, "height_m": null, "levels": null, "tract_id": "40019892302", "tract_name": "8923.02", "tags": {"building": "yes"}}}, {"type": "Feature", "geometry": {"type": "Polygon", "coordinates": [[[-97.4562091, 34.2693243], [-97.4562111, 34.2693687], [-97.4561547, 34.2693704], [-97.4561528, 34.2693259], [-97.4562091, 34.2693243]]]}, "properties": {"osm_id": 1350421325, "building": "yes", "name": "", "height": null, "height_m": null, "levels": null, "tract_id": "40019892302", "tract_name": "8923.02", "tags": {"building": "yes"}}}, {"type": "Feature", "geometry": {"type": "Polygon", "coordinates": [[[-97.4565008, 34.2691924], [-97.4564163, 34.2692683], [-97.4563129, 34.2691897], [-97.4563539, 34.2691528], [-97.456376, 34.2691695], [-97.4564303, 34.2691207], [-97.4564887, 34.2691651], [-97.4564778, 34.2691749], [-97.4565008, 34.2691924]]]}, "properties": {"osm_id": 1350421326, "building": "yes", "name": "", "height": null, "height_m": null, "levels": null, "tract_id": "40019892302", "tract_name": "8923.02", "tags": {"building": "yes"}}}, {"type": "Feature", "geometry": {"type": "Polygon", "coordinates": [[[-97.4567161, 34.269189], [-97.4567612, 34.2692236], [-97.4566834, 34.2692929], [-97.4566383, 34.2692583], [-97.4567161, 34.269189]]]}, "properties": {"osm_id": 1350421327, "building": "yes", "name": "", "height": null, "height_m": null, "levels": null, "tract_id": "40019892302", "tract_name": "8923.02", "tags": {"building": "yes"}}}, {"type": "Feature", "geometry": {"type": "Polygon", "coordinates": [[[-97.4565645, 34.269383], [-97.4565726, 34.2695044], [-97.4565258, 34.2695065], [-97.4565231, 34.2694661], [-97.4565101, 34.2694667], [-97.4565047, 34.2693857], [-97.4565645, 34.269383]]]}, "properties": {"osm_id": 1350421329, "building": "yes", "name": "", "height": null, "height_m": null, "levels": null, "tract_id": "40019892302", "tract_name": "8923.02", "tags": {"building": "yes"}}}, {"type": "Feature", "geometry": {"type": "Polygon", "coordinates": [[[-97.4564559, 34.2666449], [-97.4565142, 34.2668151], [-97.4564674, 34.266826], [-97.4564091, 34.2666559], [-97.4564559, 34.2666449]]]}, "properties": {"osm_id": 1350421332, "building": "yes", "name": "", "height": null, "height_m": null, "levels": null, "tract_id": "40019892302", "tract_name": "8923.02", "tags": {"building": "yes"}}}, {"type": "Feature", "geometry": {"type": "Polygon", "coordinates": [[[-97.4566886, 34.2665696], [-97.4567162, 34.2666232], [-97.4565901, 34.2666675], [-97.4565625, 34.2666139], [-97.4566886, 34.2665696]]]}, "properties": {"osm_id": 1350421333, "building": "yes", "name": "", "height": null, "height_m": null, "levels": null, "tract_id": "40019892302", "tract_name": "8923.02", "tags": {"building": "yes"}}}, {"type": "Feature", "geometry": {"type": "Polygon", "coordinates": [[[-97.4892557, 34.2245766], [-97.4890668, 34.2245791], [-97.4890629, 34.2243712], [-97.4892518, 34.2243688], [-97.4892557, 34.2245766]]]}, "properties": {"osm_id": 1385696052, "building": "house", "name": "", "height": null, "height_m": 3.0, "levels": 1, "tract_id": "40019892302", "tract_name": "8923.02", "tags": {"addr:city": "Healdton", "addr:housenumber": "23", "addr:postcode": "73438", "addr:state": "OK", "addr:street": "South 5th Street", "building": "house", "building:levels": "1", "house": "residential", "source": "local knowledge"}}}]}