{"type": "FeatureCollection", "features": [{"type": "Feature", "geometry": {"type": "Polygon", "coordinates": [[[-95.9722482, 36.648751], [-95.9722466, 36.6485783], [-95.9723911, 36.6485774], [-95.9723918, 36.6486587], [-95.9723548, 36.6486589], [-95.9723556, 36.6487503], [-95.9722482, 36.648751]]]}, "properties": {"osm_id": 231164763, "building": "house", "name": "", "height": null, "height_m": null, "levels": null, "tract_id": "40147001200", "tract_name": "12", "tags": {"addr:city": "Ochelata", "addr:country": "US", "addr:housenumber": "394950", "addr:postcode": "74051", "addr:street": "West 2550 Road", "building": "house"}}}, {"type": "Feature", "geometry": {"type": "Polygon", "coordinates": [[[-95.9724158, 36.6489408], [-95.9722285, 36.6489395], [-95.9722289, 36.6489025], [-95.9724162, 36.6489039], [-95.9724158, 36.6489408]]]}, "properties": {"osm_id": 231164764, "building": "yes", "name": "", "height": null, "height_m": null, "levels": null, "tract_id": "40147001200", "tract_name": "12", "tags": {"building": "yes"}}}, {"type": "Feature", "geometry": {"type": "Polygon", "coordinates": [[[-95.9722597, 36.6485295], [-95.9721143, 36.6485304], [-95.9721135, 36.6484425], [-95.9722589, 36.6484416], [-95.9722597, 36.6485295]]]}, "properties": {"osm_id": 231164765, "building": "yes", "name": "", "height": null, "height_m": null, "levels": null, "tract_id": "40147001200", "tract_name": "12", "tags": {"building": "yes"}}}, {"type": "Feature", "geometry": {"type": "Polygon", "coordinates": [[[-95.8940738, 36.7324183], [-95.8932169, 36.7324183], [-95.8932169, 36.7313177], [-95.8940738, 36.7313177], [-95.8940738, 36.7324183]]]}, "properties": {"osm_id": 254568584, "building": "industrial", "name": "Blue Whale Materials", "height": null, "height_m": null, "levels": null, "tract_id": "40147001200", "tract_name": "12", "tags": {"addr:city": "Bartlesville", "addr:housenumber": "7051", "addr:postcode": "74006", "addr:street": "Industrial Boulevard", "building": "industrial", "description": "recycling for lithium-ion batteries", "name": "Blue Whale Materials"}}}, {"type": "Feature", "geometry": {"type": "Polygon", "coordinates": [[[-95.8974611, 36.7316378], [-95.8968786, 36.7316371], [-95.8968801, 36.7308138], [-95.8968802, 36.73074], [-95.8968813, 36.730188], [-95.8974638, 36.7301887], [-95.8974611, 36.7316378]]]}, "properties": {"osm_id": 254568709, "building": "industrial", "name": "ABB Incorporated", "height": null, "height_m": null, "levels": null, "tract_id": "40147001200", "tract_name": "12", "tags": {"addr:city": "Bartlesville", "addr:postcode": "74006", "addr:street": "Industrial Boulevard", "building": "industrial", "name": "ABB Incorporated"}}}, {"type": "Feature", "geometry": {"type": "Polygon", "coordinates": [[[-95.8961417, 36.7319174], [-95.8961427, 36.7318058], [-95.8960485, 36.7318053], [-95.8960487, 36.7317848], [-95.8959549, 36.7317843], [-95.8959547, 36.7318048], [-95.8957642, 36.7318038], [-95.895763, 36.7319361], [-95.8959537, 36.7319371], [-95.8959539, 36.7319164], [-95.8961417, 36.7319174]]]}, "properties": {"osm_id": 261269629, "building": "industrial", "name": "", "height": null, "height_m": null, "levels": null, "tract_id": "40147001200", "tract_name": "12", "tags": {"addr:city": "Bartlesville", "addr:postcode": "74006", "addr:street": "Industrial Boulevard", "building": "industrial"}}}, {"type": "Feature", "geometry": {"type": "Polygon", "coordinates": [[[-95.8958509, 36.7328277], [-95.8961135, 36.7328277], [-95.8961135, 36.7330505], [-95.8967852, 36.7330505], [-95.8967852, 36.7326384], [-95.8961135, 36.7326384], [-95.8961135, 36.7326512], [-95.8958509, 36.7326512], [-95.8958509, 36.7328277]]]}, "properties": {"osm_id": 261269896, "building": "industrial", "name": "Image First", "height": null, "height_m": null, "levels": null, "tract_id": "40147001200", "tract_name": "12", "tags": {"addr:city": "Bartlesville", "addr:postcode": "74006", "building": "industrial", "description": "healthcare laundry specialists", "industrial": "laundry", "name": "Image First"}}}, {"type": "Feature", "geometry": {"type": "Polygon", "coordinates": [[[-95.8562698, 36.7327767], [-95.8561895, 36.7327897], [-95.8561953, 36.7328131], [-95.8560908, 36.7328299], [-95.8560834, 36.7328004], [-95.8559937, 36.7328149], [-95.8559681, 36.7327128], [-95.8561157, 36.7326889], [-95.8561197, 36.732705], [-95.8562466, 36.7326845], [-95.8562698, 36.7327767]]]}, "properties": {"osm_id": 263904923, "building": "house", "name": "", "height": null, "height_m": null, "levels": null, "tract_id": "40147001200", "tract_name": "12", "tags": {"addr:city": "Bartlesville", "addr:country": "US", "addr:housenumber": "401421", "addr:postcode": "74006", "addr:street": "West 1970 Drive", "building": "house"}}}, {"type": "Feature", "geometry": {"type": "Polygon", "coordinates": [[[-95.897703, 36.7275424], [-95.8976024, 36.7275435], [-95.897606, 36.7274516], [-95.8977053, 36.7274484], [-95.897703, 36.7275424]]]}, "properties": {"osm_id": 689053064, "building": "service", "name": "", "height": null, "height_m": null, "levels": null, "tract_id": "40147001200", "tract_name": "12", "tags": {"building": "service"}}}, {"type": "Feature", "geometry": {"type": "Polygon", "coordinates": [[[-95.975141, 36.64866], [-95.975141, 36.648884], [-95.975294, 36.648884], [-95.975294, 36.64866], [-95.975141, 36.64866]]]}, "properties": {"osm_id": 828966661, "building": "garage", "name": "", "height": null, "height_m": null, "levels": null, "tract_id": "40147001200", "tract_name": "12", "tags": {"building": "garage", "source": "microsoft/BuildingFootprints"}}}, {"type": "Feature", "geometry": {"type": "Polygon", "coordinates": [[[-95.975294, 36.648537], [-95.975294, 36.648628], [-95.975474, 36.648628], [-95.975474, 36.648537], [-95.975294, 36.648537]]]}, "properties": {"osm_id": 828966662, "building": "house", "name": "", "height": null, "height_m": null, "levels": null, "tract_id": "40147001200", "tract_name": "12", "tags": {"building": "house", "source": "microsoft/BuildingFootprints"}}}, {"type": "Feature", "geometry": {"type": "Polygon", "coordinates": [[[-95.97468, 36.648884], [-95.974629, 36.648884], [-95.974629, 36.648991], [-95.97468, 36.648991], [-95.97468, 36.648884]]]}, "properties": {"osm_id": 828966663, "building": "shed", "name": "", "height": null, "height_m": null, "levels": null, "tract_id": "40147001200", "tract_name": "12", "tags": {"building": "shed", "source": "microsoft/BuildingFootprints"}}}, {"type": "Feature", "geometry": {"type": "Polygon", "coordinates": [[[-95.974658, 36.648688], [-95.974658, 36.648514], [-95.974545, 36.648514], [-95.974545, 36.648688], [-95.974658, 36.648688]]]}, "properties": {"osm_id": 828966664, "building": "garage", "name": "", "height": null, "height_m": null, "levels": null, "tract_id": "40147001200", "tract_name": "12", "tags": {"building": "garage", "source": "microsoft/BuildingFootprints"}}}, {"type": "Feature", "geometry": {"type": "Polygon", "coordinates": [[[-95.974513, 36.648475], [-95.974342, 36.648475], [-95.974342, 36.648582], [-95.974513, 36.648582], [-95.974513, 36.648475]]]}, "properties": {"osm_id": 828966665, "building": "yes", "name": "", "height": null, "height_m": null, "levels": null, "tract_id": "40147001200", "tract_name": "12", "tags": {"building": "yes", "source": "microsoft/BuildingFootprints"}}}, {"type": "Feature", "geometry": {"type": "Polygon", "coordinates": [[[-95.9738002, 36.6485375], [-95.973746, 36.6485387], [-95.9737479, 36.6485953], [-95.9737801, 36.6485946], [-95.9737813, 36.6486293], [-95.9739249, 36.6486262], [-95.973924, 36.648599], [-95.9739661, 36.648598], [-95.9739644, 36.6485494], [-95.9739214, 36.6485504], [-95.9739205, 36.648523], [-95.9737998, 36.6485256], [-95.9738002, 36.6485375]]]}, "properties": {"osm_id": 828966666, "building": "house", "name": "", "height": null, "height_m": null, "levels": null, "tract_id": "40147001200", "tract_name": "12", "tags": {"building": "house", "source": "microsoft/BuildingFootprints"}}}, {"type": "Feature", "geometry": {"type": "Polygon", "coordinates": [[[-95.973915, 36.648976], [-95.973993, 36.648976], [-95.973993, 36.648875], [-95.973915, 36.648875], [-95.973915, 36.648976]]]}, "properties": {"osm_id": 828966667, "building": "shed", "name": "", "height": null, "height_m": null, "levels": null, "tract_id": "40147001200", "tract_name": "12", "tags": {"building": "shed", "source": "microsoft/BuildingFootprints"}}}, {"type": "Feature", "geometry": {"type": "Polygon", "coordinates": [[[-95.973457, 36.648965], [-95.973563, 36.648965], [-95.97356, 36.648767], [-95.973455, 36.648768], [-95.973457, 36.648965]]]}, "properties": {"osm_id": 828966668, "building": "house", "name": "", "height": null, "height_m": null, "levels": null, "tract_id": "40147001200", "tract_name": "12", "tags": {"building": "house", "source": "microsoft/BuildingFootprints"}}}, {"type": "Feature", "geometry": {"type": "Polygon", "coordinates": [[[-95.973548, 36.648514], [-95.973432, 36.648514], [-95.973432, 36.648628], [-95.973548, 36.648628], [-95.973548, 36.648514]]]}, "properties": {"osm_id": 828966669, "building": "garage", "name": "", "height": null, "height_m": null, "levels": null, "tract_id": "40147001200", "tract_name": "12", "tags": {"building": "garage", "source": "microsoft/BuildingFootprints"}}}, {"type": "Feature", "geometry": {"type": "Polygon", "coordinates": [[[-95.974492, 36.648862], [-95.974213, 36.648862], [-95.974213, 36.648907], [-95.974492, 36.648907], [-95.974492, 36.648862]]]}, "properties": {"osm_id": 828966670, "building": "static_caravan", "name": "", "height": null, "height_m": null, "levels": null, "tract_id": "40147001200", "tract_name": "12", "tags": {"building": "static_caravan", "source": "microsoft/BuildingFootprints"}}}, {"type": "Feature", "geometry": {"type": "Polygon", "coordinates": [[[-95.972993, 36.648303], [-95.97309, 36.648303], [-95.97309, 36.648228], [-95.973217, 36.648227], [-95.973217, 36.648136], [-95.972993, 36.648136], [-95.972993, 36.648303]]]}, "properties": {"osm_id": 828966671, "building": "house", "name": "", "height": null, "height_m": null, "levels": null, "tract_id": "40147001200", "tract_name": "12", "tags": {"building": "house", "source": "microsoft/BuildingFootprints"}}}, {"type": "Feature", "geometry": {"type": "Polygon", "coordinates": [[[-95.97329, 36.647773], [-95.97329, 36.647829], [-95.973407, 36.647829], [-95.973407, 36.647773], [-95.97329, 36.647773]]]}, "properties": {"osm_id": 828966672, "building": "shed", "name": "", "height": null, "height_m": null, "levels": null, "tract_id": "40147001200", "tract_name": "12", "tags": {"building": "shed", "source": "microsoft/BuildingFootprints"}}}, {"type": "Feature", "geometry": {"type": "Polygon", "coordinates": [[[-95.971767, 36.649932], [-95.971767, 36.650022], [-95.971879, 36.650022], [-95.971879, 36.649932], [-95.971767, 36.649932]]]}, "properties": {"osm_id": 828966673, "building": "house", "name": "", "height": null, "height_m": null, "levels": null, "tract_id": "40147001200", "tract_name": "12", "tags": {"building": "house", "source": "microsoft/BuildingFootprints"}}}, {"type": "Feature", "geometry": {"type": "Polygon", "coordinates": [[[-95.972255, 36.649953], [-95.97207, 36.649953], [-95.97207, 36.650014], [-95.972255, 36.650014], [-95.972255, 36.649953]]]}, "properties": {"osm_id": 828966674, "building": "shed", "name": "", "height": null, "height_m": null, "levels": null, "tract_id": "40147001200", "tract_name": "12", "tags": {"building": "shed", "source": "microsoft/BuildingFootprints"}}}, {"type": "Feature", "geometry": {"type": "Polygon", "coordinates": [[[-95.979789, 36.64268], [-95.979762, 36.642895], [-95.979821, 36.6429], [-95.979848, 36.642685], [-95.979789, 36.64268]]]}, "properties": {"osm_id": 829794479, "building": "static_caravan", "name": "", "height": null, "height_m": null, "levels": null, "tract_id": "40147001200", "tract_name": "12", "tags": {"building": "static_caravan", "source": "microsoft/BuildingFootprints"}}}, {"type": "Feature", "geometry": {"type": "Polygon", "coordinates": [[[-95.979302, 36.642926], [-95.979524, 36.642885], [-95.979487, 36.642754], [-95.979265, 36.642794], [-95.979302, 36.642926]]]}, "properties": {"osm_id": 829794480, "building": "garage", "name": "", "height": null, "height_m": null, "levels": null, "tract_id": "40147001200", "tract_name": "12", "tags": {"building": "garage", "source": "microsoft/BuildingFootprints"}}}, {"type": "Feature", "geometry": {"type": "Polygon", "coordinates": [[[-95.981141, 36.644425], [-95.981015, 36.644364], [-95.980895, 36.644523], [-95.981021, 36.644585], [-95.981059, 36.644535], [-95.981187, 36.644597], [-95.981242, 36.644525], [-95.981113, 36.644462], [-95.981141, 36.644425]]]}, "properties": {"osm_id": 829794483, "building": "house", "name": "", "height": null, "height_m": null, "levels": null, "tract_id": "40147001200", "tract_name": "12", "tags": {"building": "house", "source": "microsoft/BuildingFootprints"}}}, {"type": "Feature", "geometry": {"type": "Polygon", "coordinates": [[[-95.980535, 36.644659], [-95.980634, 36.644659], [-95.980634, 36.644522], [-95.980535, 36.644522], [-95.980535, 36.644659]]]}, "properties": {"osm_id": 829794484, "building": "garage", "name": "", "height": null, "height_m": null, "levels": null, "tract_id": "40147001200", "tract_name": "12", "tags": {"building": "garage", "source": "microsoft/BuildingFootprints"}}}, {"type": "Feature", "geometry": {"type": "Polygon", "coordinates": [[[-95.980825, 36.645163], [-95.980825, 36.645296], [-95.980988, 36.645296], [-95.980988, 36.645163], [-95.980825, 36.645163]]]}, "properties": {"osm_id": 829794485, "building": "barn", "name": "", "height": null, "height_m": null, "levels": null, "tract_id": "40147001200", "tract_name": "12", "tags": {"building": "barn", "source": "microsoft/BuildingFootprints"}}}, {"type": "Feature", "geometry": {"type": "Polygon", "coordinates": [[[-95.974717, 36.643725], [-95.974716, 36.64357], [-95.974503, 36.643571], [-95.974504, 36.643726], [-95.974717, 36.643725]]]}, "properties": {"osm_id": 829794486, "building": "barn", "name": "", "height": null, "height_m": null, "levels": null, "tract_id": "40147001200", "tract_name": "12", "tags": {"building": "barn", "source": "microsoft/BuildingFootprints"}}}, {"type": "Feature", "geometry": {"type": "Polygon", "coordinates": [[[-95.97419, 36.643526], [-95.973995, 36.643523], [-95.973993, 36.643665], [-95.974187, 36.643668], [-95.97419, 36.643526]]]}, "properties": {"osm_id": 829794487, "building": "barn", "name": "", "height": null, "height_m": null, "levels": null, "tract_id": "40147001200", "tract_name": "12", "tags": {"building": "barn", "source": "microsoft/BuildingFootprints"}}}, {"type": "Feature", "geometry": {"type": "Polygon", "coordinates": [[[-95.9743179, 36.6434553], [-95.9742391, 36.6434568], [-95.9742414, 36.6435375], [-95.9743201, 36.6435361], [-95.9743179, 36.6434553]]]}, "properties": {"osm_id": 829794488, "building": "shed", "name": "", "height": null, "height_m": null, "levels": null, "tract_id": "40147001200", "tract_name": "12", "tags": {"building": "shed", "source": "microsoft/BuildingFootprints"}}}, {"type": "Feature", "geometry": {"type": "Polygon", "coordinates": [[[-95.97347, 36.643415], [-95.973542, 36.643415], [-95.973542, 36.643319], [-95.97347, 36.643319], [-95.97347, 36.643415]]]}, "properties": {"osm_id": 829794489, "building": "shed", "name": "", "height": null, "height_m": null, "levels": null, "tract_id": "40147001200", "tract_name": "12", "tags": {"building": "shed", "source": "microsoft/BuildingFootprints"}}}, {"type": "Feature", "geometry": {"type": "Polygon", "coordinates": [[[-95.972782, 36.643406], [-95.972783, 36.643525], [-95.972976, 36.643524], [-95.972975, 36.643405], [-95.972782, 36.643406]]]}, "properties": {"osm_id": 829794490, "building": "house", "name": "", "height": null, "height_m": null, "levels": null, "tract_id": "40147001200", "tract_name": "12", "tags": {"building": "house", "source": "microsoft/BuildingFootprints"}}}, {"type": "Feature", "geometry": {"type": "Polygon", "coordinates": [[[-95.972863, 36.643576], [-95.972863, 36.6436677], [-95.9729595, 36.6436677], [-95.9729595, 36.643576], [-95.972863, 36.643576]]]}, "properties": {"osm_id": 829794491, "building": "garage", "name": "", "height": null, "height_m": null, "levels": null, "tract_id": "40147001200", "tract_name": "12", "tags": {"building": "garage"}}}, {"type": "Feature", "geometry": {"type": "Polygon", "coordinates": [[[-95.972244, 36.645219], [-95.972102, 36.645219], [-95.972102, 36.64537], [-95.972244, 36.64537], [-95.972244, 36.645219]]]}, "properties": {"osm_id": 829794493, "building": "barn", "name": "", "height": null, "height_m": null, "levels": null, "tract_id": "40147001200", "tract_name": "12", "tags": {"building": "barn", "source": "microsoft/BuildingFootprints"}}}, {"type": "Feature", "geometry": {"type": "Polygon", "coordinates": [[[-95.971933, 36.645681], [-95.97208, 36.645683], [-95.972078, 36.645766], [-95.972133, 36.645767], [-95.972132, 36.645817], [-95.972196, 36.645818], [-95.9722, 36.645669], [-95.972141, 36.645668], [-95.972143, 36.645601], [-95.971935, 36.645597], [-95.971933, 36.645681]]]}, "properties": {"osm_id": 829794494, "building": "house", "name": "", "height": null, "height_m": null, "levels": null, "tract_id": "40147001200", "tract_name": "12", "tags": {"building": "house", "source": "microsoft/BuildingFootprints"}}}, {"type": "Feature", "geometry": {"type": "Polygon", "coordinates": [[[-95.972596, 36.646717], [-95.97295, 36.646717], [-95.97295, 36.646598], [-95.972596, 36.646598], [-95.972596, 36.646717]]]}, "properties": {"osm_id": 829794495, "building": "garage", "name": "", "height": null, "height_m": null, "levels": null, "tract_id": "40147001200", "tract_name": "12", "tags": {"building": "garage", "source": "microsoft/BuildingFootprints"}}}, {"type": "Feature", "geometry": {"type": "Polygon", "coordinates": [[[-95.971609, 36.646666], [-95.971749, 36.646778], [-95.971863, 36.646687], [-95.971809, 36.646644], [-95.971782, 36.646666], [-95.971696, 36.646596], [-95.971609, 36.646666]]]}, "properties": {"osm_id": 829794496, "building": "house", "name": "", "height": null, "height_m": null, "levels": null, "tract_id": "40147001200", "tract_name": "12", "tags": {"building": "house", "source": "microsoft/BuildingFootprints"}}}, {"type": "Feature", "geometry": {"type": "Polygon", "coordinates": [[[-95.971778, 36.647035], [-95.971928, 36.647107], [-95.972, 36.647011], [-95.97185, 36.646939], [-95.971778, 36.647035]]]}, "properties": {"osm_id": 829794497, "building": "garage", "name": "", "height": null, "height_m": null, "levels": null, "tract_id": "40147001200", "tract_name": "12", "tags": {"building": "garage", "source": "microsoft/BuildingFootprints"}}}, {"type": "Feature", "geometry": {"type": "Polygon", "coordinates": [[[-95.972826, 36.648085], [-95.972826, 36.647939], [-95.972676, 36.647939], [-95.972676, 36.647995], [-95.97274, 36.647995], [-95.97274, 36.648085], [-95.972826, 36.648085]]]}, "properties": {"osm_id": 829794498, "building": "garage", "name": "", "height": null, "height_m": null, "levels": null, "tract_id": "40147001200", "tract_name": "12", "tags": {"building": "garage", "source": "microsoft/BuildingFootprints"}}}, {"type": "Feature", "geometry": {"type": "Polygon", "coordinates": [[[-95.97251, 36.648149], [-95.972506, 36.648007], [-95.972393, 36.648009], [-95.972394, 36.648074], [-95.97235, 36.648075], [-95.972352, 36.648151], [-95.97251, 36.648149]]]}, "properties": {"osm_id": 829794499, "building": "house", "name": "", "height": null, "height_m": null, "levels": null, "tract_id": "40147001200", "tract_name": "12", "tags": {"building": "house", "source": "microsoft/BuildingFootprints"}}}, {"type": "Feature", "geometry": {"type": "Polygon", "coordinates": [[[-95.972118, 36.648266], [-95.972239, 36.648266], [-95.972239, 36.6481], [-95.972161, 36.6481], [-95.972161, 36.648206], [-95.972118, 36.648206], [-95.972118, 36.648266]]]}, "properties": {"osm_id": 829794500, "building": "house", "name": "", "height": null, "height_m": null, "levels": null, "tract_id": "40147001200", "tract_name": "12", "tags": {"building": "house", "source": "microsoft/BuildingFootprints"}}}, {"type": "Feature", "geometry": {"type": "Polygon", "coordinates": [[[-95.8556466, 36.7230312], [-95.8556323, 36.723067], [-95.8556847, 36.7230804], [-95.855699, 36.7230446], [-95.8556466, 36.7230312]]]}, "properties": {"osm_id": 954119961, "building": "yes", "name": "", "height": null, "height_m": null, "levels": null, "tract_id": "40147001200", "tract_name": "12", "tags": {"building": "yes"}}}, {"type": "Feature", "geometry": {"type": "Polygon", "coordinates": [[[-95.8761793, 36.7261616], [-95.8761698, 36.7261261], [-95.8761258, 36.7261337], [-95.8761353, 36.7261692], [-95.8761793, 36.7261616]]]}, "properties": {"osm_id": 954119963, "building": "yes", "name": "", "height": null, "height_m": null, "levels": null, "tract_id": "40147001200", "tract_name": "12", "tags": {"building": "yes"}}}, {"type": "Feature", "geometry": {"type": "Polygon", "coordinates": [[[-95.8260251, 36.7218075], [-95.8259398, 36.7217777], [-95.8259486, 36.721739], [-95.8259345, 36.7217334], [-95.825946, 36.7217014], [-95.8259676, 36.7216681], [-95.8259809, 36.7216706], [-95.8260128, 36.721622], [-95.8260194, 36.7216078], [-95.82603, 36.7216096], [-95.826057, 36.7215575], [-95.8261344, 36.721583], [-95.8261211, 36.72161], [-95.8261787, 36.7216316], [-95.826176, 36.7216408], [-95.8261322, 36.7217057], [-95.8260902, 36.7216904], [-95.8260712, 36.7217298], [-95.8260251, 36.7218075]]]}, "properties": {"osm_id": 1054825431, "building": "house", "name": "", "height": null, "height_m": null, "levels": null, "tract_id": "40147001200", "tract_name": "12", "tags": {"addr:city": "Bartlesville", "addr:housenumber": "20412", "addr:postcode": "74006", "addr:state": "OK", "addr:street": "N4030 Road", "building": "house"}}}, {"type": "Feature", "geometry": {"type": "Polygon", "coordinates": [[[-95.8247084, 36.7203988], [-95.8246615, 36.7204296], [-95.8246168, 36.7203889], [-95.8243903, 36.7203593], [-95.8243971, 36.7203016], [-95.8243797, 36.7202752], [-95.8243599, 36.7202468], [-95.8244326, 36.7201903], [-95.8244501, 36.7202113], [-95.8244655, 36.720215], [-95.8245983, 36.7202304], [-95.8245996, 36.7202129], [-95.8247002, 36.7202266], [-95.8246978, 36.7202489], [-95.8247183, 36.7202524], [-95.8247139, 36.7202766], [-95.8247438, 36.7202785], [-95.8247481, 36.7203408], [-95.8246911, 36.7203771], [-95.8247084, 36.7203988]]]}, "properties": {"osm_id": 1054825876, "building": "house", "name": "", "height": null, "height_m": null, "levels": null, "tract_id": "40147001200", "tract_name": "12", "tags": {"addr:city": "Bartlesville", "addr:housenumber": "4030", "addr:postcode": "74006", "addr:state": "OK", "addr:street": "Rd", "building": "house"}}}, {"type": "Feature", "geometry": {"type": "Polygon", "coordinates": [[[-95.8273265, 36.7201998], [-95.8273215, 36.7202006], [-95.8273199, 36.7202095], [-95.8272025, 36.7202095], [-95.827198, 36.7201708], [-95.8272005, 36.7201256], [-95.8273113, 36.720126], [-95.8273108, 36.7201321], [-95.8273286, 36.720133], [-95.8273306, 36.7202002], [-95.8273265, 36.7201998]]]}, "properties": {"osm_id": 1054826663, "building": "house", "name": "", "height": null, "height_m": null, "levels": null, "tract_id": "40147001200", "tract_name": "12", "tags": {"building": "house"}}}, {"type": "Feature", "geometry": {"type": "Polygon", "coordinates": [[[-95.8272703, 36.7202346], [-95.8272029, 36.7202335], [-95.8272024, 36.7202789], [-95.8272708, 36.7202795], [-95.8272703, 36.7202346]]]}, "properties": {"osm_id": 1054826868, "building": "garage", "name": "", "height": null, "height_m": null, "levels": null, "tract_id": "40147001200", "tract_name": "12", "tags": {"building": "garage"}}}, {"type": "Feature", "geometry": {"type": "Polygon", "coordinates": [[[-95.8292175, 36.7201133], [-95.8291988, 36.7200245], [-95.8291391, 36.7200308], [-95.8291326, 36.7200298], [-95.8291276, 36.7200037], [-95.8290674, 36.720009], [-95.8290653, 36.720003], [-95.8290244, 36.7200056], [-95.8290561, 36.7201394], [-95.8291549, 36.720127], [-95.8291543, 36.7201214], [-95.8292175, 36.7201133]]]}, "properties": {"osm_id": 1054945517, "building": "house", "name": "", "height": null, "height_m": null, "levels": null, "tract_id": "40147001200", "tract_name": "12", "tags": {"building": "house"}}}, {"type": "Feature", "geometry": {"type": "Polygon", "coordinates": [[[-95.8292854, 36.720016], [-95.8292334, 36.7200226], [-95.8292233, 36.7199848], [-95.8292786, 36.7199771], [-95.8292854, 36.720016]]]}, "properties": {"osm_id": 1054945977, "building": "garage", "name": "", "height": null, "height_m": null, "levels": null, "tract_id": "40147001200", "tract_name": "12", "tags": {"building": "garage"}}}, {"type": "Feature", "geometry": {"type": "Polygon", "coordinates": [[[-95.8293811, 36.7202175], [-95.8293738, 36.7201891], [-95.8293713, 36.7201558], [-95.8292299, 36.7201788], [-95.829233, 36.7202137], [-95.829247, 36.7202385], [-95.8293811, 36.7202175]]]}, "properties": {"osm_id": 1054946006, "building": "garage", "name": "", "height": null, "height_m": null, "levels": null, "tract_id": "40147001200", "tract_name": "12", "tags": {"building": "garage"}}}, {"type": "Feature", "geometry": {"type": "Polygon", "coordinates": [[[-95.8429215, 36.7458115], [-95.8428187, 36.7458781], [-95.842755, 36.7458177], [-95.842765, 36.7458121], [-95.842705, 36.7457532], [-95.8426547, 36.7457838], [-95.8426172, 36.745751], [-95.8425812, 36.7457134], [-95.8426267, 36.7456791], [-95.8425621, 36.7456161], [-95.8426475, 36.7455535], [-95.8426937, 36.7455953], [-95.8427656, 36.7455485], [-95.8428071, 36.7455795], [-95.8428382, 36.7456172], [-95.8427614, 36.7456666], [-95.8428501, 36.7457575], [-95.8428611, 36.7457494], [-95.8428989, 36.7457778], [-95.8429215, 36.7458115]]]}, "properties": {"osm_id": 1055450469, "building": "house", "name": "", "height": null, "height_m": null, "levels": null, "tract_id": "40147001200", "tract_name": "12", "tags": {"building": "house"}}}, {"type": "Feature", "geometry": {"type": "Polygon", "coordinates": [[[-95.8428088, 36.7452904], [-95.8428089, 36.7451562], [-95.8425822, 36.7451543], [-95.8425798, 36.7452877], [-95.8428088, 36.7452904]]]}, "properties": {"osm_id": 1055450676, "building": "garage", "name": "", "height": null, "height_m": null, "levels": null, "tract_id": "40147001200", "tract_name": "12", "tags": {"building": "garage"}}}, {"type": "Feature", "geometry": {"type": "Polygon", "coordinates": [[[-95.8271074, 36.7256123], [-95.827106, 36.7256586], [-95.827005, 36.7256559], [-95.8270087, 36.7254928], [-95.8272304, 36.7254951], [-95.8272277, 36.7256138], [-95.8271074, 36.7256123]]]}, "properties": {"osm_id": 1055452803, "building": "garage", "name": "", "height": null, "height_m": null, "levels": null, "tract_id": "40147001200", "tract_name": "12", "tags": {"building": "garage"}}}, {"type": "Feature", "geometry": {"type": "Polygon", "coordinates": [[[-95.8231122, 36.7247964], [-95.8231099, 36.7246606], [-95.8231698, 36.724658], [-95.8232375, 36.7246579], [-95.8232363, 36.7247967], [-95.823172, 36.7247981], [-95.8231122, 36.7247964]]]}, "properties": {"osm_id": 1055453741, "building": "garage", "name": "", "height": null, "height_m": null, "levels": null, "tract_id": "40147001200", "tract_name": "12", "tags": {"building": "garage"}}}, {"type": "Feature", "geometry": {"type": "Polygon", "coordinates": [[[-95.9731447, 36.6894623], [-95.9729837, 36.6894306], [-95.9730431, 36.689236], [-95.9732041, 36.6892677], [-95.9731447, 36.6894623]]]}, "properties": {"osm_id": 1097091040, "building": "yes", "name": "", "height": null, "height_m": null, "levels": null, "tract_id": "40147001200", "tract_name": "12", "tags": {"building": "yes"}}}, {"type": "Feature", "geometry": {"type": "Polygon", "coordinates": [[[-95.9719881, 36.6891631], [-95.9719968, 36.689002], [-95.9722105, 36.6890095], [-95.9722017, 36.6891705], [-95.9719881, 36.6891631]]]}, "properties": {"osm_id": 1097091041, "building": "yes", "name": "", "height": null, "height_m": null, "levels": null, "tract_id": "40147001200", "tract_name": "12", "tags": {"building": "yes"}}}, {"type": "Feature", "geometry": {"type": "Polygon", "coordinates": [[[-95.972673, 36.6891628], [-95.9724412, 36.6890454], [-95.9725039, 36.6889659], [-95.9727356, 36.6890834], [-95.972673, 36.6891628]]]}, "properties": {"osm_id": 1097091042, "building": "yes", "name": "", "height": null, "height_m": null, "levels": null, "tract_id": "40147001200", "tract_name": "12", "tags": {"building": "yes"}}}, {"type": "Feature", "geometry": {"type": "Polygon", "coordinates": [[[-95.9721988, 36.6887618], [-95.9719741, 36.6887571], [-95.9719765, 36.688686], [-95.9722011, 36.6886907], [-95.9721988, 36.6887618]]]}, "properties": {"osm_id": 1097091043, "building": "yes", "name": "", "height": null, "height_m": null, "levels": null, "tract_id": "40147001200", "tract_name": "12", "tags": {"building": "yes"}}}, {"type": "Feature", "geometry": {"type": "Polygon", "coordinates": [[[-95.9719219, 36.6887362], [-95.9718065, 36.6887348], [-95.9718052, 36.6888], [-95.9719206, 36.6888015], [-95.9719219, 36.6887362]]]}, "properties": {"osm_id": 1097091044, "building": "yes", "name": "", "height": null, "height_m": null, "levels": null, "tract_id": "40147001200", "tract_name": "12", "tags": {"building": "yes"}}}, {"type": "Feature", "geometry": {"type": "Polygon", "coordinates": [[[-95.9720763, 36.6885299], [-95.9720712, 36.6884374], [-95.9719898, 36.6884403], [-95.971995, 36.6885328], [-95.9720763, 36.6885299]]]}, "properties": {"osm_id": 1097091045, "building": "yes", "name": "", "height": null, "height_m": null, "levels": null, "tract_id": "40147001200", "tract_name": "12", "tags": {"building": "yes"}}}, {"type": "Feature", "geometry": {"type": "Polygon", "coordinates": [[[-95.9723576, 36.6885948], [-95.9723181, 36.6886025], [-95.9723079, 36.6885687], [-95.9723474, 36.688561], [-95.9723576, 36.6885948]]]}, "properties": {"osm_id": 1097091046, "building": "yes", "name": "", "height": null, "height_m": null, "levels": null, "tract_id": "40147001200", "tract_name": "12", "tags": {"building": "yes"}}}, {"type": "Feature", "geometry": {"type": "Polygon", "coordinates": [[[-95.9716037, 36.6883954], [-95.9717771, 36.6883954], [-95.9717771, 36.6883094], [-95.9716037, 36.6883095], [-95.9716037, 36.6883954]]]}, "properties": {"osm_id": 1097091047, "building": "yes", "name": "", "height": null, "height_m": null, "levels": null, "tract_id": "40147001200", "tract_name": "12", "tags": {"building": "yes"}}}, {"type": "Feature", "geometry": {"type": "Polygon", "coordinates": [[[-95.9716791, 36.6887907], [-95.9715532, 36.6887911], [-95.971553, 36.6887261], [-95.9716789, 36.6887258], [-95.9716791, 36.6887907]]]}, "properties": {"osm_id": 1097091048, "building": "yes", "name": "", "height": null, "height_m": null, "levels": null, "tract_id": "40147001200", "tract_name": "12", "tags": {"building": "yes"}}}, {"type": "Feature", "geometry": {"type": "Polygon", "coordinates": [[[-95.9722032, 36.6888871], [-95.9720357, 36.6888833], [-95.9720375, 36.6888303], [-95.9722051, 36.688834], [-95.9722032, 36.6888871]]]}, "properties": {"osm_id": 1097091049, "building": "yes", "name": "", "height": null, "height_m": null, "levels": null, "tract_id": "40147001200", "tract_name": "12", "tags": {"building": "yes"}}}, {"type": "Feature", "geometry": {"type": "Polygon", "coordinates": [[[-95.9714525, 36.6889264], [-95.9715841, 36.6889261], [-95.9715838, 36.6888644], [-95.9714522, 36.6888648], [-95.9714525, 36.6889264]]]}, "properties": {"osm_id": 1097091050, "building": "yes", "name": "", "height": null, "height_m": null, "levels": null, "tract_id": "40147001200", "tract_name": "12", "tags": {"building": "yes"}}}, {"type": "Feature", "geometry": {"type": "Polygon", "coordinates": [[[-95.9708592, 36.68905], [-95.9707475, 36.6890469], [-95.9707464, 36.6890722], [-95.9706349, 36.689069], [-95.9706363, 36.6890377], [-95.9705186, 36.6890344], [-95.9705217, 36.6889628], [-95.9706089, 36.6889653], [-95.9706095, 36.6889507], [-95.9707843, 36.6889557], [-95.9707839, 36.6889665], [-95.9708628, 36.6889687], [-95.9708592, 36.68905]]]}, "properties": {"osm_id": 1097091051, "building": "yes", "name": "", "height": null, "height_m": null, "levels": null, "tract_id": "40147001200", "tract_name": "12", "tags": {"building": "yes"}}}, {"type": "Feature", "geometry": {"type": "Polygon", "coordinates": [[[-95.967889, 36.6868828], [-95.9677019, 36.6869052], [-95.9676905, 36.6868442], [-95.9678776, 36.6868218], [-95.967889, 36.6868828]]]}, "properties": {"osm_id": 1097091052, "building": "yes", "name": "", "height": null, "height_m": null, "levels": null, "tract_id": "40147001200", "tract_name": "12", "tags": {"building": "yes"}}}, {"type": "Feature", "geometry": {"type": "Polygon", "coordinates": [[[-95.9671307, 36.6878782], [-95.9672143, 36.6878731], [-95.967211, 36.6878383], [-95.9671274, 36.6878435], [-95.9671307, 36.6878782]]]}, "properties": {"osm_id": 1097091053, "building": "yes", "name": "", "height": null, "height_m": null, "levels": null, "tract_id": "40147001200", "tract_name": "12", "tags": {"building": "yes"}}}, {"type": "Feature", "geometry": {"type": "Polygon", "coordinates": [[[-95.9669533, 36.6877469], [-95.9669599, 36.6878364], [-95.9669914, 36.6878349], [-95.966998, 36.6879242], [-95.966959, 36.687926], [-95.966966, 36.6880204], [-95.9668769, 36.6880246], [-95.9668717, 36.6879548], [-95.9668535, 36.6879556], [-95.9668432, 36.6878156], [-95.9668567, 36.6878149], [-95.9668521, 36.6877517], [-95.9669533, 36.6877469]]]}, "properties": {"osm_id": 1097091054, "building": "yes", "name": "", "height": null, "height_m": null, "levels": null, "tract_id": "40147001200", "tract_name": "12", "tags": {"building": "yes"}}}, {"type": "Feature", "geometry": {"type": "Polygon", "coordinates": [[[-95.9365835, 36.6986219], [-95.9359916, 36.6986206], [-95.9359926, 36.6983166], [-95.9365845, 36.6983179], [-95.9365835, 36.6986219]]]}, "properties": {"osm_id": 1218763281, "building": "retail", "name": "Tractor Supply Company", "height": null, "height_m": null, "levels": null, "tract_id": "40147001200", "tract_name": "12", "tags": {"addr:city": "Bartlesville", "addr:housenumber": "3403", "addr:postcode": "74006", "addr:state": "OK", "addr:street": "Southeast Washington Boulevard", "brand": "Tractor Supply Company", "brand:wikidata": "Q15109925", "building": "retail", "name": "Tractor Supply Company", "opening_hours": "Mo-Sa 08:00-21:00; Su 09:00-19:00", "phone": "+1 918-331-0367", "ref": "1520", "shop": "country_store"}}}, {"type": "Feature", "geometry": {"type": "Polygon", "coordinates": [[[-95.934294, 36.6947622], [-95.9342893, 36.6946181], [-95.9346092, 36.6946218], [-95.9345975, 36.694766], [-95.934294, 36.6947622]]]}, "properties": {"osm_id": 1218763283, "building": "retail", "name": "Windle's Rock and Jewerly", "height": null, "height_m": null, "levels": null, "tract_id": "40147001200", "tract_name": "12", "tags": {"building": "retail", "name": "Windle's Rock and Jewerly"}}}, {"type": "Feature", "geometry": {"type": "Polygon", "coordinates": [[[-95.8974611, 36.7316378], [-95.8974606, 36.7319111], [-95.8977973, 36.7319115], [-95.8977968, 36.7321872], [-95.8964605, 36.7321857], [-95.896461, 36.7319099], [-95.8964615, 36.7316366], [-95.8968786, 36.7316371], [-95.8974611, 36.7316378]]]}, "properties": {"osm_id": 1288346070, "building": "industrial", "name": "ABB Incorporated", "height": null, "height_m": null, "levels": null, "tract_id": "40147001200", "tract_name": "12", "tags": {"addr:city": "Bartlesville", "addr:postcode": "74006", "addr:street": "Industrial Boulevard", "building": "industrial", "name": "ABB Incorporated"}}}, {"type": "Feature", "geometry": {"type": "Polygon", "coordinates": [[[-95.8967652, 36.7308137], [-95.8967126, 36.7308136], [-95.8967128, 36.7307398], [-95.8967654, 36.7307399], [-95.8967654, 36.7307045], [-95.8968167, 36.7307046], [-95.8968166, 36.7307399], [-95.8968802, 36.73074], [-95.8968801, 36.7308138], [-95.8968165, 36.7308137], [-95.8968164, 36.7308475], [-95.8967652, 36.7308474], [-95.8967652, 36.7308137]]]}, "properties": {"osm_id": 1288554524, "building": "roof", "name": "", "height": null, "height_m": null, "levels": null, "tract_id": "40147001200", "tract_name": "12", "tags": {"building": "roof"}}}, {"type": "Feature", "geometry": {"type": "Polygon", "coordinates": [[[-95.8961372, 36.7310817], [-95.8961385, 36.7303998], [-95.8967134, 36.7304005], [-95.8967128, 36.7307398], [-95.8967126, 36.7308136], [-95.8967121, 36.7310824], [-95.8961372, 36.7310817]]]}, "properties": {"osm_id": 1288554525, "building": "industrial", "name": "ABB Incorporated", "height": null, "height_m": null, "levels": null, "tract_id": "40147001200", "tract_name": "12", "tags": {"addr:city": "Bartlesville", "addr:postcode": "74006", "addr:street": "Industrial Boulevard", "building": "industrial", "name": "ABB Incorporated"}}}, {"type": "Feature", "geometry": {"type": "Polygon", "coordinates": [[[-95.8967852, 36.7330505], [-95.8967852, 36.7331014], [-95.8961135, 36.7331014], [-95.8961135, 36.7330505], [-95.8967852, 36.7330505]]]}, "properties": {"osm_id": 1357902528, "building": "roof", "name": "", "height": null, "height_m": null, "levels": null, "tract_id": "40147001200", "tract_name": "12", "tags": {"building": "roof"}}}, {"type": "Feature", "geometry": {"type": "Polygon", "coordinates": [[[-95.8919316, 36.7351428], [-95.8917626, 36.7351397], [-95.8917693, 36.7349051], [-95.8919383, 36.7349082], [-95.8919316, 36.7351428]]]}, "properties": {"osm_id": 1357902529, "building": "industrial", "name": "", "height": null, "height_m": null, "levels": null, "tract_id": "40147001200", "tract_name": "12", "tags": {"addr:city": "Bartlesville", "addr:postcode": "74006", "building": "industrial"}}}, {"type": "Feature", "geometry": {"type": "Polygon", "coordinates": [[[-95.8959538, 36.7345408], [-95.8962859, 36.7345408], [-95.8962859, 36.7349554], [-95.8964541, 36.7349554], [-95.8964541, 36.7350833], [-95.8959538, 36.7350833], [-95.8959538, 36.7348786], [-95.8958815, 36.7348786], [-95.8958815, 36.7347506], [-95.8959538, 36.7347506], [-95.8959538, 36.7345408]]]}, "properties": {"osm_id": 1357902530, "building": "industrial", "name": "PPM", "height": null, "height_m": null, "levels": null, "tract_id": "40147001200", "tract_name": "12", "tags": {"addr:city": "Bartlesville", "addr:postcode": "74006", "building": "industrial", "name": "PPM"}}}, {"type": "Feature", "geometry": {"type": "Polygon", "coordinates": [[[-95.8949417, 36.7343703], [-95.8948375, 36.7343734], [-95.8948307, 36.734225], [-95.8949349, 36.734222], [-95.8949417, 36.7343703]]]}, "properties": {"osm_id": 1357902531, "building": "industrial", "name": "", "height": null, "height_m": null, "levels": null, "tract_id": "40147001200", "tract_name": "12", "tags": {"addr:city": "Bartlesville", "addr:postcode": "74006", "building": "industrial"}}}, {"type": "Feature", "geometry": {"type": "Polygon", "coordinates": [[[-95.8953322, 36.7349554], [-95.8949937, 36.7349554], [-95.8949937, 36.7342712], [-95.8953322, 36.7342712], [-95.8953322, 36.7349554]]]}, "properties": {"osm_id": 1357902532, "building": "industrial", "name": "Husky Portable Containment", "height": null, "height_m": null, "levels": null, "tract_id": "40147001200", "tract_name": "12", "tags": {"addr:city": "Bartlesville", "addr:postcode": "74006", "building": "industrial", "name": "Husky Portable Containment"}}}, {"type": "Feature", "geometry": {"type": "Polygon", "coordinates": [[[-95.8961689, 36.734203], [-95.895956, 36.734203], [-95.895956, 36.7339146], [-95.8961689, 36.7339146], [-95.8961689, 36.734203]]]}, "properties": {"osm_id": 1357902533, "building": "industrial", "name": "", "height": null, "height_m": null, "levels": null, "tract_id": "40147001200", "tract_name": "12", "tags": {"addr:city": "Bartlesville", "addr:postcode": "74006", "building": "industrial", "check_date": "2024-05-29", "shop": "vacant"}}}, {"type": "Feature", "geometry": {"type": "Polygon", "coordinates": [[[-95.8936706, 36.7342687], [-95.8934013, 36.7342687], [-95.8934013, 36.7341339], [-95.8936706, 36.7341339], [-95.8936706, 36.7342687]]]}, "properties": {"osm_id": 1357902534, "building": "industrial", "name": "", "height": null, "height_m": null, "levels": null, "tract_id": "40147001200", "tract_name": "12", "tags": {"addr:city": "Bartlesville", "addr:housenumber": "7380", "addr:postcode": "74006", "addr:street": "International Court", "building": "industrial", "operator": "Oklahoma Natural Gas"}}}, {"type": "Feature", "geometry": {"type": "Polygon", "coordinates": [[[-95.892885, 36.7347075], [-95.8927092, 36.734708], [-95.892709, 36.7346725], [-95.8923529, 36.7346734], [-95.8923522, 36.7345088], [-95.8927084, 36.7345079], [-95.8927083, 36.7344892], [-95.8928841, 36.7344887], [-95.892885, 36.7347075]]]}, "properties": {"osm_id": 1357902535, "building": "industrial", "name": "Oklahoma Natural Gas", "height": null, "height_m": null, "levels": null, "tract_id": "40147001200", "tract_name": "12", "tags": {"addr:city": "Bartlesville", "addr:housenumber": "7420", "addr:postcode": "74006", "addr:street": "International Court", "building": "industrial", "name": "Oklahoma Natural Gas"}}}, {"type": "Feature", "geometry": {"type": "Polygon", "coordinates": [[[-95.8940524, 36.7332485], [-95.8932087, 36.7332507], [-95.8932065, 36.7327021], [-95.8940502, 36.7326999], [-95.8940524, 36.7332485]]]}, "properties": {"osm_id": 1357902536, "building": "industrial", "name": "", "height": null, "height_m": null, "levels": null, "tract_id": "40147001200", "tract_name": "12", "tags": {"addr:city": "Bartlesville", "addr:housenumber": "7323", "addr:postcode": "74006", "addr:street": "International Court", "building": "industrial", "operator": "Blue Whale Materials"}}}]}