{"type": "FeatureCollection", "features": [{"type": "Feature", "geometry": {"type": "Polygon", "coordinates": [[[-95.7988487, 35.9204524], [-95.798736, 35.9204511], [-95.7987413, 35.9201535], [-95.7988541, 35.9201548], [-95.7988487, 35.9204524]]]}, "properties": {"osm_id": 545328522, "building": "yes", "name": "", "height": null, "height_m": null, "levels": null, "tract_id": "40143007804", "tract_name": "78.04", "tags": {"building": "yes"}}}, {"type": "Feature", "geometry": {"type": "Polygon", "coordinates": [[[-95.7986239, 35.9204733], [-95.798443, 35.9204995], [-95.7984273, 35.9204284], [-95.7986082, 35.9204022], [-95.7986239, 35.9204733]]]}, "properties": {"osm_id": 545328523, "building": "yes", "name": "", "height": null, "height_m": null, "levels": null, "tract_id": "40143007804", "tract_name": "78.04", "tags": {"building": "yes"}}}, {"type": "Feature", "geometry": {"type": "Polygon", "coordinates": [[[-95.8655726, 35.8565297], [-95.8654032, 35.8565086], [-95.8653842, 35.8566087], [-95.8655535, 35.8566299], [-95.8655726, 35.8565297]]]}, "properties": {"osm_id": 714469845, "building": "yes", "name": "", "height": null, "height_m": null, "levels": null, "tract_id": "40143007804", "tract_name": "78.04", "tags": {"building": "yes"}}}, {"type": "Feature", "geometry": {"type": "Polygon", "coordinates": [[[-95.8656397, 35.8570682], [-95.8655301, 35.8570182], [-95.8654184, 35.8571794], [-95.8654472, 35.8571925], [-95.8654291, 35.8572187], [-95.8654987, 35.8572503], [-95.8655156, 35.8572258], [-95.8655268, 35.8572309], [-95.8656397, 35.8570682]]]}, "properties": {"osm_id": 714469846, "building": "detached", "name": "", "height": null, "height_m": null, "levels": null, "tract_id": "40143007804", "tract_name": "78.04", "tags": {"addr:city": "Bixby", "addr:country": "US", "addr:housenumber": "21083", "addr:postcode": "74008", "addr:state": "OK", "addr:street": "South 103rd Avenue East", "building": "detached"}}}, {"type": "Feature", "geometry": {"type": "Polygon", "coordinates": [[[-95.8639714, 35.8574195], [-95.8639663, 35.8573619], [-95.8639103, 35.8573652], [-95.8639155, 35.8574228], [-95.8639714, 35.8574195]]]}, "properties": {"osm_id": 714469847, "building": "yes", "name": "", "height": null, "height_m": null, "levels": null, "tract_id": "40143007804", "tract_name": "78.04", "tags": {"building": "yes"}}}, {"type": "Feature", "geometry": {"type": "Polygon", "coordinates": [[[-95.863752, 35.8573541], [-95.8634147, 35.8573338], [-95.8634001, 35.8574946], [-95.8637374, 35.8575148], [-95.863752, 35.8573541]]]}, "properties": {"osm_id": 714469848, "building": "yes", "name": "", "height": null, "height_m": null, "levels": null, "tract_id": "40143007804", "tract_name": "78.04", "tags": {"building": "yes"}}}, {"type": "Feature", "geometry": {"type": "Polygon", "coordinates": [[[-95.9293572, 35.9005188], [-95.929251, 35.9005197], [-95.9292428, 35.9003292], [-95.9293572, 35.9003244], [-95.9293572, 35.9005188]]]}, "properties": {"osm_id": 986184850, "building": "yes", "name": "", "height": null, "height_m": null, "levels": null, "tract_id": "40143007804", "tract_name": "78.04", "tags": {"building": "yes"}}}, {"type": "Feature", "geometry": {"type": "Polygon", "coordinates": [[[-95.9290296, 35.9005124], [-95.9290282, 35.9004445], [-95.9290028, 35.9004445], [-95.9290013, 35.9003838], [-95.9289591, 35.9003834], [-95.9289591, 35.9003599], [-95.9289129, 35.9003607], [-95.9289129, 35.9003457], [-95.9287949, 35.900345], [-95.9287947, 35.9003512], [-95.9287914, 35.9003508], [-95.9287908, 35.9004003], [-95.9287529, 35.9004005], [-95.9287524, 35.9004153], [-95.9287338, 35.9004145], [-95.9287382, 35.9005334], [-95.9287924, 35.9005347], [-95.928793, 35.9005205], [-95.9288308, 35.900521], [-95.9288314, 35.900532], [-95.928828, 35.9005319], [-95.9288289, 35.9005377], [-95.9288597, 35.9005386], [-95.9288595, 35.9005471], [-95.9289173, 35.9005466], [-95.9289175, 35.9005505], [-95.9289701, 35.9005507], [-95.9289701, 35.9005461], [-95.9289896, 35.9005467], [-95.9289907, 35.9005126], [-95.9290296, 35.9005124]]]}, "properties": {"osm_id": 986184851, "building": "yes", "name": "", "height": null, "height_m": null, "levels": null, "tract_id": "40143007804", "tract_name": "78.04", "tags": {"building": "yes"}}}, {"type": "Feature", "geometry": {"type": "Polygon", "coordinates": [[[-95.9347894, 35.9034616], [-95.9347888, 35.9031434], [-95.9352662, 35.9031427], [-95.9352668, 35.903461], [-95.9347894, 35.9034616]]]}, "properties": {"osm_id": 1151646829, "building": "yes", "name": "181 Ranch", "height": null, "height_m": null, "levels": null, "tract_id": "40143007804", "tract_name": "78.04", "tags": {"amenity": "events_venue", "building": "yes", "name": "181 Ranch"}}}, {"type": "Feature", "geometry": {"type": "Polygon", "coordinates": [[[-95.8115048, 35.9159691], [-95.8114185, 35.9160327], [-95.8112966, 35.9160391], [-95.8112234, 35.9159805], [-95.8111646, 35.9160271], [-95.8112359, 35.9160749], [-95.8112104, 35.9161434], [-95.8112436, 35.9161437], [-95.8112474, 35.9161686], [-95.8112676, 35.916183], [-95.8113106, 35.9161838], [-95.8113275, 35.9161717], [-95.8113279, 35.9161629], [-95.8114189, 35.9161619], [-95.811436, 35.9161743], [-95.8114675, 35.9161732], [-95.811482, 35.9161613], [-95.8114805, 35.9161554], [-95.8115389, 35.9160873], [-95.8115257, 35.9160651], [-95.8115712, 35.9160271], [-95.8115048, 35.9159691]]]}, "properties": {"osm_id": 1151647756, "building": "detached", "name": "", "height": null, "height_m": null, "levels": null, "tract_id": "40143007804", "tract_name": "78.04", "tags": {"building": "detached"}}}, {"type": "Feature", "geometry": {"type": "Polygon", "coordinates": [[[-95.8917519, 35.879651], [-95.8917528, 35.8797748], [-95.8918011, 35.8797746], [-95.8918002, 35.8796507], [-95.8917519, 35.879651]]]}, "properties": {"osm_id": 1431557150, "building": "static_caravan", "name": "", "height": null, "height_m": null, "levels": null, "tract_id": "40143007804", "tract_name": "78.04", "tags": {"building": "static_caravan"}}}, {"type": "Feature", "geometry": {"type": "Polygon", "coordinates": [[[-95.8914123, 35.8797704], [-95.8914633, 35.8797709], [-95.8914655, 35.8796209], [-95.8914145, 35.8796204], [-95.8914123, 35.8797704]]]}, "properties": {"osm_id": 1431557151, "building": "static_caravan", "name": "", "height": null, "height_m": null, "levels": null, "tract_id": "40143007804", "tract_name": "78.04", "tags": {"building": "static_caravan"}}}, {"type": "Feature", "geometry": {"type": "Polygon", "coordinates": [[[-95.8907706, 35.8796055], [-95.890725, 35.8796046], [-95.8907192, 35.8797914], [-95.8907647, 35.8797923], [-95.8907706, 35.8796055]]]}, "properties": {"osm_id": 1431557152, "building": "static_caravan", "name": "", "height": null, "height_m": null, "levels": null, "tract_id": "40143007804", "tract_name": "78.04", "tags": {"building": "static_caravan"}}}, {"type": "Feature", "geometry": {"type": "Polygon", "coordinates": [[[-95.8912319, 35.8800951], [-95.8912336, 35.8801472], [-95.8912916, 35.880146], [-95.8912938, 35.8802133], [-95.8913313, 35.8802125], [-95.8913335, 35.8802789], [-95.8914327, 35.8802768], [-95.8914266, 35.8800909], [-95.8912319, 35.8800951]]]}, "properties": {"osm_id": 1431557153, "building": "detached", "name": "", "height": null, "height_m": null, "levels": null, "tract_id": "40143007804", "tract_name": "78.04", "tags": {"addr:city": "Bixby", "addr:country": "US", "addr:housenumber": "19426", "addr:postcode": "74008", "addr:state": "OK", "addr:street": "South Memorial Drive East", "building": "detached"}}}, {"type": "Feature", "geometry": {"type": "Polygon", "coordinates": [[[-95.8911218, 35.8796151], [-95.8911225, 35.8797802], [-95.89116, 35.8797801], [-95.8911593, 35.879615], [-95.8911218, 35.8796151]]]}, "properties": {"osm_id": 1431557154, "building": "static_caravan", "name": "", "height": null, "height_m": null, "levels": null, "tract_id": "40143007804", "tract_name": "78.04", "tags": {"building": "static_caravan"}}}, {"type": "Feature", "geometry": {"type": "Polygon", "coordinates": [[[-95.8916392, 35.8797724], [-95.8916458, 35.879589], [-95.8915959, 35.8795879], [-95.891591, 35.8797234], [-95.8915588, 35.8797227], [-95.8915571, 35.8797704], [-95.8916392, 35.8797724]]]}, "properties": {"osm_id": 1431557155, "building": "static_caravan", "name": "", "height": null, "height_m": null, "levels": null, "tract_id": "40143007804", "tract_name": "78.04", "tags": {"building": "static_caravan"}}}, {"type": "Feature", "geometry": {"type": "Polygon", "coordinates": [[[-95.8909942, 35.8797771], [-95.8910344, 35.8797764], [-95.8910301, 35.8796126], [-95.8909899, 35.8796133], [-95.8909942, 35.8797771]]]}, "properties": {"osm_id": 1431557156, "building": "static_caravan", "name": "", "height": null, "height_m": null, "levels": null, "tract_id": "40143007804", "tract_name": "78.04", "tags": {"building": "static_caravan"}}}, {"type": "Feature", "geometry": {"type": "Polygon", "coordinates": [[[-95.8890176, 35.8799434], [-95.8891856, 35.8800447], [-95.8892455, 35.8799795], [-95.8890775, 35.8798782], [-95.8890176, 35.8799434]]]}, "properties": {"osm_id": 1431560057, "building": "detached", "name": "", "height": null, "height_m": null, "levels": null, "tract_id": "40143007804", "tract_name": "78.04", "tags": {"addr:city": "Bixby", "addr:country": "US", "addr:housenumber": "19457", "addr:postcode": "74008", "addr:state": "OK", "addr:street": "South Memorial Drive East", "building": "detached"}}}, {"type": "Feature", "geometry": {"type": "Polygon", "coordinates": [[[-95.8890301, 35.8798689], [-95.8889833, 35.879845], [-95.8889506, 35.8798869], [-95.8889974, 35.8799108], [-95.8890301, 35.8798689]]]}, "properties": {"osm_id": 1431560058, "building": "yes", "name": "", "height": null, "height_m": null, "levels": null, "tract_id": "40143007804", "tract_name": "78.04", "tags": {"building": "yes"}}}, {"type": "Feature", "geometry": {"type": "Polygon", "coordinates": [[[-95.8935173, 35.89869], [-95.8933806, 35.8986897], [-95.8933812, 35.8984801], [-95.893518, 35.8984803], [-95.8935177, 35.898564], [-95.8935603, 35.8985641], [-95.8935601, 35.8986369], [-95.8935175, 35.8986368], [-95.8935173, 35.89869]]]}, "properties": {"osm_id": 1431881336, "building": "detached", "name": "", "height": null, "height_m": null, "levels": null, "tract_id": "40143007804", "tract_name": "78.04", "tags": {"addr:city": "Bixby", "addr:country": "US", "addr:housenumber": "18206", "addr:postcode": "74008", "addr:state": "OK", "addr:street": "South 79th Avenue East", "building": "detached"}}}, {"type": "Feature", "geometry": {"type": "Polygon", "coordinates": [[[-95.8911113, 35.8967666], [-95.8909601, 35.8967659], [-95.8909588, 35.8969527], [-95.890988, 35.8969529], [-95.8909877, 35.8969964], [-95.8910195, 35.8969965], [-95.8910185, 35.8971366], [-95.8911, 35.897137], [-95.8911013, 35.8969534], [-95.89111, 35.8969534], [-95.8911113, 35.8967666]]]}, "properties": {"osm_id": 1433628516, "building": "detached", "name": "", "height": null, "height_m": null, "levels": null, "tract_id": "40143007804", "tract_name": "78.04", "tags": {"addr:city": "Bixby", "addr:country": "US", "addr:housenumber": "18380", "addr:postcode": "74008", "addr:state": "OK", "addr:street": "South Memorial Drive East", "building": "detached"}}}, {"type": "Feature", "geometry": {"type": "Polygon", "coordinates": [[[-95.8869928, 35.9148943], [-95.8869801, 35.915036], [-95.8868894, 35.9150307], [-95.8869022, 35.9148889], [-95.8869928, 35.9148943]]]}, "properties": {"osm_id": 1433690906, "building": "detached", "name": "", "height": null, "height_m": null, "levels": null, "tract_id": "40143007804", "tract_name": "78.04", "tags": {"addr:city": "Bixby", "addr:country": "US", "addr:housenumber": "17104", "addr:postcode": "74008", "addr:state": "OK", "addr:street": "South Memorial Drive East", "building": "detached"}}}, {"type": "Feature", "geometry": {"type": "Polygon", "coordinates": [[[-95.8889535, 35.8931048], [-95.8887, 35.8931015], [-95.8887029, 35.892958], [-95.8889563, 35.8929613], [-95.8889535, 35.8931048]]]}, "properties": {"osm_id": 1433690907, "building": "yes", "name": "", "height": null, "height_m": null, "levels": null, "tract_id": "40143007804", "tract_name": "78.04", "tags": {"building": "yes"}}}, {"type": "Feature", "geometry": {"type": "Polygon", "coordinates": [[[-95.8896522, 35.8934372], [-95.8894108, 35.8934351], [-95.8894119, 35.8933601], [-95.8896533, 35.8933623], [-95.8896522, 35.8934372]]]}, "properties": {"osm_id": 1433690908, "building": "yes", "name": "", "height": null, "height_m": null, "levels": null, "tract_id": "40143007804", "tract_name": "78.04", "tags": {"building": "yes"}}}, {"type": "Feature", "geometry": {"type": "Polygon", "coordinates": [[[-95.8879597, 35.8934546], [-95.8879597, 35.8935187], [-95.8878525, 35.8935187], [-95.8878525, 35.8934546], [-95.8879597, 35.8934546]]]}, "properties": {"osm_id": 1433690909, "building": "yes", "name": "", "height": null, "height_m": null, "levels": null, "tract_id": "40143007804", "tract_name": "78.04", "tags": {"building": "yes"}}}, {"type": "Feature", "geometry": {"type": "Polygon", "coordinates": [[[-95.8882199, 35.8934981], [-95.8882199, 35.8935872], [-95.8880563, 35.8935872], [-95.8880563, 35.8934981], [-95.8882199, 35.8934981]]]}, "properties": {"osm_id": 1433690910, "building": "yes", "name": "", "height": null, "height_m": null, "levels": null, "tract_id": "40143007804", "tract_name": "78.04", "tags": {"building": "yes"}}}, {"type": "Feature", "geometry": {"type": "Polygon", "coordinates": [[[-95.8885351, 35.8937067], [-95.8885355, 35.8937637], [-95.8885555, 35.8937636], [-95.8885563, 35.8938712], [-95.8884467, 35.8938718], [-95.8884462, 35.8938121], [-95.8883964, 35.8938123], [-95.888396, 35.8937651], [-95.8884458, 35.8937648], [-95.8884453, 35.8937072], [-95.8885351, 35.8937067]]]}, "properties": {"osm_id": 1433690911, "building": "detached", "name": "", "height": null, "height_m": null, "levels": null, "tract_id": "40143007804", "tract_name": "78.04", "tags": {"addr:city": "Bixby", "addr:country": "US", "addr:housenumber": "18501", "addr:postcode": "74008", "addr:state": "OK", "addr:street": "South Memorial Drive East", "building": "detached"}}}, {"type": "Feature", "geometry": {"type": "Polygon", "coordinates": [[[-95.886908, 35.9153614], [-95.886907, 35.9152463], [-95.8870165, 35.9152456], [-95.8870171, 35.9153103], [-95.8870911, 35.9153098], [-95.8870915, 35.9153603], [-95.886908, 35.9153614]]]}, "properties": {"osm_id": 1433760042, "building": "detached", "name": "", "height": null, "height_m": null, "levels": null, "tract_id": "40143007804", "tract_name": "78.04", "tags": {"addr:city": "Bixby", "addr:country": "US", "addr:housenumber": "17102", "addr:postcode": "74008", "addr:state": "OK", "addr:street": "South Memorial Drive East", "building": "detached"}}}, {"type": "Feature", "geometry": {"type": "Polygon", "coordinates": [[[-95.8868964, 35.9144736], [-95.8867901, 35.9144719], [-95.8867922, 35.9143824], [-95.8868986, 35.914384], [-95.8868964, 35.9144736]]]}, "properties": {"osm_id": 1433760046, "building": "yes", "name": "", "height": null, "height_m": null, "levels": null, "tract_id": "40143007804", "tract_name": "78.04", "tags": {"building": "yes"}}}, {"type": "Feature", "geometry": {"type": "Polygon", "coordinates": [[[-95.8871976, 35.9144676], [-95.8871934, 35.9143584], [-95.8872776, 35.9143563], [-95.8872818, 35.9144655], [-95.8871976, 35.9144676]]]}, "properties": {"osm_id": 1433760047, "building": "yes", "name": "", "height": null, "height_m": null, "levels": null, "tract_id": "40143007804", "tract_name": "78.04", "tags": {"building": "yes"}}}, {"type": "Feature", "geometry": {"type": "Polygon", "coordinates": [[[-95.8870607, 35.9143661], [-95.8870663, 35.9144437], [-95.8869399, 35.9144497], [-95.8869344, 35.9143721], [-95.8870607, 35.9143661]]]}, "properties": {"osm_id": 1433760048, "building": "detached", "name": "", "height": null, "height_m": null, "levels": null, "tract_id": "40143007804", "tract_name": "78.04", "tags": {"addr:city": "Bixby", "addr:country": "US", "addr:housenumber": "17138", "addr:postcode": "74008", "addr:state": "OK", "addr:street": "South Memorial Drive East", "building": "detached"}}}, {"type": "Feature", "geometry": {"type": "Polygon", "coordinates": [[[-95.887126, 35.9147883], [-95.8870628, 35.9147874], [-95.887067, 35.9145742], [-95.8871302, 35.914575], [-95.887126, 35.9147883]]]}, "properties": {"osm_id": 1433760049, "building": "static_caravan", "name": "", "height": null, "height_m": null, "levels": null, "tract_id": "40143007804", "tract_name": "78.04", "tags": {"addr:city": "Bixby", "addr:country": "US", "addr:housenumber": "17110", "addr:postcode": "74008", "addr:state": "OK", "addr:street": "South Memorial Drive East", "building": "static_caravan"}}}, {"type": "Feature", "geometry": {"type": "Polygon", "coordinates": [[[-95.888067, 35.9132075], [-95.88805, 35.9132855], [-95.8879474, 35.9132708], [-95.8879644, 35.9131928], [-95.888067, 35.9132075]]]}, "properties": {"osm_id": 1433910577, "building": "yes", "name": "", "height": null, "height_m": null, "levels": null, "tract_id": "40143007804", "tract_name": "78.04", "tags": {"building": "yes"}}}, {"type": "Feature", "geometry": {"type": "Polygon", "coordinates": [[[-95.8880295, 35.9131059], [-95.8880442, 35.913044], [-95.8881023, 35.9130531], [-95.8880875, 35.913115], [-95.8880295, 35.9131059]]]}, "properties": {"osm_id": 1433910578, "building": "yes", "name": "", "height": null, "height_m": null, "levels": null, "tract_id": "40143007804", "tract_name": "78.04", "tags": {"building": "yes"}}}, {"type": "Feature", "geometry": {"type": "Polygon", "coordinates": [[[-95.8878511, 35.9132705], [-95.8878903, 35.9131879], [-95.8878338, 35.9131703], [-95.8878711, 35.9130917], [-95.8877647, 35.9130585], [-95.887733, 35.9131253], [-95.8877162, 35.9131201], [-95.8876714, 35.9132145], [-95.8878511, 35.9132705]]]}, "properties": {"osm_id": 1433910579, "building": "detached", "name": "", "height": null, "height_m": null, "levels": null, "tract_id": "40143007804", "tract_name": "78.04", "tags": {"addr:city": "Bixby", "addr:country": "US", "addr:housenumber": "17280", "addr:postcode": "74008", "addr:state": "OK", "addr:street": "South Memorial Drive East", "building": "detached"}}}, {"type": "Feature", "geometry": {"type": "Polygon", "coordinates": [[[-95.8872402, 35.8908613], [-95.8871806, 35.8909704], [-95.8870424, 35.8910384], [-95.8871598, 35.891197], [-95.8869492, 35.8912937], [-95.8870109, 35.8913724], [-95.8874099, 35.8911807], [-95.8873558, 35.8911039], [-95.8873247, 35.8911182], [-95.8872557, 35.8910335], [-95.8873314, 35.8908928], [-95.8872402, 35.8908613]]]}, "properties": {"osm_id": 1434608553, "building": "detached", "name": "", "height": null, "height_m": null, "levels": null, "tract_id": "40143007804", "tract_name": "78.04", "tags": {"addr:city": "Bixby", "addr:country": "US", "addr:housenumber": "18727", "addr:postcode": "74008", "addr:state": "OK", "addr:street": "South Memorial Drive East", "building": "detached"}}}, {"type": "Feature", "geometry": {"type": "Polygon", "coordinates": [[[-95.8897387, 35.8928815], [-95.8896172, 35.8928808], [-95.8896186, 35.8927385], [-95.8897401, 35.8927392], [-95.8897387, 35.8928815]]]}, "properties": {"osm_id": 1434653388, "building": "yes", "name": "", "height": null, "height_m": null, "levels": null, "tract_id": "40143007804", "tract_name": "78.04", "tags": {"addr:city": "Bixby", "addr:country": "US", "addr:housenumber": "18507", "addr:postcode": "74008", "addr:state": "OK", "addr:street": "South Memorial Drive East", "building": "yes"}}}, {"type": "Feature", "geometry": {"type": "Polygon", "coordinates": [[[-95.8935455, 35.8929636], [-95.8936952, 35.892872], [-95.8935342, 35.8926993], [-95.8933845, 35.8927908], [-95.8935455, 35.8929636]]]}, "properties": {"osm_id": 1434653389, "building": "detached", "name": "", "height": null, "height_m": null, "levels": null, "tract_id": "40143007804", "tract_name": "78.04", "tags": {"addr:city": "Bixby", "addr:country": "US", "addr:housenumber": "18540", "addr:postcode": "74008", "addr:state": "OK", "addr:street": "South Memorial Drive East", "building": "detached"}}}, {"type": "Feature", "geometry": {"type": "Polygon", "coordinates": [[[-95.8916773, 35.8931689], [-95.8914823, 35.8931719], [-95.8914775, 35.8929646], [-95.8916724, 35.8929617], [-95.8916773, 35.8931689]]]}, "properties": {"osm_id": 1434653390, "building": "yes", "name": "", "height": null, "height_m": null, "levels": null, "tract_id": "40143007804", "tract_name": "78.04", "tags": {"building": "yes"}}}, {"type": "Feature", "geometry": {"type": "Polygon", "coordinates": [[[-95.8910899, 35.8930092], [-95.8909445, 35.8930114], [-95.8909391, 35.8927822], [-95.8910845, 35.8927799], [-95.8910899, 35.8930092]]]}, "properties": {"osm_id": 1434653391, "building": "detached", "name": "", "height": null, "height_m": null, "levels": null, "tract_id": "40143007804", "tract_name": "78.04", "tags": {"addr:city": "Bixby", "addr:country": "US", "addr:housenumber": "18500", "addr:postcode": "74008", "addr:state": "OK", "addr:street": "South Memorial Drive East", "building": "detached"}}}, {"type": "Feature", "geometry": {"type": "Polygon", "coordinates": [[[-95.8925839, 35.8796448], [-95.8925397, 35.8796425], [-95.8925478, 35.8795414], [-95.8925919, 35.8795437], [-95.8925839, 35.8796448]]]}, "properties": {"osm_id": 1434711335, "building": "yes", "name": "", "height": null, "height_m": null, "levels": null, "tract_id": "40143007804", "tract_name": "78.04", "tags": {"building": "yes"}}}, {"type": "Feature", "geometry": {"type": "Polygon", "coordinates": [[[-95.8929782, 35.8796415], [-95.8929176, 35.8796409], [-95.8929192, 35.8795339], [-95.8929797, 35.8795345], [-95.8929782, 35.8796415]]]}, "properties": {"osm_id": 1434711336, "building": "yes", "name": "", "height": null, "height_m": null, "levels": null, "tract_id": "40143007804", "tract_name": "78.04", "tags": {"building": "yes"}}}, {"type": "Feature", "geometry": {"type": "Polygon", "coordinates": [[[-95.8929795, 35.8790373], [-95.892911, 35.8790367], [-95.8929124, 35.8789352], [-95.892981, 35.8789359], [-95.8929795, 35.8790373]]]}, "properties": {"osm_id": 1434711337, "building": "yes", "name": "", "height": null, "height_m": null, "levels": null, "tract_id": "40143007804", "tract_name": "78.04", "tags": {"building": "yes"}}}, {"type": "Feature", "geometry": {"type": "Polygon", "coordinates": [[[-95.8926, 35.8790352], [-95.8925542, 35.8790347], [-95.8925557, 35.8789319], [-95.8926015, 35.8789324], [-95.8926, 35.8790352]]]}, "properties": {"osm_id": 1434711338, "building": "yes", "name": "", "height": null, "height_m": null, "levels": null, "tract_id": "40143007804", "tract_name": "78.04", "tags": {"building": "yes"}}}, {"type": "Feature", "geometry": {"type": "Polygon", "coordinates": [[[-95.8926161, 35.8784375], [-95.8925661, 35.878437], [-95.8925678, 35.8783202], [-95.8926178, 35.8783206], [-95.8926161, 35.8784375]]]}, "properties": {"osm_id": 1434711339, "building": "yes", "name": "", "height": null, "height_m": null, "levels": null, "tract_id": "40143007804", "tract_name": "78.04", "tags": {"building": "yes"}}}, {"type": "Feature", "geometry": {"type": "Polygon", "coordinates": [[[-95.8929789, 35.8784756], [-95.8929259, 35.8784751], [-95.8929285, 35.8782926], [-95.8929816, 35.8782931], [-95.8929789, 35.8784756]]]}, "properties": {"osm_id": 1434711340, "building": "yes", "name": "", "height": null, "height_m": null, "levels": null, "tract_id": "40143007804", "tract_name": "78.04", "tags": {"building": "yes"}}}, {"type": "Feature", "geometry": {"type": "Polygon", "coordinates": [[[-95.890933, 35.8788743], [-95.89076, 35.87887], [-95.8907621, 35.8788135], [-95.8909351, 35.8788178], [-95.890933, 35.8788743]]]}, "properties": {"osm_id": 1434711341, "building": "yes", "name": "", "height": null, "height_m": null, "levels": null, "tract_id": "40143007804", "tract_name": "78.04", "tags": {"building": "yes"}}}, {"type": "Feature", "geometry": {"type": "Polygon", "coordinates": [[[-95.8911784, 35.8792688], [-95.8911162, 35.8792562], [-95.8911699, 35.8790823], [-95.891232, 35.8790949], [-95.8911784, 35.8792688]]]}, "properties": {"osm_id": 1434711343, "building": "static_caravan", "name": "", "height": null, "height_m": null, "levels": null, "tract_id": "40143007804", "tract_name": "78.04", "tags": {"building": "static_caravan"}}}, {"type": "Feature", "geometry": {"type": "Polygon", "coordinates": [[[-95.8913487, 35.8793764], [-95.8912984, 35.8793733], [-95.8913158, 35.8791875], [-95.8913662, 35.8791906], [-95.8913487, 35.8793764]]]}, "properties": {"osm_id": 1434711344, "building": "static_caravan", "name": "", "height": null, "height_m": null, "levels": null, "tract_id": "40143007804", "tract_name": "78.04", "tags": {"building": "static_caravan"}}}, {"type": "Feature", "geometry": {"type": "Polygon", "coordinates": [[[-95.8917148, 35.8793677], [-95.8916612, 35.8793683], [-95.8916586, 35.8792053], [-95.8917122, 35.8792047], [-95.8917148, 35.8793677]]]}, "properties": {"osm_id": 1434711345, "building": "static_caravan", "name": "", "height": null, "height_m": null, "levels": null, "tract_id": "40143007804", "tract_name": "78.04", "tags": {"building": "static_caravan"}}}, {"type": "Feature", "geometry": {"type": "Polygon", "coordinates": [[[-95.891574, 35.8788146], [-95.891475, 35.8788191], [-95.8914643, 35.8786637], [-95.8915633, 35.8786592], [-95.891574, 35.8788146]]]}, "properties": {"osm_id": 1434711346, "building": "yes", "name": "", "height": null, "height_m": null, "levels": null, "tract_id": "40143007804", "tract_name": "78.04", "tags": {"addr:city": "Bixby", "addr:country": "US", "addr:housenumber": "19500", "addr:postcode": "74008", "addr:state": "OK", "addr:street": "South Memorial Drive East", "building": "yes"}}}, {"type": "Feature", "geometry": {"type": "Polygon", "coordinates": [[[-95.8908498, 35.8779431], [-95.8908492, 35.8778594], [-95.8909243, 35.877859], [-95.8909244, 35.8778714], [-95.8909475, 35.8778712], [-95.8909478, 35.8779169], [-95.8909248, 35.877917], [-95.890925, 35.8779427], [-95.8908498, 35.8779431]]]}, "properties": {"osm_id": 1434711350, "building": "detached", "name": "", "height": null, "height_m": null, "levels": null, "tract_id": "40143007804", "tract_name": "78.04", "tags": {"addr:city": "Bixby", "addr:country": "US", "addr:housenumber": "19610", "addr:postcode": "74008", "addr:state": "OK", "addr:street": "South Memorial Drive East", "building": "detached"}}}, {"type": "Feature", "geometry": {"type": "Polygon", "coordinates": [[[-95.8937882, 35.8966829], [-95.8937324, 35.896684], [-95.8937312, 35.8966438], [-95.893787, 35.8966427], [-95.8937882, 35.8966829]]]}, "properties": {"osm_id": 1435978206, "building": "yes", "name": "", "height": null, "height_m": null, "levels": null, "tract_id": "40143007804", "tract_name": "78.04", "tags": {"building": "yes"}}}, {"type": "Feature", "geometry": {"type": "Polygon", "coordinates": [[[-95.8934663, 35.8964401], [-95.8935749, 35.896438], [-95.8935757, 35.8964628], [-95.8936199, 35.896462], [-95.8936216, 35.896518], [-95.8935773, 35.8965188], [-95.8935789, 35.8965755], [-95.8933931, 35.896579], [-95.8933912, 35.8965154], [-95.8934685, 35.896514], [-95.8934663, 35.8964401]]]}, "properties": {"osm_id": 1435978207, "building": "detached", "name": "", "height": null, "height_m": null, "levels": null, "tract_id": "40143007804", "tract_name": "78.04", "tags": {"addr:city": "Bixby", "addr:country": "US", "addr:housenumber": "18268", "addr:postcode": "74008", "addr:state": "OK", "addr:street": "South 79th Avenue East", "building": "detached"}}}, {"type": "Feature", "geometry": {"type": "Polygon", "coordinates": [[[-95.89352, 35.897243], [-95.8936554, 35.897243], [-95.8936554, 35.8971436], [-95.8935937, 35.8971436], [-95.8935937, 35.8970805], [-95.8936561, 35.8970805], [-95.8936561, 35.8970045], [-95.8936246, 35.8970045], [-95.8936246, 35.8969404], [-95.8934663, 35.8969404], [-95.8934663, 35.8970284], [-95.8934033, 35.8970284], [-95.8934033, 35.8971006], [-95.8934851, 35.8971006], [-95.8934851, 35.8970795], [-95.89352, 35.8970795], [-95.89352, 35.897243]]]}, "properties": {"osm_id": 1435978208, "building": "detached", "name": "", "height": null, "height_m": null, "levels": null, "tract_id": "40143007804", "tract_name": "78.04", "tags": {"addr:city": "Bixby", "addr:country": "US", "addr:housenumber": "18254", "addr:postcode": "74008", "addr:state": "OK", "addr:street": "South 79th Avenue East", "building": "detached"}}}, {"type": "Feature", "geometry": {"type": "Polygon", "coordinates": [[[-95.8941691, 35.8971897], [-95.8940363, 35.8971941], [-95.894032, 35.8971075], [-95.8941647, 35.8971032], [-95.8941691, 35.8971897]]]}, "properties": {"osm_id": 1435978209, "building": "yes", "name": "", "height": null, "height_m": null, "levels": null, "tract_id": "40143007804", "tract_name": "78.04", "tags": {"building": "yes"}}}, {"type": "Feature", "geometry": {"type": "Polygon", "coordinates": [[[-95.8933939, 35.8976156], [-95.893505, 35.8976176], [-95.8935068, 35.8975494], [-95.8935543, 35.8975503], [-95.893556, 35.8974871], [-95.8935085, 35.8974862], [-95.8935117, 35.8973699], [-95.8934006, 35.8973679], [-95.8933939, 35.8976156]]]}, "properties": {"osm_id": 1435978210, "building": "detached", "name": "", "height": null, "height_m": null, "levels": null, "tract_id": "40143007804", "tract_name": "78.04", "tags": {"addr:city": "Bixby", "addr:country": "US", "addr:housenumber": "18240", "addr:postcode": "74008", "addr:state": "OK", "addr:street": "South 79th Avenue East", "building": "detached"}}}, {"type": "Feature", "geometry": {"type": "Polygon", "coordinates": [[[-95.8935736, 35.8981457], [-95.8935749, 35.8980041], [-95.8933939, 35.898003], [-95.8933926, 35.8981447], [-95.8935736, 35.8981457]]]}, "properties": {"osm_id": 1435978211, "building": "detached", "name": "", "height": null, "height_m": null, "levels": null, "tract_id": "40143007804", "tract_name": "78.04", "tags": {"addr:city": "Bixby", "addr:country": "US", "addr:housenumber": "18232", "addr:postcode": "74008", "addr:state": "OK", "addr:street": "South 79th Avenue East", "building": "detached"}}}, {"type": "Feature", "geometry": {"type": "Polygon", "coordinates": [[[-95.8935294, 35.8995917], [-95.8935025, 35.8995916], [-95.8935023, 35.89963], [-95.8934137, 35.8996296], [-95.8934143, 35.8995493], [-95.8933856, 35.8995492], [-95.8933863, 35.8994557], [-95.893415, 35.8994559], [-95.8934154, 35.8994097], [-95.8935307, 35.8994103], [-95.8935304, 35.8994505], [-95.8935685, 35.8994507], [-95.8935681, 35.8995104], [-95.89353, 35.8995102], [-95.8935294, 35.8995917]]]}, "properties": {"osm_id": 1435978216, "building": "detached", "name": "", "height": null, "height_m": null, "levels": null, "tract_id": "40143007804", "tract_name": "78.04", "tags": {"addr:city": "Bixby", "addr:country": "US", "addr:housenumber": "18144", "addr:postcode": "74008", "addr:state": "OK", "addr:street": "South 79th Avenue East", "building": "detached"}}}, {"type": "Feature", "geometry": {"type": "Polygon", "coordinates": [[[-95.8940175, 35.8997959], [-95.8939062, 35.8997959], [-95.8939062, 35.899721], [-95.8940175, 35.899721], [-95.8940175, 35.8997959]]]}, "properties": {"osm_id": 1435978217, "building": "yes", "name": "", "height": null, "height_m": null, "levels": null, "tract_id": "40143007804", "tract_name": "78.04", "tags": {"building": "yes"}}}, {"type": "Feature", "geometry": {"type": "Polygon", "coordinates": [[[-95.8941711, 35.8988752], [-95.8941711, 35.8989578], [-95.8940423, 35.8989578], [-95.8940423, 35.8988752], [-95.8941711, 35.8988752]]]}, "properties": {"osm_id": 1435978218, "building": "yes", "name": "", "height": null, "height_m": null, "levels": null, "tract_id": "40143007804", "tract_name": "78.04", "tags": {"building": "yes"}}}, {"type": "Feature", "geometry": {"type": "Polygon", "coordinates": [[[-95.8935629, 35.8991832], [-95.8934174, 35.8991807], [-95.8934194, 35.8991051], [-95.893387, 35.8991045], [-95.8933876, 35.8990801], [-95.8933738, 35.8990799], [-95.8933747, 35.8990454], [-95.8933758, 35.8990044], [-95.8934233, 35.8990052], [-95.8935676, 35.8990078], [-95.8935664, 35.8990524], [-95.8936117, 35.8990532], [-95.89361, 35.8991183], [-95.8935646, 35.8991175], [-95.8935629, 35.8991832]]]}, "properties": {"osm_id": 1435978219, "building": "detached", "name": "", "height": null, "height_m": null, "levels": null, "tract_id": "40143007804", "tract_name": "78.04", "tags": {"addr:city": "Bixby", "addr:country": "US", "addr:housenumber": "18156", "addr:postcode": "74008", "addr:state": "OK", "addr:street": "South 79th Avenue East", "building": "detached"}}}, {"type": "Feature", "geometry": {"type": "Polygon", "coordinates": [[[-95.8921185, 35.8968008], [-95.892075, 35.8968004], [-95.8920756, 35.8967606], [-95.8921191, 35.896761], [-95.8921185, 35.8968008]]]}, "properties": {"osm_id": 1435980855, "building": "yes", "name": "", "height": null, "height_m": null, "levels": null, "tract_id": "40143007804", "tract_name": "78.04", "tags": {"building": "yes"}}}, {"type": "Feature", "geometry": {"type": "Polygon", "coordinates": [[[-95.8925262, 35.8967008], [-95.8923837, 35.8966995], [-95.8923854, 35.8965846], [-95.8925279, 35.8965859], [-95.8925262, 35.8967008]]]}, "properties": {"osm_id": 1435980856, "building": "yes", "name": "", "height": null, "height_m": null, "levels": null, "tract_id": "40143007804", "tract_name": "78.04", "tags": {"building": "yes"}}}, {"type": "Feature", "geometry": {"type": "Polygon", "coordinates": [[[-95.8923586, 35.8971952], [-95.8921911, 35.8971936], [-95.8921923, 35.8971104], [-95.8923598, 35.897112], [-95.8923586, 35.8971952]]]}, "properties": {"osm_id": 1435980857, "building": "yes", "name": "", "height": null, "height_m": null, "levels": null, "tract_id": "40143007804", "tract_name": "78.04", "tags": {"building": "yes"}}}, {"type": "Feature", "geometry": {"type": "Polygon", "coordinates": [[[-95.8923626, 35.8970843], [-95.892496, 35.8970856], [-95.8924987, 35.8968987], [-95.8923653, 35.8968975], [-95.8923626, 35.8970843]]]}, "properties": {"osm_id": 1435980858, "building": "detached", "name": "", "height": null, "height_m": null, "levels": null, "tract_id": "40143007804", "tract_name": "78.04", "tags": {"addr:city": "Bixby", "addr:country": "US", "addr:housenumber": "18253", "addr:postcode": "74008", "addr:state": "OK", "addr:street": "South 79th Avenue East", "building": "detached"}}}, {"type": "Feature", "geometry": {"type": "Polygon", "coordinates": [[[-95.8925544, 35.8978187], [-95.8924873, 35.8978179], [-95.8924886, 35.8977494], [-95.8925557, 35.8977503], [-95.8925544, 35.8978187]]]}, "properties": {"osm_id": 1435980859, "building": "yes", "name": "", "height": null, "height_m": null, "levels": null, "tract_id": "40143007804", "tract_name": "78.04", "tags": {"building": "yes"}}}, {"type": "Feature", "geometry": {"type": "Polygon", "coordinates": [[[-95.8924404, 35.8978144], [-95.8923576, 35.8978121], [-95.8923616, 35.8977186], [-95.8924444, 35.897721], [-95.8924404, 35.8978144]]]}, "properties": {"osm_id": 1435980860, "building": "yes", "name": "", "height": null, "height_m": null, "levels": null, "tract_id": "40143007804", "tract_name": "78.04", "tags": {"building": "yes"}}}, {"type": "Feature", "geometry": {"type": "Polygon", "coordinates": [[[-95.8922701, 35.8981925], [-95.8922674, 35.8980132], [-95.8924068, 35.8980118], [-95.8924075, 35.8980523], [-95.8924918, 35.8980515], [-95.892493, 35.8981308], [-95.8924086, 35.8981316], [-95.8924095, 35.8981911], [-95.8923895, 35.8981913], [-95.89239, 35.8982287], [-95.892288, 35.8982297], [-95.8922875, 35.8981923], [-95.8922701, 35.8981925]]]}, "properties": {"osm_id": 1435980861, "building": "detached", "name": "", "height": null, "height_m": null, "levels": null, "tract_id": "40143007804", "tract_name": "78.04", "tags": {"addr:city": "Bixby", "addr:country": "US", "addr:housenumber": "18225", "addr:postcode": "74008", "addr:state": "OK", "addr:street": "South 79th Avenue East", "building": "detached"}}}, {"type": "Feature", "geometry": {"type": "Polygon", "coordinates": [[[-95.8921132, 35.8997948], [-95.892026, 35.8997948], [-95.892026, 35.8997427], [-95.8921132, 35.8997427], [-95.8921132, 35.8997948]]]}, "properties": {"osm_id": 1435981478, "building": "yes", "name": "", "height": null, "height_m": null, "levels": null, "tract_id": "40143007804", "tract_name": "78.04", "tags": {"building": "yes"}}}, {"type": "Feature", "geometry": {"type": "Polygon", "coordinates": [[[-95.8926255, 35.9000143], [-95.8924069, 35.9000132], [-95.8924076, 35.8999145], [-95.8926262, 35.8999156], [-95.8926255, 35.9000143]]]}, "properties": {"osm_id": 1435981479, "building": "yes", "name": "", "height": null, "height_m": null, "levels": null, "tract_id": "40143007804", "tract_name": "78.04", "tags": {"building": "yes"}}}, {"type": "Feature", "geometry": {"type": "Polygon", "coordinates": [[[-95.8938727, 35.8568864], [-95.8937319, 35.856881], [-95.8937351, 35.8568255], [-95.8938759, 35.8568309], [-95.8938727, 35.8568864]]]}, "properties": {"osm_id": 1435992848, "building": "yes", "name": "", "height": null, "height_m": null, "levels": null, "tract_id": "40143007804", "tract_name": "78.04", "tags": {"building": "yes"}}}, {"type": "Feature", "geometry": {"type": "Polygon", "coordinates": [[[-95.8942992, 35.8572103], [-95.8941971, 35.8572068], [-95.8942065, 35.8570253], [-95.8943085, 35.8570288], [-95.8942992, 35.8572103]]]}, "properties": {"osm_id": 1435992849, "building": "yes", "name": "", "height": null, "height_m": null, "levels": null, "tract_id": "40143007804", "tract_name": "78.04", "tags": {"building": "yes"}}}, {"type": "Feature", "geometry": {"type": "Polygon", "coordinates": [[[-95.8946009, 35.8572223], [-95.894519, 35.857219], [-95.8945257, 35.8571092], [-95.8946076, 35.8571125], [-95.8946009, 35.8572223]]]}, "properties": {"osm_id": 1435992850, "building": "yes", "name": "", "height": null, "height_m": null, "levels": null, "tract_id": "40143007804", "tract_name": "78.04", "tags": {"building": "yes"}}}, {"type": "Feature", "geometry": {"type": "Polygon", "coordinates": [[[-95.8949335, 35.8568907], [-95.8948705, 35.8568918], [-95.894869, 35.8568373], [-95.8949321, 35.8568363], [-95.8949335, 35.8568907]]]}, "properties": {"osm_id": 1435992851, "building": "yes", "name": "", "height": null, "height_m": null, "levels": null, "tract_id": "40143007804", "tract_name": "78.04", "tags": {"building": "yes"}}}, {"type": "Feature", "geometry": {"type": "Polygon", "coordinates": [[[-95.8949335, 35.8567168], [-95.8946854, 35.8567505], [-95.8946601, 35.8566284], [-95.894809, 35.8566082], [-95.8947981, 35.8565552], [-95.8948864, 35.8565433], [-95.8948973, 35.8565962], [-95.8949082, 35.8565947], [-95.8949335, 35.8567168]]]}, "properties": {"osm_id": 1435992852, "building": "detached", "name": "", "height": null, "height_m": null, "levels": null, "tract_id": "40143007804", "tract_name": "78.04", "tags": {"building": "detached"}}}, {"type": "Feature", "geometry": {"type": "Polygon", "coordinates": [[[-95.8944534, 35.8578625], [-95.8944465, 35.8579356], [-95.8942882, 35.8579258], [-95.8942951, 35.8578527], [-95.8944534, 35.8578625]]]}, "properties": {"osm_id": 1435992853, "building": "yes", "name": "", "height": null, "height_m": null, "levels": null, "tract_id": "40143007804", "tract_name": "78.04", "tags": {"building": "yes"}}}, {"type": "Feature", "geometry": {"type": "Polygon", "coordinates": [[[-95.894161, 35.8580353], [-95.8941465, 35.8581989], [-95.8939038, 35.8581847], [-95.8939183, 35.8580211], [-95.894161, 35.8580353]]]}, "properties": {"osm_id": 1435992854, "building": "yes", "name": "", "height": null, "height_m": null, "levels": null, "tract_id": "40143007804", "tract_name": "78.04", "tags": {"building": "yes"}}}, {"type": "Feature", "geometry": {"type": "Polygon", "coordinates": [[[-95.8936581, 35.858744], [-95.8934288, 35.858745], [-95.8934273, 35.8585365], [-95.8935491, 35.858536], [-95.8935495, 35.8585955], [-95.8937261, 35.8585947], [-95.8937267, 35.8586784], [-95.8936576, 35.8586787], [-95.8936581, 35.858744]]]}, "properties": {"osm_id": 1435992855, "building": "yes", "name": "", "height": null, "height_m": null, "levels": null, "tract_id": "40143007804", "tract_name": "78.04", "tags": {"building": "yes"}}}, {"type": "Feature", "geometry": {"type": "Polygon", "coordinates": [[[-95.8928367, 35.8588266], [-95.8927287, 35.858826], [-95.8927292, 35.8587619], [-95.8927649, 35.8587621], [-95.8927651, 35.8587331], [-95.8928087, 35.8587333], [-95.8928085, 35.8587623], [-95.8928372, 35.8587624], [-95.8928367, 35.8588266]]]}, "properties": {"osm_id": 1435992856, "building": "detached", "name": "", "height": null, "height_m": null, "levels": null, "tract_id": "40143007804", "tract_name": "78.04", "tags": {"addr:city": "Mounds", "addr:country": "US", "addr:housenumber": "20910", "addr:postcode": "74047", "addr:state": "OK", "addr:street": "South Memorial Drive East", "building": "detached"}}}, {"type": "Feature", "geometry": {"type": "Polygon", "coordinates": [[[-95.8856142, 35.8795502], [-95.8855501, 35.8795494], [-95.8855511, 35.8794992], [-95.8856152, 35.8795], [-95.8856142, 35.8795502]]]}, "properties": {"osm_id": 1436002029, "building": "yes", "name": "", "height": null, "height_m": null, "levels": null, "tract_id": "40143007804", "tract_name": "78.04", "tags": {"building": "yes"}}}, {"type": "Feature", "geometry": {"type": "Polygon", "coordinates": [[[-95.8897957, 35.8796241], [-95.8896725, 35.8796244], [-95.8896723, 35.8795817], [-95.8897956, 35.8795815], [-95.8897957, 35.8796241]]]}, "properties": {"osm_id": 1436002036, "building": "yes", "name": "", "height": null, "height_m": null, "levels": null, "tract_id": "40143007804", "tract_name": "78.04", "tags": {"building": "yes"}}}, {"type": "Feature", "geometry": {"type": "Polygon", "coordinates": [[[-95.8890769, 35.8794861], [-95.8885646, 35.8794872], [-95.8885639, 35.8792601], [-95.8887215, 35.8792598], [-95.8887208, 35.8790386], [-95.8889112, 35.8790382], [-95.8889119, 35.8792594], [-95.8890762, 35.879259], [-95.8890769, 35.8794861]]]}, "properties": {"osm_id": 1436002037, "building": "yes", "name": "", "height": null, "height_m": null, "levels": null, "tract_id": "40143007804", "tract_name": "78.04", "tags": {"building": "yes"}}}, {"type": "Feature", "geometry": {"type": "Polygon", "coordinates": [[[-95.889793, 35.8788798], [-95.8895208, 35.8788896], [-95.8895096, 35.8786852], [-95.8897819, 35.8786755], [-95.889793, 35.8788798]]]}, "properties": {"osm_id": 1436002038, "building": "yes", "name": "", "height": null, "height_m": null, "levels": null, "tract_id": "40143007804", "tract_name": "78.04", "tags": {"building": "yes"}}}, {"type": "Feature", "geometry": {"type": "Polygon", "coordinates": [[[-95.8898378, 35.8792876], [-95.8895389, 35.8792967], [-95.8895295, 35.8790943], [-95.8898284, 35.8790852], [-95.8898378, 35.8792876]]]}, "properties": {"osm_id": 1436002039, "building": "yes", "name": "", "height": null, "height_m": null, "levels": null, "tract_id": "40143007804", "tract_name": "78.04", "tags": {"building": "yes"}}}, {"type": "Feature", "geometry": {"type": "Polygon", "coordinates": [[[-95.8887805, 35.8784647], [-95.8887957, 35.878497], [-95.8888222, 35.8784888], [-95.8889677, 35.8784439], [-95.8890093, 35.8785322], [-95.8889162, 35.8785609], [-95.8889232, 35.8785758], [-95.8888675, 35.878593], [-95.8888442, 35.8786002], [-95.8888785, 35.8786732], [-95.8887964, 35.8786985], [-95.8887764, 35.878656], [-95.8886419, 35.8786975], [-95.8885639, 35.8785315], [-95.8887805, 35.8784647]]]}, "properties": {"osm_id": 1436002040, "building": "detached", "name": "", "height": null, "height_m": null, "levels": null, "tract_id": "40143007804", "tract_name": "78.04", "tags": {"addr:city": "Bixby", "addr:country": "US", "addr:housenumber": "19555", "addr:postcode": "74008", "addr:state": "OK", "addr:street": "South Memorial Drive East", "building": "detached"}}}, {"type": "Feature", "geometry": {"type": "Polygon", "coordinates": [[[-95.8854158, 35.8803602], [-95.8854167, 35.8804089], [-95.8855025, 35.8804079], [-95.8855016, 35.8803591], [-95.8854158, 35.8803602]]]}, "properties": {"osm_id": 1436002168, "building": "yes", "name": "", "height": null, "height_m": null, "levels": null, "tract_id": "40143007804", "tract_name": "78.04", "tags": {"building": "yes"}}}, {"type": "Feature", "geometry": {"type": "Polygon", "coordinates": [[[-95.887071, 35.880042], [-95.886904, 35.880042], [-95.886904, 35.880145], [-95.886939, 35.880145], [-95.886939, 35.880179], [-95.887071, 35.880179], [-95.887071, 35.880042]]]}, "properties": {"osm_id": 1436002169, "building": "detached", "name": "", "height": null, "height_m": null, "levels": null, "tract_id": "40143007804", "tract_name": "78.04", "tags": {"addr:city": "Mounds", "addr:country": "US", "addr:housenumber": "19437", "addr:postcode": "74047", "addr:state": "OK", "addr:street": "South Memorial Drive East", "building": "detached"}}}, {"type": "Feature", "geometry": {"type": "Polygon", "coordinates": [[[-95.8878251, 35.8802632], [-95.8877449, 35.8802757], [-95.8877586, 35.8803331], [-95.8878387, 35.8803206], [-95.8878251, 35.8802632]]]}, "properties": {"osm_id": 1436002170, "building": "yes", "name": "", "height": null, "height_m": null, "levels": null, "tract_id": "40143007804", "tract_name": "78.04", "tags": {"building": "yes"}}}, {"type": "Feature", "geometry": {"type": "Polygon", "coordinates": [[[-95.8870449, 35.8802142], [-95.8869609, 35.8802119], [-95.8869589, 35.8802597], [-95.887043, 35.880262], [-95.8870449, 35.8802142]]]}, "properties": {"osm_id": 1436002171, "building": "yes", "name": "", "height": null, "height_m": null, "levels": null, "tract_id": "40143007804", "tract_name": "78.04", "tags": {"building": "yes"}}}, {"type": "Feature", "geometry": {"type": "Polygon", "coordinates": [[[-95.886352, 35.880086], [-95.886345, 35.880195], [-95.886454, 35.8802], [-95.88646, 35.88009], [-95.886352, 35.880086]]]}, "properties": {"osm_id": 1436002172, "building": "yes", "name": "", "height": null, "height_m": null, "levels": null, "tract_id": "40143007804", "tract_name": "78.04", "tags": {"building": "yes"}}}, {"type": "Feature", "geometry": {"type": "Polygon", "coordinates": [[[-95.8871685, 35.9041276], [-95.8870771, 35.9041322], [-95.8870717, 35.904061], [-95.8871631, 35.9040565], [-95.8871685, 35.9041276]]]}, "properties": {"osm_id": 1436020195, "building": "detached", "name": "", "height": null, "height_m": null, "levels": null, "tract_id": "40143007804", "tract_name": "78.04", "tags": {"addr:city": "Bixby", "addr:country": "US", "addr:postcode": "74008", "addr:state": "OK", "addr:street": "South Memorial Drive East", "building": "detached"}}}, {"type": "Feature", "geometry": {"type": "Polygon", "coordinates": [[[-95.8877975, 35.9036491], [-95.887653, 35.9036037], [-95.8877334, 35.9034361], [-95.8877723, 35.9034484], [-95.8878134, 35.9033626], [-95.8879072, 35.9033921], [-95.887866, 35.9034779], [-95.8878779, 35.9034816], [-95.8877975, 35.9036491]]]}, "properties": {"osm_id": 1436020196, "building": "detached", "name": "", "height": null, "height_m": null, "levels": null, "tract_id": "40143007804", "tract_name": "78.04", "tags": {"addr:city": "Bixby", "addr:country": "US", "addr:housenumber": "17930", "addr:postcode": "74008", "addr:state": "OK", "addr:street": "South Memorial Drive East", "building": "detached"}}}, {"type": "Feature", "geometry": {"type": "Polygon", "coordinates": [[[-95.8881938, 35.9044763], [-95.8881935, 35.9045585], [-95.8881242, 35.9045583], [-95.888124, 35.9045961], [-95.8879657, 35.9045958], [-95.8879661, 35.9044758], [-95.8881938, 35.9044763]]]}, "properties": {"osm_id": 1436020197, "building": "detached", "name": "", "height": null, "height_m": null, "levels": null, "tract_id": "40143007804", "tract_name": "78.04", "tags": {"addr:city": "Bixby", "addr:country": "US", "addr:postcode": "74008", "addr:state": "OK", "addr:street": "South Memorial Drive East", "building": "detached"}}}, {"type": "Feature", "geometry": {"type": "Polygon", "coordinates": [[[-95.8891279, 35.9045421], [-95.8889884, 35.9045475], [-95.8889822, 35.9044433], [-95.8891217, 35.9044379], [-95.8891279, 35.9045421]]]}, "properties": {"osm_id": 1436020198, "building": "yes", "name": "", "height": null, "height_m": null, "levels": null, "tract_id": "40143007804", "tract_name": "78.04", "tags": {"building": "yes"}}}, {"type": "Feature", "geometry": {"type": "Polygon", "coordinates": [[[-95.8890957, 35.904113], [-95.8888797, 35.9041814], [-95.8888175, 35.9040526], [-95.8888604, 35.9040391], [-95.8888545, 35.9040268], [-95.8889421, 35.903999], [-95.888948, 35.9040113], [-95.8890335, 35.9039842], [-95.8890957, 35.904113]]]}, "properties": {"osm_id": 1436020199, "building": "detached", "name": "", "height": null, "height_m": null, "levels": null, "tract_id": "40143007804", "tract_name": "78.04", "tags": {"addr:city": "Bixby", "addr:country": "US", "addr:postcode": "74008", "addr:state": "OK", "addr:street": "South Memorial Drive East", "building": "detached"}}}, {"type": "Feature", "geometry": {"type": "Polygon", "coordinates": [[[-95.8876996, 35.9016396], [-95.8879234, 35.9016355], [-95.8879219, 35.9015825], [-95.8878429, 35.901584], [-95.8878421, 35.9015544], [-95.8876973, 35.9015571], [-95.8876996, 35.9016396]]]}, "properties": {"osm_id": 1436020200, "building": "detached", "name": "", "height": null, "height_m": null, "levels": null, "tract_id": "40143007804", "tract_name": "78.04", "tags": {"building": "detached"}}}, {"type": "Feature", "geometry": {"type": "Polygon", "coordinates": [[[-95.8881712, 35.9015296], [-95.8880801, 35.9015311], [-95.888083, 35.9016491], [-95.8881742, 35.9016476], [-95.8881712, 35.9015296]]]}, "properties": {"osm_id": 1436020201, "building": "yes", "name": "", "height": null, "height_m": null, "levels": null, "tract_id": "40143007804", "tract_name": "78.04", "tags": {"building": "yes"}}}, {"type": "Feature", "geometry": {"type": "Polygon", "coordinates": [[[-95.8879431, 35.9025266], [-95.8879429, 35.9025687], [-95.8879053, 35.9025686], [-95.8879046, 35.9027263], [-95.8880977, 35.9027269], [-95.8880982, 35.9026183], [-95.8880472, 35.9026182], [-95.8880477, 35.9025269], [-95.8879431, 35.9025266]]]}, "properties": {"osm_id": 1436020202, "building": "detached", "name": "", "height": null, "height_m": null, "levels": null, "tract_id": "40143007804", "tract_name": "78.04", "tags": {"addr:city": "Bixby", "addr:country": "US", "addr:housenumber": "17972", "addr:postcode": "74008", "addr:state": "OK", "addr:street": "South Memorial Drive East", "building": "detached"}}}, {"type": "Feature", "geometry": {"type": "Polygon", "coordinates": [[[-95.8884884, 35.9025173], [-95.8883511, 35.9025291], [-95.8883623, 35.9026147], [-95.8884996, 35.9026029], [-95.8884884, 35.9025173]]]}, "properties": {"osm_id": 1436020203, "building": "yes", "name": "", "height": null, "height_m": null, "levels": null, "tract_id": "40143007804", "tract_name": "78.04", "tags": {"building": "yes"}}}, {"type": "Feature", "geometry": {"type": "Polygon", "coordinates": [[[-95.8886193, 35.9027628], [-95.8886502, 35.9029312], [-95.8887528, 35.9029189], [-95.8887219, 35.9027505], [-95.8886193, 35.9027628]]]}, "properties": {"osm_id": 1436020204, "building": "yes", "name": "", "height": null, "height_m": null, "levels": null, "tract_id": "40143007804", "tract_name": "78.04", "tags": {"building": "yes"}}}, {"type": "Feature", "geometry": {"type": "Polygon", "coordinates": [[[-95.8883867, 35.90153], [-95.8881949, 35.9015331], [-95.8881987, 35.9016881], [-95.8882671, 35.901687], [-95.8882662, 35.9016479], [-95.8883895, 35.9016459], [-95.8883867, 35.90153]]]}, "properties": {"osm_id": 1436020205, "building": "detached", "name": "", "height": null, "height_m": null, "levels": null, "tract_id": "40143007804", "tract_name": "78.04", "tags": {"building": "detached"}}}, {"type": "Feature", "geometry": {"type": "Polygon", "coordinates": [[[-95.8894462, 35.9152489], [-95.8894027, 35.9150773], [-95.8893025, 35.915094], [-95.8893158, 35.9151466], [-95.8890614, 35.9151889], [-95.8890916, 35.9153079], [-95.8894462, 35.9152489]]]}, "properties": {"osm_id": 1436032493, "building": "detached", "name": "", "height": null, "height_m": null, "levels": null, "tract_id": "40143007804", "tract_name": "78.04", "tags": {"building": "detached"}}}, {"type": "Feature", "geometry": {"type": "Polygon", "coordinates": [[[-95.8878628, 35.9135217], [-95.8878628, 35.9136064], [-95.887828, 35.9136064], [-95.887828, 35.913702], [-95.8880399, 35.9137019], [-95.8880399, 35.9136215], [-95.888005, 35.9136215], [-95.888005, 35.9135216], [-95.8878628, 35.9135217]]]}, "properties": {"osm_id": 1436032494, "building": "detached", "name": "", "height": null, "height_m": null, "levels": null, "tract_id": "40143007804", "tract_name": "78.04", "tags": {"addr:city": "Bixby", "addr:country": "US", "addr:housenumber": "17242", "addr:postcode": "74008", "addr:state": "OK", "addr:street": "South Memorial Drive East", "building": "detached"}}}, {"type": "Feature", "geometry": {"type": "Polygon", "coordinates": [[[-95.8886549, 35.9136512], [-95.8887674, 35.9136553], [-95.8887718, 35.9135758], [-95.8886593, 35.9135717], [-95.8886549, 35.9136512]]]}, "properties": {"osm_id": 1436032495, "building": "yes", "name": "", "height": null, "height_m": null, "levels": null, "tract_id": "40143007804", "tract_name": "78.04", "tags": {"building": "yes"}}}, {"type": "Feature", "geometry": {"type": "Polygon", "coordinates": [[[-95.8890147, 35.9146081], [-95.8889484, 35.9145299], [-95.8889174, 35.9145471], [-95.8888719, 35.9144934], [-95.8887869, 35.9145406], [-95.8888988, 35.9146726], [-95.8890147, 35.9146081]]]}, "properties": {"osm_id": 1436032496, "building": "detached", "name": "", "height": null, "height_m": null, "levels": null, "tract_id": "40143007804", "tract_name": "78.04", "tags": {"addr:city": "Bixby", "addr:country": "US", "addr:housenumber": "17238", "addr:postcode": "74008", "addr:state": "OK", "addr:street": "South Memorial Drive East", "building": "detached"}}}, {"type": "Feature", "geometry": {"type": "Polygon", "coordinates": [[[-95.887323, 35.9141376], [-95.8873801, 35.9141374], [-95.8873793, 35.9139245], [-95.8873222, 35.9139247], [-95.887323, 35.9141376]]]}, "properties": {"osm_id": 1436032497, "building": "static_caravan", "name": "", "height": null, "height_m": null, "levels": null, "tract_id": "40143007804", "tract_name": "78.04", "tags": {"addr:city": "Bixby", "addr:country": "US", "addr:housenumber": "17232", "addr:postcode": "74008", "addr:state": "OK", "addr:street": "South Memorial Drive East", "building": "static_caravan"}}}, {"type": "Feature", "geometry": {"type": "Polygon", "coordinates": [[[-95.8881098, 35.915431], [-95.8881741, 35.9154304], [-95.8881744, 35.9154456], [-95.8882441, 35.9154449], [-95.8882439, 35.9154327], [-95.8883136, 35.915432], [-95.8883123, 35.9153443], [-95.8881085, 35.9153463], [-95.8881098, 35.915431]]]}, "properties": {"osm_id": 1436032498, "building": "detached", "name": "", "height": null, "height_m": null, "levels": null, "tract_id": "40143007804", "tract_name": "78.04", "tags": {"building": "detached"}}}, {"type": "Feature", "geometry": {"type": "Polygon", "coordinates": [[[-95.8887117, 35.9137724], [-95.8887776, 35.9137741], [-95.8887812, 35.9136808], [-95.8887154, 35.9136791], [-95.8887117, 35.9137724]]]}, "properties": {"osm_id": 1436032499, "building": "yes", "name": "", "height": null, "height_m": null, "levels": null, "tract_id": "40143007804", "tract_name": "78.04", "tags": {"building": "yes"}}}, {"type": "Feature", "geometry": {"type": "Polygon", "coordinates": [[[-95.8877829, 35.9148763], [-95.8878904, 35.9148127], [-95.8877897, 35.914701], [-95.8876822, 35.9147646], [-95.8877829, 35.9148763]]]}, "properties": {"osm_id": 1436032500, "building": "yes", "name": "", "height": null, "height_m": null, "levels": null, "tract_id": "40143007804", "tract_name": "78.04", "tags": {"building": "yes"}}}, {"type": "Feature", "geometry": {"type": "Polygon", "coordinates": [[[-95.8877076, 35.9150441], [-95.8879101, 35.915038], [-95.8879048, 35.9149222], [-95.8877023, 35.9149283], [-95.8877076, 35.9150441]]]}, "properties": {"osm_id": 1436032501, "building": "yes", "name": "", "height": null, "height_m": null, "levels": null, "tract_id": "40143007804", "tract_name": "78.04", "tags": {"building": "yes"}}}, {"type": "Feature", "geometry": {"type": "Polygon", "coordinates": [[[-95.8888736, 35.9148113], [-95.8889809, 35.914835], [-95.8890183, 35.9147237], [-95.8889109, 35.9147001], [-95.8888736, 35.9148113]]]}, "properties": {"osm_id": 1436032502, "building": "yes", "name": "", "height": null, "height_m": null, "levels": null, "tract_id": "40143007804", "tract_name": "78.04", "tags": {"building": "yes"}}}, {"type": "Feature", "geometry": {"type": "Polygon", "coordinates": [[[-95.8889616, 35.8810943], [-95.8887375, 35.8811106], [-95.8887187, 35.8809411], [-95.8889428, 35.8809248], [-95.8889616, 35.8810943]]]}, "properties": {"osm_id": 1441954514, "building": "yes", "name": "", "height": null, "height_m": null, "levels": null, "tract_id": "40143007804", "tract_name": "78.04", "tags": {"building": "yes"}}}, {"type": "Feature", "geometry": {"type": "Polygon", "coordinates": [[[-95.8897756, 35.8809292], [-95.889616, 35.8809277], [-95.8896187, 35.8807289], [-95.8897783, 35.8807303], [-95.8897756, 35.8809292]]]}, "properties": {"osm_id": 1441954515, "building": "yes", "name": "", "height": null, "height_m": null, "levels": null, "tract_id": "40143007804", "tract_name": "78.04", "tags": {"building": "yes"}}}, {"type": "Feature", "geometry": {"type": "Polygon", "coordinates": [[[-95.8900277, 35.8807868], [-95.8898905, 35.8807324], [-95.8899535, 35.880628], [-95.8900908, 35.8806825], [-95.8900277, 35.8807868]]]}, "properties": {"osm_id": 1441954516, "building": "yes", "name": "", "height": null, "height_m": null, "levels": null, "tract_id": "40143007804", "tract_name": "78.04", "tags": {"building": "yes"}}}, {"type": "Feature", "geometry": {"type": "Polygon", "coordinates": [[[-95.889211, 35.8815279], [-95.8892043, 35.8813681], [-95.889373, 35.8813635], [-95.8893797, 35.8815232], [-95.889211, 35.8815279]]]}, "properties": {"osm_id": 1441954517, "building": "detached", "name": "", "height": null, "height_m": null, "levels": null, "tract_id": "40143007804", "tract_name": "78.04", "tags": {"addr:city": "Bixby", "addr:country": "US", "addr:housenumber": "19403", "addr:postcode": "74008", "addr:state": "OK", "addr:street": "South Memorial Drive East", "building": "detached"}}}, {"type": "Feature", "geometry": {"type": "Polygon", "coordinates": [[[-95.8877408, 35.8827976], [-95.8877149, 35.8827756], [-95.8877481, 35.88275], [-95.887774, 35.882772], [-95.8877408, 35.8827976]]]}, "properties": {"osm_id": 1443834978, "building": "service", "name": "", "height": null, "height_m": null, "levels": null, "tract_id": "40143007804", "tract_name": "78.04", "tags": {"addr:city": "Bixby", "addr:country": "US", "addr:housenumber": "19301", "addr:postcode": "74008", "addr:state": "OK", "addr:street": "South Memorial Drive East", "building": "service"}}}, {"type": "Feature", "geometry": {"type": "Polygon", "coordinates": [[[-95.8883385, 35.9100473], [-95.8883406, 35.9098716], [-95.8884459, 35.9098725], [-95.8884438, 35.9100481], [-95.8883385, 35.9100473]]]}, "properties": {"osm_id": 1443838844, "building": "yes", "name": "", "height": null, "height_m": null, "levels": null, "tract_id": "40143007804", "tract_name": "78.04", "tags": {"building": "yes"}}}, {"type": "Feature", "geometry": {"type": "Polygon", "coordinates": [[[-95.8891862, 35.9090938], [-95.8891959, 35.9091789], [-95.8891534, 35.9091821], [-95.8891588, 35.9092294], [-95.8889902, 35.909242], [-95.8889848, 35.9091946], [-95.8889442, 35.9091977], [-95.8889345, 35.9091126], [-95.8891862, 35.9090938]]]}, "properties": {"osm_id": 1443838845, "building": "yes", "name": "", "height": null, "height_m": null, "levels": null, "tract_id": "40143007804", "tract_name": "78.04", "tags": {"building": "yes"}}}, {"type": "Feature", "geometry": {"type": "Polygon", "coordinates": [[[-95.8885323, 35.9088559], [-95.8885479, 35.90896], [-95.8884268, 35.9089719], [-95.8884112, 35.9088678], [-95.8885323, 35.9088559]]]}, "properties": {"osm_id": 1443838846, "building": "yes", "name": "", "height": null, "height_m": null, "levels": null, "tract_id": "40143007804", "tract_name": "78.04", "tags": {"building": "yes"}}}, {"type": "Feature", "geometry": {"type": "Polygon", "coordinates": [[[-95.8879795, 35.9091654], [-95.8878822, 35.9091712], [-95.887872, 35.9090588], [-95.8879693, 35.9090531], [-95.8879795, 35.9091654]]]}, "properties": {"osm_id": 1443838847, "building": "yes", "name": "", "height": null, "height_m": null, "levels": null, "tract_id": "40143007804", "tract_name": "78.04", "tags": {"building": "yes"}}}, {"type": "Feature", "geometry": {"type": "Polygon", "coordinates": [[[-95.8878921, 35.9086179], [-95.8877792, 35.9086246], [-95.8878034, 35.9088916], [-95.8878278, 35.9088901], [-95.8878335, 35.9089534], [-95.887922, 35.9089481], [-95.8878921, 35.9086179]]]}, "properties": {"osm_id": 1443838848, "building": "detached", "name": "", "height": null, "height_m": null, "levels": null, "tract_id": "40143007804", "tract_name": "78.04", "tags": {"addr:city": "Bixby", "addr:country": "US", "addr:housenumber": "17676", "addr:postcode": "74008", "addr:state": "OK", "addr:street": "South Memorial Drive East", "building": "detached"}}}]}