{"type": "FeatureCollection", "features": [{"type": "Feature", "geometry": {"type": "Polygon", "coordinates": [[[-95.9021236, 36.1455709], [-95.9020834, 36.1455713], [-95.9020823, 36.1454992], [-95.9021225, 36.1454988], [-95.9021236, 36.1455709]]]}, "properties": {"osm_id": 203839436, "building": "yes", "name": "", "height": null, "height_m": null, "levels": null, "tract_id": "40143007101", "tract_name": "71.01", "tags": {"building": "yes"}}}, {"type": "Feature", "geometry": {"type": "Polygon", "coordinates": [[[-95.8899808, 36.1400703], [-95.8898298, 36.1401098], [-95.8898082, 36.1400565], [-95.8898276, 36.1400514], [-95.889812, 36.1400131], [-95.8899434, 36.1399783], [-95.8899808, 36.1400703]]]}, "properties": {"osm_id": 229818132, "building": "yes", "name": "", "height": null, "height_m": null, "levels": null, "tract_id": "40143007101", "tract_name": "71.01", "tags": {"addr:city": "Tulsa", "addr:country": "US", "addr:housenumber": "7806", "addr:postcode": "74112", "addr:state": "OK", "addr:street": "East 15th Court", "building": "yes"}}}, {"type": "Feature", "geometry": {"type": "Polygon", "coordinates": [[[-95.8898298, 36.1401098], [-95.8899808, 36.1400703], [-95.8900183, 36.1401629], [-95.8898869, 36.1401976], [-95.8898708, 36.1401578], [-95.8898514, 36.1401629], [-95.8898298, 36.1401098]]]}, "properties": {"osm_id": 229818133, "building": "yes", "name": "", "height": null, "height_m": null, "levels": null, "tract_id": "40143007101", "tract_name": "71.01", "tags": {"building": "yes"}}}, {"type": "Feature", "geometry": {"type": "Polygon", "coordinates": [[[-95.9041771, 36.1469618], [-95.9040069, 36.1469613], [-95.9040072, 36.1469111], [-95.9036393, 36.14691], [-95.9036394, 36.1468933], [-95.9034864, 36.1468928], [-95.9034868, 36.1468053], [-95.9029576, 36.1468039], [-95.902957, 36.1469584], [-95.9026858, 36.1469576], [-95.9026859, 36.1474864], [-95.9031255, 36.1474869], [-95.9031258, 36.1476081], [-95.9039194, 36.1476065], [-95.9039189, 36.1475345], [-95.9041015, 36.147535], [-95.9041035, 36.1470609], [-95.9041767, 36.1470612], [-95.9041771, 36.1469618]]]}, "properties": {"osm_id": 232195192, "building": "industrial", "name": "Hostess", "height": null, "height_m": null, "levels": null, "tract_id": "40143007101", "tract_name": "71.01", "tags": {"building": "industrial", "name": "Hostess", "operator": "Interstate Breads Corporation"}}}, {"type": "Feature", "geometry": {"type": "Polygon", "coordinates": [[[-95.887313, 36.1468237], [-95.8875373, 36.1468218], [-95.8878021, 36.1468228], [-95.8878008, 36.1470673], [-95.8873115, 36.1470717], [-95.887313, 36.1468237]]]}, "properties": {"osm_id": 384316548, "building": "retail", "name": "Cash America Pawn", "height": null, "height_m": null, "levels": null, "tract_id": "40143007101", "tract_name": "71.01", "tags": {"addr:city": "Tulsa", "addr:country": "US", "addr:housenumber": "1116", "addr:postcode": "74112", "addr:state": "OK", "addr:street": "South Memorial Drive East", "brand": "Cash America International", "brand:wikidata": "Q5048636", "building": "retail", "check_date": "2022-06-18", "name": "Cash America Pawn", "shop": "pawnbroker"}}}, {"type": "Feature", "geometry": {"type": "Polygon", "coordinates": [[[-95.8905676, 36.1474687], [-95.890181, 36.1474695], [-95.8901807, 36.1473835], [-95.8902027, 36.1473834], [-95.8902018, 36.1471241], [-95.8903285, 36.1471238], [-95.8903283, 36.1470365], [-95.8905512, 36.147036], [-95.8905523, 36.1473827], [-95.8905673, 36.1473827], [-95.8905676, 36.1474687]]]}, "properties": {"osm_id": 384316550, "building": "yes", "name": "", "height": null, "height_m": null, "levels": null, "tract_id": "40143007101", "tract_name": "71.01", "tags": {"addr:city": "Tulsa", "addr:country": "US", "addr:housenumber": "7712", "addr:postcode": "74112", "addr:state": "OK", "addr:street": "East 11th Street South", "building": "yes", "source": "INCOG"}}}, {"type": "Feature", "geometry": {"type": "Polygon", "coordinates": [[[-95.8874462, 36.1464216], [-95.8873324, 36.1464213], [-95.8873333, 36.146192], [-95.8877679, 36.146193], [-95.8877671, 36.1464202], [-95.887635, 36.1464199], [-95.8876353, 36.1463497], [-95.8876662, 36.1463498], [-95.8876664, 36.146288], [-95.8874202, 36.1462874], [-95.8874199, 36.1463529], [-95.8874465, 36.1463529], [-95.8874462, 36.1464216]]]}, "properties": {"osm_id": 384316552, "building": "apartments", "name": "", "height": null, "height_m": null, "levels": null, "tract_id": "40143007101", "tract_name": "71.01", "tags": {"building": "apartments"}}}, {"type": "Feature", "geometry": {"type": "Polygon", "coordinates": [[[-95.8894476, 36.1472148], [-95.8894494, 36.1472148], [-95.8894464, 36.1477699], [-95.8892629, 36.1477692], [-95.8892631, 36.1477378], [-95.8892377, 36.1477377], [-95.8892403, 36.1472686], [-95.8892656, 36.1472687], [-95.8892659, 36.1472141], [-95.8893012, 36.1472142], [-95.8893035, 36.1467819], [-95.8894499, 36.1467824], [-95.8894476, 36.1472148]]]}, "properties": {"osm_id": 384316556, "building": "yes", "name": "", "height": null, "height_m": null, "levels": null, "tract_id": "40143007101", "tract_name": "71.01", "tags": {"addr:city": "Tulsa", "addr:country": "US", "addr:housenumber": "7890", "addr:postcode": "74112", "addr:state": "OK", "addr:street": "East 11th Street South", "building": "yes", "source": "INCOG"}}}, {"type": "Feature", "geometry": {"type": "Polygon", "coordinates": [[[-95.8896492, 36.147237], [-95.8895917, 36.1472371], [-95.8895916, 36.1471943], [-95.8894976, 36.1471945], [-95.8894962, 36.1467364], [-95.8897066, 36.1467359], [-95.8898397, 36.1467357], [-95.8898413, 36.1472366], [-95.8898121, 36.1472367], [-95.8898122, 36.1472615], [-95.8897374, 36.1472616], [-95.8897373, 36.1472368], [-95.8897081, 36.1472369], [-95.8897082, 36.1472585], [-95.8896493, 36.1472586], [-95.8896492, 36.147237]]]}, "properties": {"osm_id": 384316557, "building": "yes", "name": "", "height": null, "height_m": null, "levels": null, "tract_id": "40143007101", "tract_name": "71.01", "tags": {"addr:city": "Tulsa", "addr:country": "US", "addr:housenumber": "7734", "addr:postcode": "74112", "addr:state": "OK", "addr:street": "East 11th Street South", "building": "yes", "source": "INCOG"}}}, {"type": "Feature", "geometry": {"type": "Polygon", "coordinates": [[[-95.8873451, 36.1459981], [-95.8871269, 36.1459973], [-95.8871282, 36.1457567], [-95.8873464, 36.1457574], [-95.8873451, 36.1459981]]]}, "properties": {"osm_id": 384316562, "building": "retail", "name": "Discount Auto Sales", "height": null, "height_m": null, "levels": null, "tract_id": "40143007101", "tract_name": "71.01", "tags": {"addr:city": "Tulsa", "addr:country": "US", "addr:housenumber": "1206", "addr:postcode": "74112", "addr:state": "OK", "addr:street": "South Memorial Drive East", "building": "retail", "check_date": "2022-06-18", "name": "Discount Auto Sales", "phone": "+1 918 834 2886", "shop": "car"}}}, {"type": "Feature", "geometry": {"type": "Polygon", "coordinates": [[[-95.8879688, 36.145351], [-95.8879691, 36.145284], [-95.8881787, 36.1452847], [-95.8881784, 36.1453516], [-95.8879688, 36.145351]]]}, "properties": {"osm_id": 384316564, "building": "warehouse", "name": "", "height": null, "height_m": null, "levels": null, "tract_id": "40143007101", "tract_name": "71.01", "tags": {"building": "warehouse"}}}, {"type": "Feature", "geometry": {"type": "Polygon", "coordinates": [[[-95.8873715, 36.1450841], [-95.887264, 36.1450838], [-95.8872654, 36.1448313], [-95.8873728, 36.1448317], [-95.8873715, 36.1450841]]]}, "properties": {"osm_id": 384316566, "building": "apartments", "name": "", "height": null, "height_m": null, "levels": null, "tract_id": "40143007101", "tract_name": "71.01", "tags": {"building": "apartments"}}}, {"type": "Feature", "geometry": {"type": "Polygon", "coordinates": [[[-95.8879056, 36.1447583], [-95.8877611, 36.1447578], [-95.8877614, 36.1446987], [-95.8879059, 36.1446992], [-95.8879056, 36.1447583]]]}, "properties": {"osm_id": 384316571, "building": "apartments", "name": "", "height": null, "height_m": null, "levels": null, "tract_id": "40143007101", "tract_name": "71.01", "tags": {"building": "apartments"}}}, {"type": "Feature", "geometry": {"type": "Polygon", "coordinates": [[[-95.8871774, 36.1450818], [-95.88707, 36.1450814], [-95.8870713, 36.1448318], [-95.8871788, 36.1448322], [-95.8871774, 36.1450818]]]}, "properties": {"osm_id": 384316574, "building": "apartments", "name": "", "height": null, "height_m": null, "levels": null, "tract_id": "40143007101", "tract_name": "71.01", "tags": {"building": "apartments"}}}, {"type": "Feature", "geometry": {"type": "Polygon", "coordinates": [[[-95.8873753, 36.1447523], [-95.8872623, 36.1447519], [-95.8872639, 36.1444503], [-95.8873769, 36.1444507], [-95.8873753, 36.1447523]]]}, "properties": {"osm_id": 384316577, "building": "apartments", "name": "", "height": null, "height_m": null, "levels": null, "tract_id": "40143007101", "tract_name": "71.01", "tags": {"building": "apartments"}}}, {"type": "Feature", "geometry": {"type": "Polygon", "coordinates": [[[-95.8879059, 36.1446311], [-95.8878432, 36.1446309], [-95.8878438, 36.1445137], [-95.8879066, 36.1445139], [-95.8879059, 36.1446311]]]}, "properties": {"osm_id": 384316579, "building": "office", "name": "The Cove Apartments", "height": null, "height_m": null, "levels": null, "tract_id": "40143007101", "tract_name": "71.01", "tags": {"addr:city": "Tulsa", "addr:country": "US", "addr:housenumber": "1246", "addr:postcode": "74112", "addr:state": "OK", "addr:street": "South Memorial Drive East", "building": "office", "name": "The Cove Apartments", "office": "property_management"}}}, {"type": "Feature", "geometry": {"type": "Polygon", "coordinates": [[[-95.8876074, 36.1464203], [-95.8874699, 36.1464198], [-95.8874702, 36.146354], [-95.8876077, 36.1463545], [-95.8876074, 36.1464203]]]}, "properties": {"osm_id": 384316585, "building": "apartments", "name": "", "height": null, "height_m": null, "levels": null, "tract_id": "40143007101", "tract_name": "71.01", "tags": {"addr:city": "Tulsa", "addr:country": "US", "addr:housenumber": "1148", "addr:postcode": "74112", "addr:state": "OK", "addr:street": "South Memorial Drive East", "building": "apartments", "office": "property_management"}}}, {"type": "Feature", "geometry": {"type": "Polygon", "coordinates": [[[-95.8882545, 36.1450817], [-95.8881461, 36.1450813], [-95.8881472, 36.1448811], [-95.8882556, 36.1448815], [-95.8882545, 36.1450817]]]}, "properties": {"osm_id": 384316586, "building": "apartments", "name": "", "height": null, "height_m": null, "levels": null, "tract_id": "40143007101", "tract_name": "71.01", "tags": {"building": "apartments"}}}, {"type": "Feature", "geometry": {"type": "Polygon", "coordinates": [[[-95.8871986, 36.146427], [-95.8870129, 36.1464263], [-95.8870133, 36.146356], [-95.8871989, 36.1463566], [-95.8871986, 36.146427]]]}, "properties": {"osm_id": 384316587, "building": "retail", "name": "", "height": null, "height_m": null, "levels": null, "tract_id": "40143007101", "tract_name": "71.01", "tags": {"addr:city": "Tulsa", "addr:country": "US", "addr:housenumber": "1140", "addr:postcode": "74112", "addr:state": "OK", "addr:street": "South Memorial Drive East", "building": "retail", "shop": "vacant"}}}, {"type": "Feature", "geometry": {"type": "Polygon", "coordinates": [[[-95.887913, 36.1460511], [-95.887823, 36.1460518], [-95.8878149, 36.1453736], [-95.8879049, 36.1453729], [-95.887913, 36.1460511]]]}, "properties": {"osm_id": 384316589, "building": "warehouse", "name": "", "height": null, "height_m": null, "levels": null, "tract_id": "40143007101", "tract_name": "71.01", "tags": {"building": "warehouse"}}}, {"type": "Feature", "geometry": {"type": "Polygon", "coordinates": [[[-95.8870579, 36.1452124], [-95.8870584, 36.1451107], [-95.8874342, 36.1451121], [-95.8874337, 36.1452137], [-95.8870579, 36.1452124]]]}, "properties": {"osm_id": 384316591, "building": "apartments", "name": "", "height": null, "height_m": null, "levels": null, "tract_id": "40143007101", "tract_name": "71.01", "tags": {"building": "apartments"}}}, {"type": "Feature", "geometry": {"type": "Polygon", "coordinates": [[[-95.8879114, 36.1450818], [-95.8877975, 36.1450814], [-95.8877988, 36.1448313], [-95.8879127, 36.1448317], [-95.8879114, 36.1450818]]]}, "properties": {"osm_id": 384316593, "building": "apartments", "name": "", "height": null, "height_m": null, "levels": null, "tract_id": "40143007101", "tract_name": "71.01", "tags": {"building": "apartments"}}}, {"type": "Feature", "geometry": {"type": "Polygon", "coordinates": [[[-95.8874694, 36.1451116], [-95.8878462, 36.1451129], [-95.8878457, 36.14521], [-95.8874689, 36.1452087], [-95.8874694, 36.1451116]]]}, "properties": {"osm_id": 384316598, "building": "apartments", "name": "", "height": null, "height_m": null, "levels": null, "tract_id": "40143007101", "tract_name": "71.01", "tags": {"building": "apartments"}}}, {"type": "Feature", "geometry": {"type": "Polygon", "coordinates": [[[-95.8871819, 36.1447542], [-95.8870583, 36.1447537], [-95.8870599, 36.144454], [-95.8871835, 36.1444545], [-95.8871819, 36.1447542]]]}, "properties": {"osm_id": 384316599, "building": "apartments", "name": "", "height": null, "height_m": null, "levels": null, "tract_id": "40143007101", "tract_name": "71.01", "tags": {"building": "apartments"}}}, {"type": "Feature", "geometry": {"type": "Polygon", "coordinates": [[[-95.8878815, 36.145211], [-95.887882, 36.1451112], [-95.8882578, 36.1451125], [-95.8882573, 36.1452123], [-95.8878815, 36.145211]]]}, "properties": {"osm_id": 384316601, "building": "apartments", "name": "", "height": null, "height_m": null, "levels": null, "tract_id": "40143007101", "tract_name": "71.01", "tags": {"building": "apartments"}}}, {"type": "Feature", "geometry": {"type": "Polygon", "coordinates": [[[-95.8882993, 36.1474953], [-95.8881909, 36.1474949], [-95.8881914, 36.1473836], [-95.8882999, 36.147384], [-95.8882993, 36.1474953]]]}, "properties": {"osm_id": 384316602, "building": "yes", "name": "", "height": null, "height_m": null, "levels": null, "tract_id": "40143007101", "tract_name": "71.01", "tags": {"building": "yes"}}}, {"type": "Feature", "geometry": {"type": "Polygon", "coordinates": [[[-95.8878581, 36.1444705], [-95.8875741, 36.1444695], [-95.8875746, 36.1443874], [-95.8878586, 36.1443884], [-95.8878581, 36.1444705]]]}, "properties": {"osm_id": 384316604, "building": "apartments", "name": "", "height": null, "height_m": null, "levels": null, "tract_id": "40143007101", "tract_name": "71.01", "tags": {"building": "apartments"}}}, {"type": "Feature", "geometry": {"type": "Polygon", "coordinates": [[[-95.8882772, 36.1460317], [-95.8881849, 36.1460314], [-95.8881881, 36.1453557], [-95.8882803, 36.145356], [-95.8882772, 36.1460317]]]}, "properties": {"osm_id": 384316605, "building": "warehouse", "name": "", "height": null, "height_m": null, "levels": null, "tract_id": "40143007101", "tract_name": "71.01", "tags": {"building": "warehouse"}}}, {"type": "Feature", "geometry": {"type": "Polygon", "coordinates": [[[-95.8875852, 36.1454628], [-95.8875838, 36.14539], [-95.8877496, 36.1453878], [-95.8877511, 36.1454606], [-95.8875852, 36.1454628]]]}, "properties": {"osm_id": 384316606, "building": "yes", "name": "", "height": null, "height_m": null, "levels": null, "tract_id": "40143007101", "tract_name": "71.01", "tags": {"building": "yes"}}}, {"type": "Feature", "geometry": {"type": "Polygon", "coordinates": [[[-95.8882569, 36.1444872], [-95.88788, 36.1444859], [-95.8878805, 36.1443848], [-95.8882574, 36.1443861], [-95.8882569, 36.1444872]]]}, "properties": {"osm_id": 384316607, "building": "apartments", "name": "", "height": null, "height_m": null, "levels": null, "tract_id": "40143007101", "tract_name": "71.01", "tags": {"building": "apartments"}}}, {"type": "Feature", "geometry": {"type": "Polygon", "coordinates": [[[-95.8884435, 36.1474925], [-95.8883244, 36.147492], [-95.8883251, 36.1473533], [-95.8884443, 36.1473537], [-95.8884435, 36.1474925]]]}, "properties": {"osm_id": 384316609, "building": "yes", "name": "", "height": null, "height_m": null, "levels": null, "tract_id": "40143007101", "tract_name": "71.01", "tags": {"building": "yes"}}}, {"type": "Feature", "geometry": {"type": "Polygon", "coordinates": [[[-95.8877191, 36.1450818], [-95.887607, 36.1450814], [-95.8876083, 36.1448299], [-95.8877205, 36.1448303], [-95.8877191, 36.1450818]]]}, "properties": {"osm_id": 384316611, "building": "apartments", "name": "", "height": null, "height_m": null, "levels": null, "tract_id": "40143007101", "tract_name": "71.01", "tags": {"building": "apartments"}}}, {"type": "Feature", "geometry": {"type": "Polygon", "coordinates": [[[-95.8883006, 36.1478264], [-95.8883013, 36.1476819], [-95.8887441, 36.1476832], [-95.8887434, 36.1478277], [-95.8883006, 36.1478264]]]}, "properties": {"osm_id": 384316629, "building": "commercial", "name": "", "height": null, "height_m": null, "levels": null, "tract_id": "40143007101", "tract_name": "71.01", "tags": {"addr:city": "Tulsa", "addr:country": "US", "addr:housenumber": "7904", "addr:postcode": "74112", "addr:state": "OK", "addr:street": "East 11th Street South", "building": "commercial", "shop": "vacant"}}}, {"type": "Feature", "geometry": {"type": "Polygon", "coordinates": [[[-95.8870339, 36.1454084], [-95.8871457, 36.1454088], [-95.8871449, 36.1455843], [-95.887559, 36.1455855], [-95.8875593, 36.1455262], [-95.8876547, 36.1455264], [-95.8876541, 36.1456704], [-95.8870327, 36.1456685], [-95.8870339, 36.1454084]]]}, "properties": {"osm_id": 384316636, "building": "garages", "name": "Breedlove Automotive", "height": null, "height_m": null, "levels": null, "tract_id": "40143007101", "tract_name": "71.01", "tags": {"addr:city": "Tulsa", "addr:country": "US", "addr:housenumber": "1220", "addr:postcode": "74112", "addr:state": "OK", "addr:street": "South Memorial Drive East", "building": "garages", "check_date": "2022-06-18", "name": "Breedlove Automotive", "phone": "+1 918 836 8344"}}}, {"type": "Feature", "geometry": {"type": "Polygon", "coordinates": [[[-95.9008442, 36.1463608], [-95.9011366, 36.1463605], [-95.9011369, 36.1465833], [-95.9008663, 36.1465835], [-95.9008665, 36.1467999], [-95.9010087, 36.1467998], [-95.9010089, 36.1469641], [-95.9005946, 36.1469644], [-95.9005943, 36.146833], [-95.9005936, 36.1463611], [-95.9008442, 36.1463608]]]}, "properties": {"osm_id": 384547153, "building": "yes", "name": "", "height": null, "height_m": null, "levels": null, "tract_id": "40143007101", "tract_name": "71.01", "tags": {"building": "yes"}}}, {"type": "Feature", "geometry": {"type": "Polygon", "coordinates": [[[-95.893855, 36.1478064], [-95.893741, 36.1478066], [-95.8937408, 36.1477312], [-95.8938548, 36.1477309], [-95.893855, 36.1478064]]]}, "properties": {"osm_id": 384547155, "building": "detached", "name": "Krause Plastics", "height": null, "height_m": null, "levels": null, "tract_id": "40143007101", "tract_name": "71.01", "tags": {"building": "detached", "name": "Krause Plastics", "office": "company"}}}, {"type": "Feature", "geometry": {"type": "Polygon", "coordinates": [[[-95.9004903, 36.1467344], [-95.9002599, 36.1467346], [-95.9002594, 36.1463625], [-95.9004898, 36.1463623], [-95.9004903, 36.1467344]]]}, "properties": {"osm_id": 384547157, "building": "yes", "name": "", "height": null, "height_m": null, "levels": null, "tract_id": "40143007101", "tract_name": "71.01", "tags": {"building": "yes"}}}, {"type": "Feature", "geometry": {"type": "Polygon", "coordinates": [[[-95.8937122, 36.1475813], [-95.8935692, 36.1475816], [-95.8935689, 36.147482], [-95.893712, 36.1474818], [-95.8937122, 36.1475813]]]}, "properties": {"osm_id": 384547159, "building": "yes", "name": "", "height": null, "height_m": null, "levels": null, "tract_id": "40143007101", "tract_name": "71.01", "tags": {"building": "yes"}}}, {"type": "Feature", "geometry": {"type": "Polygon", "coordinates": [[[-95.9004241, 36.1476537], [-95.9002646, 36.1476538], [-95.9002642, 36.1473761], [-95.9004238, 36.147376], [-95.9004241, 36.1476537]]]}, "properties": {"osm_id": 384547161, "building": "yes", "name": "", "height": null, "height_m": null, "levels": null, "tract_id": "40143007101", "tract_name": "71.01", "tags": {"addr:city": "Tulsa", "addr:country": "US", "addr:housenumber": "6752", "addr:postcode": "74112", "addr:state": "OK", "addr:street": "East 11th Street South", "building": "yes", "source": "INCOG"}}}, {"type": "Feature", "geometry": {"type": "Polygon", "coordinates": [[[-95.8949717, 36.147475], [-95.8948268, 36.1474761], [-95.8948251, 36.147336], [-95.89497, 36.1473349], [-95.8949717, 36.147475]]]}, "properties": {"osm_id": 384547163, "building": "yes", "name": "", "height": null, "height_m": null, "levels": null, "tract_id": "40143007101", "tract_name": "71.01", "tags": {"building": "yes"}}}, {"type": "Feature", "geometry": {"type": "Polygon", "coordinates": [[[-95.9022087, 36.1477627], [-95.9019997, 36.1477629], [-95.9019993, 36.1474378], [-95.9022083, 36.1474377], [-95.9022087, 36.1477627]]]}, "properties": {"osm_id": 384547167, "building": "yes", "name": "", "height": null, "height_m": null, "levels": null, "tract_id": "40143007101", "tract_name": "71.01", "tags": {"addr:city": "Tulsa", "addr:country": "US", "addr:housenumber": "6702", "addr:postcode": "74112", "addr:state": "OK", "addr:street": "East 11th Street South", "building": "yes", "source": "INCOG"}}}, {"type": "Feature", "geometry": {"type": "Polygon", "coordinates": [[[-95.891504, 36.1475511], [-95.8914227, 36.1475511], [-95.8914227, 36.1474398], [-95.891504, 36.1474398], [-95.891504, 36.1475511]]]}, "properties": {"osm_id": 384547171, "building": "yes", "name": "", "height": null, "height_m": null, "levels": null, "tract_id": "40143007101", "tract_name": "71.01", "tags": {"addr:city": "Tulsa", "addr:country": "US", "addr:housenumber": "7620", "addr:postcode": "74112", "addr:state": "OK", "addr:street": "East 11th Street South", "building": "yes"}}}, {"type": "Feature", "geometry": {"type": "Polygon", "coordinates": [[[-95.8988015, 36.1476914], [-95.8985932, 36.1476913], [-95.8985932, 36.1473989], [-95.8988016, 36.1473989], [-95.8988015, 36.1476914]]]}, "properties": {"osm_id": 384547173, "building": "industrial", "name": "", "height": null, "height_m": null, "levels": null, "tract_id": "40143007101", "tract_name": "71.01", "tags": {"addr:city": "Tulsa", "addr:country": "US", "addr:housenumber": "6934", "addr:postcode": "74112", "addr:state": "OK", "addr:street": "East 11th Street South", "building": "industrial", "shop": "vacant"}}}, {"type": "Feature", "geometry": {"type": "Polygon", "coordinates": [[[-95.8942394, 36.1476843], [-95.8940632, 36.1476847], [-95.8940628, 36.1475667], [-95.894239, 36.1475663], [-95.8942394, 36.1476843]]]}, "properties": {"osm_id": 384547175, "building": "yes", "name": "Ca$h Cars of Tulsa", "height": null, "height_m": null, "levels": null, "tract_id": "40143007101", "tract_name": "71.01", "tags": {"building": "yes", "name": "Ca$h Cars of Tulsa", "phone": "+1 918 807 2510", "shop": "car"}}}, {"type": "Feature", "geometry": {"type": "Polygon", "coordinates": [[[-95.897964, 36.1475653], [-95.89776, 36.1475653], [-95.89776, 36.1472655], [-95.897964, 36.1472655], [-95.897964, 36.1475653]]]}, "properties": {"osm_id": 384547177, "building": "yes", "name": "Drive Shafts, Inc.", "height": null, "height_m": null, "levels": null, "tract_id": "40143007101", "tract_name": "71.01", "tags": {"addr:city": "Tulsa", "addr:country": "US", "addr:housenumber": "6960", "addr:postcode": "74112", "addr:state": "OK", "addr:street": "East 11th Street South", "building": "yes", "name": "Drive Shafts, Inc.", "office": "company"}}}, {"type": "Feature", "geometry": {"type": "Polygon", "coordinates": [[[-95.8937076, 36.1477922], [-95.8936017, 36.1477924], [-95.8936014, 36.1477068], [-95.8937073, 36.1477066], [-95.8937076, 36.1477922]]]}, "properties": {"osm_id": 384547181, "building": "detached", "name": "", "height": null, "height_m": null, "levels": null, "tract_id": "40143007101", "tract_name": "71.01", "tags": {"building": "detached", "shop": "vacant"}}}, {"type": "Feature", "geometry": {"type": "Polygon", "coordinates": [[[-95.8930747, 36.1478077], [-95.8929456, 36.147808], [-95.8929453, 36.1476809], [-95.8930743, 36.1476807], [-95.8930747, 36.1478077]]]}, "properties": {"osm_id": 384547185, "building": "yes", "name": "Innovacion Auto Sales", "height": null, "height_m": null, "levels": null, "tract_id": "40143007101", "tract_name": "71.01", "tags": {"addr:city": "Tulsa", "addr:country": "US", "addr:housenumber": "7504", "addr:postcode": "74112", "addr:state": "OK", "addr:street": "East 11th Street South", "building": "yes", "name": "Innovacion Auto Sales", "shop": "car"}}}, {"type": "Feature", "geometry": {"type": "Polygon", "coordinates": [[[-95.902162, 36.1473205], [-95.9020075, 36.1473207], [-95.9020071, 36.147109], [-95.9021617, 36.1471088], [-95.902162, 36.1473205]]]}, "properties": {"osm_id": 384547186, "building": "yes", "name": "", "height": null, "height_m": null, "levels": null, "tract_id": "40143007101", "tract_name": "71.01", "tags": {"building": "yes"}}}, {"type": "Feature", "geometry": {"type": "Polygon", "coordinates": [[[-95.9007835, 36.1477501], [-95.9006026, 36.1477503], [-95.9006022, 36.1474708], [-95.9007832, 36.1474706], [-95.9007835, 36.1477501]]]}, "properties": {"osm_id": 384547187, "building": "retail", "name": "Coop's Wholesale", "height": null, "height_m": null, "levels": null, "tract_id": "40143007101", "tract_name": "71.01", "tags": {"addr:city": "Tulsa", "addr:country": "US", "addr:housenumber": "6746", "addr:postcode": "74112", "addr:state": "OK", "addr:street": "East 11th Street South", "building": "retail", "name": "Coop's Wholesale", "shop": "wholesale", "source": "INCOG"}}}, {"type": "Feature", "geometry": {"type": "Polygon", "coordinates": [[[-95.9004377, 36.1473125], [-95.9002589, 36.1473127], [-95.9002586, 36.147095], [-95.9004374, 36.1470949], [-95.9004377, 36.1473125]]]}, "properties": {"osm_id": 384547188, "building": "yes", "name": "", "height": null, "height_m": null, "levels": null, "tract_id": "40143007101", "tract_name": "71.01", "tags": {"building": "yes"}}}, {"type": "Feature", "geometry": {"type": "Polygon", "coordinates": [[[-95.8917103, 36.1476457], [-95.8916083, 36.1476456], [-95.8916083, 36.1474668], [-95.8917103, 36.1474668], [-95.8917103, 36.1476457]]]}, "properties": {"osm_id": 384547189, "building": "yes", "name": "", "height": null, "height_m": null, "levels": null, "tract_id": "40143007101", "tract_name": "71.01", "tags": {"addr:city": "Tulsa", "addr:country": "US", "addr:postcode": "74112", "addr:state": "OK", "addr:street": "East 11th Street South", "building": "yes"}}}, {"type": "Feature", "geometry": {"type": "Polygon", "coordinates": [[[-95.9018099, 36.147648], [-95.9018095, 36.147368], [-95.901979, 36.1473678], [-95.9019794, 36.1476479], [-95.9018099, 36.147648]]]}, "properties": {"osm_id": 384547191, "building": "yes", "name": "", "height": null, "height_m": null, "levels": null, "tract_id": "40143007101", "tract_name": "71.01", "tags": {"addr:city": "Tulsa", "addr:country": "US", "addr:housenumber": "6708", "addr:postcode": "74112", "addr:state": "OK", "addr:street": "East 11th Street South", "building": "yes", "source": "INCOG"}}}, {"type": "Feature", "geometry": {"type": "Polygon", "coordinates": [[[-95.8916004, 36.1475389], [-95.8915087, 36.1475389], [-95.8915088, 36.1474244], [-95.8916004, 36.1474244], [-95.8916004, 36.1475389]]]}, "properties": {"osm_id": 384547192, "building": "yes", "name": "", "height": null, "height_m": null, "levels": null, "tract_id": "40143007101", "tract_name": "71.01", "tags": {"building": "yes"}}}, {"type": "Feature", "geometry": {"type": "Polygon", "coordinates": [[[-95.8939576, 36.1476765], [-95.8940559, 36.1476763], [-95.8940562, 36.1477882], [-95.8939579, 36.1477883], [-95.8939576, 36.1476765]]]}, "properties": {"osm_id": 384547194, "building": "yes", "name": "Vanessa's Upholstry", "height": null, "height_m": null, "levels": null, "tract_id": "40143007101", "tract_name": "71.01", "tags": {"building": "yes", "name": "Vanessa's Upholstry", "phone": "+1 918 835 1190", "shop": "trade", "trade": "upholstry"}}}, {"type": "Feature", "geometry": {"type": "Polygon", "coordinates": [[[-95.8984481, 36.1472475], [-95.8985565, 36.1472474], [-95.8985571, 36.1476823], [-95.8984486, 36.1476824], [-95.8984481, 36.1472475]]]}, "properties": {"osm_id": 384547195, "building": "yes", "name": "", "height": null, "height_m": null, "levels": null, "tract_id": "40143007101", "tract_name": "71.01", "tags": {"building": "yes"}}}, {"type": "Feature", "geometry": {"type": "Polygon", "coordinates": [[[-95.8998046, 36.1475805], [-95.9000019, 36.1475803], [-95.900002, 36.1476894], [-95.8989768, 36.1476903], [-95.8989762, 36.147251], [-95.8998041, 36.1472503], [-95.8998046, 36.1475805]]]}, "properties": {"osm_id": 384547199, "building": "yes", "name": "", "height": null, "height_m": null, "levels": null, "tract_id": "40143007101", "tract_name": "71.01", "tags": {"addr:city": "Tulsa", "addr:country": "US", "addr:housenumber": "6902", "addr:postcode": "74112", "addr:state": "OK", "addr:street": "East 11th Street South", "building": "yes", "source": "INCOG"}}}, {"type": "Feature", "geometry": {"type": "Polygon", "coordinates": [[[-95.8997015, 36.1470225], [-95.8990686, 36.147023], [-95.8990677, 36.1463591], [-95.8994438, 36.1463588], [-95.8994444, 36.1468797], [-95.8997013, 36.1468794], [-95.8997015, 36.1470225]]]}, "properties": {"osm_id": 384547206, "building": "yes", "name": "", "height": null, "height_m": null, "levels": null, "tract_id": "40143007101", "tract_name": "71.01", "tags": {"building": "yes"}}}, {"type": "Feature", "geometry": {"type": "Polygon", "coordinates": [[[-95.9019505, 36.147342], [-95.9018052, 36.1473419], [-95.9018052, 36.1473851], [-95.9016395, 36.1473849], [-95.9016398, 36.1471764], [-95.9019508, 36.1471766], [-95.9019505, 36.147342]]]}, "properties": {"osm_id": 384547208, "building": "yes", "name": "", "height": null, "height_m": null, "levels": null, "tract_id": "40143007101", "tract_name": "71.01", "tags": {"building": "yes"}}}, {"type": "Feature", "geometry": {"type": "Polygon", "coordinates": [[[-95.8953491, 36.1476563], [-95.8951934, 36.1476565], [-95.8951929, 36.1474952], [-95.8955258, 36.1474946], [-95.8955267, 36.147808], [-95.8953495, 36.1478084], [-95.8953491, 36.1476563]]]}, "properties": {"osm_id": 384547210, "building": "retail", "name": "Doc's Corvettes of Oklahoma", "height": null, "height_m": null, "levels": null, "tract_id": "40143007101", "tract_name": "71.01", "tags": {"addr:city": "Tulsa", "addr:country": "US", "addr:housenumber": "7300", "addr:postcode": "74112", "addr:state": "OK", "addr:street": "East 11th Street South", "building": "retail", "name": "Doc's Corvettes of Oklahoma", "phone": "+1 918 438 3340", "shop": "car", "website": "https://www.docscorvettes.com/"}}}, {"type": "Feature", "geometry": {"type": "Polygon", "coordinates": [[[-95.9011137, 36.1476582], [-95.9011135, 36.1475304], [-95.9008326, 36.1475306], [-95.9008321, 36.1471404], [-95.9015278, 36.1471399], [-95.9015283, 36.1475299], [-95.901326, 36.1475301], [-95.9013261, 36.147658], [-95.9011137, 36.1476582]]]}, "properties": {"osm_id": 384547216, "building": "yes", "name": "", "height": null, "height_m": null, "levels": null, "tract_id": "40143007101", "tract_name": "71.01", "tags": {"addr:city": "Tulsa", "addr:country": "US", "addr:housenumber": "6728", "addr:postcode": "74112", "addr:state": "OK", "addr:street": "East 11th Street South", "building": "yes", "source": "INCOG"}}}, {"type": "Feature", "geometry": {"type": "Polygon", "coordinates": [[[-95.8929233, 36.1478271], [-95.8926697, 36.1478284], [-95.8926696, 36.1478216], [-95.8926684, 36.1476689], [-95.8926683, 36.1476422], [-95.8928133, 36.147642], [-95.8929218, 36.1476412], [-95.8929233, 36.1478271]]]}, "properties": {"osm_id": 384547222, "building": "detached", "name": "Bissland Chiropractic", "height": null, "height_m": null, "levels": null, "tract_id": "40143007101", "tract_name": "71.01", "tags": {"building": "detached", "healthcare": "alternative", "healthcare:speciality": "chiropractic", "name": "Bissland Chiropractic", "phone": "+1 918 838 4252"}}}, {"type": "Feature", "geometry": {"type": "Polygon", "coordinates": [[[-95.8999921, 36.1468093], [-95.8998317, 36.1468094], [-95.8998317, 36.14678], [-95.8995423, 36.1467802], [-95.8995418, 36.1464235], [-95.899838, 36.1464232], [-95.8998382, 36.146568], [-95.8999918, 36.1465679], [-95.8999921, 36.1468093]]]}, "properties": {"osm_id": 384547224, "building": "yes", "name": "", "height": null, "height_m": null, "levels": null, "tract_id": "40143007101", "tract_name": "71.01", "tags": {"building": "yes"}}}, {"type": "Feature", "geometry": {"type": "Polygon", "coordinates": [[[-95.896096, 36.1474791], [-95.895936, 36.1474794], [-95.8959359, 36.1474628], [-95.8959001, 36.1474629], [-95.8958997, 36.1473348], [-95.8961273, 36.1473344], [-95.8961277, 36.1474629], [-95.8960959, 36.1474629], [-95.896096, 36.1474791]]]}, "properties": {"osm_id": 384547226, "building": "retail", "name": "Kings Mart", "height": null, "height_m": null, "levels": null, "tract_id": "40143007101", "tract_name": "71.01", "tags": {"addr:city": "Tulsa", "addr:country": "US", "addr:housenumber": "7138", "addr:postcode": "74112", "addr:state": "OK", "addr:street": "East 11th Street South", "building": "retail", "name": "Kings Mart", "shop": "convenience"}}}, {"type": "Feature", "geometry": {"type": "Polygon", "coordinates": [[[-95.8909141, 36.1477418], [-95.8908172, 36.1477418], [-95.8908172, 36.1477259], [-95.8908025, 36.1477259], [-95.8908025, 36.1476244], [-95.8909226, 36.1476245], [-95.8909225, 36.1477259], [-95.8909141, 36.1477259], [-95.8909141, 36.1477418]]]}, "properties": {"osm_id": 384547229, "building": "detached", "name": "", "height": null, "height_m": null, "levels": null, "tract_id": "40143007101", "tract_name": "71.01", "tags": {"addr:city": "Tulsa", "addr:country": "US", "addr:housenumber": "7702", "addr:postcode": "74112", "addr:state": "OK", "addr:street": "East 11th Street South", "building": "detached", "shop": "vacant", "source": "INCOG"}}}, {"type": "Feature", "geometry": {"type": "Polygon", "coordinates": [[[-95.8970819, 36.1474046], [-95.8972021, 36.1474044], [-95.8972026, 36.147579], [-95.8967469, 36.1475799], [-95.8967464, 36.1474045], [-95.8968046, 36.1474044], [-95.8968034, 36.1470072], [-95.8970807, 36.1470066], [-95.8970819, 36.1474046]]]}, "properties": {"osm_id": 384547230, "building": "yes", "name": "Ferguson", "height": null, "height_m": null, "levels": null, "tract_id": "40143007101", "tract_name": "71.01", "tags": {"addr:city": "Tulsa", "addr:country": "US", "addr:housenumber": "7102", "addr:postcode": "74112", "addr:state": "OK", "addr:street": "East 11th Street South", "brand": "Ferguson", "brand:wikidata": "Q5444235", "building": "yes", "name": "Ferguson", "shop": "trade", "trade": "plumbing"}}}, {"type": "Feature", "geometry": {"type": "Polygon", "coordinates": [[[-95.89716, 36.1398897], [-95.8969996, 36.1399654], [-95.8970675, 36.1400671], [-95.8963887, 36.14039], [-95.8960876, 36.1400003], [-95.8963246, 36.1398847], [-95.8961333, 36.1396405], [-95.8963418, 36.1395389], [-95.8963665, 36.1395627], [-95.8964174, 36.1395754], [-95.8964092, 36.1396184], [-95.8965283, 36.1397908], [-95.8967808, 36.1396698], [-95.8968864, 36.1398144], [-95.8970557, 36.1397388], [-95.89716, 36.1398897]]]}, "properties": {"osm_id": 522636387, "building": "school", "name": "Jones Elementary School", "height": null, "height_m": null, "levels": null, "tract_id": "40143007101", "tract_name": "71.01", "tags": {"building": "school", "name": "Jones Elementary School"}}}, {"type": "Feature", "geometry": {"type": "Polygon", "coordinates": [[[-95.897278, 36.140064], [-95.897164, 36.1399047], [-95.8970843, 36.1399419], [-95.8971308, 36.1400068], [-95.8971085, 36.1400173], [-95.8971303, 36.1400477], [-95.8971569, 36.1400353], [-95.8972026, 36.1400991], [-95.897278, 36.140064]]]}, "properties": {"osm_id": 522636397, "building": "school", "name": "", "height": null, "height_m": null, "levels": null, "tract_id": "40143007101", "tract_name": "71.01", "tags": {"building": "school"}}}, {"type": "Feature", "geometry": {"type": "Polygon", "coordinates": [[[-95.8960404, 36.1399042], [-95.8958329, 36.1399845], [-95.8958683, 36.1400442], [-95.8959485, 36.1400132], [-95.8959608, 36.140034], [-95.8960148, 36.1400131], [-95.8960005, 36.1399889], [-95.8960738, 36.1399605], [-95.8960404, 36.1399042]]]}, "properties": {"osm_id": 522636399, "building": "school", "name": "", "height": null, "height_m": null, "levels": null, "tract_id": "40143007101", "tract_name": "71.01", "tags": {"building": "school"}}}, {"type": "Feature", "geometry": {"type": "Polygon", "coordinates": [[[-95.8960102, 36.1400308], [-95.8958339, 36.1401079], [-95.8958743, 36.1401683], [-95.8959284, 36.1401446], [-95.8959413, 36.1401638], [-95.8959956, 36.14014], [-95.895979, 36.1401152], [-95.8960469, 36.1400856], [-95.8960102, 36.1400308]]]}, "properties": {"osm_id": 522636401, "building": "school", "name": "", "height": null, "height_m": null, "levels": null, "tract_id": "40143007101", "tract_name": "71.01", "tags": {"building": "school"}}}, {"type": "Feature", "geometry": {"type": "Polygon", "coordinates": [[[-95.9023082, 36.1341402], [-95.9030782, 36.1341388], [-95.9030789, 36.1343709], [-95.9031154, 36.1343708], [-95.9031169, 36.1349254], [-95.9030804, 36.1349255], [-95.9030809, 36.1351223], [-95.9021648, 36.1351239], [-95.902163, 36.1344957], [-95.9023092, 36.1344954], [-95.9023082, 36.1341402]]]}, "properties": {"osm_id": 526930055, "building": "commercial", "name": "AT&T", "height": null, "height_m": null, "levels": null, "tract_id": "40143007101", "tract_name": "71.01", "tags": {"addr:city": "Tulsa", "addr:housenumber": "2029", "addr:postcode": "74112", "addr:state": "OK", "addr:street": "South Sheridan Road", "brand": "AT&T", "brand:wikidata": "Q35476", "building": "commercial", "description": "This is a call center.", "name": "AT&T", "office": "telecommunication"}}}, {"type": "Feature", "geometry": {"type": "Polygon", "coordinates": [[[-95.9029795, 36.1356675], [-95.9029647, 36.1356552], [-95.9029757, 36.1356466], [-95.9027402, 36.1354506], [-95.9027302, 36.1354584], [-95.9027123, 36.1354435], [-95.9025989, 36.1355324], [-95.9026189, 36.135549], [-95.9026114, 36.1355549], [-95.9028411, 36.1357461], [-95.9028498, 36.1357392], [-95.9028683, 36.1357546], [-95.9029795, 36.1356675]]]}, "properties": {"osm_id": 674520120, "building": "apartments", "name": "", "height": null, "height_m": null, "levels": null, "tract_id": "40143007101", "tract_name": "71.01", "tags": {"building": "apartments"}}}, {"type": "Feature", "geometry": {"type": "Polygon", "coordinates": [[[-95.902512, 36.1356701], [-95.9024972, 36.1356578], [-95.9025082, 36.1356491], [-95.9022727, 36.1354531], [-95.9022627, 36.135461], [-95.9022448, 36.1354461], [-95.9021314, 36.1355349], [-95.9021514, 36.1355516], [-95.9021439, 36.1355575], [-95.9023736, 36.1357486], [-95.9023823, 36.1357418], [-95.9024008, 36.1357572], [-95.902512, 36.1356701]]]}, "properties": {"osm_id": 674520122, "building": "apartments", "name": "", "height": null, "height_m": null, "levels": null, "tract_id": "40143007101", "tract_name": "71.01", "tags": {"building": "apartments"}}}, {"type": "Feature", "geometry": {"type": "Polygon", "coordinates": [[[-95.9032053, 36.136373], [-95.9032055, 36.1363558], [-95.9032208, 36.1363559], [-95.9032227, 36.1360828], [-95.9032087, 36.1360827], [-95.9032089, 36.1360619], [-95.9030508, 36.1360612], [-95.9030507, 36.1360844], [-95.9030402, 36.1360844], [-95.9030384, 36.1363507], [-95.9030506, 36.1363508], [-95.9030504, 36.1363723], [-95.9032053, 36.136373]]]}, "properties": {"osm_id": 674520125, "building": "apartments", "name": "", "height": null, "height_m": null, "levels": null, "tract_id": "40143007101", "tract_name": "71.01", "tags": {"building": "apartments"}}}, {"type": "Feature", "geometry": {"type": "Polygon", "coordinates": [[[-95.9029607, 36.1363734], [-95.9029608, 36.1363563], [-95.9029761, 36.1363564], [-95.902978, 36.1360833], [-95.9029641, 36.1360832], [-95.9029642, 36.1360624], [-95.9028062, 36.1360617], [-95.902806, 36.1360849], [-95.9027955, 36.1360849], [-95.9027938, 36.1363512], [-95.9028059, 36.1363513], [-95.9028058, 36.1363728], [-95.9029607, 36.1363734]]]}, "properties": {"osm_id": 674520126, "building": "apartments", "name": "", "height": null, "height_m": null, "levels": null, "tract_id": "40143007101", "tract_name": "71.01", "tags": {"building": "apartments"}}}, {"type": "Feature", "geometry": {"type": "Polygon", "coordinates": [[[-95.9032215, 36.1357501], [-95.9032216, 36.1357329], [-95.9032369, 36.135733], [-95.9032388, 36.1354599], [-95.9032248, 36.1354598], [-95.903225, 36.135439], [-95.9030669, 36.1354383], [-95.9030668, 36.1354615], [-95.9030563, 36.1354615], [-95.9030545, 36.1357278], [-95.9030667, 36.1357279], [-95.9030665, 36.1357494], [-95.9032215, 36.1357501]]]}, "properties": {"osm_id": 674520129, "building": "apartments", "name": "", "height": null, "height_m": null, "levels": null, "tract_id": "40143007101", "tract_name": "71.01", "tags": {"building": "apartments"}}}, {"type": "Feature", "geometry": {"type": "Polygon", "coordinates": [[[-95.9037517, 36.1360467], [-95.9037105, 36.1360467], [-95.9037104, 36.1360249], [-95.9034973, 36.136025], [-95.9034976, 36.1364846], [-95.9041123, 36.1364843], [-95.9041122, 36.1362979], [-95.9040865, 36.1362979], [-95.9040865, 36.1362698], [-95.9037519, 36.1362699], [-95.9037517, 36.1360467]]]}, "properties": {"osm_id": 674520131, "building": "yes", "name": "", "height": null, "height_m": null, "levels": null, "tract_id": "40143007101", "tract_name": "71.01", "tags": {"building": "yes"}}}, {"type": "Feature", "geometry": {"type": "Polygon", "coordinates": [[[-95.9041205, 36.1355937], [-95.9041196, 36.1353369], [-95.9038054, 36.1353377], [-95.9038064, 36.1355944], [-95.9041205, 36.1355937]]]}, "properties": {"osm_id": 674520134, "building": "retail", "name": "O'Reilly Auto Parts", "height": null, "height_m": 3.0, "levels": 1, "tract_id": "40143007101", "tract_name": "71.01", "tags": {"addr:housenumber": "1905", "addr:street": "South Sheridan Road", "brand": "O'Reilly Auto Parts", "brand:wikidata": "Q7071951", "building": "retail", "building:levels": "1", "check_date": "2023-07-19", "name": "O'Reilly Auto Parts", "roof:levels": "0", "roof:shape": "flat", "shop": "car_parts", "website": "https://locations.oreillyauto.com/ok/tulsa/autoparts-6355.html"}}}, {"type": "Feature", "geometry": {"type": "Polygon", "coordinates": [[[-95.903452, 36.1445369], [-95.9034517, 36.1444006], [-95.9035555, 36.1444005], [-95.9035556, 36.1444547], [-95.9040032, 36.1444541], [-95.9040032, 36.1444605], [-95.9042729, 36.1444603], [-95.9042729, 36.1444529], [-95.9043453, 36.1444529], [-95.9043455, 36.1449433], [-95.9041378, 36.1449433], [-95.9041378, 36.1449774], [-95.9039899, 36.1449775], [-95.9039899, 36.1449553], [-95.903937, 36.1449553], [-95.903937, 36.1448489], [-95.9039868, 36.1448489], [-95.9039868, 36.1448436], [-95.9040883, 36.1448435], [-95.9040882, 36.144745], [-95.9040582, 36.144745], [-95.9040581, 36.1446849], [-95.9040703, 36.1446849], [-95.9040703, 36.1446623], [-95.904087, 36.1446623], [-95.9040868, 36.1445443], [-95.9040033, 36.1445444], [-95.9040033, 36.1445362], [-95.903452, 36.1445369]]]}, "properties": {"osm_id": 800540131, "building": "yes", "name": "", "height": null, "height_m": null, "levels": null, "tract_id": "40143007101", "tract_name": "71.01", "tags": {"building": "yes"}}}, {"type": "Feature", "geometry": {"type": "Polygon", "coordinates": [[[-95.9026759, 36.14368], [-95.9017356, 36.1436853], [-95.9017373, 36.1438798], [-95.9020106, 36.1438782], [-95.9020109, 36.1439108], [-95.902148, 36.1439101], [-95.9021491, 36.1440462], [-95.9025579, 36.144044], [-95.9025567, 36.143906], [-95.9026778, 36.1439053], [-95.9026759, 36.14368]]]}, "properties": {"osm_id": 800540135, "building": "yes", "name": "", "height": null, "height_m": null, "levels": null, "tract_id": "40143007101", "tract_name": "71.01", "tags": {"building": "yes"}}}, {"type": "Feature", "geometry": {"type": "Polygon", "coordinates": [[[-95.9034805, 36.144045], [-95.9039877, 36.1440427], [-95.9039878, 36.1440612], [-95.9040563, 36.1440609], [-95.9040564, 36.1440708], [-95.9041569, 36.1440704], [-95.904158, 36.1442414], [-95.904017, 36.144242], [-95.9040167, 36.144203], [-95.9040555, 36.1442029], [-95.9040554, 36.1441816], [-95.9034815, 36.1441842], [-95.9034805, 36.144045]]]}, "properties": {"osm_id": 800540136, "building": "yes", "name": "", "height": null, "height_m": null, "levels": null, "tract_id": "40143007101", "tract_name": "71.01", "tags": {"building": "yes"}}}, {"type": "Feature", "geometry": {"type": "Polygon", "coordinates": [[[-95.903805, 36.1426136], [-95.903805, 36.1428429], [-95.903667, 36.1428429], [-95.9036669, 36.1426136], [-95.903805, 36.1426136]]]}, "properties": {"osm_id": 800540137, "building": "yes", "name": "", "height": null, "height_m": null, "levels": null, "tract_id": "40143007101", "tract_name": "71.01", "tags": {"building": "yes"}}}, {"type": "Feature", "geometry": {"type": "Polygon", "coordinates": [[[-95.9035572, 36.1427358], [-95.9030986, 36.1427293], [-95.9030851, 36.1433599], [-95.9031946, 36.1433614], [-95.9035539, 36.1433664], [-95.9035544, 36.1433417], [-95.903585, 36.1433421], [-95.9035839, 36.1433938], [-95.9042456, 36.143403], [-95.9042531, 36.1430532], [-95.904254, 36.1430132], [-95.9038499, 36.1430075], [-95.9038484, 36.1430787], [-95.9035872, 36.1430751], [-95.9035821, 36.1433106], [-95.9035449, 36.1433101], [-95.9035572, 36.1427358]]]}, "properties": {"osm_id": 800540138, "building": "yes", "name": "Heatwave Showroom For Kitchen & Bath", "height": null, "height_m": null, "levels": null, "tract_id": "40143007101", "tract_name": "71.01", "tags": {"building": "yes", "name": "Heatwave Showroom For Kitchen & Bath", "shop": "trade"}}}, {"type": "Feature", "geometry": {"type": "Polygon", "coordinates": [[[-95.902894, 36.1434065], [-95.9013903, 36.1434159], [-95.9013915, 36.1432141], [-95.901444, 36.1432132], [-95.9014405, 36.1431246], [-95.9013599, 36.1431227], [-95.9013588, 36.143084], [-95.9013378, 36.143084], [-95.9013383, 36.1429161], [-95.9013845, 36.1429148], [-95.9013853, 36.1428663], [-95.9014407, 36.1428675], [-95.9014392, 36.1427394], [-95.901785, 36.1427388], [-95.9017843, 36.1432619], [-95.9021601, 36.1432563], [-95.9021586, 36.1430212], [-95.902211, 36.1430206], [-95.9022117, 36.1429602], [-95.9020546, 36.1429608], [-95.9020523, 36.1428327], [-95.902322, 36.1428335], [-95.9023216, 36.1428547], [-95.9023493, 36.1428547], [-95.9023495, 36.1428336], [-95.9024058, 36.1428338], [-95.9024058, 36.1428408], [-95.9024223, 36.1428409], [-95.902422, 36.142881], [-95.9024359, 36.1428813], [-95.9024367, 36.1430191], [-95.9024824, 36.1430192], [-95.9024847, 36.1431853], [-95.9027514, 36.1431851], [-95.9027528, 36.1432133], [-95.9027881, 36.1432132], [-95.9027874, 36.14324], [-95.9028235, 36.1432403], [-95.9028235, 36.143257], [-95.9028663, 36.1432552], [-95.9028918, 36.1432738], [-95.902894, 36.1434065]]]}, "properties": {"osm_id": 800540139, "building": "yes", "name": "", "height": null, "height_m": null, "levels": null, "tract_id": "40143007101", "tract_name": "71.01", "tags": {"building": "yes"}}}, {"type": "Feature", "geometry": {"type": "Polygon", "coordinates": [[[-95.9024982, 36.1431744], [-95.9024987, 36.1429971], [-95.9025916, 36.1429976], [-95.9025933, 36.1431735], [-95.9024982, 36.1431744]]]}, "properties": {"osm_id": 800540140, "building": "yes", "name": "", "height": null, "height_m": null, "levels": null, "tract_id": "40143007101", "tract_name": "71.01", "tags": {"building": "yes"}}}, {"type": "Feature", "geometry": {"type": "Polygon", "coordinates": [[[-95.9026812, 36.1429789], [-95.9027122, 36.1430298], [-95.9027524, 36.1430873], [-95.9028038, 36.1431439], [-95.9028622, 36.1431934], [-95.9029246, 36.1432401], [-95.9029894, 36.1432835], [-95.9030572, 36.1433259], [-95.9030737, 36.1433096], [-95.9030055, 36.143267], [-95.9029408, 36.1432232], [-95.9028819, 36.1431796], [-95.9028869, 36.1431753], [-95.9028299, 36.1431255], [-95.9027821, 36.1430727], [-95.9027428, 36.1430173], [-95.9027136, 36.1429688], [-95.9026812, 36.1429789]]]}, "properties": {"osm_id": 800540141, "building": "yes", "name": "", "height": null, "height_m": null, "levels": null, "tract_id": "40143007101", "tract_name": "71.01", "tags": {"building": "yes"}}}, {"type": "Feature", "geometry": {"type": "Polygon", "coordinates": [[[-95.9035889, 36.1390359], [-95.9035903, 36.1393845], [-95.9038358, 36.1393839], [-95.9038343, 36.1390352], [-95.9035889, 36.1390359]]]}, "properties": {"osm_id": 840257490, "building": "yes", "name": "", "height": null, "height_m": null, "levels": null, "tract_id": "40143007101", "tract_name": "71.01", "tags": {"building": "yes"}}}, {"type": "Feature", "geometry": {"type": "Polygon", "coordinates": [[[-95.9035145, 36.13941], [-95.9035128, 36.1401524], [-95.90411, 36.1401546], [-95.9041091, 36.139996], [-95.903666, 36.140001], [-95.9036653, 36.1395631], [-95.903874, 36.1395631], [-95.9039179, 36.1395295], [-95.9039195, 36.1394132], [-95.9035145, 36.13941]]]}, "properties": {"osm_id": 840257491, "building": "yes", "name": "", "height": null, "height_m": null, "levels": null, "tract_id": "40143007101", "tract_name": "71.01", "tags": {"building": "yes"}}}, {"type": "Feature", "geometry": {"type": "Polygon", "coordinates": [[[-95.9039548, 36.1397169], [-95.9039529, 36.1396567], [-95.9039874, 36.139656], [-95.9039892, 36.1397162], [-95.9039548, 36.1397169]]]}, "properties": {"osm_id": 840257492, "building": "yes", "name": "", "height": null, "height_m": null, "levels": null, "tract_id": "40143007101", "tract_name": "71.01", "tags": {"building": "yes"}}}, {"type": "Feature", "geometry": {"type": "Polygon", "coordinates": [[[-95.9039938, 36.1397407], [-95.9039942, 36.1395977], [-95.9041402, 36.139598], [-95.9041397, 36.139741], [-95.9039938, 36.1397407]]]}, "properties": {"osm_id": 840257493, "building": "yes", "name": "", "height": null, "height_m": null, "levels": null, "tract_id": "40143007101", "tract_name": "71.01", "tags": {"building": "yes"}}}, {"type": "Feature", "geometry": {"type": "Polygon", "coordinates": [[[-95.9019003, 36.1409355], [-95.9019033, 36.1412191], [-95.9025707, 36.1412173], [-95.9025716, 36.1415603], [-95.9028963, 36.1415596], [-95.9028945, 36.1415174], [-95.9042102, 36.1415146], [-95.9042084, 36.1410951], [-95.9042943, 36.1410723], [-95.9042916, 36.1410051], [-95.9042376, 36.1410051], [-95.9042385, 36.1409965], [-95.9041943, 36.1409951], [-95.9041925, 36.1409415], [-95.9019003, 36.1409355]]]}, "properties": {"osm_id": 972012890, "building": "industrial", "name": "", "height": null, "height_m": null, "levels": null, "tract_id": "40143007101", "tract_name": "71.01", "tags": {"building": "industrial"}}}, {"type": "Feature", "geometry": {"type": "Polygon", "coordinates": [[[-95.8954042, 36.1411401], [-95.8952232, 36.1411408], [-95.8952231, 36.141119], [-95.8951226, 36.1411194], [-95.8950002, 36.1411198], [-95.8950001, 36.1411114], [-95.8949672, 36.1411115], [-95.8949663, 36.1409581], [-95.8949999, 36.1409579], [-95.8949999, 36.1409529], [-95.8951234, 36.1409524], [-95.8952064, 36.1409521], [-95.8952062, 36.140916], [-95.8952533, 36.1409159], [-95.8952532, 36.1408954], [-95.8954151, 36.1408948], [-95.8954155, 36.1409593], [-95.8954476, 36.1409591], [-95.895448, 36.1410257], [-95.8954036, 36.1410259], [-95.8954042, 36.1411401]]]}, "properties": {"osm_id": 1025923811, "building": "fire_station", "name": "Fire Station #22", "height": null, "height_m": null, "levels": null, "tract_id": "40143007101", "tract_name": "71.01", "tags": {"addr:city": "Tulsa", "addr:country": "US", "addr:housenumber": "7305", "addr:postcode": "74112", "addr:state": "OK", "addr:street": "East 15th Street", "amenity": "fire_station", "building": "fire_station", "name": "Fire Station #22", "operator": "Tulsa Fire Department", "ref": "22"}}}, {"type": "Feature", "geometry": {"type": "Polygon", "coordinates": [[[-95.8948644, 36.1422318], [-95.8947397, 36.1422321], [-95.894739, 36.1420518], [-95.8948638, 36.1420515], [-95.8948644, 36.1422318]]]}, "properties": {"osm_id": 1025933560, "building": "yes", "name": "", "height": null, "height_m": null, "levels": null, "tract_id": "40143007101", "tract_name": "71.01", "tags": {"building": "yes"}}}, {"type": "Feature", "geometry": {"type": "Polygon", "coordinates": [[[-95.8953146, 36.1438726], [-95.8953115, 36.1436696], [-95.8954428, 36.1436682], [-95.895444, 36.1437443], [-95.8954696, 36.143744], [-95.8954704, 36.1437954], [-95.8954448, 36.1437957], [-95.895446, 36.1438713], [-95.8953146, 36.1438726]]]}, "properties": {"osm_id": 1025933565, "building": "church", "name": "Maranatha Assembly of God Church", "height": null, "height_m": null, "levels": null, "tract_id": "40143007101", "tract_name": "71.01", "tags": {"addr:city": "Tulsa", "addr:country": "US", "addr:housenumber": "1315", "addr:postcode": "74112", "addr:state": "OK", "addr:street": "South 73rd East Avenue", "amenity": "place_of_worship", "building": "church", "denomination": "pentecostal", "ele": "204", "gnis:feature_id": "1789814", "name": "Maranatha Assembly of God Church", "religion": "christian"}}}, {"type": "Feature", "geometry": {"type": "Polygon", "coordinates": [[[-95.8954793, 36.1423715], [-95.8950917, 36.1423726], [-95.8950909, 36.1421842], [-95.895132, 36.1421841], [-95.8951316, 36.1421043], [-95.8951588, 36.1421043], [-95.8951578, 36.1418573], [-95.8953224, 36.1418568], [-95.8953238, 36.1421836], [-95.8954785, 36.1421831], [-95.8954793, 36.1423715]]]}, "properties": {"osm_id": 1025933567, "building": "yes", "name": "", "height": null, "height_m": null, "levels": null, "tract_id": "40143007101", "tract_name": "71.01", "tags": {"addr:city": "Tulsa", "addr:country": "US", "addr:housenumber": "1407", "addr:postcode": "74112", "addr:state": "OK", "addr:street": "South 73rd East Avenue", "building": "yes"}}}, {"type": "Feature", "geometry": {"type": "Polygon", "coordinates": [[[-95.9041599, 36.1366884], [-95.9041594, 36.1368431], [-95.9041429, 36.1368431], [-95.9041429, 36.1368472], [-95.9039978, 36.1368469], [-95.9039978, 36.1368428], [-95.9039012, 36.1368426], [-95.9039011, 36.136849], [-95.9038741, 36.1368489], [-95.9038741, 36.1368425], [-95.9038344, 36.1368424], [-95.9038345, 36.1368029], [-95.9038536, 36.1368029], [-95.9038539, 36.1367265], [-95.9038358, 36.1367264], [-95.903836, 36.1366877], [-95.9040277, 36.1366881], [-95.9040278, 36.1366617], [-95.9040915, 36.1366618], [-95.9040914, 36.1366883], [-95.9041599, 36.1366884]]]}, "properties": {"osm_id": 1173558931, "building": "commercial", "name": "Braum's", "height": null, "height_m": null, "levels": null, "tract_id": "40143007101", "tract_name": "71.01", "tags": {"addr:housenumber": "1803", "addr:postcode": "74112", "addr:street": "South Sheridan Road", "amenity": "fast_food", "brand": "Braum's", "brand:wikidata": "Q4958263", "building": "commercial", "cuisine": "ice_cream;burger", "indoor_seating": "yes", "name": "Braum's", "outdoor_seating": "no", "phone": "+1-918-834-8040", "ref": "16", "shop": "dairy", "takeaway": "yes"}}}, {"type": "Feature", "geometry": {"type": "Polygon", "coordinates": [[[-95.8882434, 36.1413638], [-95.8882419, 36.1411472], [-95.8885948, 36.1411456], [-95.8885949, 36.1411634], [-95.8886328, 36.1411633], [-95.8886322, 36.1410768], [-95.8886665, 36.1410766], [-95.8886663, 36.1410398], [-95.8886319, 36.14104], [-95.8886317, 36.1410122], [-95.8886, 36.1410123], [-95.8886001, 36.1410362], [-95.8883655, 36.1410372], [-95.8883652, 36.1410021], [-95.8882156, 36.1410027], [-95.8882156, 36.1409908], [-95.8878999, 36.1409923], [-95.8879014, 36.1412129], [-95.8878726, 36.141213], [-95.887873, 36.1412726], [-95.887692, 36.1412734], [-95.8876909, 36.141119], [-95.8876131, 36.1411193], [-95.8876132, 36.1411357], [-95.8875836, 36.1411358], [-95.8875835, 36.1411221], [-95.8873392, 36.1411232], [-95.8873413, 36.1414146], [-95.8877716, 36.1414127], [-95.8877713, 36.1413659], [-95.8882434, 36.1413638]]]}, "properties": {"osm_id": 1225320469, "building": "church", "name": "Memorial Drive United Methodist Church", "height": null, "height_m": null, "levels": null, "tract_id": "40143007101", "tract_name": "71.01", "tags": {"addr:city": "Tulsa", "addr:country": "US", "addr:housenumber": "7903", "addr:postcode": "74112", "addr:state": "OK", "addr:street": "East 15th Street", "amenity": "place_of_worship", "building": "church", "denomination": "methodist", "ele": "203", "gnis:feature_id": "1789821", "name": "Memorial Drive United Methodist Church", "phone": "+1 918 835 8426", "religion": "christian", "service_times": "Su 10:00", "website": "https://www.mdumctulsa.com/"}}}, {"type": "Feature", "geometry": {"type": "Polygon", "coordinates": [[[-95.8877982, 36.1404489], [-95.8877976, 36.1403626], [-95.8876155, 36.1403632], [-95.887616, 36.140448], [-95.8876347, 36.1404479], [-95.8876352, 36.1405439], [-95.8876457, 36.1405439], [-95.8876458, 36.140565], [-95.8877273, 36.1405647], [-95.8877271, 36.1405436], [-95.887737, 36.1405436], [-95.8877365, 36.1404491], [-95.8877982, 36.1404489]]]}, "properties": {"osm_id": 1225320480, "building": "detached", "name": "", "height": null, "height_m": null, "levels": null, "tract_id": "40143007101", "tract_name": "71.01", "tags": {"addr:city": "Tulsa", "addr:country": "US", "addr:housenumber": "7924", "addr:postcode": "74112", "addr:state": "OK", "addr:street": "East 15th Street South", "building": "detached", "shop": "car"}}}, {"type": "Feature", "geometry": {"type": "Polygon", "coordinates": [[[-95.887386, 36.1420773], [-95.8877615, 36.1420748], [-95.8877602, 36.1419491], [-95.8874839, 36.141951], [-95.8874842, 36.1419792], [-95.887385, 36.1419799], [-95.887386, 36.1420773]]]}, "properties": {"osm_id": 1225320481, "building": "industrial", "name": "West Termite, Pest & Lawn", "height": null, "height_m": null, "levels": null, "tract_id": "40143007101", "tract_name": "71.01", "tags": {"addr:city": "Tulsa", "addr:country": "US", "addr:housenumber": "1420", "addr:postcode": "74112", "addr:state": "OK", "addr:street": "South Memorial Drive East", "building": "industrial", "name": "West Termite, Pest & Lawn", "phone": "+1 918 995 2461", "shop": "pest_control"}}}, {"type": "Feature", "geometry": {"type": "Polygon", "coordinates": [[[-95.8883567, 36.141933], [-95.888358, 36.142008], [-95.8885015, 36.1420063], [-95.8885027, 36.1420778], [-95.8886033, 36.1420766], [-95.8886021, 36.1420102], [-95.8886785, 36.1420093], [-95.8886771, 36.1419292], [-95.8883567, 36.141933]]]}, "properties": {"osm_id": 1225320486, "building": "detached", "name": "", "height": null, "height_m": null, "levels": null, "tract_id": "40143007101", "tract_name": "71.01", "tags": {"addr:city": "Tulsa", "addr:country": "US", "addr:housenumber": "1415", "addr:postcode": "74112", "addr:state": "OK", "addr:street": "South 79th Avenue East", "building": "detached"}}}, {"type": "Feature", "geometry": {"type": "Polygon", "coordinates": [[[-95.8883092, 36.1436118], [-95.8883918, 36.1436197], [-95.8884072, 36.1435144], [-95.8883247, 36.1435065], [-95.8883092, 36.1436118]]]}, "properties": {"osm_id": 1225320487, "building": "yes", "name": "", "height": null, "height_m": null, "levels": null, "tract_id": "40143007101", "tract_name": "71.01", "tags": {"building": "yes", "source": "microsoft/BuildingFootprints"}}}, {"type": "Feature", "geometry": {"type": "Polygon", "coordinates": [[[-95.8883214, 36.1396348], [-95.8881905, 36.1396368], [-95.888192, 36.1396978], [-95.8882185, 36.1396974], [-95.8882186, 36.1397027], [-95.8882193, 36.139733], [-95.8882195, 36.1397399], [-95.888193, 36.1397403], [-95.8881945, 36.139803], [-95.8883255, 36.139801], [-95.8883214, 36.1396348]]]}, "properties": {"osm_id": 1225320488, "building": "semidetached_house", "name": "", "height": null, "height_m": null, "levels": null, "tract_id": "40143007101", "tract_name": "71.01", "tags": {"building": "semidetached_house"}}}, {"type": "Feature", "geometry": {"type": "Polygon", "coordinates": [[[-95.8870337, 36.1421063], [-95.8870345, 36.1422035], [-95.887047, 36.1422034], [-95.8870473, 36.1422492], [-95.8870178, 36.1422493], [-95.8870192, 36.1424261], [-95.8873705, 36.1424243], [-95.887371, 36.1424815], [-95.887489, 36.1424809], [-95.8874868, 36.1421928], [-95.8873596, 36.1421935], [-95.88736, 36.1422426], [-95.8872955, 36.1422429], [-95.8872952, 36.1422034], [-95.8873498, 36.1422031], [-95.887349, 36.1421047], [-95.8870337, 36.1421063]]]}, "properties": {"osm_id": 1225320490, "building": "church", "name": "Southeast Baptist Church", "height": null, "height_m": null, "levels": null, "tract_id": "40143007101", "tract_name": "71.01", "tags": {"addr:city": "Tulsa", "addr:country": "US", "addr:housenumber": "1402", "addr:postcode": "74112", "addr:state": "OK", "addr:street": "South Memorial Drive East", "amenity": "place_of_worship", "building": "church", "denomination": "baptist", "name": "Southeast Baptist Church", "religion": "christian"}}}, {"type": "Feature", "geometry": {"type": "Polygon", "coordinates": [[[-95.8869505, 36.1405007], [-95.8872053, 36.1404995], [-95.8872043, 36.1403665], [-95.8869495, 36.1403677], [-95.8869505, 36.1405007]]]}, "properties": {"osm_id": 1225320491, "building": "retail", "name": "", "height": null, "height_m": null, "levels": null, "tract_id": "40143007101", "tract_name": "71.01", "tags": {"addr:city": "Tulsa", "addr:country": "US", "addr:housenumber": "7948", "addr:postcode": "74112", "addr:state": "OK", "addr:street": "East 15th Street South", "building": "retail", "check_date": "2022-06-18", "second_hand": "only", "shop": "car"}}}, {"type": "Feature", "geometry": {"type": "Polygon", "coordinates": [[[-95.8886674, 36.1400786], [-95.8885682, 36.140079], [-95.888569, 36.140209], [-95.8886526, 36.1402086], [-95.8886523, 36.1401649], [-95.888668, 36.1401649], [-95.8886674, 36.1400786]]]}, "properties": {"osm_id": 1225320492, "building": "detached", "name": "", "height": null, "height_m": null, "levels": null, "tract_id": "40143007101", "tract_name": "71.01", "tags": {"addr:city": "Tulsa", "addr:country": "US", "addr:housenumber": "1515", "addr:postcode": "74112", "addr:state": "OK", "addr:street": "South 79th Avenue East", "building": "detached"}}}, {"type": "Feature", "geometry": {"type": "Polygon", "coordinates": [[[-95.8884775, 36.1405262], [-95.8884787, 36.1405933], [-95.8885848, 36.1405921], [-95.8885836, 36.140525], [-95.8884775, 36.1405262]]]}, "properties": {"osm_id": 1225320493, "building": "roof", "name": "", "height": null, "height_m": null, "levels": null, "tract_id": "40143007101", "tract_name": "71.01", "tags": {"building": "roof", "source": "microsoft/BuildingFootprints"}}}, {"type": "Feature", "geometry": {"type": "Polygon", "coordinates": [[[-95.8876879, 36.1402299], [-95.8876882, 36.1401181], [-95.8877215, 36.1401181], [-95.8877217, 36.1400575], [-95.8876868, 36.1400574], [-95.8876871, 36.1399491], [-95.8870047, 36.1399479], [-95.8870039, 36.1402287], [-95.8876879, 36.1402299]]]}, "properties": {"osm_id": 1225320495, "building": "commercial", "name": "Crain Displays & Exhibits Inc", "height": null, "height_m": null, "levels": null, "tract_id": "40143007101", "tract_name": "71.01", "tags": {"addr:city": "Tulsa", "addr:country": "US", "addr:housenumber": "1510", "addr:postcode": "74112", "addr:state": "OK", "addr:street": "South Memorial Drive East", "building": "commercial", "check_date": "2022-06-18", "name": "Crain Displays & Exhibits Inc", "office": "company"}}}, {"type": "Feature", "geometry": {"type": "Polygon", "coordinates": [[[-95.8870449, 36.1427496], [-95.8882391, 36.1427495], [-95.8882391, 36.1426563], [-95.8870449, 36.1426565], [-95.8870449, 36.1427496]]]}, "properties": {"osm_id": 1225320500, "building": "yes", "name": "", "height": null, "height_m": null, "levels": null, "tract_id": "40143007101", "tract_name": "71.01", "tags": {"building": "yes", "source": "microsoft/BuildingFootprints"}}}, {"type": "Feature", "geometry": {"type": "Polygon", "coordinates": [[[-95.8871678, 36.1432498], [-95.8872375, 36.1432484], [-95.8872354, 36.1431856], [-95.8871657, 36.143187], [-95.8871678, 36.1432498]]]}, "properties": {"osm_id": 1225320503, "building": "yes", "name": "", "height": null, "height_m": null, "levels": null, "tract_id": "40143007101", "tract_name": "71.01", "tags": {"building": "yes", "source": "microsoft/BuildingFootprints"}}}, {"type": "Feature", "geometry": {"type": "Polygon", "coordinates": [[[-95.8885304, 36.1399681], [-95.888678, 36.1399705], [-95.8886789, 36.1399344], [-95.888696, 36.1399346], [-95.8886971, 36.1398929], [-95.8885324, 36.1398901], [-95.8885304, 36.1399681]]]}, "properties": {"osm_id": 1225320508, "building": "detached", "name": "", "height": null, "height_m": null, "levels": null, "tract_id": "40143007101", "tract_name": "71.01", "tags": {"addr:city": "Tulsa", "addr:country": "US", "addr:housenumber": "1525", "addr:postcode": "74112", "addr:state": "OK", "addr:street": "South 79th Avenue East", "building": "detached"}}}, {"type": "Feature", "geometry": {"type": "Polygon", "coordinates": [[[-95.8886978, 36.14045], [-95.8886987, 36.1403323], [-95.8883593, 36.1403305], [-95.8883588, 36.1403879], [-95.8884622, 36.1403884], [-95.8884613, 36.1405015], [-95.8886154, 36.1405023], [-95.8886158, 36.1404496], [-95.8886978, 36.14045]]]}, "properties": {"osm_id": 1225320509, "building": "yes", "name": "Tulsa Auto Detail", "height": null, "height_m": null, "levels": null, "tract_id": "40143007101", "tract_name": "71.01", "tags": {"addr:city": "Tulsa", "addr:country": "US", "addr:housenumber": "7902", "addr:postcode": "74112", "addr:state": "OK", "addr:street": "East 15th Street South", "amenity": "car_wash", "building": "yes", "name": "Tulsa Auto Detail"}}}, {"type": "Feature", "geometry": {"type": "Polygon", "coordinates": [[[-95.887985, 36.1396051], [-95.8878912, 36.1396067], [-95.8878917, 36.139627], [-95.8878446, 36.1396278], [-95.8878483, 36.1397699], [-95.8878859, 36.1397692], [-95.8878866, 36.139796], [-95.8879884, 36.1397943], [-95.8879867, 36.1397293], [-95.8879571, 36.1397298], [-95.887957, 36.1397239], [-95.8879563, 36.1396963], [-95.8879561, 36.1396887], [-95.8879872, 36.1396882], [-95.887985, 36.1396051]]]}, "properties": {"osm_id": 1225320510, "building": "semidetached_house", "name": "", "height": null, "height_m": null, "levels": null, "tract_id": "40143007101", "tract_name": "71.01", "tags": {"building": "semidetached_house"}}}, {"type": "Feature", "geometry": {"type": "Polygon", "coordinates": [[[-95.888503, 36.1396714], [-95.8885029, 36.139746], [-95.8885277, 36.139746], [-95.8885277, 36.1397839], [-95.8887345, 36.1397841], [-95.8887345, 36.1397457], [-95.8887346, 36.1396695], [-95.8886605, 36.1396694], [-95.8886605, 36.1396873], [-95.8886532, 36.1396873], [-95.8886457, 36.1396873], [-95.8886457, 36.1396983], [-95.8886209, 36.1396983], [-95.8886209, 36.1396872], [-95.8886138, 36.1396872], [-95.8886075, 36.1396871], [-95.8886075, 36.1396714], [-95.888503, 36.1396714]]]}, "properties": {"osm_id": 1225320512, "building": "semidetached_house", "name": "", "height": null, "height_m": null, "levels": null, "tract_id": "40143007101", "tract_name": "71.01", "tags": {"building": "semidetached_house"}}}, {"type": "Feature", "geometry": {"type": "Polygon", "coordinates": [[[-95.8885042, 36.1418067], [-95.8885444, 36.1418064], [-95.8885458, 36.141906], [-95.8886598, 36.141905], [-95.8886574, 36.1417217], [-95.8885031, 36.141723], [-95.8885042, 36.1418067]]]}, "properties": {"osm_id": 1225320514, "building": "detached", "name": "", "height": null, "height_m": null, "levels": null, "tract_id": "40143007101", "tract_name": "71.01", "tags": {"addr:city": "Tulsa", "addr:country": "US", "addr:housenumber": "1419", "addr:postcode": "74112", "addr:state": "OK", "addr:street": "South 79th Avenue East", "building": "detached"}}}, {"type": "Feature", "geometry": {"type": "Polygon", "coordinates": [[[-95.88838, 36.1417584], [-95.8883781, 36.1416545], [-95.8882801, 36.1416557], [-95.8882821, 36.1417596], [-95.88838, 36.1417584]]]}, "properties": {"osm_id": 1225320515, "building": "yes", "name": "", "height": null, "height_m": null, "levels": null, "tract_id": "40143007101", "tract_name": "71.01", "tags": {"building": "yes", "source": "microsoft/BuildingFootprints"}}}, {"type": "Feature", "geometry": {"type": "Polygon", "coordinates": [[[-95.8870392, 36.1429342], [-95.8882411, 36.1429319], [-95.8882408, 36.1428409], [-95.887039, 36.1428432], [-95.8870392, 36.1429342]]]}, "properties": {"osm_id": 1225320517, "building": "yes", "name": "", "height": null, "height_m": null, "levels": null, "tract_id": "40143007101", "tract_name": "71.01", "tags": {"building": "yes", "source": "microsoft/BuildingFootprints"}}}, {"type": "Feature", "geometry": {"type": "Polygon", "coordinates": [[[-95.8870839, 36.1396864], [-95.8870342, 36.1396838], [-95.8870287, 36.139752], [-95.8870784, 36.1397546], [-95.8870839, 36.1396864]]]}, "properties": {"osm_id": 1225320518, "building": "shed", "name": "", "height": null, "height_m": null, "levels": null, "tract_id": "40143007101", "tract_name": "71.01", "tags": {"building": "shed", "shop": "car", "source": "microsoft/BuildingFootprints"}}}, {"type": "Feature", "geometry": {"type": "Polygon", "coordinates": [[[-95.8871004, 36.1431707], [-95.8871006, 36.1431382], [-95.8871328, 36.1431383], [-95.887133, 36.1430972], [-95.8869435, 36.1430964], [-95.8869435, 36.143108], [-95.8869192, 36.1431079], [-95.8869189, 36.1431523], [-95.8869432, 36.1431524], [-95.8869431, 36.1431701], [-95.8871004, 36.1431707]]]}, "properties": {"osm_id": 1225320519, "building": "detached", "name": "", "height": null, "height_m": null, "levels": null, "tract_id": "40143007101", "tract_name": "71.01", "tags": {"building": "detached", "source": "microsoft/BuildingFootprints"}}}, {"type": "Feature", "geometry": {"type": "Polygon", "coordinates": [[[-95.8884002, 36.1428444], [-95.8887086, 36.1428447], [-95.8887091, 36.1425415], [-95.8884006, 36.1425412], [-95.8884005, 36.14263], [-95.888379, 36.14263], [-95.8883789, 36.1427231], [-95.8884004, 36.1427231], [-95.8884002, 36.1428444]]]}, "properties": {"osm_id": 1225320520, "building": "yes", "name": "", "height": null, "height_m": null, "levels": null, "tract_id": "40143007101", "tract_name": "71.01", "tags": {"building": "yes", "source": "microsoft/BuildingFootprints"}}}, {"type": "Feature", "geometry": {"type": "Polygon", "coordinates": [[[-95.887982, 36.1393746], [-95.8878962, 36.1393755], [-95.8878965, 36.139395], [-95.8878509, 36.1393955], [-95.8878536, 36.1395644], [-95.8879903, 36.139563], [-95.8879892, 36.1394937], [-95.8879474, 36.1394941], [-95.8879473, 36.139489], [-95.8879469, 36.1394606], [-95.8879468, 36.1394542], [-95.8879832, 36.1394538], [-95.887982, 36.1393746]]]}, "properties": {"osm_id": 1225320523, "building": "semidetached_house", "name": "", "height": null, "height_m": null, "levels": null, "tract_id": "40143007101", "tract_name": "71.01", "tags": {"building": "semidetached_house"}}}, {"type": "Feature", "geometry": {"type": "Polygon", "coordinates": [[[-95.8875373, 36.1468218], [-95.887313, 36.1468237], [-95.8873132, 36.1467955], [-95.8873134, 36.1467424], [-95.8873137, 36.1466991], [-95.8873139, 36.1466602], [-95.8875382, 36.146661], [-95.8875373, 36.1468218]]]}, "properties": {"osm_id": 1239776102, "building": "retail", "name": "", "height": null, "height_m": null, "levels": null, "tract_id": "40143007101", "tract_name": "71.01", "tags": {"building": "retail"}}}, {"type": "Feature", "geometry": {"type": "Polygon", "coordinates": [[[-95.8878008, 36.1470673], [-95.8878002, 36.1471818], [-95.8877556, 36.1471816], [-95.8877537, 36.1475178], [-95.887309, 36.1475163], [-95.8873115, 36.1470717], [-95.8878008, 36.1470673]]]}, "properties": {"osm_id": 1239776103, "building": "retail", "name": "Habitat for Humanity ReStore", "height": null, "height_m": null, "levels": null, "tract_id": "40143007101", "tract_name": "71.01", "tags": {"addr:city": "Tulsa", "addr:country": "US", "addr:housenumber": "1112", "addr:postcode": "74112", "addr:state": "OK", "addr:street": "South Memorial Drive East", "alt_name": "ReStore", "brand": "Habitat for Humanity ReStore", "brand:wikidata": "Q108414596", "building": "retail", "name": "Habitat for Humanity ReStore", "second_hand": "yes", "shop": "charity", "short_name": "Habitat ReStore"}}}, {"type": "Feature", "geometry": {"type": "Polygon", "coordinates": [[[-95.8919723, 36.1476353], [-95.891973, 36.1476818], [-95.8918597, 36.1476829], [-95.891859, 36.1476364], [-95.8919723, 36.1476353]]]}, "properties": {"osm_id": 1239776104, "building": "retail", "name": "Hi-Tech Motors", "height": null, "height_m": null, "levels": null, "tract_id": "40143007101", "tract_name": "71.01", "tags": {"addr:city": "Tulsa", "addr:country": "US", "addr:housenumber": "7610", "addr:postcode": "74112", "addr:state": "OK", "addr:street": "East 11th Street South", "building": "retail", "name": "Hi-Tech Motors", "shop": "car"}}}, {"type": "Feature", "geometry": {"type": "Polygon", "coordinates": [[[-95.8928133, 36.147642], [-95.8928131, 36.1475746], [-95.8926398, 36.1475748], [-95.8926399, 36.147599], [-95.8925841, 36.1475991], [-95.8925843, 36.147669], [-95.8926684, 36.1476689], [-95.8926683, 36.1476422], [-95.8928133, 36.147642]]]}, "properties": {"osm_id": 1239776105, "building": "detached", "name": "", "height": null, "height_m": null, "levels": null, "tract_id": "40143007101", "tract_name": "71.01", "tags": {"building": "detached"}}}, {"type": "Feature", "geometry": {"type": "Polygon", "coordinates": [[[-95.8926696, 36.1478216], [-95.8925845, 36.1478216], [-95.8925843, 36.147669], [-95.8926684, 36.1476689], [-95.8926696, 36.1478216]]]}, "properties": {"osm_id": 1239776106, "building": "commercial", "name": "G&G Auto Sales", "height": null, "height_m": null, "levels": null, "tract_id": "40143007101", "tract_name": "71.01", "tags": {"building": "commercial", "name": "G&G Auto Sales", "phone": "+1 918 210 0114", "shop": "car"}}}, {"type": "Feature", "geometry": {"type": "Polygon", "coordinates": [[[-95.887757, 36.1341929], [-95.887757, 36.1345323], [-95.8876721, 36.1345323], [-95.8876721, 36.1343305], [-95.8872699, 36.1343305], [-95.8872699, 36.1343904], [-95.8871758, 36.1343904], [-95.8871758, 36.1341365], [-95.8874042, 36.1341365], [-95.8874042, 36.1341929], [-95.887757, 36.1341929]]]}, "properties": {"osm_id": 1239796454, "building": "retail", "name": "Azteka Motors", "height": null, "height_m": null, "levels": null, "tract_id": "40143007101", "tract_name": "71.01", "tags": {"addr:city": "Tulsa", "addr:country": "US", "addr:housenumber": "1920", "addr:postcode": "74112", "addr:state": "OK", "addr:street": "South Memorial Drive East", "building": "retail", "name": "Azteka Motors", "second_hand": "only", "shop": "car"}}}, {"type": "Feature", "geometry": {"type": "Polygon", "coordinates": [[[-95.8870958, 36.1338992], [-95.8870964, 36.1337367], [-95.8872514, 36.1337371], [-95.8872508, 36.1338996], [-95.8870958, 36.1338992]]]}, "properties": {"osm_id": 1240050332, "building": "retail", "name": "", "height": null, "height_m": null, "levels": null, "tract_id": "40143007101", "tract_name": "71.01", "tags": {"addr:city": "Tulsa", "addr:country": "US", "addr:housenumber": "7939", "addr:postcode": "74129", "addr:state": "OK", "addr:street": "East 21st Street South", "building": "retail", "shop": "car"}}}, {"type": "Feature", "geometry": {"type": "Polygon", "coordinates": [[[-95.8876374, 36.1337676], [-95.8877599, 36.1337676], [-95.8877599, 36.1338943], [-95.8876374, 36.1338943], [-95.8876374, 36.1337676]]]}, "properties": {"osm_id": 1240050341, "building": "retail", "name": "", "height": null, "height_m": 3.0, "levels": 1, "tract_id": "40143007101", "tract_name": "71.01", "tags": {"addr:city": "Tulsa", "addr:country": "US", "addr:housenumber": "7925", "addr:postcode": "74129", "addr:state": "OK", "addr:street": "East 21st Street South", "building": "retail", "building:levels": "1", "roof:levels": "0", "roof:shape": "flat", "shop": "yes"}}}, {"type": "Feature", "geometry": {"type": "Polygon", "coordinates": [[[-95.887515, 36.1337676], [-95.8876374, 36.1337676], [-95.8876374, 36.1338943], [-95.887515, 36.1338943], [-95.887515, 36.1337676]]]}, "properties": {"osm_id": 1240050342, "building": "retail", "name": "", "height": null, "height_m": 3.0, "levels": 1, "tract_id": "40143007101", "tract_name": "71.01", "tags": {"addr:city": "Tulsa", "addr:country": "US", "addr:housenumber": "7925", "addr:postcode": "74129", "addr:state": "OK", "addr:street": "East 21st Street South", "building": "retail", "building:levels": "1", "roof:levels": "0", "roof:shape": "flat", "shop": "yes"}}}, {"type": "Feature", "geometry": {"type": "Polygon", "coordinates": [[[-95.8873925, 36.1337676], [-95.887515, 36.1337676], [-95.887515, 36.1338943], [-95.8873925, 36.1338943], [-95.8873925, 36.1337676]]]}, "properties": {"osm_id": 1240050343, "building": "retail", "name": "", "height": null, "height_m": 3.0, "levels": 1, "tract_id": "40143007101", "tract_name": "71.01", "tags": {"addr:city": "Tulsa", "addr:country": "US", "addr:housenumber": "7925", "addr:postcode": "74129", "addr:state": "OK", "addr:street": "East 21st Street South", "building": "retail", "building:levels": "1", "roof:levels": "0", "roof:shape": "flat", "shop": "yes"}}}, {"type": "Feature", "geometry": {"type": "Polygon", "coordinates": [[[-95.8883232, 36.1337909], [-95.8883236, 36.1339019], [-95.888107, 36.1339024], [-95.8881066, 36.1337914], [-95.8883232, 36.1337909]]]}, "properties": {"osm_id": 1240050345, "building": "retail", "name": "CS Motors", "height": null, "height_m": null, "levels": null, "tract_id": "40143007101", "tract_name": "71.01", "tags": {"addr:city": "Tulsa", "addr:country": "US", "addr:housenumber": "7915", "addr:postcode": "74129", "addr:state": "OK", "addr:street": "East 21st Street South", "building": "retail", "name": "CS Motors", "phone": "+1 918 622 2771", "shop": "car", "website": "https://www.csmotorstulsa.com/"}}}, {"type": "Feature", "geometry": {"type": "Polygon", "coordinates": [[[-95.8878404, 36.1339463], [-95.8878404, 36.133805], [-95.8879725, 36.133805], [-95.8879725, 36.1338624], [-95.8879591, 36.1338624], [-95.8879591, 36.1339463], [-95.8878404, 36.1339463]]]}, "properties": {"osm_id": 1240050346, "building": "retail", "name": "Viet Huong", "height": null, "height_m": null, "levels": null, "tract_id": "40143007101", "tract_name": "71.01", "tags": {"addr:city": "Tulsa", "addr:country": "US", "addr:housenumber": "7919", "addr:postcode": "74129", "addr:state": "OK", "addr:street": "East 21st Street South", "amenity": "restaurant", "building": "retail", "cuisine": "vietnamese", "name": "Viet Huong", "opening_hours": "Mo-Sa 10:00-20:00; Su 10:00-14:00"}}}, {"type": "Feature", "geometry": {"type": "Polygon", "coordinates": [[[-95.8886739, 36.1337216], [-95.8886742, 36.1337708], [-95.888631, 36.133771], [-95.8886311, 36.1338032], [-95.8885214, 36.1338036], [-95.888521, 36.1337221], [-95.8886739, 36.1337216]]]}, "properties": {"osm_id": 1240050348, "building": "retail", "name": "CarPort Auto Sales", "height": null, "height_m": null, "levels": null, "tract_id": "40143007101", "tract_name": "71.01", "tags": {"addr:city": "Tulsa", "addr:country": "US", "addr:housenumber": "7901", "addr:postcode": "74129", "addr:state": "OK", "addr:street": "East 21st Street South", "building": "retail", "name": "CarPort Auto Sales", "phone": "+1 918 219 3224", "shop": "car"}}}, {"type": "Feature", "geometry": {"type": "Polygon", "coordinates": [[[-95.8899276, 36.1339549], [-95.890032, 36.1339547], [-95.8900315, 36.1337878], [-95.8899271, 36.133788], [-95.8899272, 36.1338335], [-95.8899276, 36.1339549]]]}, "properties": {"osm_id": 1240050350, "building": "retail", "name": "", "height": null, "height_m": null, "levels": null, "tract_id": "40143007101", "tract_name": "71.01", "tags": {"addr:city": "Tulsa", "addr:country": "US", "addr:housenumber": "7747", "addr:postcode": "74129", "addr:state": "OK", "addr:street": "East 21st Street South", "building": "retail", "shop": "cannabis"}}}, {"type": "Feature", "geometry": {"type": "Polygon", "coordinates": [[[-95.8891828, 36.1339563], [-95.8890463, 36.1339566], [-95.8890458, 36.1337975], [-95.8891823, 36.1337972], [-95.8891824, 36.133835], [-95.8891828, 36.1339563]]]}, "properties": {"osm_id": 1240050351, "building": "retail", "name": "Daylight Donuts", "height": null, "height_m": null, "levels": null, "tract_id": "40143007101", "tract_name": "71.01", "tags": {"addr:city": "Tulsa", "addr:country": "US", "addr:housenumber": "7747", "addr:postcode": "74129", "addr:state": "OK", "addr:street": "East 21st Street South", "amenity": "fast_food", "brand": "Daylight Donuts", "brand:wikidata": "Q48970508", "building": "retail", "cuisine": "donut", "name": "Daylight Donuts", "takeaway": "yes"}}}, {"type": "Feature", "geometry": {"type": "Polygon", "coordinates": [[[-95.8898595, 36.133955], [-95.8899276, 36.1339549], [-95.8899272, 36.1338335], [-95.8898592, 36.1338336], [-95.8898595, 36.133955]]]}, "properties": {"osm_id": 1240050352, "building": "retail", "name": "", "height": null, "height_m": null, "levels": null, "tract_id": "40143007101", "tract_name": "71.01", "tags": {"addr:city": "Tulsa", "addr:country": "US", "addr:housenumber": "7747", "addr:postcode": "74129", "addr:state": "OK", "addr:street": "East 21st Street South", "building": "retail", "shop": "tobacco"}}}, {"type": "Feature", "geometry": {"type": "Polygon", "coordinates": [[[-95.8897919, 36.1339552], [-95.8898595, 36.133955], [-95.8898592, 36.1338336], [-95.8897915, 36.1338338], [-95.8897919, 36.1339552]]]}, "properties": {"osm_id": 1240050353, "building": "retail", "name": "Toy Dreamzzz", "height": null, "height_m": null, "levels": null, "tract_id": "40143007101", "tract_name": "71.01", "tags": {"addr:city": "Tulsa", "addr:country": "US", "addr:housenumber": "7747", "addr:postcode": "74129", "addr:state": "OK", "addr:street": "East 21st Street South", "building": "retail", "name": "Toy Dreamzzz", "shop": "toys"}}}, {"type": "Feature", "geometry": {"type": "Polygon", "coordinates": [[[-95.8897242, 36.1339553], [-95.8897919, 36.1339552], [-95.8897915, 36.1338338], [-95.8897238, 36.1338339], [-95.8897242, 36.1339553]]]}, "properties": {"osm_id": 1240050354, "building": "retail", "name": "Phones 4 Less", "height": null, "height_m": null, "levels": null, "tract_id": "40143007101", "tract_name": "71.01", "tags": {"addr:city": "Tulsa", "addr:country": "US", "addr:housenumber": "7747", "addr:postcode": "74129", "addr:state": "OK", "addr:street": "East 21st Street South", "building": "retail", "name": "Phones 4 Less", "shop": "mobile_phone"}}}, {"type": "Feature", "geometry": {"type": "Polygon", "coordinates": [[[-95.8896565, 36.1339554], [-95.8897242, 36.1339553], [-95.8897238, 36.1338339], [-95.8896562, 36.133834], [-95.8896565, 36.1339554]]]}, "properties": {"osm_id": 1240050355, "building": "retail", "name": "", "height": null, "height_m": null, "levels": null, "tract_id": "40143007101", "tract_name": "71.01", "tags": {"addr:city": "Tulsa", "addr:country": "US", "addr:housenumber": "7747", "addr:postcode": "74129", "addr:state": "OK", "addr:street": "East 21st Street South", "building": "retail", "shop": "vacant"}}}, {"type": "Feature", "geometry": {"type": "Polygon", "coordinates": [[[-95.8895889, 36.1339556], [-95.8896565, 36.1339554], [-95.8896562, 36.133834], [-95.8895885, 36.1338342], [-95.8895889, 36.1339556]]]}, "properties": {"osm_id": 1240050356, "building": "retail", "name": "", "height": null, "height_m": null, "levels": null, "tract_id": "40143007101", "tract_name": "71.01", "tags": {"addr:city": "Tulsa", "addr:country": "US", "addr:housenumber": "7747", "addr:postcode": "74129", "addr:state": "OK", "addr:street": "East 21st Street South", "amenity": "restaurant", "building": "retail"}}}, {"type": "Feature", "geometry": {"type": "Polygon", "coordinates": [[[-95.8895212, 36.1339557], [-95.8895889, 36.1339556], [-95.8895885, 36.1338342], [-95.8895208, 36.1338343], [-95.8895212, 36.1339557]]]}, "properties": {"osm_id": 1240050357, "building": "retail", "name": "Tienda Latina", "height": null, "height_m": null, "levels": null, "tract_id": "40143007101", "tract_name": "71.01", "tags": {"addr:city": "Tulsa", "addr:country": "US", "addr:housenumber": "7747", "addr:postcode": "74129", "addr:state": "OK", "addr:street": "East 21st Street South", "building": "retail", "name": "Tienda Latina", "shop": "convenience"}}}, {"type": "Feature", "geometry": {"type": "Polygon", "coordinates": [[[-95.8894535, 36.1339558], [-95.8895212, 36.1339557], [-95.8895208, 36.1338343], [-95.8894532, 36.1338344], [-95.8894535, 36.1339558]]]}, "properties": {"osm_id": 1240050358, "building": "retail", "name": "", "height": null, "height_m": null, "levels": null, "tract_id": "40143007101", "tract_name": "71.01", "tags": {"addr:city": "Tulsa", "addr:country": "US", "addr:housenumber": "7747", "addr:postcode": "74129", "addr:state": "OK", "addr:street": "East 21st Street South", "building": "retail", "shop": "vacant"}}}, {"type": "Feature", "geometry": {"type": "Polygon", "coordinates": [[[-95.8893859, 36.1339559], [-95.8894535, 36.1339558], [-95.8894532, 36.1338344], [-95.8893855, 36.1338346], [-95.8893859, 36.1339559]]]}, "properties": {"osm_id": 1240050359, "building": "retail", "name": "", "height": null, "height_m": null, "levels": null, "tract_id": "40143007101", "tract_name": "71.01", "tags": {"addr:city": "Tulsa", "addr:country": "US", "addr:housenumber": "7747", "addr:postcode": "74129", "addr:state": "OK", "addr:street": "East 21st Street South", "building": "retail", "shop": "vacant"}}}, {"type": "Feature", "geometry": {"type": "Polygon", "coordinates": [[[-95.8893182, 36.1339561], [-95.8893859, 36.1339559], [-95.8893855, 36.1338346], [-95.8893179, 36.1338347], [-95.8893182, 36.1339561]]]}, "properties": {"osm_id": 1240050360, "building": "retail", "name": "Jackson Hewitt", "height": null, "height_m": null, "levels": null, "tract_id": "40143007101", "tract_name": "71.01", "tags": {"addr:city": "Tulsa", "addr:country": "US", "addr:housenumber": "7747", "addr:postcode": "74129", "addr:state": "OK", "addr:street": "East 21st Street South", "brand": "Jackson Hewitt", "brand:wikidata": "Q6117132", "building": "retail", "name": "Jackson Hewitt", "office": "tax_advisor", "official_name": "Jackson Hewitt Tax Service"}}}, {"type": "Feature", "geometry": {"type": "Polygon", "coordinates": [[[-95.8892505, 36.1339562], [-95.8893182, 36.1339561], [-95.8893179, 36.1338347], [-95.8892502, 36.1338348], [-95.8892505, 36.1339562]]]}, "properties": {"osm_id": 1240050361, "building": "retail", "name": "", "height": null, "height_m": null, "levels": null, "tract_id": "40143007101", "tract_name": "71.01", "tags": {"addr:city": "Tulsa", "addr:country": "US", "addr:housenumber": "7747", "addr:postcode": "74129", "addr:state": "OK", "addr:street": "East 21st Street South", "building": "retail", "shop": "yes"}}}, {"type": "Feature", "geometry": {"type": "Polygon", "coordinates": [[[-95.8891828, 36.1339563], [-95.8892505, 36.1339562], [-95.8892502, 36.1338348], [-95.8891824, 36.133835], [-95.8891828, 36.1339563]]]}, "properties": {"osm_id": 1240050362, "building": "retail", "name": "", "height": null, "height_m": null, "levels": null, "tract_id": "40143007101", "tract_name": "71.01", "tags": {"addr:city": "Tulsa", "addr:country": "US", "addr:housenumber": "7747", "addr:postcode": "74129", "addr:state": "OK", "addr:street": "East 21st Street South", "building": "retail", "shop": "yes"}}}, {"type": "Feature", "geometry": {"type": "Polygon", "coordinates": [[[-95.8905052, 36.1339138], [-95.890076, 36.1339149], [-95.8900752, 36.1337145], [-95.8905044, 36.1337134], [-95.8905052, 36.1339138]]]}, "properties": {"osm_id": 1240050363, "building": "yes", "name": "Alta Vista Animal Hospital", "height": null, "height_m": null, "levels": null, "tract_id": "40143007101", "tract_name": "71.01", "tags": {"addr:city": "Tulsa", "addr:country": "US", "addr:housenumber": "7717", "addr:postcode": "74129", "addr:state": "OK", "addr:street": "East 21st Street South", "amenity": "veterinary", "building": "yes", "name": "Alta Vista Animal Hospital"}}}, {"type": "Feature", "geometry": {"type": "Polygon", "coordinates": [[[-95.8907861, 36.1339068], [-95.8905742, 36.1339062], [-95.8905745, 36.1338298], [-95.8907864, 36.1338304], [-95.8907861, 36.1339068]]]}, "properties": {"osm_id": 1240050364, "building": "retail", "name": "Tulsa Tire Shop", "height": null, "height_m": null, "levels": null, "tract_id": "40143007101", "tract_name": "71.01", "tags": {"addr:city": "Tulsa", "addr:country": "US", "addr:housenumber": "7701", "addr:postcode": "74129", "addr:state": "OK", "addr:street": "East 21st Street South", "building": "retail", "check_date": "2023-07-13", "name": "Tulsa Tire Shop", "shop": "tyres"}}}, {"type": "Feature", "geometry": {"type": "Polygon", "coordinates": [[[-95.901067, 36.1338656], [-95.901063, 36.1337205], [-95.9011781, 36.1337184], [-95.9011822, 36.1338635], [-95.901067, 36.1338656]]]}, "properties": {"osm_id": 1240050368, "building": "detached", "name": "Animal Aid of Tulsa", "height": null, "height_m": null, "levels": null, "tract_id": "40143007101", "tract_name": "71.01", "tags": {"addr:city": "Tulsa", "addr:country": "US", "addr:housenumber": "6811", "addr:postcode": "74129", "addr:state": "OK", "addr:street": "East 21st Street South", "building": "detached", "name": "Animal Aid of Tulsa", "shop": "charity"}}}, {"type": "Feature", "geometry": {"type": "Polygon", "coordinates": [[[-95.9019555, 36.1337438], [-95.9019542, 36.1338965], [-95.9019468, 36.1338964], [-95.9019465, 36.1339363], [-95.9019132, 36.1339361], [-95.9019133, 36.133925], [-95.9018406, 36.1339246], [-95.9018409, 36.1338958], [-95.9018294, 36.1338958], [-95.9018307, 36.133743], [-95.9019555, 36.1337438]]]}, "properties": {"osm_id": 1240050369, "building": "retail", "name": "", "height": null, "height_m": null, "levels": null, "tract_id": "40143007101", "tract_name": "71.01", "tags": {"addr:city": "Tulsa", "addr:country": "US", "addr:housenumber": "6565", "addr:postcode": "74129", "addr:state": "OK", "addr:street": "East 21st Street South", "building": "retail", "check_date": "2022-06-11", "shop": "vacant"}}}, {"type": "Feature", "geometry": {"type": "Polygon", "coordinates": [[[-95.8870317, 36.1347614], [-95.8870317, 36.1345821], [-95.8872174, 36.1345821], [-95.8872174, 36.1347614], [-95.8870317, 36.1347614]]]}, "properties": {"osm_id": 1262053435, "building": "garages", "name": "Precision Tune Auto Care", "height": null, "height_m": null, "levels": null, "tract_id": "40143007101", "tract_name": "71.01", "tags": {"addr:city": "Tulsa", "addr:country": "US", "addr:housenumber": "1916", "addr:postcode": "74112", "addr:state": "OK", "addr:street": "South Memorial Drive East", "brand": "Precision Tune Auto Care", "brand:wikidata": "Q120717427", "building": "garages", "check_date": "2022-06-18", "name": "Precision Tune Auto Care", "opening_hours": "Mo-Fr 08:00-18:00; Sa-Su off", "shop": "car_repair", "website": "https://www.precisiontune.com/locations/tulsa-ok-memorial-dr/"}}}, {"type": "Feature", "geometry": {"type": "Polygon", "coordinates": [[[-95.8872624, 36.1355937], [-95.8872664, 36.1349688], [-95.8873804, 36.1349693], [-95.8873764, 36.1355942], [-95.8872624, 36.1355937]]]}, "properties": {"osm_id": 1262053436, "building": "church", "name": "Moore Funeral Home Eastlawn Chapel", "height": null, "height_m": null, "levels": null, "tract_id": "40143007101", "tract_name": "71.01", "tags": {"addr:city": "Tulsa", "addr:country": "US", "addr:housenumber": "1908", "addr:postcode": "74112", "addr:state": "OK", "addr:street": "South Memorial Drive East", "building": "church", "name": "Moore Funeral Home Eastlawn Chapel", "shop": "funeral_directors"}}}, {"type": "Feature", "geometry": {"type": "Polygon", "coordinates": [[[-95.8875095, 36.1361862], [-95.8875101, 36.1362628], [-95.8873639, 36.1362636], [-95.8873633, 36.136187], [-95.8875095, 36.1361862]]]}, "properties": {"osm_id": 1262053437, "building": "detached", "name": "", "height": null, "height_m": 6.0, "levels": 2, "tract_id": "40143007101", "tract_name": "71.01", "tags": {"building": "detached", "building:levels": "2", "roof:levels": "0"}}}, {"type": "Feature", "geometry": {"type": "Polygon", "coordinates": [[[-95.8872644, 36.1361889], [-95.8873569, 36.1361878], [-95.8873584, 36.1362683], [-95.8875246, 36.1362663], [-95.8875259, 36.1363409], [-95.887455, 36.1363418], [-95.8874549, 36.1363318], [-95.8873643, 36.1363329], [-95.8873654, 36.1363904], [-95.8872829, 36.1363914], [-95.8872818, 36.1363338], [-95.8872671, 36.136334], [-95.8872644, 36.1361889]]]}, "properties": {"osm_id": 1262053438, "building": "commercial", "name": "", "height": null, "height_m": 3.0, "levels": 1, "tract_id": "40143007101", "tract_name": "71.01", "tags": {"addr:city": "Tulsa", "addr:country": "US", "addr:housenumber": "1720", "addr:postcode": "74112", "addr:state": "OK", "addr:street": "South Memorial Drive East", "building": "commercial", "building:levels": "1", "roof:levels": "0", "shop": "car"}}}, {"type": "Feature", "geometry": {"type": "Polygon", "coordinates": [[[-95.8871195, 36.1359365], [-95.8871142, 36.1358239], [-95.8871585, 36.1358225], [-95.8871581, 36.1358132], [-95.8872079, 36.1358117], [-95.8872113, 36.1358829], [-95.8872395, 36.1358821], [-95.8872391, 36.1358733], [-95.8873026, 36.1358713], [-95.8873055, 36.1359308], [-95.8871195, 36.1359365]]]}, "properties": {"osm_id": 1262053439, "building": "detached", "name": "", "height": null, "height_m": null, "levels": null, "tract_id": "40143007101", "tract_name": "71.01", "tags": {"addr:city": "Tulsa", "addr:country": "US", "addr:housenumber": "1730", "addr:postcode": "74112", "addr:state": "OK", "addr:street": "South Memorial Drive East", "building": "detached", "shop": "car"}}}, {"type": "Feature", "geometry": {"type": "Polygon", "coordinates": [[[-95.8872463, 36.1368772], [-95.8869715, 36.1368784], [-95.8869702, 36.1366737], [-95.8872449, 36.1366725], [-95.8872463, 36.1368772]]]}, "properties": {"osm_id": 1262053441, "building": "church", "name": "Flame International Outreach Church", "height": null, "height_m": null, "levels": null, "tract_id": "40143007101", "tract_name": "71.01", "tags": {"addr:city": "Tulsa", "addr:country": "US", "addr:housenumber": "1702", "addr:postcode": "74112", "addr:state": "OK", "addr:street": "South Memorial Drive East", "amenity": "place_of_worship", "building": "church", "name": "Flame International Outreach Church", "religion": "christian"}}}, {"type": "Feature", "geometry": {"type": "Polygon", "coordinates": [[[-95.8872747, 36.1375368], [-95.8870509, 36.1375368], [-95.8870509, 36.1373623], [-95.8872747, 36.1373623], [-95.8872747, 36.1375368]]]}, "properties": {"osm_id": 1262053452, "building": "retail", "name": "Las Americas Auto Sales", "height": null, "height_m": 3.0, "levels": 1, "tract_id": "40143007101", "tract_name": "71.01", "tags": {"addr:city": "Tulsa", "addr:country": "US", "addr:housenumber": "1624", "addr:postcode": "74112", "addr:state": "OK", "addr:street": "South Memorial Drive East", "building": "retail", "building:levels": "1", "check_date": "2022-06-18", "name": "Las Americas Auto Sales", "roof:levels": "0", "roof:shape": "flat", "shop": "car"}}}, {"type": "Feature", "geometry": {"type": "Polygon", "coordinates": [[[-95.8872758, 36.1378801], [-95.8870468, 36.1378812], [-95.8870456, 36.1377134], [-95.8870747, 36.1377132], [-95.8870742, 36.1376549], [-95.8872742, 36.137654], [-95.8872758, 36.1378801]]]}, "properties": {"osm_id": 1262053453, "building": "yes", "name": "Las Americas Wheel & Tire", "height": null, "height_m": null, "levels": null, "tract_id": "40143007101", "tract_name": "71.01", "tags": {"building": "yes", "check_date": "2022-06-18", "name": "Las Americas Wheel & Tire", "shop": "tyres"}}}, {"type": "Feature", "geometry": {"type": "Polygon", "coordinates": [[[-95.8872637, 36.1392188], [-95.8872648, 36.1391037], [-95.8877745, 36.139107], [-95.8877733, 36.1392221], [-95.8872637, 36.1392188]]]}, "properties": {"osm_id": 1262053454, "building": "commercial", "name": "", "height": null, "height_m": null, "levels": null, "tract_id": "40143007101", "tract_name": "71.01", "tags": {"addr:city": "Tulsa", "addr:country": "US", "addr:housenumber": "1520", "addr:postcode": "74112", "addr:state": "OK", "addr:street": "South Memorial Drive East", "building": "commercial", "check_date": "2022-06-18", "shop": "vacant"}}}, {"type": "Feature", "geometry": {"type": "Polygon", "coordinates": [[[-95.9042366, 36.1451824], [-95.9042359, 36.1454846], [-95.9042183, 36.1454846], [-95.9042183, 36.145512], [-95.9042358, 36.145512], [-95.9042357, 36.1455542], [-95.904216, 36.1455541], [-95.9042158, 36.1456547], [-95.9041209, 36.1456545], [-95.9041212, 36.1455226], [-95.9038636, 36.1455222], [-95.9038635, 36.1455462], [-95.9034385, 36.1455456], [-95.9034394, 36.1451812], [-95.9042366, 36.1451824]]]}, "properties": {"osm_id": 1310966846, "building": "industrial", "name": "Artisent Floors", "height": null, "height_m": null, "levels": null, "tract_id": "40143007101", "tract_name": "71.01", "tags": {"building": "industrial", "check_date": "2023-07-19", "name": "Artisent Floors", "shop": "trade"}}}, {"type": "Feature", "geometry": {"type": "Polygon", "coordinates": [[[-95.9042359, 36.1457511], [-95.9034393, 36.1457554], [-95.9034404, 36.1458952], [-95.9038921, 36.1458927], [-95.904237, 36.1458908], [-95.9042359, 36.1457511]]]}, "properties": {"osm_id": 1310966909, "building": "industrial", "name": "Lee & Browne Consulting Engineers", "height": null, "height_m": null, "levels": null, "tract_id": "40143007101", "tract_name": "71.01", "tags": {"building": "industrial", "name": "Lee & Browne Consulting Engineers", "office": "engineer"}}}, {"type": "Feature", "geometry": {"type": "Polygon", "coordinates": [[[-95.8993215, 36.1431959], [-95.899323, 36.1427285], [-95.8991306, 36.1427281], [-95.8991304, 36.142785], [-95.8989668, 36.1427846], [-95.8989655, 36.1431952], [-95.8993215, 36.1431959]]]}, "properties": {"osm_id": 1354775300, "building": "commercial", "name": "", "height": null, "height_m": null, "levels": null, "tract_id": "40143007101", "tract_name": "71.01", "tags": {"addr:city": "Tulsa", "addr:housenumber": "6923", "addr:postcode": "74112", "addr:state": "OK", "addr:street": "East 14th Street", "building": "commercial", "roof:shape": "flat"}}}, {"type": "Feature", "geometry": {"type": "Polygon", "coordinates": [[[-95.8943012, 36.1418554], [-95.8943033, 36.1415423], [-95.8942312, 36.1415423], [-95.8942312, 36.1415149], [-95.894155, 36.1415166], [-95.8941528, 36.141544], [-95.8940723, 36.141544], [-95.8940765, 36.1418554], [-95.8943012, 36.1418554]]]}, "properties": {"osm_id": 1378576879, "building": "church", "name": "Grace Bible Church", "height": null, "height_m": null, "levels": null, "tract_id": "40143007101", "tract_name": "71.01", "tags": {"addr:city": "Tulsa", "addr:country": "US", "addr:housenumber": "7415", "addr:postcode": "74112", "addr:state": "OK", "addr:street": "East 15th Street", "amenity": "place_of_worship", "building": "church", "name": "Grace Bible Church", "religion": "christian", "service_times": "Su 10:45", "website": "https://www.gracebiblechurchtulsa.org/"}}}, {"type": "Feature", "geometry": {"type": "Polygon", "coordinates": [[[-95.8887306, 36.1393777], [-95.8887296, 36.1394847], [-95.8886286, 36.1394841], [-95.8886289, 36.1394573], [-95.8886227, 36.1394572], [-95.888587, 36.139457], [-95.8885799, 36.139457], [-95.8885797, 36.1394834], [-95.8885017, 36.1394829], [-95.8885026, 36.1393763], [-95.8887306, 36.1393777]]]}, "properties": {"osm_id": 1416153193, "building": "semidetached_house", "name": "", "height": null, "height_m": null, "levels": null, "tract_id": "40143007101", "tract_name": "71.01", "tags": {"building": "semidetached_house"}}}, {"type": "Feature", "geometry": {"type": "Polygon", "coordinates": [[[-95.8883259, 36.1395237], [-95.8881933, 36.139524], [-95.8881931, 36.1394582], [-95.8882265, 36.1394581], [-95.8882265, 36.1394528], [-95.8882264, 36.1394274], [-95.8882264, 36.1394185], [-95.8881935, 36.1394186], [-95.8881932, 36.1393556], [-95.8883252, 36.1393553], [-95.8883259, 36.1395237]]]}, "properties": {"osm_id": 1416153194, "building": "semidetached_house", "name": "", "height": null, "height_m": null, "levels": null, "tract_id": "40143007101", "tract_name": "71.01", "tags": {"building": "semidetached_house"}}}, {"type": "Feature", "geometry": {"type": "Polygon", "coordinates": [[[-95.8874052, 36.1348193], [-95.8874057, 36.134774], [-95.8874548, 36.1347744], [-95.8874544, 36.1348196], [-95.8874052, 36.1348193]]]}, "properties": {"osm_id": 1433611923, "building": "yes", "name": "", "height": null, "height_m": null, "levels": null, "tract_id": "40143007101", "tract_name": "71.01", "tags": {"building": "yes"}}}, {"type": "Feature", "geometry": {"type": "Polygon", "coordinates": [[[-95.8878551, 36.1361656], [-95.8878015, 36.1361656], [-95.8878015, 36.1361169], [-95.8878551, 36.1361169], [-95.8878551, 36.1361656]]]}, "properties": {"osm_id": 1433613515, "building": "yes", "name": "", "height": null, "height_m": null, "levels": null, "tract_id": "40143007101", "tract_name": "71.01", "tags": {"building": "yes"}}}, {"type": "Feature", "geometry": {"type": "Polygon", "coordinates": [[[-95.8877539, 36.1360021], [-95.8877552, 36.1358986], [-95.8878357, 36.1358993], [-95.8878343, 36.1360027], [-95.8877539, 36.1360021]]]}, "properties": {"osm_id": 1433613516, "building": "yes", "name": "", "height": null, "height_m": null, "levels": null, "tract_id": "40143007101", "tract_name": "71.01", "tags": {"building": "yes"}}}, {"type": "Feature", "geometry": {"type": "Polygon", "coordinates": [[[-95.8873328, 36.1358862], [-95.8873905, 36.1357995], [-95.8874662, 36.1358324], [-95.8874085, 36.1359191], [-95.8873328, 36.1358862]]]}, "properties": {"osm_id": 1433613517, "building": "yes", "name": "", "height": null, "height_m": null, "levels": null, "tract_id": "40143007101", "tract_name": "71.01", "tags": {"building": "yes"}}}, {"type": "Feature", "geometry": {"type": "Polygon", "coordinates": [[[-95.888004, 36.1368978], [-95.887776, 36.1368978], [-95.887776, 36.1367943], [-95.888004, 36.1367943], [-95.888004, 36.1368978]]]}, "properties": {"osm_id": 1433614266, "building": "detached", "name": "", "height": null, "height_m": null, "levels": null, "tract_id": "40143007101", "tract_name": "71.01", "tags": {"building": "detached"}}}, {"type": "Feature", "geometry": {"type": "Polygon", "coordinates": [[[-95.8878686, 36.1420358], [-95.8878264, 36.1420368], [-95.8878237, 36.1419648], [-95.8878659, 36.1419638], [-95.8878686, 36.1420358]]]}, "properties": {"osm_id": 1433636667, "building": "yes", "name": "", "height": null, "height_m": null, "levels": null, "tract_id": "40143007101", "tract_name": "71.01", "tags": {"building": "yes"}}}, {"type": "Feature", "geometry": {"type": "Polygon", "coordinates": [[[-95.8875997, 36.1436213], [-95.8874756, 36.1436219], [-95.8874753, 36.1435682], [-95.8875993, 36.1435677], [-95.8875997, 36.1436213]]]}, "properties": {"osm_id": 1433636942, "building": "yes", "name": "", "height": null, "height_m": null, "levels": null, "tract_id": "40143007101", "tract_name": "71.01", "tags": {"building": "yes"}}}, {"type": "Feature", "geometry": {"type": "Polygon", "coordinates": [[[-95.8871491, 36.1438888], [-95.8872163, 36.1438016], [-95.886987, 36.1436862], [-95.8869197, 36.1437735], [-95.8871491, 36.1438888]]]}, "properties": {"osm_id": 1433636943, "building": "detached", "name": "", "height": null, "height_m": null, "levels": null, "tract_id": "40143007101", "tract_name": "71.01", "tags": {"building": "detached"}}}, {"type": "Feature", "geometry": {"type": "Polygon", "coordinates": [[[-95.8873224, 36.1396562], [-95.8872806, 36.1396565], [-95.8872804, 36.1396314], [-95.8873221, 36.1396311], [-95.8873224, 36.1396562]]]}, "properties": {"osm_id": 1433776167, "building": "yes", "name": "", "height": null, "height_m": null, "levels": null, "tract_id": "40143007101", "tract_name": "71.01", "tags": {"building": "yes"}}}, {"type": "Feature", "geometry": {"type": "Polygon", "coordinates": [[[-95.8873518, 36.1396977], [-95.8872813, 36.1396979], [-95.8872811, 36.1396648], [-95.8873516, 36.1396645], [-95.8873518, 36.1396977]]]}, "properties": {"osm_id": 1433776168, "building": "yes", "name": "", "height": null, "height_m": null, "levels": null, "tract_id": "40143007101", "tract_name": "71.01", "tags": {"building": "yes"}}}, {"type": "Feature", "geometry": {"type": "Polygon", "coordinates": [[[-95.8873443, 36.1396233], [-95.8872594, 36.1396225], [-95.8872605, 36.139551], [-95.8873453, 36.1395518], [-95.8873443, 36.1396233]]]}, "properties": {"osm_id": 1433776169, "building": "yes", "name": "", "height": null, "height_m": null, "levels": null, "tract_id": "40143007101", "tract_name": "71.01", "tags": {"building": "yes"}}}, {"type": "Feature", "geometry": {"type": "Polygon", "coordinates": [[[-95.8874288, 36.1396004], [-95.8873531, 36.1396001], [-95.8873539, 36.1394981], [-95.8874295, 36.1394984], [-95.8874288, 36.1396004]]]}, "properties": {"osm_id": 1433776170, "building": "yes", "name": "", "height": null, "height_m": null, "levels": null, "tract_id": "40143007101", "tract_name": "71.01", "tags": {"building": "yes"}}}, {"type": "Feature", "geometry": {"type": "Polygon", "coordinates": [[[-95.8873333, 36.1395371], [-95.8872714, 36.1395367], [-95.8872724, 36.1394383], [-95.8873343, 36.1394387], [-95.8873333, 36.1395371]]]}, "properties": {"osm_id": 1433776171, "building": "yes", "name": "", "height": null, "height_m": null, "levels": null, "tract_id": "40143007101", "tract_name": "71.01", "tags": {"building": "yes"}}}, {"type": "Feature", "geometry": {"type": "Polygon", "coordinates": [[[-95.8873525, 36.1393915], [-95.8873166, 36.1393909], [-95.8873176, 36.1393486], [-95.8873535, 36.1393492], [-95.8873525, 36.1393915]]]}, "properties": {"osm_id": 1433776172, "building": "yes", "name": "", "height": null, "height_m": null, "levels": null, "tract_id": "40143007101", "tract_name": "71.01", "tags": {"building": "yes"}}}]}