{"type": "FeatureCollection", "features": [{"type": "Feature", "geometry": {"type": "Polygon", "coordinates": [[[-97.5958892, 35.9538424], [-97.5958892, 35.9541551], [-97.5957148, 35.9541508], [-97.5957175, 35.9538446], [-97.5958892, 35.9538424]]]}, "properties": {"osm_id": 226907768, "building": "yes", "name": "", "height": null, "height_m": null, "levels": null, "tract_id": "40083600700", "tract_name": "6007", "tags": {"building": "yes"}}}, {"type": "Feature", "geometry": {"type": "Polygon", "coordinates": [[[-97.4774279, 36.1253202], [-97.4774396, 36.1251836], [-97.4771947, 36.1251695], [-97.4771831, 36.125306], [-97.4774279, 36.1253202]]]}, "properties": {"osm_id": 255575909, "building": "house", "name": "", "height": null, "height_m": 6.0, "levels": 2, "tract_id": "40083600700", "tract_name": "6007", "tags": {"addr:city": "Mulhall", "addr:housename": "Blagden", "addr:housenumber": "24000", "addr:postcode": "73063", "addr:street": "North Broadway", "building": "house", "building:levels": "2"}}}, {"type": "Feature", "geometry": {"type": "Polygon", "coordinates": [[[-97.47804, 36.125791], [-97.4780575, 36.1256027], [-97.4779526, 36.1255886], [-97.4779234, 36.1257816], [-97.47804, 36.125791]]]}, "properties": {"osm_id": 255575910, "building": "yes", "name": "", "height": null, "height_m": null, "levels": null, "tract_id": "40083600700", "tract_name": "6007", "tags": {"building": "yes"}}}, {"type": "Feature", "geometry": {"type": "Polygon", "coordinates": [[[-97.5865808, 36.116366], [-97.5865824, 36.1163257], [-97.5866804, 36.1163282], [-97.5866843, 36.1162312], [-97.586369, 36.1162229], [-97.5863634, 36.1163603], [-97.5865808, 36.116366]]]}, "properties": {"osm_id": 724475932, "building": "yes", "name": "", "height": null, "height_m": null, "levels": null, "tract_id": "40083600700", "tract_name": "6007", "tags": {"building": "yes", "shop": "convenience"}}}, {"type": "Feature", "geometry": {"type": "Polygon", "coordinates": [[[-97.5866118, 36.1162255], [-97.5864657, 36.116222], [-97.5864688, 36.1161379], [-97.5866149, 36.1161413], [-97.5866118, 36.1162255]]]}, "properties": {"osm_id": 724475933, "building": "roof", "name": "", "height": null, "height_m": null, "levels": null, "tract_id": "40083600700", "tract_name": "6007", "tags": {"amenity": "fuel", "building": "roof", "shop": "fuel"}}}, {"type": "Feature", "geometry": {"type": "Polygon", "coordinates": [[[-97.586903, 36.1163007], [-97.5868113, 36.1163493], [-97.5867679, 36.1162959], [-97.5868596, 36.1162473], [-97.586903, 36.1163007]]]}, "properties": {"osm_id": 724475934, "building": "yes", "name": "", "height": null, "height_m": null, "levels": null, "tract_id": "40083600700", "tract_name": "6007", "tags": {"amenity": "fuel", "building": "yes", "shop": "fuel"}}}, {"type": "Feature", "geometry": {"type": "Polygon", "coordinates": [[[-97.3652551, 36.0841472], [-97.3651974, 36.084198], [-97.3651809, 36.0841857], [-97.365046, 36.0843042], [-97.3649018, 36.084197], [-97.3649638, 36.0841425], [-97.3650022, 36.0841711], [-97.3650885, 36.0840952], [-97.3650658, 36.0840784], [-97.36511, 36.0840395], [-97.3652551, 36.0841472]]]}, "properties": {"osm_id": 792514693, "building": "house", "name": "", "height": null, "height_m": null, "levels": null, "tract_id": "40083600700", "tract_name": "6007", "tags": {"addr:city": "Mulhall", "addr:housenumber": "4727", "addr:postcode": "73063", "addr:state": "OK", "addr:street": "East County Road 64", "building": "house"}}}, {"type": "Feature", "geometry": {"type": "Polygon", "coordinates": [[[-97.3647225, 36.0842568], [-97.3647408, 36.0841401], [-97.3645341, 36.0841188], [-97.3645157, 36.0842355], [-97.3647225, 36.0842568]]]}, "properties": {"osm_id": 792635309, "building": "yes", "name": "", "height": null, "height_m": null, "levels": null, "tract_id": "40083600700", "tract_name": "6007", "tags": {"building": "yes"}}}, {"type": "Feature", "geometry": {"type": "Polygon", "coordinates": [[[-97.5890623, 35.9551081], [-97.5890493, 35.9548434], [-97.5886348, 35.9548567], [-97.5886478, 35.9551214], [-97.5890623, 35.9551081]]]}, "properties": {"osm_id": 890510965, "building": "yes", "name": "", "height": null, "height_m": null, "levels": null, "tract_id": "40083600700", "tract_name": "6007", "tags": {"building": "yes"}}}, {"type": "Feature", "geometry": {"type": "Polygon", "coordinates": [[[-97.4053059, 36.0644611], [-97.4053052, 36.0643723], [-97.4052509, 36.0643726], [-97.4052516, 36.0644614], [-97.4053059, 36.0644611]]]}, "properties": {"osm_id": 1057782379, "building": "yes", "name": "", "height": null, "height_m": null, "levels": null, "tract_id": "40083600700", "tract_name": "6007", "tags": {"addr:city": "Mulhall", "addr:housenumber": "205", "addr:postcode": "73063", "addr:state": "OK", "addr:street": "Baty Avenue", "building": "yes", "telecom": "exchange"}}}, {"type": "Feature", "geometry": {"type": "Polygon", "coordinates": [[[-97.4068987, 36.0635904], [-97.4068969, 36.0633052], [-97.4065332, 36.0633067], [-97.4065339, 36.0634189], [-97.406388, 36.0634195], [-97.4063891, 36.0635926], [-97.4068987, 36.0635904]]]}, "properties": {"osm_id": 1067766815, "building": "yes", "name": "", "height": null, "height_m": null, "levels": null, "tract_id": "40083600700", "tract_name": "6007", "tags": {"building": "yes"}}}, {"type": "Feature", "geometry": {"type": "Polygon", "coordinates": [[[-97.4074151, 36.0658117], [-97.4071964, 36.0658129], [-97.407195, 36.0656568], [-97.4074137, 36.0656556], [-97.4074151, 36.0658117]]]}, "properties": {"osm_id": 1067766817, "building": "yes", "name": "", "height": null, "height_m": null, "levels": null, "tract_id": "40083600700", "tract_name": "6007", "tags": {"building": "yes"}}}, {"type": "Feature", "geometry": {"type": "Polygon", "coordinates": [[[-97.4073158, 36.06512], [-97.4072233, 36.06512], [-97.4072233, 36.0650051], [-97.4073158, 36.0650051], [-97.4073158, 36.06512]]]}, "properties": {"osm_id": 1067766818, "building": "yes", "name": "", "height": null, "height_m": null, "levels": null, "tract_id": "40083600700", "tract_name": "6007", "tags": {"building": "yes"}}}, {"type": "Feature", "geometry": {"type": "Polygon", "coordinates": [[[-97.4039618, 36.0634699], [-97.4039604, 36.0635637], [-97.4041347, 36.0635655], [-97.4041361, 36.0634716], [-97.4039618, 36.0634699]]]}, "properties": {"osm_id": 1067766823, "building": "yes", "name": "", "height": null, "height_m": null, "levels": null, "tract_id": "40083600700", "tract_name": "6007", "tags": {"building": "yes"}}}, {"type": "Feature", "geometry": {"type": "Polygon", "coordinates": [[[-97.403932, 36.0634696], [-97.4035823, 36.0634662], [-97.4035808, 36.06356], [-97.4036493, 36.0635607], [-97.4036485, 36.0636128], [-97.4037317, 36.0636136], [-97.4037324, 36.0635615], [-97.4039305, 36.0635635], [-97.403932, 36.0634696]]]}, "properties": {"osm_id": 1067766824, "building": "yes", "name": "", "height": null, "height_m": null, "levels": null, "tract_id": "40083600700", "tract_name": "6007", "tags": {"building": "yes"}}}, {"type": "Feature", "geometry": {"type": "Polygon", "coordinates": [[[-97.4061209, 36.0653488], [-97.4059425, 36.0653488], [-97.4059425, 36.0651265], [-97.4061209, 36.0651265], [-97.4061209, 36.0653488]]]}, "properties": {"osm_id": 1067766825, "building": "yes", "name": "", "height": null, "height_m": null, "levels": null, "tract_id": "40083600700", "tract_name": "6007", "tags": {"building": "yes"}}}, {"type": "Feature", "geometry": {"type": "Polygon", "coordinates": [[[-97.4063851, 36.0653108], [-97.4063851, 36.065197], [-97.4061678, 36.065197], [-97.4061678, 36.0653108], [-97.4063851, 36.0653108]]]}, "properties": {"osm_id": 1067766826, "building": "yes", "name": "", "height": null, "height_m": null, "levels": null, "tract_id": "40083600700", "tract_name": "6007", "tags": {"building": "yes"}}}, {"type": "Feature", "geometry": {"type": "Polygon", "coordinates": [[[-97.403947, 36.0664545], [-97.4039463, 36.0663062], [-97.4037512, 36.0663068], [-97.4037507, 36.0661993], [-97.4035589, 36.0661999], [-97.4035594, 36.0663074], [-97.4032208, 36.0663084], [-97.4032214, 36.0664567], [-97.403947, 36.0664545]]]}, "properties": {"osm_id": 1067766827, "building": "yes", "name": "", "height": null, "height_m": null, "levels": null, "tract_id": "40083600700", "tract_name": "6007", "tags": {"addr:housenumber": "204", "addr:street": "North Mc Millan Street", "amenity": "place_of_worship", "building": "yes", "denomination": "baptist", "religion": "christian"}}}, {"type": "Feature", "geometry": {"type": "Polygon", "coordinates": [[[-97.4074258, 36.0647428], [-97.4072513, 36.0647433], [-97.4072499, 36.0644756], [-97.4074245, 36.064475], [-97.4074258, 36.0647428]]]}, "properties": {"osm_id": 1067766828, "building": "yes", "name": "", "height": null, "height_m": null, "levels": null, "tract_id": "40083600700", "tract_name": "6007", "tags": {"building": "yes"}}}, {"type": "Feature", "geometry": {"type": "Polygon", "coordinates": [[[-97.405103, 36.0646777], [-97.4049126, 36.0646772], [-97.404914, 36.0643812], [-97.4051043, 36.0643818], [-97.4051042, 36.0644056], [-97.4051768, 36.0644058], [-97.4051765, 36.0644709], [-97.4051039, 36.0644707], [-97.405103, 36.0646777]]]}, "properties": {"osm_id": 1067766829, "building": "yes", "name": "", "height": null, "height_m": null, "levels": null, "tract_id": "40083600700", "tract_name": "6007", "tags": {"building": "yes"}}}, {"type": "Feature", "geometry": {"type": "Polygon", "coordinates": [[[-97.4054638, 36.0642463], [-97.4052507, 36.0642449], [-97.4052534, 36.0639652], [-97.4054664, 36.0639666], [-97.4054654, 36.0640707], [-97.4055014, 36.0640709], [-97.4055006, 36.0641511], [-97.4054647, 36.0641509], [-97.4054638, 36.0642463]]]}, "properties": {"osm_id": 1067766830, "building": "yes", "name": "", "height": null, "height_m": null, "levels": null, "tract_id": "40083600700", "tract_name": "6007", "tags": {"amenity": "place_of_worship", "building": "yes", "religion": "christian"}}}, {"type": "Feature", "geometry": {"type": "Polygon", "coordinates": [[[-97.4046779, 36.0635785], [-97.4047758, 36.063578], [-97.404776, 36.0636133], [-97.4053028, 36.063611], [-97.4053009, 36.0633111], [-97.4048853, 36.0633129], [-97.404883, 36.0629596], [-97.4046738, 36.0629605], [-97.4046779, 36.0635785]]]}, "properties": {"osm_id": 1067766831, "building": "yes", "name": "", "height": null, "height_m": null, "levels": null, "tract_id": "40083600700", "tract_name": "6007", "tags": {"building": "yes"}}}, {"type": "Feature", "geometry": {"type": "Polygon", "coordinates": [[[-97.6665682, 35.8682759], [-97.6664999, 35.8682753], [-97.6664974, 35.8682371], [-97.6664543, 35.8682384], [-97.6664511, 35.8681152], [-97.6665722, 35.8681139], [-97.6665722, 35.8681409], [-97.6666072, 35.8681442], [-97.6666105, 35.8681784], [-97.6665609, 35.8681804], [-97.6665682, 35.8682759]]]}, "properties": {"osm_id": 1266970471, "building": "house", "name": "", "height": null, "height_m": null, "levels": null, "tract_id": "40083600700", "tract_name": "6007", "tags": {"building": "house"}}}, {"type": "Feature", "geometry": {"type": "Polygon", "coordinates": [[[-97.6663969, 35.8686999], [-97.6662906, 35.8686938], [-97.666296, 35.8686695], [-97.6662499, 35.8686642], [-97.6662488, 35.8685503], [-97.6663464, 35.8685625], [-97.6663432, 35.8686321], [-97.6664054, 35.8686408], [-97.6663969, 35.8686999]]]}, "properties": {"osm_id": 1266970472, "building": "house", "name": "", "height": null, "height_m": null, "levels": null, "tract_id": "40083600700", "tract_name": "6007", "tags": {"building": "house"}}}, {"type": "Feature", "geometry": {"type": "Polygon", "coordinates": [[[-97.4876373, 36.0197058], [-97.4877011, 36.0195241], [-97.487434, 36.0194627], [-97.4874248, 36.0194887], [-97.4873821, 36.0194789], [-97.4873784, 36.0194893], [-97.4873294, 36.0194781], [-97.4872946, 36.0195774], [-97.4873816, 36.0195974], [-97.4873752, 36.0196154], [-97.4874659, 36.0196362], [-97.4874529, 36.0196733], [-97.4875424, 36.0196939], [-97.4875456, 36.0196847], [-97.4876373, 36.0197058]]]}, "properties": {"osm_id": 1292424354, "building": "detached", "name": "", "height": null, "height_m": null, "levels": null, "tract_id": "40083600700", "tract_name": "6007", "tags": {"addr:city": "Mulhall", "addr:housenumber": "13720", "addr:postcode": "73063", "addr:state": "OK", "addr:street": "Kellbroad Road", "building": "detached"}}}, {"type": "Feature", "geometry": {"type": "Polygon", "coordinates": [[[-97.6214881, 36.1539587], [-97.6214895, 36.1537638], [-97.6208162, 36.1537595], [-97.6208176, 36.1539533], [-97.6214881, 36.1539587]]]}, "properties": {"osm_id": 1350963304, "building": "yes", "name": "", "height": null, "height_m": null, "levels": null, "tract_id": "40083600700", "tract_name": "6007", "tags": {"building": "yes"}}}, {"type": "Feature", "geometry": {"type": "Polygon", "coordinates": [[[-97.594667, 35.9465639], [-97.5945228, 35.9465648], [-97.594519, 35.9462413], [-97.594661, 35.9462401], [-97.594667, 35.9465639]]]}, "properties": {"osm_id": 1378103128, "building": "yes", "name": "", "height": null, "height_m": null, "levels": null, "tract_id": "40083600700", "tract_name": "6007", "tags": {"building": "yes"}}}, {"type": "Feature", "geometry": {"type": "Polygon", "coordinates": [[[-97.5948739, 35.9464989], [-97.5949748, 35.9465008], [-97.5949694, 35.9462601], [-97.5948713, 35.946262], [-97.5948739, 35.9464989]]]}, "properties": {"osm_id": 1378103129, "building": "yes", "name": "", "height": null, "height_m": null, "levels": null, "tract_id": "40083600700", "tract_name": "6007", "tags": {"building": "yes"}}}]}