{"type": "FeatureCollection", "features": [{"type": "Feature", "geometry": {"type": "Polygon", "coordinates": [[[-96.9109957, 35.3482914], [-96.9105973, 35.3482826], [-96.9106134, 35.3477937], [-96.9110118, 35.3478025], [-96.9109957, 35.3482914]]]}, "properties": {"osm_id": 376220273, "building": "yes", "name": "", "height": null, "height_m": null, "levels": null, "tract_id": "40125500800", "tract_name": "5008", "tags": {"building": "yes", "source": "Bing"}}}, {"type": "Feature", "geometry": {"type": "Polygon", "coordinates": [[[-96.9117079, 35.3478802], [-96.9113178, 35.3478927], [-96.9113078, 35.3476403], [-96.9116991, 35.3476383], [-96.9117079, 35.3478802]]]}, "properties": {"osm_id": 376220288, "building": "yes", "name": "", "height": null, "height_m": null, "levels": null, "tract_id": "40125500800", "tract_name": "5008", "tags": {"building": "yes", "source": "Bing"}}}, {"type": "Feature", "geometry": {"type": "Polygon", "coordinates": [[[-96.9116702, 35.3483691], [-96.9113792, 35.3483663], [-96.9113825, 35.3481322], [-96.9116736, 35.348135], [-96.9116702, 35.3483691]]]}, "properties": {"osm_id": 376220290, "building": "yes", "name": "", "height": null, "height_m": null, "levels": null, "tract_id": "40125500800", "tract_name": "5008", "tags": {"building": "yes", "source": "Bing"}}}, {"type": "Feature", "geometry": {"type": "Polygon", "coordinates": [[[-96.8924824, 35.3594408], [-96.8926272, 35.3594342], [-96.8926192, 35.3593653], [-96.892583, 35.359362], [-96.892579, 35.3592931], [-96.8926004, 35.3592898], [-96.8925951, 35.3592373], [-96.8924019, 35.3592461], [-96.8924073, 35.3593391], [-96.892461, 35.3593369], [-96.8924824, 35.3594408]]]}, "properties": {"osm_id": 417950760, "building": "house", "name": "", "height": null, "height_m": 3.0, "levels": 1, "tract_id": "40125500800", "tract_name": "5008", "tags": {"building": "house", "building:levels": "1"}}}, {"type": "Feature", "geometry": {"type": "Polygon", "coordinates": [[[-96.8990502, 35.3602914], [-96.8990526, 35.3604534], [-96.8989131, 35.3604548], [-96.8989107, 35.3602927], [-96.8990502, 35.3602914]]]}, "properties": {"osm_id": 519087657, "building": "house", "name": "", "height": null, "height_m": null, "levels": null, "tract_id": "40125500800", "tract_name": "5008", "tags": {"addr:city": "Shawnee", "addr:housenumber": "1709", "addr:postcode": "74804", "addr:state": "OK", "addr:street": "Regency Court", "building": "house"}}}, {"type": "Feature", "geometry": {"type": "Polygon", "coordinates": [[[-96.8985098, 35.3613099], [-96.8983611, 35.361388], [-96.8982586, 35.3612581], [-96.8983373, 35.3612168], [-96.8983801, 35.3612711], [-96.8984501, 35.3612343], [-96.8985098, 35.3613099]]]}, "properties": {"osm_id": 519087765, "building": "house", "name": "", "height": null, "height_m": null, "levels": null, "tract_id": "40125500800", "tract_name": "5008", "tags": {"addr:city": "Shawnee", "addr:housenumber": "2732", "addr:postcode": "74804", "addr:state": "OK", "addr:street": "Legacy Place", "building": "house"}}}, {"type": "Feature", "geometry": {"type": "Polygon", "coordinates": [[[-96.8988813, 35.3608812], [-96.8986828, 35.3608856], [-96.8986721, 35.360715], [-96.8988759, 35.3607106], [-96.8988813, 35.3608812]]]}, "properties": {"osm_id": 519087978, "building": "house", "name": "", "height": null, "height_m": null, "levels": null, "tract_id": "40125500800", "tract_name": "5008", "tags": {"addr:city": "Shawnee", "addr:housenumber": "1712", "addr:postcode": "74804", "addr:state": "OK", "addr:street": "Regency Court", "building": "house"}}}, {"type": "Feature", "geometry": {"type": "Polygon", "coordinates": [[[-96.8982542, 35.3614253], [-96.8981088, 35.3614641], [-96.8980544, 35.3613285], [-96.8981278, 35.3613089], [-96.8981179, 35.3612842], [-96.8981899, 35.361265], [-96.8982542, 35.3614253]]]}, "properties": {"osm_id": 519089107, "building": "house", "name": "", "height": null, "height_m": null, "levels": null, "tract_id": "40125500800", "tract_name": "5008", "tags": {"addr:city": "Shawnee", "addr:housenumber": "2736", "addr:postcode": "74804", "addr:state": "OK", "addr:street": "Legacy Place", "building": "house"}}}, {"type": "Feature", "geometry": {"type": "Polygon", "coordinates": [[[-96.8966594, 35.3614446], [-96.8964236, 35.3613138], [-96.8965936, 35.36111], [-96.8966867, 35.3611616], [-96.8965959, 35.3612705], [-96.8967386, 35.3613497], [-96.8966594, 35.3614446]]]}, "properties": {"osm_id": 519089618, "building": "house", "name": "", "height": null, "height_m": null, "levels": null, "tract_id": "40125500800", "tract_name": "5008", "tags": {"addr:city": "Shawnee", "addr:housenumber": "2727", "addr:postcode": "74804", "addr:state": "OK", "addr:street": "Woodlawn Court", "building": "house"}}}, {"type": "Feature", "geometry": {"type": "Polygon", "coordinates": [[[-96.8961967, 35.3606644], [-96.8960214, 35.3607157], [-96.8959384, 35.3605272], [-96.8961137, 35.3604758], [-96.8961967, 35.3606644]]]}, "properties": {"osm_id": 519089981, "building": "house", "name": "", "height": null, "height_m": null, "levels": null, "tract_id": "40125500800", "tract_name": "5008", "tags": {"addr:city": "Shawnee", "addr:housenumber": "2715", "addr:postcode": "74804", "addr:state": "OK", "addr:street": "Woodlawn Court", "building": "house"}}}, {"type": "Feature", "geometry": {"type": "Polygon", "coordinates": [[[-96.8963734, 35.3608713], [-96.8961976, 35.3609443], [-96.8960947, 35.3607796], [-96.8962705, 35.3607066], [-96.8963734, 35.3608713]]]}, "properties": {"osm_id": 519089983, "building": "house", "name": "", "height": null, "height_m": null, "levels": null, "tract_id": "40125500800", "tract_name": "5008", "tags": {"addr:city": "Shawnee", "addr:housenumber": "2719", "addr:postcode": "74804", "addr:state": "OK", "addr:street": "Woodlawn Court", "building": "house"}}}, {"type": "Feature", "geometry": {"type": "Polygon", "coordinates": [[[-96.911135, 35.3631683], [-96.9111315, 35.3629631], [-96.9108666, 35.362966], [-96.9108671, 35.3629946], [-96.910752, 35.3629959], [-96.9107549, 35.3631757], [-96.9105673, 35.3631778], [-96.9105688, 35.3632659], [-96.9105431, 35.3632662], [-96.9105466, 35.3634753], [-96.9107877, 35.3634726], [-96.9107901, 35.3636105], [-96.9109656, 35.3636085], [-96.9109607, 35.3633178], [-96.9113376, 35.3633136], [-96.9113351, 35.3631661], [-96.911135, 35.3631683]]]}, "properties": {"osm_id": 740307189, "building": "yes", "name": "Cinema Centre 8", "height": null, "height_m": null, "levels": null, "tract_id": "40125500800", "tract_name": "5008", "tags": {"amenity": "cinema", "building": "yes", "name": "Cinema Centre 8", "screen": "8", "website": "https://www.jonestheatres.com/cinema-centre-8/", "wikidata": "Q43194547"}}}, {"type": "Feature", "geometry": {"type": "Polygon", "coordinates": [[[-96.9115864, 35.3505083], [-96.9115773, 35.3496475], [-96.9115555, 35.3496474], [-96.9113263, 35.3496457], [-96.911324, 35.3500073], [-96.9112072, 35.3500092], [-96.911214, 35.3502887], [-96.9113424, 35.3502905], [-96.9113458, 35.3505111], [-96.9115864, 35.3505083]]]}, "properties": {"osm_id": 768602563, "building": "yes", "name": "", "height": null, "height_m": null, "levels": null, "tract_id": "40125500800", "tract_name": "5008", "tags": {"building": "yes"}}}, {"type": "Feature", "geometry": {"type": "Polygon", "coordinates": [[[-96.9112037, 35.3496475], [-96.9113263, 35.3496457], [-96.9115555, 35.3496474], [-96.9115532, 35.3494176], [-96.9111968, 35.3494148], [-96.9112037, 35.3496475]]]}, "properties": {"osm_id": 768602564, "building": "yes", "name": "", "height": null, "height_m": null, "levels": null, "tract_id": "40125500800", "tract_name": "5008", "tags": {"building": "yes"}}}, {"type": "Feature", "geometry": {"type": "Polygon", "coordinates": [[[-96.9116109, 35.3550061], [-96.9113913, 35.3550061], [-96.9113913, 35.3546683], [-96.9116043, 35.3546683], [-96.9116109, 35.3550061]]]}, "properties": {"osm_id": 768602596, "building": "yes", "name": "", "height": null, "height_m": null, "levels": null, "tract_id": "40125500800", "tract_name": "5008", "tags": {"building": "yes"}}}, {"type": "Feature", "geometry": {"type": "Polygon", "coordinates": [[[-96.9116583, 35.3538093], [-96.9111955, 35.3538163], [-96.9112083, 35.3542059], [-96.9112979, 35.3542077], [-96.9113, 35.3541137], [-96.9114685, 35.3541103], [-96.9114621, 35.3540146], [-96.9116668, 35.3540128], [-96.9116583, 35.3538093]]]}, "properties": {"osm_id": 768602600, "building": "yes", "name": "", "height": null, "height_m": null, "levels": null, "tract_id": "40125500800", "tract_name": "5008", "tags": {"building": "yes"}}}, {"type": "Feature", "geometry": {"type": "Polygon", "coordinates": [[[-96.8982619, 35.352214], [-96.8982631, 35.351967], [-96.8981057, 35.3519665], [-96.8981051, 35.3520878], [-96.8981364, 35.3520879], [-96.898136, 35.3521654], [-96.8980628, 35.3521651], [-96.8980622, 35.3522794], [-96.8981718, 35.3522798], [-96.8981721, 35.3522137], [-96.8982619, 35.352214]]]}, "properties": {"osm_id": 948293198, "building": "house", "name": "", "height": null, "height_m": null, "levels": null, "tract_id": "40125500800", "tract_name": "5008", "tags": {"building": "house"}}}, {"type": "Feature", "geometry": {"type": "Polygon", "coordinates": [[[-96.9001964, 35.3549264], [-96.9002975, 35.3550348], [-96.9005307, 35.3548901], [-96.900399, 35.3547488], [-96.9003241, 35.3547951], [-96.9003549, 35.3548281], [-96.9001964, 35.3549264]]]}, "properties": {"osm_id": 948293199, "building": "house", "name": "", "height": null, "height_m": null, "levels": null, "tract_id": "40125500800", "tract_name": "5008", "tags": {"building": "house"}}}, {"type": "Feature", "geometry": {"type": "Polygon", "coordinates": [[[-96.9021826, 35.3535112], [-96.9021843, 35.3533341], [-96.9020494, 35.3533332], [-96.9020489, 35.3533762], [-96.9019834, 35.3533758], [-96.9019823, 35.3534903], [-96.9020732, 35.3534908], [-96.902073, 35.3535105], [-96.9021826, 35.3535112]]]}, "properties": {"osm_id": 948293200, "building": "house", "name": "", "height": null, "height_m": null, "levels": null, "tract_id": "40125500800", "tract_name": "5008", "tags": {"building": "house"}}}, {"type": "Feature", "geometry": {"type": "Polygon", "coordinates": [[[-96.9024622, 35.3531662], [-96.9021934, 35.3531632], [-96.9021964, 35.3529841], [-96.9023342, 35.3529856], [-96.9023322, 35.3531008], [-96.9024633, 35.3531023], [-96.9024622, 35.3531662]]]}, "properties": {"osm_id": 948293201, "building": "house", "name": "", "height": null, "height_m": null, "levels": null, "tract_id": "40125500800", "tract_name": "5008", "tags": {"building": "house"}}}, {"type": "Feature", "geometry": {"type": "Polygon", "coordinates": [[[-96.9018537, 35.3534901], [-96.9018525, 35.353337], [-96.9017731, 35.3533374], [-96.9017728, 35.353296], [-96.9016706, 35.3532965], [-96.901672, 35.3534711], [-96.9017729, 35.3534706], [-96.901773, 35.3534905], [-96.9018537, 35.3534901]]]}, "properties": {"osm_id": 948293202, "building": "house", "name": "", "height": null, "height_m": null, "levels": null, "tract_id": "40125500800", "tract_name": "5008", "tags": {"building": "house"}}}, {"type": "Feature", "geometry": {"type": "Polygon", "coordinates": [[[-96.9010317, 35.3537801], [-96.9010336, 35.3535538], [-96.9011088, 35.3535542], [-96.9011085, 35.3535897], [-96.9011314, 35.3535898], [-96.9011311, 35.3536166], [-96.9012285, 35.3536171], [-96.9012271, 35.3537812], [-96.9010317, 35.3537801]]]}, "properties": {"osm_id": 948293203, "building": "house", "name": "", "height": null, "height_m": null, "levels": null, "tract_id": "40125500800", "tract_name": "5008", "tags": {"building": "house"}}}, {"type": "Feature", "geometry": {"type": "Polygon", "coordinates": [[[-96.9029982, 35.3534045], [-96.9030031, 35.3532301], [-96.9028588, 35.3532274], [-96.9028557, 35.3533376], [-96.9028152, 35.3533368], [-96.9028134, 35.353401], [-96.9029982, 35.3534045]]]}, "properties": {"osm_id": 948293204, "building": "house", "name": "", "height": null, "height_m": null, "levels": null, "tract_id": "40125500800", "tract_name": "5008", "tags": {"building": "house"}}}, {"type": "Feature", "geometry": {"type": "Polygon", "coordinates": [[[-96.9019012, 35.3539496], [-96.9019013, 35.3538503], [-96.9015683, 35.35385], [-96.9015681, 35.3539483], [-96.9016756, 35.3539484], [-96.9016756, 35.3539945], [-96.9017583, 35.3539945], [-96.9017583, 35.3539494], [-96.9019012, 35.3539496]]]}, "properties": {"osm_id": 948293205, "building": "house", "name": "", "height": null, "height_m": null, "levels": null, "tract_id": "40125500800", "tract_name": "5008", "tags": {"building": "house"}}}, {"type": "Feature", "geometry": {"type": "Polygon", "coordinates": [[[-96.8980855, 35.359678], [-96.8980339, 35.3595399], [-96.8982151, 35.3594949], [-96.8982442, 35.3595726], [-96.8982257, 35.3595772], [-96.8982364, 35.3596059], [-96.8982188, 35.3596103], [-96.8982306, 35.3596419], [-96.8980855, 35.359678]]]}, "properties": {"osm_id": 948297739, "building": "house", "name": "", "height": null, "height_m": null, "levels": null, "tract_id": "40125500800", "tract_name": "5008", "tags": {"building": "house"}}}, {"type": "Feature", "geometry": {"type": "Polygon", "coordinates": [[[-96.8976139, 35.3597609], [-96.8975686, 35.3596511], [-96.89774, 35.3596041], [-96.8977593, 35.3596508], [-96.8977833, 35.3596442], [-96.8978015, 35.3596884], [-96.8977664, 35.359698], [-96.8977742, 35.3597169], [-96.8976139, 35.3597609]]]}, "properties": {"osm_id": 948297740, "building": "house", "name": "", "height": null, "height_m": null, "levels": null, "tract_id": "40125500800", "tract_name": "5008", "tags": {"building": "house"}}}, {"type": "Feature", "geometry": {"type": "Polygon", "coordinates": [[[-96.8978285, 35.3599504], [-96.8978063, 35.3598065], [-96.8976212, 35.3598255], [-96.897631, 35.3598889], [-96.8976823, 35.3598837], [-96.8976947, 35.3599641], [-96.8978285, 35.3599504]]]}, "properties": {"osm_id": 948297741, "building": "house", "name": "", "height": null, "height_m": null, "levels": null, "tract_id": "40125500800", "tract_name": "5008", "tags": {"building": "house"}}}, {"type": "Feature", "geometry": {"type": "Polygon", "coordinates": [[[-96.8977879, 35.3601773], [-96.8977949, 35.3600565], [-96.8977659, 35.3600554], [-96.8977677, 35.3600247], [-96.8976377, 35.3600196], [-96.8976301, 35.360151], [-96.8976518, 35.3601518], [-96.8976506, 35.360172], [-96.8977879, 35.3601773]]]}, "properties": {"osm_id": 948297742, "building": "house", "name": "", "height": null, "height_m": null, "levels": null, "tract_id": "40125500800", "tract_name": "5008", "tags": {"building": "house"}}}, {"type": "Feature", "geometry": {"type": "Polygon", "coordinates": [[[-96.8977819, 35.3603788], [-96.8977832, 35.360278], [-96.8977673, 35.3602779], [-96.8977679, 35.3602281], [-96.8976214, 35.3602268], [-96.8976195, 35.3603774], [-96.8977819, 35.3603788]]]}, "properties": {"osm_id": 948297743, "building": "house", "name": "", "height": null, "height_m": null, "levels": null, "tract_id": "40125500800", "tract_name": "5008", "tags": {"building": "house"}}}, {"type": "Feature", "geometry": {"type": "Polygon", "coordinates": [[[-96.8977118, 35.3605298], [-96.8977119, 35.360427], [-96.8975869, 35.3604269], [-96.8975869, 35.3604448], [-96.8975375, 35.3604448], [-96.8975374, 35.3605032], [-96.8975759, 35.3605032], [-96.8975758, 35.3605292], [-96.8975907, 35.3605292], [-96.8975906, 35.360581], [-96.8977463, 35.3605811], [-96.8977463, 35.3605298], [-96.8977118, 35.3605298]]]}, "properties": {"osm_id": 948297744, "building": "house", "name": "", "height": null, "height_m": null, "levels": null, "tract_id": "40125500800", "tract_name": "5008", "tags": {"building": "house"}}}, {"type": "Feature", "geometry": {"type": "Polygon", "coordinates": [[[-96.8982293, 35.360121], [-96.8982299, 35.360023], [-96.8982549, 35.3600231], [-96.8982553, 35.3599588], [-96.8981507, 35.3599584], [-96.8981506, 35.3599833], [-96.898061, 35.3599829], [-96.8980602, 35.3601203], [-96.8982293, 35.360121]]]}, "properties": {"osm_id": 948297745, "building": "house", "name": "", "height": null, "height_m": null, "levels": null, "tract_id": "40125500800", "tract_name": "5008", "tags": {"building": "house"}}}, {"type": "Feature", "geometry": {"type": "Polygon", "coordinates": [[[-96.8982479, 35.3599103], [-96.8982462, 35.3598126], [-96.8982914, 35.3598121], [-96.8982902, 35.3597435], [-96.8980686, 35.359746], [-96.8980694, 35.3597906], [-96.8981072, 35.3597902], [-96.8981093, 35.3599119], [-96.8982479, 35.3599103]]]}, "properties": {"osm_id": 948297746, "building": "house", "name": "", "height": null, "height_m": null, "levels": null, "tract_id": "40125500800", "tract_name": "5008", "tags": {"building": "house"}}}, {"type": "Feature", "geometry": {"type": "Polygon", "coordinates": [[[-96.8979827, 35.3590811], [-96.8979526, 35.3590088], [-96.8980025, 35.358995], [-96.8979695, 35.3589157], [-96.8977713, 35.3589705], [-96.8978343, 35.3591222], [-96.8979827, 35.3590811]]]}, "properties": {"osm_id": 948297747, "building": "house", "name": "", "height": null, "height_m": null, "levels": null, "tract_id": "40125500800", "tract_name": "5008", "tags": {"building": "house"}}}, {"type": "Feature", "geometry": {"type": "Polygon", "coordinates": [[[-96.8987785, 35.3594853], [-96.8987188, 35.3593393], [-96.8985664, 35.3593808], [-96.8986115, 35.359491], [-96.8986462, 35.3594816], [-96.8986608, 35.3595174], [-96.8987785, 35.3594853]]]}, "properties": {"osm_id": 948297748, "building": "house", "name": "", "height": null, "height_m": null, "levels": null, "tract_id": "40125500800", "tract_name": "5008", "tags": {"building": "house"}}}, {"type": "Feature", "geometry": {"type": "Polygon", "coordinates": [[[-96.8981287, 35.3594691], [-96.8980984, 35.3594004], [-96.8981593, 35.3593826], [-96.8981272, 35.3593096], [-96.8979421, 35.3593638], [-96.8980044, 35.3595055], [-96.8981287, 35.3594691]]]}, "properties": {"osm_id": 948297749, "building": "house", "name": "", "height": null, "height_m": null, "levels": null, "tract_id": "40125500800", "tract_name": "5008", "tags": {"building": "house"}}}, {"type": "Feature", "geometry": {"type": "Polygon", "coordinates": [[[-96.8976459, 35.3593801], [-96.8975896, 35.3592495], [-96.8975439, 35.3592626], [-96.897533, 35.3592375], [-96.8974176, 35.3592706], [-96.897436, 35.3593133], [-96.8974079, 35.3593213], [-96.8974566, 35.3594344], [-96.8976459, 35.3593801]]]}, "properties": {"osm_id": 948297750, "building": "house", "name": "", "height": null, "height_m": null, "levels": null, "tract_id": "40125500800", "tract_name": "5008", "tags": {"building": "house"}}}, {"type": "Feature", "geometry": {"type": "Polygon", "coordinates": [[[-96.8974743, 35.3594462], [-96.8975128, 35.35954], [-96.8975749, 35.359523], [-96.8976058, 35.3595984], [-96.8977379, 35.3595623], [-96.8977223, 35.3595242], [-96.8977381, 35.3595199], [-96.8977152, 35.3594643], [-96.8976929, 35.3594704], [-96.897667, 35.3594074], [-96.8975934, 35.3594276], [-96.8975883, 35.3594151], [-96.8974743, 35.3594462]]]}, "properties": {"osm_id": 948297751, "building": "house", "name": "", "height": null, "height_m": null, "levels": null, "tract_id": "40125500800", "tract_name": "5008", "tags": {"building": "house"}}}, {"type": "Feature", "geometry": {"type": "Polygon", "coordinates": [[[-96.8979665, 35.3592991], [-96.8978955, 35.3591449], [-96.8980497, 35.3590976], [-96.8981078, 35.3592236], [-96.8980837, 35.359231], [-96.8980967, 35.3592592], [-96.8979665, 35.3592991]]]}, "properties": {"osm_id": 948297752, "building": "house", "name": "", "height": null, "height_m": null, "levels": null, "tract_id": "40125500800", "tract_name": "5008", "tags": {"building": "house"}}}, {"type": "Feature", "geometry": {"type": "Polygon", "coordinates": [[[-96.897098, 35.3597372], [-96.8970443, 35.3596345], [-96.8970124, 35.3596456], [-96.896983, 35.3595894], [-96.8971532, 35.3595302], [-96.8971787, 35.3595789], [-96.8971556, 35.3595869], [-96.8972133, 35.3596971], [-96.897098, 35.3597372]]]}, "properties": {"osm_id": 948297753, "building": "house", "name": "", "height": null, "height_m": null, "levels": null, "tract_id": "40125500800", "tract_name": "5008", "tags": {"building": "house"}}}, {"type": "Feature", "geometry": {"type": "Polygon", "coordinates": [[[-96.8972733, 35.3599109], [-96.8972317, 35.3597675], [-96.8970841, 35.3597959], [-96.8971257, 35.3599394], [-96.8972733, 35.3599109]]]}, "properties": {"osm_id": 948297754, "building": "house", "name": "", "height": null, "height_m": null, "levels": null, "tract_id": "40125500800", "tract_name": "5008", "tags": {"building": "house"}}}, {"type": "Feature", "geometry": {"type": "Polygon", "coordinates": [[[-96.8972177, 35.3601688], [-96.8970961, 35.3601685], [-96.8970965, 35.3600163], [-96.8972713, 35.3600166], [-96.8972711, 35.3600854], [-96.897218, 35.3600853], [-96.8972177, 35.3601688]]]}, "properties": {"osm_id": 948297755, "building": "house", "name": "", "height": null, "height_m": null, "levels": null, "tract_id": "40125500800", "tract_name": "5008", "tags": {"building": "house"}}}, {"type": "Feature", "geometry": {"type": "Polygon", "coordinates": [[[-96.8970517, 35.3604088], [-96.8970507, 35.3602812], [-96.897004, 35.3602814], [-96.8970036, 35.360228], [-96.8972083, 35.360227], [-96.897209, 35.3603342], [-96.8971904, 35.3603342], [-96.8971907, 35.3603756], [-96.8971697, 35.3603757], [-96.8971699, 35.3604082], [-96.8970517, 35.3604088]]]}, "properties": {"osm_id": 948297756, "building": "house", "name": "", "height": null, "height_m": null, "levels": null, "tract_id": "40125500800", "tract_name": "5008", "tags": {"building": "house"}}}, {"type": "Feature", "geometry": {"type": "Polygon", "coordinates": [[[-96.8981957, 35.3603464], [-96.898196, 35.3602507], [-96.8981517, 35.3602506], [-96.8981519, 35.3601886], [-96.8980179, 35.3601884], [-96.8980175, 35.3603461], [-96.8981957, 35.3603464]]]}, "properties": {"osm_id": 948297757, "building": "house", "name": "", "height": null, "height_m": null, "levels": null, "tract_id": "40125500800", "tract_name": "5008", "tags": {"building": "house"}}}, {"type": "Feature", "geometry": {"type": "Polygon", "coordinates": [[[-96.898811, 35.3596788], [-96.8987791, 35.3595534], [-96.8986589, 35.3595736], [-96.898663, 35.3595898], [-96.8986336, 35.3595947], [-96.8986692, 35.3597348], [-96.8987979, 35.3597131], [-96.8987901, 35.3596823], [-96.898811, 35.3596788]]]}, "properties": {"osm_id": 948297758, "building": "house", "name": "", "height": null, "height_m": null, "levels": null, "tract_id": "40125500800", "tract_name": "5008", "tags": {"building": "house"}}}, {"type": "Feature", "geometry": {"type": "Polygon", "coordinates": [[[-96.8988531, 35.3604493], [-96.8988539, 35.360288], [-96.8987306, 35.3602876], [-96.8987297, 35.3604489], [-96.8988531, 35.3604493]]]}, "properties": {"osm_id": 948297759, "building": "house", "name": "", "height": null, "height_m": null, "levels": null, "tract_id": "40125500800", "tract_name": "5008", "tags": {"building": "house"}}}, {"type": "Feature", "geometry": {"type": "Polygon", "coordinates": [[[-96.8986625, 35.3604482], [-96.8986633, 35.3602869], [-96.8985399, 35.3602865], [-96.8985391, 35.3604478], [-96.8986625, 35.3604482]]]}, "properties": {"osm_id": 948297760, "building": "house", "name": "", "height": null, "height_m": null, "levels": null, "tract_id": "40125500800", "tract_name": "5008", "tags": {"building": "house"}}}, {"type": "Feature", "geometry": {"type": "Polygon", "coordinates": [[[-96.8988923, 35.3599329], [-96.8986433, 35.3599349], [-96.8986418, 35.3598082], [-96.8988534, 35.3598065], [-96.8988542, 35.3598749], [-96.8988916, 35.3598746], [-96.8988923, 35.3599329]]]}, "properties": {"osm_id": 948297761, "building": "house", "name": "", "height": null, "height_m": null, "levels": null, "tract_id": "40125500800", "tract_name": "5008", "tags": {"building": "house"}}}, {"type": "Feature", "geometry": {"type": "Polygon", "coordinates": [[[-96.8986322, 35.3600169], [-96.8988196, 35.3600163], [-96.8988197, 35.3600449], [-96.8988347, 35.3600448], [-96.8988348, 35.3600876], [-96.8988582, 35.3600875], [-96.8988584, 35.360131], [-96.8988279, 35.3601311], [-96.898828, 35.3601707], [-96.8986767, 35.3601711], [-96.8986763, 35.3600924], [-96.8986325, 35.3600925], [-96.8986322, 35.3600169]]]}, "properties": {"osm_id": 948297762, "building": "house", "name": "", "height": null, "height_m": null, "levels": null, "tract_id": "40125500800", "tract_name": "5008", "tags": {"building": "house"}}}, {"type": "Feature", "geometry": {"type": "Polygon", "coordinates": [[[-96.8985114, 35.361029], [-96.8983986, 35.3611491], [-96.8985435, 35.3612396], [-96.8986563, 35.3611194], [-96.8985114, 35.361029]]]}, "properties": {"osm_id": 948297763, "building": "house", "name": "", "height": null, "height_m": null, "levels": null, "tract_id": "40125500800", "tract_name": "5008", "tags": {"building": "house"}}}, {"type": "Feature", "geometry": {"type": "Polygon", "coordinates": [[[-96.8977717, 35.3607071], [-96.8977687, 35.3606201], [-96.8975288, 35.3606255], [-96.8975311, 35.3606944], [-96.8975119, 35.3606949], [-96.8975137, 35.3607484], [-96.8977222, 35.3607438], [-96.897721, 35.3607082], [-96.8977717, 35.3607071]]]}, "properties": {"osm_id": 948297764, "building": "house", "name": "", "height": null, "height_m": null, "levels": null, "tract_id": "40125500800", "tract_name": "5008", "tags": {"building": "house"}}}, {"type": "Feature", "geometry": {"type": "Polygon", "coordinates": [[[-96.8982156, 35.3606316], [-96.897976, 35.3606329], [-96.8979764, 35.3606877], [-96.8980303, 35.3606874], [-96.898031, 35.360766], [-96.8981805, 35.3607651], [-96.8981799, 35.3606942], [-96.8982161, 35.360694], [-96.8982156, 35.3606316]]]}, "properties": {"osm_id": 948297765, "building": "house", "name": "", "height": null, "height_m": null, "levels": null, "tract_id": "40125500800", "tract_name": "5008", "tags": {"building": "house"}}}, {"type": "Feature", "geometry": {"type": "Polygon", "coordinates": [[[-96.8982126, 35.3605625], [-96.8982139, 35.3604307], [-96.898024, 35.3604295], [-96.8980233, 35.3604932], [-96.8979985, 35.3604931], [-96.8979978, 35.3605611], [-96.8982126, 35.3605625]]]}, "properties": {"osm_id": 948297766, "building": "house", "name": "", "height": null, "height_m": null, "levels": null, "tract_id": "40125500800", "tract_name": "5008", "tags": {"building": "house"}}}, {"type": "Feature", "geometry": {"type": "Polygon", "coordinates": [[[-96.8970272, 35.3594703], [-96.8969105, 35.3595551], [-96.8967946, 35.3594491], [-96.8969498, 35.3593361], [-96.89701, 35.3593912], [-96.8969714, 35.3594192], [-96.8970272, 35.3594703]]]}, "properties": {"osm_id": 948297767, "building": "house", "name": "", "height": null, "height_m": null, "levels": null, "tract_id": "40125500800", "tract_name": "5008", "tags": {"building": "house"}}}, {"type": "Feature", "geometry": {"type": "Polygon", "coordinates": [[[-96.8990495, 35.3608629], [-96.8990472, 35.3607497], [-96.8989828, 35.3607506], [-96.8989821, 35.3607156], [-96.8989201, 35.3607165], [-96.8989231, 35.3608646], [-96.8990495, 35.3608629]]]}, "properties": {"osm_id": 948297943, "building": "house", "name": "", "height": null, "height_m": null, "levels": null, "tract_id": "40125500800", "tract_name": "5008", "tags": {"building": "house"}}}, {"type": "Feature", "geometry": {"type": "Polygon", "coordinates": [[[-96.8986708, 35.3609169], [-96.8986579, 35.3607304], [-96.8985265, 35.3607364], [-96.8985361, 35.3608754], [-96.8985623, 35.3608742], [-96.8985641, 35.3608999], [-96.8986018, 35.3608982], [-96.8986033, 35.36092], [-96.8986708, 35.3609169]]]}, "properties": {"osm_id": 948297944, "building": "house", "name": "", "height": null, "height_m": null, "levels": null, "tract_id": "40125500800", "tract_name": "5008", "tags": {"building": "house"}}}, {"type": "Feature", "geometry": {"type": "Polygon", "coordinates": [[[-96.8992695, 35.3609286], [-96.8992656, 35.3607819], [-96.8991961, 35.3607831], [-96.8991971, 35.3608213], [-96.8991285, 35.3608225], [-96.8991314, 35.360931], [-96.8992695, 35.3609286]]]}, "properties": {"osm_id": 948297945, "building": "house", "name": "", "height": null, "height_m": null, "levels": null, "tract_id": "40125500800", "tract_name": "5008", "tags": {"building": "house"}}}, {"type": "Feature", "geometry": {"type": "Polygon", "coordinates": [[[-96.8977451, 35.3584346], [-96.8977459, 35.3583257], [-96.8975498, 35.3583247], [-96.8975487, 35.3584681], [-96.8976391, 35.3584686], [-96.8976394, 35.3584341], [-96.8977451, 35.3584346]]]}, "properties": {"osm_id": 948297946, "building": "house", "name": "", "height": null, "height_m": null, "levels": null, "tract_id": "40125500800", "tract_name": "5008", "tags": {"building": "house"}}}, {"type": "Feature", "geometry": {"type": "Polygon", "coordinates": [[[-96.8974315, 35.3584453], [-96.8974304, 35.3582974], [-96.8972591, 35.3582983], [-96.8972598, 35.3583869], [-96.8972421, 35.3583869], [-96.8972427, 35.358465], [-96.8973381, 35.3584645], [-96.897338, 35.3584458], [-96.8974315, 35.3584453]]]}, "properties": {"osm_id": 948297947, "building": "house", "name": "", "height": null, "height_m": null, "levels": null, "tract_id": "40125500800", "tract_name": "5008", "tags": {"building": "house"}}}, {"type": "Feature", "geometry": {"type": "Polygon", "coordinates": [[[-96.89715, 35.3584322], [-96.89715, 35.3582923], [-96.8969831, 35.3582923], [-96.8969831, 35.3584322], [-96.89715, 35.3584322]]]}, "properties": {"osm_id": 948297948, "building": "house", "name": "", "height": null, "height_m": null, "levels": null, "tract_id": "40125500800", "tract_name": "5008", "tags": {"building": "house"}}}, {"type": "Feature", "geometry": {"type": "Polygon", "coordinates": [[[-96.8967233, 35.3585116], [-96.8965986, 35.3583782], [-96.8967384, 35.3582913], [-96.896817, 35.3583753], [-96.8967367, 35.3584253], [-96.8967828, 35.3584746], [-96.8967233, 35.3585116]]]}, "properties": {"osm_id": 948297949, "building": "house", "name": "", "height": null, "height_m": null, "levels": null, "tract_id": "40125500800", "tract_name": "5008", "tags": {"building": "house"}}}, {"type": "Feature", "geometry": {"type": "Polygon", "coordinates": [[[-96.8964769, 35.3586811], [-96.8964766, 35.3585615], [-96.8966622, 35.3585613], [-96.8966623, 35.3586294], [-96.8966788, 35.3586294], [-96.8966789, 35.3586974], [-96.8966386, 35.3586974], [-96.8966387, 35.3587205], [-96.8965792, 35.3587206], [-96.8965792, 35.358681], [-96.8964769, 35.3586811]]]}, "properties": {"osm_id": 948297950, "building": "house", "name": "", "height": null, "height_m": null, "levels": null, "tract_id": "40125500800", "tract_name": "5008", "tags": {"building": "house"}}}, {"type": "Feature", "geometry": {"type": "Polygon", "coordinates": [[[-96.8966905, 35.3589505], [-96.8967027, 35.3588102], [-96.8965158, 35.3587994], [-96.896507, 35.3589012], [-96.8965335, 35.3589028], [-96.8965301, 35.3589413], [-96.8966905, 35.3589505]]]}, "properties": {"osm_id": 948297951, "building": "house", "name": "", "height": null, "height_m": null, "levels": null, "tract_id": "40125500800", "tract_name": "5008", "tags": {"building": "house"}}}, {"type": "Feature", "geometry": {"type": "Polygon", "coordinates": [[[-96.8968832, 35.3593009], [-96.8968014, 35.3591776], [-96.8966528, 35.3592432], [-96.8966844, 35.3592908], [-96.8966587, 35.3593022], [-96.8967089, 35.3593778], [-96.8968832, 35.3593009]]]}, "properties": {"osm_id": 948297952, "building": "house", "name": "", "height": null, "height_m": null, "levels": null, "tract_id": "40125500800", "tract_name": "5008", "tags": {"building": "house"}}}, {"type": "Feature", "geometry": {"type": "Polygon", "coordinates": [[[-96.8967775, 35.3602437], [-96.8965219, 35.3602427], [-96.8965228, 35.3600852], [-96.8967142, 35.3600859], [-96.8967138, 35.3601637], [-96.8967779, 35.3601639], [-96.8967775, 35.3602437]]]}, "properties": {"osm_id": 948298104, "building": "house", "name": "", "height": null, "height_m": null, "levels": null, "tract_id": "40125500800", "tract_name": "5008", "tags": {"building": "house"}}}, {"type": "Feature", "geometry": {"type": "Polygon", "coordinates": [[[-96.8964653, 35.3597389], [-96.8964866, 35.3595774], [-96.8963566, 35.359566], [-96.8963615, 35.3595287], [-96.8962941, 35.3595227], [-96.8962712, 35.3596951], [-96.8963206, 35.3596995], [-96.896324, 35.3596739], [-96.8964049, 35.359681], [-96.8963981, 35.359733], [-96.8964653, 35.3597389]]]}, "properties": {"osm_id": 948298105, "building": "house", "name": "", "height": null, "height_m": null, "levels": null, "tract_id": "40125500800", "tract_name": "5008", "tags": {"building": "house"}}}, {"type": "Feature", "geometry": {"type": "Polygon", "coordinates": [[[-96.8961676, 35.359686], [-96.8959659, 35.3596451], [-96.8959347, 35.3597476], [-96.8959989, 35.3597606], [-96.895977, 35.3598324], [-96.8960715, 35.3598515], [-96.8960964, 35.3597697], [-96.8961921, 35.3597418], [-96.8961676, 35.359686]]]}, "properties": {"osm_id": 948298106, "building": "house", "name": "", "height": null, "height_m": null, "levels": null, "tract_id": "40125500800", "tract_name": "5008", "tags": {"building": "house"}}}, {"type": "Feature", "geometry": {"type": "Polygon", "coordinates": [[[-96.8963345, 35.3612], [-96.8964809, 35.3611285], [-96.896405, 35.3610253], [-96.8964615, 35.3609976], [-96.8964259, 35.3609491], [-96.896223, 35.3610482], [-96.8963345, 35.3612]]]}, "properties": {"osm_id": 948298107, "building": "house", "name": "", "height": null, "height_m": null, "levels": null, "tract_id": "40125500800", "tract_name": "5008", "tags": {"building": "house"}}}, {"type": "Feature", "geometry": {"type": "Polygon", "coordinates": [[[-96.8959933, 35.3604174], [-96.8959967, 35.3603631], [-96.8959563, 35.3603614], [-96.8959649, 35.360225], [-96.8961157, 35.3602313], [-96.8961114, 35.3603002], [-96.8961264, 35.3603008], [-96.8961186, 35.3604226], [-96.8959933, 35.3604174]]]}, "properties": {"osm_id": 948298108, "building": "house", "name": "", "height": null, "height_m": null, "levels": null, "tract_id": "40125500800", "tract_name": "5008", "tags": {"building": "house"}}}, {"type": "Feature", "geometry": {"type": "Polygon", "coordinates": [[[-96.8971687, 35.3605527], [-96.8971691, 35.3604653], [-96.89692, 35.3604646], [-96.8969197, 35.3605452], [-96.896974, 35.3605454], [-96.8969737, 35.3605985], [-96.8971272, 35.360599], [-96.8971274, 35.3605525], [-96.8971687, 35.3605527]]]}, "properties": {"osm_id": 948298109, "building": "house", "name": "", "height": null, "height_m": null, "levels": null, "tract_id": "40125500800", "tract_name": "5008", "tags": {"building": "house"}}}, {"type": "Feature", "geometry": {"type": "Polygon", "coordinates": [[[-96.8975242, 35.3614328], [-96.8975755, 35.3613085], [-96.8974202, 35.3612659], [-96.8973904, 35.3612232], [-96.8972968, 35.3612668], [-96.8973372, 35.3613245], [-96.8972704, 35.3613556], [-96.8973051, 35.3614051], [-96.897349, 35.3613847], [-96.8975242, 35.3614328]]]}, "properties": {"osm_id": 948298319, "building": "house", "name": "", "height": null, "height_m": null, "levels": null, "tract_id": "40125500800", "tract_name": "5008", "tags": {"building": "house"}}}, {"type": "Feature", "geometry": {"type": "Polygon", "coordinates": [[[-96.9017597, 35.3612609], [-96.9017573, 35.3610392], [-96.9018047, 35.3610388], [-96.9018043, 35.3610009], [-96.9017509, 35.3610013], [-96.9017506, 35.3609724], [-96.9016457, 35.3609732], [-96.9016477, 35.3611442], [-96.9014836, 35.3611454], [-96.9014849, 35.3612608], [-96.9016653, 35.3612594], [-96.9016656, 35.3612895], [-96.9017267, 35.3612891], [-96.9017264, 35.3612611], [-96.9017597, 35.3612609]]]}, "properties": {"osm_id": 948308707, "building": "house", "name": "", "height": null, "height_m": null, "levels": null, "tract_id": "40125500800", "tract_name": "5008", "tags": {"building": "house"}}}, {"type": "Feature", "geometry": {"type": "Polygon", "coordinates": [[[-96.9024846, 35.3612578], [-96.902485, 35.3611911], [-96.9023056, 35.3611903], [-96.9023053, 35.3612445], [-96.9023939, 35.3612449], [-96.9023939, 35.3612574], [-96.9024846, 35.3612578]]]}, "properties": {"osm_id": 948308708, "building": "house", "name": "", "height": null, "height_m": null, "levels": null, "tract_id": "40125500800", "tract_name": "5008", "tags": {"building": "house"}}}, {"type": "Feature", "geometry": {"type": "Polygon", "coordinates": [[[-96.9089855, 35.3606306], [-96.9090523, 35.3605395], [-96.908912, 35.3604712], [-96.9087128, 35.3607433], [-96.9087076, 35.3607784], [-96.908899, 35.3610468], [-96.9089359, 35.3610293], [-96.9089751, 35.3610842], [-96.9089473, 35.3610974], [-96.9090647, 35.3612619], [-96.9092097, 35.3611931], [-96.9090954, 35.361033], [-96.9090604, 35.3610496], [-96.9090125, 35.3609826], [-96.9090479, 35.3609658], [-96.9089884, 35.3608825], [-96.9092462, 35.3608823], [-96.9092459, 35.3606304], [-96.9089855, 35.3606306]]]}, "properties": {"osm_id": 948308709, "building": "yes", "name": "", "height": null, "height_m": null, "levels": null, "tract_id": "40125500800", "tract_name": "5008", "tags": {"building": "yes"}}}, {"type": "Feature", "geometry": {"type": "Polygon", "coordinates": [[[-96.893844, 35.3537686], [-96.8938428, 35.3536031], [-96.8937397, 35.3536036], [-96.8937396, 35.3535831], [-96.8936395, 35.3535838], [-96.8936397, 35.3536], [-96.8935364, 35.3536008], [-96.893536, 35.35357], [-96.8934629, 35.3535706], [-96.8934632, 35.3535878], [-96.8933131, 35.3535894], [-96.8933113, 35.3534766], [-96.8933869, 35.3534758], [-96.8933857, 35.353396], [-96.8934124, 35.3533957], [-96.8934105, 35.353268], [-96.8933779, 35.3532683], [-96.8933768, 35.3531875], [-96.8933257, 35.3531879], [-96.8933244, 35.3530833], [-96.8934436, 35.3530823], [-96.8934438, 35.3531018], [-96.8935618, 35.3531011], [-96.8935615, 35.3530695], [-96.8936123, 35.3530693], [-96.8936124, 35.3530872], [-96.8937666, 35.3530869], [-96.8937666, 35.3530725], [-96.8938503, 35.3530727], [-96.8938508, 35.3528936], [-96.8937498, 35.3528934], [-96.8937499, 35.3528763], [-96.8936644, 35.352876], [-96.8936643, 35.3528921], [-96.8935471, 35.3528917], [-96.8935416, 35.3529061], [-96.8933975, 35.352908], [-96.8933971, 35.35289], [-96.8933076, 35.3528912], [-96.8933079, 35.352906], [-96.8931889, 35.3529075], [-96.8931916, 35.3530443], [-96.8931762, 35.3530542], [-96.8931764, 35.3531018], [-96.8932031, 35.3531018], [-96.8932036, 35.3532219], [-96.8931494, 35.353222], [-96.8931498, 35.3533031], [-96.893029, 35.3533034], [-96.8930271, 35.3529118], [-96.8929411, 35.3529121], [-96.8929409, 35.3528815], [-96.892831, 35.352882], [-96.8928341, 35.3533256], [-96.8927752, 35.3533259], [-96.8927758, 35.3533984], [-96.8928366, 35.3533981], [-96.8928398, 35.3537494], [-96.8929302, 35.3537488], [-96.89293, 35.3537289], [-96.8930321, 35.3537282], [-96.8930287, 35.3534225], [-96.8931842, 35.3534213], [-96.8931851, 35.3535077], [-96.8931674, 35.3535078], [-96.8931684, 35.3536127], [-96.8931907, 35.3536126], [-96.8931918, 35.3537435], [-96.8933059, 35.3537429], [-96.893306, 35.3537581], [-96.8934013, 35.3537576], [-96.8934012, 35.3537396], [-96.8935053, 35.3537392], [-96.8935054, 35.3537578], [-96.8936511, 35.3537573], [-96.8936513, 35.3537829], [-96.893762, 35.3537825], [-96.8937619, 35.353769], [-96.893844, 35.3537686]]]}, "properties": {"osm_id": 978295236, "building": "yes", "name": "", "height": null, "height_m": null, "levels": null, "tract_id": "40125500800", "tract_name": "5008", "tags": {"building": "yes"}}}, {"type": "Feature", "geometry": {"type": "Polygon", "coordinates": [[[-96.8930982, 35.3524562], [-96.8930964, 35.3523569], [-96.8930728, 35.3523571], [-96.8930724, 35.3523315], [-96.8930599, 35.3523317], [-96.8930591, 35.3522914], [-96.8929172, 35.3522931], [-96.8929188, 35.3523807], [-96.8929019, 35.3523809], [-96.8929034, 35.3524673], [-96.8929986, 35.3524662], [-96.8929981, 35.3524338], [-96.8930329, 35.3524334], [-96.8930333, 35.352457], [-96.8930982, 35.3524562]]]}, "properties": {"osm_id": 978295237, "building": "yes", "name": "", "height": null, "height_m": null, "levels": null, "tract_id": "40125500800", "tract_name": "5008", "tags": {"building": "yes"}}}, {"type": "Feature", "geometry": {"type": "Polygon", "coordinates": [[[-96.8928405, 35.3524634], [-96.8927405, 35.3524655], [-96.8927394, 35.35243], [-96.8926969, 35.3524309], [-96.8926963, 35.3524119], [-96.8926473, 35.3524129], [-96.8926431, 35.3522763], [-96.8926985, 35.3522751], [-96.8926995, 35.3523051], [-96.8928356, 35.3523024], [-96.8928405, 35.3524634]]]}, "properties": {"osm_id": 978295238, "building": "yes", "name": "", "height": null, "height_m": null, "levels": null, "tract_id": "40125500800", "tract_name": "5008", "tags": {"building": "yes"}}}, {"type": "Feature", "geometry": {"type": "Polygon", "coordinates": [[[-96.8925789, 35.3524182], [-96.8924911, 35.3524171], [-96.8924901, 35.3524695], [-96.8923863, 35.3524682], [-96.8923894, 35.3523036], [-96.8924357, 35.3523041], [-96.8924362, 35.3522744], [-96.8925401, 35.3522757], [-96.8925395, 35.3523082], [-96.8925809, 35.3523087], [-96.8925789, 35.3524182]]]}, "properties": {"osm_id": 978295239, "building": "yes", "name": "", "height": null, "height_m": null, "levels": null, "tract_id": "40125500800", "tract_name": "5008", "tags": {"building": "yes"}}}, {"type": "Feature", "geometry": {"type": "Polygon", "coordinates": [[[-96.8923017, 35.3524663], [-96.8922101, 35.3524673], [-96.8922094, 35.3524203], [-96.892106, 35.3524215], [-96.892104, 35.3523004], [-96.8922981, 35.3522983], [-96.8922997, 35.3523943], [-96.8923104, 35.3523942], [-96.8923113, 35.3524477], [-96.8923014, 35.3524478], [-96.8923017, 35.3524663]]]}, "properties": {"osm_id": 978295240, "building": "yes", "name": "", "height": null, "height_m": null, "levels": null, "tract_id": "40125500800", "tract_name": "5008", "tags": {"building": "yes"}}}, {"type": "Feature", "geometry": {"type": "Polygon", "coordinates": [[[-96.892458, 35.3529914], [-96.892406, 35.3529924], [-96.8924072, 35.353032], [-96.8922216, 35.3530356], [-96.8922157, 35.3528323], [-96.8924093, 35.3528285], [-96.8924106, 35.3528713], [-96.8924545, 35.3528704], [-96.892458, 35.3529914]]]}, "properties": {"osm_id": 978295241, "building": "yes", "name": "", "height": null, "height_m": null, "levels": null, "tract_id": "40125500800", "tract_name": "5008", "tags": {"building": "yes"}}}, {"type": "Feature", "geometry": {"type": "Polygon", "coordinates": [[[-96.9040288, 35.356556], [-96.9040275, 35.356506], [-96.9041509, 35.3565038], [-96.9041522, 35.3565538], [-96.9040288, 35.356556]]]}, "properties": {"osm_id": 1207718479, "building": "yes", "name": "", "height": null, "height_m": null, "levels": null, "tract_id": "40125500800", "tract_name": "5008", "tags": {"building": "yes"}}}, {"type": "Feature", "geometry": {"type": "Polygon", "coordinates": [[[-96.9044251, 35.355641], [-96.9044251, 35.3558554], [-96.9043312, 35.3558554], [-96.9043312, 35.355641], [-96.9044251, 35.355641]]]}, "properties": {"osm_id": 1207718480, "building": "yes", "name": "", "height": null, "height_m": null, "levels": null, "tract_id": "40125500800", "tract_name": "5008", "tags": {"building": "yes"}}}, {"type": "Feature", "geometry": {"type": "Polygon", "coordinates": [[[-96.8994759, 35.3559339], [-96.8994806, 35.355719], [-96.8999111, 35.3557252], [-96.8999064, 35.3559401], [-96.8994759, 35.3559339]]]}, "properties": {"osm_id": 1207718483, "building": "yes", "name": "", "height": null, "height_m": null, "levels": null, "tract_id": "40125500800", "tract_name": "5008", "tags": {"building": "yes"}}}, {"type": "Feature", "geometry": {"type": "Polygon", "coordinates": [[[-96.9009818, 35.3545899], [-96.9009792, 35.3544802], [-96.901116, 35.354478], [-96.9011186, 35.3545877], [-96.9009818, 35.3545899]]]}, "properties": {"osm_id": 1207718490, "building": "yes", "name": "", "height": null, "height_m": null, "levels": null, "tract_id": "40125500800", "tract_name": "5008", "tags": {"building": "yes"}}}, {"type": "Feature", "geometry": {"type": "Polygon", "coordinates": [[[-96.9009838, 35.3546692], [-96.9011208, 35.354668], [-96.9011228, 35.3548261], [-96.9009858, 35.3548273], [-96.9009838, 35.3546692]]]}, "properties": {"osm_id": 1207718491, "building": "yes", "name": "", "height": null, "height_m": null, "levels": null, "tract_id": "40125500800", "tract_name": "5008", "tags": {"building": "yes"}}}, {"type": "Feature", "geometry": {"type": "Polygon", "coordinates": [[[-96.9034313, 35.3540685], [-96.9033355, 35.3541419], [-96.9032622, 35.3540784], [-96.903358, 35.3540049], [-96.9034313, 35.3540685]]]}, "properties": {"osm_id": 1207718494, "building": "yes", "name": "", "height": null, "height_m": null, "levels": null, "tract_id": "40125500800", "tract_name": "5008", "tags": {"building": "yes"}}}, {"type": "Feature", "geometry": {"type": "Polygon", "coordinates": [[[-96.9030633, 35.3552924], [-96.9030254, 35.3553257], [-96.9029899, 35.3552987], [-96.9030278, 35.3552655], [-96.9030633, 35.3552924]]]}, "properties": {"osm_id": 1207718495, "building": "yes", "name": "", "height": null, "height_m": null, "levels": null, "tract_id": "40125500800", "tract_name": "5008", "tags": {"building": "yes"}}}, {"type": "Feature", "geometry": {"type": "Polygon", "coordinates": [[[-96.9105498, 35.3719994], [-96.9105473, 35.3718616], [-96.9104454, 35.3718629], [-96.9104479, 35.3720006], [-96.9105498, 35.3719994]]]}, "properties": {"osm_id": 1213768729, "building": "yes", "name": "", "height": null, "height_m": null, "levels": null, "tract_id": "40125500800", "tract_name": "5008", "tags": {"building": "yes"}}}, {"type": "Feature", "geometry": {"type": "Polygon", "coordinates": [[[-96.9113142, 35.3720422], [-96.9113146, 35.3718251], [-96.9111917, 35.371825], [-96.9111916, 35.3718352], [-96.9106882, 35.3718346], [-96.9106879, 35.3720309], [-96.911197, 35.3720315], [-96.911197, 35.3720421], [-96.9113142, 35.3720422]]]}, "properties": {"osm_id": 1213768730, "building": "yes", "name": "", "height": null, "height_m": null, "levels": null, "tract_id": "40125500800", "tract_name": "5008", "tags": {"building": "yes"}}}, {"type": "Feature", "geometry": {"type": "Polygon", "coordinates": [[[-96.9114319, 35.3757045], [-96.9115102, 35.3757057], [-96.9115102, 35.3758918], [-96.911433, 35.375893], [-96.9114319, 35.3757045]]]}, "properties": {"osm_id": 1230262841, "building": "yes", "name": "Sonic", "height": null, "height_m": null, "levels": null, "tract_id": "40125500800", "tract_name": "5008", "tags": {"addr:city": "Shawnee", "addr:housenumber": "4439", "addr:postcode": "74804", "addr:state": "OK", "addr:street": "North Harrison Street", "amenity": "fast_food", "brand": "Sonic", "brand:wikidata": "Q7561808", "building": "yes", "cuisine": "burger", "drive_in": "yes", "name": "Sonic", "opening_hours": "Mo-Th 06:00-22:00; Fr-Sa 06:00-23:00; Su 07:00-22:00", "phone": "+1 405-273-7277", "takeaway": "yes", "website": "https://locations.sonicdrivein.com/ok/shawnee/4439-north-harrison-street.html"}}}, {"type": "Feature", "geometry": {"type": "Polygon", "coordinates": [[[-96.906016, 35.3745959], [-96.9060176, 35.3744686], [-96.9057835, 35.3744713], [-96.90579, 35.3745999], [-96.906016, 35.3745959]]]}, "properties": {"osm_id": 1370322600, "building": "yes", "name": "", "height": null, "height_m": null, "levels": null, "tract_id": "40125500800", "tract_name": "5008", "tags": {"addr:housenumber": "4315-4317", "building": "yes"}}}, {"type": "Feature", "geometry": {"type": "Polygon", "coordinates": [[[-96.9060046, 35.3744156], [-96.9060095, 35.3742989], [-96.90579, 35.3743003], [-96.9057932, 35.3744222], [-96.9060046, 35.3744156]]]}, "properties": {"osm_id": 1370322601, "building": "yes", "name": "", "height": null, "height_m": null, "levels": null, "tract_id": "40125500800", "tract_name": "5008", "tags": {"addr:housenumber": "4311-4313", "building": "yes"}}}, {"type": "Feature", "geometry": {"type": "Polygon", "coordinates": [[[-96.9060069, 35.3741954], [-96.9059994, 35.3740957], [-96.9057913, 35.3741009], [-96.9057902, 35.3742199], [-96.9058117, 35.3742208], [-96.9058127, 35.374254], [-96.9059393, 35.3742523], [-96.9059383, 35.3742216], [-96.9059565, 35.3742199], [-96.9059544, 35.3741954], [-96.9060069, 35.3741954]]]}, "properties": {"osm_id": 1370322602, "building": "yes", "name": "", "height": null, "height_m": null, "levels": null, "tract_id": "40125500800", "tract_name": "5008", "tags": {"addr:housenumber": "4307-4309", "building": "yes"}}}, {"type": "Feature", "geometry": {"type": "Polygon", "coordinates": [[[-96.906, 35.3740591], [-96.9060028, 35.3739402], [-96.9058046, 35.3739379], [-96.9058046, 35.3739957], [-96.9058046, 35.3740626], [-96.906, 35.3740591]]]}, "properties": {"osm_id": 1370322603, "building": "yes", "name": "", "height": null, "height_m": null, "levels": null, "tract_id": "40125500800", "tract_name": "5008", "tags": {"addr:housenumber": "4303-4305", "building": "yes"}}}, {"type": "Feature", "geometry": {"type": "Polygon", "coordinates": [[[-96.905983, 35.3738779], [-96.905983, 35.3738213], [-96.9060042, 35.3738225], [-96.906, 35.3737544], [-96.9058018, 35.3737544], [-96.9058032, 35.3738756], [-96.905983, 35.3738779]]]}, "properties": {"osm_id": 1370322604, "building": "yes", "name": "", "height": null, "height_m": null, "levels": null, "tract_id": "40125500800", "tract_name": "5008", "tags": {"addr:housenumber": "4299-4301", "building": "yes"}}}, {"type": "Feature", "geometry": {"type": "Polygon", "coordinates": [[[-96.9111101, 35.3675247], [-96.9115098, 35.3675157], [-96.9115167, 35.36772], [-96.9112198, 35.3677267], [-96.9111419, 35.3678161], [-96.9111397, 35.3680741], [-96.9109262, 35.3680729], [-96.9109296, 35.3676718], [-96.9111101, 35.3675247]]]}, "properties": {"osm_id": 1395942156, "building": "yes", "name": "", "height": null, "height_m": null, "levels": null, "tract_id": "40125500800", "tract_name": "5008", "tags": {"building": "yes"}}}, {"type": "Feature", "geometry": {"type": "Polygon", "coordinates": [[[-96.9110568, 35.3682262], [-96.9113467, 35.3682296], [-96.9113401, 35.3686011], [-96.9113932, 35.3686416], [-96.9113904, 35.3687981], [-96.9110467, 35.3687941], [-96.9110568, 35.3682262]]]}, "properties": {"osm_id": 1395942157, "building": "yes", "name": "", "height": null, "height_m": null, "levels": null, "tract_id": "40125500800", "tract_name": "5008", "tags": {"building": "yes"}}}, {"type": "Feature", "geometry": {"type": "Polygon", "coordinates": [[[-96.9112011, 35.3703235], [-96.9114036, 35.3703279], [-96.9113993, 35.3704609], [-96.9114476, 35.3704619], [-96.9114437, 35.3705818], [-96.9111452, 35.3705754], [-96.9111493, 35.370449], [-96.911197, 35.37045], [-96.9112011, 35.3703235]]]}, "properties": {"osm_id": 1395942158, "building": "yes", "name": "", "height": null, "height_m": null, "levels": null, "tract_id": "40125500800", "tract_name": "5008", "tags": {"building": "yes"}}}]}