{"type": "FeatureCollection", "features": [{"type": "Feature", "geometry": {"type": "Polygon", "coordinates": [[[-95.2858316, 36.3203708], [-95.2858322, 36.3202457], [-95.2858739, 36.3202458], [-95.2858743, 36.3201621], [-95.2857226, 36.3201616], [-95.2857222, 36.3202423], [-95.2856795, 36.3202421], [-95.2856789, 36.3203703], [-95.2858316, 36.3203708]]]}, "properties": {"osm_id": 189010884, "building": "house", "name": "", "height": null, "height_m": null, "levels": null, "tract_id": "40097040300", "tract_name": "403", "tags": {"addr:city": "Pryor Creek", "addr:country": "US", "addr:housenumber": "604", "addr:postcode": "74361", "addr:street": "Rhonda Street", "building": "house"}}}, {"type": "Feature", "geometry": {"type": "Polygon", "coordinates": [[[-95.4277599, 36.3092227], [-95.4276091, 36.3092088], [-95.4276251, 36.3090964], [-95.4277759, 36.3091103], [-95.4277599, 36.3092227]]]}, "properties": {"osm_id": 195650527, "building": "yes", "name": "", "height": null, "height_m": null, "levels": null, "tract_id": "40097040300", "tract_name": "403", "tags": {"building": "yes"}}}, {"type": "Feature", "geometry": {"type": "Polygon", "coordinates": [[[-95.4277729, 36.3093963], [-95.4275661, 36.3093685], [-95.4275889, 36.3092582], [-95.4277957, 36.3092859], [-95.4277729, 36.3093963]]]}, "properties": {"osm_id": 195650528, "building": "yes", "name": "", "height": null, "height_m": null, "levels": null, "tract_id": "40097040300", "tract_name": "403", "tags": {"building": "yes"}}}, {"type": "Feature", "geometry": {"type": "Polygon", "coordinates": [[[-95.425601, 36.3092973], [-95.4245009, 36.3092678], [-95.4245143, 36.3089409], [-95.4256145, 36.3089704], [-95.425601, 36.3092973]]]}, "properties": {"osm_id": 195650529, "building": "yes", "name": "", "height": null, "height_m": null, "levels": null, "tract_id": "40097040300", "tract_name": "403", "tags": {"amenity": "school", "building": "yes"}}}, {"type": "Feature", "geometry": {"type": "Polygon", "coordinates": [[[-95.427635, 36.3083512], [-95.4274806, 36.3084567], [-95.4272177, 36.3082067], [-95.4273722, 36.3081012], [-95.427635, 36.3083512]]]}, "properties": {"osm_id": 195650530, "building": "yes", "name": "", "height": null, "height_m": null, "levels": null, "tract_id": "40097040300", "tract_name": "403", "tags": {"building": "yes"}}}, {"type": "Feature", "geometry": {"type": "Polygon", "coordinates": [[[-95.4266483, 36.3087991], [-95.4262993, 36.3085457], [-95.4265363, 36.3083338], [-95.4268853, 36.3085873], [-95.4266483, 36.3087991]]]}, "properties": {"osm_id": 195650531, "building": "school", "name": "", "height": null, "height_m": null, "levels": null, "tract_id": "40097040300", "tract_name": "403", "tags": {"building": "school"}}}, {"type": "Feature", "geometry": {"type": "Polygon", "coordinates": [[[-95.4273894, 36.3097609], [-95.4273651, 36.3099802], [-95.427152, 36.3099617], [-95.4271589, 36.309889], [-95.4270919, 36.3098832], [-95.427105, 36.3097435], [-95.4273894, 36.3097609]]]}, "properties": {"osm_id": 195650532, "building": "yes", "name": "", "height": null, "height_m": null, "levels": null, "tract_id": "40097040300", "tract_name": "403", "tags": {"building": "yes"}}}, {"type": "Feature", "geometry": {"type": "Polygon", "coordinates": [[[-95.4275531, 36.3089449], [-95.4275273, 36.3085075], [-95.4277044, 36.3085007], [-95.4277128, 36.3086442], [-95.4276674, 36.3086459], [-95.4276848, 36.3089399], [-95.4275531, 36.3089449]]]}, "properties": {"osm_id": 195650533, "building": "yes", "name": "", "height": null, "height_m": null, "levels": null, "tract_id": "40097040300", "tract_name": "403", "tags": {"building": "yes"}}}, {"type": "Feature", "geometry": {"type": "Polygon", "coordinates": [[[-95.4234236, 36.3090655], [-95.4234236, 36.3087786], [-95.424227, 36.3087786], [-95.424227, 36.309106], [-95.4239622, 36.309106], [-95.4239622, 36.3090655], [-95.4234236, 36.3090655]]]}, "properties": {"osm_id": 195650534, "building": "school", "name": "", "height": null, "height_m": null, "levels": null, "tract_id": "40097040300", "tract_name": "403", "tags": {"building": "school"}}}, {"type": "Feature", "geometry": {"type": "Polygon", "coordinates": [[[-95.4265966, 36.3095005], [-95.4267302, 36.3089623], [-95.4270674, 36.3090166], [-95.4269436, 36.3095154], [-95.4268831, 36.3095057], [-95.4268465, 36.3096532], [-95.4266825, 36.3096268], [-95.4267093, 36.3095186], [-95.4265966, 36.3095005]]]}, "properties": {"osm_id": 195650535, "building": "school", "name": "", "height": null, "height_m": null, "levels": null, "tract_id": "40097040300", "tract_name": "403", "tags": {"building": "school"}}}, {"type": "Feature", "geometry": {"type": "Polygon", "coordinates": [[[-95.2677963, 36.2505444], [-95.266983, 36.250546], [-95.2669815, 36.2500142], [-95.2677947, 36.2500127], [-95.2677963, 36.2505444]]]}, "properties": {"osm_id": 309791413, "building": "industrial", "name": "", "height": null, "height_m": null, "levels": null, "tract_id": "40097040300", "tract_name": "403", "tags": {"building": "industrial"}}}, {"type": "Feature", "geometry": {"type": "Polygon", "coordinates": [[[-95.3327277, 36.261828], [-95.3327151, 36.2618902], [-95.3323352, 36.2618404], [-95.3323478, 36.2617782], [-95.3327277, 36.261828]]]}, "properties": {"osm_id": 328261404, "building": "roof", "name": "Murphy USA", "height": null, "height_m": null, "levels": null, "tract_id": "40097040300", "tract_name": "403", "tags": {"addr:city": "Pryor Creek", "addr:country": "US", "addr:housenumber": "5301", "addr:postcode": "74361", "addr:state": "OK", "addr:street": "South Mill Street", "amenity": "fuel", "brand": "Murphy USA", "brand:wikidata": "Q19604459", "building": "roof", "fuel:diesel": "yes", "fuel:e10": "yes", "name": "Murphy USA"}}}, {"type": "Feature", "geometry": {"type": "Polygon", "coordinates": [[[-95.332534, 36.2619301], [-95.332508, 36.2619263], [-95.3325215, 36.2618661], [-95.3325475, 36.2618699], [-95.332534, 36.2619301]]]}, "properties": {"osm_id": 328261405, "building": "yes", "name": "Murphy USA", "height": null, "height_m": null, "levels": null, "tract_id": "40097040300", "tract_name": "403", "tags": {"addr:city": "Pryor Creek", "addr:country": "US", "addr:housenumber": "5301", "addr:postcode": "74361", "addr:state": "OK", "addr:street": "South Mill Street", "building": "yes", "name": "Murphy USA", "shop": "kiosk"}}}, {"type": "Feature", "geometry": {"type": "Polygon", "coordinates": [[[-95.3350959, 36.2499365], [-95.3350136, 36.2499377], [-95.3350149, 36.2499948], [-95.3347935, 36.249998], [-95.3347896, 36.2498249], [-95.3348251, 36.2498244], [-95.3348238, 36.2497673], [-95.3349377, 36.2497656], [-95.3349388, 36.2498166], [-95.3349955, 36.2498158], [-95.3349967, 36.249869], [-95.3350944, 36.2498676], [-95.3350959, 36.2499365]]]}, "properties": {"osm_id": 401858129, "building": "yes", "name": "EconoLodge Pryor", "height": null, "height_m": null, "levels": null, "tract_id": "40097040300", "tract_name": "403", "tags": {"addr:city": "Pryor Creek", "addr:housenumber": "6800", "addr:postcode": "74361", "addr:state": "OK", "addr:street": "South Mill Street", "building": "yes", "name": "EconoLodge Pryor", "smoking": "isolated", "tourism": "hotel", "website": "http://econolodge.com/hotels/ok205"}}}, {"type": "Feature", "geometry": {"type": "Polygon", "coordinates": [[[-95.3349, 36.2502256], [-95.3345567, 36.2502317], [-95.3345522, 36.2500651], [-95.3348955, 36.2500591], [-95.3349, 36.2502256]]]}, "properties": {"osm_id": 401858130, "building": "yes", "name": "", "height": null, "height_m": null, "levels": null, "tract_id": "40097040300", "tract_name": "403", "tags": {"building": "yes"}}}, {"type": "Feature", "geometry": {"type": "Polygon", "coordinates": [[[-95.3348913, 36.2497133], [-95.334554, 36.2497169], [-95.3345513, 36.2495496], [-95.3348885, 36.249546], [-95.3348913, 36.2497133]]]}, "properties": {"osm_id": 401858131, "building": "yes", "name": "", "height": null, "height_m": null, "levels": null, "tract_id": "40097040300", "tract_name": "403", "tags": {"building": "yes"}}}, {"type": "Feature", "geometry": {"type": "Polygon", "coordinates": [[[-95.3344732, 36.2513744], [-95.3344053, 36.2513756], [-95.3344049, 36.2513605], [-95.3342739, 36.2513629], [-95.3342672, 36.2511214], [-95.334466, 36.2511178], [-95.3344732, 36.2513744]]]}, "properties": {"osm_id": 401858132, "building": "retail", "name": "EZ Mart", "height": null, "height_m": null, "levels": null, "tract_id": "40097040300", "tract_name": "403", "tags": {"building": "retail", "name": "EZ Mart", "shop": "convenience"}}}, {"type": "Feature", "geometry": {"type": "Polygon", "coordinates": [[[-95.3343535, 36.2520375], [-95.3343545, 36.2522062], [-95.3340396, 36.2522074], [-95.3340387, 36.2520522], [-95.3341534, 36.2520518], [-95.3341726, 36.2520382], [-95.3343535, 36.2520375]]]}, "properties": {"osm_id": 401858133, "building": "yes", "name": "", "height": null, "height_m": null, "levels": null, "tract_id": "40097040300", "tract_name": "403", "tags": {"building": "yes"}}}, {"type": "Feature", "geometry": {"type": "Polygon", "coordinates": [[[-95.334285, 36.2532857], [-95.3342543, 36.253447], [-95.3340942, 36.2534272], [-95.3341249, 36.2532659], [-95.334285, 36.2532857]]]}, "properties": {"osm_id": 401858134, "building": "yes", "name": "", "height": null, "height_m": null, "levels": null, "tract_id": "40097040300", "tract_name": "403", "tags": {"building": "yes"}}}, {"type": "Feature", "geometry": {"type": "Polygon", "coordinates": [[[-95.3339093, 36.2558736], [-95.333671, 36.2559107], [-95.3335958, 36.2555967], [-95.3338341, 36.2555596], [-95.3339093, 36.2558736]]]}, "properties": {"osm_id": 401858136, "building": "yes", "name": "JL's Barbeque", "height": null, "height_m": null, "levels": null, "tract_id": "40097040300", "tract_name": "403", "tags": {"addr:city": "Pryor Creek", "addr:housenumber": "5501", "addr:postcode": "74361", "addr:state": "OK", "addr:street": "S Mill Street", "amenity": "restaurant", "building": "yes", "name": "JL's Barbeque"}}}, {"type": "Feature", "geometry": {"type": "Polygon", "coordinates": [[[-95.3326565, 36.2621452], [-95.3326423, 36.2622196], [-95.33267, 36.262223], [-95.3326592, 36.2622798], [-95.3326246, 36.2622755], [-95.3326078, 36.2623636], [-95.3324071, 36.2623387], [-95.3324491, 36.2621194], [-95.3326565, 36.2621452]]]}, "properties": {"osm_id": 401858138, "building": "yes", "name": "Chefs Buffet", "height": null, "height_m": null, "levels": null, "tract_id": "40097040300", "tract_name": "403", "tags": {"addr:city": "Pryor Creek", "addr:housenumber": "3050", "addr:postcode": "74361", "addr:state": "OK", "addr:street": "South Mill Street", "amenity": "restaurant", "building": "yes", "name": "Chefs Buffet"}}}, {"type": "Feature", "geometry": {"type": "Polygon", "coordinates": [[[-95.3323941, 36.2631607], [-95.3322772, 36.2631474], [-95.332306, 36.2629834], [-95.3322037, 36.2629717], [-95.3322285, 36.26283], [-95.332272, 36.262835], [-95.3322796, 36.2627915], [-95.3325512, 36.2628225], [-95.3325412, 36.2628793], [-95.3325817, 36.2628839], [-95.3325594, 36.2630106], [-95.3324232, 36.2629951], [-95.3323941, 36.2631607]]]}, "properties": {"osm_id": 401858140, "building": "yes", "name": "RCB Bank", "height": null, "height_m": null, "levels": null, "tract_id": "40097040300", "tract_name": "403", "tags": {"addr:city": "Pryor Creek", "addr:housenumber": "5101", "addr:postcode": "74361", "addr:state": "OK", "addr:street": "South Mill Street", "amenity": "bank", "building": "yes", "name": "RCB Bank"}}}, {"type": "Feature", "geometry": {"type": "Polygon", "coordinates": [[[-95.3324107, 36.2634827], [-95.332376, 36.2634829], [-95.3323765, 36.2635317], [-95.3322451, 36.2635325], [-95.332245, 36.263522], [-95.3320923, 36.263523], [-95.3320915, 36.2634464], [-95.3321656, 36.2634459], [-95.3321648, 36.2633583], [-95.3323842, 36.2633569], [-95.3323851, 36.263443], [-95.3324103, 36.2634428], [-95.3324107, 36.2634827]]]}, "properties": {"osm_id": 401858141, "building": "yes", "name": "Chili's", "height": null, "height_m": null, "levels": null, "tract_id": "40097040300", "tract_name": "403", "tags": {"addr:city": "Pryor Creek", "addr:housenumber": "5001", "addr:postcode": "74361", "addr:state": "OK", "addr:street": "South Mill Street", "amenity": "restaurant", "brand": "Chili's", "brand:wikidata": "Q1072948", "building": "yes", "cuisine": "tex-mex", "name": "Chili's", "official_name": "Chili's Grill & Bar"}}}, {"type": "Feature", "geometry": {"type": "Polygon", "coordinates": [[[-95.3321681, 36.2644862], [-95.3317114, 36.2644874], [-95.3317109, 36.2643663], [-95.3321676, 36.2643651], [-95.3321681, 36.2644862]]]}, "properties": {"osm_id": 401858142, "building": "commercial", "name": "Braum's", "height": null, "height_m": null, "levels": null, "tract_id": "40097040300", "tract_name": "403", "tags": {"addr:city": "Pryor Creek", "addr:housenumber": "101", "addr:postcode": "74361", "addr:state": "OK", "addr:street": "Steve Barry Boulevard", "amenity": "fast_food", "brand": "Braum's", "brand:wikidata": "Q4958263", "building": "commercial", "cuisine": "ice_cream", "drive_through": "yes", "name": "Braum's", "shop": "dairy", "takeaway": "yes"}}}, {"type": "Feature", "geometry": {"type": "Polygon", "coordinates": [[[-95.3293561, 36.2617363], [-95.3304481, 36.2617276], [-95.3304489, 36.2618947], [-95.3305324, 36.2618946], [-95.3305325, 36.2619212], [-95.3305903, 36.2619211], [-95.3305905, 36.2620488], [-95.3306366, 36.2620487], [-95.3306368, 36.2621191], [-95.3305534, 36.2621192], [-95.3305544, 36.2626219], [-95.3306318, 36.2626218], [-95.3306319, 36.2626932], [-95.3305901, 36.2626933], [-95.33059, 36.2627822], [-95.3304597, 36.2627822], [-95.3304595, 36.2630724], [-95.3303578, 36.2630723], [-95.3303576, 36.2632894], [-95.330164, 36.2632893], [-95.3301642, 36.2630788], [-95.3298265, 36.2630785], [-95.3298261, 36.2634097], [-95.3296191, 36.2634096], [-95.3296193, 36.2631814], [-95.3295818, 36.2631814], [-95.3295817, 36.2630943], [-95.3293362, 36.2630945], [-95.3293561, 36.2617363]]]}, "properties": {"osm_id": 401884647, "building": "yes", "name": "Walmart Supercenter", "height": null, "height_m": null, "levels": null, "tract_id": "40097040300", "tract_name": "403", "tags": {"addr:city": "Pryor", "addr:country": "US", "addr:housenumber": "4901", "addr:postcode": "74361", "addr:state": "OK", "addr:street": "South Mill Street", "brand": "Walmart", "brand:wikidata": "Q483551", "building": "yes", "name": "Walmart Supercenter", "opening_hours": "24/7", "operator": "Walmart", "payment:app:walmart": "yes", "payment:apple_pay": "no", "payment:google_pay": "no", "payment:samsung_pay": "no", "phone": "+1 918-825-6000", "ref": "22", "ref:walmart": "22", "sensory_friendly:accommodation": "dimmed_light;static_screens;no_pa", "sensory_friendly:conditional": "yes @ 08:00-10:00", "shop": "supermarket", "website": "https://www.walmart.com/store/22-pryor-ok"}}}, {"type": "Feature", "geometry": {"type": "Polygon", "coordinates": [[[-95.3304329, 36.2640353], [-95.3304291, 36.264289], [-95.3301399, 36.2642862], [-95.3301437, 36.2640324], [-95.3304329, 36.2640353]]]}, "properties": {"osm_id": 401884795, "building": "yes", "name": "Russell Cellular Verizon", "height": null, "height_m": null, "levels": null, "tract_id": "40097040300", "tract_name": "403", "tags": {"addr:city": "Pryor Creek", "addr:housenumber": "125", "addr:postcode": "74361", "addr:state": "OK", "addr:street": "Steve Berry Boulevard", "building": "yes", "name": "Russell Cellular Verizon", "shop": "mobile_phone"}}}, {"type": "Feature", "geometry": {"type": "Polygon", "coordinates": [[[-95.331244, 36.2645101], [-95.3304366, 36.2645104], [-95.3304365, 36.2642772], [-95.3312439, 36.2642769], [-95.331244, 36.2645101]]]}, "properties": {"osm_id": 401884796, "building": "yes", "name": "", "height": null, "height_m": null, "levels": null, "tract_id": "40097040300", "tract_name": "403", "tags": {"building": "yes"}}}, {"type": "Feature", "geometry": {"type": "Polygon", "coordinates": [[[-95.3344945, 36.2502106], [-95.3342879, 36.2502123], [-95.3342846, 36.2499558], [-95.3344911, 36.2499541], [-95.3344945, 36.2502106]]]}, "properties": {"osm_id": 401887688, "building": "yes", "name": "", "height": null, "height_m": null, "levels": null, "tract_id": "40097040300", "tract_name": "403", "tags": {"building": "yes"}}}, {"type": "Feature", "geometry": {"type": "Polygon", "coordinates": [[[-95.3344865, 36.2495657], [-95.3342911, 36.2495674], [-95.3342946, 36.2498399], [-95.33449, 36.2498383], [-95.3344865, 36.2495657]]]}, "properties": {"osm_id": 401887689, "building": "yes", "name": "", "height": null, "height_m": null, "levels": null, "tract_id": "40097040300", "tract_name": "403", "tags": {"building": "yes"}}}, {"type": "Feature", "geometry": {"type": "Polygon", "coordinates": [[[-95.3347863, 36.2512849], [-95.3347015, 36.2512746], [-95.334727, 36.2511383], [-95.3348118, 36.2511487], [-95.3347863, 36.2512849]]]}, "properties": {"osm_id": 541811836, "building": "roof", "name": "", "height": null, "height_m": null, "levels": null, "tract_id": "40097040300", "tract_name": "403", "tags": {"amenity": "fuel", "brand": "Shell", "building": "roof"}}}, {"type": "Feature", "geometry": {"type": "Polygon", "coordinates": [[[-95.4210623, 36.2626918], [-95.4210582, 36.2625718], [-95.4212013, 36.2625687], [-95.4212053, 36.2626887], [-95.4210623, 36.2626918]]]}, "properties": {"osm_id": 575283732, "building": "yes", "name": "", "height": null, "height_m": null, "levels": null, "tract_id": "40097040300", "tract_name": "403", "tags": {"building": "yes"}}}, {"type": "Feature", "geometry": {"type": "Polygon", "coordinates": [[[-95.4214713, 36.2628443], [-95.4212809, 36.2628454], [-95.4212799, 36.2627318], [-95.4214703, 36.2627307], [-95.4214713, 36.2628443]]]}, "properties": {"osm_id": 575283733, "building": "yes", "name": "", "height": null, "height_m": null, "levels": null, "tract_id": "40097040300", "tract_name": "403", "tags": {"building": "yes"}}}, {"type": "Feature", "geometry": {"type": "Polygon", "coordinates": [[[-95.4214981, 36.2622701], [-95.4212675, 36.2624496], [-95.4212028, 36.2623956], [-95.4212616, 36.2623498], [-95.4211869, 36.2622874], [-95.4212756, 36.2622184], [-95.4213503, 36.2622808], [-95.4214335, 36.2622161], [-95.4214981, 36.2622701]]]}, "properties": {"osm_id": 575283740, "building": "house", "name": "", "height": null, "height_m": null, "levels": null, "tract_id": "40097040300", "tract_name": "403", "tags": {"addr:city": "Pryor Creek", "addr:country": "US", "addr:housenumber": "9255", "addr:postcode": "74361", "addr:state": "OK", "addr:street": "West 520 Road", "building": "house"}}}, {"type": "Feature", "geometry": {"type": "Polygon", "coordinates": [[[-95.4220614, 36.262122], [-95.4218937, 36.2621227], [-95.4218924, 36.2619118], [-95.42206, 36.2619111], [-95.4220614, 36.262122]]]}, "properties": {"osm_id": 575283742, "building": "yes", "name": "", "height": null, "height_m": null, "levels": null, "tract_id": "40097040300", "tract_name": "403", "tags": {"building": "yes"}}}, {"type": "Feature", "geometry": {"type": "Polygon", "coordinates": [[[-95.198343, 36.2663641], [-95.1980331, 36.2663646], [-95.1980334, 36.2664536], [-95.1983432, 36.2664531], [-95.198343, 36.2663641]]]}, "properties": {"osm_id": 805554505, "building": "yes", "name": "", "height": null, "height_m": null, "levels": null, "tract_id": "40097040300", "tract_name": "403", "tags": {"addr:housenumber": "3211", "addr:street": "E0520 Road", "building": "yes"}}}, {"type": "Feature", "geometry": {"type": "Polygon", "coordinates": [[[-95.3332762, 36.2513693], [-95.333275, 36.2511041], [-95.3333794, 36.2511038], [-95.3333806, 36.251369], [-95.3332762, 36.2513693]]]}, "properties": {"osm_id": 1198071681, "building": "yes", "name": "", "height": null, "height_m": null, "levels": null, "tract_id": "40097040300", "tract_name": "403", "tags": {"building": "yes"}}}, {"type": "Feature", "geometry": {"type": "Polygon", "coordinates": [[[-95.3313745, 36.2501133], [-95.3312509, 36.2501255], [-95.3312329, 36.2500066], [-95.3313565, 36.2499945], [-95.3313745, 36.2501133]]]}, "properties": {"osm_id": 1198071682, "building": "yes", "name": "", "height": null, "height_m": null, "levels": null, "tract_id": "40097040300", "tract_name": "403", "tags": {"building": "yes"}}}, {"type": "Feature", "geometry": {"type": "Polygon", "coordinates": [[[-95.3322261, 36.2500934], [-95.3321688, 36.2500734], [-95.3322036, 36.2500085], [-95.3322609, 36.2500285], [-95.3322261, 36.2500934]]]}, "properties": {"osm_id": 1198071683, "building": "yes", "name": "", "height": null, "height_m": null, "levels": null, "tract_id": "40097040300", "tract_name": "403", "tags": {"building": "yes"}}}, {"type": "Feature", "geometry": {"type": "Polygon", "coordinates": [[[-95.331935, 36.249893], [-95.3321515, 36.2499805], [-95.3321987, 36.2499045], [-95.3320919, 36.2498613], [-95.3320986, 36.2498504], [-95.332028, 36.2498219], [-95.3320218, 36.2498319], [-95.3319827, 36.2498161], [-95.331935, 36.249893]]]}, "properties": {"osm_id": 1198071684, "building": "house", "name": "", "height": null, "height_m": null, "levels": null, "tract_id": "40097040300", "tract_name": "403", "tags": {"building": "house"}}}, {"type": "Feature", "geometry": {"type": "Polygon", "coordinates": [[[-95.3319478, 36.2497883], [-95.3318888, 36.2497673], [-95.3319109, 36.2497267], [-95.33197, 36.2497476], [-95.3319478, 36.2497883]]]}, "properties": {"osm_id": 1198071685, "building": "yes", "name": "", "height": null, "height_m": null, "levels": null, "tract_id": "40097040300", "tract_name": "403", "tags": {"building": "yes"}}}, {"type": "Feature", "geometry": {"type": "Polygon", "coordinates": [[[-95.3329407, 36.2495922], [-95.3330289, 36.2495912], [-95.3330279, 36.2495334], [-95.3329397, 36.2495343], [-95.3329407, 36.2495922]]]}, "properties": {"osm_id": 1198071686, "building": "yes", "name": "", "height": null, "height_m": null, "levels": null, "tract_id": "40097040300", "tract_name": "403", "tags": {"building": "yes"}}}, {"type": "Feature", "geometry": {"type": "Polygon", "coordinates": [[[-95.3329402, 36.2502508], [-95.3329402, 36.2497067], [-95.33304, 36.2497067], [-95.33304, 36.2502508], [-95.3329402, 36.2502508]]]}, "properties": {"osm_id": 1198071687, "building": "yes", "name": "", "height": null, "height_m": null, "levels": null, "tract_id": "40097040300", "tract_name": "403", "tags": {"building": "yes"}}}, {"type": "Feature", "geometry": {"type": "Polygon", "coordinates": [[[-95.3327101, 36.2502483], [-95.332713, 36.2497043], [-95.3328472, 36.2497047], [-95.3328443, 36.2502488], [-95.3327101, 36.2502483]]]}, "properties": {"osm_id": 1198071688, "building": "yes", "name": "", "height": null, "height_m": null, "levels": null, "tract_id": "40097040300", "tract_name": "403", "tags": {"building": "yes"}}}, {"type": "Feature", "geometry": {"type": "Polygon", "coordinates": [[[-95.3324871, 36.2502477], [-95.3324903, 36.2497042], [-95.3326219, 36.2497047], [-95.3326186, 36.2502482], [-95.3324871, 36.2502477]]]}, "properties": {"osm_id": 1198071689, "building": "yes", "name": "", "height": null, "height_m": null, "levels": null, "tract_id": "40097040300", "tract_name": "403", "tags": {"building": "yes"}}}, {"type": "Feature", "geometry": {"type": "Polygon", "coordinates": [[[-95.3274574, 36.2499978], [-95.3274354, 36.24953], [-95.3275772, 36.2495257], [-95.3275901, 36.2498013], [-95.3277032, 36.2497978], [-95.3277088, 36.2499183], [-95.3275747, 36.2499224], [-95.3275771, 36.2499735], [-95.3275701, 36.2499737], [-95.3275711, 36.2499944], [-95.3274574, 36.2499978]]]}, "properties": {"osm_id": 1199229332, "building": "yes", "name": "", "height": null, "height_m": null, "levels": null, "tract_id": "40097040300", "tract_name": "403", "tags": {"building": "yes"}}}, {"type": "Feature", "geometry": {"type": "Polygon", "coordinates": [[[-95.3283298, 36.2498686], [-95.3282275, 36.2496983], [-95.3281331, 36.2497352], [-95.3282354, 36.2499055], [-95.3283298, 36.2498686]]]}, "properties": {"osm_id": 1199229333, "building": "detached", "name": "", "height": null, "height_m": null, "levels": null, "tract_id": "40097040300", "tract_name": "403", "tags": {"building": "detached"}}}, {"type": "Feature", "geometry": {"type": "Polygon", "coordinates": [[[-95.3293556, 36.2496303], [-95.3293507, 36.2495232], [-95.3294419, 36.2495205], [-95.3294468, 36.2496276], [-95.3293556, 36.2496303]]]}, "properties": {"osm_id": 1199229334, "building": "garage", "name": "", "height": null, "height_m": null, "levels": null, "tract_id": "40097040300", "tract_name": "403", "tags": {"building": "garage"}}}, {"type": "Feature", "geometry": {"type": "Polygon", "coordinates": [[[-95.3300296, 36.2496023], [-95.3298624, 36.2496049], [-95.3298617, 36.2495748], [-95.3297668, 36.2495762], [-95.3297673, 36.2495962], [-95.3297437, 36.2495966], [-95.3297458, 36.2496872], [-95.3298464, 36.2496857], [-95.3298469, 36.2497085], [-95.3299399, 36.2497071], [-95.3299394, 36.2496848], [-95.3300315, 36.2496834], [-95.3300296, 36.2496023]]]}, "properties": {"osm_id": 1199229335, "building": "detached", "name": "", "height": null, "height_m": null, "levels": null, "tract_id": "40097040300", "tract_name": "403", "tags": {"building": "detached"}}}, {"type": "Feature", "geometry": {"type": "Polygon", "coordinates": [[[-95.3345825, 36.2526841], [-95.3344831, 36.2526717], [-95.3345086, 36.2525386], [-95.3346081, 36.2525511], [-95.3345825, 36.2526841]]]}, "properties": {"osm_id": 1199229336, "building": "yes", "name": "", "height": null, "height_m": null, "levels": null, "tract_id": "40097040300", "tract_name": "403", "tags": {"building": "yes"}}}, {"type": "Feature", "geometry": {"type": "Polygon", "coordinates": [[[-95.3232311, 36.2498104], [-95.3232317, 36.2498976], [-95.3233419, 36.2498971], [-95.3233413, 36.2498099], [-95.3232311, 36.2498104]]]}, "properties": {"osm_id": 1202229372, "building": "roof", "name": "", "height": null, "height_m": null, "levels": null, "tract_id": "40097040300", "tract_name": "403", "tags": {"building": "roof"}}}, {"type": "Feature", "geometry": {"type": "Polygon", "coordinates": [[[-95.3234136, 36.2498095], [-95.3234128, 36.2496988], [-95.3231621, 36.2497], [-95.3231629, 36.2498107], [-95.3232311, 36.2498104], [-95.3233413, 36.2498099], [-95.3234136, 36.2498095]]]}, "properties": {"osm_id": 1202229373, "building": "yes", "name": "", "height": null, "height_m": null, "levels": null, "tract_id": "40097040300", "tract_name": "403", "tags": {"building": "yes"}}}, {"type": "Feature", "geometry": {"type": "Polygon", "coordinates": [[[-95.3249053, 36.2503968], [-95.3245621, 36.2503988], [-95.3245615, 36.2503339], [-95.3246428, 36.2503334], [-95.3246424, 36.2502889], [-95.3248246, 36.2502878], [-95.324825, 36.2503322], [-95.3249047, 36.2503317], [-95.3249053, 36.2503968]]]}, "properties": {"osm_id": 1202229385, "building": "yes", "name": "", "height": null, "height_m": null, "levels": null, "tract_id": "40097040300", "tract_name": "403", "tags": {"building": "yes"}}}, {"type": "Feature", "geometry": {"type": "Polygon", "coordinates": [[[-95.3248495, 36.2502527], [-95.3251356, 36.2502525], [-95.3251355, 36.2501229], [-95.3255557, 36.2501226], [-95.3255556, 36.2499581], [-95.3253453, 36.2499582], [-95.3253453, 36.2499488], [-95.3252808, 36.2499488], [-95.3252808, 36.2499581], [-95.3250656, 36.2499582], [-95.3250658, 36.2500935], [-95.3248493, 36.2500936], [-95.3248495, 36.2502527]]]}, "properties": {"osm_id": 1202229386, "building": "yes", "name": "", "height": null, "height_m": null, "levels": null, "tract_id": "40097040300", "tract_name": "403", "tags": {"building": "yes"}}}, {"type": "Feature", "geometry": {"type": "Polygon", "coordinates": [[[-95.3239087, 36.2499607], [-95.3239101, 36.2501244], [-95.3243343, 36.250122], [-95.3243354, 36.2502563], [-95.3246226, 36.2502547], [-95.3246211, 36.2500922], [-95.324399, 36.2500934], [-95.3243978, 36.2499595], [-95.3241893, 36.2499607], [-95.3241892, 36.2499487], [-95.3241271, 36.249949], [-95.3241272, 36.2499595], [-95.3239087, 36.2499607]]]}, "properties": {"osm_id": 1202229387, "building": "yes", "name": "", "height": null, "height_m": null, "levels": null, "tract_id": "40097040300", "tract_name": "403", "tags": {"building": "yes"}}}, {"type": "Feature", "geometry": {"type": "Polygon", "coordinates": [[[-95.3275783, 36.2533729], [-95.3277158, 36.2533669], [-95.3277035, 36.2531847], [-95.3276841, 36.2531855], [-95.3276816, 36.253149], [-95.3275831, 36.2531533], [-95.3275856, 36.25319], [-95.3275649, 36.2531909], [-95.3275691, 36.2532524], [-95.3274205, 36.2532589], [-95.3274257, 36.2533358], [-95.3275753, 36.2533293], [-95.3275783, 36.2533729]]]}, "properties": {"osm_id": 1202517935, "building": "residential", "name": "", "height": null, "height_m": null, "levels": null, "tract_id": "40097040300", "tract_name": "403", "tags": {"building": "residential"}}}, {"type": "Feature", "geometry": {"type": "Polygon", "coordinates": [[[-95.3270849, 36.2528914], [-95.3268881, 36.2529025], [-95.3268816, 36.2528268], [-95.3269027, 36.2528256], [-95.3268941, 36.252727], [-95.3270994, 36.2527154], [-95.3271031, 36.2527588], [-95.3270132, 36.2527639], [-95.3270179, 36.2528186], [-95.3270492, 36.2528168], [-95.3270503, 36.25283], [-95.3270794, 36.2528283], [-95.3270849, 36.2528914]]]}, "properties": {"osm_id": 1202517936, "building": "residential", "name": "", "height": null, "height_m": null, "levels": null, "tract_id": "40097040300", "tract_name": "403", "tags": {"building": "residential"}}}, {"type": "Feature", "geometry": {"type": "Polygon", "coordinates": [[[-95.3266905, 36.2525377], [-95.3268401, 36.2524816], [-95.3268027, 36.2524167], [-95.3267727, 36.252428], [-95.3267603, 36.2524065], [-95.3267846, 36.2523974], [-95.3267569, 36.2523494], [-95.3267305, 36.2523593], [-95.3267079, 36.2523201], [-95.326595, 36.2523625], [-95.3266325, 36.2524275], [-95.326644, 36.2524232], [-95.3266717, 36.2524713], [-95.3266557, 36.2524773], [-95.3266905, 36.2525377]]]}, "properties": {"osm_id": 1202517937, "building": "residential", "name": "", "height": null, "height_m": null, "levels": null, "tract_id": "40097040300", "tract_name": "403", "tags": {"building": "residential"}}}, {"type": "Feature", "geometry": {"type": "Polygon", "coordinates": [[[-95.3260601, 36.2526283], [-95.3260626, 36.2525264], [-95.326139, 36.2525276], [-95.3261409, 36.2524513], [-95.325966, 36.2524485], [-95.3259616, 36.2526267], [-95.3260601, 36.2526283]]]}, "properties": {"osm_id": 1202517938, "building": "residential", "name": "", "height": null, "height_m": null, "levels": null, "tract_id": "40097040300", "tract_name": "403", "tags": {"building": "residential"}}}, {"type": "Feature", "geometry": {"type": "Polygon", "coordinates": [[[-95.3259512, 36.2522683], [-95.3258619, 36.2522661], [-95.3258649, 36.2521879], [-95.3259542, 36.2521901], [-95.3259512, 36.2522683]]]}, "properties": {"osm_id": 1202517939, "building": "garage", "name": "", "height": null, "height_m": null, "levels": null, "tract_id": "40097040300", "tract_name": "403", "tags": {"building": "garage"}}}, {"type": "Feature", "geometry": {"type": "Polygon", "coordinates": [[[-95.3264123, 36.2520152], [-95.3265101, 36.2519809], [-95.326513, 36.2519863], [-95.3266277, 36.2519462], [-95.3266654, 36.2520162], [-95.3266256, 36.2520302], [-95.3266476, 36.2520712], [-95.326502, 36.2521222], [-95.3264687, 36.2520602], [-95.3264416, 36.2520697], [-95.3264123, 36.2520152]]]}, "properties": {"osm_id": 1202517940, "building": "residential", "name": "", "height": null, "height_m": null, "levels": null, "tract_id": "40097040300", "tract_name": "403", "tags": {"building": "residential"}}}, {"type": "Feature", "geometry": {"type": "Polygon", "coordinates": [[[-95.3272757, 36.2518679], [-95.3272484, 36.2518022], [-95.327211, 36.2518122], [-95.3272089, 36.2518072], [-95.3271253, 36.2518298], [-95.32714, 36.2518651], [-95.3270733, 36.2518832], [-95.3270764, 36.2518907], [-95.3270368, 36.2519014], [-95.3270796, 36.2520043], [-95.3271188, 36.2519937], [-95.3271317, 36.2520248], [-95.3272536, 36.2519919], [-95.3272406, 36.2519607], [-95.3272682, 36.2519532], [-95.3272371, 36.2518783], [-95.3272757, 36.2518679]]]}, "properties": {"osm_id": 1202517941, "building": "residential", "name": "", "height": null, "height_m": null, "levels": null, "tract_id": "40097040300", "tract_name": "403", "tags": {"building": "residential"}}}, {"type": "Feature", "geometry": {"type": "Polygon", "coordinates": [[[-95.3277189, 36.2518871], [-95.3275988, 36.2518869], [-95.3275988, 36.2518911], [-95.3275459, 36.251891], [-95.3275459, 36.2518851], [-95.3275192, 36.2518851], [-95.3275194, 36.2518193], [-95.3275431, 36.2518193], [-95.3275433, 36.2517311], [-95.3276818, 36.2517314], [-95.3276815, 36.2518205], [-95.3277191, 36.2518205], [-95.3277189, 36.2518871]]]}, "properties": {"osm_id": 1202517942, "building": "residential", "name": "", "height": null, "height_m": null, "levels": null, "tract_id": "40097040300", "tract_name": "403", "tags": {"building": "residential"}}}, {"type": "Feature", "geometry": {"type": "Polygon", "coordinates": [[[-95.3284087, 36.2521896], [-95.3284068, 36.252086], [-95.3282906, 36.2520874], [-95.3282903, 36.2520679], [-95.3282748, 36.2520681], [-95.3282734, 36.2519924], [-95.3285649, 36.2519889], [-95.3285662, 36.2520574], [-95.3285933, 36.2520571], [-95.3285949, 36.2521436], [-95.3285417, 36.2521443], [-95.3285425, 36.252188], [-95.3284087, 36.2521896]]]}, "properties": {"osm_id": 1202517944, "building": "residential", "name": "", "height": null, "height_m": null, "levels": null, "tract_id": "40097040300", "tract_name": "403", "tags": {"building": "residential"}}}, {"type": "Feature", "geometry": {"type": "Polygon", "coordinates": [[[-95.3287736, 36.2524587], [-95.3289559, 36.252505], [-95.3290033, 36.2523834], [-95.3288211, 36.2523371], [-95.3287736, 36.2524587]]]}, "properties": {"osm_id": 1202517945, "building": "yes", "name": "", "height": null, "height_m": null, "levels": null, "tract_id": "40097040300", "tract_name": "403", "tags": {"building": "yes"}}}, {"type": "Feature", "geometry": {"type": "Polygon", "coordinates": [[[-95.3289094, 36.2527381], [-95.3288293, 36.2526935], [-95.3288869, 36.2526263], [-95.328967, 36.2526709], [-95.3289094, 36.2527381]]]}, "properties": {"osm_id": 1202517946, "building": "garage", "name": "", "height": null, "height_m": null, "levels": null, "tract_id": "40097040300", "tract_name": "403", "tags": {"building": "garage"}}}, {"type": "Feature", "geometry": {"type": "Polygon", "coordinates": [[[-95.3241045, 36.2520326], [-95.3240643, 36.2519323], [-95.3241609, 36.2519071], [-95.324201, 36.2520075], [-95.3241045, 36.2520326]]]}, "properties": {"osm_id": 1202517947, "building": "garage", "name": "", "height": null, "height_m": null, "levels": null, "tract_id": "40097040300", "tract_name": "403", "tags": {"building": "garage"}}}, {"type": "Feature", "geometry": {"type": "Polygon", "coordinates": [[[-95.3243505, 36.2520949], [-95.3243019, 36.2519777], [-95.3243846, 36.2519554], [-95.3243971, 36.2519855], [-95.3245257, 36.2519508], [-95.3245618, 36.2520379], [-95.3243505, 36.2520949]]]}, "properties": {"osm_id": 1202517948, "building": "residential", "name": "", "height": null, "height_m": null, "levels": null, "tract_id": "40097040300", "tract_name": "403", "tags": {"building": "residential"}}}, {"type": "Feature", "geometry": {"type": "Polygon", "coordinates": [[[-95.3251772, 36.2517666], [-95.3251481, 36.2517048], [-95.3251303, 36.2517102], [-95.3250974, 36.2516403], [-95.3250004, 36.2516699], [-95.3250331, 36.2517394], [-95.3250108, 36.2517463], [-95.3250394, 36.2518073], [-95.325089, 36.2517922], [-95.3250934, 36.2518016], [-95.3251597, 36.2517814], [-95.3251558, 36.2517731], [-95.3251772, 36.2517666]]]}, "properties": {"osm_id": 1202517949, "building": "residential", "name": "", "height": null, "height_m": null, "levels": null, "tract_id": "40097040300", "tract_name": "403", "tags": {"building": "residential"}}}, {"type": "Feature", "geometry": {"type": "Polygon", "coordinates": [[[-95.325548, 36.2515052], [-95.3253116, 36.2515755], [-95.325351, 36.2516617], [-95.3255874, 36.2515914], [-95.325548, 36.2515052]]]}, "properties": {"osm_id": 1202517950, "building": "residential", "name": "", "height": null, "height_m": null, "levels": null, "tract_id": "40097040300", "tract_name": "403", "tags": {"building": "residential"}}}, {"type": "Feature", "geometry": {"type": "Polygon", "coordinates": [[[-95.3259063, 36.2515079], [-95.3258671, 36.2514092], [-95.3256917, 36.2514544], [-95.3257254, 36.2515395], [-95.3258106, 36.2515176], [-95.325816, 36.2515312], [-95.3259063, 36.2515079]]]}, "properties": {"osm_id": 1202517951, "building": "residential", "name": "", "height": null, "height_m": null, "levels": null, "tract_id": "40097040300", "tract_name": "403", "tags": {"building": "residential"}}}, {"type": "Feature", "geometry": {"type": "Polygon", "coordinates": [[[-95.3262595, 36.2514149], [-95.3262156, 36.2513179], [-95.3260448, 36.2513682], [-95.3260822, 36.2514508], [-95.3261685, 36.2514254], [-95.326175, 36.2514398], [-95.3262595, 36.2514149]]]}, "properties": {"osm_id": 1202517952, "building": "residential", "name": "", "height": null, "height_m": null, "levels": null, "tract_id": "40097040300", "tract_name": "403", "tags": {"building": "residential"}}}, {"type": "Feature", "geometry": {"type": "Polygon", "coordinates": [[[-95.3266783, 36.251272], [-95.3266425, 36.251191], [-95.3264053, 36.2512592], [-95.3264404, 36.2513386], [-95.3265065, 36.2513196], [-95.3265038, 36.2513135], [-95.3265696, 36.2512946], [-95.326573, 36.2513023], [-95.3266783, 36.251272]]]}, "properties": {"osm_id": 1202517953, "building": "residential", "name": "", "height": null, "height_m": null, "levels": null, "tract_id": "40097040300", "tract_name": "403", "tags": {"building": "residential"}}}, {"type": "Feature", "geometry": {"type": "Polygon", "coordinates": [[[-95.3270045, 36.2511846], [-95.3269682, 36.251105], [-95.3268911, 36.2511278], [-95.3268842, 36.2511127], [-95.3267614, 36.2511491], [-95.3267902, 36.2512122], [-95.3268516, 36.251194], [-95.3268657, 36.2512247], [-95.3269009, 36.2512143], [-95.3269065, 36.2512265], [-95.3269739, 36.2512065], [-95.3269687, 36.2511952], [-95.3270045, 36.2511846]]]}, "properties": {"osm_id": 1202517954, "building": "residential", "name": "", "height": null, "height_m": null, "levels": null, "tract_id": "40097040300", "tract_name": "403", "tags": {"building": "residential"}}}, {"type": "Feature", "geometry": {"type": "Polygon", "coordinates": [[[-95.3273833, 36.2512872], [-95.3273095, 36.2511092], [-95.3273985, 36.2510852], [-95.3274031, 36.2510962], [-95.3274299, 36.251089], [-95.3274387, 36.2511101], [-95.3275123, 36.2510903], [-95.3275498, 36.2511808], [-95.3274314, 36.2512127], [-95.3274543, 36.251268], [-95.3273833, 36.2512872]]]}, "properties": {"osm_id": 1202517955, "building": "residential", "name": "", "height": null, "height_m": null, "levels": null, "tract_id": "40097040300", "tract_name": "403", "tags": {"building": "residential"}}}, {"type": "Feature", "geometry": {"type": "Polygon", "coordinates": [[[-95.3129587, 36.2495215], [-95.3127911, 36.2495187], [-95.3127901, 36.2495564], [-95.3129033, 36.2495583], [-95.3129027, 36.2495837], [-95.3129283, 36.2495842], [-95.3129289, 36.2495588], [-95.3129577, 36.2495593], [-95.3129587, 36.2495215]]]}, "properties": {"osm_id": 1202519123, "building": "yes", "name": "", "height": null, "height_m": null, "levels": null, "tract_id": "40097040300", "tract_name": "403", "tags": {"building": "yes"}}}, {"type": "Feature", "geometry": {"type": "Polygon", "coordinates": [[[-95.31302, 36.2496182], [-95.3127923, 36.2496129], [-95.312791, 36.2496485], [-95.3129106, 36.2496513], [-95.3129098, 36.249674], [-95.3129479, 36.2496749], [-95.3129487, 36.2496527], [-95.3130187, 36.2496543], [-95.31302, 36.2496182]]]}, "properties": {"osm_id": 1202519124, "building": "yes", "name": "", "height": null, "height_m": null, "levels": null, "tract_id": "40097040300", "tract_name": "403", "tags": {"building": "yes"}}}, {"type": "Feature", "geometry": {"type": "Polygon", "coordinates": [[[-95.3130176, 36.2497199], [-95.3127928, 36.2497079], [-95.3127899, 36.249744], [-95.3129415, 36.2497521], [-95.3129397, 36.2497743], [-95.3129649, 36.2497757], [-95.3129666, 36.2497542], [-95.3130146, 36.2497567], [-95.3130176, 36.2497199]]]}, "properties": {"osm_id": 1202519125, "building": "yes", "name": "", "height": null, "height_m": null, "levels": null, "tract_id": "40097040300", "tract_name": "403", "tags": {"building": "yes"}}}, {"type": "Feature", "geometry": {"type": "Polygon", "coordinates": [[[-95.3130183, 36.2498102], [-95.3127925, 36.2498019], [-95.3127902, 36.2498427], [-95.312921, 36.2498475], [-95.3129198, 36.2498688], [-95.312946, 36.2498697], [-95.3129472, 36.2498483], [-95.313016, 36.2498508], [-95.3130183, 36.2498102]]]}, "properties": {"osm_id": 1202519126, "building": "yes", "name": "", "height": null, "height_m": null, "levels": null, "tract_id": "40097040300", "tract_name": "403", "tags": {"building": "yes"}}}, {"type": "Feature", "geometry": {"type": "Polygon", "coordinates": [[[-95.3130165, 36.2499479], [-95.3129516, 36.2499473], [-95.3129513, 36.2499687], [-95.3129281, 36.2499685], [-95.3129285, 36.2499463], [-95.3127876, 36.2499449], [-95.3127882, 36.2499066], [-95.3130171, 36.2499088], [-95.3130165, 36.2499479]]]}, "properties": {"osm_id": 1202519127, "building": "yes", "name": "", "height": null, "height_m": null, "levels": null, "tract_id": "40097040300", "tract_name": "403", "tags": {"building": "yes"}}}, {"type": "Feature", "geometry": {"type": "Polygon", "coordinates": [[[-95.3130097, 36.2500462], [-95.3129377, 36.250044], [-95.3129367, 36.250066], [-95.312916, 36.2500654], [-95.3129171, 36.2500421], [-95.3127866, 36.2500382], [-95.3127883, 36.2500023], [-95.3128239, 36.2500034], [-95.3128244, 36.2499924], [-95.3128495, 36.2499932], [-95.312849, 36.2500043], [-95.3130115, 36.2500093], [-95.3130097, 36.2500462]]]}, "properties": {"osm_id": 1202519128, "building": "yes", "name": "", "height": null, "height_m": null, "levels": null, "tract_id": "40097040300", "tract_name": "403", "tags": {"building": "yes"}}}, {"type": "Feature", "geometry": {"type": "Polygon", "coordinates": [[[-95.3129625, 36.2501363], [-95.3129291, 36.2501356], [-95.3129284, 36.250159], [-95.3129076, 36.2501586], [-95.3129083, 36.2501357], [-95.3127867, 36.2501333], [-95.3127877, 36.2500985], [-95.3129636, 36.250102], [-95.3129625, 36.2501363]]]}, "properties": {"osm_id": 1202519129, "building": "yes", "name": "", "height": null, "height_m": null, "levels": null, "tract_id": "40097040300", "tract_name": "403", "tags": {"building": "yes"}}}, {"type": "Feature", "geometry": {"type": "Polygon", "coordinates": [[[-95.3127789, 36.2502345], [-95.3128365, 36.2502352], [-95.312836, 36.2502643], [-95.3128604, 36.2502646], [-95.3128609, 36.2502343], [-95.3129569, 36.2502353], [-95.3129575, 36.2502001], [-95.3127796, 36.2501981], [-95.3127789, 36.2502345]]]}, "properties": {"osm_id": 1202519130, "building": "yes", "name": "", "height": null, "height_m": null, "levels": null, "tract_id": "40097040300", "tract_name": "403", "tags": {"building": "yes"}}}, {"type": "Feature", "geometry": {"type": "Polygon", "coordinates": [[[-95.3127774, 36.2503271], [-95.3129049, 36.2503298], [-95.3129042, 36.2503525], [-95.3129282, 36.250353], [-95.312929, 36.2503306], [-95.3129687, 36.2503314], [-95.3129699, 36.2502955], [-95.3127785, 36.2502915], [-95.3127774, 36.2503271]]]}, "properties": {"osm_id": 1202519131, "building": "yes", "name": "", "height": null, "height_m": null, "levels": null, "tract_id": "40097040300", "tract_name": "403", "tags": {"building": "yes"}}}, {"type": "Feature", "geometry": {"type": "Polygon", "coordinates": [[[-95.3127783, 36.2504167], [-95.3128673, 36.250418], [-95.3128668, 36.2504402], [-95.3129001, 36.2504407], [-95.3129006, 36.2504177], [-95.3129704, 36.2504187], [-95.3129712, 36.2503828], [-95.3127791, 36.25038], [-95.3127783, 36.2504167]]]}, "properties": {"osm_id": 1202519132, "building": "yes", "name": "", "height": null, "height_m": null, "levels": null, "tract_id": "40097040300", "tract_name": "403", "tags": {"building": "yes"}}}, {"type": "Feature", "geometry": {"type": "Polygon", "coordinates": [[[-95.3138251, 36.2499304], [-95.3138257, 36.2499959], [-95.3142327, 36.2499935], [-95.3142321, 36.2499279], [-95.3138251, 36.2499304]]]}, "properties": {"osm_id": 1202519133, "building": "yes", "name": "", "height": null, "height_m": null, "levels": null, "tract_id": "40097040300", "tract_name": "403", "tags": {"building": "yes"}}}, {"type": "Feature", "geometry": {"type": "Polygon", "coordinates": [[[-95.3136794, 36.2501394], [-95.3136805, 36.2500308], [-95.3137826, 36.2500315], [-95.3137814, 36.2501401], [-95.3136794, 36.2501394]]]}, "properties": {"osm_id": 1202519134, "building": "yes", "name": "", "height": null, "height_m": null, "levels": null, "tract_id": "40097040300", "tract_name": "403", "tags": {"building": "yes"}}}, {"type": "Feature", "geometry": {"type": "Polygon", "coordinates": [[[-95.3135756, 36.2500019], [-95.3135034, 36.250001], [-95.3135044, 36.249948], [-95.3135766, 36.2499489], [-95.3135756, 36.2500019]]]}, "properties": {"osm_id": 1202519135, "building": "yes", "name": "", "height": null, "height_m": null, "levels": null, "tract_id": "40097040300", "tract_name": "403", "tags": {"building": "yes"}}}, {"type": "Feature", "geometry": {"type": "Polygon", "coordinates": [[[-95.3134428, 36.2498996], [-95.3134438, 36.2496949], [-95.3134547, 36.249695], [-95.3134548, 36.2496768], [-95.3135275, 36.249677], [-95.3135273, 36.2496976], [-95.3135324, 36.2496976], [-95.313532, 36.2497748], [-95.3135948, 36.249775], [-95.3135943, 36.2498661], [-95.3135884, 36.249866], [-95.3135882, 36.2498949], [-95.3135298, 36.2498947], [-95.3135298, 36.2498999], [-95.3134428, 36.2498996]]]}, "properties": {"osm_id": 1202519136, "building": "yes", "name": "", "height": null, "height_m": null, "levels": null, "tract_id": "40097040300", "tract_name": "403", "tags": {"building": "yes"}}}, {"type": "Feature", "geometry": {"type": "Polygon", "coordinates": [[[-95.3138363, 36.2497773], [-95.3138362, 36.2496956], [-95.3138211, 36.2496956], [-95.313821, 36.2496556], [-95.3138366, 36.2496555], [-95.3138364, 36.2495727], [-95.3139391, 36.2495726], [-95.3139395, 36.2497772], [-95.3138363, 36.2497773]]]}, "properties": {"osm_id": 1202519137, "building": "yes", "name": "", "height": null, "height_m": null, "levels": null, "tract_id": "40097040300", "tract_name": "403", "tags": {"building": "yes"}}}, {"type": "Feature", "geometry": {"type": "Polygon", "coordinates": [[[-95.3142324, 36.2497397], [-95.3142333, 36.2495202], [-95.3144047, 36.2495206], [-95.3144039, 36.2497401], [-95.3142324, 36.2497397]]]}, "properties": {"osm_id": 1202519138, "building": "yes", "name": "", "height": null, "height_m": null, "levels": null, "tract_id": "40097040300", "tract_name": "403", "tags": {"building": "yes"}}}, {"type": "Feature", "geometry": {"type": "Polygon", "coordinates": [[[-95.3158893, 36.2497555], [-95.3156882, 36.2497564], [-95.3156873, 36.2496304], [-95.3158884, 36.2496295], [-95.3158893, 36.2497555]]]}, "properties": {"osm_id": 1202519142, "building": "yes", "name": "", "height": null, "height_m": null, "levels": null, "tract_id": "40097040300", "tract_name": "403", "tags": {"building": "yes"}}}, {"type": "Feature", "geometry": {"type": "Polygon", "coordinates": [[[-95.3156106, 36.250281], [-95.3156122, 36.249955], [-95.3158166, 36.2499556], [-95.315815, 36.2502817], [-95.3156106, 36.250281]]]}, "properties": {"osm_id": 1202519143, "building": "yes", "name": "", "height": null, "height_m": null, "levels": null, "tract_id": "40097040300", "tract_name": "403", "tags": {"building": "yes"}}}, {"type": "Feature", "geometry": {"type": "Polygon", "coordinates": [[[-95.3172085, 36.2536585], [-95.3171055, 36.2536553], [-95.3171109, 36.2535431], [-95.3172139, 36.2535463], [-95.3172085, 36.2536585]]]}, "properties": {"osm_id": 1204718280, "building": "yes", "name": "", "height": null, "height_m": null, "levels": null, "tract_id": "40097040300", "tract_name": "403", "tags": {"building": "yes"}}}, {"type": "Feature", "geometry": {"type": "Polygon", "coordinates": [[[-95.3171838, 36.2533962], [-95.3172657, 36.253405], [-95.3172774, 36.2533335], [-95.3172698, 36.2533327], [-95.3172726, 36.2533154], [-95.3174394, 36.2533332], [-95.317458, 36.2532199], [-95.3173982, 36.2532135], [-95.3174022, 36.2531893], [-95.3172906, 36.2531773], [-95.3172866, 36.2532019], [-95.3172299, 36.2531958], [-95.3172082, 36.253328], [-95.3171952, 36.2533266], [-95.3171838, 36.2533962]]]}, "properties": {"osm_id": 1204718281, "building": "residential", "name": "", "height": null, "height_m": null, "levels": null, "tract_id": "40097040300", "tract_name": "403", "tags": {"building": "residential"}}}, {"type": "Feature", "geometry": {"type": "Polygon", "coordinates": [[[-95.32205, 36.253732], [-95.3220259, 36.2538369], [-95.3222104, 36.2538644], [-95.3222238, 36.2538063], [-95.3222474, 36.2538098], [-95.3222707, 36.2537086], [-95.3222494, 36.2537054], [-95.32226, 36.2536591], [-95.3222578, 36.2536588], [-95.3222728, 36.2535935], [-95.3222376, 36.2535883], [-95.3222203, 36.25355], [-95.3222376, 36.2535449], [-95.3221968, 36.2534548], [-95.3221085, 36.2534808], [-95.3221476, 36.2535671], [-95.3221636, 36.2535624], [-95.3221709, 36.2535783], [-95.3221534, 36.2535757], [-95.3221384, 36.2536407], [-95.3221228, 36.2536384], [-95.322121, 36.2536462], [-95.3220808, 36.2536402], [-95.3220704, 36.2536859], [-95.3221103, 36.2536919], [-95.3220994, 36.2537393], [-95.32205, 36.253732]]]}, "properties": {"osm_id": 1204718282, "building": "residential", "name": "", "height": null, "height_m": null, "levels": null, "tract_id": "40097040300", "tract_name": "403", "tags": {"building": "residential"}}}, {"type": "Feature", "geometry": {"type": "Polygon", "coordinates": [[[-95.3220159, 36.2533981], [-95.3221498, 36.2533976], [-95.3221494, 36.253321], [-95.3220154, 36.2533215], [-95.3220159, 36.2533981]]]}, "properties": {"osm_id": 1204718286, "building": "garage", "name": "", "height": null, "height_m": null, "levels": null, "tract_id": "40097040300", "tract_name": "403", "tags": {"building": "garage"}}}, {"type": "Feature", "geometry": {"type": "Polygon", "coordinates": [[[-95.3230873, 36.2527289], [-95.3231464, 36.2526996], [-95.3230536, 36.2525779], [-95.3230035, 36.2526027], [-95.3230208, 36.2526254], [-95.32288, 36.2526952], [-95.3229552, 36.2527938], [-95.3230377, 36.252753], [-95.3230578, 36.2527793], [-95.3231071, 36.2527549], [-95.3230873, 36.2527289]]]}, "properties": {"osm_id": 1204718287, "building": "residential", "name": "", "height": null, "height_m": null, "levels": null, "tract_id": "40097040300", "tract_name": "403", "tags": {"building": "residential"}}}, {"type": "Feature", "geometry": {"type": "Polygon", "coordinates": [[[-95.3230902, 36.2526053], [-95.3231813, 36.2525598], [-95.323125, 36.2524866], [-95.3230339, 36.2525321], [-95.3230902, 36.2526053]]]}, "properties": {"osm_id": 1204718288, "building": "garage", "name": "", "height": null, "height_m": null, "levels": null, "tract_id": "40097040300", "tract_name": "403", "tags": {"building": "garage"}}}, {"type": "Feature", "geometry": {"type": "Polygon", "coordinates": [[[-95.3232805, 36.2527797], [-95.3234132, 36.2527655], [-95.3233997, 36.252684], [-95.323267, 36.2526983], [-95.3232805, 36.2527797]]]}, "properties": {"osm_id": 1204718289, "building": "garage", "name": "", "height": null, "height_m": null, "levels": null, "tract_id": "40097040300", "tract_name": "403", "tags": {"building": "garage"}}}, {"type": "Feature", "geometry": {"type": "Polygon", "coordinates": [[[-95.3233131, 36.2525579], [-95.3233008, 36.2524841], [-95.3233719, 36.2524764], [-95.3233688, 36.2524577], [-95.3234611, 36.2524478], [-95.3234573, 36.2524247], [-95.3235086, 36.2524192], [-95.3235103, 36.2524294], [-95.3235563, 36.2524245], [-95.3235623, 36.2524606], [-95.3235966, 36.2524569], [-95.323608, 36.2525252], [-95.3235154, 36.2525352], [-95.3235211, 36.2525698], [-95.3234304, 36.2525796], [-95.3234248, 36.2525459], [-95.3233131, 36.2525579]]]}, "properties": {"osm_id": 1204718290, "building": "residential", "name": "", "height": null, "height_m": null, "levels": null, "tract_id": "40097040300", "tract_name": "403", "tags": {"building": "residential"}}}, {"type": "Feature", "geometry": {"type": "Polygon", "coordinates": [[[-95.3237486, 36.2527758], [-95.3238629, 36.2527843], [-95.3238734, 36.2526926], [-95.323827, 36.2526892], [-95.3238349, 36.2526205], [-95.3237717, 36.2526158], [-95.3237638, 36.2526843], [-95.3237592, 36.2526839], [-95.3237486, 36.2527758]]]}, "properties": {"osm_id": 1204718291, "building": "yes", "name": "", "height": null, "height_m": null, "levels": null, "tract_id": "40097040300", "tract_name": "403", "tags": {"building": "yes"}}}, {"type": "Feature", "geometry": {"type": "Polygon", "coordinates": [[[-95.324036, 36.2525916], [-95.3240457, 36.2525371], [-95.3240743, 36.2525404], [-95.3240646, 36.2525949], [-95.324036, 36.2525916]]]}, "properties": {"osm_id": 1204718292, "building": "yes", "name": "", "height": null, "height_m": null, "levels": null, "tract_id": "40097040300", "tract_name": "403", "tags": {"building": "yes"}}}, {"type": "Feature", "geometry": {"type": "Polygon", "coordinates": [[[-95.3238611, 36.2523922], [-95.3239404, 36.252402], [-95.323939, 36.2524093], [-95.3240449, 36.2524223], [-95.3240251, 36.252527], [-95.3239726, 36.2525205], [-95.3239704, 36.2525318], [-95.3238931, 36.2525223], [-95.3238941, 36.2525171], [-95.3238387, 36.2525103], [-95.3238611, 36.2523922]]]}, "properties": {"osm_id": 1204718293, "building": "residential", "name": "", "height": null, "height_m": null, "levels": null, "tract_id": "40097040300", "tract_name": "403", "tags": {"building": "residential"}}}, {"type": "Feature", "geometry": {"type": "Polygon", "coordinates": [[[-95.3242015, 36.2525279], [-95.3242948, 36.2525389], [-95.3242905, 36.2525625], [-95.3243412, 36.2525685], [-95.3243456, 36.2525447], [-95.324449, 36.252557], [-95.3244655, 36.2524663], [-95.3243901, 36.2524574], [-95.324389, 36.2524632], [-95.3243113, 36.252454], [-95.3243121, 36.2524495], [-95.3242178, 36.2524383], [-95.3242015, 36.2525279]]]}, "properties": {"osm_id": 1204718294, "building": "residential", "name": "", "height": null, "height_m": null, "levels": null, "tract_id": "40097040300", "tract_name": "403", "tags": {"building": "residential"}}}, {"type": "Feature", "geometry": {"type": "Polygon", "coordinates": [[[-95.3244626, 36.2527595], [-95.3245432, 36.2527679], [-95.3245499, 36.2527258], [-95.3244693, 36.2527174], [-95.3244626, 36.2527595]]]}, "properties": {"osm_id": 1204718295, "building": "yes", "name": "", "height": null, "height_m": null, "levels": null, "tract_id": "40097040300", "tract_name": "403", "tags": {"building": "yes"}}}, {"type": "Feature", "geometry": {"type": "Polygon", "coordinates": [[[-95.3244938, 36.2528723], [-95.3246415, 36.252868], [-95.3246376, 36.2527804], [-95.3244899, 36.2527847], [-95.3244938, 36.2528723]]]}, "properties": {"osm_id": 1204718296, "building": "yes", "name": "", "height": null, "height_m": null, "levels": null, "tract_id": "40097040300", "tract_name": "403", "tags": {"building": "yes"}}}, {"type": "Feature", "geometry": {"type": "Polygon", "coordinates": [[[-95.3255281, 36.2532152], [-95.3254537, 36.2531858], [-95.3255422, 36.2530396], [-95.3256021, 36.2530632], [-95.3256184, 36.2530363], [-95.3256882, 36.2530638], [-95.3256706, 36.2530929], [-95.3256963, 36.253103], [-95.3256483, 36.2531822], [-95.3255674, 36.2531503], [-95.3255281, 36.2532152]]]}, "properties": {"osm_id": 1204935448, "building": "residential", "name": "", "height": null, "height_m": null, "levels": null, "tract_id": "40097040300", "tract_name": "403", "tags": {"building": "residential"}}}, {"type": "Feature", "geometry": {"type": "Polygon", "coordinates": [[[-95.3265072, 36.2532526], [-95.3263962, 36.253275], [-95.3264042, 36.2533008], [-95.3263538, 36.253311], [-95.32636, 36.2533311], [-95.3263449, 36.2533341], [-95.3263612, 36.2533868], [-95.3263939, 36.2533802], [-95.3264132, 36.2534424], [-95.3265156, 36.2534217], [-95.3264966, 36.2533604], [-95.3265403, 36.2533516], [-95.3265299, 36.2533181], [-95.3265389, 36.2533162], [-95.3265284, 36.2532824], [-95.3265171, 36.2532846], [-95.3265072, 36.2532526]]]}, "properties": {"osm_id": 1204935450, "building": "residential", "name": "", "height": null, "height_m": null, "levels": null, "tract_id": "40097040300", "tract_name": "403", "tags": {"building": "residential"}}}, {"type": "Feature", "geometry": {"type": "Polygon", "coordinates": [[[-95.3262778, 36.2532086], [-95.3262355, 36.2530832], [-95.326344, 36.2530594], [-95.326373, 36.2531455], [-95.3264616, 36.253126], [-95.3264781, 36.2531748], [-95.3264022, 36.2531915], [-95.326399, 36.253182], [-95.3262778, 36.2532086]]]}, "properties": {"osm_id": 1204935451, "building": "residential", "name": "", "height": null, "height_m": null, "levels": null, "tract_id": "40097040300", "tract_name": "403", "tags": {"building": "residential"}}}, {"type": "Feature", "geometry": {"type": "Polygon", "coordinates": [[[-95.3121095, 36.2502858], [-95.3118623, 36.2502924], [-95.3118607, 36.2502546], [-95.3119062, 36.2502534], [-95.3119053, 36.2502327], [-95.3119918, 36.2502303], [-95.3119927, 36.2502524], [-95.312108, 36.2502493], [-95.3121095, 36.2502858]]]}, "properties": {"osm_id": 1204935452, "building": "yes", "name": "", "height": null, "height_m": null, "levels": null, "tract_id": "40097040300", "tract_name": "403", "tags": {"building": "yes"}}}, {"type": "Feature", "geometry": {"type": "Polygon", "coordinates": [[[-95.311948, 36.2501678], [-95.3121733, 36.2501614], [-95.3121716, 36.2501237], [-95.3119463, 36.2501301], [-95.311948, 36.2501678]]]}, "properties": {"osm_id": 1204935453, "building": "yes", "name": "", "height": null, "height_m": null, "levels": null, "tract_id": "40097040300", "tract_name": "403", "tags": {"building": "yes"}}}, {"type": "Feature", "geometry": {"type": "Polygon", "coordinates": [[[-95.3121725, 36.2500572], [-95.3119476, 36.2500638], [-95.3119461, 36.2500308], [-95.312171, 36.2500242], [-95.3121725, 36.2500572]]]}, "properties": {"osm_id": 1204935454, "building": "yes", "name": "", "height": null, "height_m": null, "levels": null, "tract_id": "40097040300", "tract_name": "403", "tags": {"building": "yes"}}}, {"type": "Feature", "geometry": {"type": "Polygon", "coordinates": [[[-95.3121479, 36.2499726], [-95.3119565, 36.2499673], [-95.3119579, 36.2499349], [-95.3121493, 36.2499403], [-95.3121479, 36.2499726]]]}, "properties": {"osm_id": 1204935455, "building": "yes", "name": "", "height": null, "height_m": null, "levels": null, "tract_id": "40097040300", "tract_name": "403", "tags": {"building": "yes"}}}, {"type": "Feature", "geometry": {"type": "Polygon", "coordinates": [[[-95.3121732, 36.2498991], [-95.3119516, 36.2498907], [-95.3119535, 36.2498579], [-95.3121751, 36.2498664], [-95.3121732, 36.2498991]]]}, "properties": {"osm_id": 1204935456, "building": "yes", "name": "", "height": null, "height_m": null, "levels": null, "tract_id": "40097040300", "tract_name": "403", "tags": {"building": "yes"}}}, {"type": "Feature", "geometry": {"type": "Polygon", "coordinates": [[[-95.312179, 36.2498085], [-95.3119581, 36.2498001], [-95.3119603, 36.2497617], [-95.3121813, 36.2497702], [-95.312179, 36.2498085]]]}, "properties": {"osm_id": 1204935457, "building": "yes", "name": "", "height": null, "height_m": null, "levels": null, "tract_id": "40097040300", "tract_name": "403", "tags": {"building": "yes"}}}, {"type": "Feature", "geometry": {"type": "Polygon", "coordinates": [[[-95.3121339, 36.2497212], [-95.3119765, 36.2497142], [-95.3119788, 36.2496812], [-95.3121362, 36.2496882], [-95.3121339, 36.2497212]]]}, "properties": {"osm_id": 1204935458, "building": "yes", "name": "", "height": null, "height_m": null, "levels": null, "tract_id": "40097040300", "tract_name": "403", "tags": {"building": "yes"}}}, {"type": "Feature", "geometry": {"type": "Polygon", "coordinates": [[[-95.3119799, 36.2496244], [-95.3121394, 36.2496312], [-95.3121415, 36.2495987], [-95.3119821, 36.2495919], [-95.3119799, 36.2496244]]]}, "properties": {"osm_id": 1204935459, "building": "yes", "name": "", "height": null, "height_m": null, "levels": null, "tract_id": "40097040300", "tract_name": "403", "tags": {"building": "yes"}}}, {"type": "Feature", "geometry": {"type": "Polygon", "coordinates": [[[-95.3119842, 36.2495382], [-95.3121494, 36.2495469], [-95.312152, 36.2495147], [-95.3119868, 36.2495059], [-95.3119842, 36.2495382]]]}, "properties": {"osm_id": 1204935460, "building": "yes", "name": "", "height": null, "height_m": null, "levels": null, "tract_id": "40097040300", "tract_name": "403", "tags": {"building": "yes"}}}, {"type": "Feature", "geometry": {"type": "Polygon", "coordinates": [[[-95.3126575, 36.2495481], [-95.3124652, 36.2495452], [-95.3124661, 36.2495095], [-95.3125005, 36.24951], [-95.3125009, 36.2494897], [-95.3125236, 36.24949], [-95.3125231, 36.2495117], [-95.3126584, 36.2495138], [-95.3126575, 36.2495481]]]}, "properties": {"osm_id": 1204935461, "building": "yes", "name": "", "height": null, "height_m": null, "levels": null, "tract_id": "40097040300", "tract_name": "403", "tags": {"building": "yes"}}}, {"type": "Feature", "geometry": {"type": "Polygon", "coordinates": [[[-95.3124482, 36.2496497], [-95.3126536, 36.2496572], [-95.3126552, 36.2496271], [-95.3125652, 36.2496238], [-95.3125659, 36.2496122], [-95.3125384, 36.2496112], [-95.3125378, 36.249622], [-95.3124499, 36.2496188], [-95.3124482, 36.2496497]]]}, "properties": {"osm_id": 1204935462, "building": "yes", "name": "", "height": null, "height_m": null, "levels": null, "tract_id": "40097040300", "tract_name": "403", "tags": {"building": "yes"}}}, {"type": "Feature", "geometry": {"type": "Polygon", "coordinates": [[[-95.3124187, 36.249735], [-95.3125369, 36.2497392], [-95.3125359, 36.2497567], [-95.3125582, 36.2497575], [-95.3125591, 36.2497402], [-95.3126476, 36.2497433], [-95.3126495, 36.2497075], [-95.3124207, 36.2496994], [-95.3124187, 36.249735]]]}, "properties": {"osm_id": 1204935463, "building": "yes", "name": "", "height": null, "height_m": null, "levels": null, "tract_id": "40097040300", "tract_name": "403", "tags": {"building": "yes"}}}, {"type": "Feature", "geometry": {"type": "Polygon", "coordinates": [[[-95.3126469, 36.2501287], [-95.3123773, 36.2501207], [-95.312379, 36.250085], [-95.3124686, 36.2500876], [-95.3124691, 36.250076], [-95.3124996, 36.2500769], [-95.3124991, 36.2500885], [-95.3126485, 36.250093], [-95.3126469, 36.2501287]]]}, "properties": {"osm_id": 1204935464, "building": "yes", "name": "", "height": null, "height_m": null, "levels": null, "tract_id": "40097040300", "tract_name": "403", "tags": {"building": "yes"}}}, {"type": "Feature", "geometry": {"type": "Polygon", "coordinates": [[[-95.3123894, 36.2500272], [-95.3126482, 36.2500351], [-95.31265, 36.2499959], [-95.3125382, 36.2499925], [-95.312539, 36.2499758], [-95.3125133, 36.2499751], [-95.3125125, 36.2499923], [-95.3123912, 36.2499886], [-95.3123894, 36.2500272]]]}, "properties": {"osm_id": 1204935465, "building": "yes", "name": "", "height": null, "height_m": null, "levels": null, "tract_id": "40097040300", "tract_name": "403", "tags": {"building": "yes"}}}, {"type": "Feature", "geometry": {"type": "Polygon", "coordinates": [[[-95.3124147, 36.2502222], [-95.3126447, 36.2502197], [-95.3126441, 36.2501843], [-95.3124141, 36.2501868], [-95.3124147, 36.2502222]]]}, "properties": {"osm_id": 1204935466, "building": "yes", "name": "", "height": null, "height_m": null, "levels": null, "tract_id": "40097040300", "tract_name": "403", "tags": {"building": "yes"}}}, {"type": "Feature", "geometry": {"type": "Polygon", "coordinates": [[[-95.3123783, 36.2503209], [-95.3126354, 36.2503222], [-95.3126359, 36.2502583], [-95.312418, 36.2502572], [-95.3124181, 36.2502417], [-95.3123448, 36.2502413], [-95.3123445, 36.2502785], [-95.3123787, 36.2502787], [-95.3123783, 36.2503209]]]}, "properties": {"osm_id": 1204935467, "building": "yes", "name": "", "height": null, "height_m": null, "levels": null, "tract_id": "40097040300", "tract_name": "403", "tags": {"building": "yes"}}}, {"type": "Feature", "geometry": {"type": "Polygon", "coordinates": [[[-95.3242296, 36.2533839], [-95.3244174, 36.2533187], [-95.3244445, 36.2533695], [-95.3244139, 36.2533802], [-95.3244744, 36.2534937], [-95.3243729, 36.2535289], [-95.3243144, 36.2534191], [-95.3242587, 36.2534384], [-95.3242296, 36.2533839]]]}, "properties": {"osm_id": 1206121189, "building": "residential", "name": "", "height": null, "height_m": null, "levels": null, "tract_id": "40097040300", "tract_name": "403", "tags": {"building": "residential"}}}, {"type": "Feature", "geometry": {"type": "Polygon", "coordinates": [[[-95.3245523, 36.2538735], [-95.3244617, 36.2537457], [-95.324456, 36.2537483], [-95.324419, 36.253696], [-95.3245225, 36.2536483], [-95.3246502, 36.2538283], [-95.3245523, 36.2538735]]]}, "properties": {"osm_id": 1206121190, "building": "residential", "name": "", "height": null, "height_m": null, "levels": null, "tract_id": "40097040300", "tract_name": "403", "tags": {"building": "residential"}}}, {"type": "Feature", "geometry": {"type": "Polygon", "coordinates": [[[-95.3248004, 36.2542165], [-95.3247677, 36.2541701], [-95.3247512, 36.2541777], [-95.3247133, 36.2541241], [-95.3247249, 36.2541187], [-95.3247049, 36.2540904], [-95.3247153, 36.2540857], [-95.3246751, 36.2540288], [-95.3247535, 36.2539928], [-95.324784, 36.254036], [-95.3249325, 36.2539679], [-95.3249757, 36.254029], [-95.324836, 36.2540932], [-95.324893, 36.2541739], [-95.3248004, 36.2542165]]]}, "properties": {"osm_id": 1206121191, "building": "residential", "name": "", "height": null, "height_m": null, "levels": null, "tract_id": "40097040300", "tract_name": "403", "tags": {"building": "residential"}}}, {"type": "Feature", "geometry": {"type": "Polygon", "coordinates": [[[-95.324986, 36.2545336], [-95.3248615, 36.2543372], [-95.324965, 36.2542946], [-95.3250895, 36.2544909], [-95.324986, 36.2545336]]]}, "properties": {"osm_id": 1206121192, "building": "residential", "name": "", "height": null, "height_m": null, "levels": null, "tract_id": "40097040300", "tract_name": "403", "tags": {"building": "residential"}}}, {"type": "Feature", "geometry": {"type": "Polygon", "coordinates": [[[-95.3255344, 36.2542286], [-95.3253938, 36.2540654], [-95.325498, 36.254007], [-95.3255678, 36.254088], [-95.3255513, 36.2540972], [-95.3256221, 36.2541794], [-95.3255344, 36.2542286]]]}, "properties": {"osm_id": 1206121193, "building": "residential", "name": "", "height": null, "height_m": null, "levels": null, "tract_id": "40097040300", "tract_name": "403", "tags": {"building": "residential"}}}, {"type": "Feature", "geometry": {"type": "Polygon", "coordinates": [[[-95.3251782, 36.2540126], [-95.3251484, 36.25396], [-95.3251904, 36.2539445], [-95.3252202, 36.2539972], [-95.3251782, 36.2540126]]]}, "properties": {"osm_id": 1206121194, "building": "yes", "name": "", "height": null, "height_m": null, "levels": null, "tract_id": "40097040300", "tract_name": "403", "tags": {"building": "yes"}}}, {"type": "Feature", "geometry": {"type": "Polygon", "coordinates": [[[-95.3252591, 36.2538709], [-95.3251483, 36.2536919], [-95.3252694, 36.2536432], [-95.3253373, 36.2537529], [-95.3253194, 36.2537601], [-95.3253663, 36.2538358], [-95.3253048, 36.2538606], [-95.3253008, 36.2538541], [-95.3252591, 36.2538709]]]}, "properties": {"osm_id": 1206121195, "building": "residential", "name": "", "height": null, "height_m": null, "levels": null, "tract_id": "40097040300", "tract_name": "403", "tags": {"building": "residential"}}}, {"type": "Feature", "geometry": {"type": "Polygon", "coordinates": [[[-95.3250107, 36.2535111], [-95.3249638, 36.2533841], [-95.3250762, 36.2533571], [-95.3251013, 36.2534253], [-95.325115, 36.253422], [-95.3251361, 36.2534795], [-95.3251218, 36.2534829], [-95.3251437, 36.2535422], [-95.3250616, 36.2535618], [-95.3250403, 36.253504], [-95.3250107, 36.2535111]]]}, "properties": {"osm_id": 1206121196, "building": "residential", "name": "", "height": null, "height_m": null, "levels": null, "tract_id": "40097040300", "tract_name": "403", "tags": {"building": "residential"}}}, {"type": "Feature", "geometry": {"type": "Polygon", "coordinates": [[[-95.3251322, 36.2532676], [-95.3250347, 36.2531807], [-95.3250883, 36.2531416], [-95.3250602, 36.2531165], [-95.3251143, 36.253077], [-95.3251418, 36.2531014], [-95.3251926, 36.2530644], [-95.3252732, 36.2531362], [-95.3251778, 36.2532058], [-95.3251953, 36.2532215], [-95.3251322, 36.2532676]]]}, "properties": {"osm_id": 1206121197, "building": "residential", "name": "", "height": null, "height_m": null, "levels": null, "tract_id": "40097040300", "tract_name": "403", "tags": {"building": "residential"}}}, {"type": "Feature", "geometry": {"type": "Polygon", "coordinates": [[[-95.3260087, 36.2540319], [-95.3261687, 36.2539466], [-95.3261656, 36.2539429], [-95.3261951, 36.2539272], [-95.3261702, 36.2538968], [-95.3261424, 36.2539116], [-95.3260734, 36.2538274], [-95.3259646, 36.2538853], [-95.3260075, 36.2539375], [-95.3259652, 36.2539601], [-95.3259746, 36.2539716], [-95.3259639, 36.2539773], [-95.3260087, 36.2540319]]]}, "properties": {"osm_id": 1206121198, "building": "residential", "name": "", "height": null, "height_m": null, "levels": null, "tract_id": "40097040300", "tract_name": "403", "tags": {"building": "residential"}}}, {"type": "Feature", "geometry": {"type": "Polygon", "coordinates": [[[-95.3257865, 36.2535992], [-95.3256979, 36.2534467], [-95.3257983, 36.2534088], [-95.3258868, 36.2535613], [-95.3257865, 36.2535992]]]}, "properties": {"osm_id": 1206121199, "building": "residential", "name": "", "height": null, "height_m": null, "levels": null, "tract_id": "40097040300", "tract_name": "403", "tags": {"building": "residential"}}}, {"type": "Feature", "geometry": {"type": "Polygon", "coordinates": [[[-95.3262602, 36.2536468], [-95.32624, 36.2536135], [-95.3262914, 36.2535932], [-95.3263117, 36.2536264], [-95.3262602, 36.2536468]]]}, "properties": {"osm_id": 1206121200, "building": "yes", "name": "", "height": null, "height_m": null, "levels": null, "tract_id": "40097040300", "tract_name": "403", "tags": {"building": "yes"}}}, {"type": "Feature", "geometry": {"type": "Polygon", "coordinates": [[[-95.3260534, 36.2537563], [-95.3260127, 36.2536981], [-95.3261147, 36.2536516], [-95.3261554, 36.2537098], [-95.3260534, 36.2537563]]]}, "properties": {"osm_id": 1206121201, "building": "yes", "name": "", "height": null, "height_m": null, "levels": null, "tract_id": "40097040300", "tract_name": "403", "tags": {"building": "yes"}}}, {"type": "Feature", "geometry": {"type": "Polygon", "coordinates": [[[-95.3262228, 36.2538332], [-95.3261792, 36.2537593], [-95.3262538, 36.2537307], [-95.3262974, 36.2538046], [-95.3262228, 36.2538332]]]}, "properties": {"osm_id": 1206121202, "building": "yes", "name": "", "height": null, "height_m": null, "levels": null, "tract_id": "40097040300", "tract_name": "403", "tags": {"building": "yes"}}}, {"type": "Feature", "geometry": {"type": "Polygon", "coordinates": [[[-95.3263872, 36.2538017], [-95.3263187, 36.2537089], [-95.3264257, 36.2536576], [-95.3264941, 36.2537504], [-95.3263872, 36.2538017]]]}, "properties": {"osm_id": 1206121203, "building": "garage", "name": "", "height": null, "height_m": null, "levels": null, "tract_id": "40097040300", "tract_name": "403", "tags": {"building": "garage"}}}, {"type": "Feature", "geometry": {"type": "Polygon", "coordinates": [[[-95.3265383, 36.2537313], [-95.3264687, 36.2536374], [-95.3265088, 36.2536181], [-95.3264758, 36.2535737], [-95.3265414, 36.2535421], [-95.3265754, 36.2535879], [-95.3266952, 36.2535302], [-95.3267519, 36.2536067], [-95.3266785, 36.2536421], [-95.3266671, 36.2536268], [-95.3266396, 36.2536401], [-95.3266627, 36.2536713], [-95.3265383, 36.2537313]]]}, "properties": {"osm_id": 1206121204, "building": "residential", "name": "", "height": null, "height_m": null, "levels": null, "tract_id": "40097040300", "tract_name": "403", "tags": {"building": "residential"}}}, {"type": "Feature", "geometry": {"type": "Polygon", "coordinates": [[[-95.3114882, 36.2499053], [-95.3113394, 36.249896], [-95.3113429, 36.2498594], [-95.3114917, 36.2498687], [-95.3114882, 36.2499053]]]}, "properties": {"osm_id": 1206696784, "building": "yes", "name": "", "height": null, "height_m": null, "levels": null, "tract_id": "40097040300", "tract_name": "403", "tags": {"building": "yes"}}}, {"type": "Feature", "geometry": {"type": "Polygon", "coordinates": [[[-95.3115871, 36.2499088], [-95.3118117, 36.2499016], [-95.3118099, 36.2498648], [-95.3115853, 36.249872], [-95.3115871, 36.2499088]]]}, "properties": {"osm_id": 1206696785, "building": "yes", "name": "", "height": null, "height_m": null, "levels": null, "tract_id": "40097040300", "tract_name": "403", "tags": {"building": "yes"}}}, {"type": "Feature", "geometry": {"type": "Polygon", "coordinates": [[[-95.3116692, 36.2500636], [-95.3116662, 36.25], [-95.31175, 36.2499974], [-95.3117531, 36.2500609], [-95.3116692, 36.2500636]]]}, "properties": {"osm_id": 1206696786, "building": "yes", "name": "", "height": null, "height_m": null, "levels": null, "tract_id": "40097040300", "tract_name": "403", "tags": {"building": "yes"}}}, {"type": "Feature", "geometry": {"type": "Polygon", "coordinates": [[[-95.3113166, 36.2501501], [-95.3113991, 36.250021], [-95.3114404, 36.2500382], [-95.311358, 36.2501673], [-95.3113166, 36.2501501]]]}, "properties": {"osm_id": 1206696787, "building": "yes", "name": "", "height": null, "height_m": null, "levels": null, "tract_id": "40097040300", "tract_name": "403", "tags": {"building": "yes"}}}, {"type": "Feature", "geometry": {"type": "Polygon", "coordinates": [[[-95.311453, 36.2502174], [-95.3115413, 36.2500918], [-95.3114989, 36.2500724], [-95.3114106, 36.250198], [-95.311453, 36.2502174]]]}, "properties": {"osm_id": 1206696788, "building": "yes", "name": "", "height": null, "height_m": null, "levels": null, "tract_id": "40097040300", "tract_name": "403", "tags": {"building": "yes"}}}, {"type": "Feature", "geometry": {"type": "Polygon", "coordinates": [[[-95.3115846, 36.2502316], [-95.3116915, 36.2501152], [-95.3116525, 36.2500919], [-95.3115456, 36.2502083], [-95.3115846, 36.2502316]]]}, "properties": {"osm_id": 1206696789, "building": "yes", "name": "", "height": null, "height_m": null, "levels": null, "tract_id": "40097040300", "tract_name": "403", "tags": {"building": "yes"}}}, {"type": "Feature", "geometry": {"type": "Polygon", "coordinates": [[[-95.311703, 36.2502425], [-95.3118093, 36.2501248], [-95.3117702, 36.2501018], [-95.3116639, 36.2502196], [-95.311703, 36.2502425]]]}, "properties": {"osm_id": 1206696790, "building": "yes", "name": "", "height": null, "height_m": null, "levels": null, "tract_id": "40097040300", "tract_name": "403", "tags": {"building": "yes"}}}, {"type": "Feature", "geometry": {"type": "Polygon", "coordinates": [[[-95.3094356, 36.2496148], [-95.3096884, 36.2496164], [-95.3096894, 36.2495063], [-95.3094366, 36.2495048], [-95.3094356, 36.2496148]]]}, "properties": {"osm_id": 1208207005, "building": "yes", "name": "", "height": null, "height_m": null, "levels": null, "tract_id": "40097040300", "tract_name": "403", "tags": {"building": "yes"}}}, {"type": "Feature", "geometry": {"type": "Polygon", "coordinates": [[[-95.3109765, 36.249778], [-95.3112132, 36.2497764], [-95.3112115, 36.2496136], [-95.31113, 36.2496142], [-95.3111308, 36.2496974], [-95.3110577, 36.2496979], [-95.3110575, 36.2496787], [-95.311027, 36.2496789], [-95.3110271, 36.2496964], [-95.3109757, 36.2496967], [-95.3109765, 36.249778]]]}, "properties": {"osm_id": 1208207006, "building": "house", "name": "", "height": null, "height_m": null, "levels": null, "tract_id": "40097040300", "tract_name": "403", "tags": {"building": "house"}}}, {"type": "Feature", "geometry": {"type": "Polygon", "coordinates": [[[-95.3110725, 36.2500399], [-95.3111771, 36.2500387], [-95.3111759, 36.2499705], [-95.3110713, 36.2499717], [-95.3110725, 36.2500399]]]}, "properties": {"osm_id": 1208207007, "building": "yes", "name": "", "height": null, "height_m": null, "levels": null, "tract_id": "40097040300", "tract_name": "403", "tags": {"building": "yes"}}}, {"type": "Feature", "geometry": {"type": "Polygon", "coordinates": [[[-95.3108604, 36.2500077], [-95.3109811, 36.2500059], [-95.310979, 36.2499148], [-95.3108583, 36.2499166], [-95.3108604, 36.2500077]]]}, "properties": {"osm_id": 1208207008, "building": "yes", "name": "", "height": null, "height_m": null, "levels": null, "tract_id": "40097040300", "tract_name": "403", "tags": {"building": "yes"}}}, {"type": "Feature", "geometry": {"type": "Polygon", "coordinates": [[[-95.3113695, 36.2495404], [-95.3115639, 36.2495393], [-95.3115636, 36.2495045], [-95.3113691, 36.2495056], [-95.3113695, 36.2495404]]]}, "properties": {"osm_id": 1208207009, "building": "yes", "name": "", "height": null, "height_m": null, "levels": null, "tract_id": "40097040300", "tract_name": "403", "tags": {"building": "yes"}}}, {"type": "Feature", "geometry": {"type": "Polygon", "coordinates": [[[-95.311629, 36.2495884], [-95.3118159, 36.2495294], [-95.3117989, 36.2494944], [-95.311612, 36.2495534], [-95.311629, 36.2495884]]]}, "properties": {"osm_id": 1208207010, "building": "yes", "name": "", "height": null, "height_m": null, "levels": null, "tract_id": "40097040300", "tract_name": "403", "tags": {"building": "yes"}}}, {"type": "Feature", "geometry": {"type": "Polygon", "coordinates": [[[-95.3113583, 36.2496288], [-95.3115095, 36.2496375], [-95.3115128, 36.2496005], [-95.3113616, 36.2495918], [-95.3113583, 36.2496288]]]}, "properties": {"osm_id": 1208207011, "building": "yes", "name": "", "height": null, "height_m": null, "levels": null, "tract_id": "40097040300", "tract_name": "403", "tags": {"building": "yes"}}}, {"type": "Feature", "geometry": {"type": "Polygon", "coordinates": [[[-95.3116304, 36.2496956], [-95.3117814, 36.2496472], [-95.3117643, 36.2496126], [-95.3116134, 36.2496611], [-95.3116304, 36.2496956]]]}, "properties": {"osm_id": 1208207012, "building": "yes", "name": "", "height": null, "height_m": null, "levels": null, "tract_id": "40097040300", "tract_name": "403", "tags": {"building": "yes"}}}, {"type": "Feature", "geometry": {"type": "Polygon", "coordinates": [[[-95.3116134, 36.2497698], [-95.3116296, 36.2498007], [-95.3118041, 36.2497415], [-95.311788, 36.2497106], [-95.3116134, 36.2497698]]]}, "properties": {"osm_id": 1208207013, "building": "yes", "name": "", "height": null, "height_m": null, "levels": null, "tract_id": "40097040300", "tract_name": "403", "tags": {"building": "yes"}}}, {"type": "Feature", "geometry": {"type": "Polygon", "coordinates": [[[-95.3113543, 36.2496797], [-95.3113513, 36.2497183], [-95.3115023, 36.2497259], [-95.3115053, 36.2496873], [-95.3113543, 36.2496797]]]}, "properties": {"osm_id": 1208207014, "building": "yes", "name": "", "height": null, "height_m": null, "levels": null, "tract_id": "40097040300", "tract_name": "403", "tags": {"building": "yes"}}}, {"type": "Feature", "geometry": {"type": "Polygon", "coordinates": [[[-95.3113467, 36.2498106], [-95.3114969, 36.2498185], [-95.3114999, 36.2497818], [-95.3113496, 36.2497739], [-95.3113467, 36.2498106]]]}, "properties": {"osm_id": 1208207015, "building": "yes", "name": "", "height": null, "height_m": null, "levels": null, "tract_id": "40097040300", "tract_name": "403", "tags": {"building": "yes"}}}, {"type": "Feature", "geometry": {"type": "Polygon", "coordinates": [[[-95.3059913, 36.2510606], [-95.3051055, 36.2510712], [-95.3051084, 36.2512266], [-95.3050353, 36.2512275], [-95.3050325, 36.2510772], [-95.3050072, 36.2510775], [-95.3050042, 36.250916], [-95.3055195, 36.2509098], [-95.305518, 36.2508272], [-95.3054723, 36.2508277], [-95.3054713, 36.250771], [-95.3056159, 36.2507693], [-95.3056173, 36.2508462], [-95.3055859, 36.2508466], [-95.305587, 36.2509049], [-95.3056947, 36.2509036], [-95.3056914, 36.2507232], [-95.305985, 36.2507197], [-95.3059913, 36.2510606]]]}, "properties": {"osm_id": 1209467609, "building": "commercial", "name": "", "height": null, "height_m": null, "levels": null, "tract_id": "40097040300", "tract_name": "403", "tags": {"building": "commercial"}}}, {"type": "Feature", "geometry": {"type": "Polygon", "coordinates": [[[-95.3047632, 36.2500134], [-95.3047655, 36.2497919], [-95.3046743, 36.2497913], [-95.3046754, 36.2496892], [-95.3047447, 36.2496896], [-95.3047445, 36.2497129], [-95.3049037, 36.249714], [-95.3049006, 36.2500143], [-95.3047632, 36.2500134]]]}, "properties": {"osm_id": 1209467610, "building": "commercial", "name": "", "height": null, "height_m": null, "levels": null, "tract_id": "40097040300", "tract_name": "403", "tags": {"building": "commercial"}}}, {"type": "Feature", "geometry": {"type": "Polygon", "coordinates": [[[-95.3057039, 36.2498094], [-95.3057051, 36.2496173], [-95.3055318, 36.2496166], [-95.3055311, 36.2497261], [-95.3055766, 36.2497263], [-95.3055761, 36.2498089], [-95.3057039, 36.2498094]]]}, "properties": {"osm_id": 1209467611, "building": "commercial", "name": "", "height": null, "height_m": null, "levels": null, "tract_id": "40097040300", "tract_name": "403", "tags": {"building": "commercial"}}}, {"type": "Feature", "geometry": {"type": "Polygon", "coordinates": [[[-95.3239734, 36.2532417], [-95.3238878, 36.2532596], [-95.3238996, 36.2532965], [-95.3238325, 36.2533105], [-95.3237896, 36.2531765], [-95.3239423, 36.2531447], [-95.3239734, 36.2532417]]]}, "properties": {"osm_id": 1216336391, "building": "house", "name": "", "height": null, "height_m": null, "levels": null, "tract_id": "40097040300", "tract_name": "403", "tags": {"building": "house"}}}, {"type": "Feature", "geometry": {"type": "Polygon", "coordinates": [[[-95.3236338, 36.2532225], [-95.3235608, 36.2533134], [-95.3234718, 36.2532667], [-95.3235447, 36.253168], [-95.3236338, 36.2532225]]]}, "properties": {"osm_id": 1216336392, "building": "yes", "name": "", "height": null, "height_m": null, "levels": null, "tract_id": "40097040300", "tract_name": "403", "tags": {"building": "yes"}}}, {"type": "Feature", "geometry": {"type": "Polygon", "coordinates": [[[-95.323817, 36.2536748], [-95.3237855, 36.2535781], [-95.3237588, 36.2535838], [-95.3237224, 36.2534721], [-95.323606, 36.2534968], [-95.3236457, 36.2536186], [-95.3236079, 36.2536266], [-95.3236215, 36.2536681], [-95.3236644, 36.253659], [-95.3236791, 36.253704], [-95.323817, 36.2536748]]]}, "properties": {"osm_id": 1216336393, "building": "house", "name": "", "height": null, "height_m": null, "levels": null, "tract_id": "40097040300", "tract_name": "403", "tags": {"building": "house"}}}, {"type": "Feature", "geometry": {"type": "Polygon", "coordinates": [[[-95.3239941, 36.2539032], [-95.3240129, 36.2538943], [-95.3240769, 36.2539823], [-95.3239851, 36.2540257], [-95.3238832, 36.2538854], [-95.3239561, 36.253851], [-95.3239941, 36.2539032]]]}, "properties": {"osm_id": 1216336394, "building": "house", "name": "", "height": null, "height_m": null, "levels": null, "tract_id": "40097040300", "tract_name": "403", "tags": {"building": "house"}}}, {"type": "Feature", "geometry": {"type": "Polygon", "coordinates": [[[-95.3242948, 36.2543043], [-95.3241638, 36.2541172], [-95.3240507, 36.2541687], [-95.3240771, 36.2542065], [-95.3240407, 36.2542231], [-95.3241452, 36.2543724], [-95.3242948, 36.2543043]]]}, "properties": {"osm_id": 1216336395, "building": "house", "name": "", "height": null, "height_m": null, "levels": null, "tract_id": "40097040300", "tract_name": "403", "tags": {"building": "house"}}}, {"type": "Feature", "geometry": {"type": "Polygon", "coordinates": [[[-95.324367, 36.254492], [-95.3244045, 36.2545416], [-95.3244481, 36.2545202], [-95.3245518, 36.2546573], [-95.324441, 36.2547117], [-95.3244035, 36.2546621], [-95.3243638, 36.2546817], [-95.3243092, 36.2546095], [-95.3243558, 36.2545866], [-95.3243067, 36.2545216], [-95.324367, 36.254492]]]}, "properties": {"osm_id": 1216336396, "building": "house", "name": "", "height": null, "height_m": null, "levels": null, "tract_id": "40097040300", "tract_name": "403", "tags": {"building": "house"}}}, {"type": "Feature", "geometry": {"type": "Polygon", "coordinates": [[[-95.3238902, 36.2545661], [-95.3238564, 36.2545597], [-95.3238598, 36.254548], [-95.3237756, 36.2545319], [-95.3237839, 36.2545035], [-95.3236982, 36.2544872], [-95.3236698, 36.254584], [-95.3237394, 36.2545973], [-95.3237281, 36.2546358], [-95.3238623, 36.2546614], [-95.3238902, 36.2545661]]]}, "properties": {"osm_id": 1216336397, "building": "house", "name": "", "height": null, "height_m": null, "levels": null, "tract_id": "40097040300", "tract_name": "403", "tags": {"building": "house"}}}, {"type": "Feature", "geometry": {"type": "Polygon", "coordinates": [[[-95.323486, 36.2544352], [-95.3233441, 36.2543768], [-95.3232763, 36.2544841], [-95.3233439, 36.2545119], [-95.3233576, 36.2544903], [-95.3233866, 36.2545023], [-95.3233542, 36.2545536], [-95.3234356, 36.2545871], [-95.3234824, 36.254513], [-95.3234462, 36.2544981], [-95.323486, 36.2544352]]]}, "properties": {"osm_id": 1216336398, "building": "house", "name": "", "height": null, "height_m": null, "levels": null, "tract_id": "40097040300", "tract_name": "403", "tags": {"building": "house"}}}, {"type": "Feature", "geometry": {"type": "Polygon", "coordinates": [[[-95.3232068, 36.254266], [-95.3230623, 36.2541674], [-95.3229264, 36.2542971], [-95.3230886, 36.2544077], [-95.3231923, 36.2543087], [-95.3231746, 36.2542967], [-95.3232068, 36.254266]]]}, "properties": {"osm_id": 1216336399, "building": "house", "name": "", "height": null, "height_m": null, "levels": null, "tract_id": "40097040300", "tract_name": "403", "tags": {"building": "house"}}}, {"type": "Feature", "geometry": {"type": "Polygon", "coordinates": [[[-95.3317383, 36.2652055], [-95.3311463, 36.2651421], [-95.3311587, 36.265067], [-95.33091, 36.2650404], [-95.3308757, 36.2652487], [-95.3311377, 36.2652768], [-95.3311333, 36.2653034], [-95.331504, 36.265343], [-95.3314888, 36.2654355], [-95.3316968, 36.2654578], [-95.3317383, 36.2652055]]]}, "properties": {"osm_id": 1216337403, "building": "yes", "name": "", "height": null, "height_m": null, "levels": null, "tract_id": "40097040300", "tract_name": "403", "tags": {"building": "yes"}}}, {"type": "Feature", "geometry": {"type": "Polygon", "coordinates": [[[-95.3313388, 36.2666273], [-95.3309241, 36.2666204], [-95.3309198, 36.2667893], [-95.3313345, 36.2667962], [-95.3313388, 36.2666273]]]}, "properties": {"osm_id": 1216337404, "building": "yes", "name": "", "height": null, "height_m": null, "levels": null, "tract_id": "40097040300", "tract_name": "403", "tags": {"building": "yes"}}}, {"type": "Feature", "geometry": {"type": "Polygon", "coordinates": [[[-95.3313813, 36.2677635], [-95.3312349, 36.2677531], [-95.3312407, 36.2676998], [-95.3311373, 36.2676924], [-95.3311707, 36.2673871], [-95.330723, 36.2673553], [-95.3306979, 36.2675844], [-95.3308921, 36.2675982], [-95.3308561, 36.2679262], [-95.3313595, 36.2679621], [-95.3313813, 36.2677635]]]}, "properties": {"osm_id": 1216337405, "building": "yes", "name": "", "height": null, "height_m": null, "levels": null, "tract_id": "40097040300", "tract_name": "403", "tags": {"building": "yes"}}}, {"type": "Feature", "geometry": {"type": "Polygon", "coordinates": [[[-95.3302302, 36.2682249], [-95.3300873, 36.2682226], [-95.3300807, 36.2683846], [-95.330233, 36.2683883], [-95.3302302, 36.2682249]]]}, "properties": {"osm_id": 1216337406, "building": "yes", "name": "", "height": null, "height_m": null, "levels": null, "tract_id": "40097040300", "tract_name": "403", "tags": {"building": "yes"}}}, {"type": "Feature", "geometry": {"type": "Polygon", "coordinates": [[[-95.331405, 36.2684485], [-95.3314203, 36.2683475], [-95.3311623, 36.2683221], [-95.331147, 36.2684232], [-95.331405, 36.2684485]]]}, "properties": {"osm_id": 1216337407, "building": "yes", "name": "", "height": null, "height_m": null, "levels": null, "tract_id": "40097040300", "tract_name": "403", "tags": {"building": "yes"}}}, {"type": "Feature", "geometry": {"type": "Polygon", "coordinates": [[[-95.3313404, 36.26889], [-95.3306628, 36.2688878], [-95.3306624, 36.2689706], [-95.33134, 36.2689729], [-95.3313404, 36.26889]]]}, "properties": {"osm_id": 1216337408, "building": "yes", "name": "", "height": null, "height_m": null, "levels": null, "tract_id": "40097040300", "tract_name": "403", "tags": {"building": "yes"}}}, {"type": "Feature", "geometry": {"type": "Polygon", "coordinates": [[[-95.3312344, 36.268633], [-95.3311193, 36.2686323], [-95.3310222, 36.2686858], [-95.3310212, 36.2688018], [-95.3312329, 36.2688029], [-95.3312344, 36.268633]]]}, "properties": {"osm_id": 1216337409, "building": "yes", "name": "", "height": null, "height_m": null, "levels": null, "tract_id": "40097040300", "tract_name": "403", "tags": {"building": "yes"}}}, {"type": "Feature", "geometry": {"type": "Polygon", "coordinates": [[[-95.3315097, 36.2688025], [-95.3315126, 36.2685796], [-95.3313687, 36.2685773], [-95.3313743, 36.2688055], [-95.3315097, 36.2688025]]]}, "properties": {"osm_id": 1216337410, "building": "yes", "name": "", "height": null, "height_m": null, "levels": null, "tract_id": "40097040300", "tract_name": "403", "tags": {"building": "yes"}}}, {"type": "Feature", "geometry": {"type": "Polygon", "coordinates": [[[-95.3308666, 36.2687953], [-95.3308676, 36.2687262], [-95.3307477, 36.2687251], [-95.3307467, 36.2687942], [-95.3308666, 36.2687953]]]}, "properties": {"osm_id": 1216337411, "building": "yes", "name": "", "height": null, "height_m": null, "levels": null, "tract_id": "40097040300", "tract_name": "403", "tags": {"building": "yes"}}}, {"type": "Feature", "geometry": {"type": "Polygon", "coordinates": [[[-95.3295316, 36.268717], [-95.3294218, 36.268715], [-95.3294202, 36.2685799], [-95.3295324, 36.2685806], [-95.3295316, 36.268717]]]}, "properties": {"osm_id": 1216337412, "building": "yes", "name": "", "height": null, "height_m": null, "levels": null, "tract_id": "40097040300", "tract_name": "403", "tags": {"building": "yes"}}}, {"type": "Feature", "geometry": {"type": "Polygon", "coordinates": [[[-95.3359075, 36.2642913], [-95.3359123, 36.2641439], [-95.3358154, 36.2641419], [-95.3358106, 36.2642892], [-95.3359075, 36.2642913]]]}, "properties": {"osm_id": 1216337413, "building": "yes", "name": "", "height": null, "height_m": null, "levels": null, "tract_id": "40097040300", "tract_name": "403", "tags": {"building": "yes"}}}, {"type": "Feature", "geometry": {"type": "Polygon", "coordinates": [[[-95.3354676, 36.2644311], [-95.3352842, 36.26443], [-95.3352835, 36.264507], [-95.3351456, 36.2645061], [-95.3351439, 36.2646841], [-95.3354651, 36.2646862], [-95.3354676, 36.2644311]]]}, "properties": {"osm_id": 1216337414, "building": "yes", "name": "", "height": null, "height_m": null, "levels": null, "tract_id": "40097040300", "tract_name": "403", "tags": {"building": "yes"}}}, {"type": "Feature", "geometry": {"type": "Polygon", "coordinates": [[[-95.3352627, 36.2632024], [-95.3352638, 36.2629238], [-95.3351608, 36.262923], [-95.3351683, 36.2626513], [-95.3349859, 36.2626505], [-95.3349859, 36.2632015], [-95.3352627, 36.2632024]]]}, "properties": {"osm_id": 1216337415, "building": "yes", "name": "", "height": null, "height_m": null, "levels": null, "tract_id": "40097040300", "tract_name": "403", "tags": {"building": "yes"}}}, {"type": "Feature", "geometry": {"type": "Polygon", "coordinates": [[[-95.3355095, 36.2630138], [-95.3355074, 36.262737], [-95.3354044, 36.2627344], [-95.3353969, 36.2630164], [-95.3355095, 36.2630138]]]}, "properties": {"osm_id": 1216337416, "building": "yes", "name": "", "height": null, "height_m": null, "levels": null, "tract_id": "40097040300", "tract_name": "403", "tags": {"building": "yes"}}}, {"type": "Feature", "geometry": {"type": "Polygon", "coordinates": [[[-95.3360653, 36.2635519], [-95.3360588, 36.2634377], [-95.335988, 36.2634429], [-95.3359934, 36.2635545], [-95.3360653, 36.2635519]]]}, "properties": {"osm_id": 1216337417, "building": "yes", "name": "", "height": null, "height_m": null, "levels": null, "tract_id": "40097040300", "tract_name": "403", "tags": {"building": "yes"}}}, {"type": "Feature", "geometry": {"type": "Polygon", "coordinates": [[[-95.3360277, 36.2634135], [-95.3359269, 36.2634186], [-95.3359183, 36.2633399], [-95.3360191, 36.2633408], [-95.3360277, 36.2634135]]]}, "properties": {"osm_id": 1216337418, "building": "yes", "name": "", "height": null, "height_m": null, "levels": null, "tract_id": "40097040300", "tract_name": "403", "tags": {"building": "yes"}}}, {"type": "Feature", "geometry": {"type": "Polygon", "coordinates": [[[-95.3327881, 36.2613427], [-95.3327898, 36.2610277], [-95.3325407, 36.2610268], [-95.3325389, 36.2613418], [-95.3327881, 36.2613427]]]}, "properties": {"osm_id": 1216337419, "building": "yes", "name": "", "height": null, "height_m": null, "levels": null, "tract_id": "40097040300", "tract_name": "403", "tags": {"building": "yes"}}}, {"type": "Feature", "geometry": {"type": "Polygon", "coordinates": [[[-95.3317236, 36.2611739], [-95.3317208, 36.260707], [-95.3315184, 36.2607081], [-95.331507, 36.2611773], [-95.3317236, 36.2611739]]]}, "properties": {"osm_id": 1216337420, "building": "yes", "name": "", "height": null, "height_m": null, "levels": null, "tract_id": "40097040300", "tract_name": "403", "tags": {"building": "yes", "tourism": "hotel"}}}, {"type": "Feature", "geometry": {"type": "Polygon", "coordinates": [[[-95.3322087, 36.2601738], [-95.3322136, 36.2598578], [-95.3318884, 36.2598591], [-95.3318835, 36.2601647], [-95.3322087, 36.2601738]]]}, "properties": {"osm_id": 1216337421, "building": "yes", "name": "", "height": null, "height_m": null, "levels": null, "tract_id": "40097040300", "tract_name": "403", "tags": {"building": "yes"}}}, {"type": "Feature", "geometry": {"type": "Polygon", "coordinates": [[[-95.3326781, 36.2596856], [-95.3324381, 36.2596879], [-95.3324316, 36.2601699], [-95.33292, 36.2601699], [-95.3329219, 36.2599756], [-95.3327734, 36.2599733], [-95.3327753, 36.2599085], [-95.3326707, 36.2599085], [-95.3326781, 36.2596856]]]}, "properties": {"osm_id": 1216337422, "building": "yes", "name": "", "height": null, "height_m": null, "levels": null, "tract_id": "40097040300", "tract_name": "403", "tags": {"building": "yes"}}}, {"type": "Feature", "geometry": {"type": "Polygon", "coordinates": [[[-95.3335843, 36.2581995], [-95.3333515, 36.2581736], [-95.3333193, 36.2583492], [-95.3335575, 36.2583795], [-95.3335843, 36.2581995]]]}, "properties": {"osm_id": 1216337423, "building": "yes", "name": "", "height": null, "height_m": null, "levels": null, "tract_id": "40097040300", "tract_name": "403", "tags": {"building": "yes"}}}, {"type": "Feature", "geometry": {"type": "Polygon", "coordinates": [[[-95.3330962, 36.2581373], [-95.3328837, 36.2581156], [-95.3328462, 36.2583068], [-95.3330565, 36.258325], [-95.3330962, 36.2581373]]]}, "properties": {"osm_id": 1216337424, "building": "yes", "name": "", "height": null, "height_m": null, "levels": null, "tract_id": "40097040300", "tract_name": "403", "tags": {"building": "yes"}}}, {"type": "Feature", "geometry": {"type": "Polygon", "coordinates": [[[-95.3124527, 36.2615204], [-95.3124577, 36.2609977], [-95.3116541, 36.2609818], [-95.3116591, 36.2615085], [-95.3124527, 36.2615204]]]}, "properties": {"osm_id": 1216340577, "building": "yes", "name": "", "height": null, "height_m": null, "levels": null, "tract_id": "40097040300", "tract_name": "403", "tags": {"building": "yes"}}}, {"type": "Feature", "geometry": {"type": "Polygon", "coordinates": [[[-95.3129457, 36.2626771], [-95.3125094, 36.2626731], [-95.3125218, 36.2633409], [-95.3129235, 36.2633409], [-95.3129457, 36.2626771]]]}, "properties": {"osm_id": 1216340578, "building": "yes", "name": "", "height": null, "height_m": null, "levels": null, "tract_id": "40097040300", "tract_name": "403", "tags": {"building": "yes"}}}, {"type": "Feature", "geometry": {"type": "Polygon", "coordinates": [[[-95.3111417, 36.2631036], [-95.3109591, 36.2631009], [-95.3108679, 36.2630274], [-95.3108729, 36.2628019], [-95.3107551, 36.2628001], [-95.3107467, 36.2631757], [-95.3111399, 36.2631814], [-95.3111417, 36.2631036]]]}, "properties": {"osm_id": 1216340579, "building": "yes", "name": "", "height": null, "height_m": null, "levels": null, "tract_id": "40097040300", "tract_name": "403", "tags": {"building": "yes"}}}, {"type": "Feature", "geometry": {"type": "Polygon", "coordinates": [[[-95.3093999, 36.2642266], [-95.3094009, 36.2639042], [-95.3092968, 36.263904], [-95.3092959, 36.2642264], [-95.3093999, 36.2642266]]]}, "properties": {"osm_id": 1216340580, "building": "house", "name": "", "height": null, "height_m": null, "levels": null, "tract_id": "40097040300", "tract_name": "403", "tags": {"building": "house"}}}, {"type": "Feature", "geometry": {"type": "Polygon", "coordinates": [[[-95.3088904, 36.2642262], [-95.30889, 36.2639038], [-95.308784, 36.2639039], [-95.3087845, 36.2642263], [-95.3088904, 36.2642262]]]}, "properties": {"osm_id": 1216340581, "building": "house", "name": "", "height": null, "height_m": null, "levels": null, "tract_id": "40097040300", "tract_name": "403", "tags": {"building": "house"}}}, {"type": "Feature", "geometry": {"type": "Polygon", "coordinates": [[[-95.3083746, 36.263899], [-95.3082644, 36.2638983], [-95.3082615, 36.2642227], [-95.3083717, 36.2642234], [-95.3083746, 36.263899]]]}, "properties": {"osm_id": 1216340582, "building": "house", "name": "", "height": null, "height_m": null, "levels": null, "tract_id": "40097040300", "tract_name": "403", "tags": {"building": "house"}}}, {"type": "Feature", "geometry": {"type": "Polygon", "coordinates": [[[-95.3078427, 36.2639085], [-95.3077363, 36.2639078], [-95.3077329, 36.2642266], [-95.3078392, 36.2642273], [-95.3078427, 36.2639085]]]}, "properties": {"osm_id": 1216340583, "building": "house", "name": "", "height": null, "height_m": null, "levels": null, "tract_id": "40097040300", "tract_name": "403", "tags": {"building": "house"}}}, {"type": "Feature", "geometry": {"type": "Polygon", "coordinates": [[[-95.3074745, 36.2640097], [-95.3072182, 36.2640126], [-95.3072201, 36.2641195], [-95.3074763, 36.2641165], [-95.3074745, 36.2640097]]]}, "properties": {"osm_id": 1216340584, "building": "house", "name": "", "height": null, "height_m": null, "levels": null, "tract_id": "40097040300", "tract_name": "403", "tags": {"building": "house"}}}, {"type": "Feature", "geometry": {"type": "Polygon", "coordinates": [[[-95.3078322, 36.2645982], [-95.3078352, 36.2642694], [-95.3077304, 36.2642688], [-95.3077275, 36.2645976], [-95.3078322, 36.2645982]]]}, "properties": {"osm_id": 1216340585, "building": "house", "name": "", "height": null, "height_m": null, "levels": null, "tract_id": "40097040300", "tract_name": "403", "tags": {"building": "house"}}}, {"type": "Feature", "geometry": {"type": "Polygon", "coordinates": [[[-95.3083707, 36.2645942], [-95.3083669, 36.2642719], [-95.3082606, 36.2642728], [-95.3082645, 36.264595], [-95.3083707, 36.2645942]]]}, "properties": {"osm_id": 1216340586, "building": "house", "name": "", "height": null, "height_m": null, "levels": null, "tract_id": "40097040300", "tract_name": "403", "tags": {"building": "house"}}}, {"type": "Feature", "geometry": {"type": "Polygon", "coordinates": [[[-95.3083683, 36.2650861], [-95.3083639, 36.2647602], [-95.3082599, 36.2647611], [-95.3082643, 36.265087], [-95.3083683, 36.2650861]]]}, "properties": {"osm_id": 1216340587, "building": "house", "name": "", "height": null, "height_m": null, "levels": null, "tract_id": "40097040300", "tract_name": "403", "tags": {"building": "house"}}}, {"type": "Feature", "geometry": {"type": "Polygon", "coordinates": [[[-95.3078367, 36.2647638], [-95.3077242, 36.2647635], [-95.3077228, 36.2650869], [-95.3078352, 36.2650873], [-95.3078367, 36.2647638]]]}, "properties": {"osm_id": 1216340588, "building": "house", "name": "", "height": null, "height_m": null, "levels": null, "tract_id": "40097040300", "tract_name": "403", "tags": {"building": "house"}}}, {"type": "Feature", "geometry": {"type": "Polygon", "coordinates": [[[-95.3096248, 36.2655346], [-95.3076728, 36.2655474], [-95.3076737, 36.2655934], [-95.3096248, 36.2655776], [-95.3096248, 36.2655346]]]}, "properties": {"osm_id": 1216340589, "building": "yes", "name": "", "height": null, "height_m": null, "levels": null, "tract_id": "40097040300", "tract_name": "403", "tags": {"building": "yes"}}}, {"type": "Feature", "geometry": {"type": "Polygon", "coordinates": [[[-95.307755, 36.2655158], [-95.307755, 36.2651272], [-95.3076821, 36.265128], [-95.3076812, 36.2655158], [-95.307755, 36.2655158]]]}, "properties": {"osm_id": 1216340590, "building": "yes", "name": "", "height": null, "height_m": null, "levels": null, "tract_id": "40097040300", "tract_name": "403", "tags": {"building": "yes"}}}, {"type": "Feature", "geometry": {"type": "Polygon", "coordinates": [[[-95.306941, 36.2644282], [-95.3067507, 36.2644295], [-95.3067491, 36.2645973], [-95.3069353, 36.2645947], [-95.306941, 36.2644282]]]}, "properties": {"osm_id": 1216340591, "building": "barn", "name": "", "height": null, "height_m": null, "levels": null, "tract_id": "40097040300", "tract_name": "403", "tags": {"building": "barn"}}}, {"type": "Feature", "geometry": {"type": "Polygon", "coordinates": [[[-95.3062441, 36.2643056], [-95.3061685, 36.2643049], [-95.3061669, 36.2644118], [-95.3062426, 36.2644125], [-95.3062441, 36.2643056]]]}, "properties": {"osm_id": 1216340592, "building": "barn", "name": "", "height": null, "height_m": null, "levels": null, "tract_id": "40097040300", "tract_name": "403", "tags": {"building": "barn"}}}, {"type": "Feature", "geometry": {"type": "Polygon", "coordinates": [[[-95.3058291, 36.26438], [-95.3057039, 36.2643793], [-95.3057046, 36.2642974], [-95.3058298, 36.2642981], [-95.3058291, 36.26438]]]}, "properties": {"osm_id": 1216340593, "building": "barn", "name": "", "height": null, "height_m": null, "levels": null, "tract_id": "40097040300", "tract_name": "403", "tags": {"building": "barn"}}}, {"type": "Feature", "geometry": {"type": "Polygon", "coordinates": [[[-95.306159, 36.2615617], [-95.3061611, 36.2613794], [-95.3059865, 36.2613781], [-95.3059844, 36.2615603], [-95.306159, 36.2615617]]]}, "properties": {"osm_id": 1216340594, "building": "yes", "name": "", "height": null, "height_m": null, "levels": null, "tract_id": "40097040300", "tract_name": "403", "tags": {"building": "yes"}}}, {"type": "Feature", "geometry": {"type": "Polygon", "coordinates": [[[-95.3065042, 36.2609664], [-95.3063361, 36.2609694], [-95.3062679, 36.2610071], [-95.3062138, 36.2609325], [-95.3063072, 36.2608904], [-95.3063651, 36.2608911], [-95.3063641, 36.2607917], [-95.3065052, 36.2607902], [-95.3065042, 36.2609664]]]}, "properties": {"osm_id": 1216340595, "building": "house", "name": "", "height": null, "height_m": null, "levels": null, "tract_id": "40097040300", "tract_name": "403", "tags": {"building": "house"}}}, {"type": "Feature", "geometry": {"type": "Polygon", "coordinates": [[[-95.3091787, 36.2594045], [-95.3092536, 36.2594035], [-95.309255, 36.2594741], [-95.3093294, 36.2594731], [-95.3093279, 36.2593973], [-95.3093509, 36.259397], [-95.3093493, 36.259316], [-95.309177, 36.2593182], [-95.3091787, 36.2594045]]]}, "properties": {"osm_id": 1216340596, "building": "house", "name": "", "height": null, "height_m": null, "levels": null, "tract_id": "40097040300", "tract_name": "403", "tags": {"building": "house"}}}, {"type": "Feature", "geometry": {"type": "Polygon", "coordinates": [[[-95.30929, 36.259899], [-95.3089908, 36.2599002], [-95.3089918, 36.2600756], [-95.3092098, 36.2600748], [-95.3092096, 36.2600339], [-95.3092264, 36.2600392], [-95.3092261, 36.2599899], [-95.3092905, 36.2599896], [-95.30929, 36.259899]]]}, "properties": {"osm_id": 1216340597, "building": "house", "name": "", "height": null, "height_m": null, "levels": null, "tract_id": "40097040300", "tract_name": "403", "tags": {"building": "house"}}}, {"type": "Feature", "geometry": {"type": "Polygon", "coordinates": [[[-95.305877, 36.2622606], [-95.305797, 36.2622603], [-95.3057966, 36.2623204], [-95.3056759, 36.2623199], [-95.305675, 36.2624434], [-95.3059075, 36.2624444], [-95.3059078, 36.2624033], [-95.3059357, 36.2624034], [-95.3059363, 36.2623141], [-95.3058766, 36.2623138], [-95.305877, 36.2622606]]]}, "properties": {"osm_id": 1216340598, "building": "house", "name": "", "height": null, "height_m": null, "levels": null, "tract_id": "40097040300", "tract_name": "403", "tags": {"building": "house"}}}, {"type": "Feature", "geometry": {"type": "Polygon", "coordinates": [[[-95.3055298, 36.2622784], [-95.3055319, 36.2622091], [-95.3054743, 36.2622079], [-95.3054721, 36.2622772], [-95.3055298, 36.2622784]]]}, "properties": {"osm_id": 1216340599, "building": "garage", "name": "", "height": null, "height_m": null, "levels": null, "tract_id": "40097040300", "tract_name": "403", "tags": {"building": "garage"}}}, {"type": "Feature", "geometry": {"type": "Polygon", "coordinates": [[[-95.3066169, 36.2634183], [-95.3066183, 36.2632505], [-95.3065022, 36.2632539], [-95.3065093, 36.2634183], [-95.3066169, 36.2634183]]]}, "properties": {"osm_id": 1216340600, "building": "barn", "name": "", "height": null, "height_m": null, "levels": null, "tract_id": "40097040300", "tract_name": "403", "tags": {"building": "barn"}}}, {"type": "Feature", "geometry": {"type": "Polygon", "coordinates": [[[-95.3050926, 36.2634151], [-95.3052175, 36.2632948], [-95.305143, 36.2632446], [-95.3050181, 36.2633649], [-95.3050926, 36.2634151]]]}, "properties": {"osm_id": 1216340601, "building": "house", "name": "", "height": null, "height_m": null, "levels": null, "tract_id": "40097040300", "tract_name": "403", "tags": {"building": "house"}}}, {"type": "Feature", "geometry": {"type": "Polygon", "coordinates": [[[-95.3080138, 36.2635806], [-95.3078351, 36.2635785], [-95.3078341, 36.2636732], [-95.3080105, 36.2636697], [-95.3080138, 36.2635806]]]}, "properties": {"osm_id": 1216340602, "building": "house", "name": "", "height": null, "height_m": null, "levels": null, "tract_id": "40097040300", "tract_name": "403", "tags": {"building": "house"}}}, {"type": "Feature", "geometry": {"type": "Polygon", "coordinates": [[[-95.3084059, 36.2636559], [-95.3084011, 36.2635075], [-95.3083018, 36.2635106], [-95.3083024, 36.2636555], [-95.3084059, 36.2636559]]]}, "properties": {"osm_id": 1216340603, "building": "house", "name": "", "height": null, "height_m": null, "levels": null, "tract_id": "40097040300", "tract_name": "403", "tags": {"building": "house"}}}, {"type": "Feature", "geometry": {"type": "Polygon", "coordinates": [[[-95.3084025, 36.2634592], [-95.3084951, 36.2634558], [-95.3084916, 36.2633949], [-95.3083991, 36.2633983], [-95.3084025, 36.2634592]]]}, "properties": {"osm_id": 1216340604, "building": "garage", "name": "", "height": null, "height_m": null, "levels": null, "tract_id": "40097040300", "tract_name": "403", "tags": {"building": "garage"}}}, {"type": "Feature", "geometry": {"type": "Polygon", "coordinates": [[[-95.3088918, 36.2636121], [-95.3088908, 36.2635227], [-95.3088, 36.2635233], [-95.308801, 36.2636128], [-95.3088918, 36.2636121]]]}, "properties": {"osm_id": 1216340605, "building": "barn", "name": "", "height": null, "height_m": null, "levels": null, "tract_id": "40097040300", "tract_name": "403", "tags": {"building": "barn"}}}, {"type": "Feature", "geometry": {"type": "Polygon", "coordinates": [[[-95.3096216, 36.2634881], [-95.3093964, 36.2634885], [-95.3093966, 36.2635889], [-95.3095634, 36.2635885], [-95.3095635, 36.2636419], [-95.3096221, 36.2636418], [-95.3096216, 36.2634881]]]}, "properties": {"osm_id": 1216340606, "building": "house", "name": "", "height": null, "height_m": null, "levels": null, "tract_id": "40097040300", "tract_name": "403", "tags": {"building": "house"}}}, {"type": "Feature", "geometry": {"type": "Polygon", "coordinates": [[[-95.3095705, 36.2631348], [-95.3095675, 36.2629489], [-95.3095077, 36.2629495], [-95.3095107, 36.2631355], [-95.3095705, 36.2631348]]]}, "properties": {"osm_id": 1216340607, "building": "house", "name": "", "height": null, "height_m": null, "levels": null, "tract_id": "40097040300", "tract_name": "403", "tags": {"building": "house"}}}, {"type": "Feature", "geometry": {"type": "Polygon", "coordinates": [[[-95.3088069, 36.2627586], [-95.3086691, 36.2627569], [-95.308667, 36.2628684], [-95.3088047, 36.26287], [-95.3088069, 36.2627586]]]}, "properties": {"osm_id": 1216340608, "building": "garage", "name": "", "height": null, "height_m": null, "levels": null, "tract_id": "40097040300", "tract_name": "403", "tags": {"building": "garage"}}}, {"type": "Feature", "geometry": {"type": "Polygon", "coordinates": [[[-95.3094006, 36.262363], [-95.3094011, 36.2621462], [-95.3092274, 36.2621459], [-95.3092268, 36.2623628], [-95.3094006, 36.262363]]]}, "properties": {"osm_id": 1216340609, "building": "house", "name": "", "height": null, "height_m": null, "levels": null, "tract_id": "40097040300", "tract_name": "403", "tags": {"building": "house"}}}, {"type": "Feature", "geometry": {"type": "Polygon", "coordinates": [[[-95.3109048, 36.253906], [-95.3105625, 36.2539026], [-95.3105641, 36.2538012], [-95.3109064, 36.2538046], [-95.3109048, 36.253906]]]}, "properties": {"osm_id": 1219056658, "building": "yes", "name": "", "height": null, "height_m": null, "levels": null, "tract_id": "40097040300", "tract_name": "403", "tags": {"building": "yes"}}}, {"type": "Feature", "geometry": {"type": "Polygon", "coordinates": [[[-95.3104227, 36.2536381], [-95.3104232, 36.2535182], [-95.3102554, 36.2535177], [-95.3102553, 36.253523], [-95.3102226, 36.2535229], [-95.3102224, 36.2535871], [-95.3102545, 36.2535872], [-95.3102545, 36.2535927], [-95.3103537, 36.253593], [-95.3103535, 36.2536379], [-95.3104227, 36.2536381]]]}, "properties": {"osm_id": 1219056659, "building": "house", "name": "", "height": null, "height_m": null, "levels": null, "tract_id": "40097040300", "tract_name": "403", "tags": {"building": "house"}}}, {"type": "Feature", "geometry": {"type": "Polygon", "coordinates": [[[-95.3105601, 36.2534569], [-95.3104578, 36.2534573], [-95.3104575, 36.2534008], [-95.3105598, 36.2534004], [-95.3105601, 36.2534569]]]}, "properties": {"osm_id": 1219056660, "building": "garage", "name": "", "height": null, "height_m": null, "levels": null, "tract_id": "40097040300", "tract_name": "403", "tags": {"building": "garage"}}}, {"type": "Feature", "geometry": {"type": "Polygon", "coordinates": [[[-95.303546, 36.2500726], [-95.3033791, 36.2500659], [-95.3033843, 36.249982], [-95.3032909, 36.2499782], [-95.3032974, 36.2498731], [-95.303393, 36.249877], [-95.3033983, 36.2497921], [-95.3035664, 36.2497989], [-95.3035614, 36.2498804], [-95.303726, 36.2498871], [-95.3037193, 36.2499954], [-95.3035512, 36.2499887], [-95.303546, 36.2500726]]]}, "properties": {"osm_id": 1219056665, "building": "yes", "name": "", "height": null, "height_m": null, "levels": null, "tract_id": "40097040300", "tract_name": "403", "tags": {"building": "yes"}}}, {"type": "Feature", "geometry": {"type": "Polygon", "coordinates": [[[-95.3266271, 36.254542], [-95.3265281, 36.2544085], [-95.326433, 36.2544544], [-95.3264851, 36.2545245], [-95.3264442, 36.2545442], [-95.3264911, 36.2546075], [-95.3266271, 36.254542]]]}, "properties": {"osm_id": 1221393059, "building": "residential", "name": "", "height": null, "height_m": null, "levels": null, "tract_id": "40097040300", "tract_name": "403", "tags": {"building": "residential"}}}, {"type": "Feature", "geometry": {"type": "Polygon", "coordinates": [[[-95.3266247, 36.2542433], [-95.3265679, 36.2541701], [-95.3264752, 36.2542169], [-95.3264783, 36.2542209], [-95.3263764, 36.2542723], [-95.3263906, 36.2542906], [-95.3263274, 36.2543225], [-95.3263735, 36.2543819], [-95.3265174, 36.2543093], [-95.3265329, 36.2543292], [-95.3265804, 36.2543052], [-95.3265584, 36.2542768], [-95.3266247, 36.2542433]]]}, "properties": {"osm_id": 1221393060, "building": "residential", "name": "", "height": null, "height_m": null, "levels": null, "tract_id": "40097040300", "tract_name": "403", "tags": {"building": "residential"}}}, {"type": "Feature", "geometry": {"type": "Polygon", "coordinates": [[[-95.3277185, 36.2541686], [-95.3275576, 36.254168], [-95.3275577, 36.2541576], [-95.3275153, 36.2541574], [-95.3275157, 36.2540988], [-95.3275536, 36.2540989], [-95.3275542, 36.2540114], [-95.3276692, 36.2540118], [-95.3276686, 36.2541028], [-95.3277189, 36.254103], [-95.3277185, 36.2541686]]]}, "properties": {"osm_id": 1221393061, "building": "residential", "name": "", "height": null, "height_m": null, "levels": null, "tract_id": "40097040300", "tract_name": "403", "tags": {"building": "residential"}}}, {"type": "Feature", "geometry": {"type": "Polygon", "coordinates": [[[-95.3274944, 36.2538647], [-95.3274659, 36.2537916], [-95.3274265, 36.2538016], [-95.3274162, 36.2537752], [-95.3273069, 36.2538029], [-95.327311, 36.2538134], [-95.32726, 36.2538264], [-95.3272822, 36.2538832], [-95.3273197, 36.2538736], [-95.3273317, 36.2539044], [-95.327355, 36.2538985], [-95.327357, 36.2539038], [-95.3273985, 36.2538932], [-95.327397, 36.2538894], [-95.3274944, 36.2538647]]]}, "properties": {"osm_id": 1221393062, "building": "residential", "name": "", "height": null, "height_m": null, "levels": null, "tract_id": "40097040300", "tract_name": "403", "tags": {"building": "residential"}}}, {"type": "Feature", "geometry": {"type": "Polygon", "coordinates": [[[-95.325479, 36.254941], [-95.3252677, 36.2550415], [-95.3252218, 36.2549787], [-95.3251493, 36.2550132], [-95.3250896, 36.2549316], [-95.3251738, 36.2548916], [-95.325169, 36.2548851], [-95.3252288, 36.2548567], [-95.3252245, 36.2548508], [-95.3252954, 36.2548171], [-95.3253428, 36.254882], [-95.3254119, 36.2548492], [-95.325479, 36.254941]]]}, "properties": {"osm_id": 1225035498, "building": "residential", "name": "", "height": null, "height_m": null, "levels": null, "tract_id": "40097040300", "tract_name": "403", "tags": {"building": "residential"}}}, {"type": "Feature", "geometry": {"type": "Polygon", "coordinates": [[[-95.326167, 36.255388], [-95.3262613, 36.2553593], [-95.3262129, 36.2552558], [-95.3262322, 36.25525], [-95.3261888, 36.2551571], [-95.326075, 36.2551917], [-95.3261134, 36.2552736], [-95.3260995, 36.2552778], [-95.3261274, 36.2553374], [-95.3261413, 36.2553331], [-95.326167, 36.255388]]]}, "properties": {"osm_id": 1225035499, "building": "residential", "name": "", "height": null, "height_m": null, "levels": null, "tract_id": "40097040300", "tract_name": "403", "tags": {"building": "residential"}}}, {"type": "Feature", "geometry": {"type": "Polygon", "coordinates": [[[-95.3261528, 36.2550013], [-95.3260724, 36.2550141], [-95.3260525, 36.2549327], [-95.3260051, 36.2549403], [-95.3259743, 36.2548148], [-95.3260868, 36.2547969], [-95.3261215, 36.2549384], [-95.3261368, 36.254936], [-95.3261528, 36.2550013]]]}, "properties": {"osm_id": 1225035500, "building": "residential", "name": "", "height": null, "height_m": null, "levels": null, "tract_id": "40097040300", "tract_name": "403", "tags": {"building": "residential"}}}, {"type": "Feature", "geometry": {"type": "Polygon", "coordinates": [[[-95.3269146, 36.2552699], [-95.326822, 36.255303], [-95.3267863, 36.255238], [-95.3267646, 36.2552458], [-95.3267247, 36.2551731], [-95.3267437, 36.2551663], [-95.3267003, 36.2550875], [-95.3268193, 36.255045], [-95.3268606, 36.2551202], [-95.3269025, 36.2551052], [-95.3269331, 36.2551609], [-95.3268926, 36.2551753], [-95.3269027, 36.2551937], [-95.3268777, 36.2552026], [-95.3269146, 36.2552699]]]}, "properties": {"osm_id": 1225035501, "building": "residential", "name": "", "height": null, "height_m": null, "levels": null, "tract_id": "40097040300", "tract_name": "403", "tags": {"building": "residential"}}}, {"type": "Feature", "geometry": {"type": "Polygon", "coordinates": [[[-95.3273654, 36.2551631], [-95.3274043, 36.2552577], [-95.3275318, 36.2552236], [-95.3275228, 36.2552017], [-95.3275611, 36.2551914], [-95.3275701, 36.2552132], [-95.3276422, 36.255194], [-95.32764, 36.2551885], [-95.3276862, 36.2551762], [-95.3276519, 36.2550927], [-95.3276068, 36.2551048], [-95.3276045, 36.2550991], [-95.3273654, 36.2551631]]]}, "properties": {"osm_id": 1225035502, "building": "residential", "name": "", "height": null, "height_m": null, "levels": null, "tract_id": "40097040300", "tract_name": "403", "tags": {"building": "residential"}}}, {"type": "Feature", "geometry": {"type": "Polygon", "coordinates": [[[-95.3277608, 36.2549723], [-95.327676, 36.2549763], [-95.3276716, 36.2549152], [-95.3277564, 36.2549112], [-95.3277608, 36.2549723]]]}, "properties": {"osm_id": 1225035503, "building": "garage", "name": "", "height": null, "height_m": null, "levels": null, "tract_id": "40097040300", "tract_name": "403", "tags": {"building": "garage"}}}, {"type": "Feature", "geometry": {"type": "Polygon", "coordinates": [[[-95.3275582, 36.2548786], [-95.3276585, 36.2548756], [-95.3276546, 36.2547913], [-95.3275543, 36.2547944], [-95.3275582, 36.2548786]]]}, "properties": {"osm_id": 1225035504, "building": "garage", "name": "", "height": null, "height_m": null, "levels": null, "tract_id": "40097040300", "tract_name": "403", "tags": {"building": "garage"}}}, {"type": "Feature", "geometry": {"type": "Polygon", "coordinates": [[[-95.3276533, 36.2547487], [-95.3275027, 36.2547518], [-95.3274981, 36.2546041], [-95.3276111, 36.2546018], [-95.327613, 36.2546628], [-95.3276506, 36.254662], [-95.3276533, 36.2547487]]]}, "properties": {"osm_id": 1225035505, "building": "residential", "name": "", "height": null, "height_m": null, "levels": null, "tract_id": "40097040300", "tract_name": "403", "tags": {"building": "residential"}}}, {"type": "Feature", "geometry": {"type": "Polygon", "coordinates": [[[-95.3266951, 36.2548679], [-95.3267918, 36.2548415], [-95.326733, 36.2547018], [-95.3266363, 36.2547283], [-95.3266951, 36.2548679]]]}, "properties": {"osm_id": 1225035506, "building": "residential", "name": "", "height": null, "height_m": null, "levels": null, "tract_id": "40097040300", "tract_name": "403", "tags": {"building": "residential"}}}]}