{"type": "FeatureCollection", "features": [{"type": "Feature", "geometry": {"type": "Polygon", "coordinates": [[[-95.2725949, 36.4367096], [-95.2724471, 36.4366742], [-95.2725606, 36.4363672], [-95.2727083, 36.4364026], [-95.2726571, 36.4365411], [-95.2725949, 36.4367096]]]}, "properties": {"osm_id": 245146411, "building": "retail", "name": "Buckaroo's General Store", "height": null, "height_m": null, "levels": null, "tract_id": "40097040802", "tract_name": "408.02", "tags": {"building": "retail", "name": "Buckaroo's General Store", "shop": "convenience"}}}, {"type": "Feature", "geometry": {"type": "Polygon", "coordinates": [[[-95.2722308, 36.4366113], [-95.2723358, 36.4363232], [-95.272265, 36.4363033], [-95.2721553, 36.4365894], [-95.2722308, 36.4366113]]]}, "properties": {"osm_id": 339703162, "building": "roof", "name": "Phillips 66", "height": null, "height_m": null, "levels": null, "tract_id": "40097040802", "tract_name": "408.02", "tags": {"amenity": "fuel", "brand": "Phillips 66", "brand:wikidata": "Q1656230", "building": "roof", "name": "Phillips 66", "operator": "Casey Marketing #3429"}}}, {"type": "Feature", "geometry": {"type": "Polygon", "coordinates": [[[-95.2394459, 36.4457742], [-95.2393454, 36.4457727], [-95.2393508, 36.4455429], [-95.2394512, 36.4455444], [-95.2394459, 36.4457742]]]}, "properties": {"osm_id": 805165250, "building": "yes", "name": "", "height": null, "height_m": null, "levels": null, "tract_id": "40097040802", "tract_name": "408.02", "tags": {"building": "yes"}}}, {"type": "Feature", "geometry": {"type": "Polygon", "coordinates": [[[-95.27115, 36.436691], [-95.271014, 36.437091], [-95.271184, 36.437128], [-95.27132, 36.436729], [-95.27115, 36.436691]]]}, "properties": {"osm_id": 855608974, "building": "yes", "name": "", "height": null, "height_m": null, "levels": null, "tract_id": "40097040802", "tract_name": "408.02", "tags": {"addr:housenumber": "101", "addr:street": "North Mayes Street", "building": "yes", "source": "microsoft/BuildingFootprints"}}}, {"type": "Feature", "geometry": {"type": "Polygon", "coordinates": [[[-95.272659, 36.437729], [-95.272451, 36.437684], [-95.272412, 36.4378], [-95.27262, 36.437845], [-95.272659, 36.437729]]]}, "properties": {"osm_id": 855608975, "building": "warehouse", "name": "", "height": null, "height_m": null, "levels": null, "tract_id": "40097040802", "tract_name": "408.02", "tags": {"addr:housenumber": "203", "addr:street": "North Will Penn Street", "building": "warehouse", "source": "microsoft/BuildingFootprints"}}}, {"type": "Feature", "geometry": {"type": "Polygon", "coordinates": [[[-95.2720558, 36.4379343], [-95.2719067, 36.4378966], [-95.2718454, 36.4380534], [-95.2717943, 36.4380405], [-95.2717563, 36.4381377], [-95.2719565, 36.4381884], [-95.2720558, 36.4379343]]]}, "properties": {"osm_id": 855608976, "building": "yes", "name": "", "height": null, "height_m": null, "levels": null, "tract_id": "40097040802", "tract_name": "408.02", "tags": {"addr:housenumber": "104", "addr:street": "North Mayes Street", "building": "yes", "source": "microsoft/BuildingFootprints"}}}, {"type": "Feature", "geometry": {"type": "Polygon", "coordinates": [[[-95.2718178, 36.4384934], [-95.2718778, 36.4385064], [-95.2718918, 36.4384664], [-95.2716898, 36.4384214], [-95.2716068, 36.4386614], [-95.2717488, 36.4386934], [-95.2718178, 36.4384934]]]}, "properties": {"osm_id": 855608977, "building": "yes", "name": "", "height": null, "height_m": null, "levels": null, "tract_id": "40097040802", "tract_name": "408.02", "tags": {"addr:housenumber": "102", "addr:street": "Northwest 2nd Street", "building": "yes", "source": "microsoft/BuildingFootprints"}}}, {"type": "Feature", "geometry": {"type": "Polygon", "coordinates": [[[-95.273682, 36.438323], [-95.273805, 36.438323], [-95.273805, 36.438096], [-95.273682, 36.438096], [-95.273682, 36.438323]]]}, "properties": {"osm_id": 855608978, "building": "yes", "name": "", "height": null, "height_m": null, "levels": null, "tract_id": "40097040802", "tract_name": "408.02", "tags": {"building": "yes", "source": "microsoft/BuildingFootprints"}}}, {"type": "Feature", "geometry": {"type": "Polygon", "coordinates": [[[-95.272177, 36.440498], [-95.2723, 36.440524], [-95.272377, 36.440295], [-95.272255, 36.440269], [-95.272177, 36.440498]]]}, "properties": {"osm_id": 855608979, "building": "yes", "name": "", "height": null, "height_m": null, "levels": null, "tract_id": "40097040802", "tract_name": "408.02", "tags": {"addr:housenumber": "406", "addr:street": "North Will Penn Street", "building": "yes", "source": "microsoft/BuildingFootprints"}}}, {"type": "Feature", "geometry": {"type": "Polygon", "coordinates": [[[-95.271542, 36.440098], [-95.271639, 36.440121], [-95.271711, 36.439925], [-95.271614, 36.439902], [-95.271542, 36.440098]]]}, "properties": {"osm_id": 855608980, "building": "yes", "name": "", "height": null, "height_m": null, "levels": null, "tract_id": "40097040802", "tract_name": "408.02", "tags": {"addr:housenumber": "403", "addr:street": "North Will Penn Street", "building": "yes", "source": "microsoft/BuildingFootprints"}}}, {"type": "Feature", "geometry": {"type": "Polygon", "coordinates": [[[-95.271455, 36.440633], [-95.271537, 36.440653], [-95.27159, 36.44051], [-95.271508, 36.440491], [-95.271455, 36.440633]]]}, "properties": {"osm_id": 855608981, "building": "yes", "name": "", "height": null, "height_m": null, "levels": null, "tract_id": "40097040802", "tract_name": "408.02", "tags": {"addr:housenumber": "409", "addr:street": "North Will Penn Street", "building": "yes", "source": "microsoft/BuildingFootprints"}}}, {"type": "Feature", "geometry": {"type": "Polygon", "coordinates": [[[-95.274822, 36.44], [-95.274822, 36.439887], [-95.274714, 36.439887], [-95.274713, 36.440099], [-95.274854, 36.440099], [-95.274854, 36.44], [-95.274822, 36.44]]]}, "properties": {"osm_id": 855608982, "building": "yes", "name": "", "height": null, "height_m": null, "levels": null, "tract_id": "40097040802", "tract_name": "408.02", "tags": {"building": "yes", "source": "microsoft/BuildingFootprints"}}}, {"type": "Feature", "geometry": {"type": "Polygon", "coordinates": [[[-95.274529, 36.43884], [-95.274722, 36.43884], [-95.274722, 36.438802], [-95.274529, 36.438802], [-95.274529, 36.43884]]]}, "properties": {"osm_id": 855608983, "building": "yes", "name": "", "height": null, "height_m": null, "levels": null, "tract_id": "40097040802", "tract_name": "408.02", "tags": {"building": "yes", "source": "microsoft/BuildingFootprints"}}}, {"type": "Feature", "geometry": {"type": "Polygon", "coordinates": [[[-95.274701, 36.438105], [-95.274702, 36.438055], [-95.274441, 36.438053], [-95.274441, 36.438096], [-95.274591, 36.438097], [-95.274591, 36.438125], [-95.274636, 36.438125], [-95.274637, 36.438104], [-95.274701, 36.438105]]]}, "properties": {"osm_id": 855608984, "building": "yes", "name": "", "height": null, "height_m": null, "levels": null, "tract_id": "40097040802", "tract_name": "408.02", "tags": {"building": "yes", "source": "microsoft/BuildingFootprints"}}}, {"type": "Feature", "geometry": {"type": "Polygon", "coordinates": [[[-95.274872, 36.438471], [-95.275103, 36.438471], [-95.275103, 36.43843], [-95.274872, 36.43843], [-95.274872, 36.438471]]]}, "properties": {"osm_id": 855608985, "building": "yes", "name": "", "height": null, "height_m": null, "levels": null, "tract_id": "40097040802", "tract_name": "408.02", "tags": {"building": "yes", "source": "microsoft/BuildingFootprints"}}}, {"type": "Feature", "geometry": {"type": "Polygon", "coordinates": [[[-95.275112, 36.438277], [-95.274932, 36.438273], [-95.274931, 36.438314], [-95.275111, 36.438318], [-95.275112, 36.438277]]]}, "properties": {"osm_id": 855608986, "building": "yes", "name": "", "height": null, "height_m": null, "levels": null, "tract_id": "40097040802", "tract_name": "408.02", "tags": {"building": "yes", "source": "microsoft/BuildingFootprints"}}}, {"type": "Feature", "geometry": {"type": "Polygon", "coordinates": [[[-95.2735623, 36.4369554], [-95.2736381, 36.4369763], [-95.2736933, 36.4368466], [-95.2736176, 36.4368257], [-95.2735623, 36.4369554]]]}, "properties": {"osm_id": 855608987, "building": "yes", "name": "", "height": null, "height_m": null, "levels": null, "tract_id": "40097040802", "tract_name": "408.02", "tags": {"building": "yes", "source": "microsoft/BuildingFootprints"}}}, {"type": "Feature", "geometry": {"type": "Polygon", "coordinates": [[[-95.272637, 36.43721], [-95.272884, 36.437254], [-95.272916, 36.437136], [-95.272668, 36.437093], [-95.272637, 36.43721]]]}, "properties": {"osm_id": 855608988, "building": "yes", "name": "", "height": null, "height_m": null, "levels": null, "tract_id": "40097040802", "tract_name": "408.02", "tags": {"addr:housenumber": "111", "addr:street": "West Main Street", "building": "yes", "source": "microsoft/BuildingFootprints"}}}, {"type": "Feature", "geometry": {"type": "Polygon", "coordinates": [[[-95.27174, 36.437664], [-95.271942, 36.437706], [-95.271994, 36.437547], [-95.272136, 36.437577], [-95.272173, 36.437464], [-95.271829, 36.437391], [-95.27174, 36.437664]]]}, "properties": {"osm_id": 855608989, "building": "garage", "name": "", "height": null, "height_m": null, "levels": null, "tract_id": "40097040802", "tract_name": "408.02", "tags": {"addr:housenumber": "102", "addr:street": "North Mayes Street", "building": "garage", "source": "microsoft/BuildingFootprints"}}}, {"type": "Feature", "geometry": {"type": "Polygon", "coordinates": [[[-95.273561, 36.436387], [-95.273535, 36.436458], [-95.273665, 36.436489], [-95.273691, 36.436418], [-95.273561, 36.436387]]]}, "properties": {"osm_id": 855608990, "building": "yes", "name": "", "height": null, "height_m": null, "levels": null, "tract_id": "40097040802", "tract_name": "408.02", "tags": {"building": "yes", "source": "microsoft/BuildingFootprints"}}}, {"type": "Feature", "geometry": {"type": "Polygon", "coordinates": [[[-95.273681, 36.435943], [-95.273782, 36.435968], [-95.273819, 36.435872], [-95.273719, 36.435846], [-95.273681, 36.435943]]]}, "properties": {"osm_id": 855608991, "building": "yes", "name": "", "height": null, "height_m": null, "levels": null, "tract_id": "40097040802", "tract_name": "408.02", "tags": {"building": "yes", "source": "microsoft/BuildingFootprints"}}}, {"type": "Feature", "geometry": {"type": "Polygon", "coordinates": [[[-95.274179, 36.436096], [-95.274267, 36.435885], [-95.274162, 36.435856], [-95.274057, 36.436109], [-95.274111, 36.436123], [-95.274128, 36.436083], [-95.274179, 36.436096]]]}, "properties": {"osm_id": 855608992, "building": "yes", "name": "", "height": null, "height_m": null, "levels": null, "tract_id": "40097040802", "tract_name": "408.02", "tags": {"building": "yes", "source": "microsoft/BuildingFootprints"}}}, {"type": "Feature", "geometry": {"type": "Polygon", "coordinates": [[[-95.271478, 36.435975], [-95.271616, 36.436004], [-95.271669, 36.435842], [-95.27153, 36.435813], [-95.271478, 36.435975]]]}, "properties": {"osm_id": 855608993, "building": "yes", "name": "", "height": null, "height_m": null, "levels": null, "tract_id": "40097040802", "tract_name": "408.02", "tags": {"building": "yes", "source": "microsoft/BuildingFootprints"}}}, {"type": "Feature", "geometry": {"type": "Polygon", "coordinates": [[[-95.272299, 36.436124], [-95.272414, 36.436149], [-95.272475, 36.435968], [-95.27236, 36.435943], [-95.272299, 36.436124]]]}, "properties": {"osm_id": 855608994, "building": "yes", "name": "", "height": null, "height_m": null, "levels": null, "tract_id": "40097040802", "tract_name": "408.02", "tags": {"building": "yes", "source": "microsoft/BuildingFootprints"}}}, {"type": "Feature", "geometry": {"type": "Polygon", "coordinates": [[[-95.272761, 36.435757], [-95.272719, 36.435872], [-95.272838, 36.4359], [-95.27288, 36.435785], [-95.272761, 36.435757]]]}, "properties": {"osm_id": 855608995, "building": "yes", "name": "", "height": null, "height_m": null, "levels": null, "tract_id": "40097040802", "tract_name": "408.02", "tags": {"building": "yes", "source": "microsoft/BuildingFootprints"}}}, {"type": "Feature", "geometry": {"type": "Polygon", "coordinates": [[[-95.275696, 36.435372], [-95.275472, 36.435324], [-95.275443, 36.43541], [-95.275668, 36.435458], [-95.275696, 36.435372]]]}, "properties": {"osm_id": 855608996, "building": "yes", "name": "", "height": null, "height_m": null, "levels": null, "tract_id": "40097040802", "tract_name": "408.02", "tags": {"building": "yes", "source": "microsoft/BuildingFootprints"}}}, {"type": "Feature", "geometry": {"type": "Polygon", "coordinates": [[[-95.276967, 36.435778], [-95.276822, 36.435778], [-95.276822, 36.435858], [-95.276967, 36.435858], [-95.276967, 36.435778]]]}, "properties": {"osm_id": 855608997, "building": "yes", "name": "", "height": null, "height_m": null, "levels": null, "tract_id": "40097040802", "tract_name": "408.02", "tags": {"building": "yes", "source": "microsoft/BuildingFootprints"}}}, {"type": "Feature", "geometry": {"type": "Polygon", "coordinates": [[[-95.277176, 36.436005], [-95.277176, 36.436081], [-95.277321, 36.436081], [-95.277321, 36.436005], [-95.277176, 36.436005]]]}, "properties": {"osm_id": 855608998, "building": "yes", "name": "", "height": null, "height_m": null, "levels": null, "tract_id": "40097040802", "tract_name": "408.02", "tags": {"building": "yes", "source": "microsoft/BuildingFootprints"}}}, {"type": "Feature", "geometry": {"type": "Polygon", "coordinates": [[[-95.277946, 36.43742], [-95.27802, 36.437625], [-95.278076, 36.437612], [-95.278002, 36.437407], [-95.277946, 36.43742]]]}, "properties": {"osm_id": 855608999, "building": "yes", "name": "", "height": null, "height_m": null, "levels": null, "tract_id": "40097040802", "tract_name": "408.02", "tags": {"building": "yes", "source": "microsoft/BuildingFootprints"}}}, {"type": "Feature", "geometry": {"type": "Polygon", "coordinates": [[[-95.279912, 36.436944], [-95.279912, 36.437106], [-95.279982, 36.437106], [-95.279982, 36.436944], [-95.279912, 36.436944]]]}, "properties": {"osm_id": 855609000, "building": "yes", "name": "", "height": null, "height_m": null, "levels": null, "tract_id": "40097040802", "tract_name": "408.02", "tags": {"building": "yes", "source": "microsoft/BuildingFootprints"}}}, {"type": "Feature", "geometry": {"type": "Polygon", "coordinates": [[[-95.278941, 36.438279], [-95.27918, 36.438279], [-95.27918, 36.438122], [-95.278941, 36.438122], [-95.278941, 36.438279]]]}, "properties": {"osm_id": 855609001, "building": "yes", "name": "", "height": null, "height_m": null, "levels": null, "tract_id": "40097040802", "tract_name": "408.02", "tags": {"building": "yes", "source": "microsoft/BuildingFootprints"}}}, {"type": "Feature", "geometry": {"type": "Polygon", "coordinates": [[[-95.274945, 36.437703], [-95.274945, 36.437805], [-95.275176, 36.437805], [-95.275176, 36.437703], [-95.274945, 36.437703]]]}, "properties": {"osm_id": 855609002, "building": "yes", "name": "", "height": null, "height_m": null, "levels": null, "tract_id": "40097040802", "tract_name": "408.02", "tags": {"addr:housenumber": "301", "addr:street": "West Main Street", "building": "yes", "source": "microsoft/BuildingFootprints"}}}, {"type": "Feature", "geometry": {"type": "Polygon", "coordinates": [[[-95.273026, 36.440901], [-95.272932, 36.440882], [-95.272891, 36.441012], [-95.272984, 36.441031], [-95.273026, 36.440901]]]}, "properties": {"osm_id": 855609003, "building": "yes", "name": "", "height": null, "height_m": null, "levels": null, "tract_id": "40097040802", "tract_name": "408.02", "tags": {"addr:housenumber": "207", "addr:street": "Northwest 3rd Street", "building": "yes", "source": "microsoft/BuildingFootprints"}}}, {"type": "Feature", "geometry": {"type": "Polygon", "coordinates": [[[-95.272444, 36.441335], [-95.272492, 36.441346], [-95.272541, 36.441197], [-95.272494, 36.441187], [-95.272444, 36.441335]]]}, "properties": {"osm_id": 855609004, "building": "yes", "name": "", "height": null, "height_m": null, "levels": null, "tract_id": "40097040802", "tract_name": "408.02", "tags": {"building": "yes", "source": "microsoft/BuildingFootprints"}}}, {"type": "Feature", "geometry": {"type": "Polygon", "coordinates": [[[-95.270062, 36.440373], [-95.269959, 36.440348], [-95.269916, 36.44046], [-95.270019, 36.440486], [-95.270062, 36.440373]]]}, "properties": {"osm_id": 855609005, "building": "yes", "name": "", "height": null, "height_m": null, "levels": null, "tract_id": "40097040802", "tract_name": "408.02", "tags": {"building": "yes", "source": "microsoft/BuildingFootprints"}}}, {"type": "Feature", "geometry": {"type": "Polygon", "coordinates": [[[-95.269201, 36.434507], [-95.269485, 36.434569], [-95.269523, 36.434459], [-95.269238, 36.434397], [-95.269201, 36.434507]]]}, "properties": {"osm_id": 855609006, "building": "yes", "name": "", "height": null, "height_m": null, "levels": null, "tract_id": "40097040802", "tract_name": "408.02", "tags": {"building": "yes", "source": "microsoft/BuildingFootprints"}}}, {"type": "Feature", "geometry": {"type": "Polygon", "coordinates": [[[-95.26958, 36.434713], [-95.26925, 36.434641], [-95.269185, 36.434832], [-95.269515, 36.434904], [-95.26958, 36.434713]]]}, "properties": {"osm_id": 855609007, "building": "yes", "name": "", "height": null, "height_m": null, "levels": null, "tract_id": "40097040802", "tract_name": "408.02", "tags": {"building": "yes", "source": "microsoft/BuildingFootprints"}}}, {"type": "Feature", "geometry": {"type": "Polygon", "coordinates": [[[-95.270158, 36.434959], [-95.270436, 36.434974], [-95.270448, 36.43483], [-95.27017, 36.434815], [-95.270158, 36.434959]]]}, "properties": {"osm_id": 855609008, "building": "yes", "name": "", "height": null, "height_m": null, "levels": null, "tract_id": "40097040802", "tract_name": "408.02", "tags": {"building": "yes", "source": "microsoft/BuildingFootprints"}}}, {"type": "Feature", "geometry": {"type": "Polygon", "coordinates": [[[-95.26865, 36.435269], [-95.268982, 36.43535], [-95.269025, 36.435234], [-95.268693, 36.435154], [-95.26865, 36.435269]]]}, "properties": {"osm_id": 855609009, "building": "yes", "name": "", "height": null, "height_m": null, "levels": null, "tract_id": "40097040802", "tract_name": "408.02", "tags": {"building": "yes", "source": "microsoft/BuildingFootprints"}}}, {"type": "Feature", "geometry": {"type": "Polygon", "coordinates": [[[-95.269298, 36.435353], [-95.269432, 36.435386], [-95.26948, 36.435258], [-95.269347, 36.435225], [-95.269298, 36.435353]]]}, "properties": {"osm_id": 855609010, "building": "yes", "name": "", "height": null, "height_m": null, "levels": null, "tract_id": "40097040802", "tract_name": "408.02", "tags": {"building": "yes", "source": "microsoft/BuildingFootprints"}}}, {"type": "Feature", "geometry": {"type": "Polygon", "coordinates": [[[-95.270074, 36.432639], [-95.270074, 36.432809], [-95.270399, 36.432809], [-95.270399, 36.432639], [-95.270074, 36.432639]]]}, "properties": {"osm_id": 855609011, "building": "yes", "name": "", "height": null, "height_m": null, "levels": null, "tract_id": "40097040802", "tract_name": "408.02", "tags": {"building": "yes", "source": "microsoft/BuildingFootprints"}}}, {"type": "Feature", "geometry": {"type": "Polygon", "coordinates": [[[-95.272761, 36.432851], [-95.272709, 36.432987], [-95.272665, 36.432976], [-95.272647, 36.433022], [-95.272772, 36.433053], [-95.272842, 36.432871], [-95.272761, 36.432851]]]}, "properties": {"osm_id": 855609012, "building": "yes", "name": "", "height": null, "height_m": null, "levels": null, "tract_id": "40097040802", "tract_name": "408.02", "tags": {"building": "yes", "source": "microsoft/BuildingFootprints"}}}, {"type": "Feature", "geometry": {"type": "Polygon", "coordinates": [[[-95.273733, 36.433211], [-95.274029, 36.433243], [-95.274048, 36.43313], [-95.273752, 36.433098], [-95.273733, 36.433211]]]}, "properties": {"osm_id": 855609013, "building": "church", "name": "", "height": null, "height_m": null, "levels": null, "tract_id": "40097040802", "tract_name": "408.02", "tags": {"building": "church", "source": "microsoft/BuildingFootprints"}}}, {"type": "Feature", "geometry": {"type": "Polygon", "coordinates": [[[-95.273269, 36.433771], [-95.273134, 36.43375], [-95.273061, 36.434051], [-95.273197, 36.434073], [-95.273269, 36.433771]]]}, "properties": {"osm_id": 855609014, "building": "canopy", "name": "", "height": null, "height_m": null, "levels": null, "tract_id": "40097040802", "tract_name": "408.02", "tags": {"building": "canopy", "source": "microsoft/BuildingFootprints"}}}, {"type": "Feature", "geometry": {"type": "Polygon", "coordinates": [[[-95.27329, 36.433342], [-95.273244, 36.433536], [-95.273338, 36.43355], [-95.273359, 36.433463], [-95.273443, 36.433476], [-95.273468, 36.43337], [-95.27329, 36.433342]]]}, "properties": {"osm_id": 855609015, "building": "yes", "name": "", "height": null, "height_m": null, "levels": null, "tract_id": "40097040802", "tract_name": "408.02", "tags": {"building": "yes", "source": "microsoft/BuildingFootprints"}}}, {"type": "Feature", "geometry": {"type": "Polygon", "coordinates": [[[-95.276526, 36.436055], [-95.276518, 36.436182], [-95.27668, 36.436189], [-95.276688, 36.436062], [-95.276526, 36.436055]]]}, "properties": {"osm_id": 855609016, "building": "yes", "name": "", "height": null, "height_m": null, "levels": null, "tract_id": "40097040802", "tract_name": "408.02", "tags": {"building": "yes", "source": "microsoft/BuildingFootprints"}}}, {"type": "Feature", "geometry": {"type": "Polygon", "coordinates": [[[-95.274312, 36.438193], [-95.274312, 36.438316], [-95.274435, 36.438316], [-95.274435, 36.438193], [-95.274312, 36.438193]]]}, "properties": {"osm_id": 855609017, "building": "yes", "name": "", "height": null, "height_m": null, "levels": null, "tract_id": "40097040802", "tract_name": "408.02", "tags": {"building": "yes", "source": "microsoft/BuildingFootprints"}}}, {"type": "Feature", "geometry": {"type": "Polygon", "coordinates": [[[-95.27602, 36.437968], [-95.275817, 36.437945], [-95.2758, 36.438041], [-95.276004, 36.438064], [-95.27602, 36.437968]]]}, "properties": {"osm_id": 855609018, "building": "yes", "name": "", "height": null, "height_m": null, "levels": null, "tract_id": "40097040802", "tract_name": "408.02", "tags": {"building": "yes", "source": "microsoft/BuildingFootprints"}}}, {"type": "Feature", "geometry": {"type": "Polygon", "coordinates": [[[-95.272702, 36.439383], [-95.272854, 36.43942], [-95.272881, 36.439351], [-95.272729, 36.439314], [-95.272702, 36.439383]]]}, "properties": {"osm_id": 855609019, "building": "yes", "name": "", "height": null, "height_m": null, "levels": null, "tract_id": "40097040802", "tract_name": "408.02", "tags": {"addr:housenumber": "302", "addr:street": "North Will Penn Street", "building": "yes", "source": "microsoft/BuildingFootprints"}}}, {"type": "Feature", "geometry": {"type": "Polygon", "coordinates": [[[-95.271074, 36.440325], [-95.270861, 36.440289], [-95.270837, 36.440383], [-95.27105, 36.440419], [-95.271074, 36.440325]]]}, "properties": {"osm_id": 855609020, "building": "yes", "name": "", "height": null, "height_m": null, "levels": null, "tract_id": "40097040802", "tract_name": "408.02", "tags": {"addr:housenumber": "302", "addr:street": "North Mayes Street", "building": "yes", "source": "microsoft/BuildingFootprints"}}}, {"type": "Feature", "geometry": {"type": "Polygon", "coordinates": [[[-95.270903, 36.443524], [-95.27083, 36.443722], [-95.270973, 36.443756], [-95.271046, 36.443558], [-95.270903, 36.443524]]]}, "properties": {"osm_id": 855609021, "building": "yes", "name": "", "height": null, "height_m": null, "levels": null, "tract_id": "40097040802", "tract_name": "408.02", "tags": {"building": "yes", "source": "microsoft/BuildingFootprints"}}}, {"type": "Feature", "geometry": {"type": "Polygon", "coordinates": [[[-95.270508, 36.444452], [-95.270778, 36.444523], [-95.270867, 36.444303], [-95.270597, 36.444232], [-95.270508, 36.444452]]]}, "properties": {"osm_id": 855609022, "building": "yes", "name": "", "height": null, "height_m": null, "levels": null, "tract_id": "40097040802", "tract_name": "408.02", "tags": {"building": "yes", "source": "microsoft/BuildingFootprints"}}}, {"type": "Feature", "geometry": {"type": "Polygon", "coordinates": [[[-95.269588, 36.444433], [-95.269566, 36.444499], [-95.269886, 36.444568], [-95.269908, 36.444502], [-95.269588, 36.444433]]]}, "properties": {"osm_id": 855609023, "building": "yes", "name": "", "height": null, "height_m": null, "levels": null, "tract_id": "40097040802", "tract_name": "408.02", "tags": {"building": "yes", "source": "microsoft/BuildingFootprints"}}}, {"type": "Feature", "geometry": {"type": "Polygon", "coordinates": [[[-95.2689912, 36.4363569], [-95.2691856, 36.436403], [-95.269235, 36.4362684], [-95.2690253, 36.4362186], [-95.2689937, 36.4363046], [-95.2690091, 36.4363083], [-95.2689912, 36.4363569]]]}, "properties": {"osm_id": 913261519, "building": "yes", "name": "First Adair Christian Church", "height": null, "height_m": null, "levels": null, "tract_id": "40097040802", "tract_name": "408.02", "tags": {"amenity": "place_of_worship", "building": "yes", "name": "First Adair Christian Church", "religion": "christian", "website": "https://www.adaircc.com/"}}}, {"type": "Feature", "geometry": {"type": "Polygon", "coordinates": [[[-95.2661656, 36.4372787], [-95.2661955, 36.4371944], [-95.2660831, 36.4371686], [-95.2660868, 36.4371581], [-95.2661992, 36.437184], [-95.2662212, 36.4371222], [-95.2661095, 36.4370965], [-95.2661275, 36.4370457], [-95.2662045, 36.4370634], [-95.2662249, 36.4370061], [-95.266188, 36.4369976], [-95.2662063, 36.4369459], [-95.2661462, 36.4369321], [-95.2661608, 36.436891], [-95.2660902, 36.4368748], [-95.2660756, 36.4369159], [-95.2659284, 36.4368821], [-95.2658901, 36.43699], [-95.2659953, 36.4370142], [-95.2659514, 36.4371378], [-95.2658064, 36.4371045], [-95.2657763, 36.4371893], [-95.2661656, 36.4372787]]]}, "properties": {"osm_id": 913261520, "building": "yes", "name": "Adair United Methodist Church", "height": null, "height_m": null, "levels": null, "tract_id": "40097040802", "tract_name": "408.02", "tags": {"amenity": "place_of_worship", "building": "yes", "denomination": "united_methodist", "name": "Adair United Methodist Church", "religion": "christian", "website": "https://www.adairumc.org/"}}}, {"type": "Feature", "geometry": {"type": "Polygon", "coordinates": [[[-95.2674496, 36.4342712], [-95.2672028, 36.4339043], [-95.2672779, 36.433872], [-95.2672082, 36.4337565], [-95.2671793, 36.4337484], [-95.2671492, 36.4338229], [-95.2668622, 36.4337554], [-95.2668535, 36.433783], [-95.2668065, 36.4337743], [-95.2668213, 36.433742], [-95.2667636, 36.4337301], [-95.2668313, 36.4335445], [-95.2668836, 36.4335585], [-95.2668964, 36.4335289], [-95.2669393, 36.4335467], [-95.2669306, 36.4335704], [-95.2672156, 36.4336411], [-95.2671854, 36.4337155], [-95.2672343, 36.433729], [-95.2673014, 36.4338342], [-95.2673745, 36.4338008], [-95.2673054, 36.433702], [-95.2674871, 36.433626], [-95.2675897, 36.4337803], [-95.2676005, 36.4337727], [-95.2675743, 36.4337317], [-95.2676367, 36.4335639], [-95.2677406, 36.4335866], [-95.2681671, 36.4336902], [-95.2681476, 36.4337495], [-95.2681315, 36.4337463], [-95.2680759, 36.4339006], [-95.268092, 36.4339038], [-95.2680672, 36.4339621], [-95.2677835, 36.4338919], [-95.2677781, 36.4339043], [-95.2680403, 36.4339685], [-95.2679659, 36.4341628], [-95.2679317, 36.4341563], [-95.2679029, 36.4342399], [-95.2678734, 36.4342431], [-95.2678747, 36.4342604], [-95.2678123, 36.4342723], [-95.2677446, 36.4342728], [-95.2677426, 36.4342539], [-95.2677098, 36.4342555], [-95.267701, 36.434241], [-95.2676286, 36.4342717], [-95.2676266, 36.4343187], [-95.2675468, 36.4343106], [-95.2675414, 36.4342674], [-95.2675233, 36.4342394], [-95.2674496, 36.4342712]]]}, "properties": {"osm_id": 914017482, "building": "school", "name": "Benita Hughes Elementary School", "height": null, "height_m": null, "levels": null, "tract_id": "40097040802", "tract_name": "408.02", "tags": {"amenity": "school", "building": "school", "ele": "207", "gnis:feature_id": "1803807", "name": "Benita Hughes Elementary School"}}}, {"type": "Feature", "geometry": {"type": "Polygon", "coordinates": [[[-95.2688568, 36.4353939], [-95.2689646, 36.4354205], [-95.2689623, 36.4354265], [-95.268992, 36.4354338], [-95.268974, 36.435481], [-95.2689445, 36.4354738], [-95.2689431, 36.4354773], [-95.2688351, 36.4354506], [-95.2688568, 36.4353939]]]}, "properties": {"osm_id": 914017486, "building": "yes", "name": "Adair Area Ministerial", "height": null, "height_m": null, "levels": null, "tract_id": "40097040802", "tract_name": "408.02", "tags": {"amenity": "social_centre", "building": "yes", "club": "yes", "name": "Adair Area Ministerial", "operator": "Adair Area Ministerial"}}}, {"type": "Feature", "geometry": {"type": "Polygon", "coordinates": [[[-95.2691433, 36.4366836], [-95.2690762, 36.4366675], [-95.269099, 36.4366064], [-95.2691661, 36.4366226], [-95.2691433, 36.4366836]]]}, "properties": {"osm_id": 947559386, "building": "yes", "name": "", "height": null, "height_m": null, "levels": null, "tract_id": "40097040802", "tract_name": "408.02", "tags": {"building": "yes"}}}, {"type": "Feature", "geometry": {"type": "Polygon", "coordinates": [[[-95.2693726, 36.4365035], [-95.269208, 36.4364663], [-95.2692724, 36.4362818], [-95.269437, 36.436319], [-95.2693726, 36.4365035]]]}, "properties": {"osm_id": 947559387, "building": "yes", "name": "", "height": null, "height_m": null, "levels": null, "tract_id": "40097040802", "tract_name": "408.02", "tags": {"building": "yes"}}}, {"type": "Feature", "geometry": {"type": "Polygon", "coordinates": [[[-95.2665952, 36.4356144], [-95.2665568, 36.4357088], [-95.2665307, 36.435702], [-95.2665173, 36.435735], [-95.2664242, 36.4357105], [-95.2664376, 36.4356774], [-95.2664052, 36.4356689], [-95.2664436, 36.4355745], [-95.2665952, 36.4356144]]]}, "properties": {"osm_id": 947559388, "building": "yes", "name": "", "height": null, "height_m": null, "levels": null, "tract_id": "40097040802", "tract_name": "408.02", "tags": {"building": "yes"}}}, {"type": "Feature", "geometry": {"type": "Polygon", "coordinates": [[[-95.2681687, 36.4304105], [-95.268167, 36.4303286], [-95.2679212, 36.4303302], [-95.2679222, 36.4303581], [-95.2678496, 36.4303587], [-95.2678523, 36.4304175], [-95.2679248, 36.4304163], [-95.2679247, 36.4304125], [-95.2679492, 36.4304128], [-95.2679507, 36.4304507], [-95.2680323, 36.4304516], [-95.2680316, 36.4304116], [-95.2681687, 36.4304105]]]}, "properties": {"osm_id": 980457310, "building": "yes", "name": "", "height": null, "height_m": null, "levels": null, "tract_id": "40097040802", "tract_name": "408.02", "tags": {"building": "yes"}}}, {"type": "Feature", "geometry": {"type": "Polygon", "coordinates": [[[-95.1455758, 36.3968116], [-95.1453995, 36.3968498], [-95.1453413, 36.3966762], [-95.1455176, 36.3966379], [-95.1455418, 36.3967103], [-95.1455567, 36.3967071], [-95.1455719, 36.3967526], [-95.1455572, 36.3967558], [-95.1455758, 36.3968116]]]}, "properties": {"osm_id": 986218042, "building": "yes", "name": "", "height": null, "height_m": null, "levels": null, "tract_id": "40097040802", "tract_name": "408.02", "tags": {"building": "yes"}}}, {"type": "Feature", "geometry": {"type": "Polygon", "coordinates": [[[-95.1458585, 36.3970014], [-95.1457604, 36.3969918], [-95.1457727, 36.396911], [-95.1458708, 36.3969207], [-95.1458585, 36.3970014]]]}, "properties": {"osm_id": 986218043, "building": "yes", "name": "", "height": null, "height_m": null, "levels": null, "tract_id": "40097040802", "tract_name": "408.02", "tags": {"building": "yes"}}}, {"type": "Feature", "geometry": {"type": "Polygon", "coordinates": [[[-95.1459041, 36.3971528], [-95.1456989, 36.3971335], [-95.1457162, 36.3970144], [-95.1459214, 36.3970336], [-95.1459041, 36.3971528]]]}, "properties": {"osm_id": 986218044, "building": "yes", "name": "", "height": null, "height_m": null, "levels": null, "tract_id": "40097040802", "tract_name": "408.02", "tags": {"building": "yes"}}}, {"type": "Feature", "geometry": {"type": "Polygon", "coordinates": [[[-95.1417267, 36.3801676], [-95.1417249, 36.3800831], [-95.1415036, 36.3800862], [-95.1415052, 36.3801593], [-95.1416393, 36.3801574], [-95.1416402, 36.3801988], [-95.1416885, 36.3801981], [-95.1416879, 36.3801681], [-95.1417267, 36.3801676]]]}, "properties": {"osm_id": 988277318, "building": "yes", "name": "", "height": null, "height_m": null, "levels": null, "tract_id": "40097040802", "tract_name": "408.02", "tags": {"building": "yes"}}}, {"type": "Feature", "geometry": {"type": "Polygon", "coordinates": [[[-95.1422281, 36.3808716], [-95.1421497, 36.3808336], [-95.1420785, 36.3809291], [-95.142144, 36.3809607], [-95.1421495, 36.3809533], [-95.1421709, 36.3809636], [-95.1421851, 36.3809445], [-95.1421706, 36.3809375], [-95.1421908, 36.3809105], [-95.1422175, 36.3809234], [-95.142235, 36.3808999], [-95.1422144, 36.3808899], [-95.1422281, 36.3808716]]]}, "properties": {"osm_id": 988277319, "building": "yes", "name": "", "height": null, "height_m": null, "levels": null, "tract_id": "40097040802", "tract_name": "408.02", "tags": {"building": "yes"}}}, {"type": "Feature", "geometry": {"type": "Polygon", "coordinates": [[[-95.1419548, 36.3813722], [-95.1419581, 36.3813453], [-95.1418747, 36.3813387], [-95.141872, 36.3813605], [-95.1418471, 36.3813585], [-95.1418459, 36.3813687], [-95.1417986, 36.3813649], [-95.1417936, 36.3814053], [-95.1418201, 36.3814074], [-95.1418146, 36.3814516], [-95.1419519, 36.3814626], [-95.1419587, 36.3814082], [-95.1419778, 36.3814098], [-95.1419822, 36.3813744], [-95.1419548, 36.3813722]]]}, "properties": {"osm_id": 988277320, "building": "yes", "name": "", "height": null, "height_m": null, "levels": null, "tract_id": "40097040802", "tract_name": "408.02", "tags": {"building": "yes"}}}, {"type": "Feature", "geometry": {"type": "Polygon", "coordinates": [[[-95.1415221, 36.3814279], [-95.141523, 36.3813972], [-95.1414905, 36.3813966], [-95.1414907, 36.3813875], [-95.1414109, 36.381386], [-95.1414097, 36.3814281], [-95.1413941, 36.3814278], [-95.1413936, 36.3814443], [-95.1414049, 36.3814445], [-95.141404, 36.381475], [-95.1414936, 36.3814766], [-95.1414949, 36.3814274], [-95.1415221, 36.3814279]]]}, "properties": {"osm_id": 988277321, "building": "yes", "name": "", "height": null, "height_m": null, "levels": null, "tract_id": "40097040802", "tract_name": "408.02", "tags": {"building": "yes"}}}, {"type": "Feature", "geometry": {"type": "Polygon", "coordinates": [[[-95.2786287, 36.3636549], [-95.2786207, 36.364007], [-95.2785429, 36.3640026], [-95.2785429, 36.3639638], [-95.2783364, 36.3639638], [-95.2783283, 36.3636851], [-95.2785402, 36.3636938], [-95.2785402, 36.3636527], [-95.2786287, 36.3636549]]]}, "properties": {"osm_id": 1187193858, "building": "yes", "name": "", "height": null, "height_m": null, "levels": null, "tract_id": "40097040802", "tract_name": "408.02", "tags": {"building": "yes"}}}, {"type": "Feature", "geometry": {"type": "Polygon", "coordinates": [[[-95.2735959, 36.4340471], [-95.2734488, 36.4340208], [-95.2735317, 36.433724], [-95.2736788, 36.433756], [-95.2735959, 36.4340471]]]}, "properties": {"osm_id": 1230464605, "building": "yes", "name": "Subway", "height": null, "height_m": null, "levels": null, "tract_id": "40097040802", "tract_name": "408.02", "tags": {"addr:city": "Adair", "addr:housenumber": "309", "addr:postcode": "74330", "addr:state": "OK", "addr:street": "South Mayes", "amenity": "fast_food", "brand": "Subway", "brand:wikidata": "Q244457", "building": "yes", "cuisine": "sandwich", "name": "Subway", "opening_hours": "08:00-21:00", "phone": "+1 918-785-2620", "takeaway": "yes", "website": "https://restaurants.subway.com/united-states/ok/adair/309-south-mayes"}}}, {"type": "Feature", "geometry": {"type": "Polygon", "coordinates": [[[-95.2720454, 36.4368743], [-95.2723838, 36.4369597], [-95.2722986, 36.4371782], [-95.2721937, 36.4371517], [-95.2722141, 36.4370993], [-95.2721604, 36.4370858], [-95.2721452, 36.437125], [-95.2720732, 36.4371068], [-95.2720453, 36.4371784], [-95.2719374, 36.4371512], [-95.2720454, 36.4368743]]]}, "properties": {"osm_id": 1387642037, "building": "yes", "name": "", "height": null, "height_m": null, "levels": null, "tract_id": "40097040802", "tract_name": "408.02", "tags": {"building": "yes"}}}, {"type": "Feature", "geometry": {"type": "Polygon", "coordinates": [[[-95.2722222, 36.4343412], [-95.2724513, 36.434393], [-95.2724084, 36.4345158], [-95.2723106, 36.4344937], [-95.2723239, 36.4344556], [-95.2721926, 36.4344259], [-95.2722222, 36.4343412]]]}, "properties": {"osm_id": 1387642039, "building": "yes", "name": "", "height": null, "height_m": null, "levels": null, "tract_id": "40097040802", "tract_name": "408.02", "tags": {"building": "yes"}}}, {"type": "Feature", "geometry": {"type": "Polygon", "coordinates": [[[-95.2732436, 36.4343668], [-95.2736754, 36.4343596], [-95.2736806, 36.4345625], [-95.2732488, 36.4345696], [-95.2732436, 36.4343668]]]}, "properties": {"osm_id": 1387642040, "building": "yes", "name": "", "height": null, "height_m": null, "levels": null, "tract_id": "40097040802", "tract_name": "408.02", "tags": {"building": "yes"}}}]}