{"type": "FeatureCollection", "features": [{"type": "Feature", "geometry": {"type": "Polygon", "coordinates": [[[-95.6303078, 36.691368], [-95.6302181, 36.6913683], [-95.6302176, 36.6912833], [-95.6301454, 36.6912835], [-95.6301446, 36.6911119], [-95.6303065, 36.6911114], [-95.6303078, 36.691368]]]}, "properties": {"osm_id": 257046438, "building": "retail", "name": "Ash Express", "height": null, "height_m": null, "levels": null, "tract_id": "40105172400", "tract_name": "1724", "tags": {"building": "retail", "name": "Ash Express", "shop": "convenience"}}}, {"type": "Feature", "geometry": {"type": "Polygon", "coordinates": [[[-95.6391321, 36.7002145], [-95.6386406, 36.7001927], [-95.6386527, 36.7000173], [-95.6387952, 36.7000236], [-95.6388099, 36.6998117], [-95.6391588, 36.6998272], [-95.6391321, 36.7002145]]]}, "properties": {"osm_id": 257046444, "building": "retail", "name": "NAPA Auto Parts", "height": null, "height_m": null, "levels": null, "tract_id": "40105172400", "tract_name": "1724", "tags": {"addr:city": "Nowata", "addr:housenumber": "117", "addr:postcode": "74048", "addr:street": "West Cherokee Street", "brand": "NAPA Auto Parts", "brand:wikidata": "Q6970842", "building": "retail", "check_date": "2024-10-27", "name": "NAPA Auto Parts", "opening_hours": "Mo-Fr 09:00-17:00; Sa 09:00-12:00", "phone": "+1-918-273-3747", "shop": "car_parts"}}}, {"type": "Feature", "geometry": {"type": "Polygon", "coordinates": [[[-95.6299543, 36.6912856], [-95.6298701, 36.6912859], [-95.6298695, 36.6911526], [-95.6299536, 36.6911524], [-95.6299543, 36.6912856]]]}, "properties": {"osm_id": 257046459, "building": "roof", "name": "Phillips 66", "height": null, "height_m": null, "levels": null, "tract_id": "40105172400", "tract_name": "1724", "tags": {"amenity": "fuel", "brand": "Phillips 66", "brand:wikidata": "Q1656230", "building": "roof", "name": "Phillips 66"}}}, {"type": "Feature", "geometry": {"type": "Polygon", "coordinates": [[[-95.6349713, 36.7054684], [-95.6347645, 36.70546], [-95.6347508, 36.7056785], [-95.6345367, 36.7056699], [-95.6345508, 36.7054467], [-95.6343828, 36.7054399], [-95.6343556, 36.7058744], [-95.6345317, 36.7058815], [-95.6345158, 36.706137], [-95.6344256, 36.7061334], [-95.6344196, 36.7062311], [-95.6345732, 36.7062372], [-95.6345717, 36.7062616], [-95.6345182, 36.7062595], [-95.6345169, 36.706282], [-95.6344466, 36.7062793], [-95.6344311, 36.7065425], [-95.6346319, 36.7065501], [-95.6346505, 36.7062336], [-95.6349235, 36.706244], [-95.6349713, 36.7054684]]]}, "properties": {"osm_id": 312166543, "building": "industrial", "name": "MAHLE Industrial Filtration USA, Inc.", "height": null, "height_m": 3.0, "levels": 1, "tract_id": "40105172400", "tract_name": "1724", "tags": {"addr:city": "Nowata", "addr:housenumber": "428", "addr:postcode": "74048", "addr:state": "OK", "addr:street": "North Elm Street", "building": "industrial", "building:levels": "1", "name": "MAHLE Industrial Filtration USA, Inc."}}}, {"type": "Feature", "geometry": {"type": "Polygon", "coordinates": [[[-95.6380418, 36.6988447], [-95.6380625, 36.6985257], [-95.6379469, 36.6985209], [-95.6379261, 36.6988399], [-95.6380418, 36.6988447]]]}, "properties": {"osm_id": 1058716323, "building": "yes", "name": "", "height": null, "height_m": null, "levels": null, "tract_id": "40105172400", "tract_name": "1724", "tags": {"addr:city": "Nowata", "addr:housenumber": "143", "addr:postcode": "74048", "addr:state": "OK", "addr:street": "South Maple Street", "building": "yes", "telecom": "exchange"}}}, {"type": "Feature", "geometry": {"type": "Polygon", "coordinates": [[[-95.6290862, 36.7198136], [-95.6290837, 36.7195158], [-95.6290169, 36.7195162], [-95.6290193, 36.719814], [-95.6290862, 36.7198136]]]}, "properties": {"osm_id": 1101471544, "building": "roof", "name": "Love's", "height": null, "height_m": null, "levels": null, "tract_id": "40105172400", "tract_name": "1724", "tags": {"addr:city": "Nowata", "addr:housenumber": "106", "addr:postcode": "74048", "addr:state": "OK", "addr:street": "Airport Drive", "amenity": "fuel", "brand": "Love's", "brand:wikidata": "Q1872496", "building": "roof", "fuel:diesel": "yes", "fuel:midgrade": "yes", "fuel:premium": "yes", "fuel:unleaded": "yes", "hgv": "no", "name": "Love's", "opening_hours": "24/7", "operator": "Love's", "payment:cash": "yes", "payment:credit_cards": "yes", "payment:debit_cards": "yes", "phone": "+19182735640", "self_service": "yes"}}}, {"type": "Feature", "geometry": {"type": "Polygon", "coordinates": [[[-95.6284459, 36.719673], [-95.6284452, 36.7196023], [-95.6282906, 36.7196032], [-95.6281521, 36.7196041], [-95.6281528, 36.7196748], [-95.6282921, 36.7196739], [-95.6284459, 36.719673]]]}, "properties": {"osm_id": 1101471545, "building": "roof", "name": "Loves", "height": null, "height_m": null, "levels": null, "tract_id": "40105172400", "tract_name": "1724", "tags": {"addr:city": "Nowata", "addr:housenumber": "106", "addr:postcode": "74048", "addr:state": "OK", "addr:street": "Airport Drive", "amenity": "fuel", "brand": "Love's", "brand:wikidata": "Q1872496", "building": "roof", "fuel:adblue": "yes", "fuel:diesel": "yes", "hgv": "yes", "name": "Loves", "opening_hours": "24/7", "operator": "Love's", "payment:cash": "yes", "payment:credit_cards": "yes", "payment:debit_cards": "yes", "phone": "+19182735640", "self_service": "yes"}}}, {"type": "Feature", "geometry": {"type": "Polygon", "coordinates": [[[-95.6287768, 36.71975], [-95.6287756, 36.7195369], [-95.6285109, 36.7195379], [-95.6285121, 36.719751], [-95.6287768, 36.71975]]]}, "properties": {"osm_id": 1101471546, "building": "yes", "name": "Love's", "height": null, "height_m": null, "levels": null, "tract_id": "40105172400", "tract_name": "1724", "tags": {"addr:city": "Nowata", "addr:housenumber": "106", "addr:postcode": "74048", "addr:state": "OK", "addr:street": "Airport Drive", "brand": "Love's", "brand:wikidata": "Q1872496", "building": "yes", "name": "Love's", "opening_hours": "24/7", "operator": "Love's", "payment:cash": "yes", "payment:credit_cards": "yes", "payment:debit_cards": "yes", "phone": "+19182735640", "shop": "convenience"}}}, {"type": "Feature", "geometry": {"type": "Polygon", "coordinates": [[[-95.6289973, 36.7015785], [-95.6289971, 36.7018615], [-95.6291335, 36.7018615], [-95.6291335, 36.7017769], [-95.6291676, 36.7017769], [-95.6291676, 36.7016583], [-95.6291308, 36.7016583], [-95.6291308, 36.7015786], [-95.6289973, 36.7015785]]]}, "properties": {"osm_id": 1101472861, "building": "yes", "name": "Casey's", "height": null, "height_m": null, "levels": null, "tract_id": "40105172400", "tract_name": "1724", "tags": {"building": "yes", "check_date": "2024-10-25", "name": "Casey's", "operator": "Casey's", "shop": "convenience"}}}, {"type": "Feature", "geometry": {"type": "Polygon", "coordinates": [[[-95.6291193, 36.7011983], [-95.6291165, 36.7007602], [-95.6286549, 36.7007621], [-95.6286566, 36.7010331], [-95.6286098, 36.7010333], [-95.6286108, 36.7012003], [-95.6291193, 36.7011983]]]}, "properties": {"osm_id": 1101472863, "building": "yes", "name": "Homeland", "height": null, "height_m": null, "levels": null, "tract_id": "40105172400", "tract_name": "1724", "tags": {"building": "yes", "check_date": "2024-10-25", "name": "Homeland", "shop": "supermarket"}}}, {"type": "Feature", "geometry": {"type": "Polygon", "coordinates": [[[-95.6568282, 36.7093748], [-95.6570046, 36.7095199], [-95.6571724, 36.7093888], [-95.6570919, 36.7093226], [-95.6570308, 36.7093704], [-95.6569348, 36.7092914], [-95.6568282, 36.7093748]]]}, "properties": {"osm_id": 1149707528, "building": "yes", "name": "Kingdom Hall of Jehovahs Witness", "height": null, "height_m": null, "levels": null, "tract_id": "40105172400", "tract_name": "1724", "tags": {"amenity": "place_of_worship", "building": "yes", "denomination": "jehovahs_witness", "ele": "212", "gnis:feature_id": "1801301", "name": "Kingdom Hall of Jehovahs Witness", "religion": "christian", "source": "microsoft/BuildingFootprints"}}}, {"type": "Feature", "geometry": {"type": "Polygon", "coordinates": [[[-95.6374598, 36.6987142], [-95.6374459, 36.69891], [-95.6370115, 36.6988902], [-95.637023, 36.6986914], [-95.6374598, 36.6987142]]]}, "properties": {"osm_id": 1196202685, "building": "yes", "name": "Nowata County Historical Society Museum", "height": null, "height_m": null, "levels": null, "tract_id": "40105172400", "tract_name": "1724", "tags": {"building": "yes", "name": "Nowata County Historical Society Museum", "tourism": "museum"}}}, {"type": "Feature", "geometry": {"type": "Polygon", "coordinates": [[[-95.6374724, 36.7004263], [-95.6380086, 36.700447], [-95.6379838, 36.7008595], [-95.6377232, 36.7008494], [-95.6377298, 36.7007396], [-95.6374543, 36.700729], [-95.6374724, 36.7004263]]]}, "properties": {"osm_id": 1336671507, "building": "yes", "name": "", "height": null, "height_m": null, "levels": null, "tract_id": "40105172400", "tract_name": "1724", "tags": {"building": "yes"}}}, {"type": "Feature", "geometry": {"type": "Polygon", "coordinates": [[[-95.6382615, 36.7004492], [-95.6382282, 36.7008438], [-95.6382602, 36.7008636], [-95.6384902, 36.7008721], [-95.6384972, 36.7007512], [-95.6385262, 36.7007522], [-95.6385308, 36.7006723], [-95.6385696, 36.7006738], [-95.638572, 36.7006326], [-95.6387597, 36.7006394], [-95.638747, 36.7008092], [-95.6389226, 36.7008117], [-95.6389556, 36.7007598], [-95.6389872, 36.700485], [-95.6385992, 36.7004709], [-95.6385963, 36.7005225], [-95.638519, 36.7005197], [-95.6385412, 36.7004644], [-95.6382615, 36.7004492]]]}, "properties": {"osm_id": 1336671508, "building": "yes", "name": "", "height": null, "height_m": null, "levels": null, "tract_id": "40105172400", "tract_name": "1724", "tags": {"building": "yes"}}}, {"type": "Feature", "geometry": {"type": "Polygon", "coordinates": [[[-95.6379915, 36.7009108], [-95.6379825, 36.7010542], [-95.6375538, 36.7010368], [-95.6375628, 36.7008933], [-95.6379915, 36.7009108]]]}, "properties": {"osm_id": 1336671509, "building": "yes", "name": "", "height": null, "height_m": null, "levels": null, "tract_id": "40105172400", "tract_name": "1724", "tags": {"building": "yes"}}}, {"type": "Feature", "geometry": {"type": "Polygon", "coordinates": [[[-95.6379514, 36.7015878], [-95.6379415, 36.7017241], [-95.6376013, 36.7017082], [-95.6376111, 36.701572], [-95.6379514, 36.7015878]]]}, "properties": {"osm_id": 1336671510, "building": "yes", "name": "", "height": null, "height_m": null, "levels": null, "tract_id": "40105172400", "tract_name": "1724", "tags": {"building": "yes"}}}, {"type": "Feature", "geometry": {"type": "Polygon", "coordinates": [[[-95.638562, 36.7025837], [-95.6385567, 36.7026759], [-95.6384949, 36.7026736], [-95.6384897, 36.7027657], [-95.6381988, 36.702755], [-95.6382154, 36.7024641], [-95.6384992, 36.7024745], [-95.6384931, 36.7025812], [-95.638562, 36.7025837]]]}, "properties": {"osm_id": 1336671511, "building": "yes", "name": "", "height": null, "height_m": null, "levels": null, "tract_id": "40105172400", "tract_name": "1724", "tags": {"building": "yes"}}}, {"type": "Feature", "geometry": {"type": "Polygon", "coordinates": [[[-95.6384814, 36.6997947], [-95.6384554, 36.7001847], [-95.6382754, 36.7001769], [-95.6383015, 36.6997869], [-95.6384814, 36.6997947]]]}, "properties": {"osm_id": 1336671512, "building": "yes", "name": "", "height": null, "height_m": null, "levels": null, "tract_id": "40105172400", "tract_name": "1724", "tags": {"building": "yes"}}}, {"type": "Feature", "geometry": {"type": "Polygon", "coordinates": [[[-95.638033, 36.6998907], [-95.6380259, 36.700158], [-95.6375077, 36.70014], [-95.6375265, 36.6998609], [-95.6376095, 36.6998645], [-95.6376156, 36.6997728], [-95.6378683, 36.6997837], [-95.6378616, 36.6998833], [-95.638033, 36.6998907]]]}, "properties": {"osm_id": 1336671513, "building": "yes", "name": "", "height": null, "height_m": null, "levels": null, "tract_id": "40105172400", "tract_name": "1724", "tags": {"building": "yes"}}}, {"type": "Feature", "geometry": {"type": "Polygon", "coordinates": [[[-95.6374504, 36.6999049], [-95.6374328, 36.700134], [-95.6369367, 36.7001095], [-95.6369533, 36.6998943], [-95.6372175, 36.6999074], [-95.6372141, 36.6999523], [-95.6372941, 36.6999563], [-95.6372986, 36.6998974], [-95.6374504, 36.6999049]]]}, "properties": {"osm_id": 1336671514, "building": "yes", "name": "", "height": null, "height_m": null, "levels": null, "tract_id": "40105172400", "tract_name": "1724", "tags": {"building": "yes"}}}, {"type": "Feature", "geometry": {"type": "Polygon", "coordinates": [[[-95.6371238, 36.7004008], [-95.6374453, 36.7004139], [-95.6374277, 36.7006918], [-95.6372912, 36.7006862], [-95.6372951, 36.7006254], [-95.6371101, 36.7006178], [-95.6371238, 36.7004008]]]}, "properties": {"osm_id": 1336671515, "building": "yes", "name": "", "height": null, "height_m": null, "levels": null, "tract_id": "40105172400", "tract_name": "1724", "tags": {"building": "yes"}}}, {"type": "Feature", "geometry": {"type": "Polygon", "coordinates": [[[-95.6310229, 36.7050888], [-95.6306529, 36.7050872], [-95.630655, 36.7049829], [-95.6310249, 36.7049829], [-95.6310249, 36.7050334], [-95.6310229, 36.7050888]]]}, "properties": {"osm_id": 1369994954, "building": "yes", "name": "", "height": null, "height_m": null, "levels": null, "tract_id": "40105172400", "tract_name": "1724", "tags": {"building": "yes"}}}, {"type": "Feature", "geometry": {"type": "Polygon", "coordinates": [[[-95.6303826, 36.7051198], [-95.6302708, 36.7051279], [-95.6302586, 36.7049568], [-95.6303704, 36.7049503], [-95.6303826, 36.7051198]]]}, "properties": {"osm_id": 1369994955, "building": "yes", "name": "", "height": null, "height_m": null, "levels": null, "tract_id": "40105172400", "tract_name": "1724", "tags": {"building": "yes"}}}, {"type": "Feature", "geometry": {"type": "Polygon", "coordinates": [[[-95.6303379, 36.7049307], [-95.6301834, 36.7049389], [-95.6301732, 36.7047922], [-95.6303236, 36.7047857], [-95.6303318, 36.7048492], [-95.6303379, 36.7049307]]]}, "properties": {"osm_id": 1369994956, "building": "yes", "name": "", "height": null, "height_m": null, "levels": null, "tract_id": "40105172400", "tract_name": "1724", "tags": {"building": "yes"}}}, {"type": "Feature", "geometry": {"type": "Polygon", "coordinates": [[[-95.6302448, 36.7033696], [-95.6300378, 36.7033705], [-95.6300384, 36.7034636], [-95.6302454, 36.7034628], [-95.6302448, 36.7033696]]]}, "properties": {"osm_id": 1371172204, "building": "yes", "name": "", "height": null, "height_m": null, "levels": null, "tract_id": "40105172400", "tract_name": "1724", "tags": {"building": "yes"}}}, {"type": "Feature", "geometry": {"type": "Polygon", "coordinates": [[[-95.6299684, 36.7034701], [-95.6298253, 36.7034719], [-95.6298242, 36.7034131], [-95.6299672, 36.7034113], [-95.6299684, 36.7034701]]]}, "properties": {"osm_id": 1371172205, "building": "yes", "name": "", "height": null, "height_m": null, "levels": null, "tract_id": "40105172400", "tract_name": "1724", "tags": {"building": "yes"}}}, {"type": "Feature", "geometry": {"type": "Polygon", "coordinates": [[[-95.6466535, 36.6966815], [-95.6466543, 36.6962774], [-95.6464082, 36.6962771], [-95.6464076, 36.6965228], [-95.6463808, 36.6965227], [-95.646381, 36.6964533], [-95.6462817, 36.6964531], [-95.6462819, 36.6963527], [-95.646121, 36.6963524], [-95.6461207, 36.6964532], [-95.645624, 36.6964524], [-95.6456243, 36.6963356], [-95.6456476, 36.6963357], [-95.6456473, 36.6964271], [-95.6458702, 36.6964276], [-95.6458707, 36.6962855], [-95.6456503, 36.696285], [-95.6456502, 36.6962934], [-95.6456187, 36.6962934], [-95.6456188, 36.6962495], [-95.6462246, 36.6962508], [-95.6462251, 36.6961119], [-95.6460116, 36.6961114], [-95.6460114, 36.6961936], [-95.6458918, 36.6961933], [-95.6458922, 36.6960769], [-95.6457141, 36.6960765], [-95.6457147, 36.6958959], [-95.6465379, 36.6958978], [-95.6465385, 36.695721], [-95.6456586, 36.6957189], [-95.6456589, 36.6956428], [-95.6455366, 36.6956425], [-95.6455363, 36.6957181], [-95.6453506, 36.6957176], [-95.6453503, 36.6957834], [-95.6453216, 36.6957833], [-95.6453213, 36.6958381], [-95.645321, 36.6958917], [-95.6454867, 36.6958923], [-95.6454858, 36.6960535], [-95.6452337, 36.6960526], [-95.645233, 36.6961779], [-95.6452326, 36.6962422], [-95.6451927, 36.6962421], [-95.6451911, 36.6965295], [-95.6452649, 36.6965298], [-95.6452648, 36.6965521], [-95.6452641, 36.6966671], [-95.6453853, 36.6966675], [-95.6453853, 36.6966623], [-95.6454438, 36.6966624], [-95.645444, 36.6966041], [-95.6454902, 36.6966042], [-95.6454901, 36.696631], [-95.6461475, 36.6966326], [-95.6461687, 36.6966326], [-95.6461686, 36.6966758], [-95.6462757, 36.6966761], [-95.6462758, 36.6966322], [-95.6463753, 36.6966324], [-95.6463755, 36.6965642], [-95.6464104, 36.6965643], [-95.64641, 36.6966956], [-95.6466058, 36.696696], [-95.6466058, 36.6966815], [-95.6466535, 36.6966815]]]}, "properties": {"osm_id": 1378134093, "building": "school", "name": "Nowata High School", "height": null, "height_m": null, "levels": null, "tract_id": "40105172400", "tract_name": "1724", "tags": {"building": "school", "name": "Nowata High School"}}}, {"type": "Feature", "geometry": {"type": "Polygon", "coordinates": [[[-95.6451307, 36.6965317], [-95.6446697, 36.6965302], [-95.6446718, 36.6961187], [-95.6446719, 36.6960988], [-95.6447208, 36.6960989], [-95.6447214, 36.6959756], [-95.6448204, 36.6959759], [-95.6448207, 36.6959264], [-95.6448948, 36.6959266], [-95.644962, 36.6959268], [-95.6449617, 36.6959767], [-95.6450832, 36.6959771], [-95.6450826, 36.6960941], [-95.645133, 36.6960943], [-95.6451326, 36.6961773], [-95.6451307, 36.6965317]]]}, "properties": {"osm_id": 1378134094, "building": "school", "name": "", "height": null, "height_m": null, "levels": null, "tract_id": "40105172400", "tract_name": "1724", "tags": {"building": "school"}}}, {"type": "Feature", "geometry": {"type": "Polygon", "coordinates": [[[-95.644348, 36.6967851], [-95.6443465, 36.6966685], [-95.644278, 36.6966691], [-95.6442787, 36.6967244], [-95.6442117, 36.6967249], [-95.6442125, 36.6967863], [-95.644348, 36.6967851]]]}, "properties": {"osm_id": 1378134118, "building": "yes", "name": "", "height": null, "height_m": null, "levels": null, "tract_id": "40105172400", "tract_name": "1724", "tags": {"building": "yes"}}}, {"type": "Feature", "geometry": {"type": "Polygon", "coordinates": [[[-95.6434735, 36.6968177], [-95.6434742, 36.6966677], [-95.6433931, 36.6966674], [-95.6433419, 36.6966674], [-95.6433413, 36.6968173], [-95.6433922, 36.6968174], [-95.6434735, 36.6968177]]]}, "properties": {"osm_id": 1378134119, "building": "yes", "name": "", "height": null, "height_m": null, "levels": null, "tract_id": "40105172400", "tract_name": "1724", "tags": {"building": "yes"}}}, {"type": "Feature", "geometry": {"type": "Polygon", "coordinates": [[[-95.6434287, 36.6962904], [-95.6434281, 36.6960138], [-95.6435252, 36.6960136], [-95.643526, 36.6962902], [-95.6434287, 36.6962904]]]}, "properties": {"osm_id": 1378134120, "building": "grandstand", "name": "", "height": null, "height_m": null, "levels": null, "tract_id": "40105172400", "tract_name": "1724", "tags": {"building": "grandstand"}}}, {"type": "Feature", "geometry": {"type": "Polygon", "coordinates": [[[-95.6443794, 36.6958988], [-95.644243, 36.6958992], [-95.6442413, 36.6955533], [-95.6443778, 36.6955529], [-95.6443794, 36.6958988]]]}, "properties": {"osm_id": 1378134121, "building": "yes", "name": "", "height": null, "height_m": null, "levels": null, "tract_id": "40105172400", "tract_name": "1724", "tags": {"building": "yes"}}}, {"type": "Feature", "geometry": {"type": "Polygon", "coordinates": [[[-95.6445973, 36.6958637], [-95.6445981, 36.6956442], [-95.6444394, 36.6956438], [-95.6444387, 36.6958634], [-95.6445973, 36.6958637]]]}, "properties": {"osm_id": 1378134122, "building": "yes", "name": "", "height": null, "height_m": null, "levels": null, "tract_id": "40105172400", "tract_name": "1724", "tags": {"building": "yes"}}}, {"type": "Feature", "geometry": {"type": "Polygon", "coordinates": [[[-95.6443539, 36.6959913], [-95.6442047, 36.6959911], [-95.6442042, 36.6963243], [-95.6443532, 36.6963245], [-95.6443534, 36.696209], [-95.64438, 36.696209], [-95.6443802, 36.6961077], [-95.6443537, 36.6961077], [-95.6443539, 36.6959913]]]}, "properties": {"osm_id": 1378134123, "building": "grandstand", "name": "", "height": null, "height_m": null, "levels": null, "tract_id": "40105172400", "tract_name": "1724", "tags": {"building": "grandstand"}}}, {"type": "Feature", "geometry": {"type": "Polygon", "coordinates": [[[-95.6435097, 36.7015927], [-95.6433532, 36.7015905], [-95.6433577, 36.7013869], [-95.6435142, 36.7013891], [-95.6435123, 36.7014709], [-95.6435721, 36.7014717], [-95.6435709, 36.7015269], [-95.6435112, 36.701526], [-95.6435097, 36.7015927]]]}, "properties": {"osm_id": 1378142292, "building": "yes", "name": "Nowata Country Club", "height": null, "height_m": null, "levels": null, "tract_id": "40105172400", "tract_name": "1724", "tags": {"building": "yes", "golf": "clubhouse", "name": "Nowata Country Club"}}}]}