{"type": "FeatureCollection", "features": [{"type": "Feature", "geometry": {"type": "Polygon", "coordinates": [[[-97.4909298, 35.574087], [-97.4908847, 35.5740881], [-97.4908316, 35.5740894], [-97.490833, 35.5739101], [-97.4908332, 35.5738885], [-97.4909351, 35.5738863], [-97.4909345, 35.5739078], [-97.4909298, 35.574087]]]}, "properties": {"osm_id": 184333035, "building": "yes", "name": "", "height": null, "height_m": null, "levels": null, "tract_id": "40109108301", "tract_name": "1083.01", "tags": {"building": "yes"}}}, {"type": "Feature", "geometry": {"type": "Polygon", "coordinates": [[[-97.4896503, 35.5741198], [-97.4896477, 35.5739932], [-97.4895618, 35.5739932], [-97.4895591, 35.5741154], [-97.489079, 35.5741154], [-97.4890737, 35.5739867], [-97.4891917, 35.5739845], [-97.489189, 35.5739409], [-97.489645, 35.5739409], [-97.4896477, 35.5738493], [-97.4892598, 35.5738386], [-97.4892614, 35.5736267], [-97.4890683, 35.5736267], [-97.4890683, 35.5733387], [-97.4892292, 35.5733366], [-97.4892292, 35.5733606], [-97.4900527, 35.5733584], [-97.4900446, 35.5735656], [-97.4901385, 35.5735677], [-97.4902377, 35.5735635], [-97.4902458, 35.5735046], [-97.4905864, 35.5735046], [-97.4905891, 35.5735482], [-97.4906113, 35.5735482], [-97.4907152, 35.5735482], [-97.4907205, 35.5734936], [-97.4909673, 35.5734915], [-97.4909673, 35.5735547], [-97.4910209, 35.5735525], [-97.4910183, 35.5736573], [-97.4909646, 35.5736573], [-97.4909646, 35.5737554], [-97.490727, 35.5737557], [-97.4907232, 35.5737031], [-97.4905864, 35.5737031], [-97.4905891, 35.5739845], [-97.4906159, 35.5739845], [-97.4906106, 35.5740761], [-97.4900419, 35.574074], [-97.4900419, 35.5741176], [-97.4896503, 35.5741198]]]}, "properties": {"osm_id": 184333039, "building": "yes", "name": "", "height": null, "height_m": null, "levels": null, "tract_id": "40109108301", "tract_name": "1083.01", "tags": {"amenity": "school", "building": "yes", "source": "Bing"}}}, {"type": "Feature", "geometry": {"type": "Polygon", "coordinates": [[[-97.49056, 35.5742809], [-97.4905616, 35.5741828], [-97.490562, 35.574161], [-97.4906103, 35.5741615], [-97.4906083, 35.5742815], [-97.49056, 35.5742809]]]}, "properties": {"osm_id": 184333044, "building": "yes", "name": "", "height": null, "height_m": null, "levels": null, "tract_id": "40109108301", "tract_name": "1083.01", "tags": {"building": "yes"}}}, {"type": "Feature", "geometry": {"type": "Polygon", "coordinates": [[[-97.5094137, 35.5602934], [-97.5092256, 35.5602815], [-97.5092155, 35.5603886], [-97.5094036, 35.5604005], [-97.5094073, 35.560361], [-97.5094137, 35.5602934]]]}, "properties": {"osm_id": 243580972, "building": "yes", "name": "", "height": null, "height_m": null, "levels": null, "tract_id": "40109108301", "tract_name": "1083.01", "tags": {"building": "yes"}}}, {"type": "Feature", "geometry": {"type": "Polygon", "coordinates": [[[-97.5009073, 35.5696612], [-97.5008386, 35.5696331], [-97.5008199, 35.5696633], [-97.5008887, 35.5696914], [-97.5009073, 35.5696612]]]}, "properties": {"osm_id": 244648678, "building": "yes", "name": "", "height": null, "height_m": null, "levels": null, "tract_id": "40109108301", "tract_name": "1083.01", "tags": {"building": "yes"}}}, {"type": "Feature", "geometry": {"type": "Polygon", "coordinates": [[[-97.4948786, 35.5795436], [-97.4947554, 35.5795446], [-97.4946314, 35.5795433], [-97.4944941, 35.5794303], [-97.4945057, 35.5794211], [-97.4944543, 35.5793798], [-97.4950582, 35.5793816], [-97.4950069, 35.5794243], [-97.4950074, 35.57944], [-97.4948786, 35.5795436]]]}, "properties": {"osm_id": 245105696, "building": "yes", "name": "", "height": null, "height_m": null, "levels": null, "tract_id": "40109108301", "tract_name": "1083.01", "tags": {"building": "yes", "source": "Bing"}}}, {"type": "Feature", "geometry": {"type": "Polygon", "coordinates": [[[-97.4929674, 35.5791956], [-97.4923316, 35.5791949], [-97.492332, 35.5789646], [-97.4924295, 35.5789648], [-97.4924294, 35.579003], [-97.4929677, 35.5790036], [-97.4929674, 35.5791956]]]}, "properties": {"osm_id": 245106214, "building": "yes", "name": "", "height": null, "height_m": null, "levels": null, "tract_id": "40109108301", "tract_name": "1083.01", "tags": {"building": "yes", "source": "Bing"}}}, {"type": "Feature", "geometry": {"type": "Polygon", "coordinates": [[[-97.4924147, 35.5796043], [-97.4924151, 35.5793491], [-97.4928875, 35.5793495], [-97.4928872, 35.5796047], [-97.4924147, 35.5796043]]]}, "properties": {"osm_id": 245106216, "building": "yes", "name": "", "height": null, "height_m": null, "levels": null, "tract_id": "40109108301", "tract_name": "1083.01", "tags": {"building": "yes", "source": "Bing"}}}, {"type": "Feature", "geometry": {"type": "Polygon", "coordinates": [[[-97.4771588, 35.5626281], [-97.4771581, 35.5624988], [-97.4772435, 35.5624985], [-97.4772428, 35.5623467], [-97.477162, 35.562347], [-97.4771613, 35.5622101], [-97.4768928, 35.562211], [-97.4768936, 35.5623558], [-97.4769771, 35.5623555], [-97.4769778, 35.5624765], [-97.4768897, 35.5624768], [-97.4768904, 35.562629], [-97.4771588, 35.5626281]]]}, "properties": {"osm_id": 248863656, "building": "yes", "name": "", "height": null, "height_m": null, "levels": null, "tract_id": "40109108301", "tract_name": "1083.01", "tags": {"amenity": "place_of_worship", "building": "yes", "denomination": "jehovahs_witness", "religion": "christian", "source": "Bing"}}}, {"type": "Feature", "geometry": {"type": "Polygon", "coordinates": [[[-97.4766523, 35.5627637], [-97.4766548, 35.562635], [-97.4765596, 35.5626338], [-97.4765571, 35.5627625], [-97.4766523, 35.5627637]]]}, "properties": {"osm_id": 248863660, "building": "yes", "name": "", "height": null, "height_m": null, "levels": null, "tract_id": "40109108301", "tract_name": "1083.01", "tags": {"building": "yes", "roof:shape": "hipped", "source": "Bing"}}}, {"type": "Feature", "geometry": {"type": "Polygon", "coordinates": [[[-97.4767281, 35.5623104], [-97.4767292, 35.5622624], [-97.4766597, 35.5622613], [-97.4766585, 35.5623093], [-97.4767281, 35.5623104]]]}, "properties": {"osm_id": 248863661, "building": "yes", "name": "", "height": null, "height_m": null, "levels": null, "tract_id": "40109108301", "tract_name": "1083.01", "tags": {"building": "yes", "roof:shape": "hipped", "source": "Bing"}}}, {"type": "Feature", "geometry": {"type": "Polygon", "coordinates": [[[-97.5056033, 35.5696841], [-97.5058688, 35.5696841], [-97.5058688, 35.5696699], [-97.5062685, 35.5696688], [-97.5062685, 35.5695053], [-97.5062859, 35.5695052], [-97.5062861, 35.5694949], [-97.5066319, 35.5694943], [-97.5066346, 35.5694299], [-97.506652, 35.5694387], [-97.5067312, 35.5694048], [-97.5066199, 35.5692521], [-97.5066185, 35.5690874], [-97.5064844, 35.5690885], [-97.5064844, 35.568974], [-97.5062899, 35.568974], [-97.5062899, 35.568939], [-97.5062581, 35.5689396], [-97.5062611, 35.5688703], [-97.5061193, 35.5689407], [-97.5058916, 35.5689412], [-97.5058903, 35.5688878], [-97.5055979, 35.568891], [-97.5056006, 35.5690819], [-97.5055751, 35.569083], [-97.5055765, 35.5694387], [-97.5056033, 35.5694398], [-97.5056033, 35.5696841]]]}, "properties": {"osm_id": 417247126, "building": "commercial", "name": "Diagnostic Laboratory of Oklahoma", "height": null, "height_m": null, "levels": null, "tract_id": "40109108301", "tract_name": "1083.01", "tags": {"addr:city": "Oklahoma City", "addr:housenumber": "225", "addr:postcode": "73114", "addr:state": "OK", "addr:street": "Northeast 97th Street", "building": "commercial", "name": "Diagnostic Laboratory of Oklahoma", "short_name": "DLO"}}}, {"type": "Feature", "geometry": {"type": "Polygon", "coordinates": [[[-97.4995938, 35.5684449], [-97.4995902, 35.5679699], [-97.4995531, 35.5679684], [-97.4995513, 35.567918], [-97.499592, 35.5678849], [-97.4994239, 35.5677453], [-97.4986716, 35.5677436], [-97.49867, 35.5675467], [-97.4993956, 35.567538], [-97.4993956, 35.5675136], [-97.4995761, 35.5675136], [-97.4995778, 35.5675452], [-97.499638, 35.5675467], [-97.4996681, 35.567515], [-97.4997433, 35.5675762], [-97.4997984, 35.5675319], [-97.4998719, 35.5674709], [-97.4999813, 35.5675625], [-97.4999185, 35.5676184], [-97.4998601, 35.5676676], [-97.4999247, 35.5677237], [-97.4998751, 35.5677741], [-97.4998751, 35.567813], [-97.4999194, 35.5678115], [-97.4999212, 35.5679497], [-97.4998893, 35.5679497], [-97.4998893, 35.5679684], [-97.4998397, 35.567967], [-97.499838, 35.5680058], [-97.499861, 35.5680058], [-97.4998628, 35.5684017], [-97.4998309, 35.5684017], [-97.4998291, 35.5684478], [-97.4995938, 35.5684449]]]}, "properties": {"osm_id": 464752387, "building": "yes", "name": "", "height": null, "height_m": null, "levels": null, "tract_id": "40109108301", "tract_name": "1083.01", "tags": {"building": "yes", "office": "yes"}}}, {"type": "Feature", "geometry": {"type": "Polygon", "coordinates": [[[-97.4990658, 35.5668403], [-97.4992304, 35.5666816], [-97.4989662, 35.5664981], [-97.4988056, 35.5666618], [-97.4990658, 35.5668403]]]}, "properties": {"osm_id": 464752389, "building": "yes", "name": "", "height": null, "height_m": null, "levels": null, "tract_id": "40109108301", "tract_name": "1083.01", "tags": {"building": "yes", "office": "yes"}}}, {"type": "Feature", "geometry": {"type": "Polygon", "coordinates": [[[-97.4993827, 35.5669149], [-97.4992502, 35.5667632], [-97.4995198, 35.5666091], [-97.5001668, 35.5666066], [-97.5001668, 35.5667044], [-97.5000497, 35.5667044], [-97.5000482, 35.5667419], [-97.4999742, 35.5667419], [-97.4999742, 35.5667094], [-97.4995367, 35.5667119], [-97.4994089, 35.5667883], [-97.4994766, 35.5668735], [-97.4993827, 35.5669149]]]}, "properties": {"osm_id": 464752390, "building": "yes", "name": "", "height": null, "height_m": null, "levels": null, "tract_id": "40109108301", "tract_name": "1083.01", "tags": {"building": "yes", "office": "yes"}}}, {"type": "Feature", "geometry": {"type": "Polygon", "coordinates": [[[-97.4985292, 35.5665039], [-97.4985308, 35.5663397], [-97.4985862, 35.5663422], [-97.4985847, 35.5662946], [-97.4986525, 35.5662946], [-97.4986525, 35.5662582], [-97.4986155, 35.566257], [-97.4986093, 35.5660139], [-97.4988728, 35.5660314], [-97.4988635, 35.5663221], [-97.4988959, 35.5663234], [-97.4989698, 35.566381], [-97.4989621, 35.5664876], [-97.4988774, 35.5664838], [-97.4988805, 35.5665151], [-97.4985292, 35.5665039]]]}, "properties": {"osm_id": 464752391, "building": "yes", "name": "", "height": null, "height_m": null, "levels": null, "tract_id": "40109108301", "tract_name": "1083.01", "tags": {"building": "yes", "office": "yes"}}}, {"type": "Feature", "geometry": {"type": "Polygon", "coordinates": [[[-97.4962681, 35.5665391], [-97.4962645, 35.5663865], [-97.4964486, 35.566388], [-97.4964574, 35.5665406], [-97.4962681, 35.5665391]]]}, "properties": {"osm_id": 464752393, "building": "yes", "name": "", "height": null, "height_m": null, "levels": null, "tract_id": "40109108301", "tract_name": "1083.01", "tags": {"building": "yes", "office": "yes"}}}, {"type": "Feature", "geometry": {"type": "Polygon", "coordinates": [[[-97.4964543, 35.566163], [-97.4964432, 35.5659014], [-97.4962539, 35.5659], [-97.4962663, 35.5661634], [-97.4964543, 35.566163]]]}, "properties": {"osm_id": 464752395, "building": "yes", "name": "", "height": null, "height_m": null, "levels": null, "tract_id": "40109108301", "tract_name": "1083.01", "tags": {"building": "yes", "office": "yes"}}}, {"type": "Feature", "geometry": {"type": "Polygon", "coordinates": [[[-97.4965116, 35.5661492], [-97.4965063, 35.5658983], [-97.4967276, 35.5659005], [-97.4967316, 35.5661536], [-97.4965116, 35.5661492]]]}, "properties": {"osm_id": 464752396, "building": "yes", "name": "", "height": null, "height_m": null, "levels": null, "tract_id": "40109108301", "tract_name": "1083.01", "tags": {"building": "yes", "office": "yes"}}}, {"type": "Feature", "geometry": {"type": "Polygon", "coordinates": [[[-97.497036, 35.5661426], [-97.4970307, 35.5659026], [-97.4972412, 35.5659048], [-97.4972425, 35.5660816], [-97.4971165, 35.5660826], [-97.4971165, 35.5661437], [-97.497036, 35.5661426]]]}, "properties": {"osm_id": 464752397, "building": "yes", "name": "", "height": null, "height_m": null, "levels": null, "tract_id": "40109108301", "tract_name": "1083.01", "tags": {"building": "yes", "office": "yes"}}}, {"type": "Feature", "geometry": {"type": "Polygon", "coordinates": [[[-97.497036, 35.5666783], [-97.4970333, 35.5664634], [-97.4972466, 35.5664634], [-97.4972466, 35.5666096], [-97.4971178, 35.5666085], [-97.4971192, 35.5666783], [-97.497036, 35.5666783]]]}, "properties": {"osm_id": 464752399, "building": "yes", "name": "", "height": null, "height_m": null, "levels": null, "tract_id": "40109108301", "tract_name": "1083.01", "tags": {"building": "yes", "office": "yes"}}}, {"type": "Feature", "geometry": {"type": "Polygon", "coordinates": [[[-97.49704, 35.5664132], [-97.497032, 35.5662026], [-97.4971178, 35.5662016], [-97.4971192, 35.5662637], [-97.4972399, 35.566267], [-97.4972439, 35.5664154], [-97.49704, 35.5664132]]]}, "properties": {"osm_id": 464752400, "building": "yes", "name": "", "height": null, "height_m": null, "levels": null, "tract_id": "40109108301", "tract_name": "1083.01", "tags": {"building": "yes", "office": "yes"}}}, {"type": "Feature", "geometry": {"type": "Polygon", "coordinates": [[[-97.4965157, 35.5666554], [-97.496513, 35.5663881], [-97.4967383, 35.5663881], [-97.4967396, 35.5666586], [-97.4965157, 35.5666554]]]}, "properties": {"osm_id": 464752401, "building": "yes", "name": "", "height": null, "height_m": null, "levels": null, "tract_id": "40109108301", "tract_name": "1083.01", "tags": {"building": "yes", "office": "yes"}}}, {"type": "Feature", "geometry": {"type": "Polygon", "coordinates": [[[-97.4975228, 35.5666746], [-97.4975166, 35.5664941], [-97.4977908, 35.5664941], [-97.4977924, 35.5666746], [-97.4975228, 35.5666746]]]}, "properties": {"osm_id": 464752402, "building": "yes", "name": "", "height": null, "height_m": null, "levels": null, "tract_id": "40109108301", "tract_name": "1083.01", "tags": {"building": "yes", "office": "yes"}}}, {"type": "Feature", "geometry": {"type": "Polygon", "coordinates": [[[-97.4973333, 35.5663701], [-97.4973271, 35.5661984], [-97.4976029, 35.5661984], [-97.4976075, 35.5663701], [-97.4973333, 35.5663701]]]}, "properties": {"osm_id": 464752404, "building": "yes", "name": "", "height": null, "height_m": null, "levels": null, "tract_id": "40109108301", "tract_name": "1083.01", "tags": {"building": "yes", "office": "yes"}}}, {"type": "Feature", "geometry": {"type": "Polygon", "coordinates": [[[-97.4977631, 35.5661407], [-97.497757, 35.5659102], [-97.4979295, 35.5659114], [-97.4979326, 35.5661407], [-97.4977631, 35.5661407]]]}, "properties": {"osm_id": 464752405, "building": "yes", "name": "", "height": null, "height_m": null, "levels": null, "tract_id": "40109108301", "tract_name": "1083.01", "tags": {"building": "yes", "office": "yes"}}}, {"type": "Feature", "geometry": {"type": "Polygon", "coordinates": [[[-97.4974981, 35.5661395], [-97.4974951, 35.5659152], [-97.4973241, 35.5659152], [-97.4973256, 35.5661407], [-97.4974981, 35.5661395]]]}, "properties": {"osm_id": 464752407, "building": "yes", "name": "", "height": null, "height_m": null, "levels": null, "tract_id": "40109108301", "tract_name": "1083.01", "tags": {"building": "yes", "office": "yes"}}}, {"type": "Feature", "geometry": {"type": "Polygon", "coordinates": [[[-97.4976445, 35.5672397], [-97.497643, 35.5671808], [-97.4976645, 35.5671808], [-97.4976645, 35.5671169], [-97.4976476, 35.5671157], [-97.497646, 35.5670818], [-97.4976923, 35.5670831], [-97.4976923, 35.5670255], [-97.4976784, 35.5670242], [-97.4976722, 35.5669039], [-97.4974304, 35.5669052], [-97.4974334, 35.5669415], [-97.497418, 35.566941], [-97.4974211, 35.5670292], [-97.49745, 35.567031], [-97.4974535, 35.5670906], [-97.4974381, 35.5670919], [-97.4974411, 35.5671959], [-97.4975182, 35.5671971], [-97.4975197, 35.5672397], [-97.4976445, 35.5672397]]]}, "properties": {"osm_id": 464752409, "building": "yes", "name": "", "height": null, "height_m": null, "levels": null, "tract_id": "40109108301", "tract_name": "1083.01", "tags": {"building": "yes", "office": "yes"}}}, {"type": "Feature", "geometry": {"type": "Polygon", "coordinates": [[[-97.4981132, 35.5680944], [-97.4981116, 35.5680119], [-97.4981094, 35.5679041], [-97.4979298, 35.5679045], [-97.4979325, 35.5680797], [-97.4980609, 35.5680793], [-97.4980611, 35.5680946], [-97.4981132, 35.5680944]]]}, "properties": {"osm_id": 464752410, "building": "yes", "name": "", "height": null, "height_m": null, "levels": null, "tract_id": "40109108301", "tract_name": "1083.01", "tags": {"building": "yes", "office": "yes"}}}, {"type": "Feature", "geometry": {"type": "Polygon", "coordinates": [[[-97.4979264, 35.5678612], [-97.4979224, 35.5676839], [-97.4981062, 35.5676839], [-97.4981085, 35.5678613], [-97.4979264, 35.5678612]]]}, "properties": {"osm_id": 464752411, "building": "yes", "name": "", "height": null, "height_m": null, "levels": null, "tract_id": "40109108301", "tract_name": "1083.01", "tags": {"building": "yes", "office": "yes"}}}, {"type": "Feature", "geometry": {"type": "Polygon", "coordinates": [[[-97.4973742, 35.5680734], [-97.4973702, 35.5678607], [-97.497613, 35.5678618], [-97.497617, 35.5680734], [-97.4973742, 35.5680734]]]}, "properties": {"osm_id": 464752413, "building": "yes", "name": "", "height": null, "height_m": null, "levels": null, "tract_id": "40109108301", "tract_name": "1083.01", "tags": {"building": "yes", "office": "yes"}}}, {"type": "Feature", "geometry": {"type": "Polygon", "coordinates": [[[-97.4968633, 35.5680646], [-97.4968606, 35.5678759], [-97.4972589, 35.5678715], [-97.4972603, 35.568081], [-97.4969719, 35.5680821], [-97.4969706, 35.5680635], [-97.4968633, 35.5680646]]]}, "properties": {"osm_id": 464752414, "building": "yes", "name": "", "height": null, "height_m": null, "levels": null, "tract_id": "40109108301", "tract_name": "1083.01", "tags": {"building": "yes", "office": "yes"}}}, {"type": "Feature", "geometry": {"type": "Polygon", "coordinates": [[[-97.49676, 35.5678558], [-97.49676, 35.568074], [-97.4964234, 35.5680696], [-97.4964194, 35.5679136], [-97.4964623, 35.5679125], [-97.4964596, 35.5678427], [-97.496418, 35.5678416], [-97.4964167, 35.5676365], [-97.4964556, 35.5676354], [-97.4964529, 35.5675831], [-97.4966836, 35.5675842], [-97.4966863, 35.5678558], [-97.49676, 35.5678558]]]}, "properties": {"osm_id": 464752415, "building": "yes", "name": "", "height": null, "height_m": null, "levels": null, "tract_id": "40109108301", "tract_name": "1083.01", "tags": {"building": "yes", "office": "yes"}}}, {"type": "Feature", "geometry": {"type": "Polygon", "coordinates": [[[-97.4964623, 35.5674369], [-97.4964623, 35.5672972], [-97.4966648, 35.5672962], [-97.4966688, 35.567438], [-97.4964623, 35.5674369]]]}, "properties": {"osm_id": 464752417, "building": "yes", "name": "", "height": null, "height_m": null, "levels": null, "tract_id": "40109108301", "tract_name": "1083.01", "tags": {"building": "yes", "office": "yes"}}}, {"type": "Feature", "geometry": {"type": "Polygon", "coordinates": [[[-97.496864, 35.5671512], [-97.4972623, 35.5671544], [-97.4972597, 35.5669548], [-97.49686, 35.566957], [-97.496864, 35.5671512]]]}, "properties": {"osm_id": 464752418, "building": "yes", "name": "", "height": null, "height_m": null, "levels": null, "tract_id": "40109108301", "tract_name": "1083.01", "tags": {"building": "yes", "office": "yes"}}}, {"type": "Feature", "geometry": {"type": "Polygon", "coordinates": [[[-97.4964487, 35.5672411], [-97.4966441, 35.5672428], [-97.4966427, 35.5672286], [-97.496695, 35.5672286], [-97.4966924, 35.5671714], [-97.4966723, 35.5671719], [-97.4966723, 35.5671566], [-97.4967661, 35.5671566], [-97.4967594, 35.5669494], [-97.4966763, 35.5669504], [-97.4966776, 35.5669232], [-97.4964243, 35.5669225], [-97.4964268, 35.5669952], [-97.4964644, 35.5669952], [-97.4964659, 35.5670584], [-97.4964241, 35.5670574], [-97.4964241, 35.5672046], [-97.4964456, 35.5672045], [-97.4964487, 35.5672411]]]}, "properties": {"osm_id": 464752419, "building": "yes", "name": "", "height": null, "height_m": null, "levels": null, "tract_id": "40109108301", "tract_name": "1083.01", "tags": {"building": "yes", "office": "yes"}}}, {"type": "Feature", "geometry": {"type": "Polygon", "coordinates": [[[-97.4963774, 35.5699503], [-97.4963634, 35.5697338], [-97.4963027, 35.5697357], [-97.4963003, 35.5696692], [-97.496368, 35.5696673], [-97.496361, 35.5694983], [-97.4972133, 35.5694945], [-97.4972156, 35.5696749], [-97.497288, 35.569673], [-97.4972857, 35.5695116], [-97.4977037, 35.5695135], [-97.4977083, 35.5700529], [-97.4972927, 35.5700491], [-97.497288, 35.5697167], [-97.4972156, 35.5697186], [-97.497218, 35.5699579], [-97.4963774, 35.5699503]]]}, "properties": {"osm_id": 464752421, "building": "industrial", "name": "", "height": null, "height_m": null, "levels": null, "tract_id": "40109108301", "tract_name": "1083.01", "tags": {"building": "industrial"}}}, {"type": "Feature", "geometry": {"type": "Polygon", "coordinates": [[[-97.4985354, 35.5703116], [-97.4985339, 35.5701173], [-97.4988651, 35.5701161], [-97.4988682, 35.5703116], [-97.4985354, 35.5703116]]]}, "properties": {"osm_id": 464752423, "building": "industrial", "name": "", "height": null, "height_m": null, "levels": null, "tract_id": "40109108301", "tract_name": "1083.01", "tags": {"building": "industrial"}}}, {"type": "Feature", "geometry": {"type": "Polygon", "coordinates": [[[-97.5014513, 35.566536], [-97.5014442, 35.5662553], [-97.5016937, 35.5662539], [-97.5016937, 35.5660999], [-97.5018211, 35.5660999], [-97.5018247, 35.5662481], [-97.502083, 35.5662496], [-97.502083, 35.5665332], [-97.5014513, 35.566536]]]}, "properties": {"osm_id": 464752425, "building": "yes", "name": "", "height": null, "height_m": null, "levels": null, "tract_id": "40109108301", "tract_name": "1083.01", "tags": {"building": "yes", "office": "yes"}}}, {"type": "Feature", "geometry": {"type": "Polygon", "coordinates": [[[-97.502723, 35.5667013], [-97.5033169, 35.5666958], [-97.5033168, 35.566684], [-97.5035637, 35.5666817], [-97.5035679, 35.5669769], [-97.5031436, 35.5669808], [-97.5031445, 35.567047], [-97.5028559, 35.5670497], [-97.502855, 35.5669815], [-97.5027269, 35.5669827], [-97.502723, 35.5667013]]]}, "properties": {"osm_id": 464752426, "building": "industrial", "name": "", "height": null, "height_m": null, "levels": null, "tract_id": "40109108301", "tract_name": "1083.01", "tags": {"building": "industrial"}}}, {"type": "Feature", "geometry": {"type": "Polygon", "coordinates": [[[-97.4979295, 35.5654184], [-97.4980731, 35.5654174], [-97.4980743, 35.5650784], [-97.4977976, 35.5650765], [-97.4978046, 35.5653443], [-97.4979295, 35.5653453], [-97.4979295, 35.5654184]]]}, "properties": {"osm_id": 464752427, "building": "industrial", "name": "", "height": null, "height_m": null, "levels": null, "tract_id": "40109108301", "tract_name": "1083.01", "tags": {"building": "industrial"}}}, {"type": "Feature", "geometry": {"type": "Polygon", "coordinates": [[[-97.497438, 35.5650964], [-97.4974357, 35.5649293], [-97.4977112, 35.5649283], [-97.4977135, 35.5650822], [-97.4975793, 35.5650803], [-97.4975793, 35.5650974], [-97.497438, 35.5650964]]]}, "properties": {"osm_id": 464752428, "building": "industrial", "name": "", "height": null, "height_m": null, "levels": null, "tract_id": "40109108301", "tract_name": "1083.01", "tags": {"building": "industrial"}}}, {"type": "Feature", "geometry": {"type": "Polygon", "coordinates": [[[-97.5018786, 35.5650486], [-97.502008, 35.5648556], [-97.5019417, 35.5648242], [-97.5020296, 35.5647002], [-97.5023038, 35.564828], [-97.5020896, 35.5651475], [-97.5018786, 35.5650486]]]}, "properties": {"osm_id": 464752429, "building": "yes", "name": "", "height": null, "height_m": null, "levels": null, "tract_id": "40109108301", "tract_name": "1083.01", "tags": {"building": "yes", "office": "yes"}}}, {"type": "Feature", "geometry": {"type": "Polygon", "coordinates": [[[-97.5016521, 35.5652854], [-97.501649, 35.5650448], [-97.5017784, 35.5650435], [-97.5017784, 35.5650924], [-97.5017969, 35.5650924], [-97.5018046, 35.5652879], [-97.5016521, 35.5652854]]]}, "properties": {"osm_id": 464752431, "building": "yes", "name": "", "height": null, "height_m": null, "levels": null, "tract_id": "40109108301", "tract_name": "1083.01", "tags": {"building": "yes", "office": "yes"}}}, {"type": "Feature", "geometry": {"type": "Polygon", "coordinates": [[[-97.5014072, 35.5653343], [-97.5014041, 35.5650523], [-97.5012793, 35.5650486], [-97.5012747, 35.565333], [-97.5014072, 35.5653343]]]}, "properties": {"osm_id": 464752432, "building": "yes", "name": "", "height": null, "height_m": null, "levels": null, "tract_id": "40109108301", "tract_name": "1083.01", "tags": {"building": "yes", "office": "yes"}}}, {"type": "Feature", "geometry": {"type": "Polygon", "coordinates": [[[-97.5011992, 35.565333], [-97.5011961, 35.5651538], [-97.5010775, 35.5651551], [-97.5010806, 35.5651851], [-97.5010082, 35.5651851], [-97.5010113, 35.5652315], [-97.5008002, 35.5652303], [-97.5008033, 35.5653318], [-97.5011992, 35.565333]]]}, "properties": {"osm_id": 464752433, "building": "yes", "name": "", "height": null, "height_m": null, "levels": null, "tract_id": "40109108301", "tract_name": "1083.01", "tags": {"building": "yes", "office": "yes"}}}, {"type": "Feature", "geometry": {"type": "Polygon", "coordinates": [[[-97.499362, 35.5650427], [-97.4993626, 35.5650048], [-97.499363, 35.5649741], [-97.4995236, 35.5649733], [-97.4995275, 35.5648177], [-97.4995288, 35.5646739], [-97.4995862, 35.5646739], [-97.4995863, 35.5646498], [-97.4995863, 35.5646307], [-97.4995294, 35.5646307], [-97.4995291, 35.564565], [-97.4995283, 35.5643704], [-97.4995277, 35.5642342], [-97.4993868, 35.5642342], [-97.4993765, 35.5642342], [-97.4988881, 35.564233], [-97.4988872, 35.5641941], [-97.4986879, 35.5641968], [-97.4986897, 35.5643784], [-97.4987324, 35.5643788], [-97.4987382, 35.5647795], [-97.498739, 35.564836], [-97.4988447, 35.564836], [-97.4988487, 35.5649749], [-97.4989463, 35.5649758], [-97.4989472, 35.5650039], [-97.4989484, 35.5650444], [-97.4989749, 35.5650444], [-97.4989971, 35.5650443], [-97.4989992, 35.5649773], [-97.4990315, 35.5649775], [-97.4990331, 35.5649993], [-97.499271, 35.564999], [-97.4992718, 35.5649754], [-97.4993082, 35.5649764], [-97.4993072, 35.5650427], [-97.4993356, 35.5650427], [-97.499362, 35.5650427]]]}, "properties": {"osm_id": 464752434, "building": "yes", "name": "The People's Church", "height": null, "height_m": null, "levels": null, "tract_id": "40109108301", "tract_name": "1083.01", "tags": {"amenity": "place_of_worship", "building": "yes", "name": "The People's Church", "religion": "christian"}}}, {"type": "Feature", "geometry": {"type": "Polygon", "coordinates": [[[-97.5045843, 35.5663652], [-97.5045812, 35.5659529], [-97.5043763, 35.5659517], [-97.5043763, 35.5659367], [-97.5042053, 35.5659367], [-97.5042084, 35.566077], [-97.5043809, 35.5660783], [-97.5043825, 35.5663652], [-97.5045843, 35.5663652]]]}, "properties": {"osm_id": 464752436, "building": "industrial", "name": "", "height": null, "height_m": null, "levels": null, "tract_id": "40109108301", "tract_name": "1083.01", "tags": {"building": "industrial"}}}, {"type": "Feature", "geometry": {"type": "Polygon", "coordinates": [[[-97.5084285, 35.570035], [-97.5085139, 35.5700069], [-97.5085261, 35.5700317], [-97.5086074, 35.5700053], [-97.5085932, 35.5699821], [-97.5086643, 35.5699606], [-97.5085993, 35.5698201], [-97.5086481, 35.5698019], [-97.5086231, 35.5697518], [-97.5086094, 35.5697242], [-97.508583, 35.5697291], [-97.50852, 35.5696035], [-97.5084529, 35.5696233], [-97.5084427, 35.5695935], [-97.5083492, 35.5696184], [-97.5083614, 35.5696448], [-97.5082313, 35.5696828], [-97.5083309, 35.5698945], [-97.5083574, 35.5698879], [-97.5084285, 35.570035]]]}, "properties": {"osm_id": 464836806, "building": "yes", "name": "", "height": null, "height_m": null, "levels": null, "tract_id": "40109108301", "tract_name": "1083.01", "tags": {"building": "yes", "office": "yes"}}}, {"type": "Feature", "geometry": {"type": "Polygon", "coordinates": [[[-97.5075334, 35.5682781], [-97.5075587, 35.5680391], [-97.5075621, 35.5680063], [-97.5074625, 35.568006], [-97.507473, 35.567975], [-97.5075006, 35.5679742], [-97.5075559, 35.5679726], [-97.5075459, 35.5678666], [-97.5076019, 35.5678661], [-97.5076001, 35.5678114], [-97.5076742, 35.5678118], [-97.5077829, 35.5678124], [-97.5078643, 35.5678128], [-97.5078622, 35.5677498], [-97.508584, 35.5677509], [-97.5085777, 35.5677879], [-97.5085763, 35.5677961], [-97.508574, 35.5678102], [-97.5085486, 35.5679597], [-97.5086384, 35.5679636], [-97.5086513, 35.5680047], [-97.5085351, 35.5680058], [-97.508535, 35.5680255], [-97.5085372, 35.5680867], [-97.5085378, 35.5681027], [-97.5085398, 35.568177], [-97.5084765, 35.568177], [-97.5084762, 35.5682043], [-97.5083991, 35.5682045], [-97.508399, 35.5682233], [-97.5083982, 35.5683872], [-97.5083169, 35.5683869], [-97.5083159, 35.5682403], [-97.5082974, 35.5682402], [-97.5082805, 35.5682402], [-97.5080948, 35.5682394], [-97.5080715, 35.5682393], [-97.5079664, 35.5682389], [-97.5079664, 35.5682489], [-97.5079664, 35.5683512], [-97.5077006, 35.5683494], [-97.507701, 35.568367], [-97.5076791, 35.5683664], [-97.507678, 35.5683857], [-97.5076225, 35.5683854], [-97.5076225, 35.5683691], [-97.5075983, 35.5683685], [-97.5075983, 35.5682792], [-97.5075334, 35.5682781]]]}, "properties": {"osm_id": 464836807, "building": "yes", "name": "INTEGRIS Health Thunder Development Center.", "height": null, "height_m": null, "levels": null, "tract_id": "40109108301", "tract_name": "1083.01", "tags": {"building": "yes", "leisure": "fitness_centre", "name": "INTEGRIS Health Thunder Development Center."}}}, {"type": "Feature", "geometry": {"type": "Polygon", "coordinates": [[[-97.5130624, 35.5709978], [-97.5130614, 35.5708503], [-97.5129933, 35.5708506], [-97.5129929, 35.5707958], [-97.5129294, 35.5707961], [-97.5129292, 35.5707602], [-97.5126345, 35.5707616], [-97.5126351, 35.5708535], [-97.5125633, 35.5708539], [-97.5125643, 35.5710001], [-97.5130624, 35.5709978]]]}, "properties": {"osm_id": 464836808, "building": "yes", "name": "Pediatric ENT of Oklahoma", "height": null, "height_m": null, "levels": null, "tract_id": "40109108301", "tract_name": "1083.01", "tags": {"addr:city": "Oklahoma City", "addr:housenumber": "9900", "addr:postcode": "73114", "addr:state": "OK", "addr:street": "Broadway Extension", "building": "yes", "name": "Pediatric ENT of Oklahoma", "office": "medical"}}}, {"type": "Feature", "geometry": {"type": "Polygon", "coordinates": [[[-97.5125579, 35.5694651], [-97.5125502, 35.5694438], [-97.5125718, 35.5694375], [-97.5125194, 35.5692796], [-97.5124686, 35.5692884], [-97.5124409, 35.569202], [-97.5126011, 35.5691669], [-97.5126088, 35.5691919], [-97.5128152, 35.5691518], [-97.5128229, 35.5691894], [-97.5128876, 35.5691756], [-97.5129338, 35.5693298], [-97.5129123, 35.5693335], [-97.5129184, 35.5693511], [-97.5128214, 35.5693686], [-97.5128152, 35.5693461], [-97.5127443, 35.5693624], [-97.5127597, 35.5694062], [-97.5126735, 35.56942], [-97.5126796, 35.5694413], [-97.5125579, 35.5694651]]]}, "properties": {"osm_id": 464836809, "building": "hospital", "name": "Saints Dermatology Center of Excellence", "height": null, "height_m": null, "levels": null, "tract_id": "40109108301", "tract_name": "1083.01", "tags": {"addr:city": "Oklahoma City", "addr:housenumber": "9720", "addr:postcode": "73114", "addr:state": "OK", "addr:street": "Broadway Extension", "building": "hospital", "name": "Saints Dermatology Center of Excellence"}}}, {"type": "Feature", "geometry": {"type": "Polygon", "coordinates": [[[-97.5081566, 35.5660924], [-97.5081464, 35.5659386], [-97.5082257, 35.5659353], [-97.5082318, 35.565841], [-97.5084107, 35.5658559], [-97.5083842, 35.5659452], [-97.5087704, 35.5659403], [-97.5088579, 35.5659518], [-97.5088416, 35.566018], [-97.5087603, 35.5660047], [-97.5087603, 35.566094], [-97.5081566, 35.5660924]]]}, "properties": {"osm_id": 464836810, "building": "yes", "name": "", "height": null, "height_m": null, "levels": null, "tract_id": "40109108301", "tract_name": "1083.01", "tags": {"building": "yes", "office": "yes"}}}, {"type": "Feature", "geometry": {"type": "Polygon", "coordinates": [[[-97.5112524, 35.5665223], [-97.5112471, 35.5662851], [-97.5112469, 35.5662743], [-97.5112467, 35.5662668], [-97.5112463, 35.5662478], [-97.5112304, 35.5662476], [-97.5112078, 35.5662474], [-97.5110898, 35.5662462], [-97.5110533, 35.5662163], [-97.5110209, 35.5661897], [-97.5108902, 35.5660827], [-97.5108232, 35.5660279], [-97.5108093, 35.5660165], [-97.5107788, 35.5659915], [-97.5107539, 35.565992], [-97.510606, 35.5659948], [-97.510608, 35.5662759], [-97.5106946, 35.566347], [-97.5107084, 35.5663581], [-97.5107249, 35.5663715], [-97.510917, 35.5665272], [-97.5112524, 35.5665223]]]}, "properties": {"osm_id": 464836811, "building": "yes", "name": "One Benham Place", "height": null, "height_m": null, "levels": null, "tract_id": "40109108301", "tract_name": "1083.01", "tags": {"building": "yes", "name": "One Benham Place", "office": "yes"}}}, {"type": "Feature", "geometry": {"type": "Polygon", "coordinates": [[[-97.5120025, 35.5674747], [-97.5120066, 35.5671225], [-97.5120381, 35.5671225], [-97.512033, 35.5670142], [-97.512157, 35.567015], [-97.512159, 35.5669456], [-97.5120432, 35.5669489], [-97.5120411, 35.5668464], [-97.511478, 35.5668447], [-97.5114841, 35.5670006], [-97.5114354, 35.5670002], [-97.5114455, 35.5673854], [-97.5118521, 35.5673854], [-97.5118521, 35.5673507], [-97.5119247, 35.5673521], [-97.5119273, 35.5674764], [-97.5120025, 35.5674747]]]}, "properties": {"osm_id": 464836812, "building": "yes", "name": "Surgery Center of Oklahoma", "height": null, "height_m": null, "levels": null, "tract_id": "40109108301", "tract_name": "1083.01", "tags": {"addr:city": "Oklahoma City", "addr:housenumber": "9500", "addr:postcode": "73114", "addr:state": "OK", "addr:street": "Broadway Extension", "amenity": "clinic", "building": "yes", "healthcare": "clinic", "name": "Surgery Center of Oklahoma"}}}, {"type": "Feature", "geometry": {"type": "Polygon", "coordinates": [[[-97.5114382, 35.569392], [-97.5114783, 35.5693043], [-97.5115091, 35.5693118], [-97.5117926, 35.5687003], [-97.5118603, 35.5686802], [-97.5118141, 35.5685825], [-97.512455, 35.5683494], [-97.5123687, 35.5681715], [-97.5123163, 35.568194], [-97.5121838, 35.5679434], [-97.51215, 35.5679509], [-97.5121407, 35.5679284], [-97.5120483, 35.5679585], [-97.5119682, 35.5678156], [-97.5114629, 35.5680161], [-97.5113828, 35.5678783], [-97.5112626, 35.5679334], [-97.5106926, 35.5677529], [-97.5106834, 35.5677855], [-97.5106002, 35.5677529], [-97.5105386, 35.5678958], [-97.5106033, 35.5679108], [-97.5105909, 35.5679334], [-97.5111567, 35.5681093], [-97.5112137, 35.5682386], [-97.5112472, 35.5682241], [-97.5113111, 35.5683399], [-97.5114036, 35.5685056], [-97.5115215, 35.5686926], [-97.5112799, 35.5692315], [-97.5113127, 35.5692435], [-97.5112686, 35.5693365], [-97.5114382, 35.569392]]]}, "properties": {"osm_id": 464836813, "building": "hospital", "name": "McBride Orthopedic Hospital", "height": null, "height_m": null, "levels": null, "tract_id": "40109108301", "tract_name": "1083.01", "tags": {"addr:city": "Oklahoma City", "addr:housenumber": "9600", "addr:postcode": "73114", "addr:state": "OK", "addr:street": "Broadway Extension", "building": "hospital", "name": "McBride Orthopedic Hospital"}}}, {"type": "Feature", "geometry": {"type": "Polygon", "coordinates": [[[-97.5112644, 35.5624819], [-97.5112706, 35.5622043], [-97.5113541, 35.5622049], [-97.5113641, 35.5621966], [-97.5114499, 35.5621976], [-97.5114508, 35.5622118], [-97.5114671, 35.5622272], [-97.5113653, 35.5623125], [-97.5113671, 35.5624317], [-97.511355, 35.5624429], [-97.5113096, 35.5624444], [-97.5113108, 35.5624839], [-97.5112644, 35.5624819]]]}, "properties": {"osm_id": 464836814, "building": "yes", "name": "", "height": null, "height_m": null, "levels": null, "tract_id": "40109108301", "tract_name": "1083.01", "tags": {"building": "yes", "office": "yes"}}}, {"type": "Feature", "geometry": {"type": "Polygon", "coordinates": [[[-97.5113178, 35.5632398], [-97.5112122, 35.5632398], [-97.5108259, 35.5632398], [-97.5108252, 35.5632015], [-97.5108247, 35.5631703], [-97.5108238, 35.5631236], [-97.5108223, 35.5630383], [-97.5107551, 35.5630383], [-97.5107551, 35.5627361], [-97.5107553, 35.562695], [-97.5107554, 35.562677], [-97.5107558, 35.5626058], [-97.5108172, 35.562607], [-97.5108186, 35.5625366], [-97.5108186, 35.5624972], [-97.5108187, 35.5622663], [-97.5108188, 35.5621623], [-97.5108188, 35.5620453], [-97.5108188, 35.5620306], [-97.5110925, 35.5620332], [-97.5112134, 35.5620344], [-97.5112656, 35.5620349], [-97.5112688, 35.5621103], [-97.5112586, 35.5621208], [-97.5112587, 35.5621946], [-97.5112706, 35.5622043], [-97.5112644, 35.5624819], [-97.5113108, 35.5624839], [-97.5113109, 35.5624997], [-97.5113111, 35.5625374], [-97.5113114, 35.5625879], [-97.5113117, 35.5626558], [-97.5113178, 35.5632398]]]}, "properties": {"osm_id": 464836816, "building": "yes", "name": "", "height": null, "height_m": null, "levels": null, "tract_id": "40109108301", "tract_name": "1083.01", "tags": {"amenity": "parking", "building": "yes", "parking": "multi-storey"}}}, {"type": "Feature", "geometry": {"type": "Polygon", "coordinates": [[[-97.50932, 35.5644188], [-97.5093218, 35.5641568], [-97.5090298, 35.5641568], [-97.5090298, 35.5641827], [-97.5089307, 35.5641827], [-97.5089236, 35.5640503], [-97.5086688, 35.5640517], [-97.5086688, 35.5642417], [-97.5087219, 35.5642417], [-97.508729, 35.5643684], [-97.5088617, 35.5643684], [-97.5088599, 35.5643339], [-97.5090298, 35.5643353], [-97.5090298, 35.5644217], [-97.50932, 35.5644188]]]}, "properties": {"osm_id": 464836817, "building": "yes", "name": "Tyler Media", "height": null, "height_m": null, "levels": null, "tract_id": "40109108301", "tract_name": "1083.01", "tags": {"addr:city": "Oklahoma City", "addr:country": "US", "addr:housenumber": "400", "addr:state": "OK", "addr:street": "East Britton Road", "building": "yes", "name": "Tyler Media", "office": "telecommunication"}}}, {"type": "Feature", "geometry": {"type": "Polygon", "coordinates": [[[-97.5067793, 35.5642529], [-97.5068633, 35.5642518], [-97.5068643, 35.5639878], [-97.5070235, 35.5639886], [-97.5071263, 35.5639892], [-97.5071268, 35.5638586], [-97.5071276, 35.5636678], [-97.5076393, 35.5636745], [-97.5076401, 35.5638586], [-97.5076407, 35.5639881], [-97.5076807, 35.5639876], [-97.5076813, 35.5641371], [-97.5077813, 35.5641392], [-97.5077796, 35.5642066], [-97.5076779, 35.5642082], [-97.5076753, 35.5644092], [-97.5070334, 35.5644072], [-97.5070333, 35.5644491], [-97.5067821, 35.5644471], [-97.5067802, 35.5643164], [-97.5067793, 35.5642529]]]}, "properties": {"osm_id": 464836818, "building": "yes", "name": "KFOR", "height": null, "height_m": null, "levels": null, "tract_id": "40109108301", "tract_name": "1083.01", "tags": {"building": "yes", "name": "KFOR", "office": "yes"}}}, {"type": "Feature", "geometry": {"type": "Polygon", "coordinates": [[[-97.5061245, 35.5637371], [-97.5061222, 35.5636283], [-97.5064655, 35.5636312], [-97.5064619, 35.5637377], [-97.5061245, 35.5637371]]]}, "properties": {"osm_id": 464836819, "building": "yes", "name": "", "height": null, "height_m": null, "levels": null, "tract_id": "40109108301", "tract_name": "1083.01", "tags": {"building": "yes", "office": "yes"}}}, {"type": "Feature", "geometry": {"type": "Polygon", "coordinates": [[[-97.5077077, 35.5651916], [-97.5077898, 35.565071], [-97.5077462, 35.5650501], [-97.5078209, 35.5649371], [-97.5076773, 35.5648754], [-97.507654, 35.5649105], [-97.5076843, 35.5649235], [-97.5076341, 35.5649988], [-97.5075839, 35.5649779], [-97.5075606, 35.5650159], [-97.5073526, 35.5649214], [-97.5073586, 35.5649096], [-97.5074205, 35.5649371], [-97.5075162, 35.5647956], [-97.5072418, 35.5646674], [-97.5071391, 35.5648108], [-97.5071963, 35.5648345], [-97.5070994, 35.5649703], [-97.5071508, 35.5649912], [-97.5071368, 35.5650102], [-97.5072628, 35.5650691], [-97.5073236, 35.5649779], [-97.5073072, 35.5649694], [-97.5073201, 35.5649485], [-97.507434, 35.5649987], [-97.5074111, 35.5650292], [-97.507459, 35.5650511], [-97.5074777, 35.5650251], [-97.5075325, 35.5650492], [-97.5074975, 35.5650938], [-97.5077077, 35.5651916]]]}, "properties": {"osm_id": 464836820, "building": "yes", "name": "", "height": null, "height_m": null, "levels": null, "tract_id": "40109108301", "tract_name": "1083.01", "tags": {"building": "yes", "office": "yes"}}}, {"type": "Feature", "geometry": {"type": "Polygon", "coordinates": [[[-97.5027295, 35.559387], [-97.5027155, 35.5588267], [-97.5042402, 35.558821], [-97.5042402, 35.5593604], [-97.5042776, 35.5593604], [-97.5042823, 35.559463], [-97.5042029, 35.559463], [-97.5042046, 35.5594245], [-97.5040078, 35.5594251], [-97.5040098, 35.5593887], [-97.5027295, 35.559387]]]}, "properties": {"osm_id": 464836822, "building": "industrial", "name": "", "height": null, "height_m": null, "levels": null, "tract_id": "40109108301", "tract_name": "1083.01", "tags": {"building": "industrial"}}}, {"type": "Feature", "geometry": {"type": "Polygon", "coordinates": [[[-97.4963266, 35.5589825], [-97.4963246, 35.5589246], [-97.4962616, 35.5589263], [-97.4962555, 35.5587064], [-97.4963124, 35.558708], [-97.4963104, 35.5586468], [-97.4968938, 35.5586501], [-97.4968978, 35.5589858], [-97.4963266, 35.5589825]]]}, "properties": {"osm_id": 464836898, "building": "yes", "name": "", "height": null, "height_m": null, "levels": null, "tract_id": "40109108301", "tract_name": "1083.01", "tags": {"building": "yes", "office": "yes"}}}, {"type": "Feature", "geometry": {"type": "Polygon", "coordinates": [[[-97.4965584, 35.5597961], [-97.4965523, 35.55972], [-97.4965807, 35.5597184], [-97.4965685, 35.5594621], [-97.4965441, 35.5594621], [-97.4965441, 35.5593827], [-97.4963287, 35.559381], [-97.4963327, 35.5595233], [-97.4962433, 35.5595233], [-97.4962494, 35.5596126], [-97.4963266, 35.5596142], [-97.4963348, 35.5598011], [-97.4965584, 35.5597961]]]}, "properties": {"osm_id": 464836899, "building": "yes", "name": "", "height": null, "height_m": null, "levels": null, "tract_id": "40109108301", "tract_name": "1083.01", "tags": {"building": "yes", "office": "yes"}}}, {"type": "Feature", "geometry": {"type": "Polygon", "coordinates": [[[-97.4986858, 35.5586959], [-97.4986827, 35.5585793], [-97.4989292, 35.5585819], [-97.4989292, 35.5587009], [-97.4986858, 35.5586959]]]}, "properties": {"osm_id": 464836900, "building": "yes", "name": "", "height": null, "height_m": null, "levels": null, "tract_id": "40109108301", "tract_name": "1083.01", "tags": {"building": "yes"}}}, {"type": "Feature", "geometry": {"type": "Polygon", "coordinates": [[[-97.4971041, 35.5586459], [-97.4971088, 35.5585538], [-97.4972874, 35.5585661], [-97.4972816, 35.5586583], [-97.4971041, 35.5586459]]]}, "properties": {"osm_id": 464836901, "building": "yes", "name": "", "height": null, "height_m": null, "levels": null, "tract_id": "40109108301", "tract_name": "1083.01", "tags": {"building": "yes"}}}, {"type": "Feature", "geometry": {"type": "Polygon", "coordinates": [[[-97.5123143, 35.5797521], [-97.5123179, 35.5795895], [-97.5119498, 35.5795909], [-97.5119525, 35.579642], [-97.5119799, 35.579642], [-97.5119817, 35.579696], [-97.5119507, 35.5796953], [-97.5119507, 35.5797521], [-97.5123143, 35.5797521]]]}, "properties": {"osm_id": 470056872, "building": "yes", "name": "Sizemore Law, PLLC", "height": null, "height_m": null, "levels": null, "tract_id": "40109108301", "tract_name": "1083.01", "tags": {"addr:city": "Oklahoma City", "addr:housenumber": "128", "addr:postcode": "73114", "addr:state": "OK", "addr:street": "East Hefner Road", "building": "yes", "name": "Sizemore Law, PLLC", "office": "lawyer"}}}, {"type": "Feature", "geometry": {"type": "Polygon", "coordinates": [[[-97.5111224, 35.5685738], [-97.511136, 35.5685432], [-97.5111613, 35.5685514], [-97.5111682, 35.568537], [-97.5112464, 35.5685618], [-97.5114036, 35.5685056], [-97.5113111, 35.5683399], [-97.5112608, 35.5683436], [-97.5109479, 35.5682339], [-97.5108247, 35.5681907], [-97.5107599, 35.5683308], [-97.5108922, 35.5683691], [-97.5110314, 35.5684094], [-97.5109962, 35.5685026], [-97.5110664, 35.5685241], [-97.5110539, 35.5685569], [-97.5111224, 35.5685738]]]}, "properties": {"osm_id": 541790835, "building": "hospital", "name": "", "height": null, "height_m": null, "levels": null, "tract_id": "40109108301", "tract_name": "1083.01", "tags": {"building": "hospital"}}}, {"type": "Feature", "geometry": {"type": "Polygon", "coordinates": [[[-97.5112517, 35.5686099], [-97.5111224, 35.5685738], [-97.5110539, 35.5685569], [-97.5110464, 35.5685755], [-97.5107665, 35.5684903], [-97.5105259, 35.5690004], [-97.510721, 35.5690607], [-97.5106926, 35.5691233], [-97.5105975, 35.5690926], [-97.5105876, 35.569114], [-97.5105763, 35.5691108], [-97.510539, 35.5691908], [-97.5105162, 35.5692396], [-97.5106145, 35.5692695], [-97.5106392, 35.5692164], [-97.5106663, 35.5691582], [-97.5108233, 35.5692081], [-97.5109546, 35.5692468], [-97.5109712, 35.569212], [-97.5110048, 35.5692223], [-97.5110349, 35.5691553], [-97.5111512, 35.5691902], [-97.5113569, 35.5687546], [-97.5112093, 35.5687129], [-97.5112517, 35.5686099]]]}, "properties": {"osm_id": 541790836, "building": "hospital", "name": "", "height": null, "height_m": null, "levels": null, "tract_id": "40109108301", "tract_name": "1083.01", "tags": {"building": "hospital"}}}, {"type": "Feature", "geometry": {"type": "Polygon", "coordinates": [[[-97.4853064, 35.5598333], [-97.4856858, 35.5598314], [-97.4856875, 35.5600518], [-97.4855239, 35.5600526], [-97.4855249, 35.5601868], [-97.4853091, 35.5601879], [-97.4853064, 35.5598333]]]}, "properties": {"osm_id": 562919602, "building": "yes", "name": "", "height": null, "height_m": null, "levels": null, "tract_id": "40109108301", "tract_name": "1083.01", "tags": {"building": "yes"}}}, {"type": "Feature", "geometry": {"type": "Polygon", "coordinates": [[[-97.5113193, 35.563559], [-97.5115491, 35.563559], [-97.5115463, 35.5636345], [-97.5116142, 35.5636345], [-97.5116156, 35.5635568], [-97.5119603, 35.5635523], [-97.5119602, 35.5635417], [-97.5119598, 35.5634987], [-97.5119534, 35.5627346], [-97.5118718, 35.5627356], [-97.5118048, 35.5627364], [-97.5116818, 35.5627378], [-97.5116448, 35.5627383], [-97.5116071, 35.5627387], [-97.5113913, 35.5627413], [-97.5113871, 35.5626557], [-97.5113117, 35.5626558], [-97.5113178, 35.5632398], [-97.5112122, 35.5632398], [-97.5112125, 35.5633002], [-97.5112128, 35.5633427], [-97.511213, 35.5633864], [-97.5112131, 35.5634075], [-97.5112124, 35.5634222], [-97.5113194, 35.5634221], [-97.5113193, 35.5635133], [-97.5113193, 35.563559]]]}, "properties": {"osm_id": 589040143, "building": "yes", "name": "", "height": null, "height_m": null, "levels": null, "tract_id": "40109108301", "tract_name": "1083.01", "tags": {"amenity": "parking", "building": "yes", "parking": "multi-storey"}}}, {"type": "Feature", "geometry": {"type": "Polygon", "coordinates": [[[-97.5099494, 35.5632078], [-97.509844, 35.5632075], [-97.5098224, 35.5632074], [-97.5098018, 35.5632073], [-97.5097078, 35.563207], [-97.5097069, 35.5629192], [-97.5098008, 35.5629189], [-97.5098203, 35.5629188], [-97.5098396, 35.5629188], [-97.5099466, 35.5629184], [-97.5099468, 35.5629413], [-97.5099472, 35.5629776], [-97.5099483, 35.5630935], [-97.5099484, 35.5631022], [-97.5099485, 35.5631111], [-97.5099494, 35.5632078]]]}, "properties": {"osm_id": 589040184, "building": "yes", "name": "", "height": null, "height_m": null, "levels": null, "tract_id": "40109108301", "tract_name": "1083.01", "tags": {"building": "yes"}}}, {"type": "Feature", "geometry": {"type": "Polygon", "coordinates": [[[-97.5113671, 35.5624317], [-97.5115665, 35.5622771], [-97.5115338, 35.5622766], [-97.5114671, 35.5622272], [-97.5113653, 35.5623125], [-97.5113671, 35.5624317]]]}, "properties": {"osm_id": 589040224, "building": "yes", "name": "", "height": null, "height_m": null, "levels": null, "tract_id": "40109108301", "tract_name": "1083.01", "tags": {"building": "yes", "office": "yes"}}}, {"type": "Feature", "geometry": {"type": "Polygon", "coordinates": [[[-97.5115665, 35.5622771], [-97.511649, 35.5622102], [-97.5118403, 35.562055], [-97.5118401, 35.5620402], [-97.5118398, 35.562021], [-97.5117593, 35.5619586], [-97.5117233, 35.5619586], [-97.5116452, 35.5620241], [-97.5115685, 35.5619616], [-97.5115362, 35.5619628], [-97.5114593, 35.5620252], [-97.5113785, 35.5619607], [-97.5113442, 35.5619611], [-97.5113177, 35.5619822], [-97.5112658, 35.5620236], [-97.5112656, 35.5620349], [-97.5112688, 35.5621103], [-97.5112586, 35.5621208], [-97.5112587, 35.5621946], [-97.5112706, 35.5622043], [-97.5113541, 35.5622049], [-97.5113641, 35.5621966], [-97.5114499, 35.5621976], [-97.5114508, 35.5622118], [-97.5114671, 35.5622272], [-97.5115338, 35.5622766], [-97.5115665, 35.5622771]]]}, "properties": {"osm_id": 589040226, "building": "yes", "name": "", "height": null, "height_m": null, "levels": null, "tract_id": "40109108301", "tract_name": "1083.01", "tags": {"building": "yes", "office": "yes"}}}, {"type": "Feature", "geometry": {"type": "Polygon", "coordinates": [[[-97.5117593, 35.5619586], [-97.5117465, 35.5619485], [-97.5117285, 35.5619341], [-97.5116658, 35.5618844], [-97.5114401, 35.5618844], [-97.5113442, 35.5619611], [-97.5113785, 35.5619607], [-97.5114593, 35.5620252], [-97.5115362, 35.5619628], [-97.5115685, 35.5619616], [-97.5116452, 35.5620241], [-97.5117233, 35.5619586], [-97.5117593, 35.5619586]]]}, "properties": {"osm_id": 589040230, "building": "yes", "name": "", "height": null, "height_m": null, "levels": null, "tract_id": "40109108301", "tract_name": "1083.01", "tags": {"building": "yes", "office": "yes"}}}, {"type": "Feature", "geometry": {"type": "Polygon", "coordinates": [[[-97.5116658, 35.5618844], [-97.511648, 35.5618706], [-97.5115515, 35.5617959], [-97.5114401, 35.5618844], [-97.5116658, 35.5618844]]]}, "properties": {"osm_id": 589040234, "building": "yes", "name": "", "height": null, "height_m": null, "levels": null, "tract_id": "40109108301", "tract_name": "1083.01", "tags": {"building": "yes", "office": "yes"}}}, {"type": "Feature", "geometry": {"type": "Polygon", "coordinates": [[[-97.5117465, 35.5619485], [-97.5117707, 35.5619282], [-97.5118244, 35.5618831], [-97.5119274, 35.5618816], [-97.5120243, 35.5619574], [-97.5120243, 35.5620382], [-97.5118401, 35.5620402], [-97.5118398, 35.562021], [-97.5117593, 35.5619586], [-97.5117465, 35.5619485]]]}, "properties": {"osm_id": 589040237, "building": "yes", "name": "", "height": null, "height_m": null, "levels": null, "tract_id": "40109108301", "tract_name": "1083.01", "tags": {"building": "yes", "office": "yes"}}}, {"type": "Feature", "geometry": {"type": "Polygon", "coordinates": [[[-97.5109958, 35.5698129], [-97.5110642, 35.5698125], [-97.5113899, 35.5698107], [-97.5113913, 35.570064], [-97.5115928, 35.5700608], [-97.5115919, 35.5698782], [-97.5117779, 35.5698779], [-97.5117762, 35.5698065], [-97.5122166, 35.5698023], [-97.5122155, 35.5698399], [-97.5123423, 35.5698417], [-97.5123413, 35.5698719], [-97.5124639, 35.5698708], [-97.5124646, 35.5699908], [-97.5125389, 35.5699917], [-97.5125656, 35.5700167], [-97.5125653, 35.570114], [-97.5124866, 35.5701125], [-97.5124872, 35.5701944], [-97.5124748, 35.5702155], [-97.5126392, 35.5702166], [-97.5126439, 35.5702909], [-97.5124728, 35.5702896], [-97.5124972, 35.5703386], [-97.5123466, 35.5703381], [-97.5121895, 35.5703372], [-97.5121906, 35.5703912], [-97.5119757, 35.5703908], [-97.5119755, 35.5703355], [-97.5115786, 35.5703382], [-97.5115766, 35.5702781], [-97.5113869, 35.5702808], [-97.5113856, 35.5702296], [-97.5112017, 35.5702308], [-97.5112024, 35.57029], [-97.5111014, 35.5702907], [-97.5111006, 35.5702361], [-97.5110866, 35.5702141], [-97.5110771, 35.5701926], [-97.5110781, 35.5701677], [-97.5110883, 35.5701485], [-97.5111036, 35.5701293], [-97.5111739, 35.5701291], [-97.5111722, 35.5698934], [-97.5110666, 35.5698917], [-97.5109981, 35.5698906], [-97.5109958, 35.5698129]]]}, "properties": {"osm_id": 666777340, "building": "hospital", "name": "Community Hospital North", "height": null, "height_m": null, "levels": null, "tract_id": "40109108301", "tract_name": "1083.01", "tags": {"addr:city": "Oklahoma City", "addr:housenumber": "9800", "addr:postcode": "73114", "addr:state": "OK", "addr:street": "North Broadway Extension", "building": "hospital", "layer": "1", "name": "Community Hospital North"}}}, {"type": "Feature", "geometry": {"type": "Polygon", "coordinates": [[[-97.4947794, 35.5651069], [-97.4944377, 35.5651045], [-97.4944392, 35.5648045], [-97.4947779, 35.5648069], [-97.4947794, 35.5651069]]]}, "properties": {"osm_id": 670081825, "building": "yes", "name": "", "height": null, "height_m": null, "levels": null, "tract_id": "40109108301", "tract_name": "1083.01", "tags": {"building": "yes", "office": "yes"}}}, {"type": "Feature", "geometry": {"type": "Polygon", "coordinates": [[[-97.4947436, 35.5645708], [-97.4947751, 35.5645208], [-97.4948666, 35.5645627], [-97.4948137, 35.5646348], [-97.4948423, 35.5646487], [-97.4947937, 35.5647127], [-97.4947637, 35.5647011], [-97.4947293, 35.5647545], [-97.494625, 35.564708], [-97.4945907, 35.5647534], [-97.4944721, 35.5647022], [-97.4945021, 35.5646592], [-97.4944034, 35.5646162], [-97.4945264, 35.5644359], [-97.4945993, 35.5644708], [-97.4945807, 35.5644987], [-97.4947436, 35.5645708]]]}, "properties": {"osm_id": 670081826, "building": "yes", "name": "", "height": null, "height_m": null, "levels": null, "tract_id": "40109108301", "tract_name": "1083.01", "tags": {"building": "yes", "office": "yes"}}}, {"type": "Feature", "geometry": {"type": "Polygon", "coordinates": [[[-97.494615, 35.5644952], [-97.4947436, 35.5645511], [-97.4947779, 35.5645022], [-97.4946507, 35.5644418], [-97.494615, 35.5644952]]]}, "properties": {"osm_id": 670081827, "building": "roof", "name": "", "height": null, "height_m": null, "levels": null, "tract_id": "40109108301", "tract_name": "1083.01", "tags": {"building": "roof"}}}, {"type": "Feature", "geometry": {"type": "Polygon", "coordinates": [[[-97.494695, 35.5643871], [-97.4947322, 35.5643301], [-97.4948666, 35.5643941], [-97.4948265, 35.5644499], [-97.494695, 35.5643871]]]}, "properties": {"osm_id": 670081828, "building": "roof", "name": "", "height": null, "height_m": null, "levels": null, "tract_id": "40109108301", "tract_name": "1083.01", "tags": {"building": "roof"}}}, {"type": "Feature", "geometry": {"type": "Polygon", "coordinates": [[[-97.4948108, 35.5643511], [-97.4949695, 35.5644266], [-97.4949938, 35.5643883], [-97.4950195, 35.5643987], [-97.4950853, 35.5643011], [-97.4950595, 35.5642918], [-97.4950853, 35.5642569], [-97.4949237, 35.5641801], [-97.4948108, 35.5643511]]]}, "properties": {"osm_id": 670081829, "building": "yes", "name": "", "height": null, "height_m": null, "levels": null, "tract_id": "40109108301", "tract_name": "1083.01", "tags": {"building": "yes", "office": "yes"}}}, {"type": "Feature", "geometry": {"type": "Polygon", "coordinates": [[[-97.494788, 35.5643406], [-97.494615, 35.5642615], [-97.4947251, 35.5640999], [-97.494898, 35.564172], [-97.494788, 35.5643406]]]}, "properties": {"osm_id": 670081830, "building": "yes", "name": "", "height": null, "height_m": null, "levels": null, "tract_id": "40109108301", "tract_name": "1083.01", "tags": {"building": "yes", "office": "yes"}}}, {"type": "Feature", "geometry": {"type": "Polygon", "coordinates": [[[-97.4948251, 35.5638569], [-97.4947093, 35.5638918], [-97.4946779, 35.5638127], [-97.4946479, 35.5638185], [-97.4946093, 35.5637348], [-97.4946364, 35.5637266], [-97.4945964, 35.5636499], [-97.4947122, 35.563615], [-97.4947479, 35.5636929], [-97.4947837, 35.5636801], [-97.494828, 35.563765], [-97.494788, 35.5637766], [-97.4948251, 35.5638569]]]}, "properties": {"osm_id": 670081831, "building": "yes", "name": "", "height": null, "height_m": null, "levels": null, "tract_id": "40109108301", "tract_name": "1083.01", "tags": {"building": "yes", "office": "yes"}}}, {"type": "Feature", "geometry": {"type": "Polygon", "coordinates": [[[-97.4946779, 35.5635371], [-97.4945092, 35.5635929], [-97.4944478, 35.5634755], [-97.4944549, 35.5634511], [-97.4943963, 35.5634406], [-97.4944263, 35.5632999], [-97.4944863, 35.5633092], [-97.4944921, 35.5632825], [-97.4946665, 35.5633115], [-97.4946522, 35.563372], [-97.4946793, 35.5633755], [-97.4946622, 35.5634464], [-97.4946179, 35.5634406], [-97.4946779, 35.5635371]]]}, "properties": {"osm_id": 670081832, "building": "yes", "name": "", "height": null, "height_m": null, "levels": null, "tract_id": "40109108301", "tract_name": "1083.01", "tags": {"building": "yes", "office": "yes"}}}, {"type": "Feature", "geometry": {"type": "Polygon", "coordinates": [[[-97.4946736, 35.5632569], [-97.4944721, 35.5632232], [-97.4945035, 35.5630778], [-97.4947236, 35.5631115], [-97.4947122, 35.5631627], [-97.4947251, 35.563165], [-97.4947122, 35.5632232], [-97.4946793, 35.5632185], [-97.4946736, 35.5632569]]]}, "properties": {"osm_id": 670081833, "building": "yes", "name": "", "height": null, "height_m": null, "levels": null, "tract_id": "40109108301", "tract_name": "1083.01", "tags": {"building": "yes", "office": "yes"}}}, {"type": "Feature", "geometry": {"type": "Polygon", "coordinates": [[[-97.4946979, 35.5630999], [-97.4945421, 35.5630755], [-97.494555, 35.5630162], [-97.4947093, 35.5630406], [-97.4946979, 35.5630999]]]}, "properties": {"osm_id": 670081834, "building": "roof", "name": "", "height": null, "height_m": null, "levels": null, "tract_id": "40109108301", "tract_name": "1083.01", "tags": {"building": "roof"}}}, {"type": "Feature", "geometry": {"type": "Polygon", "coordinates": [[[-97.4947608, 35.5629139], [-97.4945507, 35.5628778], [-97.4945621, 35.5628255], [-97.4945435, 35.5628208], [-97.4945621, 35.5627336], [-97.494585, 35.5627371], [-97.4945936, 35.5626906], [-97.4947065, 35.562708], [-97.494695, 35.5627569], [-97.4947922, 35.5627732], [-97.4947837, 35.5628069], [-97.4948051, 35.5628104], [-97.4947894, 35.5628801], [-97.4947679, 35.5628766], [-97.4947608, 35.5629139]]]}, "properties": {"osm_id": 670081835, "building": "yes", "name": "", "height": null, "height_m": null, "levels": null, "tract_id": "40109108301", "tract_name": "1083.01", "tags": {"building": "yes", "office": "yes"}}}, {"type": "Feature", "geometry": {"type": "Polygon", "coordinates": [[[-97.4948237, 35.5626987], [-97.494555, 35.5626546], [-97.4945893, 35.562515], [-97.4948551, 35.562558], [-97.4948437, 35.5625953], [-97.4948666, 35.5625987], [-97.4948523, 35.5626604], [-97.4948308, 35.5626569], [-97.4948237, 35.5626987]]]}, "properties": {"osm_id": 670081836, "building": "yes", "name": "", "height": null, "height_m": null, "levels": null, "tract_id": "40109108301", "tract_name": "1083.01", "tags": {"building": "yes", "office": "yes"}}}, {"type": "Feature", "geometry": {"type": "Polygon", "coordinates": [[[-97.4946007, 35.5625092], [-97.4947565, 35.5625336], [-97.4947679, 35.562479], [-97.4946093, 35.5624546], [-97.4946007, 35.5625092]]]}, "properties": {"osm_id": 670081837, "building": "roof", "name": "", "height": null, "height_m": null, "levels": null, "tract_id": "40109108301", "tract_name": "1083.01", "tags": {"building": "roof"}}}, {"type": "Feature", "geometry": {"type": "Polygon", "coordinates": [[[-97.4951664, 35.5624496], [-97.4950726, 35.5624486], [-97.4950739, 35.5624647], [-97.495006, 35.5624657], [-97.4950072, 35.5624486], [-97.4949221, 35.5624476], [-97.4949221, 35.5623974], [-97.4948777, 35.5623964], [-97.4948789, 35.5623], [-97.495022, 35.5623], [-97.495022, 35.56229], [-97.4951529, 35.562293], [-97.4951541, 35.5623924], [-97.4951652, 35.5623924], [-97.4951664, 35.5624496]]]}, "properties": {"osm_id": 670081838, "building": "yes", "name": "", "height": null, "height_m": null, "levels": null, "tract_id": "40109108301", "tract_name": "1083.01", "tags": {"building": "yes", "office": "yes"}}}, {"type": "Feature", "geometry": {"type": "Polygon", "coordinates": [[[-97.4950899, 35.5622237], [-97.4948752, 35.5622227], [-97.4948764, 35.5622097], [-97.4948308, 35.5622107], [-97.4948308, 35.5620812], [-97.4948727, 35.5620822], [-97.4948727, 35.5620691], [-97.4950899, 35.5620701], [-97.4950911, 35.5621033], [-97.4951195, 35.5621033], [-97.4951171, 35.5621876], [-97.4950887, 35.5621866], [-97.4950899, 35.5622237]]]}, "properties": {"osm_id": 670081839, "building": "yes", "name": "", "height": null, "height_m": null, "levels": null, "tract_id": "40109108301", "tract_name": "1083.01", "tags": {"building": "yes", "office": "yes"}}}, {"type": "Feature", "geometry": {"type": "Polygon", "coordinates": [[[-97.4956588, 35.5634866], [-97.4954145, 35.5634856], [-97.4954157, 35.5633983], [-97.4954305, 35.5633993], [-97.4954293, 35.5633401], [-97.495454, 35.5633401], [-97.495454, 35.5633119], [-97.4956452, 35.563314], [-97.4956452, 35.5633461], [-97.4956588, 35.5633471], [-97.4956588, 35.5634866]]]}, "properties": {"osm_id": 670081840, "building": "yes", "name": "", "height": null, "height_m": null, "levels": null, "tract_id": "40109108301", "tract_name": "1083.01", "tags": {"building": "yes", "office": "yes"}}}, {"type": "Feature", "geometry": {"type": "Polygon", "coordinates": [[[-97.4949788, 35.5631553], [-97.4951442, 35.5631553], [-97.4951417, 35.5636894], [-97.4949801, 35.5636904], [-97.4949801, 35.5635569], [-97.4950035, 35.5635579], [-97.4950023, 35.5634967], [-97.4949591, 35.5634957], [-97.4949603, 35.5633501], [-97.4950011, 35.5633511], [-97.4950011, 35.5632899], [-97.4949801, 35.5632889], [-97.4949788, 35.5631553]]]}, "properties": {"osm_id": 670081841, "building": "yes", "name": "", "height": null, "height_m": null, "levels": null, "tract_id": "40109108301", "tract_name": "1083.01", "tags": {"building": "yes", "office": "yes"}}}, {"type": "Feature", "geometry": {"type": "Polygon", "coordinates": [[[-97.4956341, 35.5641452], [-97.4954564, 35.5641452], [-97.4954577, 35.564107], [-97.4954404, 35.564108], [-97.4954404, 35.5640699], [-97.4954169, 35.5640699], [-97.4954169, 35.5640126], [-97.4954404, 35.5640126], [-97.4954392, 35.5639775], [-97.4954577, 35.5639785], [-97.4954577, 35.5639394], [-97.4956354, 35.5639384], [-97.4956354, 35.5639835], [-97.4956526, 35.5639835], [-97.4956514, 35.5640147], [-97.4956773, 35.5640157], [-97.4956761, 35.5640689], [-97.4956502, 35.5640679], [-97.4956502, 35.564103], [-97.4956329, 35.564103], [-97.4956341, 35.5641452]]]}, "properties": {"osm_id": 670081842, "building": "yes", "name": "", "height": null, "height_m": null, "levels": null, "tract_id": "40109108301", "tract_name": "1083.01", "tags": {"building": "yes", "office": "yes"}}}, {"type": "Feature", "geometry": {"type": "Polygon", "coordinates": [[[-97.4956724, 35.5643459], [-97.4954404, 35.5643429], [-97.4954416, 35.564359], [-97.4954095, 35.564357], [-97.4954083, 35.5645577], [-97.4954527, 35.5645598], [-97.4954503, 35.564613], [-97.4955638, 35.564613], [-97.4955638, 35.564625], [-97.4956699, 35.564625], [-97.4956724, 35.5643459]]]}, "properties": {"osm_id": 670081843, "building": "yes", "name": "", "height": null, "height_m": null, "levels": null, "tract_id": "40109108301", "tract_name": "1083.01", "tags": {"building": "yes", "office": "yes"}}}, {"type": "Feature", "geometry": {"type": "Polygon", "coordinates": [[[-97.4956058, 35.5643379], [-97.495449, 35.5643369], [-97.495449, 35.5642797], [-97.495607, 35.5642817], [-97.4956058, 35.5643379]]]}, "properties": {"osm_id": 670081844, "building": "roof", "name": "", "height": null, "height_m": null, "levels": null, "tract_id": "40109108301", "tract_name": "1083.01", "tags": {"building": "roof"}}}, {"type": "Feature", "geometry": {"type": "Polygon", "coordinates": [[[-97.4947273, 35.5629774], [-97.4945748, 35.5629532], [-97.4945885, 35.5628935], [-97.4947387, 35.5629196], [-97.4947273, 35.5629774]]]}, "properties": {"osm_id": 670081862, "building": "roof", "name": "", "height": null, "height_m": null, "levels": null, "tract_id": "40109108301", "tract_name": "1083.01", "tags": {"building": "roof"}}}, {"type": "Feature", "geometry": {"type": "Polygon", "coordinates": [[[-97.4956159, 35.5633021], [-97.4954515, 35.5632985], [-97.4954537, 35.5632316], [-97.4956136, 35.5632316], [-97.4956159, 35.5633021]]]}, "properties": {"osm_id": 670081863, "building": "roof", "name": "", "height": null, "height_m": null, "levels": null, "tract_id": "40109108301", "tract_name": "1083.01", "tags": {"building": "roof"}}}, {"type": "Feature", "geometry": {"type": "Polygon", "coordinates": [[[-97.4976123, 35.5674589], [-97.4973647, 35.5674589], [-97.4973681, 35.5678143], [-97.4975768, 35.5678143], [-97.4975779, 35.5677937], [-97.4976192, 35.5677947], [-97.4976192, 35.5677033], [-97.497641, 35.5677033], [-97.4976398, 35.5676594], [-97.4976192, 35.5676585], [-97.4976192, 35.5676501], [-97.497649, 35.5676501], [-97.4976467, 35.5675634], [-97.4976123, 35.5675634], [-97.4976123, 35.5674589]]]}, "properties": {"osm_id": 671287284, "building": "yes", "name": "", "height": null, "height_m": null, "levels": null, "tract_id": "40109108301", "tract_name": "1083.01", "tags": {"building": "yes", "office": "yes"}}}, {"type": "Feature", "geometry": {"type": "Polygon", "coordinates": [[[-97.497642, 35.5681023], [-97.4974301, 35.5681016], [-97.4974311, 35.5681569], [-97.497643, 35.5681569], [-97.497642, 35.5681023]]]}, "properties": {"osm_id": 671287287, "building": "roof", "name": "", "height": null, "height_m": null, "levels": null, "tract_id": "40109108301", "tract_name": "1083.01", "tags": {"building": "roof"}}}, {"type": "Feature", "geometry": {"type": "Polygon", "coordinates": [[[-97.4980969, 35.5675748], [-97.4980269, 35.5675748], [-97.4980291, 35.5674022], [-97.498098, 35.5674031], [-97.4980969, 35.5675748]]]}, "properties": {"osm_id": 671287289, "building": "roof", "name": "", "height": null, "height_m": null, "levels": null, "tract_id": "40109108301", "tract_name": "1083.01", "tags": {"building": "roof"}}}, {"type": "Feature", "geometry": {"type": "Polygon", "coordinates": [[[-97.4977395, 35.566131], [-97.4976718, 35.5661303], [-97.4976718, 35.5659694], [-97.4977395, 35.5659701], [-97.4977395, 35.566131]]]}, "properties": {"osm_id": 671287295, "building": "roof", "name": "", "height": null, "height_m": null, "levels": null, "tract_id": "40109108301", "tract_name": "1083.01", "tags": {"building": "roof"}}}, {"type": "Feature", "geometry": {"type": "Polygon", "coordinates": [[[-97.4975898, 35.566131], [-97.4975203, 35.5661303], [-97.4975221, 35.5659694], [-97.4975898, 35.5659687], [-97.4975898, 35.566131]]]}, "properties": {"osm_id": 671287297, "building": "roof", "name": "", "height": null, "height_m": null, "levels": null, "tract_id": "40109108301", "tract_name": "1083.01", "tags": {"building": "roof"}}}, {"type": "Feature", "geometry": {"type": "Polygon", "coordinates": [[[-97.5008122, 35.5670101], [-97.5007179, 35.5670096], [-97.5007179, 35.567022], [-97.5006236, 35.567022], [-97.5006243, 35.5670096], [-97.5005293, 35.5670096], [-97.5005293, 35.566605], [-97.5006236, 35.5666055], [-97.5006229, 35.5665931], [-97.5007159, 35.5665926], [-97.5007159, 35.5666055], [-97.5008102, 35.566605], [-97.5008122, 35.5670101]]]}, "properties": {"osm_id": 671287298, "building": "yes", "name": "", "height": null, "height_m": null, "levels": null, "tract_id": "40109108301", "tract_name": "1083.01", "tags": {"building": "yes", "office": "yes"}}}, {"type": "Feature", "geometry": {"type": "Polygon", "coordinates": [[[-97.4999809, 35.5577196], [-97.4999021, 35.557726], [-97.4998942, 35.5576614], [-97.4999307, 35.5576584], [-97.499973, 35.557655], [-97.4999809, 35.5577196]]]}, "properties": {"osm_id": 685921001, "building": "roof", "name": "", "height": null, "height_m": null, "levels": null, "tract_id": "40109108301", "tract_name": "1083.01", "tags": {"building": "roof"}}}, {"type": "Feature", "geometry": {"type": "Polygon", "coordinates": [[[-97.4920513, 35.5797169], [-97.4920469, 35.5793519], [-97.4917754, 35.5793541], [-97.4917733, 35.5791786], [-97.4920094, 35.5791767], [-97.4920095, 35.5791894], [-97.4920532, 35.5791891], [-97.4920501, 35.5789336], [-97.4922067, 35.5789323], [-97.4922107, 35.5792611], [-97.4921687, 35.5792614], [-97.4921695, 35.5793225], [-97.4922098, 35.5793222], [-97.4922141, 35.5796622], [-97.4921522, 35.5796628], [-97.4921529, 35.579716], [-97.4920513, 35.5797169]]]}, "properties": {"osm_id": 757755647, "building": "yes", "name": "", "height": null, "height_m": null, "levels": null, "tract_id": "40109108301", "tract_name": "1083.01", "tags": {"building": "yes"}}}, {"type": "Feature", "geometry": {"type": "Polygon", "coordinates": [[[-97.5130057, 35.5574281], [-97.5124509, 35.5574219], [-97.5124546, 35.5572025], [-97.5123784, 35.5572016], [-97.5123796, 35.5571334], [-97.5124344, 35.557134], [-97.5124355, 35.5570682], [-97.5124626, 35.5570685], [-97.5124641, 35.556981], [-97.5124383, 35.5569807], [-97.512441, 35.5568207], [-97.5130158, 35.5568271], [-97.5130057, 35.5574281]]]}, "properties": {"osm_id": 763219708, "building": "yes", "name": "Flix Brewhouse", "height": null, "height_m": null, "levels": null, "tract_id": "40109108301", "tract_name": "1083.01", "tags": {"addr:city": "Oklahoma City", "addr:housenumber": "8450", "addr:postcode": "73114", "addr:state": "OK", "addr:street": "Broadway Extension", "amenity": "cinema", "building": "yes", "contact:facebook": "FlixBrewhouseOKC", "contact:instagram": "flixbrewhouse", "name": "Flix Brewhouse", "phone": "+1 405 766 5900", "website": "https://www.flixbrewhouse.com/oklahoma-city"}}}, {"type": "Feature", "geometry": {"type": "Polygon", "coordinates": [[[-97.5059366, 35.564406], [-97.5057256, 35.5644041], [-97.5057279, 35.5643053], [-97.5058171, 35.5643045], [-97.5059061, 35.5643037], [-97.5059389, 35.5643034], [-97.5059389, 35.5643463], [-97.5059366, 35.564406]]]}, "properties": {"osm_id": 763230827, "building": "yes", "name": "", "height": null, "height_m": null, "levels": null, "tract_id": "40109108301", "tract_name": "1083.01", "tags": {"building": "yes"}}}, {"type": "Feature", "geometry": {"type": "Polygon", "coordinates": [[[-97.5064649, 35.5643227], [-97.5063472, 35.5643227], [-97.5063461, 35.5642494], [-97.5064649, 35.5642502], [-97.5064649, 35.5643227]]]}, "properties": {"osm_id": 763230829, "building": "carport", "name": "", "height": null, "height_m": null, "levels": null, "tract_id": "40109108301", "tract_name": "1083.01", "tags": {"building": "carport"}}}, {"type": "Feature", "geometry": {"type": "Polygon", "coordinates": [[[-97.5063472, 35.5643227], [-97.5062603, 35.5643218], [-97.5062592, 35.5642485], [-97.5063461, 35.5642494], [-97.5063472, 35.5643227]]]}, "properties": {"osm_id": 763230830, "building": "carport", "name": "", "height": null, "height_m": null, "levels": null, "tract_id": "40109108301", "tract_name": "1083.01", "tags": {"building": "carport"}}}, {"type": "Feature", "geometry": {"type": "Polygon", "coordinates": [[[-97.5062603, 35.5643218], [-97.5061701, 35.5643218], [-97.5061701, 35.5642476], [-97.5062592, 35.5642485], [-97.5062603, 35.5643218]]]}, "properties": {"osm_id": 763230831, "building": "carport", "name": "", "height": null, "height_m": null, "levels": null, "tract_id": "40109108301", "tract_name": "1083.01", "tags": {"building": "carport"}}}, {"type": "Feature", "geometry": {"type": "Polygon", "coordinates": [[[-97.5061701, 35.5643218], [-97.5060755, 35.5643205], [-97.5060755, 35.5642462], [-97.5061701, 35.5642476], [-97.5061701, 35.5643218]]]}, "properties": {"osm_id": 763230832, "building": "carport", "name": "", "height": null, "height_m": null, "levels": null, "tract_id": "40109108301", "tract_name": "1083.01", "tags": {"building": "carport"}}}, {"type": "Feature", "geometry": {"type": "Polygon", "coordinates": [[[-97.5060755, 35.5643205], [-97.5059611, 35.5643196], [-97.5059611, 35.5642471], [-97.5060755, 35.5642462], [-97.5060755, 35.5643205]]]}, "properties": {"osm_id": 763230833, "building": "carport", "name": "", "height": null, "height_m": null, "levels": null, "tract_id": "40109108301", "tract_name": "1083.01", "tags": {"building": "carport"}}}, {"type": "Feature", "geometry": {"type": "Polygon", "coordinates": [[[-97.506466, 35.564184], [-97.5063472, 35.5641831], [-97.5063461, 35.5641259], [-97.5064649, 35.5641268], [-97.506466, 35.564184]]]}, "properties": {"osm_id": 763230834, "building": "carport", "name": "", "height": null, "height_m": null, "levels": null, "tract_id": "40109108301", "tract_name": "1083.01", "tags": {"building": "carport"}}}, {"type": "Feature", "geometry": {"type": "Polygon", "coordinates": [[[-97.5059061, 35.5643037], [-97.5058171, 35.5643045], [-97.5058159, 35.5642458], [-97.5059072, 35.5642467], [-97.5059061, 35.5643037]]]}, "properties": {"osm_id": 763230835, "building": "carport", "name": "", "height": null, "height_m": null, "levels": null, "tract_id": "40109108301", "tract_name": "1083.01", "tags": {"building": "carport"}}}, {"type": "Feature", "geometry": {"type": "Polygon", "coordinates": [[[-97.5058171, 35.5643045], [-97.5057279, 35.5643053], [-97.5057268, 35.5642449], [-97.5058159, 35.5642458], [-97.5058171, 35.5643045]]]}, "properties": {"osm_id": 763230836, "building": "carport", "name": "", "height": null, "height_m": null, "levels": null, "tract_id": "40109108301", "tract_name": "1083.01", "tags": {"building": "carport"}}}, {"type": "Feature", "geometry": {"type": "Polygon", "coordinates": [[[-97.5057125, 35.5641813], [-97.5057103, 35.564125], [-97.5058346, 35.5641241], [-97.5058346, 35.5641805], [-97.5057125, 35.5641813]]]}, "properties": {"osm_id": 763230837, "building": "carport", "name": "", "height": null, "height_m": null, "levels": null, "tract_id": "40109108301", "tract_name": "1083.01", "tags": {"building": "carport"}}}, {"type": "Feature", "geometry": {"type": "Polygon", "coordinates": [[[-97.5057103, 35.564125], [-97.5057125, 35.5640677], [-97.5058324, 35.5640677], [-97.5058346, 35.5641241], [-97.5057103, 35.564125]]]}, "properties": {"osm_id": 763230838, "building": "carport", "name": "", "height": null, "height_m": null, "levels": null, "tract_id": "40109108301", "tract_name": "1083.01", "tags": {"building": "carport"}}}, {"type": "Feature", "geometry": {"type": "Polygon", "coordinates": [[[-97.5058346, 35.5641805], [-97.5059512, 35.5641805], [-97.505949, 35.564125], [-97.5058346, 35.5641241], [-97.5058346, 35.5641805]]]}, "properties": {"osm_id": 763230839, "building": "carport", "name": "", "height": null, "height_m": null, "levels": null, "tract_id": "40109108301", "tract_name": "1083.01", "tags": {"building": "carport"}}}, {"type": "Feature", "geometry": {"type": "Polygon", "coordinates": [[[-97.5058346, 35.5641241], [-97.5058324, 35.5640677], [-97.5059512, 35.5640686], [-97.505949, 35.564125], [-97.5058346, 35.5641241]]]}, "properties": {"osm_id": 763230840, "building": "carport", "name": "", "height": null, "height_m": null, "levels": null, "tract_id": "40109108301", "tract_name": "1083.01", "tags": {"building": "carport"}}}, {"type": "Feature", "geometry": {"type": "Polygon", "coordinates": [[[-97.505949, 35.564125], [-97.5060414, 35.5641241], [-97.5060425, 35.5641822], [-97.5059512, 35.5641805], [-97.505949, 35.564125]]]}, "properties": {"osm_id": 763230841, "building": "carport", "name": "", "height": null, "height_m": null, "levels": null, "tract_id": "40109108301", "tract_name": "1083.01", "tags": {"building": "carport"}}}, {"type": "Feature", "geometry": {"type": "Polygon", "coordinates": [[[-97.5060425, 35.5641822], [-97.5061327, 35.5641813], [-97.5061305, 35.5641259], [-97.5060414, 35.5641241], [-97.5060425, 35.5641822]]]}, "properties": {"osm_id": 763230842, "building": "carport", "name": "", "height": null, "height_m": null, "levels": null, "tract_id": "40109108301", "tract_name": "1083.01", "tags": {"building": "carport"}}}, {"type": "Feature", "geometry": {"type": "Polygon", "coordinates": [[[-97.5059512, 35.5640686], [-97.5060414, 35.5640695], [-97.5060414, 35.5641241], [-97.505949, 35.564125], [-97.5059512, 35.5640686]]]}, "properties": {"osm_id": 763230843, "building": "carport", "name": "", "height": null, "height_m": null, "levels": null, "tract_id": "40109108301", "tract_name": "1083.01", "tags": {"building": "carport"}}}, {"type": "Feature", "geometry": {"type": "Polygon", "coordinates": [[[-97.5060414, 35.5641241], [-97.5061305, 35.5641259], [-97.5061327, 35.5640713], [-97.5060414, 35.5640695], [-97.5060414, 35.5641241]]]}, "properties": {"osm_id": 763230844, "building": "carport", "name": "", "height": null, "height_m": null, "levels": null, "tract_id": "40109108301", "tract_name": "1083.01", "tags": {"building": "carport"}}}, {"type": "Feature", "geometry": {"type": "Polygon", "coordinates": [[[-97.5061305, 35.5641259], [-97.5062251, 35.5641268], [-97.5062251, 35.5641813], [-97.5061327, 35.5641813], [-97.5061305, 35.5641259]]]}, "properties": {"osm_id": 763230845, "building": "carport", "name": "", "height": null, "height_m": null, "levels": null, "tract_id": "40109108301", "tract_name": "1083.01", "tags": {"building": "carport"}}}, {"type": "Feature", "geometry": {"type": "Polygon", "coordinates": [[[-97.5061305, 35.5641259], [-97.5061327, 35.5640713], [-97.506224, 35.5640722], [-97.5062251, 35.5641268], [-97.5061305, 35.5641259]]]}, "properties": {"osm_id": 763230846, "building": "carport", "name": "", "height": null, "height_m": null, "levels": null, "tract_id": "40109108301", "tract_name": "1083.01", "tags": {"building": "carport"}}}, {"type": "Feature", "geometry": {"type": "Polygon", "coordinates": [[[-97.5063472, 35.5641831], [-97.5062251, 35.5641813], [-97.5062251, 35.5641268], [-97.5063461, 35.5641259], [-97.5063472, 35.5641831]]]}, "properties": {"osm_id": 763230847, "building": "carport", "name": "", "height": null, "height_m": null, "levels": null, "tract_id": "40109108301", "tract_name": "1083.01", "tags": {"building": "carport"}}}, {"type": "Feature", "geometry": {"type": "Polygon", "coordinates": [[[-97.5064649, 35.5641268], [-97.5064638, 35.564074], [-97.5063461, 35.5640722], [-97.5063461, 35.5641259], [-97.5064649, 35.5641268]]]}, "properties": {"osm_id": 763230848, "building": "carport", "name": "", "height": null, "height_m": null, "levels": null, "tract_id": "40109108301", "tract_name": "1083.01", "tags": {"building": "carport"}}}, {"type": "Feature", "geometry": {"type": "Polygon", "coordinates": [[[-97.5063461, 35.5641259], [-97.5062251, 35.5641268], [-97.506224, 35.5640722], [-97.5063461, 35.5640722], [-97.5063461, 35.5641259]]]}, "properties": {"osm_id": 763230849, "building": "carport", "name": "", "height": null, "height_m": null, "levels": null, "tract_id": "40109108301", "tract_name": "1083.01", "tags": {"building": "carport"}}}, {"type": "Feature", "geometry": {"type": "Polygon", "coordinates": [[[-97.506466, 35.5640078], [-97.5063461, 35.5640078], [-97.5063461, 35.5639514], [-97.5064671, 35.5639532], [-97.506466, 35.5640078]]]}, "properties": {"osm_id": 763230850, "building": "carport", "name": "", "height": null, "height_m": null, "levels": null, "tract_id": "40109108301", "tract_name": "1083.01", "tags": {"building": "carport"}}}, {"type": "Feature", "geometry": {"type": "Polygon", "coordinates": [[[-97.5063461, 35.5640078], [-97.5062262, 35.5640078], [-97.5062273, 35.5639505], [-97.5063461, 35.5639514], [-97.5063461, 35.5640078]]]}, "properties": {"osm_id": 763230852, "building": "carport", "name": "", "height": null, "height_m": null, "levels": null, "tract_id": "40109108301", "tract_name": "1083.01", "tags": {"building": "carport"}}}, {"type": "Feature", "geometry": {"type": "Polygon", "coordinates": [[[-97.5063461, 35.5639514], [-97.5063461, 35.563895], [-97.5064649, 35.563895], [-97.5064671, 35.5639532], [-97.5063461, 35.5639514]]]}, "properties": {"osm_id": 763230853, "building": "carport", "name": "", "height": null, "height_m": null, "levels": null, "tract_id": "40109108301", "tract_name": "1083.01", "tags": {"building": "carport"}}}, {"type": "Feature", "geometry": {"type": "Polygon", "coordinates": [[[-97.5063461, 35.5639514], [-97.5062273, 35.5639505], [-97.5062295, 35.563895], [-97.5063461, 35.563895], [-97.5063461, 35.5639514]]]}, "properties": {"osm_id": 763230854, "building": "carport", "name": "", "height": null, "height_m": null, "levels": null, "tract_id": "40109108301", "tract_name": "1083.01", "tags": {"building": "carport"}}}, {"type": "Feature", "geometry": {"type": "Polygon", "coordinates": [[[-97.5062273, 35.5639505], [-97.5061349, 35.5639505], [-97.5061338, 35.5640069], [-97.5062262, 35.5640078], [-97.5062273, 35.5639505]]]}, "properties": {"osm_id": 763230855, "building": "carport", "name": "", "height": null, "height_m": null, "levels": null, "tract_id": "40109108301", "tract_name": "1083.01", "tags": {"building": "carport"}}}, {"type": "Feature", "geometry": {"type": "Polygon", "coordinates": [[[-97.5061338, 35.5640069], [-97.5060436, 35.5640078], [-97.5060425, 35.5639487], [-97.5061349, 35.5639505], [-97.5061338, 35.5640069]]]}, "properties": {"osm_id": 763230856, "building": "carport", "name": "", "height": null, "height_m": null, "levels": null, "tract_id": "40109108301", "tract_name": "1083.01", "tags": {"building": "carport"}}}, {"type": "Feature", "geometry": {"type": "Polygon", "coordinates": [[[-97.5061349, 35.5639505], [-97.5061338, 35.5638959], [-97.5062295, 35.563895], [-97.5062273, 35.5639505], [-97.5061349, 35.5639505]]]}, "properties": {"osm_id": 763230857, "building": "carport", "name": "", "height": null, "height_m": null, "levels": null, "tract_id": "40109108301", "tract_name": "1083.01", "tags": {"building": "carport"}}}, {"type": "Feature", "geometry": {"type": "Polygon", "coordinates": [[[-97.5061349, 35.5639505], [-97.5060425, 35.5639487], [-97.5060414, 35.563895], [-97.5061338, 35.5638959], [-97.5061349, 35.5639505]]]}, "properties": {"osm_id": 763230858, "building": "carport", "name": "", "height": null, "height_m": null, "levels": null, "tract_id": "40109108301", "tract_name": "1083.01", "tags": {"building": "carport"}}}, {"type": "Feature", "geometry": {"type": "Polygon", "coordinates": [[[-97.5060436, 35.5640078], [-97.5059534, 35.564006], [-97.5059512, 35.5639487], [-97.5060425, 35.5639487], [-97.5060436, 35.5640078]]]}, "properties": {"osm_id": 763230859, "building": "carport", "name": "", "height": null, "height_m": null, "levels": null, "tract_id": "40109108301", "tract_name": "1083.01", "tags": {"building": "carport"}}}, {"type": "Feature", "geometry": {"type": "Polygon", "coordinates": [[[-97.5059534, 35.564006], [-97.5058324, 35.5640051], [-97.5058313, 35.5639505], [-97.5059512, 35.5639487], [-97.5059534, 35.564006]]]}, "properties": {"osm_id": 763230860, "building": "carport", "name": "", "height": null, "height_m": null, "levels": null, "tract_id": "40109108301", "tract_name": "1083.01", "tags": {"building": "carport"}}}, {"type": "Feature", "geometry": {"type": "Polygon", "coordinates": [[[-97.5058324, 35.5640051], [-97.5057136, 35.5640051], [-97.5057147, 35.5639505], [-97.5058313, 35.5639505], [-97.5058324, 35.5640051]]]}, "properties": {"osm_id": 763230861, "building": "carport", "name": "", "height": null, "height_m": null, "levels": null, "tract_id": "40109108301", "tract_name": "1083.01", "tags": {"building": "carport"}}}, {"type": "Feature", "geometry": {"type": "Polygon", "coordinates": [[[-97.5060414, 35.563895], [-97.5059512, 35.563895], [-97.5059512, 35.5639487], [-97.5060425, 35.5639487], [-97.5060414, 35.563895]]]}, "properties": {"osm_id": 763230862, "building": "carport", "name": "", "height": null, "height_m": null, "levels": null, "tract_id": "40109108301", "tract_name": "1083.01", "tags": {"building": "carport"}}}, {"type": "Feature", "geometry": {"type": "Polygon", "coordinates": [[[-97.5059512, 35.563895], [-97.5058302, 35.5638941], [-97.5058313, 35.5639505], [-97.5059512, 35.5639487], [-97.5059512, 35.563895]]]}, "properties": {"osm_id": 763230863, "building": "carport", "name": "", "height": null, "height_m": null, "levels": null, "tract_id": "40109108301", "tract_name": "1083.01", "tags": {"building": "carport"}}}, {"type": "Feature", "geometry": {"type": "Polygon", "coordinates": [[[-97.5058302, 35.5638941], [-97.5057125, 35.5638941], [-97.5057147, 35.5639505], [-97.5058313, 35.5639505], [-97.5058302, 35.5638941]]]}, "properties": {"osm_id": 763230864, "building": "carport", "name": "", "height": null, "height_m": null, "levels": null, "tract_id": "40109108301", "tract_name": "1083.01", "tags": {"building": "carport"}}}, {"type": "Feature", "geometry": {"type": "Polygon", "coordinates": [[[-97.5061074, 35.5637626], [-97.5062229, 35.5637617], [-97.5062251, 35.5638306], [-97.5061096, 35.5638297], [-97.5061074, 35.5637626]]]}, "properties": {"osm_id": 763230865, "building": "carport", "name": "", "height": null, "height_m": null, "levels": null, "tract_id": "40109108301", "tract_name": "1083.01", "tags": {"building": "carport"}}}, {"type": "Feature", "geometry": {"type": "Polygon", "coordinates": [[[-97.5062251, 35.5638306], [-97.506345, 35.5638315], [-97.506345, 35.5637608], [-97.5062229, 35.5637617], [-97.5062251, 35.5638306]]]}, "properties": {"osm_id": 763230866, "building": "carport", "name": "", "height": null, "height_m": null, "levels": null, "tract_id": "40109108301", "tract_name": "1083.01", "tags": {"building": "carport"}}}, {"type": "Feature", "geometry": {"type": "Polygon", "coordinates": [[[-97.506466, 35.5638324], [-97.506345, 35.5638315], [-97.506345, 35.5637608], [-97.506466, 35.5637626], [-97.506466, 35.5638324]]]}, "properties": {"osm_id": 763230867, "building": "carport", "name": "", "height": null, "height_m": null, "levels": null, "tract_id": "40109108301", "tract_name": "1083.01", "tags": {"building": "carport"}}}, {"type": "Feature", "geometry": {"type": "Polygon", "coordinates": [[[-97.5059688, 35.563827], [-97.5058478, 35.5638297], [-97.5058467, 35.5637572], [-97.5059666, 35.5637572], [-97.5059688, 35.563827]]]}, "properties": {"osm_id": 763230868, "building": "carport", "name": "", "height": null, "height_m": null, "levels": null, "tract_id": "40109108301", "tract_name": "1083.01", "tags": {"building": "carport"}}}, {"type": "Feature", "geometry": {"type": "Polygon", "coordinates": [[[-97.5058467, 35.5637572], [-97.5057246, 35.5637572], [-97.5057246, 35.5638261], [-97.5058478, 35.5638297], [-97.5058467, 35.5637572]]]}, "properties": {"osm_id": 763230869, "building": "carport", "name": "", "height": null, "height_m": null, "levels": null, "tract_id": "40109108301", "tract_name": "1083.01", "tags": {"building": "carport"}}}, {"type": "Feature", "geometry": {"type": "Polygon", "coordinates": [[[-97.5108317, 35.5713387], [-97.5104777, 35.5713428], [-97.5104777, 35.5713914], [-97.5101886, 35.5713934], [-97.5101886, 35.5712819], [-97.510029, 35.5712819], [-97.510024, 35.5711116], [-97.5098121, 35.5711116], [-97.5098146, 35.5710163], [-97.5100215, 35.5710183], [-97.510019, 35.5709474], [-97.5101811, 35.5709453], [-97.5101811, 35.5708825], [-97.5101038, 35.5708805], [-97.5100963, 35.5707081], [-97.510211, 35.5707061], [-97.5102135, 35.5708217], [-97.5106073, 35.5708196], [-97.5106048, 35.5709677], [-97.5108267, 35.5709656], [-97.5108317, 35.5713387]]]}, "properties": {"osm_id": 763240797, "building": "yes", "name": "", "height": null, "height_m": null, "levels": null, "tract_id": "40109108301", "tract_name": "1083.01", "tags": {"amenity": "clinic", "building": "yes", "healthcare": "clinic"}}}, {"type": "Feature", "geometry": {"type": "Polygon", "coordinates": [[[-97.5034955, 35.551747], [-97.5032754, 35.5517447], [-97.5032774, 35.5516095], [-97.5029639, 35.5516055], [-97.502959, 35.551479], [-97.503129, 35.5514804], [-97.503129, 35.5514631], [-97.5031764, 35.5514631], [-97.5031776, 35.5514814], [-97.5032368, 35.5514823], [-97.5032368, 35.55149], [-97.503277, 35.55149], [-97.503277, 35.5514544], [-97.5033421, 35.5514544], [-97.5033421, 35.551439], [-97.5034285, 35.5514399], [-97.5034285, 35.5514554], [-97.5034937, 35.5514563], [-97.5034955, 35.551747]]]}, "properties": {"osm_id": 765804570, "building": "yes", "name": "Church of the Living God", "height": null, "height_m": null, "levels": null, "tract_id": "40109108301", "tract_name": "1083.01", "tags": {"amenity": "place_of_worship", "building": "yes", "name": "Church of the Living God", "religion": "christian"}}}, {"type": "Feature", "geometry": {"type": "Polygon", "coordinates": [[[-97.4956685, 35.5624135], [-97.4956041, 35.5624134], [-97.495604, 35.5624392], [-97.4954994, 35.562439], [-97.4954995, 35.5624132], [-97.4954346, 35.5624132], [-97.4954351, 35.5621626], [-97.4953801, 35.5621625], [-97.4953802, 35.5621139], [-97.4954611, 35.562114], [-97.4954612, 35.5620668], [-97.4954874, 35.5620668], [-97.4954875, 35.5620358], [-97.495639, 35.562036], [-97.495639, 35.562067], [-97.4956691, 35.5620671], [-97.4956685, 35.5624135]]]}, "properties": {"osm_id": 772765990, "building": "yes", "name": "M&M Supply Company", "height": null, "height_m": null, "levels": null, "tract_id": "40109108301", "tract_name": "1083.01", "tags": {"addr:city": "Oklahoma City", "addr:country": "US", "addr:housenumber": "9000", "addr:postcode": "73131", "addr:state": "OK", "addr:street": "North Kelley Avenue", "building": "yes", "name": "M&M Supply Company", "phone": "+1 580 252 7879", "website": "https://www.mmsupply.com/"}}}, {"type": "Feature", "geometry": {"type": "Polygon", "coordinates": [[[-97.48878, 35.5642065], [-97.4887968, 35.5642152], [-97.4888286, 35.564213], [-97.4888384, 35.5641892], [-97.4888304, 35.5641741], [-97.4888065, 35.5641633], [-97.4887985, 35.5641648], [-97.4889251, 35.5639152], [-97.4889198, 35.5638979], [-97.4885635, 35.5637827], [-97.4885458, 35.5637921], [-97.4885006, 35.5638799], [-97.488337, 35.5638302], [-97.4883255, 35.5638338], [-97.4882511, 35.56399], [-97.4882476, 35.564003], [-97.4882494, 35.5644457], [-97.4884502, 35.5645126], [-97.4884971, 35.5644162], [-97.4885431, 35.5644306], [-97.4886378, 35.5642449], [-97.4887493, 35.5642765], [-97.48878, 35.5642065]]]}, "properties": {"osm_id": 878049138, "building": "yes", "name": "KOCO-TV", "height": null, "height_m": null, "levels": null, "tract_id": "40109108301", "tract_name": "1083.01", "tags": {"addr:city": "Oklahoma City", "addr:housenumber": "1300", "addr:postcode": "73131", "addr:state": "OK", "addr:street": "East Britton Road", "amenity": "studio", "building": "yes", "name": "KOCO-TV", "phone": "+1 405 478 3000", "studio": "television", "website": "https://www.koco.com", "wikidata": "Q6334811", "wikipedia": "en:KOCO-TV"}}}, {"type": "Feature", "geometry": {"type": "Polygon", "coordinates": [[[-97.4903259, 35.5638494], [-97.4901637, 35.5638513], [-97.4901695, 35.5637392], [-97.4903271, 35.5637411], [-97.4903259, 35.5638494]]]}, "properties": {"osm_id": 910647194, "building": "shed", "name": "", "height": null, "height_m": null, "levels": null, "tract_id": "40109108301", "tract_name": "1083.01", "tags": {"building": "shed"}}}, {"type": "Feature", "geometry": {"type": "Polygon", "coordinates": [[[-97.4904123, 35.5638304], [-97.4903878, 35.5638314], [-97.4903867, 35.5637041], [-97.4904158, 35.563706], [-97.4904123, 35.5638304]]]}, "properties": {"osm_id": 910647195, "building": "shed", "name": "", "height": null, "height_m": null, "levels": null, "tract_id": "40109108301", "tract_name": "1083.01", "tags": {"building": "shed"}}}, {"type": "Feature", "geometry": {"type": "Polygon", "coordinates": [[[-97.4888573, 35.5634127], [-97.4888833, 35.5633532], [-97.4889646, 35.5633805], [-97.4890215, 35.5632722], [-97.4888619, 35.5632135], [-97.4887796, 35.563388], [-97.4888573, 35.5634127]]]}, "properties": {"osm_id": 910647196, "building": "shed", "name": "", "height": null, "height_m": null, "levels": null, "tract_id": "40109108301", "tract_name": "1083.01", "tags": {"building": "shed"}}}, {"type": "Feature", "geometry": {"type": "Polygon", "coordinates": [[[-97.4890375, 35.5631855], [-97.4889537, 35.5631657], [-97.488981, 35.5630957], [-97.4890613, 35.5631205], [-97.4890375, 35.5631855]]]}, "properties": {"osm_id": 910647197, "building": "shed", "name": "", "height": null, "height_m": null, "levels": null, "tract_id": "40109108301", "tract_name": "1083.01", "tags": {"building": "shed"}}}, {"type": "Feature", "geometry": {"type": "Polygon", "coordinates": [[[-97.4899617, 35.5680792], [-97.4897847, 35.5680819], [-97.48978, 35.5681015], [-97.4896827, 35.5681032], [-97.4896821, 35.5681152], [-97.4891894, 35.5682321], [-97.4891827, 35.5682223], [-97.4896648, 35.5681067], [-97.4896655, 35.5681007], [-97.4896534, 35.5681018], [-97.4896534, 35.5679987], [-97.4897815, 35.5679981], [-97.4897808, 35.5679512], [-97.4898733, 35.5679518], [-97.489872, 35.5679818], [-97.4898351, 35.5679834], [-97.4898338, 35.5679965], [-97.4899605, 35.5679965], [-97.4899617, 35.5680792]]]}, "properties": {"osm_id": 910647199, "building": "shed", "name": "", "height": null, "height_m": null, "levels": null, "tract_id": "40109108301", "tract_name": "1083.01", "tags": {"building": "shed"}}}, {"type": "Feature", "geometry": {"type": "Polygon", "coordinates": [[[-97.489937, 35.5679915], [-97.4898968, 35.5679893], [-97.4899015, 35.5679538], [-97.4899397, 35.5679565], [-97.489937, 35.5679915]]]}, "properties": {"osm_id": 910647200, "building": "shed", "name": "", "height": null, "height_m": null, "levels": null, "tract_id": "40109108301", "tract_name": "1083.01", "tags": {"building": "shed"}}}, {"type": "Feature", "geometry": {"type": "Polygon", "coordinates": [[[-97.5074997, 35.5683321], [-97.5074186, 35.5683311], [-97.507418, 35.5680367], [-97.5074991, 35.5680377], [-97.5074997, 35.5683321]]]}, "properties": {"osm_id": 973005685, "building": "carport", "name": "", "height": null, "height_m": null, "levels": null, "tract_id": "40109108301", "tract_name": "1083.01", "tags": {"building": "carport"}}}, {"type": "Feature", "geometry": {"type": "Polygon", "coordinates": [[[-97.5073235, 35.5683296], [-97.507244, 35.5683296], [-97.5072433, 35.5683296], [-97.5072381, 35.5678731], [-97.5073204, 35.5678739], [-97.5073235, 35.5683296]]]}, "properties": {"osm_id": 973005686, "building": "carport", "name": "", "height": null, "height_m": null, "levels": null, "tract_id": "40109108301", "tract_name": "1083.01", "tags": {"building": "carport"}}}, {"type": "Feature", "geometry": {"type": "Polygon", "coordinates": [[[-97.5074986, 35.5679637], [-97.5074976, 35.5678718], [-97.5074157, 35.5678694], [-97.5074157, 35.5679638], [-97.5074986, 35.5679637]]]}, "properties": {"osm_id": 973005687, "building": "carport", "name": "", "height": null, "height_m": null, "levels": null, "tract_id": "40109108301", "tract_name": "1083.01", "tags": {"building": "carport"}}}, {"type": "Feature", "geometry": {"type": "Polygon", "coordinates": [[[-97.5074118, 35.5684129], [-97.5074127, 35.5683462], [-97.5073279, 35.5683438], [-97.5073279, 35.5684137], [-97.5074118, 35.5684129]]]}, "properties": {"osm_id": 973005688, "building": "carport", "name": "", "height": null, "height_m": null, "levels": null, "tract_id": "40109108301", "tract_name": "1083.01", "tags": {"building": "carport"}}}, {"type": "Feature", "geometry": {"type": "Polygon", "coordinates": [[[-97.477612, 35.5645845], [-97.4776179, 35.5643214], [-97.4773538, 35.5643175], [-97.4773478, 35.5645832], [-97.4774309, 35.5645844], [-97.4774299, 35.5646272], [-97.477469, 35.5646278], [-97.4774701, 35.5645823], [-97.477612, 35.5645845]]]}, "properties": {"osm_id": 1059973493, "building": "yes", "name": "", "height": null, "height_m": null, "levels": null, "tract_id": "40109108301", "tract_name": "1083.01", "tags": {"addr:city": "Oklahoma City", "addr:housenumber": "9300", "addr:postcode": "73131", "addr:state": "OK", "addr:street": "North Eastern Avenue", "building": "yes"}}}, {"type": "Feature", "geometry": {"type": "Polygon", "coordinates": [[[-97.4776386, 35.5661248], [-97.4776418, 35.5661935], [-97.4774791, 35.5661985], [-97.4774759, 35.5661298], [-97.4776386, 35.5661248]]]}, "properties": {"osm_id": 1090688007, "building": "yes", "name": "", "height": null, "height_m": null, "levels": null, "tract_id": "40109108301", "tract_name": "1083.01", "tags": {"building": "yes"}}}, {"type": "Feature", "geometry": {"type": "Polygon", "coordinates": [[[-97.4774194, 35.5662099], [-97.4776265, 35.5662037], [-97.4776299, 35.5662776], [-97.4774228, 35.5662838], [-97.4774194, 35.5662099]]]}, "properties": {"osm_id": 1090688008, "building": "yes", "name": "", "height": null, "height_m": null, "levels": null, "tract_id": "40109108301", "tract_name": "1083.01", "tags": {"building": "yes"}}}, {"type": "Feature", "geometry": {"type": "Polygon", "coordinates": [[[-97.4773617, 35.566007], [-97.4773692, 35.5661696], [-97.4772638, 35.5661728], [-97.4772564, 35.5660102], [-97.4773617, 35.566007]]]}, "properties": {"osm_id": 1090688009, "building": "yes", "name": "", "height": null, "height_m": null, "levels": null, "tract_id": "40109108301", "tract_name": "1083.01", "tags": {"building": "yes"}}}, {"type": "Feature", "geometry": {"type": "Polygon", "coordinates": [[[-97.4762365, 35.5658619], [-97.4762394, 35.5659244], [-97.4761426, 35.5659274], [-97.4761398, 35.5658649], [-97.4762365, 35.5658619]]]}, "properties": {"osm_id": 1090688010, "building": "yes", "name": "", "height": null, "height_m": null, "levels": null, "tract_id": "40109108301", "tract_name": "1083.01", "tags": {"building": "yes"}}}, {"type": "Feature", "geometry": {"type": "Polygon", "coordinates": [[[-97.4761185, 35.5658063], [-97.4761233, 35.5659117], [-97.4759643, 35.5659165], [-97.4759595, 35.5658111], [-97.4761185, 35.5658063]]]}, "properties": {"osm_id": 1090688011, "building": "yes", "name": "", "height": null, "height_m": null, "levels": null, "tract_id": "40109108301", "tract_name": "1083.01", "tags": {"building": "yes"}}}, {"type": "Feature", "geometry": {"type": "Polygon", "coordinates": [[[-97.4761078, 35.5660125], [-97.4761202, 35.5662846], [-97.4759576, 35.5662896], [-97.4759451, 35.5660174], [-97.4761078, 35.5660125]]]}, "properties": {"osm_id": 1090688012, "building": "yes", "name": "", "height": null, "height_m": null, "levels": null, "tract_id": "40109108301", "tract_name": "1083.01", "tags": {"building": "yes"}}}, {"type": "Feature", "geometry": {"type": "Polygon", "coordinates": [[[-97.477764, 35.5649445], [-97.4777713, 35.565103], [-97.4776407, 35.565107], [-97.4776334, 35.5649484], [-97.477764, 35.5649445]]]}, "properties": {"osm_id": 1090688013, "building": "yes", "name": "", "height": null, "height_m": null, "levels": null, "tract_id": "40109108301", "tract_name": "1083.01", "tags": {"building": "yes"}}}, {"type": "Feature", "geometry": {"type": "Polygon", "coordinates": [[[-97.4773362, 35.5651386], [-97.4777714, 35.5651255], [-97.4777801, 35.5653165], [-97.477345, 35.5653296], [-97.4773362, 35.5651386]]]}, "properties": {"osm_id": 1090688014, "building": "yes", "name": "", "height": null, "height_m": null, "levels": null, "tract_id": "40109108301", "tract_name": "1083.01", "tags": {"building": "yes"}}}, {"type": "Feature", "geometry": {"type": "Polygon", "coordinates": [[[-97.4764885, 35.5650035], [-97.4765009, 35.5652752], [-97.4763306, 35.5652803], [-97.4763182, 35.5650087], [-97.4764885, 35.5650035]]]}, "properties": {"osm_id": 1090688015, "building": "yes", "name": "", "height": null, "height_m": null, "levels": null, "tract_id": "40109108301", "tract_name": "1083.01", "tags": {"building": "yes"}}}, {"type": "Feature", "geometry": {"type": "Polygon", "coordinates": [[[-97.4760394, 35.5642463], [-97.4762941, 35.5642503], [-97.4762898, 35.5644271], [-97.4760351, 35.564423], [-97.4760394, 35.5642463]]]}, "properties": {"osm_id": 1090688016, "building": "yes", "name": "", "height": null, "height_m": null, "levels": null, "tract_id": "40109108301", "tract_name": "1083.01", "tags": {"building": "yes"}}}, {"type": "Feature", "geometry": {"type": "Polygon", "coordinates": [[[-97.5096096, 35.5555529], [-97.5091192, 35.5558949], [-97.5090329, 35.5557562], [-97.5089721, 35.5557885], [-97.5089324, 35.5557505], [-97.5089955, 35.5557106], [-97.5087643, 35.5553535], [-97.5089138, 35.5552889], [-97.5089558, 35.5553421], [-97.5089978, 35.5553098], [-97.5093878, 35.5552243], [-97.5094321, 35.5553592], [-97.5094555, 35.5553953], [-97.5094858, 35.5553725], [-97.5095279, 35.5554124], [-97.5094835, 35.5554447], [-97.5096096, 35.5555529]]]}, "properties": {"osm_id": 1114788240, "building": "office", "name": "Dolese Support Services Center", "height": null, "height_m": 6.0, "levels": 2, "tract_id": "40109108301", "tract_name": "1083.01", "tags": {"addr:city": "Oklahoma City", "addr:housenumber": "8300", "addr:postcode": "73114", "addr:state": "OK", "addr:street": "North Oklahoma Avenue", "building": "office", "building:levels": "2", "name": "Dolese Support Services Center", "office": "company"}}}, {"type": "Feature", "geometry": {"type": "Polygon", "coordinates": [[[-97.5035268, 35.5539696], [-97.5035658, 35.553999], [-97.5035262, 35.5540338], [-97.5036143, 35.5541002], [-97.5036526, 35.5540665], [-97.5036916, 35.5540959], [-97.5037603, 35.5540355], [-97.5036657, 35.5539643], [-97.5036599, 35.5539694], [-97.5035883, 35.5539155], [-97.5035268, 35.5539696]]]}, "properties": {"osm_id": 1253448250, "building": "yes", "name": "", "height": null, "height_m": null, "levels": null, "tract_id": "40109108301", "tract_name": "1083.01", "tags": {"building": "yes", "source": "microsoft/BuildingFootprints"}}}, {"type": "Feature", "geometry": {"type": "Polygon", "coordinates": [[[-97.5037643, 35.5540214], [-97.5038231, 35.5539692], [-97.5037589, 35.5539214], [-97.5038008, 35.5538842], [-97.5036973, 35.553807], [-97.5036425, 35.5538557], [-97.5036761, 35.5538807], [-97.5036302, 35.5539215], [-97.5037643, 35.5540214]]]}, "properties": {"osm_id": 1253448251, "building": "yes", "name": "", "height": null, "height_m": null, "levels": null, "tract_id": "40109108301", "tract_name": "1083.01", "tags": {"building": "yes", "source": "microsoft/BuildingFootprints"}}}, {"type": "Feature", "geometry": {"type": "Polygon", "coordinates": [[[-97.5045005, 35.5544551], [-97.5045018, 35.5545175], [-97.5044227, 35.5545186], [-97.5044242, 35.5545928], [-97.50462, 35.5545901], [-97.5046172, 35.5544535], [-97.5045005, 35.5544551]]]}, "properties": {"osm_id": 1253448252, "building": "yes", "name": "", "height": null, "height_m": null, "levels": null, "tract_id": "40109108301", "tract_name": "1083.01", "tags": {"building": "yes", "source": "microsoft/BuildingFootprints"}}}, {"type": "Feature", "geometry": {"type": "Polygon", "coordinates": [[[-97.5044273, 35.5547381], [-97.5046325, 35.5547352], [-97.5046299, 35.554613], [-97.5045333, 35.5546144], [-97.5045343, 35.554658], [-97.5044257, 35.5546596], [-97.5044273, 35.5547381]]]}, "properties": {"osm_id": 1253448253, "building": "yes", "name": "", "height": null, "height_m": null, "levels": null, "tract_id": "40109108301", "tract_name": "1083.01", "tags": {"building": "yes", "source": "microsoft/BuildingFootprints"}}}, {"type": "Feature", "geometry": {"type": "Polygon", "coordinates": [[[-97.5046232, 35.5547577], [-97.5045052, 35.5547564], [-97.5045041, 35.5548218], [-97.5044263, 35.554821], [-97.5044251, 35.5548943], [-97.5046209, 35.5548965], [-97.5046232, 35.5547577]]]}, "properties": {"osm_id": 1253448254, "building": "yes", "name": "", "height": null, "height_m": null, "levels": null, "tract_id": "40109108301", "tract_name": "1083.01", "tags": {"building": "yes", "source": "microsoft/BuildingFootprints"}}}, {"type": "Feature", "geometry": {"type": "Polygon", "coordinates": [[[-97.5046198, 35.5551978], [-97.5046227, 35.5550626], [-97.5045047, 35.5550609], [-97.5045033, 35.555125], [-97.5044255, 35.5551239], [-97.504424, 35.5551951], [-97.5046198, 35.5551978]]]}, "properties": {"osm_id": 1253448255, "building": "yes", "name": "", "height": null, "height_m": null, "levels": null, "tract_id": "40109108301", "tract_name": "1083.01", "tags": {"building": "yes", "source": "microsoft/BuildingFootprints"}}}, {"type": "Feature", "geometry": {"type": "Polygon", "coordinates": [[[-97.504476, 35.5550358], [-97.5045847, 35.5550346], [-97.5045838, 35.5549874], [-97.5046227, 35.554987], [-97.5046215, 35.5549185], [-97.5044097, 35.5549209], [-97.5044108, 35.5549872], [-97.5044752, 35.5549865], [-97.504476, 35.5550358]]]}, "properties": {"osm_id": 1253448256, "building": "yes", "name": "", "height": null, "height_m": null, "levels": null, "tract_id": "40109108301", "tract_name": "1083.01", "tags": {"building": "yes", "source": "microsoft/BuildingFootprints"}}}, {"type": "Feature", "geometry": {"type": "Polygon", "coordinates": [[[-97.5046221, 35.5553652], [-97.5045095, 35.5553639], [-97.5045084, 35.5554285], [-97.504428, 35.5554276], [-97.5044267, 35.5554982], [-97.5046198, 35.5555004], [-97.5046221, 35.5553652]]]}, "properties": {"osm_id": 1253448257, "building": "yes", "name": "", "height": null, "height_m": null, "levels": null, "tract_id": "40109108301", "tract_name": "1083.01", "tags": {"building": "yes", "source": "microsoft/BuildingFootprints"}}}, {"type": "Feature", "geometry": {"type": "Polygon", "coordinates": [[[-97.5046427, 35.5556468], [-97.5046393, 35.5555129], [-97.504524, 35.5555148], [-97.5045256, 35.555578], [-97.5044452, 35.5555794], [-97.5044469, 35.55565], [-97.5046427, 35.5556468]]]}, "properties": {"osm_id": 1253448258, "building": "yes", "name": "", "height": null, "height_m": null, "levels": null, "tract_id": "40109108301", "tract_name": "1083.01", "tags": {"building": "yes", "source": "microsoft/BuildingFootprints"}}}, {"type": "Feature", "geometry": {"type": "Polygon", "coordinates": [[[-97.5044283, 35.5553384], [-97.5046334, 35.5553417], [-97.5046363, 35.5552195], [-97.5045278, 35.5552178], [-97.5045265, 35.5552723], [-97.5044299, 35.5552708], [-97.5044283, 35.5553384]]]}, "properties": {"osm_id": 1253448259, "building": "yes", "name": "", "height": null, "height_m": null, "levels": null, "tract_id": "40109108301", "tract_name": "1083.01", "tags": {"building": "yes", "source": "microsoft/BuildingFootprints"}}}, {"type": "Feature", "geometry": {"type": "Polygon", "coordinates": [[[-97.5030567, 35.5543882], [-97.5032094, 35.5545188], [-97.5032693, 35.5544725], [-97.5032363, 35.5544443], [-97.5032863, 35.5544056], [-97.5032046, 35.5543357], [-97.5031658, 35.5543656], [-97.5031278, 35.5543331], [-97.5030567, 35.5543882]]]}, "properties": {"osm_id": 1253448260, "building": "yes", "name": "", "height": null, "height_m": null, "levels": null, "tract_id": "40109108301", "tract_name": "1083.01", "tags": {"building": "yes", "source": "microsoft/BuildingFootprints"}}}, {"type": "Feature", "geometry": {"type": "Polygon", "coordinates": [[[-97.5031314, 35.5544924], [-97.5030305, 35.554405], [-97.502965, 35.5544551], [-97.5030056, 35.5544903], [-97.5029529, 35.5545306], [-97.5030506, 35.5546152], [-97.5031105, 35.5545695], [-97.503073, 35.554537], [-97.5031314, 35.5544924]]]}, "properties": {"osm_id": 1253448261, "building": "yes", "name": "", "height": null, "height_m": null, "levels": null, "tract_id": "40109108301", "tract_name": "1083.01", "tags": {"building": "yes", "source": "microsoft/BuildingFootprints"}}}, {"type": "Feature", "geometry": {"type": "Polygon", "coordinates": [[[-97.5029357, 35.5547087], [-97.5029973, 35.5546559], [-97.5028455, 35.5545387], [-97.5027839, 35.5545916], [-97.5028227, 35.5546216], [-97.502782, 35.5546565], [-97.5028654, 35.5547207], [-97.502906, 35.5546858], [-97.5029357, 35.5547087]]]}, "properties": {"osm_id": 1253448262, "building": "yes", "name": "", "height": null, "height_m": null, "levels": null, "tract_id": "40109108301", "tract_name": "1083.01", "tags": {"building": "yes", "source": "microsoft/BuildingFootprints"}}}, {"type": "Feature", "geometry": {"type": "Polygon", "coordinates": [[[-97.5027844, 35.5540989], [-97.5027421, 35.5541292], [-97.5028326, 35.5542127], [-97.5029744, 35.5541109], [-97.5029052, 35.5540471], [-97.5028056, 35.5541186], [-97.5027844, 35.5540989]]]}, "properties": {"osm_id": 1253448263, "building": "yes", "name": "", "height": null, "height_m": null, "levels": null, "tract_id": "40109108301", "tract_name": "1083.01", "tags": {"building": "yes", "source": "microsoft/BuildingFootprints"}}}, {"type": "Feature", "geometry": {"type": "Polygon", "coordinates": [[[-97.5027978, 35.5542228], [-97.5027105, 35.5541553], [-97.5025859, 35.5542618], [-97.5026486, 35.5543103], [-97.5026834, 35.5542805], [-97.5027081, 35.5542996], [-97.5027978, 35.5542228]]]}, "properties": {"osm_id": 1253448264, "building": "yes", "name": "", "height": null, "height_m": null, "levels": null, "tract_id": "40109108301", "tract_name": "1083.01", "tags": {"building": "yes", "source": "microsoft/BuildingFootprints"}}}, {"type": "Feature", "geometry": {"type": "Polygon", "coordinates": [[[-97.5024891, 35.5543297], [-97.5025239, 35.5543594], [-97.5024733, 35.5543987], [-97.5025805, 35.5544902], [-97.5026494, 35.5544368], [-97.5026923, 35.5544735], [-97.5027373, 35.5544386], [-97.5025524, 35.5542806], [-97.5024891, 35.5543297]]]}, "properties": {"osm_id": 1253448265, "building": "yes", "name": "", "height": null, "height_m": null, "levels": null, "tract_id": "40109108301", "tract_name": "1083.01", "tags": {"building": "yes", "source": "microsoft/BuildingFootprints"}}}, {"type": "Feature", "geometry": {"type": "Polygon", "coordinates": [[[-97.5023182, 35.5545178], [-97.5023972, 35.5545858], [-97.5025118, 35.5544975], [-97.5024074, 35.5544077], [-97.5023408, 35.5544589], [-97.5023663, 35.5544808], [-97.5023182, 35.5545178]]]}, "properties": {"osm_id": 1253448266, "building": "yes", "name": "", "height": null, "height_m": null, "levels": null, "tract_id": "40109108301", "tract_name": "1083.01", "tags": {"building": "yes", "source": "microsoft/BuildingFootprints"}}}, {"type": "Feature", "geometry": {"type": "Polygon", "coordinates": [[[-97.5021376, 35.5546255], [-97.5022305, 35.5546963], [-97.5023505, 35.554592], [-97.5022575, 35.5545213], [-97.5021376, 35.5546255]]]}, "properties": {"osm_id": 1253448267, "building": "yes", "name": "", "height": null, "height_m": null, "levels": null, "tract_id": "40109108301", "tract_name": "1083.01", "tags": {"building": "yes", "source": "microsoft/BuildingFootprints"}}}, {"type": "Feature", "geometry": {"type": "Polygon", "coordinates": [[[-97.5026117, 35.5538123], [-97.5025327, 35.553744], [-97.5023961, 35.5538485], [-97.5024751, 35.5539168], [-97.5026117, 35.5538123]]]}, "properties": {"osm_id": 1253448268, "building": "yes", "name": "", "height": null, "height_m": null, "levels": null, "tract_id": "40109108301", "tract_name": "1083.01", "tags": {"building": "yes", "source": "microsoft/BuildingFootprints"}}}, {"type": "Feature", "geometry": {"type": "Polygon", "coordinates": [[[-97.5023958, 35.5540136], [-97.5024756, 35.5539532], [-97.502394, 35.5538818], [-97.5022567, 35.5539858], [-97.5023744, 35.5540887], [-97.5024319, 35.5540452], [-97.5023958, 35.5540136]]]}, "properties": {"osm_id": 1253448269, "building": "yes", "name": "", "height": null, "height_m": null, "levels": null, "tract_id": "40109108301", "tract_name": "1083.01", "tags": {"building": "yes", "source": "microsoft/BuildingFootprints"}}}, {"type": "Feature", "geometry": {"type": "Polygon", "coordinates": [[[-97.5021877, 35.554019], [-97.5021236, 35.5541212], [-97.5022045, 35.5541547], [-97.5022686, 35.5540525], [-97.5021877, 35.554019]]]}, "properties": {"osm_id": 1253448270, "building": "yes", "name": "", "height": null, "height_m": null, "levels": null, "tract_id": "40109108301", "tract_name": "1083.01", "tags": {"building": "yes", "source": "microsoft/BuildingFootprints"}}}, {"type": "Feature", "geometry": {"type": "Polygon", "coordinates": [[[-97.5020973, 35.5541282], [-97.5020139, 35.5541925], [-97.5020929, 35.5542603], [-97.5021763, 35.554196], [-97.5020973, 35.5541282]]]}, "properties": {"osm_id": 1253448271, "building": "yes", "name": "", "height": null, "height_m": null, "levels": null, "tract_id": "40109108301", "tract_name": "1083.01", "tags": {"building": "yes", "source": "microsoft/BuildingFootprints"}}}, {"type": "Feature", "geometry": {"type": "Polygon", "coordinates": [[[-97.5020129, 35.5543231], [-97.5019353, 35.5542553], [-97.5018061, 35.5543533], [-97.5018837, 35.554421], [-97.5020129, 35.5543231]]]}, "properties": {"osm_id": 1253448272, "building": "yes", "name": "", "height": null, "height_m": null, "levels": null, "tract_id": "40109108301", "tract_name": "1083.01", "tags": {"building": "yes", "source": "microsoft/BuildingFootprints"}}}, {"type": "Feature", "geometry": {"type": "Polygon", "coordinates": [[[-97.5018734, 35.5544385], [-97.5017999, 35.554374], [-97.5016616, 35.5544785], [-97.5017351, 35.5545429], [-97.5018734, 35.5544385]]]}, "properties": {"osm_id": 1253448273, "building": "yes", "name": "", "height": null, "height_m": null, "levels": null, "tract_id": "40109108301", "tract_name": "1083.01", "tags": {"building": "yes", "source": "microsoft/BuildingFootprints"}}}, {"type": "Feature", "geometry": {"type": "Polygon", "coordinates": [[[-97.5017156, 35.5545553], [-97.5016344, 35.5544932], [-97.5015067, 35.5546037], [-97.5015878, 35.5546658], [-97.5017156, 35.5545553]]]}, "properties": {"osm_id": 1253448274, "building": "yes", "name": "", "height": null, "height_m": null, "levels": null, "tract_id": "40109108301", "tract_name": "1083.01", "tags": {"building": "yes", "source": "microsoft/BuildingFootprints"}}}, {"type": "Feature", "geometry": {"type": "Polygon", "coordinates": [[[-97.5019691, 35.5535048], [-97.5021085, 35.5536127], [-97.5022392, 35.5535008], [-97.5021632, 35.553442], [-97.5020834, 35.5535103], [-97.50202, 35.5534612], [-97.5019691, 35.5535048]]]}, "properties": {"osm_id": 1253448275, "building": "yes", "name": "", "height": null, "height_m": null, "levels": null, "tract_id": "40109108301", "tract_name": "1083.01", "tags": {"building": "yes", "source": "microsoft/BuildingFootprints"}}}, {"type": "Feature", "geometry": {"type": "Polygon", "coordinates": [[[-97.5020089, 35.5535648], [-97.5018722, 35.5536711], [-97.5019491, 35.5537365], [-97.5020858, 35.5536302], [-97.5020089, 35.5535648]]]}, "properties": {"osm_id": 1253448276, "building": "yes", "name": "", "height": null, "height_m": null, "levels": null, "tract_id": "40109108301", "tract_name": "1083.01", "tags": {"building": "yes", "source": "microsoft/BuildingFootprints"}}}, {"type": "Feature", "geometry": {"type": "Polygon", "coordinates": [[[-97.5018486, 35.553688], [-97.5017238, 35.5537986], [-97.5018039, 35.5538584], [-97.5019287, 35.5537478], [-97.5018486, 35.553688]]]}, "properties": {"osm_id": 1253448277, "building": "yes", "name": "", "height": null, "height_m": null, "levels": null, "tract_id": "40109108301", "tract_name": "1083.01", "tags": {"building": "yes", "source": "microsoft/BuildingFootprints"}}}, {"type": "Feature", "geometry": {"type": "Polygon", "coordinates": [[[-97.5017907, 35.5538883], [-97.5017044, 35.5538157], [-97.5015742, 35.5539182], [-97.5016605, 35.5539908], [-97.5017907, 35.5538883]]]}, "properties": {"osm_id": 1253448278, "building": "yes", "name": "", "height": null, "height_m": null, "levels": null, "tract_id": "40109108301", "tract_name": "1083.01", "tags": {"building": "yes", "source": "microsoft/BuildingFootprints"}}}, {"type": "Feature", "geometry": {"type": "Polygon", "coordinates": [[[-97.501553, 35.5539381], [-97.5014841, 35.5539892], [-97.5015122, 35.5540142], [-97.5014492, 35.5540609], [-97.5015213, 35.5541253], [-97.5015608, 35.5540959], [-97.5016097, 35.5541395], [-97.5016668, 35.5540972], [-97.5016126, 35.5540488], [-97.5016478, 35.5540227], [-97.501553, 35.5539381]]]}, "properties": {"osm_id": 1253448279, "building": "yes", "name": "", "height": null, "height_m": null, "levels": null, "tract_id": "40109108301", "tract_name": "1083.01", "tags": {"building": "yes", "source": "microsoft/BuildingFootprints"}}}, {"type": "Feature", "geometry": {"type": "Polygon", "coordinates": [[[-97.5013586, 35.5541355], [-97.5013045, 35.5541822], [-97.5013882, 35.5542465], [-97.5014343, 35.5542067], [-97.5014797, 35.5542416], [-97.5015467, 35.5541838], [-97.5013891, 35.5540629], [-97.5013302, 35.5541138], [-97.5013586, 35.5541355]]]}, "properties": {"osm_id": 1253448280, "building": "yes", "name": "", "height": null, "height_m": null, "levels": null, "tract_id": "40109108301", "tract_name": "1083.01", "tags": {"building": "yes", "source": "microsoft/BuildingFootprints"}}}, {"type": "Feature", "geometry": {"type": "Polygon", "coordinates": [[[-97.5013378, 35.5542503], [-97.501247, 35.5541812], [-97.5011252, 35.5542871], [-97.501216, 35.5543563], [-97.5013378, 35.5542503]]]}, "properties": {"osm_id": 1253448281, "building": "yes", "name": "", "height": null, "height_m": null, "levels": null, "tract_id": "40109108301", "tract_name": "1083.01", "tags": {"building": "yes", "source": "microsoft/BuildingFootprints"}}}, {"type": "Feature", "geometry": {"type": "Polygon", "coordinates": [[[-97.5011153, 35.5544411], [-97.5011281, 35.5544525], [-97.5012171, 35.5543862], [-97.5011468, 35.5543238], [-97.5011053, 35.5543548], [-97.5010767, 35.5543294], [-97.5009731, 35.5544065], [-97.5010592, 35.554483], [-97.5011153, 35.5544411]]]}, "properties": {"osm_id": 1253448282, "building": "yes", "name": "", "height": null, "height_m": null, "levels": null, "tract_id": "40109108301", "tract_name": "1083.01", "tags": {"building": "yes", "source": "microsoft/BuildingFootprints"}}}, {"type": "Feature", "geometry": {"type": "Polygon", "coordinates": [[[-97.5008197, 35.5545276], [-97.5008837, 35.5545826], [-97.5009449, 35.5545365], [-97.5009612, 35.554549], [-97.5010362, 35.5544844], [-97.5009483, 35.5544169], [-97.5008197, 35.5545276]]]}, "properties": {"osm_id": 1253448283, "building": "yes", "name": "", "height": null, "height_m": null, "levels": null, "tract_id": "40109108301", "tract_name": "1083.01", "tags": {"building": "yes", "source": "microsoft/BuildingFootprints"}}}, {"type": "Feature", "geometry": {"type": "Polygon", "coordinates": [[[-97.5007416, 35.5546362], [-97.5007117, 35.5546139], [-97.5006697, 35.5546512], [-97.5007763, 35.5547306], [-97.5008992, 35.5546212], [-97.5008225, 35.5545642], [-97.5007416, 35.5546362]]]}, "properties": {"osm_id": 1253448284, "building": "yes", "name": "", "height": null, "height_m": null, "levels": null, "tract_id": "40109108301", "tract_name": "1083.01", "tags": {"building": "yes", "source": "microsoft/BuildingFootprints"}}}, {"type": "Feature", "geometry": {"type": "Polygon", "coordinates": [[[-97.5035224, 35.5546938], [-97.5034662, 35.5547414], [-97.5035511, 35.5548079], [-97.5036624, 35.5547138], [-97.5035251, 35.5546064], [-97.5034702, 35.5546529], [-97.5035224, 35.5546938]]]}, "properties": {"osm_id": 1253448285, "building": "yes", "name": "", "height": null, "height_m": null, "levels": null, "tract_id": "40109108301", "tract_name": "1083.01", "tags": {"building": "yes", "source": "microsoft/BuildingFootprints"}}}, {"type": "Feature", "geometry": {"type": "Polygon", "coordinates": [[[-97.5033198, 35.5547591], [-97.5032596, 35.5548109], [-97.5033996, 35.5549188], [-97.5035134, 35.554821], [-97.5034307, 35.5547572], [-97.5033771, 35.5548032], [-97.5033198, 35.5547591]]]}, "properties": {"osm_id": 1253448286, "building": "yes", "name": "", "height": null, "height_m": null, "levels": null, "tract_id": "40109108301", "tract_name": "1083.01", "tags": {"building": "yes", "source": "microsoft/BuildingFootprints"}}}, {"type": "Feature", "geometry": {"type": "Polygon", "coordinates": [[[-97.5032103, 35.5549378], [-97.5031554, 35.5548948], [-97.5030956, 35.5549453], [-97.5032325, 35.5550527], [-97.5033433, 35.5549592], [-97.5032612, 35.5548948], [-97.5032103, 35.5549378]]]}, "properties": {"osm_id": 1253448287, "building": "yes", "name": "", "height": null, "height_m": null, "levels": null, "tract_id": "40109108301", "tract_name": "1083.01", "tags": {"building": "yes", "source": "microsoft/BuildingFootprints"}}}, {"type": "Feature", "geometry": {"type": "Polygon", "coordinates": [[[-97.504421, 35.5540582], [-97.5044229, 35.5541289], [-97.5046306, 35.5541252], [-97.5046274, 35.5540031], [-97.5045135, 35.5540051], [-97.5045148, 35.5540566], [-97.504421, 35.5540582]]]}, "properties": {"osm_id": 1253448288, "building": "yes", "name": "", "height": null, "height_m": null, "levels": null, "tract_id": "40109108301", "tract_name": "1083.01", "tags": {"building": "yes", "source": "microsoft/BuildingFootprints"}}}, {"type": "Feature", "geometry": {"type": "Polygon", "coordinates": [[[-97.5046224, 35.5542876], [-97.5046199, 35.5541524], [-97.5045046, 35.5541538], [-97.5045058, 35.5542192], [-97.50442, 35.5542203], [-97.5044213, 35.5542901], [-97.5046224, 35.5542876]]]}, "properties": {"osm_id": 1253448289, "building": "yes", "name": "", "height": null, "height_m": null, "levels": null, "tract_id": "40109108301", "tract_name": "1083.01", "tags": {"building": "yes", "source": "microsoft/BuildingFootprints"}}}, {"type": "Feature", "geometry": {"type": "Polygon", "coordinates": [[[-97.5044783, 35.5544312], [-97.5045882, 35.5544296], [-97.5045872, 35.5543838], [-97.5046248, 35.5543832], [-97.5046232, 35.5543134], [-97.504406, 35.5543167], [-97.5044075, 35.5543821], [-97.5044772, 35.5543811], [-97.5044783, 35.5544312]]]}, "properties": {"osm_id": 1253448290, "building": "yes", "name": "", "height": null, "height_m": null, "levels": null, "tract_id": "40109108301", "tract_name": "1083.01", "tags": {"building": "yes", "source": "microsoft/BuildingFootprints"}}}, {"type": "Feature", "geometry": {"type": "Polygon", "coordinates": [[[-97.5039313, 35.5537551], [-97.5038222, 35.5536817], [-97.5037629, 35.5537401], [-97.5038012, 35.5537658], [-97.5037603, 35.553806], [-97.5038942, 35.553896], [-97.5039482, 35.5538428], [-97.5038852, 35.5538005], [-97.5039313, 35.5537551]]]}, "properties": {"osm_id": 1253448291, "building": "yes", "name": "", "height": null, "height_m": null, "levels": null, "tract_id": "40109108301", "tract_name": "1083.01", "tags": {"building": "yes", "source": "microsoft/BuildingFootprints"}}}, {"type": "Feature", "geometry": {"type": "Polygon", "coordinates": [[[-97.5039501, 35.5536483], [-97.5039697, 35.5537402], [-97.5040466, 35.5537293], [-97.5040588, 35.5537865], [-97.5041486, 35.5537739], [-97.5041168, 35.5536248], [-97.5039501, 35.5536483]]]}, "properties": {"osm_id": 1253448292, "building": "yes", "name": "", "height": null, "height_m": null, "levels": null, "tract_id": "40109108301", "tract_name": "1083.01", "tags": {"building": "yes", "source": "microsoft/BuildingFootprints"}}}, {"type": "Feature", "geometry": {"type": "Polygon", "coordinates": [[[-97.5042318, 35.5535926], [-97.5041508, 35.5536033], [-97.5041846, 35.5537726], [-97.504267, 35.5537617], [-97.5042564, 35.5537086], [-97.5043151, 35.5537008], [-97.5042981, 35.5536158], [-97.504238, 35.5536237], [-97.5042318, 35.5535926]]]}, "properties": {"osm_id": 1253448293, "building": "yes", "name": "", "height": null, "height_m": null, "levels": null, "tract_id": "40109108301", "tract_name": "1083.01", "tags": {"building": "yes", "source": "microsoft/BuildingFootprints"}}}, {"type": "Feature", "geometry": {"type": "Polygon", "coordinates": [[[-97.5043656, 35.5536103], [-97.5043638, 35.5537564], [-97.5044537, 35.5537572], [-97.5044543, 35.5537105], [-97.504516, 35.553711], [-97.5045178, 35.5535604], [-97.5044091, 35.5535596], [-97.5044085, 35.5536106], [-97.5043656, 35.5536103]]]}, "properties": {"osm_id": 1253448294, "building": "yes", "name": "", "height": null, "height_m": null, "levels": null, "tract_id": "40109108301", "tract_name": "1083.01", "tags": {"building": "yes", "source": "microsoft/BuildingFootprints"}}}, {"type": "Feature", "geometry": {"type": "Polygon", "coordinates": [[[-97.5026416, 35.5547064], [-97.5026805, 35.5547397], [-97.5026403, 35.5547707], [-97.5027194, 35.5548383], [-97.5027658, 35.5548023], [-97.5027931, 35.5548257], [-97.5028543, 35.5547783], [-97.5027092, 35.5546541], [-97.5026416, 35.5547064]]]}, "properties": {"osm_id": 1253448295, "building": "yes", "name": "", "height": null, "height_m": null, "levels": null, "tract_id": "40109108301", "tract_name": "1083.01", "tags": {"building": "yes", "source": "microsoft/BuildingFootprints"}}}, {"type": "Feature", "geometry": {"type": "Polygon", "coordinates": [[[-97.5026012, 35.5547817], [-97.5024946, 35.5548617], [-97.5025716, 35.5549297], [-97.502618, 35.5548949], [-97.502676, 35.5549461], [-97.5027362, 35.554901], [-97.5026012, 35.5547817]]]}, "properties": {"osm_id": 1253448296, "building": "yes", "name": "", "height": null, "height_m": null, "levels": null, "tract_id": "40109108301", "tract_name": "1083.01", "tags": {"building": "yes", "source": "microsoft/BuildingFootprints"}}}, {"type": "Feature", "geometry": {"type": "Polygon", "coordinates": [[[-97.5023656, 35.5549868], [-97.5024455, 35.5550501], [-97.5024978, 35.5550064], [-97.502546, 35.5550446], [-97.5026077, 35.554993], [-97.5024796, 35.5548916], [-97.5023656, 35.5549868]]]}, "properties": {"osm_id": 1253448297, "building": "yes", "name": "", "height": null, "height_m": null, "levels": null, "tract_id": "40109108301", "tract_name": "1083.01", "tags": {"building": "yes", "source": "microsoft/BuildingFootprints"}}}, {"type": "Feature", "geometry": {"type": "Polygon", "coordinates": [[[-97.5023258, 35.5549883], [-97.5022414, 35.5550598], [-97.5023223, 35.555123], [-97.5023008, 35.5551412], [-97.5023503, 35.5551799], [-97.5024562, 35.5550903], [-97.5023258, 35.5549883]]]}, "properties": {"osm_id": 1253448298, "building": "yes", "name": "", "height": null, "height_m": null, "levels": null, "tract_id": "40109108301", "tract_name": "1083.01", "tags": {"building": "yes", "source": "microsoft/BuildingFootprints"}}}, {"type": "Feature", "geometry": {"type": "Polygon", "coordinates": [[[-97.5019528, 35.5547638], [-97.5018384, 35.5548602], [-97.501914, 35.5549197], [-97.5020285, 35.5548232], [-97.5019528, 35.5547638]]]}, "properties": {"osm_id": 1253448299, "building": "yes", "name": "", "height": null, "height_m": null, "levels": null, "tract_id": "40109108301", "tract_name": "1083.01", "tags": {"building": "yes", "source": "microsoft/BuildingFootprints"}}}, {"type": "Feature", "geometry": {"type": "Polygon", "coordinates": [[[-97.5005725, 35.5630689], [-97.5005747, 35.5631932], [-97.5006994, 35.5631918], [-97.500699, 35.5631656], [-97.5007794, 35.5631647], [-97.5007768, 35.5630108], [-97.5006346, 35.5630124], [-97.5006356, 35.5630682], [-97.5005725, 35.5630689]]]}, "properties": {"osm_id": 1253448494, "building": "yes", "name": "", "height": null, "height_m": null, "levels": null, "tract_id": "40109108301", "tract_name": "1083.01", "tags": {"building": "yes", "source": "microsoft/BuildingFootprints"}}}, {"type": "Feature", "geometry": {"type": "Polygon", "coordinates": [[[-97.5020615, 35.5628726], [-97.5020624, 35.5629284], [-97.5024781, 35.5629241], [-97.5024772, 35.5628682], [-97.5020615, 35.5628726]]]}, "properties": {"osm_id": 1253448495, "building": "yes", "name": "", "height": null, "height_m": null, "levels": null, "tract_id": "40109108301", "tract_name": "1083.01", "tags": {"building": "yes", "source": "microsoft/BuildingFootprints"}}}, {"type": "Feature", "geometry": {"type": "Polygon", "coordinates": [[[-97.5021346, 35.5629756], [-97.5021301, 35.5631138], [-97.5022091, 35.5631155], [-97.5022136, 35.5629773], [-97.5021346, 35.5629756]]]}, "properties": {"osm_id": 1253448496, "building": "yes", "name": "", "height": null, "height_m": null, "levels": null, "tract_id": "40109108301", "tract_name": "1083.01", "tags": {"building": "yes", "source": "microsoft/BuildingFootprints"}}}, {"type": "Feature", "geometry": {"type": "Polygon", "coordinates": [[[-97.5017697, 35.5635175], [-97.5015525, 35.5635157], [-97.5015512, 35.5636182], [-97.5017684, 35.56362], [-97.5017697, 35.5635175]]]}, "properties": {"osm_id": 1253448497, "building": "yes", "name": "", "height": null, "height_m": null, "levels": null, "tract_id": "40109108301", "tract_name": "1083.01", "tags": {"building": "yes", "source": "microsoft/BuildingFootprints"}}}, {"type": "Feature", "geometry": {"type": "Polygon", "coordinates": [[[-97.5019432, 35.5639692], [-97.5017904, 35.5639663], [-97.5017872, 35.5640797], [-97.50194, 35.5640826], [-97.5019432, 35.5639692]]]}, "properties": {"osm_id": 1253448498, "building": "yes", "name": "", "height": null, "height_m": null, "levels": null, "tract_id": "40109108301", "tract_name": "1083.01", "tags": {"building": "yes", "source": "microsoft/BuildingFootprints"}}}, {"type": "Feature", "geometry": {"type": "Polygon", "coordinates": [[[-97.5029568, 35.5642506], [-97.5029606, 35.5640717], [-97.5027354, 35.5640685], [-97.5027315, 35.5642474], [-97.5029568, 35.5642506]]]}, "properties": {"osm_id": 1253448499, "building": "yes", "name": "", "height": null, "height_m": null, "levels": null, "tract_id": "40109108301", "tract_name": "1083.01", "tags": {"building": "yes", "source": "microsoft/BuildingFootprints"}}}, {"type": "Feature", "geometry": {"type": "Polygon", "coordinates": [[[-97.502902, 35.5643815], [-97.5030897, 35.5643851], [-97.5030919, 35.5643088], [-97.5029043, 35.5643052], [-97.502902, 35.5643815]]]}, "properties": {"osm_id": 1253448500, "building": "yes", "name": "", "height": null, "height_m": null, "levels": null, "tract_id": "40109108301", "tract_name": "1083.01", "tags": {"building": "yes", "source": "microsoft/BuildingFootprints"}}}, {"type": "Feature", "geometry": {"type": "Polygon", "coordinates": [[[-97.503704, 35.5643161], [-97.5037008, 35.5644535], [-97.504036, 35.5644586], [-97.5040377, 35.5643845], [-97.5039841, 35.5643837], [-97.5039855, 35.5643204], [-97.503704, 35.5643161]]]}, "properties": {"osm_id": 1253448501, "building": "yes", "name": "", "height": null, "height_m": null, "levels": null, "tract_id": "40109108301", "tract_name": "1083.01", "tags": {"building": "yes", "source": "microsoft/BuildingFootprints"}}}, {"type": "Feature", "geometry": {"type": "Polygon", "coordinates": [[[-97.5026146, 35.5638301], [-97.5026115, 35.5639326], [-97.5027509, 35.5639353], [-97.502754, 35.5638328], [-97.5026146, 35.5638301]]]}, "properties": {"osm_id": 1253448502, "building": "yes", "name": "", "height": null, "height_m": null, "levels": null, "tract_id": "40109108301", "tract_name": "1083.01", "tags": {"building": "yes", "source": "microsoft/BuildingFootprints"}}}, {"type": "Feature", "geometry": {"type": "Polygon", "coordinates": [[[-97.5066945, 35.5639202], [-97.5067964, 35.5639217], [-97.5067992, 35.5637974], [-97.5066973, 35.5637958], [-97.5066945, 35.5639202]]]}, "properties": {"osm_id": 1253448503, "building": "yes", "name": "", "height": null, "height_m": null, "levels": null, "tract_id": "40109108301", "tract_name": "1083.01", "tags": {"building": "yes", "source": "microsoft/BuildingFootprints"}}}, {"type": "Feature", "geometry": {"type": "Polygon", "coordinates": [[[-97.4986043, 35.5594951], [-97.4985997, 35.5596674], [-97.4987499, 35.55967], [-97.4987544, 35.5594977], [-97.4986043, 35.5594951]]]}, "properties": {"osm_id": 1253448504, "building": "yes", "name": "", "height": null, "height_m": null, "levels": null, "tract_id": "40109108301", "tract_name": "1083.01", "tags": {"building": "yes", "source": "microsoft/BuildingFootprints"}}}, {"type": "Feature", "geometry": {"type": "Polygon", "coordinates": [[[-97.4987461, 35.5598145], [-97.4986479, 35.5598132], [-97.4986462, 35.5599048], [-97.4986354, 35.5599047], [-97.4986331, 35.5600269], [-97.498742, 35.5600282], [-97.4987432, 35.5599639], [-97.4987888, 35.5599645], [-97.4987897, 35.5599176], [-97.4987441, 35.559917], [-97.4987461, 35.5598145]]]}, "properties": {"osm_id": 1253448505, "building": "yes", "name": "", "height": null, "height_m": null, "levels": null, "tract_id": "40109108301", "tract_name": "1083.01", "tags": {"building": "yes", "source": "microsoft/BuildingFootprints"}}}, {"type": "Feature", "geometry": {"type": "Polygon", "coordinates": [[[-97.4954303, 35.5613258], [-97.4951284, 35.5613252], [-97.4951275, 35.5616044], [-97.4954279, 35.561605], [-97.4954283, 35.5614938], [-97.4954834, 35.5614939], [-97.4954836, 35.561435], [-97.49543, 35.5614349], [-97.4954303, 35.5613258]]]}, "properties": {"osm_id": 1253448506, "building": "yes", "name": "", "height": null, "height_m": null, "levels": null, "tract_id": "40109108301", "tract_name": "1083.01", "tags": {"building": "yes", "source": "microsoft/BuildingFootprints"}}}, {"type": "Feature", "geometry": {"type": "Polygon", "coordinates": [[[-97.4947154, 35.5610228], [-97.4948415, 35.5610238], [-97.4948415, 35.5610216], [-97.49504, 35.5610232], [-97.4950414, 35.560901], [-97.4947169, 35.5608984], [-97.4947154, 35.5610228]]]}, "properties": {"osm_id": 1253448507, "building": "yes", "name": "", "height": null, "height_m": null, "levels": null, "tract_id": "40109108301", "tract_name": "1083.01", "tags": {"building": "yes", "source": "microsoft/BuildingFootprints"}}}, {"type": "Feature", "geometry": {"type": "Polygon", "coordinates": [[[-97.4945031, 35.5588568], [-97.4945879, 35.5588582], [-97.4945885, 35.558832], [-97.4947226, 35.5588343], [-97.4947251, 35.5587339], [-97.4945062, 35.5587303], [-97.4945031, 35.5588568]]]}, "properties": {"osm_id": 1253448508, "building": "yes", "name": "", "height": null, "height_m": null, "levels": null, "tract_id": "40109108301", "tract_name": "1083.01", "tags": {"building": "yes", "source": "microsoft/BuildingFootprints"}}}, {"type": "Feature", "geometry": {"type": "Polygon", "coordinates": [[[-97.4941818, 35.5588993], [-97.4943802, 35.5589028], [-97.494382, 35.5588308], [-97.4941836, 35.5588274], [-97.4941818, 35.5588993]]]}, "properties": {"osm_id": 1253448509, "building": "yes", "name": "", "height": null, "height_m": null, "levels": null, "tract_id": "40109108301", "tract_name": "1083.01", "tags": {"building": "yes", "source": "microsoft/BuildingFootprints"}}}, {"type": "Feature", "geometry": {"type": "Polygon", "coordinates": [[[-97.4940381, 35.5589057], [-97.4940402, 35.5588307], [-97.4938418, 35.5588271], [-97.4938397, 35.5589021], [-97.4940381, 35.5589057]]]}, "properties": {"osm_id": 1253448510, "building": "yes", "name": "", "height": null, "height_m": null, "levels": null, "tract_id": "40109108301", "tract_name": "1083.01", "tags": {"building": "yes", "source": "microsoft/BuildingFootprints"}}}, {"type": "Feature", "geometry": {"type": "Polygon", "coordinates": [[[-97.4935057, 35.5589038], [-97.4937024, 35.5589068], [-97.4937043, 35.5588261], [-97.4936658, 35.5588255], [-97.4936665, 35.5587936], [-97.4936022, 35.5587926], [-97.4936014, 35.5588267], [-97.4935075, 35.5588252], [-97.4935057, 35.5589038]]]}, "properties": {"osm_id": 1253448511, "building": "yes", "name": "", "height": null, "height_m": null, "levels": null, "tract_id": "40109108301", "tract_name": "1083.01", "tags": {"building": "yes", "source": "microsoft/BuildingFootprints"}}}, {"type": "Feature", "geometry": {"type": "Polygon", "coordinates": [[[-97.4933661, 35.5588976], [-97.493368, 35.5588038], [-97.493174, 35.5588011], [-97.493172, 35.5588979], [-97.4932507, 35.558899], [-97.4932504, 35.5589143], [-97.493296, 35.5589149], [-97.4932964, 35.5588966], [-97.4933661, 35.5588976]]]}, "properties": {"osm_id": 1253448512, "building": "yes", "name": "", "height": null, "height_m": null, "levels": null, "tract_id": "40109108301", "tract_name": "1083.01", "tags": {"building": "yes", "source": "microsoft/BuildingFootprints"}}}, {"type": "Feature", "geometry": {"type": "Polygon", "coordinates": [[[-97.49295, 35.5586521], [-97.4927918, 35.5586511], [-97.492792, 35.5586249], [-97.4927196, 35.5586244], [-97.4927198, 35.5586026], [-97.4926635, 35.5586023], [-97.4926626, 35.5587026], [-97.4927189, 35.558703], [-97.492718, 35.558799], [-97.4927877, 35.5587994], [-97.4927883, 35.558734], [-97.4928527, 35.5587344], [-97.4928522, 35.5587889], [-97.4929487, 35.5587895], [-97.49295, 35.5586521]]]}, "properties": {"osm_id": 1253448513, "building": "yes", "name": "", "height": null, "height_m": null, "levels": null, "tract_id": "40109108301", "tract_name": "1083.01", "tags": {"building": "yes", "source": "microsoft/BuildingFootprints"}}}, {"type": "Feature", "geometry": {"type": "Polygon", "coordinates": [[[-97.4926393, 35.558467], [-97.4926367, 35.5584125], [-97.4925296, 35.5584159], [-97.4925354, 35.5585379], [-97.4925542, 35.5585373], [-97.4925559, 35.5585722], [-97.4925853, 35.5585712], [-97.4925804, 35.5584688], [-97.4926393, 35.558467]]]}, "properties": {"osm_id": 1253448514, "building": "yes", "name": "", "height": null, "height_m": null, "levels": null, "tract_id": "40109108301", "tract_name": "1083.01", "tags": {"building": "yes", "source": "microsoft/BuildingFootprints"}}}, {"type": "Feature", "geometry": {"type": "Polygon", "coordinates": [[[-97.4921135, 35.5591636], [-97.4921629, 35.5590833], [-97.4920277, 35.5590283], [-97.491943, 35.5591662], [-97.4921403, 35.5592465], [-97.4921758, 35.5591889], [-97.4921135, 35.5591636]]]}, "properties": {"osm_id": 1253448515, "building": "yes", "name": "", "height": null, "height_m": null, "levels": null, "tract_id": "40109108301", "tract_name": "1083.01", "tags": {"building": "yes", "source": "microsoft/BuildingFootprints"}}}, {"type": "Feature", "geometry": {"type": "Polygon", "coordinates": [[[-97.4920825, 35.5593493], [-97.4920722, 35.5595366], [-97.4921686, 35.5595401], [-97.4921789, 35.5593528], [-97.4920825, 35.5593493]]]}, "properties": {"osm_id": 1253448516, "building": "yes", "name": "", "height": null, "height_m": null, "levels": null, "tract_id": "40109108301", "tract_name": "1083.01", "tags": {"building": "yes", "source": "microsoft/BuildingFootprints"}}}, {"type": "Feature", "geometry": {"type": "Polygon", "coordinates": [[[-97.4921458, 35.5596204], [-97.4920295, 35.5596218], [-97.4920331, 35.5598225], [-97.4921494, 35.5598211], [-97.4921458, 35.5596204]]]}, "properties": {"osm_id": 1253448517, "building": "yes", "name": "", "height": null, "height_m": null, "levels": null, "tract_id": "40109108301", "tract_name": "1083.01", "tags": {"building": "yes", "source": "microsoft/BuildingFootprints"}}}, {"type": "Feature", "geometry": {"type": "Polygon", "coordinates": [[[-97.4921588, 35.5598977], [-97.4920447, 35.5599074], [-97.492071, 35.5601125], [-97.4921851, 35.5601028], [-97.4921588, 35.5598977]]]}, "properties": {"osm_id": 1253448518, "building": "yes", "name": "", "height": null, "height_m": null, "levels": null, "tract_id": "40109108301", "tract_name": "1083.01", "tags": {"building": "yes", "source": "microsoft/BuildingFootprints"}}}, {"type": "Feature", "geometry": {"type": "Polygon", "coordinates": [[[-97.4923326, 35.5603476], [-97.4922366, 35.5601787], [-97.4921504, 35.5602111], [-97.4922465, 35.5603801], [-97.4923326, 35.5603476]]]}, "properties": {"osm_id": 1253448519, "building": "yes", "name": "", "height": null, "height_m": null, "levels": null, "tract_id": "40109108301", "tract_name": "1083.01", "tags": {"building": "yes", "source": "microsoft/BuildingFootprints"}}}, {"type": "Feature", "geometry": {"type": "Polygon", "coordinates": [[[-97.4925215, 35.559654], [-97.4925218, 35.5596955], [-97.4925593, 35.5596953], [-97.4925601, 35.5598022], [-97.4926476, 35.5598018], [-97.4926465, 35.5596535], [-97.4925215, 35.559654]]]}, "properties": {"osm_id": 1253448520, "building": "yes", "name": "", "height": null, "height_m": null, "levels": null, "tract_id": "40109108301", "tract_name": "1083.01", "tags": {"building": "yes", "source": "microsoft/BuildingFootprints"}}}, {"type": "Feature", "geometry": {"type": "Polygon", "coordinates": [[[-97.492812, 35.5592149], [-97.4927554, 35.5592536], [-97.4927871, 35.5592843], [-97.492655, 35.5593746], [-97.4927197, 35.5594372], [-97.4927758, 35.5593989], [-97.4928075, 35.5594296], [-97.4928804, 35.5593798], [-97.4928513, 35.5593517], [-97.4929111, 35.5593108], [-97.492812, 35.5592149]]]}, "properties": {"osm_id": 1253448521, "building": "yes", "name": "", "height": null, "height_m": null, "levels": null, "tract_id": "40109108301", "tract_name": "1083.01", "tags": {"building": "yes", "source": "microsoft/BuildingFootprints"}}}, {"type": "Feature", "geometry": {"type": "Polygon", "coordinates": [[[-97.4933682, 35.5592662], [-97.4933655, 35.5591921], [-97.4931689, 35.5591969], [-97.4931714, 35.5592645], [-97.4932581, 35.5592624], [-97.4932584, 35.5592689], [-97.4933682, 35.5592662]]]}, "properties": {"osm_id": 1253448522, "building": "yes", "name": "", "height": null, "height_m": null, "levels": null, "tract_id": "40109108301", "tract_name": "1083.01", "tags": {"building": "yes", "source": "microsoft/BuildingFootprints"}}}, {"type": "Feature", "geometry": {"type": "Polygon", "coordinates": [[[-97.4935027, 35.559268], [-97.4935895, 35.5592678], [-97.4935896, 35.5593027], [-97.4936621, 35.5593025], [-97.4936619, 35.5592689], [-97.4937038, 35.5592688], [-97.4937035, 35.5591976], [-97.4937303, 35.5591975], [-97.49373, 35.5591299], [-97.4936532, 35.5591301], [-97.4936535, 35.559186], [-97.4935023, 35.5591865], [-97.4935027, 35.559268]]]}, "properties": {"osm_id": 1253448523, "building": "yes", "name": "", "height": null, "height_m": null, "levels": null, "tract_id": "40109108301", "tract_name": "1083.01", "tags": {"building": "yes", "source": "microsoft/BuildingFootprints"}}}, {"type": "Feature", "geometry": {"type": "Polygon", "coordinates": [[[-97.4938477, 35.5592693], [-97.49392, 35.559268], [-97.493921, 35.559302], [-97.4939907, 35.5593007], [-97.4939934, 35.5593975], [-97.4940926, 35.5593957], [-97.4940894, 35.5592801], [-97.4940384, 35.5592811], [-97.4940357, 35.5591851], [-97.4938454, 35.5591886], [-97.4938477, 35.5592693]]]}, "properties": {"osm_id": 1253448524, "building": "yes", "name": "", "height": null, "height_m": null, "levels": null, "tract_id": "40109108301", "tract_name": "1083.01", "tags": {"building": "yes", "source": "microsoft/BuildingFootprints"}}}, {"type": "Feature", "geometry": {"type": "Polygon", "coordinates": [[[-97.4943634, 35.5592754], [-97.4943647, 35.5591903], [-97.4942547, 35.5591892], [-97.4942534, 35.5592743], [-97.4943634, 35.5592754]]]}, "properties": {"osm_id": 1253448525, "building": "yes", "name": "", "height": null, "height_m": null, "levels": null, "tract_id": "40109108301", "tract_name": "1083.01", "tags": {"building": "yes", "source": "microsoft/BuildingFootprints"}}}, {"type": "Feature", "geometry": {"type": "Polygon", "coordinates": [[[-97.4934401, 35.559397], [-97.4935179, 35.5593965], [-97.4935172, 35.5593245], [-97.4934394, 35.559325], [-97.4934401, 35.559397]]]}, "properties": {"osm_id": 1253448526, "building": "yes", "name": "", "height": null, "height_m": null, "levels": null, "tract_id": "40109108301", "tract_name": "1083.01", "tags": {"building": "yes", "source": "microsoft/BuildingFootprints"}}}, {"type": "Feature", "geometry": {"type": "Polygon", "coordinates": [[[-97.4932838, 35.5600736], [-97.4931981, 35.5600761], [-97.493201, 35.5601415], [-97.4931662, 35.5601425], [-97.4931713, 35.560258], [-97.4932302, 35.5602563], [-97.4932289, 35.5602258], [-97.4933601, 35.5602219], [-97.4933573, 35.5601587], [-97.4932877, 35.5601608], [-97.4932838, 35.5600736]]]}, "properties": {"osm_id": 1253448527, "building": "yes", "name": "", "height": null, "height_m": null, "levels": null, "tract_id": "40109108301", "tract_name": "1083.01", "tags": {"building": "yes", "source": "microsoft/BuildingFootprints"}}}, {"type": "Feature", "geometry": {"type": "Polygon", "coordinates": [[[-97.4936933, 35.5601195], [-97.4935431, 35.5601169], [-97.493542, 35.5601605], [-97.4934669, 35.5601591], [-97.4934642, 35.5602595], [-97.4936653, 35.560263], [-97.493666, 35.5602369], [-97.4937357, 35.5602381], [-97.4937377, 35.5601639], [-97.4936921, 35.5601631], [-97.4936933, 35.5601195]]]}, "properties": {"osm_id": 1253448528, "building": "yes", "name": "", "height": null, "height_m": null, "levels": null, "tract_id": "40109108301", "tract_name": "1083.01", "tags": {"building": "yes", "source": "microsoft/BuildingFootprints"}}}, {"type": "Feature", "geometry": {"type": "Polygon", "coordinates": [[[-97.4938381, 35.5602632], [-97.4940393, 35.5602653], [-97.4940405, 35.5601846], [-97.4939923, 35.5601841], [-97.4939927, 35.5601579], [-97.4939122, 35.5601571], [-97.4939117, 35.5601876], [-97.4938393, 35.5601869], [-97.4938381, 35.5602632]]]}, "properties": {"osm_id": 1253448529, "building": "yes", "name": "", "height": null, "height_m": null, "levels": null, "tract_id": "40109108301", "tract_name": "1083.01", "tags": {"building": "yes", "source": "microsoft/BuildingFootprints"}}}, {"type": "Feature", "geometry": {"type": "Polygon", "coordinates": [[[-97.4944856, 35.5602674], [-97.4944862, 35.5601888], [-97.4941697, 35.5601872], [-97.4941691, 35.5602658], [-97.4944856, 35.5602674]]]}, "properties": {"osm_id": 1253448530, "building": "yes", "name": "", "height": null, "height_m": null, "levels": null, "tract_id": "40109108301", "tract_name": "1083.01", "tags": {"building": "yes", "source": "microsoft/BuildingFootprints"}}}, {"type": "Feature", "geometry": {"type": "Polygon", "coordinates": [[[-97.4941802, 35.5606879], [-97.4943465, 35.5606896], [-97.4943485, 35.5605587], [-97.4942681, 35.5605579], [-97.4942676, 35.5605862], [-97.4941818, 35.5605853], [-97.4941802, 35.5606879]]]}, "properties": {"osm_id": 1253448531, "building": "yes", "name": "", "height": null, "height_m": null, "levels": null, "tract_id": "40109108301", "tract_name": "1083.01", "tags": {"building": "yes", "source": "microsoft/BuildingFootprints"}}}, {"type": "Feature", "geometry": {"type": "Polygon", "coordinates": [[[-97.4940224, 35.560593], [-97.4939312, 35.5605922], [-97.4939314, 35.5605747], [-97.4938536, 35.5605741], [-97.4938513, 35.5607565], [-97.4939521, 35.5607573], [-97.4939529, 35.5606919], [-97.4940211, 35.5606925], [-97.4940224, 35.560593]]]}, "properties": {"osm_id": 1253448532, "building": "yes", "name": "", "height": null, "height_m": null, "levels": null, "tract_id": "40109108301", "tract_name": "1083.01", "tags": {"building": "yes", "source": "microsoft/BuildingFootprints"}}}, {"type": "Feature", "geometry": {"type": "Polygon", "coordinates": [[[-97.4934753, 35.5606472], [-97.4937343, 35.5606438], [-97.4937325, 35.56055], [-97.4936746, 35.5605508], [-97.4936493, 35.5605511], [-97.4934734, 35.5605534], [-97.4934753, 35.5606472]]]}, "properties": {"osm_id": 1253448533, "building": "yes", "name": "", "height": null, "height_m": null, "levels": null, "tract_id": "40109108301", "tract_name": "1083.01", "tags": {"building": "yes", "source": "microsoft/BuildingFootprints"}}}, {"type": "Feature", "geometry": {"type": "Polygon", "coordinates": [[[-97.4931896, 35.5606857], [-97.4933076, 35.5606851], [-97.4933078, 35.5607078], [-97.493363, 35.5607075], [-97.4933619, 35.5605548], [-97.4932868, 35.5605551], [-97.4932868, 35.5605434], [-97.4931886, 35.5605439], [-97.4931896, 35.5606857]]]}, "properties": {"osm_id": 1253448534, "building": "yes", "name": "", "height": null, "height_m": null, "levels": null, "tract_id": "40109108301", "tract_name": "1083.01", "tags": {"building": "yes", "source": "microsoft/BuildingFootprints"}}}, {"type": "Feature", "geometry": {"type": "Polygon", "coordinates": [[[-97.4929846, 35.5605991], [-97.4929069, 35.5606003], [-97.4929066, 35.5605894], [-97.4927431, 35.5605919], [-97.4927452, 35.5606857], [-97.492823, 35.5606845], [-97.4928233, 35.5606976], [-97.4928742, 35.5606968], [-97.4928736, 35.5606714], [-97.4929862, 35.5606697], [-97.4929846, 35.5605991]]]}, "properties": {"osm_id": 1253448535, "building": "yes", "name": "", "height": null, "height_m": null, "levels": null, "tract_id": "40109108301", "tract_name": "1083.01", "tags": {"building": "yes", "source": "microsoft/BuildingFootprints"}}}, {"type": "Feature", "geometry": {"type": "Polygon", "coordinates": [[[-97.4924479, 35.5604229], [-97.4923798, 35.5605263], [-97.4925486, 35.5605999], [-97.4926167, 35.5604965], [-97.4924479, 35.5604229]]]}, "properties": {"osm_id": 1253448536, "building": "yes", "name": "", "height": null, "height_m": null, "levels": null, "tract_id": "40109108301", "tract_name": "1083.01", "tags": {"building": "yes", "source": "microsoft/BuildingFootprints"}}}, {"type": "Feature", "geometry": {"type": "Polygon", "coordinates": [[[-97.4917279, 35.5601712], [-97.4915217, 35.5601781], [-97.491526, 35.5602631], [-97.4917322, 35.5602562], [-97.4917279, 35.5601712]]]}, "properties": {"osm_id": 1253448537, "building": "yes", "name": "", "height": null, "height_m": null, "levels": null, "tract_id": "40109108301", "tract_name": "1083.01", "tags": {"building": "yes", "source": "microsoft/BuildingFootprints"}}}, {"type": "Feature", "geometry": {"type": "Polygon", "coordinates": [[[-97.4938071, 35.5608747], [-97.4938032, 35.5609815], [-97.4938675, 35.5609831], [-97.4938714, 35.5608763], [-97.4938071, 35.5608747]]]}, "properties": {"osm_id": 1253448538, "building": "yes", "name": "", "height": null, "height_m": null, "levels": null, "tract_id": "40109108301", "tract_name": "1083.01", "tags": {"building": "yes", "source": "microsoft/BuildingFootprints"}}}, {"type": "Feature", "geometry": {"type": "Polygon", "coordinates": [[[-97.4944487, 35.5654203], [-97.4947759, 35.5654177], [-97.4947752, 35.5653522], [-97.4948115, 35.565352], [-97.4948107, 35.5652843], [-97.4947824, 35.5652845], [-97.4947819, 35.565244], [-97.4946076, 35.5652454], [-97.4946069, 35.5651843], [-97.4944459, 35.5651856], [-97.4944487, 35.5654203]]]}, "properties": {"osm_id": 1253448539, "building": "yes", "name": "", "height": null, "height_m": null, "levels": null, "tract_id": "40109108301", "tract_name": "1083.01", "tags": {"building": "yes", "source": "microsoft/BuildingFootprints"}}}, {"type": "Feature", "geometry": {"type": "Polygon", "coordinates": [[[-97.4952158, 35.5653208], [-97.4955323, 35.5653208], [-97.4955323, 35.5652663], [-97.4955001, 35.5652663], [-97.4955001, 35.5652052], [-97.4955082, 35.5652052], [-97.4955082, 35.5649346], [-97.4952158, 35.5649346], [-97.4952158, 35.5653208]]]}, "properties": {"osm_id": 1253448540, "building": "yes", "name": "", "height": null, "height_m": null, "levels": null, "tract_id": "40109108301", "tract_name": "1083.01", "tags": {"building": "yes", "source": "microsoft/BuildingFootprints"}}}, {"type": "Feature", "geometry": {"type": "Polygon", "coordinates": [[[-97.4924079, 35.5661358], [-97.492668, 35.5661369], [-97.4926682, 35.5661063], [-97.4927272, 35.5661066], [-97.4927278, 35.5660054], [-97.4926769, 35.5660052], [-97.492677, 35.5659842], [-97.4924088, 35.5659831], [-97.4924079, 35.5661358]]]}, "properties": {"osm_id": 1253448541, "building": "yes", "name": "", "height": null, "height_m": null, "levels": null, "tract_id": "40109108301", "tract_name": "1083.01", "tags": {"building": "yes", "source": "microsoft/BuildingFootprints"}}}, {"type": "Feature", "geometry": {"type": "Polygon", "coordinates": [[[-97.4913632, 35.5659488], [-97.4913733, 35.5660287], [-97.49147, 35.5660206], [-97.4914773, 35.566078], [-97.4914363, 35.5660814], [-97.4914476, 35.56617], [-97.4915511, 35.5661613], [-97.4915629, 35.566255], [-97.4916373, 35.5662487], [-97.4916156, 35.5660782], [-97.4916884, 35.5660721], [-97.4916806, 35.5660108], [-97.4916037, 35.5660172], [-97.4915926, 35.5659296], [-97.4913632, 35.5659488]]]}, "properties": {"osm_id": 1253448542, "building": "yes", "name": "", "height": null, "height_m": null, "levels": null, "tract_id": "40109108301", "tract_name": "1083.01", "tags": {"building": "yes", "source": "microsoft/BuildingFootprints"}}}, {"type": "Feature", "geometry": {"type": "Polygon", "coordinates": [[[-97.4917928, 35.5666486], [-97.4915595, 35.5666527], [-97.4915613, 35.5667203], [-97.4917034, 35.5667178], [-97.4917045, 35.5667584], [-97.4917956, 35.5667568], [-97.4917928, 35.5666486]]]}, "properties": {"osm_id": 1253448543, "building": "yes", "name": "", "height": null, "height_m": null, "levels": null, "tract_id": "40109108301", "tract_name": "1083.01", "tags": {"building": "yes", "source": "microsoft/BuildingFootprints"}}}, {"type": "Feature", "geometry": {"type": "Polygon", "coordinates": [[[-97.4910651, 35.5678207], [-97.4910616, 35.5679144], [-97.4912716, 35.5679195], [-97.4912751, 35.5678258], [-97.4910651, 35.5678207]]]}, "properties": {"osm_id": 1253450543, "building": "yes", "name": "", "height": null, "height_m": null, "levels": null, "tract_id": "40109108301", "tract_name": "1083.01", "tags": {"building": "yes", "source": "microsoft/BuildingFootprints"}}}, {"type": "Feature", "geometry": {"type": "Polygon", "coordinates": [[[-97.4910621, 35.5677781], [-97.491248, 35.5677817], [-97.4912502, 35.5677098], [-97.4911366, 35.5677075], [-97.4911355, 35.5677446], [-97.4910632, 35.5677432], [-97.4910621, 35.5677781]]]}, "properties": {"osm_id": 1253450544, "building": "yes", "name": "", "height": null, "height_m": null, "levels": null, "tract_id": "40109108301", "tract_name": "1083.01", "tags": {"building": "yes", "source": "microsoft/BuildingFootprints"}}}, {"type": "Feature", "geometry": {"type": "Polygon", "coordinates": [[[-97.4915509, 35.567759], [-97.4916554, 35.5677624], [-97.4916637, 35.5675947], [-97.4915593, 35.5675913], [-97.4915509, 35.567759]]]}, "properties": {"osm_id": 1253450545, "building": "yes", "name": "", "height": null, "height_m": null, "levels": null, "tract_id": "40109108301", "tract_name": "1083.01", "tags": {"building": "yes", "source": "microsoft/BuildingFootprints"}}}, {"type": "Feature", "geometry": {"type": "Polygon", "coordinates": [[[-97.4971335, 35.5717072], [-97.4971314, 35.5717967], [-97.497126, 35.5717966], [-97.4971248, 35.5718479], [-97.4974881, 35.5718535], [-97.4974913, 35.5717128], [-97.4971335, 35.5717072]]]}, "properties": {"osm_id": 1253450546, "building": "yes", "name": "", "height": null, "height_m": null, "levels": null, "tract_id": "40109108301", "tract_name": "1083.01", "tags": {"building": "yes", "source": "microsoft/BuildingFootprints"}}}, {"type": "Feature", "geometry": {"type": "Polygon", "coordinates": [[[-97.4965676, 35.5715536], [-97.4965544, 35.5712782], [-97.4963803, 35.5712837], [-97.4963974, 35.5716398], [-97.4964804, 35.5716371], [-97.4964766, 35.5715565], [-97.4965676, 35.5715536]]]}, "properties": {"osm_id": 1253450547, "building": "yes", "name": "", "height": null, "height_m": null, "levels": null, "tract_id": "40109108301", "tract_name": "1083.01", "tags": {"building": "yes", "source": "microsoft/BuildingFootprints"}}}, {"type": "Feature", "geometry": {"type": "Polygon", "coordinates": [[[-97.4981781, 35.5703074], [-97.4982666, 35.5703085], [-97.4982711, 35.570062], [-97.4981826, 35.5700609], [-97.4981781, 35.5703074]]]}, "properties": {"osm_id": 1253450548, "building": "yes", "name": "", "height": null, "height_m": null, "levels": null, "tract_id": "40109108301", "tract_name": "1083.01", "tags": {"building": "yes", "source": "microsoft/BuildingFootprints"}}}, {"type": "Feature", "geometry": {"type": "Polygon", "coordinates": [[[-97.4987395, 35.5706648], [-97.4988682, 35.5706669], [-97.4988717, 35.5705251], [-97.4985875, 35.5705204], [-97.4985849, 35.5706251], [-97.4987404, 35.5706277], [-97.4987395, 35.5706648]]]}, "properties": {"osm_id": 1253450549, "building": "yes", "name": "", "height": null, "height_m": null, "levels": null, "tract_id": "40109108301", "tract_name": "1083.01", "tags": {"building": "yes", "source": "microsoft/BuildingFootprints"}}}, {"type": "Feature", "geometry": {"type": "Polygon", "coordinates": [[[-97.498915, 35.5708793], [-97.4987046, 35.5708773], [-97.4987031, 35.5709886], [-97.4989135, 35.5709905], [-97.498915, 35.5708793]]]}, "properties": {"osm_id": 1253450550, "building": "yes", "name": "", "height": null, "height_m": null, "levels": null, "tract_id": "40109108301", "tract_name": "1083.01", "tags": {"building": "yes", "source": "microsoft/BuildingFootprints"}}}, {"type": "Feature", "geometry": {"type": "Polygon", "coordinates": [[[-97.4992194, 35.5710728], [-97.4992736, 35.5710259], [-97.4992381, 35.5709987], [-97.4992702, 35.5709709], [-97.4991614, 35.5708877], [-97.499075, 35.5709624], [-97.4992194, 35.5710728]]]}, "properties": {"osm_id": 1253450551, "building": "yes", "name": "", "height": null, "height_m": null, "levels": null, "tract_id": "40109108301", "tract_name": "1083.01", "tags": {"building": "yes", "source": "microsoft/BuildingFootprints"}}}, {"type": "Feature", "geometry": {"type": "Polygon", "coordinates": [[[-97.50008, 35.571898], [-97.5000828, 35.5716721], [-97.4999528, 35.5716711], [-97.4999509, 35.571825], [-97.4999884, 35.5718253], [-97.4999876, 35.5718973], [-97.50008, 35.571898]]]}, "properties": {"osm_id": 1253450552, "building": "yes", "name": "", "height": null, "height_m": null, "levels": null, "tract_id": "40109108301", "tract_name": "1083.01", "tags": {"building": "yes", "source": "microsoft/BuildingFootprints"}}}, {"type": "Feature", "geometry": {"type": "Polygon", "coordinates": [[[-97.5015968, 35.57152], [-97.5013154, 35.5714361], [-97.5012643, 35.5715496], [-97.5015457, 35.5716334], [-97.5015968, 35.57152]]]}, "properties": {"osm_id": 1253450553, "building": "yes", "name": "", "height": null, "height_m": null, "levels": null, "tract_id": "40109108301", "tract_name": "1083.01", "tags": {"building": "yes", "source": "microsoft/BuildingFootprints"}}}, {"type": "Feature", "geometry": {"type": "Polygon", "coordinates": [[[-97.499935, 35.5722447], [-97.500104, 35.5722461], [-97.5001048, 35.5721785], [-97.5000391, 35.5721779], [-97.5000407, 35.5720482], [-97.4999374, 35.5720474], [-97.499935, 35.5722447]]]}, "properties": {"osm_id": 1253450554, "building": "yes", "name": "", "height": null, "height_m": null, "levels": null, "tract_id": "40109108301", "tract_name": "1083.01", "tags": {"building": "yes", "source": "microsoft/BuildingFootprints"}}}, {"type": "Feature", "geometry": {"type": "Polygon", "coordinates": [[[-97.4994785, 35.5721321], [-97.4993721, 35.57214], [-97.4993917, 35.5723141], [-97.4994981, 35.5723062], [-97.4994785, 35.5721321]]]}, "properties": {"osm_id": 1253450555, "building": "yes", "name": "", "height": null, "height_m": null, "levels": null, "tract_id": "40109108301", "tract_name": "1083.01", "tags": {"building": "yes", "source": "microsoft/BuildingFootprints"}}}, {"type": "Feature", "geometry": {"type": "Polygon", "coordinates": [[[-97.5007323, 35.5731225], [-97.5007724, 35.5732794], [-97.5008829, 35.5732607], [-97.5008926, 35.5732984], [-97.5009825, 35.5732831], [-97.5009692, 35.5732309], [-97.5010078, 35.5732243], [-97.5009821, 35.573124], [-97.5010695, 35.5731092], [-97.5010588, 35.5730674], [-97.5007323, 35.5731225]]]}, "properties": {"osm_id": 1253450556, "building": "yes", "name": "", "height": null, "height_m": null, "levels": null, "tract_id": "40109108301", "tract_name": "1083.01", "tags": {"building": "yes", "source": "microsoft/BuildingFootprints"}}}, {"type": "Feature", "geometry": {"type": "Polygon", "coordinates": [[[-97.5008369, 35.573707], [-97.5010005, 35.5737081], [-97.5010016, 35.5736055], [-97.5008046, 35.5736042], [-97.5008038, 35.5736762], [-97.5008372, 35.5736764], [-97.5008369, 35.573707]]]}, "properties": {"osm_id": 1253450557, "building": "yes", "name": "", "height": null, "height_m": null, "levels": null, "tract_id": "40109108301", "tract_name": "1083.01", "tags": {"building": "yes", "source": "microsoft/BuildingFootprints"}}}, {"type": "Feature", "geometry": {"type": "Polygon", "coordinates": [[[-97.5011078, 35.5734872], [-97.5010327, 35.5734858], [-97.5010292, 35.573607], [-97.5011042, 35.5736084], [-97.5011078, 35.5734872]]]}, "properties": {"osm_id": 1253450558, "building": "yes", "name": "", "height": null, "height_m": null, "levels": null, "tract_id": "40109108301", "tract_name": "1083.01", "tags": {"building": "yes", "source": "microsoft/BuildingFootprints"}}}, {"type": "Feature", "geometry": {"type": "Polygon", "coordinates": [[[-97.5055857, 35.5741758], [-97.50539, 35.5741724], [-97.5053881, 35.5742444], [-97.5053264, 35.5742433], [-97.5053236, 35.5743493], [-97.505581, 35.5743537], [-97.5055857, 35.5741758]]]}, "properties": {"osm_id": 1253450559, "building": "yes", "name": "", "height": null, "height_m": null, "levels": null, "tract_id": "40109108301", "tract_name": "1083.01", "tags": {"building": "yes", "source": "microsoft/BuildingFootprints"}}}, {"type": "Feature", "geometry": {"type": "Polygon", "coordinates": [[[-97.5063634, 35.5744682], [-97.5065002, 35.5744705], [-97.5065024, 35.5743855], [-97.5064151, 35.574384], [-97.5064162, 35.5743413], [-97.5063357, 35.5743399], [-97.5063334, 35.5744306], [-97.5063644, 35.5744311], [-97.5063634, 35.5744682]]]}, "properties": {"osm_id": 1253450560, "building": "yes", "name": "", "height": null, "height_m": null, "levels": null, "tract_id": "40109108301", "tract_name": "1083.01", "tags": {"building": "yes", "source": "microsoft/BuildingFootprints"}}}, {"type": "Feature", "geometry": {"type": "Polygon", "coordinates": [[[-97.5069243, 35.5742019], [-97.5067339, 35.574204], [-97.5067378, 35.5744265], [-97.5069282, 35.5744243], [-97.5069243, 35.5742019]]]}, "properties": {"osm_id": 1253450561, "building": "yes", "name": "", "height": null, "height_m": null, "levels": null, "tract_id": "40109108301", "tract_name": "1083.01", "tags": {"building": "yes", "source": "microsoft/BuildingFootprints"}}}, {"type": "Feature", "geometry": {"type": "Polygon", "coordinates": [[[-97.5079079, 35.573975], [-97.5077067, 35.5739763], [-97.5077075, 35.5740592], [-97.5077144, 35.5740591], [-97.5077154, 35.5741726], [-97.5079097, 35.5741713], [-97.5079079, 35.573975]]]}, "properties": {"osm_id": 1253450562, "building": "yes", "name": "", "height": null, "height_m": null, "levels": null, "tract_id": "40109108301", "tract_name": "1083.01", "tags": {"building": "yes", "source": "microsoft/BuildingFootprints"}}}, {"type": "Feature", "geometry": {"type": "Polygon", "coordinates": [[[-97.5088038, 35.5743115], [-97.5088977, 35.5743116], [-97.5088977, 35.5743236], [-97.5091161, 35.5743237], [-97.5091162, 35.5741754], [-97.5090265, 35.5741753], [-97.5090265, 35.5742157], [-97.5088039, 35.5742155], [-97.5088038, 35.5743115]]]}, "properties": {"osm_id": 1253450563, "building": "yes", "name": "", "height": null, "height_m": null, "levels": null, "tract_id": "40109108301", "tract_name": "1083.01", "tags": {"building": "yes", "source": "microsoft/BuildingFootprints"}}}, {"type": "Feature", "geometry": {"type": "Polygon", "coordinates": [[[-97.5088983, 35.5738663], [-97.5088673, 35.5738659], [-97.5088692, 35.5737753], [-97.5087286, 35.5737733], [-97.5087267, 35.5738617], [-97.5087964, 35.5738627], [-97.5087939, 35.5739793], [-97.5088958, 35.5739808], [-97.5088983, 35.5738663]]]}, "properties": {"osm_id": 1253450564, "building": "yes", "name": "", "height": null, "height_m": null, "levels": null, "tract_id": "40109108301", "tract_name": "1083.01", "tags": {"building": "yes", "source": "microsoft/BuildingFootprints"}}}, {"type": "Feature", "geometry": {"type": "Polygon", "coordinates": [[[-97.5093674, 35.5738034], [-97.5093708, 35.5736617], [-97.509281, 35.5736603], [-97.5092777, 35.573802], [-97.5093674, 35.5738034]]]}, "properties": {"osm_id": 1253450565, "building": "yes", "name": "", "height": null, "height_m": null, "levels": null, "tract_id": "40109108301", "tract_name": "1083.01", "tags": {"building": "yes", "source": "microsoft/BuildingFootprints"}}}, {"type": "Feature", "geometry": {"type": "Polygon", "coordinates": [[[-97.511329, 35.5742519], [-97.5112498, 35.5742519], [-97.5112498, 35.5742802], [-97.5110286, 35.5742802], [-97.5110286, 35.5743653], [-97.5111145, 35.5743653], [-97.5111145, 35.5743958], [-97.5111976, 35.5743958], [-97.5111976, 35.5743653], [-97.5112513, 35.5743653], [-97.5112513, 35.5743937], [-97.511329, 35.5743937], [-97.511329, 35.5742519]]]}, "properties": {"osm_id": 1253450566, "building": "yes", "name": "", "height": null, "height_m": null, "levels": null, "tract_id": "40109108301", "tract_name": "1083.01", "tags": {"building": "yes", "source": "microsoft/BuildingFootprints"}}}, {"type": "Feature", "geometry": {"type": "Polygon", "coordinates": [[[-97.5113283, 35.5749602], [-97.5112069, 35.5749038], [-97.5112231, 35.5748808], [-97.511132, 35.5748385], [-97.5110292, 35.574985], [-97.5112417, 35.5750836], [-97.5113283, 35.5749602]]]}, "properties": {"osm_id": 1253450567, "building": "yes", "name": "", "height": null, "height_m": null, "levels": null, "tract_id": "40109108301", "tract_name": "1083.01", "tags": {"building": "yes", "source": "microsoft/BuildingFootprints"}}}, {"type": "Feature", "geometry": {"type": "Polygon", "coordinates": [[[-97.5111712, 35.5752957], [-97.5110372, 35.5752924], [-97.5110327, 35.5754111], [-97.5111667, 35.5754144], [-97.5111712, 35.5752957]]]}, "properties": {"osm_id": 1253450568, "building": "yes", "name": "", "height": null, "height_m": null, "levels": null, "tract_id": "40109108301", "tract_name": "1083.01", "tags": {"building": "yes", "source": "microsoft/BuildingFootprints"}}}, {"type": "Feature", "geometry": {"type": "Polygon", "coordinates": [[[-97.5083773, 35.5749993], [-97.5084273, 35.5749031], [-97.5082931, 35.5748569], [-97.5083105, 35.5748236], [-97.5082218, 35.5747931], [-97.5081592, 35.5749133], [-97.5082115, 35.5749313], [-97.5081874, 35.5749776], [-97.5082634, 35.5750037], [-97.5082827, 35.5749667], [-97.5083773, 35.5749993]]]}, "properties": {"osm_id": 1253450569, "building": "yes", "name": "", "height": null, "height_m": null, "levels": null, "tract_id": "40109108301", "tract_name": "1083.01", "tags": {"building": "yes", "source": "microsoft/BuildingFootprints"}}}, {"type": "Feature", "geometry": {"type": "Polygon", "coordinates": [[[-97.5073368, 35.5750712], [-97.5073359, 35.5751039], [-97.5074067, 35.5751051], [-97.5074102, 35.5749709], [-97.5072601, 35.5749683], [-97.5072574, 35.5750698], [-97.5073368, 35.5750712]]]}, "properties": {"osm_id": 1253450570, "building": "yes", "name": "", "height": null, "height_m": null, "levels": null, "tract_id": "40109108301", "tract_name": "1083.01", "tags": {"building": "yes", "source": "microsoft/BuildingFootprints"}}}, {"type": "Feature", "geometry": {"type": "Polygon", "coordinates": [[[-97.5082942, 35.5761128], [-97.5081681, 35.5761114], [-97.5081655, 35.5762707], [-97.5082915, 35.5762721], [-97.5082942, 35.5761128]]]}, "properties": {"osm_id": 1253450571, "building": "yes", "name": "", "height": null, "height_m": null, "levels": null, "tract_id": "40109108301", "tract_name": "1083.01", "tags": {"building": "yes", "source": "microsoft/BuildingFootprints"}}}, {"type": "Feature", "geometry": {"type": "Polygon", "coordinates": [[[-97.506107, 35.5758677], [-97.5062652, 35.57587], [-97.5062671, 35.5757862], [-97.5063153, 35.5757869], [-97.5063172, 35.5757006], [-97.5062759, 35.5757], [-97.5062777, 35.5756171], [-97.5061195, 35.5756148], [-97.5061187, 35.575654], [-97.5060769, 35.5756534], [-97.5060744, 35.5757668], [-97.5061092, 35.5757674], [-97.506107, 35.5758677]]]}, "properties": {"osm_id": 1253450572, "building": "yes", "name": "", "height": null, "height_m": null, "levels": null, "tract_id": "40109108301", "tract_name": "1083.01", "tags": {"building": "yes", "source": "microsoft/BuildingFootprints"}}}, {"type": "Feature", "geometry": {"type": "Polygon", "coordinates": [[[-97.5054355, 35.57533], [-97.5053537, 35.5753447], [-97.5053788, 35.5754374], [-97.5053266, 35.5754468], [-97.5053633, 35.575582], [-97.5054948, 35.5755584], [-97.5054756, 35.5754877], [-97.5055447, 35.5754753], [-97.5055283, 35.575415], [-97.5054618, 35.5754269], [-97.5054355, 35.57533]]]}, "properties": {"osm_id": 1253450573, "building": "yes", "name": "", "height": null, "height_m": null, "levels": null, "tract_id": "40109108301", "tract_name": "1083.01", "tags": {"building": "yes", "source": "microsoft/BuildingFootprints"}}}, {"type": "Feature", "geometry": {"type": "Polygon", "coordinates": [[[-97.5051709, 35.5758765], [-97.505167, 35.5757553], [-97.505034, 35.5757581], [-97.5050379, 35.5758794], [-97.5051709, 35.5758765]]]}, "properties": {"osm_id": 1253450574, "building": "yes", "name": "", "height": null, "height_m": null, "levels": null, "tract_id": "40109108301", "tract_name": "1083.01", "tags": {"building": "yes", "source": "microsoft/BuildingFootprints"}}}, {"type": "Feature", "geometry": {"type": "Polygon", "coordinates": [[[-97.5064158, 35.5760571], [-97.5062806, 35.576084], [-97.5063196, 35.5762137], [-97.5064547, 35.5761868], [-97.5064158, 35.5760571]]]}, "properties": {"osm_id": 1253450575, "building": "yes", "name": "", "height": null, "height_m": null, "levels": null, "tract_id": "40109108301", "tract_name": "1083.01", "tags": {"building": "yes", "source": "microsoft/BuildingFootprints"}}}, {"type": "Feature", "geometry": {"type": "Polygon", "coordinates": [[[-97.5044933, 35.5763093], [-97.5043083, 35.5763057], [-97.5043052, 35.5764112], [-97.5044902, 35.5764147], [-97.5044933, 35.5763093]]]}, "properties": {"osm_id": 1253450576, "building": "yes", "name": "", "height": null, "height_m": null, "levels": null, "tract_id": "40109108301", "tract_name": "1083.01", "tags": {"building": "yes", "source": "microsoft/BuildingFootprints"}}}, {"type": "Feature", "geometry": {"type": "Polygon", "coordinates": [[[-97.5075397, 35.5743424], [-97.5073547, 35.5743399], [-97.5073518, 35.5744807], [-97.5074954, 35.5744826], [-97.5074965, 35.5744312], [-97.5075379, 35.5744318], [-97.5075397, 35.5743424]]]}, "properties": {"osm_id": 1253450577, "building": "yes", "name": "", "height": null, "height_m": null, "levels": null, "tract_id": "40109108301", "tract_name": "1083.01", "tags": {"building": "yes", "source": "microsoft/BuildingFootprints"}}}, {"type": "Feature", "geometry": {"type": "Polygon", "coordinates": [[[-97.5117157, 35.5748529], [-97.5116445, 35.5748395], [-97.5116107, 35.5749574], [-97.5116744, 35.5749695], [-97.5116835, 35.5749375], [-97.5118005, 35.5749597], [-97.5118183, 35.5748976], [-97.5117089, 35.5748769], [-97.5117157, 35.5748529]]]}, "properties": {"osm_id": 1253450578, "building": "yes", "name": "", "height": null, "height_m": null, "levels": null, "tract_id": "40109108301", "tract_name": "1083.01", "tags": {"building": "yes", "source": "microsoft/BuildingFootprints"}}}, {"type": "Feature", "geometry": {"type": "Polygon", "coordinates": [[[-97.5113165, 35.5732452], [-97.5112374, 35.5732463], [-97.5112418, 35.5734361], [-97.5113208, 35.5734349], [-97.5113165, 35.5732452]]]}, "properties": {"osm_id": 1253450579, "building": "yes", "name": "", "height": null, "height_m": null, "levels": null, "tract_id": "40109108301", "tract_name": "1083.01", "tags": {"building": "yes", "source": "microsoft/BuildingFootprints"}}}, {"type": "Feature", "geometry": {"type": "Polygon", "coordinates": [[[-97.5129383, 35.5763241], [-97.5129731, 35.5763234], [-97.5129705, 35.5762318], [-97.5128472, 35.5762342], [-97.5128529, 35.5764348], [-97.5129414, 35.5764331], [-97.5129383, 35.5763241]]]}, "properties": {"osm_id": 1253450580, "building": "yes", "name": "", "height": null, "height_m": null, "levels": null, "tract_id": "40109108301", "tract_name": "1083.01", "tags": {"building": "yes", "source": "microsoft/BuildingFootprints"}}}, {"type": "Feature", "geometry": {"type": "Polygon", "coordinates": [[[-97.5127518, 35.5760288], [-97.5127529, 35.5760864], [-97.5128655, 35.5760851], [-97.5128645, 35.5760275], [-97.5127518, 35.5760288]]]}, "properties": {"osm_id": 1253450581, "building": "yes", "name": "", "height": null, "height_m": null, "levels": null, "tract_id": "40109108301", "tract_name": "1083.01", "tags": {"building": "yes", "source": "microsoft/BuildingFootprints"}}}, {"type": "Feature", "geometry": {"type": "Polygon", "coordinates": [[[-97.5126263, 35.5760357], [-97.512511, 35.5760372], [-97.5125123, 35.5761091], [-97.5126276, 35.5761077], [-97.5126263, 35.5760357]]]}, "properties": {"osm_id": 1253450582, "building": "yes", "name": "", "height": null, "height_m": null, "levels": null, "tract_id": "40109108301", "tract_name": "1083.01", "tags": {"building": "yes", "source": "microsoft/BuildingFootprints"}}}, {"type": "Feature", "geometry": {"type": "Polygon", "coordinates": [[[-97.5106573, 35.5780042], [-97.5104106, 35.5780006], [-97.5104081, 35.5781118], [-97.5106548, 35.5781154], [-97.5106573, 35.5780042]]]}, "properties": {"osm_id": 1253450583, "building": "yes", "name": "", "height": null, "height_m": null, "levels": null, "tract_id": "40109108301", "tract_name": "1083.01", "tags": {"building": "yes", "source": "microsoft/BuildingFootprints"}}}, {"type": "Feature", "geometry": {"type": "Polygon", "coordinates": [[[-97.5111843, 35.5780983], [-97.5113023, 35.5780962], [-97.5112999, 35.5780089], [-97.5111819, 35.5780111], [-97.5111843, 35.5780983]]]}, "properties": {"osm_id": 1253450584, "building": "yes", "name": "", "height": null, "height_m": null, "levels": null, "tract_id": "40109108301", "tract_name": "1083.01", "tags": {"building": "yes", "source": "microsoft/BuildingFootprints"}}}, {"type": "Feature", "geometry": {"type": "Polygon", "coordinates": [[[-97.5079157, 35.5774815], [-97.5078542, 35.5774837], [-97.50786, 35.5775882], [-97.5079215, 35.5775859], [-97.5079157, 35.5774815]]]}, "properties": {"osm_id": 1253450585, "building": "yes", "name": "", "height": null, "height_m": null, "levels": null, "tract_id": "40109108301", "tract_name": "1083.01", "tags": {"building": "yes", "source": "microsoft/BuildingFootprints"}}}, {"type": "Feature", "geometry": {"type": "Polygon", "coordinates": [[[-97.5109542, 35.5722962], [-97.5110509, 35.5718544], [-97.510487, 35.5717727], [-97.5104361, 35.5720053], [-97.5103849, 35.5719802], [-97.5102793, 35.5721317], [-97.510396, 35.5721888], [-97.5103903, 35.5722145], [-97.5109542, 35.5722962]]]}, "properties": {"osm_id": 1436269164, "building": "office", "name": "", "height": null, "height_m": null, "levels": null, "tract_id": "40109108301", "tract_name": "1083.01", "tags": {"building": "office"}}}]}