{"type": "FeatureCollection", "features": [{"type": "Feature", "geometry": {"type": "Polygon", "coordinates": [[[-95.9496217, 36.1324543], [-95.9496646, 36.1324873], [-95.9496244, 36.1325171], [-95.9496291, 36.1327007], [-95.9496506, 36.1327012], [-95.9496526, 36.1327906], [-95.9496237, 36.1327895], [-95.9496231, 36.132776], [-95.9494521, 36.1327776], [-95.9494507, 36.1327955], [-95.9494377, 36.1327966], [-95.9494372, 36.1328045], [-95.9493239, 36.1328051], [-95.9493238, 36.1327982], [-95.9493115, 36.1327982], [-95.9493113, 36.1327792], [-95.9492466, 36.1327795], [-95.9492468, 36.1327928], [-95.9490966, 36.1327936], [-95.9490951, 36.1326028], [-95.9492327, 36.1326021], [-95.9492321, 36.1324537], [-95.9496217, 36.1324543]]]}, "properties": {"osm_id": 220670637, "building": "warehouse", "name": "Extra Space Storage", "height": null, "height_m": null, "levels": null, "tract_id": "40143004200", "tract_name": "42", "tags": {"addr:city": "Tulsa", "addr:country": "US", "addr:housenumber": "2740", "addr:postcode": "74114", "addr:state": "OK", "addr:street": "East 21st Street South", "brand": "Extra Space Storage", "brand:wikidata": "Q5422162", "building": "warehouse", "name": "Extra Space Storage", "shop": "storage_rental"}}}, {"type": "Feature", "geometry": {"type": "Polygon", "coordinates": [[[-95.9500785, 36.121052], [-95.9500119, 36.1210599], [-95.9500023, 36.1210073], [-95.9499767, 36.1210103], [-95.949948, 36.1208519], [-95.9499292, 36.1208487], [-95.9498997, 36.120827], [-95.9498942, 36.1208002], [-95.9496613, 36.1208314], [-95.9496516, 36.1207838], [-95.9495631, 36.1207956], [-95.9495564, 36.1207826], [-95.9494293, 36.1207996], [-95.9494137, 36.1207235], [-95.9494368, 36.1207204], [-95.9494199, 36.1206374], [-95.9495171, 36.1206245], [-95.9495342, 36.1207087], [-95.9496819, 36.1206892], [-95.9496793, 36.1206763], [-95.9497581, 36.1206661], [-95.9497645, 36.1206988], [-95.9497865, 36.120696], [-95.9497912, 36.1207206], [-95.9498838, 36.1207091], [-95.9498874, 36.1207283], [-95.9500321, 36.1207107], [-95.9500437, 36.1207728], [-95.9500777, 36.1207687], [-95.9501095, 36.120941], [-95.9500593, 36.1209471], [-95.9500785, 36.121052]]]}, "properties": {"osm_id": 251543208, "building": "detached", "name": "", "height": null, "height_m": null, "levels": null, "tract_id": "40143004200", "tract_name": "42", "tags": {"building": "detached"}}}, {"type": "Feature", "geometry": {"type": "Polygon", "coordinates": [[[-95.9528613, 36.1222078], [-95.9528337, 36.1221756], [-95.9528758, 36.1221521], [-95.9527999, 36.1220633], [-95.9527824, 36.1220677], [-95.9527333, 36.1220123], [-95.9528133, 36.1219659], [-95.9527931, 36.1219352], [-95.9528401, 36.1219149], [-95.9528519, 36.1219275], [-95.9528937, 36.1219019], [-95.9529031, 36.1219084], [-95.9530397, 36.121831], [-95.9530482, 36.1218409], [-95.953066, 36.1218308], [-95.9531076, 36.1218787], [-95.9530107, 36.1219336], [-95.9530299, 36.1219557], [-95.9529216, 36.122017], [-95.9529045, 36.1219973], [-95.9528897, 36.1220568], [-95.9529679, 36.1221483], [-95.9528613, 36.1222078]]]}, "properties": {"osm_id": 251548630, "building": "detached", "name": "", "height": null, "height_m": null, "levels": null, "tract_id": "40143004200", "tract_name": "42", "tags": {"addr:city": "Tulsa", "addr:country": "US", "addr:housenumber": "2515", "addr:postcode": "74114", "addr:state": "OK", "addr:street": "East 28th Street South", "building": "detached"}}}, {"type": "Feature", "geometry": {"type": "Polygon", "coordinates": [[[-95.9580487, 36.1329121], [-95.9579489, 36.1329107], [-95.9578612, 36.1329095], [-95.9578612, 36.132808], [-95.9579465, 36.1328084], [-95.9580507, 36.1328088], [-95.9580487, 36.1329121]]]}, "properties": {"osm_id": 296786324, "building": "roof", "name": "", "height": null, "height_m": null, "levels": null, "tract_id": "40143004200", "tract_name": "42", "tags": {"building": "roof", "layer": "1"}}}, {"type": "Feature", "geometry": {"type": "Polygon", "coordinates": [[[-95.9578108, 36.1331164], [-95.957811, 36.1330318], [-95.9578112, 36.1329623], [-95.9576894, 36.1329621], [-95.9576891, 36.1330348], [-95.9576889, 36.1331161], [-95.9578108, 36.1331164]]]}, "properties": {"osm_id": 296786325, "building": "roof", "name": "", "height": null, "height_m": null, "levels": null, "tract_id": "40143004200", "tract_name": "42", "tags": {"building": "roof", "layer": "1"}}}, {"type": "Feature", "geometry": {"type": "Polygon", "coordinates": [[[-95.9578445, 36.1329488], [-95.9576223, 36.1329476], [-95.9576227, 36.1328997], [-95.9576575, 36.1328998], [-95.9576583, 36.1327851], [-95.9578458, 36.132786], [-95.9578445, 36.1329488]]]}, "properties": {"osm_id": 296786326, "building": "yes", "name": "Reeder's", "height": null, "height_m": null, "levels": null, "tract_id": "40143004200", "tract_name": "42", "tags": {"addr:city": "Tulsa", "addr:country": "US", "addr:housenumber": "2406", "addr:postcode": "74114", "addr:state": "OK", "addr:street": "East 21st Street South", "building": "yes", "building:colour": "red", "check_date": "2024-08-07", "name": "Reeder's", "payment:credit_cards": "yes", "payment:debit_cards": "yes", "shop": "convenience"}}}, {"type": "Feature", "geometry": {"type": "Polygon", "coordinates": [[[-95.9410333, 36.1328355], [-95.9410313, 36.1325068], [-95.9409408, 36.1324375], [-95.9407, 36.1324407], [-95.940698, 36.1328112], [-95.9407067, 36.1328296], [-95.9407268, 36.1328377], [-95.9410333, 36.1328355]]]}, "properties": {"osm_id": 619011534, "building": "retail", "name": "", "height": null, "height_m": 3.0, "levels": 1, "tract_id": "40143004200", "tract_name": "42", "tags": {"addr:housenumber": "2110", "addr:street": "South Harvard Avenue East", "building": "retail", "building:levels": "1", "check_date": "2025-07-07", "disused:shop": "yes", "roof:levels": "0", "roof:shape": "flat"}}}, {"type": "Feature", "geometry": {"type": "Polygon", "coordinates": [[[-95.9579709, 36.13113], [-95.9579706, 36.1312468], [-95.9579011, 36.1312466], [-95.9579013, 36.1311977], [-95.9578324, 36.1311975], [-95.9578327, 36.1311287], [-95.9579709, 36.13113]]]}, "properties": {"osm_id": 627976452, "building": "yes", "name": "", "height": null, "height_m": null, "levels": null, "tract_id": "40143004200", "tract_name": "42", "tags": {"building": "yes"}}}, {"type": "Feature", "geometry": {"type": "Polygon", "coordinates": [[[-95.9575233, 36.1311722], [-95.9575248, 36.1310945], [-95.9574533, 36.1310936], [-95.9574524, 36.1311385], [-95.9573028, 36.1311366], [-95.9573016, 36.1311965], [-95.9573281, 36.1311968], [-95.9573277, 36.1312181], [-95.9573697, 36.1312187], [-95.9573693, 36.1312403], [-95.9574562, 36.1312414], [-95.9574576, 36.1311714], [-95.9575233, 36.1311722]]]}, "properties": {"osm_id": 627976453, "building": "yes", "name": "", "height": null, "height_m": null, "levels": null, "tract_id": "40143004200", "tract_name": "42", "tags": {"building": "yes"}}}, {"type": "Feature", "geometry": {"type": "Polygon", "coordinates": [[[-95.9565058, 36.1312255], [-95.9565068, 36.1311564], [-95.9564968, 36.1311563], [-95.9564974, 36.1311184], [-95.9564375, 36.1311178], [-95.9564367, 36.1311648], [-95.9562865, 36.1311633], [-95.956286, 36.1311917], [-95.9562591, 36.1311914], [-95.9562582, 36.1312505], [-95.956339, 36.1312513], [-95.9563387, 36.1312713], [-95.9563768, 36.1312717], [-95.9563772, 36.1312477], [-95.9564456, 36.1312484], [-95.956446, 36.1312249], [-95.9565058, 36.1312255]]]}, "properties": {"osm_id": 627976454, "building": "yes", "name": "", "height": null, "height_m": null, "levels": null, "tract_id": "40143004200", "tract_name": "42", "tags": {"building": "yes"}}}, {"type": "Feature", "geometry": {"type": "Polygon", "coordinates": [[[-95.9561903, 36.131238], [-95.9561924, 36.1311484], [-95.9560404, 36.1311461], [-95.9560396, 36.1311807], [-95.9559982, 36.13118], [-95.9559969, 36.1312366], [-95.9560811, 36.1312379], [-95.9560806, 36.1312588], [-95.9561581, 36.13126], [-95.9561586, 36.1312375], [-95.9561903, 36.131238]]]}, "properties": {"osm_id": 627976455, "building": "yes", "name": "", "height": null, "height_m": null, "levels": null, "tract_id": "40143004200", "tract_name": "42", "tags": {"building": "yes"}}}, {"type": "Feature", "geometry": {"type": "Polygon", "coordinates": [[[-95.9557011, 36.1312797], [-95.9557001, 36.1311511], [-95.955552, 36.1311518], [-95.955553, 36.1312805], [-95.9557011, 36.1312797]]]}, "properties": {"osm_id": 627976456, "building": "yes", "name": "", "height": null, "height_m": null, "levels": null, "tract_id": "40143004200", "tract_name": "42", "tags": {"building": "yes"}}}, {"type": "Feature", "geometry": {"type": "Polygon", "coordinates": [[[-95.9551836, 36.1308402], [-95.955109, 36.130841], [-95.9551088, 36.1308283], [-95.9549634, 36.1308298], [-95.9549619, 36.1307334], [-95.9551089, 36.1307318], [-95.9551088, 36.1307203], [-95.9551816, 36.1307196], [-95.9551836, 36.1308402]]]}, "properties": {"osm_id": 627976457, "building": "yes", "name": "", "height": null, "height_m": null, "levels": null, "tract_id": "40143004200", "tract_name": "42", "tags": {"building": "yes"}}}, {"type": "Feature", "geometry": {"type": "Polygon", "coordinates": [[[-95.9559783, 36.1308677], [-95.9559772, 36.1307871], [-95.9559246, 36.1307875], [-95.9559236, 36.1307125], [-95.9557443, 36.130714], [-95.9557456, 36.1308148], [-95.9558802, 36.1308136], [-95.9558809, 36.1308686], [-95.9559783, 36.1308677]]]}, "properties": {"osm_id": 627976458, "building": "yes", "name": "", "height": null, "height_m": null, "levels": null, "tract_id": "40143004200", "tract_name": "42", "tags": {"building": "yes"}}}, {"type": "Feature", "geometry": {"type": "Polygon", "coordinates": [[[-95.9567259, 36.1308412], [-95.9567285, 36.1307069], [-95.9566689, 36.1307061], [-95.956668, 36.1307524], [-95.9565943, 36.1307514], [-95.9565953, 36.1306983], [-95.9565417, 36.1306976], [-95.9565393, 36.1308168], [-95.9566254, 36.1308179], [-95.956625, 36.1308399], [-95.9567259, 36.1308412]]]}, "properties": {"osm_id": 627976459, "building": "yes", "name": "", "height": null, "height_m": null, "levels": null, "tract_id": "40143004200", "tract_name": "42", "tags": {"building": "yes"}}}, {"type": "Feature", "geometry": {"type": "Polygon", "coordinates": [[[-95.9572742, 36.1308533], [-95.9571576, 36.1308558], [-95.9571556, 36.130794], [-95.9570962, 36.1307952], [-95.9570947, 36.1307479], [-95.9570679, 36.1307484], [-95.9570668, 36.1307157], [-95.9572621, 36.1307116], [-95.957264, 36.1307713], [-95.9572123, 36.1307724], [-95.957213, 36.1307954], [-95.9572723, 36.1307942], [-95.9572742, 36.1308533]]]}, "properties": {"osm_id": 627976460, "building": "yes", "name": "", "height": null, "height_m": null, "levels": null, "tract_id": "40143004200", "tract_name": "42", "tags": {"building": "yes"}}}, {"type": "Feature", "geometry": {"type": "Polygon", "coordinates": [[[-95.9580378, 36.1301804], [-95.9580375, 36.1301485], [-95.9580373, 36.1301155], [-95.9579247, 36.1301161], [-95.9579251, 36.1301734], [-95.9579138, 36.1301735], [-95.9579143, 36.1302534], [-95.9578309, 36.1302538], [-95.9578316, 36.13037], [-95.9578944, 36.1303698], [-95.9578943, 36.130355], [-95.9579344, 36.1303549], [-95.9579346, 36.1303841], [-95.9579556, 36.130384], [-95.9579747, 36.130384], [-95.9579747, 36.1303697], [-95.9580369, 36.1303695], [-95.9580365, 36.1302801], [-95.9579922, 36.1302802], [-95.9579921, 36.1302583], [-95.958004, 36.1302582], [-95.9580038, 36.1301946], [-95.9580185, 36.130187], [-95.9580184, 36.1301805], [-95.9580378, 36.1301804]]]}, "properties": {"osm_id": 628053293, "building": "detached", "name": "", "height": null, "height_m": null, "levels": null, "tract_id": "40143004200", "tract_name": "42", "tags": {"addr:housenumber": "2404", "addr:street": "East 22nd Place", "building": "detached"}}}, {"type": "Feature", "geometry": {"type": "Polygon", "coordinates": [[[-95.957512, 36.1302908], [-95.9574319, 36.1302911], [-95.9574323, 36.1303602], [-95.9573167, 36.1303606], [-95.9573166, 36.1303493], [-95.9572939, 36.1303494], [-95.9572934, 36.1302567], [-95.9573674, 36.1302564], [-95.9573676, 36.1302844], [-95.957412, 36.1302842], [-95.9574119, 36.1302701], [-95.9574528, 36.1302699], [-95.9574524, 36.1302025], [-95.9575115, 36.1302023], [-95.957512, 36.1302908]]]}, "properties": {"osm_id": 628053294, "building": "yes", "name": "", "height": null, "height_m": null, "levels": null, "tract_id": "40143004200", "tract_name": "42", "tags": {"building": "yes"}}}, {"type": "Feature", "geometry": {"type": "Polygon", "coordinates": [[[-95.9572381, 36.1303555], [-95.9572001, 36.1303551], [-95.9571997, 36.1303787], [-95.9571289, 36.130378], [-95.9571292, 36.1303551], [-95.9570741, 36.1303546], [-95.9570752, 36.1302808], [-95.9571404, 36.1302815], [-95.9571407, 36.1302574], [-95.9572395, 36.1302583], [-95.9572381, 36.1303555]]]}, "properties": {"osm_id": 628053295, "building": "yes", "name": "", "height": null, "height_m": null, "levels": null, "tract_id": "40143004200", "tract_name": "42", "tags": {"building": "yes"}}}, {"type": "Feature", "geometry": {"type": "Polygon", "coordinates": [[[-95.9569224, 36.1303609], [-95.9569216, 36.1302709], [-95.9567975, 36.1302715], [-95.9567984, 36.1303789], [-95.9568557, 36.1303786], [-95.9568555, 36.1303613], [-95.9569224, 36.1303609]]]}, "properties": {"osm_id": 628053296, "building": "yes", "name": "", "height": null, "height_m": null, "levels": null, "tract_id": "40143004200", "tract_name": "42", "tags": {"building": "yes"}}}, {"type": "Feature", "geometry": {"type": "Polygon", "coordinates": [[[-95.9553837, 36.1303775], [-95.9552259, 36.1303808], [-95.9552233, 36.1303011], [-95.9552665, 36.1303002], [-95.9552649, 36.1302534], [-95.9553321, 36.130252], [-95.9553336, 36.1302989], [-95.9553811, 36.1302979], [-95.9553837, 36.1303775]]]}, "properties": {"osm_id": 628053297, "building": "yes", "name": "", "height": null, "height_m": null, "levels": null, "tract_id": "40143004200", "tract_name": "42", "tags": {"building": "yes"}}}, {"type": "Feature", "geometry": {"type": "Polygon", "coordinates": [[[-95.9552007, 36.1303126], [-95.9551989, 36.1301803], [-95.9551301, 36.1301809], [-95.9551312, 36.1302587], [-95.9550019, 36.1302598], [-95.9550038, 36.1304052], [-95.9551275, 36.1304041], [-95.9551263, 36.1303133], [-95.9552007, 36.1303126]]]}, "properties": {"osm_id": 628053298, "building": "yes", "name": "", "height": null, "height_m": null, "levels": null, "tract_id": "40143004200", "tract_name": "42", "tags": {"building": "yes"}}}, {"type": "Feature", "geometry": {"type": "Polygon", "coordinates": [[[-95.9580239, 36.129924], [-95.9579344, 36.1299237], [-95.9579343, 36.1299414], [-95.9578736, 36.1299412], [-95.9578735, 36.1299745], [-95.9578069, 36.1299743], [-95.9578072, 36.1298947], [-95.9578363, 36.1298948], [-95.9578685, 36.1298948], [-95.9578687, 36.1298283], [-95.9580242, 36.1298286], [-95.9580239, 36.129924]]]}, "properties": {"osm_id": 628053300, "building": "detached", "name": "", "height": null, "height_m": null, "levels": null, "tract_id": "40143004200", "tract_name": "42", "tags": {"addr:city": "Tulsa", "addr:country": "US", "addr:housenumber": "2401", "addr:postcode": "74114", "addr:state": "OK", "addr:street": "East 23rd Street South", "building": "detached"}}}, {"type": "Feature", "geometry": {"type": "Polygon", "coordinates": [[[-95.9577512, 36.1299151], [-95.9577505, 36.1298376], [-95.9576773, 36.129838], [-95.9576772, 36.1298287], [-95.9576445, 36.1298289], [-95.9576446, 36.1298389], [-95.9575724, 36.1298393], [-95.9575732, 36.1299164], [-95.9576638, 36.1299158], [-95.9576639, 36.129926], [-95.9577211, 36.1299257], [-95.957721, 36.1299153], [-95.9577512, 36.1299151]]]}, "properties": {"osm_id": 628053301, "building": "yes", "name": "", "height": null, "height_m": null, "levels": null, "tract_id": "40143004200", "tract_name": "42", "tags": {"addr:city": "Tulsa", "addr:country": "US", "addr:housenumber": "2411", "addr:postcode": "74114", "addr:state": "OK", "addr:street": "East 23rd Street South", "building": "yes"}}}, {"type": "Feature", "geometry": {"type": "Polygon", "coordinates": [[[-95.9572516, 36.1299301], [-95.9571564, 36.1299333], [-95.9571579, 36.1299622], [-95.9571279, 36.1299632], [-95.9571297, 36.1299987], [-95.9570429, 36.1300016], [-95.9570384, 36.1299136], [-95.9570715, 36.1299125], [-95.9570702, 36.1298859], [-95.9570393, 36.1298869], [-95.9570367, 36.1298357], [-95.9571842, 36.1298308], [-95.9571855, 36.129857], [-95.9572478, 36.1298549], [-95.9572516, 36.1299301]]]}, "properties": {"osm_id": 628053302, "building": "yes", "name": "", "height": null, "height_m": null, "levels": null, "tract_id": "40143004200", "tract_name": "42", "tags": {"addr:city": "Tulsa", "addr:country": "US", "addr:housenumber": "2423", "addr:postcode": "74114", "addr:state": "OK", "addr:street": "East 23rd Street South", "building": "yes"}}}, {"type": "Feature", "geometry": {"type": "Polygon", "coordinates": [[[-95.956991, 36.1299129], [-95.9569297, 36.1299127], [-95.9569298, 36.1299016], [-95.9568912, 36.1299015], [-95.9568909, 36.1299728], [-95.9568011, 36.1299726], [-95.9568014, 36.1298981], [-95.956772, 36.1298981], [-95.9567722, 36.1298387], [-95.9569325, 36.1298391], [-95.9569324, 36.1298584], [-95.9569912, 36.1298585], [-95.956991, 36.1299129]]]}, "properties": {"osm_id": 628053303, "building": "yes", "name": "", "height": null, "height_m": null, "levels": null, "tract_id": "40143004200", "tract_name": "42", "tags": {"addr:city": "Tulsa", "addr:country": "US", "addr:housenumber": "2427", "addr:postcode": "74114", "addr:state": "OK", "addr:street": "East 23rd Street South", "building": "yes"}}}, {"type": "Feature", "geometry": {"type": "Polygon", "coordinates": [[[-95.9564538, 36.129935], [-95.9564529, 36.1298394], [-95.9563986, 36.1298397], [-95.9563985, 36.1298287], [-95.9562916, 36.1298293], [-95.9562921, 36.1298856], [-95.9562725, 36.1298857], [-95.9562729, 36.129931], [-95.9563394, 36.1299306], [-95.9563396, 36.1299464], [-95.9564081, 36.129946], [-95.956408, 36.1299353], [-95.9564538, 36.129935]]]}, "properties": {"osm_id": 628053304, "building": "yes", "name": "", "height": null, "height_m": null, "levels": null, "tract_id": "40143004200", "tract_name": "42", "tags": {"addr:city": "Tulsa", "addr:country": "US", "addr:housenumber": "2439", "addr:postcode": "74114", "addr:state": "OK", "addr:street": "East 23rd Street South", "building": "yes"}}}, {"type": "Feature", "geometry": {"type": "Polygon", "coordinates": [[[-95.9547387, 36.1311212], [-95.9547397, 36.1312936], [-95.9546992, 36.1312938], [-95.9546993, 36.1313078], [-95.9546212, 36.1313081], [-95.9546211, 36.1312895], [-95.9545523, 36.1312898], [-95.9545518, 36.1312055], [-95.9545972, 36.1312053], [-95.9545965, 36.1310916], [-95.9545555, 36.1310918], [-95.9545551, 36.13103], [-95.954654, 36.1310296], [-95.954654, 36.1310402], [-95.9547119, 36.13104], [-95.9547124, 36.1311213], [-95.9547387, 36.1311212]]]}, "properties": {"osm_id": 628054233, "building": "yes", "name": "", "height": null, "height_m": null, "levels": null, "tract_id": "40143004200", "tract_name": "42", "tags": {"building": "yes"}}}, {"type": "Feature", "geometry": {"type": "Polygon", "coordinates": [[[-95.9542711, 36.1312534], [-95.9541909, 36.131253], [-95.9541912, 36.1312211], [-95.9541124, 36.1312207], [-95.9541126, 36.1311925], [-95.9540391, 36.1311922], [-95.9540399, 36.1310949], [-95.9542323, 36.1310959], [-95.9542314, 36.1312108], [-95.9542714, 36.131211], [-95.9542711, 36.1312534]]]}, "properties": {"osm_id": 628054234, "building": "yes", "name": "", "height": null, "height_m": null, "levels": null, "tract_id": "40143004200", "tract_name": "42", "tags": {"building": "yes"}}}, {"type": "Feature", "geometry": {"type": "Polygon", "coordinates": [[[-95.9540244, 36.1312242], [-95.9540224, 36.1311578], [-95.9539632, 36.131159], [-95.9539624, 36.1311329], [-95.9538067, 36.131136], [-95.9538102, 36.1312497], [-95.9538417, 36.131249], [-95.9538423, 36.1312697], [-95.953877, 36.131269], [-95.9538773, 36.1312794], [-95.9539454, 36.131278], [-95.9539438, 36.1312258], [-95.9540244, 36.1312242]]]}, "properties": {"osm_id": 628054235, "building": "yes", "name": "", "height": null, "height_m": null, "levels": null, "tract_id": "40143004200", "tract_name": "42", "tags": {"building": "yes"}}}, {"type": "Feature", "geometry": {"type": "Polygon", "coordinates": [[[-95.9528233, 36.1312818], [-95.9526289, 36.1312855], [-95.9526269, 36.1312178], [-95.9527267, 36.131216], [-95.9527257, 36.1311811], [-95.9528204, 36.1311793], [-95.9528233, 36.1312818]]]}, "properties": {"osm_id": 628054236, "building": "yes", "name": "", "height": null, "height_m": null, "levels": null, "tract_id": "40143004200", "tract_name": "42", "tags": {"building": "yes"}}}, {"type": "Feature", "geometry": {"type": "Polygon", "coordinates": [[[-95.9524838, 36.1312901], [-95.9524815, 36.131158], [-95.9523834, 36.1311592], [-95.9523845, 36.1312174], [-95.9522714, 36.1312187], [-95.9522727, 36.1312926], [-95.9524838, 36.1312901]]]}, "properties": {"osm_id": 628054237, "building": "yes", "name": "", "height": null, "height_m": null, "levels": null, "tract_id": "40143004200", "tract_name": "42", "tags": {"building": "yes"}}}, {"type": "Feature", "geometry": {"type": "Polygon", "coordinates": [[[-95.9497748, 36.1308711], [-95.9497055, 36.1308701], [-95.9497061, 36.1308469], [-95.9494998, 36.1308439], [-95.9495017, 36.1307614], [-95.9497023, 36.1307644], [-95.9497012, 36.1308124], [-95.9497761, 36.1308135], [-95.9497748, 36.1308711]]]}, "properties": {"osm_id": 628054238, "building": "yes", "name": "", "height": null, "height_m": null, "levels": null, "tract_id": "40143004200", "tract_name": "42", "tags": {"building": "yes"}}}, {"type": "Feature", "geometry": {"type": "Polygon", "coordinates": [[[-95.9508229, 36.1307627], [-95.9508231, 36.1308533], [-95.9508023, 36.1308534], [-95.9508023, 36.1308815], [-95.9507668, 36.1308815], [-95.9507669, 36.1309331], [-95.9506905, 36.1309331], [-95.9506904, 36.1308507], [-95.9506783, 36.1308507], [-95.9506783, 36.1308329], [-95.9506494, 36.1308329], [-95.9506493, 36.1307861], [-95.9506801, 36.1307861], [-95.9506801, 36.1307628], [-95.9508229, 36.1307627]]]}, "properties": {"osm_id": 628054239, "building": "yes", "name": "", "height": null, "height_m": null, "levels": null, "tract_id": "40143004200", "tract_name": "42", "tags": {"building": "yes"}}}, {"type": "Feature", "geometry": {"type": "Polygon", "coordinates": [[[-95.9514834, 36.1309228], [-95.9513195, 36.1309238], [-95.951319, 36.1308621], [-95.9513872, 36.1308617], [-95.9513869, 36.1308304], [-95.951291, 36.130831], [-95.9512903, 36.1307579], [-95.9514818, 36.1307568], [-95.9514834, 36.1309228]]]}, "properties": {"osm_id": 628054240, "building": "yes", "name": "", "height": null, "height_m": null, "levels": null, "tract_id": "40143004200", "tract_name": "42", "tags": {"building": "yes"}}}, {"type": "Feature", "geometry": {"type": "Polygon", "coordinates": [[[-95.9521449, 36.130758], [-95.9519276, 36.1307588], [-95.951928, 36.1308353], [-95.9520497, 36.1308349], [-95.9520501, 36.1309132], [-95.9521225, 36.1309129], [-95.9521223, 36.1308807], [-95.952139, 36.1308807], [-95.9521389, 36.130862], [-95.9521228, 36.1308621], [-95.9521226, 36.1308376], [-95.9521453, 36.1308376], [-95.9521449, 36.130758]]]}, "properties": {"osm_id": 628054241, "building": "yes", "name": "", "height": null, "height_m": null, "levels": null, "tract_id": "40143004200", "tract_name": "42", "tags": {"building": "yes"}}}, {"type": "Feature", "geometry": {"type": "Polygon", "coordinates": [[[-95.9522264, 36.1309838], [-95.9522268, 36.1309026], [-95.9521645, 36.1309024], [-95.9521641, 36.1309836], [-95.9522264, 36.1309838]]]}, "properties": {"osm_id": 628054242, "building": "yes", "name": "", "height": null, "height_m": null, "levels": null, "tract_id": "40143004200", "tract_name": "42", "tags": {"building": "yes"}}}, {"type": "Feature", "geometry": {"type": "Polygon", "coordinates": [[[-95.9523291, 36.130985], [-95.9522624, 36.1309854], [-95.9522616, 36.1309039], [-95.9523283, 36.1309035], [-95.9523291, 36.130985]]]}, "properties": {"osm_id": 628054243, "building": "yes", "name": "", "height": null, "height_m": null, "levels": null, "tract_id": "40143004200", "tract_name": "42", "tags": {"building": "yes"}}}, {"type": "Feature", "geometry": {"type": "Polygon", "coordinates": [[[-95.9524637, 36.1308585], [-95.9524187, 36.1308593], [-95.9524183, 36.1308447], [-95.9523591, 36.1308456], [-95.9523587, 36.1308298], [-95.9523124, 36.1308306], [-95.9523122, 36.1308206], [-95.952283, 36.1308211], [-95.9522816, 36.1307695], [-95.9523138, 36.130769], [-95.9523135, 36.130759], [-95.9524611, 36.1307566], [-95.9524637, 36.1308585]]]}, "properties": {"osm_id": 628054244, "building": "yes", "name": "", "height": null, "height_m": null, "levels": null, "tract_id": "40143004200", "tract_name": "42", "tags": {"building": "yes"}}}, {"type": "Feature", "geometry": {"type": "Polygon", "coordinates": [[[-95.9530758, 36.1307849], [-95.9530193, 36.1307853], [-95.9530194, 36.1307929], [-95.9528628, 36.130794], [-95.952862, 36.13072], [-95.9530371, 36.1307187], [-95.9530374, 36.1307445], [-95.9530753, 36.1307442], [-95.9530758, 36.1307849]]]}, "properties": {"osm_id": 628054245, "building": "yes", "name": "", "height": null, "height_m": null, "levels": null, "tract_id": "40143004200", "tract_name": "42", "tags": {"building": "yes"}}}, {"type": "Feature", "geometry": {"type": "Polygon", "coordinates": [[[-95.9532903, 36.1308839], [-95.9532918, 36.1307503], [-95.9531675, 36.1307494], [-95.9531677, 36.1307352], [-95.953109, 36.1307347], [-95.9531078, 36.1308415], [-95.9531443, 36.1308418], [-95.9531442, 36.1308527], [-95.95323, 36.1308533], [-95.9532296, 36.1308834], [-95.9532903, 36.1308839]]]}, "properties": {"osm_id": 628054246, "building": "yes", "name": "", "height": null, "height_m": null, "levels": null, "tract_id": "40143004200", "tract_name": "42", "tags": {"building": "yes"}}}, {"type": "Feature", "geometry": {"type": "Polygon", "coordinates": [[[-95.953532, 36.1309383], [-95.9535316, 36.13079], [-95.9535194, 36.1307901], [-95.9535193, 36.1307166], [-95.953432, 36.1307167], [-95.9534321, 36.130759], [-95.9534027, 36.1307591], [-95.9534028, 36.1307928], [-95.9534209, 36.1307928], [-95.953421, 36.1308595], [-95.9533119, 36.1308597], [-95.9533121, 36.1309224], [-95.9534471, 36.1309222], [-95.9534471, 36.1309384], [-95.953532, 36.1309383]]]}, "properties": {"osm_id": 628054247, "building": "yes", "name": "", "height": null, "height_m": null, "levels": null, "tract_id": "40143004200", "tract_name": "42", "tags": {"building": "yes"}}}, {"type": "Feature", "geometry": {"type": "Polygon", "coordinates": [[[-95.9537251, 36.1309503], [-95.9537233, 36.1308129], [-95.9536657, 36.1308134], [-95.9536644, 36.1307191], [-95.9535926, 36.1307197], [-95.9535934, 36.1307745], [-95.9535813, 36.1307746], [-95.9535832, 36.1309087], [-95.9536659, 36.1309079], [-95.9536665, 36.1309508], [-95.9537251, 36.1309503]]]}, "properties": {"osm_id": 628054248, "building": "yes", "name": "", "height": null, "height_m": null, "levels": null, "tract_id": "40143004200", "tract_name": "42", "tags": {"building": "yes"}}}, {"type": "Feature", "geometry": {"type": "Polygon", "coordinates": [[[-95.9544679, 36.1303067], [-95.9544703, 36.1304055], [-95.9543196, 36.130408], [-95.9543175, 36.1303234], [-95.9543009, 36.1303236], [-95.9543, 36.1302856], [-95.9543174, 36.1302853], [-95.9543167, 36.1302573], [-95.9544665, 36.1302548], [-95.9544669, 36.1302716], [-95.954481, 36.1302714], [-95.9544819, 36.1303065], [-95.9544679, 36.1303067]]]}, "properties": {"osm_id": 628055805, "building": "yes", "name": "", "height": null, "height_m": null, "levels": null, "tract_id": "40143004200", "tract_name": "42", "tags": {"building": "yes"}}}, {"type": "Feature", "geometry": {"type": "Polygon", "coordinates": [[[-95.9542369, 36.1304198], [-95.95409, 36.1304197], [-95.95409, 36.1304132], [-95.9540453, 36.1304132], [-95.9540453, 36.1304021], [-95.9540341, 36.1304021], [-95.9540338, 36.1302722], [-95.9540496, 36.1302599], [-95.9541912, 36.1302595], [-95.9541913, 36.1302694], [-95.9542208, 36.1302693], [-95.9542371, 36.1302828], [-95.9542369, 36.1304198]]]}, "properties": {"osm_id": 628055806, "building": "yes", "name": "", "height": null, "height_m": null, "levels": null, "tract_id": "40143004200", "tract_name": "42", "tags": {"building": "yes"}}}, {"type": "Feature", "geometry": {"type": "Polygon", "coordinates": [[[-95.953972, 36.1303877], [-95.9539555, 36.1303879], [-95.9539557, 36.1304058], [-95.9539008, 36.1304062], [-95.9539007, 36.1303944], [-95.9538823, 36.1303945], [-95.9538822, 36.1303872], [-95.9538311, 36.1303875], [-95.9538306, 36.1303325], [-95.9537973, 36.1303327], [-95.9537963, 36.1302091], [-95.9538325, 36.130209], [-95.953833, 36.1302658], [-95.9538658, 36.1302656], [-95.9538657, 36.1302536], [-95.9539261, 36.1302533], [-95.9539388, 36.1302656], [-95.9539391, 36.1302867], [-95.9539706, 36.1302864], [-95.953972, 36.1303877]]]}, "properties": {"osm_id": 628055807, "building": "yes", "name": "", "height": null, "height_m": null, "levels": null, "tract_id": "40143004200", "tract_name": "42", "tags": {"building": "yes"}}}, {"type": "Feature", "geometry": {"type": "Polygon", "coordinates": [[[-95.953757, 36.1303675], [-95.953693, 36.1303674], [-95.9536929, 36.1303996], [-95.953635, 36.1303995], [-95.953635, 36.1304311], [-95.953588, 36.1304311], [-95.9535881, 36.1304089], [-95.9535444, 36.1304088], [-95.9535445, 36.1303809], [-95.9535232, 36.1303809], [-95.9535233, 36.1303142], [-95.9535411, 36.1303142], [-95.9535412, 36.1302474], [-95.9536015, 36.1302475], [-95.9536014, 36.1302971], [-95.9536491, 36.1302972], [-95.953649, 36.130306], [-95.953757, 36.1303061], [-95.953757, 36.1303675]]]}, "properties": {"osm_id": 628055808, "building": "detached", "name": "", "height": null, "height_m": null, "levels": null, "tract_id": "40143004200", "tract_name": "42", "tags": {"building": "detached"}}}, {"type": "Feature", "geometry": {"type": "Polygon", "coordinates": [[[-95.9537623, 36.1302068], [-95.9537623, 36.1301311], [-95.9536691, 36.1301311], [-95.9536691, 36.1302068], [-95.9537623, 36.1302068]]]}, "properties": {"osm_id": 628055809, "building": "yes", "name": "", "height": null, "height_m": null, "levels": null, "tract_id": "40143004200", "tract_name": "42", "tags": {"building": "yes"}}}, {"type": "Feature", "geometry": {"type": "Polygon", "coordinates": [[[-95.9534498, 36.1304202], [-95.9534017, 36.1304203], [-95.9534016, 36.1304109], [-95.9533555, 36.130411], [-95.9533555, 36.1304192], [-95.9532911, 36.1304193], [-95.9532906, 36.1302448], [-95.9533833, 36.1302447], [-95.9533831, 36.1301669], [-95.9534818, 36.1301667], [-95.953482, 36.1302431], [-95.9534086, 36.1302433], [-95.9534088, 36.1303341], [-95.9534495, 36.130334], [-95.9534498, 36.1304202]]]}, "properties": {"osm_id": 628055811, "building": "detached", "name": "", "height": null, "height_m": null, "levels": null, "tract_id": "40143004200", "tract_name": "42", "tags": {"building": "detached"}}}, {"type": "Feature", "geometry": {"type": "Polygon", "coordinates": [[[-95.9529638, 36.1304176], [-95.9528087, 36.1304174], [-95.9528089, 36.1303417], [-95.9528475, 36.1303418], [-95.9528476, 36.130309], [-95.9529234, 36.1303092], [-95.9529233, 36.1303416], [-95.952964, 36.1303417], [-95.9529638, 36.1304176]]]}, "properties": {"osm_id": 628055812, "building": "detached", "name": "", "height": null, "height_m": null, "levels": null, "tract_id": "40143004200", "tract_name": "42", "tags": {"building": "detached"}}}, {"type": "Feature", "geometry": {"type": "Polygon", "coordinates": [[[-95.9528553, 36.1302266], [-95.9528557, 36.1301618], [-95.9527794, 36.1301615], [-95.952779, 36.1302263], [-95.9528553, 36.1302266]]]}, "properties": {"osm_id": 628055813, "building": "yes", "name": "", "height": null, "height_m": null, "levels": null, "tract_id": "40143004200", "tract_name": "42", "tags": {"building": "yes"}}}, {"type": "Feature", "geometry": {"type": "Polygon", "coordinates": [[[-95.9522172, 36.1304148], [-95.9521187, 36.1304157], [-95.9521181, 36.1303745], [-95.9520135, 36.1303754], [-95.9520126, 36.1303049], [-95.952028, 36.1303048], [-95.9520275, 36.1302715], [-95.9520766, 36.130271], [-95.9520763, 36.1302486], [-95.952137, 36.1302481], [-95.9521372, 36.1302636], [-95.9522151, 36.130263], [-95.9522172, 36.1304148]]]}, "properties": {"osm_id": 628055814, "building": "detached", "name": "", "height": null, "height_m": null, "levels": null, "tract_id": "40143004200", "tract_name": "42", "tags": {"building": "detached"}}}, {"type": "Feature", "geometry": {"type": "Polygon", "coordinates": [[[-95.9519774, 36.1304104], [-95.9518073, 36.1304105], [-95.9518073, 36.1303898], [-95.9517677, 36.1303899], [-95.9517676, 36.1302403], [-95.9518708, 36.1302402], [-95.9518707, 36.130206], [-95.9519524, 36.130206], [-95.9519525, 36.1303132], [-95.9519773, 36.1303132], [-95.9519774, 36.1304104]]]}, "properties": {"osm_id": 628055815, "building": "detached", "name": "", "height": null, "height_m": null, "levels": null, "tract_id": "40143004200", "tract_name": "42", "tags": {"building": "detached"}}}, {"type": "Feature", "geometry": {"type": "Polygon", "coordinates": [[[-95.9498266, 36.129932], [-95.9498286, 36.1300183], [-95.9497834, 36.130019], [-95.9497831, 36.1300063], [-95.9497579, 36.1300067], [-95.9497591, 36.1300597], [-95.9496517, 36.1300613], [-95.9496464, 36.1298359], [-95.949705, 36.129835], [-95.9497054, 36.1298543], [-95.9497823, 36.1298531], [-95.9497819, 36.1298359], [-95.9498472, 36.1298349], [-95.9498494, 36.1299317], [-95.9498266, 36.129932]]]}, "properties": {"osm_id": 628055816, "building": "detached", "name": "", "height": null, "height_m": null, "levels": null, "tract_id": "40143004200", "tract_name": "42", "tags": {"addr:city": "Tulsa", "addr:country": "US", "addr:housenumber": "2753", "addr:postcode": "74114", "addr:state": "OK", "addr:street": "East 23rd Street South", "building": "detached"}}}, {"type": "Feature", "geometry": {"type": "Polygon", "coordinates": [[[-95.9501962, 36.1299471], [-95.9500392, 36.1299454], [-95.950038, 36.1300202], [-95.9499256, 36.1300189], [-95.9499283, 36.1298579], [-95.9500096, 36.1298588], [-95.9500098, 36.1298452], [-95.9501979, 36.1298473], [-95.9501962, 36.1299471]]]}, "properties": {"osm_id": 628055817, "building": "detached", "name": "", "height": null, "height_m": null, "levels": null, "tract_id": "40143004200", "tract_name": "42", "tags": {"addr:city": "Tulsa", "addr:country": "US", "addr:housenumber": "2747", "addr:postcode": "74114", "addr:state": "OK", "addr:street": "East 23rd Street South", "building": "detached"}}}, {"type": "Feature", "geometry": {"type": "Polygon", "coordinates": [[[-95.9508543, 36.1299262], [-95.9505845, 36.1299238], [-95.9505851, 36.1298794], [-95.950615, 36.1298796], [-95.9506155, 36.12984], [-95.9508554, 36.1298422], [-95.9508543, 36.1299262]]]}, "properties": {"osm_id": 628055818, "building": "detached", "name": "", "height": null, "height_m": null, "levels": null, "tract_id": "40143004200", "tract_name": "42", "tags": {"addr:city": "Tulsa", "addr:country": "US", "addr:housenumber": "2733", "addr:postcode": "74114", "addr:state": "OK", "addr:street": "East 23rd Street South", "building": "detached"}}}, {"type": "Feature", "geometry": {"type": "Polygon", "coordinates": [[[-95.9513502, 36.1300229], [-95.9512501, 36.1300249], [-95.9512445, 36.129847], [-95.9513447, 36.1298449], [-95.9513502, 36.1300229]]]}, "properties": {"osm_id": 628055819, "building": "detached", "name": "", "height": null, "height_m": null, "levels": null, "tract_id": "40143004200", "tract_name": "42", "tags": {"addr:city": "Tulsa", "addr:country": "US", "addr:housenumber": "2717", "addr:postcode": "74114", "addr:state": "OK", "addr:street": "East 23rd Street South", "building": "detached"}}}, {"type": "Feature", "geometry": {"type": "Polygon", "coordinates": [[[-95.951536, 36.1300635], [-95.9514171, 36.1300627], [-95.9514195, 36.1298259], [-95.9514843, 36.1298264], [-95.951484, 36.1298546], [-95.9515188, 36.1298549], [-95.9515186, 36.1298822], [-95.9515378, 36.1298824], [-95.951536, 36.1300635]]]}, "properties": {"osm_id": 628055820, "building": "detached", "name": "", "height": null, "height_m": null, "levels": null, "tract_id": "40143004200", "tract_name": "42", "tags": {"addr:city": "Tulsa", "addr:country": "US", "addr:housenumber": "2713", "addr:postcode": "74114", "addr:state": "OK", "addr:street": "East 23rd Street South", "building": "detached"}}}, {"type": "Feature", "geometry": {"type": "Polygon", "coordinates": [[[-95.952988, 36.1300178], [-95.9529871, 36.129831], [-95.9528644, 36.1298313], [-95.9528645, 36.1298672], [-95.9528058, 36.1298673], [-95.9528059, 36.1298894], [-95.9527814, 36.1298895], [-95.9527819, 36.1300033], [-95.9528317, 36.1300032], [-95.9528317, 36.1300183], [-95.952988, 36.1300178]]]}, "properties": {"osm_id": 628055822, "building": "detached", "name": "", "height": null, "height_m": null, "levels": null, "tract_id": "40143004200", "tract_name": "42", "tags": {"addr:city": "Tulsa", "addr:country": "US", "addr:housenumber": "2605", "addr:postcode": "74114", "addr:state": "OK", "addr:street": "East 23rd Street South", "building": "detached"}}}, {"type": "Feature", "geometry": {"type": "Polygon", "coordinates": [[[-95.9525156, 36.1327366], [-95.9520908, 36.1327378], [-95.9520907, 36.1327065], [-95.9519847, 36.1326556], [-95.9519295, 36.1326565], [-95.9519352, 36.1328937], [-95.9516685, 36.1328979], [-95.9516604, 36.1325626], [-95.951805, 36.1325603], [-95.951918, 36.1326089], [-95.9519567, 36.1325502], [-95.952038, 36.1325852], [-95.9520772, 36.1325256], [-95.9525146, 36.1325244], [-95.9525156, 36.1327366]]]}, "properties": {"osm_id": 628055823, "building": "commercial", "name": "Grand Center", "height": null, "height_m": 6.0, "levels": 2, "tract_id": "40143004200", "tract_name": "42", "tags": {"addr:city": "Tulsa", "addr:country": "US", "addr:housenumber": "2642", "addr:postcode": "74114", "addr:state": "OK", "addr:street": "East 21st Street South", "building": "commercial", "building:colour": "brown", "building:levels": "2", "building:material": "brick", "name": "Grand Center", "roof:colour": "grey", "roof:levels": "0", "roof:shape": "flat", "shop": "yes"}}}, {"type": "Feature", "geometry": {"type": "Polygon", "coordinates": [[[-95.957241, 36.1294096], [-95.9572405, 36.1292475], [-95.9571512, 36.1292477], [-95.9571513, 36.1292563], [-95.9570924, 36.1292565], [-95.957093, 36.1294928], [-95.9572184, 36.1294926], [-95.9572182, 36.1294215], [-95.957241, 36.1294096]]]}, "properties": {"osm_id": 628057182, "building": "detached", "name": "", "height": null, "height_m": null, "levels": null, "tract_id": "40143004200", "tract_name": "42", "tags": {"addr:city": "Tulsa", "addr:country": "US", "addr:housenumber": "2420", "addr:postcode": "74114", "addr:state": "OK", "addr:street": "East 23rd Street South", "building": "detached"}}}, {"type": "Feature", "geometry": {"type": "Polygon", "coordinates": [[[-95.9570476, 36.1293995], [-95.9569685, 36.1293996], [-95.9569685, 36.1294299], [-95.9569565, 36.1294299], [-95.9569565, 36.1294701], [-95.9568509, 36.1294701], [-95.9568509, 36.1294371], [-95.9567844, 36.1294372], [-95.9567843, 36.1293868], [-95.9567986, 36.1293868], [-95.9567985, 36.1293355], [-95.9568568, 36.1293354], [-95.9568568, 36.1293825], [-95.9569071, 36.1293825], [-95.9569071, 36.12937], [-95.9569574, 36.12937], [-95.9569574, 36.1293207], [-95.9569487, 36.1293088], [-95.9569486, 36.1292606], [-95.9570474, 36.1292605], [-95.9570476, 36.1293995]]]}, "properties": {"osm_id": 628057183, "building": "detached", "name": "", "height": null, "height_m": null, "levels": null, "tract_id": "40143004200", "tract_name": "42", "tags": {"addr:city": "Tulsa", "addr:country": "US", "addr:housenumber": "2428", "addr:postcode": "74114", "addr:state": "OK", "addr:street": "East 23rd Street South", "building": "detached"}}}, {"type": "Feature", "geometry": {"type": "Polygon", "coordinates": [[[-95.9567404, 36.1293903], [-95.9566743, 36.129391], [-95.9566757, 36.1294712], [-95.9565256, 36.1294729], [-95.9565237, 36.1293598], [-95.9566507, 36.1293584], [-95.9566499, 36.1293167], [-95.9566146, 36.1293171], [-95.9566137, 36.129263], [-95.9567382, 36.1292616], [-95.9567404, 36.1293903]]]}, "properties": {"osm_id": 628057184, "building": "detached", "name": "", "height": null, "height_m": null, "levels": null, "tract_id": "40143004200", "tract_name": "42", "tags": {"addr:city": "Tulsa", "addr:country": "US", "addr:housenumber": "2436", "addr:postcode": "74114", "addr:state": "OK", "addr:street": "East 23rd Street South", "building": "detached"}}}, {"type": "Feature", "geometry": {"type": "Polygon", "coordinates": [[[-95.9559582, 36.1294642], [-95.9557202, 36.129461], [-95.955721, 36.1294252], [-95.9557071, 36.1294251], [-95.9557081, 36.1293776], [-95.9557203, 36.1293777], [-95.9557206, 36.1293645], [-95.9557931, 36.1293654], [-95.9557933, 36.1293538], [-95.9558521, 36.1293545], [-95.9558519, 36.1293672], [-95.955923, 36.1293682], [-95.9559228, 36.1293792], [-95.9559599, 36.1293797], [-95.9559582, 36.1294642]]]}, "properties": {"osm_id": 628057185, "building": "detached", "name": "", "height": null, "height_m": null, "levels": null, "tract_id": "40143004200", "tract_name": "42", "tags": {"addr:city": "Tulsa", "addr:country": "US", "addr:housenumber": "2456", "addr:postcode": "74114", "addr:state": "OK", "addr:street": "East 23rd Street South", "building": "detached"}}}, {"type": "Feature", "geometry": {"type": "Polygon", "coordinates": [[[-95.9548696, 36.1294672], [-95.9548026, 36.1294682], [-95.9548029, 36.1294793], [-95.9547286, 36.1294805], [-95.9547283, 36.1294639], [-95.9546229, 36.1294655], [-95.9546201, 36.129345], [-95.9546755, 36.1293442], [-95.9546765, 36.1293851], [-95.9547203, 36.1293844], [-95.9547193, 36.129342], [-95.9547634, 36.1293413], [-95.9547644, 36.129386], [-95.9548677, 36.1293844], [-95.9548696, 36.1294672]]]}, "properties": {"osm_id": 628057186, "building": "detached", "name": "", "height": null, "height_m": null, "levels": null, "tract_id": "40143004200", "tract_name": "42", "tags": {"addr:city": "Tulsa", "addr:country": "US", "addr:housenumber": "2530", "addr:postcode": "74114", "addr:state": "OK", "addr:street": "East 23rd Street South", "building": "detached"}}}, {"type": "Feature", "geometry": {"type": "Polygon", "coordinates": [[[-95.9542941, 36.1294682], [-95.9542251, 36.1294687], [-95.9542253, 36.1294831], [-95.9541543, 36.1294836], [-95.9541544, 36.1294896], [-95.9541241, 36.1294899], [-95.954124, 36.1294791], [-95.9540712, 36.1294795], [-95.9540708, 36.1294441], [-95.9540416, 36.1294444], [-95.9540407, 36.1293681], [-95.9541208, 36.1293674], [-95.9541212, 36.1294002], [-95.9542932, 36.1293988], [-95.9542941, 36.1294682]]]}, "properties": {"osm_id": 628057187, "building": "detached", "name": "", "height": null, "height_m": null, "levels": null, "tract_id": "40143004200", "tract_name": "42", "tags": {"addr:city": "Tulsa", "addr:country": "US", "addr:housenumber": "2546", "addr:postcode": "74114", "addr:state": "OK", "addr:street": "East 23rd Street South", "building": "detached"}}}, {"type": "Feature", "geometry": {"type": "Polygon", "coordinates": [[[-95.9539864, 36.1294796], [-95.9538395, 36.129481], [-95.9538392, 36.1294648], [-95.9537714, 36.1294655], [-95.9537703, 36.1293863], [-95.9538381, 36.1293856], [-95.9538383, 36.1294007], [-95.9538689, 36.1294004], [-95.9538684, 36.1293637], [-95.9539847, 36.1293626], [-95.9539864, 36.1294796]]]}, "properties": {"osm_id": 628057189, "building": "detached", "name": "", "height": null, "height_m": null, "levels": null, "tract_id": "40143004200", "tract_name": "42", "tags": {"addr:city": "Tulsa", "addr:country": "US", "addr:housenumber": "2552", "addr:postcode": "74114", "addr:state": "OK", "addr:street": "East 23rd Street South", "building": "detached"}}}, {"type": "Feature", "geometry": {"type": "Polygon", "coordinates": [[[-95.9536826, 36.1294009], [-95.9535623, 36.1294016], [-95.9535624, 36.1294127], [-95.9534669, 36.1294132], [-95.9534665, 36.1293643], [-95.953436, 36.1293644], [-95.9534356, 36.1293238], [-95.953443, 36.1293237], [-95.9534427, 36.1292844], [-95.953541, 36.1292839], [-95.9535409, 36.1292764], [-95.9536017, 36.129276], [-95.9536015, 36.1292483], [-95.9536573, 36.129248], [-95.953658, 36.1293269], [-95.9535613, 36.1293274], [-95.9535614, 36.1293387], [-95.9536821, 36.129338], [-95.9536826, 36.1294009]]]}, "properties": {"osm_id": 628057190, "building": "detached", "name": "", "height": null, "height_m": null, "levels": null, "tract_id": "40143004200", "tract_name": "42", "tags": {"building": "detached"}}}, {"type": "Feature", "geometry": {"type": "Polygon", "coordinates": [[[-95.9536478, 36.1291812], [-95.9535678, 36.1291828], [-95.9535681, 36.1291905], [-95.9533895, 36.129194], [-95.9533855, 36.1290598], [-95.9535761, 36.1290561], [-95.9535764, 36.1290651], [-95.9536443, 36.1290638], [-95.9536478, 36.1291812]]]}, "properties": {"osm_id": 628057191, "building": "detached", "name": "", "height": null, "height_m": null, "levels": null, "tract_id": "40143004200", "tract_name": "42", "tags": {"building": "detached"}}}, {"type": "Feature", "geometry": {"type": "Polygon", "coordinates": [[[-95.9536006, 36.1289536], [-95.9535727, 36.1289537], [-95.9535729, 36.1290087], [-95.953454, 36.1290091], [-95.9534537, 36.1289535], [-95.9534349, 36.1289536], [-95.9534343, 36.1288452], [-95.9535448, 36.1288448], [-95.953545, 36.1288814], [-95.9536002, 36.1288812], [-95.9536006, 36.1289536]]]}, "properties": {"osm_id": 628057192, "building": "detached", "name": "", "height": null, "height_m": null, "levels": null, "tract_id": "40143004200", "tract_name": "42", "tags": {"building": "detached"}}}, {"type": "Feature", "geometry": {"type": "Polygon", "coordinates": [[[-95.9543077, 36.1290645], [-95.9543076, 36.1289079], [-95.9543932, 36.1289078], [-95.9543932, 36.1288877], [-95.9544777, 36.1288876], [-95.9544777, 36.1289048], [-95.9545496, 36.1289048], [-95.9545496, 36.128935], [-95.9545821, 36.128935], [-95.9545821, 36.1289864], [-95.9545822, 36.1290643], [-95.9543077, 36.1290645]]]}, "properties": {"osm_id": 628057193, "building": "yes", "name": "", "height": null, "height_m": null, "levels": null, "tract_id": "40143004200", "tract_name": "42", "tags": {"addr:city": "Tulsa", "addr:country": "US", "addr:housenumber": "2539", "addr:postcode": "74114", "addr:state": "OK", "addr:street": "East 24th Street South", "building": "yes"}}}, {"type": "Feature", "geometry": {"type": "Polygon", "coordinates": [[[-95.9573501, 36.1289833], [-95.9571636, 36.1289844], [-95.9571632, 36.1289293], [-95.9572343, 36.1289289], [-95.9572341, 36.1288987], [-95.957336, 36.1288981], [-95.9573363, 36.1289319], [-95.9573496, 36.1289318], [-95.9573501, 36.1289833]]]}, "properties": {"osm_id": 628057194, "building": "yes", "name": "", "height": null, "height_m": null, "levels": null, "tract_id": "40143004200", "tract_name": "42", "tags": {"addr:city": "Tulsa", "addr:country": "US", "addr:housenumber": "2419", "addr:postcode": "74114", "addr:state": "OK", "addr:street": "East 24th Street South", "building": "yes"}}}, {"type": "Feature", "geometry": {"type": "Polygon", "coordinates": [[[-95.9570045, 36.1289745], [-95.9569811, 36.1289747], [-95.9569816, 36.1290125], [-95.9569002, 36.1290132], [-95.9569004, 36.1290228], [-95.9568497, 36.1290232], [-95.9568492, 36.1289838], [-95.9567835, 36.1289844], [-95.9567828, 36.1289352], [-95.9568873, 36.1289342], [-95.956887, 36.1289147], [-95.9570036, 36.1289137], [-95.9570045, 36.1289745]]]}, "properties": {"osm_id": 628057195, "building": "yes", "name": "", "height": null, "height_m": null, "levels": null, "tract_id": "40143004200", "tract_name": "42", "tags": {"addr:city": "Tulsa", "addr:country": "US", "addr:housenumber": "2425", "addr:postcode": "74114", "addr:state": "OK", "addr:street": "East 24th Street South", "building": "yes"}}}, {"type": "Feature", "geometry": {"type": "Polygon", "coordinates": [[[-95.9562168, 36.1291138], [-95.9562162, 36.1288977], [-95.9560717, 36.1288979], [-95.9560719, 36.1289497], [-95.9560007, 36.1289498], [-95.956001, 36.1290325], [-95.9560778, 36.1290323], [-95.9560778, 36.1290191], [-95.9560955, 36.1290191], [-95.9560955, 36.1290073], [-95.9561222, 36.1290072], [-95.9561224, 36.1290714], [-95.9561509, 36.1290713], [-95.956151, 36.129114], [-95.9562168, 36.1291138]]]}, "properties": {"osm_id": 628057196, "building": "yes", "name": "", "height": null, "height_m": null, "levels": null, "tract_id": "40143004200", "tract_name": "42", "tags": {"addr:city": "Tulsa", "addr:country": "US", "addr:housenumber": "2445", "addr:postcode": "74114", "addr:state": "OK", "addr:street": "East 24th Street South", "building": "yes"}}}, {"type": "Feature", "geometry": {"type": "Polygon", "coordinates": [[[-95.9559072, 36.1291347], [-95.9559074, 36.1291791], [-95.9558214, 36.1291793], [-95.9558213, 36.1291327], [-95.9556893, 36.129133], [-95.9556889, 36.1290347], [-95.9557415, 36.1290346], [-95.9557948, 36.1290345], [-95.9557946, 36.128987], [-95.9559701, 36.1289866], [-95.9559707, 36.1291345], [-95.9559072, 36.1291347]]]}, "properties": {"osm_id": 628057197, "building": "yes", "name": "", "height": null, "height_m": null, "levels": null, "tract_id": "40143004200", "tract_name": "42", "tags": {"addr:city": "Tulsa", "addr:country": "US", "addr:housenumber": "2449", "addr:postcode": "74114", "addr:state": "OK", "addr:street": "East 24th Street South", "building": "yes"}}}, {"type": "Feature", "geometry": {"type": "Polygon", "coordinates": [[[-95.9557061, 36.1288013], [-95.9557061, 36.1288346], [-95.955706, 36.128878], [-95.9556064, 36.128878], [-95.9556065, 36.1288042], [-95.9556152, 36.1288042], [-95.9556152, 36.1287852], [-95.9555789, 36.1287852], [-95.955579, 36.1287414], [-95.955549, 36.1287414], [-95.955549, 36.1287244], [-95.9554924, 36.1287243], [-95.9554925, 36.1286443], [-95.9555402, 36.1286443], [-95.9555402, 36.1286056], [-95.9556333, 36.1286057], [-95.9556333, 36.1286397], [-95.9557519, 36.1286398], [-95.9557519, 36.1287087], [-95.9557873, 36.1287087], [-95.9557872, 36.1287813], [-95.9556881, 36.1287812], [-95.9556881, 36.1288013], [-95.9557061, 36.1288013]]]}, "properties": {"osm_id": 628057198, "building": "yes", "name": "", "height": null, "height_m": null, "levels": null, "tract_id": "40143004200", "tract_name": "42", "tags": {"addr:city": "Tulsa", "addr:country": "US", "addr:housenumber": "2450", "addr:postcode": "74114", "addr:state": "OK", "addr:street": "East 24th Street South", "building": "yes"}}}, {"type": "Feature", "geometry": {"type": "Polygon", "coordinates": [[[-95.952921, 36.1295526], [-95.9528345, 36.1295524], [-95.9528345, 36.1295745], [-95.9527709, 36.1295744], [-95.9527715, 36.129431], [-95.9529185, 36.1294313], [-95.9529184, 36.1294818], [-95.9529338, 36.1294818], [-95.9529337, 36.1295118], [-95.9529211, 36.1295117], [-95.952921, 36.1295526]]]}, "properties": {"osm_id": 628057688, "building": "detached", "name": "", "height": null, "height_m": null, "levels": null, "tract_id": "40143004200", "tract_name": "42", "tags": {"building": "detached"}}}, {"type": "Feature", "geometry": {"type": "Polygon", "coordinates": [[[-95.9529296, 36.1294011], [-95.9529316, 36.1292383], [-95.9527701, 36.1292371], [-95.9527694, 36.1292955], [-95.9527917, 36.1292956], [-95.9527904, 36.1294], [-95.9529296, 36.1294011]]]}, "properties": {"osm_id": 628057690, "building": "detached", "name": "", "height": null, "height_m": null, "levels": null, "tract_id": "40143004200", "tract_name": "42", "tags": {"building": "detached"}}}, {"type": "Feature", "geometry": {"type": "Polygon", "coordinates": [[[-95.9529291, 36.1292165], [-95.9529273, 36.1290733], [-95.9527715, 36.1290746], [-95.9527733, 36.1292178], [-95.9529291, 36.1292165]]]}, "properties": {"osm_id": 628057691, "building": "detached", "name": "", "height": null, "height_m": null, "levels": null, "tract_id": "40143004200", "tract_name": "42", "tags": {"building": "detached"}}}, {"type": "Feature", "geometry": {"type": "Polygon", "coordinates": [[[-95.9529902, 36.129026], [-95.9528268, 36.1290272], [-95.9528249, 36.1288573], [-95.9529335, 36.1288565], [-95.9529341, 36.1289173], [-95.9529275, 36.1289174], [-95.9529279, 36.1289548], [-95.9529894, 36.1289543], [-95.9529902, 36.129026]]]}, "properties": {"osm_id": 628057693, "building": "detached", "name": "", "height": null, "height_m": null, "levels": null, "tract_id": "40143004200", "tract_name": "42", "tags": {"building": "detached"}}}, {"type": "Feature", "geometry": {"type": "Polygon", "coordinates": [[[-95.9529759, 36.1286461], [-95.9528152, 36.1286472], [-95.9528147, 36.1286031], [-95.9528427, 36.1286029], [-95.9528423, 36.128571], [-95.9527321, 36.1285718], [-95.9527314, 36.1285001], [-95.9528771, 36.1284992], [-95.9528769, 36.1284823], [-95.9529238, 36.128482], [-95.952924, 36.128505], [-95.9529361, 36.128505], [-95.9529364, 36.128532], [-95.9529479, 36.128532], [-95.9529482, 36.1285637], [-95.9529351, 36.1285638], [-95.9529352, 36.1285816], [-95.9529752, 36.1285814], [-95.9529759, 36.1286461]]]}, "properties": {"osm_id": 628057695, "building": "detached", "name": "", "height": null, "height_m": null, "levels": null, "tract_id": "40143004200", "tract_name": "42", "tags": {"building": "detached"}}}, {"type": "Feature", "geometry": {"type": "Polygon", "coordinates": [[[-95.952991, 36.1283506], [-95.9529945, 36.1284363], [-95.952916, 36.1284384], [-95.9529155, 36.1284263], [-95.9528186, 36.1284289], [-95.9528213, 36.1284202], [-95.9527367, 36.1284224], [-95.9527316, 36.1282956], [-95.9530088, 36.1282882], [-95.9530113, 36.1283501], [-95.952991, 36.1283506]]]}, "properties": {"osm_id": 628057698, "building": "yes", "name": "", "height": null, "height_m": null, "levels": null, "tract_id": "40143004200", "tract_name": "42", "tags": {"building": "yes"}}}, {"type": "Feature", "geometry": {"type": "Polygon", "coordinates": [[[-95.9529795, 36.1280677], [-95.9529799, 36.1280226], [-95.9529958, 36.1280227], [-95.9529964, 36.1279538], [-95.952914, 36.1279533], [-95.9529141, 36.1279416], [-95.9527998, 36.1279409], [-95.9527997, 36.1279533], [-95.9527241, 36.1279529], [-95.9527231, 36.1280662], [-95.9529795, 36.1280677]]]}, "properties": {"osm_id": 628057700, "building": "yes", "name": "", "height": null, "height_m": null, "levels": null, "tract_id": "40143004200", "tract_name": "42", "tags": {"building": "yes"}}}, {"type": "Feature", "geometry": {"type": "Polygon", "coordinates": [[[-95.9524945, 36.1280794], [-95.9524109, 36.128079], [-95.9524108, 36.1280909], [-95.9522896, 36.1280903], [-95.9522898, 36.1280712], [-95.9522638, 36.1280711], [-95.9522643, 36.1280077], [-95.9522959, 36.1280078], [-95.9522962, 36.1279729], [-95.9524081, 36.1279734], [-95.9524079, 36.1279958], [-95.9524951, 36.1279963], [-95.9524945, 36.1280794]]]}, "properties": {"osm_id": 628057702, "building": "yes", "name": "", "height": null, "height_m": null, "levels": null, "tract_id": "40143004200", "tract_name": "42", "tags": {"building": "yes"}}}, {"type": "Feature", "geometry": {"type": "Polygon", "coordinates": [[[-95.9524083, 36.1281598], [-95.9524079, 36.1282378], [-95.9522598, 36.1282372], [-95.9522601, 36.1281894], [-95.9522501, 36.1281893], [-95.9522505, 36.128133], [-95.9522633, 36.1281331], [-95.9522635, 36.1281023], [-95.9524842, 36.1281032], [-95.9524838, 36.1281601], [-95.9524083, 36.1281598]]]}, "properties": {"osm_id": 628057704, "building": "yes", "name": "", "height": null, "height_m": null, "levels": null, "tract_id": "40143004200", "tract_name": "42", "tags": {"building": "yes"}}}, {"type": "Feature", "geometry": {"type": "Polygon", "coordinates": [[[-95.9524427, 36.1288364], [-95.9522701, 36.1288372], [-95.9522699, 36.1287981], [-95.9522851, 36.128798], [-95.9522848, 36.1287522], [-95.9522721, 36.12875], [-95.9522719, 36.1287309], [-95.9522825, 36.1287309], [-95.9522824, 36.128714], [-95.9522696, 36.1287141], [-95.9522693, 36.1286736], [-95.9524205, 36.1286729], [-95.9524209, 36.1287169], [-95.9523589, 36.1287172], [-95.9523591, 36.1287404], [-95.952442, 36.12874], [-95.9524427, 36.1288364]]]}, "properties": {"osm_id": 628057706, "building": "detached", "name": "", "height": null, "height_m": null, "levels": null, "tract_id": "40143004200", "tract_name": "42", "tags": {"building": "detached"}}}, {"type": "Feature", "geometry": {"type": "Polygon", "coordinates": [[[-95.9518808, 36.1295531], [-95.9517783, 36.1295536], [-95.9517785, 36.1295761], [-95.9516717, 36.1295766], [-95.9516715, 36.1295469], [-95.951555, 36.1295475], [-95.9515545, 36.1294691], [-95.9517012, 36.1294683], [-95.9517011, 36.1294497], [-95.95177, 36.1294494], [-95.9517701, 36.129466], [-95.9518801, 36.1294655], [-95.9518808, 36.1295531]]]}, "properties": {"osm_id": 628058216, "building": "detached", "name": "", "height": null, "height_m": null, "levels": null, "tract_id": "40143004200", "tract_name": "42", "tags": {"addr:city": "Tulsa", "addr:country": "US", "addr:housenumber": "2700", "addr:postcode": "74114", "addr:state": "OK", "addr:street": "East 23rd Street South", "building": "detached"}}}, {"type": "Feature", "geometry": {"type": "Polygon", "coordinates": [[[-95.9518136, 36.1293526], [-95.9518141, 36.1294072], [-95.951715, 36.1294078], [-95.9517141, 36.1293203], [-95.9516837, 36.1293205], [-95.9516831, 36.1292634], [-95.9517243, 36.1292631], [-95.9517241, 36.1292393], [-95.951878, 36.1292382], [-95.9518785, 36.1292929], [-95.9518533, 36.1292931], [-95.9518535, 36.1293116], [-95.951833, 36.1293117], [-95.9518334, 36.1293525], [-95.9518136, 36.1293526]]]}, "properties": {"osm_id": 628058217, "building": "detached", "name": "", "height": null, "height_m": null, "levels": null, "tract_id": "40143004200", "tract_name": "42", "tags": {"building": "detached"}}}, {"type": "Feature", "geometry": {"type": "Polygon", "coordinates": [[[-95.9518726, 36.128833], [-95.9516922, 36.1288343], [-95.9516912, 36.1287473], [-95.9516399, 36.1287477], [-95.951639, 36.1286697], [-95.9518286, 36.1286683], [-95.95183, 36.128783], [-95.951872, 36.1287827], [-95.9518726, 36.128833]]]}, "properties": {"osm_id": 628058218, "building": "detached", "name": "", "height": null, "height_m": null, "levels": null, "tract_id": "40143004200", "tract_name": "42", "tags": {"building": "detached"}}}, {"type": "Feature", "geometry": {"type": "Polygon", "coordinates": [[[-95.9518833, 36.1286316], [-95.9516261, 36.128635], [-95.9516248, 36.1285696], [-95.9516619, 36.1285691], [-95.9516601, 36.1284824], [-95.9518803, 36.1284795], [-95.9518833, 36.1286316]]]}, "properties": {"osm_id": 628058219, "building": "detached", "name": "", "height": null, "height_m": null, "levels": null, "tract_id": "40143004200", "tract_name": "42", "tags": {"building": "detached"}}}, {"type": "Feature", "geometry": {"type": "Polygon", "coordinates": [[[-95.9518506, 36.1280804], [-95.9517315, 36.1280802], [-95.9517316, 36.1280484], [-95.951697, 36.1280484], [-95.951697, 36.1280688], [-95.9516111, 36.1280687], [-95.9516113, 36.1280004], [-95.9517184, 36.1280007], [-95.9517186, 36.127936], [-95.951867, 36.1279363], [-95.9518668, 36.1280167], [-95.9518509, 36.1280166], [-95.9518506, 36.1280804]]]}, "properties": {"osm_id": 628058220, "building": "yes", "name": "", "height": null, "height_m": null, "levels": null, "tract_id": "40143004200", "tract_name": "42", "tags": {"building": "yes"}}}, {"type": "Feature", "geometry": {"type": "Polygon", "coordinates": [[[-95.9513685, 36.1280769], [-95.9512666, 36.1280789], [-95.9512659, 36.128054], [-95.9511505, 36.1280562], [-95.951148, 36.1279698], [-95.9511714, 36.1279694], [-95.9511704, 36.1279375], [-95.9512746, 36.1279355], [-95.9512769, 36.1280123], [-95.9513665, 36.1280106], [-95.9513685, 36.1280769]]]}, "properties": {"osm_id": 628058221, "building": "yes", "name": "", "height": null, "height_m": null, "levels": null, "tract_id": "40143004200", "tract_name": "42", "tags": {"building": "yes"}}}, {"type": "Feature", "geometry": {"type": "Polygon", "coordinates": [[[-95.9513518, 36.1289834], [-95.9512706, 36.1289834], [-95.9512706, 36.1290348], [-95.9511498, 36.1290347], [-95.9511499, 36.1289619], [-95.951185, 36.1289619], [-95.9511851, 36.1289418], [-95.9511545, 36.1289418], [-95.9511545, 36.128902], [-95.9511794, 36.128902], [-95.9511794, 36.1288683], [-95.9513523, 36.1288683], [-95.9513522, 36.1289016], [-95.9513847, 36.1289016], [-95.9513847, 36.1289647], [-95.9513518, 36.1289647], [-95.9513518, 36.1289834]]]}, "properties": {"osm_id": 628058222, "building": "detached", "name": "", "height": null, "height_m": null, "levels": null, "tract_id": "40143004200", "tract_name": "42", "tags": {"building": "detached"}}}, {"type": "Feature", "geometry": {"type": "Polygon", "coordinates": [[[-95.9513968, 36.1293119], [-95.9513985, 36.1293963], [-95.9511483, 36.1293996], [-95.9511469, 36.1293264], [-95.9512253, 36.1293253], [-95.9512243, 36.1292735], [-95.9512487, 36.1292732], [-95.9512484, 36.1292585], [-95.9514073, 36.1292564], [-95.9514084, 36.1293118], [-95.9513968, 36.1293119]]]}, "properties": {"osm_id": 628058224, "building": "detached", "name": "", "height": null, "height_m": null, "levels": null, "tract_id": "40143004200", "tract_name": "42", "tags": {"building": "detached"}}}, {"type": "Feature", "geometry": {"type": "Polygon", "coordinates": [[[-95.9513237, 36.1295652], [-95.9511555, 36.1295662], [-95.9511552, 36.129533], [-95.9511728, 36.1295329], [-95.9511724, 36.1294848], [-95.951156, 36.1294849], [-95.9511556, 36.1294347], [-95.9512938, 36.1294339], [-95.9512946, 36.1295207], [-95.9513233, 36.1295205], [-95.9513237, 36.1295652]]]}, "properties": {"osm_id": 628058227, "building": "detached", "name": "", "height": null, "height_m": null, "levels": null, "tract_id": "40143004200", "tract_name": "42", "tags": {"building": "detached"}}}, {"type": "Feature", "geometry": {"type": "Polygon", "coordinates": [[[-95.9507792, 36.1292756], [-95.9506382, 36.1292782], [-95.9506325, 36.1290701], [-95.9507489, 36.129068], [-95.9507517, 36.1291684], [-95.9507762, 36.1291679], [-95.9507792, 36.1292756]]]}, "properties": {"osm_id": 628059321, "building": "detached", "name": "", "height": null, "height_m": null, "levels": null, "tract_id": "40143004200", "tract_name": "42", "tags": {"building": "detached"}}}, {"type": "Feature", "geometry": {"type": "Polygon", "coordinates": [[[-95.9506984, 36.1289798], [-95.9506989, 36.1290311], [-95.9506161, 36.1290316], [-95.9506152, 36.128942], [-95.9505868, 36.1289422], [-95.950586, 36.1288695], [-95.9507504, 36.1288684], [-95.9507516, 36.1289794], [-95.9506984, 36.1289798]]]}, "properties": {"osm_id": 628059322, "building": "detached", "name": "", "height": null, "height_m": null, "levels": null, "tract_id": "40143004200", "tract_name": "42", "tags": {"building": "detached"}}}, {"type": "Feature", "geometry": {"type": "Polygon", "coordinates": [[[-95.9506964, 36.1286009], [-95.9506969, 36.1286477], [-95.9506191, 36.1286483], [-95.9506188, 36.1286203], [-95.9506654, 36.1286199], [-95.9506649, 36.1285739], [-95.9506286, 36.1285742], [-95.9506284, 36.1285536], [-95.9505318, 36.1285543], [-95.9505309, 36.1284683], [-95.9506707, 36.1284673], [-95.9506709, 36.1284874], [-95.9507479, 36.1284869], [-95.9507484, 36.1285331], [-95.950766, 36.128533], [-95.9507664, 36.1285643], [-95.9507444, 36.1285645], [-95.9507448, 36.1286005], [-95.9506964, 36.1286009]]]}, "properties": {"osm_id": 628059323, "building": "detached", "name": "", "height": null, "height_m": null, "levels": null, "tract_id": "40143004200", "tract_name": "42", "tags": {"building": "detached"}}}, {"type": "Feature", "geometry": {"type": "Polygon", "coordinates": [[[-95.9572588, 36.1329535], [-95.9569629, 36.132954], [-95.9569582, 36.1325325], [-95.9572588, 36.1325311], [-95.9572588, 36.1329535]]]}, "properties": {"osm_id": 628059324, "building": "commercial", "name": "", "height": null, "height_m": 15.0, "levels": 5, "tract_id": "40143004200", "tract_name": "42", "tags": {"addr:city": "Tulsa", "addr:country": "US", "addr:housenumber": "2424", "addr:postcode": "74114", "addr:state": "OK", "addr:street": "East 21st Street South", "building": "commercial", "building:colour": "white", "building:levels": "5", "building:material": "concrete", "roof:colour": "white", "roof:levels": "0", "roof:shape": "flat"}}}, {"type": "Feature", "geometry": {"type": "Polygon", "coordinates": [[[-95.9557397, 36.1330326], [-95.9557391, 36.1329608], [-95.9556755, 36.1329612], [-95.9556747, 36.1328783], [-95.9556924, 36.1328782], [-95.9556915, 36.1327899], [-95.9555188, 36.1327909], [-95.9555205, 36.1329667], [-95.9555876, 36.1329663], [-95.9555882, 36.1330336], [-95.9557397, 36.1330326]]]}, "properties": {"osm_id": 628059325, "building": "commercial", "name": "", "height": null, "height_m": null, "levels": null, "tract_id": "40143004200", "tract_name": "42", "tags": {"building": "commercial"}}}, {"type": "Feature", "geometry": {"type": "Polygon", "coordinates": [[[-95.9553644, 36.1329934], [-95.9553631, 36.1329287], [-95.9551304, 36.1329316], [-95.955132, 36.1330155], [-95.9552958, 36.1330135], [-95.9552954, 36.1329943], [-95.9553644, 36.1329934]]]}, "properties": {"osm_id": 628059326, "building": "detached", "name": "", "height": null, "height_m": null, "levels": null, "tract_id": "40143004200", "tract_name": "42", "tags": {"addr:city": "Tulsa", "addr:country": "US", "addr:housenumber": "2106", "addr:state": "OK", "addr:street": "South Atlanta Place", "building": "detached", "shop": "vacant"}}}, {"type": "Feature", "geometry": {"type": "Polygon", "coordinates": [[[-95.9552409, 36.1328711], [-95.955056, 36.1328703], [-95.9550568, 36.1327554], [-95.9551308, 36.1327557], [-95.9551309, 36.1327342], [-95.9552136, 36.1327345], [-95.9552135, 36.1327572], [-95.9552416, 36.1327573], [-95.9552409, 36.1328711]]]}, "properties": {"osm_id": 628059327, "building": "detached", "name": "", "height": null, "height_m": null, "levels": null, "tract_id": "40143004200", "tract_name": "42", "tags": {"building": "detached", "shop": "yes"}}}, {"type": "Feature", "geometry": {"type": "Polygon", "coordinates": [[[-95.9556704, 36.1326466], [-95.9555128, 36.1326495], [-95.9555083, 36.1324891], [-95.9556658, 36.1324862], [-95.9556704, 36.1326466]]]}, "properties": {"osm_id": 628059328, "building": "yes", "name": "", "height": null, "height_m": null, "levels": null, "tract_id": "40143004200", "tract_name": "42", "tags": {"building": "yes"}}}, {"type": "Feature", "geometry": {"type": "Polygon", "coordinates": [[[-95.9554428, 36.1323137], [-95.9554743, 36.1322223], [-95.9553179, 36.132177], [-95.9551929, 36.1321789], [-95.9551918, 36.1322996], [-95.9552221, 36.1322996], [-95.955221, 36.1323166], [-95.9552828, 36.1323156], [-95.955284, 36.1323015], [-95.955312, 36.1323005], [-95.9553155, 36.1322817], [-95.9554428, 36.1323137]]]}, "properties": {"osm_id": 628059329, "building": "yes", "name": "", "height": null, "height_m": null, "levels": null, "tract_id": "40143004200", "tract_name": "42", "tags": {"building": "yes"}}}, {"type": "Feature", "geometry": {"type": "Polygon", "coordinates": [[[-95.9551551, 36.1322357], [-95.9551632, 36.1322837], [-95.9550037, 36.1323013], [-95.9550012, 36.1322861], [-95.9549199, 36.1322951], [-95.9549173, 36.1322796], [-95.9548747, 36.1322843], [-95.9548592, 36.1321923], [-95.9551545, 36.1321597], [-95.9551672, 36.1322344], [-95.9551551, 36.1322357]]]}, "properties": {"osm_id": 628059330, "building": "yes", "name": "", "height": null, "height_m": null, "levels": null, "tract_id": "40143004200", "tract_name": "42", "tags": {"building": "yes"}}}, {"type": "Feature", "geometry": {"type": "Polygon", "coordinates": [[[-95.9548972, 36.1328697], [-95.9548345, 36.1328701], [-95.9548342, 36.1328401], [-95.9548024, 36.1328403], [-95.9548029, 36.1329021], [-95.9547066, 36.1329027], [-95.9547047, 36.1326813], [-95.9548956, 36.1326803], [-95.9548972, 36.1328697]]]}, "properties": {"osm_id": 628059331, "building": "detached", "name": "", "height": null, "height_m": null, "levels": null, "tract_id": "40143004200", "tract_name": "42", "tags": {"building": "detached", "shop": "yes"}}}, {"type": "Feature", "geometry": {"type": "Polygon", "coordinates": [[[-95.9545993, 36.1330252], [-95.9546004, 36.1329017], [-95.9544311, 36.1329007], [-95.95443, 36.1330242], [-95.9545993, 36.1330252]]]}, "properties": {"osm_id": 628059333, "building": "detached", "name": "Lindsay A. Smith, DDS & Associates", "height": null, "height_m": null, "levels": null, "tract_id": "40143004200", "tract_name": "42", "tags": {"addr:city": "Tulsa", "addr:country": "US", "addr:housenumber": "2538", "addr:postcode": "74114", "addr:state": "OK", "addr:street": "East 21st Street South", "amenity": "dentist", "building": "detached", "check_date": "2022-06-11", "name": "Lindsay A. Smith, DDS & Associates"}}}, {"type": "Feature", "geometry": {"type": "Polygon", "coordinates": [[[-95.9536702, 36.1328358], [-95.9535635, 36.1328359], [-95.9535635, 36.1328244], [-95.9534375, 36.1328245], [-95.9534374, 36.1325649], [-95.9535006, 36.1325649], [-95.9535006, 36.1325047], [-95.9534375, 36.1325048], [-95.9534375, 36.1324329], [-95.9536701, 36.1324329], [-95.9536702, 36.1328358]]]}, "properties": {"osm_id": 628059334, "building": "commercial", "name": "", "height": null, "height_m": null, "levels": null, "tract_id": "40143004200", "tract_name": "42", "tags": {"addr:city": "Tulsa", "addr:country": "US", "addr:housenumber": "2622", "addr:postcode": "74114", "addr:state": "OK", "addr:street": "East 21st Street South", "building": "commercial"}}}, {"type": "Feature", "geometry": {"type": "Polygon", "coordinates": [[[-95.9531465, 36.1322649], [-95.9528367, 36.132263], [-95.9528376, 36.1321606], [-95.9529423, 36.1321612], [-95.9529426, 36.1321331], [-95.9530423, 36.1321337], [-95.953042, 36.132166], [-95.9531474, 36.1321667], [-95.9531465, 36.1322649]]]}, "properties": {"osm_id": 628059335, "building": "yes", "name": "", "height": null, "height_m": null, "levels": null, "tract_id": "40143004200", "tract_name": "42", "tags": {"building": "yes"}}}, {"type": "Feature", "geometry": {"type": "Polygon", "coordinates": [[[-95.952792, 36.1318185], [-95.9526714, 36.1318194], [-95.9526694, 36.1316353], [-95.952703, 36.1316351], [-95.9527024, 36.1315885], [-95.9527583, 36.1315881], [-95.9527587, 36.1316299], [-95.9528175, 36.1316295], [-95.9528171, 36.1315867], [-95.9528877, 36.1315862], [-95.9528888, 36.1316844], [-95.9527905, 36.1316851], [-95.952792, 36.1318185]]]}, "properties": {"osm_id": 628059336, "building": "yes", "name": "", "height": null, "height_m": null, "levels": null, "tract_id": "40143004200", "tract_name": "42", "tags": {"building": "yes"}}}, {"type": "Feature", "geometry": {"type": "Polygon", "coordinates": [[[-95.9512715, 36.1317291], [-95.9512681, 36.1316253], [-95.9511385, 36.131628], [-95.9511395, 36.1316611], [-95.9511102, 36.1316617], [-95.9511141, 36.1317831], [-95.9511895, 36.1317815], [-95.9511879, 36.1317309], [-95.9512715, 36.1317291]]]}, "properties": {"osm_id": 628059337, "building": "yes", "name": "", "height": null, "height_m": null, "levels": null, "tract_id": "40143004200", "tract_name": "42", "tags": {"building": "yes"}}}, {"type": "Feature", "geometry": {"type": "Polygon", "coordinates": [[[-95.9491892, 36.1313246], [-95.9490547, 36.1313237], [-95.949055, 36.1312961], [-95.9489428, 36.1312954], [-95.9489432, 36.1312555], [-95.9488943, 36.1312552], [-95.9488947, 36.1312149], [-95.9488774, 36.1312147], [-95.9488779, 36.1311675], [-95.9489074, 36.1311677], [-95.9489075, 36.1311555], [-95.9489511, 36.1311558], [-95.9489513, 36.1311306], [-95.9490103, 36.131131], [-95.9490101, 36.1311442], [-95.9490912, 36.1311447], [-95.9490908, 36.1311836], [-95.9490004, 36.1311829], [-95.9490003, 36.1311975], [-95.9490146, 36.1311976], [-95.9490139, 36.1312661], [-95.9491898, 36.1312673], [-95.9491892, 36.1313246]]]}, "properties": {"osm_id": 628059338, "building": "yes", "name": "", "height": null, "height_m": null, "levels": null, "tract_id": "40143004200", "tract_name": "42", "tags": {"building": "yes"}}}, {"type": "Feature", "geometry": {"type": "Polygon", "coordinates": [[[-95.9491177, 36.1310057], [-95.9490334, 36.1310055], [-95.9490331, 36.1310783], [-95.9489338, 36.1310781], [-95.9489341, 36.131013], [-95.9489646, 36.1310131], [-95.9489652, 36.1308679], [-95.9490927, 36.1308682], [-95.9490924, 36.1309316], [-95.949118, 36.1309317], [-95.9491177, 36.1310057]]]}, "properties": {"osm_id": 628059339, "building": "yes", "name": "", "height": null, "height_m": null, "levels": null, "tract_id": "40143004200", "tract_name": "42", "tags": {"building": "yes"}}}, {"type": "Feature", "geometry": {"type": "Polygon", "coordinates": [[[-95.9407442, 36.1321419], [-95.9407447, 36.1320617], [-95.9405144, 36.1320608], [-95.9405138, 36.1321588], [-95.9405548, 36.132159], [-95.9405549, 36.1321411], [-95.9407442, 36.1321419]]]}, "properties": {"osm_id": 635165249, "building": "yes", "name": "Brownie's Burgers", "height": null, "height_m": null, "levels": null, "tract_id": "40143004200", "tract_name": "42", "tags": {"amenity": "restaurant", "building": "yes", "check_date": "2025-03-06", "name": "Brownie's Burgers", "opening_hours": "Mo-Su 07:00-20:00"}}}, {"type": "Feature", "geometry": {"type": "Polygon", "coordinates": [[[-95.9408742, 36.1314015], [-95.9408733, 36.1313091], [-95.9407814, 36.1313097], [-95.9407813, 36.1312989], [-95.9406809, 36.1312995], [-95.940681, 36.1313083], [-95.9405839, 36.1313089], [-95.9405848, 36.1314034], [-95.9406328, 36.1314031], [-95.9406327, 36.1313955], [-95.9407133, 36.1313949], [-95.9407134, 36.1313998], [-95.9407511, 36.1313995], [-95.940751, 36.1313924], [-95.9408295, 36.1313919], [-95.9408296, 36.1314018], [-95.9408742, 36.1314015]]]}, "properties": {"osm_id": 635165250, "building": "yes", "name": "Farmers Insurance", "height": null, "height_m": null, "levels": null, "tract_id": "40143004200", "tract_name": "42", "tags": {"brand": "Farmers Insurance", "brand:wikidata": "Q1396863", "building": "yes", "name": "Farmers Insurance", "office": "insurance"}}}, {"type": "Feature", "geometry": {"type": "Polygon", "coordinates": [[[-95.9575492, 36.1328911], [-95.9575484, 36.1327762], [-95.9574914, 36.1327765], [-95.9574923, 36.1328914], [-95.9575492, 36.1328911]]]}, "properties": {"osm_id": 887678114, "building": "yes", "name": "Reeder's", "height": null, "height_m": null, "levels": null, "tract_id": "40143004200", "tract_name": "42", "tags": {"amenity": "car_wash", "automated": "yes", "building": "yes", "check_date": "2024-08-30", "name": "Reeder's", "self_service": "no"}}}, {"type": "Feature", "geometry": {"type": "Polygon", "coordinates": [[[-95.9580521, 36.1321424], [-95.9576875, 36.1321435], [-95.957687, 36.1320196], [-95.9577459, 36.1320194], [-95.957746, 36.132041], [-95.957788, 36.1320409], [-95.9577881, 36.1320568], [-95.9578071, 36.1320567], [-95.9578069, 36.132019], [-95.9578669, 36.1320188], [-95.957867, 36.1320417], [-95.9579095, 36.1320416], [-95.9579096, 36.132057], [-95.9579496, 36.1320569], [-95.9579495, 36.1320405], [-95.9579896, 36.1320404], [-95.9579895, 36.1320182], [-95.9580516, 36.1320181], [-95.9580521, 36.1321424]]]}, "properties": {"osm_id": 887908374, "building": "yes", "name": "", "height": null, "height_m": null, "levels": null, "tract_id": "40143004200", "tract_name": "42", "tags": {"building": "yes"}}}, {"type": "Feature", "geometry": {"type": "Polygon", "coordinates": [[[-95.9574278, 36.132143], [-95.9576465, 36.1321449], [-95.9576478, 36.1320464], [-95.9576109, 36.132046], [-95.9576111, 36.1320354], [-95.9575753, 36.1320351], [-95.957575, 36.1320568], [-95.957506, 36.1320561], [-95.9575063, 36.1320348], [-95.9574681, 36.1320345], [-95.9574679, 36.1320463], [-95.9574292, 36.1320459], [-95.9574278, 36.132143]]]}, "properties": {"osm_id": 887908375, "building": "yes", "name": "", "height": null, "height_m": null, "levels": null, "tract_id": "40143004200", "tract_name": "42", "tags": {"building": "yes"}}}, {"type": "Feature", "geometry": {"type": "Polygon", "coordinates": [[[-95.957181, 36.1321456], [-95.9571809, 36.1319624], [-95.9573047, 36.1319623], [-95.9573047, 36.1320295], [-95.957292, 36.1320295], [-95.957292, 36.1320824], [-95.957305, 36.1320824], [-95.957305, 36.1321455], [-95.957181, 36.1321456]]]}, "properties": {"osm_id": 887908376, "building": "yes", "name": "", "height": null, "height_m": null, "levels": null, "tract_id": "40143004200", "tract_name": "42", "tags": {"building": "yes"}}}, {"type": "Feature", "geometry": {"type": "Polygon", "coordinates": [[[-95.9578802, 36.1318923], [-95.9578797, 36.1318488], [-95.9579158, 36.1318485], [-95.9579164, 36.131892], [-95.9578802, 36.1318923]]]}, "properties": {"osm_id": 887919881, "building": "yes", "name": "", "height": null, "height_m": null, "levels": null, "tract_id": "40143004200", "tract_name": "42", "tags": {"building": "yes"}}}, {"type": "Feature", "geometry": {"type": "Polygon", "coordinates": [[[-95.9580265, 36.1318965], [-95.9580262, 36.131864], [-95.9580259, 36.1318255], [-95.9579268, 36.131826], [-95.9579274, 36.131897], [-95.9580265, 36.1318965]]]}, "properties": {"osm_id": 887919882, "building": "yes", "name": "", "height": null, "height_m": null, "levels": null, "tract_id": "40143004200", "tract_name": "42", "tags": {"building": "yes"}}}, {"type": "Feature", "geometry": {"type": "Polygon", "coordinates": [[[-95.9579273, 36.1317902], [-95.9579255, 36.1315945], [-95.9580328, 36.1315938], [-95.9580335, 36.1316639], [-95.9580533, 36.1316638], [-95.9580538, 36.1317146], [-95.9580323, 36.1317148], [-95.958033, 36.1317896], [-95.9579273, 36.1317902]]]}, "properties": {"osm_id": 887919885, "building": "yes", "name": "", "height": null, "height_m": null, "levels": null, "tract_id": "40143004200", "tract_name": "42", "tags": {"building": "yes"}}}, {"type": "Feature", "geometry": {"type": "Polygon", "coordinates": [[[-95.9579815, 36.1311468], [-95.9579822, 36.1310916], [-95.958073, 36.1310923], [-95.9580723, 36.1311475], [-95.9580309, 36.1311472], [-95.9579815, 36.1311468]]]}, "properties": {"osm_id": 887920356, "building": "yes", "name": "", "height": null, "height_m": null, "levels": null, "tract_id": "40143004200", "tract_name": "42", "tags": {"building": "yes"}}}, {"type": "Feature", "geometry": {"type": "Polygon", "coordinates": [[[-95.9579895, 36.1309564], [-95.9578922, 36.1309568], [-95.9578918, 36.1308954], [-95.9579892, 36.130895], [-95.9579893, 36.1309239], [-95.9579895, 36.1309564]]]}, "properties": {"osm_id": 887936557, "building": "yes", "name": "", "height": null, "height_m": null, "levels": null, "tract_id": "40143004200", "tract_name": "42", "tags": {"building": "yes"}}}, {"type": "Feature", "geometry": {"type": "Polygon", "coordinates": [[[-95.9578613, 36.1308627], [-95.9578611, 36.1307504], [-95.9578705, 36.1307504], [-95.9578704, 36.1307062], [-95.9578929, 36.1307062], [-95.9579776, 36.130706], [-95.9579778, 36.130807], [-95.9579909, 36.1308069], [-95.957991, 36.1308625], [-95.9578613, 36.1308627]]]}, "properties": {"osm_id": 887936562, "building": "yes", "name": "", "height": null, "height_m": null, "levels": null, "tract_id": "40143004200", "tract_name": "42", "tags": {"building": "yes"}}}, {"type": "Feature", "geometry": {"type": "Polygon", "coordinates": [[[-95.9580434, 36.1293001], [-95.958043, 36.1292394], [-95.957973, 36.1292388], [-95.9579738, 36.1292995], [-95.9580078, 36.1292998], [-95.9580434, 36.1293001]]]}, "properties": {"osm_id": 888000010, "building": "yes", "name": "", "height": null, "height_m": null, "levels": null, "tract_id": "40143004200", "tract_name": "42", "tags": {"building": "yes"}}}, {"type": "Feature", "geometry": {"type": "Polygon", "coordinates": [[[-95.95784, 36.1294686], [-95.9578393, 36.1293671], [-95.9579034, 36.1293668], [-95.9579033, 36.1293543], [-95.9579644, 36.129354], [-95.9579645, 36.129367], [-95.9579944, 36.1293669], [-95.9579951, 36.1294674], [-95.9579454, 36.1294676], [-95.9579455, 36.1294804], [-95.9579044, 36.1294806], [-95.9579043, 36.1294683], [-95.95784, 36.1294686]]]}, "properties": {"osm_id": 888000011, "building": "detached", "name": "", "height": null, "height_m": null, "levels": null, "tract_id": "40143004200", "tract_name": "42", "tags": {"addr:city": "Tulsa", "addr:country": "US", "addr:housenumber": "2402", "addr:postcode": "74114", "addr:state": "OK", "addr:street": "East 23rd Street South", "building": "detached"}}}, {"type": "Feature", "geometry": {"type": "Polygon", "coordinates": [[[-95.9578103, 36.1290789], [-95.9578105, 36.1288925], [-95.9578715, 36.1288925], [-95.9579332, 36.1288926], [-95.9579332, 36.1288862], [-95.9579664, 36.1288862], [-95.9579664, 36.1289473], [-95.9580049, 36.1289473], [-95.9580362, 36.1289473], [-95.9580361, 36.1290178], [-95.9580477, 36.1290178], [-95.9580477, 36.129042], [-95.9579719, 36.1290419], [-95.957972, 36.1289743], [-95.9579368, 36.1289743], [-95.9579367, 36.129079], [-95.9578103, 36.1290789]]]}, "properties": {"osm_id": 888003174, "building": "yes", "name": "", "height": null, "height_m": null, "levels": null, "tract_id": "40143004200", "tract_name": "42", "tags": {"addr:city": "Tulsa", "addr:country": "US", "addr:housenumber": "2405", "addr:postcode": "74114", "addr:state": "OK", "addr:street": "East 24th Street South", "building": "yes"}}}, {"type": "Feature", "geometry": {"type": "Polygon", "coordinates": [[[-95.9578149, 36.1283959], [-95.9578149, 36.1283611], [-95.9578431, 36.1283611], [-95.9578431, 36.1283959], [-95.9578149, 36.1283959]]]}, "properties": {"osm_id": 888003179, "building": "yes", "name": "", "height": null, "height_m": null, "levels": null, "tract_id": "40143004200", "tract_name": "42", "tags": {"building": "yes"}}}, {"type": "Feature", "geometry": {"type": "Polygon", "coordinates": [[[-95.9578004, 36.1281313], [-95.957798, 36.1279916], [-95.9578461, 36.127991], [-95.957846, 36.1279862], [-95.9579615, 36.127985], [-95.9579622, 36.1280298], [-95.9579978, 36.1280294], [-95.9580244, 36.1280291], [-95.9580254, 36.1280893], [-95.9579703, 36.1280899], [-95.957971, 36.1281304], [-95.9579076, 36.1281311], [-95.9579066, 36.1280718], [-95.9578763, 36.1280721], [-95.9578772, 36.1281305], [-95.9578004, 36.1281313]]]}, "properties": {"osm_id": 888003197, "building": "yes", "name": "", "height": null, "height_m": null, "levels": null, "tract_id": "40143004200", "tract_name": "42", "tags": {"building": "yes"}}}, {"type": "Feature", "geometry": {"type": "Polygon", "coordinates": [[[-95.9580248, 36.1282656], [-95.9579741, 36.1282659], [-95.9579737, 36.1282174], [-95.9580244, 36.1282171], [-95.9580248, 36.1282656]]]}, "properties": {"osm_id": 888003198, "building": "yes", "name": "", "height": null, "height_m": null, "levels": null, "tract_id": "40143004200", "tract_name": "42", "tags": {"building": "yes"}}}, {"type": "Feature", "geometry": {"type": "Polygon", "coordinates": [[[-95.9580217, 36.1274867], [-95.9580206, 36.1276451], [-95.9579838, 36.1276451], [-95.9579256, 36.1276451], [-95.9579256, 36.1276408], [-95.9578619, 36.1276411], [-95.9578619, 36.1276576], [-95.9578463, 36.1276577], [-95.9578267, 36.1276578], [-95.9578271, 36.1276465], [-95.9577989, 36.1276467], [-95.9577959, 36.1275371], [-95.9578338, 36.1275379], [-95.9578341, 36.1275503], [-95.957926, 36.1275498], [-95.957927, 36.127487], [-95.9580217, 36.1274867]]]}, "properties": {"osm_id": 888222490, "building": "yes", "name": "", "height": null, "height_m": null, "levels": null, "tract_id": "40143004200", "tract_name": "42", "tags": {"building": "yes"}}}, {"type": "Feature", "geometry": {"type": "Polygon", "coordinates": [[[-95.9580401, 36.1275419], [-95.9580402, 36.1275137], [-95.9580684, 36.1275138], [-95.9580682, 36.127542], [-95.9580401, 36.1275419]]]}, "properties": {"osm_id": 888222491, "building": "yes", "name": "", "height": null, "height_m": null, "levels": null, "tract_id": "40143004200", "tract_name": "42", "tags": {"building": "yes"}}}, {"type": "Feature", "geometry": {"type": "Polygon", "coordinates": [[[-95.9580275, 36.1274559], [-95.9580274, 36.1274175], [-95.958059, 36.1274174], [-95.9580591, 36.1274559], [-95.9580275, 36.1274559]]]}, "properties": {"osm_id": 888222494, "building": "yes", "name": "", "height": null, "height_m": null, "levels": null, "tract_id": "40143004200", "tract_name": "42", "tags": {"building": "yes"}}}, {"type": "Feature", "geometry": {"type": "Polygon", "coordinates": [[[-95.9577983, 36.1273544], [-95.9577603, 36.1273324], [-95.9577721, 36.127319], [-95.9578101, 36.127341], [-95.9577983, 36.1273544]]]}, "properties": {"osm_id": 888230637, "building": "yes", "name": "", "height": null, "height_m": null, "levels": null, "tract_id": "40143004200", "tract_name": "42", "tags": {"building": "yes"}}}, {"type": "Feature", "geometry": {"type": "Polygon", "coordinates": [[[-95.9579285, 36.1273396], [-95.9579912, 36.1272991], [-95.9579652, 36.1272728], [-95.957943, 36.1272504], [-95.9579345, 36.1272559], [-95.9579216, 36.1272428], [-95.957877, 36.1272716], [-95.9578889, 36.1272836], [-95.9578793, 36.1272898], [-95.9579285, 36.1273396]]]}, "properties": {"osm_id": 888230638, "building": "yes", "name": "", "height": null, "height_m": null, "levels": null, "tract_id": "40143004200", "tract_name": "42", "tags": {"building": "yes"}}}, {"type": "Feature", "geometry": {"type": "Polygon", "coordinates": [[[-95.957783, 36.1272097], [-95.9577822, 36.1270558], [-95.9578826, 36.1270554], [-95.95798, 36.1270551], [-95.9579808, 36.1272086], [-95.9579332, 36.1272087], [-95.9579328, 36.1271272], [-95.9578458, 36.1271275], [-95.9578462, 36.1272095], [-95.957783, 36.1272097]]]}, "properties": {"osm_id": 888230640, "building": "yes", "name": "", "height": null, "height_m": null, "levels": null, "tract_id": "40143004200", "tract_name": "42", "tags": {"addr:city": "Tulsa", "addr:country": "US", "addr:housenumber": "2403", "addr:postcode": "74114", "addr:state": "OK", "addr:street": "East 25th Place South", "building": "yes"}}}, {"type": "Feature", "geometry": {"type": "Polygon", "coordinates": [[[-95.9579068, 36.1271697], [-95.9578658, 36.1271702], [-95.9578652, 36.1271382], [-95.9579063, 36.1271377], [-95.9579068, 36.1271697]]]}, "properties": {"osm_id": 888230641, "building": "yes", "name": "", "height": null, "height_m": null, "levels": null, "tract_id": "40143004200", "tract_name": "42", "tags": {"building": "yes"}}}, {"type": "Feature", "geometry": {"type": "Polygon", "coordinates": [[[-95.957771, 36.1267381], [-95.9577697, 36.1266416], [-95.9579277, 36.1266402], [-95.9579283, 36.1266847], [-95.9579349, 36.1266847], [-95.9579342, 36.1266398], [-95.9579771, 36.1266394], [-95.9579783, 36.1267236], [-95.9579388, 36.1267239], [-95.957939, 36.1267365], [-95.957771, 36.1267381]]]}, "properties": {"osm_id": 888234998, "building": "detached", "name": "", "height": null, "height_m": null, "levels": null, "tract_id": "40143004200", "tract_name": "42", "tags": {"addr:city": "Tulsa", "addr:country": "US", "addr:housenumber": "2404", "addr:postcode": "74114", "addr:state": "OK", "addr:street": "East 25th Place South", "building": "detached"}}}, {"type": "Feature", "geometry": {"type": "Polygon", "coordinates": [[[-95.9577015, 36.12448], [-95.9577017, 36.1244146], [-95.9577562, 36.1244148], [-95.9577559, 36.1244802], [-95.9577015, 36.12448]]]}, "properties": {"osm_id": 889378587, "building": "yes", "name": "", "height": null, "height_m": null, "levels": null, "tract_id": "40143004200", "tract_name": "42", "tags": {"building": "yes"}}}, {"type": "Feature", "geometry": {"type": "Polygon", "coordinates": [[[-95.9579527, 36.1248727], [-95.957952, 36.1247097], [-95.9579901, 36.1247096], [-95.9579897, 36.1245931], [-95.9579455, 36.1245932], [-95.9579455, 36.1245734], [-95.9577534, 36.1245738], [-95.9577537, 36.1246645], [-95.9577802, 36.1246644], [-95.9577803, 36.1247134], [-95.9578027, 36.1247133], [-95.9578025, 36.1246634], [-95.9578685, 36.1246632], [-95.9578687, 36.1247093], [-95.9578106, 36.1247094], [-95.957811, 36.1248022], [-95.9578519, 36.1248021], [-95.9578521, 36.124873], [-95.9579527, 36.1248727]]]}, "properties": {"osm_id": 889378595, "building": "yes", "name": "", "height": null, "height_m": null, "levels": null, "tract_id": "40143004200", "tract_name": "42", "tags": {"building": "yes"}}}, {"type": "Feature", "geometry": {"type": "Polygon", "coordinates": [[[-95.9577226, 36.1240455], [-95.9578557, 36.124045], [-95.9578555, 36.124012], [-95.9579025, 36.1240118], [-95.9579023, 36.1239631], [-95.9578178, 36.1239634], [-95.9578174, 36.1238861], [-95.9578973, 36.1238858], [-95.957897, 36.1238273], [-95.9577381, 36.1238278], [-95.9577381, 36.1238334], [-95.9576702, 36.1238336], [-95.9576705, 36.1238843], [-95.9577364, 36.1238841], [-95.9577366, 36.1239301], [-95.9576634, 36.1239303], [-95.9576637, 36.1239887], [-95.9577223, 36.1239885], [-95.9577226, 36.1240455]]]}, "properties": {"osm_id": 889378598, "building": "detached", "name": "", "height": null, "height_m": null, "levels": null, "tract_id": "40143004200", "tract_name": "42", "tags": {"addr:city": "Tulsa", "addr:country": "US", "addr:housenumber": "2403", "addr:postcode": "74114", "addr:state": "OK", "addr:street": "East 27th Place South", "building": "detached"}}}, {"type": "Feature", "geometry": {"type": "Polygon", "coordinates": [[[-95.9577247, 36.1237777], [-95.9576772, 36.1236217], [-95.9577081, 36.1236156], [-95.9577045, 36.1236039], [-95.9578337, 36.1235781], [-95.9578811, 36.1235687], [-95.9579005, 36.1236322], [-95.9578209, 36.123648], [-95.9578354, 36.1236957], [-95.9578819, 36.1236865], [-95.957885, 36.1236966], [-95.9579172, 36.1236902], [-95.9579285, 36.1237271], [-95.9578942, 36.1237339], [-95.9578971, 36.1237435], [-95.9577247, 36.1237777]]]}, "properties": {"osm_id": 889378599, "building": "detached", "name": "", "height": null, "height_m": null, "levels": null, "tract_id": "40143004200", "tract_name": "42", "tags": {"addr:city": "Tulsa", "addr:country": "US", "addr:housenumber": "2401", "addr:postcode": "74114", "addr:state": "OK", "addr:street": "East 27th Place South", "building": "detached"}}}, {"type": "Feature", "geometry": {"type": "Polygon", "coordinates": [[[-95.9579947, 36.1235497], [-95.9578857, 36.1235721], [-95.9578739, 36.1235343], [-95.9579828, 36.1235119], [-95.9579947, 36.1235497]]]}, "properties": {"osm_id": 889378600, "building": "yes", "name": "", "height": null, "height_m": null, "levels": null, "tract_id": "40143004200", "tract_name": "42", "tags": {"building": "yes"}}}, {"type": "Feature", "geometry": {"type": "Polygon", "coordinates": [[[-95.9579798, 36.123102], [-95.9579239, 36.1228892], [-95.9578484, 36.1229021], [-95.9578847, 36.1230404], [-95.9578557, 36.1230454], [-95.9578577, 36.1230531], [-95.9577365, 36.123074], [-95.9577433, 36.1231001], [-95.9576985, 36.1231077], [-95.957708, 36.1231439], [-95.9577492, 36.1231368], [-95.9577517, 36.1231465], [-95.9578167, 36.1231353], [-95.9578187, 36.1231432], [-95.9578899, 36.123131], [-95.9578878, 36.1231231], [-95.9579361, 36.1231148], [-95.9579347, 36.1231097], [-95.9579798, 36.123102]]]}, "properties": {"osm_id": 892085544, "building": "detached", "name": "", "height": null, "height_m": null, "levels": null, "tract_id": "40143004200", "tract_name": "42", "tags": {"addr:city": "Tulsa", "addr:country": "US", "addr:housenumber": "2404", "addr:postcode": "74114", "addr:state": "OK", "addr:street": "East 27th Place South", "building": "detached"}}}, {"type": "Feature", "geometry": {"type": "Polygon", "coordinates": [[[-95.9580164, 36.1226595], [-95.9579937, 36.1225679], [-95.9576494, 36.1226236], [-95.9576721, 36.1227154], [-95.957761, 36.122701], [-95.9577642, 36.122714], [-95.9578309, 36.1227032], [-95.9578276, 36.12269], [-95.9580164, 36.1226595]]]}, "properties": {"osm_id": 892085547, "building": "detached", "name": "", "height": null, "height_m": null, "levels": null, "tract_id": "40143004200", "tract_name": "42", "tags": {"addr:city": "Tulsa", "addr:country": "US", "addr:housenumber": "2405", "addr:postcode": "74114", "addr:state": "OK", "addr:street": "East 28th Street South", "building": "detached"}}}, {"type": "Feature", "geometry": {"type": "Polygon", "coordinates": [[[-95.9410782, 36.1234392], [-95.9410818, 36.1238495], [-95.9408884, 36.1238506], [-95.9408886, 36.123874], [-95.9406801, 36.1238752], [-95.9406799, 36.1238518], [-95.9405051, 36.1238528], [-95.9405043, 36.1237653], [-95.9405408, 36.1237651], [-95.9405393, 36.1235907], [-95.9405028, 36.1235909], [-95.9405015, 36.1234425], [-95.9410782, 36.1234392]]]}, "properties": {"osm_id": 908196829, "building": "retail", "name": "Dollar Tree", "height": null, "height_m": null, "levels": null, "tract_id": "40143004200", "tract_name": "42", "tags": {"brand": "Dollar Tree", "brand:wikidata": "Q5289230", "building": "retail", "check_date": "2024-07-11", "check_date:opening_hours": "2024-07-11", "name": "Dollar Tree", "opening_hours": "Mo-Sa 08:00-22:00; Su 08:00-21:00", "shop": "variety_store", "website": "https://www.dollartree.com/locations/ok/tulsa/1136/"}}}, {"type": "Feature", "geometry": {"type": "Polygon", "coordinates": [[[-95.9452122, 36.1245835], [-95.945168, 36.1245836], [-95.9451681, 36.1246058], [-95.9450793, 36.1246059], [-95.9450793, 36.1245869], [-95.9450343, 36.124587], [-95.9450343, 36.1246132], [-95.9449319, 36.1246133], [-95.9449315, 36.1244556], [-95.944944, 36.1244556], [-95.9449439, 36.1243787], [-95.9449516, 36.1243787], [-95.9449516, 36.1243714], [-95.9450471, 36.1243713], [-95.9450472, 36.124402], [-95.9450834, 36.1244019], [-95.9450834, 36.1243945], [-95.9451067, 36.1243945], [-95.9451066, 36.1243796], [-95.9451675, 36.1243796], [-95.9451676, 36.1244031], [-95.9452118, 36.1244031], [-95.9452122, 36.1245835]]]}, "properties": {"osm_id": 985686866, "building": "detached", "name": "", "height": null, "height_m": null, "levels": null, "tract_id": "40143004200", "tract_name": "42", "tags": {"addr:city": "Tulsa", "addr:country": "US", "addr:housenumber": "2945", "addr:postcode": "74114", "addr:state": "OK", "addr:street": "East 27th Street South", "building": "detached"}}}, {"type": "Feature", "geometry": {"type": "Polygon", "coordinates": [[[-95.9454537, 36.1245112], [-95.945326, 36.1245119], [-95.9453259, 36.1245008], [-95.9452867, 36.124501], [-95.9452858, 36.1243934], [-95.9453317, 36.1243932], [-95.9453317, 36.1243861], [-95.9453553, 36.1243859], [-95.9453554, 36.1243918], [-95.9453956, 36.1243916], [-95.9453956, 36.1243876], [-95.9455532, 36.1243868], [-95.9455537, 36.1244467], [-95.9454612, 36.1244472], [-95.9454613, 36.1244571], [-95.9454532, 36.1244571], [-95.9454537, 36.1245112]]]}, "properties": {"osm_id": 985686867, "building": "detached", "name": "", "height": null, "height_m": null, "levels": null, "tract_id": "40143004200", "tract_name": "42", "tags": {"addr:city": "Tulsa", "addr:country": "US", "addr:housenumber": "2937", "addr:postcode": "74114", "addr:state": "OK", "addr:street": "East 27th Street South", "building": "detached"}}}, {"type": "Feature", "geometry": {"type": "Polygon", "coordinates": [[[-95.9445153, 36.1245679], [-95.9444492, 36.1245652], [-95.9444428, 36.124552], [-95.9443979, 36.12455], [-95.9444086, 36.1243897], [-95.9444507, 36.1243916], [-95.9444514, 36.12438], [-95.9444753, 36.124381], [-95.9444749, 36.1243885], [-95.9445208, 36.1243904], [-95.9445215, 36.1243796], [-95.9445657, 36.1243815], [-95.9445653, 36.1243866], [-95.9446379, 36.1243896], [-95.9446335, 36.1244589], [-95.9445988, 36.1244575], [-95.9445931, 36.1245458], [-95.9445169, 36.1245426], [-95.9445153, 36.1245679]]]}, "properties": {"osm_id": 985686868, "building": "detached", "name": "", "height": null, "height_m": null, "levels": null, "tract_id": "40143004200", "tract_name": "42", "tags": {"addr:city": "Tulsa", "addr:country": "US", "addr:housenumber": "3105", "addr:postcode": "74114", "addr:state": "OK", "addr:street": "East 27th Street South", "building": "detached"}}}, {"type": "Feature", "geometry": {"type": "Polygon", "coordinates": [[[-95.9445933, 36.1240578], [-95.9445165, 36.1240545], [-95.9445154, 36.1240714], [-95.9443696, 36.1240652], [-95.9443753, 36.1239776], [-95.944598, 36.1239871], [-95.9445933, 36.1240578]]]}, "properties": {"osm_id": 985686869, "building": "detached", "name": "", "height": null, "height_m": null, "levels": null, "tract_id": "40143004200", "tract_name": "42", "tags": {"addr:city": "Tulsa", "addr:country": "US", "addr:housenumber": "3106", "addr:postcode": "74114", "addr:state": "OK", "addr:street": "East 27th Street South", "building": "detached"}}}, {"type": "Feature", "geometry": {"type": "Polygon", "coordinates": [[[-95.9450746, 36.1240736], [-95.9449696, 36.1240747], [-95.944968, 36.1239777], [-95.9449623, 36.1239777], [-95.9449606, 36.1238823], [-95.9449693, 36.1238822], [-95.9449685, 36.1238368], [-95.9450355, 36.123836], [-95.9450357, 36.1238452], [-95.9451896, 36.1238432], [-95.9451903, 36.1238792], [-95.9451978, 36.1238791], [-95.9451985, 36.1239164], [-95.9451893, 36.1239165], [-95.9451911, 36.1240097], [-95.9451393, 36.1240104], [-95.9451394, 36.1240134], [-95.9451064, 36.1240138], [-95.9451064, 36.1240104], [-95.9450736, 36.1240108], [-95.9450746, 36.1240736]]]}, "properties": {"osm_id": 985686870, "building": "detached", "name": "", "height": null, "height_m": null, "levels": null, "tract_id": "40143004200", "tract_name": "42", "tags": {"addr:city": "Tulsa", "addr:country": "US", "addr:housenumber": "2946", "addr:postcode": "74114", "addr:state": "OK", "addr:street": "East 27th Street South", "building": "detached"}}}, {"type": "Feature", "geometry": {"type": "Polygon", "coordinates": [[[-95.9416269, 36.1328003], [-95.9416262, 36.1326509], [-95.941424, 36.1326515], [-95.9414247, 36.1328009], [-95.9416269, 36.1328003]]]}, "properties": {"osm_id": 1005409007, "building": "retail", "name": "Nexgen Fitness", "height": null, "height_m": 3.0, "levels": 1, "tract_id": "40143004200", "tract_name": "42", "tags": {"addr:city": "Tulsa", "addr:country": "US", "addr:housenumber": "3220", "addr:postcode": "74114", "addr:state": "OK", "addr:street": "East 21st Street South", "building": "retail", "building:colour": "brown", "building:levels": "1", "building:material": "brick", "check_date": "2022-06-11", "name": "Nexgen Fitness", "roof:colour": "white", "roof:levels": "0", "roof:shape": "flat"}}}, {"type": "Feature", "geometry": {"type": "Polygon", "coordinates": [[[-95.9418086, 36.1328653], [-95.9418099, 36.1330029], [-95.9418113, 36.1331454], [-95.9417831, 36.1331456], [-95.9417833, 36.1331613], [-95.9416242, 36.1331624], [-95.9416227, 36.1330053], [-95.9416418, 36.1330052], [-95.9416404, 36.1328686], [-95.9418086, 36.1328653]]]}, "properties": {"osm_id": 1005409009, "building": "yes", "name": "", "height": null, "height_m": 6.0, "levels": 2, "tract_id": "40143004200", "tract_name": "42", "tags": {"addr:city": "Tulsa", "addr:country": "US", "addr:housenumber": "3220", "addr:state": "OK", "addr:street": "East 21st Street South", "building": "yes", "building:colour": "brown", "building:levels": "2", "building:material": "brick", "roof:colour": "white", "roof:levels": "0", "roof:shape": "flat"}}}, {"type": "Feature", "geometry": {"type": "Polygon", "coordinates": [[[-95.9405203, 36.1225933], [-95.9407081, 36.1225953], [-95.9407075, 36.122629], [-95.9408044, 36.12263], [-95.9408028, 36.1227268], [-95.9406011, 36.1227247], [-95.9406021, 36.1226608], [-95.9405192, 36.1226599], [-95.9405203, 36.1225933]]]}, "properties": {"osm_id": 1009483313, "building": "retail", "name": "Albert G Barbecue", "height": null, "height_m": null, "levels": null, "tract_id": "40143004200", "tract_name": "42", "tags": {"amenity": "restaurant", "building": "retail", "check_date": "2023-12-21", "cuisine": "barbecue", "name": "Albert G Barbecue"}}}, {"type": "Feature", "geometry": {"type": "Polygon", "coordinates": [[[-95.9408616, 36.1318255], [-95.9407704, 36.1318257], [-95.9407703, 36.131786], [-95.9405379, 36.1317864], [-95.9405377, 36.1317199], [-95.9405083, 36.1317199], [-95.9405079, 36.1315885], [-95.9406523, 36.1315883], [-95.9406524, 36.131616], [-95.9407033, 36.1316159], [-95.9407034, 36.1316388], [-95.9407699, 36.1316387], [-95.9407698, 36.1315847], [-95.940861, 36.1315845], [-95.9408616, 36.1318255]]]}, "properties": {"osm_id": 1009483315, "building": "yes", "name": "Human Skills & Resources, Inc", "height": null, "height_m": null, "levels": null, "tract_id": "40143004200", "tract_name": "42", "tags": {"amenity": "driving_school", "building": "yes", "name": "Human Skills & Resources, Inc", "phone": "+1 918 747 6377"}}}, {"type": "Feature", "geometry": {"type": "Polygon", "coordinates": [[[-95.9416799, 36.1193806], [-95.9416791, 36.1196478], [-95.9416035, 36.1196476], [-95.9413761, 36.1196472], [-95.9413097, 36.119647], [-95.9413098, 36.1196259], [-95.9413105, 36.1193798], [-95.9416799, 36.1193806]]]}, "properties": {"osm_id": 1009483316, "building": "yes", "name": "", "height": null, "height_m": null, "levels": null, "tract_id": "40143004200", "tract_name": "42", "tags": {"building": "yes"}}}, {"type": "Feature", "geometry": {"type": "Polygon", "coordinates": [[[-95.9413098, 36.1196259], [-95.9404533, 36.1196276], [-95.9404526, 36.1193814], [-95.9413105, 36.1193798], [-95.9413098, 36.1196259]]]}, "properties": {"osm_id": 1009483317, "building": "warehouse", "name": "Prime Storage", "height": null, "height_m": null, "levels": null, "tract_id": "40143004200", "tract_name": "42", "tags": {"brand": "Prime Storage", "brand:wikidata": "Q121029091", "building": "warehouse", "name": "Prime Storage", "shop": "storage_rental"}}}, {"type": "Feature", "geometry": {"type": "Polygon", "coordinates": [[[-95.9408543, 36.1221523], [-95.9406759, 36.1221523], [-95.9406759, 36.1221144], [-95.9406571, 36.1221144], [-95.9406571, 36.121953], [-95.9407268, 36.121953], [-95.9407268, 36.1218457], [-95.9408543, 36.1218457], [-95.9408543, 36.1221523]]]}, "properties": {"osm_id": 1009483319, "building": "commercial", "name": "Braum's", "height": null, "height_m": null, "levels": null, "tract_id": "40143004200", "tract_name": "42", "tags": {"addr:housenumber": "2806", "addr:postcode": "74114", "addr:street": "South Harvard Avenue East", "amenity": "fast_food", "brand": "Braum's", "brand:wikidata": "Q4958263", "building": "commercial", "cuisine": "ice_cream;burger", "name": "Braum's", "phone": "+1-918-742-3062", "ref": "36", "shop": "dairy", "takeaway": "yes"}}}, {"type": "Feature", "geometry": {"type": "Polygon", "coordinates": [[[-95.9408579, 36.1247067], [-95.9410868, 36.1247061], [-95.9410876, 36.1247849], [-95.9411584, 36.1247844], [-95.9411602, 36.1249623], [-95.9408605, 36.1249639], [-95.9408579, 36.1247067]]]}, "properties": {"osm_id": 1011565952, "building": "retail", "name": "Southern Agriculture", "height": null, "height_m": null, "levels": null, "tract_id": "40143004200", "tract_name": "42", "tags": {"addr:city": "Tulsa", "addr:country": "US", "addr:housenumber": "2610", "addr:postcode": "74114", "addr:state": "OK", "addr:street": "South Harvard Avenue East", "building": "retail", "check_date": "2023-07-10", "name": "Southern Agriculture", "opening_hours": "Mo-Sa 09:00-20:00; Su 11:00-17:00", "phone": "+1 918 747 6872", "shop": "pet", "website": "https://southernagriculture.com/"}}}, {"type": "Feature", "geometry": {"type": "Polygon", "coordinates": [[[-95.9411654, 36.1259539], [-95.9411563, 36.1259497], [-95.9411677, 36.1259341], [-95.9405766, 36.1256632], [-95.9406923, 36.1254974], [-95.9412945, 36.1257766], [-95.9412519, 36.1258351], [-95.941333, 36.1258736], [-95.9412465, 36.1259924], [-95.9411654, 36.1259539]]]}, "properties": {"osm_id": 1011565957, "building": "retail", "name": "Moore Funeral Home", "height": null, "height_m": 3.0, "levels": 1, "tract_id": "40143004200", "tract_name": "42", "tags": {"addr:city": "Tulsa", "addr:country": "US", "addr:housenumber": "2570", "addr:postcode": "74114", "addr:state": "OK", "addr:street": "South Harvard Avenue East", "building": "retail", "building:levels": "1", "check_date": "2025-02-24", "contact:facebook": "https://www.facebook.com/pages/Moore-Funeral-Homes/1450538575163951", "fax": "+1 918 743 0421", "name": "Moore Funeral Home", "phone": "+1 918 744 1202", "roof:levels": "0", "shop": "funeral_directors"}}}, {"type": "Feature", "geometry": {"type": "Polygon", "coordinates": [[[-95.9411922, 36.1308171], [-95.9411917, 36.1307602], [-95.941445, 36.1305896], [-95.9414336, 36.1305734], [-95.9414792, 36.1305463], [-95.9414383, 36.1304986], [-95.9413987, 36.1305197], [-95.9413867, 36.1305062], [-95.9412063, 36.1306194], [-95.9412061, 36.1305875], [-95.9412673, 36.1305463], [-95.9412666, 36.1304537], [-95.9414028, 36.1304531], [-95.9413994, 36.1303101], [-95.9413384, 36.1303118], [-95.9413384, 36.1303313], [-95.9411325, 36.1303307], [-95.9411332, 36.1302912], [-95.9411392, 36.130276], [-95.9411708, 36.1302733], [-95.9412666, 36.1302928], [-95.9412693, 36.1302798], [-95.941384, 36.1303004], [-95.941506, 36.1302885], [-95.9415409, 36.1301867], [-95.9414363, 36.1301293], [-95.9413075, 36.1301022], [-95.941209, 36.1300551], [-95.9410848, 36.1300341], [-95.9410863, 36.1302121], [-95.9409843, 36.1302127], [-95.9409884, 36.1307082], [-95.9406469, 36.1307101], [-95.9406486, 36.130922], [-95.9407558, 36.1309215], [-95.9407557, 36.1309015], [-95.9407946, 36.1309013], [-95.9407939, 36.1308192], [-95.9411922, 36.1308171]]]}, "properties": {"osm_id": 1011565974, "building": "yes", "name": "Roman Catholic Church of the Madalene", "height": null, "height_m": null, "levels": null, "tract_id": "40143004200", "tract_name": "42", "tags": {"amenity": "place_of_worship", "building": "yes", "denomination": "catholic", "name": "Roman Catholic Church of the Madalene", "religion": "christian"}}}, {"type": "Feature", "geometry": {"type": "Polygon", "coordinates": [[[-95.9408559, 36.1245095], [-95.9408553, 36.1244499], [-95.9410842, 36.1244483], [-95.9410848, 36.124509], [-95.9408559, 36.1245095]]]}, "properties": {"osm_id": 1228364536, "building": "retail", "name": "Beauty Spot+ Salon", "height": null, "height_m": null, "levels": null, "tract_id": "40143004200", "tract_name": "42", "tags": {"addr:city": "Tulsa", "addr:country": "US", "addr:housenumber": "2622", "addr:postcode": "74114", "addr:state": "OK", "addr:street": "South Harvard Avenue East", "building": "retail", "name": "Beauty Spot+ Salon", "shop": "beauty"}}}, {"type": "Feature", "geometry": {"type": "Polygon", "coordinates": [[[-95.9408553, 36.1244499], [-95.9408547, 36.124392], [-95.9410836, 36.1243904], [-95.9410842, 36.1244483], [-95.9408553, 36.1244499]]]}, "properties": {"osm_id": 1228364537, "building": "retail", "name": "Thrift Beauty Supply", "height": null, "height_m": null, "levels": null, "tract_id": "40143004200", "tract_name": "42", "tags": {"addr:city": "Tulsa", "addr:country": "US", "addr:housenumber": "2622A", "addr:postcode": "74114", "addr:state": "OK", "addr:street": "South Harvard Avenue East", "building": "retail", "name": "Thrift Beauty Supply", "shop": "beauty"}}}, {"type": "Feature", "geometry": {"type": "Polygon", "coordinates": [[[-95.9408559, 36.1245095], [-95.9410848, 36.124509], [-95.9410854, 36.1245664], [-95.9408565, 36.1245669], [-95.9408559, 36.1245095]]]}, "properties": {"osm_id": 1228364538, "building": "retail", "name": "Golden Gate", "height": null, "height_m": null, "levels": null, "tract_id": "40143004200", "tract_name": "42", "tags": {"addr:city": "Tulsa", "addr:country": "US", "addr:housenumber": "2620", "addr:postcode": "74114", "addr:state": "OK", "addr:street": "South Harvard Avenue East", "amenity": "restaurant", "building": "retail", "check_date": "2023-07-14", "cuisine": "chinese", "name": "Golden Gate", "opening_hours": "Mo-Sa 11:00-21:00", "phone": "+1 918 742 4942", "website": "http://www.goldengatetulsa.com/"}}}, {"type": "Feature", "geometry": {"type": "Polygon", "coordinates": [[[-95.9408565, 36.1245669], [-95.9408579, 36.1247067], [-95.9410868, 36.1247061], [-95.9410854, 36.1245664], [-95.9408565, 36.1245669]]]}, "properties": {"osm_id": 1228364539, "building": "retail", "name": "Reese's Medical Equipment", "height": null, "height_m": null, "levels": null, "tract_id": "40143004200", "tract_name": "42", "tags": {"addr:city": "Tulsa", "addr:country": "US", "addr:housenumber": "2616", "addr:postcode": "74114", "addr:state": "OK", "addr:street": "South Harvard Avenue East", "building": "retail", "name": "Reese's Medical Equipment", "opening_hours": "Mo-Fr 09:00-18:00; Sa 09:00-14:00; Su off", "phone": "+1 918 835 6382", "shop": "medical_supply", "website": "https://www.reesesmedical.com/"}}}, {"type": "Feature", "geometry": {"type": "Polygon", "coordinates": [[[-95.9411611, 36.1250582], [-95.9411617, 36.1251151], [-95.940862, 36.1251171], [-95.9408614, 36.1250609], [-95.9411611, 36.1250582]]]}, "properties": {"osm_id": 1228364540, "building": "retail", "name": "Trencher\u2019s Delicatessen", "height": null, "height_m": null, "levels": null, "tract_id": "40143004200", "tract_name": "42", "tags": {"addr:city": "Tulsa", "addr:country": "US", "addr:housenumber": "2602", "addr:postcode": "74114", "addr:state": "OK", "addr:street": "South Harvard Avenue East", "amenity": "restaurant", "building": "retail", "cuisine": "sandwich", "indoor_seating": "yes", "name": "Trencher\u2019s Delicatessen", "outdoor_seating": "yes", "website": "http://www.trenchersdeli.com/"}}}, {"type": "Feature", "geometry": {"type": "Polygon", "coordinates": [[[-95.9411611, 36.1250582], [-95.9408614, 36.1250609], [-95.9408609, 36.1250116], [-95.9411607, 36.12501], [-95.9411611, 36.1250582]]]}, "properties": {"osm_id": 1228364541, "building": "retail", "name": "", "height": null, "height_m": null, "levels": null, "tract_id": "40143004200", "tract_name": "42", "tags": {"addr:city": "Tulsa", "addr:country": "US", "addr:postcode": "74114", "addr:state": "OK", "addr:street": "South Harvard Avenue", "building": "retail", "shop": "vacant"}}}, {"type": "Feature", "geometry": {"type": "Polygon", "coordinates": [[[-95.9408609, 36.1250116], [-95.9408605, 36.1249639], [-95.9411602, 36.1249623], [-95.9411607, 36.12501], [-95.9408609, 36.1250116]]]}, "properties": {"osm_id": 1228364542, "building": "retail", "name": "", "height": null, "height_m": null, "levels": null, "tract_id": "40143004200", "tract_name": "42", "tags": {"addr:city": "Tulsa", "addr:country": "US", "addr:postcode": "74114", "addr:state": "OK", "addr:street": "South Harvard Avenue", "building": "retail", "shop": "vacant"}}}, {"type": "Feature", "geometry": {"type": "Polygon", "coordinates": [[[-95.9413228, 36.1326517], [-95.9412217, 36.132652], [-95.9412224, 36.1328014], [-95.9413235, 36.1328011], [-95.9413228, 36.1326517]]]}, "properties": {"osm_id": 1240020155, "building": "retail", "name": "Club Pilates", "height": null, "height_m": 3.0, "levels": 1, "tract_id": "40143004200", "tract_name": "42", "tags": {"addr:city": "Tulsa", "addr:country": "US", "addr:housenumber": "3220", "addr:postcode": "74114", "addr:state": "OK", "addr:street": "East 21st Street South", "brand": "Club Pilates", "brand:wikidata": "Q109328844", "building": "retail", "building:colour": "brown", "building:levels": "1", "building:material": "brick", "check_date": "2022-06-11", "leisure": "fitness_centre", "name": "Club Pilates", "roof:colour": "white", "roof:levels": "0", "roof:shape": "flat", "sport": "pilates"}}}, {"type": "Feature", "geometry": {"type": "Polygon", "coordinates": [[[-95.941424, 36.1326515], [-95.9413228, 36.1326517], [-95.9413235, 36.1328011], [-95.9414247, 36.1328009], [-95.941424, 36.1326515]]]}, "properties": {"osm_id": 1240020156, "building": "retail", "name": "Mathnasium", "height": null, "height_m": 3.0, "levels": 1, "tract_id": "40143004200", "tract_name": "42", "tags": {"addr:city": "Tulsa", "addr:country": "US", "addr:housenumber": "3220", "addr:postcode": "74114", "addr:state": "OK", "addr:street": "East 21st Street South", "amenity": "prep_school", "brand": "Mathnasium", "brand:wikidata": "Q6787302", "building": "retail", "building:colour": "brown", "building:levels": "1", "building:material": "brick", "check_date": "2022-06-11", "name": "Mathnasium", "roof:colour": "white", "roof:levels": "0", "roof:shape": "flat"}}}, {"type": "Feature", "geometry": {"type": "Polygon", "coordinates": [[[-95.9416404, 36.1328686], [-95.9416397, 36.1327959], [-95.9418079, 36.1327948], [-95.9418086, 36.1328653], [-95.9416404, 36.1328686]]]}, "properties": {"osm_id": 1240020157, "building": "yes", "name": "Midtown Nutrition", "height": null, "height_m": 6.0, "levels": 2, "tract_id": "40143004200", "tract_name": "42", "tags": {"addr:city": "Tulsa", "addr:country": "US", "addr:housenumber": "3220", "addr:postcode": "74114", "addr:state": "OK", "addr:street": "East 21st Street South", "building": "yes", "building:colour": "brown", "building:levels": "2", "building:material": "brick", "name": "Midtown Nutrition", "roof:colour": "white", "roof:levels": "0", "roof:shape": "flat", "shop": "nutrition_supplements"}}}, {"type": "Feature", "geometry": {"type": "Polygon", "coordinates": [[[-95.9420666, 36.1331383], [-95.9419312, 36.1331387], [-95.9419299, 36.1328788], [-95.9420653, 36.1328783], [-95.9420666, 36.1331383]]]}, "properties": {"osm_id": 1240020158, "building": "commercial", "name": "", "height": null, "height_m": 3.0, "levels": 1, "tract_id": "40143004200", "tract_name": "42", "tags": {"addr:city": "Tulsa", "addr:country": "US", "addr:housenumber": "3214", "addr:postcode": "74114", "addr:state": "OK", "addr:street": "East 21st Street South", "building": "commercial", "building:colour": "grey", "building:levels": "1", "building:material": "brick", "check_date": "2022-06-11", "roof:colour": "white", "roof:levels": "0", "roof:shape": "flat", "shop": "vacant"}}}, {"type": "Feature", "geometry": {"type": "Polygon", "coordinates": [[[-95.9421551, 36.1331004], [-95.9421501, 36.1328641], [-95.9421611, 36.1328639], [-95.9421606, 36.1328404], [-95.9422385, 36.1328393], [-95.942239, 36.1328628], [-95.9422521, 36.1328627], [-95.9422572, 36.1330989], [-95.9422433, 36.1330991], [-95.9422439, 36.133125], [-95.9421684, 36.1331261], [-95.9421679, 36.1331002], [-95.9421551, 36.1331004]]]}, "properties": {"osm_id": 1240020159, "building": "commercial", "name": "RengionDental", "height": null, "height_m": 3.0, "levels": 1, "tract_id": "40143004200", "tract_name": "42", "tags": {"addr:city": "Tulsa", "addr:country": "US", "addr:housenumber": "3210", "addr:postcode": "74114", "addr:state": "OK", "addr:street": "East 21st Street South", "amenity": "dentist", "building": "commercial", "building:colour": "brown", "building:levels": "1", "building:material": "brick", "name": "RengionDental", "phone": "+1 918 742 5521", "roof:colour": "brown", "roof:levels": "0", "website": "https://www.regiondental.com/"}}}, {"type": "Feature", "geometry": {"type": "Polygon", "coordinates": [[[-95.9514859, 36.1328209], [-95.9514859, 36.1329081], [-95.9512317, 36.1329081], [-95.9512317, 36.1328399], [-95.9512478, 36.1328399], [-95.9512478, 36.1328209], [-95.9514859, 36.1328209]]]}, "properties": {"osm_id": 1240020163, "building": "retail", "name": "Einstein Bros. Bagels", "height": null, "height_m": 3.0, "levels": 1, "tract_id": "40143004200", "tract_name": "42", "tags": {"addr:city": "Tulsa", "addr:country": "US", "addr:housenumber": "2660", "addr:postcode": "74114", "addr:state": "OK", "addr:street": "East 21st Street South", "alt_name": "Einstein Brothers Bagels", "amenity": "fast_food", "branch": "21st & Columbia", "brand": "Einstein Bros. Bagels", "brand:wikidata": "Q5349788", "building": "retail", "building:levels": "1", "check_date": "2024-07-14", "cuisine": "bagel", "name": "Einstein Bros. Bagels", "opening_hours": "06:00-15:00", "phone": "+1 918 960 2761", "ref": "4060", "roof:levels": "0", "roof:shape": "flat", "takeaway": "yes", "website": "https://locations.einsteinbros.com/us/ok/tulsa/2660-e-21st-st"}}}, {"type": "Feature", "geometry": {"type": "Polygon", "coordinates": [[[-95.9505263, 36.1330505], [-95.950525, 36.1326476], [-95.9506363, 36.1326205], [-95.9507623, 36.1326471], [-95.9507636, 36.13305], [-95.9506457, 36.1330722], [-95.9505263, 36.1330505]]]}, "properties": {"osm_id": 1240020164, "building": "office", "name": "Parkland Plaza", "height": null, "height_m": 18.0, "levels": 6, "tract_id": "40143004200", "tract_name": "42", "tags": {"building": "office", "building:colour": "white", "building:levels": "6", "building:material": "concrete", "name": "Parkland Plaza", "roof:colour": "brown", "roof:levels": "1", "roof:material": "concrete"}}}, {"type": "Feature", "geometry": {"type": "Polygon", "coordinates": [[[-95.9558491, 36.1327689], [-95.9560461, 36.1327685], [-95.9560463, 36.1328419], [-95.956005, 36.132842], [-95.9560052, 36.1329043], [-95.9560717, 36.1329042], [-95.956072, 36.1329915], [-95.956122, 36.1329914], [-95.9561222, 36.1330354], [-95.9559172, 36.1330359], [-95.9559169, 36.1329534], [-95.9558293, 36.1329537], [-95.955829, 36.1328637], [-95.9558495, 36.1328637], [-95.9558491, 36.1327689]]]}, "properties": {"osm_id": 1240020171, "building": "commercial", "name": "", "height": null, "height_m": null, "levels": null, "tract_id": "40143004200", "tract_name": "42", "tags": {"building": "commercial"}}}, {"type": "Feature", "geometry": {"type": "Polygon", "coordinates": [[[-95.9564976, 36.1330229], [-95.9564047, 36.1330241], [-95.9564045, 36.1330129], [-95.9563113, 36.1330141], [-95.9563104, 36.1329677], [-95.9563366, 36.1329674], [-95.9563362, 36.1329468], [-95.9563261, 36.1329469], [-95.9563257, 36.132925], [-95.95635, 36.1329247], [-95.9563496, 36.1328994], [-95.9563666, 36.1328992], [-95.9563646, 36.1327944], [-95.956503, 36.1327926], [-95.9565057, 36.1329367], [-95.9564959, 36.1329368], [-95.9564976, 36.1330229]]]}, "properties": {"osm_id": 1240020179, "building": "detached", "name": "Chiropractic Wellness Center", "height": null, "height_m": null, "levels": null, "tract_id": "40143004200", "tract_name": "42", "tags": {"addr:city": "Tulsa", "addr:country": "US", "addr:housenumber": "2442", "addr:postcode": "74114", "addr:state": "OK", "addr:street": "East 21st Street South", "building": "detached", "healthcare": "alternative", "healthcare:speciality": "chiropractic", "name": "Chiropractic Wellness Center"}}}, {"type": "Feature", "geometry": {"type": "Polygon", "coordinates": [[[-95.9466518, 36.1328772], [-95.9466529, 36.1328162], [-95.9466921, 36.1328166], [-95.946691, 36.1328777], [-95.9466518, 36.1328772]]]}, "properties": {"osm_id": 1308507078, "building": "yes", "name": "", "height": null, "height_m": null, "levels": null, "tract_id": "40143004200", "tract_name": "42", "tags": {"building": "yes"}}}, {"type": "Feature", "geometry": {"type": "Polygon", "coordinates": [[[-95.9465995, 36.1329054], [-95.9465393, 36.1329047], [-95.9465399, 36.1328707], [-95.9466001, 36.1328714], [-95.9465995, 36.1329054]]]}, "properties": {"osm_id": 1308507079, "building": "yes", "name": "", "height": null, "height_m": null, "levels": null, "tract_id": "40143004200", "tract_name": "42", "tags": {"building": "yes"}}}, {"type": "Feature", "geometry": {"type": "Polygon", "coordinates": [[[-95.9468875, 36.1330766], [-95.9471128, 36.1330737], [-95.9471114, 36.1330023], [-95.9469987, 36.1330037], [-95.9469982, 36.1329755], [-95.9469124, 36.1329766], [-95.9469132, 36.13302], [-95.9468864, 36.1330203], [-95.9468875, 36.1330766]]]}, "properties": {"osm_id": 1308507083, "building": "detached", "name": "", "height": null, "height_m": null, "levels": null, "tract_id": "40143004200", "tract_name": "42", "tags": {"addr:city": "Tulsa", "addr:country": "US", "addr:housenumber": "2916", "addr:postcode": "74114", "addr:state": "OK", "addr:street": "East 21st Street South", "building": "detached"}}}, {"type": "Feature", "geometry": {"type": "Polygon", "coordinates": [[[-95.9535913, 36.1330168], [-95.953591, 36.1328673], [-95.9534166, 36.1328675], [-95.9534167, 36.1329217], [-95.9531297, 36.1329221], [-95.9531299, 36.1330174], [-95.9535913, 36.1330168]]]}, "properties": {"osm_id": 1308507086, "building": "commercial", "name": "", "height": null, "height_m": null, "levels": null, "tract_id": "40143004200", "tract_name": "42", "tags": {"addr:city": "Tulsa", "addr:country": "US", "addr:housenumber": "2624", "addr:postcode": "74114", "addr:state": "OK", "addr:street": "East 21st Street South", "building": "commercial"}}}, {"type": "Feature", "geometry": {"type": "Polygon", "coordinates": [[[-95.9472089, 36.1327422], [-95.9472436, 36.1328069], [-95.9473712, 36.1327622], [-95.947311, 36.1326501], [-95.9472083, 36.1326861], [-95.9472337, 36.1327335], [-95.9472089, 36.1327422]]]}, "properties": {"osm_id": 1308507090, "building": "detached", "name": "", "height": null, "height_m": null, "levels": null, "tract_id": "40143004200", "tract_name": "42", "tags": {"building": "detached"}}}, {"type": "Feature", "geometry": {"type": "Polygon", "coordinates": [[[-95.9429295, 36.1329131], [-95.9427619, 36.1329131], [-95.9427619, 36.1330723], [-95.9428263, 36.1330723], [-95.9428263, 36.1330543], [-95.9428552, 36.1330543], [-95.9428552, 36.1330723], [-95.9429296, 36.1330723], [-95.9429295, 36.1329131]]]}, "properties": {"osm_id": 1308507094, "building": "yes", "name": "", "height": null, "height_m": null, "levels": null, "tract_id": "40143004200", "tract_name": "42", "tags": {"addr:city": "Tulsa", "addr:country": "US", "addr:housenumber": "3144", "addr:postcode": "74114", "addr:state": "OK", "addr:street": "East 21st Street South", "building": "yes"}}}, {"type": "Feature", "geometry": {"type": "Polygon", "coordinates": [[[-95.9431481, 36.1329064], [-95.9429952, 36.1329048], [-95.942993, 36.1330412], [-95.9430225, 36.1330415], [-95.943022, 36.133074], [-95.9431239, 36.1330751], [-95.9431244, 36.1330404], [-95.9431459, 36.1330407], [-95.9431481, 36.1329064]]]}, "properties": {"osm_id": 1308507108, "building": "yes", "name": "", "height": null, "height_m": null, "levels": null, "tract_id": "40143004200", "tract_name": "42", "tags": {"addr:city": "Tulsa", "addr:country": "US", "addr:housenumber": "3140", "addr:postcode": "74114", "addr:state": "OK", "addr:street": "East 21st Street South", "building": "yes"}}}, {"type": "Feature", "geometry": {"type": "Polygon", "coordinates": [[[-95.9441194, 36.1330887], [-95.9441209, 36.1329782], [-95.943901, 36.1329762], [-95.9438992, 36.133104], [-95.9440413, 36.1331053], [-95.9440416, 36.1330879], [-95.9441194, 36.1330887]]]}, "properties": {"osm_id": 1308507111, "building": "detached", "name": "", "height": null, "height_m": null, "levels": null, "tract_id": "40143004200", "tract_name": "42", "tags": {"addr:city": "Tulsa", "addr:country": "US", "addr:housenumber": "3116", "addr:postcode": "74114", "addr:state": "OK", "addr:street": "East 21st Street South", "building": "detached"}}}, {"type": "Feature", "geometry": {"type": "Polygon", "coordinates": [[[-95.944049, 36.1327927], [-95.943911, 36.132794], [-95.9439133, 36.1329564], [-95.9440513, 36.1329551], [-95.944049, 36.1327927]]]}, "properties": {"osm_id": 1308507115, "building": "detached", "name": "", "height": null, "height_m": null, "levels": null, "tract_id": "40143004200", "tract_name": "42", "tags": {"building": "detached"}}}, {"type": "Feature", "geometry": {"type": "Polygon", "coordinates": [[[-95.9460921, 36.1328114], [-95.9459982, 36.1328123], [-95.9459993, 36.1328804], [-95.9460931, 36.1328794], [-95.9460921, 36.1328114]]]}, "properties": {"osm_id": 1308507117, "building": "yes", "name": "", "height": null, "height_m": null, "levels": null, "tract_id": "40143004200", "tract_name": "42", "tags": {"building": "yes"}}}, {"type": "Feature", "geometry": {"type": "Polygon", "coordinates": [[[-95.9456155, 36.1328824], [-95.9456152, 36.1329357], [-95.9456013, 36.1329357], [-95.9456011, 36.1329704], [-95.9455818, 36.1329703], [-95.9455816, 36.1330089], [-95.9455717, 36.1330088], [-95.9455715, 36.1330469], [-95.9457142, 36.1330474], [-95.9457146, 36.1329848], [-95.9457598, 36.132985], [-95.9457601, 36.1329154], [-95.9457199, 36.1329152], [-95.9457201, 36.1328827], [-95.9456155, 36.1328824]]]}, "properties": {"osm_id": 1308507128, "building": "detached", "name": "", "height": null, "height_m": null, "levels": null, "tract_id": "40143004200", "tract_name": "42", "tags": {"addr:city": "Tulsa", "addr:country": "US", "addr:housenumber": "3006", "addr:postcode": "74114", "addr:state": "OK", "addr:street": "East 21st Street South", "building": "detached"}}}, {"type": "Feature", "geometry": {"type": "Polygon", "coordinates": [[[-95.9474018, 36.1329031], [-95.9474248, 36.1328989], [-95.9474107, 36.1328485], [-95.9473882, 36.1328526], [-95.9473801, 36.1328236], [-95.9472801, 36.1328418], [-95.9473112, 36.1329531], [-95.9474107, 36.132935], [-95.9474018, 36.1329031]]]}, "properties": {"osm_id": 1308507130, "building": "detached", "name": "", "height": null, "height_m": null, "levels": null, "tract_id": "40143004200", "tract_name": "42", "tags": {"building": "detached"}}}, {"type": "Feature", "geometry": {"type": "Polygon", "coordinates": [[[-95.9451028, 36.1328562], [-95.9451009, 36.1328021], [-95.9450312, 36.1328037], [-95.9450331, 36.1328578], [-95.9451028, 36.1328562]]]}, "properties": {"osm_id": 1308507134, "building": "garage", "name": "", "height": null, "height_m": null, "levels": null, "tract_id": "40143004200", "tract_name": "42", "tags": {"building": "garage"}}}, {"type": "Feature", "geometry": {"type": "Polygon", "coordinates": [[[-95.943449, 36.1330747], [-95.9435602, 36.1330738], [-95.9435575, 36.1328507], [-95.9434463, 36.1328516], [-95.943449, 36.1330747]]]}, "properties": {"osm_id": 1308507143, "building": "yes", "name": "", "height": null, "height_m": null, "levels": null, "tract_id": "40143004200", "tract_name": "42", "tags": {"building": "yes"}}}, {"type": "Feature", "geometry": {"type": "Polygon", "coordinates": [[[-95.9467413, 36.1328921], [-95.9467395, 36.1329594], [-95.9467276, 36.1329592], [-95.9467265, 36.1329992], [-95.9466661, 36.1329982], [-95.9466649, 36.1330446], [-95.9468432, 36.1330477], [-95.9468445, 36.1329988], [-95.9468163, 36.1329984], [-95.946819, 36.1328935], [-95.9467413, 36.1328921]]]}, "properties": {"osm_id": 1308507149, "building": "detached", "name": "", "height": null, "height_m": null, "levels": null, "tract_id": "40143004200", "tract_name": "42", "tags": {"addr:city": "Tulsa", "addr:country": "US", "addr:housenumber": "2920", "addr:postcode": "74114", "addr:state": "OK", "addr:street": "East 21st Street South", "building": "detached"}}}, {"type": "Feature", "geometry": {"type": "Polygon", "coordinates": [[[-95.9464811, 36.132912], [-95.9464817, 36.1328795], [-95.9464192, 36.1328788], [-95.9464179, 36.1329546], [-95.9464625, 36.1329551], [-95.9464618, 36.1329949], [-95.9464556, 36.1329948], [-95.9464547, 36.1330439], [-95.9466264, 36.1330458], [-95.9466274, 36.1329873], [-95.9465898, 36.1329869], [-95.9465907, 36.1329368], [-95.9465752, 36.1329366], [-95.9465756, 36.1329131], [-95.9464811, 36.132912]]]}, "properties": {"osm_id": 1308507152, "building": "detached", "name": "", "height": null, "height_m": null, "levels": null, "tract_id": "40143004200", "tract_name": "42", "tags": {"addr:city": "Tulsa", "addr:country": "US", "addr:housenumber": "2924", "addr:postcode": "74114", "addr:state": "OK", "addr:street": "East 21st Street South", "building": "detached"}}}, {"type": "Feature", "geometry": {"type": "Polygon", "coordinates": [[[-95.942351, 36.132859], [-95.9423568, 36.1331123], [-95.9425002, 36.1331102], [-95.9424974, 36.1329868], [-95.9425443, 36.132986], [-95.9425414, 36.1328561], [-95.942351, 36.132859]]]}, "properties": {"osm_id": 1308507163, "building": "yes", "name": "", "height": null, "height_m": null, "levels": null, "tract_id": "40143004200", "tract_name": "42", "tags": {"addr:city": "Tulsa", "addr:country": "US", "addr:housenumber": "3202", "addr:postcode": "74114", "addr:state": "OK", "addr:street": "East 21st Street South", "building": "yes", "shop": "yes"}}}, {"type": "Feature", "geometry": {"type": "Polygon", "coordinates": [[[-95.9527041, 36.1328572], [-95.9529294, 36.1328551], [-95.9529265, 36.132645], [-95.952838, 36.1326459], [-95.9528367, 36.1325549], [-95.9528796, 36.1325545], [-95.952878, 36.1324375], [-95.9526983, 36.1324392], [-95.9527041, 36.1328572]]]}, "properties": {"osm_id": 1308507165, "building": "commercial", "name": "", "height": null, "height_m": null, "levels": null, "tract_id": "40143004200", "tract_name": "42", "tags": {"addr:city": "Tulsa", "addr:country": "US", "addr:housenumber": "2626", "addr:postcode": "74114", "addr:state": "OK", "addr:street": "East 21st Street South", "building": "commercial"}}}, {"type": "Feature", "geometry": {"type": "Polygon", "coordinates": [[[-95.9453231, 36.1328927], [-95.9452185, 36.1328914], [-95.945218, 36.1329174], [-95.9451629, 36.1329166], [-95.9451604, 36.1330423], [-95.94532, 36.1330443], [-95.9453231, 36.1328927]]]}, "properties": {"osm_id": 1308507181, "building": "detached", "name": "", "height": null, "height_m": null, "levels": null, "tract_id": "40143004200", "tract_name": "42", "tags": {"addr:city": "Tulsa", "addr:country": "US", "addr:housenumber": "3016", "addr:postcode": "74114", "addr:state": "OK", "addr:street": "East 21st Street South", "building": "detached"}}}, {"type": "Feature", "geometry": {"type": "Polygon", "coordinates": [[[-95.9432067, 36.133079], [-95.9433757, 36.1330778], [-95.9433739, 36.1329046], [-95.943339, 36.1329048], [-95.9433386, 36.1328694], [-95.9432903, 36.1328697], [-95.9432907, 36.1329051], [-95.9432049, 36.1329057], [-95.9432067, 36.133079]]]}, "properties": {"osm_id": 1308507187, "building": "yes", "name": "", "height": null, "height_m": null, "levels": null, "tract_id": "40143004200", "tract_name": "42", "tags": {"addr:city": "Tulsa", "addr:country": "US", "addr:housenumber": "3134", "addr:postcode": "74114", "addr:state": "OK", "addr:street": "East 21st Street South", "building": "yes"}}}, {"type": "Feature", "geometry": {"type": "Polygon", "coordinates": [[[-95.9474568, 36.1329737], [-95.947294, 36.1329929], [-95.9473134, 36.1330999], [-95.9474513, 36.1330836], [-95.9474392, 36.1330169], [-95.9474641, 36.133014], [-95.9474568, 36.1329737]]]}, "properties": {"osm_id": 1308507188, "building": "detached", "name": "", "height": null, "height_m": null, "levels": null, "tract_id": "40143004200", "tract_name": "42", "tags": {"building": "detached"}}}, {"type": "Feature", "geometry": {"type": "Polygon", "coordinates": [[[-95.9462998, 36.1329774], [-95.946265, 36.1329767], [-95.946263, 36.1330482], [-95.9463949, 36.1330506], [-95.9463969, 36.1329788], [-95.9463842, 36.1329786], [-95.9463879, 36.1328446], [-95.9463035, 36.1328431], [-95.9462998, 36.1329774]]]}, "properties": {"osm_id": 1308507189, "building": "detached", "name": "", "height": null, "height_m": null, "levels": null, "tract_id": "40143004200", "tract_name": "42", "tags": {"addr:city": "Tulsa", "addr:country": "US", "addr:housenumber": "2932", "addr:postcode": "74114", "addr:state": "OK", "addr:street": "East 21st Street South", "building": "detached"}}}, {"type": "Feature", "geometry": {"type": "Polygon", "coordinates": [[[-95.9450894, 36.1328893], [-95.9449795, 36.1328914], [-95.9449809, 36.132939], [-95.9449673, 36.1329392], [-95.9449704, 36.1330475], [-95.9450691, 36.1330456], [-95.9450681, 36.1330125], [-95.945093, 36.133012], [-95.9450894, 36.1328893]]]}, "properties": {"osm_id": 1308507193, "building": "detached", "name": "", "height": null, "height_m": null, "levels": null, "tract_id": "40143004200", "tract_name": "42", "tags": {"building": "detached"}}}, {"type": "Feature", "geometry": {"type": "Polygon", "coordinates": [[[-95.9444556, 36.1330922], [-95.9446352, 36.1330951], [-95.944638, 36.1329825], [-95.9445441, 36.132981], [-95.9445426, 36.1330416], [-95.9444568, 36.1330402], [-95.9444556, 36.1330922]]]}, "properties": {"osm_id": 1308507196, "building": "detached", "name": "", "height": null, "height_m": null, "levels": null, "tract_id": "40143004200", "tract_name": "42", "tags": {"building": "detached"}}}, {"type": "Feature", "geometry": {"type": "Polygon", "coordinates": [[[-95.9458102, 36.1329483], [-95.9458119, 36.1330437], [-95.9458716, 36.133043], [-95.9458713, 36.1330244], [-95.9459215, 36.1330238], [-95.9459219, 36.1330455], [-95.9459716, 36.1330449], [-95.9459695, 36.1329303], [-95.9458452, 36.1329318], [-95.9458455, 36.1329479], [-95.9458102, 36.1329483]]]}, "properties": {"osm_id": 1308507198, "building": "detached", "name": "", "height": null, "height_m": null, "levels": null, "tract_id": "40143004200", "tract_name": "42", "tags": {"addr:city": "Tulsa", "addr:country": "US", "addr:housenumber": "3002", "addr:postcode": "74114", "addr:state": "OK", "addr:street": "East 21st Street South", "building": "detached"}}}, {"type": "Feature", "geometry": {"type": "Polygon", "coordinates": [[[-95.945533, 36.1329376], [-95.9454408, 36.1329365], [-95.9454407, 36.1329448], [-95.9454045, 36.1329444], [-95.9454041, 36.1329627], [-95.9453596, 36.1329622], [-95.9453584, 36.1330244], [-95.9453976, 36.1330248], [-95.9453972, 36.1330439], [-95.945531, 36.1330456], [-95.945533, 36.1329376]]]}, "properties": {"osm_id": 1308507206, "building": "detached", "name": "", "height": null, "height_m": null, "levels": null, "tract_id": "40143004200", "tract_name": "42", "tags": {"building": "detached"}}}, {"type": "Feature", "geometry": {"type": "Polygon", "coordinates": [[[-95.9444657, 36.1329442], [-95.944589, 36.1329466], [-95.9445907, 36.1328881], [-95.9446336, 36.132889], [-95.9446359, 36.132811], [-95.9445018, 36.1328084], [-95.9444992, 36.1328972], [-95.9444671, 36.1328966], [-95.9444657, 36.1329442]]]}, "properties": {"osm_id": 1308507213, "building": "detached", "name": "", "height": null, "height_m": null, "levels": null, "tract_id": "40143004200", "tract_name": "42", "tags": {"building": "detached"}}}, {"type": "Feature", "geometry": {"type": "Polygon", "coordinates": [[[-95.9461059, 36.132874], [-95.9461084, 36.1329541], [-95.9460575, 36.1329552], [-95.9460591, 36.1330071], [-95.9460215, 36.1330079], [-95.9460228, 36.1330469], [-95.9461836, 36.1330436], [-95.9461783, 36.1328726], [-95.9461059, 36.132874]]]}, "properties": {"osm_id": 1308507228, "building": "detached", "name": "", "height": null, "height_m": null, "levels": null, "tract_id": "40143004200", "tract_name": "42", "tags": {"addr:city": "Tulsa", "addr:country": "US", "addr:housenumber": "2936", "addr:postcode": "74114", "addr:state": "OK", "addr:street": "East 21st Street South", "building": "detached"}}}]}