{"type": "FeatureCollection", "features": [{"type": "Feature", "geometry": {"type": "Polygon", "coordinates": [[[-95.9602417, 36.0643727], [-95.9597492, 36.0643749], [-95.9597504, 36.0640872], [-95.9600274, 36.0640891], [-95.9600271, 36.0641168], [-95.9602417, 36.0641183], [-95.9602417, 36.0643727]]]}, "properties": {"osm_id": 180521895, "building": "yes", "name": "", "height": null, "height_m": null, "levels": null, "tract_id": "40143007643", "tract_name": "76.43", "tags": {"addr:city": "Tulsa", "addr:country": "US", "addr:housenumber": "2121", "addr:postcode": "74136", "addr:state": "OK", "addr:street": "East 69th Street", "building": "yes"}}}, {"type": "Feature", "geometry": {"type": "Polygon", "coordinates": [[[-95.9619569, 36.063076], [-95.961957, 36.0629298], [-95.9619308, 36.062912], [-95.961912, 36.0629112], [-95.9619114, 36.0628554], [-95.9619342, 36.0628554], [-95.9619571, 36.0628341], [-95.9619572, 36.062672], [-95.961704, 36.0626719], [-95.9616738, 36.0626981], [-95.9616738, 36.0628383], [-95.9615966, 36.0628399], [-95.9615909, 36.0626966], [-95.9615645, 36.0626718], [-95.9613105, 36.0626717], [-95.9613104, 36.062843], [-95.9613316, 36.0628575], [-95.9613537, 36.0628581], [-95.9613523, 36.0629108], [-95.9613285, 36.0629117], [-95.9613103, 36.0629351], [-95.9613102, 36.0630769], [-95.9613402, 36.0630992], [-95.9615682, 36.0630993], [-95.9615967, 36.0630769], [-95.9615967, 36.062951], [-95.9616778, 36.0629511], [-95.9616768, 36.0630805], [-95.9617019, 36.0630994], [-95.9619302, 36.0630995], [-95.9619569, 36.063076]]]}, "properties": {"osm_id": 191525406, "building": "office", "name": "Yorktown Place", "height": null, "height_m": null, "levels": null, "tract_id": "40143007643", "tract_name": "76.43", "tags": {"addr:city": "Tulsa", "addr:country": "US", "addr:housenumber": "6914", "addr:postcode": "74136", "addr:state": "OK", "addr:street": "South Yorktown Avenue East", "building": "office", "name": "Yorktown Place"}}}, {"type": "Feature", "geometry": {"type": "Polygon", "coordinates": [[[-95.9590266, 36.0613043], [-95.9588948, 36.0613057], [-95.9588914, 36.0611019], [-95.9590233, 36.0611005], [-95.9590266, 36.0613043]]]}, "properties": {"osm_id": 440367288, "building": "retail", "name": "Patricia's", "height": null, "height_m": 3.0, "levels": 1, "tract_id": "40143007643", "tract_name": "76.43", "tags": {"addr:city": "Tulsa", "addr:country": "US", "addr:housenumber": "2327", "addr:postcode": "74136", "addr:state": "OK", "addr:street": "East 71st Street South", "building": "retail", "building:levels": "1", "check_date": "2025-01-14", "name": "Patricia's", "opening_hours": "24/7", "roof:levels": "0", "shop": "erotic"}}}, {"type": "Feature", "geometry": {"type": "Polygon", "coordinates": [[[-95.9586062, 36.0613498], [-95.9584606, 36.0613504], [-95.9584595, 36.0611801], [-95.9584903, 36.06118], [-95.95849, 36.0611449], [-95.9586048, 36.0611444], [-95.9586062, 36.0613498]]]}, "properties": {"osm_id": 440367290, "building": "yes", "name": "Schlotzsky's", "height": null, "height_m": null, "levels": null, "tract_id": "40143007643", "tract_name": "76.43", "tags": {"addr:city": "Tulsa", "addr:housenumber": "2343", "addr:postcode": "74136", "addr:state": "OK", "addr:street": "East 71st Street South", "amenity": "fast_food", "brand": "Schlotzsky's", "brand:wikidata": "Q2244796", "building": "yes", "check_date": "2024-09-09", "cuisine": "sandwich", "indoor_seating": "yes", "name": "Schlotzsky's", "opening_hours": "Mo-Su 10:00-22:00", "outdoor_seating": "yes", "phone": "+1-918-496-4663", "takeaway": "yes", "wheelchair": "yes"}}}, {"type": "Feature", "geometry": {"type": "Polygon", "coordinates": [[[-95.9660933, 36.0618573], [-95.9658648, 36.0618582], [-95.9658641, 36.0617392], [-95.9659222, 36.061739], [-95.965921, 36.0615281], [-95.9658624, 36.0615284], [-95.9658616, 36.061401], [-95.9659092, 36.0614008], [-95.9659081, 36.0612124], [-95.9658547, 36.0612126], [-95.9658539, 36.0610701], [-95.9660887, 36.0610692], [-95.9660933, 36.0618573]]]}, "properties": {"osm_id": 666120044, "building": "yes", "name": "", "height": null, "height_m": null, "levels": null, "tract_id": "40143007643", "tract_name": "76.43", "tags": {"building": "yes"}}}, {"type": "Feature", "geometry": {"type": "Polygon", "coordinates": [[[-95.9654475, 36.0618676], [-95.9651982, 36.0618689], [-95.9651973, 36.0617557], [-95.9652568, 36.0617554], [-95.9652558, 36.0616344], [-95.9652161, 36.0616346], [-95.9652153, 36.0615345], [-95.9652567, 36.0615342], [-95.9652558, 36.0614173], [-95.9652138, 36.0614175], [-95.965213, 36.0613132], [-95.9652503, 36.061313], [-95.9652494, 36.0612031], [-95.9651911, 36.0612034], [-95.9651901, 36.0610786], [-95.9654376, 36.0610773], [-95.9654393, 36.0612933], [-95.9654151, 36.0612934], [-95.9654161, 36.0614194], [-95.9654506, 36.0614192], [-95.9654515, 36.0615258], [-95.9654172, 36.0615259], [-95.9654182, 36.06165], [-95.9654458, 36.0616498], [-95.9654475, 36.0618676]]]}, "properties": {"osm_id": 666120046, "building": "yes", "name": "", "height": null, "height_m": null, "levels": null, "tract_id": "40143007643", "tract_name": "76.43", "tags": {"building": "yes"}}}, {"type": "Feature", "geometry": {"type": "Polygon", "coordinates": [[[-95.9648277, 36.0618768], [-95.9645809, 36.0618774], [-95.9645782, 36.0610745], [-95.9648307, 36.061074], [-95.9648312, 36.0612147], [-95.9647699, 36.0612148], [-95.9647706, 36.0614111], [-95.9648052, 36.061411], [-95.9648057, 36.0615418], [-95.9647722, 36.0615419], [-95.9647729, 36.0617418], [-95.9648272, 36.0617417], [-95.9648277, 36.0618768]]]}, "properties": {"osm_id": 666120049, "building": "yes", "name": "", "height": null, "height_m": null, "levels": null, "tract_id": "40143007643", "tract_name": "76.43", "tags": {"building": "yes"}}}, {"type": "Feature", "geometry": {"type": "Polygon", "coordinates": [[[-95.9661019, 36.0622794], [-95.9645866, 36.0622909], [-95.9645841, 36.0620748], [-95.9647898, 36.0620732], [-95.9647902, 36.0621082], [-95.9659105, 36.0620997], [-95.9659102, 36.0620745], [-95.9660995, 36.062073], [-95.9661019, 36.0622794]]]}, "properties": {"osm_id": 666120051, "building": "yes", "name": "", "height": null, "height_m": null, "levels": null, "tract_id": "40143007643", "tract_name": "76.43", "tags": {"building": "yes"}}}, {"type": "Feature", "geometry": {"type": "Polygon", "coordinates": [[[-95.9582698, 36.0627768], [-95.9582196, 36.062777], [-95.9582189, 36.0626957], [-95.9582692, 36.0626955], [-95.9582698, 36.0627768]]]}, "properties": {"osm_id": 709500385, "building": "yes", "name": "Scooter's Coffee", "height": null, "height_m": null, "levels": null, "tract_id": "40143007643", "tract_name": "76.43", "tags": {"amenity": "cafe", "branch": "Drive Thru", "brand": "Scooter's Coffee", "brand:wikidata": "Q117280308", "building": "yes", "cuisine": "coffee_shop", "name": "Scooter's Coffee", "shop": "coffee", "takeaway": "yes"}}}, {"type": "Feature", "geometry": {"type": "Polygon", "coordinates": [[[-95.9592944, 36.0634007], [-95.9591148, 36.0634015], [-95.9591145, 36.0633496], [-95.9588903, 36.0633506], [-95.958889, 36.0631567], [-95.9588185, 36.0631405], [-95.9588179, 36.0630619], [-95.9588882, 36.0630418], [-95.9588869, 36.062851], [-95.9590887, 36.0628501], [-95.9590859, 36.0624385], [-95.9590624, 36.0624386], [-95.9589721, 36.0623485], [-95.958972, 36.0623317], [-95.9582444, 36.062335], [-95.9582445, 36.0623523], [-95.9582022, 36.0623524], [-95.9582021, 36.0623352], [-95.9581752, 36.0623353], [-95.958174, 36.0621624], [-95.9592859, 36.0621574], [-95.9592944, 36.0634007]]]}, "properties": {"osm_id": 709500393, "building": "retail", "name": "", "height": null, "height_m": 3.0, "levels": 1, "tract_id": "40143007643", "tract_name": "76.43", "tags": {"building": "retail", "building:levels": "1", "roof:levels": "0"}}}, {"type": "Feature", "geometry": {"type": "Polygon", "coordinates": [[[-95.9582658, 36.0634505], [-95.9582645, 36.0632554], [-95.9584353, 36.0632546], [-95.9584363, 36.0634039], [-95.9584252, 36.0634039], [-95.9584255, 36.0634498], [-95.9582658, 36.0634505]]]}, "properties": {"osm_id": 709500394, "building": "retail", "name": "Catrina Fresh Mex", "height": null, "height_m": null, "levels": null, "tract_id": "40143007643", "tract_name": "76.43", "tags": {"amenity": "fast_food", "building": "retail", "cuisine": "mexican", "name": "Catrina Fresh Mex", "outdoor_seating": "yes", "takeaway": "yes", "website": "https://lewis.catrinafreshmextogo.com/"}}}, {"type": "Feature", "geometry": {"type": "Polygon", "coordinates": [[[-95.95843, 36.0644058], [-95.9582638, 36.0644073], [-95.9582598, 36.0641367], [-95.9584261, 36.0641351], [-95.95843, 36.0644058]]]}, "properties": {"osm_id": 779199780, "building": "retail", "name": "", "height": null, "height_m": null, "levels": null, "tract_id": "40143007643", "tract_name": "76.43", "tags": {"building": "retail"}}}, {"type": "Feature", "geometry": {"type": "Polygon", "coordinates": [[[-95.9586527, 36.0640164], [-95.9586187, 36.0639868], [-95.9586039, 36.0639979], [-95.9584166, 36.0638346], [-95.9584036, 36.0638443], [-95.9583409, 36.0637896], [-95.9583038, 36.0638174], [-95.9582746, 36.0638392], [-95.9583373, 36.0638939], [-95.9582951, 36.0639256], [-95.9583622, 36.0639842], [-95.9583498, 36.0639934], [-95.9584154, 36.0640506], [-95.9584282, 36.064041], [-95.9584471, 36.0640575], [-95.9585278, 36.0640792], [-95.9585418, 36.0640687], [-95.9585609, 36.0640853], [-95.9585898, 36.0640636], [-95.9586527, 36.0640164]]]}, "properties": {"osm_id": 779199789, "building": "yes", "name": "Lewis Express Car Wash", "height": null, "height_m": null, "levels": null, "tract_id": "40143007643", "tract_name": "76.43", "tags": {"addr:city": "Tulsa", "addr:country": "US", "addr:housenumber": "6730", "addr:postcode": "74136", "addr:state": "OK", "addr:street": "South Lewis Avenue East", "amenity": "car_wash", "building": "yes", "name": "Lewis Express Car Wash", "opening_hours": "07:30-17:30 \"Weather permitting, usually closed during stormy or icy weather\"", "payment:cash": "yes", "payment:mastercard": "yes", "phone": "+1 918 494 6677", "self_service": "no"}}}, {"type": "Feature", "geometry": {"type": "Polygon", "coordinates": [[[-95.958471, 36.0679841], [-95.9583882, 36.0679839], [-95.9583882, 36.067989], [-95.9583544, 36.0679889], [-95.9583546, 36.0679285], [-95.9583548, 36.0678925], [-95.9583549, 36.0678714], [-95.958355, 36.067832], [-95.9583879, 36.0678321], [-95.9583879, 36.0678364], [-95.9584716, 36.0678367], [-95.9584714, 36.0678725], [-95.9584713, 36.0678942], [-95.9584712, 36.0679304], [-95.958471, 36.0679841]]]}, "properties": {"osm_id": 779205749, "building": "yes", "name": "Jiffy Lube", "height": null, "height_m": null, "levels": null, "tract_id": "40143007643", "tract_name": "76.43", "tags": {"addr:housenumber": "6610", "addr:street": "South Lewis Avenue East", "brand": "Jiffy Lube", "brand:wikidata": "Q6192247", "building": "yes", "name": "Jiffy Lube", "opening_hours": "Mo-Fr 08:00-18:00; Sa 08:00-17:00", "shop": "car_repair"}}}, {"type": "Feature", "geometry": {"type": "Polygon", "coordinates": [[[-95.9585139, 36.0677559], [-95.9583711, 36.0677556], [-95.9583711, 36.067737], [-95.9583586, 36.0677369], [-95.9583591, 36.0676003], [-95.9583717, 36.0676004], [-95.9583717, 36.0675827], [-95.9585146, 36.067583], [-95.9585139, 36.0677559]]]}, "properties": {"osm_id": 779205750, "building": "retail", "name": "QuikPrint", "height": null, "height_m": 3.0, "levels": 1, "tract_id": "40143007643", "tract_name": "76.43", "tags": {"building": "retail", "building:colour": "white", "building:levels": "1", "name": "QuikPrint", "roof:levels": "0", "roof:shape": "flat", "shop": "copyshop"}}}, {"type": "Feature", "geometry": {"type": "Polygon", "coordinates": [[[-95.958669, 36.0740721], [-95.9583373, 36.0740743], [-95.9583349, 36.0738417], [-95.9583337, 36.0737227], [-95.9584362, 36.073722], [-95.958509, 36.073842], [-95.9585175, 36.0738559], [-95.9585182, 36.0739213], [-95.9585598, 36.0739211], [-95.9585602, 36.0739644], [-95.9586679, 36.0739637], [-95.958669, 36.0740721]]]}, "properties": {"osm_id": 779208374, "building": "retail", "name": "Chase", "height": null, "height_m": 3.0, "levels": 1, "tract_id": "40143007643", "tract_name": "76.43", "tags": {"addr:housenumber": "6140", "addr:street": "South Lewis Avenue East", "amenity": "bank", "brand": "Chase", "brand:wikidata": "Q524629", "building": "retail", "building:levels": "1", "name": "Chase", "opening_hours": "Mo-Th 09:00-17:00; Fr 09:00-18:00; Sa 09:00-13:00", "roof:levels": "0", "roof:shape": "flat", "wheelchair": "yes"}}}, {"type": "Feature", "geometry": {"type": "Polygon", "coordinates": [[[-95.9587111, 36.0748393], [-95.9587097, 36.0744913], [-95.9586641, 36.0744599], [-95.9583852, 36.0744621], [-95.9583865, 36.074784], [-95.9584589, 36.0748371], [-95.9587111, 36.0748393]]]}, "properties": {"osm_id": 779208381, "building": "retail", "name": "CVS Pharmacy", "height": null, "height_m": 3.0, "levels": 1, "tract_id": "40143007643", "tract_name": "76.43", "tags": {"addr:housenumber": "6116", "addr:street": "South Lewis Avenue East", "amenity": "pharmacy", "brand": "CVS Pharmacy", "brand:website": "https://www.cvs.com/", "brand:wikidata": "Q2078880", "building": "retail", "building:colour": "beige", "building:levels": "1", "dispensing": "yes", "healthcare": "pharmacy", "name": "CVS Pharmacy", "opening_hours": "Mo-Sa 09:00-21:00; Su 10:00-18:00", "roof:levels": "0", "roof:shape": "flat", "short_name": "CVS", "website": "https://www.cvs.com/store-locator/tulsa-ok-pharmacies/6116-south-lewis-ave-tulsa-ok-74136/storeid=10561", "wheelchair": "yes"}}}, {"type": "Feature", "geometry": {"type": "Polygon", "coordinates": [[[-95.9597303, 36.0747883], [-95.9597301, 36.0749412], [-95.9596901, 36.0749411], [-95.9596036, 36.0749409], [-95.9595372, 36.0749408], [-95.9594661, 36.0749406], [-95.9593602, 36.0749403], [-95.9592596, 36.0749401], [-95.9591764, 36.0749399], [-95.9590249, 36.0749396], [-95.9589677, 36.0749406], [-95.9589679, 36.0747878], [-95.9597303, 36.0747883]]]}, "properties": {"osm_id": 779222789, "building": "yes", "name": "", "height": null, "height_m": null, "levels": null, "tract_id": "40143007643", "tract_name": "76.43", "tags": {"building": "yes"}}}, {"type": "Feature", "geometry": {"type": "Polygon", "coordinates": [[[-95.9596836, 36.0739408], [-95.9592937, 36.0739445], [-95.9592932, 36.0739117], [-95.9592305, 36.0739123], [-95.95923, 36.0738823], [-95.9592196, 36.0738824], [-95.9592185, 36.073808], [-95.9592853, 36.0738074], [-95.9592847, 36.0737641], [-95.9593283, 36.0737637], [-95.9593277, 36.0737217], [-95.9594679, 36.0737204], [-95.9594691, 36.0737991], [-95.9596815, 36.0737971], [-95.9596836, 36.0739408]]]}, "properties": {"osm_id": 826001508, "building": "yes", "name": "Family Dentistry", "height": null, "height_m": null, "levels": null, "tract_id": "40143007643", "tract_name": "76.43", "tags": {"addr:city": "Tulsa", "addr:housenumber": "6144", "addr:state": "OK", "addr:street": "South Lewis Avenue East", "amenity": "dentist", "building": "yes", "healthcare": "dentist", "name": "Family Dentistry"}}}, {"type": "Feature", "geometry": {"type": "Polygon", "coordinates": [[[-95.9637616, 36.0623624], [-95.9634981, 36.0622677], [-95.9635958, 36.0620735], [-95.9633492, 36.0619912], [-95.9633421, 36.061942], [-95.9633089, 36.061944], [-95.9633026, 36.0619536], [-95.9632041, 36.0619187], [-95.9632323, 36.0618629], [-95.9633412, 36.0618923], [-95.9633858, 36.0618046], [-95.9641939, 36.0620879], [-95.9641478, 36.0621782], [-95.9641195, 36.0621687], [-95.9641075, 36.062194], [-95.9638892, 36.0621192], [-95.9637616, 36.0623624]]]}, "properties": {"osm_id": 826311656, "building": "yes", "name": "Sherwin Miller Museum of Jewish Art", "height": null, "height_m": null, "levels": null, "tract_id": "40143007643", "tract_name": "76.43", "tags": {"addr:city": "Tulsa", "addr:housenumber": "2021", "addr:postcode": "74136", "addr:state": "OK", "addr:street": "East 71st Street South", "building": "yes", "museum": "art", "name": "Sherwin Miller Museum of Jewish Art", "tourism": "museum", "website": "https://jewishmuseumtulsa.org/", "wikidata": "Q7495470", "wikipedia": "en:Sherwin Miller Museum of Jewish Art"}}}, {"type": "Feature", "geometry": {"type": "Polygon", "coordinates": [[[-95.9637958, 36.0630719], [-95.9636354, 36.0630171], [-95.9636254, 36.0630146], [-95.9636062, 36.0630564], [-95.9633618, 36.062971], [-95.9633394, 36.0630121], [-95.9633282, 36.0630088], [-95.9632662, 36.0631264], [-95.9635863, 36.0632366], [-95.9635607, 36.0632861], [-95.9636985, 36.0633333], [-95.9637375, 36.0632594], [-95.9637586, 36.0632191], [-95.9637263, 36.0632076], [-95.9637958, 36.0630719]]]}, "properties": {"osm_id": 826311661, "building": "yes", "name": "", "height": null, "height_m": null, "levels": null, "tract_id": "40143007643", "tract_name": "76.43", "tags": {"building": "yes"}}}, {"type": "Feature", "geometry": {"type": "Polygon", "coordinates": [[[-95.9637958, 36.0630719], [-95.9639941, 36.0631396], [-95.9641665, 36.06281], [-95.9639331, 36.0627293], [-95.9639579, 36.0626837], [-95.9639827, 36.062693], [-95.9640648, 36.0625375], [-95.963984, 36.0625093], [-95.9640712, 36.062348], [-95.9641502, 36.062376], [-95.9642244, 36.0622354], [-95.9641075, 36.062194], [-95.9638892, 36.0621192], [-95.9637616, 36.0623624], [-95.9634981, 36.0622677], [-95.9634297, 36.0622444], [-95.9633942, 36.062311], [-95.9634886, 36.0623431], [-95.9634697, 36.0623805], [-95.9637089, 36.0624633], [-95.9636515, 36.0625751], [-95.9637724, 36.0626177], [-95.9637458, 36.0626666], [-95.9636253, 36.0626249], [-95.9634759, 36.0629069], [-95.9636596, 36.0629698], [-95.9636354, 36.0630171], [-95.9637958, 36.0630719]]]}, "properties": {"osm_id": 826311662, "building": "yes", "name": "Charles Schusterman Jewish Community Center", "height": null, "height_m": null, "levels": null, "tract_id": "40143007643", "tract_name": "76.43", "tags": {"addr:city": "Tulsa", "addr:housenumber": "2021", "addr:postcode": "74136", "addr:state": "OK", "addr:street": "East 71st Street South", "amenity": "community_centre", "building": "yes", "name": "Charles Schusterman Jewish Community Center", "website": "https://csjcc.org/"}}}, {"type": "Feature", "geometry": {"type": "Polygon", "coordinates": [[[-95.9643261, 36.0640132], [-95.9641782, 36.0640296], [-95.9641726, 36.0639902], [-95.9640837, 36.063998], [-95.9640146, 36.063542], [-95.9639331, 36.0635508], [-95.9638648, 36.0635961], [-95.9638771, 36.063664], [-95.963824, 36.0636693], [-95.963814, 36.0635979], [-95.9638018, 36.063599], [-95.9637994, 36.0635799], [-95.9638117, 36.0635787], [-95.9637962, 36.0634799], [-95.9637846, 36.0634806], [-95.9637834, 36.0634693], [-95.9637949, 36.0634685], [-95.9637916, 36.0634426], [-95.963812, 36.0634412], [-95.963885, 36.0633879], [-95.9639066, 36.0633857], [-95.9639008, 36.0633475], [-95.963916, 36.0633202], [-95.9637375, 36.0632594], [-95.9637586, 36.0632191], [-95.9637263, 36.0632076], [-95.9637958, 36.0630719], [-95.9639941, 36.0631396], [-95.964037, 36.0631539], [-95.964078, 36.0630743], [-95.9641049, 36.0630843], [-95.9643163, 36.0626819], [-95.9643001, 36.0626758], [-95.9643445, 36.0625873], [-95.9644014, 36.0626071], [-95.9644132, 36.0625847], [-95.9644933, 36.0626114], [-95.9644353, 36.0627245], [-95.964453, 36.0627314], [-95.9644447, 36.0627467], [-95.9645064, 36.0627683], [-95.9643054, 36.0631529], [-95.9644252, 36.0631962], [-95.964381, 36.063279], [-95.9645133, 36.0632935], [-95.9645079, 36.0633258], [-95.9645416, 36.0633294], [-95.9645468, 36.0632972], [-95.9646937, 36.0633139], [-95.9646689, 36.0634633], [-95.9643184, 36.0634234], [-95.9643312, 36.0635094], [-95.9642296, 36.063521], [-95.9642898, 36.0639204], [-95.9643127, 36.0639177], [-95.9643261, 36.0640132]]]}, "properties": {"osm_id": 826311663, "building": "yes", "name": "Kaiser Health Care Center", "height": null, "height_m": null, "levels": null, "tract_id": "40143007643", "tract_name": "76.43", "tags": {"addr:city": "Tulsa", "addr:housenumber": "2025", "addr:postcode": "74136", "addr:state": "OK", "addr:street": "East 71st Street South", "amenity": "social_facility", "building": "yes", "name": "Kaiser Health Care Center", "social_facility": "nursing_home", "social_facility:for": "senior"}}}, {"type": "Feature", "geometry": {"type": "Polygon", "coordinates": [[[-95.96296, 36.0633608], [-95.9627197, 36.0632755], [-95.9627967, 36.0631292], [-95.9629726, 36.0631925], [-95.9630371, 36.0632157], [-95.963011, 36.0632648], [-95.96296, 36.0633608]]]}, "properties": {"osm_id": 826311664, "building": "yes", "name": "", "height": null, "height_m": null, "levels": null, "tract_id": "40143007643", "tract_name": "76.43", "tags": {"building": "yes", "leisure": "sports_centre", "sport": "swimming"}}}, {"type": "Feature", "geometry": {"type": "Polygon", "coordinates": [[[-95.9629726, 36.0631925], [-95.9629932, 36.0631522], [-95.9631826, 36.0632126], [-95.9631934, 36.0631939], [-95.9632088, 36.0631995], [-95.9632135, 36.063189], [-95.9632706, 36.0632079], [-95.9632657, 36.0632176], [-95.9633051, 36.0632312], [-95.96331, 36.063223], [-95.9635497, 36.0633056], [-95.9635607, 36.0632861], [-95.9636985, 36.0633333], [-95.9636794, 36.0633728], [-95.9637679, 36.0634703], [-95.9637834, 36.0634693], [-95.9637846, 36.0634806], [-95.9637962, 36.0634799], [-95.9638117, 36.0635787], [-95.9637994, 36.0635799], [-95.9638018, 36.063599], [-95.963814, 36.0635979], [-95.963824, 36.0636693], [-95.9638428, 36.0638001], [-95.9638315, 36.0638019], [-95.9638369, 36.0638367], [-95.9638478, 36.0638353], [-95.9638547, 36.0638833], [-95.9638434, 36.0638846], [-95.9638446, 36.0638973], [-95.9637942, 36.0639023], [-95.9637985, 36.0639278], [-95.9636538, 36.063942], [-95.9636497, 36.0639169], [-95.9636204, 36.0639198], [-95.9636184, 36.0639072], [-95.9636062, 36.0639083], [-95.9635775, 36.0637063], [-95.9635892, 36.0637054], [-95.9635836, 36.0636708], [-95.9635723, 36.0636718], [-95.9635646, 36.0636228], [-95.9635757, 36.0636221], [-95.9635734, 36.0636079], [-95.9635845, 36.063607], [-95.9635789, 36.0635701], [-95.9635288, 36.0636018], [-95.9635113, 36.0635829], [-95.9634961, 36.0635921], [-95.9634438, 36.0635339], [-95.963512, 36.0634948], [-95.9634644, 36.0634787], [-95.9634611, 36.0634855], [-95.9634473, 36.0634805], [-95.9634419, 36.0634897], [-95.9633871, 36.0634708], [-95.963391, 36.063462], [-95.9633517, 36.0634482], [-95.9633473, 36.0634571], [-95.9631161, 36.0633773], [-95.9631208, 36.0633679], [-95.9631064, 36.0633634], [-95.9631167, 36.0633409], [-95.9630894, 36.0633321], [-95.9631126, 36.0632882], [-95.9630783, 36.0632761], [-95.9630739, 36.0632854], [-95.963011, 36.0632648], [-95.9630371, 36.0632157], [-95.9629726, 36.0631925]]]}, "properties": {"osm_id": 826311665, "building": "apartments", "name": "Zarrow Manor", "height": null, "height_m": null, "levels": null, "tract_id": "40143007643", "tract_name": "76.43", "tags": {"building": "apartments", "name": "Zarrow Manor"}}}, {"type": "Feature", "geometry": {"type": "Polygon", "coordinates": [[[-95.9614495, 36.0640445], [-95.9614445, 36.0635411], [-95.961687, 36.0635396], [-95.9616864, 36.0634759], [-95.9619288, 36.0634744], [-95.9619294, 36.0635367], [-95.9619721, 36.0635364], [-95.9619771, 36.064041], [-95.9614495, 36.0640445]]]}, "properties": {"osm_id": 826311669, "building": "yes", "name": "Robert W. Jenkins Post Office", "height": null, "height_m": null, "levels": null, "tract_id": "40143007643", "tract_name": "76.43", "tags": {"addr:city": "Tulsa", "addr:country": "US", "addr:housenumber": "6910", "addr:postcode": "74136", "addr:state": "OK", "addr:street": "South Yorktown Avenue East", "amenity": "post_office", "brand": "United States Postal Service", "brand:wikidata": "Q668687", "building": "yes", "name": "Robert W. Jenkins Post Office", "name:etymology": "Robert Wayne Jenkins", "name:etymology:wikidata": "Q110362588", "operator": "United States Postal Service", "operator:short": "USPS", "operator:type": "public", "operator:website": "https://www.usps.com", "operator:wikidata": "Q668687", "operator:wikipedia": "en:United States Postal Service", "short_name": "USPS", "wikidata": "Q110363406"}}}, {"type": "Feature", "geometry": {"type": "Polygon", "coordinates": [[[-95.960063, 36.0615271], [-95.9599209, 36.0615184], [-95.959935, 36.0613807], [-95.9599088, 36.0613791], [-95.9599128, 36.0613449], [-95.9599014, 36.0612902], [-95.9598639, 36.0612891], [-95.9598639, 36.0613059], [-95.9597935, 36.0613043], [-95.9597955, 36.0611314], [-95.9598424, 36.0611319], [-95.9598438, 36.0610994], [-95.9599531, 36.0611016], [-95.9599524, 36.0611856], [-95.9599417, 36.0611856], [-95.9599403, 36.0612924], [-95.9599524, 36.0613439], [-95.9600751, 36.0613509], [-95.960063, 36.0615271]]]}, "properties": {"osm_id": 826563732, "building": "yes", "name": "Hammond Animal Hospital", "height": null, "height_m": null, "levels": null, "tract_id": "40143007643", "tract_name": "76.43", "tags": {"addr:city": "Tulsa", "addr:country": "US", "addr:housenumber": "2301", "addr:postcode": "74136", "addr:state": "OK", "addr:street": "East 71st Street South", "amenity": "veterinary", "building": "yes", "check_date": "2025-01-22", "name": "Hammond Animal Hospital"}}}, {"type": "Feature", "geometry": {"type": "Polygon", "coordinates": [[[-95.9588564, 36.0679679], [-95.9588886, 36.0679677], [-95.9588884, 36.0679469], [-95.9592338, 36.0679446], [-95.959234, 36.0679653], [-95.9592644, 36.0679651], [-95.9592638, 36.067898], [-95.9592482, 36.067898], [-95.959248, 36.0678698], [-95.9592636, 36.0678698], [-95.959263, 36.0678009], [-95.9592608, 36.0678009], [-95.9592339, 36.0678012], [-95.9592342, 36.0678197], [-95.9588896, 36.0678229], [-95.9588893, 36.0678044], [-95.9588564, 36.0678047], [-95.9588564, 36.0678746], [-95.9588746, 36.0678746], [-95.9588746, 36.067899], [-95.9588564, 36.067899], [-95.9588564, 36.0679679]]]}, "properties": {"osm_id": 849250980, "building": "yes", "name": "", "height": null, "height_m": null, "levels": null, "tract_id": "40143007643", "tract_name": "76.43", "tags": {"building": "yes", "source": "microsoft/BuildingFootprints"}}}, {"type": "Feature", "geometry": {"type": "Polygon", "coordinates": [[[-95.9588544, 36.067725], [-95.9588866, 36.0677248], [-95.9588864, 36.0677041], [-95.9592318, 36.0677018], [-95.959232, 36.0677225], [-95.9592624, 36.0677223], [-95.9592618, 36.0676551], [-95.9592462, 36.0676552], [-95.959246, 36.067627], [-95.9592616, 36.0676269], [-95.959261, 36.0675581], [-95.9592588, 36.0675581], [-95.9592319, 36.0675584], [-95.9592322, 36.0675768], [-95.9588876, 36.0675801], [-95.9588873, 36.0675616], [-95.9588544, 36.0675619], [-95.9588544, 36.0676318], [-95.9588725, 36.0676318], [-95.9588725, 36.0676562], [-95.9588544, 36.0676562], [-95.9588544, 36.067725]]]}, "properties": {"osm_id": 849250981, "building": "yes", "name": "", "height": null, "height_m": null, "levels": null, "tract_id": "40143007643", "tract_name": "76.43", "tags": {"building": "yes", "source": "microsoft/BuildingFootprints"}}}, {"type": "Feature", "geometry": {"type": "Polygon", "coordinates": [[[-95.9593499, 36.0679526], [-95.9594113, 36.0679523], [-95.9594114, 36.0679658], [-95.9594634, 36.0679656], [-95.9594633, 36.067952], [-95.9595269, 36.0679517], [-95.9595239, 36.0675528], [-95.9593469, 36.0675537], [-95.9593499, 36.0679526]]]}, "properties": {"osm_id": 849250982, "building": "yes", "name": "", "height": null, "height_m": null, "levels": null, "tract_id": "40143007643", "tract_name": "76.43", "tags": {"building": "yes", "source": "microsoft/BuildingFootprints"}}}, {"type": "Feature", "geometry": {"type": "Polygon", "coordinates": [[[-95.9596209, 36.0679592], [-95.9596531, 36.067959], [-95.9596529, 36.0679382], [-95.9599982, 36.0679359], [-95.9599984, 36.0679567], [-95.9600288, 36.0679565], [-95.9600283, 36.0678893], [-95.9600126, 36.0678894], [-95.9600124, 36.0678612], [-95.960028, 36.0678611], [-95.9600275, 36.0677922], [-95.9600252, 36.0677923], [-95.9599984, 36.0677925], [-95.9599986, 36.067811], [-95.959654, 36.0678142], [-95.9596537, 36.0677957], [-95.9596209, 36.067796], [-95.9596209, 36.067866], [-95.959639, 36.067866], [-95.959639, 36.0678904], [-95.9596209, 36.0678904], [-95.9596209, 36.0679592]]]}, "properties": {"osm_id": 849250983, "building": "yes", "name": "", "height": null, "height_m": null, "levels": null, "tract_id": "40143007643", "tract_name": "76.43", "tags": {"building": "yes", "source": "microsoft/BuildingFootprints"}}}, {"type": "Feature", "geometry": {"type": "Polygon", "coordinates": [[[-95.9596209, 36.0677191], [-95.9596531, 36.0677189], [-95.9596529, 36.0676981], [-95.9599982, 36.0676958], [-95.9599984, 36.0677166], [-95.9600288, 36.0677164], [-95.9600283, 36.0676492], [-95.9600126, 36.0676493], [-95.9600124, 36.067621], [-95.960028, 36.067621], [-95.9600275, 36.0675521], [-95.9600252, 36.0675521], [-95.9599984, 36.0675524], [-95.9599986, 36.0675709], [-95.959654, 36.0675741], [-95.9596537, 36.0675556], [-95.9596209, 36.0675559], [-95.9596209, 36.0676259], [-95.959639, 36.0676259], [-95.959639, 36.0676502], [-95.9596209, 36.0676502], [-95.9596209, 36.0677191]]]}, "properties": {"osm_id": 849250984, "building": "yes", "name": "", "height": null, "height_m": null, "levels": null, "tract_id": "40143007643", "tract_name": "76.43", "tags": {"building": "yes", "source": "microsoft/BuildingFootprints"}}}, {"type": "Feature", "geometry": {"type": "Polygon", "coordinates": [[[-95.9597883, 36.0671306], [-95.9597883, 36.0670766], [-95.9598103, 36.0670766], [-95.9598103, 36.0670392], [-95.9597883, 36.0670392], [-95.9597883, 36.0669786], [-95.9593083, 36.0669786], [-95.9593083, 36.0671306], [-95.9597883, 36.0671306]]]}, "properties": {"osm_id": 849250985, "building": "yes", "name": "", "height": null, "height_m": null, "levels": null, "tract_id": "40143007643", "tract_name": "76.43", "tags": {"building": "yes", "source": "microsoft/BuildingFootprints"}}}, {"type": "Feature", "geometry": {"type": "Polygon", "coordinates": [[[-95.9593332, 36.0669109], [-95.9593654, 36.0669107], [-95.9593652, 36.06689], [-95.9597105, 36.0668877], [-95.9597107, 36.0669084], [-95.9597411, 36.0669082], [-95.9597406, 36.066841], [-95.959725, 36.0668411], [-95.9597247, 36.0668129], [-95.9597404, 36.0668128], [-95.9597398, 36.066744], [-95.9597376, 36.066744], [-95.9597107, 36.0667442], [-95.959711, 36.0667627], [-95.9593663, 36.0667659], [-95.9593661, 36.0667475], [-95.9593332, 36.0667478], [-95.9593332, 36.0668177], [-95.9593513, 36.0668177], [-95.9593513, 36.0668421], [-95.9593332, 36.0668421], [-95.9593332, 36.0669109]]]}, "properties": {"osm_id": 849250986, "building": "yes", "name": "", "height": null, "height_m": null, "levels": null, "tract_id": "40143007643", "tract_name": "76.43", "tags": {"building": "yes", "source": "microsoft/BuildingFootprints"}}}, {"type": "Feature", "geometry": {"type": "Polygon", "coordinates": [[[-95.9592, 36.0668957], [-95.9591385, 36.0668957], [-95.9591385, 36.0668822], [-95.9590866, 36.0668822], [-95.9590866, 36.0668957], [-95.959023, 36.0668957], [-95.959023, 36.0672947], [-95.9592, 36.0672947], [-95.9592, 36.0668957]]]}, "properties": {"osm_id": 849250993, "building": "yes", "name": "", "height": null, "height_m": null, "levels": null, "tract_id": "40143007643", "tract_name": "76.43", "tags": {"building": "yes", "source": "microsoft/BuildingFootprints"}}}, {"type": "Feature", "geometry": {"type": "Polygon", "coordinates": [[[-95.959306, 36.066533], [-95.959305, 36.066678], [-95.959785, 36.06668], [-95.959786, 36.066535], [-95.959306, 36.066533]]]}, "properties": {"osm_id": 849250994, "building": "yes", "name": "", "height": null, "height_m": null, "levels": null, "tract_id": "40143007643", "tract_name": "76.43", "tags": {"building": "yes", "source": "microsoft/BuildingFootprints"}}}, {"type": "Feature", "geometry": {"type": "Polygon", "coordinates": [[[-95.9583626, 36.0672005], [-95.9586646, 36.0671976], [-95.9586621, 36.0670292], [-95.9586258, 36.0670295], [-95.958622, 36.066776], [-95.9586815, 36.0667754], [-95.9586796, 36.0666455], [-95.9583558, 36.0666486], [-95.9583583, 36.066815], [-95.9584271, 36.0668144], [-95.9584304, 36.0670347], [-95.9583602, 36.0670354], [-95.9583626, 36.0672005]]]}, "properties": {"osm_id": 849250995, "building": "retail", "name": "", "height": null, "height_m": 3.0, "levels": 1, "tract_id": "40143007643", "tract_name": "76.43", "tags": {"building": "retail", "building:levels": "1", "roof:levels": "0", "roof:shape": "flat", "source": "microsoft/BuildingFootprints"}}}, {"type": "Feature", "geometry": {"type": "Polygon", "coordinates": [[[-95.9593306, 36.0664665], [-95.9593628, 36.0664662], [-95.9593626, 36.0664455], [-95.959708, 36.0664432], [-95.9597082, 36.0664639], [-95.9597386, 36.0664637], [-95.959738, 36.0663965], [-95.9597224, 36.0663966], [-95.9597222, 36.0663684], [-95.9597378, 36.0663683], [-95.9597372, 36.0662995], [-95.959735, 36.0662995], [-95.9597082, 36.0662998], [-95.9597084, 36.0663182], [-95.9593638, 36.0663215], [-95.9593635, 36.066303], [-95.9593306, 36.0663033], [-95.9593306, 36.0663732], [-95.9593488, 36.0663732], [-95.9593488, 36.0663976], [-95.9593306, 36.0663976], [-95.9593306, 36.0664665]]]}, "properties": {"osm_id": 849250996, "building": "yes", "name": "", "height": null, "height_m": null, "levels": null, "tract_id": "40143007643", "tract_name": "76.43", "tags": {"building": "yes", "source": "microsoft/BuildingFootprints"}}}, {"type": "Feature", "geometry": {"type": "Polygon", "coordinates": [[[-95.9591952, 36.066326], [-95.9591912, 36.0659282], [-95.9590108, 36.0659293], [-95.9590148, 36.0663272], [-95.9590815, 36.0663268], [-95.9590817, 36.0663398], [-95.9591329, 36.0663395], [-95.9591328, 36.0663264], [-95.9591952, 36.066326]]]}, "properties": {"osm_id": 849250997, "building": "yes", "name": "", "height": null, "height_m": null, "levels": null, "tract_id": "40143007643", "tract_name": "76.43", "tags": {"building": "yes", "source": "microsoft/BuildingFootprints"}}}, {"type": "Feature", "geometry": {"type": "Polygon", "coordinates": [[[-95.95978, 36.066231], [-95.95978, 36.066177], [-95.959802, 36.066177], [-95.959802, 36.0661396], [-95.95978, 36.0661396], [-95.95978, 36.066079], [-95.9593, 36.066079], [-95.9593, 36.066231], [-95.95978, 36.066231]]]}, "properties": {"osm_id": 849250998, "building": "yes", "name": "", "height": null, "height_m": null, "levels": null, "tract_id": "40143007643", "tract_name": "76.43", "tags": {"building": "yes", "source": "microsoft/BuildingFootprints"}}}, {"type": "Feature", "geometry": {"type": "Polygon", "coordinates": [[[-95.9584531, 36.0662326], [-95.958695, 36.0662315], [-95.9586936, 36.0660358], [-95.9586747, 36.0660358], [-95.9586743, 36.0659808], [-95.9584514, 36.0659818], [-95.9584523, 36.0661152], [-95.9584531, 36.0662326]]]}, "properties": {"osm_id": 849250999, "building": "yes", "name": "", "height": null, "height_m": null, "levels": null, "tract_id": "40143007643", "tract_name": "76.43", "tags": {"building": "yes"}}}, {"type": "Feature", "geometry": {"type": "Polygon", "coordinates": [[[-95.958707, 36.0662748], [-95.9583916, 36.0662756], [-95.9583922, 36.0664417], [-95.9585393, 36.0664413], [-95.9585395, 36.0664932], [-95.9587078, 36.0664928], [-95.958707, 36.0662748]]]}, "properties": {"osm_id": 849251000, "building": "office", "name": "", "height": null, "height_m": null, "levels": null, "tract_id": "40143007643", "tract_name": "76.43", "tags": {"building": "office", "source": "microsoft/BuildingFootprints"}}}, {"type": "Feature", "geometry": {"type": "Polygon", "coordinates": [[[-95.9590173, 36.066808], [-95.9592026, 36.0668079], [-95.9592023, 36.0664122], [-95.9591325, 36.0664123], [-95.9591325, 36.0663987], [-95.9590829, 36.0663987], [-95.9590829, 36.0664122], [-95.959017, 36.0664123], [-95.9590173, 36.066808]]]}, "properties": {"osm_id": 849251001, "building": "apartments", "name": "", "height": null, "height_m": null, "levels": null, "tract_id": "40143007643", "tract_name": "76.43", "tags": {"building": "apartments", "source": "microsoft/BuildingFootprints"}}}, {"type": "Feature", "geometry": {"type": "Polygon", "coordinates": [[[-95.9597623, 36.0683182], [-95.9596302, 36.0683187], [-95.95963, 36.0682797], [-95.9596296, 36.0682309], [-95.9597617, 36.0682304], [-95.959762, 36.0682786], [-95.9597623, 36.0683182]]]}, "properties": {"osm_id": 967071098, "building": "service", "name": "", "height": null, "height_m": null, "levels": null, "tract_id": "40143007643", "tract_name": "76.43", "tags": {"building": "service"}}}, {"type": "Feature", "geometry": {"type": "Polygon", "coordinates": [[[-95.9594283, 36.068602], [-95.9592842, 36.0686008], [-95.9592842, 36.0686325], [-95.9594277, 36.0686331], [-95.9594283, 36.068602]]]}, "properties": {"osm_id": 967071100, "building": "office", "name": "Keyport Self Storage", "height": null, "height_m": null, "levels": null, "tract_id": "40143007643", "tract_name": "76.43", "tags": {"addr:city": "Tulsa", "addr:country": "US", "addr:housenumber": "6530", "addr:state": "OK", "addr:street": "South Lewis Avenue East", "building": "office", "name": "Keyport Self Storage", "shop": "storage_rental"}}}, {"type": "Feature", "geometry": {"type": "Polygon", "coordinates": [[[-95.9596423, 36.0690445], [-95.9596419, 36.0687799], [-95.959535, 36.06878], [-95.9595353, 36.0690446], [-95.9596423, 36.0690445]]]}, "properties": {"osm_id": 967071105, "building": "yes", "name": "", "height": null, "height_m": null, "levels": null, "tract_id": "40143007643", "tract_name": "76.43", "tags": {"building": "yes"}}}, {"type": "Feature", "geometry": {"type": "Polygon", "coordinates": [[[-95.9594706, 36.0690434], [-95.9594703, 36.0687788], [-95.9593284, 36.0687789], [-95.9593288, 36.0690435], [-95.9594706, 36.0690434]]]}, "properties": {"osm_id": 967071106, "building": "yes", "name": "", "height": null, "height_m": null, "levels": null, "tract_id": "40143007643", "tract_name": "76.43", "tags": {"building": "yes"}}}, {"type": "Feature", "geometry": {"type": "Polygon", "coordinates": [[[-95.9592631, 36.0690447], [-95.9592627, 36.0687801], [-95.9591209, 36.0687802], [-95.9591213, 36.0690448], [-95.9592631, 36.0690447]]]}, "properties": {"osm_id": 967071107, "building": "yes", "name": "", "height": null, "height_m": null, "levels": null, "tract_id": "40143007643", "tract_name": "76.43", "tags": {"building": "yes"}}}, {"type": "Feature", "geometry": {"type": "Polygon", "coordinates": [[[-95.9590222, 36.0691554], [-95.9590215, 36.0687091], [-95.9589455, 36.0687091], [-95.9589463, 36.0691555], [-95.9590222, 36.0691554]]]}, "properties": {"osm_id": 967071108, "building": "yes", "name": "", "height": null, "height_m": null, "levels": null, "tract_id": "40143007643", "tract_name": "76.43", "tags": {"building": "yes"}}}, {"type": "Feature", "geometry": {"type": "Polygon", "coordinates": [[[-95.9602777, 36.0686577], [-95.9602776, 36.0686051], [-95.9594293, 36.0686069], [-95.9594291, 36.0686589], [-95.9602777, 36.0686577]]]}, "properties": {"osm_id": 967071109, "building": "yes", "name": "", "height": null, "height_m": null, "levels": null, "tract_id": "40143007643", "tract_name": "76.43", "tags": {"building": "yes"}}}, {"type": "Feature", "geometry": {"type": "Polygon", "coordinates": [[[-95.9598508, 36.069043], [-95.9597085, 36.069043], [-95.9597086, 36.068711], [-95.959851, 36.068711], [-95.9598508, 36.069043]]]}, "properties": {"osm_id": 967071110, "building": "yes", "name": "", "height": null, "height_m": null, "levels": null, "tract_id": "40143007643", "tract_name": "76.43", "tags": {"building": "yes"}}}, {"type": "Feature", "geometry": {"type": "Polygon", "coordinates": [[[-95.9600518, 36.0690423], [-95.9599433, 36.0690426], [-95.9599419, 36.0687098], [-95.9600503, 36.0687095], [-95.9600518, 36.0690423]]]}, "properties": {"osm_id": 967071111, "building": "yes", "name": "", "height": null, "height_m": null, "levels": null, "tract_id": "40143007643", "tract_name": "76.43", "tags": {"building": "yes"}}}, {"type": "Feature", "geometry": {"type": "Polygon", "coordinates": [[[-95.9601898, 36.069043], [-95.9601165, 36.069043], [-95.9601167, 36.068711], [-95.9601899, 36.068711], [-95.9601898, 36.069043]]]}, "properties": {"osm_id": 967071112, "building": "yes", "name": "", "height": null, "height_m": null, "levels": null, "tract_id": "40143007643", "tract_name": "76.43", "tags": {"building": "yes"}}}, {"type": "Feature", "geometry": {"type": "Polygon", "coordinates": [[[-95.9603568, 36.069043], [-95.9602835, 36.069043], [-95.9602836, 36.068711], [-95.9603569, 36.068711], [-95.9603568, 36.069043]]]}, "properties": {"osm_id": 967071113, "building": "yes", "name": "", "height": null, "height_m": null, "levels": null, "tract_id": "40143007643", "tract_name": "76.43", "tags": {"building": "yes"}}}, {"type": "Feature", "geometry": {"type": "Polygon", "coordinates": [[[-95.9604975, 36.0690421], [-95.9604242, 36.069042], [-95.9604244, 36.06871], [-95.9604976, 36.0687101], [-95.9604975, 36.0690421]]]}, "properties": {"osm_id": 967071114, "building": "yes", "name": "", "height": null, "height_m": null, "levels": null, "tract_id": "40143007643", "tract_name": "76.43", "tags": {"building": "yes"}}}, {"type": "Feature", "geometry": {"type": "Polygon", "coordinates": [[[-95.9606855, 36.0690417], [-95.960598, 36.0690418], [-95.9605976, 36.0687102], [-95.9606851, 36.0687102], [-95.9606855, 36.0690417]]]}, "properties": {"osm_id": 967071116, "building": "yes", "name": "", "height": null, "height_m": null, "levels": null, "tract_id": "40143007643", "tract_name": "76.43", "tags": {"building": "yes"}}}, {"type": "Feature", "geometry": {"type": "Polygon", "coordinates": [[[-95.9604971, 36.0686391], [-95.9604245, 36.0686395], [-95.9604206, 36.0681703], [-95.9604932, 36.0681699], [-95.9604971, 36.0686391]]]}, "properties": {"osm_id": 967071117, "building": "yes", "name": "", "height": null, "height_m": null, "levels": null, "tract_id": "40143007643", "tract_name": "76.43", "tags": {"building": "yes"}}}, {"type": "Feature", "geometry": {"type": "Polygon", "coordinates": [[[-95.9607047, 36.0686387], [-95.9605639, 36.0686394], [-95.9605603, 36.0681699], [-95.9607011, 36.0681692], [-95.9607047, 36.0686387]]]}, "properties": {"osm_id": 967071118, "building": "yes", "name": "", "height": null, "height_m": null, "levels": null, "tract_id": "40143007643", "tract_name": "76.43", "tags": {"building": "yes"}}}, {"type": "Feature", "geometry": {"type": "Polygon", "coordinates": [[[-95.9608792, 36.0686378], [-95.9607719, 36.0686384], [-95.9607684, 36.0681691], [-95.9608757, 36.0681686], [-95.9608792, 36.0686378]]]}, "properties": {"osm_id": 967071119, "building": "yes", "name": "", "height": null, "height_m": null, "levels": null, "tract_id": "40143007643", "tract_name": "76.43", "tags": {"building": "yes"}}}, {"type": "Feature", "geometry": {"type": "Polygon", "coordinates": [[[-95.960284, 36.0686128], [-95.9602819, 36.0681695], [-95.9603545, 36.0681695], [-95.9603567, 36.0686129], [-95.960284, 36.0686128]]]}, "properties": {"osm_id": 967071120, "building": "yes", "name": "", "height": null, "height_m": null, "levels": null, "tract_id": "40143007643", "tract_name": "76.43", "tags": {"building": "yes"}}}, {"type": "Feature", "geometry": {"type": "Polygon", "coordinates": [[[-95.9600844, 36.0615653], [-95.9600897, 36.0620412], [-95.9596396, 36.0620445], [-95.9596391, 36.0620043], [-95.9596868, 36.0619848], [-95.9596821, 36.0615682], [-95.9600844, 36.0615653]]]}, "properties": {"osm_id": 1005483096, "building": "yes", "name": "Video Revolution", "height": null, "height_m": null, "levels": null, "tract_id": "40143007643", "tract_name": "76.43", "tags": {"building": "yes", "name": "Video Revolution", "shop": "electronics"}}}, {"type": "Feature", "geometry": {"type": "Polygon", "coordinates": [[[-95.9594554, 36.0620249], [-95.9582068, 36.0620325], [-95.9582053, 36.0618743], [-95.9594539, 36.0618667], [-95.9594554, 36.0620249]]]}, "properties": {"osm_id": 1005483097, "building": "retail", "name": "", "height": null, "height_m": null, "levels": null, "tract_id": "40143007643", "tract_name": "76.43", "tags": {"building": "retail"}}}, {"type": "Feature", "geometry": {"type": "Polygon", "coordinates": [[[-95.9589065, 36.0713755], [-95.9589058, 36.0715831], [-95.958759, 36.0715827], [-95.9587588, 36.0716564], [-95.9589056, 36.0716568], [-95.9589048, 36.0718634], [-95.9583681, 36.0718622], [-95.9583688, 36.0716584], [-95.958498, 36.0716587], [-95.9584982, 36.071585], [-95.958369, 36.0715847], [-95.9583698, 36.0713743], [-95.9589065, 36.0713755]]]}, "properties": {"osm_id": 1005483098, "building": "yes", "name": "Grace Business Center", "height": null, "height_m": null, "levels": null, "tract_id": "40143007643", "tract_name": "76.43", "tags": {"building": "yes", "name": "Grace Business Center"}}}, {"type": "Feature", "geometry": {"type": "Polygon", "coordinates": [[[-95.9589122, 36.0719614], [-95.9589115, 36.0721689], [-95.9587648, 36.0721686], [-95.9587645, 36.0722423], [-95.9589113, 36.0722427], [-95.9589105, 36.0724493], [-95.9583738, 36.0724481], [-95.9583745, 36.0722443], [-95.9585037, 36.0722446], [-95.9585039, 36.0721709], [-95.9583747, 36.0721706], [-95.9583755, 36.0719602], [-95.9589122, 36.0719614]]]}, "properties": {"osm_id": 1005483099, "building": "yes", "name": "Southern Hills Office Building", "height": null, "height_m": null, "levels": null, "tract_id": "40143007643", "tract_name": "76.43", "tags": {"addr:housenumber": "6216", "addr:street": "South Lewis Avenue East", "building": "yes", "name": "Southern Hills Office Building"}}}, {"type": "Feature", "geometry": {"type": "Polygon", "coordinates": [[[-95.9593065, 36.0724914], [-95.959307, 36.0725478], [-95.9594227, 36.0725471], [-95.9594246, 36.0727456], [-95.9591644, 36.0727471], [-95.959164, 36.0727075], [-95.958999, 36.0727085], [-95.9589994, 36.0727481], [-95.9587298, 36.0727498], [-95.9587295, 36.0727096], [-95.9585618, 36.0727107], [-95.9585622, 36.0727508], [-95.9583035, 36.0727524], [-95.9583017, 36.0725517], [-95.9584152, 36.072551], [-95.9584147, 36.0724969], [-95.9593065, 36.0724914]]]}, "properties": {"osm_id": 1005483100, "building": "yes", "name": "", "height": null, "height_m": null, "levels": null, "tract_id": "40143007643", "tract_name": "76.43", "tags": {"addr:housenumber": "6202", "addr:street": "South Lewis Avenue East", "building": "yes"}}}, {"type": "Feature", "geometry": {"type": "Polygon", "coordinates": [[[-95.9587713, 36.0731999], [-95.9587709, 36.0731495], [-95.9588747, 36.0731493], [-95.9589102, 36.073177], [-95.9589109, 36.0734827], [-95.9585595, 36.0734833], [-95.9585593, 36.073383], [-95.9587714, 36.0733827], [-95.9587706, 36.0732417], [-95.9586974, 36.0732418], [-95.9586976, 36.0733228], [-95.9584723, 36.0733228], [-95.9584723, 36.0731342], [-95.9586976, 36.0731342], [-95.9586983, 36.0732002], [-95.9587713, 36.0731999]]]}, "properties": {"osm_id": 1005483101, "building": "church", "name": "Southern Hills United Methodist church", "height": null, "height_m": null, "levels": null, "tract_id": "40143007643", "tract_name": "76.43", "tags": {"addr:city": "Tulsa", "addr:housenumber": "6160", "addr:postcode": "74136", "addr:street": "South Lewis Avenue East", "amenity": "place_of_worship", "building": "church", "denomination": "united_methodist", "name": "Southern Hills United Methodist church", "phone": "+1 918 743 2013", "religion": "christian", "service_times": "Su 11:00"}}}, {"type": "Feature", "geometry": {"type": "Polygon", "coordinates": [[[-95.9604615, 36.0610923], [-95.9602066, 36.0610932], [-95.9602077, 36.0612935], [-95.960319, 36.0612931], [-95.9603188, 36.0612606], [-95.9603362, 36.0612606], [-95.960336, 36.0612241], [-95.9603907, 36.0612239], [-95.9603906, 36.0611946], [-95.9604303, 36.0611945], [-95.9604301, 36.061157], [-95.9604619, 36.0611569], [-95.9604615, 36.0610923]]]}, "properties": {"osm_id": 1155652417, "building": "yes", "name": "Cajun Ed's", "height": null, "height_m": null, "levels": null, "tract_id": "40143007643", "tract_name": "76.43", "tags": {"addr:city": "Tulsa", "addr:country": "US", "addr:housenumber": "2101", "addr:postcode": "74136", "addr:state": "OK", "addr:street": "East 71st Street South", "amenity": "restaurant", "building": "yes", "cuisine": "regional", "email": "cajun@cajuned.com", "name": "Cajun Ed's", "phone": "+1 918 298 8400", "website": "https://cajuned.com/"}}}, {"type": "Feature", "geometry": {"type": "Polygon", "coordinates": [[[-95.9587131, 36.065719], [-95.95852, 36.0657205], [-95.9585174, 36.0655071], [-95.9584405, 36.0654464], [-95.9582389, 36.0654479], [-95.9582369, 36.0652816], [-95.9583435, 36.0652808], [-95.9583436, 36.0652862], [-95.9584736, 36.0652852], [-95.9584737, 36.0652919], [-95.9585891, 36.065291], [-95.958709, 36.0653873], [-95.9587131, 36.065719]]]}, "properties": {"osm_id": 1312714574, "building": "retail", "name": "", "height": null, "height_m": null, "levels": null, "tract_id": "40143007643", "tract_name": "76.43", "tags": {"building": "retail"}}}, {"type": "Feature", "geometry": {"type": "Polygon", "coordinates": [[[-95.9586775, 36.0685305], [-95.9586331, 36.0685306], [-95.9586335, 36.0686021], [-95.9584323, 36.0686028], [-95.958432, 36.0685313], [-95.9583575, 36.0685316], [-95.9583561, 36.0682741], [-95.958422, 36.0682739], [-95.9584218, 36.0682174], [-95.9586283, 36.0682167], [-95.9586286, 36.0682732], [-95.9586762, 36.068273], [-95.9586775, 36.0685305]]]}, "properties": {"osm_id": 1315549558, "building": "office", "name": "Weinkauf Petrolium, Incorporated", "height": null, "height_m": null, "levels": null, "tract_id": "40143007643", "tract_name": "76.43", "tags": {"building": "office", "name": "Weinkauf Petrolium, Incorporated"}}}, {"type": "Feature", "geometry": {"type": "Polygon", "coordinates": [[[-95.9585461, 36.0712427], [-95.9585045, 36.071243], [-95.9585049, 36.071277], [-95.9584546, 36.0712774], [-95.9584542, 36.0712433], [-95.9582987, 36.0712443], [-95.9582977, 36.0711526], [-95.9584046, 36.0711519], [-95.9584045, 36.0711388], [-95.9584702, 36.0711384], [-95.9584703, 36.0711515], [-95.9585452, 36.071151], [-95.9585461, 36.0712427]]]}, "properties": {"osm_id": 1316045095, "building": "retail", "name": "Blue Turtle Tavern", "height": null, "height_m": null, "levels": null, "tract_id": "40143007643", "tract_name": "76.43", "tags": {"addr:city": "Tulsa", "addr:country": "US", "addr:housenumber": "6350", "addr:state": "OK", "addr:street": "South Lewis Avenue East", "amenity": "bar", "building": "retail", "name": "Blue Turtle Tavern"}}}, {"type": "Feature", "geometry": {"type": "Polygon", "coordinates": [[[-95.9588525, 36.0713077], [-95.9588525, 36.0712989], [-95.9588525, 36.0712414], [-95.9588525, 36.0712362], [-95.9587191, 36.0712362], [-95.9587191, 36.0713077], [-95.9588525, 36.0713077]]]}, "properties": {"osm_id": 1316045505, "building": "commercial", "name": "Storage OK", "height": null, "height_m": null, "levels": null, "tract_id": "40143007643", "tract_name": "76.43", "tags": {"building": "commercial", "name": "Storage OK", "phone": "+1 918 749 0884", "shop": "storage_rental"}}}, {"type": "Feature", "geometry": {"type": "Polygon", "coordinates": [[[-95.95956, 36.0709583], [-95.9587112, 36.070956], [-95.9587107, 36.0710666], [-95.9595596, 36.0710689], [-95.95956, 36.0709583]]]}, "properties": {"osm_id": 1316045506, "building": "warehouse", "name": "", "height": null, "height_m": null, "levels": null, "tract_id": "40143007643", "tract_name": "76.43", "tags": {"building": "warehouse"}}}, {"type": "Feature", "geometry": {"type": "Polygon", "coordinates": [[[-95.958713, 36.0711246], [-95.9587124, 36.071181], [-95.9595411, 36.0711868], [-95.9595417, 36.0711305], [-95.958713, 36.0711246]]]}, "properties": {"osm_id": 1316045507, "building": "warehouse", "name": "", "height": null, "height_m": null, "levels": null, "tract_id": "40143007643", "tract_name": "76.43", "tags": {"building": "warehouse"}}}, {"type": "Feature", "geometry": {"type": "Polygon", "coordinates": [[[-95.9595239, 36.0713004], [-95.9595241, 36.0712429], [-95.9588525, 36.0712414], [-95.9588525, 36.0712989], [-95.9595239, 36.0713004]]]}, "properties": {"osm_id": 1316045508, "building": "warehouse", "name": "", "height": null, "height_m": null, "levels": null, "tract_id": "40143007643", "tract_name": "76.43", "tags": {"building": "warehouse"}}}, {"type": "Feature", "geometry": {"type": "Polygon", "coordinates": [[[-95.9591981, 36.0705684], [-95.9591981, 36.0705493], [-95.9591459, 36.0705492], [-95.9591461, 36.070507], [-95.959032, 36.0705067], [-95.9590318, 36.07055], [-95.9589809, 36.0705499], [-95.9589805, 36.0706431], [-95.9590329, 36.0706432], [-95.9590327, 36.0706844], [-95.9591466, 36.0706847], [-95.9591468, 36.0706414], [-95.9591978, 36.0706415], [-95.9591978, 36.070624], [-95.9592049, 36.070624], [-95.9592065, 36.0707917], [-95.9594895, 36.07079], [-95.9594859, 36.0703954], [-95.9592028, 36.0703971], [-95.9592044, 36.0705684], [-95.9591981, 36.0705684]]]}, "properties": {"osm_id": 1316046667, "building": "office", "name": "", "height": null, "height_m": null, "levels": null, "tract_id": "40143007643", "tract_name": "76.43", "tags": {"building": "office"}}}, {"type": "Feature", "geometry": {"type": "Polygon", "coordinates": [[[-95.9598201, 36.069632], [-95.9598186, 36.069413], [-95.9594259, 36.0694148], [-95.9593536, 36.0693587], [-95.9593532, 36.0693024], [-95.9590359, 36.0693038], [-95.9590363, 36.0693625], [-95.9589699, 36.0694161], [-95.9585599, 36.0694179], [-95.9585614, 36.0696365], [-95.9590891, 36.0696341], [-95.9590895, 36.0696895], [-95.9592993, 36.0696885], [-95.9592989, 36.0696343], [-95.9598201, 36.069632]]]}, "properties": {"osm_id": 1316046668, "building": "office", "name": "", "height": null, "height_m": 6.0, "levels": 2, "tract_id": "40143007643", "tract_name": "76.43", "tags": {"addr:city": "Tulsa", "addr:housenumber": "6506", "addr:postcode": "74136", "addr:state": "OK", "addr:street": "South Lewis Avenue East", "building": "office", "building:colour": "brown", "building:levels": "2", "building:material": "brick", "roof:colour": "beige", "roof:levels": "0", "roof:shape": "flat"}}}, {"type": "Feature", "geometry": {"type": "Polygon", "coordinates": [[[-95.959762, 36.0698035], [-95.9597616, 36.0700552], [-95.9597749, 36.0700552], [-95.9597611, 36.0700758], [-95.9597524, 36.0701034], [-95.9597564, 36.0701283], [-95.9597692, 36.0701576], [-95.9597866, 36.0701766], [-95.9598121, 36.0701961], [-95.9598443, 36.0702118], [-95.9598839, 36.0702177], [-95.9601261, 36.070218], [-95.9601268, 36.0698039], [-95.959762, 36.0698035]]]}, "properties": {"osm_id": 1316046669, "building": "office", "name": "", "height": null, "height_m": null, "levels": null, "tract_id": "40143007643", "tract_name": "76.43", "tags": {"building": "office"}}}, {"type": "Feature", "geometry": {"type": "Polygon", "coordinates": [[[-95.9583747, 36.0707956], [-95.9586631, 36.0707942], [-95.9586602, 36.0703975], [-95.9583718, 36.0703989], [-95.9583747, 36.0707956]]]}, "properties": {"osm_id": 1316046670, "building": "office", "name": "", "height": null, "height_m": null, "levels": null, "tract_id": "40143007643", "tract_name": "76.43", "tags": {"building": "office"}}}, {"type": "Feature", "geometry": {"type": "Polygon", "coordinates": [[[-95.9583925, 36.0687583], [-95.9583987, 36.069154], [-95.9586791, 36.0691512], [-95.9586729, 36.0687555], [-95.9583925, 36.0687583]]]}, "properties": {"osm_id": 1316061455, "building": "yes", "name": "", "height": null, "height_m": null, "levels": null, "tract_id": "40143007643", "tract_name": "76.43", "tags": {"building": "yes", "shop": "yes", "source": "microsoft/BuildingFootprints"}}}, {"type": "Feature", "geometry": {"type": "Polygon", "coordinates": [[[-95.9667418, 36.0611176], [-95.9665219, 36.0611164], [-95.9665174, 36.0616476], [-95.9665362, 36.0616477], [-95.9665332, 36.0619989], [-95.9665077, 36.0619988], [-95.9665058, 36.0622286], [-95.9667325, 36.0622299], [-95.9667418, 36.0611176]]]}, "properties": {"osm_id": 1341429684, "building": "yes", "name": "", "height": null, "height_m": null, "levels": null, "tract_id": "40143007643", "tract_name": "76.43", "tags": {"addr:city": "Tulsa", "addr:country": "US", "addr:housenumber": "1671", "addr:postcode": "74136", "addr:state": "OK", "addr:street": "East 71st Street South", "building": "yes"}}}, {"type": "Feature", "geometry": {"type": "Polygon", "coordinates": [[[-95.9663795, 36.0624918], [-95.9664145, 36.062555], [-95.9663732, 36.06257], [-95.9664182, 36.0626512], [-95.966378, 36.0626658], [-95.9664271, 36.0627542], [-95.9665834, 36.0626976], [-95.9665474, 36.0626326], [-95.9665898, 36.0626172], [-95.9665472, 36.0625403], [-95.9665896, 36.0625249], [-95.9665392, 36.0624339], [-95.9663795, 36.0624918]]]}, "properties": {"osm_id": 1341429685, "building": "yes", "name": "", "height": null, "height_m": null, "levels": null, "tract_id": "40143007643", "tract_name": "76.43", "tags": {"addr:city": "Tulsa", "addr:country": "US", "addr:housenumber": "6966", "addr:postcode": "74136", "addr:state": "OK", "addr:street": "South Utica Avenue East", "building": "yes"}}}, {"type": "Feature", "geometry": {"type": "Polygon", "coordinates": [[[-95.9652535, 36.0644329], [-95.965338, 36.0645382], [-95.9653625, 36.0645254], [-95.9653882, 36.0645574], [-95.9655468, 36.0644743], [-95.9655554, 36.0644849], [-95.965646, 36.0644374], [-95.9655272, 36.0642894], [-95.9652535, 36.0644329]]]}, "properties": {"osm_id": 1341429800, "building": "yes", "name": "", "height": null, "height_m": null, "levels": null, "tract_id": "40143007643", "tract_name": "76.43", "tags": {"building": "yes", "source": "microsoft/BuildingFootprints"}}}, {"type": "Feature", "geometry": {"type": "Polygon", "coordinates": [[[-95.9654144, 36.0639309], [-95.9654134, 36.0640306], [-95.9654483, 36.0640309], [-95.9654479, 36.0640677], [-95.9653996, 36.0640674], [-95.9653988, 36.0641433], [-95.9654257, 36.0641435], [-95.9654251, 36.0641998], [-95.9655592, 36.0642007], [-95.9655594, 36.0641834], [-95.9656345, 36.0641839], [-95.9656353, 36.0641059], [-95.9656165, 36.0641057], [-95.9656181, 36.063954], [-95.965571, 36.0639536], [-95.9655712, 36.063932], [-95.9654144, 36.0639309]]]}, "properties": {"osm_id": 1341429801, "building": "yes", "name": "", "height": null, "height_m": null, "levels": null, "tract_id": "40143007643", "tract_name": "76.43", "tags": {"building": "yes", "source": "microsoft/BuildingFootprints"}}}, {"type": "Feature", "geometry": {"type": "Polygon", "coordinates": [[[-95.9651522, 36.0641577], [-95.9648428, 36.0641636], [-95.9648436, 36.064194], [-95.9647564, 36.0641957], [-95.9647585, 36.0642672], [-95.9648055, 36.0642663], [-95.964807, 36.0643175], [-95.9650403, 36.064313], [-95.9650412, 36.0643463], [-95.9651351, 36.0643445], [-95.9651332, 36.0642817], [-95.9651558, 36.0642812], [-95.9651522, 36.0641577]]]}, "properties": {"osm_id": 1341429802, "building": "yes", "name": "", "height": null, "height_m": null, "levels": null, "tract_id": "40143007643", "tract_name": "76.43", "tags": {"building": "yes", "source": "microsoft/BuildingFootprints"}}}, {"type": "Feature", "geometry": {"type": "Polygon", "coordinates": [[[-95.9646599, 36.0639822], [-95.9649844, 36.0639852], [-95.9649861, 36.0638608], [-95.9649593, 36.0638606], [-95.9649599, 36.0638224], [-95.9647748, 36.0638207], [-95.964775, 36.0638033], [-95.9646624, 36.0638023], [-95.9646599, 36.0639822]]]}, "properties": {"osm_id": 1341429803, "building": "yes", "name": "", "height": null, "height_m": null, "levels": null, "tract_id": "40143007643", "tract_name": "76.43", "tags": {"building": "yes", "source": "microsoft/BuildingFootprints"}}}, {"type": "Feature", "geometry": {"type": "Polygon", "coordinates": [[[-95.965046, 36.0636119], [-95.9649097, 36.0635767], [-95.9649152, 36.0635629], [-95.9648032, 36.063534], [-95.964797, 36.0635498], [-95.9647361, 36.0635341], [-95.9646724, 36.0636955], [-95.9647698, 36.0637206], [-95.9647721, 36.0637147], [-95.9649523, 36.0637611], [-95.9649662, 36.0637257], [-95.9649979, 36.0637339], [-95.965046, 36.0636119]]]}, "properties": {"osm_id": 1341429804, "building": "yes", "name": "", "height": null, "height_m": null, "levels": null, "tract_id": "40143007643", "tract_name": "76.43", "tags": {"building": "yes", "source": "microsoft/BuildingFootprints"}}}, {"type": "Feature", "geometry": {"type": "Polygon", "coordinates": [[[-95.9652849, 36.0636811], [-95.9650836, 36.0636232], [-95.9650481, 36.063704], [-95.9650613, 36.0637078], [-95.9649986, 36.0638502], [-95.9650425, 36.0638629], [-95.965031, 36.0638891], [-95.9651751, 36.0639306], [-95.9652849, 36.0636811]]]}, "properties": {"osm_id": 1341429805, "building": "yes", "name": "", "height": null, "height_m": null, "levels": null, "tract_id": "40143007643", "tract_name": "76.43", "tags": {"building": "yes", "source": "microsoft/BuildingFootprints"}}}, {"type": "Feature", "geometry": {"type": "Polygon", "coordinates": [[[-95.9663106, 36.0639581], [-95.9663114, 36.0638749], [-95.966202, 36.0638742], [-95.9660836, 36.0639717], [-95.9660835, 36.0639873], [-95.9659845, 36.0640689], [-95.9661348, 36.0641881], [-95.9663199, 36.0640356], [-95.9662214, 36.0639575], [-95.9663106, 36.0639581]]]}, "properties": {"osm_id": 1341429806, "building": "yes", "name": "", "height": null, "height_m": null, "levels": null, "tract_id": "40143007643", "tract_name": "76.43", "tags": {"addr:city": "Tulsa", "addr:country": "US", "addr:housenumber": "6922", "addr:postcode": "74136", "addr:state": "OK", "addr:street": "South Utica Avenue East", "building": "yes", "shop": "yes"}}}, {"type": "Feature", "geometry": {"type": "Polygon", "coordinates": [[[-95.9663246, 36.0634143], [-95.9662356, 36.0636087], [-95.9665488, 36.0637023], [-95.9666378, 36.0635079], [-95.9663246, 36.0634143]]]}, "properties": {"osm_id": 1341429807, "building": "commercial", "name": "", "height": null, "height_m": null, "levels": null, "tract_id": "40143007643", "tract_name": "76.43", "tags": {"addr:city": "Tulsa", "addr:country": "US", "addr:housenumber": "6940", "addr:postcode": "74136", "addr:state": "OK", "addr:street": "South Utica Avenue East", "building": "commercial", "shop": "yes"}}}, {"type": "Feature", "geometry": {"type": "Polygon", "coordinates": [[[-95.966751, 36.0630544], [-95.966573, 36.0630402], [-95.9665452, 36.0632678], [-95.9667232, 36.063282], [-95.966751, 36.0630544]]]}, "properties": {"osm_id": 1341429808, "building": "commercial", "name": "", "height": null, "height_m": null, "levels": null, "tract_id": "40143007643", "tract_name": "76.43", "tags": {"addr:city": "Tulsa", "addr:country": "US", "addr:housenumber": "6950", "addr:postcode": "74136", "addr:state": "OK", "addr:street": "South Utica Avenue East", "building": "commercial", "shop": "yes"}}}, {"type": "Feature", "geometry": {"type": "Polygon", "coordinates": [[[-95.9667269, 36.0629107], [-95.9667258, 36.0628088], [-95.9665648, 36.0628099], [-95.966566, 36.0629118], [-95.9667269, 36.0629107]]]}, "properties": {"osm_id": 1341429809, "building": "yes", "name": "", "height": null, "height_m": null, "levels": null, "tract_id": "40143007643", "tract_name": "76.43", "tags": {"addr:city": "Tulsa", "addr:country": "US", "addr:housenumber": "6958", "addr:postcode": "74136", "addr:state": "OK", "addr:street": "South Utica Avenue East", "building": "yes"}}}, {"type": "Feature", "geometry": {"type": "Polygon", "coordinates": [[[-95.9658442, 36.0625989], [-95.965842, 36.0628461], [-95.9658876, 36.0628463], [-95.965887, 36.0629136], [-95.9659755, 36.0629141], [-95.9659759, 36.0628729], [-95.9660322, 36.0628732], [-95.9660338, 36.0626889], [-95.9660687, 36.0626891], [-95.9660695, 36.0626002], [-95.9658442, 36.0625989]]]}, "properties": {"osm_id": 1341429810, "building": "yes", "name": "", "height": null, "height_m": null, "levels": null, "tract_id": "40143007643", "tract_name": "76.43", "tags": {"building": "yes", "source": "microsoft/BuildingFootprints"}}}, {"type": "Feature", "geometry": {"type": "Polygon", "coordinates": [[[-95.9658492, 36.0629421], [-95.9658318, 36.0630574], [-95.9658265, 36.0630569], [-95.9658119, 36.0631538], [-95.9658304, 36.0631557], [-95.9658231, 36.063204], [-95.9660345, 36.0632248], [-95.9660477, 36.0631372], [-95.9660292, 36.0631354], [-95.9660518, 36.0629859], [-95.9660042, 36.0629812], [-95.9660077, 36.0629577], [-95.9658492, 36.0629421]]]}, "properties": {"osm_id": 1341429811, "building": "yes", "name": "", "height": null, "height_m": null, "levels": null, "tract_id": "40143007643", "tract_name": "76.43", "tags": {"building": "yes", "source": "microsoft/BuildingFootprints"}}}, {"type": "Feature", "geometry": {"type": "Polygon", "coordinates": [[[-95.9658007, 36.0632543], [-95.9656942, 36.0635092], [-95.9658229, 36.0635444], [-95.9658277, 36.0635327], [-95.9659024, 36.0635531], [-95.9659341, 36.0634772], [-95.9659209, 36.0634736], [-95.9659811, 36.0633296], [-95.9659341, 36.0633167], [-95.9659439, 36.0632934], [-95.9658007, 36.0632543]]]}, "properties": {"osm_id": 1341429812, "building": "yes", "name": "", "height": null, "height_m": null, "levels": null, "tract_id": "40143007643", "tract_name": "76.43", "tags": {"building": "yes", "source": "microsoft/BuildingFootprints"}}}, {"type": "Feature", "geometry": {"type": "Polygon", "coordinates": [[[-95.9634125, 36.0625854], [-95.9629396, 36.0624453], [-95.9627952, 36.0627636], [-95.9632977, 36.0629126], [-95.9633506, 36.062796], [-95.963321, 36.0627872], [-95.9634125, 36.0625854]]]}, "properties": {"osm_id": 1341429813, "building": "yes", "name": "", "height": null, "height_m": null, "levels": null, "tract_id": "40143007643", "tract_name": "76.43", "tags": {"building": "yes", "source": "microsoft/BuildingFootprints"}}}, {"type": "Feature", "geometry": {"type": "Polygon", "coordinates": [[[-95.9646381, 36.0624091], [-95.9647008, 36.0625806], [-95.9649981, 36.0625096], [-95.9649835, 36.0624697], [-95.9650612, 36.0624511], [-95.9650352, 36.0623801], [-95.9649859, 36.0623919], [-95.9649711, 36.0623512], [-95.9647466, 36.0624049], [-95.9647393, 36.0623849], [-95.9646381, 36.0624091]]]}, "properties": {"osm_id": 1341429814, "building": "yes", "name": "", "height": null, "height_m": null, "levels": null, "tract_id": "40143007643", "tract_name": "76.43", "tags": {"building": "yes", "source": "microsoft/BuildingFootprints"}}}, {"type": "Feature", "geometry": {"type": "Polygon", "coordinates": [[[-95.9654396, 36.0625215], [-95.9654378, 36.0624066], [-95.965419, 36.0624068], [-95.9654181, 36.0623461], [-95.9653189, 36.0623471], [-95.9653191, 36.0623623], [-95.9651341, 36.0623641], [-95.9651346, 36.0624018], [-95.9651051, 36.0624021], [-95.965107, 36.0625248], [-95.9654396, 36.0625215]]]}, "properties": {"osm_id": 1341429815, "building": "yes", "name": "", "height": null, "height_m": null, "levels": null, "tract_id": "40143007643", "tract_name": "76.43", "tags": {"building": "yes", "source": "microsoft/BuildingFootprints"}}}, {"type": "Feature", "geometry": {"type": "Polygon", "coordinates": [[[-95.9655113, 36.0625277], [-95.9656213, 36.062528], [-95.9656214, 36.0624955], [-95.9656764, 36.0624957], [-95.9656762, 36.0625361], [-95.9657714, 36.0625364], [-95.9657715, 36.0625133], [-95.9658413, 36.0625136], [-95.9658418, 36.062403], [-95.965823, 36.0624029], [-95.9658233, 36.0623414], [-95.9657268, 36.0623411], [-95.9657267, 36.0623593], [-95.9655389, 36.0623587], [-95.9655387, 36.0623999], [-95.9655119, 36.0623998], [-95.9655113, 36.0625277]]]}, "properties": {"osm_id": 1341429816, "building": "yes", "name": "", "height": null, "height_m": null, "levels": null, "tract_id": "40143007643", "tract_name": "76.43", "tags": {"building": "yes", "source": "microsoft/BuildingFootprints"}}}, {"type": "Feature", "geometry": {"type": "Polygon", "coordinates": [[[-95.9648538, 36.0626631], [-95.964701, 36.0626622], [-95.9647008, 36.0626839], [-95.9646552, 36.0626836], [-95.9646538, 36.0628354], [-95.9646324, 36.0628353], [-95.9646316, 36.0629263], [-95.9648515, 36.0629276], [-95.9648538, 36.0626631]]]}, "properties": {"osm_id": 1341429817, "building": "yes", "name": "", "height": null, "height_m": null, "levels": null, "tract_id": "40143007643", "tract_name": "76.43", "tags": {"building": "yes", "source": "microsoft/BuildingFootprints"}}}, {"type": "Feature", "geometry": {"type": "Polygon", "coordinates": [[[-95.9648455, 36.062982], [-95.964635, 36.0629824], [-95.9646352, 36.0630704], [-95.964654, 36.0630704], [-95.9646544, 36.063223], [-95.9647, 36.0632229], [-95.9647001, 36.0632438], [-95.9648637, 36.0632435], [-95.9648635, 36.0631836], [-95.9648206, 36.0631837], [-95.9648204, 36.0631091], [-95.9648727, 36.063109], [-95.9648724, 36.063034], [-95.9648456, 36.063034], [-95.9648455, 36.062982]]]}, "properties": {"osm_id": 1341429818, "building": "yes", "name": "", "height": null, "height_m": null, "levels": null, "tract_id": "40143007643", "tract_name": "76.43", "tags": {"building": "yes", "source": "microsoft/BuildingFootprints"}}}, {"type": "Feature", "geometry": {"type": "Polygon", "coordinates": [[[-95.965086, 36.063473], [-95.9653918, 36.0635007], [-95.9653951, 36.0634772], [-95.9654813, 36.063485], [-95.9654913, 36.0634129], [-95.9654489, 36.0634091], [-95.9654563, 36.0633556], [-95.9652311, 36.0633352], [-95.9652366, 36.0632959], [-95.9651385, 36.063287], [-95.9651299, 36.0633491], [-95.9651035, 36.0633467], [-95.965086, 36.063473]]]}, "properties": {"osm_id": 1341429819, "building": "yes", "name": "", "height": null, "height_m": null, "levels": null, "tract_id": "40143007643", "tract_name": "76.43", "tags": {"building": "yes", "source": "microsoft/BuildingFootprints"}}}, {"type": "Feature", "geometry": {"type": "Polygon", "coordinates": [[[-95.965085, 36.0632462], [-95.9652995, 36.0632451], [-95.9652989, 36.0631554], [-95.9652801, 36.0631555], [-95.9652789, 36.0630045], [-95.965228, 36.0630048], [-95.9652278, 36.0629801], [-95.9650829, 36.0629809], [-95.965085, 36.0632462]]]}, "properties": {"osm_id": 1341429820, "building": "yes", "name": "", "height": null, "height_m": null, "levels": null, "tract_id": "40143007643", "tract_name": "76.43", "tags": {"building": "yes", "source": "microsoft/BuildingFootprints"}}}, {"type": "Feature", "geometry": {"type": "Polygon", "coordinates": [[[-95.9653625, 36.0632308], [-95.9654066, 36.0632323], [-95.9654055, 36.0632547], [-95.9655688, 36.0632601], [-95.9655719, 36.0631987], [-95.9655317, 36.0631974], [-95.9655354, 36.0631246], [-95.9655889, 36.0631263], [-95.9655927, 36.0630527], [-95.9655673, 36.0630519], [-95.96557, 36.062997], [-95.9653598, 36.0629901], [-95.9653553, 36.0630788], [-95.9653701, 36.0630793], [-95.9653625, 36.0632308]]]}, "properties": {"osm_id": 1341429821, "building": "yes", "name": "", "height": null, "height_m": null, "levels": null, "tract_id": "40143007643", "tract_name": "76.43", "tags": {"building": "yes", "source": "microsoft/BuildingFootprints"}}}, {"type": "Feature", "geometry": {"type": "Polygon", "coordinates": [[[-95.9653892, 36.0629417], [-95.9654643, 36.0629414], [-95.9654644, 36.0629588], [-95.9656106, 36.0629581], [-95.9656088, 36.0626885], [-95.9654572, 36.0626891], [-95.9654574, 36.0627094], [-95.9654078, 36.0627097], [-95.9654088, 36.0628628], [-95.9653886, 36.0628629], [-95.9653892, 36.0629417]]]}, "properties": {"osm_id": 1341429822, "building": "yes", "name": "", "height": null, "height_m": null, "levels": null, "tract_id": "40143007643", "tract_name": "76.43", "tags": {"building": "yes", "source": "microsoft/BuildingFootprints"}}}, {"type": "Feature", "geometry": {"type": "Polygon", "coordinates": [[[-95.9650896, 36.0626864], [-95.9650897, 36.0628403], [-95.9650549, 36.0628403], [-95.9650549, 36.0628902], [-95.9650818, 36.0628902], [-95.9650818, 36.0629444], [-95.965224, 36.0629443], [-95.9652239, 36.0629291], [-95.9652937, 36.0629291], [-95.9652936, 36.0628489], [-95.9652695, 36.0628489], [-95.9652694, 36.0627817], [-95.9653096, 36.0627816], [-95.9653096, 36.0626992], [-95.9652291, 36.0626993], [-95.9652291, 36.0626863], [-95.9650896, 36.0626864]]]}, "properties": {"osm_id": 1341429823, "building": "yes", "name": "", "height": null, "height_m": null, "levels": null, "tract_id": "40143007643", "tract_name": "76.43", "tags": {"building": "yes", "source": "microsoft/BuildingFootprints"}}}, {"type": "Feature", "geometry": {"type": "Polygon", "coordinates": [[[-95.9606154, 36.0640058], [-95.9604399, 36.0640072], [-95.960443, 36.0642684], [-95.9604228, 36.0642685], [-95.9604235, 36.0643304], [-95.9606193, 36.0643288], [-95.9606154, 36.0640058]]]}, "properties": {"osm_id": 1341429824, "building": "yes", "name": "", "height": null, "height_m": null, "levels": null, "tract_id": "40143007643", "tract_name": "76.43", "tags": {"building": "yes", "source": "microsoft/BuildingFootprints"}}}, {"type": "Feature", "geometry": {"type": "Polygon", "coordinates": [[[-95.9604827, 36.0636022], [-95.9606717, 36.0635999], [-95.9607734, 36.0635209], [-95.9607689, 36.0632412], [-95.9605248, 36.063244], [-95.9605277, 36.0634109], [-95.9604794, 36.0634114], [-95.9604827, 36.0636022]]]}, "properties": {"osm_id": 1341429825, "building": "industrial", "name": "", "height": null, "height_m": null, "levels": null, "tract_id": "40143007643", "tract_name": "76.43", "tags": {"addr:city": "Tulsa", "addr:country": "US", "addr:housenumber": "6901", "addr:postcode": "74136", "addr:state": "OK", "addr:street": "South Yorktown Avenue East", "building": "industrial"}}}, {"type": "Feature", "geometry": {"type": "Polygon", "coordinates": [[[-95.9603293, 36.0630562], [-95.9603307, 36.0631689], [-95.9607558, 36.0631655], [-95.9607544, 36.0630528], [-95.9603293, 36.0630562]]]}, "properties": {"osm_id": 1341429826, "building": "industrial", "name": "", "height": null, "height_m": null, "levels": null, "tract_id": "40143007643", "tract_name": "76.43", "tags": {"addr:city": "Tulsa", "addr:country": "US", "addr:housenumber": "6915", "addr:postcode": "74136", "addr:state": "OK", "addr:street": "South Yorktown Avenue East", "building": "industrial"}}}, {"type": "Feature", "geometry": {"type": "Polygon", "coordinates": [[[-95.9600522, 36.0628501], [-95.9596928, 36.0628523], [-95.9596967, 36.0632643], [-95.9595492, 36.0632652], [-95.95955, 36.0633465], [-95.9596439, 36.0633459], [-95.9596453, 36.0634955], [-95.9600583, 36.063493], [-95.9600522, 36.0628501]]]}, "properties": {"osm_id": 1341429827, "building": "yes", "name": "", "height": null, "height_m": null, "levels": null, "tract_id": "40143007643", "tract_name": "76.43", "tags": {"building": "yes", "source": "microsoft/BuildingFootprints"}}}, {"type": "Feature", "geometry": {"type": "Polygon", "coordinates": [[[-95.9594144, 36.064196], [-95.9596224, 36.0641941], [-95.9596183, 36.0638992], [-95.9594103, 36.0639011], [-95.9594144, 36.064196]]]}, "properties": {"osm_id": 1341429828, "building": "yes", "name": "", "height": null, "height_m": null, "levels": null, "tract_id": "40143007643", "tract_name": "76.43", "tags": {"building": "yes", "source": "microsoft/BuildingFootprints"}}}, {"type": "Feature", "geometry": {"type": "Polygon", "coordinates": [[[-95.9592899, 36.0641248], [-95.9592928, 36.0638495], [-95.959085, 36.063848], [-95.9590822, 36.0641234], [-95.9592899, 36.0641248]]]}, "properties": {"osm_id": 1341429829, "building": "yes", "name": "", "height": null, "height_m": null, "levels": null, "tract_id": "40143007643", "tract_name": "76.43", "tags": {"building": "yes", "source": "microsoft/BuildingFootprints"}}}, {"type": "Feature", "geometry": {"type": "Polygon", "coordinates": [[[-95.9587418, 36.0638503], [-95.958741, 36.0641375], [-95.9588161, 36.0641377], [-95.9588159, 36.0642157], [-95.9589527, 36.064216], [-95.9589537, 36.0638507], [-95.9587418, 36.0638503]]]}, "properties": {"osm_id": 1341429830, "building": "yes", "name": "", "height": null, "height_m": null, "levels": null, "tract_id": "40143007643", "tract_name": "76.43", "tags": {"building": "yes", "source": "microsoft/BuildingFootprints"}}}, {"type": "Feature", "geometry": {"type": "Polygon", "coordinates": [[[-95.9590884, 36.0654416], [-95.959089, 36.0655283], [-95.9597934, 36.0655248], [-95.9597927, 36.065438], [-95.9590884, 36.0654416]]]}, "properties": {"osm_id": 1341429878, "building": "yes", "name": "", "height": null, "height_m": null, "levels": null, "tract_id": "40143007643", "tract_name": "76.43", "tags": {"building": "yes", "source": "microsoft/BuildingFootprints"}}}, {"type": "Feature", "geometry": {"type": "Polygon", "coordinates": [[[-95.9589616, 36.0656805], [-95.9594194, 36.0656968], [-95.9594207, 36.065673], [-95.9595144, 36.0656764], [-95.95952, 36.0655736], [-95.9593995, 36.0655693], [-95.9593973, 36.0656093], [-95.9591778, 36.0656015], [-95.9591781, 36.0655971], [-95.9591085, 36.0655947], [-95.9591092, 36.0655817], [-95.9590316, 36.0655789], [-95.9590385, 36.0654512], [-95.9590198, 36.0654505], [-95.9590227, 36.0653986], [-95.9589263, 36.0653952], [-95.9589151, 36.0655986], [-95.958966, 36.0656004], [-95.9589616, 36.0656805]]]}, "properties": {"osm_id": 1341429879, "building": "yes", "name": "", "height": null, "height_m": null, "levels": null, "tract_id": "40143007643", "tract_name": "76.43", "tags": {"building": "yes", "source": "microsoft/BuildingFootprints"}}}, {"type": "Feature", "geometry": {"type": "Polygon", "coordinates": [[[-95.9599492, 36.0656708], [-95.9599529, 36.0653705], [-95.9598499, 36.0653697], [-95.9598473, 36.0655832], [-95.9597142, 36.0655821], [-95.959714, 36.0656049], [-95.959596, 36.065604], [-95.9595949, 36.0656918], [-95.9597199, 36.0656928], [-95.9597202, 36.0656689], [-95.9599492, 36.0656708]]]}, "properties": {"osm_id": 1341429880, "building": "yes", "name": "", "height": null, "height_m": null, "levels": null, "tract_id": "40143007643", "tract_name": "76.43", "tags": {"building": "yes", "source": "microsoft/BuildingFootprints"}}}, {"type": "Feature", "geometry": {"type": "Polygon", "coordinates": [[[-95.960065, 36.0663266], [-95.9600638, 36.0659277], [-95.9598911, 36.065928], [-95.9598923, 36.066327], [-95.960065, 36.0663266]]]}, "properties": {"osm_id": 1341429881, "building": "yes", "name": "", "height": null, "height_m": null, "levels": null, "tract_id": "40143007643", "tract_name": "76.43", "tags": {"building": "yes", "source": "microsoft/BuildingFootprints"}}}, {"type": "Feature", "geometry": {"type": "Polygon", "coordinates": [[[-95.9593215, 36.0650424], [-95.9589674, 36.0650437], [-95.9589667, 36.0648973], [-95.9588567, 36.0648976], [-95.9588579, 36.065134], [-95.9593219, 36.0651324], [-95.9593215, 36.0650424]]]}, "properties": {"osm_id": 1341429882, "building": "yes", "name": "", "height": null, "height_m": null, "levels": null, "tract_id": "40143007643", "tract_name": "76.43", "tags": {"building": "yes", "source": "microsoft/BuildingFootprints"}}}, {"type": "Feature", "geometry": {"type": "Polygon", "coordinates": [[[-95.9593151, 36.0649962], [-95.9593108, 36.0647946], [-95.9592009, 36.0647961], [-95.9592051, 36.0649977], [-95.9593151, 36.0649962]]]}, "properties": {"osm_id": 1341429883, "building": "yes", "name": "", "height": null, "height_m": null, "levels": null, "tract_id": "40143007643", "tract_name": "76.43", "tags": {"building": "yes", "source": "microsoft/BuildingFootprints"}}}, {"type": "Feature", "geometry": {"type": "Polygon", "coordinates": [[[-95.9593188, 36.0646809], [-95.9593142, 36.0645965], [-95.9590492, 36.0646059], [-95.9590498, 36.0646178], [-95.9589642, 36.0646209], [-95.9589605, 36.0645526], [-95.9588534, 36.0645564], [-95.9588563, 36.0646105], [-95.9586207, 36.0646189], [-95.95862, 36.0646059], [-95.9585772, 36.0646074], [-95.9585744, 36.0645555], [-95.9584727, 36.064559], [-95.958481, 36.0647139], [-95.9591063, 36.0646917], [-95.9591062, 36.0646884], [-95.9593188, 36.0646809]]]}, "properties": {"osm_id": 1341429884, "building": "yes", "name": "", "height": null, "height_m": null, "levels": null, "tract_id": "40143007643", "tract_name": "76.43", "tags": {"building": "yes", "source": "microsoft/BuildingFootprints"}}}, {"type": "Feature", "geometry": {"type": "Polygon", "coordinates": [[[-95.9589494, 36.0648475], [-95.9589486, 36.064751], [-95.9588923, 36.0647513], [-95.9588924, 36.0647665], [-95.9584686, 36.0647688], [-95.9584693, 36.06485], [-95.9589494, 36.0648475]]]}, "properties": {"osm_id": 1341429885, "building": "yes", "name": "", "height": null, "height_m": null, "levels": null, "tract_id": "40143007643", "tract_name": "76.43", "tags": {"building": "yes", "source": "microsoft/BuildingFootprints"}}}, {"type": "Feature", "geometry": {"type": "Polygon", "coordinates": [[[-95.9582594, 36.0648419], [-95.9583667, 36.0648423], [-95.9583671, 36.0647664], [-95.9583403, 36.0647663], [-95.9583407, 36.0647013], [-95.9583648, 36.0647014], [-95.9583653, 36.0646212], [-95.9583358, 36.064621], [-95.9583362, 36.064556], [-95.9582343, 36.0645556], [-95.958233, 36.0647746], [-95.9582598, 36.0647747], [-95.9582594, 36.0648419]]]}, "properties": {"osm_id": 1341429886, "building": "yes", "name": "", "height": null, "height_m": null, "levels": null, "tract_id": "40143007643", "tract_name": "76.43", "tags": {"building": "yes", "source": "microsoft/BuildingFootprints"}}}, {"type": "Feature", "geometry": {"type": "Polygon", "coordinates": [[[-95.9584059, 36.065129], [-95.9584031, 36.0650402], [-95.9583629, 36.065041], [-95.9583583, 36.0648959], [-95.9582441, 36.0648982], [-95.9582516, 36.0651323], [-95.9584059, 36.065129]]]}, "properties": {"osm_id": 1341429887, "building": "yes", "name": "", "height": null, "height_m": null, "levels": null, "tract_id": "40143007643", "tract_name": "76.43", "tags": {"building": "yes", "source": "microsoft/BuildingFootprints"}}}, {"type": "Feature", "geometry": {"type": "Polygon", "coordinates": [[[-95.9584396, 36.0649012], [-95.9584412, 36.0649793], [-95.9584991, 36.0649785], [-95.9585014, 36.0650912], [-95.9585937, 36.06509], [-95.9585898, 36.0648992], [-95.9584396, 36.0649012]]]}, "properties": {"osm_id": 1341429888, "building": "yes", "name": "", "height": null, "height_m": null, "levels": null, "tract_id": "40143007643", "tract_name": "76.43", "tags": {"building": "yes", "source": "microsoft/BuildingFootprints"}}}, {"type": "Feature", "geometry": {"type": "Polygon", "coordinates": [[[-95.9586717, 36.0651216], [-95.9587655, 36.065123], [-95.9587706, 36.0649041], [-95.9586767, 36.0649027], [-95.9586717, 36.0651216]]]}, "properties": {"osm_id": 1341429889, "building": "yes", "name": "", "height": null, "height_m": null, "levels": null, "tract_id": "40143007643", "tract_name": "76.43", "tags": {"building": "yes", "source": "microsoft/BuildingFootprints"}}}, {"type": "Feature", "geometry": {"type": "Polygon", "coordinates": [[[-95.9596348, 36.0647991], [-95.9597812, 36.0647977], [-95.95978, 36.0647218], [-95.9597425, 36.0647222], [-95.9597414, 36.0646485], [-95.9598418, 36.0646475], [-95.9598406, 36.0645619], [-95.9595444, 36.0645647], [-95.9595457, 36.0646525], [-95.9596326, 36.0646517], [-95.9596348, 36.0647991]]]}, "properties": {"osm_id": 1341429890, "building": "yes", "name": "", "height": null, "height_m": null, "levels": null, "tract_id": "40143007643", "tract_name": "76.43", "tags": {"building": "yes", "source": "microsoft/BuildingFootprints"}}}, {"type": "Feature", "geometry": {"type": "Polygon", "coordinates": [[[-95.9600334, 36.0645397], [-95.9599289, 36.0645411], [-95.9599367, 36.0649064], [-95.9598831, 36.0649071], [-95.9598848, 36.0649862], [-95.960043, 36.064984], [-95.9600334, 36.0645397]]]}, "properties": {"osm_id": 1341429891, "building": "yes", "name": "", "height": null, "height_m": null, "levels": null, "tract_id": "40143007643", "tract_name": "76.43", "tags": {"building": "yes", "source": "microsoft/BuildingFootprints"}}}, {"type": "Feature", "geometry": {"type": "Polygon", "coordinates": [[[-95.9605923, 36.0646703], [-95.9605921, 36.0645922], [-95.9602005, 36.064593], [-95.9602009, 36.0647295], [-95.9603028, 36.0647294], [-95.9603027, 36.0646708], [-95.9605923, 36.0646703]]]}, "properties": {"osm_id": 1341429892, "building": "yes", "name": "", "height": null, "height_m": null, "levels": null, "tract_id": "40143007643", "tract_name": "76.43", "tags": {"building": "yes", "source": "microsoft/BuildingFootprints"}}}, {"type": "Feature", "geometry": {"type": "Polygon", "coordinates": [[[-95.9601859, 36.0649682], [-95.9604112, 36.0649705], [-95.9604095, 36.065081], [-95.9605125, 36.0650821], [-95.960518, 36.0647244], [-95.9604043, 36.0647232], [-95.9604018, 36.0648837], [-95.9602865, 36.0648825], [-95.960287, 36.06485], [-95.9601878, 36.064849], [-95.9601859, 36.0649682]]]}, "properties": {"osm_id": 1341429893, "building": "yes", "name": "", "height": null, "height_m": null, "levels": null, "tract_id": "40143007643", "tract_name": "76.43", "tags": {"building": "yes", "source": "microsoft/BuildingFootprints"}}}, {"type": "Feature", "geometry": {"type": "Polygon", "coordinates": [[[-95.9603111, 36.0650339], [-95.9601448, 36.065035], [-95.9601458, 36.0651239], [-95.9603121, 36.0651228], [-95.9603111, 36.0650339]]]}, "properties": {"osm_id": 1341429894, "building": "yes", "name": "", "height": null, "height_m": null, "levels": null, "tract_id": "40143007643", "tract_name": "76.43", "tags": {"building": "yes", "source": "microsoft/BuildingFootprints"}}}, {"type": "Feature", "geometry": {"type": "Polygon", "coordinates": [[[-95.9595179, 36.0651189], [-95.9600946, 36.0651212], [-95.9600951, 36.0650312], [-95.9597304, 36.0650297], [-95.9597309, 36.0649419], [-95.9597792, 36.0649421], [-95.9597797, 36.0648543], [-95.9596295, 36.0648537], [-95.9596284, 36.0650315], [-95.9595185, 36.065031], [-95.9595179, 36.0651189]]]}, "properties": {"osm_id": 1341429895, "building": "yes", "name": "", "height": null, "height_m": null, "levels": null, "tract_id": "40143007643", "tract_name": "76.43", "tags": {"building": "yes", "source": "microsoft/BuildingFootprints"}}}, {"type": "Feature", "geometry": {"type": "Polygon", "coordinates": [[[-95.9608945, 36.0645588], [-95.9609059, 36.0652818], [-95.9610615, 36.0652802], [-95.96106, 36.0651859], [-95.9610117, 36.0651864], [-95.9610094, 36.0650422], [-95.9611071, 36.0650412], [-95.9611059, 36.0649632], [-95.9610109, 36.0649641], [-95.9610081, 36.0647864], [-95.9611058, 36.0647854], [-95.9611045, 36.0647073], [-95.9610203, 36.0647082], [-95.9610196, 36.0646648], [-95.9611054, 36.064664], [-95.9611041, 36.0645827], [-95.9610007, 36.0645838], [-95.9610003, 36.0645578], [-95.9608945, 36.0645588]]]}, "properties": {"osm_id": 1341429896, "building": "yes", "name": "", "height": null, "height_m": null, "levels": null, "tract_id": "40143007643", "tract_name": "76.43", "tags": {"building": "yes", "source": "microsoft/BuildingFootprints"}}}, {"type": "Feature", "geometry": {"type": "Polygon", "coordinates": [[[-95.9621082, 36.0645635], [-95.9620413, 36.0646031], [-95.9615271, 36.0652849], [-95.9614574, 36.0653262], [-95.9614697, 36.0653397], [-95.9614257, 36.065398], [-95.9614997, 36.0654344], [-95.9615696, 36.065393], [-95.9616278, 36.0654217], [-95.9616826, 36.065349], [-95.9616259, 36.065321], [-95.9617141, 36.0652041], [-95.9617705, 36.0652318], [-95.9617859, 36.0652227], [-95.9618327, 36.0651606], [-95.9617554, 36.0651225], [-95.9618428, 36.0650707], [-95.9618333, 36.0650603], [-95.961865, 36.0650183], [-95.9619256, 36.0650481], [-95.9619817, 36.0649738], [-95.9619073, 36.0649372], [-95.9619463, 36.0649141], [-95.96201, 36.0648295], [-95.9620726, 36.0648604], [-95.9621274, 36.0647877], [-95.9620727, 36.0647607], [-95.9621347, 36.0646785], [-95.9621973, 36.0647093], [-95.9622533, 36.064635], [-95.9621082, 36.0645635]]]}, "properties": {"osm_id": 1341429897, "building": "yes", "name": "", "height": null, "height_m": null, "levels": null, "tract_id": "40143007643", "tract_name": "76.43", "tags": {"building": "yes", "source": "microsoft/BuildingFootprints"}}}, {"type": "Feature", "geometry": {"type": "Polygon", "coordinates": [[[-95.9623414, 36.0646173], [-95.9623436, 36.0647118], [-95.962388, 36.0647111], [-95.9623877, 36.0646947], [-95.9624961, 36.064693], [-95.9624965, 36.0647125], [-95.9627742, 36.0647083], [-95.9627722, 36.0646238], [-95.9626918, 36.064625], [-95.9626903, 36.0645612], [-95.9625777, 36.0645629], [-95.9625789, 36.0646137], [-95.9623414, 36.0646173]]]}, "properties": {"osm_id": 1341429898, "building": "yes", "name": "", "height": null, "height_m": null, "levels": null, "tract_id": "40143007643", "tract_name": "76.43", "tags": {"building": "yes", "source": "microsoft/BuildingFootprints"}}}, {"type": "Feature", "geometry": {"type": "Polygon", "coordinates": [[[-95.9622933, 36.0647658], [-95.9622822, 36.0648396], [-95.962462, 36.0648573], [-95.9624616, 36.0648594], [-95.9627856, 36.0648913], [-95.9627971, 36.0648153], [-95.9622933, 36.0647658]]]}, "properties": {"osm_id": 1341429899, "building": "yes", "name": "", "height": null, "height_m": null, "levels": null, "tract_id": "40143007643", "tract_name": "76.43", "tags": {"building": "yes", "source": "microsoft/BuildingFootprints"}}}, {"type": "Feature", "geometry": {"type": "Polygon", "coordinates": [[[-95.9624167, 36.0650714], [-95.9623229, 36.0650705], [-95.9623218, 36.0651508], [-95.9622976, 36.0651505], [-95.9622962, 36.0652546], [-95.9622506, 36.0652542], [-95.9622496, 36.0653322], [-95.9623783, 36.0653334], [-95.9623794, 36.0652553], [-95.9624142, 36.0652557], [-95.9624167, 36.0650714]]]}, "properties": {"osm_id": 1341429900, "building": "yes", "name": "", "height": null, "height_m": null, "levels": null, "tract_id": "40143007643", "tract_name": "76.43", "tags": {"building": "yes", "source": "microsoft/BuildingFootprints"}}}, {"type": "Feature", "geometry": {"type": "Polygon", "coordinates": [[[-95.9622458, 36.0654832], [-95.9625462, 36.0654855], [-95.9625462, 36.0654898], [-95.9630021, 36.0654932], [-95.9630028, 36.0654282], [-95.9628714, 36.0654272], [-95.9628717, 36.065399], [-95.9624265, 36.0653957], [-95.9624265, 36.0654], [-95.9622468, 36.0653987], [-95.9622458, 36.0654832]]]}, "properties": {"osm_id": 1341429901, "building": "yes", "name": "", "height": null, "height_m": null, "levels": null, "tract_id": "40143007643", "tract_name": "76.43", "tags": {"building": "yes", "source": "microsoft/BuildingFootprints"}}}, {"type": "Feature", "geometry": {"type": "Polygon", "coordinates": [[[-95.9621251, 36.0657264], [-95.9621281, 36.0658118], [-95.9627231, 36.065798], [-95.9627252, 36.0658577], [-95.9628442, 36.065855], [-95.962842, 36.0657931], [-95.9629438, 36.0657907], [-95.9629428, 36.0657625], [-95.9629857, 36.0657615], [-95.9629837, 36.0657064], [-95.9621251, 36.0657264]]]}, "properties": {"osm_id": 1341429902, "building": "yes", "name": "", "height": null, "height_m": null, "levels": null, "tract_id": "40143007643", "tract_name": "76.43", "tags": {"building": "yes", "source": "microsoft/BuildingFootprints"}}}, {"type": "Feature", "geometry": {"type": "Polygon", "coordinates": [[[-95.9626308, 36.0659575], [-95.9626257, 36.0658666], [-95.9618923, 36.0658933], [-95.9618939, 36.0659214], [-95.9618537, 36.0659229], [-95.961857, 36.0659813], [-95.9621166, 36.0659719], [-95.9621169, 36.0659762], [-95.9626308, 36.0659575]]]}, "properties": {"osm_id": 1341429903, "building": "yes", "name": "", "height": null, "height_m": null, "levels": null, "tract_id": "40143007643", "tract_name": "76.43", "tags": {"building": "yes", "source": "microsoft/BuildingFootprints"}}}, {"type": "Feature", "geometry": {"type": "Polygon", "coordinates": [[[-95.9620656, 36.065698], [-95.9620734, 36.0657062], [-95.9621674, 36.0656474], [-95.9620649, 36.0655402], [-95.9619708, 36.0655989], [-95.9619968, 36.0656261], [-95.9615583, 36.0658998], [-95.9615415, 36.0658822], [-95.9614659, 36.0659294], [-95.9615515, 36.066019], [-95.9620656, 36.065698]]]}, "properties": {"osm_id": 1341429904, "building": "yes", "name": "", "height": null, "height_m": null, "levels": null, "tract_id": "40143007643", "tract_name": "76.43", "tags": {"building": "yes", "source": "microsoft/BuildingFootprints"}}}, {"type": "Feature", "geometry": {"type": "Polygon", "coordinates": [[[-95.9607819, 36.0653902], [-95.9607736, 36.0655025], [-95.9608244, 36.065505], [-95.9608228, 36.0655266], [-95.9610125, 36.0655358], [-95.9610089, 36.0655854], [-95.9609902, 36.0655845], [-95.9609924, 36.0655543], [-95.960963, 36.0655529], [-95.960959, 36.0656069], [-95.9607505, 36.0655968], [-95.9607448, 36.0656746], [-95.9609051, 36.0656823], [-95.9609048, 36.0656866], [-95.9610411, 36.0656932], [-95.9610408, 36.0656976], [-95.9610942, 36.0657001], [-95.9611011, 36.0656073], [-95.9611492, 36.0656096], [-95.9611414, 36.0657154], [-95.961251, 36.0657207], [-95.961265, 36.0655306], [-95.9612036, 36.0655276], [-95.961209, 36.0654542], [-95.9610861, 36.0654482], [-95.9610869, 36.0654374], [-95.9608864, 36.0654277], [-95.9608888, 36.0653953], [-95.9607819, 36.0653902]]]}, "properties": {"osm_id": 1341429905, "building": "yes", "name": "", "height": null, "height_m": null, "levels": null, "tract_id": "40143007643", "tract_name": "76.43", "tags": {"building": "yes", "source": "microsoft/BuildingFootprints"}}}, {"type": "Feature", "geometry": {"type": "Polygon", "coordinates": [[[-95.9614176, 36.0647503], [-95.9613222, 36.0647507], [-95.9613225, 36.0648124], [-95.9612329, 36.0648128], [-95.9612335, 36.0649093], [-95.9613071, 36.064909], [-95.9613078, 36.0650249], [-95.9613201, 36.0650249], [-95.9613209, 36.0651506], [-95.9612324, 36.065151], [-95.961233, 36.0652486], [-95.9613269, 36.0652482], [-95.9613273, 36.0653089], [-95.9614212, 36.0653085], [-95.9614176, 36.0647503]]]}, "properties": {"osm_id": 1341429906, "building": "yes", "name": "", "height": null, "height_m": null, "levels": null, "tract_id": "40143007643", "tract_name": "76.43", "tags": {"building": "yes", "source": "microsoft/BuildingFootprints"}}}, {"type": "Feature", "geometry": {"type": "Polygon", "coordinates": [[[-95.9612538, 36.064702], [-95.9616534, 36.0647013], [-95.9616535, 36.0647577], [-95.9617731, 36.0647575], [-95.9617727, 36.0646133], [-95.9616237, 36.0646135], [-95.9616237, 36.064607], [-95.9615796, 36.0646071], [-95.9615795, 36.0645519], [-95.9614722, 36.064552], [-95.9614723, 36.0646127], [-95.9613045, 36.064613], [-95.9613045, 36.064627], [-95.9612536, 36.0646271], [-95.9612538, 36.064702]]]}, "properties": {"osm_id": 1341429907, "building": "yes", "name": "", "height": null, "height_m": null, "levels": null, "tract_id": "40143007643", "tract_name": "76.43", "tags": {"building": "yes", "source": "microsoft/BuildingFootprints"}}}, {"type": "Feature", "geometry": {"type": "Polygon", "coordinates": [[[-95.9605934, 36.0656923], [-95.9607034, 36.0656904], [-95.9606972, 36.0654585], [-95.960709, 36.0654583], [-95.9607079, 36.0654171], [-95.9607321, 36.0654167], [-95.9607306, 36.0653604], [-95.9604893, 36.0653645], [-95.9604907, 36.0654165], [-95.9605979, 36.0654147], [-95.9605989, 36.0654537], [-95.9603925, 36.0654573], [-95.9603946, 36.0655353], [-95.9605892, 36.0655319], [-95.9605934, 36.0656923]]]}, "properties": {"osm_id": 1341429908, "building": "yes", "name": "", "height": null, "height_m": null, "levels": null, "tract_id": "40143007643", "tract_name": "76.43", "tags": {"building": "yes", "source": "microsoft/BuildingFootprints"}}}, {"type": "Feature", "geometry": {"type": "Polygon", "coordinates": [[[-95.9602125, 36.0656834], [-95.9605354, 36.0656852], [-95.9605361, 36.0656028], [-95.9603189, 36.0656016], [-95.9603211, 36.0653414], [-95.9603146, 36.0653414], [-95.9603151, 36.0652883], [-95.9602158, 36.0652877], [-95.9602125, 36.0656834]]]}, "properties": {"osm_id": 1341429909, "building": "yes", "name": "", "height": null, "height_m": null, "levels": null, "tract_id": "40143007643", "tract_name": "76.43", "tags": {"building": "yes", "source": "microsoft/BuildingFootprints"}}}, {"type": "Feature", "geometry": {"type": "Polygon", "coordinates": [[[-95.9616927, 36.0665702], [-95.9616072, 36.0665258], [-95.9615359, 36.0666155], [-95.9614656, 36.0665791], [-95.9614083, 36.0666512], [-95.9614672, 36.0666818], [-95.9613916, 36.066777], [-95.9614771, 36.0668213], [-95.9615478, 36.0667323], [-95.9615789, 36.0667484], [-95.9616374, 36.0666747], [-95.9616177, 36.0666645], [-95.9616927, 36.0665702]]]}, "properties": {"osm_id": 1341429910, "building": "office", "name": "", "height": null, "height_m": null, "levels": null, "tract_id": "40143007643", "tract_name": "76.43", "tags": {"addr:city": "Tulsa", "addr:country": "US", "addr:housenumber": "6630", "addr:postcode": "74136", "addr:state": "OK", "addr:street": "South Zunis Avenue East", "building": "office", "office": "property_management", "source": "microsoft/BuildingFootprints"}}}, {"type": "Feature", "geometry": {"type": "Polygon", "coordinates": [[[-95.9610631, 36.0668535], [-95.9608719, 36.0671175], [-95.9610077, 36.0671818], [-95.9611989, 36.0669178], [-95.9610631, 36.0668535]]]}, "properties": {"osm_id": 1341429911, "building": "yes", "name": "", "height": null, "height_m": null, "levels": null, "tract_id": "40143007643", "tract_name": "76.43", "tags": {"building": "yes", "source": "microsoft/BuildingFootprints"}}}, {"type": "Feature", "geometry": {"type": "Polygon", "coordinates": [[[-95.9610771, 36.067243], [-95.9612096, 36.0673115], [-95.9614227, 36.0670423], [-95.9612902, 36.0669738], [-95.9610771, 36.067243]]]}, "properties": {"osm_id": 1341429912, "building": "yes", "name": "", "height": null, "height_m": null, "levels": null, "tract_id": "40143007643", "tract_name": "76.43", "tags": {"building": "yes", "source": "microsoft/BuildingFootprints"}}}, {"type": "Feature", "geometry": {"type": "Polygon", "coordinates": [[[-95.9616412, 36.0671673], [-95.9616075, 36.0671511], [-95.9616146, 36.0671415], [-95.9614996, 36.0670862], [-95.9612458, 36.0674315], [-95.9613945, 36.0675029], [-95.9616412, 36.0671673]]]}, "properties": {"osm_id": 1341429913, "building": "yes", "name": "", "height": null, "height_m": null, "levels": null, "tract_id": "40143007643", "tract_name": "76.43", "tags": {"building": "yes", "source": "microsoft/BuildingFootprints"}}}, {"type": "Feature", "geometry": {"type": "Polygon", "coordinates": [[[-95.9607323, 36.0662648], [-95.9606429, 36.0663724], [-95.9609376, 36.0665323], [-95.9610269, 36.0664247], [-95.9607323, 36.0662648]]]}, "properties": {"osm_id": 1341429914, "building": "yes", "name": "", "height": null, "height_m": null, "levels": null, "tract_id": "40143007643", "tract_name": "76.43", "tags": {"building": "yes", "source": "microsoft/BuildingFootprints"}}}, {"type": "Feature", "geometry": {"type": "Polygon", "coordinates": [[[-95.9608197, 36.0661022], [-95.9608763, 36.0662237], [-95.9610431, 36.0661729], [-95.9609864, 36.0660514], [-95.9608197, 36.0661022]]]}, "properties": {"osm_id": 1341429915, "building": "yes", "name": "", "height": null, "height_m": null, "levels": null, "tract_id": "40143007643", "tract_name": "76.43", "tags": {"building": "yes", "source": "microsoft/BuildingFootprints"}}}, {"type": "Feature", "geometry": {"type": "Polygon", "coordinates": [[[-95.9605801, 36.0662135], [-95.9607474, 36.0662152], [-95.960752, 36.0659259], [-95.9605847, 36.0659242], [-95.9605801, 36.0662135]]]}, "properties": {"osm_id": 1341429916, "building": "yes", "name": "", "height": null, "height_m": null, "levels": null, "tract_id": "40143007643", "tract_name": "76.43", "tags": {"building": "yes", "source": "microsoft/BuildingFootprints"}}}, {"type": "Feature", "geometry": {"type": "Polygon", "coordinates": [[[-95.9604029, 36.0660683], [-95.9602339, 36.0660662], [-95.9602311, 36.0662146], [-95.9604, 36.0662168], [-95.9604029, 36.0660683]]]}, "properties": {"osm_id": 1341429917, "building": "yes", "name": "", "height": null, "height_m": null, "levels": null, "tract_id": "40143007643", "tract_name": "76.43", "tags": {"building": "yes", "source": "microsoft/BuildingFootprints"}}}, {"type": "Feature", "geometry": {"type": "Polygon", "coordinates": [[[-95.9601547, 36.066516], [-95.9602907, 36.0665937], [-95.9603975, 36.0664714], [-95.9602615, 36.0663938], [-95.9601547, 36.066516]]]}, "properties": {"osm_id": 1341429918, "building": "yes", "name": "", "height": null, "height_m": null, "levels": null, "tract_id": "40143007643", "tract_name": "76.43", "tags": {"building": "yes", "source": "microsoft/BuildingFootprints"}}}, {"type": "Feature", "geometry": {"type": "Polygon", "coordinates": [[[-95.9599078, 36.066774], [-95.9599614, 36.0667738], [-95.9599614, 36.0667673], [-95.960066, 36.0667668], [-95.9600639, 36.0664416], [-95.9600049, 36.0664419], [-95.9600049, 36.0664484], [-95.9599057, 36.0664488], [-95.9599078, 36.066774]]]}, "properties": {"osm_id": 1341429928, "building": "yes", "name": "", "height": null, "height_m": null, "levels": null, "tract_id": "40143007643", "tract_name": "76.43", "tags": {"building": "yes", "source": "microsoft/BuildingFootprints"}}}, {"type": "Feature", "geometry": {"type": "Polygon", "coordinates": [[[-95.9599011, 36.067287], [-95.9600727, 36.067285], [-95.9600659, 36.0668959], [-95.9598943, 36.0668979], [-95.9599011, 36.067287]]]}, "properties": {"osm_id": 1341429929, "building": "yes", "name": "", "height": null, "height_m": null, "levels": null, "tract_id": "40143007643", "tract_name": "76.43", "tags": {"building": "yes", "source": "microsoft/BuildingFootprints"}}}, {"type": "Feature", "geometry": {"type": "Polygon", "coordinates": [[[-95.9601504, 36.0669399], [-95.9604535, 36.067085], [-95.9605382, 36.0669694], [-95.960376, 36.0668918], [-95.9603954, 36.0668653], [-95.960308, 36.0668235], [-95.9602998, 36.0668347], [-95.9602462, 36.0668091], [-95.9601504, 36.0669399]]]}, "properties": {"osm_id": 1341429930, "building": "yes", "name": "", "height": null, "height_m": null, "levels": null, "tract_id": "40143007643", "tract_name": "76.43", "tags": {"building": "yes", "source": "microsoft/BuildingFootprints"}}}, {"type": "Feature", "geometry": {"type": "Polygon", "coordinates": [[[-95.9605545, 36.0664661], [-95.9603365, 36.0667301], [-95.9604664, 36.0668002], [-95.9606844, 36.0665362], [-95.9605545, 36.0664661]]]}, "properties": {"osm_id": 1341429931, "building": "yes", "name": "", "height": null, "height_m": null, "levels": null, "tract_id": "40143007643", "tract_name": "76.43", "tags": {"building": "yes", "source": "microsoft/BuildingFootprints"}}}, {"type": "Feature", "geometry": {"type": "Polygon", "coordinates": [[[-95.9607843, 36.0674355], [-95.9607122, 36.0673933], [-95.9606, 36.0675184], [-95.9606124, 36.0675256], [-95.9605837, 36.0675576], [-95.9606259, 36.0675823], [-95.9606533, 36.0675518], [-95.9606709, 36.0675621], [-95.9607843, 36.0674355]]]}, "properties": {"osm_id": 1341429932, "building": "yes", "name": "", "height": null, "height_m": null, "levels": null, "tract_id": "40143007643", "tract_name": "76.43", "tags": {"building": "yes", "source": "microsoft/BuildingFootprints"}}}, {"type": "Feature", "geometry": {"type": "Polygon", "coordinates": [[[-95.9603354, 36.0678248], [-95.9607027, 36.0678185], [-95.9606994, 36.0676907], [-95.9603106, 36.0676973], [-95.9603126, 36.0677753], [-95.9603046, 36.0677755], [-95.9603064, 36.0678426], [-95.9603358, 36.0678421], [-95.9603354, 36.0678248]]]}, "properties": {"osm_id": 1341429933, "building": "yes", "name": "", "height": null, "height_m": null, "levels": null, "tract_id": "40143007643", "tract_name": "76.43", "tags": {"building": "yes", "source": "microsoft/BuildingFootprints"}}}, {"type": "Feature", "geometry": {"type": "Polygon", "coordinates": [[[-95.9608154, 36.0677903], [-95.9609591, 36.0678439], [-95.9611183, 36.0675651], [-95.9609746, 36.0675115], [-95.9608154, 36.0677903]]]}, "properties": {"osm_id": 1341429934, "building": "yes", "name": "", "height": null, "height_m": null, "levels": null, "tract_id": "40143007643", "tract_name": "76.43", "tags": {"building": "yes", "source": "microsoft/BuildingFootprints"}}}, {"type": "Feature", "geometry": {"type": "Polygon", "coordinates": [[[-95.9597382, 36.061506], [-95.959733, 36.0611885], [-95.9595775, 36.0611901], [-95.9595769, 36.0611522], [-95.9594374, 36.0611537], [-95.9594432, 36.0615092], [-95.9597382, 36.061506]]]}, "properties": {"osm_id": 1342537487, "building": "yes", "name": "", "height": null, "height_m": null, "levels": null, "tract_id": "40143007643", "tract_name": "76.43", "tags": {"addr:city": "Tulsa", "addr:country": "US", "addr:housenumber": "2323", "addr:postcode": "74136", "addr:state": "OK", "addr:street": "East 71st Street South", "building": "yes"}}}, {"type": "Feature", "geometry": {"type": "Polygon", "coordinates": [[[-95.9594058, 36.061147], [-95.9590881, 36.0611446], [-95.9590849, 36.0614156], [-95.9594026, 36.061418], [-95.9594058, 36.061147]]]}, "properties": {"osm_id": 1342537488, "building": "yes", "name": "", "height": null, "height_m": null, "levels": null, "tract_id": "40143007643", "tract_name": "76.43", "tags": {"addr:city": "Tulsa", "addr:country": "US", "addr:housenumber": "2325", "addr:postcode": "74136", "addr:state": "OK", "addr:street": "East 71st Street South", "building": "yes"}}}, {"type": "Feature", "geometry": {"type": "Polygon", "coordinates": [[[-95.9601491, 36.0749287], [-95.9603233, 36.074956], [-95.9603203, 36.0749685], [-95.9603917, 36.0749797], [-95.9604867, 36.0745826], [-95.9602411, 36.0745442], [-95.9601491, 36.0749287]]]}, "properties": {"osm_id": 1342537589, "building": "yes", "name": "", "height": null, "height_m": null, "levels": null, "tract_id": "40143007643", "tract_name": "76.43", "tags": {"building": "yes", "source": "microsoft/BuildingFootprints"}}}, {"type": "Feature", "geometry": {"type": "Polygon", "coordinates": [[[-95.9603047, 36.0741587], [-95.9602039, 36.0741601], [-95.9602056, 36.0742392], [-95.9601857, 36.0742395], [-95.9601871, 36.0743023], [-95.9603705, 36.0742997], [-95.9603691, 36.0742326], [-95.9603063, 36.0742334], [-95.9603047, 36.0741587]]]}, "properties": {"osm_id": 1342537590, "building": "yes", "name": "", "height": null, "height_m": null, "levels": null, "tract_id": "40143007643", "tract_name": "76.43", "tags": {"building": "yes", "source": "microsoft/BuildingFootprints"}}}, {"type": "Feature", "geometry": {"type": "Polygon", "coordinates": [[[-95.9604424, 36.0742378], [-95.9605457, 36.0742472], [-95.9605615, 36.0741337], [-95.9604582, 36.0741243], [-95.9604424, 36.0742378]]]}, "properties": {"osm_id": 1342537591, "building": "yes", "name": "", "height": null, "height_m": null, "levels": null, "tract_id": "40143007643", "tract_name": "76.43", "tags": {"building": "yes", "source": "microsoft/BuildingFootprints"}}}, {"type": "Feature", "geometry": {"type": "Polygon", "coordinates": [[[-95.960206, 36.0739741], [-95.9603277, 36.073976], [-95.9603306, 36.0738601], [-95.9602088, 36.0738581], [-95.960206, 36.0739741]]]}, "properties": {"osm_id": 1342537592, "building": "yes", "name": "", "height": null, "height_m": null, "levels": null, "tract_id": "40143007643", "tract_name": "76.43", "tags": {"building": "yes", "source": "microsoft/BuildingFootprints"}}}, {"type": "Feature", "geometry": {"type": "Polygon", "coordinates": [[[-95.9595219, 36.0746879], [-95.9598286, 36.0746912], [-95.9598309, 36.0745547], [-95.9595242, 36.0745513], [-95.9595219, 36.0746879]]]}, "properties": {"osm_id": 1342537605, "building": "yes", "name": "", "height": null, "height_m": null, "levels": null, "tract_id": "40143007643", "tract_name": "76.43", "tags": {"building": "yes", "source": "microsoft/BuildingFootprints"}}}, {"type": "Feature", "geometry": {"type": "Polygon", "coordinates": [[[-95.9594952, 36.0746866], [-95.9594921, 36.0745533], [-95.9591822, 36.0745579], [-95.9591852, 36.0746912], [-95.9594952, 36.0746866]]]}, "properties": {"osm_id": 1342537606, "building": "yes", "name": "", "height": null, "height_m": null, "levels": null, "tract_id": "40143007643", "tract_name": "76.43", "tags": {"building": "yes", "source": "microsoft/BuildingFootprints"}}}, {"type": "Feature", "geometry": {"type": "Polygon", "coordinates": [[[-95.9591555, 36.0745565], [-95.9588497, 36.0745544], [-95.9588483, 36.0746888], [-95.959154, 36.0746909], [-95.9591555, 36.0745565]]]}, "properties": {"osm_id": 1342537607, "building": "yes", "name": "", "height": null, "height_m": null, "levels": null, "tract_id": "40143007643", "tract_name": "76.43", "tags": {"building": "yes", "source": "microsoft/BuildingFootprints"}}}, {"type": "Feature", "geometry": {"type": "Polygon", "coordinates": [[[-95.9596126, 36.074197], [-95.9593052, 36.0741959], [-95.959305, 36.0742447], [-95.9592299, 36.0742444], [-95.9592295, 36.0743051], [-95.9590836, 36.0743046], [-95.9590833, 36.0743588], [-95.9589331, 36.0743583], [-95.958933, 36.0743799], [-95.9588579, 36.0743797], [-95.9588572, 36.0745119], [-95.9590127, 36.0745125], [-95.9590128, 36.0744908], [-95.959089, 36.0744911], [-95.9590892, 36.0744499], [-95.9591606, 36.0744501], [-95.9591607, 36.0744371], [-95.9592384, 36.0744374], [-95.9592387, 36.0743832], [-95.9593138, 36.0743835], [-95.9593141, 36.0743358], [-95.9596118, 36.0743368], [-95.9596126, 36.074197]]]}, "properties": {"osm_id": 1342537608, "building": "yes", "name": "", "height": null, "height_m": null, "levels": null, "tract_id": "40143007643", "tract_name": "76.43", "tags": {"building": "yes", "source": "microsoft/BuildingFootprints"}}}, {"type": "Feature", "geometry": {"type": "Polygon", "coordinates": [[[-95.9598239, 36.074199], [-95.959655, 36.0741978], [-95.9596516, 36.0745068], [-95.9598206, 36.0745079], [-95.9598239, 36.074199]]]}, "properties": {"osm_id": 1342537609, "building": "yes", "name": "", "height": null, "height_m": null, "levels": null, "tract_id": "40143007643", "tract_name": "76.43", "tags": {"building": "yes", "source": "microsoft/BuildingFootprints"}}}]}