{"type": "FeatureCollection", "features": [{"type": "Feature", "geometry": {"type": "Polygon", "coordinates": [[[-97.5433668, 35.5263435], [-97.5434153, 35.5261202], [-97.5434392, 35.5260117], [-97.5430342, 35.5256428], [-97.5430486, 35.5255634], [-97.543078, 35.5254017], [-97.5431063, 35.5252454], [-97.5431162, 35.5251909], [-97.5431206, 35.5251505], [-97.5427823, 35.525105], [-97.5427236, 35.5250976], [-97.5422835, 35.5250424], [-97.5422665, 35.5251275], [-97.5422359, 35.5252805], [-97.5422024, 35.5254481], [-97.5421719, 35.5256007], [-97.5421399, 35.5257608], [-97.5421084, 35.5259184], [-97.5420745, 35.5260881], [-97.5420579, 35.526171], [-97.5433668, 35.5263435]]]}, "properties": {"osm_id": 181373565, "building": "yes", "name": "Penn Square Mall Multi-Story Parking", "height": null, "height_m": 9.0, "levels": 3, "tract_id": "40109106503", "tract_name": "1065.03", "tags": {"access": "customers", "amenity": "parking", "building": "yes", "building:levels": "3", "fee": "no", "name": "Penn Square Mall Multi-Story Parking", "parking": "multi-storey"}}}, {"type": "Feature", "geometry": {"type": "Polygon", "coordinates": [[[-97.5456297, 35.524489], [-97.5457186, 35.5240839], [-97.5457569, 35.5239096], [-97.546213, 35.5239694], [-97.5467222, 35.5240362], [-97.5466543, 35.5243634], [-97.5465242, 35.5249908], [-97.546513, 35.5250448], [-97.5466149, 35.5250622], [-97.546521, 35.525518], [-97.5455567, 35.5254062], [-97.5447508, 35.5253128], [-97.5446778, 35.5257216], [-97.5446357, 35.5259572], [-97.5448986, 35.5259965], [-97.5448408, 35.5262914], [-97.5447806, 35.526599], [-97.5441207, 35.5265171], [-97.5435146, 35.5264418], [-97.5435751, 35.526146], [-97.5436379, 35.5258393], [-97.5438471, 35.5258655], [-97.5438793, 35.5257127], [-97.5431951, 35.5256315], [-97.5432624, 35.5252456], [-97.5433, 35.5250622], [-97.5432733, 35.5250586], [-97.5432362, 35.5250541], [-97.5428108, 35.5249966], [-97.5427504, 35.5249886], [-97.5422861, 35.5249269], [-97.5423542, 35.5246101], [-97.5424202, 35.5243026], [-97.5429564, 35.5243686], [-97.5434126, 35.5244248], [-97.5434728, 35.5241329], [-97.543536, 35.5238267], [-97.5439823, 35.5238841], [-97.5443836, 35.5239358], [-97.5443667, 35.5240264], [-97.5443299, 35.524224], [-97.544401, 35.5242295], [-97.5447806, 35.5242807], [-97.5453118, 35.5243505], [-97.5453175, 35.5243355], [-97.5453438, 35.5243211], [-97.5453642, 35.5243231], [-97.5453866, 35.5243253], [-97.5453982, 35.5243411], [-97.5453776, 35.524455], [-97.5456297, 35.524489]]]}, "properties": {"osm_id": 181490054, "building": "retail", "name": "Penn Square Mall", "height": null, "height_m": 6.0, "levels": 2, "tract_id": "40109106503", "tract_name": "1065.03", "tags": {"addr:housename": "Penn Square Mall", "addr:housenumber": "1901", "addr:postcode": "73118", "addr:street": "Northwest Expressway", "building": "retail", "building:levels": "2", "name": "Penn Square Mall", "opening_hours": "Mo-Sa 10:00-20:00; Su 12:00-18:00", "shop": "mall", "website": "https://www.simon.com/mall/penn-square-mall"}}}, {"type": "Feature", "geometry": {"type": "Polygon", "coordinates": [[[-97.5470536, 35.5262394], [-97.5470548, 35.5261057], [-97.5469904, 35.5261057], [-97.5469931, 35.5259441], [-97.5470655, 35.5259463], [-97.5470655, 35.5258393], [-97.5470977, 35.5258415], [-97.5470999, 35.525822], [-97.5471004, 35.5257957], [-97.5472372, 35.5257913], [-97.5472656, 35.525829], [-97.5472886, 35.5258135], [-97.547324, 35.5258133], [-97.5473586, 35.5258394], [-97.5473559, 35.5258763], [-97.5473323, 35.5258946], [-97.5473311, 35.525935], [-97.5473713, 35.5259354], [-97.5473603, 35.526239], [-97.5470536, 35.5262394]]]}, "properties": {"osm_id": 181492797, "building": "yes", "name": "The Cheesecake Factory", "height": null, "height_m": null, "levels": null, "tract_id": "40109106503", "tract_name": "1065.03", "tags": {"addr:city": "Oklahoma City", "addr:state": "OK", "alt_name": "Cheesecake Factory", "amenity": "restaurant", "brand": "The Cheesecake Factory", "brand:wikidata": "Q1045842", "building": "yes", "cuisine": "american", "name": "The Cheesecake Factory"}}}, {"type": "Feature", "geometry": {"type": "Polygon", "coordinates": [[[-97.5465467, 35.5272024], [-97.5463831, 35.5272035], [-97.5463871, 35.527102], [-97.5464166, 35.527102], [-97.5464179, 35.5270245], [-97.5462945, 35.5270245], [-97.5462932, 35.52709], [-97.5462141, 35.5270889], [-97.5462114, 35.5269001], [-97.5462932, 35.5269001], [-97.5462946, 35.5269324], [-97.5463804, 35.5269329], [-97.5463831, 35.526744], [-97.5465494, 35.5267451], [-97.5465467, 35.5269259], [-97.5465212, 35.5269252], [-97.5465213, 35.5271005], [-97.5465507, 35.527102], [-97.5465467, 35.5272024]]]}, "properties": {"osm_id": 181550543, "building": "yes", "name": "UMB Bank", "height": null, "height_m": null, "levels": null, "tract_id": "40109106503", "tract_name": "1065.03", "tags": {"addr:city": "Oklahoma City", "addr:housenumber": "5636", "addr:postcode": "73112", "addr:state": "OK", "addr:street": "North Pennsylvania Avenue", "amenity": "bank", "atm": "yes", "brand": "UMB Bank", "brand:wikidata": "Q7865088", "building": "yes", "name": "UMB Bank", "operator": "UMB Bank"}}}, {"type": "Feature", "geometry": {"type": "Polygon", "coordinates": [[[-97.5431821, 35.5232615], [-97.5430478, 35.5232402], [-97.543044, 35.5232558], [-97.5429888, 35.523247], [-97.5429801, 35.5232837], [-97.5429282, 35.5232755], [-97.5429175, 35.5233204], [-97.5428913, 35.5233162], [-97.5428546, 35.5232689], [-97.5429061, 35.5230303], [-97.5429794, 35.5230409], [-97.5429872, 35.5230054], [-97.5430259, 35.523011], [-97.5430308, 35.5229888], [-97.5430773, 35.5229956], [-97.5431093, 35.5230007], [-97.5431183, 35.522963], [-97.5432146, 35.5229783], [-97.5432417, 35.523013], [-97.5431821, 35.5232615]]]}, "properties": {"osm_id": 181550553, "building": "yes", "name": "Whiskey Cake Kitchen & Bar", "height": null, "height_m": null, "levels": null, "tract_id": "40109106503", "tract_name": "1065.03", "tags": {"addr:city": "Oklahoma City", "addr:housenumber": "1845", "addr:postcode": "73118", "addr:state": "OK", "addr:street": "Northwest Expressway", "amenity": "restaurant", "building": "yes", "cuisine": "american", "name": "Whiskey Cake Kitchen & Bar", "phone": "+1 405 582 2253", "website": "https://whiskeycake.com/"}}}, {"type": "Feature", "geometry": {"type": "Polygon", "coordinates": [[[-97.5405928, 35.5257517], [-97.5408264, 35.5265107], [-97.5408462, 35.5265753], [-97.5408613, 35.5266244], [-97.5390311, 35.5269974], [-97.5389591, 35.5267633], [-97.5388502, 35.5267855], [-97.5388394, 35.5267504], [-97.5386088, 35.5267974], [-97.5385666, 35.5266605], [-97.5388071, 35.5266115], [-97.5387306, 35.5263631], [-97.5384709, 35.526416], [-97.5384053, 35.5262028], [-97.5385101, 35.5261814], [-97.5386583, 35.5261512], [-97.5386463, 35.5261124], [-97.5391819, 35.5260033], [-97.5391508, 35.5259021], [-97.5393342, 35.5258648], [-97.5400832, 35.5257121], [-97.5403203, 35.5256638], [-97.5403618, 35.5257987], [-97.5405928, 35.5257517]]]}, "properties": {"osm_id": 181551093, "building": "retail", "name": "Walmart Supercenter", "height": null, "height_m": null, "levels": null, "tract_id": "40109106503", "tract_name": "1065.03", "tags": {"addr:city": "Oklahoma City", "addr:country": "US", "addr:housenumber": "1801", "addr:postcode": "73118", "addr:state": "OK", "addr:street": "Belle Isle Boulevard", "brand": "Walmart", "brand:wikidata": "Q483551", "building": "retail", "internet_access": "wlan", "name": "Walmart Supercenter", "opening_hours": "Mo-Su 06:00-23:00", "operator": "Walmart", "operator:wikidata": "Q483551", "payment:app:walmart": "yes", "payment:apple_pay": "no", "payment:google_pay": "no", "payment:samsung_pay": "no", "phone": "+1 405-841-6502", "ref": "2804", "ref:walmart": "2804", "sensory_friendly:accommodation": "dimmed_light;static_screens;no_pa", "sensory_friendly:conditional": "yes @ 08:00-10:00", "shop": "supermarket", "website": "https://www.walmart.com/store/2804-oklahoma-city-ok"}}}, {"type": "Feature", "geometry": {"type": "Polygon", "coordinates": [[[-97.535905, 35.5247587], [-97.5361517, 35.524774], [-97.536141, 35.5248548], [-97.5366077, 35.5248089], [-97.5366158, 35.5248395], [-97.5367606, 35.5248242], [-97.536766, 35.5248482], [-97.5369537, 35.5248308], [-97.5369725, 35.524977], [-97.5367772, 35.5249931], [-97.5367874, 35.5250447], [-97.5361356, 35.5250949], [-97.5361356, 35.5251233], [-97.535868, 35.5251022], [-97.535905, 35.5247587]]]}, "properties": {"osm_id": 181615605, "building": "retail", "name": "", "height": null, "height_m": null, "levels": null, "tract_id": "40109106503", "tract_name": "1065.03", "tags": {"building": "retail", "shop": "mall", "source": "Bing"}}}, {"type": "Feature", "geometry": {"type": "Polygon", "coordinates": [[[-97.5355838, 35.525031], [-97.5355119, 35.5248116], [-97.5354272, 35.52483], [-97.535281, 35.5248618], [-97.5353072, 35.5249494], [-97.5353529, 35.5250811], [-97.5354948, 35.5250503], [-97.5355838, 35.525031]]]}, "properties": {"osm_id": 181615608, "building": "yes", "name": "Chili's", "height": null, "height_m": null, "levels": null, "tract_id": "40109106503", "tract_name": "1065.03", "tags": {"addr:housename": "Chili's", "amenity": "restaurant", "brand": "Chili's", "brand:wikidata": "Q1072948", "building": "yes", "cuisine": "tex-mex", "name": "Chili's", "official_name": "Chili's Grill & Bar"}}}, {"type": "Feature", "geometry": {"type": "Polygon", "coordinates": [[[-97.5378009, 35.5235058], [-97.5376751, 35.5236378], [-97.5376536, 35.5236242], [-97.5375825, 35.5236981], [-97.5375645, 35.5237168], [-97.5375428, 35.5237399], [-97.5374858, 35.5238004], [-97.5375131, 35.5238176], [-97.537388, 35.5239489], [-97.5375407, 35.5240507], [-97.5381156, 35.523466], [-97.5380121, 35.5234076], [-97.5378704, 35.5235482], [-97.5378009, 35.5235058]]]}, "properties": {"osm_id": 181616484, "building": "yes", "name": "The Winslow", "height": null, "height_m": 12.0, "levels": 4, "tract_id": "40109106503", "tract_name": "1065.03", "tags": {"addr:city": "Oklahoma City", "addr:housenumber": "1511", "addr:postcode": "73118", "addr:state": "OK", "addr:street": "Northwest Expressway", "branch": "Oklahoma City", "building": "yes", "building:levels": "4", "layer": "1", "name": "The Winslow", "phone": "+1 572 228 1288", "tourism": "hotel", "website": "https://winslowhotels.com/winslow-oklahoma/"}}}, {"type": "Feature", "geometry": {"type": "Polygon", "coordinates": [[[-97.5387294, 35.5232097], [-97.5387374, 35.5226444], [-97.5393342, 35.52265], [-97.5393262, 35.5232153], [-97.5387294, 35.5232097]]]}, "properties": {"osm_id": 181616584, "building": "office", "name": "", "height": null, "height_m": null, "levels": null, "tract_id": "40109106503", "tract_name": "1065.03", "tags": {"building": "office", "building:material": "stone", "source": "Bing"}}}, {"type": "Feature", "geometry": {"type": "Polygon", "coordinates": [[[-97.5412239, 35.524988], [-97.5410147, 35.5242458], [-97.5415893, 35.5238749], [-97.5417604, 35.5240625], [-97.5413417, 35.5243225], [-97.5415203, 35.5249234], [-97.5412239, 35.524988]]]}, "properties": {"osm_id": 182628001, "building": "retail", "name": "", "height": null, "height_m": null, "levels": null, "tract_id": "40109106503", "tract_name": "1065.03", "tags": {"building": "retail", "shop": "mall"}}}, {"type": "Feature", "geometry": {"type": "Polygon", "coordinates": [[[-97.5357602, 35.5263148], [-97.5358592, 35.5263063], [-97.5358552, 35.5262748], [-97.5360101, 35.52626], [-97.5360126, 35.5262958], [-97.5361051, 35.5262926], [-97.5361431, 35.5266139], [-97.5358027, 35.5266431], [-97.5357602, 35.5263148]]]}, "properties": {"osm_id": 182628107, "building": "retail", "name": "Shoe Carnival", "height": null, "height_m": null, "levels": null, "tract_id": "40109106503", "tract_name": "1065.03", "tags": {"brand": "Shoe Carnival", "brand:wikidata": "Q7500007", "building": "retail", "name": "Shoe Carnival", "shop": "shoes", "website": "https://stores.shoecarnival.com/ok/oklahomacity/shoe-store-oklahoma-city-ok-197.html"}}}, {"type": "Feature", "geometry": {"type": "Polygon", "coordinates": [[[-97.5366399, 35.5267648], [-97.537112, 35.5267255], [-97.53712, 35.526767], [-97.5371871, 35.5267605], [-97.5371856, 35.5267486], [-97.5371148, 35.5262017], [-97.5370449, 35.5262082], [-97.5370394, 35.5261714], [-97.5367363, 35.5261998], [-97.5367392, 35.5262387], [-97.5365781, 35.5262565], [-97.536637, 35.5267411], [-97.5366399, 35.5267648]]]}, "properties": {"osm_id": 182628108, "building": "retail", "name": "Ross", "height": null, "height_m": null, "levels": null, "tract_id": "40109106503", "tract_name": "1065.03", "tags": {"addr:city": "Oklahoma City", "addr:housenumber": "1721", "addr:postcode": "73118", "addr:state": "OK", "addr:street": "Belle Isle Boulevard", "brand": "Ross", "brand:wikidata": "Q3442791", "building": "retail", "name": "Ross", "official_name": "Ross Dress for Less", "opening_hours": "Mo-Th 09:30-23:00; Fr-Sa 09:00-23:00; Su 09:30-22:00", "phone": "+1 405-848-4982", "ref": "479", "shop": "department_store"}}}, {"type": "Feature", "geometry": {"type": "Polygon", "coordinates": [[[-97.5382964, 35.5268467], [-97.5382057, 35.5261148], [-97.5380624, 35.5261266], [-97.5380574, 35.5260861], [-97.5378501, 35.5261031], [-97.5378551, 35.526143], [-97.537718, 35.5261542], [-97.5377849, 35.526694], [-97.537801, 35.5268232], [-97.5382043, 35.5267901], [-97.5382122, 35.5268537], [-97.5382964, 35.5268467]]]}, "properties": {"osm_id": 182628109, "building": "yes", "name": "Nordstrom Rack", "height": null, "height_m": null, "levels": null, "tract_id": "40109106503", "tract_name": "1065.03", "tags": {"brand": "Nordstrom Rack", "brand:wikidata": "Q21463374", "building": "yes", "name": "Nordstrom Rack", "shop": "clothes"}}}, {"type": "Feature", "geometry": {"type": "Polygon", "coordinates": [[[-97.5371856, 35.5267486], [-97.537265, 35.5267387], [-97.5372704, 35.5268086], [-97.5374313, 35.5267999], [-97.5374689, 35.5267213], [-97.5377849, 35.526694], [-97.537718, 35.5261542], [-97.5371148, 35.5262017], [-97.5371856, 35.5267486]]]}, "properties": {"osm_id": 182628110, "building": "retail", "name": "REI", "height": null, "height_m": null, "levels": null, "tract_id": "40109106503", "tract_name": "1065.03", "tags": {"addr:city": "Oklahoma City", "addr:housenumber": "1731", "addr:postcode": "73118", "addr:state": "OK", "addr:street": "Belle Isle Boulevard", "brand": "REI", "brand:wikidata": "Q3414933", "building": "retail", "name": "REI", "official_name": "Recreational Equipment, Inc.", "phone": "+1-405-607-7226", "service:bicycle:repair": "yes", "service:bicycle:retail": "yes", "shop": "outdoor", "website": "https://www.rei.com/stores/oklahoma-city"}}}, {"type": "Feature", "geometry": {"type": "Polygon", "coordinates": [[[-97.5361652, 35.5267714], [-97.536637, 35.5267411], [-97.5365781, 35.5262565], [-97.5361051, 35.5262926], [-97.5361431, 35.5266139], [-97.5361652, 35.5267714]]]}, "properties": {"osm_id": 182628111, "building": "retail", "name": "", "height": null, "height_m": null, "levels": null, "tract_id": "40109106503", "tract_name": "1065.03", "tags": {"building": "retail", "shop": "mall"}}}, {"type": "Feature", "geometry": {"type": "Polygon", "coordinates": [[[-97.5381508, 35.5228913], [-97.5381464, 35.5226695], [-97.5381303, 35.5226697], [-97.5381298, 35.5226443], [-97.538129, 35.5226059], [-97.5380134, 35.5226074], [-97.5380149, 35.5226857], [-97.538019, 35.522893], [-97.5381508, 35.5228913]]]}, "properties": {"osm_id": 182803569, "building": "retail", "name": "McDonald's", "height": null, "height_m": null, "levels": null, "tract_id": "40109106503", "tract_name": "1065.03", "tags": {"addr:city": "Oklahoma City", "addr:housenumber": "1535", "addr:postcode": "73118-4411", "addr:state": "OK", "addr:street": "Northwest 50th Street", "amenity": "fast_food", "brand": "McDonald's", "brand:wikidata": "Q38076", "building": "retail", "cuisine": "burger", "drive_through": "yes", "internet_access": "wlan", "name": "McDonald's", "opening_hours": "06:00-22:00", "phone": "+1 405-858-0100", "takeaway": "yes", "website": "https://www.mcdonalds.com/us/en-us/location/3384.html"}}}, {"type": "Feature", "geometry": {"type": "Polygon", "coordinates": [[[-97.5376646, 35.5228486], [-97.5376647, 35.5228291], [-97.5377108, 35.5228293], [-97.5377112, 35.5227536], [-97.5376898, 35.5227536], [-97.5376901, 35.522688], [-97.5376633, 35.5226879], [-97.5376634, 35.522666], [-97.5375095, 35.5226655], [-97.5375094, 35.5226852], [-97.5373884, 35.5226848], [-97.5373885, 35.5226538], [-97.537306, 35.5226535], [-97.5373061, 35.522638], [-97.5372847, 35.5226394], [-97.5372465, 35.5226393], [-97.5371988, 35.5226376], [-97.5371987, 35.5226617], [-97.5371073, 35.5226614], [-97.5371071, 35.5226832], [-97.5368385, 35.5226823], [-97.5368384, 35.5227091], [-97.5368117, 35.5227091], [-97.5368112, 35.5228093], [-97.536838, 35.5228094], [-97.5368379, 35.5228379], [-97.5371075, 35.5228387], [-97.5371074, 35.5228603], [-97.5371943, 35.5228605], [-97.5371942, 35.5228799], [-97.5372985, 35.5228802], [-97.5372986, 35.522865], [-97.5373851, 35.5228653], [-97.5373851, 35.5228479], [-97.5376646, 35.5228486]]]}, "properties": {"osm_id": 182804098, "building": "hotel", "name": "Courtyard Oklahoma City Northwest", "height": null, "height_m": 12.0, "levels": 4, "tract_id": "40109106503", "tract_name": "1065.03", "tags": {"addr:city": "Oklahoma City", "addr:housenumber": "1515", "addr:postcode": "73118", "addr:state": "OK", "addr:street": "Northwest Expressway", "air_conditioning": "yes", "branch": "Oklahoma City Northwest", "brand": "Courtyard", "brand:wikidata": "Q1053170", "building": "hotel", "building:levels": "4", "internet_access": "wlan", "name": "Courtyard Oklahoma City Northwest", "official_name": "Courtyard by Marriott", "phone": "+1 405-848-0808", "ref": "OKCNW", "tourism": "hotel", "website": "https://www.marriott.com/okcnw", "wheelchair": "yes"}}}, {"type": "Feature", "geometry": {"type": "Polygon", "coordinates": [[[-97.5466043, 35.5124002], [-97.5466054, 35.5122901], [-97.5464697, 35.5122892], [-97.5464701, 35.5122452], [-97.5464558, 35.5122451], [-97.5462136, 35.5122436], [-97.5462121, 35.5123977], [-97.5466043, 35.5124002]]]}, "properties": {"osm_id": 182917782, "building": "commercial", "name": "Braum's", "height": null, "height_m": null, "levels": null, "tract_id": "40109106503", "tract_name": "1065.03", "tags": {"amenity": "fast_food", "brand": "Braum's", "brand:wikidata": "Q4958263", "building": "commercial", "cuisine": "ice_cream;burger", "name": "Braum's", "shop": "dairy", "takeaway": "yes"}}}, {"type": "Feature", "geometry": {"type": "Polygon", "coordinates": [[[-97.5466982, 35.5118619], [-97.5466167, 35.511861], [-97.5466204, 35.5115922], [-97.5467009, 35.5115922], [-97.5466982, 35.5118619]]]}, "properties": {"osm_id": 182918378, "building": "roof", "name": "Casey's General Store", "height": null, "height_m": null, "levels": null, "tract_id": "40109106503", "tract_name": "1065.03", "tags": {"amenity": "fuel", "brand": "casey's", "building": "roof", "layer": "1", "name": "Casey's General Store"}}}, {"type": "Feature", "geometry": {"type": "Polygon", "coordinates": [[[-97.5464431, 35.5118867], [-97.5463079, 35.5118874], [-97.5463059, 35.5116079], [-97.5464457, 35.5116073], [-97.546442, 35.5117463], [-97.5464431, 35.5118867]]]}, "properties": {"osm_id": 182918379, "building": "yes", "name": "Casey's", "height": null, "height_m": null, "levels": null, "tract_id": "40109106503", "tract_name": "1065.03", "tags": {"building": "yes", "description": "Fuel and Convenience Store", "name": "Casey's", "shop": "convenience"}}}, {"type": "Feature", "geometry": {"type": "Polygon", "coordinates": [[[-97.5353869, 35.5238692], [-97.5353866, 35.523838], [-97.535386, 35.5238113], [-97.5354128, 35.5238113], [-97.5354128, 35.5237567], [-97.5356408, 35.5237578], [-97.5356435, 35.5239979], [-97.5354052, 35.5239966], [-97.5354048, 35.5239313], [-97.5353938, 35.5239311], [-97.5353955, 35.5238697], [-97.5353869, 35.5238692]]]}, "properties": {"osm_id": 183104090, "building": "yes", "name": "IHOP", "height": null, "height_m": null, "levels": null, "tract_id": "40109106503", "tract_name": "1065.03", "tags": {"amenity": "restaurant", "brand": "IHOP", "brand:wikidata": "Q1185675", "building": "yes", "cuisine": "breakfast;pancake", "name": "IHOP"}}}, {"type": "Feature", "geometry": {"type": "Polygon", "coordinates": [[[-97.535567, 35.5234238], [-97.5355723, 35.5231987], [-97.5354625, 35.5231969], [-97.5354629, 35.5231513], [-97.5353206, 35.5231507], [-97.5353203, 35.5231953], [-97.5353156, 35.5232031], [-97.5353021, 35.5232042], [-97.5352871, 35.5232106], [-97.535275, 35.5232187], [-97.535266, 35.5232319], [-97.535262, 35.5232466], [-97.5351282, 35.5232474], [-97.5351325, 35.5234424], [-97.5352357, 35.5234435], [-97.5352351, 35.5234189], [-97.535567, 35.5234238]]]}, "properties": {"osm_id": 183104784, "building": "yes", "name": "Casa De Los Milagros Mexican Restaurant And Cantina", "height": null, "height_m": null, "levels": null, "tract_id": "40109106503", "tract_name": "1065.03", "tags": {"amenity": "restaurant", "building": "yes", "cuisine": "mexican", "name": "Casa De Los Milagros Mexican Restaurant And Cantina", "wheelchair": "limited"}}}, {"type": "Feature", "geometry": {"type": "Polygon", "coordinates": [[[-97.544452, 35.5219919], [-97.5443662, 35.521993], [-97.5443662, 35.5219668], [-97.544334, 35.5219668], [-97.5443317, 35.5220036], [-97.5442254, 35.5220017], [-97.5442281, 35.5219766], [-97.5442173, 35.5219657], [-97.5441798, 35.5219962], [-97.5441637, 35.5219821], [-97.5441422, 35.5219657], [-97.5441637, 35.5219428], [-97.5441637, 35.5219373], [-97.5441037, 35.521937], [-97.5441033, 35.5218762], [-97.5441396, 35.521874], [-97.5441382, 35.5218129], [-97.5441382, 35.5217594], [-97.5442321, 35.5217572], [-97.5442308, 35.5217354], [-97.5444426, 35.5217343], [-97.544444, 35.521874], [-97.5444681, 35.5218729], [-97.5444668, 35.5219329], [-97.544452, 35.5219351], [-97.544452, 35.5219919]]]}, "properties": {"osm_id": 184597625, "building": "yes", "name": "Olive Garden", "height": null, "height_m": null, "levels": null, "tract_id": "40109106503", "tract_name": "1065.03", "tags": {"addr:city": "Oklahoma City", "addr:housenumber": "1844", "addr:postcode": "73118", "addr:state": "OK", "addr:street": "Northwest Expressway", "amenity": "restaurant", "brand": "Olive Garden", "brand:wikidata": "Q3045312", "building": "yes", "cuisine": "italian", "name": "Olive Garden"}}}, {"type": "Feature", "geometry": {"type": "Polygon", "coordinates": [[[-97.547044, 35.5223736], [-97.5470443, 35.5224169], [-97.547045, 35.5224978], [-97.5471488, 35.5224993], [-97.5471488, 35.522545], [-97.5471488, 35.5225825], [-97.5471489, 35.5226278], [-97.5471489, 35.5226749], [-97.5472333, 35.522675], [-97.5472333, 35.5226285], [-97.5472333, 35.5225844], [-97.5472333, 35.5225469], [-97.5472333, 35.522508], [-97.5473687, 35.522508], [-97.5473687, 35.5224524], [-97.5474117, 35.5224513], [-97.5474117, 35.5224138], [-97.5474117, 35.522376], [-97.547044, 35.5223736]]]}, "properties": {"osm_id": 187554825, "building": "yes", "name": "Red Carpet Car Wash", "height": null, "height_m": null, "levels": null, "tract_id": "40109106503", "tract_name": "1065.03", "tags": {"addr:city": "Oklahoma City", "addr:housenumber": "5100", "addr:postcode": "73112", "addr:state": "OK", "addr:street": "North Pennsylvania Avenue", "amenity": "car_wash", "building": "yes", "name": "Red Carpet Car Wash"}}}, {"type": "Feature", "geometry": {"type": "Polygon", "coordinates": [[[-97.5461357, 35.5222977], [-97.5461448, 35.5217037], [-97.545096, 35.5217006], [-97.5450084, 35.5217003], [-97.5450138, 35.5219448], [-97.5449762, 35.5219448], [-97.5449748, 35.5219955], [-97.5449735, 35.5220431], [-97.5450099, 35.5220462], [-97.5450093, 35.5222832], [-97.5452435, 35.5222862], [-97.5457908, 35.5222933], [-97.5461357, 35.5222977]]]}, "properties": {"osm_id": 187554827, "building": "retail", "name": "50 Penn Place", "height": null, "height_m": 9.0, "levels": 3, "tract_id": "40109106503", "tract_name": "1065.03", "tags": {"building": "retail", "building:levels": "3", "name": "50 Penn Place", "roof:shape": "flat", "source": "Bing"}}}, {"type": "Feature", "geometry": {"type": "Polygon", "coordinates": [[[-97.5328303, 35.5340849], [-97.5326305, 35.534158], [-97.5325836, 35.5340784], [-97.5326292, 35.534062], [-97.5326023, 35.534014], [-97.5326815, 35.5339867], [-97.5326895, 35.5339998], [-97.5327123, 35.5339922], [-97.5327204, 35.5340063], [-97.5327794, 35.5339889], [-97.5328303, 35.5340849]]]}, "properties": {"osm_id": 230874859, "building": "yes", "name": "", "height": null, "height_m": null, "levels": null, "tract_id": "40109106503", "tract_name": "1065.03", "tags": {"building": "yes"}}}, {"type": "Feature", "geometry": {"type": "Polygon", "coordinates": [[[-97.5326614, 35.5333472], [-97.5333118, 35.533345], [-97.5333091, 35.5334105], [-97.533293, 35.5334105], [-97.5332917, 35.5334312], [-97.5331857, 35.5334323], [-97.5331857, 35.5334989], [-97.5328437, 35.5334978], [-97.5328424, 35.5335545], [-97.5328665, 35.5335567], [-97.5328679, 35.5336429], [-97.5330717, 35.5336386], [-97.5330744, 35.5338066], [-97.5329309, 35.5338066], [-97.5329269, 35.533823], [-97.5328209, 35.533823], [-97.5328236, 35.5338066], [-97.532664, 35.5338088], [-97.5326707, 35.5336407], [-97.5325742, 35.5336386], [-97.5325742, 35.533548], [-97.5326667, 35.533548], [-97.5326614, 35.5333472]]]}, "properties": {"osm_id": 230874860, "building": "yes", "name": "", "height": null, "height_m": null, "levels": null, "tract_id": "40109106503", "tract_name": "1065.03", "tags": {"building": "yes", "shop": "funeral_directors"}}}, {"type": "Feature", "geometry": {"type": "Polygon", "coordinates": [[[-97.5400796, 35.522938], [-97.5399187, 35.5229374], [-97.5399181, 35.5230388], [-97.540079, 35.5230394], [-97.5400796, 35.522938]]]}, "properties": {"osm_id": 246343102, "building": "yes", "name": "", "height": null, "height_m": null, "levels": null, "tract_id": "40109106503", "tract_name": "1065.03", "tags": {"building": "yes", "source": "Bing"}}}, {"type": "Feature", "geometry": {"type": "Polygon", "coordinates": [[[-97.5392363, 35.5231055], [-97.5392037, 35.5231056], [-97.5391883, 35.523092], [-97.5391714, 35.5231054], [-97.5389057, 35.5231056], [-97.5388925, 35.5230937], [-97.5388766, 35.5231067], [-97.5388451, 35.5231084], [-97.5388485, 35.5230851], [-97.5388617, 35.5230722], [-97.5388481, 35.5230603], [-97.538847, 35.5228083], [-97.5388625, 35.5227918], [-97.5388443, 35.5227764], [-97.5388443, 35.5227544], [-97.538869, 35.5227536], [-97.5388906, 35.5227701], [-97.5389038, 35.5227535], [-97.5391741, 35.5227549], [-97.5391898, 35.5227674], [-97.5392083, 35.5227554], [-97.5392377, 35.5227543], [-97.539236, 35.5227807], [-97.5392196, 35.5227923], [-97.5392384, 35.5228086], [-97.5392386, 35.5230508], [-97.539227, 35.5230663], [-97.5392391, 35.5230814], [-97.5392363, 35.5231055]]]}, "properties": {"osm_id": 246343103, "building": "office", "name": "", "height": null, "height_m": 66.0, "levels": 22, "tract_id": "40109106503", "tract_name": "1065.03", "tags": {"building": "office", "building:colour": "black", "building:levels": "22", "building:material": "glass", "source": "Bing"}}}, {"type": "Feature", "geometry": {"type": "Polygon", "coordinates": [[[-97.5365483, 35.5224883], [-97.5365519, 35.5228255], [-97.5362046, 35.522828], [-97.5362009, 35.5224908], [-97.5365483, 35.5224883]]]}, "properties": {"osm_id": 248402853, "building": "yes", "name": "", "height": null, "height_m": null, "levels": null, "tract_id": "40109106503", "tract_name": "1065.03", "tags": {"addr:housenumber": "1433", "building": "yes", "roof:shape": "flat", "source": "Bing"}}}, {"type": "Feature", "geometry": {"type": "Polygon", "coordinates": [[[-97.5375825, 35.5236981], [-97.5375544, 35.5236802], [-97.5375786, 35.5236573], [-97.5374995, 35.5236049], [-97.5374583, 35.5236483], [-97.5374176, 35.5236912], [-97.5374968, 35.523737], [-97.5375142, 35.5237185], [-97.5375428, 35.5237399], [-97.5375645, 35.5237168], [-97.5375825, 35.5236981]]]}, "properties": {"osm_id": 248403007, "building": "carport", "name": "", "height": null, "height_m": null, "levels": null, "tract_id": "40109106503", "tract_name": "1065.03", "tags": {"building": "carport", "source": "Bing"}}}, {"type": "Feature", "geometry": {"type": "Polygon", "coordinates": [[[-97.5360581, 35.5227376], [-97.5360575, 35.5225002], [-97.5359076, 35.522502], [-97.5359075, 35.5225484], [-97.5359109, 35.5227369], [-97.5360581, 35.5227376]]]}, "properties": {"osm_id": 248403514, "building": "yes", "name": "", "height": null, "height_m": null, "levels": null, "tract_id": "40109106503", "tract_name": "1065.03", "tags": {"building": "yes", "source": "Bing"}}}, {"type": "Feature", "geometry": {"type": "Polygon", "coordinates": [[[-97.5359109, 35.5227369], [-97.5358749, 35.5227362], [-97.5358742, 35.5225482], [-97.5359075, 35.5225484], [-97.5359109, 35.5227369]]]}, "properties": {"osm_id": 248403515, "building": "yes", "name": "", "height": null, "height_m": null, "levels": null, "tract_id": "40109106503", "tract_name": "1065.03", "tags": {"building": "yes", "source": "Bing"}}}, {"type": "Feature", "geometry": {"type": "Polygon", "coordinates": [[[-97.5356481, 35.5228181], [-97.5356482, 35.5228021], [-97.5356485, 35.5227629], [-97.5354713, 35.5227626], [-97.535472, 35.5228034], [-97.5354722, 35.5228175], [-97.5356481, 35.5228181]]]}, "properties": {"osm_id": 248403517, "building": "yes", "name": "", "height": null, "height_m": null, "levels": null, "tract_id": "40109106503", "tract_name": "1065.03", "tags": {"building": "yes", "source": "Bing"}}}, {"type": "Feature", "geometry": {"type": "Polygon", "coordinates": [[[-97.5372847, 35.5226394], [-97.537285, 35.5225613], [-97.5371899, 35.5225611], [-97.5371896, 35.5226391], [-97.5372465, 35.5226393], [-97.5372847, 35.5226394]]]}, "properties": {"osm_id": 248403537, "building": "roof", "name": "", "height": null, "height_m": null, "levels": null, "tract_id": "40109106503", "tract_name": "1065.03", "tags": {"building": "roof", "layer": "1", "source": "Bing"}}}, {"type": "Feature", "geometry": {"type": "Polygon", "coordinates": [[[-97.5461053, 35.5221479], [-97.5461045, 35.521847], [-97.5456753, 35.521847], [-97.5456699, 35.5221461], [-97.5461053, 35.5221479]]]}, "properties": {"osm_id": 248404387, "building": "office", "name": "", "height": null, "height_m": 48.0, "levels": 16, "tract_id": "40109106503", "tract_name": "1065.03", "tags": {"building": "office", "building:colour": "black", "building:levels": "16", "building:material": "glass", "roof:shape": "flat", "source": "Bing"}}}, {"type": "Feature", "geometry": {"type": "Polygon", "coordinates": [[[-97.5461483, 35.5225232], [-97.5465819, 35.5225281], [-97.546587, 35.5224409], [-97.546597, 35.5222704], [-97.5466075, 35.5220904], [-97.5466178, 35.5219147], [-97.5466289, 35.5217591], [-97.5466374, 35.5215786], [-97.546642, 35.5215097], [-97.5461605, 35.5215097], [-97.5461663, 35.5214226], [-97.5461698, 35.5213707], [-97.5450969, 35.5213642], [-97.5450967, 35.521441], [-97.545096, 35.5217006], [-97.5461448, 35.5217037], [-97.5461357, 35.5222977], [-97.5461513, 35.5222996], [-97.5461483, 35.5225232]]]}, "properties": {"osm_id": 248404389, "building": "yes", "name": "", "height": null, "height_m": null, "levels": null, "tract_id": "40109106503", "tract_name": "1065.03", "tags": {"amenity": "parking", "building": "yes", "parking": "multi-storey", "source": "Bing"}}}, {"type": "Feature", "geometry": {"type": "Polygon", "coordinates": [[[-97.5304574, 35.5366854], [-97.5301034, 35.5366876], [-97.5300999, 35.5366228], [-97.5301428, 35.5366228], [-97.5301471, 35.5365551], [-97.5301242, 35.5365551], [-97.5301294, 35.5362998], [-97.5304601, 35.5363034], [-97.5304574, 35.5363864], [-97.5303501, 35.5363842], [-97.5303492, 35.5365553], [-97.5303411, 35.5365575], [-97.5303394, 35.5365893], [-97.5304574, 35.5365893], [-97.5304574, 35.5366854]]]}, "properties": {"osm_id": 269465420, "building": "yes", "name": "", "height": null, "height_m": null, "levels": null, "tract_id": "40109106503", "tract_name": "1065.03", "tags": {"building": "yes", "building:colour": "maroon", "building:material": "brick", "roof:shape": "flat", "source": "Bing"}}}, {"type": "Feature", "geometry": {"type": "Polygon", "coordinates": [[[-97.5341186, 35.5364518], [-97.5340807, 35.5364664], [-97.5340973, 35.5364912], [-97.5340374, 35.536513], [-97.5340232, 35.5364874], [-97.5340081, 35.5364937], [-97.5340238, 35.5365179], [-97.5339928, 35.5365291], [-97.5339788, 35.5365054], [-97.5338603, 35.5365508], [-97.5338451, 35.5365217], [-97.5338209, 35.5365326], [-97.5337879, 35.5364766], [-97.5338182, 35.5364693], [-97.5337423, 35.5363391], [-97.533778, 35.5363252], [-97.5337646, 35.5363012], [-97.533829, 35.5362729], [-97.5338477, 35.5363012], [-97.5340006, 35.5362423], [-97.5341186, 35.5364518]]]}, "properties": {"osm_id": 269465537, "building": "office", "name": "", "height": null, "height_m": 15.0, "levels": 5, "tract_id": "40109106503", "tract_name": "1065.03", "tags": {"building": "office", "building:colour": "white", "building:levels": "5", "roof:shape": "flat", "source": "Bing"}}}, {"type": "Feature", "geometry": {"type": "Polygon", "coordinates": [[[-97.5462314, 35.5349], [-97.5459685, 35.5349], [-97.5459712, 35.5352296], [-97.5458552, 35.5353242], [-97.5458183, 35.5352928], [-97.5457077, 35.5353831], [-97.5457432, 35.5354151], [-97.5456352, 35.5355075], [-97.5452229, 35.5355046], [-97.5452255, 35.5357272], [-97.5457747, 35.535728], [-97.5462361, 35.5353504], [-97.5462314, 35.5349]]]}, "properties": {"osm_id": 269466486, "building": "yes", "name": "Renaissance Waterford Oklahoma City Hotel", "height": null, "height_m": 12.0, "levels": 4, "tract_id": "40109106503", "tract_name": "1065.03", "tags": {"addr:city": "Oklahoma City", "addr:housenumber": "6300", "addr:postcode": "73118", "addr:state": "OK", "addr:street": "Waterford Boulevard", "brand": "Renaissance", "brand:wikidata": "Q2143252", "building": "yes", "building:colour": "maroon", "building:levels": "4", "building:material": "brick", "internet_access": "wlan", "internet_access:fee": "no", "name": "Renaissance Waterford Oklahoma City Hotel", "phone": "+1 405 848 4782", "roof:colour": "white", "roof:shape": "flat", "source": "Bing", "tourism": "hotel", "website": "https://www.marriott.co.uk/hotels/travel/okcbw-renaissance-waterford-oklahoma-city-hotel/"}}}, {"type": "Feature", "geometry": {"type": "Polygon", "coordinates": [[[-97.5472497, 35.5356086], [-97.54696, 35.5356079], [-97.5469625, 35.5349768], [-97.5472521, 35.5349775], [-97.5472497, 35.5356086]]]}, "properties": {"osm_id": 269466487, "building": "hotel", "name": "", "height": null, "height_m": 12.0, "levels": 4, "tract_id": "40109106503", "tract_name": "1065.03", "tags": {"building": "hotel", "building:colour": "maroon", "building:levels": "4", "building:material": "brick", "roof:colour": "white", "roof:shape": "flat", "source": "Bing"}}}, {"type": "Feature", "geometry": {"type": "Polygon", "coordinates": [[[-97.5460758, 35.5363427], [-97.5453087, 35.5363383], [-97.5453114, 35.5365784], [-97.5460778, 35.5365836], [-97.5460758, 35.5363427]]]}, "properties": {"osm_id": 269466488, "building": "hotel", "name": "", "height": null, "height_m": 9.0, "levels": 3, "tract_id": "40109106503", "tract_name": "1065.03", "tags": {"building": "hotel", "building:colour": "maroon", "building:levels": "3", "building:material": "brick", "roof:colour": "white", "roof:shape": "flat", "source": "Bing"}}}, {"type": "Feature", "geometry": {"type": "Polygon", "coordinates": [[[-97.5469975, 35.5358625], [-97.5467939, 35.5356965], [-97.5461485, 35.5362204], [-97.5463521, 35.5363865], [-97.5469975, 35.5358625]]]}, "properties": {"osm_id": 269466489, "building": "hotel", "name": "", "height": null, "height_m": 12.0, "levels": 4, "tract_id": "40109106503", "tract_name": "1065.03", "tags": {"building": "hotel", "building:colour": "maroon", "building:levels": "4", "building:material": "brick", "roof:colour": "white", "roof:shape": "flat", "source": "Bing"}}}, {"type": "Feature", "geometry": {"type": "Polygon", "coordinates": [[[-97.5452028, 35.5359313], [-97.5450067, 35.5359325], [-97.5450074, 35.5360116], [-97.5452035, 35.5360105], [-97.5452028, 35.5359313]]]}, "properties": {"osm_id": 269466490, "building": "yes", "name": "", "height": null, "height_m": null, "levels": null, "tract_id": "40109106503", "tract_name": "1065.03", "tags": {"building": "yes", "roof:colour": "white", "roof:shape": "flat", "source": "Bing"}}}, {"type": "Feature", "geometry": {"type": "Polygon", "coordinates": [[[-97.5449386, 35.5350114], [-97.5447214, 35.5348302], [-97.5448099, 35.5347582], [-97.5448416, 35.5347815], [-97.5450835, 35.5345792], [-97.545062, 35.5345617], [-97.545183, 35.5344616], [-97.5453919, 35.5346381], [-97.5453302, 35.5346862], [-97.5453061, 35.5346665], [-97.5451389, 35.5348031], [-97.5449783, 35.5349343], [-97.5450084, 35.5349612], [-97.5449386, 35.5350114]]]}, "properties": {"osm_id": 269671205, "building": "yes", "name": "Waterford Marriott", "height": null, "height_m": 27.0, "levels": 9, "tract_id": "40109106503", "tract_name": "1065.03", "tags": {"building": "yes", "building:colour": "maroon", "building:levels": "9", "building:material": "brick", "building:part": "yes", "name": "Waterford Marriott", "roof:colour": "white", "roof:shape": "gray", "source": "Bing", "tourism": "hotel"}}}, {"type": "Feature", "geometry": {"type": "Polygon", "coordinates": [[[-97.5449386, 35.5350114], [-97.544936, 35.53521], [-97.5446838, 35.53521], [-97.5446838, 35.5347451], [-97.5446645, 35.5347313], [-97.5447423, 35.5346702], [-97.5448045, 35.5347254], [-97.5451532, 35.5344373], [-97.545183, 35.5344616], [-97.545062, 35.5345617], [-97.5450835, 35.5345792], [-97.5448416, 35.5347815], [-97.5448099, 35.5347582], [-97.5447214, 35.5348302], [-97.5449386, 35.5350114]]]}, "properties": {"osm_id": 269968196, "building": "yes", "name": "", "height": null, "height_m": null, "levels": null, "tract_id": "40109106503", "tract_name": "1065.03", "tags": {"building": "yes", "building:colour": "maroon", "building:material": "brick", "building:part": "yes", "roof:colour": "white", "roof:shape": "gray", "source": "Bing"}}}, {"type": "Feature", "geometry": {"type": "Polygon", "coordinates": [[[-97.5393806, 35.5333232], [-97.5392947, 35.5333394], [-97.5391826, 35.5330246], [-97.5391699, 35.5330274], [-97.5391615, 35.533002], [-97.5392622, 35.5329799], [-97.539271, 35.5330065], [-97.539262, 35.5330084], [-97.5393806, 35.5333232]]]}, "properties": {"osm_id": 275605781, "building": "yes", "name": "", "height": null, "height_m": null, "levels": null, "tract_id": "40109106503", "tract_name": "1065.03", "tags": {"building": "yes", "source": "Bing"}}}, {"type": "Feature", "geometry": {"type": "Polygon", "coordinates": [[[-97.5470469, 35.5155931], [-97.5470469, 35.5155009], [-97.5469212, 35.5155078], [-97.5468834, 35.5154771], [-97.5468751, 35.5153918], [-97.5467367, 35.5153884], [-97.5467451, 35.5156033], [-97.5470469, 35.5155931]]]}, "properties": {"osm_id": 332534790, "building": "yes", "name": "", "height": null, "height_m": null, "levels": null, "tract_id": "40109106503", "tract_name": "1065.03", "tags": {"building": "yes", "compressed_air": "no", "disused:amenity": "fuel"}}}, {"type": "Feature", "geometry": {"type": "Polygon", "coordinates": [[[-97.5474216, 35.5225878], [-97.5473858, 35.5225884], [-97.5473377, 35.5225893], [-97.5473349, 35.5225203], [-97.5473848, 35.5225189], [-97.5474197, 35.5225179], [-97.5474216, 35.5225878]]]}, "properties": {"osm_id": 335519074, "building": "yes", "name": "", "height": null, "height_m": null, "levels": null, "tract_id": "40109106503", "tract_name": "1065.03", "tags": {"building": "yes"}}}, {"type": "Feature", "geometry": {"type": "Polygon", "coordinates": [[[-97.5458163, 35.5116866], [-97.5458148, 35.5115529], [-97.5456894, 35.5115538], [-97.5456909, 35.5116875], [-97.5458163, 35.5116866]]]}, "properties": {"osm_id": 471715085, "building": "yes", "name": "", "height": null, "height_m": null, "levels": null, "tract_id": "40109106503", "tract_name": "1065.03", "tags": {"building": "yes"}}}, {"type": "Feature", "geometry": {"type": "Polygon", "coordinates": [[[-97.5453443, 35.5118831], [-97.5453433, 35.5115666], [-97.5451998, 35.5115669], [-97.5452008, 35.5118834], [-97.5453443, 35.5118831]]]}, "properties": {"osm_id": 471715086, "building": "yes", "name": "", "height": null, "height_m": null, "levels": null, "tract_id": "40109106503", "tract_name": "1065.03", "tags": {"building": "yes"}}}, {"type": "Feature", "geometry": {"type": "Polygon", "coordinates": [[[-97.5460002, 35.5121468], [-97.5459997, 35.5120472], [-97.5459031, 35.5120475], [-97.5459037, 35.5121472], [-97.5460002, 35.5121468]]]}, "properties": {"osm_id": 471715088, "building": "yes", "name": "", "height": null, "height_m": null, "levels": null, "tract_id": "40109106503", "tract_name": "1065.03", "tags": {"building": "yes"}}}, {"type": "Feature", "geometry": {"type": "Polygon", "coordinates": [[[-97.546005, 35.5124101], [-97.5460008, 35.5123271], [-97.5458762, 35.5123313], [-97.5458804, 35.5124143], [-97.546005, 35.5124101]]]}, "properties": {"osm_id": 471715089, "building": "yes", "name": "", "height": null, "height_m": null, "levels": null, "tract_id": "40109106503", "tract_name": "1065.03", "tags": {"building": "yes"}}}, {"type": "Feature", "geometry": {"type": "Polygon", "coordinates": [[[-97.5472678, 35.5185998], [-97.5472679, 35.518522], [-97.5471664, 35.5185219], [-97.5471665, 35.5184659], [-97.5470687, 35.5184659], [-97.5470686, 35.5185997], [-97.5472678, 35.5185998]]]}, "properties": {"osm_id": 669376242, "building": "house", "name": "", "height": null, "height_m": null, "levels": null, "tract_id": "40109106503", "tract_name": "1065.03", "tags": {"addr:city": "Oklahoma City", "addr:housenumber": "2041", "addr:postcode": "73112", "addr:state": "OK", "addr:street": "Northwest 46th Street", "building": "house"}}}, {"type": "Feature", "geometry": {"type": "Polygon", "coordinates": [[[-97.5470496, 35.5185607], [-97.5470499, 35.5184705], [-97.5468354, 35.51847], [-97.5468349, 35.5185976], [-97.5470017, 35.518598], [-97.5470017, 35.5185789], [-97.5470142, 35.518579], [-97.5470143, 35.5185606], [-97.5470496, 35.5185607]]]}, "properties": {"osm_id": 669376243, "building": "house", "name": "", "height": null, "height_m": null, "levels": null, "tract_id": "40109106503", "tract_name": "1065.03", "tags": {"addr:city": "Oklahoma City", "addr:housenumber": "2037", "addr:postcode": "73112", "addr:state": "OK", "addr:street": "Northwest 46th Street", "building": "house"}}}, {"type": "Feature", "geometry": {"type": "Polygon", "coordinates": [[[-97.5468217, 35.5186125], [-97.5468235, 35.5184646], [-97.5467587, 35.5184641], [-97.5467585, 35.5184818], [-97.5467066, 35.5184814], [-97.5467065, 35.5184912], [-97.5466358, 35.5184906], [-97.5466347, 35.5185791], [-97.5467639, 35.5185801], [-97.5467635, 35.518612], [-97.5468217, 35.5186125]]]}, "properties": {"osm_id": 669376244, "building": "house", "name": "", "height": null, "height_m": null, "levels": null, "tract_id": "40109106503", "tract_name": "1065.03", "tags": {"addr:city": "Oklahoma City", "addr:housenumber": "2033", "addr:postcode": "73112", "addr:state": "OK", "addr:street": "Northwest 46th Street", "building": "house"}}}, {"type": "Feature", "geometry": {"type": "Polygon", "coordinates": [[[-97.5466024, 35.518572], [-97.5466048, 35.518483], [-97.5464191, 35.5184797], [-97.5464167, 35.5185687], [-97.5466024, 35.518572]]]}, "properties": {"osm_id": 669376245, "building": "house", "name": "", "height": null, "height_m": null, "levels": null, "tract_id": "40109106503", "tract_name": "1065.03", "tags": {"addr:city": "Oklahoma City", "addr:housenumber": "2029", "addr:postcode": "73112", "addr:state": "OK", "addr:street": "Northwest 46th Street", "building": "house"}}}, {"type": "Feature", "geometry": {"type": "Polygon", "coordinates": [[[-97.546371, 35.5185747], [-97.5463777, 35.5184852], [-97.5461958, 35.5184763], [-97.5461884, 35.5185767], [-97.5462496, 35.5185797], [-97.5462504, 35.5185688], [-97.546371, 35.5185747]]]}, "properties": {"osm_id": 669376246, "building": "house", "name": "", "height": null, "height_m": null, "levels": null, "tract_id": "40109106503", "tract_name": "1065.03", "tags": {"addr:city": "Oklahoma City", "addr:housenumber": "2025", "addr:postcode": "73112", "addr:state": "OK", "addr:street": "Northwest 46th Street", "building": "house"}}}, {"type": "Feature", "geometry": {"type": "Polygon", "coordinates": [[[-97.5461451, 35.5185938], [-97.5460744, 35.5185871], [-97.5460786, 35.5185576], [-97.5460282, 35.5185528], [-97.5460258, 35.5185697], [-97.5459569, 35.5185631], [-97.5459745, 35.5184405], [-97.5461646, 35.5184585], [-97.5461451, 35.5185938]]]}, "properties": {"osm_id": 669376247, "building": "house", "name": "", "height": null, "height_m": null, "levels": null, "tract_id": "40109106503", "tract_name": "1065.03", "tags": {"addr:city": "Oklahoma City", "addr:housenumber": "2021", "addr:postcode": "73112", "addr:state": "OK", "addr:street": "Northwest 46th Street", "building": "house"}}}, {"type": "Feature", "geometry": {"type": "Polygon", "coordinates": [[[-97.5459321, 35.5185432], [-97.5459473, 35.5184527], [-97.545884, 35.5184457], [-97.5458864, 35.5184313], [-97.5457579, 35.518417], [-97.5457403, 35.5185219], [-97.5459321, 35.5185432]]]}, "properties": {"osm_id": 669376248, "building": "house", "name": "", "height": null, "height_m": null, "levels": null, "tract_id": "40109106503", "tract_name": "1065.03", "tags": {"addr:city": "Oklahoma City", "addr:housenumber": "2017", "addr:postcode": "73112", "addr:state": "OK", "addr:street": "Northwest 46th Street", "building": "house"}}}, {"type": "Feature", "geometry": {"type": "Polygon", "coordinates": [[[-97.5472793, 35.5276051], [-97.547274, 35.5280372], [-97.5467148, 35.5280314], [-97.546713, 35.5276022], [-97.5468917, 35.5276031], [-97.5472793, 35.5276051]]]}, "properties": {"osm_id": 682313981, "building": "retail", "name": "The Container Store", "height": null, "height_m": 3.0, "levels": 1, "tract_id": "40109106503", "tract_name": "1065.03", "tags": {"addr:city": "Oklahoma City", "addr:housenumber": "5644", "addr:postcode": "73112", "addr:state": "OK", "addr:street": "North Pennsylvania Avenue", "brand": "The Container Store", "brand:wikidata": "Q7727445", "building": "retail", "building:levels": "1", "name": "The Container Store", "opening_hours": "Mo-Sa 10:00-20:00; Su 11:00-18:00", "shop": "houseware", "smoking": "no"}}}, {"type": "Feature", "geometry": {"type": "Polygon", "coordinates": [[[-97.5339161, 35.5350312], [-97.5338601, 35.534866], [-97.5337598, 35.5348885], [-97.5337718, 35.5349239], [-97.5337346, 35.5349323], [-97.5337551, 35.534993], [-97.5336504, 35.5350164], [-97.5336738, 35.5350855], [-97.5339161, 35.5350312]]]}, "properties": {"osm_id": 880683717, "building": "house", "name": "", "height": null, "height_m": null, "levels": null, "tract_id": "40109106503", "tract_name": "1065.03", "tags": {"building": "house", "source": "microsoft/BuildingFootprints"}}}, {"type": "Feature", "geometry": {"type": "Polygon", "coordinates": [[[-97.533726, 35.534586], [-97.533488, 35.534666], [-97.533524, 35.534737], [-97.533592, 35.534713], [-97.53363, 35.534788], [-97.533701, 35.534764], [-97.533734, 35.534829], [-97.533833, 35.534796], [-97.533726, 35.534586]]]}, "properties": {"osm_id": 880683718, "building": "house", "name": "", "height": null, "height_m": null, "levels": null, "tract_id": "40109106503", "tract_name": "1065.03", "tags": {"building": "house", "source": "microsoft/BuildingFootprints"}}}, {"type": "Feature", "geometry": {"type": "Polygon", "coordinates": [[[-97.5333369, 35.534421], [-97.5333148, 35.5343507], [-97.5332376, 35.5343589], [-97.5332555, 35.5344299], [-97.5332723, 35.5344257], [-97.5332813, 35.5344409], [-97.5332963, 35.5344385], [-97.5333063, 35.5344547], [-97.5333233, 35.5344521], [-97.5333271, 35.5344831], [-97.5333173, 35.5344876], [-97.533334, 35.5345483], [-97.5333489, 35.5345468], [-97.533357, 35.534573], [-97.5333877, 35.5345693], [-97.5333944, 35.5345935], [-97.5334362, 35.5345825], [-97.533459, 35.5346236], [-97.5335414, 35.5345966], [-97.533513, 35.534529], [-97.533559, 35.534524], [-97.533548, 35.534458], [-97.533488, 35.534465], [-97.5334705, 35.5343993], [-97.5333369, 35.534421]]]}, "properties": {"osm_id": 880683719, "building": "house", "name": "", "height": null, "height_m": null, "levels": null, "tract_id": "40109106503", "tract_name": "1065.03", "tags": {"building": "house", "source": "microsoft/BuildingFootprints"}}}, {"type": "Feature", "geometry": {"type": "Polygon", "coordinates": [[[-97.533655, 35.534118], [-97.533469, 35.534035], [-97.533423, 35.534104], [-97.533465, 35.534123], [-97.533409, 35.534207], [-97.533376, 35.534192], [-97.533321, 35.534273], [-97.533497, 35.534351], [-97.533655, 35.534118]]]}, "properties": {"osm_id": 880683720, "building": "house", "name": "", "height": null, "height_m": null, "levels": null, "tract_id": "40109106503", "tract_name": "1065.03", "tags": {"building": "house", "source": "microsoft/BuildingFootprints"}}}, {"type": "Feature", "geometry": {"type": "Polygon", "coordinates": [[[-97.5344144, 35.5346692], [-97.5343654, 35.5345462], [-97.5342938, 35.534565], [-97.5343048, 35.5345926], [-97.5342386, 35.53461], [-97.5342335, 35.5345974], [-97.5341743, 35.534613], [-97.5341782, 35.5346229], [-97.5341675, 35.5346258], [-97.534171, 35.5346348], [-97.5341086, 35.5346512], [-97.5341759, 35.5348204], [-97.5342826, 35.5347923], [-97.5342508, 35.5347123], [-97.5344144, 35.5346692]]]}, "properties": {"osm_id": 880683722, "building": "house", "name": "", "height": null, "height_m": null, "levels": null, "tract_id": "40109106503", "tract_name": "1065.03", "tags": {"building": "house", "source": "microsoft/BuildingFootprints"}}}, {"type": "Feature", "geometry": {"type": "Polygon", "coordinates": [[[-97.5348, 35.534594], [-97.534518, 35.53451], [-97.534473, 35.53461], [-97.534544, 35.534632], [-97.5345, 35.53473], [-97.534583, 35.534754], [-97.534605, 35.534706], [-97.534733, 35.534744], [-97.5348, 35.534594]]]}, "properties": {"osm_id": 880683723, "building": "house", "name": "", "height": null, "height_m": null, "levels": null, "tract_id": "40109106503", "tract_name": "1065.03", "tags": {"building": "house", "source": "microsoft/BuildingFootprints"}}}, {"type": "Feature", "geometry": {"type": "Polygon", "coordinates": [[[-97.535031, 35.5348707], [-97.5349271, 35.5347606], [-97.5349689, 35.5347345], [-97.5348857, 35.5346463], [-97.5347533, 35.534729], [-97.5347769, 35.534754], [-97.5347163, 35.5347918], [-97.5348251, 35.5349071], [-97.5347429, 35.5349584], [-97.5347977, 35.5350165], [-97.535031, 35.5348707]]]}, "properties": {"osm_id": 880683725, "building": "house", "name": "", "height": null, "height_m": null, "levels": null, "tract_id": "40109106503", "tract_name": "1065.03", "tags": {"building": "house", "source": "microsoft/BuildingFootprints"}}}, {"type": "Feature", "geometry": {"type": "Polygon", "coordinates": [[[-97.5350218, 35.5340288], [-97.5349328, 35.5340276], [-97.5349311, 35.5341106], [-97.5349396, 35.5341107], [-97.5349391, 35.5341402], [-97.5348125, 35.5341386], [-97.5348104, 35.5342525], [-97.5348649, 35.5342531], [-97.5348652, 35.534239], [-97.5349912, 35.5342404], [-97.5349909, 35.534254], [-97.535052, 35.5342547], [-97.5350539, 35.5341454], [-97.5350396, 35.5341394], [-97.5350403, 35.5341024], [-97.5350204, 35.5341021], [-97.5350218, 35.5340288]]]}, "properties": {"osm_id": 880683731, "building": "house", "name": "", "height": null, "height_m": null, "levels": null, "tract_id": "40109106503", "tract_name": "1065.03", "tags": {"building": "house", "source": "microsoft/BuildingFootprints"}}}, {"type": "Feature", "geometry": {"type": "Polygon", "coordinates": [[[-97.5343508, 35.5342376], [-97.5343493, 35.5342052], [-97.5343828, 35.5342041], [-97.5343789, 35.5341228], [-97.5342931, 35.5341255], [-97.5342885, 35.5340302], [-97.5342256, 35.5340322], [-97.5342299, 35.5341217], [-97.5340854, 35.5341263], [-97.5340931, 35.5342869], [-97.5342431, 35.5342821], [-97.5342412, 35.5342411], [-97.5343508, 35.5342376]]]}, "properties": {"osm_id": 880683732, "building": "house", "name": "", "height": null, "height_m": null, "levels": null, "tract_id": "40109106503", "tract_name": "1065.03", "tags": {"building": "house", "source": "microsoft/BuildingFootprints"}}}, {"type": "Feature", "geometry": {"type": "Polygon", "coordinates": [[[-97.535146, 35.53421], [-97.535476, 35.534209], [-97.535476, 35.534166], [-97.535541, 35.534166], [-97.53554, 35.534023], [-97.535435, 35.534023], [-97.535435, 35.534057], [-97.535146, 35.534058], [-97.535146, 35.53421]]]}, "properties": {"osm_id": 880683733, "building": "house", "name": "", "height": null, "height_m": null, "levels": null, "tract_id": "40109106503", "tract_name": "1065.03", "tags": {"building": "house", "source": "microsoft/BuildingFootprints"}}}, {"type": "Feature", "geometry": {"type": "Polygon", "coordinates": [[[-97.542518, 35.53169], [-97.542415, 35.531693], [-97.542427, 35.532025], [-97.54253, 35.532023], [-97.542518, 35.53169]]]}, "properties": {"osm_id": 880687400, "building": "yes", "name": "", "height": null, "height_m": null, "levels": null, "tract_id": "40109106503", "tract_name": "1065.03", "tags": {"building": "yes", "source": "microsoft/BuildingFootprints"}}}, {"type": "Feature", "geometry": {"type": "Polygon", "coordinates": [[[-97.542749, 35.531824], [-97.542734, 35.531537], [-97.542625, 35.531541], [-97.54264, 35.531828], [-97.542749, 35.531824]]]}, "properties": {"osm_id": 880687401, "building": "yes", "name": "", "height": null, "height_m": null, "levels": null, "tract_id": "40109106503", "tract_name": "1065.03", "tags": {"building": "yes", "source": "microsoft/BuildingFootprints"}}}, {"type": "Feature", "geometry": {"type": "Polygon", "coordinates": [[[-97.5374467, 35.5309295], [-97.5375155, 35.531002], [-97.5375849, 35.5309584], [-97.5376208, 35.5309962], [-97.5377127, 35.5309384], [-97.5376705, 35.5308939], [-97.5377351, 35.5308533], [-97.5376743, 35.5307892], [-97.5376015, 35.530835], [-97.5375836, 35.5308162], [-97.5374999, 35.5308688], [-97.5375161, 35.5308859], [-97.5374467, 35.5309295]]]}, "properties": {"osm_id": 880687402, "building": "yes", "name": "", "height": null, "height_m": null, "levels": null, "tract_id": "40109106503", "tract_name": "1065.03", "tags": {"building": "yes", "source": "microsoft/BuildingFootprints"}}}, {"type": "Feature", "geometry": {"type": "Polygon", "coordinates": [[[-97.5363768, 35.5291247], [-97.5361925, 35.5291284], [-97.5361983, 35.5293195], [-97.5363826, 35.5293159], [-97.5363768, 35.5291247]]]}, "properties": {"osm_id": 880687411, "building": "yes", "name": "", "height": null, "height_m": null, "levels": null, "tract_id": "40109106503", "tract_name": "1065.03", "tags": {"building": "yes", "source": "microsoft/BuildingFootprints"}}}, {"type": "Feature", "geometry": {"type": "Polygon", "coordinates": [[[-97.536423, 35.52912], [-97.536423, 35.529312], [-97.536602, 35.529312], [-97.536602, 35.52912], [-97.536423, 35.52912]]]}, "properties": {"osm_id": 880687412, "building": "yes", "name": "", "height": null, "height_m": null, "levels": null, "tract_id": "40109106503", "tract_name": "1065.03", "tags": {"building": "yes", "source": "microsoft/BuildingFootprints"}}}, {"type": "Feature", "geometry": {"type": "Polygon", "coordinates": [[[-97.536657, 35.529104], [-97.536664, 35.529306], [-97.536883, 35.529301], [-97.536876, 35.529099], [-97.536657, 35.529104]]]}, "properties": {"osm_id": 880687413, "building": "yes", "name": "", "height": null, "height_m": null, "levels": null, "tract_id": "40109106503", "tract_name": "1065.03", "tags": {"building": "yes", "source": "microsoft/BuildingFootprints"}}}, {"type": "Feature", "geometry": {"type": "Polygon", "coordinates": [[[-97.537281, 35.529244], [-97.537262, 35.529075], [-97.536935, 35.529099], [-97.536953, 35.529268], [-97.537281, 35.529244]]]}, "properties": {"osm_id": 880687414, "building": "yes", "name": "", "height": null, "height_m": null, "levels": null, "tract_id": "40109106503", "tract_name": "1065.03", "tags": {"building": "yes", "source": "microsoft/BuildingFootprints"}}}, {"type": "Feature", "geometry": {"type": "Polygon", "coordinates": [[[-97.537652, 35.529167], [-97.537622, 35.529027], [-97.537565, 35.529035], [-97.53756, 35.52901], [-97.53745, 35.529026], [-97.53746, 35.52907], [-97.53734, 35.529087], [-97.537372, 35.529239], [-97.537611, 35.529205], [-97.537605, 35.529173], [-97.537652, 35.529167]]]}, "properties": {"osm_id": 880687415, "building": "yes", "name": "", "height": null, "height_m": null, "levels": null, "tract_id": "40109106503", "tract_name": "1065.03", "tags": {"building": "yes", "source": "microsoft/BuildingFootprints"}}}, {"type": "Feature", "geometry": {"type": "Polygon", "coordinates": [[[-97.5331252, 35.5341376], [-97.5330913, 35.5341379], [-97.5330906, 35.5340905], [-97.5331245, 35.5340902], [-97.5331252, 35.5341376]]]}, "properties": {"osm_id": 880705016, "building": "yes", "name": "", "height": null, "height_m": null, "levels": null, "tract_id": "40109106503", "tract_name": "1065.03", "tags": {"building": "yes"}}}, {"type": "Feature", "geometry": {"type": "Polygon", "coordinates": [[[-97.5472789, 35.5187057], [-97.5472471, 35.518706], [-97.5472466, 35.5186801], [-97.5472785, 35.5186797], [-97.5472789, 35.5187057]]]}, "properties": {"osm_id": 949548068, "building": "yes", "name": "", "height": null, "height_m": null, "levels": null, "tract_id": "40109106503", "tract_name": "1065.03", "tags": {"building": "yes"}}}, {"type": "Feature", "geometry": {"type": "Polygon", "coordinates": [[[-97.546637, 35.5186676], [-97.5466377, 35.5187168], [-97.5466426, 35.5187167], [-97.5466428, 35.518726], [-97.5466917, 35.5187255], [-97.5466916, 35.5187157], [-97.5466964, 35.5187156], [-97.5466955, 35.5186525], [-97.5466687, 35.5186527], [-97.5466689, 35.5186673], [-97.546637, 35.5186676]]]}, "properties": {"osm_id": 949548071, "building": "yes", "name": "", "height": null, "height_m": null, "levels": null, "tract_id": "40109106503", "tract_name": "1065.03", "tags": {"building": "yes"}}}, {"type": "Feature", "geometry": {"type": "Polygon", "coordinates": [[[-97.5474087, 35.5211853], [-97.5473202, 35.5211843], [-97.5473206, 35.5211641], [-97.547309, 35.521164], [-97.5473088, 35.5211777], [-97.5472441, 35.5211769], [-97.5472463, 35.5210522], [-97.5472851, 35.5210526], [-97.5472854, 35.5210392], [-97.5473765, 35.5210402], [-97.5473763, 35.5210531], [-97.5474079, 35.5210535], [-97.5474061, 35.5211555], [-97.5474093, 35.5211555], [-97.5474087, 35.5211853]]]}, "properties": {"osm_id": 987278365, "building": "yes", "name": "", "height": null, "height_m": null, "levels": null, "tract_id": "40109106503", "tract_name": "1065.03", "tags": {"building": "yes"}}}, {"type": "Feature", "geometry": {"type": "Polygon", "coordinates": [[[-97.5472223, 35.5211966], [-97.5470461, 35.5211952], [-97.5470473, 35.5210849], [-97.5471565, 35.5210858], [-97.5471568, 35.5210574], [-97.5472289, 35.521058], [-97.5472284, 35.5210973], [-97.5472235, 35.5210972], [-97.5472223, 35.5211966]]]}, "properties": {"osm_id": 987278366, "building": "yes", "name": "", "height": null, "height_m": null, "levels": null, "tract_id": "40109106503", "tract_name": "1065.03", "tags": {"building": "yes"}}}, {"type": "Feature", "geometry": {"type": "Polygon", "coordinates": [[[-97.5470173, 35.5211945], [-97.5468467, 35.5211946], [-97.5468466, 35.5211247], [-97.5468421, 35.5211247], [-97.5468421, 35.5210581], [-97.5469508, 35.5210581], [-97.5469508, 35.521086], [-97.5469382, 35.521086], [-97.5469383, 35.5211157], [-97.5470172, 35.5211156], [-97.5470173, 35.5211945]]]}, "properties": {"osm_id": 987278367, "building": "yes", "name": "", "height": null, "height_m": null, "levels": null, "tract_id": "40109106503", "tract_name": "1065.03", "tags": {"building": "yes"}}}, {"type": "Feature", "geometry": {"type": "Polygon", "coordinates": [[[-97.5468233, 35.5211929], [-97.5467983, 35.5211927], [-97.5467983, 35.5211902], [-97.5466344, 35.5211888], [-97.5466359, 35.5210744], [-97.5467152, 35.5210751], [-97.546715, 35.5210949], [-97.5467495, 35.5210952], [-97.5467501, 35.5210482], [-97.5468252, 35.5210488], [-97.5468233, 35.5211929]]]}, "properties": {"osm_id": 987278368, "building": "yes", "name": "", "height": null, "height_m": null, "levels": null, "tract_id": "40109106503", "tract_name": "1065.03", "tags": {"building": "yes"}}}]}