{"type": "FeatureCollection", "features": [{"type": "Feature", "geometry": {"type": "Polygon", "coordinates": [[[-96.4106204, 33.9988447], [-96.4106936, 33.9986432], [-96.4105249, 33.9986011], [-96.4104518, 33.9988026], [-96.4106204, 33.9988447]]]}, "properties": {"osm_id": 262093811, "building": "yes", "name": "Whataburger", "height": null, "height_m": null, "levels": null, "tract_id": "40013796102", "tract_name": "7961.02", "tags": {"addr:city": "Durant", "addr:housenumber": "3505", "addr:postcode": "74701", "addr:state": "OK", "addr:street": "West Main Street", "amenity": "fast_food", "branch": "Bus 70 - Durant", "brand": "Whataburger", "brand:wikidata": "Q376627", "building": "yes", "cuisine": "burger", "name": "Whataburger", "phone": "+1 580-745-9003", "takeaway": "yes", "website": "https://locations.whataburger.com/ok/durant/3505-w-main-st.html"}}}, {"type": "Feature", "geometry": {"type": "Polygon", "coordinates": [[[-96.4421542, 34.0040879], [-96.4422528, 34.004155], [-96.4421273, 34.0042817], [-96.4421183, 34.0042756], [-96.4420665, 34.0043279], [-96.4419891, 34.0042751], [-96.4420409, 34.0042228], [-96.4420287, 34.0042145], [-96.4420912, 34.0041515], [-96.4420743, 34.00414], [-96.4421204, 34.0040935], [-96.4421373, 34.004105], [-96.4421542, 34.0040879]]]}, "properties": {"osm_id": 396956145, "building": "house", "name": "", "height": null, "height_m": null, "levels": null, "tract_id": "40013796102", "tract_name": "7961.02", "tags": {"addr:city": "Durant", "addr:country": "US", "addr:housenumber": "489", "addr:postcode": "74701", "addr:state": "OK", "addr:street": "Madison Avenue", "building": "house"}}}, {"type": "Feature", "geometry": {"type": "Polygon", "coordinates": [[[-96.4045789, 34.0025302], [-96.4039335, 34.0025196], [-96.4039421, 34.0021582], [-96.4045875, 34.0021687], [-96.4045789, 34.0025302]]]}, "properties": {"osm_id": 607992181, "building": "yes", "name": "Stuteville Chevrolet", "height": null, "height_m": null, "levels": null, "tract_id": "40013796102", "tract_name": "7961.02", "tags": {"addr:city": "Durant", "addr:housenumber": "851", "addr:postcode": "74701", "addr:state": "OK", "addr:street": "Westside Drive", "brand": "Chevrolet", "brand:wikidata": "Q29570", "building": "yes", "name": "Stuteville Chevrolet", "shop": "car"}}}, {"type": "Feature", "geometry": {"type": "Polygon", "coordinates": [[[-96.4070346, 34.001097], [-96.4070392, 34.0005377], [-96.4063942, 34.000534], [-96.4063896, 34.0010933], [-96.4070346, 34.001097]]]}, "properties": {"osm_id": 607992182, "building": "yes", "name": "Big Lots", "height": null, "height_m": null, "levels": null, "tract_id": "40013796102", "tract_name": "7961.02", "tags": {"addr:city": "Durant", "addr:housenumber": "2418", "addr:postcode": "74701", "addr:state": "OK", "addr:street": "West Main Street", "brand": "Big Lots", "brand:wikidata": "Q4905973", "building": "yes", "name": "Big Lots", "opening_hours": "Mo-Su 09:00-21:00", "phone": "+1 580-920-1308", "shop": "department_store", "website": "https://local.biglots.com/ok/durant/2418-w-main-st"}}}, {"type": "Feature", "geometry": {"type": "Polygon", "coordinates": [[[-96.407573, 34.001125], [-96.4075778, 34.0005407], [-96.4070392, 34.0005377], [-96.4070346, 34.001097], [-96.4071099, 34.0010975], [-96.4071089, 34.001221], [-96.4073101, 34.0012222], [-96.407311, 34.0011236], [-96.407573, 34.001125]]]}, "properties": {"osm_id": 607992183, "building": "yes", "name": "Orschelin Farm & Home", "height": null, "height_m": null, "levels": null, "tract_id": "40013796102", "tract_name": "7961.02", "tags": {"addr:city": "Durant", "addr:housenumber": "2424", "addr:postcode": "74701", "addr:state": "OK", "addr:street": "West Main Street", "building": "yes", "name": "Orschelin Farm & Home", "opening_hours": "Mo-Sa 07:30-20:00; Su 09:00-18:00", "shop": "country_store"}}}, {"type": "Feature", "geometry": {"type": "Polygon", "coordinates": [[[-96.4096306, 34.0014962], [-96.4098372, 34.0014971], [-96.4098358, 34.0017083], [-96.4096293, 34.0017074], [-96.4096297, 34.0016496], [-96.4095872, 34.0016494], [-96.4095879, 34.0015405], [-96.4096303, 34.0015406], [-96.4096306, 34.0014962]]]}, "properties": {"osm_id": 608125884, "building": "yes", "name": "Shamrock Bank", "height": null, "height_m": null, "levels": null, "tract_id": "40013796102", "tract_name": "7961.02", "tags": {"amenity": "bank", "building": "yes", "name": "Shamrock Bank"}}}, {"type": "Feature", "geometry": {"type": "Polygon", "coordinates": [[[-96.4024852, 34.0043768], [-96.4025496, 34.0044947], [-96.4024003, 34.0045507], [-96.4023359, 34.0044329], [-96.4024852, 34.0043768]]]}, "properties": {"osm_id": 608125886, "building": "yes", "name": "Landmark Bank", "height": null, "height_m": null, "levels": null, "tract_id": "40013796102", "tract_name": "7961.02", "tags": {"amenity": "bank", "building": "yes", "name": "Landmark Bank"}}}, {"type": "Feature", "geometry": {"type": "Polygon", "coordinates": [[[-96.4021566, 34.0054296], [-96.402283, 34.0053243], [-96.4023591, 34.0053252], [-96.402464, 34.0054116], [-96.4024831, 34.0053957], [-96.4025822, 34.0054774], [-96.4023648, 34.0056585], [-96.4022667, 34.0055776], [-96.4023012, 34.0055488], [-96.4021566, 34.0054296]]]}, "properties": {"osm_id": 608125887, "building": "retail", "name": "Vision Bank", "height": null, "height_m": null, "levels": null, "tract_id": "40013796102", "tract_name": "7961.02", "tags": {"amenity": "bank", "building": "retail", "name": "Vision Bank"}}}, {"type": "Feature", "geometry": {"type": "Polygon", "coordinates": [[[-96.4090137, 34.0013828], [-96.4088675, 34.0013825], [-96.4088674, 34.0014117], [-96.4088542, 34.0014117], [-96.408854, 34.0015006], [-96.408822, 34.0015006], [-96.4088218, 34.0015896], [-96.4088342, 34.0015896], [-96.4088341, 34.001634], [-96.408822, 34.001634], [-96.4088217, 34.0017785], [-96.4088338, 34.0017786], [-96.4088337, 34.0018264], [-96.4088213, 34.0018264], [-96.4088211, 34.0019242], [-96.4088531, 34.0019242], [-96.408853, 34.001982], [-96.4088662, 34.001982], [-96.4088661, 34.0020052], [-96.4090124, 34.0020054], [-96.4090124, 34.0019798], [-96.4090246, 34.0019798], [-96.4090248, 34.0019153], [-96.4090343, 34.0019153], [-96.4090344, 34.001882], [-96.4090483, 34.001882], [-96.4090491, 34.001524], [-96.4090351, 34.001524], [-96.4090353, 34.0014695], [-96.4090257, 34.0014695], [-96.4090259, 34.0014128], [-96.4090137, 34.0014128], [-96.4090137, 34.0013828]]]}, "properties": {"osm_id": 608125889, "building": "yes", "name": "Hampton", "height": null, "height_m": null, "levels": null, "tract_id": "40013796102", "tract_name": "7961.02", "tags": {"addr:city": "Durant", "addr:housenumber": "3199", "addr:postcode": "74701", "addr:state": "OK", "addr:street": "Shamrock Lane", "alt_name": "Hampton Inn", "brand": "Hampton", "brand:wikidata": "Q5646230", "building": "yes", "name": "Hampton", "official_name": "Hampton by Hilton", "tourism": "hotel"}}}, {"type": "Feature", "geometry": {"type": "Polygon", "coordinates": [[[-96.4059104, 33.9990012], [-96.4060123, 33.9986744], [-96.4061745, 33.9987091], [-96.4060726, 33.999036], [-96.4059104, 33.9990012]]]}, "properties": {"osm_id": 608125890, "building": "roof", "name": "Exxon", "height": null, "height_m": null, "levels": null, "tract_id": "40013796102", "tract_name": "7961.02", "tags": {"addr:city": "Durant", "addr:housenumber": "2320", "addr:postcode": "74701", "addr:state": "OK", "addr:street": "West Main Street", "amenity": "fuel", "brand": "Exxon", "brand:wikidata": "Q4781944", "building": "roof", "compressed_air": "yes", "name": "Exxon"}}}, {"type": "Feature", "geometry": {"type": "Polygon", "coordinates": [[[-96.405209, 33.9999229], [-96.4053237, 33.9998619], [-96.405557, 34.0001632], [-96.4054424, 34.0002243], [-96.405209, 33.9999229]]]}, "properties": {"osm_id": 608125952, "building": "yes", "name": "Braum's", "height": null, "height_m": null, "levels": null, "tract_id": "40013796102", "tract_name": "7961.02", "tags": {"addr:city": "Durant", "addr:housenumber": "312", "addr:postcode": "74701", "addr:state": "OK", "addr:street": "Westside Drive", "amenity": "fast_food", "brand": "Braum's", "brand:wikidata": "Q4958263", "building": "yes", "cuisine": "ice_cream", "name": "Braum's", "phone": "+1 580 920 2141", "ref": "129", "shop": "dairy", "takeaway": "yes"}}}, {"type": "Feature", "geometry": {"type": "Polygon", "coordinates": [[[-96.4077035, 33.9992859], [-96.4077041, 33.9994126], [-96.4073755, 33.9994137], [-96.4073749, 33.999287], [-96.4077035, 33.9992859]]]}, "properties": {"osm_id": 608125985, "building": "yes", "name": "Billy Sims BBQ", "height": null, "height_m": null, "levels": null, "tract_id": "40013796102", "tract_name": "7961.02", "tags": {"amenity": "fast_food", "building": "yes", "name": "Billy Sims BBQ"}}}, {"type": "Feature", "geometry": {"type": "Polygon", "coordinates": [[[-96.404458, 34.0003088], [-96.4045839, 34.0004715], [-96.4046345, 34.0004446], [-96.4047512, 34.0005954], [-96.4045625, 34.0006958], [-96.4044464, 34.0005456], [-96.4040346, 34.0007646], [-96.4039081, 34.0006012], [-96.404458, 34.0003088]]]}, "properties": {"osm_id": 608125997, "building": "yes", "name": "Red River Ford", "height": null, "height_m": null, "levels": null, "tract_id": "40013796102", "tract_name": "7961.02", "tags": {"addr:city": "Durant", "addr:housenumber": "402", "addr:postcode": "74701", "addr:state": "OK", "addr:street": "Westside Drive", "brand": "Ford", "brand:wikidata": "Q44294", "building": "yes", "name": "Red River Ford", "shop": "car"}}}, {"type": "Feature", "geometry": {"type": "Polygon", "coordinates": [[[-96.4119266, 34.0024557], [-96.4119267, 34.0024912], [-96.4119587, 34.0024912], [-96.4119593, 34.0026323], [-96.4119273, 34.0026324], [-96.4119275, 34.0026657], [-96.4115453, 34.0026668], [-96.4115452, 34.0026513], [-96.4115082, 34.0026514], [-96.4115082, 34.0026556], [-96.4112859, 34.0026563], [-96.4112857, 34.0026146], [-96.4111517, 34.002615], [-96.4111512, 34.0025027], [-96.4112852, 34.0025023], [-96.411285, 34.0024607], [-96.4115054, 34.00246], [-96.4115055, 34.0024713], [-96.4115444, 34.0024712], [-96.4115444, 34.0024568], [-96.4119266, 34.0024557]]]}, "properties": {"osm_id": 608125998, "building": "yes", "name": "Holiday Inn Express & Suites", "height": null, "height_m": null, "levels": null, "tract_id": "40013796102", "tract_name": "7961.02", "tags": {"addr:city": "Durant", "addr:housenumber": "613", "addr:postcode": "74701", "addr:state": "OK", "addr:street": "University Place", "brand": "Holiday Inn Express & Suites", "brand:wikidata": "Q5880423", "building": "yes", "name": "Holiday Inn Express & Suites", "tourism": "hotel"}}}, {"type": "Feature", "geometry": {"type": "Polygon", "coordinates": [[[-96.4097312, 34.0010848], [-96.4099672, 34.0010881], [-96.4099652, 34.0011885], [-96.4097291, 34.0011851], [-96.4097312, 34.0010848]]]}, "properties": {"osm_id": 608126003, "building": "yes", "name": "Taco Mayo", "height": null, "height_m": null, "levels": null, "tract_id": "40013796102", "tract_name": "7961.02", "tags": {"addr:city": "Durant", "addr:housenumber": "420", "addr:postcode": "74701", "addr:state": "OK", "addr:street": "University Place", "amenity": "fast_food", "brand": "Taco Mayo", "brand:wikidata": "Q2386946", "building": "yes", "cuisine": "tex-mex", "name": "Taco Mayo", "takeaway": "yes"}}}, {"type": "Feature", "geometry": {"type": "Polygon", "coordinates": [[[-96.4072314, 34.0046714], [-96.4071838, 34.0046712], [-96.4071375, 34.004671], [-96.4070859, 34.0046707], [-96.406874, 34.0046697], [-96.4068217, 34.0046695], [-96.4067687, 34.0046692], [-96.4067692, 34.0046058], [-96.406821, 34.0046061], [-96.406872, 34.0046063], [-96.4068827, 34.0046064], [-96.4068828, 34.0045878], [-96.4070572, 34.0045886], [-96.407057, 34.0046072], [-96.4070886, 34.0046073], [-96.4071395, 34.0046076], [-96.4071851, 34.0046078], [-96.4072318, 34.004608], [-96.4072314, 34.0046714]]]}, "properties": {"osm_id": 608126059, "building": "yes", "name": "University Park Auto Spa", "height": null, "height_m": null, "levels": null, "tract_id": "40013796102", "tract_name": "7961.02", "tags": {"amenity": "car_wash", "building": "yes", "name": "University Park Auto Spa"}}}, {"type": "Feature", "geometry": {"type": "Polygon", "coordinates": [[[-96.4071952, 34.0044302], [-96.4068975, 34.0044302], [-96.4068975, 34.0043724], [-96.4071952, 34.0043724], [-96.4071952, 34.0044302]]]}, "properties": {"osm_id": 608126060, "building": "roof", "name": "", "height": null, "height_m": null, "levels": null, "tract_id": "40013796102", "tract_name": "7961.02", "tags": {"building": "roof", "layer": "1"}}}, {"type": "Feature", "geometry": {"type": "Polygon", "coordinates": [[[-96.406646, 34.0044079], [-96.406754, 34.0044077], [-96.4067543, 34.004503], [-96.4067854, 34.0045029], [-96.4067857, 34.004586], [-96.4066467, 34.0045864], [-96.406646, 34.0044079]]]}, "properties": {"osm_id": 608126062, "building": "yes", "name": "University Park Auto Spa", "height": null, "height_m": null, "levels": null, "tract_id": "40013796102", "tract_name": "7961.02", "tags": {"amenity": "car_wash", "building": "yes", "layer": "1", "name": "University Park Auto Spa"}}}, {"type": "Feature", "geometry": {"type": "Polygon", "coordinates": [[[-96.406365, 34.0043568], [-96.4065756, 34.0043568], [-96.4065756, 34.0045141], [-96.406365, 34.0045141], [-96.406365, 34.0043568]]]}, "properties": {"osm_id": 608126064, "building": "yes", "name": "", "height": null, "height_m": null, "levels": null, "tract_id": "40013796102", "tract_name": "7961.02", "tags": {"building": "yes"}}}, {"type": "Feature", "geometry": {"type": "Polygon", "coordinates": [[[-96.4059917, 33.9978613], [-96.4058552, 33.997827], [-96.4059748, 33.9974998], [-96.4061113, 33.9975341], [-96.4059917, 33.9978613]]]}, "properties": {"osm_id": 608126080, "building": "yes", "name": "McDonald's", "height": null, "height_m": null, "levels": null, "tract_id": "40013796102", "tract_name": "7961.02", "tags": {"amenity": "fast_food", "brand": "McDonald's", "brand:wikidata": "Q38076", "building": "yes", "cuisine": "burger", "name": "McDonald's", "takeaway": "yes", "website": "https://www.mcdonalds.com/us/en-us/location/ok/durant/2227-w-main-st/5985.html"}}}, {"type": "Feature", "geometry": {"type": "Polygon", "coordinates": [[[-96.4069417, 33.9979739], [-96.4066708, 33.997905], [-96.4067295, 33.9977463], [-96.4070004, 33.9978153], [-96.4069417, 33.9979739]]]}, "properties": {"osm_id": 608126081, "building": "yes", "name": "", "height": null, "height_m": null, "levels": null, "tract_id": "40013796102", "tract_name": "7961.02", "tags": {"building": "yes"}}}, {"type": "Feature", "geometry": {"type": "Polygon", "coordinates": [[[-96.4074071, 33.9982407], [-96.4073286, 33.9982238], [-96.4074023, 33.9979892], [-96.4074808, 33.9980061], [-96.4074071, 33.9982407]]]}, "properties": {"osm_id": 608126082, "building": "yes", "name": "Waffle Shoppe", "height": null, "height_m": null, "levels": null, "tract_id": "40013796102", "tract_name": "7961.02", "tags": {"amenity": "restaurant", "building": "yes", "name": "Waffle Shoppe"}}}, {"type": "Feature", "geometry": {"type": "Polygon", "coordinates": [[[-96.4080669, 33.9976893], [-96.4081635, 33.9976884], [-96.4081702, 33.9981943], [-96.4080736, 33.9981952], [-96.4080669, 33.9976893]]]}, "properties": {"osm_id": 608126083, "building": "yes", "name": "", "height": null, "height_m": null, "levels": null, "tract_id": "40013796102", "tract_name": "7961.02", "tags": {"building": "yes"}}}, {"type": "Feature", "geometry": {"type": "Polygon", "coordinates": [[[-96.4062807, 33.997628], [-96.406376, 33.9976517], [-96.4064813, 33.9976779], [-96.4064386, 33.9977958], [-96.4062381, 33.997746], [-96.4062807, 33.997628]]]}, "properties": {"osm_id": 608126091, "building": "yes", "name": "Taste Island", "height": null, "height_m": null, "levels": null, "tract_id": "40013796102", "tract_name": "7961.02", "tags": {"amenity": "restaurant", "building": "yes", "name": "Taste Island"}}}, {"type": "Feature", "geometry": {"type": "Polygon", "coordinates": [[[-96.4060029, 33.9996372], [-96.4058031, 33.9996639], [-96.4057895, 33.9995936], [-96.4059893, 33.9995669], [-96.4060029, 33.9996372]]]}, "properties": {"osm_id": 608126096, "building": "yes", "name": "Taco Bell", "height": null, "height_m": null, "levels": null, "tract_id": "40013796102", "tract_name": "7961.02", "tags": {"addr:city": "Durant", "addr:housenumber": "206", "addr:postcode": "74701", "addr:state": "OK", "addr:street": "Westside Drive", "amenity": "fast_food", "brand": "Taco Bell", "brand:wikidata": "Q752941", "building": "yes", "cuisine": "tex-mex", "name": "Taco Bell", "opening_hours": "08:00-04:00", "phone": "+1 580-920-0242", "takeaway": "yes", "website": "https://locations.tacobell.com/ok/durant/206-westside-dr.html"}}}, {"type": "Feature", "geometry": {"type": "Polygon", "coordinates": [[[-96.4107451, 33.9984487], [-96.4108108, 33.9982718], [-96.4116905, 33.9984964], [-96.4116249, 33.9986732], [-96.4107451, 33.9984487]]]}, "properties": {"osm_id": 608126100, "building": "yes", "name": "", "height": null, "height_m": null, "levels": null, "tract_id": "40013796102", "tract_name": "7961.02", "tags": {"building": "yes"}}}, {"type": "Feature", "geometry": {"type": "Polygon", "coordinates": [[[-96.4118898, 33.9986323], [-96.4118643, 33.9986995], [-96.4121546, 33.9987754], [-96.4121771, 33.9987812], [-96.4122027, 33.998714], [-96.4119383, 33.9986449], [-96.4118898, 33.9986323]]]}, "properties": {"osm_id": 608126102, "building": "retail", "name": "Sonic", "height": null, "height_m": null, "levels": null, "tract_id": "40013796102", "tract_name": "7961.02", "tags": {"addr:city": "Durant", "addr:housenumber": "3619", "addr:postcode": "74701", "addr:state": "OK", "addr:street": "West Main Street", "amenity": "fast_food", "brand": "Sonic", "brand:wikidata": "Q7561808", "building": "retail", "cuisine": "burger", "drive_in": "yes", "name": "Sonic", "opening_hours": "Mo-Sa 06:00-22:00; Su 07:00-22:00", "phone": "+1 580-920-2206", "takeaway": "yes", "website": "https://locations.sonicdrivein.com/ok/durant/3619-west-main-street.html"}}}, {"type": "Feature", "geometry": {"type": "Polygon", "coordinates": [[[-96.4117747, 33.9987215], [-96.4117904, 33.9986802], [-96.4118643, 33.9986995], [-96.4121546, 33.9987754], [-96.4121389, 33.9988166], [-96.4117747, 33.9987215]]]}, "properties": {"osm_id": 608126109, "building": "roof", "name": "", "height": null, "height_m": null, "levels": null, "tract_id": "40013796102", "tract_name": "7961.02", "tags": {"building": "roof"}}}, {"type": "Feature", "geometry": {"type": "Polygon", "coordinates": [[[-96.4124045, 33.9987216], [-96.4123888, 33.9987626], [-96.4122027, 33.998714], [-96.4119383, 33.9986449], [-96.4119539, 33.9986039], [-96.4124045, 33.9987216]]]}, "properties": {"osm_id": 608126110, "building": "roof", "name": "", "height": null, "height_m": null, "levels": null, "tract_id": "40013796102", "tract_name": "7961.02", "tags": {"building": "roof"}}}, {"type": "Feature", "geometry": {"type": "Polygon", "coordinates": [[[-96.40734, 34.0045047], [-96.407344, 34.0046781], [-96.4074433, 34.004677], [-96.4074786, 34.0046145], [-96.4074875, 34.0045958], [-96.4074862, 34.0045002], [-96.40734, 34.0045047]]]}, "properties": {"osm_id": 608126113, "building": "retail", "name": "", "height": null, "height_m": null, "levels": null, "tract_id": "40013796102", "tract_name": "7961.02", "tags": {"building": "retail", "shop": "convenience"}}}, {"type": "Feature", "geometry": {"type": "Polygon", "coordinates": [[[-96.4076552, 34.0047593], [-96.4074433, 34.004677], [-96.4074786, 34.0046145], [-96.4076905, 34.0046968], [-96.4076552, 34.0047593]]]}, "properties": {"osm_id": 608126114, "building": "roof", "name": "Valero", "height": null, "height_m": null, "levels": null, "tract_id": "40013796102", "tract_name": "7961.02", "tags": {"amenity": "fuel", "brand": "Valero", "brand:wikidata": "Q1283291", "building": "roof", "name": "Valero", "website": "https://locations.valero.com/en-us/LocationDetails/Index/3021-W-UNIVERSITY-BLVD/0000002121"}}}, {"type": "Feature", "geometry": {"type": "Polygon", "coordinates": [[[-96.4081098, 33.9996461], [-96.408207, 33.9996453], [-96.4082068, 33.9996232], [-96.4082839, 33.9996226], [-96.4082842, 33.9996446], [-96.408374, 33.9996439], [-96.4083752, 33.9997416], [-96.4081904, 33.9997431], [-96.4081903, 33.9997332], [-96.4081109, 33.9997339], [-96.4081098, 33.9996461]]]}, "properties": {"osm_id": 608126165, "building": "yes", "name": "Chicken Express", "height": null, "height_m": null, "levels": null, "tract_id": "40013796102", "tract_name": "7961.02", "tags": {"addr:city": "Durant", "addr:housenumber": "227", "addr:postcode": "74701", "addr:state": "OK", "addr:street": "Radio Road", "amenity": "fast_food", "brand": "Chicken Express", "brand:wikidata": "Q5096235", "building": "yes", "cuisine": "chicken", "name": "Chicken Express", "takeaway": "yes"}}}, {"type": "Feature", "geometry": {"type": "Polygon", "coordinates": [[[-96.4105117, 34.0014517], [-96.4107545, 34.0014517], [-96.4107545, 34.0014578], [-96.4107974, 34.0014578], [-96.4107974, 34.001534], [-96.4107545, 34.001534], [-96.4107545, 34.0015451], [-96.4105117, 34.0015451], [-96.4105117, 34.0014517]]]}, "properties": {"osm_id": 608126172, "building": "yes", "name": "Arby's", "height": null, "height_m": null, "levels": null, "tract_id": "40013796102", "tract_name": "7961.02", "tags": {"addr:city": "Durant", "addr:housenumber": "513", "addr:postcode": "74701", "addr:state": "OK", "addr:street": "University Place", "amenity": "fast_food", "brand": "Arby's", "brand:wikidata": "Q630866", "building": "yes", "check_date": "2024-06-21", "cuisine": "sandwich", "name": "Arby's", "opening_hours": "10:00-23:00", "phone": "+1 580-920-0737", "takeaway": "yes", "website": "https://www.arbys.com/locations/us/ok/durant/513-university-pl/store-7521/"}}}, {"type": "Feature", "geometry": {"type": "Polygon", "coordinates": [[[-96.4075828, 33.9982947], [-96.4076512, 33.9980979], [-96.407747, 33.9981208], [-96.4077214, 33.9981944], [-96.4077422, 33.9981994], [-96.4076994, 33.9983225], [-96.4075828, 33.9982947]]]}, "properties": {"osm_id": 608126173, "building": "yes", "name": "KFC", "height": null, "height_m": null, "levels": null, "tract_id": "40013796102", "tract_name": "7961.02", "tags": {"addr:city": "Durant", "addr:housenumber": "2403", "addr:postcode": "74701", "addr:state": "OK", "addr:street": "West Main Street", "alt_name": "Kentucky Fried Chicken", "amenity": "fast_food", "brand": "KFC", "brand:wikidata": "Q524757", "building": "yes", "cuisine": "chicken", "name": "KFC", "takeaway": "yes", "website": "https://locations.kfc.com/ok/durant/2403-w-main-street"}}}, {"type": "Feature", "geometry": {"type": "Polygon", "coordinates": [[[-96.4061156, 34.0003732], [-96.4061143, 34.0001342], [-96.4062778, 34.0001336], [-96.4062791, 34.0003726], [-96.4061156, 34.0003732]]]}, "properties": {"osm_id": 608126174, "building": "yes", "name": "Rib Crib", "height": null, "height_m": null, "levels": null, "tract_id": "40013796102", "tract_name": "7961.02", "tags": {"addr:city": "Durant", "addr:housenumber": "311", "addr:postcode": "74701", "addr:state": "OK", "addr:street": "Westside Drive", "amenity": "restaurant", "brand": "RibCrib", "brand:wikidata": "Q7322197", "building": "yes", "name": "Rib Crib", "website": "https://ribcrib.com/locations/?location=durant"}}}, {"type": "Feature", "geometry": {"type": "Polygon", "coordinates": [[[-96.4053431, 34.0045825], [-96.4053445, 34.0044569], [-96.404572, 34.0044557], [-96.404572, 34.0045814], [-96.4053431, 34.0045825]]]}, "properties": {"osm_id": 608170631, "building": "retail", "name": "", "height": null, "height_m": null, "levels": null, "tract_id": "40013796102", "tract_name": "7961.02", "tags": {"building": "retail"}}}, {"type": "Feature", "geometry": {"type": "Polygon", "coordinates": [[[-96.4055751, 34.0054863], [-96.405378, 34.0054855], [-96.4053793, 34.0052588], [-96.4055765, 34.0052596], [-96.4055751, 34.0054863]]]}, "properties": {"osm_id": 608179352, "building": "retail", "name": "", "height": null, "height_m": null, "levels": null, "tract_id": "40013796102", "tract_name": "7961.02", "tags": {"building": "retail"}}}, {"type": "Feature", "geometry": {"type": "Polygon", "coordinates": [[[-96.405551, 34.0058543], [-96.4051433, 34.0058543], [-96.4051433, 34.0056854], [-96.405551, 34.0056854], [-96.405551, 34.0058543]]]}, "properties": {"osm_id": 608179353, "building": "retail", "name": "", "height": null, "height_m": null, "levels": null, "tract_id": "40013796102", "tract_name": "7961.02", "tags": {"building": "retail"}}}, {"type": "Feature", "geometry": {"type": "Polygon", "coordinates": [[[-96.4048771, 34.0058555], [-96.404629, 34.0058552], [-96.404629, 34.0056448], [-96.4047577, 34.0056467], [-96.4048104, 34.0056617], [-96.404859, 34.0056992], [-96.4048788, 34.0057526], [-96.4048771, 34.0058555]]]}, "properties": {"osm_id": 608179354, "building": "retail", "name": "", "height": null, "height_m": null, "levels": null, "tract_id": "40013796102", "tract_name": "7961.02", "tags": {"building": "retail"}}}, {"type": "Feature", "geometry": {"type": "Polygon", "coordinates": [[[-96.4048348, 34.0054574], [-96.4046202, 34.0054585], [-96.4046175, 34.0050705], [-96.4048322, 34.0050694], [-96.4048348, 34.0054574]]]}, "properties": {"osm_id": 608179355, "building": "retail", "name": "", "height": null, "height_m": null, "levels": null, "tract_id": "40013796102", "tract_name": "7961.02", "tags": {"building": "retail"}}}, {"type": "Feature", "geometry": {"type": "Polygon", "coordinates": [[[-96.4074875, 34.0044469], [-96.4074875, 34.0043151], [-96.4075908, 34.0043151], [-96.4075908, 34.0044469], [-96.4074875, 34.0044469]]]}, "properties": {"osm_id": 608179374, "building": "yes", "name": "Parkwest Express Lube", "height": null, "height_m": null, "levels": null, "tract_id": "40013796102", "tract_name": "7961.02", "tags": {"building": "yes", "name": "Parkwest Express Lube", "shop": "car_repair"}}}, {"type": "Feature", "geometry": {"type": "Polygon", "coordinates": [[[-96.4071328, 34.0042785], [-96.4071274, 34.0040606], [-96.4067358, 34.0040562], [-96.4067438, 34.0042741], [-96.4071328, 34.0042785]]]}, "properties": {"osm_id": 608696959, "building": "yes", "name": "Dollar General", "height": null, "height_m": null, "levels": null, "tract_id": "40013796102", "tract_name": "7961.02", "tags": {"brand": "Dollar General", "brand:wikidata": "Q145168", "building": "yes", "name": "Dollar General", "shop": "variety_store", "website": "https://www.dollargeneral.com/store-directory/ok/durant/4356"}}}, {"type": "Feature", "geometry": {"type": "Polygon", "coordinates": [[[-96.4097667, 34.0032045], [-96.4094958, 34.0032045], [-96.4094877, 34.0032712], [-96.409418, 34.0032712], [-96.4094207, 34.0031956], [-96.408616, 34.0032001], [-96.408616, 34.0032757], [-96.4084363, 34.0032735], [-96.4084283, 34.0031401], [-96.4082378, 34.0031356], [-96.4082432, 34.0032712], [-96.4081896, 34.003269], [-96.4081869, 34.003925], [-96.4086804, 34.0039294], [-96.4086858, 34.0040606], [-96.4093965, 34.0040628], [-96.4093965, 34.0039383], [-96.4096943, 34.0039316], [-96.4096916, 34.0036159], [-96.4095709, 34.0036115], [-96.4095628, 34.0034825], [-96.4097667, 34.0034825], [-96.4097667, 34.0032045]]]}, "properties": {"osm_id": 608696960, "building": "yes", "name": "Lowe's", "height": null, "height_m": null, "levels": null, "tract_id": "40013796102", "tract_name": "7961.02", "tags": {"addr:city": "Durant", "addr:housenumber": "720", "addr:postcode": "74701", "addr:state": "OK", "addr:street": "University Place", "brand": "Lowe's", "brand:wikidata": "Q1373493", "building": "yes", "name": "Lowe's", "opening_hours": "Mo-Sa 06:00-21:00; Su 08:00-20:00", "phone": "+1 580-634-0500", "ref": "2214", "shop": "doityourself", "start_date": "2005-12-14", "website": "https://www.lowes.com/store/ok-durant/2214"}}}, {"type": "Feature", "geometry": {"type": "Polygon", "coordinates": [[[-96.4056775, 33.9975984], [-96.4057445, 33.9974105], [-96.4056748, 33.9973894], [-96.4056091, 33.9975795], [-96.4056775, 33.9975984]]]}, "properties": {"osm_id": 609253083, "building": "yes", "name": "Long John Silver's", "height": null, "height_m": null, "levels": null, "tract_id": "40013796102", "tract_name": "7961.02", "tags": {"amenity": "fast_food", "brand": "Long John Silver's", "brand:wikidata": "Q1535221", "building": "yes", "cuisine": "seafood", "name": "Long John Silver's", "takeaway": "yes"}}}, {"type": "Feature", "geometry": {"type": "Polygon", "coordinates": [[[-96.4056037, 33.9973716], [-96.4056748, 33.9973894], [-96.4056091, 33.9975795], [-96.405538, 33.9975595], [-96.4056037, 33.9973716]]]}, "properties": {"osm_id": 609253085, "building": "yes", "name": "A&W", "height": null, "height_m": null, "levels": null, "tract_id": "40013796102", "tract_name": "7961.02", "tags": {"amenity": "fast_food", "brand": "A&W", "brand:wikidata": "Q277641", "building": "yes", "cuisine": "burger", "name": "A&W", "takeaway": "yes"}}}, {"type": "Feature", "geometry": {"type": "Polygon", "coordinates": [[[-96.4137555, 33.9997207], [-96.4137556, 33.9996611], [-96.4137116, 33.9996611], [-96.4137116, 33.999625], [-96.4136779, 33.999625], [-96.4136782, 33.9994083], [-96.4134845, 33.9994081], [-96.4134841, 33.9997251], [-96.4132851, 33.999725], [-96.4132852, 33.9995963], [-96.4128453, 33.9995959], [-96.4128452, 33.9996195], [-96.412614, 33.9996193], [-96.4126138, 33.9997216], [-96.4128468, 33.9997218], [-96.4128464, 34.0000147], [-96.4127179, 34.0000146], [-96.4127178, 34.0001075], [-96.412677, 34.0001075], [-96.4126769, 34.0001892], [-96.4127423, 34.0001893], [-96.4127417, 34.0006757], [-96.4126857, 34.0006756], [-96.4126856, 34.0007657], [-96.4127195, 34.0007657], [-96.4127194, 34.0008763], [-96.412791, 34.0008764], [-96.4127909, 34.000898], [-96.4128869, 34.0008981], [-96.4128867, 34.0010715], [-96.4141642, 34.0010726], [-96.4141643, 34.0009698], [-96.4139466, 34.0009696], [-96.413948, 33.9998258], [-96.4141575, 33.999826], [-96.4141576, 33.999721], [-96.4137555, 33.9997207]]]}, "properties": {"osm_id": 610240088, "building": "yes", "name": "Walmart Supercenter", "height": null, "height_m": null, "levels": null, "tract_id": "40013796102", "tract_name": "7961.02", "tags": {"addr:city": "Durant", "addr:country": "US", "addr:housenumber": "3712", "addr:postcode": "74701", "addr:state": "OK", "addr:street": "West Main Street", "brand": "Walmart", "brand:wikidata": "Q483551", "building": "yes", "name": "Walmart Supercenter", "opening_hours": "24/7", "operator": "Walmart", "payment:app:walmart": "yes", "payment:apple_pay": "no", "payment:google_pay": "no", "payment:samsung_pay": "no", "phone": "+1 580-920-0234", "ref": "975", "ref:walmart": "975", "sensory_friendly:accommodation": "dimmed_light;static_screens;no_pa", "sensory_friendly:conditional": "yes @ 08:00-10:00", "shop": "supermarket", "website": "https://www.walmart.com/store/975-durant-ok"}}}, {"type": "Feature", "geometry": {"type": "Polygon", "coordinates": [[[-96.4205538, 33.9653038], [-96.4205565, 33.9652758], [-96.4205632, 33.9652423], [-96.4205767, 33.9651986], [-96.4205861, 33.9651684], [-96.4206023, 33.9651371], [-96.4206158, 33.9651103], [-96.4206347, 33.9650823], [-96.4206509, 33.9650555], [-96.4206617, 33.9650432], [-96.42069, 33.9650085], [-96.420717, 33.9649794], [-96.4207412, 33.9649526], [-96.4207601, 33.9649358], [-96.4208006, 33.9649056], [-96.4208356, 33.9648799], [-96.4209017, 33.9648374], [-96.4208828, 33.964815], [-96.420872, 33.9648016], [-96.4208599, 33.9647915], [-96.4209004, 33.9647647], [-96.4209017, 33.964739], [-96.4209327, 33.964739], [-96.4209327, 33.9646875], [-96.4209031, 33.9646886], [-96.420899, 33.9643833], [-96.420694, 33.9643833], [-96.4206873, 33.9640723], [-96.4203946, 33.9640735], [-96.4203946, 33.9641025], [-96.4202463, 33.9641003], [-96.4202477, 33.9640589], [-96.4200305, 33.9640567], [-96.4200211, 33.9641014], [-96.4200184, 33.964192], [-96.419949, 33.9642178], [-96.4199771, 33.9642842], [-96.4200108, 33.9643825], [-96.420039, 33.9643811], [-96.42005, 33.964437], [-96.4200548, 33.9644929], [-96.4200551, 33.9645659], [-96.420046, 33.9646467], [-96.4200224, 33.9647412], [-96.4200836, 33.9647492], [-96.4200482, 33.9648716], [-96.4200246, 33.9649225], [-96.4200093, 33.964945], [-96.4199715, 33.9649998], [-96.4199266, 33.9650497], [-96.420086, 33.9651144], [-96.4200305, 33.9652015], [-96.4201745, 33.9653219], [-96.4203209, 33.9651966], [-96.4203481, 33.965223], [-96.4203693, 33.9652407], [-96.4203918, 33.9652554], [-96.4204295, 33.965273], [-96.420465, 33.9652867], [-96.420498, 33.9652935], [-96.4205538, 33.9653038]]]}, "properties": {"osm_id": 988472223, "building": "yes", "name": "Choctaw Cultural Center", "height": null, "height_m": null, "levels": null, "tract_id": "40013796102", "tract_name": "7961.02", "tags": {"addr:city": "Calera", "addr:housenumber": "1919", "addr:postcode": "74730", "addr:state": "OK", "addr:street": "Hina Hanta Way", "building": "yes", "name": "Choctaw Cultural Center", "tourism": "museum", "website": "https://choctawculturalcenter.com/"}}}, {"type": "Feature", "geometry": {"type": "Polygon", "coordinates": [[[-96.4058859, 34.0017516], [-96.4059881, 34.0017504], [-96.4059886, 34.00178], [-96.4060836, 34.0017789], [-96.4060833, 34.0017643], [-96.4061857, 34.0017631], [-96.4061851, 34.0017273], [-96.4062223, 34.0017268], [-96.4062154, 34.0013427], [-96.4061898, 34.001343], [-96.4061887, 34.001285], [-96.4062631, 34.001284], [-96.4062612, 34.0011859], [-96.4060369, 34.0011889], [-96.406039, 34.0012925], [-96.4060127, 34.0012929], [-96.4060138, 34.0013513], [-96.4059626, 34.001352], [-96.4059644, 34.0014423], [-96.4060477, 34.0014411], [-96.4060487, 34.0014888], [-96.4059604, 34.0014901], [-96.4059624, 34.0015864], [-96.4060425, 34.0015852], [-96.4060431, 34.0016109], [-96.4060012, 34.0016115], [-96.4060014, 34.0016234], [-96.4059613, 34.0016239], [-96.4059615, 34.0016361], [-96.405884, 34.001637], [-96.4058859, 34.0017516]]]}, "properties": {"osm_id": 988488431, "building": "yes", "name": "La Quinta Inn & Suites", "height": null, "height_m": null, "levels": null, "tract_id": "40013796102", "tract_name": "7961.02", "tags": {"addr:city": "Durant", "addr:housenumber": "417", "addr:postcode": "74701", "addr:state": "OK", "addr:street": "Criswell Boulevard", "branch": "Durant", "brand": "La Quinta Inn & Suites", "brand:wikidata": "Q6464734", "building": "yes", "name": "La Quinta Inn & Suites", "official_name": "La Quinta Inn & Suites by Wyndham", "phone": "+1 580-910-6701", "ref": "53001", "tourism": "hotel", "website": "https://www.wyndhamhotels.com/laquinta/durant-oklahoma/la-quinta-durant/overview"}}}, {"type": "Feature", "geometry": {"type": "Polygon", "coordinates": [[[-96.4062676, 34.0008008], [-96.406268, 34.0007595], [-96.406284, 34.0007596], [-96.4062868, 34.0005059], [-96.4060482, 34.000504], [-96.4060454, 34.0007543], [-96.4060782, 34.0007546], [-96.4060777, 34.0007994], [-96.4062676, 34.0008008]]]}, "properties": {"osm_id": 988488432, "building": "yes", "name": "Aaron's", "height": null, "height_m": null, "levels": null, "tract_id": "40013796102", "tract_name": "7961.02", "tags": {"addr:city": "Durant", "addr:housenumber": "405", "addr:postcode": "74701", "addr:state": "OK", "addr:street": "Westside Drive", "brand": "Aaron's", "brand:wikidata": "Q10397787", "building": "yes", "check_date": "2024-06-27", "check_date:opening_hours": "2024-06-27", "name": "Aaron's", "opening_hours": "Mo-Th 10:00-19:00; Fr 10:00-20:00; Sa 10:00-18:00; Su closed", "shop": "furniture", "website": "https://locations.aarons.com/us/ok/durant/405-westside-dr"}}}, {"type": "Feature", "geometry": {"type": "Polygon", "coordinates": [[[-96.4051883, 34.0011], [-96.4053065, 34.0010383], [-96.4051597, 34.0008447], [-96.4050414, 34.0009063], [-96.4051883, 34.0011]]]}, "properties": {"osm_id": 988488433, "building": "yes", "name": "Pizza Inn", "height": null, "height_m": null, "levels": null, "tract_id": "40013796102", "tract_name": "7961.02", "tags": {"addr:city": "Durant", "addr:housenumber": "415", "addr:postcode": "74701", "addr:state": "OK", "addr:street": "Westside Drive", "amenity": "fast_food", "brand": "Pizza Inn", "brand:wikidata": "Q4118850", "building": "yes", "cuisine": "pizza", "name": "Pizza Inn", "takeaway": "yes"}}}, {"type": "Feature", "geometry": {"type": "Polygon", "coordinates": [[[-96.4054352, 34.0009862], [-96.4056114, 34.0009843], [-96.4056078, 34.0007528], [-96.4056762, 34.0007521], [-96.4056751, 34.0006815], [-96.4054304, 34.0006841], [-96.4054352, 34.0009862]]]}, "properties": {"osm_id": 988488434, "building": "yes", "name": "", "height": null, "height_m": null, "levels": null, "tract_id": "40013796102", "tract_name": "7961.02", "tags": {"building": "yes"}}}, {"type": "Feature", "geometry": {"type": "Polygon", "coordinates": [[[-96.4049798, 34.0001921], [-96.4049224, 34.0001173], [-96.404751, 34.0002076], [-96.4048084, 34.0002825], [-96.4049798, 34.0001921]]]}, "properties": {"osm_id": 988488435, "building": "yes", "name": "", "height": null, "height_m": null, "levels": null, "tract_id": "40013796102", "tract_name": "7961.02", "tags": {"building": "yes"}}}, {"type": "Feature", "geometry": {"type": "Polygon", "coordinates": [[[-96.4074791, 33.9998233], [-96.4074772, 33.999537], [-96.4072727, 33.999538], [-96.4072746, 33.9998243], [-96.4074791, 33.9998233]]]}, "properties": {"osm_id": 988488436, "building": "yes", "name": "", "height": null, "height_m": null, "levels": null, "tract_id": "40013796102", "tract_name": "7961.02", "tags": {"building": "yes"}}}, {"type": "Feature", "geometry": {"type": "Polygon", "coordinates": [[[-96.4069382, 33.9992565], [-96.4069356, 33.9990568], [-96.4069133, 33.9990571], [-96.4069127, 33.9990183], [-96.4067972, 33.9990194], [-96.4067999, 33.9992176], [-96.4068524, 33.9992171], [-96.406853, 33.9992573], [-96.4069382, 33.9992565]]]}, "properties": {"osm_id": 988488437, "building": "yes", "name": "Wendy's", "height": null, "height_m": null, "levels": null, "tract_id": "40013796102", "tract_name": "7961.02", "tags": {"addr:city": "Durant", "addr:housenumber": "2420", "addr:postcode": "74701", "addr:state": "OK", "addr:street": "West Main Street", "amenity": "fast_food", "brand": "Wendy's", "brand:wikidata": "Q550258", "building": "yes", "cuisine": "burger", "name": "Wendy's", "opening_hours": "06:30-22:00", "opening_hours:drive_through": "Mo-Su 06:30-00:00", "phone": "+1 580-634-2809", "takeaway": "yes", "website": "https://locations.wendys.com/united-states/ok/durant/2420-west-main-street"}}}, {"type": "Feature", "geometry": {"type": "Polygon", "coordinates": [[[-96.4092752, 33.9999037], [-96.4092728, 33.9997272], [-96.4090469, 33.9997293], [-96.4090483, 33.9998346], [-96.4090706, 33.9998343], [-96.4090715, 33.9999056], [-96.4092752, 33.9999037]]]}, "properties": {"osm_id": 988488438, "building": "yes", "name": "Chili's", "height": null, "height_m": null, "levels": null, "tract_id": "40013796102", "tract_name": "7961.02", "tags": {"addr:city": "Durant", "addr:housenumber": "2524", "addr:postcode": "74701", "addr:state": "OK", "addr:street": "West Main Street", "amenity": "restaurant", "brand": "Chili's", "brand:wikidata": "Q1072948", "building": "yes", "cuisine": "tex-mex", "name": "Chili's", "official_name": "Chili's Grill & Bar"}}}, {"type": "Feature", "geometry": {"type": "Polygon", "coordinates": [[[-96.4098688, 34.0002999], [-96.4098688, 33.9999265], [-96.4098026, 33.9998782], [-96.4095475, 33.9998782], [-96.4095475, 34.0002999], [-96.4098688, 34.0002999]]]}, "properties": {"osm_id": 988488439, "building": "yes", "name": "Walgreens", "height": null, "height_m": null, "levels": null, "tract_id": "40013796102", "tract_name": "7961.02", "tags": {"addr:city": "Durant", "addr:housenumber": "302", "addr:postcode": "74701", "addr:state": "OK", "addr:street": "University Place", "brand": "Walgreens", "brand:wikidata": "Q1591889", "building": "yes", "name": "Walgreens", "shop": "chemist", "website": "https://www.walgreens.com/locator/walgreens-302+university+pl-durant-ok-74701/id=11317"}}}, {"type": "Feature", "geometry": {"type": "Polygon", "coordinates": [[[-96.4105512, 34.0001444], [-96.4105488, 33.9998318], [-96.4104724, 33.9998322], [-96.4104746, 34.0001448], [-96.4105512, 34.0001444]]]}, "properties": {"osm_id": 988488440, "building": "roof", "name": "Murphy USA", "height": null, "height_m": null, "levels": null, "tract_id": "40013796102", "tract_name": "7961.02", "tags": {"addr:city": "Durant", "addr:housenumber": "3204", "addr:postcode": "74701", "addr:state": "OK", "addr:street": "West Main Street", "amenity": "fuel", "brand": "Murphy USA", "brand:wikidata": "Q19604459", "building": "roof", "name": "Murphy USA"}}}, {"type": "Feature", "geometry": {"type": "Polygon", "coordinates": [[[-96.4041739, 34.0037195], [-96.4042842, 34.0037192], [-96.4042849, 34.0039004], [-96.4041746, 34.0039007], [-96.4041739, 34.0037195]]]}, "properties": {"osm_id": 991594058, "building": "retail", "name": "Elara Caring", "height": null, "height_m": null, "levels": null, "tract_id": "40013796102", "tract_name": "7961.02", "tags": {"building": "retail", "name": "Elara Caring", "shop": "yes"}}}, {"type": "Feature", "geometry": {"type": "Polygon", "coordinates": [[[-96.4040636, 34.0037197], [-96.4041739, 34.0037195], [-96.4041746, 34.0039007], [-96.4040642, 34.003901], [-96.4040636, 34.0037197]]]}, "properties": {"osm_id": 991594059, "building": "retail", "name": "Diagnostic Laboratory of Oklahoma", "height": null, "height_m": null, "levels": null, "tract_id": "40013796102", "tract_name": "7961.02", "tags": {"building": "retail", "healthcare": "laboratory", "name": "Diagnostic Laboratory of Oklahoma"}}}, {"type": "Feature", "geometry": {"type": "Polygon", "coordinates": [[[-96.4039533, 34.00372], [-96.4040636, 34.0037197], [-96.4040642, 34.003901], [-96.4039539, 34.0039012], [-96.4039533, 34.00372]]]}, "properties": {"osm_id": 991594060, "building": "retail", "name": "", "height": null, "height_m": null, "levels": null, "tract_id": "40013796102", "tract_name": "7961.02", "tags": {"building": "retail", "shop": "yes"}}}, {"type": "Feature", "geometry": {"type": "Polygon", "coordinates": [[[-96.403843, 34.0037203], [-96.4039533, 34.00372], [-96.4039539, 34.0039012], [-96.4038436, 34.0039015], [-96.403843, 34.0037203]]]}, "properties": {"osm_id": 991594061, "building": "retail", "name": "", "height": null, "height_m": null, "levels": null, "tract_id": "40013796102", "tract_name": "7961.02", "tags": {"addr:city": "Durant", "addr:country": "US", "addr:housenumber": "1028", "addr:postcode": "74701", "addr:state": "OK", "addr:street": "Criswell Boulevard", "building": "retail", "opening_hours": "Mo-Sa 12:00-20:00", "phone": "+1-580-380-4613", "shop": "cannabis"}}}, {"type": "Feature", "geometry": {"type": "Polygon", "coordinates": [[[-96.403263, 34.0042512], [-96.4035742, 34.004252], [-96.4035729, 34.00458], [-96.4035111, 34.0045798], [-96.403511, 34.0046116], [-96.403334, 34.0046111], [-96.4033341, 34.0045793], [-96.4032617, 34.0045791], [-96.403263, 34.0042512]]]}, "properties": {"osm_id": 991594062, "building": "commercial", "name": "The Heart and Medical Center", "height": null, "height_m": null, "levels": null, "tract_id": "40013796102", "tract_name": "7961.02", "tags": {"addr:housenumber": "2701", "amenity": "clinic", "building": "commercial", "healthcare": "clinic", "name": "The Heart and Medical Center", "urgent_care": "yes"}}}, {"type": "Feature", "geometry": {"type": "Polygon", "coordinates": [[[-96.4033838, 34.0061301], [-96.4033804, 34.0064375], [-96.403108, 34.0064355], [-96.4031076, 34.0064729], [-96.402864, 34.0064711], [-96.4028648, 34.0063965], [-96.4027827, 34.0063959], [-96.4027856, 34.0061256], [-96.4028862, 34.0061264], [-96.4028876, 34.0059998], [-96.4030431, 34.0060009], [-96.4030417, 34.0061275], [-96.4033838, 34.0061301]]]}, "properties": {"osm_id": 1003805386, "building": "yes", "name": "Hoyte Chrysler Durant", "height": null, "height_m": null, "levels": null, "tract_id": "40013796102", "tract_name": "7961.02", "tags": {"building": "yes", "name": "Hoyte Chrysler Durant", "shop": "car"}}}, {"type": "Feature", "geometry": {"type": "Polygon", "coordinates": [[[-96.4018066, 34.0063446], [-96.4016122, 34.0064614], [-96.4015145, 34.0063495], [-96.4015405, 34.0063339], [-96.4015184, 34.0063087], [-96.4016869, 34.0062075], [-96.4018066, 34.0063446]]]}, "properties": {"osm_id": 1003805393, "building": "yes", "name": "IHOP", "height": null, "height_m": null, "levels": null, "tract_id": "40013796102", "tract_name": "7961.02", "tags": {"amenity": "restaurant", "brand": "IHOP", "brand:wikidata": "Q1185675", "building": "yes", "cuisine": "breakfast;pancake", "name": "IHOP"}}}, {"type": "Feature", "geometry": {"type": "Polygon", "coordinates": [[[-96.4168605, 33.9951686], [-96.4169772, 33.9951696], [-96.4169763, 33.9952398], [-96.4170406, 33.9952403], [-96.41704, 33.9952904], [-96.4169757, 33.9952898], [-96.4169745, 33.9953931], [-96.4168578, 33.9953921], [-96.4168605, 33.9951686]]]}, "properties": {"osm_id": 1003830890, "building": "yes", "name": "", "height": null, "height_m": null, "levels": null, "tract_id": "40013796102", "tract_name": "7961.02", "tags": {"building": "yes"}}}, {"type": "Feature", "geometry": {"type": "Polygon", "coordinates": [[[-96.4001607, 34.0073543], [-96.4000097, 34.00717], [-96.400191, 34.0070679], [-96.400342, 34.0072522], [-96.4001607, 34.0073543]]]}, "properties": {"osm_id": 1005394108, "building": "retail", "name": "Applebee's", "height": null, "height_m": null, "levels": null, "tract_id": "40013796102", "tract_name": "7961.02", "tags": {"amenity": "restaurant", "brand": "Applebee's Neighborhood Grill & Bar", "brand:wikidata": "Q621532", "building": "retail", "cuisine": "american", "name": "Applebee's", "official_name": "Applebee's Neighborhood Grill & Bar", "phone": "+1 580-931-9306", "website": "https://restaurants.applebees.com/en-us/ok/durant/1001-westside-drive-78041", "website:menu": "https://www.applebees.com/en/menu?StoreNumber=78041&action=viewmenu"}}}, {"type": "Feature", "geometry": {"type": "Polygon", "coordinates": [[[-96.411185, 34.0060489], [-96.411189, 34.0052407], [-96.4117254, 34.0052425], [-96.4119196, 34.0054108], [-96.4119185, 34.0056315], [-96.4115485, 34.0056303], [-96.4115482, 34.0056903], [-96.4118801, 34.0056914], [-96.4118787, 34.0059842], [-96.411589, 34.0059832], [-96.4115887, 34.0060503], [-96.411185, 34.0060489]]]}, "properties": {"osm_id": 1069463029, "building": "church", "name": "Victory Life Church", "height": null, "height_m": null, "levels": null, "tract_id": "40013796102", "tract_name": "7961.02", "tags": {"amenity": "place_of_worship", "building": "church", "ele": "217", "gnis:feature_id": "1782898", "name": "Victory Life Church", "religion": "christian"}}}, {"type": "Feature", "geometry": {"type": "Polygon", "coordinates": [[[-96.4288688, 33.9990468], [-96.428787, 33.9990468], [-96.428787, 33.99887], [-96.4288688, 33.99887], [-96.4288688, 33.9990468]]]}, "properties": {"osm_id": 1077589681, "building": "roof", "name": "", "height": null, "height_m": null, "levels": null, "tract_id": "40013796102", "tract_name": "7961.02", "tags": {"building": "roof"}}}, {"type": "Feature", "geometry": {"type": "Polygon", "coordinates": [[[-96.4286837, 33.9987144], [-96.4286033, 33.9987146], [-96.4286019, 33.9983744], [-96.4286824, 33.9983742], [-96.4286837, 33.9987144]]]}, "properties": {"osm_id": 1077589682, "building": "roof", "name": "", "height": null, "height_m": null, "levels": null, "tract_id": "40013796102", "tract_name": "7961.02", "tags": {"building": "roof"}}}, {"type": "Feature", "geometry": {"type": "Polygon", "coordinates": [[[-96.4289379, 33.9987177], [-96.4289359, 33.9984459], [-96.4291865, 33.9984446], [-96.4291872, 33.9985392], [-96.4292354, 33.998539], [-96.4292367, 33.9987162], [-96.4289379, 33.9987177]]]}, "properties": {"osm_id": 1077589683, "building": "retail", "name": "", "height": null, "height_m": null, "levels": null, "tract_id": "40013796102", "tract_name": "7961.02", "tags": {"building": "retail", "shop": "yes"}}}, {"type": "Feature", "geometry": {"type": "Polygon", "coordinates": [[[-96.3906889, 34.0252533], [-96.3906872, 34.0250815], [-96.3910198, 34.0250793], [-96.3910215, 34.025251], [-96.3906889, 34.0252533]]]}, "properties": {"osm_id": 1133405356, "building": "yes", "name": "", "height": null, "height_m": null, "levels": null, "tract_id": "40013796102", "tract_name": "7961.02", "tags": {"building": "yes"}}}, {"type": "Feature", "geometry": {"type": "Polygon", "coordinates": [[[-96.391221, 34.0246136], [-96.3906728, 34.0246089], [-96.3906756, 34.02439], [-96.3912237, 34.0243947], [-96.391221, 34.0246136]]]}, "properties": {"osm_id": 1133405357, "building": "yes", "name": "", "height": null, "height_m": null, "levels": null, "tract_id": "40013796102", "tract_name": "7961.02", "tags": {"building": "yes"}}}, {"type": "Feature", "geometry": {"type": "Polygon", "coordinates": [[[-96.3899493, 34.0230975], [-96.3899796, 34.0232492], [-96.3898493, 34.0232671], [-96.389819, 34.0231154], [-96.3899493, 34.0230975]]]}, "properties": {"osm_id": 1133405358, "building": "yes", "name": "", "height": null, "height_m": null, "levels": null, "tract_id": "40013796102", "tract_name": "7961.02", "tags": {"building": "yes"}}}, {"type": "Feature", "geometry": {"type": "Polygon", "coordinates": [[[-96.390065, 34.0230881], [-96.3901495, 34.0230838], [-96.390159, 34.0232119], [-96.3900745, 34.0232162], [-96.390065, 34.0230881]]]}, "properties": {"osm_id": 1133405359, "building": "roof", "name": "", "height": null, "height_m": null, "levels": null, "tract_id": "40013796102", "tract_name": "7961.02", "tags": {"building": "roof", "layer": "1"}}}, {"type": "Feature", "geometry": {"type": "Polygon", "coordinates": [[[-96.393524, 34.0214941], [-96.3935225, 34.0214015], [-96.3937223, 34.0213992], [-96.3937238, 34.0214919], [-96.393524, 34.0214941]]]}, "properties": {"osm_id": 1133405360, "building": "yes", "name": "", "height": null, "height_m": null, "levels": null, "tract_id": "40013796102", "tract_name": "7961.02", "tags": {"building": "yes"}}}, {"type": "Feature", "geometry": {"type": "Polygon", "coordinates": [[[-96.3933335, 34.0213396], [-96.3934892, 34.0213387], [-96.3934906, 34.0214976], [-96.3933349, 34.0214985], [-96.3933335, 34.0213396]]]}, "properties": {"osm_id": 1133405361, "building": "yes", "name": "", "height": null, "height_m": null, "levels": null, "tract_id": "40013796102", "tract_name": "7961.02", "tags": {"building": "yes"}}}, {"type": "Feature", "geometry": {"type": "Polygon", "coordinates": [[[-96.3931578, 34.021742], [-96.3931578, 34.0216242], [-96.3934904, 34.0216242], [-96.3934904, 34.021742], [-96.3931578, 34.021742]]]}, "properties": {"osm_id": 1133405362, "building": "yes", "name": "", "height": null, "height_m": null, "levels": null, "tract_id": "40013796102", "tract_name": "7961.02", "tags": {"building": "yes"}}}, {"type": "Feature", "geometry": {"type": "Polygon", "coordinates": [[[-96.397292, 34.0175382], [-96.3967116, 34.0178117], [-96.3963824, 34.0173318], [-96.3969628, 34.0170583], [-96.397292, 34.0175382]]]}, "properties": {"osm_id": 1133405363, "building": "yes", "name": "", "height": null, "height_m": null, "levels": null, "tract_id": "40013796102", "tract_name": "7961.02", "tags": {"building": "yes"}}}, {"type": "Feature", "geometry": {"type": "Polygon", "coordinates": [[[-96.407583, 34.0071637], [-96.4073146, 34.0071645], [-96.4073139, 34.0069877], [-96.4075822, 34.0069869], [-96.407583, 34.0071637]]]}, "properties": {"osm_id": 1133405365, "building": "yes", "name": "", "height": null, "height_m": null, "levels": null, "tract_id": "40013796102", "tract_name": "7961.02", "tags": {"building": "yes"}}}, {"type": "Feature", "geometry": {"type": "Polygon", "coordinates": [[[-96.4060083, 34.0065592], [-96.4060578, 34.0065578], [-96.4060612, 34.0066412], [-96.4060117, 34.0066426], [-96.4060083, 34.0065592]]]}, "properties": {"osm_id": 1133405367, "building": "yes", "name": "", "height": null, "height_m": null, "levels": null, "tract_id": "40013796102", "tract_name": "7961.02", "tags": {"building": "yes"}}}, {"type": "Feature", "geometry": {"type": "Polygon", "coordinates": [[[-96.4055261, 34.0069986], [-96.4053175, 34.0069994], [-96.405317, 34.0069146], [-96.4055257, 34.0069139], [-96.4055261, 34.0069986]]]}, "properties": {"osm_id": 1133405369, "building": "yes", "name": "", "height": null, "height_m": null, "levels": null, "tract_id": "40013796102", "tract_name": "7961.02", "tags": {"building": "yes"}}}, {"type": "Feature", "geometry": {"type": "Polygon", "coordinates": [[[-96.4041833, 34.0072785], [-96.4041857, 34.0071081], [-96.4043498, 34.0071097], [-96.4043474, 34.00728], [-96.4041833, 34.0072785]]]}, "properties": {"osm_id": 1133405370, "building": "yes", "name": "", "height": null, "height_m": null, "levels": null, "tract_id": "40013796102", "tract_name": "7961.02", "tags": {"building": "yes"}}}, {"type": "Feature", "geometry": {"type": "Polygon", "coordinates": [[[-96.4072743, 34.0056887], [-96.4069913, 34.0056931], [-96.4069896, 34.0056188], [-96.4072726, 34.0056144], [-96.4072743, 34.0056887]]]}, "properties": {"osm_id": 1133405371, "building": "yes", "name": "", "height": null, "height_m": null, "levels": null, "tract_id": "40013796102", "tract_name": "7961.02", "tags": {"building": "yes"}}}, {"type": "Feature", "geometry": {"type": "Polygon", "coordinates": [[[-96.407281, 34.0054463], [-96.4068197, 34.005443], [-96.4068218, 34.0052392], [-96.4072832, 34.0052425], [-96.407281, 34.0054463]]]}, "properties": {"osm_id": 1133405372, "building": "yes", "name": "", "height": null, "height_m": null, "levels": null, "tract_id": "40013796102", "tract_name": "7961.02", "tags": {"building": "yes"}}}, {"type": "Feature", "geometry": {"type": "Polygon", "coordinates": [[[-96.4070538, 34.0035161], [-96.40683, 34.0035176], [-96.4068282, 34.0033381], [-96.407052, 34.0033365], [-96.4070538, 34.0035161]]]}, "properties": {"osm_id": 1133405373, "building": "yes", "name": "", "height": null, "height_m": null, "levels": null, "tract_id": "40013796102", "tract_name": "7961.02", "tags": {"building": "yes"}}}, {"type": "Feature", "geometry": {"type": "Polygon", "coordinates": [[[-96.4040865, 34.0017841], [-96.4038176, 34.0017797], [-96.4038257, 34.0014461], [-96.4040945, 34.0014506], [-96.4040865, 34.0017841]]]}, "properties": {"osm_id": 1133405374, "building": "yes", "name": "", "height": null, "height_m": null, "levels": null, "tract_id": "40013796102", "tract_name": "7961.02", "tags": {"building": "yes"}}}, {"type": "Feature", "geometry": {"type": "Polygon", "coordinates": [[[-96.4045733, 34.0012816], [-96.4045599, 34.001644], [-96.4043399, 34.0016384], [-96.4043533, 34.001276], [-96.4045733, 34.0012816]]]}, "properties": {"osm_id": 1133405375, "building": "yes", "name": "", "height": null, "height_m": null, "levels": null, "tract_id": "40013796102", "tract_name": "7961.02", "tags": {"building": "yes"}}}, {"type": "Feature", "geometry": {"type": "Polygon", "coordinates": [[[-96.4022526, 34.003108], [-96.4020838, 34.0033565], [-96.4019118, 34.0032762], [-96.4020806, 34.0030277], [-96.4022526, 34.003108]]]}, "properties": {"osm_id": 1133405376, "building": "yes", "name": "", "height": null, "height_m": null, "levels": null, "tract_id": "40013796102", "tract_name": "7961.02", "tags": {"building": "yes"}}}, {"type": "Feature", "geometry": {"type": "Polygon", "coordinates": [[[-96.4292081, 34.026168], [-96.4292102, 34.0260195], [-96.4295482, 34.0260228], [-96.429546, 34.0261714], [-96.4292081, 34.026168]]]}, "properties": {"osm_id": 1133596709, "building": "yes", "name": "", "height": null, "height_m": null, "levels": null, "tract_id": "40013796102", "tract_name": "7961.02", "tags": {"building": "yes"}}}, {"type": "Feature", "geometry": {"type": "Polygon", "coordinates": [[[-96.4307664, 34.0261058], [-96.4304566, 34.0261102], [-96.4304548, 34.0260228], [-96.4307646, 34.0260183], [-96.4307664, 34.0261058]]]}, "properties": {"osm_id": 1133596710, "building": "yes", "name": "", "height": null, "height_m": null, "levels": null, "tract_id": "40013796102", "tract_name": "7961.02", "tags": {"building": "yes"}}}, {"type": "Feature", "geometry": {"type": "Polygon", "coordinates": [[[-96.4273647, 34.022385], [-96.427299, 34.0223839], [-96.4272998, 34.0223509], [-96.4273655, 34.022352], [-96.4273647, 34.022385]]]}, "properties": {"osm_id": 1133596712, "building": "yes", "name": "", "height": null, "height_m": null, "levels": null, "tract_id": "40013796102", "tract_name": "7961.02", "tags": {"building": "yes"}}}, {"type": "Feature", "geometry": {"type": "Polygon", "coordinates": [[[-96.3909544, 34.0235993], [-96.3909504, 34.0234037], [-96.3911506, 34.0234009], [-96.3911546, 34.0235965], [-96.3909544, 34.0235993]]]}, "properties": {"osm_id": 1133596740, "building": "yes", "name": "", "height": null, "height_m": null, "levels": null, "tract_id": "40013796102", "tract_name": "7961.02", "tags": {"building": "yes"}}}, {"type": "Feature", "geometry": {"type": "Polygon", "coordinates": [[[-96.3912897, 34.0228957], [-96.3914005, 34.0228981], [-96.3913965, 34.0230303], [-96.3912857, 34.023028], [-96.3912897, 34.0228957]]]}, "properties": {"osm_id": 1133596741, "building": "yes", "name": "", "height": null, "height_m": null, "levels": null, "tract_id": "40013796102", "tract_name": "7961.02", "tags": {"building": "yes"}}}, {"type": "Feature", "geometry": {"type": "Polygon", "coordinates": [[[-96.3914324, 34.02318], [-96.3914942, 34.0231781], [-96.391498, 34.0232598], [-96.3914362, 34.0232618], [-96.3914324, 34.02318]]]}, "properties": {"osm_id": 1133596742, "building": "yes", "name": "", "height": null, "height_m": null, "levels": null, "tract_id": "40013796102", "tract_name": "7961.02", "tags": {"building": "yes"}}}, {"type": "Feature", "geometry": {"type": "Polygon", "coordinates": [[[-96.3915887, 34.0236838], [-96.3915877, 34.0235768], [-96.3919243, 34.0235746], [-96.3919254, 34.0236816], [-96.3915887, 34.0236838]]]}, "properties": {"osm_id": 1133596743, "building": "yes", "name": "", "height": null, "height_m": null, "levels": null, "tract_id": "40013796102", "tract_name": "7961.02", "tags": {"building": "yes"}}}, {"type": "Feature", "geometry": {"type": "Polygon", "coordinates": [[[-96.3944359, 34.0207316], [-96.3944374, 34.0206354], [-96.3946413, 34.0206376], [-96.3946398, 34.0207338], [-96.3944359, 34.0207316]]]}, "properties": {"osm_id": 1133596744, "building": "yes", "name": "", "height": null, "height_m": null, "levels": null, "tract_id": "40013796102", "tract_name": "7961.02", "tags": {"building": "yes"}}}, {"type": "Feature", "geometry": {"type": "Polygon", "coordinates": [[[-96.3946277, 34.0209783], [-96.3944399, 34.0209761], [-96.3944415, 34.0208847], [-96.3946293, 34.0208869], [-96.3946277, 34.0209783]]]}, "properties": {"osm_id": 1133596745, "building": "yes", "name": "", "height": null, "height_m": null, "levels": null, "tract_id": "40013796102", "tract_name": "7961.02", "tags": {"building": "yes"}}}, {"type": "Feature", "geometry": {"type": "Polygon", "coordinates": [[[-96.3939705, 34.0153444], [-96.3941476, 34.0154081], [-96.3941531, 34.0153975], [-96.3942458, 34.0154308], [-96.3942576, 34.015408], [-96.3945599, 34.0155166], [-96.3945353, 34.0155637], [-96.3945539, 34.0155704], [-96.394605, 34.0154727], [-96.3949088, 34.0155819], [-96.3948151, 34.0157611], [-96.3945125, 34.0156523], [-96.3945385, 34.0156025], [-96.3945187, 34.0155954], [-96.394428, 34.0157689], [-96.3941231, 34.0156594], [-96.3941966, 34.0155189], [-96.3941174, 34.0154904], [-96.3940501, 34.0156191], [-96.3938622, 34.0155516], [-96.3939705, 34.0153444]]]}, "properties": {"osm_id": 1133596746, "building": "yes", "name": "", "height": null, "height_m": null, "levels": null, "tract_id": "40013796102", "tract_name": "7961.02", "tags": {"building": "yes"}}}, {"type": "Feature", "geometry": {"type": "Polygon", "coordinates": [[[-96.3941971, 34.0162819], [-96.3943073, 34.0160698], [-96.3946158, 34.0161798], [-96.3945056, 34.0163919], [-96.3941971, 34.0162819]]]}, "properties": {"osm_id": 1133596749, "building": "yes", "name": "", "height": null, "height_m": null, "levels": null, "tract_id": "40013796102", "tract_name": "7961.02", "tags": {"building": "yes"}}}, {"type": "Feature", "geometry": {"type": "Polygon", "coordinates": [[[-96.3921493, 34.0184979], [-96.3922224, 34.0182606], [-96.3924058, 34.0182994], [-96.3923327, 34.0185367], [-96.3921493, 34.0184979]]]}, "properties": {"osm_id": 1133596750, "building": "yes", "name": "", "height": null, "height_m": null, "levels": null, "tract_id": "40013796102", "tract_name": "7961.02", "tags": {"building": "yes"}}}, {"type": "Feature", "geometry": {"type": "Polygon", "coordinates": [[[-96.3918248, 34.0216308], [-96.3918328, 34.0214719], [-96.3923799, 34.0214908], [-96.392372, 34.0216497], [-96.3918248, 34.0216308]]]}, "properties": {"osm_id": 1133596751, "building": "yes", "name": "", "height": null, "height_m": null, "levels": null, "tract_id": "40013796102", "tract_name": "7961.02", "tags": {"building": "yes"}}}, {"type": "Feature", "geometry": {"type": "Polygon", "coordinates": [[[-96.3925852, 34.0213652], [-96.3919334, 34.0213607], [-96.3919348, 34.0212239], [-96.3925865, 34.0212283], [-96.3925852, 34.0213652]]]}, "properties": {"osm_id": 1133596752, "building": "yes", "name": "", "height": null, "height_m": null, "levels": null, "tract_id": "40013796102", "tract_name": "7961.02", "tags": {"building": "yes"}}}, {"type": "Feature", "geometry": {"type": "Polygon", "coordinates": [[[-96.3998714, 34.0196862], [-96.3998589, 34.0195772], [-96.3999997, 34.019566], [-96.4000122, 34.019675], [-96.3998714, 34.0196862]]]}, "properties": {"osm_id": 1133596753, "building": "yes", "name": "", "height": null, "height_m": null, "levels": null, "tract_id": "40013796102", "tract_name": "7961.02", "tags": {"building": "yes"}}}, {"type": "Feature", "geometry": {"type": "Polygon", "coordinates": [[[-96.4001698, 34.0196834], [-96.4000981, 34.0196895], [-96.4000897, 34.0196224], [-96.4001615, 34.0196163], [-96.4001698, 34.0196834]]]}, "properties": {"osm_id": 1133596754, "building": "yes", "name": "", "height": null, "height_m": null, "levels": null, "tract_id": "40013796102", "tract_name": "7961.02", "tags": {"building": "yes"}}}, {"type": "Feature", "geometry": {"type": "Polygon", "coordinates": [[[-96.4041059, 34.0235949], [-96.4041073, 34.02377], [-96.4039881, 34.0237706], [-96.4039868, 34.0235955], [-96.4041059, 34.0235949]]]}, "properties": {"osm_id": 1133596759, "building": "yes", "name": "", "height": null, "height_m": null, "levels": null, "tract_id": "40013796102", "tract_name": "7961.02", "tags": {"building": "yes"}}}, {"type": "Feature", "geometry": {"type": "Polygon", "coordinates": [[[-96.4052924, 34.0242375], [-96.4052386, 34.02423], [-96.405258, 34.0241353], [-96.4053118, 34.0241428], [-96.4052924, 34.0242375]]]}, "properties": {"osm_id": 1133596760, "building": "yes", "name": "", "height": null, "height_m": null, "levels": null, "tract_id": "40013796102", "tract_name": "7961.02", "tags": {"building": "yes"}}}, {"type": "Feature", "geometry": {"type": "Polygon", "coordinates": [[[-96.4053844, 34.0242018], [-96.4053644, 34.024289], [-96.4052997, 34.0242789], [-96.4053196, 34.0241916], [-96.4053844, 34.0242018]]]}, "properties": {"osm_id": 1133596761, "building": "yes", "name": "", "height": null, "height_m": null, "levels": null, "tract_id": "40013796102", "tract_name": "7961.02", "tags": {"building": "yes"}}}, {"type": "Feature", "geometry": {"type": "Polygon", "coordinates": [[[-96.4172395, 34.0041862], [-96.4172399, 34.0040885], [-96.4172868, 34.0040886], [-96.417287, 34.0040237], [-96.4172367, 34.0040236], [-96.4172368, 34.0039901], [-96.4170966, 34.0039898], [-96.4170965, 34.004026], [-96.4170216, 34.0040258], [-96.4170213, 34.004122], [-96.417098, 34.0041222], [-96.4170978, 34.0041859], [-96.4172395, 34.0041862]]]}, "properties": {"osm_id": 1150317885, "building": "church", "name": "", "height": null, "height_m": null, "levels": null, "tract_id": "40013796102", "tract_name": "7961.02", "tags": {"amenity": "place_of_worship", "building": "church", "denomination": "jehovahs_witness", "religion": "christian"}}}, {"type": "Feature", "geometry": {"type": "Polygon", "coordinates": [[[-96.3990802, 34.0080008], [-96.3992158, 34.0080081], [-96.3992124, 34.0080513], [-96.3992278, 34.0080521], [-96.3992244, 34.0080945], [-96.3992091, 34.0080937], [-96.3992058, 34.0081353], [-96.3992362, 34.0081369], [-96.3992312, 34.0082016], [-96.3992008, 34.0082], [-96.3991987, 34.008227], [-96.3992121, 34.0082277], [-96.3992077, 34.0082841], [-96.3991942, 34.0082834], [-96.3991913, 34.0083215], [-96.3990557, 34.0083142], [-96.3990587, 34.0082756], [-96.3990386, 34.0082745], [-96.3990427, 34.0082217], [-96.3990629, 34.0082228], [-96.3990651, 34.0081944], [-96.3990107, 34.0081915], [-96.3990161, 34.0081219], [-96.3990705, 34.0081248], [-96.3990729, 34.0080953], [-96.3990601, 34.0080947], [-96.3990641, 34.0080434], [-96.3990769, 34.0080441], [-96.3990802, 34.0080008]]]}, "properties": {"osm_id": 1164810292, "building": "commercial", "name": "Burrage Law Firm", "height": null, "height_m": null, "levels": null, "tract_id": "40013796102", "tract_name": "7961.02", "tags": {"addr:city": "Durant", "addr:housenumber": "1201", "addr:postcode": "74701", "addr:street": "Westside Drive", "building": "commercial", "name": "Burrage Law Firm", "office": "lawyer", "website": "https://www.burragelaw.com/"}}}, {"type": "Feature", "geometry": {"type": "Polygon", "coordinates": [[[-96.399292, 34.0075119], [-96.3993919, 34.0074521], [-96.3995474, 34.0076305], [-96.3994475, 34.0076904], [-96.399292, 34.0075119]]]}, "properties": {"osm_id": 1164810293, "building": "retail", "name": "Freddy's", "height": null, "height_m": null, "levels": null, "tract_id": "40013796102", "tract_name": "7961.02", "tags": {"amenity": "fast_food", "brand": "Freddy's", "brand:wikidata": "Q5496837", "building": "retail", "cuisine": "ice_cream;burger", "name": "Freddy's", "official_name": "Freddys Frozen Custard & Steakburgers", "takeaway": "yes"}}}, {"type": "Feature", "geometry": {"type": "Polygon", "coordinates": [[[-96.4050776, 34.006239], [-96.4048764, 34.006239], [-96.4048764, 34.0061612], [-96.4050776, 34.0061612], [-96.4050776, 34.006239]]]}, "properties": {"osm_id": 1164810294, "building": "yes", "name": "", "height": null, "height_m": null, "levels": null, "tract_id": "40013796102", "tract_name": "7961.02", "tags": {"building": "yes"}}}, {"type": "Feature", "geometry": {"type": "Polygon", "coordinates": [[[-96.408078, 34.0059814], [-96.4083222, 34.0059831], [-96.4083165, 34.0065303], [-96.4080723, 34.0065285], [-96.408078, 34.0059814]]]}, "properties": {"osm_id": 1164810295, "building": "yes", "name": "", "height": null, "height_m": null, "levels": null, "tract_id": "40013796102", "tract_name": "7961.02", "tags": {"building": "yes"}}}, {"type": "Feature", "geometry": {"type": "Polygon", "coordinates": [[[-96.4058542, 34.0055757], [-96.4058547, 34.0054595], [-96.406161, 34.0054603], [-96.4061605, 34.0055765], [-96.4058542, 34.0055757]]]}, "properties": {"osm_id": 1164810296, "building": "yes", "name": "", "height": null, "height_m": null, "levels": null, "tract_id": "40013796102", "tract_name": "7961.02", "tags": {"building": "yes"}}}, {"type": "Feature", "geometry": {"type": "Polygon", "coordinates": [[[-96.4074232, 34.0219952], [-96.4074422, 34.0219552], [-96.4075157, 34.0219792], [-96.4074967, 34.0220192], [-96.4074232, 34.0219952]]]}, "properties": {"osm_id": 1164810300, "building": "yes", "name": "", "height": null, "height_m": null, "levels": null, "tract_id": "40013796102", "tract_name": "7961.02", "tags": {"building": "yes"}}}, {"type": "Feature", "geometry": {"type": "Polygon", "coordinates": [[[-96.4082791, 34.0232799], [-96.4081178, 34.0232767], [-96.408121, 34.0231662], [-96.4082822, 34.0231693], [-96.4082791, 34.0232799]]]}, "properties": {"osm_id": 1164810302, "building": "yes", "name": "", "height": null, "height_m": null, "levels": null, "tract_id": "40013796102", "tract_name": "7961.02", "tags": {"building": "yes"}}}, {"type": "Feature", "geometry": {"type": "Polygon", "coordinates": [[[-96.4257668, 34.0035863], [-96.4257658, 34.0034659], [-96.4259697, 34.0034648], [-96.4259706, 34.0035852], [-96.4257668, 34.0035863]]]}, "properties": {"osm_id": 1164810310, "building": "yes", "name": "", "height": null, "height_m": null, "levels": null, "tract_id": "40013796102", "tract_name": "7961.02", "tags": {"building": "yes"}}}, {"type": "Feature", "geometry": {"type": "Polygon", "coordinates": [[[-96.4262194, 34.0034735], [-96.4262201, 34.0035819], [-96.4261017, 34.0035824], [-96.4261011, 34.003474], [-96.4262194, 34.0034735]]]}, "properties": {"osm_id": 1164810311, "building": "yes", "name": "", "height": null, "height_m": null, "levels": null, "tract_id": "40013796102", "tract_name": "7961.02", "tags": {"building": "yes"}}}, {"type": "Feature", "geometry": {"type": "Polygon", "coordinates": [[[-96.4237464, 34.0032634], [-96.4237462, 34.0031808], [-96.4250657, 34.003178], [-96.4250659, 34.0032606], [-96.4237464, 34.0032634]]]}, "properties": {"osm_id": 1164810312, "building": "yes", "name": "", "height": null, "height_m": null, "levels": null, "tract_id": "40013796102", "tract_name": "7961.02", "tags": {"building": "yes"}}}, {"type": "Feature", "geometry": {"type": "Polygon", "coordinates": [[[-96.4232357, 34.0030821], [-96.4232352, 34.0030049], [-96.4250541, 34.0029971], [-96.4250546, 34.0030742], [-96.4232357, 34.0030821]]]}, "properties": {"osm_id": 1164810313, "building": "yes", "name": "", "height": null, "height_m": null, "levels": null, "tract_id": "40013796102", "tract_name": "7961.02", "tags": {"building": "yes"}}}, {"type": "Feature", "geometry": {"type": "Polygon", "coordinates": [[[-96.4232442, 34.0034288], [-96.4232518, 34.0038942], [-96.4231801, 34.003895], [-96.4231725, 34.0034296], [-96.4232442, 34.0034288]]]}, "properties": {"osm_id": 1164810314, "building": "yes", "name": "", "height": null, "height_m": null, "levels": null, "tract_id": "40013796102", "tract_name": "7961.02", "tags": {"building": "yes"}}}, {"type": "Feature", "geometry": {"type": "Polygon", "coordinates": [[[-96.4235432, 34.0038865], [-96.4235458, 34.0034013], [-96.4236472, 34.0034016], [-96.4236447, 34.0038869], [-96.4235432, 34.0038865]]]}, "properties": {"osm_id": 1164810315, "building": "yes", "name": "", "height": null, "height_m": null, "levels": null, "tract_id": "40013796102", "tract_name": "7961.02", "tags": {"building": "yes"}}}, {"type": "Feature", "geometry": {"type": "Polygon", "coordinates": [[[-96.4233461, 34.0034051], [-96.4234498, 34.0034039], [-96.4234578, 34.0038898], [-96.4233542, 34.003891], [-96.4233461, 34.0034051]]]}, "properties": {"osm_id": 1164810316, "building": "yes", "name": "", "height": null, "height_m": null, "levels": null, "tract_id": "40013796102", "tract_name": "7961.02", "tags": {"building": "yes"}}}, {"type": "Feature", "geometry": {"type": "Polygon", "coordinates": [[[-96.4232335, 34.0032962], [-96.4232313, 34.003184], [-96.4237355, 34.0031774], [-96.4237377, 34.0032895], [-96.4232335, 34.0032962]]]}, "properties": {"osm_id": 1164810317, "building": "yes", "name": "", "height": null, "height_m": null, "levels": null, "tract_id": "40013796102", "tract_name": "7961.02", "tags": {"building": "yes"}}}, {"type": "Feature", "geometry": {"type": "Polygon", "coordinates": [[[-96.4241575, 34.0042495], [-96.4239574, 34.0042503], [-96.4239567, 34.004138], [-96.4241568, 34.0041372], [-96.4241575, 34.0042495]]]}, "properties": {"osm_id": 1164810318, "building": "yes", "name": "", "height": null, "height_m": null, "levels": null, "tract_id": "40013796102", "tract_name": "7961.02", "tags": {"building": "yes"}}}, {"type": "Feature", "geometry": {"type": "Polygon", "coordinates": [[[-96.4243869, 34.0047141], [-96.4243145, 34.0047152], [-96.4242993, 34.0039746], [-96.4243718, 34.0039736], [-96.4243869, 34.0047141]]]}, "properties": {"osm_id": 1164810319, "building": "yes", "name": "", "height": null, "height_m": null, "levels": null, "tract_id": "40013796102", "tract_name": "7961.02", "tags": {"building": "yes"}}}, {"type": "Feature", "geometry": {"type": "Polygon", "coordinates": [[[-96.4245614, 34.0039752], [-96.4245823, 34.004722], [-96.4244662, 34.0047242], [-96.4244453, 34.0039774], [-96.4245614, 34.0039752]]]}, "properties": {"osm_id": 1164810320, "building": "yes", "name": "", "height": null, "height_m": null, "levels": null, "tract_id": "40013796102", "tract_name": "7961.02", "tags": {"building": "yes"}}}, {"type": "Feature", "geometry": {"type": "Polygon", "coordinates": [[[-96.4247075, 34.0047078], [-96.4246961, 34.0039736], [-96.4247907, 34.0039726], [-96.4248021, 34.0047068], [-96.4247075, 34.0047078]]]}, "properties": {"osm_id": 1164810321, "building": "yes", "name": "", "height": null, "height_m": null, "levels": null, "tract_id": "40013796102", "tract_name": "7961.02", "tags": {"building": "yes"}}}, {"type": "Feature", "geometry": {"type": "Polygon", "coordinates": [[[-96.4224069, 34.0069593], [-96.4222201, 34.0069813], [-96.4222116, 34.006932], [-96.4223984, 34.00691], [-96.4224069, 34.0069593]]]}, "properties": {"osm_id": 1164810322, "building": "yes", "name": "", "height": null, "height_m": null, "levels": null, "tract_id": "40013796102", "tract_name": "7961.02", "tags": {"building": "yes"}}}, {"type": "Feature", "geometry": {"type": "Polygon", "coordinates": [[[-96.4212513, 34.0108426], [-96.4212674, 34.0110071], [-96.42115, 34.011015], [-96.4211339, 34.0108505], [-96.4212513, 34.0108426]]]}, "properties": {"osm_id": 1164810323, "building": "yes", "name": "", "height": null, "height_m": null, "levels": null, "tract_id": "40013796102", "tract_name": "7961.02", "tags": {"building": "yes"}}}, {"type": "Feature", "geometry": {"type": "Polygon", "coordinates": [[[-96.420258, 34.01158], [-96.4201118, 34.0115814], [-96.420108, 34.0113173], [-96.4202542, 34.0113159], [-96.420258, 34.01158]]]}, "properties": {"osm_id": 1164810324, "building": "yes", "name": "", "height": null, "height_m": null, "levels": null, "tract_id": "40013796102", "tract_name": "7961.02", "tags": {"building": "yes"}}}, {"type": "Feature", "geometry": {"type": "Polygon", "coordinates": [[[-96.42332, 34.0113101], [-96.4233206, 34.0112523], [-96.4233905, 34.0112528], [-96.4233898, 34.0113106], [-96.42332, 34.0113101]]]}, "properties": {"osm_id": 1164810325, "building": "yes", "name": "", "height": null, "height_m": null, "levels": null, "tract_id": "40013796102", "tract_name": "7961.02", "tags": {"building": "yes"}}}, {"type": "Feature", "geometry": {"type": "Polygon", "coordinates": [[[-96.4237947, 34.0111672], [-96.4238875, 34.011165], [-96.4238908, 34.0112595], [-96.4237981, 34.0112617], [-96.4237947, 34.0111672]]]}, "properties": {"osm_id": 1164810326, "building": "yes", "name": "", "height": null, "height_m": null, "levels": null, "tract_id": "40013796102", "tract_name": "7961.02", "tags": {"building": "yes"}}}, {"type": "Feature", "geometry": {"type": "Polygon", "coordinates": [[[-96.417641, 34.0107659], [-96.4176384, 34.0106781], [-96.4177219, 34.0106763], [-96.4177246, 34.0107642], [-96.417641, 34.0107659]]]}, "properties": {"osm_id": 1164810328, "building": "yes", "name": "", "height": null, "height_m": null, "levels": null, "tract_id": "40013796102", "tract_name": "7961.02", "tags": {"building": "yes"}}}, {"type": "Feature", "geometry": {"type": "Polygon", "coordinates": [[[-96.418089, 34.0109243], [-96.4180943, 34.0108448], [-96.4181817, 34.0108489], [-96.4181764, 34.0109284], [-96.418089, 34.0109243]]]}, "properties": {"osm_id": 1164810329, "building": "yes", "name": "", "height": null, "height_m": null, "levels": null, "tract_id": "40013796102", "tract_name": "7961.02", "tags": {"building": "yes"}}}, {"type": "Feature", "geometry": {"type": "Polygon", "coordinates": [[[-96.417981, 34.01108], [-96.4178704, 34.0110772], [-96.4178727, 34.0110139], [-96.4179833, 34.0110167], [-96.417981, 34.01108]]]}, "properties": {"osm_id": 1164810330, "building": "yes", "name": "", "height": null, "height_m": null, "levels": null, "tract_id": "40013796102", "tract_name": "7961.02", "tags": {"building": "yes"}}}, {"type": "Feature", "geometry": {"type": "Polygon", "coordinates": [[[-96.4185248, 34.0114468], [-96.4185248, 34.0113579], [-96.4186911, 34.0113579], [-96.4186911, 34.0114468], [-96.4185248, 34.0114468]]]}, "properties": {"osm_id": 1164810331, "building": "yes", "name": "", "height": null, "height_m": null, "levels": null, "tract_id": "40013796102", "tract_name": "7961.02", "tags": {"building": "yes"}}}, {"type": "Feature", "geometry": {"type": "Polygon", "coordinates": [[[-96.4181684, 34.0115025], [-96.4181305, 34.0115324], [-96.4180963, 34.0115026], [-96.4181343, 34.0114727], [-96.4181684, 34.0115025]]]}, "properties": {"osm_id": 1164810332, "building": "yes", "name": "", "height": null, "height_m": null, "levels": null, "tract_id": "40013796102", "tract_name": "7961.02", "tags": {"building": "yes"}}}, {"type": "Feature", "geometry": {"type": "Polygon", "coordinates": [[[-96.4167948, 34.0129537], [-96.4168033, 34.0128674], [-96.416967, 34.0128785], [-96.4169584, 34.0129648], [-96.4167948, 34.0129537]]]}, "properties": {"osm_id": 1164810339, "building": "yes", "name": "", "height": null, "height_m": null, "levels": null, "tract_id": "40013796102", "tract_name": "7961.02", "tags": {"building": "yes"}}}, {"type": "Feature", "geometry": {"type": "Polygon", "coordinates": [[[-96.4139195, 34.0119376], [-96.4139289, 34.0120832], [-96.4137814, 34.0120898], [-96.4137721, 34.0119441], [-96.4139195, 34.0119376]]]}, "properties": {"osm_id": 1164810340, "building": "yes", "name": "", "height": null, "height_m": null, "levels": null, "tract_id": "40013796102", "tract_name": "7961.02", "tags": {"building": "yes"}}}, {"type": "Feature", "geometry": {"type": "Polygon", "coordinates": [[[-96.4142769, 34.0113673], [-96.4142735, 34.0112617], [-96.4143807, 34.0112594], [-96.414384, 34.011365], [-96.4142769, 34.0113673]]]}, "properties": {"osm_id": 1164810341, "building": "yes", "name": "", "height": null, "height_m": null, "levels": null, "tract_id": "40013796102", "tract_name": "7961.02", "tags": {"building": "yes"}}}, {"type": "Feature", "geometry": {"type": "Polygon", "coordinates": [[[-96.414388, 34.0112152], [-96.4142382, 34.0112192], [-96.4142338, 34.011105], [-96.4143837, 34.011101], [-96.414388, 34.0112152]]]}, "properties": {"osm_id": 1164810342, "building": "yes", "name": "", "height": null, "height_m": null, "levels": null, "tract_id": "40013796102", "tract_name": "7961.02", "tags": {"building": "yes"}}}, {"type": "Feature", "geometry": {"type": "Polygon", "coordinates": [[[-96.41424, 34.0103501], [-96.4144264, 34.0103501], [-96.4144264, 34.0105147], [-96.41424, 34.0105147], [-96.41424, 34.0103501]]]}, "properties": {"osm_id": 1164810344, "building": "yes", "name": "", "height": null, "height_m": null, "levels": null, "tract_id": "40013796102", "tract_name": "7961.02", "tags": {"building": "yes"}}}, {"type": "Feature", "geometry": {"type": "Polygon", "coordinates": [[[-96.4087338, 34.0104744], [-96.4087724, 34.0103743], [-96.4089398, 34.0104187], [-96.4089011, 34.0105188], [-96.4087338, 34.0104744]]]}, "properties": {"osm_id": 1164810345, "building": "yes", "name": "", "height": null, "height_m": null, "levels": null, "tract_id": "40013796102", "tract_name": "7961.02", "tags": {"building": "yes"}}}, {"type": "Feature", "geometry": {"type": "Polygon", "coordinates": [[[-96.4092008, 34.0101957], [-96.4091925, 34.0102675], [-96.4090938, 34.0102597], [-96.4091022, 34.0101878], [-96.4092008, 34.0101957]]]}, "properties": {"osm_id": 1164810346, "building": "yes", "name": "", "height": null, "height_m": null, "levels": null, "tract_id": "40013796102", "tract_name": "7961.02", "tags": {"building": "yes"}}}, {"type": "Feature", "geometry": {"type": "Polygon", "coordinates": [[[-96.409693, 34.0096509], [-96.4097637, 34.0096078], [-96.4098268, 34.009679], [-96.409756, 34.009722], [-96.409693, 34.0096509]]]}, "properties": {"osm_id": 1164810347, "building": "yes", "name": "", "height": null, "height_m": null, "levels": null, "tract_id": "40013796102", "tract_name": "7961.02", "tags": {"building": "yes"}}}, {"type": "Feature", "geometry": {"type": "Polygon", "coordinates": [[[-96.4162, 34.0052762], [-96.4159452, 34.0052762], [-96.4159452, 34.0051912], [-96.4162, 34.0051912], [-96.4162, 34.0052762]]]}, "properties": {"osm_id": 1164810379, "building": "yes", "name": "", "height": null, "height_m": null, "levels": null, "tract_id": "40013796102", "tract_name": "7961.02", "tags": {"building": "yes"}}}, {"type": "Feature", "geometry": {"type": "Polygon", "coordinates": [[[-96.4165031, 34.0051778], [-96.416505, 34.0052586], [-96.4163012, 34.0052619], [-96.4162993, 34.0051812], [-96.4165031, 34.0051778]]]}, "properties": {"osm_id": 1164810380, "building": "yes", "name": "", "height": null, "height_m": null, "levels": null, "tract_id": "40013796102", "tract_name": "7961.02", "tags": {"building": "yes"}}}, {"type": "Feature", "geometry": {"type": "Polygon", "coordinates": [[[-96.4163972, 34.0051145], [-96.4163965, 34.0050564], [-96.4164683, 34.0050558], [-96.4164689, 34.0051139], [-96.4163972, 34.0051145]]]}, "properties": {"osm_id": 1164810381, "building": "yes", "name": "", "height": null, "height_m": null, "levels": null, "tract_id": "40013796102", "tract_name": "7961.02", "tags": {"building": "yes"}}}, {"type": "Feature", "geometry": {"type": "Polygon", "coordinates": [[[-96.415875, 34.004755], [-96.4158743, 34.0046793], [-96.4161313, 34.0046777], [-96.416132, 34.0047534], [-96.415875, 34.004755]]]}, "properties": {"osm_id": 1164810382, "building": "semidetached", "name": "", "height": null, "height_m": null, "levels": null, "tract_id": "40013796102", "tract_name": "7961.02", "tags": {"building": "semidetached"}}}, {"type": "Feature", "geometry": {"type": "Polygon", "coordinates": [[[-96.4158389, 34.0047542], [-96.4156294, 34.0047558], [-96.4156285, 34.0046789], [-96.4158381, 34.0046773], [-96.4158389, 34.0047542]]]}, "properties": {"osm_id": 1164810383, "building": "semidetached", "name": "", "height": null, "height_m": null, "levels": null, "tract_id": "40013796102", "tract_name": "7961.02", "tags": {"building": "semidetached"}}}, {"type": "Feature", "geometry": {"type": "Polygon", "coordinates": [[[-96.4158428, 34.0030316], [-96.4158408, 34.0028562], [-96.4159409, 34.0028553], [-96.4159429, 34.0030307], [-96.4158428, 34.0030316]]]}, "properties": {"osm_id": 1164810384, "building": "semidetached", "name": "", "height": null, "height_m": null, "levels": null, "tract_id": "40013796102", "tract_name": "7961.02", "tags": {"building": "semidetached"}}}, {"type": "Feature", "geometry": {"type": "Polygon", "coordinates": [[[-96.4158418, 34.0026395], [-96.4159359, 34.0026377], [-96.4159407, 34.0028075], [-96.4158465, 34.0028093], [-96.4158418, 34.0026395]]]}, "properties": {"osm_id": 1164810385, "building": "yes", "name": "", "height": null, "height_m": null, "levels": null, "tract_id": "40013796102", "tract_name": "7961.02", "tags": {"building": "yes"}}}, {"type": "Feature", "geometry": {"type": "Polygon", "coordinates": [[[-96.4158131, 34.0021688], [-96.4159016, 34.0021688], [-96.4159016, 34.0023356], [-96.4158131, 34.0023356], [-96.4158131, 34.0021688]]]}, "properties": {"osm_id": 1164810386, "building": "yes", "name": "", "height": null, "height_m": null, "levels": null, "tract_id": "40013796102", "tract_name": "7961.02", "tags": {"building": "yes"}}}, {"type": "Feature", "geometry": {"type": "Polygon", "coordinates": [[[-96.4162619, 34.0019225], [-96.4163654, 34.0019195], [-96.416373, 34.002098], [-96.4162695, 34.002101], [-96.4162619, 34.0019225]]]}, "properties": {"osm_id": 1164810387, "building": "yes", "name": "", "height": null, "height_m": null, "levels": null, "tract_id": "40013796102", "tract_name": "7961.02", "tags": {"building": "yes"}}}, {"type": "Feature", "geometry": {"type": "Polygon", "coordinates": [[[-96.4162619, 34.0021481], [-96.4163565, 34.0021464], [-96.4163612, 34.0023209], [-96.4162666, 34.0023227], [-96.4162619, 34.0021481]]]}, "properties": {"osm_id": 1164810388, "building": "yes", "name": "", "height": null, "height_m": null, "levels": null, "tract_id": "40013796102", "tract_name": "7961.02", "tags": {"building": "yes"}}}, {"type": "Feature", "geometry": {"type": "Polygon", "coordinates": [[[-96.4162619, 34.002373], [-96.4163588, 34.0023704], [-96.4163655, 34.0025402], [-96.4162685, 34.0025428], [-96.4162619, 34.002373]]]}, "properties": {"osm_id": 1164810389, "building": "yes", "name": "", "height": null, "height_m": null, "levels": null, "tract_id": "40013796102", "tract_name": "7961.02", "tags": {"building": "yes"}}}, {"type": "Feature", "geometry": {"type": "Polygon", "coordinates": [[[-96.4162664, 34.002588], [-96.4163588, 34.0025884], [-96.4163575, 34.0027641], [-96.4162651, 34.0027636], [-96.4162664, 34.002588]]]}, "properties": {"osm_id": 1164810390, "building": "yes", "name": "", "height": null, "height_m": null, "levels": null, "tract_id": "40013796102", "tract_name": "7961.02", "tags": {"building": "yes"}}}, {"type": "Feature", "geometry": {"type": "Polygon", "coordinates": [[[-96.4162624, 34.0028036], [-96.4163618, 34.0028027], [-96.4163645, 34.0029872], [-96.4162651, 34.0029882], [-96.4162624, 34.0028036]]]}, "properties": {"osm_id": 1164810391, "building": "semidetached", "name": "", "height": null, "height_m": null, "levels": null, "tract_id": "40013796102", "tract_name": "7961.02", "tags": {"building": "semidetached"}}}, {"type": "Feature", "geometry": {"type": "Polygon", "coordinates": [[[-96.4161974, 34.0030349], [-96.4162913, 34.0030332], [-96.4162961, 34.0032109], [-96.4162021, 34.0032126], [-96.4161974, 34.0030349]]]}, "properties": {"osm_id": 1164810392, "building": "semidetached", "name": "", "height": null, "height_m": null, "levels": null, "tract_id": "40013796102", "tract_name": "7961.02", "tags": {"building": "semidetached"}}}, {"type": "Feature", "geometry": {"type": "Polygon", "coordinates": [[[-96.4162617, 34.0032573], [-96.4163572, 34.0032562], [-96.4163599, 34.0034308], [-96.4162644, 34.0034318], [-96.4162617, 34.0032573]]]}, "properties": {"osm_id": 1164810393, "building": "semidetached", "name": "", "height": null, "height_m": null, "levels": null, "tract_id": "40013796102", "tract_name": "7961.02", "tags": {"building": "semidetached"}}}, {"type": "Feature", "geometry": {"type": "Polygon", "coordinates": [[[-96.4162208, 34.0034807], [-96.4163112, 34.0034798], [-96.4163139, 34.0036532], [-96.4162235, 34.0036542], [-96.4162208, 34.0034807]]]}, "properties": {"osm_id": 1164810394, "building": "semidetached", "name": "", "height": null, "height_m": null, "levels": null, "tract_id": "40013796102", "tract_name": "7961.02", "tags": {"building": "semidetached"}}}, {"type": "Feature", "geometry": {"type": "Polygon", "coordinates": [[[-96.4159177, 34.0037509], [-96.4159217, 34.003921], [-96.4158289, 34.0039225], [-96.4158249, 34.0037524], [-96.4159177, 34.0037509]]]}, "properties": {"osm_id": 1164810395, "building": "semidetached", "name": "", "height": null, "height_m": null, "levels": null, "tract_id": "40013796102", "tract_name": "7961.02", "tags": {"building": "semidetached"}}}, {"type": "Feature", "geometry": {"type": "Polygon", "coordinates": [[[-96.4162597, 34.0036986], [-96.4163553, 34.0036976], [-96.416358, 34.0038755], [-96.4162624, 34.0038765], [-96.4162597, 34.0036986]]]}, "properties": {"osm_id": 1164810396, "building": "semidetached", "name": "", "height": null, "height_m": null, "levels": null, "tract_id": "40013796102", "tract_name": "7961.02", "tags": {"building": "semidetached"}}}, {"type": "Feature", "geometry": {"type": "Polygon", "coordinates": [[[-96.4162372, 34.0039264], [-96.4163417, 34.003926], [-96.4163426, 34.0041061], [-96.4162382, 34.0041065], [-96.4162372, 34.0039264]]]}, "properties": {"osm_id": 1164810397, "building": "semidetached", "name": "", "height": null, "height_m": null, "levels": null, "tract_id": "40013796102", "tract_name": "7961.02", "tags": {"building": "semidetached"}}}, {"type": "Feature", "geometry": {"type": "Polygon", "coordinates": [[[-96.416241, 34.0041544], [-96.4163372, 34.0041529], [-96.416341, 34.0043227], [-96.4162448, 34.0043242], [-96.416241, 34.0041544]]]}, "properties": {"osm_id": 1164810398, "building": "semidetached", "name": "", "height": null, "height_m": null, "levels": null, "tract_id": "40013796102", "tract_name": "7961.02", "tags": {"building": "semidetached"}}}, {"type": "Feature", "geometry": {"type": "Polygon", "coordinates": [[[-96.4163799, 34.0047161], [-96.4163793, 34.0046621], [-96.4164741, 34.0046613], [-96.4164748, 34.0047153], [-96.4163799, 34.0047161]]]}, "properties": {"osm_id": 1164810399, "building": "yes", "name": "", "height": null, "height_m": null, "levels": null, "tract_id": "40013796102", "tract_name": "7961.02", "tags": {"building": "yes"}}}, {"type": "Feature", "geometry": {"type": "Polygon", "coordinates": [[[-96.4163375, 34.0043913], [-96.4163388, 34.0045669], [-96.4162504, 34.0045674], [-96.416249, 34.0043917], [-96.4163375, 34.0043913]]]}, "properties": {"osm_id": 1164810400, "building": "semidetached", "name": "", "height": null, "height_m": null, "levels": null, "tract_id": "40013796102", "tract_name": "7961.02", "tags": {"building": "semidetached"}}}, {"type": "Feature", "geometry": {"type": "Polygon", "coordinates": [[[-96.4185959, 34.0041611], [-96.4183733, 34.0041656], [-96.4183701, 34.0040546], [-96.4185927, 34.0040501], [-96.4185959, 34.0041611]]]}, "properties": {"osm_id": 1164810401, "building": "yes", "name": "", "height": null, "height_m": null, "levels": null, "tract_id": "40013796102", "tract_name": "7961.02", "tags": {"building": "yes"}}}, {"type": "Feature", "geometry": {"type": "Polygon", "coordinates": [[[-96.4059083, 34.0057888], [-96.405822, 34.0057911], [-96.4058203, 34.0057487], [-96.4059066, 34.0057463], [-96.4059083, 34.0057888]]]}, "properties": {"osm_id": 1164810404, "building": "yes", "name": "", "height": null, "height_m": null, "levels": null, "tract_id": "40013796102", "tract_name": "7961.02", "tags": {"building": "yes"}}}, {"type": "Feature", "geometry": {"type": "Polygon", "coordinates": [[[-96.405932, 34.0059067], [-96.4059342, 34.0057876], [-96.4060603, 34.0057892], [-96.4060581, 34.0059083], [-96.405932, 34.0059067]]]}, "properties": {"osm_id": 1164810405, "building": "yes", "name": "", "height": null, "height_m": null, "levels": null, "tract_id": "40013796102", "tract_name": "7961.02", "tags": {"building": "yes"}}}, {"type": "Feature", "geometry": {"type": "Polygon", "coordinates": [[[-96.4061887, 34.0045864], [-96.4058447, 34.0045853], [-96.4058454, 34.0044306], [-96.4061894, 34.0044317], [-96.4061887, 34.0045864]]]}, "properties": {"osm_id": 1164810406, "building": "yes", "name": "", "height": null, "height_m": null, "levels": null, "tract_id": "40013796102", "tract_name": "7961.02", "tags": {"building": "yes"}}}, {"type": "Feature", "geometry": {"type": "Polygon", "coordinates": [[[-96.4091812, 33.9980661], [-96.4091074, 33.9982656], [-96.4083487, 33.9980726], [-96.4084225, 33.9978734], [-96.4085549, 33.9979071], [-96.4085795, 33.9978406], [-96.4090617, 33.9979633], [-96.4090372, 33.9980295], [-96.4091812, 33.9980661]]]}, "properties": {"osm_id": 1164810408, "building": "retail", "name": "", "height": null, "height_m": null, "levels": null, "tract_id": "40013796102", "tract_name": "7961.02", "tags": {"building": "retail"}}}, {"type": "Feature", "geometry": {"type": "Polygon", "coordinates": [[[-96.4087113, 33.9994193], [-96.4087344, 33.9993411], [-96.4088383, 33.9993623], [-96.4088152, 33.9994404], [-96.4087113, 33.9994193]]]}, "properties": {"osm_id": 1164810409, "building": "yes", "name": "", "height": null, "height_m": null, "levels": null, "tract_id": "40013796102", "tract_name": "7961.02", "tags": {"building": "yes"}}}, {"type": "Feature", "geometry": {"type": "Polygon", "coordinates": [[[-96.4096293, 34.0007479], [-96.4096253, 34.0005378], [-96.4098266, 34.0005351], [-96.4098306, 34.0007453], [-96.4096293, 34.0007479]]]}, "properties": {"osm_id": 1164810410, "building": "yes", "name": "", "height": null, "height_m": null, "levels": null, "tract_id": "40013796102", "tract_name": "7961.02", "tags": {"building": "yes"}}}, {"type": "Feature", "geometry": {"type": "Polygon", "coordinates": [[[-96.4090835, 34.0001865], [-96.409343, 34.0001898], [-96.4093363, 34.0005423], [-96.4090768, 34.0005389], [-96.4090835, 34.0001865]]]}, "properties": {"osm_id": 1164810411, "building": "yes", "name": "", "height": null, "height_m": null, "levels": null, "tract_id": "40013796102", "tract_name": "7961.02", "tags": {"building": "yes"}}}, {"type": "Feature", "geometry": {"type": "Polygon", "coordinates": [[[-96.4089463, 34.0011659], [-96.408943, 34.0006235], [-96.4081682, 34.0006266], [-96.4081714, 34.0011692], [-96.4085297, 34.0011677], [-96.4085301, 34.0012301], [-96.4086481, 34.0012297], [-96.4086477, 34.0011671], [-96.4089463, 34.0011659]]]}, "properties": {"osm_id": 1164810412, "building": "yes", "name": "", "height": null, "height_m": null, "levels": null, "tract_id": "40013796102", "tract_name": "7961.02", "tags": {"building": "yes"}}}, {"type": "Feature", "geometry": {"type": "Polygon", "coordinates": [[[-96.4030558, 34.0013243], [-96.4032606, 34.0014209], [-96.4031288, 34.0016254], [-96.4031739, 34.0016438], [-96.4031136, 34.0017346], [-96.4030511, 34.0017016], [-96.402731, 34.0017048], [-96.4026997, 34.0016922], [-96.4027258, 34.0016556], [-96.4026779, 34.0016344], [-96.4027557, 34.0015161], [-96.4028045, 34.0015412], [-96.4028339, 34.0014909], [-96.4029211, 34.0015302], [-96.4030558, 34.0013243]]]}, "properties": {"osm_id": 1164810413, "building": "yes", "name": "", "height": null, "height_m": null, "levels": null, "tract_id": "40013796102", "tract_name": "7961.02", "tags": {"building": "yes"}}}, {"type": "Feature", "geometry": {"type": "Polygon", "coordinates": [[[-96.4633514, 33.9974645], [-96.4630913, 33.9974812], [-96.4630738, 33.9973377], [-96.4633447, 33.9973244], [-96.4633514, 33.9974645]]]}, "properties": {"osm_id": 1187065199, "building": "yes", "name": "Bubba's Brewhouse", "height": null, "height_m": null, "levels": null, "tract_id": "40013796102", "tract_name": "7961.02", "tags": {"addr:city": "Durant", "addr:housenumber": "9125", "addr:postcode": "74701", "addr:state": "OK", "amenity": "bar", "building": "yes", "name": "Bubba's Brewhouse"}}}, {"type": "Feature", "geometry": {"type": "Polygon", "coordinates": [[[-96.4276464, 33.9986086], [-96.4278413, 33.9986073], [-96.427839, 33.9985295], [-96.4278364, 33.9984518], [-96.427836, 33.9984398], [-96.427643, 33.9984411], [-96.4276464, 33.9986086]]]}, "properties": {"osm_id": 1212258692, "building": "retail", "name": "", "height": null, "height_m": null, "levels": null, "tract_id": "40013796102", "tract_name": "7961.02", "tags": {"building": "retail", "shop": "convenience", "source": "microsoft/BuildingFootprints"}}}, {"type": "Feature", "geometry": {"type": "Polygon", "coordinates": [[[-96.4275088, 33.9989195], [-96.4276654, 33.9989198], [-96.4276657, 33.9988267], [-96.4275091, 33.9988263], [-96.4275088, 33.9989195]]]}, "properties": {"osm_id": 1212258715, "building": "retail", "name": "", "height": null, "height_m": null, "levels": null, "tract_id": "40013796102", "tract_name": "7961.02", "tags": {"building": "retail", "shop": "yes", "source": "microsoft/BuildingFootprints"}}}, {"type": "Feature", "geometry": {"type": "Polygon", "coordinates": [[[-96.4271884, 33.9985415], [-96.4273269, 33.9985403], [-96.4273229, 33.9982415], [-96.4271844, 33.9982428], [-96.4271884, 33.9985415]]]}, "properties": {"osm_id": 1212258716, "building": "industrial", "name": "", "height": null, "height_m": null, "levels": null, "tract_id": "40013796102", "tract_name": "7961.02", "tags": {"building": "industrial", "shop": "vacant", "source": "microsoft/BuildingFootprints"}}}, {"type": "Feature", "geometry": {"type": "Polygon", "coordinates": [[[-96.4261146, 33.9991162], [-96.4263898, 33.9991126], [-96.4263879, 33.9990126], [-96.4261127, 33.9990162], [-96.4261146, 33.9991162]]]}, "properties": {"osm_id": 1212258717, "building": "yes", "name": "", "height": null, "height_m": null, "levels": null, "tract_id": "40013796102", "tract_name": "7961.02", "tags": {"building": "yes", "source": "microsoft/BuildingFootprints"}}}, {"type": "Feature", "geometry": {"type": "Polygon", "coordinates": [[[-96.4278364, 33.9984518], [-96.427839, 33.9985295], [-96.4279255, 33.9985277], [-96.4279279, 33.9986077], [-96.4279993, 33.9986063], [-96.4279929, 33.9983952], [-96.4279232, 33.9983966], [-96.4279248, 33.9984499], [-96.4278364, 33.9984518]]]}, "properties": {"osm_id": 1212258718, "building": "retail", "name": "", "height": null, "height_m": null, "levels": null, "tract_id": "40013796102", "tract_name": "7961.02", "tags": {"building": "retail", "shop": "yes", "source": "microsoft/BuildingFootprints"}}}, {"type": "Feature", "geometry": {"type": "Polygon", "coordinates": [[[-96.4278747, 33.9982032], [-96.4275574, 33.9982076], [-96.4275593, 33.9983046], [-96.4278766, 33.9983002], [-96.4278747, 33.9982032]]]}, "properties": {"osm_id": 1212258719, "building": "roof", "name": "", "height": null, "height_m": null, "levels": null, "tract_id": "40013796102", "tract_name": "7961.02", "tags": {"amenity": "fuel", "building": "roof", "fuel:HGV_diesel": "yes", "fuel:diesel": "yes", "fuel:e10": "yes", "source": "microsoft/BuildingFootprints"}}}, {"type": "Feature", "geometry": {"type": "Polygon", "coordinates": [[[-96.4264363, 33.999972], [-96.426434, 33.9998051], [-96.4264329, 33.9997206], [-96.4264315, 33.9996243], [-96.4261783, 33.9996267], [-96.4261774, 33.9995608], [-96.42609, 33.9995616], [-96.4260909, 33.9996253], [-96.4259863, 33.9996263], [-96.4259911, 33.9999762], [-96.4264363, 33.999972]]]}, "properties": {"osm_id": 1212258720, "building": "church", "name": "Believers Church", "height": null, "height_m": null, "levels": null, "tract_id": "40013796102", "tract_name": "7961.02", "tags": {"amenity": "place_of_worship", "building": "church", "name": "Believers Church", "religion": "christian", "source": "microsoft/BuildingFootprints"}}}, {"type": "Feature", "geometry": {"type": "Polygon", "coordinates": [[[-96.4280926, 33.9988528], [-96.4278905, 33.9988501], [-96.4278872, 33.999016], [-96.4280894, 33.9990187], [-96.4280926, 33.9988528]]]}, "properties": {"osm_id": 1212258721, "building": "industrial", "name": "", "height": null, "height_m": null, "levels": null, "tract_id": "40013796102", "tract_name": "7961.02", "tags": {"building": "industrial", "shop": "yes", "source": "microsoft/BuildingFootprints"}}}, {"type": "Feature", "geometry": {"type": "Polygon", "coordinates": [[[-96.4161041, 34.0060745], [-96.4160729, 34.0060981], [-96.4160566, 34.0060834], [-96.4159915, 34.0061328], [-96.4160078, 34.0061476], [-96.4159787, 34.0061697], [-96.4160139, 34.0062016], [-96.4159945, 34.0062163], [-96.4160577, 34.0062736], [-96.4160732, 34.0062619], [-96.4162039, 34.0063802], [-96.4161884, 34.006392], [-96.4162528, 34.0064502], [-96.4162722, 34.0064355], [-96.4163052, 34.0064654], [-96.4163379, 34.0064406], [-96.4163546, 34.0064557], [-96.4164193, 34.0064066], [-96.4164027, 34.0063915], [-96.4164307, 34.0063702], [-96.4163953, 34.0063382], [-96.4164129, 34.0063248], [-96.41635, 34.0062678], [-96.4163351, 34.0062792], [-96.4162057, 34.006162], [-96.4162207, 34.0061507], [-96.4161553, 34.0060915], [-96.4161377, 34.0061049], [-96.4161041, 34.0060745]]]}, "properties": {"osm_id": 1212659604, "building": "apartments", "name": "", "height": null, "height_m": null, "levels": null, "tract_id": "40013796102", "tract_name": "7961.02", "tags": {"building": "apartments"}}}, {"type": "Feature", "geometry": {"type": "Polygon", "coordinates": [[[-96.415272, 34.0064213], [-96.4152714, 34.0063144], [-96.4152324, 34.0063146], [-96.4152323, 34.0062971], [-96.4151922, 34.0062973], [-96.4151921, 34.0062738], [-96.4151029, 34.0062742], [-96.415103, 34.0062976], [-96.4149783, 34.0062981], [-96.4149784, 34.0063134], [-96.4149482, 34.0063135], [-96.4149481, 34.0062982], [-96.4148241, 34.0062986], [-96.4148239, 34.0062743], [-96.4147321, 34.0062746], [-96.4147322, 34.0062989], [-96.4146946, 34.0062991], [-96.4146947, 34.0063165], [-96.4146545, 34.0063167], [-96.4146551, 34.0064236], [-96.4146926, 34.0064234], [-96.4146927, 34.0064414], [-96.4147315, 34.0064413], [-96.4147316, 34.0064641], [-96.4148248, 34.0064638], [-96.4148247, 34.006441], [-96.4149494, 34.0064405], [-96.4149494, 34.0064263], [-96.4149775, 34.0064262], [-96.4149776, 34.0064404], [-96.4151003, 34.00644], [-96.4151005, 34.0064675], [-96.4151957, 34.0064671], [-96.4151955, 34.0064396], [-96.4152338, 34.0064395], [-96.4152338, 34.0064215], [-96.415272, 34.0064213]]]}, "properties": {"osm_id": 1212659605, "building": "apartments", "name": "", "height": null, "height_m": null, "levels": null, "tract_id": "40013796102", "tract_name": "7961.02", "tags": {"building": "apartments"}}}, {"type": "Feature", "geometry": {"type": "Polygon", "coordinates": [[[-96.4147, 34.0071039], [-96.4146998, 34.0070706], [-96.4146775, 34.0070707], [-96.4146771, 34.0069929], [-96.4146993, 34.0069928], [-96.414698, 34.0067693], [-96.414672, 34.0067694], [-96.4146715, 34.0066827], [-96.4146975, 34.0066826], [-96.4146973, 34.0066515], [-96.4147268, 34.0066513], [-96.4147267, 34.0066272], [-96.4148501, 34.0066267], [-96.4148502, 34.0066508], [-96.4148742, 34.0066507], [-96.4148744, 34.0066915], [-96.4149103, 34.0066914], [-96.4149107, 34.0067647], [-96.4148749, 34.0067649], [-96.4148762, 34.006995], [-96.414905, 34.0069949], [-96.4149054, 34.0070738], [-96.4148767, 34.0070739], [-96.4148769, 34.0071032], [-96.4148502, 34.0071033], [-96.4148504, 34.007137], [-96.4147257, 34.0071375], [-96.4147255, 34.0071038], [-96.4147, 34.0071039]]]}, "properties": {"osm_id": 1212659608, "building": "apartments", "name": "", "height": null, "height_m": null, "levels": null, "tract_id": "40013796102", "tract_name": "7961.02", "tags": {"building": "apartments"}}}, {"type": "Feature", "geometry": {"type": "Polygon", "coordinates": [[[-96.415714, 34.0064236], [-96.4157141, 34.0063053], [-96.4156787, 34.0063052], [-96.4156787, 34.0062895], [-96.415607, 34.0062895], [-96.415607, 34.0062642], [-96.4154858, 34.0062641], [-96.4154857, 34.0062894], [-96.4154146, 34.0062893], [-96.4154146, 34.006305], [-96.415377, 34.006305], [-96.4153769, 34.0064233], [-96.4154125, 34.0064234], [-96.4154125, 34.0064415], [-96.4154839, 34.0064416], [-96.4154839, 34.0064662], [-96.4156061, 34.0064663], [-96.4156061, 34.0064417], [-96.4156767, 34.0064417], [-96.4156767, 34.0064236], [-96.415714, 34.0064236]]]}, "properties": {"osm_id": 1212659609, "building": "apartments", "name": "", "height": null, "height_m": null, "levels": null, "tract_id": "40013796102", "tract_name": "7961.02", "tags": {"building": "apartments"}}}, {"type": "Feature", "geometry": {"type": "Polygon", "coordinates": [[[-96.4156321, 34.0058221], [-96.4155199, 34.0057489], [-96.415498, 34.005772], [-96.4154831, 34.0057623], [-96.4154388, 34.005809], [-96.4154148, 34.0057933], [-96.4153398, 34.0058723], [-96.4153638, 34.005888], [-96.4153197, 34.0059343], [-96.4153346, 34.005944], [-96.4153114, 34.0059685], [-96.4154235, 34.0060417], [-96.4154456, 34.0060185], [-96.4154628, 34.0060297], [-96.415507, 34.0059832], [-96.4155303, 34.0059984], [-96.4156059, 34.0059188], [-96.4155826, 34.0059036], [-96.4156262, 34.0058576], [-96.415609, 34.0058464], [-96.4156321, 34.0058221]]]}, "properties": {"osm_id": 1212659614, "building": "apartments", "name": "", "height": null, "height_m": null, "levels": null, "tract_id": "40013796102", "tract_name": "7961.02", "tags": {"building": "apartments"}}}, {"type": "Feature", "geometry": {"type": "Polygon", "coordinates": [[[-96.4152002, 34.0058782], [-96.4152007, 34.0059826], [-96.4151607, 34.0059827], [-96.4151607, 34.0060026], [-96.4151271, 34.0060027], [-96.4151272, 34.0060197], [-96.4149769, 34.0060202], [-96.4149769, 34.0060007], [-96.4149414, 34.0060008], [-96.4149413, 34.0059843], [-96.4148823, 34.0059845], [-96.4148824, 34.006001], [-96.4148287, 34.0060012], [-96.4148288, 34.0060206], [-96.414684, 34.006021], [-96.4146839, 34.006004], [-96.4146368, 34.0060042], [-96.4146367, 34.0059644], [-96.4146143, 34.0059645], [-96.414614, 34.0058967], [-96.4146364, 34.0058966], [-96.4146362, 34.0058586], [-96.4146886, 34.0058584], [-96.4146885, 34.0058371], [-96.4148308, 34.0058367], [-96.4148309, 34.0058596], [-96.4148824, 34.0058595], [-96.4148825, 34.0058761], [-96.4149428, 34.0058759], [-96.4149427, 34.0058593], [-96.4149784, 34.0058592], [-96.4149783, 34.0058363], [-96.4151244, 34.0058358], [-96.4151245, 34.0058571], [-96.4151639, 34.005857], [-96.415164, 34.0058783], [-96.4152002, 34.0058782]]]}, "properties": {"osm_id": 1212659615, "building": "apartments", "name": "", "height": null, "height_m": null, "levels": null, "tract_id": "40013796102", "tract_name": "7961.02", "tags": {"building": "apartments"}}}, {"type": "Feature", "geometry": {"type": "Polygon", "coordinates": [[[-96.4145449, 34.0054306], [-96.4145448, 34.005506], [-96.4146068, 34.0055061], [-96.4146069, 34.0054307], [-96.4145449, 34.0054306]]]}, "properties": {"osm_id": 1212659635, "building": "carport", "name": "", "height": null, "height_m": null, "levels": null, "tract_id": "40013796102", "tract_name": "7961.02", "tags": {"amenity": "parking", "building": "carport", "parking": "carports"}}}, {"type": "Feature", "geometry": {"type": "Polygon", "coordinates": [[[-96.4174633, 34.0043151], [-96.4174178, 34.0043151], [-96.4174178, 34.0042734], [-96.4174633, 34.0042734], [-96.4174633, 34.0043151]]]}, "properties": {"osm_id": 1212659641, "building": "yes", "name": "", "height": null, "height_m": null, "levels": null, "tract_id": "40013796102", "tract_name": "7961.02", "tags": {"building": "yes"}}}, {"type": "Feature", "geometry": {"type": "Polygon", "coordinates": [[[-96.4158275, 34.0041669], [-96.4159265, 34.004169], [-96.4159291, 34.004083], [-96.4159456, 34.0040833], [-96.4159483, 34.0039938], [-96.4158474, 34.0039917], [-96.4158449, 34.0040742], [-96.4158304, 34.0040739], [-96.4158275, 34.0041669]]]}, "properties": {"osm_id": 1212659651, "building": "semidetached", "name": "", "height": null, "height_m": null, "levels": null, "tract_id": "40013796102", "tract_name": "7961.02", "tags": {"building": "semidetached", "source": "microsoft/BuildingFootprints"}}}, {"type": "Feature", "geometry": {"type": "Polygon", "coordinates": [[[-96.4140601, 34.0031067], [-96.4141915, 34.0031058], [-96.4141907, 34.0030271], [-96.4140593, 34.003028], [-96.4140601, 34.0031067]]]}, "properties": {"osm_id": 1212659652, "building": "detached", "name": "", "height": null, "height_m": null, "levels": null, "tract_id": "40013796102", "tract_name": "7961.02", "tags": {"building": "detached", "source": "microsoft/BuildingFootprints"}}}, {"type": "Feature", "geometry": {"type": "Polygon", "coordinates": [[[-96.4148505, 34.0033117], [-96.4148543, 34.0032304], [-96.414857, 34.0032305], [-96.4148611, 34.0031439], [-96.4147446, 34.0031401], [-96.4147366, 34.0033079], [-96.4148505, 34.0033117]]]}, "properties": {"osm_id": 1212659653, "building": "detached", "name": "", "height": null, "height_m": null, "levels": null, "tract_id": "40013796102", "tract_name": "7961.02", "tags": {"building": "detached", "source": "microsoft/BuildingFootprints"}}}, {"type": "Feature", "geometry": {"type": "Polygon", "coordinates": [[[-96.4172787, 34.0055937], [-96.417083, 34.0055961], [-96.4170865, 34.0057948], [-96.4172849, 34.0057924], [-96.4172843, 34.0057591], [-96.4173406, 34.0057584], [-96.4173395, 34.0056917], [-96.4172805, 34.0056924], [-96.4172787, 34.0055937]]]}, "properties": {"osm_id": 1212659654, "building": "industrial", "name": "", "height": null, "height_m": null, "levels": null, "tract_id": "40013796102", "tract_name": "7961.02", "tags": {"building": "industrial", "source": "microsoft/BuildingFootprints"}}}, {"type": "Feature", "geometry": {"type": "Polygon", "coordinates": [[[-96.4147934, 34.0035044], [-96.4148872, 34.0035028], [-96.4148844, 34.0033859], [-96.4147289, 34.0033884], [-96.4147306, 34.0034609], [-96.4147923, 34.0034599], [-96.4147934, 34.0035044]]]}, "properties": {"osm_id": 1212659655, "building": "detached", "name": "", "height": null, "height_m": null, "levels": null, "tract_id": "40013796102", "tract_name": "7961.02", "tags": {"building": "detached", "source": "microsoft/BuildingFootprints"}}}, {"type": "Feature", "geometry": {"type": "Polygon", "coordinates": [[[-96.4149266, 34.0030118], [-96.4147695, 34.0030044], [-96.4147649, 34.0030718], [-96.4148387, 34.0030752], [-96.4148357, 34.0031194], [-96.414919, 34.0031234], [-96.4149266, 34.0030118]]]}, "properties": {"osm_id": 1212659656, "building": "detached", "name": "", "height": null, "height_m": null, "levels": null, "tract_id": "40013796102", "tract_name": "7961.02", "tags": {"building": "detached"}}}, {"type": "Feature", "geometry": {"type": "Polygon", "coordinates": [[[-96.4154327, 34.0056559], [-96.4154752, 34.0056556], [-96.4154754, 34.0056731], [-96.4155612, 34.0056724], [-96.415561, 34.0056549], [-96.4156028, 34.0056545], [-96.4156023, 34.0056159], [-96.4156299, 34.0056156], [-96.4156289, 34.0055352], [-96.4156137, 34.0055354], [-96.4156118, 34.005379], [-96.4156306, 34.0053788], [-96.4156296, 34.0052989], [-96.4156028, 34.0052991], [-96.4156023, 34.0052591], [-96.4155648, 34.0052594], [-96.4155646, 34.0052394], [-96.415436, 34.0052405], [-96.4154367, 34.0052952], [-96.4154088, 34.0052954], [-96.4154097, 34.005374], [-96.4154303, 34.0053738], [-96.4154322, 34.0055395], [-96.4154117, 34.0055397], [-96.4154126, 34.0056143], [-96.4154322, 34.0056141], [-96.4154327, 34.0056559]]]}, "properties": {"osm_id": 1212659657, "building": "apartments", "name": "", "height": null, "height_m": null, "levels": null, "tract_id": "40013796102", "tract_name": "7961.02", "tags": {"building": "apartments", "source": "microsoft/BuildingFootprints"}}}, {"type": "Feature", "geometry": {"type": "Polygon", "coordinates": [[[-96.4158316, 34.003383], [-96.4158282, 34.0034785], [-96.4159262, 34.0034809], [-96.4159293, 34.0033952], [-96.4159459, 34.0033956], [-96.4159491, 34.0033058], [-96.4158519, 34.0033034], [-96.4158491, 34.0033834], [-96.4158316, 34.003383]]]}, "properties": {"osm_id": 1212659658, "building": "semidetached", "name": "", "height": null, "height_m": null, "levels": null, "tract_id": "40013796102", "tract_name": "7961.02", "tags": {"building": "semidetached", "source": "microsoft/BuildingFootprints"}}}, {"type": "Feature", "geometry": {"type": "Polygon", "coordinates": [[[-96.4158294, 34.0037037], [-96.415931, 34.0037023], [-96.4159294, 34.00362], [-96.4159496, 34.0036197], [-96.4159476, 34.0035241], [-96.4158476, 34.0035255], [-96.4158493, 34.0036091], [-96.4158275, 34.0036094], [-96.4158294, 34.0037037]]]}, "properties": {"osm_id": 1212659659, "building": "semidetached", "name": "", "height": null, "height_m": null, "levels": null, "tract_id": "40013796102", "tract_name": "7961.02", "tags": {"building": "semidetached", "source": "microsoft/BuildingFootprints"}}}, {"type": "Feature", "geometry": {"type": "Polygon", "coordinates": [[[-96.4140357, 34.0032753], [-96.4140327, 34.0033553], [-96.4142229, 34.0033601], [-96.4142259, 34.0032802], [-96.4140357, 34.0032753]]]}, "properties": {"osm_id": 1212659660, "building": "detached", "name": "", "height": null, "height_m": null, "levels": null, "tract_id": "40013796102", "tract_name": "7961.02", "tags": {"building": "detached", "source": "microsoft/BuildingFootprints"}}}, {"type": "Feature", "geometry": {"type": "Polygon", "coordinates": [[[-96.4158411, 34.0066051], [-96.4158273, 34.0066836], [-96.4158633, 34.0066879], [-96.4158463, 34.0067851], [-96.4158646, 34.0067873], [-96.415861, 34.0068079], [-96.4158427, 34.0068057], [-96.4158241, 34.0069123], [-96.4157891, 34.0069081], [-96.4157758, 34.0069843], [-96.4158207, 34.0069897], [-96.4158097, 34.0070527], [-96.4159569, 34.0070704], [-96.4159627, 34.0070375], [-96.4159888, 34.0070406], [-96.4159945, 34.0070079], [-96.4160259, 34.0070116], [-96.4160392, 34.0069354], [-96.4159927, 34.0069298], [-96.4160109, 34.0068258], [-96.4159956, 34.006824], [-96.4159986, 34.0068071], [-96.4160139, 34.006809], [-96.416032, 34.0067054], [-96.4160722, 34.0067103], [-96.4160855, 34.006634], [-96.4160327, 34.0066277], [-96.4160441, 34.0065626], [-96.4158943, 34.0065446], [-96.4158829, 34.0066101], [-96.4158411, 34.0066051]]]}, "properties": {"osm_id": 1212659661, "building": "apartments", "name": "", "height": null, "height_m": null, "levels": null, "tract_id": "40013796102", "tract_name": "7961.02", "tags": {"building": "apartments", "source": "microsoft/BuildingFootprints"}}}, {"type": "Feature", "geometry": {"type": "Polygon", "coordinates": [[[-96.4169965, 34.0046318], [-96.4169969, 34.0046726], [-96.4171, 34.0046718], [-96.4170973, 34.0044441], [-96.4168199, 34.0044464], [-96.4168221, 34.0046332], [-96.4169965, 34.0046318]]]}, "properties": {"osm_id": 1212659662, "building": "yes", "name": "Durant Lodge #45", "height": null, "height_m": null, "levels": null, "tract_id": "40013796102", "tract_name": "7961.02", "tags": {"building": "yes", "club": "freemasonry", "name": "Durant Lodge #45", "source": "microsoft/BuildingFootprints"}}}, {"type": "Feature", "geometry": {"type": "Polygon", "coordinates": [[[-96.4146822, 34.0047515], [-96.4149155, 34.0047521], [-96.4149159, 34.0046631], [-96.414814, 34.0046629], [-96.4148143, 34.0045762], [-96.4149174, 34.0045764], [-96.4149178, 34.0044808], [-96.4148442, 34.0044806], [-96.4148444, 34.0044184], [-96.4146915, 34.004418], [-96.4146908, 34.0046128], [-96.4146666, 34.0046127], [-96.4146664, 34.0046647], [-96.4146825, 34.0046647], [-96.4146822, 34.0047515]]]}, "properties": {"osm_id": 1212659663, "building": "yes", "name": "", "height": null, "height_m": 3.0, "levels": 1, "tract_id": "40013796102", "tract_name": "7961.02", "tags": {"amenity": "social_facility", "building": "yes", "building:colour": "brown", "building:levels": "1", "building:material": "brick", "roof:colour": "brown", "roof:levels": "0", "roof:material": "tar_paper", "roof:orientation": "along", "roof:shape": "gabled"}}}, {"type": "Feature", "geometry": {"type": "Polygon", "coordinates": [[[-96.4141775, 34.0039191], [-96.4142898, 34.0039238], [-96.4142965, 34.0038143], [-96.4141841, 34.0038096], [-96.4141775, 34.0039191]]]}, "properties": {"osm_id": 1212659664, "building": "detached", "name": "", "height": null, "height_m": null, "levels": null, "tract_id": "40013796102", "tract_name": "7961.02", "tags": {"building": "detached", "source": "microsoft/BuildingFootprints"}}}, {"type": "Feature", "geometry": {"type": "Polygon", "coordinates": [[[-96.4162955, 34.0059019], [-96.4164473, 34.0059032], [-96.4164479, 34.0058521], [-96.4162961, 34.0058508], [-96.4162955, 34.0059019]]]}, "properties": {"osm_id": 1212659665, "building": "barn", "name": "", "height": null, "height_m": null, "levels": null, "tract_id": "40013796102", "tract_name": "7961.02", "tags": {"building": "barn", "source": "microsoft/BuildingFootprints"}}}, {"type": "Feature", "geometry": {"type": "Polygon", "coordinates": [[[-96.4165059, 34.0052912], [-96.4165821, 34.0052922], [-96.4165834, 34.0052247], [-96.4165072, 34.0052236], [-96.4165059, 34.0052912]]]}, "properties": {"osm_id": 1212659666, "building": "garage", "name": "", "height": null, "height_m": null, "levels": null, "tract_id": "40013796102", "tract_name": "7961.02", "tags": {"building": "garage", "source": "microsoft/BuildingFootprints"}}}, {"type": "Feature", "geometry": {"type": "Polygon", "coordinates": [[[-96.4142493, 34.0045323], [-96.4140791, 34.0045338], [-96.4140799, 34.0045916], [-96.4140489, 34.0045919], [-96.4140495, 34.004643], [-96.4140725, 34.0046428], [-96.414074, 34.0047562], [-96.4142522, 34.0047546], [-96.4142493, 34.0045323]]]}, "properties": {"osm_id": 1212659667, "building": "yes", "name": "", "height": null, "height_m": 3.0, "levels": 1, "tract_id": "40013796102", "tract_name": "7961.02", "tags": {"amenity": "social_facility", "building": "yes", "building:colour": "brown", "building:levels": "1", "building:material": "brick", "roof:colour": "brown", "roof:levels": "0", "roof:material": "tar_paper", "roof:orientation": "along", "roof:shape": "gabled"}}}, {"type": "Feature", "geometry": {"type": "Polygon", "coordinates": [[[-96.4147067, 34.0040797], [-96.4148132, 34.0040927], [-96.4148355, 34.0039679], [-96.4147291, 34.0039548], [-96.4147067, 34.0040797]]]}, "properties": {"osm_id": 1212659668, "building": "detached", "name": "", "height": null, "height_m": null, "levels": null, "tract_id": "40013796102", "tract_name": "7961.02", "tags": {"building": "detached", "source": "microsoft/BuildingFootprints"}}}, {"type": "Feature", "geometry": {"type": "Polygon", "coordinates": [[[-96.4142486, 34.0042216], [-96.4141064, 34.0042231], [-96.4141076, 34.004304], [-96.4142498, 34.0043025], [-96.4142486, 34.0042216]]]}, "properties": {"osm_id": 1212659669, "building": "detached", "name": "", "height": null, "height_m": null, "levels": null, "tract_id": "40013796102", "tract_name": "7961.02", "tags": {"building": "detached", "source": "microsoft/BuildingFootprints"}}}, {"type": "Feature", "geometry": {"type": "Polygon", "coordinates": [[[-96.4147377, 34.0035648], [-96.4147337, 34.0036995], [-96.4148288, 34.0037015], [-96.4148328, 34.0035668], [-96.4147377, 34.0035648]]]}, "properties": {"osm_id": 1212659670, "building": "detached", "name": "", "height": null, "height_m": null, "levels": null, "tract_id": "40013796102", "tract_name": "7961.02", "tags": {"building": "detached", "source": "microsoft/BuildingFootprints"}}}, {"type": "Feature", "geometry": {"type": "Polygon", "coordinates": [[[-96.4166551, 34.005208], [-96.4166549, 34.0053769], [-96.4167112, 34.0053769], [-96.4167112, 34.0053552], [-96.4167657, 34.0053552], [-96.4167657, 34.0053725], [-96.4168346, 34.0053726], [-96.4168348, 34.0051726], [-96.4167168, 34.0051725], [-96.4167168, 34.005208], [-96.4166551, 34.005208]]]}, "properties": {"osm_id": 1212659671, "building": "church", "name": "", "height": null, "height_m": null, "levels": null, "tract_id": "40013796102", "tract_name": "7961.02", "tags": {"amenity": "place_of_worship", "building": "church", "source": "microsoft/BuildingFootprints"}}}, {"type": "Feature", "geometry": {"type": "Polygon", "coordinates": [[[-96.4158104, 34.0042989], [-96.4157394, 34.0043615], [-96.4158072, 34.0044142], [-96.4158843, 34.0043462], [-96.4158731, 34.0043375], [-96.4159433, 34.0042757], [-96.4158732, 34.0042211], [-96.4157969, 34.0042884], [-96.4158104, 34.0042989]]]}, "properties": {"osm_id": 1212659672, "building": "semidetached", "name": "", "height": null, "height_m": null, "levels": null, "tract_id": "40013796102", "tract_name": "7961.02", "tags": {"building": "semidetached", "source": "microsoft/BuildingFootprints"}}}, {"type": "Feature", "geometry": {"type": "Polygon", "coordinates": [[[-96.4162978, 34.0058182], [-96.4163947, 34.0058202], [-96.4163959, 34.0057802], [-96.4164227, 34.0057807], [-96.4164236, 34.0057482], [-96.4162999, 34.0057457], [-96.4162978, 34.0058182]]]}, "properties": {"osm_id": 1212659673, "building": "detached", "name": "", "height": null, "height_m": null, "levels": null, "tract_id": "40013796102", "tract_name": "7961.02", "tags": {"building": "detached", "source": "microsoft/BuildingFootprints"}}}, {"type": "Feature", "geometry": {"type": "Polygon", "coordinates": [[[-96.414665, 34.0056378], [-96.4146838, 34.005638], [-96.4146828, 34.0056905], [-96.4148061, 34.0056921], [-96.4148064, 34.0056765], [-96.4148466, 34.0056771], [-96.4148474, 34.0056357], [-96.4148785, 34.0056361], [-96.41488, 34.0055552], [-96.4148559, 34.0055549], [-96.4148589, 34.0053971], [-96.4148788, 34.0053973], [-96.4148802, 34.0053204], [-96.4148454, 34.0053199], [-96.4148463, 34.0052679], [-96.4146854, 34.0052658], [-96.4146844, 34.0053192], [-96.414671, 34.005319], [-96.414665, 34.0056378]]]}, "properties": {"osm_id": 1212659674, "building": "apartments", "name": "", "height": null, "height_m": null, "levels": null, "tract_id": "40013796102", "tract_name": "7961.02", "tags": {"building": "apartments", "source": "microsoft/BuildingFootprints"}}}, {"type": "Feature", "geometry": {"type": "Polygon", "coordinates": [[[-96.4149766, 34.0054381], [-96.4149778, 34.005539], [-96.4151065, 34.005538], [-96.4151068, 34.0055661], [-96.4151712, 34.0055656], [-96.4151709, 34.0055389], [-96.4152085, 34.0055386], [-96.415207, 34.0054096], [-96.4151721, 34.0054099], [-96.4151717, 34.0053699], [-96.4151142, 34.0053703], [-96.4151146, 34.0054015], [-96.4150272, 34.0054021], [-96.4150276, 34.0054377], [-96.4149766, 34.0054381]]]}, "properties": {"osm_id": 1212659675, "building": "yes", "name": "High Meadow Apartments", "height": null, "height_m": null, "levels": null, "tract_id": "40013796102", "tract_name": "7961.02", "tags": {"building": "yes", "name": "High Meadow Apartments", "office": "estate_agent", "source": "microsoft/BuildingFootprints"}}}, {"type": "Feature", "geometry": {"type": "Polygon", "coordinates": [[[-96.4158464, 34.0030801], [-96.4158475, 34.0031471], [-96.415837, 34.0031472], [-96.4158389, 34.0032589], [-96.4159266, 34.0032579], [-96.4159253, 34.0031774], [-96.4159481, 34.0031771], [-96.4159465, 34.003079], [-96.4158464, 34.0030801]]]}, "properties": {"osm_id": 1212659676, "building": "semidetached", "name": "", "height": null, "height_m": null, "levels": null, "tract_id": "40013796102", "tract_name": "7961.02", "tags": {"building": "semidetached", "source": "microsoft/BuildingFootprints"}}}, {"type": "Feature", "geometry": {"type": "Polygon", "coordinates": [[[-96.4149593, 34.0026791], [-96.4149156, 34.0027277], [-96.414969, 34.0027607], [-96.4148983, 34.0028392], [-96.4149732, 34.0028856], [-96.4150876, 34.0027585], [-96.4149593, 34.0026791]]]}, "properties": {"osm_id": 1212659677, "building": "yes", "name": "", "height": null, "height_m": null, "levels": null, "tract_id": "40013796102", "tract_name": "7961.02", "tags": {"building": "yes", "source": "microsoft/BuildingFootprints"}}}, {"type": "Feature", "geometry": {"type": "Polygon", "coordinates": [[[-96.4143116, 34.0032442], [-96.4143079, 34.0034153], [-96.4144098, 34.0034168], [-96.4144135, 34.0032457], [-96.4143116, 34.0032442]]]}, "properties": {"osm_id": 1212659678, "building": "detached", "name": "", "height": null, "height_m": null, "levels": null, "tract_id": "40013796102", "tract_name": "7961.02", "tags": {"building": "detached", "source": "microsoft/BuildingFootprints"}}}, {"type": "Feature", "geometry": {"type": "Polygon", "coordinates": [[[-96.4146805, 34.003901], [-96.414782, 34.0039145], [-96.4148118, 34.0037606], [-96.4147103, 34.0037471], [-96.4146805, 34.003901]]]}, "properties": {"osm_id": 1212659679, "building": "detached", "name": "", "height": null, "height_m": null, "levels": null, "tract_id": "40013796102", "tract_name": "7961.02", "tags": {"building": "detached", "source": "microsoft/BuildingFootprints"}}}, {"type": "Feature", "geometry": {"type": "Polygon", "coordinates": [[[-96.4140891, 34.0044975], [-96.41425, 34.0045], [-96.4142522, 34.0044022], [-96.4140913, 34.0043997], [-96.4140891, 34.0044975]]]}, "properties": {"osm_id": 1212659680, "building": "detached", "name": "", "height": null, "height_m": null, "levels": null, "tract_id": "40013796102", "tract_name": "7961.02", "tags": {"building": "detached", "source": "microsoft/BuildingFootprints"}}}, {"type": "Feature", "geometry": {"type": "Polygon", "coordinates": [[[-96.4366827, 33.9972656], [-96.4365828, 33.9972679], [-96.4365806, 33.9971997], [-96.4366805, 33.9971975], [-96.4366827, 33.9972656]]]}, "properties": {"osm_id": 1222859874, "building": "yes", "name": "", "height": null, "height_m": null, "levels": null, "tract_id": "40013796102", "tract_name": "7961.02", "tags": {"building": "yes", "shop": "storage_rental"}}}, {"type": "Feature", "geometry": {"type": "Polygon", "coordinates": [[[-96.3951373, 34.0170812], [-96.3951038, 34.0170814], [-96.395104, 34.0171035], [-96.3950481, 34.0171039], [-96.3950482, 34.0171132], [-96.3950039, 34.0171135], [-96.3950039, 34.0171042], [-96.3949464, 34.0171046], [-96.3949462, 34.0170824], [-96.3949122, 34.0170826], [-96.3949102, 34.0168703], [-96.3949455, 34.0168701], [-96.3949453, 34.0168483], [-96.3951022, 34.0168473], [-96.3951024, 34.0168691], [-96.3951353, 34.0168688], [-96.3951373, 34.0170812]]]}, "properties": {"osm_id": 1225265847, "building": "commercial", "name": "Family Care Center Of Durant", "height": null, "height_m": null, "levels": null, "tract_id": "40013796102", "tract_name": "7961.02", "tags": {"amenity": "clinic", "building": "commercial", "healthcare": "clinic", "name": "Family Care Center Of Durant"}}}, {"type": "Feature", "geometry": {"type": "Polygon", "coordinates": [[[-96.3939833, 34.0161619], [-96.3939086, 34.0161339], [-96.3938703, 34.0162043], [-96.3937187, 34.0161476], [-96.3937569, 34.0160773], [-96.3936232, 34.0160273], [-96.3937053, 34.0158763], [-96.393849, 34.01593], [-96.3938811, 34.0158709], [-96.3940323, 34.0159274], [-96.3940002, 34.0159865], [-96.3940654, 34.0160108], [-96.3939833, 34.0161619]]]}, "properties": {"osm_id": 1225265849, "building": "yes", "name": "", "height": null, "height_m": null, "levels": null, "tract_id": "40013796102", "tract_name": "7961.02", "tags": {"building": "yes"}}}, {"type": "Feature", "geometry": {"type": "Polygon", "coordinates": [[[-96.4120616, 34.0020456], [-96.4120644, 34.0018158], [-96.4109709, 34.0018068], [-96.4109676, 34.0020825], [-96.4112739, 34.002085], [-96.4112731, 34.0021499], [-96.4115197, 34.0021519], [-96.4115203, 34.002098], [-96.4116786, 34.0020993], [-96.4116792, 34.0020425], [-96.4120616, 34.0020456]]]}, "properties": {"osm_id": 1230385549, "building": "yes", "name": "", "height": null, "height_m": null, "levels": null, "tract_id": "40013796102", "tract_name": "7961.02", "tags": {"addr:city": "Durant", "addr:housenumber": "519", "addr:postcode": "74701", "addr:state": "OK", "addr:street": "University Place", "building": "yes"}}}, {"type": "Feature", "geometry": {"type": "Polygon", "coordinates": [[[-96.4343767, 33.9968404], [-96.434207, 33.9968404], [-96.434207, 33.9968159], [-96.4342191, 33.9968159], [-96.4342191, 33.9967292], [-96.4343418, 33.9967292], [-96.4343418, 33.9967848], [-96.4343767, 33.9967848], [-96.4343767, 33.9968404]]]}, "properties": {"osm_id": 1265993804, "building": "construction", "name": "", "height": null, "height_m": null, "levels": null, "tract_id": "40013796102", "tract_name": "7961.02", "tags": {"building": "construction", "construction": "detached"}}}, {"type": "Feature", "geometry": {"type": "Polygon", "coordinates": [[[-96.4363004, 33.9958354], [-96.4363073, 33.9972684], [-96.4363454, 33.9972682], [-96.4363388, 33.99589], [-96.4370331, 33.9958877], [-96.4370397, 33.9972647], [-96.4370859, 33.9972645], [-96.4370791, 33.9958328], [-96.4363004, 33.9958354]]]}, "properties": {"osm_id": 1265993805, "building": "warehouse", "name": "", "height": null, "height_m": null, "levels": null, "tract_id": "40013796102", "tract_name": "7961.02", "tags": {"building": "warehouse"}}}, {"type": "Feature", "geometry": {"type": "Polygon", "coordinates": [[[-96.4365198, 33.9971834], [-96.4364367, 33.9971836], [-96.4364326, 33.9960016], [-96.4365157, 33.9960014], [-96.4365198, 33.9971834]]]}, "properties": {"osm_id": 1265993806, "building": "warehouse", "name": "", "height": null, "height_m": null, "levels": null, "tract_id": "40013796102", "tract_name": "7961.02", "tags": {"building": "warehouse"}}}, {"type": "Feature", "geometry": {"type": "Polygon", "coordinates": [[[-96.4366753, 33.9960003], [-96.436678, 33.9971845], [-96.4365949, 33.9971846], [-96.4365922, 33.9960005], [-96.4366753, 33.9960003]]]}, "properties": {"osm_id": 1265993807, "building": "warehouse", "name": "", "height": null, "height_m": null, "levels": null, "tract_id": "40013796102", "tract_name": "7961.02", "tags": {"building": "warehouse"}}}, {"type": "Feature", "geometry": {"type": "Polygon", "coordinates": [[[-96.4369744, 33.9972656], [-96.4367571, 33.9972653], [-96.4367598, 33.996], [-96.4369771, 33.9960003], [-96.4369744, 33.9972656]]]}, "properties": {"osm_id": 1265993808, "building": "warehouse", "name": "", "height": null, "height_m": null, "levels": null, "tract_id": "40013796102", "tract_name": "7961.02", "tags": {"building": "warehouse"}}}, {"type": "Feature", "geometry": {"type": "Polygon", "coordinates": [[[-96.435813, 33.9956983], [-96.4358121, 33.9958094], [-96.4358646, 33.9958097], [-96.435864, 33.995872], [-96.4360181, 33.9958729], [-96.4360187, 33.9957928], [-96.4359812, 33.9957926], [-96.4359816, 33.9957393], [-96.4359602, 33.9957391], [-96.4359608, 33.9956702], [-96.4358615, 33.9956696], [-96.4358613, 33.9956985], [-96.435813, 33.9956983]]]}, "properties": {"osm_id": 1265993809, "building": "detached", "name": "", "height": null, "height_m": null, "levels": null, "tract_id": "40013796102", "tract_name": "7961.02", "tags": {"building": "detached"}}}, {"type": "Feature", "geometry": {"type": "Polygon", "coordinates": [[[-96.4355033, 33.9955555], [-96.4353221, 33.9955576], [-96.435323, 33.9956109], [-96.4352989, 33.9956112], [-96.4353009, 33.995729], [-96.435451, 33.9957273], [-96.4354494, 33.9956304], [-96.4355046, 33.9956298], [-96.4355033, 33.9955555]]]}, "properties": {"osm_id": 1265993810, "building": "detached", "name": "", "height": null, "height_m": null, "levels": null, "tract_id": "40013796102", "tract_name": "7961.02", "tags": {"building": "detached"}}}, {"type": "Feature", "geometry": {"type": "Polygon", "coordinates": [[[-96.4342708, 33.9963203], [-96.4342671, 33.996507], [-96.4343969, 33.9965088], [-96.4344006, 33.9963221], [-96.4342708, 33.9963203]]]}, "properties": {"osm_id": 1265993811, "building": "detached", "name": "", "height": null, "height_m": null, "levels": null, "tract_id": "40013796102", "tract_name": "7961.02", "tags": {"building": "detached"}}}, {"type": "Feature", "geometry": {"type": "Polygon", "coordinates": [[[-96.4358778, 33.9969346], [-96.4361283, 33.9969341], [-96.436128, 33.9968553], [-96.4360197, 33.9968556], [-96.4360195, 33.9968165], [-96.435983, 33.9968165], [-96.4359828, 33.9967422], [-96.4358219, 33.9967426], [-96.4358221, 33.9968226], [-96.4358559, 33.9968226], [-96.4358561, 33.9968769], [-96.4358776, 33.9968768], [-96.4358778, 33.9969346]]]}, "properties": {"osm_id": 1265993812, "building": "detached", "name": "", "height": null, "height_m": null, "levels": null, "tract_id": "40013796102", "tract_name": "7961.02", "tags": {"building": "detached"}}}, {"type": "Feature", "geometry": {"type": "Polygon", "coordinates": [[[-96.4348887, 33.9969995], [-96.4349976, 33.9969973], [-96.4349915, 33.9967884], [-96.4348826, 33.9967906], [-96.4348887, 33.9969995]]]}, "properties": {"osm_id": 1265993813, "building": "yes", "name": "", "height": null, "height_m": null, "levels": null, "tract_id": "40013796102", "tract_name": "7961.02", "tags": {"building": "yes"}}}, {"type": "Feature", "geometry": {"type": "Polygon", "coordinates": [[[-96.4368814, 33.9954503], [-96.4368809, 33.9955415], [-96.43692, 33.9955416], [-96.4369196, 33.9956128], [-96.4371729, 33.9956138], [-96.4371734, 33.9955146], [-96.4371332, 33.9955144], [-96.4371333, 33.9955011], [-96.4369643, 33.9955004], [-96.4369646, 33.9954506], [-96.4368814, 33.9954503]]]}, "properties": {"osm_id": 1265993814, "building": "detached", "name": "", "height": null, "height_m": null, "levels": null, "tract_id": "40013796102", "tract_name": "7961.02", "tags": {"building": "detached"}}}, {"type": "Feature", "geometry": {"type": "Polygon", "coordinates": [[[-96.4349387, 33.9955712], [-96.4347885, 33.9955732], [-96.4347908, 33.9956911], [-96.4349893, 33.9956884], [-96.4349883, 33.9956394], [-96.43494, 33.9956401], [-96.4349387, 33.9955712]]]}, "properties": {"osm_id": 1265993815, "building": "detached", "name": "", "height": null, "height_m": null, "levels": null, "tract_id": "40013796102", "tract_name": "7961.02", "tags": {"building": "detached"}}}, {"type": "Feature", "geometry": {"type": "Polygon", "coordinates": [[[-96.4344183, 33.9961959], [-96.4342387, 33.9961927], [-96.4342359, 33.9963006], [-96.4344155, 33.9963038], [-96.4344183, 33.9961959]]]}, "properties": {"osm_id": 1265993816, "building": "garage", "name": "", "height": null, "height_m": null, "levels": null, "tract_id": "40013796102", "tract_name": "7961.02", "tags": {"building": "garage"}}}, {"type": "Feature", "geometry": {"type": "Polygon", "coordinates": [[[-96.4343358, 33.9954739], [-96.4342581, 33.9954721], [-96.4342566, 33.9955143], [-96.4342206, 33.9955135], [-96.4342162, 33.9956445], [-96.4343877, 33.9956485], [-96.43439, 33.9955819], [-96.4343643, 33.9955813], [-96.4343671, 33.9954991], [-96.4343349, 33.9954983], [-96.4343358, 33.9954739]]]}, "properties": {"osm_id": 1265993817, "building": "detached", "name": "", "height": null, "height_m": null, "levels": null, "tract_id": "40013796102", "tract_name": "7961.02", "tags": {"building": "detached"}}}, {"type": "Feature", "geometry": {"type": "Polygon", "coordinates": [[[-96.4352309, 33.9971979], [-96.4352258, 33.997029], [-96.4348864, 33.997036], [-96.4348915, 33.9972049], [-96.4352309, 33.9971979]]]}, "properties": {"osm_id": 1265993818, "building": "yes", "name": "", "height": null, "height_m": null, "levels": null, "tract_id": "40013796102", "tract_name": "7961.02", "tags": {"building": "yes", "shop": "yes"}}}, {"type": "Feature", "geometry": {"type": "Polygon", "coordinates": [[[-96.435412, 33.9970853], [-96.4354152, 33.9971964], [-96.4354699, 33.9971953], [-96.4354667, 33.9970842], [-96.435412, 33.9970853]]]}, "properties": {"osm_id": 1265993819, "building": "yes", "name": "", "height": null, "height_m": null, "levels": null, "tract_id": "40013796102", "tract_name": "7961.02", "tags": {"building": "yes"}}}, {"type": "Feature", "geometry": {"type": "Polygon", "coordinates": [[[-96.4343635, 33.9971568], [-96.4342241, 33.9971541], [-96.4342211, 33.9972575], [-96.4343605, 33.9972603], [-96.4343635, 33.9971568]]]}, "properties": {"osm_id": 1265993820, "building": "yes", "name": "", "height": null, "height_m": null, "levels": null, "tract_id": "40013796102", "tract_name": "7961.02", "tags": {"building": "yes"}}}, {"type": "Feature", "geometry": {"type": "Polygon", "coordinates": [[[-96.4358248, 33.9964239], [-96.435857, 33.9964238], [-96.4358573, 33.9964971], [-96.4359432, 33.9964969], [-96.4359428, 33.9964181], [-96.435983, 33.996418], [-96.4359826, 33.9963388], [-96.4359435, 33.996339], [-96.4359431, 33.9962669], [-96.435824, 33.9962673], [-96.4358248, 33.9964239]]]}, "properties": {"osm_id": 1265993821, "building": "detached", "name": "", "height": null, "height_m": null, "levels": null, "tract_id": "40013796102", "tract_name": "7961.02", "tags": {"building": "detached"}}}, {"type": "Feature", "geometry": {"type": "Polygon", "coordinates": [[[-96.4260887, 33.9984976], [-96.4256434, 33.9984898], [-96.42565, 33.9982321], [-96.4260952, 33.9982399], [-96.4260887, 33.9984976]]]}, "properties": {"osm_id": 1271309699, "building": "yes", "name": "", "height": null, "height_m": null, "levels": null, "tract_id": "40013796102", "tract_name": "7961.02", "tags": {"building": "yes", "shop": "funeral_directors"}}}]}