{"type": "FeatureCollection", "features": [{"type": "Feature", "geometry": {"type": "Polygon", "coordinates": [[[-98.3919028, 34.6158714], [-98.3918961, 34.6155062], [-98.3917435, 34.6155082], [-98.3917445, 34.6155637], [-98.3915944, 34.6155655], [-98.3915956, 34.6156322], [-98.3915729, 34.6156325], [-98.3915774, 34.6158755], [-98.3919028, 34.6158714]]]}, "properties": {"osm_id": 614151559, "building": "yes", "name": "", "height": null, "height_m": null, "levels": null, "tract_id": "40031001100", "tract_name": "11", "tags": {"building": "yes"}}}, {"type": "Feature", "geometry": {"type": "Polygon", "coordinates": [[[-98.3914801, 34.6158913], [-98.3913585, 34.61589], [-98.3913601, 34.6157856], [-98.3914816, 34.6157869], [-98.3914801, 34.6158913]]]}, "properties": {"osm_id": 614151560, "building": "yes", "name": "", "height": null, "height_m": null, "levels": null, "tract_id": "40031001100", "tract_name": "11", "tags": {"building": "yes"}}}, {"type": "Feature", "geometry": {"type": "Polygon", "coordinates": [[[-98.3907886, 34.6154626], [-98.3905976, 34.6154647], [-98.3905965, 34.6153991], [-98.3907875, 34.615397], [-98.3907886, 34.6154626]]]}, "properties": {"osm_id": 614151561, "building": "yes", "name": "", "height": null, "height_m": null, "levels": null, "tract_id": "40031001100", "tract_name": "11", "tags": {"building": "yes"}}}, {"type": "Feature", "geometry": {"type": "Polygon", "coordinates": [[[-98.3908857, 34.6152578], [-98.3905787, 34.6152544], [-98.3905803, 34.6151543], [-98.3908874, 34.6151576], [-98.3908857, 34.6152578]]]}, "properties": {"osm_id": 614151562, "building": "yes", "name": "", "height": null, "height_m": null, "levels": null, "tract_id": "40031001100", "tract_name": "11", "tags": {"building": "yes"}}}, {"type": "Feature", "geometry": {"type": "Polygon", "coordinates": [[[-98.3908733, 34.6150816], [-98.390584, 34.6150788], [-98.3905847, 34.6150282], [-98.390874, 34.615031], [-98.3908733, 34.6150816]]]}, "properties": {"osm_id": 614151563, "building": "yes", "name": "", "height": null, "height_m": null, "levels": null, "tract_id": "40031001100", "tract_name": "11", "tags": {"building": "yes"}}}, {"type": "Feature", "geometry": {"type": "Polygon", "coordinates": [[[-98.3915925, 34.6153938], [-98.3914844, 34.6153942], [-98.3914829, 34.6150988], [-98.3915999, 34.6150984], [-98.3916001, 34.6151242], [-98.3916256, 34.6151241], [-98.3916261, 34.6152334], [-98.3915917, 34.6152335], [-98.3915925, 34.6153938]]]}, "properties": {"osm_id": 614151565, "building": "yes", "name": "", "height": null, "height_m": null, "levels": null, "tract_id": "40031001100", "tract_name": "11", "tags": {"building": "yes"}}}, {"type": "Feature", "geometry": {"type": "Polygon", "coordinates": [[[-98.3908274, 34.6146384], [-98.3906983, 34.6146395], [-98.3906955, 34.614391], [-98.3908246, 34.61439], [-98.3908274, 34.6146384]]]}, "properties": {"osm_id": 614151566, "building": "yes", "name": "", "height": null, "height_m": null, "levels": null, "tract_id": "40031001100", "tract_name": "11", "tags": {"building": "yes"}}}, {"type": "Feature", "geometry": {"type": "Polygon", "coordinates": [[[-98.3910853, 34.6144945], [-98.3909334, 34.6144986], [-98.3909288, 34.6143814], [-98.3910806, 34.6143773], [-98.3910853, 34.6144945]]]}, "properties": {"osm_id": 614151567, "building": "yes", "name": "", "height": null, "height_m": null, "levels": null, "tract_id": "40031001100", "tract_name": "11", "tags": {"building": "yes"}}}, {"type": "Feature", "geometry": {"type": "Polygon", "coordinates": [[[-98.3912376, 34.6147092], [-98.3910715, 34.6147087], [-98.3910724, 34.6145348], [-98.3912384, 34.6145353], [-98.3912376, 34.6147092]]]}, "properties": {"osm_id": 614151568, "building": "yes", "name": "", "height": null, "height_m": null, "levels": null, "tract_id": "40031001100", "tract_name": "11", "tags": {"building": "yes"}}}, {"type": "Feature", "geometry": {"type": "Polygon", "coordinates": [[[-98.3916564, 34.6144312], [-98.3915905, 34.6144315], [-98.3915901, 34.6143657], [-98.391656, 34.6143654], [-98.3916564, 34.6144312]]]}, "properties": {"osm_id": 614151569, "building": "yes", "name": "", "height": null, "height_m": null, "levels": null, "tract_id": "40031001100", "tract_name": "11", "tags": {"building": "yes"}}}, {"type": "Feature", "geometry": {"type": "Polygon", "coordinates": [[[-98.3919023, 34.6144796], [-98.3917675, 34.614481], [-98.3917669, 34.6144418], [-98.391796, 34.6144415], [-98.3917951, 34.6143831], [-98.3919008, 34.614382], [-98.3919023, 34.6144796]]]}, "properties": {"osm_id": 614151570, "building": "yes", "name": "", "height": null, "height_m": null, "levels": null, "tract_id": "40031001100", "tract_name": "11", "tags": {"building": "yes"}}}, {"type": "Feature", "geometry": {"type": "Polygon", "coordinates": [[[-98.3910666, 34.6141377], [-98.3910662, 34.6140776], [-98.3909969, 34.614078], [-98.390996, 34.6139505], [-98.3906672, 34.6139522], [-98.3906686, 34.6141441], [-98.3908219, 34.6141434], [-98.3908221, 34.6141825], [-98.391001, 34.6141817], [-98.3910007, 34.614138], [-98.3910666, 34.6141377]]]}, "properties": {"osm_id": 614151571, "building": "yes", "name": "", "height": null, "height_m": null, "levels": null, "tract_id": "40031001100", "tract_name": "11", "tags": {"building": "yes"}}}, {"type": "Feature", "geometry": {"type": "Polygon", "coordinates": [[[-98.3910815, 34.6136042], [-98.3909344, 34.6136065], [-98.3909306, 34.6134424], [-98.390758, 34.6134451], [-98.390759, 34.613487], [-98.390652, 34.6134887], [-98.3906455, 34.6132162], [-98.3907226, 34.613215], [-98.390724, 34.6132747], [-98.3910736, 34.6132691], [-98.3910815, 34.6136042]]]}, "properties": {"osm_id": 614151572, "building": "yes", "name": "", "height": null, "height_m": null, "levels": null, "tract_id": "40031001100", "tract_name": "11", "tags": {"building": "yes"}}}, {"type": "Feature", "geometry": {"type": "Polygon", "coordinates": [[[-98.3908123, 34.613017], [-98.3907035, 34.6130127], [-98.3907044, 34.6129362], [-98.3906256, 34.6129216], [-98.3906309, 34.6128823], [-98.3908043, 34.6128816], [-98.3908123, 34.613017]]]}, "properties": {"osm_id": 614151573, "building": "yes", "name": "", "height": null, "height_m": null, "levels": null, "tract_id": "40031001100", "tract_name": "11", "tags": {"building": "yes"}}}, {"type": "Feature", "geometry": {"type": "Polygon", "coordinates": [[[-98.3912131, 34.612926], [-98.3911565, 34.612926], [-98.3911565, 34.6129413], [-98.3910813, 34.6129413], [-98.3910848, 34.612878], [-98.3911016, 34.6128787], [-98.3911043, 34.6127847], [-98.3912069, 34.6127818], [-98.3912131, 34.612926]]]}, "properties": {"osm_id": 614151574, "building": "yes", "name": "", "height": null, "height_m": null, "levels": null, "tract_id": "40031001100", "tract_name": "11", "tags": {"building": "yes"}}}, {"type": "Feature", "geometry": {"type": "Polygon", "coordinates": [[[-98.3913865, 34.612926], [-98.3912768, 34.6129231], [-98.3912795, 34.6127731], [-98.3913839, 34.6127745], [-98.3913865, 34.612926]]]}, "properties": {"osm_id": 614151575, "building": "yes", "name": "", "height": null, "height_m": null, "levels": null, "tract_id": "40031001100", "tract_name": "11", "tags": {"building": "yes"}}}, {"type": "Feature", "geometry": {"type": "Polygon", "coordinates": [[[-98.3901612, 34.613085], [-98.3894883, 34.6130837], [-98.3894889, 34.6128938], [-98.3901618, 34.6128952], [-98.3901612, 34.613085]]]}, "properties": {"osm_id": 614151576, "building": "yes", "name": "", "height": null, "height_m": null, "levels": null, "tract_id": "40031001100", "tract_name": "11", "tags": {"building": "yes"}}}, {"type": "Feature", "geometry": {"type": "Polygon", "coordinates": [[[-98.3901625, 34.6124459], [-98.3894843, 34.6124455], [-98.3894844, 34.6122519], [-98.3901626, 34.6122522], [-98.3901625, 34.6124459]]]}, "properties": {"osm_id": 614151577, "building": "yes", "name": "", "height": null, "height_m": null, "levels": null, "tract_id": "40031001100", "tract_name": "11", "tags": {"building": "yes"}}}, {"type": "Feature", "geometry": {"type": "Polygon", "coordinates": [[[-98.3894627, 34.6113207], [-98.3894653, 34.6108819], [-98.3892301, 34.610881], [-98.3892298, 34.610928], [-98.3891437, 34.6109276], [-98.3891435, 34.6109554], [-98.3890463, 34.610955], [-98.3890465, 34.6109235], [-98.3889988, 34.6109233], [-98.3889986, 34.6109602], [-98.3888735, 34.6109597], [-98.3888737, 34.6109297], [-98.3887929, 34.6109294], [-98.3887946, 34.6106033], [-98.3889099, 34.6106037], [-98.3889101, 34.6105606], [-98.3891086, 34.6105613], [-98.3891084, 34.6106068], [-98.3894629, 34.6106082], [-98.3894643, 34.6103576], [-98.3896921, 34.6103585], [-98.3896866, 34.6113216], [-98.3894627, 34.6113207]]]}, "properties": {"osm_id": 696215973, "building": "yes", "name": "Hilton Garden Inn Lawton-Fort Still", "height": null, "height_m": null, "levels": null, "tract_id": "40031001100", "tract_name": "11", "tags": {"addr:city": "Lawton", "addr:housenumber": "135", "addr:postcode": "73501", "addr:state": "OK", "addr:street": "Northwest 2nd Street", "branch": "Lawton-Fort Sill", "brand": "Hilton Garden Inn", "brand:wikidata": "Q1162859", "building": "yes", "name": "Hilton Garden Inn Lawton-Fort Still", "ref": "LAWFGGI", "tourism": "hotel", "website": "https://www.hilton.com/en/hotels/lawfggi-hilton-garden-inn-lawton-fort-sill/"}}}, {"type": "Feature", "geometry": {"type": "Polygon", "coordinates": [[[-98.3925085, 34.6158735], [-98.3924266, 34.6158729], [-98.392424, 34.6157807], [-98.392511, 34.6157808], [-98.3925085, 34.6158735]]]}, "properties": {"osm_id": 923017788, "building": "yes", "name": "", "height": null, "height_m": null, "levels": null, "tract_id": "40031001100", "tract_name": "11", "tags": {"building": "yes"}}}, {"type": "Feature", "geometry": {"type": "Polygon", "coordinates": [[[-98.3923125, 34.6155614], [-98.3921824, 34.6155619], [-98.3921763, 34.6154987], [-98.3923167, 34.6154985], [-98.3923125, 34.6155614]]]}, "properties": {"osm_id": 923017843, "building": "yes", "name": "", "height": null, "height_m": null, "levels": null, "tract_id": "40031001100", "tract_name": "11", "tags": {"building": "yes"}}}, {"type": "Feature", "geometry": {"type": "Polygon", "coordinates": [[[-98.3900304, 34.6140956], [-98.3897636, 34.6140972], [-98.3897625, 34.6139609], [-98.3900292, 34.6139594], [-98.3900304, 34.6140956]]]}, "properties": {"osm_id": 923018293, "building": "yes", "name": "Mattress Firm", "height": null, "height_m": null, "levels": null, "tract_id": "40031001100", "tract_name": "11", "tags": {"addr:city": "Lawton", "addr:housenumber": "435", "addr:postcode": "73501", "addr:state": "OK", "addr:street": "Northwest 2nd Street", "branch": "Lawton Town Center", "brand": "Mattress Firm", "brand:wikidata": "Q6791878", "building": "yes", "delivery": "yes", "name": "Mattress Firm", "phone": "+1 580-350-6310", "ref": "17295", "shop": "bed", "website": "https://www.mattressfirm.com/en-us/stores/ok/lawton/041018/"}}}, {"type": "Feature", "geometry": {"type": "Polygon", "coordinates": [[[-98.3912416, 34.6132817], [-98.3911009, 34.61328], [-98.3910949, 34.6132023], [-98.3912405, 34.6131998], [-98.3912416, 34.6132817]]]}, "properties": {"osm_id": 923018564, "building": "yes", "name": "", "height": null, "height_m": null, "levels": null, "tract_id": "40031001100", "tract_name": "11", "tags": {"building": "yes"}}}, {"type": "Feature", "geometry": {"type": "Polygon", "coordinates": [[[-98.3977684, 34.6158369], [-98.3976793, 34.6158369], [-98.3976793, 34.6157597], [-98.3977684, 34.6157597], [-98.3977684, 34.6158369]]]}, "properties": {"osm_id": 1057780697, "building": "yes", "name": "", "height": null, "height_m": null, "levels": null, "tract_id": "40031001100", "tract_name": "11", "tags": {"building": "yes"}}}, {"type": "Feature", "geometry": {"type": "Polygon", "coordinates": [[[-98.3947982, 34.6158721], [-98.3949322, 34.6158721], [-98.3949322, 34.6157391], [-98.3947982, 34.6157391], [-98.3947982, 34.6158721]]]}, "properties": {"osm_id": 1057780698, "building": "yes", "name": "", "height": null, "height_m": null, "levels": null, "tract_id": "40031001100", "tract_name": "11", "tags": {"building": "yes", "source": "microsoft/BuildingFootprints"}}}, {"type": "Feature", "geometry": {"type": "Polygon", "coordinates": [[[-98.3970302, 34.6157141], [-98.3970278, 34.6158691], [-98.3972163, 34.615871], [-98.3972187, 34.615716], [-98.3970302, 34.6157141]]]}, "properties": {"osm_id": 1057780699, "building": "yes", "name": "", "height": null, "height_m": null, "levels": null, "tract_id": "40031001100", "tract_name": "11", "tags": {"building": "yes", "source": "microsoft/BuildingFootprints"}}}, {"type": "Feature", "geometry": {"type": "Polygon", "coordinates": [[[-98.395867, 34.61589], [-98.396017, 34.61589], [-98.396017, 34.615796], [-98.395867, 34.615796], [-98.395867, 34.61589]]]}, "properties": {"osm_id": 1057780700, "building": "yes", "name": "", "height": null, "height_m": null, "levels": null, "tract_id": "40031001100", "tract_name": "11", "tags": {"building": "yes", "source": "microsoft/BuildingFootprints"}}}, {"type": "Feature", "geometry": {"type": "Polygon", "coordinates": [[[-98.3965266, 34.615557], [-98.396382, 34.615557], [-98.396382, 34.6157674], [-98.3964059, 34.6157674], [-98.3964059, 34.6158314], [-98.3965091, 34.6158314], [-98.3965091, 34.6157668], [-98.3965266, 34.6157668], [-98.3965266, 34.615557]]]}, "properties": {"osm_id": 1057780702, "building": "yes", "name": "", "height": null, "height_m": null, "levels": null, "tract_id": "40031001100", "tract_name": "11", "tags": {"building": "yes", "source": "microsoft/BuildingFootprints"}}}, {"type": "Feature", "geometry": {"type": "Polygon", "coordinates": [[[-98.395805, 34.615875], [-98.395805, 34.615798], [-98.395588, 34.615798], [-98.395588, 34.615875], [-98.395805, 34.615875]]]}, "properties": {"osm_id": 1057780703, "building": "yes", "name": "", "height": null, "height_m": null, "levels": null, "tract_id": "40031001100", "tract_name": "11", "tags": {"building": "yes", "source": "microsoft/BuildingFootprints"}}}, {"type": "Feature", "geometry": {"type": "Polygon", "coordinates": [[[-98.3986187, 34.6158917], [-98.3987687, 34.6158917], [-98.3987687, 34.6158037], [-98.3986187, 34.6158037], [-98.3986187, 34.6158917]]]}, "properties": {"osm_id": 1057780706, "building": "yes", "name": "", "height": null, "height_m": null, "levels": null, "tract_id": "40031001100", "tract_name": "11", "tags": {"building": "yes", "source": "microsoft/BuildingFootprints"}}}, {"type": "Feature", "geometry": {"type": "Polygon", "coordinates": [[[-98.396173, 34.615864], [-98.396173, 34.615798], [-98.39606, 34.615798], [-98.39606, 34.615864], [-98.396173, 34.615864]]]}, "properties": {"osm_id": 1057780707, "building": "yes", "name": "", "height": null, "height_m": null, "levels": null, "tract_id": "40031001100", "tract_name": "11", "tags": {"building": "yes", "source": "microsoft/BuildingFootprints"}}}, {"type": "Feature", "geometry": {"type": "Polygon", "coordinates": [[[-98.3963589, 34.615555], [-98.396215, 34.615555], [-98.396215, 34.6157613], [-98.3962449, 34.6157613], [-98.3962449, 34.6158347], [-98.3963435, 34.6158347], [-98.3963435, 34.6157641], [-98.3963589, 34.6157641], [-98.3963589, 34.615555]]]}, "properties": {"osm_id": 1057780708, "building": "yes", "name": "", "height": null, "height_m": null, "levels": null, "tract_id": "40031001100", "tract_name": "11", "tags": {"building": "yes", "source": "microsoft/BuildingFootprints"}}}, {"type": "Feature", "geometry": {"type": "Polygon", "coordinates": [[[-98.3976082, 34.615844], [-98.3976525, 34.615844], [-98.3976523, 34.615747], [-98.397587, 34.615747], [-98.397587, 34.6157229], [-98.3974709, 34.6157231], [-98.3974711, 34.615845], [-98.397506, 34.615845], [-98.397506, 34.6158751], [-98.3976082, 34.6158749], [-98.3976082, 34.615844]]]}, "properties": {"osm_id": 1057780709, "building": "yes", "name": "", "height": null, "height_m": null, "levels": null, "tract_id": "40031001100", "tract_name": "11", "tags": {"building": "yes", "source": "microsoft/BuildingFootprints"}}}, {"type": "Feature", "geometry": {"type": "Polygon", "coordinates": [[[-98.3881471, 34.6145948], [-98.3881453, 34.614382], [-98.3881852, 34.6143817], [-98.3881841, 34.6142571], [-98.3881488, 34.6142573], [-98.3881453, 34.6141835], [-98.3876161, 34.6141853], [-98.387618, 34.6144105], [-98.3875523, 34.6144417], [-98.3875526, 34.6144857], [-98.3878055, 34.6144843], [-98.3878065, 34.6145967], [-98.3881471, 34.6145948]]]}, "properties": {"osm_id": 1072106978, "building": "yes", "name": "", "height": null, "height_m": null, "levels": null, "tract_id": "40031001100", "tract_name": "11", "tags": {"addr:city": "Lawton", "addr:housenumber": "449", "addr:postcode": "73501", "addr:state": "OK", "addr:street": "Northwest 2nd Street", "building": "yes", "disused:shop": "craft", "old_name": "JOANN"}}}, {"type": "Feature", "geometry": {"type": "Polygon", "coordinates": [[[-98.3881453, 34.6141835], [-98.3881448, 34.6140927], [-98.3881987, 34.6140926], [-98.3881974, 34.6138503], [-98.3876154, 34.6138524], [-98.3876166, 34.6140624], [-98.3875324, 34.6140871], [-98.387533, 34.6141856], [-98.3876161, 34.6141853], [-98.3881453, 34.6141835]]]}, "properties": {"osm_id": 1072106979, "building": "yes", "name": "Bed Bath & Beyond", "height": null, "height_m": null, "levels": null, "tract_id": "40031001100", "tract_name": "11", "tags": {"addr:city": "Lawton", "addr:housenumber": "421", "addr:postcode": "73501", "addr:state": "OK", "addr:street": "Northwest 2nd Street", "brand": "Bed Bath & Beyond", "brand:wikidata": "Q813782", "building": "yes", "name": "Bed Bath & Beyond", "shop": "houseware"}}}, {"type": "Feature", "geometry": {"type": "Polygon", "coordinates": [[[-98.3881464, 34.6136737], [-98.3881453, 34.6135907], [-98.3881858, 34.6135904], [-98.3881843, 34.6134723], [-98.3881477, 34.6134726], [-98.3881482, 34.6133926], [-98.3878045, 34.6133923], [-98.3878044, 34.6134643], [-98.3878104, 34.6136765], [-98.3881464, 34.6136737]]]}, "properties": {"osm_id": 1072106980, "building": "yes", "name": "Shoe Carnival", "height": null, "height_m": null, "levels": null, "tract_id": "40031001100", "tract_name": "11", "tags": {"addr:city": "Lawton", "addr:housenumber": "379", "addr:postcode": "73501", "addr:state": "OK", "addr:street": "Northwest 2nd Street", "brand": "Shoe Carnival", "brand:wikidata": "Q7500007", "building": "yes", "name": "Shoe Carnival", "shop": "shoes", "website": "https://stores.shoecarnival.com/ok/lawton/shoe-store-lawton-ok-532.html"}}}, {"type": "Feature", "geometry": {"type": "Polygon", "coordinates": [[[-98.3881482, 34.6133926], [-98.3881487, 34.6130693], [-98.3881653, 34.6130693], [-98.3881656, 34.6128533], [-98.388152, 34.6128533], [-98.3881527, 34.6126665], [-98.3877258, 34.6126681], [-98.3874341, 34.6126654], [-98.3874329, 34.6133326], [-98.387745, 34.613333], [-98.3877447, 34.6134643], [-98.3878044, 34.6134643], [-98.3878045, 34.6133923], [-98.3881482, 34.6133926]]]}, "properties": {"osm_id": 1072106981, "building": "yes", "name": "Kohl's", "height": null, "height_m": null, "levels": null, "tract_id": "40031001100", "tract_name": "11", "tags": {"addr:city": "Lawton", "addr:housenumber": "321", "addr:postcode": "73501", "addr:state": "OK", "addr:street": "Northwest 2nd Street", "brand": "Kohl's", "brand:wikidata": "Q967265", "building": "yes", "name": "Kohl's", "opening_hours": "Mo-Sa 09:00-21:00; Su 09:00-20:00", "phone": "+1 580-581-7224", "ref": "1435", "shop": "department_store", "website": "https://www.kohls.com/stores/ok/lawton-1435.shtml"}}}, {"type": "Feature", "geometry": {"type": "Polygon", "coordinates": [[[-98.3881527, 34.6126665], [-98.3881524, 34.612607], [-98.3881681, 34.6126069], [-98.3881675, 34.6124974], [-98.3881507, 34.6124974], [-98.3881435, 34.6124402], [-98.3877246, 34.6124398], [-98.3877258, 34.6126681], [-98.3881527, 34.6126665]]]}, "properties": {"osm_id": 1072106982, "building": "yes", "name": "Ulta Beauty", "height": null, "height_m": null, "levels": null, "tract_id": "40031001100", "tract_name": "11", "tags": {"addr:city": "Lawton", "addr:housenumber": "295", "addr:postcode": "73501", "addr:state": "OK", "addr:street": "Northwest 2nd Street", "alt_name": "Ulta Skin Bar", "beauty": "skin_care", "brand": "Ulta Beauty", "brand:wikidata": "Q7880076", "building": "yes", "name": "Ulta Beauty", "opening_hours": "Mo-We 10:00-20:00; Th-Sa 10:00-21:00; Su 11:00-18:00", "phone": "+1 580-354-9027", "ref": "678", "shop": "cosmetics", "website": "https://www.ulta.com/stores/lawton-ok-678"}}}, {"type": "Feature", "geometry": {"type": "Polygon", "coordinates": [[[-98.3881435, 34.6124402], [-98.3881442, 34.6118419], [-98.3881426, 34.6118416], [-98.3876824, 34.6118415], [-98.3873902, 34.6118413], [-98.3873901, 34.6119691], [-98.3874727, 34.6119692], [-98.3874721, 34.6124396], [-98.3877246, 34.6124398], [-98.3881435, 34.6124402]]]}, "properties": {"osm_id": 1072106983, "building": "yes", "name": "Dick's Sporting Goods", "height": null, "height_m": null, "levels": null, "tract_id": "40031001100", "tract_name": "11", "tags": {"addr:city": "Lawton", "addr:housenumber": "261", "addr:postcode": "73501", "addr:state": "OK", "addr:street": "Northwest 2nd Street", "brand": "Dick's Sporting Goods", "brand:wikidata": "Q5272601", "building": "yes", "name": "Dick's Sporting Goods", "opening_hours": "Mo-Sa 09:00-21:00; Su 10:00-19:00", "phone": "+1 580-350-3079", "ref": "1109", "shop": "sports", "website": "https://stores.dickssportinggoods.com/ok/lawton/1109/"}}}, {"type": "Feature", "geometry": {"type": "Polygon", "coordinates": [[[-98.3881426, 34.6118416], [-98.3881427, 34.6115775], [-98.3879107, 34.6115766], [-98.3877344, 34.6115759], [-98.3877343, 34.611776], [-98.3876824, 34.6117973], [-98.3876824, 34.6118415], [-98.3881426, 34.6118416]]]}, "properties": {"osm_id": 1072106984, "building": "yes", "name": "Petco", "height": null, "height_m": null, "levels": null, "tract_id": "40031001100", "tract_name": "11", "tags": {"addr:city": "Lawton", "addr:housenumber": "223", "addr:postcode": "73501", "addr:state": "OK", "addr:street": "Northwest 2nd Street", "brand": "Petco", "brand:wikidata": "Q7171798", "building": "yes", "name": "Petco", "opening_hours": "Mo-Sa 09:00-20:00; Su 10:00-19:00", "phone": "+1 580-355-1362", "ref": "2433", "shop": "pet", "website": "https://stores.petco.com/ok/lawton/pet-supplies-lawton-ok-2433.html"}}}, {"type": "Feature", "geometry": {"type": "Polygon", "coordinates": [[[-98.3881427, 34.6115775], [-98.388155, 34.6115776], [-98.388156, 34.6114098], [-98.3879117, 34.6114088], [-98.3879107, 34.6115766], [-98.3881427, 34.6115775]]]}, "properties": {"osm_id": 1072106985, "building": "yes", "name": "", "height": null, "height_m": null, "levels": null, "tract_id": "40031001100", "tract_name": "11", "tags": {"building": "yes"}}}, {"type": "Feature", "geometry": {"type": "Polygon", "coordinates": [[[-98.3964812, 34.6130103], [-98.3964356, 34.6129827], [-98.3963974, 34.6130191], [-98.396443, 34.6130506], [-98.3964812, 34.6130103]]]}, "properties": {"osm_id": 1210619410, "building": "yes", "name": "", "height": null, "height_m": null, "levels": null, "tract_id": "40031001100", "tract_name": "11", "tags": {"building": "yes"}}}, {"type": "Feature", "geometry": {"type": "Polygon", "coordinates": [[[-98.3899879, 34.6150401], [-98.3896317, 34.6150417], [-98.3896343, 34.6154265], [-98.3899905, 34.6154248], [-98.3899879, 34.6150401]]]}, "properties": {"osm_id": 1291536538, "building": "yes", "name": "", "height": null, "height_m": null, "levels": null, "tract_id": "40031001100", "tract_name": "11", "tags": {"building": "yes"}}}, {"type": "Feature", "geometry": {"type": "Polygon", "coordinates": [[[-98.390905, 34.6157349], [-98.390904, 34.6155661], [-98.3908152, 34.6155665], [-98.3908159, 34.6156808], [-98.3907906, 34.6156809], [-98.3907909, 34.6157353], [-98.390905, 34.6157349]]]}, "properties": {"osm_id": 1291536541, "building": "yes", "name": "", "height": null, "height_m": null, "levels": null, "tract_id": "40031001100", "tract_name": "11", "tags": {"building": "yes"}}}]}