{"type": "FeatureCollection", "features": [{"type": "Feature", "geometry": {"type": "Polygon", "coordinates": [[[-96.3002837, 35.4208069], [-96.3001335, 35.4208069], [-96.3001415, 35.4211195], [-96.300281, 35.4211195], [-96.3002837, 35.4208069]]]}, "properties": {"osm_id": 226292712, "building": "roof", "name": "", "height": null, "height_m": null, "levels": null, "tract_id": "40107080900", "tract_name": "809", "tags": {"building": "roof"}}}, {"type": "Feature", "geometry": {"type": "Polygon", "coordinates": [[[-96.3012439, 35.4208943], [-96.3011044, 35.4208921], [-96.3011095, 35.421167], [-96.3012412, 35.4211697], [-96.3012439, 35.4208943]]]}, "properties": {"osm_id": 226292713, "building": "roof", "name": "", "height": null, "height_m": null, "levels": null, "tract_id": "40107080900", "tract_name": "809", "tags": {"building": "roof"}}}, {"type": "Feature", "geometry": {"type": "Polygon", "coordinates": [[[-96.300734, 35.4208544], [-96.3005034, 35.4208523], [-96.3005063, 35.4210867], [-96.3007343, 35.4210867], [-96.300734, 35.4208544]]]}, "properties": {"osm_id": 226292715, "building": "retail", "name": "", "height": null, "height_m": null, "levels": null, "tract_id": "40107080900", "tract_name": "809", "tags": {"building": "retail"}}}, {"type": "Feature", "geometry": {"type": "Polygon", "coordinates": [[[-96.2918977, 35.4312774], [-96.2912236, 35.4312749], [-96.2912244, 35.4311236], [-96.2911194, 35.4311232], [-96.2911201, 35.4309899], [-96.2912303, 35.4309903], [-96.2917943, 35.4309924], [-96.2917945, 35.4309528], [-96.291902, 35.4309532], [-96.2919006, 35.4311976], [-96.2919652, 35.4311979], [-96.2919647, 35.4312777], [-96.2918977, 35.4312774]]]}, "properties": {"osm_id": 264012878, "building": "yes", "name": "American Manufacturing Services", "height": null, "height_m": null, "levels": null, "tract_id": "40107080900", "tract_name": "809", "tags": {"addr:city": "Okemah", "addr:country": "US", "addr:housenumber": "202", "addr:postcode": "74859", "addr:state": "OK", "addr:street": "East 7th Street", "building": "yes", "name": "American Manufacturing Services"}}}, {"type": "Feature", "geometry": {"type": "Polygon", "coordinates": [[[-96.3049823, 35.430437], [-96.3049806, 35.4306425], [-96.3050978, 35.4306431], [-96.3050994, 35.4304376], [-96.3049823, 35.430437]]]}, "properties": {"osm_id": 543421882, "building": "yes", "name": "", "height": null, "height_m": null, "levels": null, "tract_id": "40107080900", "tract_name": "809", "tags": {"addr:city": "Okemah", "addr:housenumber": "123", "addr:state": "OK", "addr:street": "South 4th Street", "building": "yes"}}}, {"type": "Feature", "geometry": {"type": "Polygon", "coordinates": [[[-96.3033634, 35.4313796], [-96.3031946, 35.4313781], [-96.3031989, 35.4310449], [-96.3033677, 35.4310464], [-96.3033634, 35.4313796]]]}, "properties": {"osm_id": 580660275, "building": "yes", "name": "New Life Fitness", "height": null, "height_m": null, "levels": null, "tract_id": "40107080900", "tract_name": "809", "tags": {"addr:city": "Okemah", "addr:country": "US", "addr:housenumber": "221", "addr:postcode": "74859", "addr:state": "OK", "addr:street": "West Broadway Street", "building": "yes", "leisure": "fitness_centre", "name": "New Life Fitness", "phone": "+1-918-304-4522"}}}, {"type": "Feature", "geometry": {"type": "Polygon", "coordinates": [[[-96.3050792, 35.4313937], [-96.3050783, 35.4310626], [-96.30492, 35.4310629], [-96.304921, 35.431394], [-96.3050792, 35.4313937]]]}, "properties": {"osm_id": 761367606, "building": "yes", "name": "Crystal Theater", "height": null, "height_m": null, "levels": null, "tract_id": "40107080900", "tract_name": "809", "tags": {"addr:city": "Okemah", "addr:housenumber": "401", "addr:postcode": "74859", "addr:state": "OK", "addr:street": "West Broadway Street", "amenity": "cinema", "building": "yes", "name": "Crystal Theater", "screen": "1", "wikidata": "Q43193664"}}}, {"type": "Feature", "geometry": {"type": "Polygon", "coordinates": [[[-96.2954932, 35.4245783], [-96.2954956, 35.4247574], [-96.2954557, 35.4247577], [-96.2954571, 35.4248639], [-96.2951734, 35.4248663], [-96.2951727, 35.4248105], [-96.2948883, 35.4248129], [-96.294887, 35.4247157], [-96.2948566, 35.4247159], [-96.2948549, 35.4245838], [-96.2954932, 35.4245783]]]}, "properties": {"osm_id": 971510686, "building": "yes", "name": "", "height": null, "height_m": null, "levels": null, "tract_id": "40107080900", "tract_name": "809", "tags": {"building": "yes"}}}, {"type": "Feature", "geometry": {"type": "Polygon", "coordinates": [[[-96.3045762, 35.4338574], [-96.304578, 35.4337401], [-96.3043331, 35.4337375], [-96.3043313, 35.4338548], [-96.3045762, 35.4338574]]]}, "properties": {"osm_id": 1093417608, "building": "church", "name": "", "height": null, "height_m": null, "levels": null, "tract_id": "40107080900", "tract_name": "809", "tags": {"building": "church", "disused:amenity": "place_of_worship", "religion": "christian"}}}, {"type": "Feature", "geometry": {"type": "Polygon", "coordinates": [[[-96.3044502, 35.4330787], [-96.3044503, 35.4329347], [-96.3042638, 35.4329345], [-96.3042638, 35.4329111], [-96.3042191, 35.4329111], [-96.3042191, 35.4329351], [-96.3041327, 35.4329351], [-96.3041326, 35.4330768], [-96.3042274, 35.4330769], [-96.3042274, 35.4330995], [-96.3042767, 35.4330996], [-96.3042767, 35.4330786], [-96.3044502, 35.4330787]]]}, "properties": {"osm_id": 1093417609, "building": "church", "name": "First Christian Church", "height": null, "height_m": null, "levels": null, "tract_id": "40107080900", "tract_name": "809", "tags": {"amenity": "place_of_worship", "building": "church", "ele": "278", "gnis:feature_id": "1801318", "name": "First Christian Church", "religion": "christian"}}}, {"type": "Feature", "geometry": {"type": "Polygon", "coordinates": [[[-96.2907465, 35.4309501], [-96.2905718, 35.4309521], [-96.2905727, 35.431002], [-96.2905248, 35.4310025], [-96.2905254, 35.4310413], [-96.2905694, 35.4310408], [-96.2905713, 35.4311565], [-96.2905444, 35.4311568], [-96.2905455, 35.4312219], [-96.2905798, 35.4312215], [-96.2905812, 35.4313003], [-96.290723, 35.4312987], [-96.2907225, 35.4312688], [-96.2908097, 35.4312678], [-96.2908071, 35.4311163], [-96.2907494, 35.431117], [-96.2907465, 35.4309501]]]}, "properties": {"osm_id": 1093419487, "building": "yes", "name": "", "height": null, "height_m": null, "levels": null, "tract_id": "40107080900", "tract_name": "809", "tags": {"building": "yes"}}}, {"type": "Feature", "geometry": {"type": "Polygon", "coordinates": [[[-96.2878881, 35.4347424], [-96.2877695, 35.4349317], [-96.2877111, 35.4349074], [-96.2878297, 35.4347181], [-96.2878881, 35.4347424]]]}, "properties": {"osm_id": 1153694608, "building": "yes", "name": "", "height": null, "height_m": null, "levels": null, "tract_id": "40107080900", "tract_name": "809", "tags": {"building": "yes"}}}, {"type": "Feature", "geometry": {"type": "Polygon", "coordinates": [[[-96.2854566, 35.4342641], [-96.2849218, 35.4342672], [-96.2849175, 35.4337761], [-96.2854523, 35.433773], [-96.2854566, 35.4342641]]]}, "properties": {"osm_id": 1153694611, "building": "yes", "name": "", "height": null, "height_m": null, "levels": null, "tract_id": "40107080900", "tract_name": "809", "tags": {"building": "yes"}}}, {"type": "Feature", "geometry": {"type": "Polygon", "coordinates": [[[-96.275489, 35.436229], [-96.2755765, 35.4362284], [-96.2755774, 35.4363164], [-96.2754899, 35.4363171], [-96.275489, 35.436229]]]}, "properties": {"osm_id": 1153694612, "building": "yes", "name": "", "height": null, "height_m": null, "levels": null, "tract_id": "40107080900", "tract_name": "809", "tags": {"building": "yes"}}}, {"type": "Feature", "geometry": {"type": "Polygon", "coordinates": [[[-96.2755193, 35.4365504], [-96.2754046, 35.4365519], [-96.2754025, 35.4364519], [-96.2755173, 35.4364503], [-96.2755193, 35.4365504]]]}, "properties": {"osm_id": 1153694613, "building": "yes", "name": "", "height": null, "height_m": null, "levels": null, "tract_id": "40107080900", "tract_name": "809", "tags": {"building": "yes"}}}, {"type": "Feature", "geometry": {"type": "Polygon", "coordinates": [[[-96.2758655, 35.4364368], [-96.2757649, 35.4364376], [-96.275764, 35.4363581], [-96.2758645, 35.4363573], [-96.2758655, 35.4364368]]]}, "properties": {"osm_id": 1153694614, "building": "yes", "name": "", "height": null, "height_m": null, "levels": null, "tract_id": "40107080900", "tract_name": "809", "tags": {"building": "yes"}}}, {"type": "Feature", "geometry": {"type": "Polygon", "coordinates": [[[-96.273813, 35.4359387], [-96.2736091, 35.4359463], [-96.2736001, 35.4357871], [-96.273804, 35.4357795], [-96.273813, 35.4359387]]]}, "properties": {"osm_id": 1153694615, "building": "yes", "name": "", "height": null, "height_m": null, "levels": null, "tract_id": "40107080900", "tract_name": "809", "tags": {"building": "yes"}}}, {"type": "Feature", "geometry": {"type": "Polygon", "coordinates": [[[-96.2964655, 35.4309192], [-96.2964647, 35.4308208], [-96.2966155, 35.43082], [-96.2966162, 35.4309184], [-96.2964655, 35.4309192]]]}, "properties": {"osm_id": 1153694626, "building": "yes", "name": "", "height": null, "height_m": null, "levels": null, "tract_id": "40107080900", "tract_name": "809", "tags": {"building": "yes"}}}, {"type": "Feature", "geometry": {"type": "Polygon", "coordinates": [[[-96.3004325, 35.4316651], [-96.3004366, 35.4319022], [-96.3002813, 35.4319039], [-96.3002773, 35.4316668], [-96.3004325, 35.4316651]]]}, "properties": {"osm_id": 1153694627, "building": "yes", "name": "", "height": null, "height_m": null, "levels": null, "tract_id": "40107080900", "tract_name": "809", "tags": {"building": "yes"}}}, {"type": "Feature", "geometry": {"type": "Polygon", "coordinates": [[[-96.3003108, 35.4309432], [-96.3003102, 35.4308147], [-96.3007559, 35.4308132], [-96.3007565, 35.4309416], [-96.3003108, 35.4309432]]]}, "properties": {"osm_id": 1153694628, "building": "yes", "name": "", "height": null, "height_m": null, "levels": null, "tract_id": "40107080900", "tract_name": "809", "tags": {"building": "yes"}}}, {"type": "Feature", "geometry": {"type": "Polygon", "coordinates": [[[-96.3004588, 35.4310606], [-96.3004569, 35.4313929], [-96.3002936, 35.4313923], [-96.3002955, 35.43106], [-96.3004588, 35.4310606]]]}, "properties": {"osm_id": 1153694629, "building": "yes", "name": "", "height": null, "height_m": null, "levels": null, "tract_id": "40107080900", "tract_name": "809", "tags": {"building": "yes"}}}, {"type": "Feature", "geometry": {"type": "Polygon", "coordinates": [[[-96.3091746, 35.4310992], [-96.3087014, 35.4311008], [-96.3087033, 35.4311835], [-96.3087583, 35.4311812], [-96.3087479, 35.4311951], [-96.308746, 35.4312121], [-96.3087432, 35.4312314], [-96.3087109, 35.4312476], [-96.3087242, 35.4312754], [-96.3087119, 35.4313001], [-96.3087422, 35.431328], [-96.3087413, 35.4313488], [-96.3087612, 35.4313635], [-96.3087811, 35.4313604], [-96.3088048, 35.4313821], [-96.3089347, 35.4312971], [-96.3089252, 35.4312754], [-96.3089338, 35.4312507], [-96.3088826, 35.4312086], [-96.3088807, 35.43119], [-96.3091737, 35.4311927], [-96.3091746, 35.4310992]]]}, "properties": {"osm_id": 1153694630, "building": "church", "name": "", "height": null, "height_m": null, "levels": null, "tract_id": "40107080900", "tract_name": "809", "tags": {"building": "church"}}}, {"type": "Feature", "geometry": {"type": "Polygon", "coordinates": [[[-96.3066539, 35.4310695], [-96.3066512, 35.4313973], [-96.3061362, 35.4313945], [-96.3061388, 35.4310667], [-96.3066539, 35.4310695]]]}, "properties": {"osm_id": 1153694631, "building": "yes", "name": "", "height": null, "height_m": null, "levels": null, "tract_id": "40107080900", "tract_name": "809", "tags": {"building": "yes"}}}, {"type": "Feature", "geometry": {"type": "Polygon", "coordinates": [[[-96.306835, 35.4313973], [-96.3068403, 35.4310695], [-96.3071499, 35.4310729], [-96.3071446, 35.4314007], [-96.306835, 35.4313973]]]}, "properties": {"osm_id": 1153694632, "building": "yes", "name": "", "height": null, "height_m": null, "levels": null, "tract_id": "40107080900", "tract_name": "809", "tags": {"building": "yes"}}}, {"type": "Feature", "geometry": {"type": "Polygon", "coordinates": [[[-96.3071434, 35.4309788], [-96.30667, 35.430981], [-96.3066683, 35.4307287], [-96.3071417, 35.4307265], [-96.3071434, 35.4309788]]]}, "properties": {"osm_id": 1153694633, "building": "yes", "name": "", "height": null, "height_m": null, "levels": null, "tract_id": "40107080900", "tract_name": "809", "tags": {"building": "yes"}}}, {"type": "Feature", "geometry": {"type": "Polygon", "coordinates": [[[-96.3070951, 35.4305931], [-96.3067679, 35.4305996], [-96.3067634, 35.4304513], [-96.3070907, 35.4304448], [-96.3070951, 35.4305931]]]}, "properties": {"osm_id": 1153694634, "building": "yes", "name": "", "height": null, "height_m": null, "levels": null, "tract_id": "40107080900", "tract_name": "809", "tags": {"building": "yes"}}}, {"type": "Feature", "geometry": {"type": "Polygon", "coordinates": [[[-96.3058828, 35.4322693], [-96.3054241, 35.4322726], [-96.3054201, 35.4321065], [-96.305459, 35.4320683], [-96.3058828, 35.4320759], [-96.3058828, 35.4322693]]]}, "properties": {"osm_id": 1153694635, "building": "yes", "name": "", "height": null, "height_m": null, "levels": null, "tract_id": "40107080900", "tract_name": "809", "tags": {"building": "yes"}}}, {"type": "Feature", "geometry": {"type": "Polygon", "coordinates": [[[-96.3045993, 35.4322005], [-96.3041943, 35.4321994], [-96.3041949, 35.4320649], [-96.3045999, 35.432066], [-96.3045993, 35.4322005]]]}, "properties": {"osm_id": 1153694636, "building": "yes", "name": "", "height": null, "height_m": null, "levels": null, "tract_id": "40107080900", "tract_name": "809", "tags": {"building": "yes"}}}, {"type": "Feature", "geometry": {"type": "Polygon", "coordinates": [[[-96.3040428, 35.432666], [-96.3035573, 35.4326682], [-96.3035563, 35.4325251], [-96.3040418, 35.432523], [-96.3040428, 35.432666]]]}, "properties": {"osm_id": 1153694637, "building": "yes", "name": "", "height": null, "height_m": null, "levels": null, "tract_id": "40107080900", "tract_name": "809", "tags": {"building": "yes"}}}, {"type": "Feature", "geometry": {"type": "Polygon", "coordinates": [[[-96.3046087, 35.432666], [-96.3041273, 35.4326693], [-96.304125, 35.432452], [-96.3046065, 35.4324487], [-96.3046087, 35.432666]]]}, "properties": {"osm_id": 1153694638, "building": "yes", "name": "", "height": null, "height_m": null, "levels": null, "tract_id": "40107080900", "tract_name": "809", "tags": {"building": "yes"}}}, {"type": "Feature", "geometry": {"type": "Polygon", "coordinates": [[[-96.3020557, 35.4316649], [-96.3020633, 35.4320002], [-96.3017872, 35.4320043], [-96.3017796, 35.431669], [-96.3020557, 35.4316649]]]}, "properties": {"osm_id": 1153694639, "building": "yes", "name": "", "height": null, "height_m": null, "levels": null, "tract_id": "40107080900", "tract_name": "809", "tags": {"building": "yes"}}}, {"type": "Feature", "geometry": {"type": "Polygon", "coordinates": [[[-96.3002938, 35.4323773], [-96.300292, 35.4322051], [-96.3007453, 35.432202], [-96.3007471, 35.4323742], [-96.3002938, 35.4323773]]]}, "properties": {"osm_id": 1153694640, "building": "yes", "name": "", "height": null, "height_m": null, "levels": null, "tract_id": "40107080900", "tract_name": "809", "tags": {"building": "yes"}}}, {"type": "Feature", "geometry": {"type": "Polygon", "coordinates": [[[-96.3013096, 35.4325152], [-96.3011071, 35.4325196], [-96.3011046, 35.4324417], [-96.3013071, 35.4324373], [-96.3013096, 35.4325152]]]}, "properties": {"osm_id": 1153694641, "building": "yes", "name": "", "height": null, "height_m": null, "levels": null, "tract_id": "40107080900", "tract_name": "809", "tags": {"building": "yes"}}}, {"type": "Feature", "geometry": {"type": "Polygon", "coordinates": [[[-96.3015148, 35.4321437], [-96.3015148, 35.432524], [-96.3014129, 35.432524], [-96.3014129, 35.4321437], [-96.3015148, 35.4321437]]]}, "properties": {"osm_id": 1153694642, "building": "yes", "name": "", "height": null, "height_m": null, "levels": null, "tract_id": "40107080900", "tract_name": "809", "tags": {"building": "yes"}}}, {"type": "Feature", "geometry": {"type": "Polygon", "coordinates": [[[-96.3004948, 35.4327373], [-96.3005805, 35.4326645], [-96.3007815, 35.4328213], [-96.3006958, 35.4328942], [-96.3004948, 35.4327373]]]}, "properties": {"osm_id": 1153694643, "building": "yes", "name": "", "height": null, "height_m": null, "levels": null, "tract_id": "40107080900", "tract_name": "809", "tags": {"building": "yes"}}}, {"type": "Feature", "geometry": {"type": "Polygon", "coordinates": [[[-96.300175, 35.4331413], [-96.3000436, 35.4332331], [-96.2999421, 35.4331367], [-96.3000736, 35.4330449], [-96.300175, 35.4331413]]]}, "properties": {"osm_id": 1153694644, "building": "yes", "name": "", "height": null, "height_m": null, "levels": null, "tract_id": "40107080900", "tract_name": "809", "tags": {"building": "yes"}}}, {"type": "Feature", "geometry": {"type": "Polygon", "coordinates": [[[-96.2977664, 35.4327217], [-96.2977624, 35.4326168], [-96.2978813, 35.4326138], [-96.2978854, 35.4327187], [-96.2977664, 35.4327217]]]}, "properties": {"osm_id": 1153694645, "building": "yes", "name": "", "height": null, "height_m": null, "levels": null, "tract_id": "40107080900", "tract_name": "809", "tags": {"building": "yes"}}}, {"type": "Feature", "geometry": {"type": "Polygon", "coordinates": [[[-96.2980132, 35.4324737], [-96.2978093, 35.4324759], [-96.2978081, 35.4323974], [-96.2980119, 35.4323952], [-96.2980132, 35.4324737]]]}, "properties": {"osm_id": 1153694646, "building": "yes", "name": "", "height": null, "height_m": null, "levels": null, "tract_id": "40107080900", "tract_name": "809", "tags": {"building": "yes"}}}, {"type": "Feature", "geometry": {"type": "Polygon", "coordinates": [[[-96.2980118, 35.4323699], [-96.2978107, 35.432371], [-96.29781, 35.4322869], [-96.2980112, 35.4322858], [-96.2980118, 35.4323699]]]}, "properties": {"osm_id": 1153694647, "building": "yes", "name": "", "height": null, "height_m": null, "levels": null, "tract_id": "40107080900", "tract_name": "809", "tags": {"building": "yes"}}}, {"type": "Feature", "geometry": {"type": "Polygon", "coordinates": [[[-96.2977141, 35.4325087], [-96.2974928, 35.4325087], [-96.2974928, 35.4323699], [-96.2977141, 35.4323699], [-96.2977141, 35.4325087]]]}, "properties": {"osm_id": 1153694648, "building": "yes", "name": "", "height": null, "height_m": null, "levels": null, "tract_id": "40107080900", "tract_name": "809", "tags": {"building": "yes"}}}, {"type": "Feature", "geometry": {"type": "Polygon", "coordinates": [[[-96.2982251, 35.431146], [-96.2981777, 35.4312177], [-96.2980718, 35.4311713], [-96.2981191, 35.4310996], [-96.2982251, 35.431146]]]}, "properties": {"osm_id": 1153694649, "building": "yes", "name": "", "height": null, "height_m": null, "levels": null, "tract_id": "40107080900", "tract_name": "809", "tags": {"building": "yes"}}}, {"type": "Feature", "geometry": {"type": "Polygon", "coordinates": [[[-96.2981205, 35.4308313], [-96.2981161, 35.4309183], [-96.2978184, 35.4309085], [-96.2978227, 35.4308215], [-96.2981205, 35.4308313]]]}, "properties": {"osm_id": 1153694650, "building": "yes", "name": "", "height": null, "height_m": null, "levels": null, "tract_id": "40107080900", "tract_name": "809", "tags": {"building": "yes"}}}, {"type": "Feature", "geometry": {"type": "Polygon", "coordinates": [[[-96.2978335, 35.4307526], [-96.297837, 35.4306719], [-96.2981401, 35.4306807], [-96.2981366, 35.4307614], [-96.2978335, 35.4307526]]]}, "properties": {"osm_id": 1153694651, "building": "yes", "name": "", "height": null, "height_m": null, "levels": null, "tract_id": "40107080900", "tract_name": "809", "tags": {"building": "yes"}}}, {"type": "Feature", "geometry": {"type": "Polygon", "coordinates": [[[-96.2976028, 35.4313493], [-96.2976336, 35.4307133], [-96.2977246, 35.4307162], [-96.2976937, 35.4313522], [-96.2976028, 35.4313493]]]}, "properties": {"osm_id": 1153694652, "building": "yes", "name": "", "height": null, "height_m": null, "levels": null, "tract_id": "40107080900", "tract_name": "809", "tags": {"building": "yes"}}}, {"type": "Feature", "geometry": {"type": "Polygon", "coordinates": [[[-96.2975237, 35.4307209], [-96.2975089, 35.4313471], [-96.2973928, 35.4313453], [-96.2974076, 35.4307191], [-96.2975237, 35.4307209]]]}, "properties": {"osm_id": 1153694653, "building": "yes", "name": "", "height": null, "height_m": null, "levels": null, "tract_id": "40107080900", "tract_name": "809", "tags": {"building": "yes"}}}, {"type": "Feature", "geometry": {"type": "Polygon", "coordinates": [[[-96.300197, 35.4281104], [-96.3000529, 35.428112], [-96.3000518, 35.4280418], [-96.3001959, 35.4280403], [-96.300197, 35.4281104]]]}, "properties": {"osm_id": 1153694654, "building": "yes", "name": "", "height": null, "height_m": null, "levels": null, "tract_id": "40107080900", "tract_name": "809", "tags": {"building": "yes"}}}, {"type": "Feature", "geometry": {"type": "Polygon", "coordinates": [[[-96.3008201, 35.4279792], [-96.3008282, 35.4282666], [-96.3006362, 35.4282701], [-96.3006281, 35.4279827], [-96.3008201, 35.4279792]]]}, "properties": {"osm_id": 1153694655, "building": "yes", "name": "", "height": null, "height_m": null, "levels": null, "tract_id": "40107080900", "tract_name": "809", "tags": {"building": "yes"}}}, {"type": "Feature", "geometry": {"type": "Polygon", "coordinates": [[[-96.299996, 35.4293233], [-96.2998585, 35.4293255], [-96.2998566, 35.4292458], [-96.2999941, 35.4292436], [-96.299996, 35.4293233]]]}, "properties": {"osm_id": 1153694656, "building": "yes", "name": "", "height": null, "height_m": null, "levels": null, "tract_id": "40107080900", "tract_name": "809", "tags": {"building": "yes"}}}, {"type": "Feature", "geometry": {"type": "Polygon", "coordinates": [[[-96.3000207, 35.4271213], [-96.3001862, 35.4271197], [-96.30019, 35.4273794], [-96.3000245, 35.427381], [-96.3000207, 35.4271213]]]}, "properties": {"osm_id": 1153694657, "building": "yes", "name": "", "height": null, "height_m": null, "levels": null, "tract_id": "40107080900", "tract_name": "809", "tags": {"building": "yes"}}}, {"type": "Feature", "geometry": {"type": "Polygon", "coordinates": [[[-96.3002264, 35.4263842], [-96.3000368, 35.4263888], [-96.3000337, 35.4263042], [-96.3002233, 35.4262996], [-96.3002264, 35.4263842]]]}, "properties": {"osm_id": 1153694658, "building": "yes", "name": "", "height": null, "height_m": null, "levels": null, "tract_id": "40107080900", "tract_name": "809", "tags": {"building": "yes"}}}, {"type": "Feature", "geometry": {"type": "Polygon", "coordinates": [[[-96.3002408, 35.4258034], [-96.3002528, 35.4261214], [-96.3000958, 35.4261253], [-96.3000837, 35.4258073], [-96.3002408, 35.4258034]]]}, "properties": {"osm_id": 1153694659, "building": "yes", "name": "", "height": null, "height_m": null, "levels": null, "tract_id": "40107080900", "tract_name": "809", "tags": {"building": "yes"}}}, {"type": "Feature", "geometry": {"type": "Polygon", "coordinates": [[[-96.2972729, 35.4272284], [-96.2971103, 35.4272297], [-96.2971063, 35.4268843], [-96.2972689, 35.4268831], [-96.2972729, 35.4272284]]]}, "properties": {"osm_id": 1153694660, "building": "yes", "name": "", "height": null, "height_m": null, "levels": null, "tract_id": "40107080900", "tract_name": "809", "tags": {"building": "yes"}}}, {"type": "Feature", "geometry": {"type": "Polygon", "coordinates": [[[-96.2924698, 35.4268041], [-96.29267, 35.426969], [-96.2921927, 35.4273536], [-96.2923422, 35.4274768], [-96.2921826, 35.4276054], [-96.2920338, 35.4274828], [-96.2916141, 35.427821], [-96.2914253, 35.4276654], [-96.2919105, 35.4272744], [-96.2918699, 35.4272409], [-96.2920234, 35.4271172], [-96.292052, 35.4271408], [-96.2924698, 35.4268041]]]}, "properties": {"osm_id": 1153694663, "building": "yes", "name": "", "height": null, "height_m": null, "levels": null, "tract_id": "40107080900", "tract_name": "809", "tags": {"building": "yes"}}}, {"type": "Feature", "geometry": {"type": "Polygon", "coordinates": [[[-96.2926324, 35.4283229], [-96.2923821, 35.4285115], [-96.2922678, 35.4284108], [-96.2925182, 35.4282222], [-96.2926324, 35.4283229]]]}, "properties": {"osm_id": 1153694664, "building": "yes", "name": "", "height": null, "height_m": null, "levels": null, "tract_id": "40107080900", "tract_name": "809", "tags": {"building": "yes"}}}, {"type": "Feature", "geometry": {"type": "Polygon", "coordinates": [[[-96.2916175, 35.4286414], [-96.2913358, 35.4286381], [-96.2913399, 35.4284052], [-96.2916215, 35.4284084], [-96.2916175, 35.4286414]]]}, "properties": {"osm_id": 1153694665, "building": "yes", "name": "", "height": null, "height_m": null, "levels": null, "tract_id": "40107080900", "tract_name": "809", "tags": {"building": "yes"}}}, {"type": "Feature", "geometry": {"type": "Polygon", "coordinates": [[[-96.2904447, 35.427689], [-96.2903427, 35.4276923], [-96.2903401, 35.4276377], [-96.290442, 35.4276345], [-96.2904447, 35.427689]]]}, "properties": {"osm_id": 1153694666, "building": "yes", "name": "", "height": null, "height_m": null, "levels": null, "tract_id": "40107080900", "tract_name": "809", "tags": {"building": "yes"}}}, {"type": "Feature", "geometry": {"type": "Polygon", "coordinates": [[[-96.2892947, 35.4277748], [-96.2892216, 35.4277775], [-96.2892186, 35.4277253], [-96.2892917, 35.4277226], [-96.2892947, 35.4277748]]]}, "properties": {"osm_id": 1153694668, "building": "yes", "name": "", "height": null, "height_m": null, "levels": null, "tract_id": "40107080900", "tract_name": "809", "tags": {"building": "yes"}}}, {"type": "Feature", "geometry": {"type": "Polygon", "coordinates": [[[-96.289699, 35.4277978], [-96.2897345, 35.427848], [-96.2896759, 35.4278756], [-96.2896404, 35.4278253], [-96.289699, 35.4277978]]]}, "properties": {"osm_id": 1153694669, "building": "yes", "name": "", "height": null, "height_m": null, "levels": null, "tract_id": "40107080900", "tract_name": "809", "tags": {"building": "yes"}}}, {"type": "Feature", "geometry": {"type": "Polygon", "coordinates": [[[-96.2895656, 35.4277666], [-96.2895039, 35.4277491], [-96.2895257, 35.4276981], [-96.2895873, 35.4277156], [-96.2895656, 35.4277666]]]}, "properties": {"osm_id": 1153694670, "building": "yes", "name": "", "height": null, "height_m": null, "levels": null, "tract_id": "40107080900", "tract_name": "809", "tags": {"building": "yes"}}}, {"type": "Feature", "geometry": {"type": "Polygon", "coordinates": [[[-96.2897815, 35.4280677], [-96.2897828, 35.4282851], [-96.2896434, 35.4282857], [-96.289642, 35.4280682], [-96.2897815, 35.4280677]]]}, "properties": {"osm_id": 1153694671, "building": "yes", "name": "", "height": null, "height_m": null, "levels": null, "tract_id": "40107080900", "tract_name": "809", "tags": {"building": "yes"}}}, {"type": "Feature", "geometry": {"type": "Polygon", "coordinates": [[[-96.3001462, 35.4204186], [-96.3003403, 35.4204133], [-96.3003354, 35.4202934], [-96.3001951, 35.4202973], [-96.3001929, 35.4202442], [-96.3001391, 35.4202457], [-96.3001408, 35.4202858], [-96.3001462, 35.4204186]]]}, "properties": {"osm_id": 1256811003, "building": "yes", "name": "", "height": null, "height_m": null, "levels": null, "tract_id": "40107080900", "tract_name": "809", "tags": {"building": "yes"}}}, {"type": "Feature", "geometry": {"type": "Polygon", "coordinates": [[[-96.2999068, 35.4202922], [-96.3001408, 35.4202858], [-96.3001462, 35.4204186], [-96.2999122, 35.420425], [-96.2999068, 35.4202922]]]}, "properties": {"osm_id": 1256811004, "building": "roof", "name": "", "height": null, "height_m": null, "levels": null, "tract_id": "40107080900", "tract_name": "809", "tags": {"building": "roof"}}}, {"type": "Feature", "geometry": {"type": "Polygon", "coordinates": [[[-96.2989592, 35.4207257], [-96.2989581, 35.4209487], [-96.2987509, 35.420948], [-96.298752, 35.420725], [-96.2989592, 35.4207257]]]}, "properties": {"osm_id": 1319258091, "building": "retail", "name": "Casey's General Store", "height": null, "height_m": null, "levels": null, "tract_id": "40107080900", "tract_name": "809", "tags": {"brand": "Casey's General Store", "brand:wikidata": "Q2940968", "building": "retail", "name": "Casey's General Store", "shop": "convenience"}}}, {"type": "Feature", "geometry": {"type": "Polygon", "coordinates": [[[-96.2986759, 35.4237236], [-96.2986759, 35.423481], [-96.2985713, 35.423481], [-96.2985713, 35.4237236], [-96.2986759, 35.4237236]]]}, "properties": {"osm_id": 1319258095, "building": "roof", "name": "", "height": null, "height_m": null, "levels": null, "tract_id": "40107080900", "tract_name": "809", "tags": {"building": "roof", "layer": "1"}}}, {"type": "Feature", "geometry": {"type": "Polygon", "coordinates": [[[-96.2986409, 35.424175], [-96.2986405, 35.4238718], [-96.2988779, 35.4238716], [-96.2988783, 35.4239375], [-96.2988782, 35.4241033], [-96.2988783, 35.4241748], [-96.2986409, 35.424175]]]}, "properties": {"osm_id": 1319258096, "building": "yes", "name": "", "height": null, "height_m": null, "levels": null, "tract_id": "40107080900", "tract_name": "809", "tags": {"building": "yes", "shop": "convenience"}}}, {"type": "Feature", "geometry": {"type": "Polygon", "coordinates": [[[-96.2988782, 35.4241033], [-96.2991273, 35.4241033], [-96.2991273, 35.42423], [-96.2993081, 35.42423], [-96.299308, 35.4238118], [-96.2991234, 35.4238118], [-96.2991235, 35.4239375], [-96.2988783, 35.4239375], [-96.2988782, 35.4241033]]]}, "properties": {"osm_id": 1319258097, "building": "roof", "name": "", "height": null, "height_m": null, "levels": null, "tract_id": "40107080900", "tract_name": "809", "tags": {"building": "roof", "layer": "1"}}}, {"type": "Feature", "geometry": {"type": "Polygon", "coordinates": [[[-96.2978211, 35.4454158], [-96.2978194, 35.4454732], [-96.2977463, 35.4454718], [-96.297748, 35.4454144], [-96.2978211, 35.4454158]]]}, "properties": {"osm_id": 1356996131, "building": "yes", "name": "", "height": null, "height_m": null, "levels": null, "tract_id": "40107080900", "tract_name": "809", "tags": {"building": "yes"}}}, {"type": "Feature", "geometry": {"type": "Polygon", "coordinates": [[[-96.2977206, 35.4454008], [-96.2977163, 35.4454726], [-96.297633, 35.4454693], [-96.2976374, 35.4453974], [-96.2977206, 35.4454008]]]}, "properties": {"osm_id": 1356996132, "building": "yes", "name": "", "height": null, "height_m": null, "levels": null, "tract_id": "40107080900", "tract_name": "809", "tags": {"building": "yes"}}}, {"type": "Feature", "geometry": {"type": "Polygon", "coordinates": [[[-96.2837199, 35.4247587], [-96.2836179, 35.4247659], [-96.2835944, 35.4245459], [-96.2836964, 35.4245387], [-96.2837199, 35.4247587]]]}, "properties": {"osm_id": 1372017916, "building": "yes", "name": "", "height": null, "height_m": null, "levels": null, "tract_id": "40107080900", "tract_name": "809", "tags": {"building": "yes"}}}, {"type": "Feature", "geometry": {"type": "Polygon", "coordinates": [[[-96.2817705, 35.4242291], [-96.2815235, 35.4242354], [-96.2815172, 35.4240704], [-96.2817643, 35.4240642], [-96.2817705, 35.4242291]]]}, "properties": {"osm_id": 1372017917, "building": "yes", "name": "", "height": null, "height_m": null, "levels": null, "tract_id": "40107080900", "tract_name": "809", "tags": {"building": "yes"}}}, {"type": "Feature", "geometry": {"type": "Polygon", "coordinates": [[[-96.3181577, 35.4364752], [-96.3181222, 35.436495], [-96.3180806, 35.4365039], [-96.3180378, 35.4365008], [-96.3180019, 35.4364878], [-96.3179727, 35.4364664], [-96.3179531, 35.4364386], [-96.317945, 35.4364073], [-96.3179492, 35.4363755], [-96.3179653, 35.4363463], [-96.3179916, 35.4363226], [-96.3180257, 35.4363067], [-96.3180642, 35.4363002], [-96.3181068, 35.4363046], [-96.3181452, 35.4363205], [-96.3181747, 35.436346], [-96.3181919, 35.4363781], [-96.3181947, 35.4364131], [-96.3181828, 35.4364468], [-96.3181577, 35.4364752]]]}, "properties": {"osm_id": 1443478478, "building": "yes", "name": "", "height": null, "height_m": null, "levels": null, "tract_id": "40107080900", "tract_name": "809", "tags": {"building": "yes"}}}, {"type": "Feature", "geometry": {"type": "Polygon", "coordinates": [[[-96.31773, 35.4363814], [-96.3175891, 35.4363801], [-96.3175912, 35.4362267], [-96.3176133, 35.4362262], [-96.3177321, 35.4362273], [-96.31773, 35.4363814]]]}, "properties": {"osm_id": 1443478481, "building": "yes", "name": "", "height": null, "height_m": null, "levels": null, "tract_id": "40107080900", "tract_name": "809", "tags": {"building": "yes"}}}, {"type": "Feature", "geometry": {"type": "Polygon", "coordinates": [[[-96.3177321, 35.4362273], [-96.3177377, 35.4362273], [-96.317739, 35.4361391], [-96.3176146, 35.4361379], [-96.3176133, 35.4362262], [-96.3177321, 35.4362273]]]}, "properties": {"osm_id": 1443478482, "building": "yes", "name": "", "height": null, "height_m": null, "levels": null, "tract_id": "40107080900", "tract_name": "809", "tags": {"building": "yes"}}}, {"type": "Feature", "geometry": {"type": "Polygon", "coordinates": [[[-96.3179163, 35.436278], [-96.3179157, 35.4361638], [-96.3179776, 35.4361636], [-96.3179782, 35.4362778], [-96.3179163, 35.436278]]]}, "properties": {"osm_id": 1443478483, "building": "yes", "name": "", "height": null, "height_m": null, "levels": null, "tract_id": "40107080900", "tract_name": "809", "tags": {"building": "yes"}}}, {"type": "Feature", "geometry": {"type": "Polygon", "coordinates": [[[-96.3179281, 35.4359246], [-96.3179221, 35.4358758], [-96.317991, 35.4358702], [-96.317997, 35.435919], [-96.3179281, 35.4359246]]]}, "properties": {"osm_id": 1443478484, "building": "yes", "name": "", "height": null, "height_m": null, "levels": null, "tract_id": "40107080900", "tract_name": "809", "tags": {"building": "yes"}}}, {"type": "Feature", "geometry": {"type": "Polygon", "coordinates": [[[-96.3177444, 35.4364862], [-96.3177463, 35.4364115], [-96.3178134, 35.4364126], [-96.3178115, 35.4364874], [-96.3177444, 35.4364862]]]}, "properties": {"osm_id": 1443478485, "building": "yes", "name": "", "height": null, "height_m": null, "levels": null, "tract_id": "40107080900", "tract_name": "809", "tags": {"building": "yes"}}}, {"type": "Feature", "geometry": {"type": "Polygon", "coordinates": [[[-96.3177119, 35.4364786], [-96.3177104, 35.4364105], [-96.3176574, 35.4364112], [-96.3176589, 35.4364794], [-96.3177119, 35.4364786]]]}, "properties": {"osm_id": 1443478486, "building": "yes", "name": "", "height": null, "height_m": null, "levels": null, "tract_id": "40107080900", "tract_name": "809", "tags": {"building": "yes"}}}]}