{"type": "FeatureCollection", "features": [{"type": "Feature", "geometry": {"type": "Polygon", "coordinates": [[[-97.7363579, 35.5066672], [-97.7358493, 35.5066674], [-97.7358498, 35.5066932], [-97.7358325, 35.5066932], [-97.7358307, 35.5069632], [-97.7358221, 35.5069638], [-97.7358221, 35.5070207], [-97.7358567, 35.5070217], [-97.735857, 35.5070798], [-97.7361075, 35.5070813], [-97.7361078, 35.5071392], [-97.7364132, 35.5071368], [-97.7364148, 35.5070484], [-97.7364417, 35.507047], [-97.7364438, 35.5068785], [-97.7363536, 35.5068781], [-97.7363579, 35.5066672]]]}, "properties": {"osm_id": 185719117, "building": "church", "name": "The Good Fight Church", "height": null, "height_m": 3.0, "levels": 1, "tract_id": "40017300902", "tract_name": "3009.02", "tags": {"addr:city": "Yukon", "addr:housenumber": "500", "addr:postcode": "73099", "addr:state": "OK", "addr:street": "East Main Street", "building": "church", "building:levels": "1", "name": "The Good Fight Church"}}}, {"type": "Feature", "geometry": {"type": "Polygon", "coordinates": [[[-97.7285577, 35.4938621], [-97.7283646, 35.4938637], [-97.7283626, 35.4937076], [-97.7285557, 35.493706], [-97.7285577, 35.4938621]]]}, "properties": {"osm_id": 185915174, "building": "yes", "name": "", "height": null, "height_m": null, "levels": null, "tract_id": "40017300902", "tract_name": "3009.02", "tags": {"building": "yes", "source": "Bing"}}}, {"type": "Feature", "geometry": {"type": "Polygon", "coordinates": [[[-97.7290616, 35.4944842], [-97.7285306, 35.4940059], [-97.7286888, 35.4938814], [-97.7292253, 35.4943684], [-97.7290616, 35.4944842]]]}, "properties": {"osm_id": 185915199, "building": "yes", "name": "", "height": null, "height_m": null, "levels": null, "tract_id": "40017300902", "tract_name": "3009.02", "tags": {"building": "yes", "source": "Bing"}}}, {"type": "Feature", "geometry": {"type": "Polygon", "coordinates": [[[-97.7251685, 35.5063643], [-97.7251685, 35.5060829], [-97.7250423, 35.5060829], [-97.7250423, 35.5063643], [-97.7251685, 35.5063643]]]}, "properties": {"osm_id": 552667119, "building": "yes", "name": "YNB East", "height": null, "height_m": null, "levels": null, "tract_id": "40017300902", "tract_name": "3009.02", "tags": {"addr:city": "Yukon", "addr:housenumber": "235", "addr:postcode": "73099", "addr:state": "OK", "addr:street": "South Yukon Avenue", "amenity": "bank", "building": "yes", "name": "YNB East"}}}, {"type": "Feature", "geometry": {"type": "Polygon", "coordinates": [[[-97.7253037, 35.5072869], [-97.7253001, 35.5068848], [-97.7249415, 35.5068848], [-97.7249378, 35.5070754], [-97.725033, 35.5070754], [-97.7250293, 35.5072869], [-97.7253037, 35.5072869]]]}, "properties": {"osm_id": 552667120, "building": "yes", "name": "Good News Church", "height": null, "height_m": null, "levels": null, "tract_id": "40017300902", "tract_name": "3009.02", "tags": {"addr:city": "Yukon", "addr:housenumber": "1054", "addr:postcode": "73099", "addr:state": "OK", "addr:street": "East Main Street", "amenity": "place_of_worship", "building": "yes", "denomination": "interdenominational", "ele": "399", "gnis:feature_id": "1790211", "name": "Good News Church", "religion": "christian", "service_times": "Su 10:00; We 19:00"}}}, {"type": "Feature", "geometry": {"type": "Polygon", "coordinates": [[[-97.726074, 35.5068477], [-97.726074, 35.506746], [-97.7261328, 35.506746], [-97.7261291, 35.506426], [-97.7256956, 35.5064289], [-97.7256846, 35.506743], [-97.7257617, 35.506746], [-97.7257691, 35.5068447], [-97.726074, 35.5068477]]]}, "properties": {"osm_id": 552667421, "building": "yes", "name": "Jackie Cooper Gymnasium", "height": null, "height_m": null, "levels": null, "tract_id": "40017300902", "tract_name": "3009.02", "tags": {"addr:city": "Yukon", "addr:housenumber": "1024", "addr:postcode": "73099", "addr:state": "OK", "addr:street": "East Main Street", "building": "yes", "leisure": "fitness_centre", "name": "Jackie Cooper Gymnasium"}}}, {"type": "Feature", "geometry": {"type": "Polygon", "coordinates": [[[-97.7268641, 35.5071884], [-97.7271213, 35.5071884], [-97.7271213, 35.5071136], [-97.727338, 35.5071136], [-97.7273197, 35.5068235], [-97.7269669, 35.5068265], [-97.7269581, 35.5068577], [-97.7265655, 35.5068525], [-97.7265596, 35.5071806], [-97.7266419, 35.5071797], [-97.7266447, 35.5071308], [-97.7268562, 35.5071281], [-97.7268641, 35.5071884]]]}, "properties": {"osm_id": 552668193, "building": "yes", "name": "Yukon Fire Station", "height": null, "height_m": null, "levels": null, "tract_id": "40017300902", "tract_name": "3009.02", "tags": {"amenity": "fire_station", "building": "yes", "name": "Yukon Fire Station"}}}, {"type": "Feature", "geometry": {"type": "Polygon", "coordinates": [[[-97.7282973, 35.5071595], [-97.7294399, 35.507163], [-97.7294426, 35.5067094], [-97.7292661, 35.5066942], [-97.7290776, 35.506706], [-97.7290128, 35.5067081], [-97.7290105, 35.5066659], [-97.7288851, 35.5066724], [-97.7288856, 35.5067662], [-97.7287478, 35.5067664], [-97.7287477, 35.5068368], [-97.7283897, 35.5068335], [-97.728387, 35.5069662], [-97.7283385, 35.5069636], [-97.7283397, 35.5070343], [-97.7282979, 35.5070358], [-97.7282973, 35.5071595]]]}, "properties": {"osm_id": 552668194, "building": "yes", "name": "Discovery Church", "height": null, "height_m": null, "levels": null, "tract_id": "40017300902", "tract_name": "3009.02", "tags": {"addr:city": "Yukon", "addr:housenumber": "900", "addr:postcode": "73099", "addr:state": "OK", "addr:street": "East Main Street", "amenity": "place_of_worship", "building": "yes", "denomination": "christian", "name": "Discovery Church", "religion": "christian"}}}, {"type": "Feature", "geometry": {"type": "Polygon", "coordinates": [[[-97.7361772, 35.5047793], [-97.7363877, 35.5047789], [-97.736387, 35.5045271], [-97.7363331, 35.5045271], [-97.7363339, 35.5044875], [-97.7363345, 35.504456], [-97.736248, 35.5044551], [-97.7362472, 35.5044862], [-97.7362461, 35.5045273], [-97.7362196, 35.5045274], [-97.73622, 35.5046738], [-97.7361915, 35.5046738], [-97.7361917, 35.5047122], [-97.736177, 35.5047122], [-97.7361772, 35.5047793]]]}, "properties": {"osm_id": 927960314, "building": "yes", "name": "", "height": null, "height_m": null, "levels": null, "tract_id": "40017300902", "tract_name": "3009.02", "tags": {"building": "yes"}}}, {"type": "Feature", "geometry": {"type": "Polygon", "coordinates": [[[-97.725605, 35.4909539], [-97.7253558, 35.4908646], [-97.725224, 35.4907301], [-97.7251917, 35.4907186], [-97.7250945, 35.4907817], [-97.7250636, 35.4908389], [-97.7252326, 35.4910114], [-97.7254972, 35.4911062], [-97.7255098, 35.4910829], [-97.7255492, 35.4910574], [-97.725605, 35.4909539]]]}, "properties": {"osm_id": 1250974934, "building": "yes", "name": "", "height": null, "height_m": null, "levels": null, "tract_id": "40017300902", "tract_name": "3009.02", "tags": {"building": "yes", "source": "microsoft/BuildingFootprints"}}}, {"type": "Feature", "geometry": {"type": "Polygon", "coordinates": [[[-97.7255139, 35.491725], [-97.7256844, 35.4916978], [-97.725649, 35.4915506], [-97.7254785, 35.4915777], [-97.7255139, 35.491725]]]}, "properties": {"osm_id": 1250974935, "building": "yes", "name": "", "height": null, "height_m": null, "levels": null, "tract_id": "40017300902", "tract_name": "3009.02", "tags": {"building": "yes", "source": "microsoft/BuildingFootprints"}}}, {"type": "Feature", "geometry": {"type": "Polygon", "coordinates": [[[-97.7262817, 35.4917372], [-97.7261331, 35.4916083], [-97.726059, 35.4916649], [-97.7260764, 35.49168], [-97.7259337, 35.491789], [-97.7260394, 35.4918808], [-97.7261564, 35.4917914], [-97.7261818, 35.4918135], [-97.7262817, 35.4917372]]]}, "properties": {"osm_id": 1250974936, "building": "yes", "name": "", "height": null, "height_m": null, "levels": null, "tract_id": "40017300902", "tract_name": "3009.02", "tags": {"building": "yes", "source": "microsoft/BuildingFootprints"}}}, {"type": "Feature", "geometry": {"type": "Polygon", "coordinates": [[[-97.7248895, 35.4916693], [-97.7249967, 35.4916666], [-97.7249979, 35.4916993], [-97.725089, 35.491697], [-97.7250828, 35.4915334], [-97.7249743, 35.4915361], [-97.724973, 35.4915012], [-97.7249153, 35.4915027], [-97.7249166, 35.4915354], [-97.7248844, 35.4915362], [-97.7248895, 35.4916693]]]}, "properties": {"osm_id": 1250974937, "building": "yes", "name": "", "height": null, "height_m": null, "levels": null, "tract_id": "40017300902", "tract_name": "3009.02", "tags": {"building": "yes", "source": "microsoft/BuildingFootprints"}}}, {"type": "Feature", "geometry": {"type": "Polygon", "coordinates": [[[-97.7248811, 35.4924406], [-97.7250137, 35.4924429], [-97.7250164, 35.4923434], [-97.72507, 35.4923444], [-97.725072, 35.4922702], [-97.7248857, 35.4922668], [-97.7248811, 35.4924406]]]}, "properties": {"osm_id": 1250974938, "building": "yes", "name": "", "height": null, "height_m": null, "levels": null, "tract_id": "40017300902", "tract_name": "3009.02", "tags": {"building": "yes", "source": "microsoft/BuildingFootprints"}}}, {"type": "Feature", "geometry": {"type": "Polygon", "coordinates": [[[-97.7250752, 35.4926336], [-97.7250735, 35.4925616], [-97.725048, 35.492562], [-97.7250456, 35.4924637], [-97.7248942, 35.4924661], [-97.7248983, 35.4926364], [-97.7250752, 35.4926336]]]}, "properties": {"osm_id": 1250974939, "building": "yes", "name": "", "height": null, "height_m": null, "levels": null, "tract_id": "40017300902", "tract_name": "3009.02", "tags": {"building": "yes", "source": "microsoft/BuildingFootprints"}}}, {"type": "Feature", "geometry": {"type": "Polygon", "coordinates": [[[-97.7255236, 35.492307], [-97.7253358, 35.4923059], [-97.7253343, 35.4924762], [-97.7255221, 35.4924773], [-97.7255236, 35.492307]]]}, "properties": {"osm_id": 1250974940, "building": "yes", "name": "", "height": null, "height_m": null, "levels": null, "tract_id": "40017300902", "tract_name": "3009.02", "tags": {"building": "yes", "source": "microsoft/BuildingFootprints"}}}, {"type": "Feature", "geometry": {"type": "Polygon", "coordinates": [[[-97.7253278, 35.4922845], [-97.7255236, 35.4922863], [-97.7255259, 35.492116], [-97.7253301, 35.4921142], [-97.7253278, 35.4922845]]]}, "properties": {"osm_id": 1250974941, "building": "yes", "name": "", "height": null, "height_m": null, "levels": null, "tract_id": "40017300902", "tract_name": "3009.02", "tags": {"building": "yes", "source": "microsoft/BuildingFootprints"}}}, {"type": "Feature", "geometry": {"type": "Polygon", "coordinates": [[[-97.7254229, 35.4924995], [-97.7253183, 35.4924973], [-97.7253144, 35.4926195], [-97.725419, 35.4926217], [-97.7254229, 35.4924995]]]}, "properties": {"osm_id": 1250974942, "building": "yes", "name": "", "height": null, "height_m": null, "levels": null, "tract_id": "40017300902", "tract_name": "3009.02", "tags": {"building": "yes", "source": "microsoft/BuildingFootprints"}}}, {"type": "Feature", "geometry": {"type": "Polygon", "coordinates": [[[-97.7254948, 35.4927931], [-97.7254971, 35.4928629], [-97.7256525, 35.4928596], [-97.7256474, 35.492699], [-97.725441, 35.4927034], [-97.7254439, 35.4927942], [-97.7254948, 35.4927931]]]}, "properties": {"osm_id": 1250974943, "building": "yes", "name": "", "height": null, "height_m": null, "levels": null, "tract_id": "40017300902", "tract_name": "3009.02", "tags": {"building": "yes", "source": "microsoft/BuildingFootprints"}}}, {"type": "Feature", "geometry": {"type": "Polygon", "coordinates": [[[-97.7250145, 35.4926589], [-97.7248858, 35.4926575], [-97.724883, 35.4928199], [-97.725088, 35.4928223], [-97.7250893, 35.492748], [-97.725013, 35.4927471], [-97.7250145, 35.4926589]]]}, "properties": {"osm_id": 1250974944, "building": "yes", "name": "", "height": null, "height_m": null, "levels": null, "tract_id": "40017300902", "tract_name": "3009.02", "tags": {"building": "yes", "source": "microsoft/BuildingFootprints"}}}, {"type": "Feature", "geometry": {"type": "Polygon", "coordinates": [[[-97.7251848, 35.493112], [-97.7251362, 35.4930691], [-97.7251753, 35.4930397], [-97.7251238, 35.4929941], [-97.7249584, 35.4931182], [-97.7250587, 35.4932067], [-97.7251848, 35.493112]]]}, "properties": {"osm_id": 1250974945, "building": "yes", "name": "", "height": null, "height_m": null, "levels": null, "tract_id": "40017300902", "tract_name": "3009.02", "tags": {"building": "yes", "source": "microsoft/BuildingFootprints"}}}, {"type": "Feature", "geometry": {"type": "Polygon", "coordinates": [[[-97.7272022, 35.4929465], [-97.7273349, 35.4929473], [-97.7273347, 35.4929691], [-97.7275305, 35.4929703], [-97.7275316, 35.492848], [-97.727486, 35.4928478], [-97.7274866, 35.4927779], [-97.7273632, 35.4927771], [-97.7273624, 35.4928667], [-97.7272029, 35.4928657], [-97.7272022, 35.4929465]]]}, "properties": {"osm_id": 1250974946, "building": "yes", "name": "", "height": null, "height_m": null, "levels": null, "tract_id": "40017300902", "tract_name": "3009.02", "tags": {"building": "yes", "source": "microsoft/BuildingFootprints"}}}, {"type": "Feature", "geometry": {"type": "Polygon", "coordinates": [[[-97.7251977, 35.5045348], [-97.7251978, 35.5045065], [-97.725347, 35.5045067], [-97.7253469, 35.5045338], [-97.7255319, 35.5045342], [-97.7255323, 35.504411], [-97.725013, 35.50441], [-97.7250126, 35.5045345], [-97.7251977, 35.5045348]]]}, "properties": {"osm_id": 1251290782, "building": "yes", "name": "", "height": null, "height_m": null, "levels": null, "tract_id": "40017300902", "tract_name": "3009.02", "tags": {"building": "yes", "source": "microsoft/BuildingFootprints"}}}, {"type": "Feature", "geometry": {"type": "Polygon", "coordinates": [[[-97.7265092, 35.5047211], [-97.7267838, 35.5047202], [-97.726784, 35.5047595], [-97.7268447, 35.5047593], [-97.7268438, 35.5045803], [-97.7265085, 35.5045813], [-97.7265092, 35.5047211]]]}, "properties": {"osm_id": 1251290783, "building": "yes", "name": "", "height": null, "height_m": null, "levels": null, "tract_id": "40017300902", "tract_name": "3009.02", "tags": {"building": "yes", "source": "microsoft/BuildingFootprints"}}}, {"type": "Feature", "geometry": {"type": "Polygon", "coordinates": [[[-97.7267807, 35.5052019], [-97.7266064, 35.5052005], [-97.7266032, 35.50548], [-97.7268007, 35.5054815], [-97.7268016, 35.5054017], [-97.7267784, 35.5054015], [-97.7267807, 35.5052019]]]}, "properties": {"osm_id": 1251290784, "building": "yes", "name": "", "height": null, "height_m": null, "levels": null, "tract_id": "40017300902", "tract_name": "3009.02", "tags": {"building": "yes", "source": "microsoft/BuildingFootprints"}}}, {"type": "Feature", "geometry": {"type": "Polygon", "coordinates": [[[-97.7277646, 35.5051871], [-97.7275822, 35.505188], [-97.7275833, 35.5053408], [-97.7275055, 35.5053412], [-97.7275066, 35.5054831], [-97.727697, 35.5054822], [-97.7276973, 35.505528], [-97.7277671, 35.5055277], [-97.7277646, 35.5051871]]]}, "properties": {"osm_id": 1251290785, "building": "yes", "name": "", "height": null, "height_m": null, "levels": null, "tract_id": "40017300902", "tract_name": "3009.02", "tags": {"building": "yes", "source": "microsoft/BuildingFootprints"}}}, {"type": "Feature", "geometry": {"type": "Polygon", "coordinates": [[[-97.7273663, 35.5047061], [-97.7275728, 35.5047042], [-97.7275708, 35.5045644], [-97.7273643, 35.5045664], [-97.7273663, 35.5047061]]]}, "properties": {"osm_id": 1251290786, "building": "yes", "name": "", "height": null, "height_m": null, "levels": null, "tract_id": "40017300902", "tract_name": "3009.02", "tags": {"building": "yes", "source": "microsoft/BuildingFootprints"}}}, {"type": "Feature", "geometry": {"type": "Polygon", "coordinates": [[[-97.7277818, 35.5047622], [-97.7279266, 35.5047631], [-97.7279293, 35.5044814], [-97.7277844, 35.5044805], [-97.7277818, 35.5047622]]]}, "properties": {"osm_id": 1251290787, "building": "yes", "name": "", "height": null, "height_m": null, "levels": null, "tract_id": "40017300902", "tract_name": "3009.02", "tags": {"building": "yes", "source": "microsoft/BuildingFootprints"}}}, {"type": "Feature", "geometry": {"type": "Polygon", "coordinates": [[[-97.728023, 35.5047596], [-97.7281571, 35.5047585], [-97.7281548, 35.504562], [-97.7280582, 35.5045628], [-97.7280586, 35.5045934], [-97.728021, 35.5045937], [-97.728023, 35.5047596]]]}, "properties": {"osm_id": 1251290788, "building": "yes", "name": "", "height": null, "height_m": null, "levels": null, "tract_id": "40017300902", "tract_name": "3009.02", "tags": {"building": "yes", "source": "microsoft/BuildingFootprints"}}}, {"type": "Feature", "geometry": {"type": "Polygon", "coordinates": [[[-97.7278717, 35.5053429], [-97.7283115, 35.5053393], [-97.7283098, 35.5052006], [-97.7278699, 35.5052042], [-97.7278717, 35.5053429]]]}, "properties": {"osm_id": 1251290789, "building": "yes", "name": "", "height": null, "height_m": null, "levels": null, "tract_id": "40017300902", "tract_name": "3009.02", "tags": {"building": "yes", "source": "microsoft/BuildingFootprints"}}}, {"type": "Feature", "geometry": {"type": "Polygon", "coordinates": [[[-97.7286436, 35.5053678], [-97.7286407, 35.5051997], [-97.7283538, 35.505203], [-97.7283567, 35.5053711], [-97.7286436, 35.5053678]]]}, "properties": {"osm_id": 1251290790, "building": "yes", "name": "", "height": null, "height_m": null, "levels": null, "tract_id": "40017300902", "tract_name": "3009.02", "tags": {"building": "yes", "source": "microsoft/BuildingFootprints"}}}, {"type": "Feature", "geometry": {"type": "Polygon", "coordinates": [[[-97.72844, 35.5045386], [-97.7284433, 35.5047591], [-97.728623, 35.5047574], [-97.7286197, 35.5045369], [-97.72844, 35.5045386]]]}, "properties": {"osm_id": 1251290791, "building": "yes", "name": "", "height": null, "height_m": null, "levels": null, "tract_id": "40017300902", "tract_name": "3009.02", "tags": {"building": "yes", "source": "microsoft/BuildingFootprints"}}}, {"type": "Feature", "geometry": {"type": "Polygon", "coordinates": [[[-97.7287601, 35.5047612], [-97.7289441, 35.5047599], [-97.7289412, 35.5044837], [-97.7287572, 35.504485], [-97.7287601, 35.5047612]]]}, "properties": {"osm_id": 1251290792, "building": "yes", "name": "", "height": null, "height_m": null, "levels": null, "tract_id": "40017300902", "tract_name": "3009.02", "tags": {"building": "yes", "source": "microsoft/BuildingFootprints"}}}, {"type": "Feature", "geometry": {"type": "Polygon", "coordinates": [[[-97.7291007, 35.5045921], [-97.7291034, 35.5047602], [-97.729275, 35.5047584], [-97.7292724, 35.5045903], [-97.7291007, 35.5045921]]]}, "properties": {"osm_id": 1251290793, "building": "yes", "name": "", "height": null, "height_m": null, "levels": null, "tract_id": "40017300902", "tract_name": "3009.02", "tags": {"building": "yes", "source": "microsoft/BuildingFootprints"}}}, {"type": "Feature", "geometry": {"type": "Polygon", "coordinates": [[[-97.729322, 35.5047609], [-97.7294963, 35.5047585], [-97.7294906, 35.5044823], [-97.7293163, 35.5044847], [-97.729322, 35.5047609]]]}, "properties": {"osm_id": 1251290794, "building": "yes", "name": "", "height": null, "height_m": null, "levels": null, "tract_id": "40017300902", "tract_name": "3009.02", "tags": {"building": "yes", "source": "microsoft/BuildingFootprints"}}}, {"type": "Feature", "geometry": {"type": "Polygon", "coordinates": [[[-97.7296553, 35.5047599], [-97.7298296, 35.5047593], [-97.7298282, 35.5044798], [-97.7296539, 35.5044804], [-97.7296553, 35.5047599]]]}, "properties": {"osm_id": 1251290795, "building": "yes", "name": "", "height": null, "height_m": null, "levels": null, "tract_id": "40017300902", "tract_name": "3009.02", "tags": {"building": "yes", "source": "microsoft/BuildingFootprints"}}}, {"type": "Feature", "geometry": {"type": "Polygon", "coordinates": [[[-97.7305104, 35.5044681], [-97.7305072, 35.5047683], [-97.7308575, 35.5047707], [-97.7308607, 35.5044706], [-97.7305104, 35.5044681]]]}, "properties": {"osm_id": 1251290796, "building": "yes", "name": "", "height": null, "height_m": null, "levels": null, "tract_id": "40017300902", "tract_name": "3009.02", "tags": {"building": "yes", "source": "microsoft/BuildingFootprints"}}}, {"type": "Feature", "geometry": {"type": "Polygon", "coordinates": [[[-97.7305069, 35.5055309], [-97.7310352, 35.5055365], [-97.731038, 35.5053618], [-97.7305097, 35.5053562], [-97.7305069, 35.5055309]]]}, "properties": {"osm_id": 1251290797, "building": "yes", "name": "", "height": null, "height_m": null, "levels": null, "tract_id": "40017300902", "tract_name": "3009.02", "tags": {"building": "yes", "source": "microsoft/BuildingFootprints"}}}, {"type": "Feature", "geometry": {"type": "Polygon", "coordinates": [[[-97.7300716, 35.5052007], [-97.7300695, 35.5054857], [-97.730386, 35.5054872], [-97.7303881, 35.5052022], [-97.7300716, 35.5052007]]]}, "properties": {"osm_id": 1251290798, "building": "yes", "name": "", "height": null, "height_m": null, "levels": null, "tract_id": "40017300902", "tract_name": "3009.02", "tags": {"building": "yes", "source": "microsoft/BuildingFootprints"}}}, {"type": "Feature", "geometry": {"type": "Polygon", "coordinates": [[[-97.7295156, 35.5051991], [-97.7295156, 35.5054884], [-97.7298312, 35.5054884], [-97.7298311, 35.5051991], [-97.7295156, 35.5051991]]]}, "properties": {"osm_id": 1251290799, "building": "yes", "name": "", "height": null, "height_m": null, "levels": null, "tract_id": "40017300902", "tract_name": "3009.02", "tags": {"building": "yes", "source": "microsoft/BuildingFootprints"}}}, {"type": "Feature", "geometry": {"type": "Polygon", "coordinates": [[[-97.7300273, 35.5058783], [-97.7306925, 35.5058789], [-97.7306927, 35.5056824], [-97.7302716, 35.505682], [-97.7302717, 35.5056558], [-97.730108, 35.5056557], [-97.730108, 35.5056819], [-97.7300275, 35.5056818], [-97.7300275, 35.505733], [-97.7299175, 35.5057329], [-97.7299174, 35.5057897], [-97.7300274, 35.5057898], [-97.7300273, 35.5058783]]]}, "properties": {"osm_id": 1251290800, "building": "yes", "name": "", "height": null, "height_m": null, "levels": null, "tract_id": "40017300902", "tract_name": "3009.02", "tags": {"building": "yes", "source": "microsoft/BuildingFootprints"}}}, {"type": "Feature", "geometry": {"type": "Polygon", "coordinates": [[[-97.7320012, 35.505673], [-97.732197, 35.505673], [-97.732197, 35.5052058], [-97.7320012, 35.5052058], [-97.7320012, 35.505673]]]}, "properties": {"osm_id": 1251290801, "building": "yes", "name": "", "height": null, "height_m": null, "levels": null, "tract_id": "40017300902", "tract_name": "3009.02", "tags": {"building": "yes", "source": "microsoft/BuildingFootprints"}}}, {"type": "Feature", "geometry": {"type": "Polygon", "coordinates": [[[-97.7292771, 35.5059503], [-97.7292738, 35.5057538], [-97.7288018, 35.5057591], [-97.7288051, 35.5059556], [-97.7292771, 35.5059503]]]}, "properties": {"osm_id": 1251290802, "building": "yes", "name": "", "height": null, "height_m": null, "levels": null, "tract_id": "40017300902", "tract_name": "3009.02", "tags": {"building": "yes", "source": "microsoft/BuildingFootprints"}}}, {"type": "Feature", "geometry": {"type": "Polygon", "coordinates": [[[-97.7328061, 35.5068104], [-97.7328075, 35.5072078], [-97.7331106, 35.5072071], [-97.7331092, 35.5068097], [-97.7328061, 35.5068104]]]}, "properties": {"osm_id": 1251290812, "building": "yes", "name": "", "height": null, "height_m": null, "levels": null, "tract_id": "40017300902", "tract_name": "3009.02", "tags": {"building": "yes", "source": "microsoft/BuildingFootprints"}}}, {"type": "Feature", "geometry": {"type": "Polygon", "coordinates": [[[-97.7331116, 35.5068122], [-97.7331116, 35.5068567], [-97.7331454, 35.5068567], [-97.7331452, 35.5070131], [-97.7335299, 35.5070133], [-97.7335301, 35.5068124], [-97.7331116, 35.5068122]]]}, "properties": {"osm_id": 1251290813, "building": "yes", "name": "", "height": null, "height_m": null, "levels": null, "tract_id": "40017300902", "tract_name": "3009.02", "tags": {"building": "yes", "source": "microsoft/BuildingFootprints"}}}, {"type": "Feature", "geometry": {"type": "Polygon", "coordinates": [[[-97.7328116, 35.5059052], [-97.7333256, 35.5059069], [-97.7333273, 35.5055606], [-97.7333041, 35.5055605], [-97.7333044, 35.5055015], [-97.7328135, 35.5055], [-97.7328116, 35.5059052]]]}, "properties": {"osm_id": 1251290815, "building": "yes", "name": "", "height": null, "height_m": null, "levels": null, "tract_id": "40017300902", "tract_name": "3009.02", "tags": {"building": "yes", "source": "microsoft/BuildingFootprints"}}}, {"type": "Feature", "geometry": {"type": "Polygon", "coordinates": [[[-97.733431, 35.5050928], [-97.7334308, 35.5050207], [-97.7333557, 35.5050208], [-97.733355, 35.5045404], [-97.7331806, 35.5045406], [-97.7331815, 35.505093], [-97.733431, 35.5050928]]]}, "properties": {"osm_id": 1251290816, "building": "yes", "name": "", "height": null, "height_m": null, "levels": null, "tract_id": "40017300902", "tract_name": "3009.02", "tags": {"building": "yes", "source": "microsoft/BuildingFootprints"}}}, {"type": "Feature", "geometry": {"type": "Polygon", "coordinates": [[[-97.7356181, 35.5038395], [-97.7353258, 35.5038393], [-97.7353252, 35.5044027], [-97.7356176, 35.5044028], [-97.7356181, 35.5038395]]]}, "properties": {"osm_id": 1251290817, "building": "yes", "name": "", "height": null, "height_m": null, "levels": null, "tract_id": "40017300902", "tract_name": "3009.02", "tags": {"building": "yes", "source": "microsoft/BuildingFootprints"}}}, {"type": "Feature", "geometry": {"type": "Polygon", "coordinates": [[[-97.7358833, 35.5052981], [-97.7363007, 35.5053023], [-97.7363029, 35.5051582], [-97.7358855, 35.505154], [-97.7358833, 35.5052981]]]}, "properties": {"osm_id": 1251290821, "building": "yes", "name": "", "height": null, "height_m": null, "levels": null, "tract_id": "40017300902", "tract_name": "3009.02", "tags": {"building": "yes", "source": "microsoft/BuildingFootprints"}}}, {"type": "Feature", "geometry": {"type": "Polygon", "coordinates": [[[-97.7360722, 35.5049577], [-97.736275, 35.5049553], [-97.7362728, 35.5048343], [-97.73607, 35.5048368], [-97.7360722, 35.5049577]]]}, "properties": {"osm_id": 1251290822, "building": "yes", "name": "", "height": null, "height_m": null, "levels": null, "tract_id": "40017300902", "tract_name": "3009.02", "tags": {"building": "yes", "source": "microsoft/BuildingFootprints"}}}, {"type": "Feature", "geometry": {"type": "Polygon", "coordinates": [[[-97.7368587, 35.5051796], [-97.7368587, 35.5050769], [-97.7367273, 35.5050769], [-97.7367273, 35.5050245], [-97.7366039, 35.5050245], [-97.7366039, 35.5050791], [-97.7364966, 35.5050791], [-97.7364966, 35.5051097], [-97.7365234, 35.5051097], [-97.7365234, 35.5051796], [-97.7368587, 35.5051796]]]}, "properties": {"osm_id": 1251290823, "building": "yes", "name": "", "height": null, "height_m": null, "levels": null, "tract_id": "40017300902", "tract_name": "3009.02", "tags": {"building": "yes", "source": "microsoft/BuildingFootprints"}}}, {"type": "Feature", "geometry": {"type": "Polygon", "coordinates": [[[-97.7364557, 35.5054398], [-97.7368875, 35.5054383], [-97.7368869, 35.505317], [-97.7364551, 35.5053184], [-97.7364557, 35.5054398]]]}, "properties": {"osm_id": 1251290824, "building": "yes", "name": "", "height": null, "height_m": null, "levels": null, "tract_id": "40017300902", "tract_name": "3009.02", "tags": {"building": "yes", "source": "microsoft/BuildingFootprints"}}}, {"type": "Feature", "geometry": {"type": "Polygon", "coordinates": [[[-97.7344872, 35.5067286], [-97.7344865, 35.5070073], [-97.7346598, 35.5070075], [-97.7346594, 35.5071298], [-97.7347667, 35.50713], [-97.734767, 35.5070121], [-97.7349333, 35.5070123], [-97.734934, 35.5067293], [-97.7344872, 35.5067286]]]}, "properties": {"osm_id": 1251293710, "building": "yes", "name": "", "height": null, "height_m": null, "levels": null, "tract_id": "40017300902", "tract_name": "3009.02", "tags": {"building": "yes", "source": "microsoft/BuildingFootprints"}}}, {"type": "Feature", "geometry": {"type": "Polygon", "coordinates": [[[-97.7365082, 35.5071494], [-97.7366734, 35.5071481], [-97.7366733, 35.507146], [-97.7367752, 35.5071452], [-97.7367726, 35.5069116], [-97.7366707, 35.5069124], [-97.73667, 35.5068556], [-97.7365842, 35.5068562], [-97.7365848, 35.506913], [-97.7365055, 35.5069136], [-97.7365082, 35.5071494]]]}, "properties": {"osm_id": 1251293711, "building": "yes", "name": "", "height": null, "height_m": null, "levels": null, "tract_id": "40017300902", "tract_name": "3009.02", "tags": {"building": "yes", "source": "microsoft/BuildingFootprints"}}}, {"type": "Feature", "geometry": {"type": "Polygon", "coordinates": [[[-97.7373745, 35.5071993], [-97.7376078, 35.5071976], [-97.7376072, 35.5071452], [-97.7376313, 35.507145], [-97.7376282, 35.5068643], [-97.7373707, 35.5068662], [-97.7373745, 35.5071993]]]}, "properties": {"osm_id": 1251293712, "building": "yes", "name": "", "height": null, "height_m": null, "levels": null, "tract_id": "40017300902", "tract_name": "3009.02", "tags": {"building": "yes", "source": "microsoft/BuildingFootprints"}}}, {"type": "Feature", "geometry": {"type": "Polygon", "coordinates": [[[-97.7372808, 35.5067472], [-97.7372767, 35.5066075], [-97.7372059, 35.5066089], [-97.7372043, 35.5065543], [-97.7370488, 35.5065574], [-97.7370545, 35.5067516], [-97.7372808, 35.5067472]]]}, "properties": {"osm_id": 1251293713, "building": "yes", "name": "", "height": null, "height_m": null, "levels": null, "tract_id": "40017300902", "tract_name": "3009.02", "tags": {"building": "yes", "source": "microsoft/BuildingFootprints"}}}, {"type": "Feature", "geometry": {"type": "Polygon", "coordinates": [[[-97.7370029, 35.5058357], [-97.7371405, 35.5060925], [-97.7372225, 35.5060634], [-97.7371546, 35.5059369], [-97.7371974, 35.5059217], [-97.7371713, 35.5058729], [-97.7371218, 35.5058905], [-97.7370535, 35.5057632], [-97.7369408, 35.5058032], [-97.7369654, 35.505849], [-97.7370029, 35.5058357]]]}, "properties": {"osm_id": 1251293714, "building": "yes", "name": "", "height": null, "height_m": null, "levels": null, "tract_id": "40017300902", "tract_name": "3009.02", "tags": {"building": "yes", "source": "microsoft/BuildingFootprints"}}}, {"type": "Feature", "geometry": {"type": "Polygon", "coordinates": [[[-97.7366878, 35.5055778], [-97.7366862, 35.5057197], [-97.7370251, 35.5057222], [-97.7370267, 35.5055803], [-97.7366878, 35.5055778]]]}, "properties": {"osm_id": 1251293715, "building": "yes", "name": "", "height": null, "height_m": null, "levels": null, "tract_id": "40017300902", "tract_name": "3009.02", "tags": {"building": "yes", "source": "microsoft/BuildingFootprints"}}}, {"type": "Feature", "geometry": {"type": "Polygon", "coordinates": [[[-97.736812, 35.5063852], [-97.7365411, 35.5063834], [-97.73654, 35.5064969], [-97.7368108, 35.5064987], [-97.736812, 35.5063852]]]}, "properties": {"osm_id": 1251293716, "building": "yes", "name": "", "height": null, "height_m": null, "levels": null, "tract_id": "40017300902", "tract_name": "3009.02", "tags": {"building": "yes", "source": "microsoft/BuildingFootprints"}}}, {"type": "Feature", "geometry": {"type": "Polygon", "coordinates": [[[-97.7370133, 35.5071885], [-97.7371689, 35.5071895], [-97.7371693, 35.5071459], [-97.7371655, 35.5071458], [-97.7371667, 35.5070192], [-97.7370149, 35.5070182], [-97.7370133, 35.5071885]]]}, "properties": {"osm_id": 1251293717, "building": "yes", "name": "", "height": null, "height_m": null, "levels": null, "tract_id": "40017300902", "tract_name": "3009.02", "tags": {"building": "yes", "source": "microsoft/BuildingFootprints"}}}, {"type": "Feature", "geometry": {"type": "Polygon", "coordinates": [[[-97.7358484, 35.5039036], [-97.7358476, 35.5039879], [-97.7357494, 35.5039872], [-97.7357484, 35.5040907], [-97.7358332, 35.5040913], [-97.7358336, 35.5040424], [-97.7360965, 35.5040441], [-97.7360979, 35.5039052], [-97.7358484, 35.5039036]]]}, "properties": {"osm_id": 1251293732, "building": "yes", "name": "", "height": null, "height_m": null, "levels": null, "tract_id": "40017300902", "tract_name": "3009.02", "tags": {"building": "yes", "source": "microsoft/BuildingFootprints"}}}, {"type": "Feature", "geometry": {"type": "Polygon", "coordinates": [[[-97.734604, 35.5039527], [-97.7348453, 35.5039562], [-97.7348484, 35.5038151], [-97.7346071, 35.5038116], [-97.734604, 35.5039527]]]}, "properties": {"osm_id": 1251293733, "building": "yes", "name": "", "height": null, "height_m": null, "levels": null, "tract_id": "40017300902", "tract_name": "3009.02", "tags": {"building": "yes", "source": "microsoft/BuildingFootprints"}}}, {"type": "Feature", "geometry": {"type": "Polygon", "coordinates": [[[-97.7348579, 35.5042571], [-97.7346005, 35.5042545], [-97.7345982, 35.5044038], [-97.7348573, 35.5044063], [-97.7348578, 35.5043728], [-97.7349356, 35.5043735], [-97.7349367, 35.5042979], [-97.7348573, 35.5042972], [-97.7348579, 35.5042571]]]}, "properties": {"osm_id": 1251293734, "building": "yes", "name": "", "height": null, "height_m": null, "levels": null, "tract_id": "40017300902", "tract_name": "3009.02", "tags": {"building": "yes", "source": "microsoft/BuildingFootprints"}}}, {"type": "Feature", "geometry": {"type": "Polygon", "coordinates": [[[-97.7341903, 35.5038687], [-97.7341964, 35.5044727], [-97.734302, 35.504472], [-97.7342959, 35.503868], [-97.7341903, 35.5038687]]]}, "properties": {"osm_id": 1251293735, "building": "yes", "name": "", "height": null, "height_m": null, "levels": null, "tract_id": "40017300902", "tract_name": "3009.02", "tags": {"building": "yes", "source": "microsoft/BuildingFootprints"}}}, {"type": "Feature", "geometry": {"type": "Polygon", "coordinates": [[[-97.7341116, 35.5038678], [-97.7340392, 35.5038684], [-97.7340465, 35.5044732], [-97.7341189, 35.5044726], [-97.7341116, 35.5038678]]]}, "properties": {"osm_id": 1251293736, "building": "yes", "name": "", "height": null, "height_m": null, "levels": null, "tract_id": "40017300902", "tract_name": "3009.02", "tags": {"building": "yes", "source": "microsoft/BuildingFootprints"}}}, {"type": "Feature", "geometry": {"type": "Polygon", "coordinates": [[[-97.7339642, 35.5044725], [-97.7339579, 35.5038669], [-97.7338871, 35.5038674], [-97.7338935, 35.504473], [-97.7339642, 35.5044725]]]}, "properties": {"osm_id": 1251293737, "building": "yes", "name": "", "height": null, "height_m": null, "levels": null, "tract_id": "40017300902", "tract_name": "3009.02", "tags": {"building": "yes", "source": "microsoft/BuildingFootprints"}}}, {"type": "Feature", "geometry": {"type": "Polygon", "coordinates": [[[-97.7337024, 35.504472], [-97.733806, 35.5044726], [-97.7338111, 35.5038678], [-97.7337076, 35.5038672], [-97.7337024, 35.504472]]]}, "properties": {"osm_id": 1251293738, "building": "yes", "name": "", "height": null, "height_m": null, "levels": null, "tract_id": "40017300902", "tract_name": "3009.02", "tags": {"building": "yes", "source": "microsoft/BuildingFootprints"}}}, {"type": "Feature", "geometry": {"type": "Polygon", "coordinates": [[[-97.734305, 35.5022919], [-97.7340064, 35.5022325], [-97.7339727, 35.5023445], [-97.7342714, 35.5024039], [-97.734305, 35.5022919]]]}, "properties": {"osm_id": 1251293739, "building": "yes", "name": "", "height": null, "height_m": null, "levels": null, "tract_id": "40017300902", "tract_name": "3009.02", "tags": {"building": "yes", "source": "microsoft/BuildingFootprints"}}}, {"type": "Feature", "geometry": {"type": "Polygon", "coordinates": [[[-97.7339777, 35.5025083], [-97.7340289, 35.502644], [-97.7341564, 35.5026121], [-97.7341052, 35.5024764], [-97.7339777, 35.5025083]]]}, "properties": {"osm_id": 1251293740, "building": "yes", "name": "", "height": null, "height_m": null, "levels": null, "tract_id": "40017300902", "tract_name": "3009.02", "tags": {"building": "yes", "source": "microsoft/BuildingFootprints"}}}, {"type": "Feature", "geometry": {"type": "Polygon", "coordinates": [[[-97.7280834, 35.4936783], [-97.7280811, 35.4938333], [-97.7281938, 35.4938344], [-97.728196, 35.4936794], [-97.7280834, 35.4936783]]]}, "properties": {"osm_id": 1251293742, "building": "yes", "name": "", "height": null, "height_m": null, "levels": null, "tract_id": "40017300902", "tract_name": "3009.02", "tags": {"building": "yes", "source": "microsoft/BuildingFootprints"}}}]}