{"type": "FeatureCollection", "features": [{"type": "Feature", "geometry": {"type": "Polygon", "coordinates": [[[-94.4339139, 35.3613492], [-94.434107, 35.3612682], [-94.4339501, 35.3609882], [-94.4337449, 35.3610648], [-94.4338308, 35.3612179], [-94.4336806, 35.3612682], [-94.4337745, 35.3613885], [-94.4339139, 35.3613492]]]}, "properties": {"osm_id": 1077615305, "building": "yes", "name": "Assembly of God Church", "height": null, "height_m": null, "levels": null, "tract_id": "40079040198", "tract_name": "401.98", "tags": {"addr:city": "Arkoma", "addr:housenumber": "205", "addr:postcode": "74901", "addr:state": "OK", "addr:street": "Sumner Avenue", "amenity": "place_of_worship", "building": "yes", "name": "Assembly of God Church", "religion": "christian"}}}, {"type": "Feature", "geometry": {"type": "Polygon", "coordinates": [[[-94.4324272, 35.3611552], [-94.4324391, 35.3609663], [-94.4325289, 35.3609701], [-94.432517, 35.3611589], [-94.4324272, 35.3611552]]]}, "properties": {"osm_id": 1237656752, "building": "retail", "name": "", "height": null, "height_m": null, "levels": null, "tract_id": "40079040198", "tract_name": "401.98", "tags": {"building": "retail"}}}, {"type": "Feature", "geometry": {"type": "Polygon", "coordinates": [[[-94.432808, 35.361142], [-94.4328227, 35.3609494], [-94.4327146, 35.3609439], [-94.4326998, 35.3611365], [-94.432808, 35.361142]]]}, "properties": {"osm_id": 1237656753, "building": "yes", "name": "", "height": null, "height_m": null, "levels": null, "tract_id": "40079040198", "tract_name": "401.98", "tags": {"building": "yes"}}}, {"type": "Feature", "geometry": {"type": "Polygon", "coordinates": [[[-94.4330405, 35.3610189], [-94.4329159, 35.3610423], [-94.4328615, 35.360849], [-94.4329861, 35.3608256], [-94.4330405, 35.3610189]]]}, "properties": {"osm_id": 1237656754, "building": "yes", "name": "", "height": null, "height_m": null, "levels": null, "tract_id": "40079040198", "tract_name": "401.98", "tags": {"building": "yes"}}}, {"type": "Feature", "geometry": {"type": "Polygon", "coordinates": [[[-94.4332395, 35.3609617], [-94.433195, 35.3607957], [-94.4331528, 35.3608033], [-94.43315, 35.3607926], [-94.4330609, 35.3608084], [-94.4331083, 35.3609851], [-94.4332395, 35.3609617]]]}, "properties": {"osm_id": 1237656755, "building": "yes", "name": "", "height": null, "height_m": null, "levels": null, "tract_id": "40079040198", "tract_name": "401.98", "tags": {"building": "yes"}}}, {"type": "Feature", "geometry": {"type": "Polygon", "coordinates": [[[-94.4336827, 35.3606825], [-94.4335869, 35.3605618], [-94.433323, 35.3607012], [-94.4334188, 35.3608219], [-94.4336827, 35.3606825]]]}, "properties": {"osm_id": 1237656759, "building": "yes", "name": "", "height": null, "height_m": null, "levels": null, "tract_id": "40079040198", "tract_name": "401.98", "tags": {"building": "yes"}}}, {"type": "Feature", "geometry": {"type": "Polygon", "coordinates": [[[-94.4338724, 35.360554], [-94.4337946, 35.3605292], [-94.4338343, 35.3604465], [-94.4339121, 35.3604713], [-94.4338724, 35.360554]]]}, "properties": {"osm_id": 1237656760, "building": "yes", "name": "", "height": null, "height_m": null, "levels": null, "tract_id": "40079040198", "tract_name": "401.98", "tags": {"building": "yes"}}}, {"type": "Feature", "geometry": {"type": "Polygon", "coordinates": [[[-94.4339812, 35.3603353], [-94.4339973, 35.3602537], [-94.4337854, 35.3602238], [-94.4337693, 35.3603069], [-94.4339812, 35.3603353]]]}, "properties": {"osm_id": 1237656761, "building": "retail", "name": "", "height": null, "height_m": null, "levels": null, "tract_id": "40079040198", "tract_name": "401.98", "tags": {"building": "retail"}}}, {"type": "Feature", "geometry": {"type": "Polygon", "coordinates": [[[-94.4340221, 35.3601468], [-94.4340389, 35.3600613], [-94.433827, 35.3600337], [-94.4338102, 35.3601191], [-94.4340221, 35.3601468]]]}, "properties": {"osm_id": 1237656762, "building": "yes", "name": "", "height": null, "height_m": null, "levels": null, "tract_id": "40079040198", "tract_name": "401.98", "tags": {"building": "yes"}}}, {"type": "Feature", "geometry": {"type": "Polygon", "coordinates": [[[-94.4341466, 35.3607893], [-94.4340301, 35.3608874], [-94.4341114, 35.3609516], [-94.4342279, 35.3608536], [-94.4341466, 35.3607893]]]}, "properties": {"osm_id": 1237656768, "building": "yes", "name": "", "height": null, "height_m": null, "levels": null, "tract_id": "40079040198", "tract_name": "401.98", "tags": {"building": "yes"}}}, {"type": "Feature", "geometry": {"type": "Polygon", "coordinates": [[[-94.4341108, 35.3607923], [-94.4340603, 35.3607544], [-94.4340027, 35.3608036], [-94.4340545, 35.3608382], [-94.4341108, 35.3607923]]]}, "properties": {"osm_id": 1237656769, "building": "roof", "name": "", "height": null, "height_m": null, "levels": null, "tract_id": "40079040198", "tract_name": "401.98", "tags": {"building": "roof", "layer": "1"}}}, {"type": "Feature", "geometry": {"type": "Polygon", "coordinates": [[[-94.4343252, 35.3604749], [-94.4343751, 35.3603704], [-94.4344373, 35.3603901], [-94.4344604, 35.3603419], [-94.4345145, 35.360359], [-94.4344951, 35.3603997], [-94.4345453, 35.3604157], [-94.4344917, 35.3605278], [-94.4343252, 35.3604749]]]}, "properties": {"osm_id": 1237656770, "building": "house", "name": "", "height": null, "height_m": null, "levels": null, "tract_id": "40079040198", "tract_name": "401.98", "tags": {"building": "house"}}}, {"type": "Feature", "geometry": {"type": "Polygon", "coordinates": [[[-94.4348301, 35.3597724], [-94.4347432, 35.3597454], [-94.4346625, 35.3599177], [-94.4347138, 35.3599337], [-94.4346541, 35.3600611], [-94.4347666, 35.3600961], [-94.4348556, 35.3599062], [-94.4347786, 35.3598822], [-94.4348301, 35.3597724]]]}, "properties": {"osm_id": 1237656771, "building": "industrial", "name": "", "height": null, "height_m": null, "levels": null, "tract_id": "40079040198", "tract_name": "401.98", "tags": {"building": "industrial"}}}, {"type": "Feature", "geometry": {"type": "Polygon", "coordinates": [[[-94.4345018, 35.3592569], [-94.4345527, 35.3591522], [-94.43449, 35.3591319], [-94.434439, 35.3592366], [-94.4345018, 35.3592569]]]}, "properties": {"osm_id": 1237656773, "building": "yes", "name": "", "height": null, "height_m": null, "levels": null, "tract_id": "40079040198", "tract_name": "401.98", "tags": {"building": "yes"}}}, {"type": "Feature", "geometry": {"type": "Polygon", "coordinates": [[[-94.4343639, 35.3591859], [-94.4343913, 35.3591282], [-94.4342009, 35.3590682], [-94.4341736, 35.3591258], [-94.4343639, 35.3591859]]]}, "properties": {"osm_id": 1237656774, "building": "yes", "name": "", "height": null, "height_m": null, "levels": null, "tract_id": "40079040198", "tract_name": "401.98", "tags": {"building": "yes"}}}, {"type": "Feature", "geometry": {"type": "Polygon", "coordinates": [[[-94.4343542, 35.3590089], [-94.4342641, 35.3589587], [-94.4344381, 35.3587511], [-94.4345282, 35.3588013], [-94.4343542, 35.3590089]]]}, "properties": {"osm_id": 1237656775, "building": "yes", "name": "", "height": null, "height_m": null, "levels": null, "tract_id": "40079040198", "tract_name": "401.98", "tags": {"building": "yes"}}}, {"type": "Feature", "geometry": {"type": "Polygon", "coordinates": [[[-94.4348155, 35.3586394], [-94.4348427, 35.3585565], [-94.4345721, 35.3584974], [-94.4345448, 35.3585804], [-94.4348155, 35.3586394]]]}, "properties": {"osm_id": 1237656777, "building": "retail", "name": "", "height": null, "height_m": null, "levels": null, "tract_id": "40079040198", "tract_name": "401.98", "tags": {"building": "retail"}}}, {"type": "Feature", "geometry": {"type": "Polygon", "coordinates": [[[-94.4349948, 35.358042], [-94.4349961, 35.3578055], [-94.434851, 35.357805], [-94.4348508, 35.3578521], [-94.4348279, 35.357852], [-94.4348275, 35.3579208], [-94.4348114, 35.3579208], [-94.4348109, 35.358006], [-94.4348536, 35.3580062], [-94.4348534, 35.3580415], [-94.4349948, 35.358042]]]}, "properties": {"osm_id": 1237656781, "building": "retail", "name": "", "height": null, "height_m": null, "levels": null, "tract_id": "40079040198", "tract_name": "401.98", "tags": {"building": "retail"}}}, {"type": "Feature", "geometry": {"type": "Polygon", "coordinates": [[[-94.4353752, 35.3573688], [-94.4353735, 35.357258], [-94.4355219, 35.3572564], [-94.4355236, 35.3573673], [-94.4353752, 35.3573688]]]}, "properties": {"osm_id": 1237656782, "building": "detached", "name": "", "height": null, "height_m": null, "levels": null, "tract_id": "40079040198", "tract_name": "401.98", "tags": {"building": "detached"}}}, {"type": "Feature", "geometry": {"type": "Polygon", "coordinates": [[[-94.4356106, 35.3561327], [-94.4355188, 35.3561271], [-94.4355032, 35.3562956], [-94.435595, 35.3563013], [-94.4356106, 35.3561327]]]}, "properties": {"osm_id": 1237656783, "building": "yes", "name": "", "height": null, "height_m": null, "levels": null, "tract_id": "40079040198", "tract_name": "401.98", "tags": {"building": "yes"}}}, {"type": "Feature", "geometry": {"type": "Polygon", "coordinates": [[[-94.4347259, 35.356056], [-94.4345901, 35.356058], [-94.4345957, 35.3563088], [-94.4347315, 35.3563068], [-94.4347259, 35.356056]]]}, "properties": {"osm_id": 1237656784, "building": "industrial", "name": "", "height": null, "height_m": null, "levels": null, "tract_id": "40079040198", "tract_name": "401.98", "tags": {"building": "industrial"}}}, {"type": "Feature", "geometry": {"type": "Polygon", "coordinates": [[[-94.4355447, 35.3557495], [-94.4355424, 35.3555821], [-94.4353922, 35.3555835], [-94.4353945, 35.3557509], [-94.4355447, 35.3557495]]]}, "properties": {"osm_id": 1237656786, "building": "yes", "name": "", "height": null, "height_m": null, "levels": null, "tract_id": "40079040198", "tract_name": "401.98", "tags": {"building": "yes"}}}, {"type": "Feature", "geometry": {"type": "Polygon", "coordinates": [[[-94.4355298, 35.3555396], [-94.4355257, 35.3553354], [-94.4354002, 35.355337], [-94.4354027, 35.3554623], [-94.4353868, 35.3554625], [-94.4353884, 35.3555415], [-94.4355298, 35.3555396]]]}, "properties": {"osm_id": 1237656787, "building": "yes", "name": "", "height": null, "height_m": null, "levels": null, "tract_id": "40079040198", "tract_name": "401.98", "tags": {"building": "yes"}}}, {"type": "Feature", "geometry": {"type": "Polygon", "coordinates": [[[-94.4353317, 35.3552575], [-94.4353321, 35.3551649], [-94.435229, 35.3551646], [-94.4352287, 35.3552572], [-94.4353317, 35.3552575]]]}, "properties": {"osm_id": 1237656790, "building": "yes", "name": "", "height": null, "height_m": null, "levels": null, "tract_id": "40079040198", "tract_name": "401.98", "tags": {"building": "yes"}}}, {"type": "Feature", "geometry": {"type": "Polygon", "coordinates": [[[-94.4348766, 35.3548456], [-94.4348873, 35.3547553], [-94.4347716, 35.3547462], [-94.4347711, 35.3547507], [-94.4347376, 35.3547481], [-94.4347294, 35.3548165], [-94.4347722, 35.3548199], [-94.4347702, 35.3548372], [-94.4348766, 35.3548456]]]}, "properties": {"osm_id": 1237656791, "building": "yes", "name": "", "height": null, "height_m": null, "levels": null, "tract_id": "40079040198", "tract_name": "401.98", "tags": {"building": "yes"}}}, {"type": "Feature", "geometry": {"type": "Polygon", "coordinates": [[[-94.434892, 35.354663], [-94.4348928, 35.3546039], [-94.4346407, 35.3546017], [-94.4346399, 35.3546607], [-94.434892, 35.354663]]]}, "properties": {"osm_id": 1237656792, "building": "yes", "name": "", "height": null, "height_m": null, "levels": null, "tract_id": "40079040198", "tract_name": "401.98", "tags": {"building": "yes"}}}, {"type": "Feature", "geometry": {"type": "Polygon", "coordinates": [[[-94.4348906, 35.3545502], [-94.4348912, 35.3544602], [-94.4346789, 35.3544592], [-94.4346782, 35.3545493], [-94.4348906, 35.3545502]]]}, "properties": {"osm_id": 1237656793, "building": "yes", "name": "", "height": null, "height_m": null, "levels": null, "tract_id": "40079040198", "tract_name": "401.98", "tags": {"building": "yes"}}}, {"type": "Feature", "geometry": {"type": "Polygon", "coordinates": [[[-94.4345914, 35.3547212], [-94.4345966, 35.3544635], [-94.4345018, 35.3544622], [-94.4344967, 35.3547199], [-94.4345914, 35.3547212]]]}, "properties": {"osm_id": 1237656794, "building": "yes", "name": "", "height": null, "height_m": null, "levels": null, "tract_id": "40079040198", "tract_name": "401.98", "tags": {"building": "yes"}}}, {"type": "Feature", "geometry": {"type": "Polygon", "coordinates": [[[-94.4356351, 35.3539085], [-94.4354935, 35.3541035], [-94.4356061, 35.3541578], [-94.4356443, 35.3541052], [-94.4356151, 35.3540911], [-94.4357184, 35.3539487], [-94.4356351, 35.3539085]]]}, "properties": {"osm_id": 1237656795, "building": "yes", "name": "", "height": null, "height_m": null, "levels": null, "tract_id": "40079040198", "tract_name": "401.98", "tags": {"building": "yes"}}}, {"type": "Feature", "geometry": {"type": "Polygon", "coordinates": [[[-94.4358849, 35.3535287], [-94.4358455, 35.3535535], [-94.4358474, 35.3536833], [-94.4360355, 35.3536814], [-94.4360333, 35.3535273], [-94.4358849, 35.3535287]]]}, "properties": {"osm_id": 1237656796, "building": "yes", "name": "", "height": null, "height_m": null, "levels": null, "tract_id": "40079040198", "tract_name": "401.98", "tags": {"building": "yes"}}}, {"type": "Feature", "geometry": {"type": "Polygon", "coordinates": [[[-94.4356909, 35.3534196], [-94.4355881, 35.3535412], [-94.4354803, 35.3534805], [-94.4355832, 35.353359], [-94.4356909, 35.3534196]]]}, "properties": {"osm_id": 1237656797, "building": "yes", "name": "", "height": null, "height_m": null, "levels": null, "tract_id": "40079040198", "tract_name": "401.98", "tags": {"building": "yes"}}}, {"type": "Feature", "geometry": {"type": "Polygon", "coordinates": [[[-94.4357431, 35.3530144], [-94.4357423, 35.3528671], [-94.4356256, 35.3528675], [-94.4356264, 35.3530148], [-94.4357431, 35.3530144]]]}, "properties": {"osm_id": 1237656799, "building": "yes", "name": "", "height": null, "height_m": null, "levels": null, "tract_id": "40079040198", "tract_name": "401.98", "tags": {"building": "yes"}}}, {"type": "Feature", "geometry": {"type": "Polygon", "coordinates": [[[-94.4357439, 35.352832], [-94.4357442, 35.35263], [-94.4356177, 35.3526299], [-94.4356174, 35.3528319], [-94.4357439, 35.352832]]]}, "properties": {"osm_id": 1237656800, "building": "yes", "name": "", "height": null, "height_m": null, "levels": null, "tract_id": "40079040198", "tract_name": "401.98", "tags": {"building": "yes"}}}, {"type": "Feature", "geometry": {"type": "Polygon", "coordinates": [[[-94.4363682, 35.3524446], [-94.4363683, 35.3523573], [-94.4361931, 35.3523572], [-94.436193, 35.3524445], [-94.4363682, 35.3524446]]]}, "properties": {"osm_id": 1237656802, "building": "yes", "name": "Arkoma Public Library", "height": null, "height_m": null, "levels": null, "tract_id": "40079040198", "tract_name": "401.98", "tags": {"addr:city": "Arkoma", "addr:housenumber": "1101", "addr:postcode": "74901", "addr:state": "OK", "addr:street": "Main Street", "amenity": "library", "building": "yes", "contact:facebook": "https://www.facebook.com/arkomapubliclibrary/", "name": "Arkoma Public Library", "phone": "+1 918-875-3971", "website": "https://www.seolibraries.com/about/hours-locations/arkoma"}}}, {"type": "Feature", "geometry": {"type": "Polygon", "coordinates": [[[-94.4365407, 35.352307], [-94.4365402, 35.3522875], [-94.4365775, 35.3522869], [-94.4365732, 35.3521213], [-94.4363129, 35.3521259], [-94.4363141, 35.3521728], [-94.4363009, 35.352173], [-94.4363039, 35.3522844], [-94.4364141, 35.3522825], [-94.4364149, 35.3523093], [-94.4365407, 35.352307]]]}, "properties": {"osm_id": 1237656803, "building": "yes", "name": "", "height": null, "height_m": null, "levels": null, "tract_id": "40079040198", "tract_name": "401.98", "tags": {"addr:city": "Arkoma", "addr:housenumber": "1103", "addr:postcode": "74901", "addr:state": "OK", "addr:street": "Main Street", "amenity": "police", "building": "yes", "website": "https://www.facebook.com/arkomapolicedepartment/"}}}, {"type": "Feature", "geometry": {"type": "Polygon", "coordinates": [[[-94.4385019, 35.349753], [-94.4385076, 35.3495277], [-94.4383722, 35.3495254], [-94.4383665, 35.3497507], [-94.4385019, 35.349753]]]}, "properties": {"osm_id": 1237656805, "building": "yes", "name": "", "height": null, "height_m": null, "levels": null, "tract_id": "40079040198", "tract_name": "401.98", "tags": {"building": "yes"}}}, {"type": "Feature", "geometry": {"type": "Polygon", "coordinates": [[[-94.4412103, 35.3473358], [-94.44121, 35.347241], [-94.4411336, 35.3472412], [-94.4411339, 35.3473359], [-94.4412103, 35.3473358]]]}, "properties": {"osm_id": 1237656807, "building": "roof", "name": "", "height": null, "height_m": null, "levels": null, "tract_id": "40079040198", "tract_name": "401.98", "tags": {"building": "roof", "layer": "1"}}}, {"type": "Feature", "geometry": {"type": "Polygon", "coordinates": [[[-94.4413761, 35.3472122], [-94.4413741, 35.347043], [-94.4412221, 35.3470443], [-94.4412242, 35.3472134], [-94.4413761, 35.3472122]]]}, "properties": {"osm_id": 1237656808, "building": "yes", "name": "", "height": null, "height_m": null, "levels": null, "tract_id": "40079040198", "tract_name": "401.98", "tags": {"building": "yes"}}}, {"type": "Feature", "geometry": {"type": "Polygon", "coordinates": [[[-94.4403349, 35.3462629], [-94.4403331, 35.3460631], [-94.4401543, 35.3460638], [-94.440157, 35.3462586], [-94.4403349, 35.3462629]]]}, "properties": {"osm_id": 1237656812, "building": "industrial", "name": "", "height": null, "height_m": null, "levels": null, "tract_id": "40079040198", "tract_name": "401.98", "tags": {"building": "industrial"}}}, {"type": "Feature", "geometry": {"type": "Polygon", "coordinates": [[[-94.4406935, 35.3461544], [-94.4406938, 35.3460738], [-94.4406178, 35.3460736], [-94.4406175, 35.3461542], [-94.4406935, 35.3461544]]]}, "properties": {"osm_id": 1237656814, "building": "retail", "name": "", "height": null, "height_m": null, "levels": null, "tract_id": "40079040198", "tract_name": "401.98", "tags": {"building": "retail"}}}, {"type": "Feature", "geometry": {"type": "Polygon", "coordinates": [[[-94.4386861, 35.3490488], [-94.4386945, 35.3489712], [-94.4384907, 35.3489565], [-94.4384823, 35.3490341], [-94.4386861, 35.3490488]]]}, "properties": {"osm_id": 1237668421, "building": "school", "name": "", "height": null, "height_m": null, "levels": null, "tract_id": "40079040198", "tract_name": "401.98", "tags": {"building": "school"}}}, {"type": "Feature", "geometry": {"type": "Polygon", "coordinates": [[[-94.4393967, 35.3485366], [-94.4394035, 35.3482959], [-94.4393051, 35.3482941], [-94.4392985, 35.3485348], [-94.4393967, 35.3485366]]]}, "properties": {"osm_id": 1237668422, "building": "grandstand", "name": "", "height": null, "height_m": null, "levels": null, "tract_id": "40079040198", "tract_name": "401.98", "tags": {"building": "grandstand"}}}, {"type": "Feature", "geometry": {"type": "Polygon", "coordinates": [[[-94.4402418, 35.3482874], [-94.4400708, 35.3481585], [-94.4396083, 35.3485668], [-94.4397792, 35.3486956], [-94.4402418, 35.3482874]]]}, "properties": {"osm_id": 1237668423, "building": "school", "name": "", "height": null, "height_m": null, "levels": null, "tract_id": "40079040198", "tract_name": "401.98", "tags": {"building": "school"}}}, {"type": "Feature", "geometry": {"type": "Polygon", "coordinates": [[[-94.4397764, 35.3487045], [-94.439594, 35.3485695], [-94.4395307, 35.3486264], [-94.4395017, 35.348605], [-94.4394318, 35.3486678], [-94.4394623, 35.3486905], [-94.4393934, 35.3487524], [-94.4394046, 35.3487607], [-94.439347, 35.3488124], [-94.4394071, 35.3488568], [-94.4393791, 35.348882], [-94.4394886, 35.3489631], [-94.4397764, 35.3487045]]]}, "properties": {"osm_id": 1237668424, "building": "school", "name": "", "height": null, "height_m": null, "levels": null, "tract_id": "40079040198", "tract_name": "401.98", "tags": {"building": "school"}}}, {"type": "Feature", "geometry": {"type": "Polygon", "coordinates": [[[-94.4400131, 35.3478721], [-94.439998, 35.3475906], [-94.4395036, 35.3476082], [-94.4395187, 35.3478897], [-94.4400131, 35.3478721]]]}, "properties": {"osm_id": 1237668425, "building": "yes", "name": "", "height": null, "height_m": null, "levels": null, "tract_id": "40079040198", "tract_name": "401.98", "tags": {"building": "yes"}}}, {"type": "Feature", "geometry": {"type": "Polygon", "coordinates": [[[-94.4401445, 35.3413804], [-94.4401069, 35.3412259], [-94.4400168, 35.3412405], [-94.4400019, 35.3411793], [-94.4399319, 35.3411907], [-94.4399458, 35.3412475], [-94.4398622, 35.341261], [-94.4399009, 35.3414199], [-94.4401445, 35.3413804]]]}, "properties": {"osm_id": 1237670698, "building": "detached", "name": "", "height": null, "height_m": null, "levels": null, "tract_id": "40079040198", "tract_name": "401.98", "tags": {"building": "detached"}}}, {"type": "Feature", "geometry": {"type": "Polygon", "coordinates": [[[-94.4403075, 35.3418739], [-94.4403028, 35.3417559], [-94.4402765, 35.3417566], [-94.4402751, 35.3417216], [-94.4402534, 35.3417222], [-94.440253, 35.341713], [-94.440178, 35.341715], [-94.4401784, 35.3417237], [-94.4400676, 35.3417268], [-94.4400697, 35.3417769], [-94.4400377, 35.3417778], [-94.4400411, 35.3418614], [-94.4400704, 35.3418606], [-94.4400728, 35.3419193], [-94.4401823, 35.3419164], [-94.4401826, 35.3419252], [-94.440267, 35.3419229], [-94.4402665, 35.3419097], [-94.4402872, 35.3419092], [-94.4402858, 35.3418745], [-94.4403075, 35.3418739]]]}, "properties": {"osm_id": 1237670703, "building": "detached", "name": "", "height": null, "height_m": null, "levels": null, "tract_id": "40079040198", "tract_name": "401.98", "tags": {"building": "detached"}}}, {"type": "Feature", "geometry": {"type": "Polygon", "coordinates": [[[-94.4398087, 35.3329301], [-94.4397667, 35.3327266], [-94.4395512, 35.3327514], [-94.4395897, 35.3329556], [-94.4398087, 35.3329301]]]}, "properties": {"osm_id": 1237670707, "building": "industrial", "name": "", "height": null, "height_m": null, "levels": null, "tract_id": "40079040198", "tract_name": "401.98", "tags": {"building": "industrial"}}}, {"type": "Feature", "geometry": {"type": "Polygon", "coordinates": [[[-94.4385273, 35.3335313], [-94.4385025, 35.3334599], [-94.4385835, 35.3334412], [-94.4385602, 35.3333742], [-94.43849, 35.3333904], [-94.438463, 35.3333127], [-94.4380267, 35.3334134], [-94.4380654, 35.3335249], [-94.4380424, 35.3335302], [-94.4380787, 35.333635], [-94.4385273, 35.3335313]]]}, "properties": {"osm_id": 1237670709, "building": "industrial", "name": "", "height": null, "height_m": null, "levels": null, "tract_id": "40079040198", "tract_name": "401.98", "tags": {"building": "industrial"}}}, {"type": "Feature", "geometry": {"type": "Polygon", "coordinates": [[[-94.4373292, 35.3337786], [-94.4373173, 35.3337068], [-94.4372209, 35.3337174], [-94.4371966, 35.33357], [-94.4369414, 35.3335979], [-94.4369774, 35.3338172], [-94.4373292, 35.3337786]]]}, "properties": {"osm_id": 1237670711, "building": "yes", "name": "", "height": null, "height_m": null, "levels": null, "tract_id": "40079040198", "tract_name": "401.98", "tags": {"building": "yes"}}}, {"type": "Feature", "geometry": {"type": "Polygon", "coordinates": [[[-94.4369341, 35.3323059], [-94.4369356, 35.3321826], [-94.436249, 35.3321772], [-94.4362475, 35.3323005], [-94.4369341, 35.3323059]]]}, "properties": {"osm_id": 1237670714, "building": "yes", "name": "", "height": null, "height_m": null, "levels": null, "tract_id": "40079040198", "tract_name": "401.98", "tags": {"building": "yes"}}}, {"type": "Feature", "geometry": {"type": "Polygon", "coordinates": [[[-94.4408728, 35.3210079], [-94.440931, 35.3206785], [-94.4407623, 35.3206587], [-94.4407041, 35.320988], [-94.4408728, 35.3210079]]]}, "properties": {"osm_id": 1237670715, "building": "yes", "name": "", "height": null, "height_m": null, "levels": null, "tract_id": "40079040198", "tract_name": "401.98", "tags": {"building": "yes"}}}, {"type": "Feature", "geometry": {"type": "Polygon", "coordinates": [[[-94.4409351, 35.3206555], [-94.4409607, 35.320513], [-94.4407572, 35.3204886], [-94.4407316, 35.3206311], [-94.4409351, 35.3206555]]]}, "properties": {"osm_id": 1237670716, "building": "yes", "name": "", "height": null, "height_m": null, "levels": null, "tract_id": "40079040198", "tract_name": "401.98", "tags": {"building": "yes"}}}, {"type": "Feature", "geometry": {"type": "Polygon", "coordinates": [[[-94.4410703, 35.3196822], [-94.4410736, 35.3195985], [-94.4411405, 35.3196002], [-94.4411428, 35.3195447], [-94.4410791, 35.319543], [-94.4410804, 35.3195121], [-94.4407532, 35.3195034], [-94.4406284, 35.319572], [-94.4406159, 35.3195569], [-94.4405899, 35.3195712], [-94.4405752, 35.3195533], [-94.4404607, 35.3196162], [-94.4404017, 35.3195448], [-94.4403108, 35.3195948], [-94.4405239, 35.3198527], [-94.4408654, 35.3196649], [-94.4408649, 35.3196768], [-94.4410703, 35.3196822]]]}, "properties": {"osm_id": 1237670718, "building": "industrial", "name": "", "height": null, "height_m": null, "levels": null, "tract_id": "40079040198", "tract_name": "401.98", "tags": {"building": "industrial"}}}, {"type": "Feature", "geometry": {"type": "Polygon", "coordinates": [[[-94.4402115, 35.3176706], [-94.4402013, 35.3175026], [-94.4399964, 35.317511], [-94.4400012, 35.3175893], [-94.4399281, 35.3175923], [-94.4399336, 35.3176819], [-94.4402115, 35.3176706]]]}, "properties": {"osm_id": 1237670722, "building": "yes", "name": "", "height": null, "height_m": null, "levels": null, "tract_id": "40079040198", "tract_name": "401.98", "tags": {"building": "yes"}}}, {"type": "Feature", "geometry": {"type": "Polygon", "coordinates": [[[-94.4398679, 35.3332842], [-94.4398479, 35.3331773], [-94.4401964, 35.333134], [-94.4402164, 35.3332408], [-94.4398679, 35.3332842]]]}, "properties": {"osm_id": 1387608860, "building": "yes", "name": "", "height": null, "height_m": null, "levels": null, "tract_id": "40079040198", "tract_name": "401.98", "tags": {"building": "yes"}}}, {"type": "Feature", "geometry": {"type": "Polygon", "coordinates": [[[-94.4394695, 35.3326439], [-94.4394453, 35.3325146], [-94.4395283, 35.3325042], [-94.4395526, 35.3326336], [-94.4394695, 35.3326439]]]}, "properties": {"osm_id": 1387608861, "building": "industrial", "name": "", "height": null, "height_m": null, "levels": null, "tract_id": "40079040198", "tract_name": "401.98", "tags": {"building": "industrial"}}}, {"type": "Feature", "geometry": {"type": "Polygon", "coordinates": [[[-94.4374273, 35.3343465], [-94.4374426, 35.3341804], [-94.4371467, 35.3341623], [-94.4371314, 35.3343284], [-94.4374273, 35.3343465]]]}, "properties": {"osm_id": 1387608862, "building": "yes", "name": "", "height": null, "height_m": null, "levels": null, "tract_id": "40079040198", "tract_name": "401.98", "tags": {"building": "yes"}}}, {"type": "Feature", "geometry": {"type": "Polygon", "coordinates": [[[-94.4371944, 35.3352454], [-94.4371946, 35.3351833], [-94.4373251, 35.3351837], [-94.4373258, 35.3350295], [-94.4372057, 35.3350291], [-94.437206, 35.334972], [-94.4365359, 35.3349698], [-94.4365357, 35.3350155], [-94.4364535, 35.3350153], [-94.4364527, 35.3351927], [-94.4365274, 35.3351929], [-94.4365272, 35.3352435], [-94.4371944, 35.3352454]]]}, "properties": {"osm_id": 1387608863, "building": "yes", "name": "", "height": null, "height_m": null, "levels": null, "tract_id": "40079040198", "tract_name": "401.98", "tags": {"building": "yes"}}}]}