{"type": "FeatureCollection", "features": [{"type": "Feature", "geometry": {"type": "Polygon", "coordinates": [[[-96.1159373, 35.9873527], [-96.1159391, 35.9877909], [-96.1152306, 35.9877907], [-96.1152306, 35.9875527], [-96.1152306, 35.9874919], [-96.1152306, 35.9873502], [-96.1159373, 35.9873527]]]}, "properties": {"osm_id": 65050686, "building": "yes", "name": "", "height": null, "height_m": null, "levels": null, "tract_id": "40037020602", "tract_name": "206.02", "tags": {"building": "yes"}}}, {"type": "Feature", "geometry": {"type": "Polygon", "coordinates": [[[-96.1167087, 35.990937], [-96.1169451, 35.9909286], [-96.1169811, 35.9915905], [-96.1173696, 35.9915766], [-96.1173762, 35.9916989], [-96.1167513, 35.9917211], [-96.1167087, 35.990937]]]}, "properties": {"osm_id": 65050696, "building": "yes", "name": "Eagle Point Christian Academy", "height": null, "height_m": null, "levels": null, "tract_id": "40037020602", "tract_name": "206.02", "tags": {"amenity": "school", "building": "yes", "ele": "209", "gnis:feature_id": "1094197", "name": "Eagle Point Christian Academy"}}}, {"type": "Feature", "geometry": {"type": "Polygon", "coordinates": [[[-96.1147821, 35.9890904], [-96.1143154, 35.9891024], [-96.1143141, 35.9890367], [-96.114306, 35.9890367], [-96.1142986, 35.9888707], [-96.1142872, 35.9888707], [-96.1142879, 35.9888371], [-96.1143275, 35.9887985], [-96.1143731, 35.988798], [-96.1143744, 35.9888078], [-96.1145762, 35.9887996], [-96.1145776, 35.988811], [-96.114774, 35.988804], [-96.1147821, 35.9890904]]]}, "properties": {"osm_id": 66977403, "building": "yes", "name": "Walgreens", "height": null, "height_m": null, "levels": null, "tract_id": "40037020602", "tract_name": "206.02", "tags": {"brand": "Walgreens", "brand:wikidata": "Q1591889", "building": "yes", "name": "Walgreens", "opening_hours": "24/7", "shop": "chemist", "website": "https://www.walgreens.com/locator/walgreens-11+w+taft+ave-sapulpa-ok-74066/id=4723"}}}, {"type": "Feature", "geometry": {"type": "Polygon", "coordinates": [[[-96.1146877, 35.9976842], [-96.1144493, 35.9976941], [-96.1144454, 35.9976866], [-96.1143759, 35.9976905], [-96.1143744, 35.9976718], [-96.1143358, 35.9976722], [-96.1143322, 35.9976174], [-96.1143694, 35.9976155], [-96.114367, 35.9975846], [-96.1144403, 35.9975817], [-96.1144418, 35.9976129], [-96.1146837, 35.9976043], [-96.1146877, 35.9976842]]]}, "properties": {"osm_id": 66977409, "building": "yes", "name": "American Heritage Bank", "height": null, "height_m": null, "levels": null, "tract_id": "40037020602", "tract_name": "206.02", "tags": {"amenity": "bank", "atm": "no", "building": "yes", "check_date": "2024-12-18", "name": "American Heritage Bank"}}}, {"type": "Feature", "geometry": {"type": "Polygon", "coordinates": [[[-96.1144148, 35.9985048], [-96.1144071, 35.9982775], [-96.1147364, 35.9982671], [-96.114871, 35.9981435], [-96.1148847, 35.9984885], [-96.1144148, 35.9985048]]]}, "properties": {"osm_id": 66977427, "building": "yes", "name": "American Heritage Bank", "height": null, "height_m": null, "levels": null, "tract_id": "40037020602", "tract_name": "206.02", "tags": {"amenity": "bank", "atm": "yes", "building": "yes", "check_date": "2024-12-18", "name": "American Heritage Bank"}}}, {"type": "Feature", "geometry": {"type": "Polygon", "coordinates": [[[-96.1147421, 35.9881402], [-96.1143735, 35.9881406], [-96.114373, 35.9878122], [-96.114509, 35.9878121], [-96.1145085, 35.9874829], [-96.1146413, 35.9874828], [-96.1146413, 35.9874682], [-96.1147411, 35.9874681], [-96.1147421, 35.9881402]]]}, "properties": {"osm_id": 67567663, "building": "yes", "name": "", "height": null, "height_m": null, "levels": null, "tract_id": "40037020602", "tract_name": "206.02", "tags": {"building": "yes"}}}, {"type": "Feature", "geometry": {"type": "Polygon", "coordinates": [[[-96.1343729, 35.9868088], [-96.1343651, 35.9866678], [-96.1341459, 35.9866723], [-96.134139, 35.9857621], [-96.1347189, 35.9857599], [-96.1347266, 35.9859556], [-96.136009, 35.985963], [-96.1360091, 35.9860985], [-96.1360993, 35.9860985], [-96.1360992, 35.9861344], [-96.1362981, 35.9861329], [-96.1362944, 35.9862865], [-96.136121, 35.9862868], [-96.1361222, 35.9863346], [-96.1360165, 35.9863331], [-96.1360154, 35.9864308], [-96.1362714, 35.9864312], [-96.1362711, 35.9866001], [-96.1360126, 35.9865997], [-96.136015, 35.9866724], [-96.1355997, 35.9866739], [-96.1355979, 35.9868096], [-96.1355031, 35.9868094], [-96.135503, 35.9868483], [-96.1353767, 35.9868481], [-96.1353768, 35.9868093], [-96.1346907, 35.9868084], [-96.1346906, 35.9868483], [-96.1345643, 35.9868481], [-96.1345644, 35.9868082], [-96.1343729, 35.9868088]]]}, "properties": {"osm_id": 85547257, "building": "yes", "name": "Walmart Supercenter", "height": null, "height_m": null, "levels": null, "tract_id": "40037020602", "tract_name": "206.02", "tags": {"addr:city": "Sapulpa", "addr:country": "US", "addr:housenumber": "1002", "addr:postcode": "74066", "addr:state": "OK", "addr:street": "West Taft Avenue", "brand": "Walmart", "brand:wikidata": "Q483551", "building": "yes", "name": "Walmart Supercenter", "opening_hours": "24/7", "operator": "Walmart", "payment:app:walmart": "yes", "payment:apple_pay": "no", "payment:google_pay": "no", "payment:samsung_pay": "no", "phone": "+1 918-224-8080", "ref": "73", "ref:walmart": "73", "sensory_friendly:accommodation": "dimmed_light;static_screens;no_pa", "sensory_friendly:conditional": "yes @ 08:00-10:00", "shop": "supermarket", "website": "https://www.walmart.com/store/73-sapulpa-ok"}}}, {"type": "Feature", "geometry": {"type": "Polygon", "coordinates": [[[-96.1355785, 35.987826], [-96.1355781, 35.9878771], [-96.1355434, 35.9878769], [-96.1355439, 35.9878259], [-96.1355785, 35.987826]]]}, "properties": {"osm_id": 184490434, "building": "yes", "name": "Murphy USA", "height": null, "height_m": null, "levels": null, "tract_id": "40037020602", "tract_name": "206.02", "tags": {"building": "yes", "name": "Murphy USA", "shop": "kiosk"}}}, {"type": "Feature", "geometry": {"type": "Polygon", "coordinates": [[[-96.1357513, 35.9879424], [-96.1353698, 35.9879403], [-96.1353703, 35.9878759], [-96.1355434, 35.9878769], [-96.1355781, 35.9878771], [-96.1357518, 35.9878781], [-96.1357513, 35.9879424]]]}, "properties": {"osm_id": 184490448, "building": "roof", "name": "Murphy USA", "height": null, "height_m": null, "levels": null, "tract_id": "40037020602", "tract_name": "206.02", "tags": {"amenity": "fuel", "brand": "Murphy USA", "brand:wikidata": "Q19604459", "building": "roof", "compressed_air": "yes", "fuel:diesel": "yes", "layer": "1", "name": "Murphy USA"}}}, {"type": "Feature", "geometry": {"type": "Polygon", "coordinates": [[[-96.1364685, 35.9880834], [-96.1361694, 35.9880834], [-96.1361694, 35.987791], [-96.1361694, 35.9877205], [-96.1361694, 35.987624], [-96.1364685, 35.987624], [-96.1364685, 35.9877248], [-96.1364685, 35.9877954], [-96.1364685, 35.9880834]]]}, "properties": {"osm_id": 184490685, "building": "retail", "name": "", "height": null, "height_m": null, "levels": null, "tract_id": "40037020602", "tract_name": "206.02", "tags": {"building": "retail"}}}, {"type": "Feature", "geometry": {"type": "Polygon", "coordinates": [[[-96.1159373, 35.9873527], [-96.1159368, 35.9872177], [-96.1168969, 35.9872152], [-96.1168973, 35.9872914], [-96.1171064, 35.9872936], [-96.1171172, 35.9873235], [-96.1170495, 35.9873372], [-96.1170486, 35.987547], [-96.1170781, 35.9875471], [-96.1170777, 35.9876332], [-96.1170482, 35.9876331], [-96.1170474, 35.9877947], [-96.1161381, 35.9877925], [-96.1161382, 35.9878138], [-96.1161383, 35.9878406], [-96.1160421, 35.9878408], [-96.116042, 35.9878144], [-96.1160419, 35.9877912], [-96.1159391, 35.9877909], [-96.1159373, 35.9873527]]]}, "properties": {"osm_id": 188002099, "building": "yes", "name": "Reasor's", "height": null, "height_m": null, "levels": null, "tract_id": "40037020602", "tract_name": "206.02", "tags": {"addr:city": "Sapulpa", "addr:country": "US", "addr:housenumber": "132", "addr:postcode": "74066", "addr:state": "OK", "addr:street": "West Taft Avenue", "building": "yes", "name": "Reasor's", "shop": "supermarket"}}}, {"type": "Feature", "geometry": {"type": "Polygon", "coordinates": [[[-96.121986, 35.9891981], [-96.1219047, 35.9891981], [-96.1219047, 35.9891664], [-96.121986, 35.9891664], [-96.121986, 35.9891981]]]}, "properties": {"osm_id": 188129411, "building": "garage", "name": "", "height": null, "height_m": null, "levels": null, "tract_id": "40037020602", "tract_name": "206.02", "tags": {"building": "garage"}}}, {"type": "Feature", "geometry": {"type": "Polygon", "coordinates": [[[-96.121873, 35.9891743], [-96.1216987, 35.9891724], [-96.1217002, 35.9890852], [-96.1218746, 35.9890872], [-96.121873, 35.9891743]]]}, "properties": {"osm_id": 188129412, "building": "house", "name": "", "height": null, "height_m": null, "levels": null, "tract_id": "40037020602", "tract_name": "206.02", "tags": {"building": "house"}}}, {"type": "Feature", "geometry": {"type": "Polygon", "coordinates": [[[-96.1149532, 35.9939642], [-96.114435, 35.9939794], [-96.1144182, 35.9936816], [-96.1144669, 35.9936772], [-96.1148599, 35.9936629], [-96.1148688, 35.9938213], [-96.1149451, 35.9938185], [-96.1149532, 35.9939642]]]}, "properties": {"osm_id": 199902108, "building": "yes", "name": "Sapulpa, Oklahoma 74066", "height": null, "height_m": null, "levels": null, "tract_id": "40037020602", "tract_name": "206.02", "tags": {"addr:city": "Sapulpa", "addr:country": "US", "addr:housenumber": "401", "addr:postcode": "74066", "addr:state": "OK", "addr:street": "South Main Street", "amenity": "post_office", "brand": "United States Postal Service", "brand:wikidata": "Q668687", "building": "yes", "name": "Sapulpa, Oklahoma 74066", "operator": "United States Postal Service", "operator:short": "USPS", "operator:type": "public", "operator:website": "https://www.usps.com", "operator:wikidata": "Q668687", "operator:wikipedia": "en:United States Postal Service", "short_name": "USPS"}}}, {"type": "Feature", "geometry": {"type": "Polygon", "coordinates": [[[-96.1140641, 35.9788375], [-96.1140631, 35.978726], [-96.1138479, 35.9787271], [-96.1138488, 35.9788386], [-96.1140641, 35.9788375]]]}, "properties": {"osm_id": 262138714, "building": "yes", "name": "Whataburger", "height": null, "height_m": null, "levels": null, "tract_id": "40037020602", "tract_name": "206.02", "tags": {"addr:city": "Sapulpa", "addr:housenumber": "1704", "addr:postcode": "74066", "addr:state": "OK", "addr:street": "South Main Street", "amenity": "fast_food", "branch": "Main & Ross", "brand": "Whataburger", "brand:wikidata": "Q376627", "building": "yes", "cuisine": "burger", "name": "Whataburger", "phone": "+1 918-227-4729", "takeaway": "yes", "website": "https://locations.whataburger.com/ok/sapulpa/1704-s-main-st.html"}}}, {"type": "Feature", "geometry": {"type": "Polygon", "coordinates": [[[-96.1148334, 35.9973912], [-96.1143558, 35.9974079], [-96.1143279, 35.9968854], [-96.1148054, 35.9968687], [-96.1148334, 35.9973912]]]}, "properties": {"osm_id": 306470012, "building": "yes", "name": "", "height": null, "height_m": null, "levels": null, "tract_id": "40037020602", "tract_name": "206.02", "tags": {"building": "yes", "shop": "tyres"}}}, {"type": "Feature", "geometry": {"type": "Polygon", "coordinates": [[[-96.1162055, 35.997831], [-96.116006, 35.9978363], [-96.1160041, 35.9977903], [-96.1158709, 35.9977938], [-96.1158686, 35.9977383], [-96.1158285, 35.9977393], [-96.1158241, 35.9976321], [-96.1158591, 35.9976312], [-96.1158566, 35.9975684], [-96.1161943, 35.9975594], [-96.1162055, 35.997831]]]}, "properties": {"osm_id": 306470041, "building": "yes", "name": "Elks Lodge", "height": null, "height_m": null, "levels": null, "tract_id": "40037020602", "tract_name": "206.02", "tags": {"amenity": "social_centre", "brand": "Benevolent and Protective Order of Elks", "brand:wikidata": "Q2895789", "building": "yes", "name": "Elks Lodge", "official_name": "Benevolent and Protective Order of Elks", "short_name": "BPOE"}}}, {"type": "Feature", "geometry": {"type": "Polygon", "coordinates": [[[-96.1234477, 35.9976747], [-96.1240598, 35.9970437], [-96.1236846, 35.9967082], [-96.12327, 35.9970437], [-96.1231712, 35.9970117], [-96.122954, 35.9972034], [-96.1227862, 35.9970836], [-96.122569, 35.9972354], [-96.1231811, 35.9978344], [-96.1234477, 35.9976747]]]}, "properties": {"osm_id": 306470501, "building": "yes", "name": "Day's Lumber", "height": null, "height_m": null, "levels": null, "tract_id": "40037020602", "tract_name": "206.02", "tags": {"building": "yes", "name": "Day's Lumber"}}}, {"type": "Feature", "geometry": {"type": "Polygon", "coordinates": [[[-96.1212658, 35.9969399], [-96.1221445, 35.9969558], [-96.1231811, 35.9964127], [-96.1232601, 35.9953903], [-96.1221642, 35.9953583], [-96.1221445, 35.9958616], [-96.1213349, 35.9958616], [-96.1212362, 35.9960213], [-96.1212658, 35.9969399]]]}, "properties": {"osm_id": 306470764, "building": "school", "name": "Sapulpa Public Schools Bus Barn", "height": null, "height_m": null, "levels": null, "tract_id": "40037020602", "tract_name": "206.02", "tags": {"building": "school", "name": "Sapulpa Public Schools Bus Barn"}}}, {"type": "Feature", "geometry": {"type": "Polygon", "coordinates": [[[-96.1142652, 35.9894309], [-96.1142025, 35.9894322], [-96.1142017, 35.9894212], [-96.1141402, 35.9894214], [-96.1141382, 35.9894316], [-96.1140128, 35.9894316], [-96.1140145, 35.9895264], [-96.1141073, 35.9895271], [-96.1141065, 35.9895343], [-96.1141911, 35.9895324], [-96.114192, 35.9895126], [-96.1142685, 35.98951], [-96.1142652, 35.9894309]]]}, "properties": {"osm_id": 306472135, "building": "yes", "name": "Taco Bueno", "height": null, "height_m": null, "levels": null, "tract_id": "40037020602", "tract_name": "206.02", "tags": {"amenity": "fast_food", "brand": "Taco Bueno", "brand:wikidata": "Q7673958", "building": "yes", "cuisine": "mexican", "name": "Taco Bueno", "takeaway": "yes"}}}, {"type": "Feature", "geometry": {"type": "Polygon", "coordinates": [[[-96.1141464, 35.987562], [-96.1138896, 35.987562], [-96.1138933, 35.9877004], [-96.1141515, 35.9876959], [-96.1141464, 35.987562]]]}, "properties": {"osm_id": 306473757, "building": "roof", "name": "", "height": null, "height_m": null, "levels": null, "tract_id": "40037020602", "tract_name": "206.02", "tags": {"amenity": "fuel", "building": "roof", "layer": "1"}}}, {"type": "Feature", "geometry": {"type": "Polygon", "coordinates": [[[-96.1195918, 35.9992644], [-96.1195975, 35.9988297], [-96.1193257, 35.9988273], [-96.1193201, 35.9992434], [-96.1195138, 35.9992451], [-96.1195135, 35.9992638], [-96.1195918, 35.9992644]]]}, "properties": {"osm_id": 735261885, "building": "yes", "name": "", "height": null, "height_m": null, "levels": null, "tract_id": "40037020602", "tract_name": "206.02", "tags": {"building": "yes"}}}, {"type": "Feature", "geometry": {"type": "Polygon", "coordinates": [[[-96.1197166, 35.9993104], [-96.1193541, 35.9994773], [-96.1195902, 35.9998131], [-96.1197161, 35.9997552], [-96.1197265, 35.99977], [-96.1199602, 35.9996625], [-96.1199391, 35.9996325], [-96.1199882, 35.99961], [-96.1199538, 35.9995611], [-96.1199078, 35.9995822], [-96.1197166, 35.9993104]]]}, "properties": {"osm_id": 735261886, "building": "yes", "name": "", "height": null, "height_m": null, "levels": null, "tract_id": "40037020602", "tract_name": "206.02", "tags": {"building": "yes"}}}, {"type": "Feature", "geometry": {"type": "Polygon", "coordinates": [[[-96.126199, 35.9754766], [-96.1262844, 35.9755098], [-96.1262116, 35.9756325], [-96.1261517, 35.9756092], [-96.1261455, 35.9756196], [-96.1260361, 35.9755771], [-96.1260429, 35.9755656], [-96.1260244, 35.9755584], [-96.1260284, 35.9755517], [-96.1259669, 35.9755278], [-96.1260319, 35.9754181], [-96.1261088, 35.975448], [-96.1260454, 35.9755548], [-96.1260895, 35.975572], [-96.1261016, 35.9755515], [-96.1261446, 35.9755682], [-96.126199, 35.9754766]]]}, "properties": {"osm_id": 986158229, "building": "yes", "name": "", "height": null, "height_m": null, "levels": null, "tract_id": "40037020602", "tract_name": "206.02", "tags": {"building": "yes"}}}, {"type": "Feature", "geometry": {"type": "Polygon", "coordinates": [[[-96.1257568, 35.975694], [-96.125625, 35.9756766], [-96.125598, 35.9758105], [-96.1257298, 35.975828], [-96.1257568, 35.975694]]]}, "properties": {"osm_id": 986158230, "building": "yes", "name": "", "height": null, "height_m": null, "levels": null, "tract_id": "40037020602", "tract_name": "206.02", "tags": {"building": "yes"}}}, {"type": "Feature", "geometry": {"type": "Polygon", "coordinates": [[[-96.1251922, 35.9756804], [-96.1252631, 35.9757273], [-96.1251469, 35.9758423], [-96.1251824, 35.975885], [-96.1251351, 35.9759108], [-96.1250998, 35.9758685], [-96.1249958, 35.9759252], [-96.1249599, 35.9759024], [-96.1249147, 35.9759268], [-96.1248884, 35.9758949], [-96.1250794, 35.9757919], [-96.1251922, 35.9756804]]]}, "properties": {"osm_id": 986158231, "building": "yes", "name": "", "height": null, "height_m": null, "levels": null, "tract_id": "40037020602", "tract_name": "206.02", "tags": {"building": "yes"}}}, {"type": "Feature", "geometry": {"type": "Polygon", "coordinates": [[[-96.1140567, 35.9882222], [-96.1141297, 35.9881664], [-96.1141031, 35.9881437], [-96.1140302, 35.9881994], [-96.1140567, 35.9882222]]]}, "properties": {"osm_id": 995902511, "building": "yes", "name": "", "height": null, "height_m": null, "levels": null, "tract_id": "40037020602", "tract_name": "206.02", "tags": {"building": "yes"}}}, {"type": "Feature", "geometry": {"type": "Polygon", "coordinates": [[[-96.114013, 35.977464], [-96.114014, 35.977594], [-96.113955, 35.977594], [-96.113959, 35.977937], [-96.114276, 35.977935], [-96.114276, 35.978009], [-96.114373, 35.978008], [-96.114374, 35.97815], [-96.114964, 35.978146], [-96.114961, 35.97779], [-96.114936, 35.97779], [-96.114935, 35.97768], [-96.114595, 35.977682], [-96.114594, 35.977648], [-96.114535, 35.977649], [-96.114535, 35.977641], [-96.114406, 35.977642], [-96.114407, 35.97768], [-96.114365, 35.977681], [-96.114363, 35.977468], [-96.114284, 35.977468], [-96.114284, 35.977462], [-96.114013, 35.977464]]]}, "properties": {"osm_id": 1026616999, "building": "yes", "name": "", "height": null, "height_m": null, "levels": null, "tract_id": "40037020602", "tract_name": "206.02", "tags": {"building": "yes", "source": "microsoft/BuildingFootprints"}}}, {"type": "Feature", "geometry": {"type": "Polygon", "coordinates": [[[-96.1145784, 35.9951438], [-96.1145588, 35.9948584], [-96.1142272, 35.9948734], [-96.1142469, 35.9951588], [-96.1145784, 35.9951438]]]}, "properties": {"osm_id": 1059872387, "building": "yes", "name": "", "height": null, "height_m": null, "levels": null, "tract_id": "40037020602", "tract_name": "206.02", "tags": {"addr:city": "Sapulpa", "addr:housenumber": "302", "addr:postcode": "74066", "addr:state": "OK", "addr:street": "South Main Street", "building": "yes"}}}, {"type": "Feature", "geometry": {"type": "Polygon", "coordinates": [[[-96.1145533, 35.9944679], [-96.1143449, 35.994476], [-96.1143446, 35.9944695], [-96.1143107, 35.9944708], [-96.1143088, 35.9944391], [-96.1142957, 35.9944396], [-96.1142913, 35.9943661], [-96.114306, 35.9943655], [-96.1143021, 35.9943009], [-96.11441, 35.9942966], [-96.1144074, 35.9942545], [-96.1144772, 35.9942517], [-96.1144798, 35.9942953], [-96.1145133, 35.9942939], [-96.1145149, 35.9943217], [-96.1145284, 35.9943212], [-96.1145329, 35.9943952], [-96.1145669, 35.9943938], [-96.1145689, 35.9944283], [-96.1145759, 35.994428], [-96.1145777, 35.994459], [-96.1145528, 35.99446], [-96.1145533, 35.9944679]]]}, "properties": {"osm_id": 1065919486, "building": "yes", "name": "", "height": null, "height_m": null, "levels": null, "tract_id": "40037020602", "tract_name": "206.02", "tags": {"building": "yes"}}}, {"type": "Feature", "geometry": {"type": "Polygon", "coordinates": [[[-96.1141515, 35.9876959], [-96.1141953, 35.9876951], [-96.1142317, 35.9876945], [-96.114228, 35.987562], [-96.1141464, 35.987562], [-96.1141515, 35.9876959]]]}, "properties": {"osm_id": 1079623369, "building": "retail", "name": "", "height": null, "height_m": null, "levels": null, "tract_id": "40037020602", "tract_name": "206.02", "tags": {"building": "retail", "shop": "convenience"}}}, {"type": "Feature", "geometry": {"type": "Polygon", "coordinates": [[[-96.1356301, 35.9820145], [-96.1356339, 35.9822348], [-96.1355856, 35.9822353], [-96.1355869, 35.9823101], [-96.1355708, 35.9823103], [-96.135573, 35.9824384], [-96.1356334, 35.9824377], [-96.1356347, 35.9825136], [-96.1352927, 35.9825175], [-96.1352966, 35.9827432], [-96.1357579, 35.982738], [-96.1357573, 35.9827054], [-96.135815, 35.9827048], [-96.1358157, 35.9827427], [-96.1359819, 35.9827409], [-96.1359729, 35.9822201], [-96.1362518, 35.9822169], [-96.1362479, 35.981989], [-96.1361849, 35.9819898], [-96.1361817, 35.9818064], [-96.1361026, 35.9818073], [-96.1361031, 35.9818377], [-96.135977, 35.9818391], [-96.1359769, 35.9818283], [-96.1357959, 35.9818303], [-96.1357952, 35.9817891], [-96.1350095, 35.9817979], [-96.1350133, 35.9820214], [-96.1356301, 35.9820145]]]}, "properties": {"osm_id": 1235078075, "building": "yes", "name": "", "height": null, "height_m": null, "levels": null, "tract_id": "40037020602", "tract_name": "206.02", "tags": {"building": "yes", "source": "microsoft/BuildingFootprints"}}}, {"type": "Feature", "geometry": {"type": "Polygon", "coordinates": [[[-96.1364066, 35.9800184], [-96.1362752, 35.9800165], [-96.1362733, 35.9801022], [-96.1362117, 35.9801013], [-96.1362067, 35.9803292], [-96.1362079, 35.9803292], [-96.136202, 35.9805993], [-96.1362637, 35.9806002], [-96.1362633, 35.9806197], [-96.1363935, 35.9806216], [-96.1364066, 35.9800184]]]}, "properties": {"osm_id": 1235078079, "building": "yes", "name": "", "height": null, "height_m": null, "levels": null, "tract_id": "40037020602", "tract_name": "206.02", "tags": {"building": "yes", "source": "microsoft/BuildingFootprints"}}}, {"type": "Feature", "geometry": {"type": "Polygon", "coordinates": [[[-96.1149044, 35.9987277], [-96.1149012, 35.9986584], [-96.1144271, 35.9986727], [-96.1144303, 35.998742], [-96.1149044, 35.9987277]]]}, "properties": {"osm_id": 1235078811, "building": "yes", "name": "", "height": null, "height_m": null, "levels": null, "tract_id": "40037020602", "tract_name": "206.02", "tags": {"building": "yes", "source": "microsoft/BuildingFootprints"}}}, {"type": "Feature", "geometry": {"type": "Polygon", "coordinates": [[[-96.1154405, 35.9987197], [-96.1150524, 35.9987338], [-96.1150634, 35.998933], [-96.1151021, 35.9989316], [-96.1151052, 35.9989879], [-96.1152417, 35.998983], [-96.1152385, 35.9989257], [-96.1153965, 35.99892], [-96.1153934, 35.9988637], [-96.1154483, 35.9988617], [-96.1154405, 35.9987197]]]}, "properties": {"osm_id": 1235078812, "building": "yes", "name": "", "height": null, "height_m": null, "levels": null, "tract_id": "40037020602", "tract_name": "206.02", "tags": {"building": "yes", "source": "microsoft/BuildingFootprints"}}}, {"type": "Feature", "geometry": {"type": "Polygon", "coordinates": [[[-96.115441, 35.9992069], [-96.1154392, 35.9991669], [-96.1154713, 35.999166], [-96.1154694, 35.9991236], [-96.1154333, 35.9991247], [-96.1154315, 35.9990847], [-96.1150658, 35.9990956], [-96.1150713, 35.9992179], [-96.115441, 35.9992069]]]}, "properties": {"osm_id": 1235078813, "building": "yes", "name": "", "height": null, "height_m": null, "levels": null, "tract_id": "40037020602", "tract_name": "206.02", "tags": {"building": "yes", "source": "microsoft/BuildingFootprints"}}}, {"type": "Feature", "geometry": {"type": "Polygon", "coordinates": [[[-96.1149487, 35.9995911], [-96.1149425, 35.9994415], [-96.1144817, 35.999454], [-96.1144879, 35.9996036], [-96.1149487, 35.9995911]]]}, "properties": {"osm_id": 1235078814, "building": "yes", "name": "", "height": null, "height_m": null, "levels": null, "tract_id": "40037020602", "tract_name": "206.02", "tags": {"building": "yes", "source": "microsoft/BuildingFootprints"}}}, {"type": "Feature", "geometry": {"type": "Polygon", "coordinates": [[[-96.1144924, 35.9999], [-96.1148328, 35.9998927], [-96.1148285, 35.9997604], [-96.1144881, 35.9997677], [-96.1144924, 35.9999]]]}, "properties": {"osm_id": 1235078815, "building": "yes", "name": "", "height": null, "height_m": null, "levels": null, "tract_id": "40037020602", "tract_name": "206.02", "tags": {"building": "yes", "source": "microsoft/BuildingFootprints"}}}, {"type": "Feature", "geometry": {"type": "Polygon", "coordinates": [[[-96.1145186, 36.0000779], [-96.114522, 36.0001896], [-96.1146252, 36.0001875], [-96.1146217, 36.0000758], [-96.1145186, 36.0000779]]]}, "properties": {"osm_id": 1235078816, "building": "yes", "name": "", "height": null, "height_m": null, "levels": null, "tract_id": "40037020602", "tract_name": "206.02", "tags": {"building": "yes", "source": "microsoft/BuildingFootprints"}}}, {"type": "Feature", "geometry": {"type": "Polygon", "coordinates": [[[-96.1154286, 35.9977252], [-96.1149179, 35.9977379], [-96.1149271, 35.9979785], [-96.1154378, 35.9979658], [-96.1154286, 35.9977252]]]}, "properties": {"osm_id": 1235079070, "building": "yes", "name": "", "height": null, "height_m": null, "levels": null, "tract_id": "40037020602", "tract_name": "206.02", "tags": {"building": "yes", "source": "microsoft/BuildingFootprints"}}}, {"type": "Feature", "geometry": {"type": "Polygon", "coordinates": [[[-96.1159089, 35.99824], [-96.116177, 35.9982347], [-96.1161733, 35.9981142], [-96.1159053, 35.9981195], [-96.1159089, 35.99824]]]}, "properties": {"osm_id": 1235079071, "building": "yes", "name": "", "height": null, "height_m": null, "levels": null, "tract_id": "40037020602", "tract_name": "206.02", "tags": {"building": "yes", "source": "microsoft/BuildingFootprints"}}}, {"type": "Feature", "geometry": {"type": "Polygon", "coordinates": [[[-96.1158973, 35.9983293], [-96.1157473, 35.9983335], [-96.1157501, 35.9983985], [-96.1159002, 35.9983943], [-96.1158973, 35.9983293]]]}, "properties": {"osm_id": 1235079072, "building": "yes", "name": "", "height": null, "height_m": null, "levels": null, "tract_id": "40037020602", "tract_name": "206.02", "tags": {"building": "yes", "source": "microsoft/BuildingFootprints"}}}, {"type": "Feature", "geometry": {"type": "Polygon", "coordinates": [[[-96.1158244, 35.9988957], [-96.1158287, 35.9989811], [-96.1159358, 35.9989776], [-96.1159367, 35.9989962], [-96.1160224, 35.9989934], [-96.1160172, 35.9988894], [-96.1158244, 35.9988957]]]}, "properties": {"osm_id": 1235079073, "building": "yes", "name": "", "height": null, "height_m": null, "levels": null, "tract_id": "40037020602", "tract_name": "206.02", "tags": {"building": "yes", "source": "microsoft/BuildingFootprints"}}}, {"type": "Feature", "geometry": {"type": "Polygon", "coordinates": [[[-96.1164629, 35.9989116], [-96.11646, 35.998828], [-96.1163876, 35.9988296], [-96.1163906, 35.9989133], [-96.1164629, 35.9989116]]]}, "properties": {"osm_id": 1235079074, "building": "yes", "name": "", "height": null, "height_m": null, "levels": null, "tract_id": "40037020602", "tract_name": "206.02", "tags": {"building": "yes", "source": "microsoft/BuildingFootprints"}}}, {"type": "Feature", "geometry": {"type": "Polygon", "coordinates": [[[-96.1166385, 35.9988967], [-96.1166345, 35.998787], [-96.1165274, 35.9987895], [-96.1165313, 35.9988992], [-96.1166385, 35.9988967]]]}, "properties": {"osm_id": 1235079075, "building": "yes", "name": "", "height": null, "height_m": null, "levels": null, "tract_id": "40037020602", "tract_name": "206.02", "tags": {"building": "yes", "source": "microsoft/BuildingFootprints"}}}, {"type": "Feature", "geometry": {"type": "Polygon", "coordinates": [[[-96.1166727, 35.9988864], [-96.116847, 35.9988827], [-96.1168437, 35.9987808], [-96.1166695, 35.9987844], [-96.1166727, 35.9988864]]]}, "properties": {"osm_id": 1235079076, "building": "yes", "name": "", "height": null, "height_m": null, "levels": null, "tract_id": "40037020602", "tract_name": "206.02", "tags": {"building": "yes", "source": "microsoft/BuildingFootprints"}}}, {"type": "Feature", "geometry": {"type": "Polygon", "coordinates": [[[-96.1168439, 35.9991232], [-96.1168348, 35.9989422], [-96.116733, 35.9989455], [-96.1167421, 35.9991266], [-96.1168439, 35.9991232]]]}, "properties": {"osm_id": 1235079077, "building": "yes", "name": "", "height": null, "height_m": null, "levels": null, "tract_id": "40037020602", "tract_name": "206.02", "tags": {"building": "yes", "source": "microsoft/BuildingFootprints"}}}, {"type": "Feature", "geometry": {"type": "Polygon", "coordinates": [[[-96.116509, 35.9993519], [-96.1165146, 35.999495], [-96.1166151, 35.9994924], [-96.1166096, 35.9993494], [-96.116509, 35.9993519]]]}, "properties": {"osm_id": 1235079078, "building": "yes", "name": "", "height": null, "height_m": null, "levels": null, "tract_id": "40037020602", "tract_name": "206.02", "tags": {"building": "yes", "source": "microsoft/BuildingFootprints"}}}, {"type": "Feature", "geometry": {"type": "Polygon", "coordinates": [[[-96.1163617, 35.9995022], [-96.1164824, 35.999501], [-96.1164799, 35.9993382], [-96.1163592, 35.9993394], [-96.1163617, 35.9995022]]]}, "properties": {"osm_id": 1235079079, "building": "yes", "name": "", "height": null, "height_m": null, "levels": null, "tract_id": "40037020602", "tract_name": "206.02", "tags": {"building": "yes", "source": "microsoft/BuildingFootprints"}}}, {"type": "Feature", "geometry": {"type": "Polygon", "coordinates": [[[-96.1158642, 35.999544], [-96.1160329, 35.9995384], [-96.1160282, 35.9994474], [-96.1158595, 35.999453], [-96.1158642, 35.999544]]]}, "properties": {"osm_id": 1235079080, "building": "yes", "name": "", "height": null, "height_m": null, "levels": null, "tract_id": "40037020602", "tract_name": "206.02", "tags": {"building": "yes", "source": "microsoft/BuildingFootprints"}}}, {"type": "Feature", "geometry": {"type": "Polygon", "coordinates": [[[-96.1160199, 36.0000398], [-96.1160217, 35.9999552], [-96.1158447, 35.9999528], [-96.1158429, 36.0000374], [-96.1160199, 36.0000398]]]}, "properties": {"osm_id": 1235079081, "building": "yes", "name": "", "height": null, "height_m": null, "levels": null, "tract_id": "40037020602", "tract_name": "206.02", "tags": {"building": "yes", "source": "microsoft/BuildingFootprints"}}}, {"type": "Feature", "geometry": {"type": "Polygon", "coordinates": [[[-96.1152463, 35.9999784], [-96.1152493, 36.0000412], [-96.1153564, 36.0000379], [-96.115359, 36.0000921], [-96.1154634, 36.0000888], [-96.1154579, 35.9999718], [-96.1152463, 35.9999784]]]}, "properties": {"osm_id": 1235079082, "building": "yes", "name": "", "height": null, "height_m": null, "levels": null, "tract_id": "40037020602", "tract_name": "206.02", "tags": {"building": "yes", "source": "microsoft/BuildingFootprints"}}}, {"type": "Feature", "geometry": {"type": "Polygon", "coordinates": [[[-96.1167708, 35.9998518], [-96.1167682, 35.9997715], [-96.1166771, 35.9997735], [-96.1166764, 35.999754], [-96.1165129, 35.9997574], [-96.1165162, 35.9998572], [-96.1167708, 35.9998518]]]}, "properties": {"osm_id": 1235079083, "building": "yes", "name": "", "height": null, "height_m": null, "levels": null, "tract_id": "40037020602", "tract_name": "206.02", "tags": {"building": "yes", "source": "microsoft/BuildingFootprints"}}}, {"type": "Feature", "geometry": {"type": "Polygon", "coordinates": [[[-96.1166797, 36.0000414], [-96.1168526, 36.0000374], [-96.1168505, 35.9999788], [-96.1166776, 35.9999829], [-96.1166797, 36.0000414]]]}, "properties": {"osm_id": 1235079084, "building": "yes", "name": "", "height": null, "height_m": null, "levels": null, "tract_id": "40037020602", "tract_name": "206.02", "tags": {"building": "yes", "source": "microsoft/BuildingFootprints"}}}, {"type": "Feature", "geometry": {"type": "Polygon", "coordinates": [[[-96.1171882, 35.9999704], [-96.1171914, 36.0000493], [-96.1174125, 36.0000434], [-96.1174092, 35.9999645], [-96.1171882, 35.9999704]]]}, "properties": {"osm_id": 1235079085, "building": "yes", "name": "", "height": null, "height_m": null, "levels": null, "tract_id": "40037020602", "tract_name": "206.02", "tags": {"building": "yes", "source": "microsoft/BuildingFootprints"}}}, {"type": "Feature", "geometry": {"type": "Polygon", "coordinates": [[[-96.1175663, 35.9997118], [-96.117443, 35.9997145], [-96.1174444, 35.9997557], [-96.1174659, 35.9997552], [-96.1174686, 35.9998376], [-96.1175705, 35.9998354], [-96.1175663, 35.9997118]]]}, "properties": {"osm_id": 1235079086, "building": "yes", "name": "", "height": null, "height_m": null, "levels": null, "tract_id": "40037020602", "tract_name": "206.02", "tags": {"building": "yes", "source": "microsoft/BuildingFootprints"}}}, {"type": "Feature", "geometry": {"type": "Polygon", "coordinates": [[[-96.1178811, 35.9997271], [-96.1177819, 35.9997287], [-96.117785, 35.9998545], [-96.1178842, 35.9998529], [-96.1178811, 35.9997271]]]}, "properties": {"osm_id": 1235079087, "building": "yes", "name": "", "height": null, "height_m": null, "levels": null, "tract_id": "40037020602", "tract_name": "206.02", "tags": {"building": "yes", "source": "microsoft/BuildingFootprints"}}}, {"type": "Feature", "geometry": {"type": "Polygon", "coordinates": [[[-96.1181315, 35.9997279], [-96.1180377, 35.9997298], [-96.1180437, 35.9999237], [-96.1181375, 35.9999218], [-96.1181315, 35.9997279]]]}, "properties": {"osm_id": 1235079088, "building": "yes", "name": "", "height": null, "height_m": null, "levels": null, "tract_id": "40037020602", "tract_name": "206.02", "tags": {"building": "yes", "source": "microsoft/BuildingFootprints"}}}, {"type": "Feature", "geometry": {"type": "Polygon", "coordinates": [[[-96.118725, 36.0001111], [-96.1188911, 36.0001062], [-96.1188857, 35.999987], [-96.1187196, 35.9999919], [-96.118725, 36.0001111]]]}, "properties": {"osm_id": 1235079089, "building": "yes", "name": "", "height": null, "height_m": null, "levels": null, "tract_id": "40037020602", "tract_name": "206.02", "tags": {"building": "yes", "source": "microsoft/BuildingFootprints"}}}, {"type": "Feature", "geometry": {"type": "Polygon", "coordinates": [[[-96.1184521, 35.9990944], [-96.1184227, 35.9990955], [-96.1184252, 35.999141], [-96.1184546, 35.9991399], [-96.1184521, 35.9990944]]]}, "properties": {"osm_id": 1235079090, "building": "yes", "name": "", "height": null, "height_m": null, "levels": null, "tract_id": "40037020602", "tract_name": "206.02", "tags": {"building": "yes", "source": "microsoft/BuildingFootprints"}}}, {"type": "Feature", "geometry": {"type": "Polygon", "coordinates": [[[-96.1184256, 35.9986006], [-96.1184484, 35.9990064], [-96.1184177, 35.9990075], [-96.1184224, 35.9990912], [-96.1184572, 35.9990899], [-96.1184602, 35.999144], [-96.118424, 35.9991454], [-96.118426, 35.99918], [-96.1184634, 35.9991786], [-96.1184665, 35.9992336], [-96.1184519, 35.9992341], [-96.1184555, 35.9992983], [-96.1187472, 35.9992876], [-96.1187406, 35.9991685], [-96.1187846, 35.9991669], [-96.1187786, 35.9990586], [-96.1188267, 35.9990568], [-96.1188023, 35.9986223], [-96.118789, 35.9986228], [-96.118787, 35.9985874], [-96.1184256, 35.9986006]]]}, "properties": {"osm_id": 1235079091, "building": "yes", "name": "", "height": null, "height_m": null, "levels": null, "tract_id": "40037020602", "tract_name": "206.02", "tags": {"building": "yes", "source": "microsoft/BuildingFootprints"}}}, {"type": "Feature", "geometry": {"type": "Polygon", "coordinates": [[[-96.1178931, 35.9992844], [-96.1178987, 35.999447], [-96.118034, 35.999444], [-96.1180308, 35.9993508], [-96.1179879, 35.9993517], [-96.1179855, 35.9992823], [-96.1178931, 35.9992844]]]}, "properties": {"osm_id": 1235079092, "building": "yes", "name": "", "height": null, "height_m": null, "levels": null, "tract_id": "40037020602", "tract_name": "206.02", "tags": {"building": "yes", "source": "microsoft/BuildingFootprints"}}}, {"type": "Feature", "geometry": {"type": "Polygon", "coordinates": [[[-96.1177829, 35.9992781], [-96.1177872, 35.9994408], [-96.1178783, 35.9994392], [-96.1178741, 35.9992766], [-96.1177829, 35.9992781]]]}, "properties": {"osm_id": 1235079093, "building": "yes", "name": "", "height": null, "height_m": null, "levels": null, "tract_id": "40037020602", "tract_name": "206.02", "tags": {"building": "yes", "source": "microsoft/BuildingFootprints"}}}, {"type": "Feature", "geometry": {"type": "Polygon", "coordinates": [[[-96.1175514, 35.9993056], [-96.1175517, 35.9992752], [-96.1175061, 35.9992749], [-96.1175047, 35.9994007], [-96.1174846, 35.9994006], [-96.1174841, 35.9994461], [-96.1176383, 35.9994473], [-96.1176399, 35.9993063], [-96.1175514, 35.9993056]]]}, "properties": {"osm_id": 1235079094, "building": "yes", "name": "", "height": null, "height_m": null, "levels": null, "tract_id": "40037020602", "tract_name": "206.02", "tags": {"building": "yes", "source": "microsoft/BuildingFootprints"}}}, {"type": "Feature", "geometry": {"type": "Polygon", "coordinates": [[[-96.1171618, 35.9994575], [-96.1173508, 35.9994546], [-96.1173489, 35.9993765], [-96.1174294, 35.9993752], [-96.1174281, 35.9993223], [-96.1173423, 35.9993236], [-96.1173431, 35.9993549], [-96.1171595, 35.9993577], [-96.1171618, 35.9994575]]]}, "properties": {"osm_id": 1235079095, "building": "yes", "name": "", "height": null, "height_m": null, "levels": null, "tract_id": "40037020602", "tract_name": "206.02", "tags": {"building": "yes", "source": "microsoft/BuildingFootprints"}}}, {"type": "Feature", "geometry": {"type": "Polygon", "coordinates": [[[-96.1173362, 35.9992024], [-96.117162, 35.9992071], [-96.1171663, 35.9993102], [-96.1173404, 35.9993055], [-96.1173362, 35.9992024]]]}, "properties": {"osm_id": 1235079096, "building": "yes", "name": "", "height": null, "height_m": null, "levels": null, "tract_id": "40037020602", "tract_name": "206.02", "tags": {"building": "yes", "source": "microsoft/BuildingFootprints"}}}, {"type": "Feature", "geometry": {"type": "Polygon", "coordinates": [[[-96.1171785, 35.9991883], [-96.1173285, 35.9991848], [-96.117326, 35.9991141], [-96.1172643, 35.9991156], [-96.1172627, 35.99907], [-96.1171742, 35.9990721], [-96.1171785, 35.9991883]]]}, "properties": {"osm_id": 1235079097, "building": "yes", "name": "", "height": null, "height_m": null, "levels": null, "tract_id": "40037020602", "tract_name": "206.02", "tags": {"building": "yes", "source": "microsoft/BuildingFootprints"}}}, {"type": "Feature", "geometry": {"type": "Polygon", "coordinates": [[[-96.1141792, 35.9743637], [-96.1148998, 35.9743607], [-96.1149025, 35.9747856], [-96.1147856, 35.9747861], [-96.1147862, 35.9748802], [-96.1147509, 35.9748804], [-96.1147516, 35.9749921], [-96.1141832, 35.9749945], [-96.1141792, 35.9743637]]]}, "properties": {"osm_id": 1261915492, "building": "retail", "name": "Price Mart", "height": null, "height_m": null, "levels": null, "tract_id": "40037020602", "tract_name": "206.02", "tags": {"addr:city": "Sapulpa", "addr:housenumber": "2020", "addr:postcode": "74066", "addr:street": "South Main Street", "building": "retail", "name": "Price Mart", "operator": "Doc's Foods", "shop": "supermarket"}}}, {"type": "Feature", "geometry": {"type": "Polygon", "coordinates": [[[-96.1209405, 35.97799], [-96.1205918, 35.9779889], [-96.1205931, 35.9777316], [-96.1209417, 35.9777328], [-96.1209405, 35.97799]]]}, "properties": {"osm_id": 1336821132, "building": "commercial", "name": "Creek County Health Department", "height": null, "height_m": null, "levels": null, "tract_id": "40037020602", "tract_name": "206.02", "tags": {"addr:city": "Sapulpa", "addr:housenumber": "1808", "addr:postcode": "74066-6219", "addr:street": "South Hickory Street", "amenity": "health_post", "building": "commercial", "fax": "+1 918 224 1739", "fixme": "Verify this is the correct building. I guessed where the address is.", "healthcare": "nurse", "name": "Creek County Health Department", "opening_hours": "Mo-Fr 08:00-17:00; PH off", "operator": "Oklahoma State Department of Health", "phone": "+1 918 224 5531", "website": "https://oklahoma.gov/health.html"}}}, {"type": "Feature", "geometry": {"type": "Polygon", "coordinates": [[[-96.1147212, 35.9957413], [-96.1147512, 35.996237], [-96.1145298, 35.9962458], [-96.1145024, 35.9957956], [-96.114559, 35.9957934], [-96.1145563, 35.9957478], [-96.1147212, 35.9957413]]]}, "properties": {"osm_id": 1364382520, "building": "yes", "name": "", "height": null, "height_m": null, "levels": null, "tract_id": "40037020602", "tract_name": "206.02", "tags": {"building": "yes"}}}]}