{"type": "FeatureCollection", "features": [{"type": "Feature", "geometry": {"type": "Polygon", "coordinates": [[[-94.7294871, 36.8025474], [-94.7294881, 36.8027043], [-94.7296291, 36.8027037], [-94.7296294, 36.8027444], [-94.7300017, 36.8027428], [-94.7300024, 36.802847], [-94.730078, 36.8028467], [-94.7300782, 36.8028668], [-94.7305811, 36.8028645], [-94.7305809, 36.8028354], [-94.7306568, 36.8028351], [-94.7307388, 36.8029006], [-94.7307205, 36.8029153], [-94.7309307, 36.8030833], [-94.7308892, 36.8031166], [-94.7309094, 36.8031328], [-94.7308644, 36.8031688], [-94.7308508, 36.803158], [-94.7307682, 36.8032242], [-94.7305677, 36.8030639], [-94.730019, 36.8030664], [-94.7300191, 36.8030833], [-94.7299214, 36.8030837], [-94.7299221, 36.8031944], [-94.7298887, 36.8032032], [-94.7298255, 36.8032036], [-94.7297983, 36.8031945], [-94.7297958, 36.8030758], [-94.729746, 36.8030765], [-94.7297447, 36.8030131], [-94.7296243, 36.8030147], [-94.7296999, 36.8030735], [-94.7296438, 36.8031197], [-94.7296245, 36.8031047], [-94.7295047, 36.8032034], [-94.7295719, 36.8032263], [-94.7295254, 36.8033136], [-94.7294048, 36.8032724], [-94.7293525, 36.8033707], [-94.7292894, 36.803408], [-94.7292112, 36.8034238], [-94.7291353, 36.8034116], [-94.7290747, 36.8033814], [-94.7290293, 36.8033358], [-94.7290027, 36.8032843], [-94.7288369, 36.8033392], [-94.7287236, 36.8031199], [-94.728364, 36.803121], [-94.7283626, 36.8028053], [-94.7284412, 36.802805], [-94.7284409, 36.8027372], [-94.7284795, 36.8027371], [-94.7284793, 36.8027093], [-94.7289141, 36.8027076], [-94.7289132, 36.8025497], [-94.7294871, 36.8025474]]]}, "properties": {"osm_id": 396623286, "building": "yes", "name": "River Bend Casino Hotel", "height": null, "height_m": null, "levels": null, "tract_id": "40115574900", "tract_name": "5749", "tags": {"addr:city": "WYANDOTTE", "addr:housenumber": "100", "addr:postcode": "74370", "addr:state": "OK", "addr:street": "Jackpot Place", "alcohol": "yes", "amenity": "casino", "bar": "yes", "building": "yes", "check_date": "2024-10-04", "food": "yes", "layer": "1", "name": "River Bend Casino Hotel", "opening_hours": "24/7", "operator": "Wyandote Nation", "restaurant": "yes", "smoking": "isolated", "tourism": "hotel", "website": "https://www.riverbendcasino.com/"}}}, {"type": "Feature", "geometry": {"type": "Polygon", "coordinates": [[[-94.6259574, 36.8251909], [-94.6260056, 36.8258865], [-94.6272234, 36.8258178], [-94.627218, 36.8256718], [-94.6274406, 36.8256589], [-94.6273387, 36.8249826], [-94.626074, 36.8250801], [-94.6259574, 36.8251909]]]}, "properties": {"osm_id": 434416751, "building": "yes", "name": "Indigo Sky Casino", "height": null, "height_m": null, "levels": null, "tract_id": "40115574900", "tract_name": "5749", "tags": {"addr:city": "Wyandotte", "addr:country": "US", "addr:housenumber": "70220", "addr:postcode": "74370", "addr:state": "OK", "addr:street": "East US 60", "amenity": "casino", "building": "yes", "name": "Indigo Sky Casino"}}}, {"type": "Feature", "geometry": {"type": "Polygon", "coordinates": [[[-94.6259574, 36.8251909], [-94.6254799, 36.8248688], [-94.6255966, 36.824758], [-94.626074, 36.8250801], [-94.6259574, 36.8251909]]]}, "properties": {"osm_id": 434416752, "building": "yes", "name": "Indigo Sky Hotel", "height": null, "height_m": null, "levels": null, "tract_id": "40115574900", "tract_name": "5749", "tags": {"building": "yes", "name": "Indigo Sky Hotel", "tourism": "hotel"}}}, {"type": "Feature", "geometry": {"type": "Polygon", "coordinates": [[[-94.7158312, 36.7764531], [-94.715826, 36.7762537], [-94.7157577, 36.7762549], [-94.715762, 36.7764189], [-94.7157446, 36.7764192], [-94.7157453, 36.7764477], [-94.7157716, 36.7764472], [-94.7157718, 36.7764541], [-94.7158312, 36.7764531]]]}, "properties": {"osm_id": 986684476, "building": "yes", "name": "", "height": null, "height_m": null, "levels": null, "tract_id": "40115574900", "tract_name": "5749", "tags": {"building": "yes"}}}, {"type": "Feature", "geometry": {"type": "Polygon", "coordinates": [[[-94.7159613, 36.7766196], [-94.7157557, 36.7766206], [-94.7157555, 36.7765824], [-94.7158567, 36.7765819], [-94.7158564, 36.7765523], [-94.7159217, 36.776552], [-94.715922, 36.776586], [-94.715961, 36.7765858], [-94.7159613, 36.7766196]]]}, "properties": {"osm_id": 986684477, "building": "yes", "name": "", "height": null, "height_m": null, "levels": null, "tract_id": "40115574900", "tract_name": "5749", "tags": {"building": "yes"}}}, {"type": "Feature", "geometry": {"type": "Polygon", "coordinates": [[[-94.688234, 36.8019177], [-94.6882199, 36.8018073], [-94.6879399, 36.8018269], [-94.6879421, 36.8018835], [-94.6879575, 36.801945], [-94.688234, 36.8019177]]]}, "properties": {"osm_id": 1055458968, "building": "barn", "name": "William's", "height": null, "height_m": 3.0, "levels": 1, "tract_id": "40115574900", "tract_name": "5749", "tags": {"addr:city": "Wyandotte", "addr:postcode": "74354", "addr:state": "OK", "building": "barn", "building:levels": "1", "name": "William's"}}}, {"type": "Feature", "geometry": {"type": "Polygon", "coordinates": [[[-94.6874165, 36.8050032], [-94.6874106, 36.8049572], [-94.6874085, 36.8049077], [-94.6875319, 36.8049076], [-94.6875314, 36.8050029], [-94.6874165, 36.8050032]]]}, "properties": {"osm_id": 1055460012, "building": "yes", "name": "Old Lean-To", "height": null, "height_m": null, "levels": null, "tract_id": "40115574900", "tract_name": "5749", "tags": {"amenity": "shelter", "building": "yes", "name": "Old Lean-To", "shelter_type": "lean_to"}}}, {"type": "Feature", "geometry": {"type": "Polygon", "coordinates": [[[-94.6298363, 36.8688874], [-94.6298369, 36.8688191], [-94.629511, 36.8688172], [-94.6295104, 36.8688855], [-94.6298363, 36.8688874]]]}, "properties": {"osm_id": 1081291461, "building": "roof", "name": "", "height": null, "height_m": null, "levels": null, "tract_id": "40115574900", "tract_name": "5749", "tags": {"building": "roof"}}}, {"type": "Feature", "geometry": {"type": "Polygon", "coordinates": [[[-94.6314074, 36.8678597], [-94.6314074, 36.867827], [-94.6313162, 36.867827], [-94.6313162, 36.8678597], [-94.6314074, 36.8678597]]]}, "properties": {"osm_id": 1081291462, "building": "yes", "name": "", "height": null, "height_m": null, "levels": null, "tract_id": "40115574900", "tract_name": "5749", "tags": {"building": "yes"}}}, {"type": "Feature", "geometry": {"type": "Polygon", "coordinates": [[[-94.6312603, 36.8677787], [-94.6312603, 36.8677261], [-94.6311732, 36.8677261], [-94.6311732, 36.8677787], [-94.6312603, 36.8677787]]]}, "properties": {"osm_id": 1081291463, "building": "yes", "name": "", "height": null, "height_m": null, "levels": null, "tract_id": "40115574900", "tract_name": "5749", "tags": {"building": "yes"}}}, {"type": "Feature", "geometry": {"type": "Polygon", "coordinates": [[[-94.6312389, 36.8678914], [-94.6312389, 36.8678087], [-94.631094, 36.8678087], [-94.631094, 36.8678914], [-94.6312389, 36.8678914]]]}, "properties": {"osm_id": 1081291464, "building": "yes", "name": "", "height": null, "height_m": null, "levels": null, "tract_id": "40115574900", "tract_name": "5749", "tags": {"building": "yes"}}}, {"type": "Feature", "geometry": {"type": "Polygon", "coordinates": [[[-94.6194949, 36.8682732], [-94.6194862, 36.8681859], [-94.6193521, 36.8681945], [-94.6193608, 36.8682818], [-94.6194949, 36.8682732]]]}, "properties": {"osm_id": 1081291465, "building": "yes", "name": "", "height": null, "height_m": null, "levels": null, "tract_id": "40115574900", "tract_name": "5749", "tags": {"building": "yes"}}}, {"type": "Feature", "geometry": {"type": "Polygon", "coordinates": [[[-94.6190265, 36.8686431], [-94.6190765, 36.8684763], [-94.6187413, 36.8684119], [-94.6186912, 36.8685787], [-94.6190265, 36.8686431]]]}, "properties": {"osm_id": 1081291466, "building": "yes", "name": "", "height": null, "height_m": null, "levels": null, "tract_id": "40115574900", "tract_name": "5749", "tags": {"building": "yes", "shop": "yes"}}}, {"type": "Feature", "geometry": {"type": "Polygon", "coordinates": [[[-94.6307226, 36.8641629], [-94.6305679, 36.8640631], [-94.6301991, 36.864429], [-94.6303538, 36.8645288], [-94.6307226, 36.8641629]]]}, "properties": {"osm_id": 1081291469, "building": "yes", "name": "", "height": null, "height_m": null, "levels": null, "tract_id": "40115574900", "tract_name": "5749", "tags": {"building": "yes"}}}, {"type": "Feature", "geometry": {"type": "Polygon", "coordinates": [[[-94.631066, 36.8668098], [-94.6310198, 36.8668754], [-94.6309197, 36.8668301], [-94.6308749, 36.8668936], [-94.6305204, 36.8667335], [-94.6306136, 36.8666015], [-94.6307007, 36.8666408], [-94.630753, 36.8665668], [-94.6309291, 36.8666463], [-94.6308747, 36.8667234], [-94.631066, 36.8668098]]]}, "properties": {"osm_id": 1081291470, "building": "yes", "name": "", "height": null, "height_m": null, "levels": null, "tract_id": "40115574900", "tract_name": "5749", "tags": {"building": "yes"}}}, {"type": "Feature", "geometry": {"type": "Polygon", "coordinates": [[[-94.63123, 36.8664689], [-94.6311453, 36.8664306], [-94.6312406, 36.8662957], [-94.6312284, 36.8662902], [-94.6311022, 36.8662331], [-94.6310058, 36.8663698], [-94.6309921, 36.8663635], [-94.6308283, 36.8665956], [-94.6309404, 36.8666463], [-94.6308874, 36.8667214], [-94.631012, 36.8667777], [-94.63123, 36.8664689]]]}, "properties": {"osm_id": 1081291471, "building": "yes", "name": "", "height": null, "height_m": null, "levels": null, "tract_id": "40115574900", "tract_name": "5749", "tags": {"building": "yes"}}}, {"type": "Feature", "geometry": {"type": "Polygon", "coordinates": [[[-94.6313967, 36.8657876], [-94.6315381, 36.8658515], [-94.6312284, 36.8662902], [-94.6311022, 36.8662331], [-94.6310871, 36.8662263], [-94.6313967, 36.8657876]]]}, "properties": {"osm_id": 1081291472, "building": "yes", "name": "", "height": null, "height_m": null, "levels": null, "tract_id": "40115574900", "tract_name": "5749", "tags": {"building": "yes"}}}, {"type": "Feature", "geometry": {"type": "Polygon", "coordinates": [[[-94.6308686, 36.8657416], [-94.6306395, 36.8656381], [-94.6304907, 36.865849], [-94.6307017, 36.8659443], [-94.6307385, 36.8658922], [-94.6307565, 36.8659003], [-94.6308686, 36.8657416]]]}, "properties": {"osm_id": 1081291473, "building": "yes", "name": "", "height": null, "height_m": null, "levels": null, "tract_id": "40115574900", "tract_name": "5749", "tags": {"building": "yes"}}}, {"type": "Feature", "geometry": {"type": "Polygon", "coordinates": [[[-94.6308559, 36.8684847], [-94.6307933, 36.8685324], [-94.6307286, 36.868478], [-94.6307819, 36.8684373], [-94.6307842, 36.868195], [-94.6311329, 36.8681971], [-94.6311307, 36.8684314], [-94.631186, 36.8684779], [-94.6311173, 36.8685303], [-94.6310645, 36.868486], [-94.631031, 36.8684858], [-94.6310304, 36.8685549], [-94.6308868, 36.868554], [-94.6308875, 36.8684849], [-94.6308559, 36.8684847]]]}, "properties": {"osm_id": 1081291474, "building": "yes", "name": "", "height": null, "height_m": null, "levels": null, "tract_id": "40115574900", "tract_name": "5749", "tags": {"building": "yes"}}}, {"type": "Feature", "geometry": {"type": "Polygon", "coordinates": [[[-94.6297529, 36.8673538], [-94.6295315, 36.8673515], [-94.6295369, 36.8670243], [-94.6296764, 36.8670257], [-94.6296763, 36.8670337], [-94.6297582, 36.8670346], [-94.6297529, 36.8673538]]]}, "properties": {"osm_id": 1081291475, "building": "yes", "name": "", "height": null, "height_m": null, "levels": null, "tract_id": "40115574900", "tract_name": "5749", "tags": {"building": "yes"}}}, {"type": "Feature", "geometry": {"type": "Polygon", "coordinates": [[[-94.6297301, 36.8677873], [-94.62948, 36.8677891], [-94.6294773, 36.8675477], [-94.6297275, 36.8675459], [-94.6297301, 36.8677873]]]}, "properties": {"osm_id": 1081291476, "building": "yes", "name": "", "height": null, "height_m": null, "levels": null, "tract_id": "40115574900", "tract_name": "5749", "tags": {"building": "yes"}}}, {"type": "Feature", "geometry": {"type": "Polygon", "coordinates": [[[-94.6297516, 36.8686864], [-94.6297529, 36.868542], [-94.6297275, 36.8685419], [-94.629728, 36.8684774], [-94.6293995, 36.8684755], [-94.6293987, 36.8685647], [-94.6293798, 36.8685645], [-94.6293788, 36.8686842], [-94.6297516, 36.8686864]]]}, "properties": {"osm_id": 1081291477, "building": "yes", "name": "", "height": null, "height_m": null, "levels": null, "tract_id": "40115574900", "tract_name": "5749", "tags": {"building": "yes"}}}, {"type": "Feature", "geometry": {"type": "Polygon", "coordinates": [[[-94.7269049, 36.8026941], [-94.7269082, 36.8024916], [-94.7265112, 36.8024894], [-94.7265071, 36.8026944], [-94.7266542, 36.8026928], [-94.7266595, 36.8027089], [-94.7267999, 36.8027095], [-94.7268033, 36.8026935], [-94.7269049, 36.8026941]]]}, "properties": {"osm_id": 1081291679, "building": "yes", "name": "", "height": null, "height_m": null, "levels": null, "tract_id": "40115574900", "tract_name": "5749", "tags": {"building": "yes"}}}, {"type": "Feature", "geometry": {"type": "Polygon", "coordinates": [[[-94.7259745, 36.8042681], [-94.725961, 36.8040565], [-94.7261097, 36.8040504], [-94.7261112, 36.8040732], [-94.7263808, 36.8040622], [-94.7263929, 36.8042509], [-94.7259745, 36.8042681]]]}, "properties": {"osm_id": 1081291680, "building": "yes", "name": "Turtle Stop", "height": null, "height_m": null, "levels": null, "tract_id": "40115574900", "tract_name": "5749", "tags": {"addr:city": "Wyandotte", "addr:housenumber": "64499", "addr:postcode": "74370", "addr:state": "OK", "addr:street": "US-60", "building": "yes", "contact:facebook": "https://www.facebook.com/TurtleStops", "name": "Turtle Stop", "operator": "Wyandotte Nation", "shop": "convenience"}}}, {"type": "Feature", "geometry": {"type": "Polygon", "coordinates": [[[-94.698786, 36.8203215], [-94.6987819, 36.82003], [-94.698626, 36.8200314], [-94.6986271, 36.8201058], [-94.6985941, 36.8201061], [-94.6985944, 36.8201319], [-94.6986315, 36.8201316], [-94.6986323, 36.82019], [-94.6985102, 36.8201911], [-94.6985107, 36.8202247], [-94.6984353, 36.8202254], [-94.6984362, 36.8202926], [-94.6985112, 36.8202919], [-94.6985116, 36.8203201], [-94.6985516, 36.8203197], [-94.6985531, 36.8204253], [-94.6986993, 36.820424], [-94.6986978, 36.8203223], [-94.698786, 36.8203215]]]}, "properties": {"osm_id": 1146993444, "building": "yes", "name": "Wayside Assembly of God", "height": null, "height_m": null, "levels": null, "tract_id": "40115574900", "tract_name": "5749", "tags": {"addr:city": "Wyandotte", "addr:housenumber": "13503", "addr:postcode": "74370", "addr:state": "OK", "addr:street": "OK 10", "amenity": "place_of_worship", "building": "yes", "ele": "273", "gnis:feature_id": "1099448", "name": "Wayside Assembly of God", "religion": "christian", "wikidata": "Q116806980"}}}, {"type": "Feature", "geometry": {"type": "Polygon", "coordinates": [[[-94.6990883, 36.8211119], [-94.6990875, 36.8210367], [-94.6988887, 36.821038], [-94.6988895, 36.8211122], [-94.6989571, 36.8211118], [-94.6989573, 36.8211239], [-94.6990229, 36.8211235], [-94.6990227, 36.8211124], [-94.6990883, 36.8211119]]]}, "properties": {"osm_id": 1146993898, "building": "house", "name": "", "height": null, "height_m": null, "levels": null, "tract_id": "40115574900", "tract_name": "5749", "tags": {"building": "house"}}}, {"type": "Feature", "geometry": {"type": "Polygon", "coordinates": [[[-94.6986112, 36.8211058], [-94.6986104, 36.8210306], [-94.6984116, 36.8210319], [-94.6984124, 36.8211061], [-94.6984801, 36.8211057], [-94.6984802, 36.8211178], [-94.6985458, 36.8211174], [-94.6985457, 36.8211063], [-94.6986112, 36.8211058]]]}, "properties": {"osm_id": 1146993899, "building": "house", "name": "", "height": null, "height_m": null, "levels": null, "tract_id": "40115574900", "tract_name": "5749", "tags": {"building": "house"}}}, {"type": "Feature", "geometry": {"type": "Polygon", "coordinates": [[[-94.699667, 36.8211058], [-94.6996662, 36.8210306], [-94.6994674, 36.8210319], [-94.6994682, 36.8211061], [-94.6995358, 36.8211057], [-94.699536, 36.8211178], [-94.6996016, 36.8211174], [-94.6996014, 36.8211063], [-94.699667, 36.8211058]]]}, "properties": {"osm_id": 1146993900, "building": "house", "name": "", "height": null, "height_m": null, "levels": null, "tract_id": "40115574900", "tract_name": "5749", "tags": {"building": "house"}}}, {"type": "Feature", "geometry": {"type": "Polygon", "coordinates": [[[-94.6994598, 36.8214017], [-94.6994606, 36.8214769], [-94.6996594, 36.8214756], [-94.6996587, 36.8214014], [-94.699591, 36.8214019], [-94.6995909, 36.8213897], [-94.6995253, 36.8213902], [-94.6995254, 36.8214013], [-94.6994598, 36.8214017]]]}, "properties": {"osm_id": 1146993901, "building": "house", "name": "", "height": null, "height_m": null, "levels": null, "tract_id": "40115574900", "tract_name": "5749", "tags": {"building": "house"}}}, {"type": "Feature", "geometry": {"type": "Polygon", "coordinates": [[[-94.6988982, 36.8214058], [-94.698899, 36.8214811], [-94.6990978, 36.8214798], [-94.699097, 36.8214056], [-94.6990293, 36.821406], [-94.6990292, 36.8213939], [-94.6989636, 36.8213943], [-94.6989637, 36.8214054], [-94.6988982, 36.8214058]]]}, "properties": {"osm_id": 1146993902, "building": "house", "name": "", "height": null, "height_m": null, "levels": null, "tract_id": "40115574900", "tract_name": "5749", "tags": {"building": "house"}}}, {"type": "Feature", "geometry": {"type": "Polygon", "coordinates": [[[-94.6983886, 36.8214012], [-94.6983894, 36.8214765], [-94.6985882, 36.8214752], [-94.6985874, 36.8214009], [-94.6985197, 36.8214014], [-94.6985196, 36.8213893], [-94.698454, 36.8213897], [-94.6984541, 36.8214008], [-94.6983886, 36.8214012]]]}, "properties": {"osm_id": 1146993903, "building": "house", "name": "", "height": null, "height_m": null, "levels": null, "tract_id": "40115574900", "tract_name": "5749", "tags": {"building": "house"}}}, {"type": "Feature", "geometry": {"type": "Polygon", "coordinates": [[[-94.6187038, 36.8660876], [-94.618576, 36.8660897], [-94.6185779, 36.8661674], [-94.6186047, 36.866167], [-94.6186052, 36.8661892], [-94.6186807, 36.866188], [-94.6186801, 36.8661644], [-94.6187057, 36.866164], [-94.6187038, 36.8660876]]]}, "properties": {"osm_id": 1305746342, "building": "house", "name": "", "height": null, "height_m": null, "levels": null, "tract_id": "40115574900", "tract_name": "5749", "tags": {"building": "house"}}}, {"type": "Feature", "geometry": {"type": "Polygon", "coordinates": [[[-94.6188578, 36.8660859], [-94.61873, 36.866088], [-94.618732, 36.8661658], [-94.6187587, 36.8661653], [-94.6187593, 36.8661875], [-94.6188347, 36.8661863], [-94.6188342, 36.8661627], [-94.6188598, 36.8661623], [-94.6188578, 36.8660859]]]}, "properties": {"osm_id": 1305746343, "building": "house", "name": "", "height": null, "height_m": null, "levels": null, "tract_id": "40115574900", "tract_name": "5749", "tags": {"building": "house"}}}, {"type": "Feature", "geometry": {"type": "Polygon", "coordinates": [[[-94.619015, 36.8660872], [-94.6188871, 36.8660892], [-94.6188891, 36.866167], [-94.6189158, 36.8661666], [-94.6189164, 36.8661888], [-94.6189919, 36.8661876], [-94.6189913, 36.866164], [-94.6190169, 36.8661635], [-94.619015, 36.8660872]]]}, "properties": {"osm_id": 1305746344, "building": "house", "name": "", "height": null, "height_m": null, "levels": null, "tract_id": "40115574900", "tract_name": "5749", "tags": {"building": "house"}}}, {"type": "Feature", "geometry": {"type": "Polygon", "coordinates": [[[-94.6191713, 36.8660865], [-94.6190435, 36.8660886], [-94.6190455, 36.8661664], [-94.6190722, 36.8661659], [-94.6190727, 36.8661882], [-94.6191482, 36.866187], [-94.6191476, 36.8661633], [-94.6191732, 36.8661629], [-94.6191713, 36.8660865]]]}, "properties": {"osm_id": 1305746345, "building": "house", "name": "", "height": null, "height_m": null, "levels": null, "tract_id": "40115574900", "tract_name": "5749", "tags": {"building": "house"}}}, {"type": "Feature", "geometry": {"type": "Polygon", "coordinates": [[[-94.6193269, 36.8660878], [-94.6191991, 36.8660898], [-94.6192011, 36.8661676], [-94.6192278, 36.8661672], [-94.6192283, 36.8661894], [-94.6193038, 36.8661882], [-94.6193032, 36.8661646], [-94.6193288, 36.8661642], [-94.6193269, 36.8660878]]]}, "properties": {"osm_id": 1305746346, "building": "house", "name": "", "height": null, "height_m": null, "levels": null, "tract_id": "40115574900", "tract_name": "5749", "tags": {"building": "house"}}}, {"type": "Feature", "geometry": {"type": "Polygon", "coordinates": [[[-94.6194871, 36.8660859], [-94.6193593, 36.866088], [-94.6193613, 36.8661658], [-94.619388, 36.8661653], [-94.6193886, 36.8661875], [-94.619464, 36.8661863], [-94.6194635, 36.8661627], [-94.6194891, 36.8661623], [-94.6194871, 36.8660859]]]}, "properties": {"osm_id": 1305746347, "building": "house", "name": "", "height": null, "height_m": null, "levels": null, "tract_id": "40115574900", "tract_name": "5749", "tags": {"building": "house"}}}, {"type": "Feature", "geometry": {"type": "Polygon", "coordinates": [[[-94.6196419, 36.8660853], [-94.6195141, 36.8660874], [-94.6195161, 36.8661651], [-94.6195428, 36.8661647], [-94.6195434, 36.8661869], [-94.6196189, 36.8661857], [-94.6196183, 36.8661621], [-94.6196439, 36.8661617], [-94.6196419, 36.8660853]]]}, "properties": {"osm_id": 1305746348, "building": "house", "name": "", "height": null, "height_m": null, "levels": null, "tract_id": "40115574900", "tract_name": "5749", "tags": {"building": "house"}}}, {"type": "Feature", "geometry": {"type": "Polygon", "coordinates": [[[-94.6197975, 36.8660872], [-94.6196697, 36.8660892], [-94.6196717, 36.866167], [-94.6196984, 36.8661666], [-94.619699, 36.8661888], [-94.6197745, 36.8661876], [-94.6197739, 36.866164], [-94.6197995, 36.8661635], [-94.6197975, 36.8660872]]]}, "properties": {"osm_id": 1305746349, "building": "house", "name": "", "height": null, "height_m": null, "levels": null, "tract_id": "40115574900", "tract_name": "5749", "tags": {"building": "house"}}}, {"type": "Feature", "geometry": {"type": "Polygon", "coordinates": [[[-94.6199539, 36.8660872], [-94.6198859, 36.8660883], [-94.6198261, 36.8660892], [-94.619828, 36.866167], [-94.6198548, 36.8661666], [-94.6198553, 36.8661888], [-94.6199308, 36.8661876], [-94.6199302, 36.866164], [-94.6199558, 36.8661635], [-94.6199539, 36.8660872]]]}, "properties": {"osm_id": 1305746350, "building": "house", "name": "", "height": null, "height_m": null, "levels": null, "tract_id": "40115574900", "tract_name": "5749", "tags": {"building": "house"}}}, {"type": "Feature", "geometry": {"type": "Polygon", "coordinates": [[[-94.620111, 36.8660859], [-94.6199832, 36.866088], [-94.6199852, 36.8661658], [-94.6200119, 36.8661653], [-94.6200125, 36.8661875], [-94.620088, 36.8661863], [-94.6200874, 36.8661627], [-94.620113, 36.8661623], [-94.620111, 36.8660859]]]}, "properties": {"osm_id": 1305746351, "building": "house", "name": "", "height": null, "height_m": null, "levels": null, "tract_id": "40115574900", "tract_name": "5749", "tags": {"building": "house"}}}, {"type": "Feature", "geometry": {"type": "Polygon", "coordinates": [[[-94.6200605, 36.8659267], [-94.6199123, 36.8659284], [-94.6199102, 36.8658131], [-94.6200585, 36.8658114], [-94.6200605, 36.8659267]]]}, "properties": {"osm_id": 1305746352, "building": "construction", "name": "", "height": null, "height_m": null, "levels": null, "tract_id": "40115574900", "tract_name": "5749", "tags": {"building": "construction"}}}, {"type": "Feature", "geometry": {"type": "Polygon", "coordinates": [[[-94.6187784, 36.8657827], [-94.6186499, 36.8657847], [-94.6186481, 36.8657092], [-94.6186777, 36.8657088], [-94.6186771, 36.8656828], [-94.6187491, 36.8656817], [-94.6187497, 36.8657087], [-94.6187767, 36.8657083], [-94.6187784, 36.8657827]]]}, "properties": {"osm_id": 1305746353, "building": "house", "name": "", "height": null, "height_m": null, "levels": null, "tract_id": "40115574900", "tract_name": "5749", "tags": {"building": "house"}}}, {"type": "Feature", "geometry": {"type": "Polygon", "coordinates": [[[-94.6189361, 36.8657823], [-94.6188076, 36.8657842], [-94.6188058, 36.8657088], [-94.6188354, 36.8657084], [-94.6188348, 36.8656824], [-94.6189068, 36.8656813], [-94.6189074, 36.8657083], [-94.6189344, 36.8657079], [-94.6189361, 36.8657823]]]}, "properties": {"osm_id": 1305746354, "building": "house", "name": "", "height": null, "height_m": null, "levels": null, "tract_id": "40115574900", "tract_name": "5749", "tags": {"building": "house"}}}, {"type": "Feature", "geometry": {"type": "Polygon", "coordinates": [[[-94.6190925, 36.8657823], [-94.618964, 36.8657842], [-94.6189622, 36.8657088], [-94.6189918, 36.8657084], [-94.6189911, 36.8656824], [-94.6190631, 36.8656813], [-94.6190638, 36.8657083], [-94.6190907, 36.8657079], [-94.6190925, 36.8657823]]]}, "properties": {"osm_id": 1305746355, "building": "house", "name": "", "height": null, "height_m": null, "levels": null, "tract_id": "40115574900", "tract_name": "5749", "tags": {"building": "house"}}}, {"type": "Feature", "geometry": {"type": "Polygon", "coordinates": [[[-94.6192535, 36.8657835], [-94.619125, 36.8657855], [-94.6191232, 36.86571], [-94.6191528, 36.8657096], [-94.6191521, 36.8656837], [-94.6192241, 36.8656825], [-94.6192248, 36.8657095], [-94.6192517, 36.8657091], [-94.6192535, 36.8657835]]]}, "properties": {"osm_id": 1305746356, "building": "house", "name": "", "height": null, "height_m": null, "levels": null, "tract_id": "40115574900", "tract_name": "5749", "tags": {"building": "house"}}}, {"type": "Feature", "geometry": {"type": "Polygon", "coordinates": [[[-94.6194129, 36.8657835], [-94.6192844, 36.8657855], [-94.6192826, 36.86571], [-94.6193122, 36.8657096], [-94.6193116, 36.8656837], [-94.6193836, 36.8656825], [-94.6193842, 36.8657095], [-94.6194112, 36.8657091], [-94.6194129, 36.8657835]]]}, "properties": {"osm_id": 1305746357, "building": "house", "name": "", "height": null, "height_m": null, "levels": null, "tract_id": "40115574900", "tract_name": "5749", "tags": {"building": "house"}}}, {"type": "Feature", "geometry": {"type": "Polygon", "coordinates": [[[-94.6195662, 36.8657817], [-94.6194377, 36.8657836], [-94.6194359, 36.8657082], [-94.6194655, 36.8657077], [-94.6194649, 36.8656818], [-94.6195368, 36.8656807], [-94.6195375, 36.8657077], [-94.6195645, 36.8657073], [-94.6195662, 36.8657817]]]}, "properties": {"osm_id": 1305746358, "building": "house", "name": "", "height": null, "height_m": null, "levels": null, "tract_id": "40115574900", "tract_name": "5749", "tags": {"building": "house"}}}, {"type": "Feature", "geometry": {"type": "Polygon", "coordinates": [[[-94.619721, 36.8657823], [-94.6195925, 36.8657842], [-94.6195907, 36.8657088], [-94.6196203, 36.8657084], [-94.6196197, 36.8656824], [-94.6196917, 36.8656813], [-94.6196923, 36.8657083], [-94.6197193, 36.8657079], [-94.619721, 36.8657823]]]}, "properties": {"osm_id": 1305746359, "building": "house", "name": "", "height": null, "height_m": null, "levels": null, "tract_id": "40115574900", "tract_name": "5749", "tags": {"building": "house"}}}, {"type": "Feature", "geometry": {"type": "Polygon", "coordinates": [[[-94.6198782, 36.8657811], [-94.6197497, 36.865783], [-94.6197479, 36.8657076], [-94.6197774, 36.8657071], [-94.6197768, 36.8656812], [-94.6198488, 36.8656801], [-94.6198494, 36.8657071], [-94.6198764, 36.8657067], [-94.6198782, 36.8657811]]]}, "properties": {"osm_id": 1305746360, "building": "house", "name": "", "height": null, "height_m": null, "levels": null, "tract_id": "40115574900", "tract_name": "5749", "tags": {"building": "house"}}}, {"type": "Feature", "geometry": {"type": "Polygon", "coordinates": [[[-94.6201976, 36.8667646], [-94.619837, 36.8667688], [-94.6198341, 36.8666128], [-94.6201948, 36.8666085], [-94.6201976, 36.8667646]]]}, "properties": {"osm_id": 1305746380, "building": "yes", "name": "", "height": null, "height_m": null, "levels": null, "tract_id": "40115574900", "tract_name": "5749", "tags": {"building": "yes", "shop": "yes"}}}, {"type": "Feature", "geometry": {"type": "Polygon", "coordinates": [[[-94.6195116, 36.8668134], [-94.6192501, 36.8668152], [-94.6192419, 36.8666415], [-94.6195022, 36.8666378], [-94.6195116, 36.8668134]]]}, "properties": {"osm_id": 1305746381, "building": "yes", "name": "", "height": null, "height_m": null, "levels": null, "tract_id": "40115574900", "tract_name": "5749", "tags": {"building": "yes", "shop": "yes"}}}, {"type": "Feature", "geometry": {"type": "Polygon", "coordinates": [[[-94.6190156, 36.8682926], [-94.619001, 36.8681425], [-94.619132, 36.8681344], [-94.6191466, 36.8682844], [-94.6190156, 36.8682926]]]}, "properties": {"osm_id": 1305746382, "building": "house", "name": "", "height": null, "height_m": null, "levels": null, "tract_id": "40115574900", "tract_name": "5749", "tags": {"building": "house"}}}, {"type": "Feature", "geometry": {"type": "Polygon", "coordinates": [[[-94.7264895, 36.8045119], [-94.7263491, 36.8044095], [-94.7259781, 36.8044281], [-94.7261158, 36.8045319], [-94.7264895, 36.8045119]]]}, "properties": {"osm_id": 1321515253, "building": "roof", "name": "", "height": null, "height_m": null, "levels": null, "tract_id": "40115574900", "tract_name": "5749", "tags": {"amenity": "fuel", "building": "roof", "self_service": "yes"}}}, {"type": "Feature", "geometry": {"type": "Polygon", "coordinates": [[[-94.7267023, 36.8042248], [-94.7266951, 36.8041403], [-94.7264001, 36.8042012], [-94.7264028, 36.8042885], [-94.7267023, 36.8042248]]]}, "properties": {"osm_id": 1321515254, "building": "roof", "name": "", "height": null, "height_m": null, "levels": null, "tract_id": "40115574900", "tract_name": "5749", "tags": {"amenity": "fuel", "building": "roof", "fuel:diesel": "yes", "self_service": "yes"}}}, {"type": "Feature", "geometry": {"type": "Polygon", "coordinates": [[[-94.7269534, 36.8044933], [-94.7269507, 36.8042234], [-94.7270785, 36.8042227], [-94.7270803, 36.8043157], [-94.7271107, 36.8043164], [-94.7271116, 36.8044195], [-94.7271483, 36.8044195], [-94.7271474, 36.8044947], [-94.7269534, 36.8044933]]]}, "properties": {"osm_id": 1321515255, "building": "yes", "name": "Turtle Stop Truck/Car Wash", "height": null, "height_m": null, "levels": null, "tract_id": "40115574900", "tract_name": "5749", "tags": {"amenity": "car_wash", "automated": "no", "building": "yes", "name": "Turtle Stop Truck/Car Wash", "operator": "Wyandotte Nation", "self_service": "yes", "truck_wash": "yes"}}}, {"type": "Feature", "geometry": {"type": "Polygon", "coordinates": [[[-94.7250702, 36.8044442], [-94.7250702, 36.804035], [-94.7248041, 36.804035], [-94.7248042, 36.8043687], [-94.7247488, 36.8043687], [-94.7247488, 36.8044442], [-94.7250702, 36.8044442]]]}, "properties": {"osm_id": 1321517453, "building": "yes", "name": "", "height": null, "height_m": null, "levels": null, "tract_id": "40115574900", "tract_name": "5749", "tags": {"building": "yes"}}}, {"type": "Feature", "geometry": {"type": "Polygon", "coordinates": [[[-94.7248613, 36.8057232], [-94.7245466, 36.8057254], [-94.7245431, 36.8054184], [-94.7248578, 36.8054161], [-94.7248613, 36.8057232]]]}, "properties": {"osm_id": 1321517455, "building": "retail", "name": "Dollar Tree", "height": null, "height_m": null, "levels": null, "tract_id": "40115574900", "tract_name": "5749", "tags": {"brand": "Dollar Tree", "brand:wikidata": "Q5289230", "building": "retail", "name": "Dollar Tree", "shop": "variety_store"}}}, {"type": "Feature", "geometry": {"type": "Polygon", "coordinates": [[[-94.7242475, 36.8057486], [-94.7240034, 36.8057451], [-94.7240114, 36.8053922], [-94.7242556, 36.8053958], [-94.7242475, 36.8057486]]]}, "properties": {"osm_id": 1321517456, "building": "retail", "name": "Dollar General", "height": null, "height_m": null, "levels": null, "tract_id": "40115574900", "tract_name": "5749", "tags": {"brand": "Dollar General", "brand:wikidata": "Q145168", "building": "retail", "name": "Dollar General", "shop": "variety_store"}}}, {"type": "Feature", "geometry": {"type": "Polygon", "coordinates": [[[-94.7253844, 36.7958452], [-94.7253837, 36.7959151], [-94.7253895, 36.7959151], [-94.7253889, 36.7959768], [-94.7254756, 36.7959773], [-94.7254757, 36.7959684], [-94.7254962, 36.7959685], [-94.725494, 36.7962058], [-94.7255771, 36.7962063], [-94.7255776, 36.7961578], [-94.7255834, 36.7961578], [-94.725583, 36.7962029], [-94.7257205, 36.7962037], [-94.7257216, 36.7960934], [-94.7255873, 36.7960925], [-94.7255871, 36.7961199], [-94.7255738, 36.7961198], [-94.7255745, 36.7960449], [-94.725635, 36.7960453], [-94.7256355, 36.7959963], [-94.7256026, 36.7959961], [-94.7256036, 36.7958871], [-94.7254916, 36.7958864], [-94.7254913, 36.7959225], [-94.725479, 36.7959225], [-94.7254797, 36.7958458], [-94.7253844, 36.7958452]]]}, "properties": {"osm_id": 1321904786, "building": "yes", "name": "", "height": null, "height_m": null, "levels": null, "tract_id": "40115574900", "tract_name": "5749", "tags": {"building": "yes"}}}, {"type": "Feature", "geometry": {"type": "Polygon", "coordinates": [[[-94.7248743, 36.7951888], [-94.7247232, 36.7951888], [-94.7247233, 36.7949753], [-94.7246142, 36.7949753], [-94.7246142, 36.7949108], [-94.7248744, 36.7949109], [-94.7248743, 36.7951888]]]}, "properties": {"osm_id": 1321904787, "building": "yes", "name": "", "height": null, "height_m": null, "levels": null, "tract_id": "40115574900", "tract_name": "5749", "tags": {"building": "yes"}}}, {"type": "Feature", "geometry": {"type": "Polygon", "coordinates": [[[-94.7248493, 36.7948533], [-94.7248481, 36.7947293], [-94.7250555, 36.7947279], [-94.7250562, 36.7947983], [-94.7250451, 36.7947983], [-94.7250457, 36.7948521], [-94.7248493, 36.7948533]]]}, "properties": {"osm_id": 1321904788, "building": "yes", "name": "", "height": null, "height_m": null, "levels": null, "tract_id": "40115574900", "tract_name": "5749", "tags": {"building": "yes"}}}, {"type": "Feature", "geometry": {"type": "Polygon", "coordinates": [[[-94.7250325, 36.7947227], [-94.7248157, 36.7947223], [-94.7248159, 36.7946728], [-94.7247829, 36.7946727], [-94.7247829, 36.7946453], [-94.7248156, 36.7946453], [-94.7248156, 36.7946399], [-94.7250326, 36.7946402], [-94.7250325, 36.7947227]]]}, "properties": {"osm_id": 1321904789, "building": "yes", "name": "", "height": null, "height_m": null, "levels": null, "tract_id": "40115574900", "tract_name": "5749", "tags": {"building": "yes"}}}, {"type": "Feature", "geometry": {"type": "Polygon", "coordinates": [[[-94.7248195, 36.7948217], [-94.724819, 36.794772], [-94.7247597, 36.7947724], [-94.7247603, 36.7948222], [-94.7248195, 36.7948217]]]}, "properties": {"osm_id": 1321904790, "building": "yes", "name": "", "height": null, "height_m": null, "levels": null, "tract_id": "40115574900", "tract_name": "5749", "tags": {"building": "yes"}}}, {"type": "Feature", "geometry": {"type": "Polygon", "coordinates": [[[-94.7247487, 36.7947653], [-94.72475, 36.7948262], [-94.7246604, 36.7948274], [-94.724659, 36.7947666], [-94.7247487, 36.7947653]]]}, "properties": {"osm_id": 1321904791, "building": "yes", "name": "", "height": null, "height_m": null, "levels": null, "tract_id": "40115574900", "tract_name": "5749", "tags": {"building": "yes"}}}, {"type": "Feature", "geometry": {"type": "Polygon", "coordinates": [[[-94.7250493, 36.7942684], [-94.7247721, 36.7942655], [-94.7247712, 36.7943217], [-94.724634, 36.7943203], [-94.7246307, 36.7945252], [-94.7249959, 36.7945289], [-94.7249964, 36.7944967], [-94.7250281, 36.794497], [-94.725029, 36.7944371], [-94.7249946, 36.7944368], [-94.724995, 36.7944072], [-94.7250498, 36.7944077], [-94.7250505, 36.7943657], [-94.7250682, 36.7943659], [-94.7250691, 36.7943059], [-94.7250487, 36.7943057], [-94.7250493, 36.7942684]]]}, "properties": {"osm_id": 1321904792, "building": "yes", "name": "", "height": null, "height_m": null, "levels": null, "tract_id": "40115574900", "tract_name": "5749", "tags": {"building": "yes"}}}, {"type": "Feature", "geometry": {"type": "Polygon", "coordinates": [[[-94.7249753, 36.7940977], [-94.7248914, 36.7940975], [-94.7248915, 36.7940559], [-94.7247929, 36.7940558], [-94.7247933, 36.7938535], [-94.7248103, 36.7938267], [-94.7250464, 36.7938285], [-94.7250772, 36.7938528], [-94.7250766, 36.7940707], [-94.7250403, 36.7940706], [-94.7250403, 36.7940599], [-94.7249754, 36.7940598], [-94.7249753, 36.7940977]]]}, "properties": {"osm_id": 1321904793, "building": "yes", "name": "", "height": null, "height_m": null, "levels": null, "tract_id": "40115574900", "tract_name": "5749", "tags": {"building": "yes"}}}, {"type": "Feature", "geometry": {"type": "Polygon", "coordinates": [[[-94.7250918, 36.793598], [-94.7250897, 36.7933834], [-94.7250676, 36.7933835], [-94.7250675, 36.7933765], [-94.7250442, 36.7933766], [-94.7250437, 36.7933277], [-94.7250601, 36.7933276], [-94.7250592, 36.7932334], [-94.7249836, 36.7932339], [-94.7249844, 36.793323], [-94.724968, 36.7933231], [-94.7249685, 36.7933757], [-94.7248749, 36.7933763], [-94.7248759, 36.7934856], [-94.7248103, 36.793486], [-94.7248112, 36.793576], [-94.7248238, 36.7935759], [-94.724824, 36.7935997], [-94.7250918, 36.793598]]]}, "properties": {"osm_id": 1321904794, "building": "yes", "name": "", "height": null, "height_m": null, "levels": null, "tract_id": "40115574900", "tract_name": "5749", "tags": {"building": "yes"}}}, {"type": "Feature", "geometry": {"type": "Polygon", "coordinates": [[[-94.7250136, 36.7925736], [-94.7250117, 36.7925094], [-94.7249898, 36.7925098], [-94.7249895, 36.7924993], [-94.7248411, 36.792502], [-94.7248435, 36.7925866], [-94.7249894, 36.792584], [-94.7249891, 36.7925741], [-94.7250136, 36.7925736]]]}, "properties": {"osm_id": 1321904795, "building": "yes", "name": "", "height": null, "height_m": null, "levels": null, "tract_id": "40115574900", "tract_name": "5749", "tags": {"building": "yes"}}}, {"type": "Feature", "geometry": {"type": "Polygon", "coordinates": [[[-94.7249323, 36.7922952], [-94.7246997, 36.7922979], [-94.7247006, 36.7923452], [-94.7247314, 36.7923448], [-94.7247319, 36.7923709], [-94.7247799, 36.7923704], [-94.7247817, 36.7923757], [-94.7248932, 36.7923744], [-94.7248926, 36.7923427], [-94.7249331, 36.7923422], [-94.7249323, 36.7922952]]]}, "properties": {"osm_id": 1321904796, "building": "yes", "name": "", "height": null, "height_m": null, "levels": null, "tract_id": "40115574900", "tract_name": "5749", "tags": {"building": "yes"}}}, {"type": "Feature", "geometry": {"type": "Polygon", "coordinates": [[[-94.7247679, 36.7922453], [-94.7247661, 36.7921937], [-94.7246888, 36.7921955], [-94.7246906, 36.792247], [-94.7247679, 36.7922453]]]}, "properties": {"osm_id": 1321904797, "building": "yes", "name": "", "height": null, "height_m": null, "levels": null, "tract_id": "40115574900", "tract_name": "5749", "tags": {"building": "yes"}}}, {"type": "Feature", "geometry": {"type": "Polygon", "coordinates": [[[-94.7248586, 36.7921357], [-94.724859, 36.7920884], [-94.72489, 36.7920885], [-94.7248905, 36.7920246], [-94.7248643, 36.7920245], [-94.7248649, 36.7919571], [-94.7247452, 36.7919564], [-94.7247437, 36.7921351], [-94.7248586, 36.7921357]]]}, "properties": {"osm_id": 1321904798, "building": "yes", "name": "", "height": null, "height_m": null, "levels": null, "tract_id": "40115574900", "tract_name": "5749", "tags": {"building": "yes"}}}, {"type": "Feature", "geometry": {"type": "Polygon", "coordinates": [[[-94.7248637, 36.7917995], [-94.7247561, 36.7917981], [-94.7247596, 36.7916188], [-94.7246976, 36.791618], [-94.7246984, 36.7915748], [-94.7248681, 36.791577], [-94.7248637, 36.7917995]]]}, "properties": {"osm_id": 1321904799, "building": "yes", "name": "", "height": null, "height_m": null, "levels": null, "tract_id": "40115574900", "tract_name": "5749", "tags": {"building": "yes"}}}, {"type": "Feature", "geometry": {"type": "Polygon", "coordinates": [[[-94.7249998, 36.7909844], [-94.7248636, 36.7909837], [-94.7248667, 36.7905741], [-94.7250031, 36.7905748], [-94.7249998, 36.7909844]]]}, "properties": {"osm_id": 1321904800, "building": "yes", "name": "", "height": null, "height_m": null, "levels": null, "tract_id": "40115574900", "tract_name": "5749", "tags": {"building": "yes"}}}, {"type": "Feature", "geometry": {"type": "Polygon", "coordinates": [[[-94.7255237, 36.7888155], [-94.7255202, 36.7886766], [-94.7255754, 36.7886757], [-94.7255743, 36.7886313], [-94.7255204, 36.7886322], [-94.7255192, 36.7885835], [-94.7255078, 36.7885836], [-94.7255059, 36.7885124], [-94.7254295, 36.7885137], [-94.7254313, 36.7885858], [-94.72542, 36.7885859], [-94.7254211, 36.7886311], [-94.7253971, 36.7886315], [-94.7254018, 36.7888175], [-94.7255237, 36.7888155]]]}, "properties": {"osm_id": 1321904801, "building": "yes", "name": "", "height": null, "height_m": null, "levels": null, "tract_id": "40115574900", "tract_name": "5749", "tags": {"building": "yes"}}}, {"type": "Feature", "geometry": {"type": "Polygon", "coordinates": [[[-94.7254904, 36.7893986], [-94.7254869, 36.789252], [-94.7256159, 36.7892501], [-94.7256193, 36.7893967], [-94.7254904, 36.7893986]]]}, "properties": {"osm_id": 1321904802, "building": "yes", "name": "", "height": null, "height_m": null, "levels": null, "tract_id": "40115574900", "tract_name": "5749", "tags": {"building": "yes"}}}, {"type": "Feature", "geometry": {"type": "Polygon", "coordinates": [[[-94.7256568, 36.7900306], [-94.7256403, 36.7900009], [-94.7257303, 36.7899688], [-94.7256849, 36.7898873], [-94.7254365, 36.7899759], [-94.7254823, 36.7900581], [-94.7255413, 36.790037], [-94.7255575, 36.7900661], [-94.7256568, 36.7900306]]]}, "properties": {"osm_id": 1321904803, "building": "yes", "name": "", "height": null, "height_m": null, "levels": null, "tract_id": "40115574900", "tract_name": "5749", "tags": {"building": "yes"}}}, {"type": "Feature", "geometry": {"type": "Polygon", "coordinates": [[[-94.7254119, 36.7903804], [-94.7254103, 36.7903456], [-94.7254694, 36.7903439], [-94.7254691, 36.7903378], [-94.7255503, 36.7903355], [-94.7255523, 36.7903819], [-94.7254734, 36.7903842], [-94.7254732, 36.7903787], [-94.7254119, 36.7903804]]]}, "properties": {"osm_id": 1321904804, "building": "yes", "name": "", "height": null, "height_m": null, "levels": null, "tract_id": "40115574900", "tract_name": "5749", "tags": {"building": "yes"}}}, {"type": "Feature", "geometry": {"type": "Polygon", "coordinates": [[[-94.7263489, 36.7915733], [-94.7263512, 36.7915271], [-94.7263101, 36.7915258], [-94.7263077, 36.791572], [-94.7263489, 36.7915733]]]}, "properties": {"osm_id": 1321904806, "building": "yes", "name": "", "height": null, "height_m": null, "levels": null, "tract_id": "40115574900", "tract_name": "5749", "tags": {"building": "yes"}}}, {"type": "Feature", "geometry": {"type": "Polygon", "coordinates": [[[-94.7260485, 36.791746], [-94.7262908, 36.7917464], [-94.7262908, 36.791847], [-94.7262322, 36.7918466], [-94.7262349, 36.7919297], [-94.7263789, 36.791924], [-94.726378, 36.7919916], [-94.7263789, 36.7920099], [-94.7262854, 36.792012], [-94.7262859, 36.7921917], [-94.7263132, 36.7921907], [-94.726319, 36.7925465], [-94.7260396, 36.7925483], [-94.72604, 36.7921925], [-94.7260762, 36.7921925], [-94.7260762, 36.7921431], [-94.7260507, 36.7921438], [-94.7260472, 36.7919279], [-94.7260744, 36.7919279], [-94.7260718, 36.7918456], [-94.726049, 36.7918466], [-94.7260485, 36.791746]]]}, "properties": {"osm_id": 1321904809, "building": "yes", "name": "", "height": null, "height_m": null, "levels": null, "tract_id": "40115574900", "tract_name": "5749", "tags": {"building": "yes"}}}, {"type": "Feature", "geometry": {"type": "Polygon", "coordinates": [[[-94.7260372, 36.7923629], [-94.726037, 36.7922786], [-94.7259639, 36.7922787], [-94.7259641, 36.792363], [-94.7260372, 36.7923629]]]}, "properties": {"osm_id": 1321904810, "building": "yes", "name": "", "height": null, "height_m": null, "levels": null, "tract_id": "40115574900", "tract_name": "5749", "tags": {"building": "yes"}}}, {"type": "Feature", "geometry": {"type": "Polygon", "coordinates": [[[-94.7259367, 36.7925518], [-94.7255262, 36.7925561], [-94.7255248, 36.7924742], [-94.7254655, 36.7924748], [-94.7254605, 36.7921762], [-94.7255861, 36.7921748], [-94.7255862, 36.792183], [-94.7257239, 36.7921815], [-94.7257222, 36.7920791], [-94.7259288, 36.7920769], [-94.7259367, 36.7925518]]]}, "properties": {"osm_id": 1321904811, "building": "yes", "name": "", "height": null, "height_m": null, "levels": null, "tract_id": "40115574900", "tract_name": "5749", "tags": {"building": "yes"}}}, {"type": "Feature", "geometry": {"type": "Polygon", "coordinates": [[[-94.7260354, 36.7934933], [-94.7260354, 36.7933679], [-94.7259831, 36.7933679], [-94.7259831, 36.793345], [-94.725903, 36.793345], [-94.725903, 36.7933683], [-94.7257952, 36.7933683], [-94.7257952, 36.7933619], [-94.7257296, 36.7933619], [-94.7257297, 36.7934934], [-94.7259011, 36.7934933], [-94.7259011, 36.7935159], [-94.7259911, 36.7935158], [-94.7259911, 36.7934933], [-94.7260354, 36.7934933]]]}, "properties": {"osm_id": 1321904821, "building": "yes", "name": "", "height": null, "height_m": null, "levels": null, "tract_id": "40115574900", "tract_name": "5749", "tags": {"building": "yes"}}}, {"type": "Feature", "geometry": {"type": "Polygon", "coordinates": [[[-94.7253645, 36.7939875], [-94.7253954, 36.7939876], [-94.7253954, 36.7939812], [-94.7256072, 36.7939816], [-94.7256069, 36.7940603], [-94.7253945, 36.7940599], [-94.7253946, 36.794052], [-94.7253643, 36.7940519], [-94.7253645, 36.7939875]]]}, "properties": {"osm_id": 1321904822, "building": "yes", "name": "", "height": null, "height_m": null, "levels": null, "tract_id": "40115574900", "tract_name": "5749", "tags": {"building": "yes"}}}, {"type": "Feature", "geometry": {"type": "Polygon", "coordinates": [[[-94.7256719, 36.7941295], [-94.7256716, 36.7940699], [-94.7255719, 36.7940702], [-94.7255722, 36.7941299], [-94.7256719, 36.7941295]]]}, "properties": {"osm_id": 1321904823, "building": "yes", "name": "", "height": null, "height_m": null, "levels": null, "tract_id": "40115574900", "tract_name": "5749", "tags": {"building": "yes"}}}, {"type": "Feature", "geometry": {"type": "Polygon", "coordinates": [[[-94.725513, 36.7940756], [-94.7255137, 36.794126], [-94.7254266, 36.7941269], [-94.7254266, 36.7941223], [-94.72542, 36.7941224], [-94.7254197, 36.7941075], [-94.7254282, 36.7941074], [-94.7254277, 36.7940765], [-94.725513, 36.7940756]]]}, "properties": {"osm_id": 1321904824, "building": "yes", "name": "", "height": null, "height_m": null, "levels": null, "tract_id": "40115574900", "tract_name": "5749", "tags": {"building": "yes"}}}, {"type": "Feature", "geometry": {"type": "Polygon", "coordinates": [[[-94.7253968, 36.7943367], [-94.7253975, 36.7942634], [-94.7255422, 36.7942643], [-94.7255414, 36.7943377], [-94.7253968, 36.7943367]]]}, "properties": {"osm_id": 1321904825, "building": "yes", "name": "", "height": null, "height_m": null, "levels": null, "tract_id": "40115574900", "tract_name": "5749", "tags": {"building": "yes"}}}, {"type": "Feature", "geometry": {"type": "Polygon", "coordinates": [[[-94.7255866, 36.7943336], [-94.7255868, 36.7942689], [-94.7257949, 36.7942692], [-94.7257947, 36.794334], [-94.7255866, 36.7943336]]]}, "properties": {"osm_id": 1321904826, "building": "yes", "name": "", "height": null, "height_m": null, "levels": null, "tract_id": "40115574900", "tract_name": "5749", "tags": {"building": "yes"}}}, {"type": "Feature", "geometry": {"type": "Polygon", "coordinates": [[[-94.7253652, 36.7944694], [-94.7255827, 36.7944707], [-94.7255833, 36.7944036], [-94.7253658, 36.7944023], [-94.7253652, 36.7944694]]]}, "properties": {"osm_id": 1321904827, "building": "yes", "name": "", "height": null, "height_m": null, "levels": null, "tract_id": "40115574900", "tract_name": "5749", "tags": {"building": "yes"}}}, {"type": "Feature", "geometry": {"type": "Polygon", "coordinates": [[[-94.7254019, 36.7946409], [-94.7254019, 36.7946452], [-94.7253739, 36.7946453], [-94.7253742, 36.794702], [-94.725403, 36.7947019], [-94.7254033, 36.7947425], [-94.7256259, 36.7947416], [-94.7256252, 36.7946399], [-94.7254019, 36.7946409]]]}, "properties": {"osm_id": 1321904828, "building": "yes", "name": "", "height": null, "height_m": null, "levels": null, "tract_id": "40115574900", "tract_name": "5749", "tags": {"building": "yes"}}}, {"type": "Feature", "geometry": {"type": "Polygon", "coordinates": [[[-94.7254074, 36.794857], [-94.7256861, 36.7948545], [-94.7256851, 36.7947796], [-94.7254064, 36.794782], [-94.7254074, 36.794857]]]}, "properties": {"osm_id": 1321904829, "building": "yes", "name": "", "height": null, "height_m": null, "levels": null, "tract_id": "40115574900", "tract_name": "5749", "tags": {"building": "yes"}}}, {"type": "Feature", "geometry": {"type": "Polygon", "coordinates": [[[-94.7253986, 36.7948967], [-94.725399, 36.7949238], [-94.725418, 36.7949237], [-94.7254184, 36.7949506], [-94.7255774, 36.794949], [-94.7255762, 36.7948628], [-94.7254185, 36.7948643], [-94.7254189, 36.7948966], [-94.7253986, 36.7948967]]]}, "properties": {"osm_id": 1321904830, "building": "yes", "name": "", "height": null, "height_m": null, "levels": null, "tract_id": "40115574900", "tract_name": "5749", "tags": {"building": "yes"}}}, {"type": "Feature", "geometry": {"type": "Polygon", "coordinates": [[[-94.7260531, 36.7938989], [-94.7259402, 36.7938993], [-94.7259409, 36.7940199], [-94.7260537, 36.7940195], [-94.7260531, 36.7938989]]]}, "properties": {"osm_id": 1321904831, "building": "yes", "name": "", "height": null, "height_m": null, "levels": null, "tract_id": "40115574900", "tract_name": "5749", "tags": {"building": "yes"}}}, {"type": "Feature", "geometry": {"type": "Polygon", "coordinates": [[[-94.7259446, 36.7941991], [-94.7259434, 36.7940836], [-94.7260513, 36.7940829], [-94.7260526, 36.7941983], [-94.7259446, 36.7941991]]]}, "properties": {"osm_id": 1321904832, "building": "yes", "name": "", "height": null, "height_m": null, "levels": null, "tract_id": "40115574900", "tract_name": "5749", "tags": {"building": "yes"}}}, {"type": "Feature", "geometry": {"type": "Polygon", "coordinates": [[[-94.7261927, 36.7941919], [-94.7262844, 36.7941917], [-94.726284, 36.7941074], [-94.7261924, 36.7941076], [-94.7261927, 36.7941919]]]}, "properties": {"osm_id": 1321904833, "building": "yes", "name": "", "height": null, "height_m": null, "levels": null, "tract_id": "40115574900", "tract_name": "5749", "tags": {"building": "yes"}}}, {"type": "Feature", "geometry": {"type": "Polygon", "coordinates": [[[-94.7263333, 36.7938906], [-94.7262457, 36.7938905], [-94.7262456, 36.793981], [-94.7262558, 36.793981], [-94.7262558, 36.7940102], [-94.7262204, 36.7940102], [-94.7262203, 36.7940649], [-94.7263481, 36.7940651], [-94.7263482, 36.7939787], [-94.7263332, 36.7939787], [-94.7263333, 36.7938906]]]}, "properties": {"osm_id": 1321904834, "building": "yes", "name": "", "height": null, "height_m": null, "levels": null, "tract_id": "40115574900", "tract_name": "5749", "tags": {"building": "yes"}}}, {"type": "Feature", "geometry": {"type": "Polygon", "coordinates": [[[-94.7261646, 36.7940188], [-94.7260824, 36.7940197], [-94.7260813, 36.793954], [-94.7261091, 36.7939537], [-94.7261081, 36.7938992], [-94.7261147, 36.7938992], [-94.7261145, 36.7938845], [-94.7261698, 36.7938838], [-94.7261716, 36.7939847], [-94.726164, 36.7939872], [-94.7261646, 36.7940188]]]}, "properties": {"osm_id": 1321904835, "building": "yes", "name": "", "height": null, "height_m": null, "levels": null, "tract_id": "40115574900", "tract_name": "5749", "tags": {"building": "yes"}}}, {"type": "Feature", "geometry": {"type": "Polygon", "coordinates": [[[-94.7237774, 36.7916642], [-94.7237783, 36.7915526], [-94.7238835, 36.7915531], [-94.7238826, 36.7916648], [-94.7237774, 36.7916642]]]}, "properties": {"osm_id": 1321963298, "building": "yes", "name": "", "height": null, "height_m": null, "levels": null, "tract_id": "40115574900", "tract_name": "5749", "tags": {"building": "yes"}}}, {"type": "Feature", "geometry": {"type": "Polygon", "coordinates": [[[-94.723521, 36.7917697], [-94.7235236, 36.791681], [-94.7232541, 36.7916759], [-94.7232515, 36.7917647], [-94.723521, 36.7917697]]]}, "properties": {"osm_id": 1321963299, "building": "yes", "name": "", "height": null, "height_m": null, "levels": null, "tract_id": "40115574900", "tract_name": "5749", "tags": {"building": "yes"}}}, {"type": "Feature", "geometry": {"type": "Polygon", "coordinates": [[[-94.7235423, 36.7921411], [-94.7234567, 36.7921402], [-94.7234582, 36.7920562], [-94.7235438, 36.7920572], [-94.7235423, 36.7921411]]]}, "properties": {"osm_id": 1321963300, "building": "yes", "name": "", "height": null, "height_m": null, "levels": null, "tract_id": "40115574900", "tract_name": "5749", "tags": {"building": "yes"}}}, {"type": "Feature", "geometry": {"type": "Polygon", "coordinates": [[[-94.7235859, 36.7922386], [-94.7235871, 36.7921596], [-94.7238396, 36.7921621], [-94.7238383, 36.7922421], [-94.7237457, 36.7922412], [-94.7237453, 36.7922683], [-94.7236651, 36.7922675], [-94.7236655, 36.7922418], [-94.7236434, 36.7922416], [-94.7236427, 36.7922892], [-94.7236002, 36.7922888], [-94.7236009, 36.7922388], [-94.7235859, 36.7922386]]]}, "properties": {"osm_id": 1321963301, "building": "yes", "name": "", "height": null, "height_m": null, "levels": null, "tract_id": "40115574900", "tract_name": "5749", "tags": {"building": "yes"}}}, {"type": "Feature", "geometry": {"type": "Polygon", "coordinates": [[[-94.7235695, 36.7923122], [-94.7235686, 36.7922575], [-94.7234955, 36.7922583], [-94.7234964, 36.7923131], [-94.7235695, 36.7923122]]]}, "properties": {"osm_id": 1321963302, "building": "yes", "name": "", "height": null, "height_m": null, "levels": null, "tract_id": "40115574900", "tract_name": "5749", "tags": {"building": "yes"}}}, {"type": "Feature", "geometry": {"type": "Polygon", "coordinates": [[[-94.7232538, 36.7922215], [-94.7232553, 36.7921088], [-94.723154, 36.7921079], [-94.7231526, 36.7922207], [-94.7232538, 36.7922215]]]}, "properties": {"osm_id": 1321963303, "building": "yes", "name": "", "height": null, "height_m": null, "levels": null, "tract_id": "40115574900", "tract_name": "5749", "tags": {"building": "yes"}}}, {"type": "Feature", "geometry": {"type": "Polygon", "coordinates": [[[-94.7228853, 36.7921062], [-94.7228545, 36.7920702], [-94.7226581, 36.7921779], [-94.7226889, 36.7922139], [-94.7228853, 36.7921062]]]}, "properties": {"osm_id": 1321963304, "building": "yes", "name": "", "height": null, "height_m": null, "levels": null, "tract_id": "40115574900", "tract_name": "5749", "tags": {"building": "yes"}}}, {"type": "Feature", "geometry": {"type": "Polygon", "coordinates": [[[-94.7226219, 36.7925344], [-94.7226208, 36.7925107], [-94.7227523, 36.7925068], [-94.7227534, 36.7925304], [-94.7226219, 36.7925344]]]}, "properties": {"osm_id": 1321963305, "building": "yes", "name": "", "height": null, "height_m": null, "levels": null, "tract_id": "40115574900", "tract_name": "5749", "tags": {"building": "yes"}}}, {"type": "Feature", "geometry": {"type": "Polygon", "coordinates": [[[-94.7226577, 36.7927405], [-94.7226456, 36.7927176], [-94.7225526, 36.7927491], [-94.7225647, 36.792772], [-94.7226577, 36.7927405]]]}, "properties": {"osm_id": 1321963306, "building": "yes", "name": "", "height": null, "height_m": null, "levels": null, "tract_id": "40115574900", "tract_name": "5749", "tags": {"building": "yes"}}}, {"type": "Feature", "geometry": {"type": "Polygon", "coordinates": [[[-94.7224943, 36.7930041], [-94.7224012, 36.7930079], [-94.7223905, 36.7928402], [-94.7224864, 36.7928363], [-94.7224906, 36.792903], [-94.7225307, 36.7929014], [-94.7225352, 36.7929718], [-94.7224923, 36.7929736], [-94.7224943, 36.7930041]]]}, "properties": {"osm_id": 1321963307, "building": "yes", "name": "", "height": null, "height_m": null, "levels": null, "tract_id": "40115574900", "tract_name": "5749", "tags": {"building": "yes"}}}, {"type": "Feature", "geometry": {"type": "Polygon", "coordinates": [[[-94.7225088, 36.7931582], [-94.7225056, 36.7931171], [-94.7224529, 36.7931198], [-94.7224561, 36.7931608], [-94.7225088, 36.7931582]]]}, "properties": {"osm_id": 1321963308, "building": "yes", "name": "", "height": null, "height_m": null, "levels": null, "tract_id": "40115574900", "tract_name": "5749", "tags": {"building": "yes"}}}, {"type": "Feature", "geometry": {"type": "Polygon", "coordinates": [[[-94.7227722, 36.7932048], [-94.7226747, 36.7932077], [-94.722668, 36.7930658], [-94.7227945, 36.7930619], [-94.7227979, 36.7931336], [-94.7227689, 36.7931345], [-94.7227722, 36.7932048]]]}, "properties": {"osm_id": 1321963309, "building": "yes", "name": "", "height": null, "height_m": null, "levels": null, "tract_id": "40115574900", "tract_name": "5749", "tags": {"building": "yes"}}}, {"type": "Feature", "geometry": {"type": "Polygon", "coordinates": [[[-94.7225148, 36.7935347], [-94.7225156, 36.7934209], [-94.7226557, 36.7934215], [-94.722655, 36.7935369], [-94.7226109, 36.7935367], [-94.7226108, 36.7935495], [-94.7225539, 36.7935493], [-94.722554, 36.7935349], [-94.7225148, 36.7935347]]]}, "properties": {"osm_id": 1321963310, "building": "yes", "name": "", "height": null, "height_m": null, "levels": null, "tract_id": "40115574900", "tract_name": "5749", "tags": {"building": "yes"}}}, {"type": "Feature", "geometry": {"type": "Polygon", "coordinates": [[[-94.7227182, 36.7934965], [-94.7227181, 36.7934242], [-94.7228059, 36.7934241], [-94.722806, 36.7934964], [-94.7227182, 36.7934965]]]}, "properties": {"osm_id": 1321963311, "building": "yes", "name": "", "height": null, "height_m": null, "levels": null, "tract_id": "40115574900", "tract_name": "5749", "tags": {"building": "yes"}}}, {"type": "Feature", "geometry": {"type": "Polygon", "coordinates": [[[-94.7228047, 36.7933629], [-94.7228058, 36.7933339], [-94.722765, 36.7933329], [-94.7227638, 36.7933619], [-94.7228047, 36.7933629]]]}, "properties": {"osm_id": 1321963312, "building": "yes", "name": "", "height": null, "height_m": null, "levels": null, "tract_id": "40115574900", "tract_name": "5749", "tags": {"building": "yes"}}}, {"type": "Feature", "geometry": {"type": "Polygon", "coordinates": [[[-94.7230214, 36.7932389], [-94.723212, 36.7932356], [-94.7232203, 36.7935395], [-94.7231031, 36.7935416], [-94.7231002, 36.793435], [-94.7230742, 36.7934355], [-94.7230732, 36.7933994], [-94.7230668, 36.7933995], [-94.7230647, 36.793321], [-94.7230237, 36.7933217], [-94.7230214, 36.7932389]]]}, "properties": {"osm_id": 1321963313, "building": "yes", "name": "", "height": null, "height_m": null, "levels": null, "tract_id": "40115574900", "tract_name": "5749", "tags": {"building": "yes"}}}, {"type": "Feature", "geometry": {"type": "Polygon", "coordinates": [[[-94.723381, 36.7934882], [-94.7233811, 36.7935358], [-94.7234988, 36.7935356], [-94.7234986, 36.793494], [-94.7235201, 36.7934851], [-94.7235214, 36.7934686], [-94.7235004, 36.7934503], [-94.7235003, 36.7933874], [-94.7235398, 36.7933873], [-94.7235397, 36.7933162], [-94.7234137, 36.7933164], [-94.7234139, 36.7934183], [-94.7233951, 36.7934183], [-94.7233953, 36.7934882], [-94.723381, 36.7934882]]]}, "properties": {"osm_id": 1321963314, "building": "yes", "name": "", "height": null, "height_m": null, "levels": null, "tract_id": "40115574900", "tract_name": "5749", "tags": {"building": "yes"}}}, {"type": "Feature", "geometry": {"type": "Polygon", "coordinates": [[[-94.7238416, 36.7935631], [-94.7237631, 36.7935652], [-94.7237571, 36.7934229], [-94.7237661, 36.7934226], [-94.7237653, 36.7934029], [-94.7238552, 36.7934005], [-94.723856, 36.7934203], [-94.7238689, 36.79342], [-94.7238739, 36.7935381], [-94.7238406, 36.793539], [-94.7238416, 36.7935631]]]}, "properties": {"osm_id": 1321963315, "building": "yes", "name": "", "height": null, "height_m": null, "levels": null, "tract_id": "40115574900", "tract_name": "5749", "tags": {"building": "yes"}}}, {"type": "Feature", "geometry": {"type": "Polygon", "coordinates": [[[-94.7239098, 36.7932698], [-94.7239087, 36.7932279], [-94.7238236, 36.7932294], [-94.7238247, 36.7932713], [-94.7239098, 36.7932698]]]}, "properties": {"osm_id": 1321963316, "building": "yes", "name": "", "height": null, "height_m": null, "levels": null, "tract_id": "40115574900", "tract_name": "5749", "tags": {"building": "yes"}}}, {"type": "Feature", "geometry": {"type": "Polygon", "coordinates": [[[-94.7238737, 36.7930665], [-94.7238717, 36.7929816], [-94.7236936, 36.7929842], [-94.7236956, 36.7930693], [-94.7238737, 36.7930665]]]}, "properties": {"osm_id": 1321963317, "building": "yes", "name": "", "height": null, "height_m": null, "levels": null, "tract_id": "40115574900", "tract_name": "5749", "tags": {"building": "yes"}}}, {"type": "Feature", "geometry": {"type": "Polygon", "coordinates": [[[-94.7235961, 36.7928792], [-94.7237192, 36.792875], [-94.723718, 36.792852], [-94.7236542, 36.7928542], [-94.7236536, 36.7928429], [-94.7236084, 36.7928445], [-94.723609, 36.7928553], [-94.7235949, 36.7928558], [-94.7235961, 36.7928792]]]}, "properties": {"osm_id": 1321963318, "building": "yes", "name": "", "height": null, "height_m": null, "levels": null, "tract_id": "40115574900", "tract_name": "5749", "tags": {"building": "yes"}}}, {"type": "Feature", "geometry": {"type": "Polygon", "coordinates": [[[-94.7233173, 36.792621], [-94.7233644, 36.7926207], [-94.7233637, 36.7925468], [-94.7234487, 36.7925463], [-94.7234498, 36.792672], [-94.7233177, 36.7926727], [-94.7233173, 36.792621]]]}, "properties": {"osm_id": 1321963319, "building": "yes", "name": "", "height": null, "height_m": null, "levels": null, "tract_id": "40115574900", "tract_name": "5749", "tags": {"building": "yes"}}}, {"type": "Feature", "geometry": {"type": "Polygon", "coordinates": [[[-94.7233164, 36.792731], [-94.723316, 36.7926947], [-94.7233586, 36.7926944], [-94.7233591, 36.7927307], [-94.7233164, 36.792731]]]}, "properties": {"osm_id": 1321963320, "building": "yes", "name": "", "height": null, "height_m": null, "levels": null, "tract_id": "40115574900", "tract_name": "5749", "tags": {"building": "yes"}}}, {"type": "Feature", "geometry": {"type": "Polygon", "coordinates": [[[-94.7230792, 36.7930364], [-94.7230712, 36.7928443], [-94.7231739, 36.7928416], [-94.7231797, 36.7928444], [-94.7233622, 36.7928396], [-94.7233643, 36.7928905], [-94.7231751, 36.7928955], [-94.7231809, 36.7930337], [-94.7230792, 36.7930364]]]}, "properties": {"osm_id": 1321963321, "building": "yes", "name": "", "height": null, "height_m": null, "levels": null, "tract_id": "40115574900", "tract_name": "5749", "tags": {"building": "yes"}}}, {"type": "Feature", "geometry": {"type": "Polygon", "coordinates": [[[-94.7242731, 36.7918674], [-94.724178, 36.7918667], [-94.7241787, 36.7918011], [-94.7241607, 36.7918009], [-94.724161, 36.791782], [-94.7241797, 36.7917822], [-94.7241808, 36.7916826], [-94.7242752, 36.7916832], [-94.7242731, 36.7918674]]]}, "properties": {"osm_id": 1321963322, "building": "yes", "name": "", "height": null, "height_m": null, "levels": null, "tract_id": "40115574900", "tract_name": "5749", "tags": {"building": "yes"}}}, {"type": "Feature", "geometry": {"type": "Polygon", "coordinates": [[[-94.724197, 36.7923323], [-94.724196, 36.7921859], [-94.7243214, 36.7921854], [-94.7243223, 36.7923318], [-94.724197, 36.7923323]]]}, "properties": {"osm_id": 1321963323, "building": "yes", "name": "", "height": null, "height_m": null, "levels": null, "tract_id": "40115574900", "tract_name": "5749", "tags": {"building": "yes"}}}, {"type": "Feature", "geometry": {"type": "Polygon", "coordinates": [[[-94.7247982, 36.7925561], [-94.7247565, 36.7925567], [-94.7247572, 36.7925863], [-94.7247373, 36.7925866], [-94.7247382, 36.7926281], [-94.7247999, 36.7926271], [-94.7247982, 36.7925561]]]}, "properties": {"osm_id": 1321963324, "building": "yes", "name": "", "height": null, "height_m": null, "levels": null, "tract_id": "40115574900", "tract_name": "5749", "tags": {"building": "yes"}}}, {"type": "Feature", "geometry": {"type": "Polygon", "coordinates": [[[-94.7246204, 36.7933067], [-94.7246214, 36.7932297], [-94.7245448, 36.7932291], [-94.7245439, 36.7933061], [-94.7246204, 36.7933067]]]}, "properties": {"osm_id": 1321963325, "building": "yes", "name": "", "height": null, "height_m": null, "levels": null, "tract_id": "40115574900", "tract_name": "5749", "tags": {"building": "yes"}}}, {"type": "Feature", "geometry": {"type": "Polygon", "coordinates": [[[-94.7245404, 36.7932409], [-94.7244021, 36.7932383], [-94.7243996, 36.7933236], [-94.724538, 36.7933262], [-94.7245404, 36.7932409]]]}, "properties": {"osm_id": 1321963326, "building": "yes", "name": "", "height": null, "height_m": null, "levels": null, "tract_id": "40115574900", "tract_name": "5749", "tags": {"building": "yes"}}}, {"type": "Feature", "geometry": {"type": "Polygon", "coordinates": [[[-94.7245807, 36.7934112], [-94.7245419, 36.7934102], [-94.7245374, 36.7935138], [-94.7246784, 36.7935177], [-94.7246859, 36.7933442], [-94.7245877, 36.7933414], [-94.7245873, 36.7933499], [-94.7245779, 36.7933531], [-94.7245768, 36.793375], [-94.7245822, 36.7933777], [-94.7245807, 36.7934112]]]}, "properties": {"osm_id": 1321963327, "building": "yes", "name": "", "height": null, "height_m": null, "levels": null, "tract_id": "40115574900", "tract_name": "5749", "tags": {"building": "yes"}}}, {"type": "Feature", "geometry": {"type": "Polygon", "coordinates": [[[-94.7242845, 36.7935685], [-94.7242267, 36.793568], [-94.7242269, 36.7935488], [-94.7241708, 36.7935483], [-94.7241714, 36.7934984], [-94.7242185, 36.7934988], [-94.7242192, 36.7934453], [-94.7242853, 36.7934459], [-94.7242847, 36.7934922], [-94.7243153, 36.7934924], [-94.7243145, 36.79355], [-94.7242847, 36.7935497], [-94.7242845, 36.7935685]]]}, "properties": {"osm_id": 1321963328, "building": "yes", "name": "", "height": null, "height_m": null, "levels": null, "tract_id": "40115574900", "tract_name": "5749", "tags": {"building": "yes"}}}, {"type": "Feature", "geometry": {"type": "Polygon", "coordinates": [[[-94.7265689, 36.7918524], [-94.7265703, 36.7925432], [-94.7267821, 36.792543], [-94.7267806, 36.7918521], [-94.7265689, 36.7918524]]]}, "properties": {"osm_id": 1321963329, "building": "yes", "name": "", "height": null, "height_m": null, "levels": null, "tract_id": "40115574900", "tract_name": "5749", "tags": {"building": "yes"}}}, {"type": "Feature", "geometry": {"type": "Polygon", "coordinates": [[[-94.7268219, 36.792012], [-94.7268224, 36.792448], [-94.7268583, 36.7924479], [-94.7268584, 36.7925191], [-94.7271948, 36.7925187], [-94.7271945, 36.7923265], [-94.7270253, 36.7923267], [-94.7270252, 36.7922314], [-94.7270966, 36.7922313], [-94.7270965, 36.7921151], [-94.7270249, 36.7921151], [-94.7270247, 36.7920118], [-94.7268219, 36.792012]]]}, "properties": {"osm_id": 1321963330, "building": "yes", "name": "", "height": null, "height_m": null, "levels": null, "tract_id": "40115574900", "tract_name": "5749", "tags": {"building": "yes"}}}, {"type": "Feature", "geometry": {"type": "Polygon", "coordinates": [[[-94.72759, 36.7924614], [-94.7274125, 36.7924612], [-94.7274128, 36.7922336], [-94.7275903, 36.7922337], [-94.72759, 36.7924614]]]}, "properties": {"osm_id": 1321963331, "building": "yes", "name": "", "height": null, "height_m": null, "levels": null, "tract_id": "40115574900", "tract_name": "5749", "tags": {"building": "yes"}}}, {"type": "Feature", "geometry": {"type": "Polygon", "coordinates": [[[-94.7274722, 36.7926097], [-94.7274717, 36.7925409], [-94.7276075, 36.7925403], [-94.7276081, 36.792609], [-94.7274722, 36.7926097]]]}, "properties": {"osm_id": 1321963332, "building": "yes", "name": "", "height": null, "height_m": null, "levels": null, "tract_id": "40115574900", "tract_name": "5749", "tags": {"building": "yes"}}}, {"type": "Feature", "geometry": {"type": "Polygon", "coordinates": [[[-94.7276215, 36.7927659], [-94.727622, 36.7926533], [-94.7274101, 36.7926527], [-94.7274096, 36.7927653], [-94.7276215, 36.7927659]]]}, "properties": {"osm_id": 1321963333, "building": "yes", "name": "", "height": null, "height_m": null, "levels": null, "tract_id": "40115574900", "tract_name": "5749", "tags": {"building": "yes"}}}, {"type": "Feature", "geometry": {"type": "Polygon", "coordinates": [[[-94.7271724, 36.7925927], [-94.7266816, 36.7925895], [-94.7266819, 36.7925617], [-94.7265397, 36.7925607], [-94.7265371, 36.7928097], [-94.7265464, 36.7928098], [-94.726546, 36.7928433], [-94.7265811, 36.7928435], [-94.7265779, 36.7931493], [-94.7267937, 36.7931507], [-94.7267939, 36.7931291], [-94.7272235, 36.7931319], [-94.7272257, 36.7929148], [-94.7270213, 36.7929135], [-94.7270225, 36.7927917], [-94.7271704, 36.7927926], [-94.7271724, 36.7925927]]]}, "properties": {"osm_id": 1321963334, "building": "yes", "name": "", "height": null, "height_m": null, "levels": null, "tract_id": "40115574900", "tract_name": "5749", "tags": {"building": "yes"}}}, {"type": "Feature", "geometry": {"type": "Polygon", "coordinates": [[[-94.7267895, 36.7934215], [-94.7267886, 36.7933692], [-94.7269638, 36.7933671], [-94.7269662, 36.7934996], [-94.7269412, 36.7934999], [-94.7269415, 36.7935199], [-94.7268888, 36.7935205], [-94.7268885, 36.7935008], [-94.7268662, 36.793501], [-94.7268648, 36.7934206], [-94.7267895, 36.7934215]]]}, "properties": {"osm_id": 1321963335, "building": "yes", "name": "", "height": null, "height_m": null, "levels": null, "tract_id": "40115574900", "tract_name": "5749", "tags": {"building": "yes"}}}, {"type": "Feature", "geometry": {"type": "Polygon", "coordinates": [[[-94.7266911, 36.7935212], [-94.7266914, 36.7934953], [-94.7267049, 36.7934954], [-94.7267061, 36.7933658], [-94.7266946, 36.7933657], [-94.7266949, 36.7933364], [-94.726594, 36.7933357], [-94.7265937, 36.7933624], [-94.7265852, 36.7933623], [-94.7265847, 36.7934121], [-94.7265734, 36.793412], [-94.7265731, 36.7934411], [-94.7265833, 36.7934412], [-94.7265828, 36.7934971], [-94.7265939, 36.7934972], [-94.7265937, 36.7935206], [-94.7266911, 36.7935212]]]}, "properties": {"osm_id": 1321963336, "building": "yes", "name": "", "height": null, "height_m": null, "levels": null, "tract_id": "40115574900", "tract_name": "5749", "tags": {"building": "yes"}}}, {"type": "Feature", "geometry": {"type": "Polygon", "coordinates": [[[-94.7231549, 36.7900158], [-94.7231406, 36.7897957], [-94.7229608, 36.7898032], [-94.7229752, 36.7900233], [-94.7231549, 36.7900158]]]}, "properties": {"osm_id": 1321963338, "building": "yes", "name": "", "height": null, "height_m": null, "levels": null, "tract_id": "40115574900", "tract_name": "5749", "tags": {"building": "yes"}}}, {"type": "Feature", "geometry": {"type": "Polygon", "coordinates": [[[-94.7228246, 36.7901702], [-94.7228144, 36.790031], [-94.7224053, 36.7900501], [-94.7224155, 36.7901893], [-94.7228246, 36.7901702]]]}, "properties": {"osm_id": 1321963339, "building": "yes", "name": "", "height": null, "height_m": null, "levels": null, "tract_id": "40115574900", "tract_name": "5749", "tags": {"building": "yes"}}}, {"type": "Feature", "geometry": {"type": "Polygon", "coordinates": [[[-94.7226036, 36.7897992], [-94.7225972, 36.7896947], [-94.7223451, 36.7897046], [-94.7223515, 36.7898091], [-94.7226036, 36.7897992]]]}, "properties": {"osm_id": 1321963340, "building": "yes", "name": "", "height": null, "height_m": null, "levels": null, "tract_id": "40115574900", "tract_name": "5749", "tags": {"building": "yes"}}}, {"type": "Feature", "geometry": {"type": "Polygon", "coordinates": [[[-94.7234618, 36.7894227], [-94.7232961, 36.7894304], [-94.7233038, 36.789537], [-94.7234695, 36.7895294], [-94.7234618, 36.7894227]]]}, "properties": {"osm_id": 1321963343, "building": "yes", "name": "", "height": null, "height_m": null, "levels": null, "tract_id": "40115574900", "tract_name": "5749", "tags": {"building": "yes"}}}, {"type": "Feature", "geometry": {"type": "Polygon", "coordinates": [[[-94.7229245, 36.7894715], [-94.7229233, 36.7894429], [-94.7228335, 36.7894452], [-94.7228346, 36.7894738], [-94.7229245, 36.7894715]]]}, "properties": {"osm_id": 1321963346, "building": "yes", "name": "Dugout", "height": null, "height_m": null, "levels": null, "tract_id": "40115574900", "tract_name": "5749", "tags": {"building": "yes", "name": "Dugout"}}}, {"type": "Feature", "geometry": {"type": "Polygon", "coordinates": [[[-94.7231557, 36.7892351], [-94.7231502, 36.7891596], [-94.7231877, 36.7891578], [-94.7231931, 36.7892334], [-94.7231557, 36.7892351]]]}, "properties": {"osm_id": 1321963347, "building": "yes", "name": "Dugout", "height": null, "height_m": null, "levels": null, "tract_id": "40115574900", "tract_name": "5749", "tags": {"building": "yes", "name": "Dugout"}}}, {"type": "Feature", "geometry": {"type": "Polygon", "coordinates": [[[-94.7235424, 36.7891836], [-94.723575, 36.7891832], [-94.723579, 36.7892852], [-94.7235498, 36.789286], [-94.7235424, 36.7891836]]]}, "properties": {"osm_id": 1321963348, "building": "yes", "name": "Dugout", "height": null, "height_m": null, "levels": null, "tract_id": "40115574900", "tract_name": "5749", "tags": {"building": "yes", "name": "Dugout"}}}, {"type": "Feature", "geometry": {"type": "Polygon", "coordinates": [[[-94.7239112, 36.7895522], [-94.7239102, 36.7895317], [-94.7240354, 36.7895276], [-94.7240364, 36.7895482], [-94.7239112, 36.7895522]]]}, "properties": {"osm_id": 1321963349, "building": "yes", "name": "Dugout", "height": null, "height_m": null, "levels": null, "tract_id": "40115574900", "tract_name": "5749", "tags": {"building": "yes", "name": "Dugout"}}}, {"type": "Feature", "geometry": {"type": "Polygon", "coordinates": [[[-94.7243901, 36.7941491], [-94.724391, 36.7941026], [-94.7241513, 36.7940962], [-94.7241513, 36.7941441], [-94.7243901, 36.7941491]]]}, "properties": {"osm_id": 1321970272, "building": "static_caravan", "name": "", "height": null, "height_m": null, "levels": null, "tract_id": "40115574900", "tract_name": "5749", "tags": {"building": "static_caravan"}}}, {"type": "Feature", "geometry": {"type": "Polygon", "coordinates": [[[-94.724319, 36.7943795], [-94.7243186, 36.7942707], [-94.7241613, 36.7942711], [-94.7241617, 36.7943799], [-94.724319, 36.7943795]]]}, "properties": {"osm_id": 1321970273, "building": "yes", "name": "", "height": null, "height_m": null, "levels": null, "tract_id": "40115574900", "tract_name": "5749", "tags": {"building": "yes"}}}, {"type": "Feature", "geometry": {"type": "Polygon", "coordinates": [[[-94.7241629, 36.7948883], [-94.7241616, 36.7949347], [-94.7241522, 36.7949346], [-94.7241518, 36.7949514], [-94.7241616, 36.7949515], [-94.7241607, 36.7949847], [-94.7242823, 36.7949868], [-94.7242849, 36.7948905], [-94.7241629, 36.7948883]]]}, "properties": {"osm_id": 1321970274, "building": "yes", "name": "", "height": null, "height_m": null, "levels": null, "tract_id": "40115574900", "tract_name": "5749", "tags": {"building": "yes"}}}, {"type": "Feature", "geometry": {"type": "Polygon", "coordinates": [[[-94.7236449, 36.7950394], [-94.7235278, 36.7950372], [-94.7235254, 36.7951168], [-94.7236426, 36.795119], [-94.7236449, 36.7950394]]]}, "properties": {"osm_id": 1321970275, "building": "yes", "name": "", "height": null, "height_m": null, "levels": null, "tract_id": "40115574900", "tract_name": "5749", "tags": {"building": "yes"}}}, {"type": "Feature", "geometry": {"type": "Polygon", "coordinates": [[[-94.7236615, 36.7950293], [-94.7236613, 36.7949893], [-94.7236031, 36.7949895], [-94.7236029, 36.7949509], [-94.7236635, 36.7949507], [-94.7236628, 36.7947741], [-94.7237723, 36.7947738], [-94.7237733, 36.795029], [-94.7236615, 36.7950293]]]}, "properties": {"osm_id": 1321970276, "building": "yes", "name": "", "height": null, "height_m": null, "levels": null, "tract_id": "40115574900", "tract_name": "5749", "tags": {"building": "yes"}}}, {"type": "Feature", "geometry": {"type": "Polygon", "coordinates": [[[-94.723535, 36.7943887], [-94.7235376, 36.7942911], [-94.7236144, 36.7942925], [-94.7236147, 36.7942792], [-94.7236454, 36.7942797], [-94.723645, 36.7942947], [-94.7237207, 36.794296], [-94.723718, 36.794392], [-94.723535, 36.7943887]]]}, "properties": {"osm_id": 1321970277, "building": "yes", "name": "", "height": null, "height_m": null, "levels": null, "tract_id": "40115574900", "tract_name": "5749", "tags": {"building": "yes"}}}, {"type": "Feature", "geometry": {"type": "Polygon", "coordinates": [[[-94.7236008, 36.7940629], [-94.7235996, 36.7939813], [-94.7237976, 36.7939794], [-94.7237989, 36.7940609], [-94.7236008, 36.7940629]]]}, "properties": {"osm_id": 1321970278, "building": "yes", "name": "", "height": null, "height_m": null, "levels": null, "tract_id": "40115574900", "tract_name": "5749", "tags": {"building": "yes"}}}, {"type": "Feature", "geometry": {"type": "Polygon", "coordinates": [[[-94.7234072, 36.7939297], [-94.7234053, 36.793839], [-94.7232341, 36.7938413], [-94.7232359, 36.793932], [-94.7234072, 36.7939297]]]}, "properties": {"osm_id": 1321970279, "building": "yes", "name": "", "height": null, "height_m": null, "levels": null, "tract_id": "40115574900", "tract_name": "5749", "tags": {"building": "yes"}}}, {"type": "Feature", "geometry": {"type": "Polygon", "coordinates": [[[-94.7231836, 36.7941628], [-94.7230419, 36.7941629], [-94.7230417, 36.7939975], [-94.7231833, 36.7939974], [-94.7231836, 36.7941628]]]}, "properties": {"osm_id": 1321970280, "building": "yes", "name": "", "height": null, "height_m": null, "levels": null, "tract_id": "40115574900", "tract_name": "5749", "tags": {"building": "yes"}}}, {"type": "Feature", "geometry": {"type": "Polygon", "coordinates": [[[-94.7230795, 36.7945819], [-94.7230798, 36.7945272], [-94.7233542, 36.794528], [-94.723354, 36.7945826], [-94.7230795, 36.7945819]]]}, "properties": {"osm_id": 1321970281, "building": "yes", "name": "", "height": null, "height_m": null, "levels": null, "tract_id": "40115574900", "tract_name": "5749", "tags": {"building": "yes"}}}, {"type": "Feature", "geometry": {"type": "Polygon", "coordinates": [[[-94.7232383, 36.79443], [-94.7232388, 36.7943924], [-94.7231733, 36.7943919], [-94.7231736, 36.7943713], [-94.7230577, 36.7943703], [-94.7230582, 36.7943324], [-94.7232398, 36.7943339], [-94.7232405, 36.7942776], [-94.7234449, 36.7942793], [-94.723444, 36.7943436], [-94.7234097, 36.7943433], [-94.7234092, 36.7943801], [-94.723369, 36.7943798], [-94.7233683, 36.7944311], [-94.7232383, 36.79443]]]}, "properties": {"osm_id": 1321970282, "building": "yes", "name": "", "height": null, "height_m": null, "levels": null, "tract_id": "40115574900", "tract_name": "5749", "tags": {"building": "yes"}}}, {"type": "Feature", "geometry": {"type": "Polygon", "coordinates": [[[-94.7232561, 36.7949992], [-94.7231998, 36.7949997], [-94.7231995, 36.7949745], [-94.7231819, 36.7949746], [-94.7231815, 36.7949472], [-94.7231992, 36.794947], [-94.7231979, 36.7948541], [-94.7232542, 36.7948537], [-94.7232561, 36.7949992]]]}, "properties": {"osm_id": 1321970283, "building": "yes", "name": "", "height": null, "height_m": null, "levels": null, "tract_id": "40115574900", "tract_name": "5749", "tags": {"building": "yes"}}}, {"type": "Feature", "geometry": {"type": "Polygon", "coordinates": [[[-94.7231687, 36.795526], [-94.7231108, 36.7955262], [-94.7231104, 36.79547], [-94.7231683, 36.7954698], [-94.7231687, 36.795526]]]}, "properties": {"osm_id": 1321970284, "building": "yes", "name": "", "height": null, "height_m": null, "levels": null, "tract_id": "40115574900", "tract_name": "5749", "tags": {"building": "yes"}}}, {"type": "Feature", "geometry": {"type": "Polygon", "coordinates": [[[-94.7231951, 36.7954179], [-94.7230863, 36.7954177], [-94.7230863, 36.7953872], [-94.723073, 36.7953872], [-94.7230731, 36.7953327], [-94.7230838, 36.7953327], [-94.7230839, 36.7952715], [-94.7231953, 36.7952716], [-94.7231951, 36.7954179]]]}, "properties": {"osm_id": 1321970285, "building": "yes", "name": "", "height": null, "height_m": null, "levels": null, "tract_id": "40115574900", "tract_name": "5749", "tags": {"building": "yes"}}}, {"type": "Feature", "geometry": {"type": "Polygon", "coordinates": [[[-94.7225367, 36.7956822], [-94.7225357, 36.7955541], [-94.7226397, 36.7955536], [-94.7226406, 36.7956817], [-94.7225367, 36.7956822]]]}, "properties": {"osm_id": 1321970286, "building": "yes", "name": "", "height": null, "height_m": null, "levels": null, "tract_id": "40115574900", "tract_name": "5749", "tags": {"building": "yes"}}}, {"type": "Feature", "geometry": {"type": "Polygon", "coordinates": [[[-94.7226731, 36.7954504], [-94.7226737, 36.7953933], [-94.7226836, 36.7953933], [-94.7226838, 36.7953758], [-94.7226732, 36.7953757], [-94.7226735, 36.7953433], [-94.722705, 36.7953435], [-94.7227057, 36.7952687], [-94.7225888, 36.795268], [-94.7225881, 36.7953379], [-94.7225827, 36.7953379], [-94.7225825, 36.7953577], [-94.7225057, 36.7953573], [-94.7225048, 36.7954493], [-94.7226731, 36.7954504]]]}, "properties": {"osm_id": 1321970287, "building": "yes", "name": "", "height": null, "height_m": null, "levels": null, "tract_id": "40115574900", "tract_name": "5749", "tags": {"building": "yes"}}}, {"type": "Feature", "geometry": {"type": "Polygon", "coordinates": [[[-94.7226758, 36.7952142], [-94.7225516, 36.7952142], [-94.7225515, 36.7951239], [-94.7225765, 36.7951239], [-94.7225765, 36.7951028], [-94.7226738, 36.7951027], [-94.7226738, 36.7951324], [-94.7226896, 36.7951324], [-94.7226896, 36.7951529], [-94.7226757, 36.7951529], [-94.7226758, 36.7952142]]]}, "properties": {"osm_id": 1321970288, "building": "yes", "name": "", "height": null, "height_m": null, "levels": null, "tract_id": "40115574900", "tract_name": "5749", "tags": {"building": "yes"}}}, {"type": "Feature", "geometry": {"type": "Polygon", "coordinates": [[[-94.7225086, 36.7950921], [-94.7224347, 36.7950942], [-94.7224316, 36.7950243], [-94.7225056, 36.7950223], [-94.7225086, 36.7950921]]]}, "properties": {"osm_id": 1321970289, "building": "yes", "name": "", "height": null, "height_m": null, "levels": null, "tract_id": "40115574900", "tract_name": "5749", "tags": {"building": "yes"}}}, {"type": "Feature", "geometry": {"type": "Polygon", "coordinates": [[[-94.7227515, 36.794709], [-94.7226162, 36.7947047], [-94.7226157, 36.7947157], [-94.7225948, 36.7947151], [-94.7225933, 36.794744], [-94.7226143, 36.7947447], [-94.7226109, 36.7948139], [-94.722746, 36.7948183], [-94.7227515, 36.794709]]]}, "properties": {"osm_id": 1321970290, "building": "yes", "name": "", "height": null, "height_m": null, "levels": null, "tract_id": "40115574900", "tract_name": "5749", "tags": {"building": "yes"}}}, {"type": "Feature", "geometry": {"type": "Polygon", "coordinates": [[[-94.7228494, 36.7946215], [-94.7227775, 36.7946213], [-94.7227777, 36.7945658], [-94.7228496, 36.794566], [-94.7228494, 36.7946215]]]}, "properties": {"osm_id": 1321970291, "building": "yes", "name": "", "height": null, "height_m": null, "levels": null, "tract_id": "40115574900", "tract_name": "5749", "tags": {"building": "yes"}}}, {"type": "Feature", "geometry": {"type": "Polygon", "coordinates": [[[-94.7227366, 36.7945848], [-94.7227347, 36.7945381], [-94.7225398, 36.7945432], [-94.7225417, 36.79459], [-94.7227366, 36.7945848]]]}, "properties": {"osm_id": 1321970292, "building": "yes", "name": "", "height": null, "height_m": null, "levels": null, "tract_id": "40115574900", "tract_name": "5749", "tags": {"building": "yes"}}}, {"type": "Feature", "geometry": {"type": "Polygon", "coordinates": [[[-94.7224199, 36.7944376], [-94.72242, 36.7944012], [-94.7224841, 36.7944013], [-94.722484, 36.7944377], [-94.7224199, 36.7944376]]]}, "properties": {"osm_id": 1321970293, "building": "yes", "name": "", "height": null, "height_m": null, "levels": null, "tract_id": "40115574900", "tract_name": "5749", "tags": {"building": "yes"}}}, {"type": "Feature", "geometry": {"type": "Polygon", "coordinates": [[[-94.7225803, 36.7944259], [-94.722728, 36.7944259], [-94.7227281, 36.7943904], [-94.7227401, 36.7943904], [-94.7227402, 36.7943329], [-94.7227285, 36.7943329], [-94.7227285, 36.7943047], [-94.7226259, 36.7943046], [-94.7226259, 36.7943695], [-94.7225803, 36.7943694], [-94.7225803, 36.7944259]]]}, "properties": {"osm_id": 1321970294, "building": "yes", "name": "", "height": null, "height_m": null, "levels": null, "tract_id": "40115574900", "tract_name": "5749", "tags": {"building": "yes"}}}, {"type": "Feature", "geometry": {"type": "Polygon", "coordinates": [[[-94.7227562, 36.7941766], [-94.7226156, 36.7941789], [-94.7226085, 36.7938977], [-94.7227492, 36.7938954], [-94.7227562, 36.7941766]]]}, "properties": {"osm_id": 1321970295, "building": "yes", "name": "", "height": null, "height_m": null, "levels": null, "tract_id": "40115574900", "tract_name": "5749", "tags": {"building": "yes"}}}, {"type": "Feature", "geometry": {"type": "Polygon", "coordinates": [[[-94.7223749, 36.7938853], [-94.7223745, 36.7939], [-94.7223467, 36.7938995], [-94.7223445, 36.7939716], [-94.7223619, 36.7939719], [-94.7223614, 36.7939888], [-94.7223894, 36.7939893], [-94.7223884, 36.7940234], [-94.7223927, 36.7940235], [-94.7223921, 36.7940436], [-94.7224398, 36.7940445], [-94.7224404, 36.7940251], [-94.7224544, 36.7940254], [-94.7224559, 36.7939763], [-94.7224789, 36.7939768], [-94.7224807, 36.7939161], [-94.7224974, 36.7939165], [-94.7225, 36.7938303], [-94.722451, 36.7938294], [-94.7224488, 36.7939033], [-94.722412, 36.7939026], [-94.7224125, 36.793886], [-94.7223749, 36.7938853]]]}, "properties": {"osm_id": 1321970296, "building": "yes", "name": "", "height": null, "height_m": null, "levels": null, "tract_id": "40115574900", "tract_name": "5749", "tags": {"building": "yes"}}}, {"type": "Feature", "geometry": {"type": "Polygon", "coordinates": [[[-94.7219559, 36.7939954], [-94.7219558, 36.7939858], [-94.72193, 36.7939859], [-94.7219297, 36.7939316], [-94.7219578, 36.7939315], [-94.7219577, 36.7939059], [-94.7221414, 36.7939052], [-94.7221418, 36.7939948], [-94.7219559, 36.7939954]]]}, "properties": {"osm_id": 1321970297, "building": "yes", "name": "", "height": null, "height_m": null, "levels": null, "tract_id": "40115574900", "tract_name": "5749", "tags": {"building": "yes"}}}, {"type": "Feature", "geometry": {"type": "Polygon", "coordinates": [[[-94.7220215, 36.7940914], [-94.7220207, 36.7940183], [-94.721861, 36.7940195], [-94.7218614, 36.794054], [-94.7219292, 36.7940535], [-94.7219297, 36.794092], [-94.7220215, 36.7940914]]]}, "properties": {"osm_id": 1321970298, "building": "yes", "name": "", "height": null, "height_m": null, "levels": null, "tract_id": "40115574900", "tract_name": "5749", "tags": {"building": "yes"}}}, {"type": "Feature", "geometry": {"type": "Polygon", "coordinates": [[[-94.7219743, 36.7944227], [-94.7219724, 36.7943665], [-94.7219949, 36.7943661], [-94.7219947, 36.794361], [-94.7221308, 36.7943581], [-94.7221332, 36.7944296], [-94.7219949, 36.7944325], [-94.7219946, 36.7944223], [-94.7219743, 36.7944227]]]}, "properties": {"osm_id": 1321970299, "building": "yes", "name": "", "height": null, "height_m": null, "levels": null, "tract_id": "40115574900", "tract_name": "5749", "tags": {"building": "yes"}}}, {"type": "Feature", "geometry": {"type": "Polygon", "coordinates": [[[-94.7219711, 36.794631], [-94.7220845, 36.79463], [-94.7220864, 36.7947611], [-94.7220345, 36.7947616], [-94.7220206, 36.7947714], [-94.7220213, 36.794821], [-94.7219546, 36.7948215], [-94.7219539, 36.7947645], [-94.7219278, 36.7947647], [-94.7219275, 36.7947494], [-94.7219103, 36.7947495], [-94.7219098, 36.7947151], [-94.7219296, 36.7947149], [-94.7219294, 36.7946971], [-94.721972, 36.7946967], [-94.7219711, 36.794631]]]}, "properties": {"osm_id": 1321970300, "building": "yes", "name": "", "height": null, "height_m": null, "levels": null, "tract_id": "40115574900", "tract_name": "5749", "tags": {"building": "yes"}}}, {"type": "Feature", "geometry": {"type": "Polygon", "coordinates": [[[-94.7221564, 36.7950915], [-94.7219915, 36.795089], [-94.7219885, 36.7952184], [-94.722108, 36.7952202], [-94.7221088, 36.7951858], [-94.7221541, 36.7951865], [-94.7221564, 36.7950915]]]}, "properties": {"osm_id": 1321970301, "building": "yes", "name": "", "height": null, "height_m": null, "levels": null, "tract_id": "40115574900", "tract_name": "5749", "tags": {"building": "yes"}}}, {"type": "Feature", "geometry": {"type": "Polygon", "coordinates": [[[-94.7223212, 36.7953018], [-94.7223205, 36.7952654], [-94.7222624, 36.7952661], [-94.7222631, 36.7953025], [-94.7223212, 36.7953018]]]}, "properties": {"osm_id": 1321970302, "building": "yes", "name": "", "height": null, "height_m": null, "levels": null, "tract_id": "40115574900", "tract_name": "5749", "tags": {"building": "yes"}}}, {"type": "Feature", "geometry": {"type": "Polygon", "coordinates": [[[-94.7220137, 36.795423], [-94.7220131, 36.7952813], [-94.7221425, 36.7952809], [-94.7221431, 36.7954226], [-94.7220137, 36.795423]]]}, "properties": {"osm_id": 1321970303, "building": "yes", "name": "", "height": null, "height_m": null, "levels": null, "tract_id": "40115574900", "tract_name": "5749", "tags": {"building": "yes"}}}, {"type": "Feature", "geometry": {"type": "Polygon", "coordinates": [[[-94.7221044, 36.7956322], [-94.7219896, 36.7956332], [-94.7219879, 36.7955038], [-94.7221514, 36.7955025], [-94.7221526, 36.7955967], [-94.7221039, 36.7955971], [-94.7221044, 36.7956322]]]}, "properties": {"osm_id": 1321970304, "building": "yes", "name": "", "height": null, "height_m": null, "levels": null, "tract_id": "40115574900", "tract_name": "5749", "tags": {"building": "yes"}}}, {"type": "Feature", "geometry": {"type": "Polygon", "coordinates": [[[-94.7223072, 36.7957251], [-94.7222528, 36.795729], [-94.7222477, 36.7956836], [-94.7223022, 36.7956797], [-94.7223072, 36.7957251]]]}, "properties": {"osm_id": 1321970305, "building": "yes", "name": "", "height": null, "height_m": null, "levels": null, "tract_id": "40115574900", "tract_name": "5749", "tags": {"building": "yes"}}}, {"type": "Feature", "geometry": {"type": "Polygon", "coordinates": [[[-94.7223156, 36.7957263], [-94.7222473, 36.7957316], [-94.7222513, 36.7957647], [-94.7223196, 36.7957594], [-94.7223156, 36.7957263]]]}, "properties": {"osm_id": 1321970306, "building": "yes", "name": "", "height": null, "height_m": null, "levels": null, "tract_id": "40115574900", "tract_name": "5749", "tags": {"building": "yes"}}}, {"type": "Feature", "geometry": {"type": "Polygon", "coordinates": [[[-94.7221873, 36.7958377], [-94.7221659, 36.7957351], [-94.7220732, 36.7957475], [-94.722082, 36.7957899], [-94.72205, 36.7957942], [-94.7220613, 36.7958483], [-94.7220913, 36.7958443], [-94.7220925, 36.7958504], [-94.7221873, 36.7958377]]]}, "properties": {"osm_id": 1321970307, "building": "yes", "name": "", "height": null, "height_m": null, "levels": null, "tract_id": "40115574900", "tract_name": "5749", "tags": {"building": "yes"}}}, {"type": "Feature", "geometry": {"type": "Polygon", "coordinates": [[[-94.7223803, 36.7935257], [-94.7223806, 36.793438], [-94.7221862, 36.7934375], [-94.7221859, 36.7935252], [-94.7223803, 36.7935257]]]}, "properties": {"osm_id": 1321970314, "building": "yes", "name": "", "height": null, "height_m": null, "levels": null, "tract_id": "40115574900", "tract_name": "5749", "tags": {"building": "yes"}}}, {"type": "Feature", "geometry": {"type": "Polygon", "coordinates": [[[-94.7217096, 36.7935443], [-94.7217118, 36.7934326], [-94.7216184, 36.7934314], [-94.7216161, 36.7935465], [-94.7216403, 36.7935469], [-94.72164, 36.7935577], [-94.721662, 36.793558], [-94.7216623, 36.7935437], [-94.7217096, 36.7935443]]]}, "properties": {"osm_id": 1321970315, "building": "yes", "name": "", "height": null, "height_m": null, "levels": null, "tract_id": "40115574900", "tract_name": "5749", "tags": {"building": "yes"}}}, {"type": "Feature", "geometry": {"type": "Polygon", "coordinates": [[[-94.7214746, 36.7935428], [-94.7214746, 36.7934637], [-94.7212334, 36.7934638], [-94.7212335, 36.793543], [-94.7214746, 36.7935428]]]}, "properties": {"osm_id": 1321970316, "building": "yes", "name": "", "height": null, "height_m": null, "levels": null, "tract_id": "40115574900", "tract_name": "5749", "tags": {"building": "yes"}}}, {"type": "Feature", "geometry": {"type": "Polygon", "coordinates": [[[-94.7211194, 36.7934881], [-94.7211321, 36.7933188], [-94.7209919, 36.7933121], [-94.7209858, 36.7933928], [-94.720962, 36.7933916], [-94.7209593, 36.7934277], [-94.7209826, 36.7934288], [-94.7209786, 36.7934813], [-94.7211194, 36.7934881]]]}, "properties": {"osm_id": 1321970317, "building": "yes", "name": "", "height": null, "height_m": null, "levels": null, "tract_id": "40115574900", "tract_name": "5749", "tags": {"building": "yes"}}}, {"type": "Feature", "geometry": {"type": "Polygon", "coordinates": [[[-94.72057, 36.7931088], [-94.7205212, 36.7931099], [-94.7205198, 36.7930706], [-94.7205054, 36.7930709], [-94.7205048, 36.7930545], [-94.7205198, 36.7930542], [-94.7205171, 36.7929772], [-94.7205654, 36.7929761], [-94.72057, 36.7931088]]]}, "properties": {"osm_id": 1321970318, "building": "static_caravan", "name": "", "height": null, "height_m": null, "levels": null, "tract_id": "40115574900", "tract_name": "5749", "tags": {"building": "static_caravan"}}}, {"type": "Feature", "geometry": {"type": "Polygon", "coordinates": [[[-94.7204543, 36.7928957], [-94.7204004, 36.7928941], [-94.7204024, 36.7928538], [-94.7204562, 36.7928555], [-94.7204543, 36.7928957]]]}, "properties": {"osm_id": 1321970319, "building": "yes", "name": "", "height": null, "height_m": null, "levels": null, "tract_id": "40115574900", "tract_name": "5749", "tags": {"building": "yes"}}}, {"type": "Feature", "geometry": {"type": "Polygon", "coordinates": [[[-94.7216825, 36.7941769], [-94.7216553, 36.7941768], [-94.7216556, 36.7941458], [-94.7216165, 36.7941455], [-94.7216168, 36.794114], [-94.7216547, 36.7941143], [-94.7216551, 36.794077], [-94.7216841, 36.7940771], [-94.721684, 36.7940854], [-94.721696, 36.7940855], [-94.7216956, 36.7941301], [-94.7216829, 36.79413], [-94.7216825, 36.7941769]]]}, "properties": {"osm_id": 1321992120, "building": "static_caravan", "name": "", "height": null, "height_m": null, "levels": null, "tract_id": "40115574900", "tract_name": "5749", "tags": {"building": "static_caravan"}}}, {"type": "Feature", "geometry": {"type": "Polygon", "coordinates": [[[-94.7215911, 36.7940655], [-94.721541, 36.7940631], [-94.7215454, 36.7940042], [-94.7215954, 36.7940066], [-94.7215911, 36.7940655]]]}, "properties": {"osm_id": 1321992121, "building": "yes", "name": "", "height": null, "height_m": null, "levels": null, "tract_id": "40115574900", "tract_name": "5749", "tags": {"building": "yes"}}}, {"type": "Feature", "geometry": {"type": "Polygon", "coordinates": [[[-94.7217483, 36.7943735], [-94.7217477, 36.7943516], [-94.7217691, 36.7943512], [-94.7217678, 36.7943009], [-94.7217416, 36.7943013], [-94.7217411, 36.7942804], [-94.7215646, 36.7942834], [-94.7215648, 36.7942889], [-94.7214693, 36.7942906], [-94.7214715, 36.7943726], [-94.7215658, 36.794371], [-94.7215659, 36.7943766], [-94.7217483, 36.7943735]]]}, "properties": {"osm_id": 1321992122, "building": "yes", "name": "", "height": null, "height_m": null, "levels": null, "tract_id": "40115574900", "tract_name": "5749", "tags": {"building": "yes"}}}, {"type": "Feature", "geometry": {"type": "Polygon", "coordinates": [[[-94.7215049, 36.7944666], [-94.7215049, 36.7944358], [-94.721449, 36.7944358], [-94.721449, 36.7944666], [-94.7215049, 36.7944666]]]}, "properties": {"osm_id": 1321992123, "building": "yes", "name": "", "height": null, "height_m": null, "levels": null, "tract_id": "40115574900", "tract_name": "5749", "tags": {"building": "yes"}}}, {"type": "Feature", "geometry": {"type": "Polygon", "coordinates": [[[-94.7213532, 36.7948213], [-94.7213532, 36.7947741], [-94.7214592, 36.7947742], [-94.7214593, 36.7947491], [-94.7215465, 36.7947492], [-94.7215464, 36.7947743], [-94.7216143, 36.7947743], [-94.7216143, 36.7948214], [-94.7213532, 36.7948213]]]}, "properties": {"osm_id": 1321992124, "building": "yes", "name": "", "height": null, "height_m": null, "levels": null, "tract_id": "40115574900", "tract_name": "5749", "tags": {"building": "yes"}}}, {"type": "Feature", "geometry": {"type": "Polygon", "coordinates": [[[-94.7215834, 36.7950204], [-94.7215827, 36.7949375], [-94.7216898, 36.794937], [-94.7216905, 36.7950199], [-94.7215834, 36.7950204]]]}, "properties": {"osm_id": 1321992125, "building": "yes", "name": "", "height": null, "height_m": null, "levels": null, "tract_id": "40115574900", "tract_name": "5749", "tags": {"building": "yes"}}}, {"type": "Feature", "geometry": {"type": "Polygon", "coordinates": [[[-94.7215838, 36.7952113], [-94.7215824, 36.7950815], [-94.7216946, 36.7950807], [-94.721696, 36.7952105], [-94.7215838, 36.7952113]]]}, "properties": {"osm_id": 1321992126, "building": "yes", "name": "", "height": null, "height_m": null, "levels": null, "tract_id": "40115574900", "tract_name": "5749", "tags": {"building": "yes"}}}, {"type": "Feature", "geometry": {"type": "Polygon", "coordinates": [[[-94.7214145, 36.7949694], [-94.721415, 36.7949261], [-94.7213919, 36.7949259], [-94.7213923, 36.7948867], [-94.721464, 36.7948872], [-94.7214631, 36.7949698], [-94.7214145, 36.7949694]]]}, "properties": {"osm_id": 1321992127, "building": "yes", "name": "", "height": null, "height_m": null, "levels": null, "tract_id": "40115574900", "tract_name": "5749", "tags": {"building": "yes"}}}, {"type": "Feature", "geometry": {"type": "Polygon", "coordinates": [[[-94.7217245, 36.795412], [-94.7217237, 36.7953571], [-94.7216907, 36.7953574], [-94.7216895, 36.7952714], [-94.7215172, 36.7952729], [-94.7215191, 36.7954138], [-94.7217245, 36.795412]]]}, "properties": {"osm_id": 1321992128, "building": "yes", "name": "", "height": null, "height_m": null, "levels": null, "tract_id": "40115574900", "tract_name": "5749", "tags": {"building": "yes"}}}, {"type": "Feature", "geometry": {"type": "Polygon", "coordinates": [[[-94.7215798, 36.7955826], [-94.7216929, 36.7955826], [-94.7216929, 36.7954537], [-94.7215798, 36.7954537], [-94.7215798, 36.7955826]]]}, "properties": {"osm_id": 1321992129, "building": "yes", "name": "", "height": null, "height_m": null, "levels": null, "tract_id": "40115574900", "tract_name": "5749", "tags": {"building": "yes"}}}, {"type": "Feature", "geometry": {"type": "Polygon", "coordinates": [[[-94.7216973, 36.7957841], [-94.7215831, 36.7957845], [-94.7215824, 36.7956388], [-94.7216966, 36.7956384], [-94.7216973, 36.7957841]]]}, "properties": {"osm_id": 1321992130, "building": "yes", "name": "", "height": null, "height_m": null, "levels": null, "tract_id": "40115574900", "tract_name": "5749", "tags": {"building": "yes"}}}, {"type": "Feature", "geometry": {"type": "Polygon", "coordinates": [[[-94.7215626, 36.7958056], [-94.7215621, 36.7958636], [-94.7217001, 36.7958644], [-94.7217006, 36.7958064], [-94.7215626, 36.7958056]]]}, "properties": {"osm_id": 1321992131, "building": "yes", "name": "", "height": null, "height_m": null, "levels": null, "tract_id": "40115574900", "tract_name": "5749", "tags": {"building": "yes"}}}, {"type": "Feature", "geometry": {"type": "Polygon", "coordinates": [[[-94.7215425, 36.7958964], [-94.7215419, 36.7958675], [-94.7216124, 36.7958665], [-94.721613, 36.7958954], [-94.7215425, 36.7958964]]]}, "properties": {"osm_id": 1321992132, "building": "yes", "name": "", "height": null, "height_m": null, "levels": null, "tract_id": "40115574900", "tract_name": "5749", "tags": {"building": "yes"}}}, {"type": "Feature", "geometry": {"type": "Polygon", "coordinates": [[[-94.72162, 36.7958992], [-94.7215, 36.7958995], [-94.7215006, 36.7960439], [-94.7216206, 36.7960436], [-94.72162, 36.7958992]]]}, "properties": {"osm_id": 1321992133, "building": "yes", "name": "", "height": null, "height_m": null, "levels": null, "tract_id": "40115574900", "tract_name": "5749", "tags": {"building": "yes"}}}, {"type": "Feature", "geometry": {"type": "Polygon", "coordinates": [[[-94.7212439, 36.7959606], [-94.7211927, 36.7959609], [-94.7211917, 36.7958658], [-94.7212429, 36.7958655], [-94.7212439, 36.7959606]]]}, "properties": {"osm_id": 1321992134, "building": "yes", "name": "", "height": null, "height_m": null, "levels": null, "tract_id": "40115574900", "tract_name": "5749", "tags": {"building": "yes"}}}, {"type": "Feature", "geometry": {"type": "Polygon", "coordinates": [[[-94.7211234, 36.7960313], [-94.7210217, 36.7960348], [-94.7210126, 36.7958628], [-94.7211143, 36.7958593], [-94.7211234, 36.7960313]]]}, "properties": {"osm_id": 1321992135, "building": "yes", "name": "", "height": null, "height_m": null, "levels": null, "tract_id": "40115574900", "tract_name": "5749", "tags": {"building": "yes"}}}, {"type": "Feature", "geometry": {"type": "Polygon", "coordinates": [[[-94.7211721, 36.7958261], [-94.7210594, 36.7958297], [-94.7210545, 36.7957336], [-94.7211673, 36.79573], [-94.7211721, 36.7958261]]]}, "properties": {"osm_id": 1321992136, "building": "yes", "name": "", "height": null, "height_m": null, "levels": null, "tract_id": "40115574900", "tract_name": "5749", "tags": {"building": "yes"}}}, {"type": "Feature", "geometry": {"type": "Polygon", "coordinates": [[[-94.7211344, 36.7957057], [-94.721136, 36.7955341], [-94.7210175, 36.7955334], [-94.7210159, 36.795705], [-94.7211344, 36.7957057]]]}, "properties": {"osm_id": 1321992137, "building": "yes", "name": "", "height": null, "height_m": null, "levels": null, "tract_id": "40115574900", "tract_name": "5749", "tags": {"building": "yes"}}}, {"type": "Feature", "geometry": {"type": "Polygon", "coordinates": [[[-94.7210205, 36.7954971], [-94.7210213, 36.7953431], [-94.7209127, 36.7953428], [-94.7209118, 36.7954967], [-94.7210205, 36.7954971]]]}, "properties": {"osm_id": 1321992138, "building": "yes", "name": "", "height": null, "height_m": null, "levels": null, "tract_id": "40115574900", "tract_name": "5749", "tags": {"building": "yes"}}}, {"type": "Feature", "geometry": {"type": "Polygon", "coordinates": [[[-94.7210603, 36.795308], [-94.7209006, 36.7953063], [-94.7209037, 36.7951254], [-94.7210284, 36.7951268], [-94.7210296, 36.7950577], [-94.7211239, 36.7950587], [-94.7211225, 36.7951392], [-94.7210632, 36.7951386], [-94.7210603, 36.795308]]]}, "properties": {"osm_id": 1321992139, "building": "yes", "name": "", "height": null, "height_m": null, "levels": null, "tract_id": "40115574900", "tract_name": "5749", "tags": {"building": "yes"}}}, {"type": "Feature", "geometry": {"type": "Polygon", "coordinates": [[[-94.7209503, 36.7947063], [-94.7210502, 36.7947017], [-94.7210404, 36.7945661], [-94.7209396, 36.7945708], [-94.7209408, 36.7945874], [-94.7208797, 36.7945902], [-94.7208835, 36.7946423], [-94.7209455, 36.7946395], [-94.7209503, 36.7947063]]]}, "properties": {"osm_id": 1321992140, "building": "yes", "name": "", "height": null, "height_m": null, "levels": null, "tract_id": "40115574900", "tract_name": "5749", "tags": {"building": "yes"}}}, {"type": "Feature", "geometry": {"type": "Polygon", "coordinates": [[[-94.7210119, 36.7945618], [-94.7209404, 36.7945691], [-94.7209337, 36.7945268], [-94.7210052, 36.7945195], [-94.7210119, 36.7945618]]]}, "properties": {"osm_id": 1321992141, "building": "yes", "name": "", "height": null, "height_m": null, "levels": null, "tract_id": "40115574900", "tract_name": "5749", "tags": {"building": "yes"}}}, {"type": "Feature", "geometry": {"type": "Polygon", "coordinates": [[[-94.7209834, 36.7943056], [-94.7209277, 36.7943052], [-94.7209259, 36.7944987], [-94.7209815, 36.7944991], [-94.7209834, 36.7943056]]]}, "properties": {"osm_id": 1321992142, "building": "static_caravan", "name": "", "height": null, "height_m": null, "levels": null, "tract_id": "40115574900", "tract_name": "5749", "tags": {"building": "static_caravan"}}}, {"type": "Feature", "geometry": {"type": "Polygon", "coordinates": [[[-94.7209884, 36.793997], [-94.7208526, 36.7939969], [-94.7208528, 36.793859], [-94.7209887, 36.7938592], [-94.7209884, 36.793997]]]}, "properties": {"osm_id": 1321992143, "building": "static_caravan", "name": "", "height": null, "height_m": null, "levels": null, "tract_id": "40115574900", "tract_name": "5749", "tags": {"building": "static_caravan"}}}, {"type": "Feature", "geometry": {"type": "Polygon", "coordinates": [[[-94.7210864, 36.7939708], [-94.7210885, 36.7940093], [-94.7213184, 36.7940013], [-94.7213163, 36.7939628], [-94.7210864, 36.7939708]]]}, "properties": {"osm_id": 1321992144, "building": "yes", "name": "", "height": null, "height_m": null, "levels": null, "tract_id": "40115574900", "tract_name": "5749", "tags": {"building": "yes"}}}, {"type": "Feature", "geometry": {"type": "Polygon", "coordinates": [[[-94.7213304, 36.7938587], [-94.7212256, 36.7938601], [-94.7212275, 36.793954], [-94.7213323, 36.7939527], [-94.7213304, 36.7938587]]]}, "properties": {"osm_id": 1321992145, "building": "yes", "name": "", "height": null, "height_m": null, "levels": null, "tract_id": "40115574900", "tract_name": "5749", "tags": {"building": "yes"}}}, {"type": "Feature", "geometry": {"type": "Polygon", "coordinates": [[[-94.7204284, 36.7940174], [-94.7204296, 36.7938951], [-94.7205266, 36.7938957], [-94.7205266, 36.7939023], [-94.7205589, 36.7939025], [-94.7205586, 36.7939361], [-94.7205293, 36.7939359], [-94.7205285, 36.794018], [-94.7204284, 36.7940174]]]}, "properties": {"osm_id": 1321992146, "building": "yes", "name": "", "height": null, "height_m": null, "levels": null, "tract_id": "40115574900", "tract_name": "5749", "tags": {"building": "yes"}}}, {"type": "Feature", "geometry": {"type": "Polygon", "coordinates": [[[-94.7202331, 36.7940102], [-94.7201353, 36.7940109], [-94.720134, 36.7938865], [-94.7201673, 36.7938863], [-94.7201671, 36.7938736], [-94.7201957, 36.7938734], [-94.7201958, 36.7938868], [-94.7202319, 36.7938866], [-94.7202331, 36.7940102]]]}, "properties": {"osm_id": 1321992147, "building": "yes", "name": "", "height": null, "height_m": null, "levels": null, "tract_id": "40115574900", "tract_name": "5749", "tags": {"building": "yes"}}}, {"type": "Feature", "geometry": {"type": "Polygon", "coordinates": [[[-94.7203863, 36.7941839], [-94.7203879, 36.7940991], [-94.7205231, 36.7941008], [-94.7205215, 36.7941856], [-94.7203863, 36.7941839]]]}, "properties": {"osm_id": 1321992148, "building": "yes", "name": "", "height": null, "height_m": null, "levels": null, "tract_id": "40115574900", "tract_name": "5749", "tags": {"building": "yes"}}}, {"type": "Feature", "geometry": {"type": "Polygon", "coordinates": [[[-94.7204474, 36.794484], [-94.7204473, 36.7943374], [-94.7205447, 36.7943373], [-94.7205448, 36.7944839], [-94.7204474, 36.794484]]]}, "properties": {"osm_id": 1321992149, "building": "yes", "name": "", "height": null, "height_m": null, "levels": null, "tract_id": "40115574900", "tract_name": "5749", "tags": {"building": "yes"}}}, {"type": "Feature", "geometry": {"type": "Polygon", "coordinates": [[[-94.720542, 36.7945238], [-94.7203583, 36.794525], [-94.7203591, 36.7946084], [-94.7205429, 36.7946073], [-94.720542, 36.7945238]]]}, "properties": {"osm_id": 1321992150, "building": "yes", "name": "", "height": null, "height_m": null, "levels": null, "tract_id": "40115574900", "tract_name": "5749", "tags": {"building": "yes"}}}, {"type": "Feature", "geometry": {"type": "Polygon", "coordinates": [[[-94.7205938, 36.7947093], [-94.7205939, 36.7946695], [-94.7203396, 36.7946689], [-94.7203394, 36.7947087], [-94.7205938, 36.7947093]]]}, "properties": {"osm_id": 1321992151, "building": "yes", "name": "", "height": null, "height_m": null, "levels": null, "tract_id": "40115574900", "tract_name": "5749", "tags": {"building": "yes"}}}, {"type": "Feature", "geometry": {"type": "Polygon", "coordinates": [[[-94.7205639, 36.7949897], [-94.7205096, 36.7949901], [-94.7205067, 36.7947799], [-94.7205613, 36.7947794], [-94.7205625, 36.7948665], [-94.7205937, 36.7948663], [-94.7205943, 36.7949152], [-94.7205629, 36.7949154], [-94.7205639, 36.7949897]]]}, "properties": {"osm_id": 1321992152, "building": "static_caravan", "name": "", "height": null, "height_m": null, "levels": null, "tract_id": "40115574900", "tract_name": "5749", "tags": {"building": "static_caravan"}}}, {"type": "Feature", "geometry": {"type": "Polygon", "coordinates": [[[-94.7199735, 36.793941], [-94.7199751, 36.7938571], [-94.7198969, 36.7938562], [-94.7198971, 36.7938451], [-94.7198557, 36.7938446], [-94.7198554, 36.7938582], [-94.7197474, 36.7938569], [-94.7197459, 36.7939383], [-94.7199735, 36.793941]]]}, "properties": {"osm_id": 1321992153, "building": "yes", "name": "", "height": null, "height_m": null, "levels": null, "tract_id": "40115574900", "tract_name": "5749", "tags": {"building": "yes"}}}, {"type": "Feature", "geometry": {"type": "Polygon", "coordinates": [[[-94.7192747, 36.7943127], [-94.7193607, 36.7943102], [-94.719359, 36.7942725], [-94.7194505, 36.7942698], [-94.7194465, 36.7941825], [-94.7191548, 36.7941909], [-94.7191585, 36.7942749], [-94.7192729, 36.7942716], [-94.7192747, 36.7943127]]]}, "properties": {"osm_id": 1321992154, "building": "yes", "name": "", "height": null, "height_m": null, "levels": null, "tract_id": "40115574900", "tract_name": "5749", "tags": {"building": "yes"}}}, {"type": "Feature", "geometry": {"type": "Polygon", "coordinates": [[[-94.7192209, 36.7943636], [-94.7192217, 36.7943317], [-94.7191634, 36.7943308], [-94.7191626, 36.7943626], [-94.7192209, 36.7943636]]]}, "properties": {"osm_id": 1321992155, "building": "yes", "name": "", "height": null, "height_m": null, "levels": null, "tract_id": "40115574900", "tract_name": "5749", "tags": {"building": "yes"}}}, {"type": "Feature", "geometry": {"type": "Polygon", "coordinates": [[[-94.7190771, 36.7941232], [-94.7190288, 36.7941355], [-94.7190348, 36.7941504], [-94.7189819, 36.794164], [-94.7189712, 36.7941371], [-94.7189229, 36.7941495], [-94.7188433, 36.7939501], [-94.7188991, 36.7939358], [-94.718915, 36.7939756], [-94.7189653, 36.7939627], [-94.7189822, 36.7940053], [-94.7190256, 36.7939942], [-94.7190771, 36.7941232]]]}, "properties": {"osm_id": 1321992156, "building": "yes", "name": "", "height": null, "height_m": null, "levels": null, "tract_id": "40115574900", "tract_name": "5749", "tags": {"building": "yes"}}}, {"type": "Feature", "geometry": {"type": "Polygon", "coordinates": [[[-94.7187376, 36.7939712], [-94.7187363, 36.7938724], [-94.7185381, 36.7938741], [-94.7185393, 36.7939729], [-94.7187376, 36.7939712]]]}, "properties": {"osm_id": 1321992157, "building": "yes", "name": "", "height": null, "height_m": null, "levels": null, "tract_id": "40115574900", "tract_name": "5749", "tags": {"building": "yes"}}}, {"type": "Feature", "geometry": {"type": "Polygon", "coordinates": [[[-94.7182275, 36.7938184], [-94.7182276, 36.7939171], [-94.7182361, 36.7939171], [-94.7182362, 36.7939618], [-94.7182684, 36.7939618], [-94.7182684, 36.7939879], [-94.7183248, 36.7939879], [-94.7183247, 36.7938394], [-94.7183104, 36.7938394], [-94.7183103, 36.7937904], [-94.7182334, 36.7937904], [-94.7182334, 36.7938184], [-94.7182275, 36.7938184]]]}, "properties": {"osm_id": 1321992158, "building": "yes", "name": "", "height": null, "height_m": null, "levels": null, "tract_id": "40115574900", "tract_name": "5749", "tags": {"building": "yes"}}}, {"type": "Feature", "geometry": {"type": "Polygon", "coordinates": [[[-94.7180606, 36.7933686], [-94.7180601, 36.7932859], [-94.7182247, 36.7932834], [-94.7182251, 36.7933084], [-94.7182448, 36.7933081], [-94.7182434, 36.7933431], [-94.7182255, 36.7933431], [-94.7182247, 36.7933686], [-94.7180606, 36.7933686]]]}, "properties": {"osm_id": 1321992159, "building": "yes", "name": "", "height": null, "height_m": null, "levels": null, "tract_id": "40115574900", "tract_name": "5749", "tags": {"building": "yes"}}}, {"type": "Feature", "geometry": {"type": "Polygon", "coordinates": [[[-94.7178935, 36.7932106], [-94.7180041, 36.7932105], [-94.718004, 36.7930977], [-94.7182684, 36.7930975], [-94.7182681, 36.7928691], [-94.7181299, 36.7928692], [-94.71813, 36.7929753], [-94.7179675, 36.7929754], [-94.7179676, 36.7930911], [-94.7178934, 36.7930911], [-94.7178935, 36.7932106]]]}, "properties": {"osm_id": 1321992160, "building": "yes", "name": "", "height": null, "height_m": null, "levels": null, "tract_id": "40115574900", "tract_name": "5749", "tags": {"building": "yes"}}}, {"type": "Feature", "geometry": {"type": "Polygon", "coordinates": [[[-94.7196675, 36.7935422], [-94.7196677, 36.7934335], [-94.7198436, 36.7934337], [-94.7198434, 36.7935424], [-94.7196675, 36.7935422]]]}, "properties": {"osm_id": 1321992161, "building": "yes", "name": "", "height": null, "height_m": null, "levels": null, "tract_id": "40115574900", "tract_name": "5749", "tags": {"building": "yes"}}}, {"type": "Feature", "geometry": {"type": "Polygon", "coordinates": [[[-94.7195354, 36.7933992], [-94.7195275, 36.7933378], [-94.7195935, 36.7933324], [-94.7196014, 36.7933937], [-94.7195354, 36.7933992]]]}, "properties": {"osm_id": 1321992162, "building": "yes", "name": "", "height": null, "height_m": null, "levels": null, "tract_id": "40115574900", "tract_name": "5749", "tags": {"building": "yes"}}}, {"type": "Feature", "geometry": {"type": "Polygon", "coordinates": [[[-94.7195816, 36.7931792], [-94.7195758, 36.7931094], [-94.7196581, 36.7931069], [-94.7196585, 36.7931119], [-94.7196965, 36.7931112], [-94.7197005, 36.7931792], [-94.7195816, 36.7931792]]]}, "properties": {"osm_id": 1321992163, "building": "yes", "name": "", "height": null, "height_m": null, "levels": null, "tract_id": "40115574900", "tract_name": "5749", "tags": {"building": "yes"}}}, {"type": "Feature", "geometry": {"type": "Polygon", "coordinates": [[[-94.7197012, 36.7931167], [-94.7196993, 36.793065], [-94.7196929, 36.7930651], [-94.7196909, 36.7930108], [-94.7196981, 36.7930107], [-94.7196967, 36.7929724], [-94.7198819, 36.792968], [-94.7198834, 36.7930095], [-94.7199546, 36.7930078], [-94.7199607, 36.7931706], [-94.7198651, 36.7931728], [-94.7198622, 36.7930966], [-94.7198499, 36.7930969], [-94.7198505, 36.7931131], [-94.7197012, 36.7931167]]]}, "properties": {"osm_id": 1321992164, "building": "yes", "name": "", "height": null, "height_m": null, "levels": null, "tract_id": "40115574900", "tract_name": "5749", "tags": {"building": "yes"}}}, {"type": "Feature", "geometry": {"type": "Polygon", "coordinates": [[[-94.7198786, 36.7927045], [-94.7197945, 36.7927042], [-94.7197947, 36.7926646], [-94.7197578, 36.7926644], [-94.7197582, 36.7926128], [-94.7198247, 36.7926131], [-94.7198248, 36.7925988], [-94.7199206, 36.7925992], [-94.71992, 36.792688], [-94.7198787, 36.7926878], [-94.7198786, 36.7927045]]]}, "properties": {"osm_id": 1321992165, "building": "yes", "name": "", "height": null, "height_m": null, "levels": null, "tract_id": "40115574900", "tract_name": "5749", "tags": {"building": "yes"}}}, {"type": "Feature", "geometry": {"type": "Polygon", "coordinates": [[[-94.7191613, 36.7928865], [-94.7191018, 36.7928253], [-94.7192932, 36.792705], [-94.71935, 36.792768], [-94.7191613, 36.7928865]]]}, "properties": {"osm_id": 1321992166, "building": "yes", "name": "", "height": null, "height_m": null, "levels": null, "tract_id": "40115574900", "tract_name": "5749", "tags": {"building": "yes"}}}, {"type": "Feature", "geometry": {"type": "Polygon", "coordinates": [[[-94.7193657, 36.7927702], [-94.7193012, 36.7926999], [-94.7194112, 36.7926351], [-94.7194758, 36.7927054], [-94.7193657, 36.7927702]]]}, "properties": {"osm_id": 1321992167, "building": "yes", "name": "", "height": null, "height_m": null, "levels": null, "tract_id": "40115574900", "tract_name": "5749", "tags": {"building": "yes"}}}, {"type": "Feature", "geometry": {"type": "Polygon", "coordinates": [[[-94.7192067, 36.7933403], [-94.7192054, 36.7932504], [-94.7193393, 36.7932491], [-94.7193404, 36.7933196], [-94.719328, 36.7933197], [-94.7193283, 36.7933356], [-94.7193009, 36.7933359], [-94.7193011, 36.7933472], [-94.7192747, 36.7933474], [-94.7192746, 36.7933396], [-94.7192067, 36.7933403]]]}, "properties": {"osm_id": 1321992168, "building": "yes", "name": "", "height": null, "height_m": null, "levels": null, "tract_id": "40115574900", "tract_name": "5749", "tags": {"building": "yes"}}}, {"type": "Feature", "geometry": {"type": "Polygon", "coordinates": [[[-94.7194097, 36.7934671], [-94.7194105, 36.7934594], [-94.7194231, 36.7934602], [-94.7194277, 36.7934136], [-94.7194148, 36.7934128], [-94.7194153, 36.7934069], [-94.7193548, 36.7934031], [-94.7193488, 36.7934633], [-94.7194097, 36.7934671]]]}, "properties": {"osm_id": 1321992169, "building": "yes", "name": "", "height": null, "height_m": null, "levels": null, "tract_id": "40115574900", "tract_name": "5749", "tags": {"building": "yes"}}}, {"type": "Feature", "geometry": {"type": "Polygon", "coordinates": [[[-94.7193382, 36.7935232], [-94.719348, 36.7934315], [-94.7190571, 36.7934115], [-94.7190472, 36.7935039], [-94.7191638, 36.7935119], [-94.7191621, 36.7935277], [-94.7192327, 36.7935325], [-94.7192345, 36.7935161], [-94.7193382, 36.7935232]]]}, "properties": {"osm_id": 1321992170, "building": "yes", "name": "", "height": null, "height_m": null, "levels": null, "tract_id": "40115574900", "tract_name": "5749", "tags": {"building": "yes"}}}, {"type": "Feature", "geometry": {"type": "Polygon", "coordinates": [[[-94.7187036, 36.7935206], [-94.7188594, 36.7935182], [-94.7188539, 36.7932907], [-94.7187622, 36.7932921], [-94.7187654, 36.7934275], [-94.7187014, 36.7934285], [-94.7187036, 36.7935206]]]}, "properties": {"osm_id": 1321992171, "building": "yes", "name": "", "height": null, "height_m": null, "levels": null, "tract_id": "40115574900", "tract_name": "5749", "tags": {"building": "yes"}}}, {"type": "Feature", "geometry": {"type": "Polygon", "coordinates": [[[-94.7189477, 36.7922355], [-94.7189484, 36.7921667], [-94.718931, 36.7921666], [-94.7189319, 36.7920836], [-94.7189473, 36.7920837], [-94.7189477, 36.7920467], [-94.7191387, 36.792048], [-94.7191379, 36.7921289], [-94.7190667, 36.7921284], [-94.7190655, 36.7922363], [-94.7189477, 36.7922355]]]}, "properties": {"osm_id": 1321992172, "building": "yes", "name": "", "height": null, "height_m": null, "levels": null, "tract_id": "40115574900", "tract_name": "5749", "tags": {"building": "yes"}}}, {"type": "Feature", "geometry": {"type": "Polygon", "coordinates": [[[-94.719298, 36.7921053], [-94.7192959, 36.7920488], [-94.7191565, 36.7920522], [-94.7191586, 36.7921087], [-94.719298, 36.7921053]]]}, "properties": {"osm_id": 1321992173, "building": "yes", "name": "", "height": null, "height_m": null, "levels": null, "tract_id": "40115574900", "tract_name": "5749", "tags": {"building": "yes"}}}, {"type": "Feature", "geometry": {"type": "Polygon", "coordinates": [[[-94.7191341, 36.7920204], [-94.7191311, 36.7919524], [-94.719262, 36.7919488], [-94.719265, 36.7920168], [-94.7191341, 36.7920204]]]}, "properties": {"osm_id": 1321992174, "building": "yes", "name": "", "height": null, "height_m": null, "levels": null, "tract_id": "40115574900", "tract_name": "5749", "tags": {"building": "yes"}}}, {"type": "Feature", "geometry": {"type": "Polygon", "coordinates": [[[-94.7186788, 36.7915927], [-94.7187026, 36.7915925], [-94.7187027, 36.7915984], [-94.7188496, 36.791597], [-94.7188488, 36.7915418], [-94.7188097, 36.7915422], [-94.7188092, 36.7915024], [-94.7187302, 36.7915031], [-94.7187307, 36.791542], [-94.7186781, 36.7915425], [-94.7186788, 36.7915927]]]}, "properties": {"osm_id": 1321992175, "building": "yes", "name": "", "height": null, "height_m": null, "levels": null, "tract_id": "40115574900", "tract_name": "5749", "tags": {"building": "yes"}}}, {"type": "Feature", "geometry": {"type": "Polygon", "coordinates": [[[-94.7187231, 36.7948611], [-94.7186544, 36.7948624], [-94.7186554, 36.7948975], [-94.7185489, 36.7948995], [-94.7185512, 36.7949777], [-94.7187264, 36.7949745], [-94.7187231, 36.7948611]]]}, "properties": {"osm_id": 1321996622, "building": "yes", "name": "", "height": null, "height_m": null, "levels": null, "tract_id": "40115574900", "tract_name": "5749", "tags": {"building": "yes"}}}, {"type": "Feature", "geometry": {"type": "Polygon", "coordinates": [[[-94.7190496, 36.7915734], [-94.7191432, 36.791573], [-94.7191424, 36.7914733], [-94.7190488, 36.7914737], [-94.7190496, 36.7915734]]]}, "properties": {"osm_id": 1321996623, "building": "yes", "name": "", "height": null, "height_m": null, "levels": null, "tract_id": "40115574900", "tract_name": "5749", "tags": {"building": "yes"}}}, {"type": "Feature", "geometry": {"type": "Polygon", "coordinates": [[[-94.7182025, 36.7916496], [-94.71817, 36.7916497], [-94.7181701, 36.791672], [-94.7179474, 36.7916726], [-94.7179473, 36.7916505], [-94.7179145, 36.7916506], [-94.7179142, 36.7915788], [-94.7182022, 36.7915781], [-94.7182025, 36.7916496]]]}, "properties": {"osm_id": 1321996624, "building": "yes", "name": "", "height": null, "height_m": null, "levels": null, "tract_id": "40115574900", "tract_name": "5749", "tags": {"building": "yes"}}}, {"type": "Feature", "geometry": {"type": "Polygon", "coordinates": [[[-94.7177226, 36.7917565], [-94.7177215, 36.7917102], [-94.7177566, 36.7917097], [-94.7177543, 36.7916117], [-94.7177197, 36.7916122], [-94.7177187, 36.7915668], [-94.7175673, 36.7915691], [-94.7175683, 36.7916136], [-94.7175341, 36.7916141], [-94.7175364, 36.7917139], [-94.7175705, 36.7917134], [-94.7175716, 36.7917588], [-94.7177226, 36.7917565]]]}, "properties": {"osm_id": 1321996625, "building": "yes", "name": "", "height": null, "height_m": null, "levels": null, "tract_id": "40115574900", "tract_name": "5749", "tags": {"building": "yes"}}}, {"type": "Feature", "geometry": {"type": "Polygon", "coordinates": [[[-94.7174185, 36.7916469], [-94.7174182, 36.791578], [-94.7171827, 36.7915787], [-94.717183, 36.7916464], [-94.7172369, 36.7916462], [-94.717237, 36.7916758], [-94.7173652, 36.7916754], [-94.7173651, 36.791647], [-94.7174185, 36.7916469]]]}, "properties": {"osm_id": 1321996626, "building": "yes", "name": "", "height": null, "height_m": null, "levels": null, "tract_id": "40115574900", "tract_name": "5749", "tags": {"building": "yes"}}}, {"type": "Feature", "geometry": {"type": "Polygon", "coordinates": [[[-94.7170488, 36.7917855], [-94.7170488, 36.791751], [-94.7170984, 36.791751], [-94.7170983, 36.7916187], [-94.7170442, 36.7916187], [-94.7170442, 36.7915868], [-94.7169095, 36.7915868], [-94.7169095, 36.7916205], [-94.7168621, 36.7916205], [-94.7168622, 36.7917526], [-94.71691, 36.7917526], [-94.7169101, 36.7917855], [-94.7170488, 36.7917855]]]}, "properties": {"osm_id": 1321996627, "building": "yes", "name": "", "height": null, "height_m": null, "levels": null, "tract_id": "40115574900", "tract_name": "5749", "tags": {"building": "yes"}}}, {"type": "Feature", "geometry": {"type": "Polygon", "coordinates": [[[-94.7165334, 36.7915924], [-94.716447, 36.7915921], [-94.7164458, 36.7918222], [-94.7165453, 36.7918226], [-94.7165455, 36.7917948], [-94.7165667, 36.7917949], [-94.7165677, 36.791618], [-94.7165332, 36.7916179], [-94.7165334, 36.7915924]]]}, "properties": {"osm_id": 1321996628, "building": "yes", "name": "", "height": null, "height_m": null, "levels": null, "tract_id": "40115574900", "tract_name": "5749", "tags": {"building": "yes"}}}, {"type": "Feature", "geometry": {"type": "Polygon", "coordinates": [[[-94.7165643, 36.792026], [-94.7164527, 36.7920254], [-94.7164542, 36.7918745], [-94.7165657, 36.7918752], [-94.7165643, 36.792026]]]}, "properties": {"osm_id": 1321996629, "building": "yes", "name": "", "height": null, "height_m": null, "levels": null, "tract_id": "40115574900", "tract_name": "5749", "tags": {"building": "yes"}}}, {"type": "Feature", "geometry": {"type": "Polygon", "coordinates": [[[-94.716481, 36.792331], [-94.7163916, 36.7923317], [-94.7163886, 36.7920987], [-94.7164774, 36.792098], [-94.7164778, 36.792126], [-94.7165067, 36.7921257], [-94.716509, 36.792305], [-94.7164807, 36.7923053], [-94.716481, 36.792331]]]}, "properties": {"osm_id": 1321996630, "building": "yes", "name": "", "height": null, "height_m": null, "levels": null, "tract_id": "40115574900", "tract_name": "5749", "tags": {"building": "yes"}}}, {"type": "Feature", "geometry": {"type": "Polygon", "coordinates": [[[-94.7167822, 36.79244], [-94.7165938, 36.7924391], [-94.7165945, 36.7923481], [-94.7167829, 36.7923491], [-94.7167822, 36.79244]]]}, "properties": {"osm_id": 1321996632, "building": "yes", "name": "", "height": null, "height_m": null, "levels": null, "tract_id": "40115574900", "tract_name": "5749", "tags": {"building": "yes"}}}, {"type": "Feature", "geometry": {"type": "Polygon", "coordinates": [[[-94.7170969, 36.7923842], [-94.7169232, 36.7924385], [-94.7168817, 36.7923533], [-94.7170554, 36.792299], [-94.7170969, 36.7923842]]]}, "properties": {"osm_id": 1321996633, "building": "yes", "name": "", "height": null, "height_m": null, "levels": null, "tract_id": "40115574900", "tract_name": "5749", "tags": {"building": "yes"}}}, {"type": "Feature", "geometry": {"type": "Polygon", "coordinates": [[[-94.7173885, 36.7923064], [-94.7172107, 36.7923607], [-94.7171703, 36.7922762], [-94.7173481, 36.7922218], [-94.7173885, 36.7923064]]]}, "properties": {"osm_id": 1321996634, "building": "yes", "name": "", "height": null, "height_m": null, "levels": null, "tract_id": "40115574900", "tract_name": "5749", "tags": {"building": "yes"}}}, {"type": "Feature", "geometry": {"type": "Polygon", "coordinates": [[[-94.7176481, 36.7921933], [-94.7174718, 36.7922446], [-94.7174338, 36.7921612], [-94.7176101, 36.7921098], [-94.7176481, 36.7921933]]]}, "properties": {"osm_id": 1321996635, "building": "yes", "name": "", "height": null, "height_m": null, "levels": null, "tract_id": "40115574900", "tract_name": "5749", "tags": {"building": "yes"}}}, {"type": "Feature", "geometry": {"type": "Polygon", "coordinates": [[[-94.7179304, 36.7921497], [-94.7178942, 36.79215], [-94.7178932, 36.7920347], [-94.7179294, 36.7920345], [-94.7179304, 36.7921497]]]}, "properties": {"osm_id": 1321996637, "building": "yes", "name": "", "height": null, "height_m": null, "levels": null, "tract_id": "40115574900", "tract_name": "5749", "tags": {"building": "yes"}}}, {"type": "Feature", "geometry": {"type": "Polygon", "coordinates": [[[-94.7180331, 36.7921485], [-94.7179712, 36.7921492], [-94.7179695, 36.7920511], [-94.7180315, 36.7920504], [-94.7180331, 36.7921485]]]}, "properties": {"osm_id": 1321996638, "building": "yes", "name": "", "height": null, "height_m": null, "levels": null, "tract_id": "40115574900", "tract_name": "5749", "tags": {"building": "yes"}}}, {"type": "Feature", "geometry": {"type": "Polygon", "coordinates": [[[-94.7180728, 36.7921502], [-94.7181103, 36.7921495], [-94.7181069, 36.792033], [-94.7180694, 36.7920337], [-94.7180728, 36.7921502]]]}, "properties": {"osm_id": 1321996639, "building": "yes", "name": "", "height": null, "height_m": null, "levels": null, "tract_id": "40115574900", "tract_name": "5749", "tags": {"building": "yes"}}}, {"type": "Feature", "geometry": {"type": "Polygon", "coordinates": [[[-94.7183087, 36.7920753], [-94.7181976, 36.7920774], [-94.7181931, 36.7919208], [-94.7183042, 36.7919187], [-94.7183087, 36.7920753]]]}, "properties": {"osm_id": 1321996640, "building": "yes", "name": "", "height": null, "height_m": null, "levels": null, "tract_id": "40115574900", "tract_name": "5749", "tags": {"building": "yes"}}}, {"type": "Feature", "geometry": {"type": "Polygon", "coordinates": [[[-94.7170529, 36.7920953], [-94.7170527, 36.792064], [-94.7171009, 36.7920639], [-94.7171002, 36.791926], [-94.7170483, 36.7919262], [-94.7170482, 36.7918956], [-94.7169103, 36.791896], [-94.7169105, 36.791931], [-94.7168636, 36.7919312], [-94.7168642, 36.7920594], [-94.7169127, 36.7920593], [-94.7169129, 36.7920957], [-94.7170529, 36.7920953]]]}, "properties": {"osm_id": 1321996641, "building": "yes", "name": "", "height": null, "height_m": null, "levels": null, "tract_id": "40115574900", "tract_name": "5749", "tags": {"building": "yes"}}}, {"type": "Feature", "geometry": {"type": "Polygon", "coordinates": [[[-94.7232336, 36.7955664], [-94.7232636, 36.7955615], [-94.7232456, 36.7954903], [-94.7232146, 36.7954953], [-94.7232203, 36.7955177], [-94.723209, 36.7955195], [-94.7232138, 36.7955382], [-94.723226, 36.7955363], [-94.7232336, 36.7955664]]]}, "properties": {"osm_id": 1321996648, "building": "yes", "name": "", "height": null, "height_m": null, "levels": null, "tract_id": "40115574900", "tract_name": "5749", "tags": {"building": "yes"}}}, {"type": "Feature", "geometry": {"type": "Polygon", "coordinates": [[[-94.7263421, 36.7897282], [-94.7261501, 36.7897237], [-94.7261526, 36.7896562], [-94.7261941, 36.7896572], [-94.7261943, 36.7896513], [-94.7263449, 36.7896549], [-94.7263421, 36.7897282]]]}, "properties": {"osm_id": 1321996649, "building": "yes", "name": "", "height": null, "height_m": null, "levels": null, "tract_id": "40115574900", "tract_name": "5749", "tags": {"building": "yes"}}}, {"type": "Feature", "geometry": {"type": "Polygon", "coordinates": [[[-94.7271231, 36.7898181], [-94.7271213, 36.7897893], [-94.7271761, 36.7897871], [-94.7271779, 36.789816], [-94.7271231, 36.7898181]]]}, "properties": {"osm_id": 1321996650, "building": "yes", "name": "", "height": null, "height_m": null, "levels": null, "tract_id": "40115574900", "tract_name": "5749", "tags": {"building": "yes"}}}, {"type": "Feature", "geometry": {"type": "Polygon", "coordinates": [[[-94.727409, 36.7897624], [-94.7272715, 36.7897666], [-94.7272676, 36.7896864], [-94.727353, 36.7896837], [-94.7273536, 36.7896962], [-94.7274057, 36.7896946], [-94.727409, 36.7897624]]]}, "properties": {"osm_id": 1321996651, "building": "yes", "name": "", "height": null, "height_m": null, "levels": null, "tract_id": "40115574900", "tract_name": "5749", "tags": {"building": "yes"}}}, {"type": "Feature", "geometry": {"type": "Polygon", "coordinates": [[[-94.7278926, 36.7897699], [-94.7278981, 36.7896906], [-94.7277697, 36.7896848], [-94.7277692, 36.7896916], [-94.7276785, 36.7896876], [-94.7276738, 36.7897552], [-94.7277613, 36.7897591], [-94.7277635, 36.7897641], [-94.7278926, 36.7897699]]]}, "properties": {"osm_id": 1321996652, "building": "yes", "name": "", "height": null, "height_m": null, "levels": null, "tract_id": "40115574900", "tract_name": "5749", "tags": {"building": "yes"}}}, {"type": "Feature", "geometry": {"type": "Polygon", "coordinates": [[[-94.7279488, 36.7897676], [-94.7279142, 36.789767], [-94.7279151, 36.7897334], [-94.7279497, 36.7897339], [-94.7279488, 36.7897676]]]}, "properties": {"osm_id": 1321996653, "building": "yes", "name": "", "height": null, "height_m": null, "levels": null, "tract_id": "40115574900", "tract_name": "5749", "tags": {"building": "yes"}}}, {"type": "Feature", "geometry": {"type": "Polygon", "coordinates": [[[-94.7283275, 36.7899065], [-94.7283225, 36.7898185], [-94.7285835, 36.7898089], [-94.7285886, 36.7898969], [-94.7283275, 36.7899065]]]}, "properties": {"osm_id": 1321996654, "building": "yes", "name": "", "height": null, "height_m": null, "levels": null, "tract_id": "40115574900", "tract_name": "5749", "tags": {"building": "yes"}}}, {"type": "Feature", "geometry": {"type": "Polygon", "coordinates": [[[-94.7291096, 36.7899003], [-94.7291191, 36.7897313], [-94.7293961, 36.7897413], [-94.7293955, 36.7897518], [-94.7294177, 36.7897526], [-94.7294163, 36.7897784], [-94.7293967, 36.7897777], [-94.7293893, 36.7899103], [-94.7291096, 36.7899003]]]}, "properties": {"osm_id": 1321996655, "building": "yes", "name": "", "height": null, "height_m": null, "levels": null, "tract_id": "40115574900", "tract_name": "5749", "tags": {"building": "yes"}}}, {"type": "Feature", "geometry": {"type": "Polygon", "coordinates": [[[-94.7290059, 36.7901403], [-94.7290054, 36.7900659], [-94.7291408, 36.7900653], [-94.7291413, 36.7901397], [-94.7290059, 36.7901403]]]}, "properties": {"osm_id": 1321996656, "building": "roof", "name": "", "height": null, "height_m": null, "levels": null, "tract_id": "40115574900", "tract_name": "5749", "tags": {"building": "roof", "layer": "1"}}}, {"type": "Feature", "geometry": {"type": "Polygon", "coordinates": [[[-94.7293842, 36.7901575], [-94.7293848, 36.7900605], [-94.7295341, 36.7900611], [-94.7295335, 36.790158], [-94.7293842, 36.7901575]]]}, "properties": {"osm_id": 1321996657, "building": "roof", "name": "", "height": null, "height_m": null, "levels": null, "tract_id": "40115574900", "tract_name": "5749", "tags": {"building": "roof", "layer": "1"}}}, {"type": "Feature", "geometry": {"type": "Polygon", "coordinates": [[[-94.7260279, 36.7894103], [-94.7261186, 36.7894106], [-94.7261192, 36.7892885], [-94.7260284, 36.7892882], [-94.7260279, 36.7894103]]]}, "properties": {"osm_id": 1321996658, "building": "yes", "name": "", "height": null, "height_m": null, "levels": null, "tract_id": "40115574900", "tract_name": "5749", "tags": {"building": "yes"}}}, {"type": "Feature", "geometry": {"type": "Polygon", "coordinates": [[[-94.7267235, 36.7893633], [-94.7266671, 36.7893622], [-94.7266675, 36.7893479], [-94.7266318, 36.7893472], [-94.7266343, 36.7892656], [-94.7266747, 36.7892664], [-94.7266775, 36.7891753], [-94.7267293, 36.7891763], [-94.7267235, 36.7893633]]]}, "properties": {"osm_id": 1321996659, "building": "static_caravan", "name": "", "height": null, "height_m": null, "levels": null, "tract_id": "40115574900", "tract_name": "5749", "tags": {"building": "static_caravan"}}}, {"type": "Feature", "geometry": {"type": "Polygon", "coordinates": [[[-94.72706, 36.7894419], [-94.7271596, 36.7894391], [-94.7271564, 36.7893653], [-94.7270568, 36.7893681], [-94.72706, 36.7894419]]]}, "properties": {"osm_id": 1321996660, "building": "yes", "name": "", "height": null, "height_m": null, "levels": null, "tract_id": "40115574900", "tract_name": "5749", "tags": {"building": "yes"}}}, {"type": "Feature", "geometry": {"type": "Polygon", "coordinates": [[[-94.7272523, 36.7891937], [-94.7272516, 36.7891426], [-94.7273173, 36.789142], [-94.727318, 36.7891932], [-94.7272523, 36.7891937]]]}, "properties": {"osm_id": 1321996661, "building": "yes", "name": "", "height": null, "height_m": null, "levels": null, "tract_id": "40115574900", "tract_name": "5749", "tags": {"building": "yes"}}}, {"type": "Feature", "geometry": {"type": "Polygon", "coordinates": [[[-94.7279654, 36.7894425], [-94.7279191, 36.7894415], [-94.7279206, 36.7894002], [-94.7278375, 36.7893984], [-94.7278382, 36.7893767], [-94.7278027, 36.7893759], [-94.7278024, 36.7893846], [-94.7277712, 36.7893839], [-94.7277715, 36.7893736], [-94.7277398, 36.7893729], [-94.7277411, 36.7893356], [-94.7278068, 36.789337], [-94.7278078, 36.7893067], [-94.7278753, 36.7893082], [-94.7278742, 36.7893396], [-94.727926, 36.7893407], [-94.7279262, 36.789333], [-94.7279769, 36.7893342], [-94.7279752, 36.7893834], [-94.7279674, 36.7893832], [-94.7279654, 36.7894425]]]}, "properties": {"osm_id": 1321996662, "building": "yes", "name": "", "height": null, "height_m": null, "levels": null, "tract_id": "40115574900", "tract_name": "5749", "tags": {"building": "yes"}}}, {"type": "Feature", "geometry": {"type": "Polygon", "coordinates": [[[-94.7284552, 36.789396], [-94.7284576, 36.7893144], [-94.7286238, 36.7893175], [-94.7286215, 36.7893991], [-94.7284552, 36.789396]]]}, "properties": {"osm_id": 1321996663, "building": "yes", "name": "", "height": null, "height_m": null, "levels": null, "tract_id": "40115574900", "tract_name": "5749", "tags": {"building": "yes"}}}, {"type": "Feature", "geometry": {"type": "Polygon", "coordinates": [[[-94.7282344, 36.7892621], [-94.7281715, 36.7892594], [-94.7281791, 36.7891454], [-94.728242, 36.7891481], [-94.7282344, 36.7892621]]]}, "properties": {"osm_id": 1321996664, "building": "yes", "name": "", "height": null, "height_m": null, "levels": null, "tract_id": "40115574900", "tract_name": "5749", "tags": {"building": "yes"}}}, {"type": "Feature", "geometry": {"type": "Polygon", "coordinates": [[[-94.7283866, 36.7887242], [-94.7285787, 36.7887216], [-94.7285749, 36.7885446], [-94.7284375, 36.7885464], [-94.7284391, 36.7886198], [-94.7283844, 36.7886206], [-94.7283866, 36.7887242]]]}, "properties": {"osm_id": 1321996665, "building": "yes", "name": "", "height": null, "height_m": null, "levels": null, "tract_id": "40115574900", "tract_name": "5749", "tags": {"building": "yes"}}}, {"type": "Feature", "geometry": {"type": "Polygon", "coordinates": [[[-94.7282893, 36.7888405], [-94.7284596, 36.788837], [-94.7284569, 36.7887514], [-94.7282866, 36.7887549], [-94.7282893, 36.7888405]]]}, "properties": {"osm_id": 1321996666, "building": "yes", "name": "", "height": null, "height_m": null, "levels": null, "tract_id": "40115574900", "tract_name": "5749", "tags": {"building": "yes"}}}, {"type": "Feature", "geometry": {"type": "Polygon", "coordinates": [[[-94.7289229, 36.7887669], [-94.7290358, 36.7887705], [-94.7290263, 36.7889621], [-94.7289255, 36.7889589], [-94.7289278, 36.7889128], [-94.7289158, 36.7889124], [-94.7289229, 36.7887669]]]}, "properties": {"osm_id": 1321996667, "building": "yes", "name": "", "height": null, "height_m": null, "levels": null, "tract_id": "40115574900", "tract_name": "5749", "tags": {"building": "yes"}}}, {"type": "Feature", "geometry": {"type": "Polygon", "coordinates": [[[-94.7295226, 36.7889114], [-94.7294183, 36.7889105], [-94.7294201, 36.7887584], [-94.7295245, 36.7887592], [-94.7295226, 36.7889114]]]}, "properties": {"osm_id": 1321996668, "building": "yes", "name": "", "height": null, "height_m": null, "levels": null, "tract_id": "40115574900", "tract_name": "5749", "tags": {"building": "yes"}}}, {"type": "Feature", "geometry": {"type": "Polygon", "coordinates": [[[-94.7295202, 36.7885878], [-94.7294131, 36.7885877], [-94.7294134, 36.7884163], [-94.7295201, 36.7884164], [-94.72952, 36.7884824], [-94.7295423, 36.7884824], [-94.7295423, 36.7885127], [-94.7295204, 36.7885127], [-94.7295202, 36.7885878]]]}, "properties": {"osm_id": 1321996669, "building": "yes", "name": "", "height": null, "height_m": null, "levels": null, "tract_id": "40115574900", "tract_name": "5749", "tags": {"building": "yes"}}}, {"type": "Feature", "geometry": {"type": "Polygon", "coordinates": [[[-94.7293453, 36.7882571], [-94.7295477, 36.7882568], [-94.7295474, 36.7881303], [-94.729345, 36.7881306], [-94.7293453, 36.7882571]]]}, "properties": {"osm_id": 1321996670, "building": "yes", "name": "", "height": null, "height_m": null, "levels": null, "tract_id": "40115574900", "tract_name": "5749", "tags": {"building": "yes"}}}, {"type": "Feature", "geometry": {"type": "Polygon", "coordinates": [[[-94.7286503, 36.7881946], [-94.7286479, 36.7881276], [-94.7287408, 36.7881255], [-94.7287398, 36.788098], [-94.7288292, 36.788096], [-94.7288302, 36.7881259], [-94.7289139, 36.788124], [-94.7289167, 36.7882039], [-94.7287495, 36.7882077], [-94.728749, 36.7881924], [-94.7286503, 36.7881946]]]}, "properties": {"osm_id": 1321996671, "building": "yes", "name": "", "height": null, "height_m": null, "levels": null, "tract_id": "40115574900", "tract_name": "5749", "tags": {"building": "yes"}}}, {"type": "Feature", "geometry": {"type": "Polygon", "coordinates": [[[-94.7278848, 36.7884115], [-94.7277741, 36.7884113], [-94.7277737, 36.7885706], [-94.7278844, 36.7885708], [-94.7278848, 36.7884115]]]}, "properties": {"osm_id": 1321996672, "building": "yes", "name": "", "height": null, "height_m": null, "levels": null, "tract_id": "40115574900", "tract_name": "5749", "tags": {"building": "yes"}}}, {"type": "Feature", "geometry": {"type": "Polygon", "coordinates": [[[-94.7273465, 36.7886338], [-94.7272411, 36.788633], [-94.7272437, 36.7884096], [-94.727354, 36.7884105], [-94.7273533, 36.7884766], [-94.7273732, 36.7884768], [-94.7273727, 36.7885169], [-94.7273479, 36.7885167], [-94.7273465, 36.7886338]]]}, "properties": {"osm_id": 1321996673, "building": "yes", "name": "", "height": null, "height_m": null, "levels": null, "tract_id": "40115574900", "tract_name": "5749", "tags": {"building": "yes"}}}, {"type": "Feature", "geometry": {"type": "Polygon", "coordinates": [[[-94.7273387, 36.7889722], [-94.7272449, 36.7889729], [-94.7272425, 36.7887682], [-94.7273491, 36.7887674], [-94.7273508, 36.7889104], [-94.7273379, 36.7889104], [-94.7273387, 36.7889722]]]}, "properties": {"osm_id": 1321996674, "building": "yes", "name": "", "height": null, "height_m": null, "levels": null, "tract_id": "40115574900", "tract_name": "5749", "tags": {"building": "yes"}}}, {"type": "Feature", "geometry": {"type": "Polygon", "coordinates": [[[-94.7267313, 36.788925], [-94.7268416, 36.7889254], [-94.7268424, 36.7887715], [-94.7267321, 36.7887711], [-94.7267313, 36.788925]]]}, "properties": {"osm_id": 1321996675, "building": "yes", "name": "", "height": null, "height_m": null, "levels": null, "tract_id": "40115574900", "tract_name": "5749", "tags": {"building": "yes"}}}, {"type": "Feature", "geometry": {"type": "Polygon", "coordinates": [[[-94.7267, 36.7885949], [-94.7267001, 36.7884358], [-94.7267993, 36.7884358], [-94.7267992, 36.788595], [-94.7267, 36.7885949]]]}, "properties": {"osm_id": 1321996676, "building": "yes", "name": "", "height": null, "height_m": null, "levels": null, "tract_id": "40115574900", "tract_name": "5749", "tags": {"building": "yes"}}}, {"type": "Feature", "geometry": {"type": "Polygon", "coordinates": [[[-94.725835, 36.7885317], [-94.7258341, 36.7884828], [-94.7257595, 36.7884837], [-94.7257604, 36.7885326], [-94.725835, 36.7885317]]]}, "properties": {"osm_id": 1321996677, "building": "yes", "name": "", "height": null, "height_m": null, "levels": null, "tract_id": "40115574900", "tract_name": "5749", "tags": {"building": "yes"}}}, {"type": "Feature", "geometry": {"type": "Polygon", "coordinates": [[[-94.681045, 36.8669512], [-94.6810468, 36.8668367], [-94.6807589, 36.8668367], [-94.6807553, 36.8669483], [-94.681045, 36.8669512]]]}, "properties": {"osm_id": 1427873588, "building": "yes", "name": "", "height": null, "height_m": null, "levels": null, "tract_id": "40115574900", "tract_name": "5749", "tags": {"addr:housenumber": "10205", "building": "yes"}}}, {"type": "Feature", "geometry": {"type": "Polygon", "coordinates": [[[-94.6816727, 36.8663918], [-94.6815868, 36.8662631], [-94.6813401, 36.8663704], [-94.6814187, 36.866502], [-94.6816727, 36.8663918]]]}, "properties": {"osm_id": 1427873589, "building": "yes", "name": "", "height": null, "height_m": null, "levels": null, "tract_id": "40115574900", "tract_name": "5749", "tags": {"addr:housenumber": "10201", "building": "yes"}}}]}