{"type": "FeatureCollection", "features": [{"type": "Feature", "geometry": {"type": "Polygon", "coordinates": [[[-98.0319487, 34.4628725], [-98.0318183, 34.4629164], [-98.0317914, 34.4628619], [-98.0317586, 34.4628729], [-98.0316313, 34.4626152], [-98.0317887, 34.4625624], [-98.0318508, 34.4626881], [-98.0318763, 34.4626795], [-98.0319401, 34.4628086], [-98.0319204, 34.4628152], [-98.0319487, 34.4628725]]]}, "properties": {"osm_id": 457051807, "building": "yes", "name": "", "height": null, "height_m": null, "levels": null, "tract_id": "40137000800", "tract_name": "8", "tags": {"building": "yes"}}}, {"type": "Feature", "geometry": {"type": "Polygon", "coordinates": [[[-98.0344597, 34.4603487], [-98.0344599, 34.4602858], [-98.034399, 34.4602856], [-98.0343992, 34.4601802], [-98.0343653, 34.4601801], [-98.0343654, 34.4601453], [-98.0343764, 34.4601453], [-98.0343766, 34.4600472], [-98.0343076, 34.4600471], [-98.0343077, 34.4600154], [-98.034209, 34.4600153], [-98.0342089, 34.4600435], [-98.0341896, 34.4600435], [-98.0341894, 34.460139], [-98.0342199, 34.4601391], [-98.0342199, 34.4601586], [-98.0341985, 34.4601586], [-98.0341983, 34.4602268], [-98.0342846, 34.4602269], [-98.0342845, 34.4602522], [-98.034372, 34.4602523], [-98.0343717, 34.4603485], [-98.0344597, 34.4603487]]]}, "properties": {"osm_id": 457051808, "building": "yes", "name": "", "height": null, "height_m": null, "levels": null, "tract_id": "40137000800", "tract_name": "8", "tags": {"building": "yes"}}}, {"type": "Feature", "geometry": {"type": "Polygon", "coordinates": [[[-98.032863, 34.4611839], [-98.0327204, 34.4611225], [-98.0326333, 34.4612444], [-98.0327657, 34.4613096], [-98.032863, 34.4611839]]]}, "properties": {"osm_id": 457051809, "building": "yes", "name": "", "height": null, "height_m": null, "levels": null, "tract_id": "40137000800", "tract_name": "8", "tags": {"building": "yes"}}}, {"type": "Feature", "geometry": {"type": "Polygon", "coordinates": [[[-97.969081, 34.5851693], [-97.9686936, 34.5851668], [-97.9687, 34.5845037], [-97.9690872, 34.5845062], [-97.969081, 34.5851693]]]}, "properties": {"osm_id": 1010164781, "building": "yes", "name": "Chisholm Trail Casino", "height": null, "height_m": null, "levels": null, "tract_id": "40137000800", "tract_name": "8", "tags": {"addr:city": "Duncan", "addr:housenumber": "7807", "addr:postcode": "73533", "addr:state": "OK", "addr:street": "North Highway 81", "amenity": "casino", "building": "yes", "name": "Chisholm Trail Casino"}}}, {"type": "Feature", "geometry": {"type": "Polygon", "coordinates": [[[-97.8454997, 34.5776835], [-97.8454946, 34.5775596], [-97.8455267, 34.5775587], [-97.845525, 34.5775187], [-97.8454904, 34.5775196], [-97.8454898, 34.5775059], [-97.8452713, 34.5775121], [-97.8452786, 34.5776898], [-97.8454997, 34.5776835]]]}, "properties": {"osm_id": 1026616364, "building": "yes", "name": "Kendall's View", "height": null, "height_m": null, "levels": null, "tract_id": "40137000800", "tract_name": "8", "tags": {"addr:city": "Marlow", "addr:housenumber": "5107", "addr:postcode": "73055", "addr:state": "OK", "addr:street": "South Clearcreek Road", "amenity": "events_venue", "building": "yes", "name": "Kendall's View"}}}, {"type": "Feature", "geometry": {"type": "Polygon", "coordinates": [[[-98.1075662, 34.4947074], [-98.1075689, 34.4946576], [-98.1076876, 34.494662], [-98.1076849, 34.4947119], [-98.1075662, 34.4947074]]]}, "properties": {"osm_id": 1164259147, "building": "yes", "name": "", "height": null, "height_m": null, "levels": null, "tract_id": "40137000800", "tract_name": "8", "tags": {"building": "yes"}}}, {"type": "Feature", "geometry": {"type": "Polygon", "coordinates": [[[-98.1084024, 34.4941745], [-98.1083702, 34.4944418], [-98.1082016, 34.494428], [-98.1082338, 34.4941607], [-98.1084024, 34.4941745]]]}, "properties": {"osm_id": 1164259148, "building": "yes", "name": "", "height": null, "height_m": null, "levels": null, "tract_id": "40137000800", "tract_name": "8", "tags": {"building": "yes"}}}, {"type": "Feature", "geometry": {"type": "Polygon", "coordinates": [[[-98.0728014, 34.5350702], [-98.0727866, 34.5352481], [-98.0726087, 34.5352381], [-98.0726235, 34.5350602], [-98.0728014, 34.5350702]]]}, "properties": {"osm_id": 1164259161, "building": "yes", "name": "", "height": null, "height_m": null, "levels": null, "tract_id": "40137000800", "tract_name": "8", "tags": {"building": "yes"}}}, {"type": "Feature", "geometry": {"type": "Polygon", "coordinates": [[[-98.0694963, 34.5342637], [-98.0694034, 34.5342637], [-98.0694034, 34.5341809], [-98.0694963, 34.5341809], [-98.0694963, 34.5342637]]]}, "properties": {"osm_id": 1164259162, "building": "yes", "name": "", "height": null, "height_m": null, "levels": null, "tract_id": "40137000800", "tract_name": "8", "tags": {"building": "yes"}}}, {"type": "Feature", "geometry": {"type": "Polygon", "coordinates": [[[-98.0697306, 34.5340981], [-98.0697885, 34.5340977], [-98.0697895, 34.5341898], [-98.0697315, 34.5341902], [-98.0697306, 34.5340981]]]}, "properties": {"osm_id": 1164259163, "building": "yes", "name": "", "height": null, "height_m": null, "levels": null, "tract_id": "40137000800", "tract_name": "8", "tags": {"building": "yes"}}}, {"type": "Feature", "geometry": {"type": "Polygon", "coordinates": [[[-98.064221, 34.5878153], [-98.0642183, 34.5879268], [-98.0641762, 34.5879261], [-98.0641789, 34.5878146], [-98.064221, 34.5878153]]]}, "properties": {"osm_id": 1164259169, "building": "yes", "name": "", "height": null, "height_m": null, "levels": null, "tract_id": "40137000800", "tract_name": "8", "tags": {"building": "yes"}}}, {"type": "Feature", "geometry": {"type": "Polygon", "coordinates": [[[-98.0644678, 34.5873626], [-98.0643457, 34.587579], [-98.0641825, 34.5875166], [-98.0643045, 34.5873002], [-98.0644678, 34.5873626]]]}, "properties": {"osm_id": 1164259170, "building": "yes", "name": "", "height": null, "height_m": null, "levels": null, "tract_id": "40137000800", "tract_name": "8", "tags": {"building": "yes"}}}, {"type": "Feature", "geometry": {"type": "Polygon", "coordinates": [[[-98.0658853, 34.5886621], [-98.0650806, 34.5884766], [-98.0652649, 34.587935], [-98.0660695, 34.5881205], [-98.0658853, 34.5886621]]]}, "properties": {"osm_id": 1164259171, "building": "yes", "name": "", "height": null, "height_m": null, "levels": null, "tract_id": "40137000800", "tract_name": "8", "tags": {"building": "yes"}}}, {"type": "Feature", "geometry": {"type": "Polygon", "coordinates": [[[-98.0596691, 34.5935443], [-98.0596724, 34.5936516], [-98.0596319, 34.5936525], [-98.0596286, 34.5935451], [-98.0596691, 34.5935443]]]}, "properties": {"osm_id": 1164259172, "building": "yes", "name": "", "height": null, "height_m": null, "levels": null, "tract_id": "40137000800", "tract_name": "8", "tags": {"building": "yes"}}}, {"type": "Feature", "geometry": {"type": "Polygon", "coordinates": [[[-98.0596017, 34.5935412], [-98.0594083, 34.593542], [-98.0594072, 34.5933586], [-98.0596007, 34.5933578], [-98.0596017, 34.5935412]]]}, "properties": {"osm_id": 1164259173, "building": "yes", "name": "", "height": null, "height_m": null, "levels": null, "tract_id": "40137000800", "tract_name": "8", "tags": {"building": "yes"}}}, {"type": "Feature", "geometry": {"type": "Polygon", "coordinates": [[[-98.0483767, 34.5537453], [-98.048391, 34.5535524], [-98.0487324, 34.5535696], [-98.0487181, 34.5537625], [-98.0483767, 34.5537453]]]}, "properties": {"osm_id": 1164338231, "building": "yes", "name": "", "height": null, "height_m": null, "levels": null, "tract_id": "40137000800", "tract_name": "8", "tags": {"building": "yes"}}}, {"type": "Feature", "geometry": {"type": "Polygon", "coordinates": [[[-98.0485609, 34.5530109], [-98.0483884, 34.5529869], [-98.0484367, 34.5527516], [-98.0486092, 34.5527756], [-98.0485609, 34.5530109]]]}, "properties": {"osm_id": 1164338232, "building": "yes", "name": "", "height": null, "height_m": null, "levels": null, "tract_id": "40137000800", "tract_name": "8", "tags": {"building": "yes"}}}, {"type": "Feature", "geometry": {"type": "Polygon", "coordinates": [[[-98.0486981, 34.5532541], [-98.0487316, 34.5531011], [-98.0490787, 34.5531527], [-98.0490452, 34.5533056], [-98.0486981, 34.5532541]]]}, "properties": {"osm_id": 1164338233, "building": "yes", "name": "", "height": null, "height_m": null, "levels": null, "tract_id": "40137000800", "tract_name": "8", "tags": {"building": "yes"}}}, {"type": "Feature", "geometry": {"type": "Polygon", "coordinates": [[[-98.0136748, 34.5930727], [-98.0138139, 34.593077], [-98.0138085, 34.5931951], [-98.0136694, 34.5931908], [-98.0136748, 34.5930727]]]}, "properties": {"osm_id": 1164338267, "building": "yes", "name": "", "height": null, "height_m": null, "levels": null, "tract_id": "40137000800", "tract_name": "8", "tags": {"building": "yes"}}}, {"type": "Feature", "geometry": {"type": "Polygon", "coordinates": [[[-98.0133435, 34.5934757], [-98.0134575, 34.5934757], [-98.0134575, 34.5936512], [-98.0133435, 34.5936512], [-98.0133435, 34.5934757]]]}, "properties": {"osm_id": 1164338268, "building": "yes", "name": "", "height": null, "height_m": null, "levels": null, "tract_id": "40137000800", "tract_name": "8", "tags": {"building": "yes"}}}, {"type": "Feature", "geometry": {"type": "Polygon", "coordinates": [[[-98.0118053, 34.5931953], [-98.0115585, 34.5932052], [-98.0115525, 34.5931037], [-98.0117992, 34.5930937], [-98.0118053, 34.5931953]]]}, "properties": {"osm_id": 1164338269, "building": "yes", "name": "", "height": null, "height_m": null, "levels": null, "tract_id": "40137000800", "tract_name": "8", "tags": {"building": "yes"}}}, {"type": "Feature", "geometry": {"type": "Polygon", "coordinates": [[[-98.0124168, 34.5933211], [-98.0124155, 34.5934713], [-98.0122637, 34.5934703], [-98.012265, 34.5933202], [-98.0124168, 34.5933211]]]}, "properties": {"osm_id": 1164338270, "building": "yes", "name": "", "height": null, "height_m": null, "levels": null, "tract_id": "40137000800", "tract_name": "8", "tags": {"building": "yes"}}}, {"type": "Feature", "geometry": {"type": "Polygon", "coordinates": [[[-98.0042361, 34.5912389], [-98.0040805, 34.5912544], [-98.004063, 34.5911347], [-98.0042185, 34.5911192], [-98.0042361, 34.5912389]]]}, "properties": {"osm_id": 1164338271, "building": "yes", "name": "", "height": null, "height_m": null, "levels": null, "tract_id": "40137000800", "tract_name": "8", "tags": {"building": "yes"}}}, {"type": "Feature", "geometry": {"type": "Polygon", "coordinates": [[[-98.0389382, 34.5566046], [-98.0387485, 34.5566046], [-98.0387485, 34.5564414], [-98.0389382, 34.5564414], [-98.0389382, 34.5566046]]]}, "properties": {"osm_id": 1164338285, "building": "yes", "name": "", "height": null, "height_m": null, "levels": null, "tract_id": "40137000800", "tract_name": "8", "tags": {"building": "yes"}}}, {"type": "Feature", "geometry": {"type": "Polygon", "coordinates": [[[-98.0006675, 34.5531971], [-98.0007312, 34.5532058], [-98.000716, 34.5532808], [-98.0006523, 34.553272], [-98.0006675, 34.5531971]]]}, "properties": {"osm_id": 1164338334, "building": "yes", "name": "", "height": null, "height_m": null, "levels": null, "tract_id": "40137000800", "tract_name": "8", "tags": {"building": "yes"}}}, {"type": "Feature", "geometry": {"type": "Polygon", "coordinates": [[[-98.0110533, 34.5510211], [-98.0110533, 34.5511898], [-98.0109225, 34.5511898], [-98.0109225, 34.5510211], [-98.0110533, 34.5510211]]]}, "properties": {"osm_id": 1164338336, "building": "yes", "name": "", "height": null, "height_m": null, "levels": null, "tract_id": "40137000800", "tract_name": "8", "tags": {"building": "yes"}}}, {"type": "Feature", "geometry": {"type": "Polygon", "coordinates": [[[-98.0127199, 34.5510106], [-98.0129465, 34.5510106], [-98.0129465, 34.5511718], [-98.0127199, 34.5511718], [-98.0127199, 34.5510106]]]}, "properties": {"osm_id": 1164338337, "building": "yes", "name": "", "height": null, "height_m": null, "levels": null, "tract_id": "40137000800", "tract_name": "8", "tags": {"building": "yes"}}}, {"type": "Feature", "geometry": {"type": "Polygon", "coordinates": [[[-98.0183566, 34.5535952], [-98.0183558, 34.5534813], [-98.0186093, 34.5534802], [-98.01861, 34.5535941], [-98.0183566, 34.5535952]]]}, "properties": {"osm_id": 1164338338, "building": "yes", "name": "", "height": null, "height_m": null, "levels": null, "tract_id": "40137000800", "tract_name": "8", "tags": {"building": "yes"}}}, {"type": "Feature", "geometry": {"type": "Polygon", "coordinates": [[[-98.0211641, 34.551938], [-98.0208208, 34.5519271], [-98.0208289, 34.5517561], [-98.0211722, 34.551767], [-98.0211641, 34.551938]]]}, "properties": {"osm_id": 1164338339, "building": "yes", "name": "", "height": null, "height_m": null, "levels": null, "tract_id": "40137000800", "tract_name": "8", "tags": {"building": "yes"}}}, {"type": "Feature", "geometry": {"type": "Polygon", "coordinates": [[[-98.0726864, 34.5660595], [-98.0726884, 34.5660078], [-98.07275, 34.5660094], [-98.0727481, 34.5660611], [-98.0726864, 34.5660595]]]}, "properties": {"osm_id": 1164338348, "building": "yes", "name": "", "height": null, "height_m": null, "levels": null, "tract_id": "40137000800", "tract_name": "8", "tags": {"building": "yes"}}}, {"type": "Feature", "geometry": {"type": "Polygon", "coordinates": [[[-98.0731514, 34.5655001], [-98.0731586, 34.5653511], [-98.0733276, 34.5653566], [-98.0733204, 34.5655056], [-98.0731514, 34.5655001]]]}, "properties": {"osm_id": 1164338349, "building": "yes", "name": "", "height": null, "height_m": null, "levels": null, "tract_id": "40137000800", "tract_name": "8", "tags": {"building": "yes"}}}, {"type": "Feature", "geometry": {"type": "Polygon", "coordinates": [[[-98.0768019, 34.5670727], [-98.076767, 34.5672891], [-98.0766181, 34.5672729], [-98.0766529, 34.5670564], [-98.0768019, 34.5670727]]]}, "properties": {"osm_id": 1164338350, "building": "yes", "name": "", "height": null, "height_m": null, "levels": null, "tract_id": "40137000800", "tract_name": "8", "tags": {"building": "yes"}}}, {"type": "Feature", "geometry": {"type": "Polygon", "coordinates": [[[-98.077105, 34.5677066], [-98.0768585, 34.567665], [-98.0769041, 34.5674817], [-98.0771506, 34.5675232], [-98.077105, 34.5677066]]]}, "properties": {"osm_id": 1164338351, "building": "yes", "name": "", "height": null, "height_m": null, "levels": null, "tract_id": "40137000800", "tract_name": "8", "tags": {"building": "yes"}}}, {"type": "Feature", "geometry": {"type": "Polygon", "coordinates": [[[-98.0774215, 34.5675012], [-98.0773813, 34.5676403], [-98.0772006, 34.5676049], [-98.0772408, 34.5674657], [-98.0774215, 34.5675012]]]}, "properties": {"osm_id": 1164338352, "building": "yes", "name": "", "height": null, "height_m": null, "levels": null, "tract_id": "40137000800", "tract_name": "8", "tags": {"building": "yes"}}}, {"type": "Feature", "geometry": {"type": "Polygon", "coordinates": [[[-98.0778721, 34.5674305], [-98.0775583, 34.5675232], [-98.0774791, 34.5673416], [-98.0777929, 34.5672489], [-98.0778721, 34.5674305]]]}, "properties": {"osm_id": 1164338353, "building": "yes", "name": "", "height": null, "height_m": null, "levels": null, "tract_id": "40137000800", "tract_name": "8", "tags": {"building": "yes"}}}, {"type": "Feature", "geometry": {"type": "Polygon", "coordinates": [[[-98.0903666, 34.5578604], [-98.0903638, 34.557762], [-98.0904817, 34.5577597], [-98.0904845, 34.5578581], [-98.0903666, 34.5578604]]]}, "properties": {"osm_id": 1164338358, "building": "yes", "name": "", "height": null, "height_m": null, "levels": null, "tract_id": "40137000800", "tract_name": "8", "tags": {"building": "yes"}}}, {"type": "Feature", "geometry": {"type": "Polygon", "coordinates": [[[-98.0903628, 34.558033], [-98.0902614, 34.5580314], [-98.0902623, 34.5579907], [-98.0903638, 34.5579922], [-98.0903628, 34.558033]]]}, "properties": {"osm_id": 1164338359, "building": "yes", "name": "", "height": null, "height_m": null, "levels": null, "tract_id": "40137000800", "tract_name": "8", "tags": {"building": "yes"}}}, {"type": "Feature", "geometry": {"type": "Polygon", "coordinates": [[[-98.0902832, 34.5573333], [-98.0902841, 34.5572372], [-98.0903962, 34.5572379], [-98.0903953, 34.557334], [-98.0902832, 34.5573333]]]}, "properties": {"osm_id": 1164338360, "building": "yes", "name": "", "height": null, "height_m": null, "levels": null, "tract_id": "40137000800", "tract_name": "8", "tags": {"building": "yes"}}}, {"type": "Feature", "geometry": {"type": "Polygon", "coordinates": [[[-98.0905278, 34.5574637], [-98.0904634, 34.5574621], [-98.0904646, 34.5574269], [-98.0905291, 34.5574284], [-98.0905278, 34.5574637]]]}, "properties": {"osm_id": 1164338361, "building": "yes", "name": "", "height": null, "height_m": null, "levels": null, "tract_id": "40137000800", "tract_name": "8", "tags": {"building": "yes"}}}, {"type": "Feature", "geometry": {"type": "Polygon", "coordinates": [[[-98.0789396, 34.5801946], [-98.0789336, 34.5800478], [-98.0792514, 34.580039], [-98.0792575, 34.5801858], [-98.0789396, 34.5801946]]]}, "properties": {"osm_id": 1164338367, "building": "yes", "name": "", "height": null, "height_m": null, "levels": null, "tract_id": "40137000800", "tract_name": "8", "tags": {"building": "yes"}}}, {"type": "Feature", "geometry": {"type": "Polygon", "coordinates": [[[-97.9159485, 34.5326325], [-97.9158479, 34.5326292], [-97.91585, 34.5325867], [-97.9159505, 34.5325901], [-97.9159485, 34.5326325]]]}, "properties": {"osm_id": 1164367912, "building": "yes", "name": "", "height": null, "height_m": null, "levels": null, "tract_id": "40137000800", "tract_name": "8", "tags": {"building": "yes"}}}, {"type": "Feature", "geometry": {"type": "Polygon", "coordinates": [[[-97.9158419, 34.5327849], [-97.9158437, 34.5327136], [-97.9159409, 34.5327152], [-97.9159391, 34.5327866], [-97.9158419, 34.5327849]]]}, "properties": {"osm_id": 1164367913, "building": "yes", "name": "", "height": null, "height_m": null, "levels": null, "tract_id": "40137000800", "tract_name": "8", "tags": {"building": "yes"}}}, {"type": "Feature", "geometry": {"type": "Polygon", "coordinates": [[[-97.9165245, 34.5391109], [-97.9165327, 34.5390158], [-97.9166929, 34.5390252], [-97.9166847, 34.5391203], [-97.9165245, 34.5391109]]]}, "properties": {"osm_id": 1164367914, "building": "yes", "name": "", "height": null, "height_m": null, "levels": null, "tract_id": "40137000800", "tract_name": "8", "tags": {"building": "yes"}}}, {"type": "Feature", "geometry": {"type": "Polygon", "coordinates": [[[-97.9169007, 34.537525], [-97.9167786, 34.5375123], [-97.9167942, 34.537411], [-97.9169162, 34.5374237], [-97.9169007, 34.537525]]]}, "properties": {"osm_id": 1164367915, "building": "yes", "name": "", "height": null, "height_m": null, "levels": null, "tract_id": "40137000800", "tract_name": "8", "tags": {"building": "yes"}}}, {"type": "Feature", "geometry": {"type": "Polygon", "coordinates": [[[-98.0015934, 34.4459905], [-98.0015757, 34.4459179], [-98.001679, 34.4459007], [-98.0016967, 34.4459734], [-98.0015934, 34.4459905]]]}, "properties": {"osm_id": 1164435877, "building": "yes", "name": "", "height": null, "height_m": null, "levels": null, "tract_id": "40137000800", "tract_name": "8", "tags": {"building": "yes"}}}, {"type": "Feature", "geometry": {"type": "Polygon", "coordinates": [[[-98.002443, 34.4461492], [-98.0022512, 34.4461658], [-98.0022318, 34.4460133], [-98.0024236, 34.4459967], [-98.002443, 34.4461492]]]}, "properties": {"osm_id": 1164435878, "building": "yes", "name": "", "height": null, "height_m": null, "levels": null, "tract_id": "40137000800", "tract_name": "8", "tags": {"building": "yes"}}}, {"type": "Feature", "geometry": {"type": "Polygon", "coordinates": [[[-97.9644793, 34.4441198], [-97.9644782, 34.4440295], [-97.9646755, 34.4440279], [-97.9646765, 34.4441183], [-97.9644793, 34.4441198]]]}, "properties": {"osm_id": 1164435896, "building": "yes", "name": "", "height": null, "height_m": null, "levels": null, "tract_id": "40137000800", "tract_name": "8", "tags": {"building": "yes"}}}, {"type": "Feature", "geometry": {"type": "Polygon", "coordinates": [[[-97.9659046, 34.4459502], [-97.9657088, 34.4459502], [-97.9657088, 34.4458307], [-97.9659046, 34.4458307], [-97.9659046, 34.4459502]]]}, "properties": {"osm_id": 1164435897, "building": "yes", "name": "", "height": null, "height_m": null, "levels": null, "tract_id": "40137000800", "tract_name": "8", "tags": {"building": "yes"}}}, {"type": "Feature", "geometry": {"type": "Polygon", "coordinates": [[[-97.9641142, 34.4481481], [-97.9641227, 34.4480769], [-97.9641995, 34.4480832], [-97.964191, 34.4481543], [-97.9641142, 34.4481481]]]}, "properties": {"osm_id": 1164435898, "building": "yes", "name": "", "height": null, "height_m": null, "levels": null, "tract_id": "40137000800", "tract_name": "8", "tags": {"building": "yes"}}}, {"type": "Feature", "geometry": {"type": "Polygon", "coordinates": [[[-97.9638534, 34.4483365], [-97.9638574, 34.4482748], [-97.9639798, 34.4482803], [-97.9639757, 34.448342], [-97.9638534, 34.4483365]]]}, "properties": {"osm_id": 1164435899, "building": "yes", "name": "", "height": null, "height_m": null, "levels": null, "tract_id": "40137000800", "tract_name": "8", "tags": {"building": "yes"}}}, {"type": "Feature", "geometry": {"type": "Polygon", "coordinates": [[[-97.9750563, 34.4480614], [-97.9750443, 34.4482317], [-97.9749015, 34.4482248], [-97.9749136, 34.4480545], [-97.9750563, 34.4480614]]]}, "properties": {"osm_id": 1164435913, "building": "yes", "name": "", "height": null, "height_m": null, "levels": null, "tract_id": "40137000800", "tract_name": "8", "tags": {"building": "yes"}}}, {"type": "Feature", "geometry": {"type": "Polygon", "coordinates": [[[-97.9765995, 34.4474505], [-97.9766014, 34.4477915], [-97.976446, 34.447792], [-97.9764441, 34.4474511], [-97.9765995, 34.4474505]]]}, "properties": {"osm_id": 1164435914, "building": "yes", "name": "", "height": null, "height_m": null, "levels": null, "tract_id": "40137000800", "tract_name": "8", "tags": {"building": "yes"}}}, {"type": "Feature", "geometry": {"type": "Polygon", "coordinates": [[[-97.9778619, 34.4480669], [-97.977595, 34.4480868], [-97.9775646, 34.4478094], [-97.9778315, 34.4477895], [-97.9778619, 34.4480669]]]}, "properties": {"osm_id": 1164435915, "building": "yes", "name": "", "height": null, "height_m": null, "levels": null, "tract_id": "40137000800", "tract_name": "8", "tags": {"building": "yes"}}}, {"type": "Feature", "geometry": {"type": "Polygon", "coordinates": [[[-98.0108987, 34.5522161], [-98.0108987, 34.5521536], [-98.0110742, 34.5521536], [-98.0110742, 34.5522161], [-98.0108987, 34.5522161]]]}, "properties": {"osm_id": 1164512845, "building": "yes", "name": "", "height": null, "height_m": null, "levels": null, "tract_id": "40137000800", "tract_name": "8", "tags": {"building": "yes"}}}, {"type": "Feature", "geometry": {"type": "Polygon", "coordinates": [[[-98.0112655, 34.5522212], [-98.0112667, 34.5521725], [-98.0113666, 34.5521742], [-98.0113654, 34.5522228], [-98.0112655, 34.5522212]]]}, "properties": {"osm_id": 1164512846, "building": "yes", "name": "", "height": null, "height_m": null, "levels": null, "tract_id": "40137000800", "tract_name": "8", "tags": {"building": "yes"}}}, {"type": "Feature", "geometry": {"type": "Polygon", "coordinates": [[[-98.0122842, 34.5510336], [-98.0122842, 34.550968], [-98.0123667, 34.550968], [-98.0123667, 34.5510336], [-98.0122842, 34.5510336]]]}, "properties": {"osm_id": 1164512847, "building": "yes", "name": "", "height": null, "height_m": null, "levels": null, "tract_id": "40137000800", "tract_name": "8", "tags": {"building": "yes"}}}, {"type": "Feature", "geometry": {"type": "Polygon", "coordinates": [[[-98.0126996, 34.5511765], [-98.0125023, 34.5511757], [-98.0125027, 34.5511171], [-98.0126999, 34.5511179], [-98.0126996, 34.5511765]]]}, "properties": {"osm_id": 1164512848, "building": "yes", "name": "", "height": null, "height_m": null, "levels": null, "tract_id": "40137000800", "tract_name": "8", "tags": {"building": "yes"}}}, {"type": "Feature", "geometry": {"type": "Polygon", "coordinates": [[[-98.017454, 34.560559], [-98.0174518, 34.5604619], [-98.0175953, 34.5604597], [-98.0175975, 34.5605568], [-98.017454, 34.560559]]]}, "properties": {"osm_id": 1164512850, "building": "yes", "name": "", "height": null, "height_m": null, "levels": null, "tract_id": "40137000800", "tract_name": "8", "tags": {"building": "yes"}}}, {"type": "Feature", "geometry": {"type": "Polygon", "coordinates": [[[-98.0187562, 34.5606396], [-98.0187616, 34.5605635], [-98.0188997, 34.5605701], [-98.0188943, 34.5606462], [-98.0187562, 34.5606396]]]}, "properties": {"osm_id": 1164512851, "building": "yes", "name": "", "height": null, "height_m": null, "levels": null, "tract_id": "40137000800", "tract_name": "8", "tags": {"building": "yes"}}}, {"type": "Feature", "geometry": {"type": "Polygon", "coordinates": [[[-98.0208, 34.5593497], [-98.0206046, 34.5593794], [-98.020574, 34.5592426], [-98.0207693, 34.5592129], [-98.0208, 34.5593497]]]}, "properties": {"osm_id": 1164512852, "building": "yes", "name": "", "height": null, "height_m": null, "levels": null, "tract_id": "40137000800", "tract_name": "8", "tags": {"building": "yes"}}}, {"type": "Feature", "geometry": {"type": "Polygon", "coordinates": [[[-97.9061443, 34.5353597], [-97.9061974, 34.5356362], [-97.9060545, 34.5356549], [-97.9060014, 34.5353783], [-97.9061443, 34.5353597]]]}, "properties": {"osm_id": 1164512855, "building": "yes", "name": "", "height": null, "height_m": null, "levels": null, "tract_id": "40137000800", "tract_name": "8", "tags": {"building": "yes"}}}, {"type": "Feature", "geometry": {"type": "Polygon", "coordinates": [[[-97.9078107, 34.5354723], [-97.9078241, 34.5356082], [-97.907702, 34.5356164], [-97.9076886, 34.5354805], [-97.9078107, 34.5354723]]]}, "properties": {"osm_id": 1164512856, "building": "yes", "name": "", "height": null, "height_m": null, "levels": null, "tract_id": "40137000800", "tract_name": "8", "tags": {"building": "yes"}}}, {"type": "Feature", "geometry": {"type": "Polygon", "coordinates": [[[-97.9675831, 34.56116], [-97.9675767, 34.5609506], [-97.9680319, 34.5609412], [-97.9680382, 34.5611506], [-97.9675831, 34.56116]]]}, "properties": {"osm_id": 1164512875, "building": "yes", "name": "", "height": null, "height_m": null, "levels": null, "tract_id": "40137000800", "tract_name": "8", "tags": {"building": "yes"}}}, {"type": "Feature", "geometry": {"type": "Polygon", "coordinates": [[[-97.967455, 34.5581548], [-97.9672749, 34.5581517], [-97.9672768, 34.5580776], [-97.9674569, 34.5580807], [-97.967455, 34.5581548]]]}, "properties": {"osm_id": 1164512876, "building": "yes", "name": "", "height": null, "height_m": null, "levels": null, "tract_id": "40137000800", "tract_name": "8", "tags": {"building": "yes"}}}, {"type": "Feature", "geometry": {"type": "Polygon", "coordinates": [[[-97.9675252, 34.5583946], [-97.9675316, 34.5583027], [-97.9678312, 34.5583167], [-97.9678249, 34.5584087], [-97.9675252, 34.5583946]]]}, "properties": {"osm_id": 1164512877, "building": "yes", "name": "", "height": null, "height_m": null, "levels": null, "tract_id": "40137000800", "tract_name": "8", "tags": {"building": "yes"}}}, {"type": "Feature", "geometry": {"type": "Polygon", "coordinates": [[[-97.9679418, 34.5597737], [-97.9677701, 34.5597726], [-97.9677709, 34.5596896], [-97.9679425, 34.5596907], [-97.9679418, 34.5597737]]]}, "properties": {"osm_id": 1164512879, "building": "yes", "name": "", "height": null, "height_m": null, "levels": null, "tract_id": "40137000800", "tract_name": "8", "tags": {"building": "yes"}}}, {"type": "Feature", "geometry": {"type": "Polygon", "coordinates": [[[-97.9674281, 34.5594954], [-97.967427, 34.5593669], [-97.9677877, 34.5593647], [-97.9677889, 34.5594932], [-97.9674281, 34.5594954]]]}, "properties": {"osm_id": 1164512880, "building": "yes", "name": "", "height": null, "height_m": null, "levels": null, "tract_id": "40137000800", "tract_name": "8", "tags": {"building": "yes"}}}, {"type": "Feature", "geometry": {"type": "Polygon", "coordinates": [[[-97.9687357, 34.5594048], [-97.9687316, 34.5592354], [-97.9691312, 34.5592288], [-97.9691353, 34.5593982], [-97.9687357, 34.5594048]]]}, "properties": {"osm_id": 1164512881, "building": "yes", "name": "", "height": null, "height_m": null, "levels": null, "tract_id": "40137000800", "tract_name": "8", "tags": {"building": "yes"}}}, {"type": "Feature", "geometry": {"type": "Polygon", "coordinates": [[[-97.9681456, 34.5594048], [-97.9681442, 34.5591782], [-97.9686672, 34.559176], [-97.9686686, 34.5594026], [-97.9681456, 34.5594048]]]}, "properties": {"osm_id": 1164512882, "building": "yes", "name": "", "height": null, "height_m": null, "levels": null, "tract_id": "40137000800", "tract_name": "8", "tags": {"building": "yes"}}}, {"type": "Feature", "geometry": {"type": "Polygon", "coordinates": [[[-97.9686619, 34.5597461], [-97.9682609, 34.5597505], [-97.9682581, 34.5595731], [-97.9686591, 34.5595686], [-97.9686619, 34.5597461]]]}, "properties": {"osm_id": 1164512883, "building": "yes", "name": "", "height": null, "height_m": null, "levels": null, "tract_id": "40137000800", "tract_name": "8", "tags": {"building": "yes"}}}, {"type": "Feature", "geometry": {"type": "Polygon", "coordinates": [[[-97.9687209, 34.5597483], [-97.968723, 34.5595753], [-97.9691441, 34.5595786], [-97.9691421, 34.5597516], [-97.9687209, 34.5597483]]]}, "properties": {"osm_id": 1164512884, "building": "yes", "name": "", "height": null, "height_m": null, "levels": null, "tract_id": "40137000800", "tract_name": "8", "tags": {"building": "yes"}}}, {"type": "Feature", "geometry": {"type": "Polygon", "coordinates": [[[-97.9706991, 34.5601829], [-97.9707588, 34.5600404], [-97.9709008, 34.5600808], [-97.9708411, 34.5602233], [-97.9706991, 34.5601829]]]}, "properties": {"osm_id": 1164512885, "building": "yes", "name": "", "height": null, "height_m": null, "levels": null, "tract_id": "40137000800", "tract_name": "8", "tags": {"building": "yes"}}}, {"type": "Feature", "geometry": {"type": "Polygon", "coordinates": [[[-97.9708499, 34.5598941], [-97.9709061, 34.559826], [-97.9710778, 34.5599221], [-97.9710216, 34.5599902], [-97.9708499, 34.5598941]]]}, "properties": {"osm_id": 1164512886, "building": "yes", "name": "", "height": null, "height_m": null, "levels": null, "tract_id": "40137000800", "tract_name": "8", "tags": {"building": "yes"}}}, {"type": "Feature", "geometry": {"type": "Polygon", "coordinates": [[[-98.0212865, 34.5211783], [-98.0212789, 34.5212588], [-98.021201, 34.5212538], [-98.0212085, 34.5211733], [-98.0212865, 34.5211783]]]}, "properties": {"osm_id": 1164513027, "building": "yes", "name": "", "height": null, "height_m": null, "levels": null, "tract_id": "40137000800", "tract_name": "8", "tags": {"building": "yes"}}}, {"type": "Feature", "geometry": {"type": "Polygon", "coordinates": [[[-98.0217464, 34.5210291], [-98.021751, 34.520953], [-98.0219046, 34.5209593], [-98.0219, 34.5210353], [-98.0217464, 34.5210291]]]}, "properties": {"osm_id": 1164513028, "building": "yes", "name": "", "height": null, "height_m": null, "levels": null, "tract_id": "40137000800", "tract_name": "8", "tags": {"building": "yes"}}}, {"type": "Feature", "geometry": {"type": "Polygon", "coordinates": [[[-98.0217417, 34.5211057], [-98.0216364, 34.5211103], [-98.0216323, 34.5210481], [-98.0217376, 34.5210435], [-98.0217417, 34.5211057]]]}, "properties": {"osm_id": 1164513029, "building": "yes", "name": "", "height": null, "height_m": null, "levels": null, "tract_id": "40137000800", "tract_name": "8", "tags": {"building": "yes"}}}, {"type": "Feature", "geometry": {"type": "Polygon", "coordinates": [[[-98.0212279, 34.5210185], [-98.0212259, 34.5209168], [-98.0213962, 34.5209146], [-98.0213982, 34.5210163], [-98.0212279, 34.5210185]]]}, "properties": {"osm_id": 1164513030, "building": "yes", "name": "", "height": null, "height_m": null, "levels": null, "tract_id": "40137000800", "tract_name": "8", "tags": {"building": "yes"}}}, {"type": "Feature", "geometry": {"type": "Polygon", "coordinates": [[[-98.0216007, 34.5208439], [-98.0213968, 34.5208572], [-98.0213817, 34.5206988], [-98.0215855, 34.5206855], [-98.0216007, 34.5208439]]]}, "properties": {"osm_id": 1164513031, "building": "yes", "name": "", "height": null, "height_m": null, "levels": null, "tract_id": "40137000800", "tract_name": "8", "tags": {"building": "yes"}}}, {"type": "Feature", "geometry": {"type": "Polygon", "coordinates": [[[-98.0225743, 34.4215438], [-98.0225772, 34.4214623], [-98.0227052, 34.4214654], [-98.0227023, 34.4215469], [-98.0225743, 34.4215438]]]}, "properties": {"osm_id": 1164792249, "building": "yes", "name": "", "height": null, "height_m": null, "levels": null, "tract_id": "40137000800", "tract_name": "8", "tags": {"building": "yes"}}}, {"type": "Feature", "geometry": {"type": "Polygon", "coordinates": [[[-98.0002066, 34.431754], [-98.0001156, 34.431754], [-98.0001156, 34.4316719], [-98.0002066, 34.4316719], [-98.0002066, 34.431754]]]}, "properties": {"osm_id": 1164792260, "building": "yes", "name": "", "height": null, "height_m": null, "levels": null, "tract_id": "40137000800", "tract_name": "8", "tags": {"building": "yes"}}}, {"type": "Feature", "geometry": {"type": "Polygon", "coordinates": [[[-98.0013285, 34.4316382], [-98.0014059, 34.431635], [-98.0014125, 34.4317429], [-98.0013351, 34.4317462], [-98.0013285, 34.4316382]]]}, "properties": {"osm_id": 1164792261, "building": "yes", "name": "", "height": null, "height_m": null, "levels": null, "tract_id": "40137000800", "tract_name": "8", "tags": {"building": "yes"}}}, {"type": "Feature", "geometry": {"type": "Polygon", "coordinates": [[[-98.0006514, 34.4319018], [-98.0006521, 34.4318247], [-98.0007773, 34.4318255], [-98.0007765, 34.4319026], [-98.0006514, 34.4319018]]]}, "properties": {"osm_id": 1164792262, "building": "yes", "name": "", "height": null, "height_m": null, "levels": null, "tract_id": "40137000800", "tract_name": "8", "tags": {"building": "yes"}}}, {"type": "Feature", "geometry": {"type": "Polygon", "coordinates": [[[-98.0020293, 34.4321467], [-98.0019253, 34.4321467], [-98.0019253, 34.4320687], [-98.0020293, 34.4320687], [-98.0020293, 34.4321467]]]}, "properties": {"osm_id": 1164792263, "building": "yes", "name": "", "height": null, "height_m": null, "levels": null, "tract_id": "40137000800", "tract_name": "8", "tags": {"building": "yes"}}}, {"type": "Feature", "geometry": {"type": "Polygon", "coordinates": [[[-98.0028715, 34.431936], [-98.0029213, 34.4319375], [-98.0029193, 34.4319812], [-98.0028695, 34.4319797], [-98.0028715, 34.431936]]]}, "properties": {"osm_id": 1164792264, "building": "yes", "name": "", "height": null, "height_m": null, "levels": null, "tract_id": "40137000800", "tract_name": "8", "tags": {"building": "yes"}}}, {"type": "Feature", "geometry": {"type": "Polygon", "coordinates": [[[-98.0032651, 34.4320222], [-98.0032665, 34.4320798], [-98.0031822, 34.4320811], [-98.0031809, 34.4320236], [-98.0032651, 34.4320222]]]}, "properties": {"osm_id": 1164792265, "building": "yes", "name": "", "height": null, "height_m": null, "levels": null, "tract_id": "40137000800", "tract_name": "8", "tags": {"building": "yes"}}}, {"type": "Feature", "geometry": {"type": "Polygon", "coordinates": [[[-98.0038894, 34.4320953], [-98.0038891, 34.4320613], [-98.0039843, 34.4320608], [-98.0039846, 34.4320947], [-98.0038894, 34.4320953]]]}, "properties": {"osm_id": 1164792266, "building": "yes", "name": "", "height": null, "height_m": null, "levels": null, "tract_id": "40137000800", "tract_name": "8", "tags": {"building": "yes"}}}, {"type": "Feature", "geometry": {"type": "Polygon", "coordinates": [[[-98.0565548, 34.4253377], [-98.0563841, 34.4253377], [-98.0563841, 34.4252712], [-98.0565548, 34.4252712], [-98.0565548, 34.4253377]]]}, "properties": {"osm_id": 1164792276, "building": "yes", "name": "", "height": null, "height_m": null, "levels": null, "tract_id": "40137000800", "tract_name": "8", "tags": {"building": "yes"}}}, {"type": "Feature", "geometry": {"type": "Polygon", "coordinates": [[[-98.0564619, 34.4255301], [-98.0562722, 34.4255458], [-98.056263, 34.4254699], [-98.0564527, 34.4254542], [-98.0564619, 34.4255301]]]}, "properties": {"osm_id": 1164792277, "building": "yes", "name": "", "height": null, "height_m": null, "levels": null, "tract_id": "40137000800", "tract_name": "8", "tags": {"building": "yes"}}}, {"type": "Feature", "geometry": {"type": "Polygon", "coordinates": [[[-98.0341451, 34.4485966], [-98.0342285, 34.4485949], [-98.0342269, 34.4485423], [-98.0341435, 34.448544], [-98.0341451, 34.4485966]]]}, "properties": {"osm_id": 1164792297, "building": "yes", "name": "", "height": null, "height_m": null, "levels": null, "tract_id": "40137000800", "tract_name": "8", "tags": {"building": "yes"}}}, {"type": "Feature", "geometry": {"type": "Polygon", "coordinates": [[[-98.0176383, 34.4214202], [-98.0178092, 34.4214339], [-98.0177883, 34.4216107], [-98.0176175, 34.421597], [-98.0176383, 34.4214202]]]}, "properties": {"osm_id": 1164792304, "building": "yes", "name": "", "height": null, "height_m": null, "levels": null, "tract_id": "40137000800", "tract_name": "8", "tags": {"building": "yes"}}}, {"type": "Feature", "geometry": {"type": "Polygon", "coordinates": [[[-98.0176203, 34.4211963], [-98.0176261, 34.4210586], [-98.0177803, 34.421063], [-98.0177745, 34.4212007], [-98.0176203, 34.4211963]]]}, "properties": {"osm_id": 1164792305, "building": "yes", "name": "", "height": null, "height_m": null, "levels": null, "tract_id": "40137000800", "tract_name": "8", "tags": {"building": "yes"}}}, {"type": "Feature", "geometry": {"type": "Polygon", "coordinates": [[[-98.0310059, 34.4361099], [-98.0310059, 34.4362161], [-98.0308959, 34.4362161], [-98.0308959, 34.4361099], [-98.0310059, 34.4361099]]]}, "properties": {"osm_id": 1164792334, "building": "yes", "name": "", "height": null, "height_m": null, "levels": null, "tract_id": "40137000800", "tract_name": "8", "tags": {"building": "yes"}}}, {"type": "Feature", "geometry": {"type": "Polygon", "coordinates": [[[-98.0316429, 34.436385], [-98.031623, 34.4362247], [-98.0317619, 34.436213], [-98.0317818, 34.4363733], [-98.0316429, 34.436385]]]}, "properties": {"osm_id": 1164792335, "building": "yes", "name": "", "height": null, "height_m": null, "levels": null, "tract_id": "40137000800", "tract_name": "8", "tags": {"building": "yes"}}}, {"type": "Feature", "geometry": {"type": "Polygon", "coordinates": [[[-98.0323818, 34.4361044], [-98.0320506, 34.436163], [-98.0320071, 34.435996], [-98.0323384, 34.4359374], [-98.0323818, 34.4361044]]]}, "properties": {"osm_id": 1164792336, "building": "yes", "name": "", "height": null, "height_m": null, "levels": null, "tract_id": "40137000800", "tract_name": "8", "tags": {"building": "yes"}}}, {"type": "Feature", "geometry": {"type": "Polygon", "coordinates": [[[-98.0321749, 34.4210717], [-98.0321123, 34.4210678], [-98.0321181, 34.4210047], [-98.0321807, 34.4210086], [-98.0321749, 34.4210717]]]}, "properties": {"osm_id": 1164792344, "building": "yes", "name": "", "height": null, "height_m": null, "levels": null, "tract_id": "40137000800", "tract_name": "8", "tags": {"building": "yes"}}}, {"type": "Feature", "geometry": {"type": "Polygon", "coordinates": [[[-98.0318829, 34.4210669], [-98.0317596, 34.4210691], [-98.0317567, 34.4209612], [-98.0318801, 34.420959], [-98.0318829, 34.4210669]]]}, "properties": {"osm_id": 1164792345, "building": "yes", "name": "", "height": null, "height_m": null, "levels": null, "tract_id": "40137000800", "tract_name": "8", "tags": {"building": "yes"}}}, {"type": "Feature", "geometry": {"type": "Polygon", "coordinates": [[[-98.0315946, 34.4209341], [-98.0314464, 34.4209375], [-98.0314411, 34.420776], [-98.0315892, 34.4207726], [-98.0315946, 34.4209341]]]}, "properties": {"osm_id": 1164792346, "building": "yes", "name": "", "height": null, "height_m": null, "levels": null, "tract_id": "40137000800", "tract_name": "8", "tags": {"building": "yes"}}}, {"type": "Feature", "geometry": {"type": "Polygon", "coordinates": [[[-98.0284926, 34.4208625], [-98.028578, 34.4208625], [-98.028578, 34.4209587], [-98.0284926, 34.4209587], [-98.0284926, 34.4208625]]]}, "properties": {"osm_id": 1164792347, "building": "yes", "name": "", "height": null, "height_m": null, "levels": null, "tract_id": "40137000800", "tract_name": "8", "tags": {"building": "yes"}}}, {"type": "Feature", "geometry": {"type": "Polygon", "coordinates": [[[-98.0289099, 34.4213115], [-98.0289118, 34.4212579], [-98.0290426, 34.4212611], [-98.0290407, 34.4213146], [-98.0289099, 34.4213115]]]}, "properties": {"osm_id": 1164792348, "building": "yes", "name": "", "height": null, "height_m": null, "levels": null, "tract_id": "40137000800", "tract_name": "8", "tags": {"building": "yes"}}}, {"type": "Feature", "geometry": {"type": "Polygon", "coordinates": [[[-98.0269799, 34.42138], [-98.0269825, 34.4215503], [-98.0268097, 34.4215522], [-98.026807, 34.4213818], [-98.0269799, 34.42138]]]}, "properties": {"osm_id": 1164792349, "building": "yes", "name": "", "height": null, "height_m": null, "levels": null, "tract_id": "40137000800", "tract_name": "8", "tags": {"building": "yes"}}}, {"type": "Feature", "geometry": {"type": "Polygon", "coordinates": [[[-98.0274466, 34.4214098], [-98.0274841, 34.4215426], [-98.0274039, 34.421558], [-98.0273664, 34.4214253], [-98.0274466, 34.4214098]]]}, "properties": {"osm_id": 1164792350, "building": "yes", "name": "", "height": null, "height_m": null, "levels": null, "tract_id": "40137000800", "tract_name": "8", "tags": {"building": "yes"}}}, {"type": "Feature", "geometry": {"type": "Polygon", "coordinates": [[[-98.0277577, 34.4214651], [-98.0275726, 34.4214828], [-98.027555, 34.4213572], [-98.0277401, 34.4213395], [-98.0277577, 34.4214651]]]}, "properties": {"osm_id": 1164792351, "building": "yes", "name": "", "height": null, "height_m": null, "levels": null, "tract_id": "40137000800", "tract_name": "8", "tags": {"building": "yes"}}}, {"type": "Feature", "geometry": {"type": "Polygon", "coordinates": [[[-98.0238061, 34.4243012], [-98.0238043, 34.4242209], [-98.023956, 34.4242186], [-98.0239578, 34.4242989], [-98.0238061, 34.4243012]]]}, "properties": {"osm_id": 1164792353, "building": "yes", "name": "", "height": null, "height_m": null, "levels": null, "tract_id": "40137000800", "tract_name": "8", "tags": {"building": "yes"}}}, {"type": "Feature", "geometry": {"type": "Polygon", "coordinates": [[[-98.0233832, 34.4240392], [-98.0233832, 34.4238687], [-98.0236563, 34.4238687], [-98.0236563, 34.4240392], [-98.0233832, 34.4240392]]]}, "properties": {"osm_id": 1164792354, "building": "yes", "name": "", "height": null, "height_m": null, "levels": null, "tract_id": "40137000800", "tract_name": "8", "tags": {"building": "yes"}}}, {"type": "Feature", "geometry": {"type": "Polygon", "coordinates": [[[-98.0220258, 34.4212428], [-98.0220255, 34.421185], [-98.0221623, 34.4211844], [-98.0221626, 34.4212422], [-98.0220258, 34.4212428]]]}, "properties": {"osm_id": 1164792355, "building": "yes", "name": "", "height": null, "height_m": null, "levels": null, "tract_id": "40137000800", "tract_name": "8", "tags": {"building": "yes"}}}, {"type": "Feature", "geometry": {"type": "Polygon", "coordinates": [[[-98.0224846, 34.4213001], [-98.0224851, 34.4211841], [-98.0226212, 34.4211845], [-98.0226207, 34.4213005], [-98.0224846, 34.4213001]]]}, "properties": {"osm_id": 1164792356, "building": "yes", "name": "", "height": null, "height_m": null, "levels": null, "tract_id": "40137000800", "tract_name": "8", "tags": {"building": "yes"}}}, {"type": "Feature", "geometry": {"type": "Polygon", "coordinates": [[[-98.0226952, 34.421358], [-98.0226947, 34.4213007], [-98.0227596, 34.4213003], [-98.0227601, 34.4213576], [-98.0226952, 34.421358]]]}, "properties": {"osm_id": 1164792357, "building": "yes", "name": "", "height": null, "height_m": null, "levels": null, "tract_id": "40137000800", "tract_name": "8", "tags": {"building": "yes"}}}, {"type": "Feature", "geometry": {"type": "Polygon", "coordinates": [[[-97.8873974, 34.5546522], [-97.887192, 34.5546552], [-97.8871906, 34.554588], [-97.8872618, 34.5545869], [-97.8872587, 34.5544407], [-97.8873929, 34.5544388], [-97.8873974, 34.5546522]]]}, "properties": {"osm_id": 1338100857, "building": "house", "name": "", "height": null, "height_m": null, "levels": null, "tract_id": "40137000800", "tract_name": "8", "tags": {"addr:city": "Marlow", "addr:housenumber": "169764", "addr:postcode": "73055", "addr:state": "OK", "addr:street": "N2865 Road", "building": "house"}}}]}