{"type": "FeatureCollection", "features": [{"type": "Feature", "geometry": {"type": "Polygon", "coordinates": [[[-98.4169985, 34.6159491], [-98.4170039, 34.6155772], [-98.4167854, 34.615575], [-98.41678, 34.6159469], [-98.4169985, 34.6159491]]]}, "properties": {"osm_id": 761767670, "building": "yes", "name": "Vaska Theatre", "height": null, "height_m": null, "levels": null, "tract_id": "40031001000", "tract_name": "10", "tags": {"addr:city": "Lawton", "addr:housenumber": "1902", "addr:postcode": "73507", "addr:state": "OK", "addr:street": "Northwest Ferris Avenue", "amenity": "cinema", "building": "yes", "name": "Vaska Theatre", "screen": "1", "wikidata": "Q43193168"}}}, {"type": "Feature", "geometry": {"type": "Polygon", "coordinates": [[[-98.4109129, 34.6092785], [-98.4106289, 34.609276], [-98.4106312, 34.6090999], [-98.4109152, 34.6091024], [-98.4109129, 34.6092785]]]}, "properties": {"osm_id": 875166787, "building": "yes", "name": "", "height": null, "height_m": null, "levels": null, "tract_id": "40031001000", "tract_name": "10", "tags": {"building": "yes"}}}, {"type": "Feature", "geometry": {"type": "Polygon", "coordinates": [[[-98.4118886, 34.6092866], [-98.4118879, 34.6091051], [-98.4117243, 34.6091051], [-98.4117136, 34.6091404], [-98.4111932, 34.6091183], [-98.4111852, 34.6092883], [-98.4118886, 34.6092866]]]}, "properties": {"osm_id": 875166788, "building": "yes", "name": "", "height": null, "height_m": null, "levels": null, "tract_id": "40031001000", "tract_name": "10", "tags": {"building": "yes"}}}, {"type": "Feature", "geometry": {"type": "Polygon", "coordinates": [[[-98.4121531, 34.6093048], [-98.4124431, 34.6092927], [-98.4124378, 34.6091029], [-98.4121401, 34.6090918], [-98.4121531, 34.6093048]]]}, "properties": {"osm_id": 875166789, "building": "yes", "name": "", "height": null, "height_m": null, "levels": null, "tract_id": "40031001000", "tract_name": "10", "tags": {"building": "yes"}}}, {"type": "Feature", "geometry": {"type": "Polygon", "coordinates": [[[-98.4147813, 34.609312], [-98.4147793, 34.6091271], [-98.4146345, 34.6091205], [-98.4143985, 34.6091271], [-98.4143797, 34.6093148], [-98.4147813, 34.609312]]]}, "properties": {"osm_id": 875166790, "building": "yes", "name": "", "height": null, "height_m": null, "levels": null, "tract_id": "40031001000", "tract_name": "10", "tags": {"building": "yes"}}}, {"type": "Feature", "geometry": {"type": "Polygon", "coordinates": [[[-98.4157235, 34.6093037], [-98.4157288, 34.6090852], [-98.416209, 34.6090918], [-98.4162224, 34.6091205], [-98.4162707, 34.6091404], [-98.4162519, 34.6090609], [-98.4165496, 34.6090344], [-98.4165379, 34.6093258], [-98.4157235, 34.6093037]]]}, "properties": {"osm_id": 875166791, "building": "yes", "name": "", "height": null, "height_m": null, "levels": null, "tract_id": "40031001000", "tract_name": "10", "tags": {"building": "yes"}}}, {"type": "Feature", "geometry": {"type": "Polygon", "coordinates": [[[-98.4170594, 34.6091826], [-98.4170619, 34.6090123], [-98.4168098, 34.6090013], [-98.4168151, 34.6091801], [-98.4170594, 34.6091826]]]}, "properties": {"osm_id": 875166792, "building": "yes", "name": "", "height": null, "height_m": null, "levels": null, "tract_id": "40031001000", "tract_name": "10", "tags": {"building": "yes"}}}, {"type": "Feature", "geometry": {"type": "Polygon", "coordinates": [[[-98.421962, 34.6092574], [-98.4217188, 34.6092537], [-98.4217212, 34.6091501], [-98.4218182, 34.6091516], [-98.4218195, 34.6090968], [-98.421904, 34.6090981], [-98.4219031, 34.6091347], [-98.4219648, 34.6091356], [-98.421962, 34.6092574]]]}, "properties": {"osm_id": 1090355497, "building": "yes", "name": "Arby's", "height": null, "height_m": null, "levels": null, "tract_id": "40031001000", "tract_name": "10", "tags": {"addr:city": "Lawton", "addr:housenumber": "1", "addr:postcode": "73505", "addr:state": "OK", "addr:street": "Northwest Sheridan Road", "amenity": "fast_food", "brand": "Arby's", "brand:wikidata": "Q630866", "building": "yes", "check_date": "2024-06-21", "cuisine": "sandwich", "name": "Arby's", "opening_hours": "10:00-23:00", "phone": "+1 580-248-0521", "takeaway": "yes", "website": "https://www.arbys.com/locations/us/ok/lawton/1-nw-sheridan-rd/store-1584/"}}}, {"type": "Feature", "geometry": {"type": "Polygon", "coordinates": [[[-98.4086954, 34.61178], [-98.4085607, 34.6117794], [-98.4085613, 34.6116963], [-98.4085961, 34.6116964], [-98.4085972, 34.6115376], [-98.4085512, 34.6115374], [-98.4085515, 34.611493], [-98.4085949, 34.6114932], [-98.4085949, 34.6114894], [-98.4087875, 34.6114903], [-98.4087872, 34.6115285], [-98.4088263, 34.6115287], [-98.4088248, 34.6117471], [-98.4086956, 34.6117465], [-98.4086954, 34.61178]]]}, "properties": {"osm_id": 1241454904, "building": "yes", "name": "Lawton Community Theatre", "height": null, "height_m": null, "levels": null, "tract_id": "40031001000", "tract_name": "10", "tags": {"addr:city": "Lawton", "addr:housenumber": "1316", "addr:postcode": "73507", "addr:state": "OK", "addr:street": "NW Bell Avenue", "amenity": "theatre", "building": "yes", "name": "Lawton Community Theatre", "website": "https://lawtoncommunitytheatre.com/"}}}, {"type": "Feature", "geometry": {"type": "Polygon", "coordinates": [[[-98.4089599, 34.6107545], [-98.4090368, 34.610771], [-98.4090533, 34.610719], [-98.4089764, 34.6107025], [-98.4089599, 34.6107545]]]}, "properties": {"osm_id": 1241454910, "building": "shed", "name": "", "height": null, "height_m": null, "levels": null, "tract_id": "40031001000", "tract_name": "10", "tags": {"building": "shed"}}}, {"type": "Feature", "geometry": {"type": "Polygon", "coordinates": [[[-98.4087196, 34.611074], [-98.4087172, 34.6111355], [-98.4086177, 34.6111329], [-98.4086201, 34.6110714], [-98.4087196, 34.611074]]]}, "properties": {"osm_id": 1241454911, "building": "shed", "name": "", "height": null, "height_m": null, "levels": null, "tract_id": "40031001000", "tract_name": "10", "tags": {"building": "shed"}}}, {"type": "Feature", "geometry": {"type": "Polygon", "coordinates": [[[-98.4140388, 34.6157447], [-98.4140397, 34.6155801], [-98.4137641, 34.6155791], [-98.4137632, 34.6157443], [-98.4137954, 34.6157444], [-98.4137953, 34.6157664], [-98.4138381, 34.6157665], [-98.4138382, 34.615744], [-98.4140388, 34.6157447]]]}, "properties": {"osm_id": 1292669069, "building": "yes", "name": "Freeman Veterinary Clinic", "height": null, "height_m": null, "levels": null, "tract_id": "40031001000", "tract_name": "10", "tags": {"addr:city": "Lawton", "addr:housenumber": "1702", "addr:postcode": "73507", "addr:state": "OK", "addr:street": "Northwest Ferris Avenue", "amenity": "veterinary", "building": "yes", "name": "Freeman Veterinary Clinic", "phone": "+1-580-280-2400", "website": "https://freemanvetclinic.com/"}}}, {"type": "Feature", "geometry": {"type": "Polygon", "coordinates": [[[-98.4220007, 34.615856], [-98.421883, 34.6158558], [-98.4217781, 34.6158552], [-98.4217788, 34.6157315], [-98.4218839, 34.6157319], [-98.4220014, 34.6157323], [-98.4220007, 34.615856]]]}, "properties": {"osm_id": 1349908751, "building": "yes", "name": "", "height": null, "height_m": null, "levels": null, "tract_id": "40031001000", "tract_name": "10", "tags": {"building": "yes"}}}, {"type": "Feature", "geometry": {"type": "Polygon", "coordinates": [[[-98.4220462, 34.6142955], [-98.4218384, 34.6141199], [-98.4217379, 34.6142005], [-98.421872, 34.6143137], [-98.4218844, 34.6143038], [-98.4219581, 34.6143661], [-98.4220462, 34.6142955]]]}, "properties": {"osm_id": 1420109999, "building": "yes", "name": "", "height": null, "height_m": null, "levels": null, "tract_id": "40031001000", "tract_name": "10", "tags": {"building": "yes", "source": "microsoft/BuildingFootprints"}}}, {"type": "Feature", "geometry": {"type": "Polygon", "coordinates": [[[-98.4217077, 34.6141507], [-98.4215143, 34.614125], [-98.4214881, 34.6142584], [-98.4215901, 34.6142719], [-98.421582, 34.6143128], [-98.4216291, 34.6143191], [-98.4216337, 34.6142954], [-98.4216782, 34.6143013], [-98.4217077, 34.6141507]]]}, "properties": {"osm_id": 1420110000, "building": "yes", "name": "", "height": null, "height_m": null, "levels": null, "tract_id": "40031001000", "tract_name": "10", "tags": {"building": "yes", "source": "microsoft/BuildingFootprints"}}}, {"type": "Feature", "geometry": {"type": "Polygon", "coordinates": [[[-98.4213805, 34.6140511], [-98.4212816, 34.6140179], [-98.4211935, 34.6141958], [-98.4213392, 34.6142447], [-98.4213482, 34.6142267], [-98.4214057, 34.614246], [-98.4214666, 34.614123], [-98.4214082, 34.6141034], [-98.4213923, 34.6141356], [-98.4213463, 34.6141201], [-98.4213805, 34.6140511]]]}, "properties": {"osm_id": 1420110001, "building": "yes", "name": "", "height": null, "height_m": null, "levels": null, "tract_id": "40031001000", "tract_name": "10", "tags": {"building": "yes", "source": "microsoft/BuildingFootprints"}}}, {"type": "Feature", "geometry": {"type": "Polygon", "coordinates": [[[-98.4208764, 34.6138121], [-98.4207755, 34.6137626], [-98.4207932, 34.6137381], [-98.4206092, 34.6136478], [-98.4205331, 34.6137528], [-98.420731, 34.6138499], [-98.420741, 34.6138361], [-98.4208281, 34.6138788], [-98.4208764, 34.6138121]]]}, "properties": {"osm_id": 1420110002, "building": "yes", "name": "", "height": null, "height_m": null, "levels": null, "tract_id": "40031001000", "tract_name": "10", "tags": {"building": "yes", "source": "microsoft/BuildingFootprints"}}}, {"type": "Feature", "geometry": {"type": "Polygon", "coordinates": [[[-98.4203289, 34.613448], [-98.4202694, 34.6135286], [-98.4202705, 34.6135292], [-98.4202337, 34.6135792], [-98.4203513, 34.613638], [-98.4203656, 34.6136186], [-98.420491, 34.6136813], [-98.420541, 34.6136135], [-98.4204645, 34.6135753], [-98.4204824, 34.6135511], [-98.4204098, 34.6135149], [-98.4204241, 34.6134956], [-98.4203289, 34.613448]]]}, "properties": {"osm_id": 1420110003, "building": "yes", "name": "", "height": null, "height_m": null, "levels": null, "tract_id": "40031001000", "tract_name": "10", "tags": {"building": "yes", "source": "microsoft/BuildingFootprints"}}}, {"type": "Feature", "geometry": {"type": "Polygon", "coordinates": [[[-98.420605, 34.6140034], [-98.4206858, 34.6140501], [-98.4207419, 34.6139844], [-98.4206611, 34.6139377], [-98.420605, 34.6140034]]]}, "properties": {"osm_id": 1420110004, "building": "yes", "name": "", "height": null, "height_m": null, "levels": null, "tract_id": "40031001000", "tract_name": "10", "tags": {"building": "yes", "source": "microsoft/BuildingFootprints"}}}, {"type": "Feature", "geometry": {"type": "Polygon", "coordinates": [[[-98.4218914, 34.6143941], [-98.4217305, 34.6143959], [-98.4217339, 34.6146044], [-98.4218948, 34.6146026], [-98.4218914, 34.6143941]]]}, "properties": {"osm_id": 1420110005, "building": "yes", "name": "", "height": null, "height_m": null, "levels": null, "tract_id": "40031001000", "tract_name": "10", "tags": {"building": "yes", "source": "microsoft/BuildingFootprints"}}}, {"type": "Feature", "geometry": {"type": "Polygon", "coordinates": [[[-98.4217823, 34.6146079], [-98.421624, 34.6147382], [-98.4217983, 34.6148817], [-98.4218869, 34.6148088], [-98.4218118, 34.614747], [-98.4218815, 34.6146896], [-98.4217823, 34.6146079]]]}, "properties": {"osm_id": 1420110006, "building": "yes", "name": "", "height": null, "height_m": null, "levels": null, "tract_id": "40031001000", "tract_name": "10", "tags": {"building": "yes", "source": "microsoft/BuildingFootprints"}}}, {"type": "Feature", "geometry": {"type": "Polygon", "coordinates": [[[-98.4220402, 34.6136587], [-98.4219659, 34.6135929], [-98.4218687, 34.6136673], [-98.4218406, 34.6136425], [-98.421796, 34.6136766], [-98.4218328, 34.6137092], [-98.4217235, 34.6137929], [-98.4217891, 34.6138509], [-98.4220402, 34.6136587]]]}, "properties": {"osm_id": 1420110007, "building": "yes", "name": "", "height": null, "height_m": null, "levels": null, "tract_id": "40031001000", "tract_name": "10", "tags": {"building": "yes", "source": "microsoft/BuildingFootprints"}}}, {"type": "Feature", "geometry": {"type": "Polygon", "coordinates": [[[-98.4219029, 34.6134854], [-98.4220987, 34.6134859], [-98.4220989, 34.6134363], [-98.4220066, 34.6134361], [-98.4220068, 34.6133721], [-98.4220187, 34.6133721], [-98.4220189, 34.6133135], [-98.4219036, 34.6133132], [-98.4219029, 34.6134854]]]}, "properties": {"osm_id": 1420110008, "building": "yes", "name": "", "height": null, "height_m": null, "levels": null, "tract_id": "40031001000", "tract_name": "10", "tags": {"building": "yes", "source": "microsoft/BuildingFootprints"}}}, {"type": "Feature", "geometry": {"type": "Polygon", "coordinates": [[[-98.4218913, 34.6131175], [-98.4218929, 34.6131682], [-98.4217857, 34.6131705], [-98.4217876, 34.6132322], [-98.4218852, 34.6132302], [-98.4218863, 34.6132655], [-98.4220487, 34.6132621], [-98.4220466, 34.6131949], [-98.42197, 34.6131965], [-98.4219689, 34.61316], [-98.422024, 34.6131589], [-98.4220227, 34.6131148], [-98.4218913, 34.6131175]]]}, "properties": {"osm_id": 1420110009, "building": "yes", "name": "", "height": null, "height_m": null, "levels": null, "tract_id": "40031001000", "tract_name": "10", "tags": {"building": "yes", "source": "microsoft/BuildingFootprints"}}}, {"type": "Feature", "geometry": {"type": "Polygon", "coordinates": [[[-98.4218631, 34.6128861], [-98.4218625, 34.6128442], [-98.4217043, 34.6128458], [-98.421707, 34.6130246], [-98.4218599, 34.613023], [-98.4218588, 34.6129535], [-98.4218937, 34.6129532], [-98.4218926, 34.6128858], [-98.4218631, 34.6128861]]]}, "properties": {"osm_id": 1420110010, "building": "yes", "name": "", "height": null, "height_m": null, "levels": null, "tract_id": "40031001000", "tract_name": "10", "tags": {"building": "yes", "source": "microsoft/BuildingFootprints"}}}, {"type": "Feature", "geometry": {"type": "Polygon", "coordinates": [[[-98.4217942, 34.6127174], [-98.4216816, 34.6127145], [-98.4216778, 34.6128137], [-98.4217904, 34.6128166], [-98.4217942, 34.6127174]]]}, "properties": {"osm_id": 1420110011, "building": "yes", "name": "", "height": null, "height_m": null, "levels": null, "tract_id": "40031001000", "tract_name": "10", "tags": {"building": "yes", "source": "microsoft/BuildingFootprints"}}}, {"type": "Feature", "geometry": {"type": "Polygon", "coordinates": [[[-98.4218855, 34.6127067], [-98.421889, 34.6124584], [-98.4216825, 34.6124564], [-98.421679, 34.6127047], [-98.4218855, 34.6127067]]]}, "properties": {"osm_id": 1420110012, "building": "yes", "name": "", "height": null, "height_m": null, "levels": null, "tract_id": "40031001000", "tract_name": "10", "tags": {"building": "yes", "source": "microsoft/BuildingFootprints"}}}, {"type": "Feature", "geometry": {"type": "Polygon", "coordinates": [[[-98.4214336, 34.6127854], [-98.4214684, 34.6128279], [-98.4215752, 34.6127685], [-98.4215403, 34.612726], [-98.4214336, 34.6127854]]]}, "properties": {"osm_id": 1420110013, "building": "yes", "name": "", "height": null, "height_m": null, "levels": null, "tract_id": "40031001000", "tract_name": "10", "tags": {"building": "yes", "source": "microsoft/BuildingFootprints"}}}, {"type": "Feature", "geometry": {"type": "Polygon", "coordinates": [[[-98.4213782, 34.6131681], [-98.4213402, 34.6130388], [-98.4212703, 34.6130527], [-98.4212507, 34.612986], [-98.4211584, 34.6130044], [-98.4211525, 34.6129846], [-98.4210852, 34.612998], [-98.421114, 34.613096], [-98.4211824, 34.6130824], [-98.4211956, 34.6131272], [-98.4211297, 34.6131403], [-98.4211512, 34.6132133], [-98.4213782, 34.6131681]]]}, "properties": {"osm_id": 1420110014, "building": "yes", "name": "", "height": null, "height_m": null, "levels": null, "tract_id": "40031001000", "tract_name": "10", "tags": {"building": "yes", "source": "microsoft/BuildingFootprints"}}}, {"type": "Feature", "geometry": {"type": "Polygon", "coordinates": [[[-98.4212696, 34.6132613], [-98.4211208, 34.6132284], [-98.4210961, 34.6132373], [-98.4210767, 34.613297], [-98.4210943, 34.61333], [-98.4210689, 34.6134078], [-98.4211428, 34.613546], [-98.4212484, 34.6135078], [-98.4211923, 34.6134029], [-98.421215, 34.6133333], [-98.4212502, 34.6133206], [-98.4212696, 34.6132613]]]}, "properties": {"osm_id": 1420110015, "building": "yes", "name": "", "height": null, "height_m": null, "levels": null, "tract_id": "40031001000", "tract_name": "10", "tags": {"building": "yes", "source": "microsoft/BuildingFootprints"}}}, {"type": "Feature", "geometry": {"type": "Polygon", "coordinates": [[[-98.4213932, 34.6136517], [-98.4214775, 34.6136956], [-98.4215248, 34.6136341], [-98.4212921, 34.613513], [-98.4212243, 34.6136014], [-98.4213726, 34.6136785], [-98.4213932, 34.6136517]]]}, "properties": {"osm_id": 1420110016, "building": "yes", "name": "", "height": null, "height_m": null, "levels": null, "tract_id": "40031001000", "tract_name": "10", "tags": {"building": "yes", "source": "microsoft/BuildingFootprints"}}}, {"type": "Feature", "geometry": {"type": "Polygon", "coordinates": [[[-98.4208714, 34.6127942], [-98.4210957, 34.6129458], [-98.421197, 34.6128442], [-98.4209726, 34.6126926], [-98.4208714, 34.6127942]]]}, "properties": {"osm_id": 1420110017, "building": "yes", "name": "", "height": null, "height_m": null, "levels": null, "tract_id": "40031001000", "tract_name": "10", "tags": {"building": "yes", "source": "microsoft/BuildingFootprints"}}}, {"type": "Feature", "geometry": {"type": "Polygon", "coordinates": [[[-98.420737, 34.6126661], [-98.4205897, 34.6126614], [-98.4205885, 34.6126856], [-98.4205472, 34.6126843], [-98.4205443, 34.6127438], [-98.4205776, 34.6127449], [-98.4205757, 34.6127846], [-98.4206362, 34.6127865], [-98.4206349, 34.612813], [-98.4207233, 34.6128158], [-98.4207252, 34.612775], [-98.4207654, 34.6127763], [-98.420768, 34.6127212], [-98.4207344, 34.6127201], [-98.420737, 34.6126661]]]}, "properties": {"osm_id": 1420110018, "building": "yes", "name": "", "height": null, "height_m": null, "levels": null, "tract_id": "40031001000", "tract_name": "10", "tags": {"building": "yes", "source": "microsoft/BuildingFootprints"}}}, {"type": "Feature", "geometry": {"type": "Polygon", "coordinates": [[[-98.4208469, 34.612644], [-98.420756, 34.6126346], [-98.420745, 34.6127063], [-98.4208359, 34.6127157], [-98.4208469, 34.612644]]]}, "properties": {"osm_id": 1420110019, "building": "yes", "name": "", "height": null, "height_m": null, "levels": null, "tract_id": "40031001000", "tract_name": "10", "tags": {"building": "yes", "source": "microsoft/BuildingFootprints"}}}, {"type": "Feature", "geometry": {"type": "Polygon", "coordinates": [[[-98.4204861, 34.6127724], [-98.4204479, 34.6127113], [-98.4203864, 34.6127373], [-98.4203657, 34.6127041], [-98.4202808, 34.61274], [-98.4202557, 34.6126999], [-98.4201878, 34.6127286], [-98.420238, 34.6128089], [-98.4202126, 34.6128197], [-98.4202747, 34.6129192], [-98.4203426, 34.6128905], [-98.4203372, 34.6128818], [-98.4204305, 34.6128422], [-98.4204076, 34.6128056], [-98.4204861, 34.6127724]]]}, "properties": {"osm_id": 1420110020, "building": "yes", "name": "", "height": null, "height_m": null, "levels": null, "tract_id": "40031001000", "tract_name": "10", "tags": {"building": "yes", "source": "microsoft/BuildingFootprints"}}}, {"type": "Feature", "geometry": {"type": "Polygon", "coordinates": [[[-98.4199075, 34.612729], [-98.4198632, 34.6128601], [-98.4199653, 34.6128835], [-98.4199674, 34.6128773], [-98.4201218, 34.6129126], [-98.420164, 34.6127876], [-98.4199075, 34.612729]]]}, "properties": {"osm_id": 1420110021, "building": "yes", "name": "", "height": null, "height_m": null, "levels": null, "tract_id": "40031001000", "tract_name": "10", "tags": {"building": "yes", "source": "microsoft/BuildingFootprints"}}}, {"type": "Feature", "geometry": {"type": "Polygon", "coordinates": [[[-98.4196829, 34.612835], [-98.4197864, 34.6128341], [-98.4197858, 34.6127889], [-98.4198567, 34.6127883], [-98.4198545, 34.6126227], [-98.4198062, 34.6126232], [-98.4198056, 34.6125756], [-98.4196382, 34.6125771], [-98.4196393, 34.6126622], [-98.4196807, 34.6126618], [-98.4196829, 34.612835]]]}, "properties": {"osm_id": 1420110022, "building": "yes", "name": "", "height": null, "height_m": null, "levels": null, "tract_id": "40031001000", "tract_name": "10", "tags": {"building": "yes", "source": "microsoft/BuildingFootprints"}}}, {"type": "Feature", "geometry": {"type": "Polygon", "coordinates": [[[-98.4199034, 34.6124926], [-98.4198164, 34.6124911], [-98.4198148, 34.612554], [-98.4199017, 34.6125555], [-98.4199034, 34.6124926]]]}, "properties": {"osm_id": 1420110023, "building": "yes", "name": "", "height": null, "height_m": null, "levels": null, "tract_id": "40031001000", "tract_name": "10", "tags": {"building": "yes", "source": "microsoft/BuildingFootprints"}}}, {"type": "Feature", "geometry": {"type": "Polygon", "coordinates": [[[-98.4193954, 34.6134183], [-98.4195364, 34.613452], [-98.4195601, 34.6133849], [-98.4195799, 34.6133896], [-98.4196348, 34.6132339], [-98.4196101, 34.613228], [-98.4196327, 34.6131638], [-98.4194966, 34.6131313], [-98.4193954, 34.6134183]]]}, "properties": {"osm_id": 1420110024, "building": "yes", "name": "", "height": null, "height_m": null, "levels": null, "tract_id": "40031001000", "tract_name": "10", "tags": {"building": "yes", "source": "microsoft/BuildingFootprints"}}}, {"type": "Feature", "geometry": {"type": "Polygon", "coordinates": [[[-98.4199823, 34.613282], [-98.4199204, 34.613255], [-98.4199398, 34.6132248], [-98.419766, 34.613149], [-98.4197011, 34.6132498], [-98.419763, 34.6132769], [-98.4197392, 34.6133139], [-98.4198531, 34.6133636], [-98.4198698, 34.6133377], [-98.4199296, 34.6133638], [-98.4199823, 34.613282]]]}, "properties": {"osm_id": 1420110025, "building": "yes", "name": "", "height": null, "height_m": null, "levels": null, "tract_id": "40031001000", "tract_name": "10", "tags": {"building": "yes", "source": "microsoft/BuildingFootprints"}}}, {"type": "Feature", "geometry": {"type": "Polygon", "coordinates": [[[-98.4200306, 34.613299], [-98.4199618, 34.6133893], [-98.4202062, 34.6135155], [-98.4202569, 34.6134489], [-98.4201884, 34.6134136], [-98.4202065, 34.6133898], [-98.4200306, 34.613299]]]}, "properties": {"osm_id": 1420110026, "building": "yes", "name": "", "height": null, "height_m": null, "levels": null, "tract_id": "40031001000", "tract_name": "10", "tags": {"building": "yes", "source": "microsoft/BuildingFootprints"}}}, {"type": "Feature", "geometry": {"type": "Polygon", "coordinates": [[[-98.4194433, 34.6138106], [-98.4194653, 34.6137367], [-98.41923, 34.6136893], [-98.4191925, 34.6138151], [-98.4193291, 34.6138427], [-98.4193446, 34.6137907], [-98.4194433, 34.6138106]]]}, "properties": {"osm_id": 1420110027, "building": "yes", "name": "", "height": null, "height_m": null, "levels": null, "tract_id": "40031001000", "tract_name": "10", "tags": {"building": "yes", "source": "microsoft/BuildingFootprints"}}}, {"type": "Feature", "geometry": {"type": "Polygon", "coordinates": [[[-98.4194797, 34.6138693], [-98.4196511, 34.613915], [-98.4196852, 34.6138282], [-98.4196158, 34.6138096], [-98.4196194, 34.6138006], [-98.4195174, 34.6137734], [-98.4194797, 34.6138693]]]}, "properties": {"osm_id": 1420110028, "building": "yes", "name": "", "height": null, "height_m": null, "levels": null, "tract_id": "40031001000", "tract_name": "10", "tags": {"building": "yes", "source": "microsoft/BuildingFootprints"}}}, {"type": "Feature", "geometry": {"type": "Polygon", "coordinates": [[[-98.4199348, 34.6139522], [-98.4199172, 34.6139454], [-98.4199537, 34.6138812], [-98.4197764, 34.6138128], [-98.4197131, 34.6139241], [-98.41982, 34.6139653], [-98.4197736, 34.6140468], [-98.4198616, 34.6140807], [-98.4199348, 34.6139522]]]}, "properties": {"osm_id": 1420110029, "building": "yes", "name": "", "height": null, "height_m": null, "levels": null, "tract_id": "40031001000", "tract_name": "10", "tags": {"building": "yes", "source": "microsoft/BuildingFootprints"}}}, {"type": "Feature", "geometry": {"type": "Polygon", "coordinates": [[[-98.4201216, 34.614174], [-98.4202022, 34.614075], [-98.4200912, 34.6140138], [-98.4200651, 34.6140458], [-98.4199659, 34.613991], [-98.4199113, 34.6140581], [-98.4201216, 34.614174]]]}, "properties": {"osm_id": 1420110030, "building": "yes", "name": "", "height": null, "height_m": null, "levels": null, "tract_id": "40031001000", "tract_name": "10", "tags": {"building": "yes", "source": "microsoft/BuildingFootprints"}}}, {"type": "Feature", "geometry": {"type": "Polygon", "coordinates": [[[-98.4205072, 34.6142214], [-98.4203483, 34.6141479], [-98.4203351, 34.6141671], [-98.4202686, 34.6141364], [-98.4201987, 34.6142387], [-98.4202619, 34.6142679], [-98.4202728, 34.614252], [-98.420435, 34.6143271], [-98.4205072, 34.6142214]]]}, "properties": {"osm_id": 1420110031, "building": "yes", "name": "", "height": null, "height_m": null, "levels": null, "tract_id": "40031001000", "tract_name": "10", "tags": {"building": "yes", "source": "microsoft/BuildingFootprints"}}}, {"type": "Feature", "geometry": {"type": "Polygon", "coordinates": [[[-98.4210498, 34.6145634], [-98.4209844, 34.6145273], [-98.4209664, 34.6145493], [-98.4208721, 34.6144973], [-98.4208125, 34.6145703], [-98.4209722, 34.6146585], [-98.4210498, 34.6145634]]]}, "properties": {"osm_id": 1420110032, "building": "yes", "name": "", "height": null, "height_m": null, "levels": null, "tract_id": "40031001000", "tract_name": "10", "tags": {"building": "yes", "source": "microsoft/BuildingFootprints"}}}, {"type": "Feature", "geometry": {"type": "Polygon", "coordinates": [[[-98.4212315, 34.6147996], [-98.4211168, 34.6146626], [-98.4210397, 34.6147063], [-98.4210711, 34.6147437], [-98.4210511, 34.6147551], [-98.4210962, 34.614809], [-98.4210405, 34.6148406], [-98.4210787, 34.6148862], [-98.4212315, 34.6147996]]]}, "properties": {"osm_id": 1420110033, "building": "yes", "name": "", "height": null, "height_m": null, "levels": null, "tract_id": "40031001000", "tract_name": "10", "tags": {"building": "yes", "source": "microsoft/BuildingFootprints"}}}, {"type": "Feature", "geometry": {"type": "Polygon", "coordinates": [[[-98.4215626, 34.6147689], [-98.4214364, 34.6147864], [-98.4214567, 34.6148851], [-98.4215828, 34.6148676], [-98.4215626, 34.6147689]]]}, "properties": {"osm_id": 1420110034, "building": "yes", "name": "", "height": null, "height_m": null, "levels": null, "tract_id": "40031001000", "tract_name": "10", "tags": {"building": "yes", "source": "microsoft/BuildingFootprints"}}}, {"type": "Feature", "geometry": {"type": "Polygon", "coordinates": [[[-98.4213436, 34.6150236], [-98.4213004, 34.6149003], [-98.4213598, 34.6148861], [-98.4213462, 34.6148474], [-98.4211654, 34.6148903], [-98.4212026, 34.6149963], [-98.4211283, 34.6150139], [-98.4211479, 34.61507], [-98.4213436, 34.6150236]]]}, "properties": {"osm_id": 1420110035, "building": "yes", "name": "", "height": null, "height_m": null, "levels": null, "tract_id": "40031001000", "tract_name": "10", "tags": {"building": "yes", "source": "microsoft/BuildingFootprints"}}}, {"type": "Feature", "geometry": {"type": "Polygon", "coordinates": [[[-98.4213312, 34.6151379], [-98.4212213, 34.6151359], [-98.4212166, 34.6153102], [-98.4213265, 34.6153122], [-98.4213312, 34.6151379]]]}, "properties": {"osm_id": 1420110036, "building": "yes", "name": "", "height": null, "height_m": null, "levels": null, "tract_id": "40031001000", "tract_name": "10", "tags": {"building": "yes", "source": "microsoft/BuildingFootprints"}}}, {"type": "Feature", "geometry": {"type": "Polygon", "coordinates": [[[-98.4214943, 34.6151083], [-98.4213408, 34.6151143], [-98.4213458, 34.6152013], [-98.4214993, 34.6151953], [-98.4214943, 34.6151083]]]}, "properties": {"osm_id": 1420110037, "building": "yes", "name": "", "height": null, "height_m": null, "levels": null, "tract_id": "40031001000", "tract_name": "10", "tags": {"building": "yes", "source": "microsoft/BuildingFootprints"}}}, {"type": "Feature", "geometry": {"type": "Polygon", "coordinates": [[[-98.4218263, 34.6149387], [-98.4218251, 34.6149983], [-98.4219484, 34.6149999], [-98.4219475, 34.6150485], [-98.422044, 34.6150497], [-98.4220451, 34.6149946], [-98.4220639, 34.6149948], [-98.4220652, 34.6149286], [-98.4220437, 34.6149283], [-98.4220447, 34.6148798], [-98.4219428, 34.6148784], [-98.4219416, 34.6149402], [-98.4218263, 34.6149387]]]}, "properties": {"osm_id": 1420110038, "building": "yes", "name": "", "height": null, "height_m": null, "levels": null, "tract_id": "40031001000", "tract_name": "10", "tags": {"building": "yes", "source": "microsoft/BuildingFootprints"}}}, {"type": "Feature", "geometry": {"type": "Polygon", "coordinates": [[[-98.4216545, 34.6136056], [-98.4217832, 34.6136074], [-98.4217847, 34.6135346], [-98.421656, 34.6135328], [-98.4216545, 34.6136056]]]}, "properties": {"osm_id": 1420110039, "building": "yes", "name": "", "height": null, "height_m": null, "levels": null, "tract_id": "40031001000", "tract_name": "10", "tags": {"building": "yes", "source": "microsoft/BuildingFootprints"}}}, {"type": "Feature", "geometry": {"type": "Polygon", "coordinates": [[[-98.4216589, 34.6137338], [-98.421734, 34.6137338], [-98.421734, 34.6136587], [-98.4216589, 34.6136587], [-98.4216589, 34.6137338]]]}, "properties": {"osm_id": 1420110040, "building": "yes", "name": "", "height": null, "height_m": null, "levels": null, "tract_id": "40031001000", "tract_name": "10", "tags": {"building": "yes", "source": "microsoft/BuildingFootprints"}}}, {"type": "Feature", "geometry": {"type": "Polygon", "coordinates": [[[-98.4194733, 34.6134479], [-98.4194565, 34.6135041], [-98.419583, 34.6135298], [-98.4195998, 34.6134736], [-98.4194733, 34.6134479]]]}, "properties": {"osm_id": 1420110041, "building": "yes", "name": "", "height": null, "height_m": null, "levels": null, "tract_id": "40031001000", "tract_name": "10", "tags": {"building": "yes", "source": "microsoft/BuildingFootprints"}}}, {"type": "Feature", "geometry": {"type": "Polygon", "coordinates": [[[-98.4190932, 34.6141419], [-98.4190557, 34.6142137], [-98.4190866, 34.6142246], [-98.418999, 34.6143924], [-98.419076, 34.6144196], [-98.4191033, 34.6143674], [-98.4191336, 34.6143781], [-98.4191759, 34.6142969], [-98.4192031, 34.6143065], [-98.4192313, 34.6142525], [-98.4192033, 34.6142426], [-98.4192305, 34.6141904], [-98.4190932, 34.6141419]]]}, "properties": {"osm_id": 1420110042, "building": "yes", "name": "", "height": null, "height_m": null, "levels": null, "tract_id": "40031001000", "tract_name": "10", "tags": {"building": "yes", "source": "microsoft/BuildingFootprints"}}}, {"type": "Feature", "geometry": {"type": "Polygon", "coordinates": [[[-98.41926, 34.6142705], [-98.419317, 34.6142813], [-98.4193097, 34.6143074], [-98.4193861, 34.6143219], [-98.4193938, 34.6142947], [-98.4194345, 34.6143024], [-98.4194841, 34.6141254], [-98.4194424, 34.6141175], [-98.4194239, 34.6141834], [-98.4192915, 34.6141583], [-98.41926, 34.6142705]]]}, "properties": {"osm_id": 1420110043, "building": "yes", "name": "", "height": null, "height_m": null, "levels": null, "tract_id": "40031001000", "tract_name": "10", "tags": {"building": "yes", "source": "microsoft/BuildingFootprints"}}}, {"type": "Feature", "geometry": {"type": "Polygon", "coordinates": [[[-98.4194452, 34.614338], [-98.4196241, 34.6143958], [-98.4196739, 34.6142917], [-98.419553, 34.6142526], [-98.4195676, 34.614222], [-98.4195096, 34.6142032], [-98.4194452, 34.614338]]]}, "properties": {"osm_id": 1420110044, "building": "yes", "name": "", "height": null, "height_m": null, "levels": null, "tract_id": "40031001000", "tract_name": "10", "tags": {"building": "yes", "source": "microsoft/BuildingFootprints"}}}, {"type": "Feature", "geometry": {"type": "Polygon", "coordinates": [[[-98.4198684, 34.614503], [-98.4199329, 34.6144163], [-98.4197202, 34.6143092], [-98.4196504, 34.614403], [-98.4197772, 34.6144669], [-98.4197443, 34.6145111], [-98.4198808, 34.61458], [-98.4199191, 34.6145286], [-98.4198684, 34.614503]]]}, "properties": {"osm_id": 1420110045, "building": "yes", "name": "", "height": null, "height_m": null, "levels": null, "tract_id": "40031001000", "tract_name": "10", "tags": {"building": "yes", "source": "microsoft/BuildingFootprints"}}}, {"type": "Feature", "geometry": {"type": "Polygon", "coordinates": [[[-98.4197987, 34.6146177], [-98.4196873, 34.6145805], [-98.4196153, 34.6147264], [-98.4196406, 34.6147348], [-98.4196182, 34.6147803], [-98.4197848, 34.614836], [-98.4198129, 34.6147792], [-98.4197323, 34.6147522], [-98.4197987, 34.6146177]]]}, "properties": {"osm_id": 1420110046, "building": "yes", "name": "", "height": null, "height_m": null, "levels": null, "tract_id": "40031001000", "tract_name": "10", "tags": {"building": "yes", "source": "microsoft/BuildingFootprints"}}}, {"type": "Feature", "geometry": {"type": "Polygon", "coordinates": [[[-98.4191583, 34.6145725], [-98.4189813, 34.6145705], [-98.4189788, 34.6147183], [-98.4190995, 34.6147197], [-98.419101, 34.6146314], [-98.4191573, 34.614632], [-98.4191583, 34.6145725]]]}, "properties": {"osm_id": 1420110047, "building": "yes", "name": "", "height": null, "height_m": null, "levels": null, "tract_id": "40031001000", "tract_name": "10", "tags": {"building": "yes", "source": "microsoft/BuildingFootprints"}}}, {"type": "Feature", "geometry": {"type": "Polygon", "coordinates": [[[-98.4191005, 34.6148126], [-98.4191192, 34.6148129], [-98.4191202, 34.6147621], [-98.4189728, 34.6147601], [-98.4189718, 34.6148065], [-98.4189504, 34.6148062], [-98.418949, 34.6148768], [-98.4189714, 34.6148771], [-98.4189705, 34.6149212], [-98.4190983, 34.614923], [-98.4191005, 34.6148126]]]}, "properties": {"osm_id": 1420110048, "building": "yes", "name": "", "height": null, "height_m": null, "levels": null, "tract_id": "40031001000", "tract_name": "10", "tags": {"building": "yes", "source": "microsoft/BuildingFootprints"}}}, {"type": "Feature", "geometry": {"type": "Polygon", "coordinates": [[[-98.4195022, 34.6148841], [-98.4196081, 34.6151455], [-98.4197538, 34.6151055], [-98.419648, 34.6148442], [-98.4195022, 34.6148841]]]}, "properties": {"osm_id": 1420110203, "building": "yes", "name": "", "height": null, "height_m": null, "levels": null, "tract_id": "40031001000", "tract_name": "10", "tags": {"building": "yes", "source": "microsoft/BuildingFootprints"}}}, {"type": "Feature", "geometry": {"type": "Polygon", "coordinates": [[[-98.4201669, 34.6152201], [-98.4199357, 34.6151901], [-98.4199101, 34.6153236], [-98.4200409, 34.6153406], [-98.4200343, 34.6153751], [-98.42014, 34.6153888], [-98.4201503, 34.6153349], [-98.4202131, 34.6153431], [-98.4202292, 34.6152591], [-98.4201612, 34.6152503], [-98.4201669, 34.6152201]]]}, "properties": {"osm_id": 1420110204, "building": "yes", "name": "", "height": null, "height_m": null, "levels": null, "tract_id": "40031001000", "tract_name": "10", "tags": {"building": "yes", "source": "microsoft/BuildingFootprints"}}}, {"type": "Feature", "geometry": {"type": "Polygon", "coordinates": [[[-98.4204416, 34.6152987], [-98.4205794, 34.6153006], [-98.4205807, 34.6152333], [-98.4203062, 34.6152296], [-98.4203044, 34.6153211], [-98.4203741, 34.615322], [-98.4203737, 34.6153397], [-98.4204408, 34.6153406], [-98.4204416, 34.6152987]]]}, "properties": {"osm_id": 1420110205, "building": "yes", "name": "", "height": null, "height_m": null, "levels": null, "tract_id": "40031001000", "tract_name": "10", "tags": {"building": "yes", "source": "microsoft/BuildingFootprints"}}}, {"type": "Feature", "geometry": {"type": "Polygon", "coordinates": [[[-98.4208629, 34.6152348], [-98.4206404, 34.6152315], [-98.4206384, 34.6153242], [-98.4207644, 34.615326], [-98.4207627, 34.6154055], [-98.4208593, 34.6154069], [-98.4208629, 34.6152348]]]}, "properties": {"osm_id": 1420110206, "building": "yes", "name": "", "height": null, "height_m": null, "levels": null, "tract_id": "40031001000", "tract_name": "10", "tags": {"building": "yes", "source": "microsoft/BuildingFootprints"}}}, {"type": "Feature", "geometry": {"type": "Polygon", "coordinates": [[[-98.421354, 34.6154555], [-98.4213555, 34.6153495], [-98.4212117, 34.6153482], [-98.4212097, 34.6154861], [-98.4213187, 34.6154872], [-98.4213191, 34.6154551], [-98.421354, 34.6154555]]]}, "properties": {"osm_id": 1420110207, "building": "yes", "name": "", "height": null, "height_m": null, "levels": null, "tract_id": "40031001000", "tract_name": "10", "tags": {"building": "yes", "source": "microsoft/BuildingFootprints"}}}, {"type": "Feature", "geometry": {"type": "Polygon", "coordinates": [[[-98.4211779, 34.6159337], [-98.4214847, 34.615932], [-98.4214839, 34.6158338], [-98.4215419, 34.6158335], [-98.4215408, 34.6156922], [-98.421522, 34.6156923], [-98.4215216, 34.6156515], [-98.4211757, 34.6156534], [-98.4211779, 34.6159337]]]}, "properties": {"osm_id": 1420110208, "building": "yes", "name": "", "height": null, "height_m": null, "levels": null, "tract_id": "40031001000", "tract_name": "10", "tags": {"building": "yes", "source": "microsoft/BuildingFootprints"}}}, {"type": "Feature", "geometry": {"type": "Polygon", "coordinates": [[[-98.4207849, 34.6156942], [-98.4207839, 34.6157736], [-98.4207206, 34.6157731], [-98.4207193, 34.6158791], [-98.4208721, 34.6158804], [-98.4208745, 34.615695], [-98.4207849, 34.6156942]]]}, "properties": {"osm_id": 1420110209, "building": "yes", "name": "", "height": null, "height_m": null, "levels": null, "tract_id": "40031001000", "tract_name": "10", "tags": {"building": "yes", "source": "microsoft/BuildingFootprints"}}}, {"type": "Feature", "geometry": {"type": "Polygon", "coordinates": [[[-98.4206901, 34.61578], [-98.4205051, 34.6157837], [-98.4205075, 34.6158631], [-98.4205584, 34.6158621], [-98.4205591, 34.6158863], [-98.4206931, 34.6158837], [-98.4206901, 34.61578]]]}, "properties": {"osm_id": 1420110210, "building": "yes", "name": "", "height": null, "height_m": null, "levels": null, "tract_id": "40031001000", "tract_name": "10", "tags": {"building": "yes", "source": "microsoft/BuildingFootprints"}}}, {"type": "Feature", "geometry": {"type": "Polygon", "coordinates": [[[-98.4203, 34.6157737], [-98.420298, 34.6158542], [-98.4203677, 34.6158553], [-98.4203674, 34.6158708], [-98.4204666, 34.6158724], [-98.4204689, 34.6157765], [-98.4203, 34.6157737]]]}, "properties": {"osm_id": 1420110211, "building": "yes", "name": "", "height": null, "height_m": null, "levels": null, "tract_id": "40031001000", "tract_name": "10", "tags": {"building": "yes", "source": "microsoft/BuildingFootprints"}}}, {"type": "Feature", "geometry": {"type": "Polygon", "coordinates": [[[-98.4201676, 34.6159478], [-98.420248, 34.6159478], [-98.420248, 34.6158198], [-98.4202105, 34.6158198], [-98.4202105, 34.6157646], [-98.4200844, 34.6157646], [-98.4200844, 34.6158882], [-98.4201676, 34.6158882], [-98.4201676, 34.6159478]]]}, "properties": {"osm_id": 1420110212, "building": "yes", "name": "", "height": null, "height_m": null, "levels": null, "tract_id": "40031001000", "tract_name": "10", "tags": {"building": "yes", "source": "microsoft/BuildingFootprints"}}}, {"type": "Feature", "geometry": {"type": "Polygon", "coordinates": [[[-98.4198601, 34.6157054], [-98.4198582, 34.6158643], [-98.4199118, 34.6158648], [-98.4199116, 34.6158868], [-98.4200413, 34.6158879], [-98.4200427, 34.6157753], [-98.4200041, 34.615775], [-98.4200047, 34.6157276], [-98.4199323, 34.615727], [-98.4199325, 34.615706], [-98.4198601, 34.6157054]]]}, "properties": {"osm_id": 1420110213, "building": "yes", "name": "", "height": null, "height_m": null, "levels": null, "tract_id": "40031001000", "tract_name": "10", "tags": {"building": "yes", "source": "microsoft/BuildingFootprints"}}}, {"type": "Feature", "geometry": {"type": "Polygon", "coordinates": [[[-98.4198304, 34.6158684], [-98.4198293, 34.6157977], [-98.419766, 34.6157984], [-98.4197659, 34.6157951], [-98.4196389, 34.6157965], [-98.41964, 34.6158747], [-98.4196974, 34.6158741], [-98.4196977, 34.615893], [-98.4197691, 34.6158922], [-98.4197687, 34.615869], [-98.4198304, 34.6158684]]]}, "properties": {"osm_id": 1420110214, "building": "yes", "name": "", "height": null, "height_m": null, "levels": null, "tract_id": "40031001000", "tract_name": "10", "tags": {"building": "yes", "source": "microsoft/BuildingFootprints"}}}, {"type": "Feature", "geometry": {"type": "Polygon", "coordinates": [[[-98.4194272, 34.6158824], [-98.4195988, 34.6158842], [-98.4196001, 34.6158048], [-98.4194284, 34.6158029], [-98.4194272, 34.6158824]]]}, "properties": {"osm_id": 1420110215, "building": "yes", "name": "", "height": null, "height_m": null, "levels": null, "tract_id": "40031001000", "tract_name": "10", "tags": {"building": "yes", "source": "microsoft/BuildingFootprints"}}}, {"type": "Feature", "geometry": {"type": "Polygon", "coordinates": [[[-98.4193927, 34.6157183], [-98.4192979, 34.6157166], [-98.4192956, 34.6158027], [-98.4192189, 34.6158013], [-98.4192169, 34.6158785], [-98.4193885, 34.6158815], [-98.4193927, 34.6157183]]]}, "properties": {"osm_id": 1420110216, "building": "yes", "name": "", "height": null, "height_m": null, "levels": null, "tract_id": "40031001000", "tract_name": "10", "tags": {"building": "yes", "source": "microsoft/BuildingFootprints"}}}, {"type": "Feature", "geometry": {"type": "Polygon", "coordinates": [[[-98.4190829, 34.6157528], [-98.4189595, 34.6157544], [-98.4189604, 34.6157976], [-98.4189899, 34.6157972], [-98.4189908, 34.6158445], [-98.418965, 34.6158448], [-98.4189658, 34.6158846], [-98.4190854, 34.615883], [-98.4190829, 34.6157528]]]}, "properties": {"osm_id": 1420110217, "building": "yes", "name": "", "height": null, "height_m": null, "levels": null, "tract_id": "40031001000", "tract_name": "10", "tags": {"building": "yes", "source": "microsoft/BuildingFootprints"}}}, {"type": "Feature", "geometry": {"type": "Polygon", "coordinates": [[[-98.4189701, 34.6155466], [-98.4189709, 34.6157001], [-98.419089, 34.6156997], [-98.4190882, 34.6155461], [-98.4189701, 34.6155466]]]}, "properties": {"osm_id": 1420110218, "building": "yes", "name": "", "height": null, "height_m": null, "levels": null, "tract_id": "40031001000", "tract_name": "10", "tags": {"building": "yes", "source": "microsoft/BuildingFootprints"}}}, {"type": "Feature", "geometry": {"type": "Polygon", "coordinates": [[[-98.419126, 34.6155117], [-98.4191282, 34.6153925], [-98.4189673, 34.6153905], [-98.418966, 34.6154644], [-98.4189123, 34.6154637], [-98.4189115, 34.6155091], [-98.419126, 34.6155117]]]}, "properties": {"osm_id": 1420110219, "building": "yes", "name": "", "height": null, "height_m": null, "levels": null, "tract_id": "40031001000", "tract_name": "10", "tags": {"building": "yes", "source": "microsoft/BuildingFootprints"}}}, {"type": "Feature", "geometry": {"type": "Polygon", "coordinates": [[[-98.4188987, 34.6153397], [-98.4191009, 34.6153419], [-98.4191035, 34.6151753], [-98.4190016, 34.6151742], [-98.4190009, 34.6152216], [-98.4189624, 34.6152212], [-98.4189614, 34.6152798], [-98.4188997, 34.6152791], [-98.4188987, 34.6153397]]]}, "properties": {"osm_id": 1420110220, "building": "yes", "name": "", "height": null, "height_m": null, "levels": null, "tract_id": "40031001000", "tract_name": "10", "tags": {"building": "yes", "source": "microsoft/BuildingFootprints"}}}, {"type": "Feature", "geometry": {"type": "Polygon", "coordinates": [[[-98.4189966, 34.6150262], [-98.4189945, 34.615141], [-98.4190884, 34.6151422], [-98.4190899, 34.6150605], [-98.4191238, 34.6150609], [-98.4191254, 34.6149704], [-98.4190245, 34.6149692], [-98.4190244, 34.614977], [-98.4189698, 34.6149763], [-98.4189689, 34.6150259], [-98.4189966, 34.6150262]]]}, "properties": {"osm_id": 1420110221, "building": "yes", "name": "", "height": null, "height_m": null, "levels": null, "tract_id": "40031001000", "tract_name": "10", "tags": {"building": "yes", "source": "microsoft/BuildingFootprints"}}}, {"type": "Feature", "geometry": {"type": "Polygon", "coordinates": [[[-98.4186275, 34.6155639], [-98.4181072, 34.6155608], [-98.418106, 34.6157021], [-98.4184761, 34.6157043], [-98.4184751, 34.6158191], [-98.4182418, 34.6158177], [-98.4182416, 34.6158309], [-98.4180646, 34.6158299], [-98.4180647, 34.6158255], [-98.4180218, 34.6158252], [-98.4180205, 34.6159643], [-98.4180956, 34.6159647], [-98.4180958, 34.6159502], [-98.4186241, 34.6159534], [-98.4186275, 34.6155639]]]}, "properties": {"osm_id": 1420110222, "building": "yes", "name": "", "height": null, "height_m": null, "levels": null, "tract_id": "40031001000", "tract_name": "10", "tags": {"building": "yes", "source": "microsoft/BuildingFootprints"}}}, {"type": "Feature", "geometry": {"type": "Polygon", "coordinates": [[[-98.4183393, 34.6154203], [-98.4183381, 34.6154953], [-98.4184256, 34.6154963], [-98.4184268, 34.6154212], [-98.4183393, 34.6154203]]]}, "properties": {"osm_id": 1420110223, "building": "yes", "name": "", "height": null, "height_m": null, "levels": null, "tract_id": "40031001000", "tract_name": "10", "tags": {"building": "yes", "source": "microsoft/BuildingFootprints"}}}, {"type": "Feature", "geometry": {"type": "Polygon", "coordinates": [[[-98.4183094, 34.6154192], [-98.4182262, 34.6154187], [-98.4182255, 34.6154937], [-98.4183087, 34.6154942], [-98.4183094, 34.6154192]]]}, "properties": {"osm_id": 1420110224, "building": "yes", "name": "", "height": null, "height_m": null, "levels": null, "tract_id": "40031001000", "tract_name": "10", "tags": {"building": "yes", "source": "microsoft/BuildingFootprints"}}}, {"type": "Feature", "geometry": {"type": "Polygon", "coordinates": [[[-98.4183043, 34.6152964], [-98.4183075, 34.6152268], [-98.418263, 34.6152254], [-98.4182636, 34.6152112], [-98.4181234, 34.6152068], [-98.4181195, 34.6152906], [-98.4183043, 34.6152964]]]}, "properties": {"osm_id": 1420110225, "building": "yes", "name": "", "height": null, "height_m": null, "levels": null, "tract_id": "40031001000", "tract_name": "10", "tags": {"building": "yes", "source": "microsoft/BuildingFootprints"}}}, {"type": "Feature", "geometry": {"type": "Polygon", "coordinates": [[[-98.4186131, 34.6153033], [-98.4186142, 34.6152052], [-98.4184497, 34.615204], [-98.4184487, 34.6152878], [-98.4185087, 34.6152883], [-98.4185081, 34.6153378], [-98.4185769, 34.6153384], [-98.4185773, 34.615303], [-98.4186131, 34.6153033]]]}, "properties": {"osm_id": 1420110226, "building": "yes", "name": "", "height": null, "height_m": null, "levels": null, "tract_id": "40031001000", "tract_name": "10", "tags": {"building": "yes", "source": "microsoft/BuildingFootprints"}}}, {"type": "Feature", "geometry": {"type": "Polygon", "coordinates": [[[-98.4180954, 34.6147298], [-98.4180941, 34.6148247], [-98.4181568, 34.6148253], [-98.4181564, 34.6148518], [-98.4182788, 34.6148529], [-98.4182808, 34.6147095], [-98.4182218, 34.6147089], [-98.4182215, 34.614731], [-98.4180954, 34.6147298]]]}, "properties": {"osm_id": 1420110227, "building": "yes", "name": "", "height": null, "height_m": null, "levels": null, "tract_id": "40031001000", "tract_name": "10", "tags": {"building": "yes", "source": "microsoft/BuildingFootprints"}}}, {"type": "Feature", "geometry": {"type": "Polygon", "coordinates": [[[-98.4184422, 34.6147548], [-98.4183806, 34.6147539], [-98.4183787, 34.6148365], [-98.4185198, 34.6148386], [-98.4185202, 34.6148188], [-98.4186141, 34.6148202], [-98.4186157, 34.6147496], [-98.4185326, 34.6147483], [-98.4185337, 34.6146988], [-98.4184435, 34.6146974], [-98.4184422, 34.6147548]]]}, "properties": {"osm_id": 1420110228, "building": "yes", "name": "", "height": null, "height_m": null, "levels": null, "tract_id": "40031001000", "tract_name": "10", "tags": {"building": "yes", "source": "microsoft/BuildingFootprints"}}}, {"type": "Feature", "geometry": {"type": "Polygon", "coordinates": [[[-98.4182412, 34.6145341], [-98.4182379, 34.6146334], [-98.4183113, 34.6146351], [-98.4183146, 34.6145358], [-98.4182412, 34.6145341]]]}, "properties": {"osm_id": 1420110229, "building": "yes", "name": "", "height": null, "height_m": null, "levels": null, "tract_id": "40031001000", "tract_name": "10", "tags": {"building": "yes", "source": "microsoft/BuildingFootprints"}}}, {"type": "Feature", "geometry": {"type": "Polygon", "coordinates": [[[-98.4184279, 34.6142008], [-98.418377, 34.6141995], [-98.4183781, 34.6141721], [-98.4183057, 34.6141702], [-98.4183049, 34.61419], [-98.4182155, 34.6141877], [-98.4182123, 34.6142702], [-98.4182348, 34.6142708], [-98.4182334, 34.6143052], [-98.4183513, 34.6143083], [-98.4183526, 34.6142752], [-98.4184249, 34.6142771], [-98.4184279, 34.6142008]]]}, "properties": {"osm_id": 1420110230, "building": "yes", "name": "", "height": null, "height_m": null, "levels": null, "tract_id": "40031001000", "tract_name": "10", "tags": {"building": "yes", "source": "microsoft/BuildingFootprints"}}}, {"type": "Feature", "geometry": {"type": "Polygon", "coordinates": [[[-98.4183619, 34.6144702], [-98.418437, 34.6144712], [-98.4184383, 34.6144005], [-98.4183632, 34.6143996], [-98.4183619, 34.6144702]]]}, "properties": {"osm_id": 1420110231, "building": "yes", "name": "", "height": null, "height_m": null, "levels": null, "tract_id": "40031001000", "tract_name": "10", "tags": {"building": "yes", "source": "microsoft/BuildingFootprints"}}}, {"type": "Feature", "geometry": {"type": "Polygon", "coordinates": [[[-98.4186923, 34.6142621], [-98.4185152, 34.6141792], [-98.4184576, 34.6142626], [-98.4185496, 34.6143057], [-98.4184816, 34.6144041], [-98.4185667, 34.6144439], [-98.4186923, 34.6142621]]]}, "properties": {"osm_id": 1420110232, "building": "yes", "name": "", "height": null, "height_m": null, "levels": null, "tract_id": "40031001000", "tract_name": "10", "tags": {"building": "yes", "source": "microsoft/BuildingFootprints"}}}, {"type": "Feature", "geometry": {"type": "Polygon", "coordinates": [[[-98.4183403, 34.6136787], [-98.4182453, 34.6136775], [-98.4182448, 34.6137106], [-98.4181386, 34.6137094], [-98.4181366, 34.6138206], [-98.4183377, 34.6138231], [-98.4183403, 34.6136787]]]}, "properties": {"osm_id": 1420110233, "building": "yes", "name": "", "height": null, "height_m": null, "levels": null, "tract_id": "40031001000", "tract_name": "10", "tags": {"building": "yes", "source": "microsoft/BuildingFootprints"}}}, {"type": "Feature", "geometry": {"type": "Polygon", "coordinates": [[[-98.4188144, 34.6137781], [-98.4188131, 34.613681], [-98.4186495, 34.6136824], [-98.4186485, 34.6136051], [-98.4185547, 34.6136059], [-98.4185557, 34.6136898], [-98.4184324, 34.6136909], [-98.4184339, 34.6138101], [-98.4186753, 34.613808], [-98.4186749, 34.6137793], [-98.4188144, 34.6137781]]]}, "properties": {"osm_id": 1420110234, "building": "yes", "name": "", "height": null, "height_m": null, "levels": null, "tract_id": "40031001000", "tract_name": "10", "tags": {"building": "yes", "source": "microsoft/BuildingFootprints"}}}, {"type": "Feature", "geometry": {"type": "Polygon", "coordinates": [[[-98.4185913, 34.6131411], [-98.4185933, 34.6132802], [-98.4187864, 34.6132783], [-98.4187848, 34.6131636], [-98.4187177, 34.6131642], [-98.4187174, 34.6131399], [-98.4185913, 34.6131411]]]}, "properties": {"osm_id": 1420110235, "building": "yes", "name": "", "height": null, "height_m": null, "levels": null, "tract_id": "40031001000", "tract_name": "10", "tags": {"building": "yes", "source": "microsoft/BuildingFootprints"}}}, {"type": "Feature", "geometry": {"type": "Polygon", "coordinates": [[[-98.4190703, 34.6132345], [-98.4190721, 34.6131276], [-98.4188522, 34.6131251], [-98.4188506, 34.6132222], [-98.4189149, 34.6132229], [-98.418912, 34.6133951], [-98.4190542, 34.6133967], [-98.4190569, 34.6132344], [-98.4190703, 34.6132345]]]}, "properties": {"osm_id": 1420110236, "building": "yes", "name": "", "height": null, "height_m": null, "levels": null, "tract_id": "40031001000", "tract_name": "10", "tags": {"building": "yes", "source": "microsoft/BuildingFootprints"}}}, {"type": "Feature", "geometry": {"type": "Polygon", "coordinates": [[[-98.418803, 34.6126648], [-98.4188013, 34.6127641], [-98.4189461, 34.6127658], [-98.418945, 34.6128276], [-98.419004, 34.6128283], [-98.4190051, 34.6127643], [-98.4189837, 34.6127641], [-98.4189853, 34.612667], [-98.418803, 34.6126648]]]}, "properties": {"osm_id": 1420110237, "building": "yes", "name": "", "height": null, "height_m": null, "levels": null, "tract_id": "40031001000", "tract_name": "10", "tags": {"building": "yes", "source": "microsoft/BuildingFootprints"}}}, {"type": "Feature", "geometry": {"type": "Polygon", "coordinates": [[[-98.4192738, 34.6126003], [-98.4191477, 34.6126], [-98.4191474, 34.6126817], [-98.4190402, 34.6126814], [-98.4190398, 34.6127786], [-98.4191298, 34.6127788], [-98.4191296, 34.6128396], [-98.4192128, 34.6128398], [-98.419213, 34.6127802], [-98.4192731, 34.6127803], [-98.4192738, 34.6126003]]]}, "properties": {"osm_id": 1420110238, "building": "yes", "name": "", "height": null, "height_m": null, "levels": null, "tract_id": "40031001000", "tract_name": "10", "tags": {"building": "yes", "source": "microsoft/BuildingFootprints"}}}, {"type": "Feature", "geometry": {"type": "Polygon", "coordinates": [[[-98.4188883, 34.6122617], [-98.4189607, 34.612261], [-98.41896, 34.6122112], [-98.4190688, 34.6122102], [-98.4190667, 34.6120601], [-98.4190062, 34.6120607], [-98.419007, 34.6121203], [-98.4189522, 34.6121208], [-98.4189518, 34.6120933], [-98.418886, 34.6120939], [-98.4188883, 34.6122617]]]}, "properties": {"osm_id": 1420110239, "building": "yes", "name": "", "height": null, "height_m": null, "levels": null, "tract_id": "40031001000", "tract_name": "10", "tags": {"building": "yes", "source": "microsoft/BuildingFootprints"}}}, {"type": "Feature", "geometry": {"type": "Polygon", "coordinates": [[[-98.4193298, 34.612301], [-98.4193313, 34.612226], [-98.4192804, 34.6122253], [-98.4192829, 34.6120995], [-98.4191408, 34.6120976], [-98.4191391, 34.6121836], [-98.4191015, 34.6121831], [-98.4191001, 34.6122537], [-98.4191591, 34.6122545], [-98.4191582, 34.6122987], [-98.4193298, 34.612301]]]}, "properties": {"osm_id": 1420110240, "building": "yes", "name": "", "height": null, "height_m": null, "levels": null, "tract_id": "40031001000", "tract_name": "10", "tags": {"building": "yes", "source": "microsoft/BuildingFootprints"}}}, {"type": "Feature", "geometry": {"type": "Polygon", "coordinates": [[[-98.4197283, 34.6121861], [-98.4197267, 34.6120934], [-98.4195765, 34.6120951], [-98.4195793, 34.6122585], [-98.4196571, 34.6122576], [-98.4196559, 34.6121869], [-98.4197283, 34.6121861]]]}, "properties": {"osm_id": 1420110241, "building": "yes", "name": "", "height": null, "height_m": null, "levels": null, "tract_id": "40031001000", "tract_name": "10", "tags": {"building": "yes", "source": "microsoft/BuildingFootprints"}}}, {"type": "Feature", "geometry": {"type": "Polygon", "coordinates": [[[-98.4199477, 34.6120221], [-98.4198792, 34.6120213], [-98.4198776, 34.6121084], [-98.419773, 34.6121071], [-98.4197714, 34.6121954], [-98.4198331, 34.6121961], [-98.4198326, 34.6122248], [-98.419944, 34.6122262], [-98.4199477, 34.6120221]]]}, "properties": {"osm_id": 1420110242, "building": "yes", "name": "", "height": null, "height_m": null, "levels": null, "tract_id": "40031001000", "tract_name": "10", "tags": {"building": "yes", "source": "microsoft/BuildingFootprints"}}}, {"type": "Feature", "geometry": {"type": "Polygon", "coordinates": [[[-98.4198175, 34.6124209], [-98.4199531, 34.6124195], [-98.4199522, 34.6123675], [-98.4198611, 34.6123685], [-98.4198601, 34.6123078], [-98.4197594, 34.6123089], [-98.4197605, 34.6123795], [-98.4198168, 34.6123789], [-98.4198175, 34.6124209]]]}, "properties": {"osm_id": 1420110243, "building": "yes", "name": "", "height": null, "height_m": null, "levels": null, "tract_id": "40031001000", "tract_name": "10", "tags": {"building": "yes", "source": "microsoft/BuildingFootprints"}}}, {"type": "Feature", "geometry": {"type": "Polygon", "coordinates": [[[-98.4199702, 34.6121984], [-98.4201365, 34.6122007], [-98.4201385, 34.6121025], [-98.4199722, 34.6121002], [-98.4199702, 34.6121984]]]}, "properties": {"osm_id": 1420110244, "building": "yes", "name": "", "height": null, "height_m": null, "levels": null, "tract_id": "40031001000", "tract_name": "10", "tags": {"building": "yes", "source": "microsoft/BuildingFootprints"}}}, {"type": "Feature", "geometry": {"type": "Polygon", "coordinates": [[[-98.4203445, 34.6121043], [-98.4201703, 34.6120996], [-98.4201672, 34.612179], [-98.4202556, 34.6121814], [-98.4202546, 34.6122068], [-98.4203403, 34.612209], [-98.4203445, 34.6121043]]]}, "properties": {"osm_id": 1420110245, "building": "yes", "name": "", "height": null, "height_m": null, "levels": null, "tract_id": "40031001000", "tract_name": "10", "tags": {"building": "yes", "source": "microsoft/BuildingFootprints"}}}, {"type": "Feature", "geometry": {"type": "Polygon", "coordinates": [[[-98.4205484, 34.6120495], [-98.4204948, 34.6120495], [-98.4204948, 34.6121091], [-98.420366, 34.6121091], [-98.420366, 34.612204], [-98.4205002, 34.612204], [-98.4205002, 34.6121731], [-98.4205484, 34.6121731], [-98.4205484, 34.6120495]]]}, "properties": {"osm_id": 1420110246, "building": "yes", "name": "", "height": null, "height_m": null, "levels": null, "tract_id": "40031001000", "tract_name": "10", "tags": {"building": "yes", "source": "microsoft/BuildingFootprints"}}}, {"type": "Feature", "geometry": {"type": "Polygon", "coordinates": [[[-98.4205641, 34.6122014], [-98.4207422, 34.6121981], [-98.4207393, 34.61209], [-98.4206106, 34.6120924], [-98.4206111, 34.6121101], [-98.4205616, 34.612111], [-98.4205641, 34.6122014]]]}, "properties": {"osm_id": 1420110247, "building": "yes", "name": "", "height": null, "height_m": null, "levels": null, "tract_id": "40031001000", "tract_name": "10", "tags": {"building": "yes", "source": "microsoft/BuildingFootprints"}}}, {"type": "Feature", "geometry": {"type": "Polygon", "coordinates": [[[-98.4205378, 34.6123258], [-98.4204815, 34.6123249], [-98.4204803, 34.6123779], [-98.4205366, 34.6123787], [-98.4205378, 34.6123258]]]}, "properties": {"osm_id": 1420110248, "building": "yes", "name": "", "height": null, "height_m": null, "levels": null, "tract_id": "40031001000", "tract_name": "10", "tags": {"building": "yes", "source": "microsoft/BuildingFootprints"}}}, {"type": "Feature", "geometry": {"type": "Polygon", "coordinates": [[[-98.4209369, 34.6121065], [-98.4207748, 34.6121038], [-98.4207726, 34.6121898], [-98.4209347, 34.6121926], [-98.4209369, 34.6121065]]]}, "properties": {"osm_id": 1420110249, "building": "yes", "name": "", "height": null, "height_m": null, "levels": null, "tract_id": "40031001000", "tract_name": "10", "tags": {"building": "yes", "source": "microsoft/BuildingFootprints"}}}, {"type": "Feature", "geometry": {"type": "Polygon", "coordinates": [[[-98.421143, 34.6120442], [-98.4210881, 34.6120446], [-98.4210887, 34.612102], [-98.4209639, 34.6121029], [-98.4209655, 34.6122552], [-98.4211091, 34.6122541], [-98.4211088, 34.6122232], [-98.4211448, 34.612223], [-98.421143, 34.6120442]]]}, "properties": {"osm_id": 1420110250, "building": "yes", "name": "", "height": null, "height_m": null, "levels": null, "tract_id": "40031001000", "tract_name": "10", "tags": {"building": "yes", "source": "microsoft/BuildingFootprints"}}}, {"type": "Feature", "geometry": {"type": "Polygon", "coordinates": [[[-98.4210468, 34.612381], [-98.4211287, 34.6123823], [-98.4211303, 34.6123161], [-98.4210484, 34.6123148], [-98.4210468, 34.612381]]]}, "properties": {"osm_id": 1420110251, "building": "yes", "name": "", "height": null, "height_m": null, "levels": null, "tract_id": "40031001000", "tract_name": "10", "tags": {"building": "yes", "source": "microsoft/BuildingFootprints"}}}, {"type": "Feature", "geometry": {"type": "Polygon", "coordinates": [[[-98.4211669, 34.612198], [-98.4213037, 34.6121965], [-98.4213032, 34.6121667], [-98.4213381, 34.6121663], [-98.421337, 34.6121012], [-98.4211654, 34.6121031], [-98.4211669, 34.612198]]]}, "properties": {"osm_id": 1420110252, "building": "yes", "name": "", "height": null, "height_m": null, "levels": null, "tract_id": "40031001000", "tract_name": "10", "tags": {"building": "yes", "source": "microsoft/BuildingFootprints"}}}, {"type": "Feature", "geometry": {"type": "Polygon", "coordinates": [[[-98.4216319, 34.6122071], [-98.421735, 34.6122059], [-98.4217332, 34.6120966], [-98.4215643, 34.6120985], [-98.4215672, 34.6122729], [-98.421633, 34.6122721], [-98.4216319, 34.6122071]]]}, "properties": {"osm_id": 1420110394, "building": "yes", "name": "", "height": null, "height_m": null, "levels": null, "tract_id": "40031001000", "tract_name": "10", "tags": {"building": "yes", "source": "microsoft/BuildingFootprints"}}}, {"type": "Feature", "geometry": {"type": "Polygon", "coordinates": [[[-98.4215364, 34.612189], [-98.4215387, 34.6121018], [-98.4214249, 34.6120998], [-98.4214246, 34.6121119], [-98.4213695, 34.6121109], [-98.4213667, 34.6122168], [-98.4214739, 34.6122188], [-98.4214747, 34.6121879], [-98.4215364, 34.612189]]]}, "properties": {"osm_id": 1420110395, "building": "yes", "name": "", "height": null, "height_m": null, "levels": null, "tract_id": "40031001000", "tract_name": "10", "tags": {"building": "yes", "source": "microsoft/BuildingFootprints"}}}, {"type": "Feature", "geometry": {"type": "Polygon", "coordinates": [[[-98.4196281, 34.611698], [-98.4196278, 34.6117643], [-98.4197163, 34.6117645], [-98.4197172, 34.6115548], [-98.4196019, 34.6115545], [-98.4196013, 34.611698], [-98.4196281, 34.611698]]]}, "properties": {"osm_id": 1420110397, "building": "yes", "name": "", "height": null, "height_m": null, "levels": null, "tract_id": "40031001000", "tract_name": "10", "tags": {"building": "yes", "source": "microsoft/BuildingFootprints"}}}, {"type": "Feature", "geometry": {"type": "Polygon", "coordinates": [[[-98.4197572, 34.6117296], [-98.4198592, 34.6117287], [-98.4198603, 34.6118115], [-98.4199085, 34.6118111], [-98.4199064, 34.6116499], [-98.4197562, 34.6116513], [-98.4197572, 34.6117296]]]}, "properties": {"osm_id": 1420110398, "building": "yes", "name": "", "height": null, "height_m": null, "levels": null, "tract_id": "40031001000", "tract_name": "10", "tags": {"building": "yes", "source": "microsoft/BuildingFootprints"}}}, {"type": "Feature", "geometry": {"type": "Polygon", "coordinates": [[[-98.420095, 34.6116498], [-98.4199502, 34.611647], [-98.4199476, 34.6117397], [-98.4200468, 34.6117416], [-98.4200457, 34.6117801], [-98.4200913, 34.611781], [-98.420095, 34.6116498]]]}, "properties": {"osm_id": 1420110399, "building": "yes", "name": "", "height": null, "height_m": null, "levels": null, "tract_id": "40031001000", "tract_name": "10", "tags": {"building": "yes", "source": "microsoft/BuildingFootprints"}}}, {"type": "Feature", "geometry": {"type": "Polygon", "coordinates": [[[-98.4201269, 34.6117175], [-98.4202744, 34.6117187], [-98.4202754, 34.6116392], [-98.4201279, 34.611638], [-98.4201269, 34.6117175]]]}, "properties": {"osm_id": 1420110400, "building": "yes", "name": "", "height": null, "height_m": null, "levels": null, "tract_id": "40031001000", "tract_name": "10", "tags": {"building": "yes", "source": "microsoft/BuildingFootprints"}}}, {"type": "Feature", "geometry": {"type": "Polygon", "coordinates": [[[-98.4204345, 34.6117442], [-98.4204363, 34.611657], [-98.4203076, 34.6116551], [-98.4203058, 34.6117423], [-98.4204345, 34.6117442]]]}, "properties": {"osm_id": 1420110401, "building": "yes", "name": "", "height": null, "height_m": null, "levels": null, "tract_id": "40031001000", "tract_name": "10", "tags": {"building": "yes", "source": "microsoft/BuildingFootprints"}}}, {"type": "Feature", "geometry": {"type": "Polygon", "coordinates": [[[-98.4206367, 34.6115713], [-98.4205215, 34.6115689], [-98.4205187, 34.6116593], [-98.4204838, 34.6116586], [-98.4204821, 34.611716], [-98.4205839, 34.6117181], [-98.4205828, 34.6117534], [-98.4206311, 34.6117544], [-98.4206367, 34.6115713]]]}, "properties": {"osm_id": 1420110402, "building": "yes", "name": "", "height": null, "height_m": null, "levels": null, "tract_id": "40031001000", "tract_name": "10", "tags": {"building": "yes", "source": "microsoft/BuildingFootprints"}}}, {"type": "Feature", "geometry": {"type": "Polygon", "coordinates": [[[-98.4208136, 34.6116406], [-98.4206688, 34.6116419], [-98.4206698, 34.6117247], [-98.4208146, 34.6117234], [-98.4208136, 34.6116406]]]}, "properties": {"osm_id": 1420110403, "building": "yes", "name": "", "height": null, "height_m": null, "levels": null, "tract_id": "40031001000", "tract_name": "10", "tags": {"building": "yes", "source": "microsoft/BuildingFootprints"}}}, {"type": "Feature", "geometry": {"type": "Polygon", "coordinates": [[[-98.4209267, 34.6116205], [-98.4209274, 34.6116536], [-98.420855, 34.6116548], [-98.420857, 34.6117376], [-98.4210059, 34.6117351], [-98.4210032, 34.6116193], [-98.4209267, 34.6116205]]]}, "properties": {"osm_id": 1420110404, "building": "yes", "name": "", "height": null, "height_m": null, "levels": null, "tract_id": "40031001000", "tract_name": "10", "tags": {"building": "yes", "source": "microsoft/BuildingFootprints"}}}, {"type": "Feature", "geometry": {"type": "Polygon", "coordinates": [[[-98.421182, 34.6117319], [-98.421184, 34.6116492], [-98.4210406, 34.6116469], [-98.4210387, 34.6117297], [-98.421182, 34.6117319]]]}, "properties": {"osm_id": 1420110405, "building": "yes", "name": "", "height": null, "height_m": null, "levels": null, "tract_id": "40031001000", "tract_name": "10", "tags": {"building": "yes", "source": "microsoft/BuildingFootprints"}}}, {"type": "Feature", "geometry": {"type": "Polygon", "coordinates": [[[-98.4213677, 34.6116408], [-98.421306, 34.6116414], [-98.4213053, 34.6115973], [-98.4212302, 34.6115981], [-98.4212322, 34.6117239], [-98.4213689, 34.6117224], [-98.4213677, 34.6116408]]]}, "properties": {"osm_id": 1420110406, "building": "yes", "name": "", "height": null, "height_m": null, "levels": null, "tract_id": "40031001000", "tract_name": "10", "tags": {"building": "yes", "source": "microsoft/BuildingFootprints"}}}, {"type": "Feature", "geometry": {"type": "Polygon", "coordinates": [[[-98.4215439, 34.6117384], [-98.4215466, 34.611617], [-98.4214071, 34.6116149], [-98.4214045, 34.6117363], [-98.4215439, 34.6117384]]]}, "properties": {"osm_id": 1420110407, "building": "yes", "name": "", "height": null, "height_m": null, "levels": null, "tract_id": "40031001000", "tract_name": "10", "tags": {"building": "yes", "source": "microsoft/BuildingFootprints"}}}, {"type": "Feature", "geometry": {"type": "Polygon", "coordinates": [[[-98.4215949, 34.6117213], [-98.4216941, 34.6117226], [-98.4216925, 34.6118086], [-98.421734, 34.6118092], [-98.4217379, 34.6115995], [-98.4215972, 34.6115977], [-98.4215949, 34.6117213]]]}, "properties": {"osm_id": 1420110408, "building": "yes", "name": "", "height": null, "height_m": null, "levels": null, "tract_id": "40031001000", "tract_name": "10", "tags": {"building": "yes", "source": "microsoft/BuildingFootprints"}}}, {"type": "Feature", "geometry": {"type": "Polygon", "coordinates": [[[-98.4219119, 34.6116077], [-98.4218288, 34.6116067], [-98.4218281, 34.6116442], [-98.4217664, 34.6116435], [-98.4217649, 34.6117252], [-98.4218722, 34.6117264], [-98.421871, 34.6117927], [-98.4219086, 34.6117931], [-98.4219119, 34.6116077]]]}, "properties": {"osm_id": 1420110409, "building": "yes", "name": "", "height": null, "height_m": null, "levels": null, "tract_id": "40031001000", "tract_name": "10", "tags": {"building": "yes", "source": "microsoft/BuildingFootprints"}}}, {"type": "Feature", "geometry": {"type": "Polygon", "coordinates": [[[-98.4219565, 34.6116553], [-98.4219588, 34.6117347], [-98.4221009, 34.611732], [-98.4220986, 34.6116525], [-98.4219565, 34.6116553]]]}, "properties": {"osm_id": 1420110410, "building": "yes", "name": "", "height": null, "height_m": null, "levels": null, "tract_id": "40031001000", "tract_name": "10", "tags": {"building": "yes", "source": "microsoft/BuildingFootprints"}}}, {"type": "Feature", "geometry": {"type": "Polygon", "coordinates": [[[-98.4219531, 34.6110785], [-98.4219554, 34.6112286], [-98.4221029, 34.6112271], [-98.4220997, 34.6110162], [-98.4220393, 34.6110168], [-98.4220402, 34.6110776], [-98.4219531, 34.6110785]]]}, "properties": {"osm_id": 1420110411, "building": "yes", "name": "", "height": null, "height_m": null, "levels": null, "tract_id": "40031001000", "tract_name": "10", "tags": {"building": "yes", "source": "microsoft/BuildingFootprints"}}}, {"type": "Feature", "geometry": {"type": "Polygon", "coordinates": [[[-98.421781, 34.6111653], [-98.4219138, 34.6111636], [-98.4219119, 34.6110687], [-98.4218221, 34.6110699], [-98.4218225, 34.6110909], [-98.4217796, 34.6110914], [-98.421781, 34.6111653]]]}, "properties": {"osm_id": 1420110412, "building": "yes", "name": "", "height": null, "height_m": null, "levels": null, "tract_id": "40031001000", "tract_name": "10", "tags": {"building": "yes", "source": "microsoft/BuildingFootprints"}}}, {"type": "Feature", "geometry": {"type": "Polygon", "coordinates": [[[-98.4215803, 34.6111702], [-98.4217171, 34.6111716], [-98.4217182, 34.6110988], [-98.4215814, 34.6110974], [-98.4215803, 34.6111702]]]}, "properties": {"osm_id": 1420110413, "building": "yes", "name": "", "height": null, "height_m": null, "levels": null, "tract_id": "40031001000", "tract_name": "10", "tags": {"building": "yes", "source": "microsoft/BuildingFootprints"}}}, {"type": "Feature", "geometry": {"type": "Polygon", "coordinates": [[[-98.421553, 34.6110018], [-98.4214712, 34.611002], [-98.4214714, 34.611065], [-98.4214003, 34.6110651], [-98.4214009, 34.6112197], [-98.4214787, 34.6112195], [-98.4214787, 34.6112393], [-98.4215538, 34.6112392], [-98.421553, 34.6110018]]]}, "properties": {"osm_id": 1420110414, "building": "yes", "name": "", "height": null, "height_m": null, "levels": null, "tract_id": "40031001000", "tract_name": "10", "tags": {"building": "yes", "source": "microsoft/BuildingFootprints"}}}, {"type": "Feature", "geometry": {"type": "Polygon", "coordinates": [[[-98.4213626, 34.6111241], [-98.4213651, 34.6110546], [-98.4213115, 34.6110533], [-98.4213105, 34.6110819], [-98.4212301, 34.61108], [-98.421227, 34.6111649], [-98.4213342, 34.6111675], [-98.4213358, 34.6111234], [-98.4213626, 34.6111241]]]}, "properties": {"osm_id": 1420110415, "building": "yes", "name": "", "height": null, "height_m": null, "levels": null, "tract_id": "40031001000", "tract_name": "10", "tags": {"building": "yes", "source": "microsoft/BuildingFootprints"}}}, {"type": "Feature", "geometry": {"type": "Polygon", "coordinates": [[[-98.421115, 34.6110118], [-98.4211139, 34.611089], [-98.4210562, 34.6110885], [-98.4210549, 34.6111768], [-98.421185, 34.6111781], [-98.4211875, 34.6110125], [-98.421115, 34.6110118]]]}, "properties": {"osm_id": 1420110416, "building": "yes", "name": "", "height": null, "height_m": null, "levels": null, "tract_id": "40031001000", "tract_name": "10", "tags": {"building": "yes", "source": "microsoft/BuildingFootprints"}}}, {"type": "Feature", "geometry": {"type": "Polygon", "coordinates": [[[-98.420976, 34.6110888], [-98.4208633, 34.6110877], [-98.4208615, 34.6112179], [-98.4209741, 34.611219], [-98.420976, 34.6110888]]]}, "properties": {"osm_id": 1420110417, "building": "yes", "name": "", "height": null, "height_m": null, "levels": null, "tract_id": "40031001000", "tract_name": "10", "tags": {"building": "yes", "source": "microsoft/BuildingFootprints"}}}, {"type": "Feature", "geometry": {"type": "Polygon", "coordinates": [[[-98.4210136, 34.611227], [-98.4209734, 34.6112259], [-98.4209703, 34.6113042], [-98.4210105, 34.6113053], [-98.4210136, 34.611227]]]}, "properties": {"osm_id": 1420110418, "building": "yes", "name": "", "height": null, "height_m": null, "levels": null, "tract_id": "40031001000", "tract_name": "10", "tags": {"building": "yes", "source": "microsoft/BuildingFootprints"}}}, {"type": "Feature", "geometry": {"type": "Polygon", "coordinates": [[[-98.4206623, 34.611229], [-98.4207508, 34.6112274], [-98.4207514, 34.6112517], [-98.4208265, 34.6112504], [-98.4208207, 34.6110253], [-98.4207483, 34.6110266], [-98.4207497, 34.6110818], [-98.4206586, 34.6110833], [-98.4206623, 34.611229]]]}, "properties": {"osm_id": 1420110419, "building": "yes", "name": "", "height": null, "height_m": null, "levels": null, "tract_id": "40031001000", "tract_name": "10", "tags": {"building": "yes", "source": "microsoft/BuildingFootprints"}}}, {"type": "Feature", "geometry": {"type": "Polygon", "coordinates": [[[-98.420618, 34.6112049], [-98.420616, 34.6110725], [-98.4205436, 34.6110732], [-98.4205427, 34.6110202], [-98.4203926, 34.6110218], [-98.4203936, 34.6110858], [-98.4203265, 34.6110865], [-98.4203284, 34.6112101], [-98.4204759, 34.6112086], [-98.4204759, 34.6112064], [-98.420618, 34.6112049]]]}, "properties": {"osm_id": 1420110420, "building": "yes", "name": "", "height": null, "height_m": null, "levels": null, "tract_id": "40031001000", "tract_name": "10", "tags": {"building": "yes", "source": "microsoft/BuildingFootprints"}}}, {"type": "Feature", "geometry": {"type": "Polygon", "coordinates": [[[-98.4204723, 34.611371], [-98.4205313, 34.611372], [-98.4205335, 34.6112882], [-98.4204745, 34.6112872], [-98.4204723, 34.611371]]]}, "properties": {"osm_id": 1420110421, "building": "yes", "name": "", "height": null, "height_m": null, "levels": null, "tract_id": "40031001000", "tract_name": "10", "tags": {"building": "yes", "source": "microsoft/BuildingFootprints"}}}, {"type": "Feature", "geometry": {"type": "Polygon", "coordinates": [[[-98.4201251, 34.6110818], [-98.4201266, 34.6111811], [-98.4202379, 34.61118], [-98.4202372, 34.611138], [-98.4202654, 34.6111377], [-98.4202646, 34.6110804], [-98.4201251, 34.6110818]]]}, "properties": {"osm_id": 1420110422, "building": "yes", "name": "", "height": null, "height_m": null, "levels": null, "tract_id": "40031001000", "tract_name": "10", "tags": {"building": "yes", "source": "microsoft/BuildingFootprints"}}}, {"type": "Feature", "geometry": {"type": "Polygon", "coordinates": [[[-98.4200122, 34.6112626], [-98.4200792, 34.6112615], [-98.4200752, 34.611085], [-98.4199572, 34.6110868], [-98.4199594, 34.6111829], [-98.4200103, 34.6111821], [-98.4200122, 34.6112626]]]}, "properties": {"osm_id": 1420110423, "building": "yes", "name": "", "height": null, "height_m": null, "levels": null, "tract_id": "40031001000", "tract_name": "10", "tags": {"building": "yes", "source": "microsoft/BuildingFootprints"}}}, {"type": "Feature", "geometry": {"type": "Polygon", "coordinates": [[[-98.4199044, 34.6110893], [-98.419773, 34.6110878], [-98.4197714, 34.6111783], [-98.4199028, 34.6111798], [-98.4199044, 34.6110893]]]}, "properties": {"osm_id": 1420110424, "building": "yes", "name": "", "height": null, "height_m": null, "levels": null, "tract_id": "40031001000", "tract_name": "10", "tags": {"building": "yes", "source": "microsoft/BuildingFootprints"}}}, {"type": "Feature", "geometry": {"type": "Polygon", "coordinates": [[[-98.4196347, 34.611285], [-98.4197178, 34.6112829], [-98.4197108, 34.6110933], [-98.4196063, 34.6110959], [-98.4196103, 34.6112039], [-98.4195661, 34.611205], [-98.4195674, 34.6112403], [-98.419633, 34.6112387], [-98.4196347, 34.611285]]]}, "properties": {"osm_id": 1420110425, "building": "yes", "name": "", "height": null, "height_m": null, "levels": null, "tract_id": "40031001000", "tract_name": "10", "tags": {"building": "yes", "source": "microsoft/BuildingFootprints"}}}, {"type": "Feature", "geometry": {"type": "Polygon", "coordinates": [[[-98.4196115, 34.6113711], [-98.4197067, 34.6113727], [-98.4197083, 34.6113075], [-98.4196131, 34.6113059], [-98.4196115, 34.6113711]]]}, "properties": {"osm_id": 1420110426, "building": "yes", "name": "", "height": null, "height_m": null, "levels": null, "tract_id": "40031001000", "tract_name": "10", "tags": {"building": "yes", "source": "microsoft/BuildingFootprints"}}}, {"type": "Feature", "geometry": {"type": "Polygon", "coordinates": [[[-98.4213689, 34.6106283], [-98.4212161, 34.6106271], [-98.4212151, 34.6107132], [-98.421368, 34.6107144], [-98.4213689, 34.6106283]]]}, "properties": {"osm_id": 1420110427, "building": "yes", "name": "", "height": null, "height_m": null, "levels": null, "tract_id": "40031001000", "tract_name": "10", "tags": {"building": "yes", "source": "microsoft/BuildingFootprints"}}}, {"type": "Feature", "geometry": {"type": "Polygon", "coordinates": [[[-98.4211789, 34.6106177], [-98.4210421, 34.6106188], [-98.4210431, 34.6107005], [-98.4211289, 34.6106998], [-98.4211292, 34.6107197], [-98.4211801, 34.6107192], [-98.4211789, 34.6106177]]]}, "properties": {"osm_id": 1420110428, "building": "yes", "name": "", "height": null, "height_m": null, "levels": null, "tract_id": "40031001000", "tract_name": "10", "tags": {"building": "yes", "source": "microsoft/BuildingFootprints"}}}, {"type": "Feature", "geometry": {"type": "Polygon", "coordinates": [[[-98.4208701, 34.6106209], [-98.4208688, 34.6107136], [-98.4209331, 34.6107142], [-98.4209323, 34.6107727], [-98.4209913, 34.6107733], [-98.420994, 34.6105867], [-98.4209578, 34.6105864], [-98.4209572, 34.6106217], [-98.4208701, 34.6106209]]]}, "properties": {"osm_id": 1420110429, "building": "yes", "name": "", "height": null, "height_m": null, "levels": null, "tract_id": "40031001000", "tract_name": "10", "tags": {"building": "yes", "source": "microsoft/BuildingFootprints"}}}, {"type": "Feature", "geometry": {"type": "Polygon", "coordinates": [[[-98.4206705, 34.6107159], [-98.4208099, 34.6107182], [-98.4208117, 34.6106454], [-98.420754, 34.6106444], [-98.4207552, 34.6105981], [-98.4206734, 34.6105967], [-98.4206705, 34.6107159]]]}, "properties": {"osm_id": 1420110430, "building": "yes", "name": "", "height": null, "height_m": null, "levels": null, "tract_id": "40031001000", "tract_name": "10", "tags": {"building": "yes", "source": "microsoft/BuildingFootprints"}}}, {"type": "Feature", "geometry": {"type": "Polygon", "coordinates": [[[-98.4206297, 34.6106386], [-98.4205546, 34.6106398], [-98.4205536, 34.6105957], [-98.4204892, 34.6105967], [-98.4204923, 34.6107247], [-98.4206317, 34.6107225], [-98.4206297, 34.6106386]]]}, "properties": {"osm_id": 1420110431, "building": "yes", "name": "", "height": null, "height_m": null, "levels": null, "tract_id": "40031001000", "tract_name": "10", "tags": {"building": "yes", "source": "microsoft/BuildingFootprints"}}}, {"type": "Feature", "geometry": {"type": "Polygon", "coordinates": [[[-98.4204236, 34.6106026], [-98.4203003, 34.6106044], [-98.4203025, 34.6107015], [-98.4203829, 34.6107003], [-98.4203834, 34.6107246], [-98.4204263, 34.610724], [-98.4204236, 34.6106026]]]}, "properties": {"osm_id": 1420110432, "building": "yes", "name": "", "height": null, "height_m": null, "levels": null, "tract_id": "40031001000", "tract_name": "10", "tags": {"building": "yes", "source": "microsoft/BuildingFootprints"}}}, {"type": "Feature", "geometry": {"type": "Polygon", "coordinates": [[[-98.4202605, 34.6107114], [-98.4202574, 34.610526], [-98.420177, 34.6105269], [-98.4201785, 34.6106206], [-98.4201397, 34.6106211], [-98.4201412, 34.6107127], [-98.4202605, 34.6107114]]]}, "properties": {"osm_id": 1420110433, "building": "yes", "name": "", "height": null, "height_m": null, "levels": null, "tract_id": "40031001000", "tract_name": "10", "tags": {"building": "yes", "source": "microsoft/BuildingFootprints"}}}, {"type": "Feature", "geometry": {"type": "Polygon", "coordinates": [[[-98.4200611, 34.6107168], [-98.4200605, 34.6106869], [-98.4200967, 34.6106864], [-98.4200958, 34.6106379], [-98.4199416, 34.6106399], [-98.4199431, 34.6107183], [-98.4200611, 34.6107168]]]}, "properties": {"osm_id": 1420110434, "building": "yes", "name": "", "height": null, "height_m": null, "levels": null, "tract_id": "40031001000", "tract_name": "10", "tags": {"building": "yes", "source": "microsoft/BuildingFootprints"}}}, {"type": "Feature", "geometry": {"type": "Polygon", "coordinates": [[[-98.4198981, 34.6107047], [-98.4198951, 34.610633], [-98.4197585, 34.6106368], [-98.4197615, 34.6107086], [-98.4198981, 34.6107047]]]}, "properties": {"osm_id": 1420110435, "building": "yes", "name": "", "height": null, "height_m": null, "levels": null, "tract_id": "40031001000", "tract_name": "10", "tags": {"building": "yes", "source": "microsoft/BuildingFootprints"}}}, {"type": "Feature", "geometry": {"type": "Polygon", "coordinates": [[[-98.419715, 34.6105458], [-98.4196158, 34.6105435], [-98.4196105, 34.6107001], [-98.4197096, 34.6107024], [-98.419715, 34.6105458]]]}, "properties": {"osm_id": 1420110436, "building": "yes", "name": "", "height": null, "height_m": null, "levels": null, "tract_id": "40031001000", "tract_name": "10", "tags": {"building": "yes", "source": "microsoft/BuildingFootprints"}}}, {"type": "Feature", "geometry": {"type": "Polygon", "coordinates": [[[-98.4191605, 34.611094], [-98.4191625, 34.6111845], [-98.419133, 34.6111849], [-98.4191346, 34.6112577], [-98.4192312, 34.6112563], [-98.4192305, 34.6112254], [-98.4192627, 34.6112249], [-98.4192597, 34.6110925], [-98.4191605, 34.611094]]]}, "properties": {"osm_id": 1420110437, "building": "yes", "name": "", "height": null, "height_m": null, "levels": null, "tract_id": "40031001000", "tract_name": "10", "tags": {"building": "yes", "source": "microsoft/BuildingFootprints"}}}, {"type": "Feature", "geometry": {"type": "Polygon", "coordinates": [[[-98.4189606, 34.6111753], [-98.4190357, 34.6111749], [-98.4190362, 34.6112202], [-98.4190952, 34.6112198], [-98.4190939, 34.6110896], [-98.4189598, 34.6110905], [-98.4189606, 34.6111753]]]}, "properties": {"osm_id": 1420110438, "building": "yes", "name": "", "height": null, "height_m": null, "levels": null, "tract_id": "40031001000", "tract_name": "10", "tags": {"building": "yes", "source": "microsoft/BuildingFootprints"}}}, {"type": "Feature", "geometry": {"type": "Polygon", "coordinates": [[[-98.4189575, 34.6106304], [-98.4189563, 34.6107165], [-98.4190851, 34.6107177], [-98.4190856, 34.610678], [-98.4191205, 34.6106783], [-98.4191211, 34.610632], [-98.4189575, 34.6106304]]]}, "properties": {"osm_id": 1420110439, "building": "yes", "name": "", "height": null, "height_m": null, "levels": null, "tract_id": "40031001000", "tract_name": "10", "tags": {"building": "yes", "source": "microsoft/BuildingFootprints"}}}, {"type": "Feature", "geometry": {"type": "Polygon", "coordinates": [[[-98.4193352, 34.6106641], [-98.4192601, 34.6106645], [-98.4192591, 34.6105386], [-98.4191653, 34.6105391], [-98.419166, 34.6106362], [-98.4191392, 34.6106364], [-98.4191397, 34.6107048], [-98.4191638, 34.6107047], [-98.4191641, 34.61074], [-98.4193357, 34.6107391], [-98.4193352, 34.6106641]]]}, "properties": {"osm_id": 1420110440, "building": "yes", "name": "", "height": null, "height_m": null, "levels": null, "tract_id": "40031001000", "tract_name": "10", "tags": {"building": "yes", "source": "microsoft/BuildingFootprints"}}}, {"type": "Feature", "geometry": {"type": "Polygon", "coordinates": [[[-98.4191433, 34.6104467], [-98.4191428, 34.6104952], [-98.4192179, 34.6104958], [-98.4192184, 34.6104472], [-98.4191433, 34.6104467]]]}, "properties": {"osm_id": 1420110441, "building": "yes", "name": "", "height": null, "height_m": null, "levels": null, "tract_id": "40031001000", "tract_name": "10", "tags": {"building": "yes", "source": "microsoft/BuildingFootprints"}}}, {"type": "Feature", "geometry": {"type": "Polygon", "coordinates": [[[-98.4191222, 34.6104454], [-98.4190217, 34.6104445], [-98.4190207, 34.610524], [-98.4191212, 34.6105249], [-98.4191222, 34.6104454]]]}, "properties": {"osm_id": 1420110442, "building": "yes", "name": "", "height": null, "height_m": null, "levels": null, "tract_id": "40031001000", "tract_name": "10", "tags": {"building": "yes", "source": "microsoft/BuildingFootprints"}}}, {"type": "Feature", "geometry": {"type": "Polygon", "coordinates": [[[-98.4212238, 34.6101362], [-98.4213231, 34.6101365], [-98.4213229, 34.6101718], [-98.4213712, 34.610172], [-98.4213718, 34.6100373], [-98.4212243, 34.6100368], [-98.4212238, 34.6101362]]]}, "properties": {"osm_id": 1420110443, "building": "yes", "name": "", "height": null, "height_m": null, "levels": null, "tract_id": "40031001000", "tract_name": "10", "tags": {"building": "yes", "source": "microsoft/BuildingFootprints"}}}, {"type": "Feature", "geometry": {"type": "Polygon", "coordinates": [[[-98.4211733, 34.6100513], [-98.4210553, 34.6100507], [-98.4210546, 34.6101457], [-98.4211726, 34.6101462], [-98.4211733, 34.6100513]]]}, "properties": {"osm_id": 1420110777, "building": "yes", "name": "", "height": null, "height_m": null, "levels": null, "tract_id": "40031001000", "tract_name": "10", "tags": {"building": "yes", "source": "microsoft/BuildingFootprints"}}}, {"type": "Feature", "geometry": {"type": "Polygon", "coordinates": [[[-98.4208482, 34.6101352], [-98.4209139, 34.6101357], [-98.4209133, 34.6101854], [-98.4209884, 34.610186], [-98.42099, 34.6100624], [-98.4208961, 34.6100616], [-98.4208967, 34.6100142], [-98.4208497, 34.6100138], [-98.4208482, 34.6101352]]]}, "properties": {"osm_id": 1420110778, "building": "yes", "name": "", "height": null, "height_m": null, "levels": null, "tract_id": "40031001000", "tract_name": "10", "tags": {"building": "yes", "source": "microsoft/BuildingFootprints"}}}, {"type": "Feature", "geometry": {"type": "Polygon", "coordinates": [[[-98.4208055, 34.6100524], [-98.4206875, 34.6100535], [-98.4206888, 34.6101506], [-98.4207317, 34.6101502], [-98.4207321, 34.6101833], [-98.4208072, 34.6101827], [-98.4208055, 34.6100524]]]}, "properties": {"osm_id": 1420110779, "building": "yes", "name": "", "height": null, "height_m": null, "levels": null, "tract_id": "40031001000", "tract_name": "10", "tags": {"building": "yes", "source": "microsoft/BuildingFootprints"}}}, {"type": "Feature", "geometry": {"type": "Polygon", "coordinates": [[[-98.4205996, 34.6100415], [-98.420495, 34.6100429], [-98.4204968, 34.6101378], [-98.4206013, 34.6101364], [-98.4205996, 34.6100415]]]}, "properties": {"osm_id": 1420110780, "building": "yes", "name": "", "height": null, "height_m": null, "levels": null, "tract_id": "40031001000", "tract_name": "10", "tags": {"building": "yes", "source": "microsoft/BuildingFootprints"}}}, {"type": "Feature", "geometry": {"type": "Polygon", "coordinates": [[[-98.4203144, 34.6101499], [-98.4204606, 34.6101515], [-98.420463, 34.6100036], [-98.4203999, 34.6100029], [-98.4203986, 34.6100824], [-98.4203155, 34.6100815], [-98.4203144, 34.6101499]]]}, "properties": {"osm_id": 1420110781, "building": "yes", "name": "", "height": null, "height_m": null, "levels": null, "tract_id": "40031001000", "tract_name": "10", "tags": {"building": "yes", "source": "microsoft/BuildingFootprints"}}}, {"type": "Feature", "geometry": {"type": "Polygon", "coordinates": [[[-98.4203634, 34.6103276], [-98.4204572, 34.6103276], [-98.4204572, 34.6102592], [-98.4203634, 34.6102592], [-98.4203634, 34.6103276]]]}, "properties": {"osm_id": 1420110782, "building": "yes", "name": "", "height": null, "height_m": null, "levels": null, "tract_id": "40031001000", "tract_name": "10", "tags": {"building": "yes", "source": "microsoft/BuildingFootprints"}}}, {"type": "Feature", "geometry": {"type": "Polygon", "coordinates": [[[-98.4202855, 34.6099921], [-98.4202131, 34.6099925], [-98.4202137, 34.6100643], [-98.4201238, 34.6100648], [-98.4201246, 34.6101531], [-98.4202373, 34.6101524], [-98.4202369, 34.6101083], [-98.4202651, 34.6101081], [-98.4202646, 34.6100496], [-98.420286, 34.6100494], [-98.4202855, 34.6099921]]]}, "properties": {"osm_id": 1420110783, "building": "yes", "name": "", "height": null, "height_m": null, "levels": null, "tract_id": "40031001000", "tract_name": "10", "tags": {"building": "yes", "source": "microsoft/BuildingFootprints"}}}, {"type": "Feature", "geometry": {"type": "Polygon", "coordinates": [[[-98.4200475, 34.6099937], [-98.4200458, 34.6100765], [-98.4199426, 34.6100751], [-98.4199411, 34.6101501], [-98.4200845, 34.6101521], [-98.4200878, 34.6099943], [-98.4200475, 34.6099937]]]}, "properties": {"osm_id": 1420110784, "building": "yes", "name": "", "height": null, "height_m": null, "levels": null, "tract_id": "40031001000", "tract_name": "10", "tags": {"building": "yes", "source": "microsoft/BuildingFootprints"}}}, {"type": "Feature", "geometry": {"type": "Polygon", "coordinates": [[[-98.4197619, 34.610143], [-98.4199026, 34.6101456], [-98.4199066, 34.6099989], [-98.4198383, 34.6099977], [-98.4198362, 34.6100727], [-98.4197639, 34.6100713], [-98.4197619, 34.610143]]]}, "properties": {"osm_id": 1420110785, "building": "yes", "name": "", "height": null, "height_m": null, "levels": null, "tract_id": "40031001000", "tract_name": "10", "tags": {"building": "yes", "source": "microsoft/BuildingFootprints"}}}, {"type": "Feature", "geometry": {"type": "Polygon", "coordinates": [[[-98.419618, 34.6102429], [-98.4197159, 34.6102415], [-98.4197121, 34.6100605], [-98.4196142, 34.6100619], [-98.419618, 34.6102429]]]}, "properties": {"osm_id": 1420110786, "building": "yes", "name": "", "height": null, "height_m": null, "levels": null, "tract_id": "40031001000", "tract_name": "10", "tags": {"building": "yes", "source": "microsoft/BuildingFootprints"}}}, {"type": "Feature", "geometry": {"type": "Polygon", "coordinates": [[[-98.4196124, 34.6103446], [-98.4197197, 34.6103458], [-98.4197209, 34.6102707], [-98.4196136, 34.6102696], [-98.4196124, 34.6103446]]]}, "properties": {"osm_id": 1420110787, "building": "yes", "name": "", "height": null, "height_m": null, "levels": null, "tract_id": "40031001000", "tract_name": "10", "tags": {"building": "yes", "source": "microsoft/BuildingFootprints"}}}, {"type": "Feature", "geometry": {"type": "Polygon", "coordinates": [[[-98.4197104, 34.6095903], [-98.4196675, 34.6095898], [-98.4196672, 34.6096085], [-98.4195814, 34.6096075], [-98.4195799, 34.6096926], [-98.4197086, 34.6096941], [-98.4197104, 34.6095903]]]}, "properties": {"osm_id": 1420110788, "building": "yes", "name": "", "height": null, "height_m": null, "levels": null, "tract_id": "40031001000", "tract_name": "10", "tags": {"building": "yes", "source": "microsoft/BuildingFootprints"}}}, {"type": "Feature", "geometry": {"type": "Polygon", "coordinates": [[[-98.4196288, 34.609566], [-98.4197065, 34.6095645], [-98.4197053, 34.6095226], [-98.4196276, 34.609524], [-98.4196288, 34.609566]]]}, "properties": {"osm_id": 1420110789, "building": "yes", "name": "", "height": null, "height_m": null, "levels": null, "tract_id": "40031001000", "tract_name": "10", "tags": {"building": "yes", "source": "microsoft/BuildingFootprints"}}}, {"type": "Feature", "geometry": {"type": "Polygon", "coordinates": [[[-98.4198645, 34.609595], [-98.4197573, 34.6095978], [-98.4197606, 34.6096794], [-98.4198677, 34.6096766], [-98.4198645, 34.609595]]]}, "properties": {"osm_id": 1420110790, "building": "yes", "name": "", "height": null, "height_m": null, "levels": null, "tract_id": "40031001000", "tract_name": "10", "tags": {"building": "yes", "source": "microsoft/BuildingFootprints"}}}, {"type": "Feature", "geometry": {"type": "Polygon", "coordinates": [[[-98.4200919, 34.6095809], [-98.4200517, 34.6095815], [-98.4200524, 34.6096146], [-98.419933, 34.6096162], [-98.4199345, 34.6096935], [-98.4200471, 34.6096919], [-98.4200479, 34.6097295], [-98.4200949, 34.6097288], [-98.4200919, 34.6095809]]]}, "properties": {"osm_id": 1420110791, "building": "yes", "name": "", "height": null, "height_m": null, "levels": null, "tract_id": "40031001000", "tract_name": "10", "tags": {"building": "yes", "source": "microsoft/BuildingFootprints"}}}, {"type": "Feature", "geometry": {"type": "Polygon", "coordinates": [[[-98.4201506, 34.6096976], [-98.4202644, 34.6096947], [-98.4202606, 34.6095932], [-98.4202111, 34.6095945], [-98.4202119, 34.6096143], [-98.4201475, 34.609616], [-98.4201506, 34.6096976]]]}, "properties": {"osm_id": 1420110792, "building": "yes", "name": "", "height": null, "height_m": null, "levels": null, "tract_id": "40031001000", "tract_name": "10", "tags": {"building": "yes", "source": "microsoft/BuildingFootprints"}}}, {"type": "Feature", "geometry": {"type": "Polygon", "coordinates": [[[-98.420408, 34.6095836], [-98.4203088, 34.6095818], [-98.4203061, 34.6096823], [-98.4204053, 34.6096841], [-98.420408, 34.6095836]]]}, "properties": {"osm_id": 1420110793, "building": "yes", "name": "", "height": null, "height_m": null, "levels": null, "tract_id": "40031001000", "tract_name": "10", "tags": {"building": "yes", "source": "microsoft/BuildingFootprints"}}}, {"type": "Feature", "geometry": {"type": "Polygon", "coordinates": [[[-98.4206293, 34.609609], [-98.4204913, 34.6096078], [-98.4204901, 34.6096961], [-98.4206282, 34.6096973], [-98.4206293, 34.609609]]]}, "properties": {"osm_id": 1420110794, "building": "yes", "name": "", "height": null, "height_m": null, "levels": null, "tract_id": "40031001000", "tract_name": "10", "tags": {"building": "yes", "source": "microsoft/BuildingFootprints"}}}, {"type": "Feature", "geometry": {"type": "Polygon", "coordinates": [[[-98.420663, 34.6095461], [-98.4206616, 34.6096896], [-98.4207904, 34.6096904], [-98.4207912, 34.6095999], [-98.4207322, 34.6095995], [-98.4207327, 34.6095465], [-98.420663, 34.6095461]]]}, "properties": {"osm_id": 1420110795, "building": "yes", "name": "", "height": null, "height_m": null, "levels": null, "tract_id": "40031001000", "tract_name": "10", "tags": {"building": "yes", "source": "microsoft/BuildingFootprints"}}}, {"type": "Feature", "geometry": {"type": "Polygon", "coordinates": [[[-98.4209966, 34.6095632], [-98.4209445, 34.6095643], [-98.420946, 34.6096118], [-98.4208817, 34.6096131], [-98.4208845, 34.6097014], [-98.421001, 34.6096989], [-98.4209966, 34.6095632]]]}, "properties": {"osm_id": 1420110796, "building": "yes", "name": "", "height": null, "height_m": null, "levels": null, "tract_id": "40031001000", "tract_name": "10", "tags": {"building": "yes", "source": "microsoft/BuildingFootprints"}}}, {"type": "Feature", "geometry": {"type": "Polygon", "coordinates": [[[-98.4211085, 34.609771], [-98.4211769, 34.6097724], [-98.421182, 34.6096114], [-98.4210801, 34.6096092], [-98.4210811, 34.6095772], [-98.4210395, 34.6095763], [-98.4210359, 34.60969], [-98.421111, 34.6096916], [-98.4211085, 34.609771]]]}, "properties": {"osm_id": 1420110797, "building": "yes", "name": "", "height": null, "height_m": null, "levels": null, "tract_id": "40031001000", "tract_name": "10", "tags": {"building": "yes", "source": "microsoft/BuildingFootprints"}}}, {"type": "Feature", "geometry": {"type": "Polygon", "coordinates": [[[-98.4213554, 34.6096857], [-98.4213561, 34.6095797], [-98.4213052, 34.6095795], [-98.421305, 34.6095993], [-98.4212448, 34.6095991], [-98.4212442, 34.6096852], [-98.4213554, 34.6096857]]]}, "properties": {"osm_id": 1420110798, "building": "yes", "name": "", "height": null, "height_m": null, "levels": null, "tract_id": "40031001000", "tract_name": "10", "tags": {"building": "yes", "source": "microsoft/BuildingFootprints"}}}, {"type": "Feature", "geometry": {"type": "Polygon", "coordinates": [[[-98.4215834, 34.609697], [-98.4216236, 34.6096965], [-98.4216239, 34.6097119], [-98.4216695, 34.6097113], [-98.4216704, 34.6097532], [-98.4217321, 34.6097523], [-98.4217287, 34.6095934], [-98.4215812, 34.6095955], [-98.4215834, 34.609697]]]}, "properties": {"osm_id": 1420110799, "building": "yes", "name": "", "height": null, "height_m": null, "levels": null, "tract_id": "40031001000", "tract_name": "10", "tags": {"building": "yes", "source": "microsoft/BuildingFootprints"}}}, {"type": "Feature", "geometry": {"type": "Polygon", "coordinates": [[[-98.4216643, 34.6094336], [-98.4217394, 34.6094324], [-98.4217385, 34.6093905], [-98.4216634, 34.6093917], [-98.4216643, 34.6094336]]]}, "properties": {"osm_id": 1420110800, "building": "yes", "name": "", "height": null, "height_m": null, "levels": null, "tract_id": "40031001000", "tract_name": "10", "tags": {"building": "yes", "source": "microsoft/BuildingFootprints"}}}, {"type": "Feature", "geometry": {"type": "Polygon", "coordinates": [[[-98.4207762, 34.6090793], [-98.4207784, 34.609183], [-98.421068, 34.609179], [-98.4210658, 34.6090753], [-98.4207762, 34.6090793]]]}, "properties": {"osm_id": 1420110801, "building": "yes", "name": "", "height": null, "height_m": null, "levels": null, "tract_id": "40031001000", "tract_name": "10", "tags": {"building": "yes", "source": "microsoft/BuildingFootprints"}}}, {"type": "Feature", "geometry": {"type": "Polygon", "coordinates": [[[-98.4212054, 34.6092422], [-98.4210633, 34.6092417], [-98.4210628, 34.6093167], [-98.421205, 34.6093173], [-98.4212054, 34.6092422]]]}, "properties": {"osm_id": 1420110802, "building": "yes", "name": "", "height": null, "height_m": null, "levels": null, "tract_id": "40031001000", "tract_name": "10", "tags": {"building": "yes", "source": "microsoft/BuildingFootprints"}}}, {"type": "Feature", "geometry": {"type": "Polygon", "coordinates": [[[-98.420677, 34.6093198], [-98.4207439, 34.609322], [-98.4207463, 34.6092713], [-98.4206794, 34.6092691], [-98.420677, 34.6093198]]]}, "properties": {"osm_id": 1420110803, "building": "yes", "name": "", "height": null, "height_m": null, "levels": null, "tract_id": "40031001000", "tract_name": "10", "tags": {"building": "yes", "source": "microsoft/BuildingFootprints"}}}, {"type": "Feature", "geometry": {"type": "Polygon", "coordinates": [[[-98.4197376, 34.6092547], [-98.4198637, 34.6092553], [-98.4198639, 34.6092276], [-98.4199846, 34.6092281], [-98.4199844, 34.609259], [-98.4202097, 34.60926], [-98.420211, 34.6090515], [-98.419983, 34.6090505], [-98.4199825, 34.6091266], [-98.4198606, 34.609126], [-98.419861, 34.6090664], [-98.4197388, 34.6090659], [-98.4197376, 34.6092547]]]}, "properties": {"osm_id": 1420110804, "building": "yes", "name": "", "height": null, "height_m": null, "levels": null, "tract_id": "40031001000", "tract_name": "10", "tags": {"building": "yes", "source": "microsoft/BuildingFootprints"}}}, {"type": "Feature", "geometry": {"type": "Polygon", "coordinates": [[[-98.4187503, 34.6093098], [-98.4191243, 34.6093121], [-98.4191259, 34.6091454], [-98.4187519, 34.609143], [-98.4187503, 34.6093098]]]}, "properties": {"osm_id": 1420110805, "building": "yes", "name": "", "height": null, "height_m": null, "levels": null, "tract_id": "40031001000", "tract_name": "10", "tags": {"building": "yes", "source": "microsoft/BuildingFootprints"}}}, {"type": "Feature", "geometry": {"type": "Polygon", "coordinates": [[[-98.4187299, 34.6091428], [-98.4183705, 34.6091448], [-98.4183719, 34.6093104], [-98.4187313, 34.6093084], [-98.4187299, 34.6091428]]]}, "properties": {"osm_id": 1420110806, "building": "yes", "name": "", "height": null, "height_m": null, "levels": null, "tract_id": "40031001000", "tract_name": "10", "tags": {"building": "yes", "source": "microsoft/BuildingFootprints"}}}, {"type": "Feature", "geometry": {"type": "Polygon", "coordinates": [[[-98.4183369, 34.6091422], [-98.4179895, 34.6091379], [-98.4179864, 34.6093078], [-98.4183338, 34.6093121], [-98.4183369, 34.6091422]]]}, "properties": {"osm_id": 1420110807, "building": "yes", "name": "", "height": null, "height_m": null, "levels": null, "tract_id": "40031001000", "tract_name": "10", "tags": {"building": "yes", "source": "microsoft/BuildingFootprints"}}}, {"type": "Feature", "geometry": {"type": "Polygon", "coordinates": [[[-98.4177911, 34.6093011], [-98.4179655, 34.6093011], [-98.4179655, 34.6091046], [-98.4177911, 34.6091046], [-98.4177911, 34.6093011]]]}, "properties": {"osm_id": 1420110808, "building": "yes", "name": "", "height": null, "height_m": null, "levels": null, "tract_id": "40031001000", "tract_name": "10", "tags": {"building": "yes", "source": "microsoft/BuildingFootprints"}}}, {"type": "Feature", "geometry": {"type": "Polygon", "coordinates": [[[-98.4170868, 34.6093094], [-98.4174045, 34.6093111], [-98.4174058, 34.6091478], [-98.4170881, 34.609146], [-98.4170868, 34.6093094]]]}, "properties": {"osm_id": 1420110809, "building": "yes", "name": "", "height": null, "height_m": null, "levels": null, "tract_id": "40031001000", "tract_name": "10", "tags": {"building": "yes", "source": "microsoft/BuildingFootprints"}}}, {"type": "Feature", "geometry": {"type": "Polygon", "coordinates": [[[-98.4193201, 34.6096788], [-98.4193213, 34.6096236], [-98.4192636, 34.6096228], [-98.4192661, 34.6095092], [-98.4191749, 34.6095079], [-98.4191712, 34.6096766], [-98.4193201, 34.6096788]]]}, "properties": {"osm_id": 1420110810, "building": "yes", "name": "", "height": null, "height_m": null, "levels": null, "tract_id": "40031001000", "tract_name": "10", "tags": {"building": "yes", "source": "microsoft/BuildingFootprints"}}}, {"type": "Feature", "geometry": {"type": "Polygon", "coordinates": [[[-98.4191201, 34.6096967], [-98.4191182, 34.6095952], [-98.4189626, 34.6095972], [-98.4189646, 34.6096987], [-98.4191201, 34.6096967]]]}, "properties": {"osm_id": 1420110811, "building": "yes", "name": "", "height": null, "height_m": null, "levels": null, "tract_id": "40031001000", "tract_name": "10", "tags": {"building": "yes", "source": "microsoft/BuildingFootprints"}}}, {"type": "Feature", "geometry": {"type": "Polygon", "coordinates": [[[-98.4187885, 34.6096891], [-98.4189226, 34.6096898], [-98.4189231, 34.6096147], [-98.4188963, 34.6096146], [-98.4188966, 34.6095793], [-98.4187893, 34.6095788], [-98.4187885, 34.6096891]]]}, "properties": {"osm_id": 1420110812, "building": "yes", "name": "", "height": null, "height_m": null, "levels": null, "tract_id": "40031001000", "tract_name": "10", "tags": {"building": "yes", "source": "microsoft/BuildingFootprints"}}}, {"type": "Feature", "geometry": {"type": "Polygon", "coordinates": [[[-98.4186057, 34.6095946], [-98.4186033, 34.6096873], [-98.4186864, 34.6096888], [-98.4186848, 34.6097505], [-98.4187626, 34.6097519], [-98.4187645, 34.6096781], [-98.4187189, 34.6096773], [-98.4187216, 34.6095724], [-98.418668, 34.6095714], [-98.4186673, 34.6095957], [-98.4186057, 34.6095946]]]}, "properties": {"osm_id": 1420110813, "building": "yes", "name": "", "height": null, "height_m": null, "levels": null, "tract_id": "40031001000", "tract_name": "10", "tags": {"building": "yes", "source": "microsoft/BuildingFootprints"}}}, {"type": "Feature", "geometry": {"type": "Polygon", "coordinates": [[[-98.4184216, 34.6096911], [-98.4185356, 34.6096892], [-98.4185335, 34.6096031], [-98.4184195, 34.609605], [-98.4184216, 34.6096911]]]}, "properties": {"osm_id": 1420110814, "building": "yes", "name": "", "height": null, "height_m": null, "levels": null, "tract_id": "40031001000", "tract_name": "10", "tags": {"building": "yes", "source": "microsoft/BuildingFootprints"}}}, {"type": "Feature", "geometry": {"type": "Polygon", "coordinates": [[[-98.4182297, 34.6097076], [-98.4183223, 34.6097087], [-98.4183215, 34.6097538], [-98.4183898, 34.6097546], [-98.4183926, 34.6095957], [-98.4182317, 34.6095938], [-98.4182297, 34.6097076]]]}, "properties": {"osm_id": 1420110815, "building": "yes", "name": "", "height": null, "height_m": null, "levels": null, "tract_id": "40031001000", "tract_name": "10", "tags": {"building": "yes", "source": "microsoft/BuildingFootprints"}}}, {"type": "Feature", "geometry": {"type": "Polygon", "coordinates": [[[-98.4178791, 34.6096872], [-98.4179917, 34.6096852], [-98.4179895, 34.6096035], [-98.4180378, 34.6096026], [-98.4180349, 34.6094945], [-98.417992, 34.6094953], [-98.417993, 34.6095328], [-98.4179326, 34.6095339], [-98.4179342, 34.6095957], [-98.4178767, 34.6095967], [-98.4178791, 34.6096872]]]}, "properties": {"osm_id": 1420110816, "building": "yes", "name": "", "height": null, "height_m": null, "levels": null, "tract_id": "40031001000", "tract_name": "10", "tags": {"building": "yes", "source": "microsoft/BuildingFootprints"}}}, {"type": "Feature", "geometry": {"type": "Polygon", "coordinates": [[[-98.4181547, 34.6096882], [-98.4181551, 34.6097103], [-98.418198, 34.6097097], [-98.4181958, 34.6095981], [-98.4180563, 34.6096], [-98.4180582, 34.6096896], [-98.4181547, 34.6096882]]]}, "properties": {"osm_id": 1420110817, "building": "yes", "name": "", "height": null, "height_m": null, "levels": null, "tract_id": "40031001000", "tract_name": "10", "tags": {"building": "yes", "source": "microsoft/BuildingFootprints"}}}, {"type": "Feature", "geometry": {"type": "Polygon", "coordinates": [[[-98.417685, 34.6095984], [-98.4176817, 34.6096844], [-98.417805, 34.6096876], [-98.4178083, 34.6096016], [-98.417685, 34.6095984]]]}, "properties": {"osm_id": 1420110818, "building": "yes", "name": "", "height": null, "height_m": null, "levels": null, "tract_id": "40031001000", "tract_name": "10", "tags": {"building": "yes", "source": "microsoft/BuildingFootprints"}}}, {"type": "Feature", "geometry": {"type": "Polygon", "coordinates": [[[-98.4175069, 34.6096209], [-98.417505, 34.6097004], [-98.4176471, 34.6097026], [-98.417649, 34.6096232], [-98.4175069, 34.6096209]]]}, "properties": {"osm_id": 1420110819, "building": "yes", "name": "", "height": null, "height_m": null, "levels": null, "tract_id": "40031001000", "tract_name": "10", "tags": {"building": "yes", "source": "microsoft/BuildingFootprints"}}}, {"type": "Feature", "geometry": {"type": "Polygon", "coordinates": [[[-98.4174452, 34.6096818], [-98.4174461, 34.6096191], [-98.4174207, 34.6096189], [-98.4174212, 34.6095813], [-98.4173205, 34.6095804], [-98.4173192, 34.6096806], [-98.4174452, 34.6096818]]]}, "properties": {"osm_id": 1420110820, "building": "yes", "name": "", "height": null, "height_m": null, "levels": null, "tract_id": "40031001000", "tract_name": "10", "tags": {"building": "yes", "source": "microsoft/BuildingFootprints"}}}, {"type": "Feature", "geometry": {"type": "Polygon", "coordinates": [[[-98.4172615, 34.6096833], [-98.4172604, 34.6096546], [-98.4172952, 34.6096537], [-98.4172931, 34.6095985], [-98.417135, 34.6096027], [-98.4171383, 34.6096865], [-98.4172615, 34.6096833]]]}, "properties": {"osm_id": 1420110821, "building": "yes", "name": "", "height": null, "height_m": null, "levels": null, "tract_id": "40031001000", "tract_name": "10", "tags": {"building": "yes", "source": "microsoft/BuildingFootprints"}}}, {"type": "Feature", "geometry": {"type": "Polygon", "coordinates": [[[-98.41706, 34.6096887], [-98.4170591, 34.6097063], [-98.4170979, 34.6097075], [-98.4171024, 34.6096105], [-98.4169658, 34.6096063], [-98.4169621, 34.6096856], [-98.41706, 34.6096887]]]}, "properties": {"osm_id": 1420110822, "building": "yes", "name": "", "height": null, "height_m": null, "levels": null, "tract_id": "40031001000", "tract_name": "10", "tags": {"building": "yes", "source": "microsoft/BuildingFootprints"}}}, {"type": "Feature", "geometry": {"type": "Polygon", "coordinates": [[[-98.4169241, 34.6096947], [-98.4169209, 34.6096007], [-98.4167828, 34.6096038], [-98.416786, 34.6096978], [-98.4169241, 34.6096947]]]}, "properties": {"osm_id": 1420110823, "building": "yes", "name": "", "height": null, "height_m": null, "levels": null, "tract_id": "40031001000", "tract_name": "10", "tags": {"building": "yes", "source": "microsoft/BuildingFootprints"}}}, {"type": "Feature", "geometry": {"type": "Polygon", "coordinates": [[[-98.4187679, 34.6094962], [-98.4186901, 34.6094954], [-98.4186891, 34.609555], [-98.4187669, 34.6095558], [-98.4187679, 34.6094962]]]}, "properties": {"osm_id": 1420110824, "building": "yes", "name": "", "height": null, "height_m": null, "levels": null, "tract_id": "40031001000", "tract_name": "10", "tags": {"building": "yes", "source": "microsoft/BuildingFootprints"}}}, {"type": "Feature", "geometry": {"type": "Polygon", "coordinates": [[[-98.4191609, 34.6100628], [-98.4191602, 34.6102593], [-98.4192085, 34.6102594], [-98.4192084, 34.6102793], [-98.4192514, 34.6102794], [-98.4192515, 34.6102517], [-98.4193199, 34.6102518], [-98.4193201, 34.61019], [-98.4192651, 34.6101899], [-98.4192655, 34.6100631], [-98.4191609, 34.6100628]]]}, "properties": {"osm_id": 1420110956, "building": "yes", "name": "", "height": null, "height_m": null, "levels": null, "tract_id": "40031001000", "tract_name": "10", "tags": {"building": "yes", "source": "microsoft/BuildingFootprints"}}}, {"type": "Feature", "geometry": {"type": "Polygon", "coordinates": [[[-98.4189712, 34.610193], [-98.4190356, 34.6101934], [-98.4190361, 34.6101458], [-98.4191138, 34.6101463], [-98.4191147, 34.610057], [-98.4189726, 34.6100561], [-98.4189712, 34.610193]]]}, "properties": {"osm_id": 1420110957, "building": "yes", "name": "", "height": null, "height_m": null, "levels": null, "tract_id": "40031001000", "tract_name": "10", "tags": {"building": "yes", "source": "microsoft/BuildingFootprints"}}}, {"type": "Feature", "geometry": {"type": "Polygon", "coordinates": [[[-98.418926, 34.6100528], [-98.4187946, 34.6100523], [-98.4187937, 34.6102112], [-98.4188635, 34.6102115], [-98.4188637, 34.6101749], [-98.4189254, 34.6101752], [-98.418926, 34.6100528]]]}, "properties": {"osm_id": 1420110958, "building": "yes", "name": "", "height": null, "height_m": null, "levels": null, "tract_id": "40031001000", "tract_name": "10", "tags": {"building": "yes", "source": "microsoft/BuildingFootprints"}}}, {"type": "Feature", "geometry": {"type": "Polygon", "coordinates": [[[-98.4187363, 34.610127], [-98.4187341, 34.6100431], [-98.4186417, 34.6100448], [-98.4186402, 34.6099874], [-98.4185866, 34.6099883], [-98.4185902, 34.6101295], [-98.4187363, 34.610127]]]}, "properties": {"osm_id": 1420110959, "building": "yes", "name": "", "height": null, "height_m": null, "levels": null, "tract_id": "40031001000", "tract_name": "10", "tags": {"building": "yes", "source": "microsoft/BuildingFootprints"}}}, {"type": "Feature", "geometry": {"type": "Polygon", "coordinates": [[[-98.418569, 34.6101503], [-98.4185706, 34.6100589], [-98.4185116, 34.6100582], [-98.4185112, 34.610079], [-98.4184201, 34.6100779], [-98.4184188, 34.6101507], [-98.4184871, 34.6101516], [-98.4184866, 34.6101825], [-98.4185282, 34.610183], [-98.4185288, 34.6101498], [-98.418569, 34.6101503]]]}, "properties": {"osm_id": 1420110960, "building": "yes", "name": "", "height": null, "height_m": null, "levels": null, "tract_id": "40031001000", "tract_name": "10", "tags": {"building": "yes", "source": "microsoft/BuildingFootprints"}}}, {"type": "Feature", "geometry": {"type": "Polygon", "coordinates": [[[-98.4183486, 34.6101607], [-98.4183446, 34.6100526], [-98.4182481, 34.6100551], [-98.4182522, 34.6101631], [-98.4183486, 34.6101607]]]}, "properties": {"osm_id": 1420110961, "building": "yes", "name": "", "height": null, "height_m": null, "levels": null, "tract_id": "40031001000", "tract_name": "10", "tags": {"building": "yes", "source": "microsoft/BuildingFootprints"}}}, {"type": "Feature", "geometry": {"type": "Polygon", "coordinates": [[[-98.4181136, 34.6100737], [-98.4180641, 34.6100724], [-98.4180613, 34.6101487], [-98.4181899, 34.6101519], [-98.4181939, 34.6100425], [-98.4181148, 34.6100406], [-98.4181136, 34.6100737]]]}, "properties": {"osm_id": 1420110962, "building": "yes", "name": "", "height": null, "height_m": null, "levels": null, "tract_id": "40031001000", "tract_name": "10", "tags": {"building": "yes", "source": "microsoft/BuildingFootprints"}}}, {"type": "Feature", "geometry": {"type": "Polygon", "coordinates": [[[-98.4178763, 34.6101345], [-98.4179876, 34.6101364], [-98.4179888, 34.6100891], [-98.4180169, 34.6100896], [-98.418018, 34.6100432], [-98.4178786, 34.6100409], [-98.4178763, 34.6101345]]]}, "properties": {"osm_id": 1420110963, "building": "yes", "name": "", "height": null, "height_m": null, "levels": null, "tract_id": "40031001000", "tract_name": "10", "tags": {"building": "yes", "source": "microsoft/BuildingFootprints"}}}, {"type": "Feature", "geometry": {"type": "Polygon", "coordinates": [[[-98.4178356, 34.6100353], [-98.4177953, 34.6100352], [-98.4177952, 34.6100573], [-98.4176906, 34.6100569], [-98.4176903, 34.6101275], [-98.4177385, 34.6101277], [-98.4177383, 34.6101741], [-98.4178349, 34.6101744], [-98.4178356, 34.6100353]]]}, "properties": {"osm_id": 1420110964, "building": "yes", "name": "", "height": null, "height_m": null, "levels": null, "tract_id": "40031001000", "tract_name": "10", "tags": {"building": "yes", "source": "microsoft/BuildingFootprints"}}}, {"type": "Feature", "geometry": {"type": "Polygon", "coordinates": [[[-98.4175173, 34.6101608], [-98.4176527, 34.6101599], [-98.4176513, 34.6100129], [-98.4176124, 34.6100131], [-98.4176129, 34.6100652], [-98.4175606, 34.6100656], [-98.4175608, 34.6100841], [-98.4175166, 34.6100844], [-98.4175173, 34.6101608]]]}, "properties": {"osm_id": 1420110965, "building": "yes", "name": "", "height": null, "height_m": null, "levels": null, "tract_id": "40031001000", "tract_name": "10", "tags": {"building": "yes", "source": "microsoft/BuildingFootprints"}}}, {"type": "Feature", "geometry": {"type": "Polygon", "coordinates": [[[-98.4174651, 34.6100597], [-98.4173418, 34.6100585], [-98.4173404, 34.6101512], [-98.4174638, 34.6101524], [-98.4174651, 34.6100597]]]}, "properties": {"osm_id": 1420110966, "building": "yes", "name": "", "height": null, "height_m": null, "levels": null, "tract_id": "40031001000", "tract_name": "10", "tags": {"building": "yes", "source": "microsoft/BuildingFootprints"}}}, {"type": "Feature", "geometry": {"type": "Polygon", "coordinates": [[[-98.4174266, 34.6099733], [-98.4174242, 34.6100284], [-98.4174831, 34.6100302], [-98.4174856, 34.6099751], [-98.4174266, 34.6099733]]]}, "properties": {"osm_id": 1420110967, "building": "yes", "name": "", "height": null, "height_m": null, "levels": null, "tract_id": "40031001000", "tract_name": "10", "tags": {"building": "yes", "source": "microsoft/BuildingFootprints"}}}, {"type": "Feature", "geometry": {"type": "Polygon", "coordinates": [[[-98.4171299, 34.610054], [-98.4171309, 34.6101246], [-98.4172745, 34.6101232], [-98.4172734, 34.6100526], [-98.4171299, 34.610054]]]}, "properties": {"osm_id": 1420110968, "building": "yes", "name": "", "height": null, "height_m": null, "levels": null, "tract_id": "40031001000", "tract_name": "10", "tags": {"building": "yes", "source": "microsoft/BuildingFootprints"}}}, {"type": "Feature", "geometry": {"type": "Polygon", "coordinates": [[[-98.4171053, 34.610049], [-98.4169578, 34.6100474], [-98.4169561, 34.6101578], [-98.4171036, 34.6101594], [-98.4171053, 34.610049]]]}, "properties": {"osm_id": 1420110969, "building": "yes", "name": "", "height": null, "height_m": null, "levels": null, "tract_id": "40031001000", "tract_name": "10", "tags": {"building": "yes", "source": "microsoft/BuildingFootprints"}}}, {"type": "Feature", "geometry": {"type": "Polygon", "coordinates": [[[-98.4167725, 34.6100566], [-98.4167747, 34.6101934], [-98.4168176, 34.610193], [-98.416817, 34.6101554], [-98.4169149, 34.6101544], [-98.4169133, 34.6100551], [-98.4167725, 34.6100566]]]}, "properties": {"osm_id": 1420110970, "building": "yes", "name": "", "height": null, "height_m": null, "levels": null, "tract_id": "40031001000", "tract_name": "10", "tags": {"building": "yes", "source": "microsoft/BuildingFootprints"}}}, {"type": "Feature", "geometry": {"type": "Polygon", "coordinates": [[[-98.4171018, 34.6102368], [-98.4169851, 34.6102383], [-98.4169867, 34.6103257], [-98.4170591, 34.6103248], [-98.4170596, 34.6103477], [-98.4171038, 34.6103472], [-98.4171018, 34.6102368]]]}, "properties": {"osm_id": 1420110971, "building": "yes", "name": "", "height": null, "height_m": null, "levels": null, "tract_id": "40031001000", "tract_name": "10", "tags": {"building": "yes", "source": "microsoft/BuildingFootprints"}}}, {"type": "Feature", "geometry": {"type": "Polygon", "coordinates": [[[-98.4169106, 34.6107125], [-98.4169125, 34.610614], [-98.4167879, 34.6106124], [-98.4167859, 34.6107108], [-98.4169106, 34.6107125]]]}, "properties": {"osm_id": 1420110972, "building": "yes", "name": "", "height": null, "height_m": null, "levels": null, "tract_id": "40031001000", "tract_name": "10", "tags": {"building": "yes", "source": "microsoft/BuildingFootprints"}}}, {"type": "Feature", "geometry": {"type": "Polygon", "coordinates": [[[-98.4170538, 34.6107734], [-98.4171141, 34.6107747], [-98.4171158, 34.6107173], [-98.4170957, 34.6107169], [-98.4170987, 34.6106207], [-98.416962, 34.6106179], [-98.416959, 34.6107141], [-98.4170555, 34.6107161], [-98.4170538, 34.6107734]]]}, "properties": {"osm_id": 1420110973, "building": "yes", "name": "", "height": null, "height_m": null, "levels": null, "tract_id": "40031001000", "tract_name": "10", "tags": {"building": "yes", "source": "microsoft/BuildingFootprints"}}}, {"type": "Feature", "geometry": {"type": "Polygon", "coordinates": [[[-98.4171255, 34.6107051], [-98.417281, 34.6107084], [-98.417285, 34.6105804], [-98.4172072, 34.6105788], [-98.4172057, 34.6106295], [-98.4171279, 34.6106279], [-98.4171255, 34.6107051]]]}, "properties": {"osm_id": 1420110974, "building": "yes", "name": "", "height": null, "height_m": null, "levels": null, "tract_id": "40031001000", "tract_name": "10", "tags": {"building": "yes", "source": "microsoft/BuildingFootprints"}}}, {"type": "Feature", "geometry": {"type": "Polygon", "coordinates": [[[-98.4173149, 34.6107126], [-98.4173913, 34.610712], [-98.4173915, 34.6107363], [-98.4174385, 34.6107359], [-98.4174372, 34.6106145], [-98.4173138, 34.6106154], [-98.4173149, 34.6107126]]]}, "properties": {"osm_id": 1420110975, "building": "yes", "name": "", "height": null, "height_m": null, "levels": null, "tract_id": "40031001000", "tract_name": "10", "tags": {"building": "yes", "source": "microsoft/BuildingFootprints"}}}, {"type": "Feature", "geometry": {"type": "Polygon", "coordinates": [[[-98.4175407, 34.6106368], [-98.4175403, 34.6106006], [-98.4175027, 34.6106009], [-98.4175042, 34.6107223], [-98.4176464, 34.6107211], [-98.4176453, 34.610636], [-98.4175407, 34.6106368]]]}, "properties": {"osm_id": 1420110976, "building": "yes", "name": "", "height": null, "height_m": null, "levels": null, "tract_id": "40031001000", "tract_name": "10", "tags": {"building": "yes", "source": "microsoft/BuildingFootprints"}}}, {"type": "Feature", "geometry": {"type": "Polygon", "coordinates": [[[-98.4176532, 34.6107451], [-98.4176036, 34.6107464], [-98.4176059, 34.6108038], [-98.4176554, 34.6108024], [-98.4176532, 34.6107451]]]}, "properties": {"osm_id": 1420110977, "building": "yes", "name": "", "height": null, "height_m": null, "levels": null, "tract_id": "40031001000", "tract_name": "10", "tags": {"building": "yes", "source": "microsoft/BuildingFootprints"}}}, {"type": "Feature", "geometry": {"type": "Polygon", "coordinates": [[[-98.417689, 34.6106164], [-98.4176873, 34.6107003], [-98.4177866, 34.6107016], [-98.4177854, 34.6107577], [-98.4178284, 34.6107583], [-98.4178311, 34.6106183], [-98.417689, 34.6106164]]]}, "properties": {"osm_id": 1420110978, "building": "yes", "name": "", "height": null, "height_m": null, "levels": null, "tract_id": "40031001000", "tract_name": "10", "tags": {"building": "yes", "source": "microsoft/BuildingFootprints"}}}, {"type": "Feature", "geometry": {"type": "Polygon", "coordinates": [[[-98.4178819, 34.6106175], [-98.417879, 34.6107101], [-98.4180036, 34.6107128], [-98.4180066, 34.6106202], [-98.4178819, 34.6106175]]]}, "properties": {"osm_id": 1420110979, "building": "yes", "name": "", "height": null, "height_m": null, "levels": null, "tract_id": "40031001000", "tract_name": "10", "tags": {"building": "yes", "source": "microsoft/BuildingFootprints"}}}, {"type": "Feature", "geometry": {"type": "Polygon", "coordinates": [[[-98.4181537, 34.610587], [-98.4181527, 34.6106289], [-98.4180535, 34.6106273], [-98.4180512, 34.6107222], [-98.418192, 34.6107244], [-98.4181952, 34.6105876], [-98.4181537, 34.610587]]]}, "properties": {"osm_id": 1420110980, "building": "yes", "name": "", "height": null, "height_m": null, "levels": null, "tract_id": "40031001000", "tract_name": "10", "tags": {"building": "yes", "source": "microsoft/BuildingFootprints"}}}, {"type": "Feature", "geometry": {"type": "Polygon", "coordinates": [[[-98.4183819, 34.6106313], [-98.4182371, 34.6106285], [-98.4182352, 34.6106982], [-98.4182781, 34.610699], [-98.4182775, 34.6107189], [-98.4183794, 34.6107208], [-98.4183819, 34.6106313]]]}, "properties": {"osm_id": 1420110981, "building": "yes", "name": "", "height": null, "height_m": null, "levels": null, "tract_id": "40031001000", "tract_name": "10", "tags": {"building": "yes", "source": "microsoft/BuildingFootprints"}}}, {"type": "Feature", "geometry": {"type": "Polygon", "coordinates": [[[-98.4185355, 34.6106118], [-98.4184134, 34.6106124], [-98.4184141, 34.6107029], [-98.4185361, 34.6107023], [-98.4185355, 34.6106118]]]}, "properties": {"osm_id": 1420110982, "building": "yes", "name": "", "height": null, "height_m": null, "levels": null, "tract_id": "40031001000", "tract_name": "10", "tags": {"building": "yes", "source": "microsoft/BuildingFootprints"}}}, {"type": "Feature", "geometry": {"type": "Polygon", "coordinates": [[[-98.4185782, 34.6105226], [-98.4184977, 34.6105236], [-98.4184988, 34.61058], [-98.4185792, 34.610579], [-98.4185782, 34.6105226]]]}, "properties": {"osm_id": 1420110983, "building": "yes", "name": "", "height": null, "height_m": null, "levels": null, "tract_id": "40031001000", "tract_name": "10", "tags": {"building": "yes", "source": "microsoft/BuildingFootprints"}}}, {"type": "Feature", "geometry": {"type": "Polygon", "coordinates": [[[-98.4187365, 34.6106155], [-98.4187029, 34.6106152], [-98.4187034, 34.6105799], [-98.4186525, 34.6105794], [-98.4186519, 34.6106191], [-98.4186157, 34.6106188], [-98.4186144, 34.6107115], [-98.4187351, 34.6107127], [-98.4187365, 34.6106155]]]}, "properties": {"osm_id": 1420110984, "building": "yes", "name": "", "height": null, "height_m": null, "levels": null, "tract_id": "40031001000", "tract_name": "10", "tags": {"building": "yes", "source": "microsoft/BuildingFootprints"}}}, {"type": "Feature", "geometry": {"type": "Polygon", "coordinates": [[[-98.4188514, 34.6107996], [-98.4189292, 34.6107994], [-98.4189284, 34.6106162], [-98.4188936, 34.6106163], [-98.4188933, 34.6105655], [-98.4188236, 34.6105657], [-98.4188238, 34.6106175], [-98.4187809, 34.6106176], [-98.4187813, 34.6107191], [-98.4188511, 34.6107189], [-98.4188514, 34.6107996]]]}, "properties": {"osm_id": 1420110985, "building": "yes", "name": "", "height": null, "height_m": null, "levels": null, "tract_id": "40031001000", "tract_name": "10", "tags": {"building": "yes", "source": "microsoft/BuildingFootprints"}}}, {"type": "Feature", "geometry": {"type": "Polygon", "coordinates": [[[-98.4187987, 34.6105279], [-98.4188443, 34.6105292], [-98.4188464, 34.6104772], [-98.4188008, 34.610476], [-98.4187987, 34.6105279]]]}, "properties": {"osm_id": 1420110986, "building": "yes", "name": "", "height": null, "height_m": null, "levels": null, "tract_id": "40031001000", "tract_name": "10", "tags": {"building": "yes", "source": "microsoft/BuildingFootprints"}}}, {"type": "Feature", "geometry": {"type": "Polygon", "coordinates": [[[-98.4169108, 34.6110854], [-98.4167848, 34.6110862], [-98.4167857, 34.611182], [-98.4168515, 34.6111816], [-98.4168522, 34.6112491], [-98.4169125, 34.6112487], [-98.4169108, 34.6110854]]]}, "properties": {"osm_id": 1420110987, "building": "yes", "name": "", "height": null, "height_m": null, "levels": null, "tract_id": "40031001000", "tract_name": "10", "tags": {"building": "yes", "source": "microsoft/BuildingFootprints"}}}, {"type": "Feature", "geometry": {"type": "Polygon", "coordinates": [[[-98.4169549, 34.611157], [-98.4171051, 34.6111588], [-98.4171065, 34.6110802], [-98.4169563, 34.6110784], [-98.4169549, 34.611157]]]}, "properties": {"osm_id": 1420110988, "building": "yes", "name": "", "height": null, "height_m": null, "levels": null, "tract_id": "40031001000", "tract_name": "10", "tags": {"building": "yes", "source": "microsoft/BuildingFootprints"}}}, {"type": "Feature", "geometry": {"type": "Polygon", "coordinates": [[[-98.4171336, 34.6111994], [-98.4172797, 34.6111963], [-98.4172761, 34.6110794], [-98.41713, 34.6110825], [-98.4171336, 34.6111994]]]}, "properties": {"osm_id": 1420110989, "building": "yes", "name": "", "height": null, "height_m": null, "levels": null, "tract_id": "40031001000", "tract_name": "10", "tags": {"building": "yes", "source": "microsoft/BuildingFootprints"}}}, {"type": "Feature", "geometry": {"type": "Polygon", "coordinates": [[[-98.4173275, 34.6111892], [-98.4174696, 34.611188], [-98.4174685, 34.6110909], [-98.4173263, 34.611092], [-98.4173275, 34.6111892]]]}, "properties": {"osm_id": 1420110990, "building": "yes", "name": "", "height": null, "height_m": null, "levels": null, "tract_id": "40031001000", "tract_name": "10", "tags": {"building": "yes", "source": "microsoft/BuildingFootprints"}}}, {"type": "Feature", "geometry": {"type": "Polygon", "coordinates": [[[-98.4173851, 34.6113657], [-98.4173865, 34.611261], [-98.4173034, 34.6112603], [-98.417302, 34.6113649], [-98.4173851, 34.6113657]]]}, "properties": {"osm_id": 1420110991, "building": "yes", "name": "", "height": null, "height_m": null, "levels": null, "tract_id": "40031001000", "tract_name": "10", "tags": {"building": "yes", "source": "microsoft/BuildingFootprints"}}}, {"type": "Feature", "geometry": {"type": "Polygon", "coordinates": [[[-98.4175076, 34.6110862], [-98.4175065, 34.6111789], [-98.4176097, 34.6111797], [-98.4176102, 34.6111356], [-98.4176424, 34.6111359], [-98.417643, 34.6110873], [-98.4175076, 34.6110862]]]}, "properties": {"osm_id": 1420110992, "building": "yes", "name": "", "height": null, "height_m": null, "levels": null, "tract_id": "40031001000", "tract_name": "10", "tags": {"building": "yes", "source": "microsoft/BuildingFootprints"}}}, {"type": "Feature", "geometry": {"type": "Polygon", "coordinates": [[[-98.4176982, 34.6111774], [-98.4178215, 34.6111796], [-98.417824, 34.6110847], [-98.4177007, 34.6110825], [-98.4176982, 34.6111774]]]}, "properties": {"osm_id": 1420110993, "building": "yes", "name": "", "height": null, "height_m": null, "levels": null, "tract_id": "40031001000", "tract_name": "10", "tags": {"building": "yes", "source": "microsoft/BuildingFootprints"}}}, {"type": "Feature", "geometry": {"type": "Polygon", "coordinates": [[[-98.4179118, 34.6111876], [-98.4180083, 34.6111894], [-98.4180116, 34.6110712], [-98.4179137, 34.6110693], [-98.4179148, 34.6110287], [-98.4178666, 34.6110278], [-98.4178631, 34.6111523], [-98.4179127, 34.6111532], [-98.4179118, 34.6111876]]]}, "properties": {"osm_id": 1420110994, "building": "yes", "name": "", "height": null, "height_m": null, "levels": null, "tract_id": "40031001000", "tract_name": "10", "tags": {"building": "yes", "source": "microsoft/BuildingFootprints"}}}, {"type": "Feature", "geometry": {"type": "Polygon", "coordinates": [[[-98.4181301, 34.6110095], [-98.418129, 34.6110846], [-98.418058, 34.6110839], [-98.4180568, 34.6111668], [-98.4181131, 34.6111674], [-98.4181127, 34.6111961], [-98.418181, 34.6111967], [-98.4181816, 34.6111601], [-98.4182017, 34.6111603], [-98.4182038, 34.6110102], [-98.4181301, 34.6110095]]]}, "properties": {"osm_id": 1420110995, "building": "yes", "name": "", "height": null, "height_m": null, "levels": null, "tract_id": "40031001000", "tract_name": "10", "tags": {"building": "yes", "source": "microsoft/BuildingFootprints"}}}, {"type": "Feature", "geometry": {"type": "Polygon", "coordinates": [[[-98.4182483, 34.611191], [-98.4183127, 34.6111906], [-98.4183131, 34.6112347], [-98.4183855, 34.6112343], [-98.4183836, 34.6110268], [-98.4183193, 34.6110272], [-98.41832, 34.6111089], [-98.4182476, 34.6111093], [-98.4182483, 34.611191]]]}, "properties": {"osm_id": 1420110996, "building": "yes", "name": "", "height": null, "height_m": null, "levels": null, "tract_id": "40031001000", "tract_name": "10", "tags": {"building": "yes", "source": "microsoft/BuildingFootprints"}}}, {"type": "Feature", "geometry": {"type": "Polygon", "coordinates": [[[-98.4184561, 34.6112125], [-98.4185594, 34.6112135], [-98.4185611, 34.6110877], [-98.4185839, 34.6110879], [-98.4185848, 34.6110182], [-98.4185178, 34.6110176], [-98.4185169, 34.6110794], [-98.4184311, 34.6110786], [-98.4184297, 34.6111801], [-98.4184565, 34.6111804], [-98.4184561, 34.6112125]]]}, "properties": {"osm_id": 1420110997, "building": "yes", "name": "", "height": null, "height_m": null, "levels": null, "tract_id": "40031001000", "tract_name": "10", "tags": {"building": "yes", "source": "microsoft/BuildingFootprints"}}}, {"type": "Feature", "geometry": {"type": "Polygon", "coordinates": [[[-98.4185563, 34.6112777], [-98.4184686, 34.6112844], [-98.4184797, 34.6113829], [-98.4185675, 34.6113762], [-98.4185563, 34.6112777]]]}, "properties": {"osm_id": 1420110998, "building": "yes", "name": "", "height": null, "height_m": null, "levels": null, "tract_id": "40031001000", "tract_name": "10", "tags": {"building": "yes", "source": "microsoft/BuildingFootprints"}}}, {"type": "Feature", "geometry": {"type": "Polygon", "coordinates": [[[-98.4187441, 34.6110743], [-98.4186074, 34.6110718], [-98.4186049, 34.6111667], [-98.4187134, 34.6111686], [-98.4187146, 34.6111223], [-98.4187428, 34.6111228], [-98.4187441, 34.6110743]]]}, "properties": {"osm_id": 1420110999, "building": "yes", "name": "", "height": null, "height_m": null, "levels": null, "tract_id": "40031001000", "tract_name": "10", "tags": {"building": "yes", "source": "microsoft/BuildingFootprints"}}}, {"type": "Feature", "geometry": {"type": "Polygon", "coordinates": [[[-98.4188428, 34.611179], [-98.4188417, 34.6112275], [-98.4189194, 34.6112287], [-98.4189227, 34.6110887], [-98.4187993, 34.6110868], [-98.4187972, 34.6111783], [-98.4188428, 34.611179]]]}, "properties": {"osm_id": 1420111000, "building": "yes", "name": "", "height": null, "height_m": null, "levels": null, "tract_id": "40031001000", "tract_name": "10", "tags": {"building": "yes", "source": "microsoft/BuildingFootprints"}}}, {"type": "Feature", "geometry": {"type": "Polygon", "coordinates": [[[-98.4189408, 34.6110079], [-98.4188657, 34.6110088], [-98.4188669, 34.6110772], [-98.418942, 34.6110763], [-98.4189408, 34.6110079]]]}, "properties": {"osm_id": 1420111001, "building": "yes", "name": "", "height": null, "height_m": null, "levels": null, "tract_id": "40031001000", "tract_name": "10", "tags": {"building": "yes", "source": "microsoft/BuildingFootprints"}}}, {"type": "Feature", "geometry": {"type": "Polygon", "coordinates": [[[-98.4167692, 34.6117189], [-98.4169194, 34.6117201], [-98.4169208, 34.6116009], [-98.4168645, 34.6116005], [-98.4168641, 34.6116358], [-98.4167702, 34.611635], [-98.4167692, 34.6117189]]]}, "properties": {"osm_id": 1420111002, "building": "yes", "name": "", "height": null, "height_m": null, "levels": null, "tract_id": "40031001000", "tract_name": "10", "tags": {"building": "yes", "source": "microsoft/BuildingFootprints"}}}, {"type": "Feature", "geometry": {"type": "Polygon", "coordinates": [[[-98.4170961, 34.6116538], [-98.4169485, 34.6116544], [-98.416949, 34.6117374], [-98.4170966, 34.6117368], [-98.4170961, 34.6116538]]]}, "properties": {"osm_id": 1420111003, "building": "yes", "name": "", "height": null, "height_m": null, "levels": null, "tract_id": "40031001000", "tract_name": "10", "tags": {"building": "yes", "source": "microsoft/BuildingFootprints"}}}, {"type": "Feature", "geometry": {"type": "Polygon", "coordinates": [[[-98.4172839, 34.6116102], [-98.4172035, 34.6116109], [-98.4172039, 34.6116449], [-98.4171396, 34.6116455], [-98.4171405, 34.6117139], [-98.4172409, 34.611713], [-98.4172421, 34.6118004], [-98.4172864, 34.6118], [-98.4172839, 34.6116102]]]}, "properties": {"osm_id": 1420111004, "building": "yes", "name": "", "height": null, "height_m": null, "levels": null, "tract_id": "40031001000", "tract_name": "10", "tags": {"building": "yes", "source": "microsoft/BuildingFootprints"}}}, {"type": "Feature", "geometry": {"type": "Polygon", "coordinates": [[[-98.4174723, 34.6116364], [-98.4173141, 34.6116373], [-98.4173148, 34.6117322], [-98.4174209, 34.6117316], [-98.4174213, 34.6117824], [-98.4174735, 34.6117821], [-98.4174723, 34.6116364]]]}, "properties": {"osm_id": 1420111005, "building": "yes", "name": "", "height": null, "height_m": null, "levels": null, "tract_id": "40031001000", "tract_name": "10", "tags": {"building": "yes", "source": "microsoft/BuildingFootprints"}}}, {"type": "Feature", "geometry": {"type": "Polygon", "coordinates": [[[-98.4167891, 34.6120421], [-98.4167863, 34.6121445], [-98.4170798, 34.6121499], [-98.4170816, 34.6120837], [-98.4169985, 34.6120822], [-98.4169995, 34.612046], [-98.4167891, 34.6120421]]]}, "properties": {"osm_id": 1420111095, "building": "yes", "name": "", "height": null, "height_m": null, "levels": null, "tract_id": "40031001000", "tract_name": "10", "tags": {"building": "yes", "source": "microsoft/BuildingFootprints"}}}, {"type": "Feature", "geometry": {"type": "Polygon", "coordinates": [[[-98.417022, 34.6121638], [-98.4168171, 34.6121676], [-98.4168209, 34.6123066], [-98.4170606, 34.6123022], [-98.4170587, 34.6122293], [-98.4170238, 34.61223], [-98.417022, 34.6121638]]]}, "properties": {"osm_id": 1420111096, "building": "yes", "name": "", "height": null, "height_m": null, "levels": null, "tract_id": "40031001000", "tract_name": "10", "tags": {"building": "yes", "source": "microsoft/BuildingFootprints"}}}, {"type": "Feature", "geometry": {"type": "Polygon", "coordinates": [[[-98.4170962, 34.6124939], [-98.416789, 34.6124903], [-98.4167872, 34.612594], [-98.4168423, 34.6125947], [-98.4168387, 34.6128066], [-98.4170908, 34.6128095], [-98.4170962, 34.6124939]]]}, "properties": {"osm_id": 1420111097, "building": "yes", "name": "", "height": null, "height_m": null, "levels": null, "tract_id": "40031001000", "tract_name": "10", "tags": {"building": "yes", "source": "microsoft/BuildingFootprints"}}}, {"type": "Feature", "geometry": {"type": "Polygon", "coordinates": [[[-98.4175745, 34.612557], [-98.4174941, 34.6125561], [-98.4174919, 34.6126886], [-98.4174276, 34.6126879], [-98.417426, 34.6127872], [-98.4175708, 34.6127888], [-98.4175745, 34.612557]]]}, "properties": {"osm_id": 1420111098, "building": "yes", "name": "", "height": null, "height_m": null, "levels": null, "tract_id": "40031001000", "tract_name": "10", "tags": {"building": "yes", "source": "microsoft/BuildingFootprints"}}}, {"type": "Feature", "geometry": {"type": "Polygon", "coordinates": [[[-98.4176004, 34.6126843], [-98.4175988, 34.6127814], [-98.4176739, 34.6127822], [-98.4176731, 34.6128374], [-98.4177267, 34.612838], [-98.4177294, 34.6126636], [-98.4176704, 34.612663], [-98.4176701, 34.612685], [-98.4176004, 34.6126843]]]}, "properties": {"osm_id": 1420111099, "building": "yes", "name": "", "height": null, "height_m": null, "levels": null, "tract_id": "40031001000", "tract_name": "10", "tags": {"building": "yes", "source": "microsoft/BuildingFootprints"}}}, {"type": "Feature", "geometry": {"type": "Polygon", "coordinates": [[[-98.4177784, 34.6126906], [-98.4177759, 34.6127833], [-98.4178992, 34.6127855], [-98.4179032, 34.6126377], [-98.4178281, 34.6126363], [-98.4178266, 34.6126915], [-98.4177784, 34.6126906]]]}, "properties": {"osm_id": 1420111100, "building": "yes", "name": "", "height": null, "height_m": null, "levels": null, "tract_id": "40031001000", "tract_name": "10", "tags": {"building": "yes", "source": "microsoft/BuildingFootprints"}}}, {"type": "Feature", "geometry": {"type": "Polygon", "coordinates": [[[-98.4180565, 34.6125241], [-98.417937, 34.6125223], [-98.4179332, 34.6126944], [-98.4180527, 34.6126962], [-98.4180565, 34.6125241]]]}, "properties": {"osm_id": 1420111101, "building": "yes", "name": "", "height": null, "height_m": null, "levels": null, "tract_id": "40031001000", "tract_name": "10", "tags": {"building": "yes", "source": "microsoft/BuildingFootprints"}}}, {"type": "Feature", "geometry": {"type": "Polygon", "coordinates": [[[-98.4174251, 34.6121958], [-98.4174868, 34.6121966], [-98.4174865, 34.6122107], [-98.4175467, 34.6122116], [-98.417549, 34.6120981], [-98.4174271, 34.6120965], [-98.4174251, 34.6121958]]]}, "properties": {"osm_id": 1420111102, "building": "yes", "name": "", "height": null, "height_m": null, "levels": null, "tract_id": "40031001000", "tract_name": "10", "tags": {"building": "yes", "source": "microsoft/BuildingFootprints"}}}, {"type": "Feature", "geometry": {"type": "Polygon", "coordinates": [[[-98.4177312, 34.6121953], [-98.4177346, 34.6120916], [-98.4175898, 34.6120884], [-98.4175864, 34.6121921], [-98.4177312, 34.6121953]]]}, "properties": {"osm_id": 1420111103, "building": "yes", "name": "", "height": null, "height_m": null, "levels": null, "tract_id": "40031001000", "tract_name": "10", "tags": {"building": "yes", "source": "microsoft/BuildingFootprints"}}}, {"type": "Feature", "geometry": {"type": "Polygon", "coordinates": [[[-98.417758, 34.6121143], [-98.4177592, 34.6121902], [-98.4178986, 34.6121887], [-98.4178972, 34.6120982], [-98.4178382, 34.6120988], [-98.4178384, 34.6121134], [-98.417758, 34.6121143]]]}, "properties": {"osm_id": 1420111104, "building": "yes", "name": "", "height": null, "height_m": null, "levels": null, "tract_id": "40031001000", "tract_name": "10", "tags": {"building": "yes", "source": "microsoft/BuildingFootprints"}}}, {"type": "Feature", "geometry": {"type": "Polygon", "coordinates": [[[-98.4180742, 34.6122115], [-98.4180761, 34.6120428], [-98.4179996, 34.6120422], [-98.4179988, 34.6121116], [-98.4179156, 34.6121109], [-98.4179145, 34.6122102], [-98.4180742, 34.6122115]]]}, "properties": {"osm_id": 1420111105, "building": "yes", "name": "", "height": null, "height_m": null, "levels": null, "tract_id": "40031001000", "tract_name": "10", "tags": {"building": "yes", "source": "microsoft/BuildingFootprints"}}}, {"type": "Feature", "geometry": {"type": "Polygon", "coordinates": [[[-98.418094, 34.6120926], [-98.4180929, 34.6121809], [-98.4181519, 34.6121814], [-98.4181515, 34.6122123], [-98.4182051, 34.6122128], [-98.4182055, 34.6121819], [-98.4182604, 34.6121824], [-98.4182623, 34.6120367], [-98.4181886, 34.612036], [-98.4181879, 34.6120934], [-98.418094, 34.6120926]]]}, "properties": {"osm_id": 1420111106, "building": "yes", "name": "", "height": null, "height_m": null, "levels": null, "tract_id": "40031001000", "tract_name": "10", "tags": {"building": "yes", "source": "microsoft/BuildingFootprints"}}}, {"type": "Feature", "geometry": {"type": "Polygon", "coordinates": [[[-98.4184629, 34.6120388], [-98.4183932, 34.6120395], [-98.418394, 34.6120982], [-98.4182894, 34.6120992], [-98.4182907, 34.6121831], [-98.418465, 34.6121813], [-98.4184629, 34.6120388]]]}, "properties": {"osm_id": 1420111107, "building": "yes", "name": "", "height": null, "height_m": null, "levels": null, "tract_id": "40031001000", "tract_name": "10", "tags": {"building": "yes", "source": "microsoft/BuildingFootprints"}}}, {"type": "Feature", "geometry": {"type": "Polygon", "coordinates": [[[-98.4184883, 34.6121809], [-98.4186131, 34.6121822], [-98.4186125, 34.6122219], [-98.4186581, 34.6122224], [-98.4186599, 34.6121032], [-98.4184895, 34.6121015], [-98.4184883, 34.6121809]]]}, "properties": {"osm_id": 1420111108, "building": "yes", "name": "", "height": null, "height_m": null, "levels": null, "tract_id": "40031001000", "tract_name": "10", "tags": {"building": "yes", "source": "microsoft/BuildingFootprints"}}}, {"type": "Feature", "geometry": {"type": "Polygon", "coordinates": [[[-98.4186894, 34.6121892], [-98.4187725, 34.6121879], [-98.4187732, 34.6122166], [-98.4188697, 34.6122151], [-98.4188671, 34.6121014], [-98.4186875, 34.6121041], [-98.4186894, 34.6121892]]]}, "properties": {"osm_id": 1420111109, "building": "yes", "name": "", "height": null, "height_m": null, "levels": null, "tract_id": "40031001000", "tract_name": "10", "tags": {"building": "yes", "source": "microsoft/BuildingFootprints"}}}, {"type": "Feature", "geometry": {"type": "Polygon", "coordinates": [[[-98.4187436, 34.6125685], [-98.4186256, 34.612566], [-98.4186236, 34.6126322], [-98.4187415, 34.6126347], [-98.4187436, 34.6125685]]]}, "properties": {"osm_id": 1420111110, "building": "yes", "name": "", "height": null, "height_m": null, "levels": null, "tract_id": "40031001000", "tract_name": "10", "tags": {"building": "yes", "source": "microsoft/BuildingFootprints"}}}, {"type": "Feature", "geometry": {"type": "Polygon", "coordinates": [[[-98.4185246, 34.612654], [-98.4185221, 34.6127634], [-98.418624, 34.612765], [-98.4186244, 34.6127483], [-98.4186726, 34.612749], [-98.4186748, 34.6126563], [-98.4185246, 34.612654]]]}, "properties": {"osm_id": 1420111111, "building": "yes", "name": "", "height": null, "height_m": null, "levels": null, "tract_id": "40031001000", "tract_name": "10", "tags": {"building": "yes", "source": "microsoft/BuildingFootprints"}}}, {"type": "Feature", "geometry": {"type": "Polygon", "coordinates": [[[-98.4185008, 34.6126341], [-98.4183936, 34.612635], [-98.4183942, 34.6126804], [-98.4183003, 34.6126813], [-98.4183013, 34.6127586], [-98.4184596, 34.6127571], [-98.4184591, 34.6127205], [-98.418502, 34.6127202], [-98.4185008, 34.6126341]]]}, "properties": {"osm_id": 1420111112, "building": "yes", "name": "", "height": null, "height_m": null, "levels": null, "tract_id": "40031001000", "tract_name": "10", "tags": {"building": "yes", "source": "microsoft/BuildingFootprints"}}}, {"type": "Feature", "geometry": {"type": "Polygon", "coordinates": [[[-98.4180952, 34.612764], [-98.4181703, 34.6127649], [-98.4181706, 34.612745], [-98.4182285, 34.6127457], [-98.4182295, 34.6126884], [-98.418267, 34.6126888], [-98.4182684, 34.6126128], [-98.4182148, 34.6126122], [-98.4182143, 34.6126374], [-98.4181634, 34.6126368], [-98.4181629, 34.6126611], [-98.4180971, 34.6126602], [-98.4180952, 34.612764]]]}, "properties": {"osm_id": 1420111113, "building": "yes", "name": "", "height": null, "height_m": null, "levels": null, "tract_id": "40031001000", "tract_name": "10", "tags": {"building": "yes", "source": "microsoft/BuildingFootprints"}}}, {"type": "Feature", "geometry": {"type": "Polygon", "coordinates": [[[-98.4168097, 34.6132936], [-98.416984, 34.6132959], [-98.416986, 34.6131855], [-98.4169458, 34.613185], [-98.4169468, 34.6131342], [-98.4168127, 34.6131325], [-98.4168097, 34.6132936]]]}, "properties": {"osm_id": 1420111114, "building": "yes", "name": "", "height": null, "height_m": null, "levels": null, "tract_id": "40031001000", "tract_name": "10", "tags": {"building": "yes", "source": "microsoft/BuildingFootprints"}}}, {"type": "Feature", "geometry": {"type": "Polygon", "coordinates": [[[-98.4170798, 34.6132631], [-98.4171683, 34.6132642], [-98.4171707, 34.6131353], [-98.4170435, 34.6131338], [-98.4170418, 34.6132251], [-98.4170805, 34.6132256], [-98.4170798, 34.6132631]]]}, "properties": {"osm_id": 1420111115, "building": "yes", "name": "", "height": null, "height_m": null, "levels": null, "tract_id": "40031001000", "tract_name": "10", "tags": {"building": "yes", "source": "microsoft/BuildingFootprints"}}}, {"type": "Feature", "geometry": {"type": "Polygon", "coordinates": [[[-98.4171936, 34.613228], [-98.4172446, 34.6132291], [-98.4172438, 34.6132525], [-98.4173108, 34.6132539], [-98.4173149, 34.6131269], [-98.417197, 34.6131243], [-98.4171936, 34.613228]]]}, "properties": {"osm_id": 1420111116, "building": "yes", "name": "", "height": null, "height_m": null, "levels": null, "tract_id": "40031001000", "tract_name": "10", "tags": {"building": "yes", "source": "microsoft/BuildingFootprints"}}}, {"type": "Feature", "geometry": {"type": "Polygon", "coordinates": [[[-98.4175323, 34.6131541], [-98.4174937, 34.6131535], [-98.4174942, 34.6131279], [-98.4173843, 34.6131262], [-98.417382, 34.6132277], [-98.4175306, 34.61323], [-98.4175323, 34.6131541]]]}, "properties": {"osm_id": 1420111117, "building": "yes", "name": "", "height": null, "height_m": null, "levels": null, "tract_id": "40031001000", "tract_name": "10", "tags": {"building": "yes", "source": "microsoft/BuildingFootprints"}}}, {"type": "Feature", "geometry": {"type": "Polygon", "coordinates": [[[-98.4175516, 34.6132902], [-98.4174965, 34.6132913], [-98.4174988, 34.6133676], [-98.4175539, 34.6133665], [-98.4175516, 34.6132902]]]}, "properties": {"osm_id": 1420111118, "building": "yes", "name": "", "height": null, "height_m": null, "levels": null, "tract_id": "40031001000", "tract_name": "10", "tags": {"building": "yes", "source": "microsoft/BuildingFootprints"}}}, {"type": "Feature", "geometry": {"type": "Polygon", "coordinates": [[[-98.4176913, 34.6133662], [-98.4177422, 34.6133647], [-98.4177392, 34.613292], [-98.4176883, 34.6132934], [-98.4176913, 34.6133662]]]}, "properties": {"osm_id": 1420111119, "building": "yes", "name": "", "height": null, "height_m": null, "levels": null, "tract_id": "40031001000", "tract_name": "10", "tags": {"building": "yes", "source": "microsoft/BuildingFootprints"}}}, {"type": "Feature", "geometry": {"type": "Polygon", "coordinates": [[[-98.4175726, 34.6131267], [-98.4175713, 34.613226], [-98.4177188, 34.6132273], [-98.4177199, 34.6131478], [-98.4176206, 34.613147], [-98.4176209, 34.6131271], [-98.4175726, 34.6131267]]]}, "properties": {"osm_id": 1420111120, "building": "yes", "name": "", "height": null, "height_m": null, "levels": null, "tract_id": "40031001000", "tract_name": "10", "tags": {"building": "yes", "source": "microsoft/BuildingFootprints"}}}, {"type": "Feature", "geometry": {"type": "Polygon", "coordinates": [[[-98.417793, 34.6132674], [-98.4178895, 34.6132686], [-98.41789, 34.6132443], [-98.4180294, 34.613246], [-98.4180307, 34.6131722], [-98.4179851, 34.6131717], [-98.4179854, 34.613155], [-98.4178782, 34.6131537], [-98.4178786, 34.6131316], [-98.4177954, 34.6131306], [-98.417793, 34.6132674]]]}, "properties": {"osm_id": 1420111121, "building": "yes", "name": "", "height": null, "height_m": null, "levels": null, "tract_id": "40031001000", "tract_name": "10", "tags": {"building": "yes", "source": "microsoft/BuildingFootprints"}}}, {"type": "Feature", "geometry": {"type": "Polygon", "coordinates": [[[-98.4180661, 34.61329], [-98.4180297, 34.6132904], [-98.4180291, 34.6132573], [-98.4179744, 34.6132579], [-98.4179765, 34.6133868], [-98.4180098, 34.6133865], [-98.4180107, 34.6134429], [-98.4180686, 34.6134423], [-98.4180661, 34.61329]]]}, "properties": {"osm_id": 1420111122, "building": "yes", "name": "", "height": null, "height_m": null, "levels": null, "tract_id": "40031001000", "tract_name": "10", "tags": {"building": "yes", "source": "microsoft/BuildingFootprints"}}}, {"type": "Feature", "geometry": {"type": "Polygon", "coordinates": [[[-98.4182804, 34.6131371], [-98.4181345, 34.6131355], [-98.4181329, 34.6132326], [-98.4182321, 34.6132337], [-98.4182318, 34.6132523], [-98.4182785, 34.6132528], [-98.4182804, 34.6131371]]]}, "properties": {"osm_id": 1420111123, "building": "yes", "name": "", "height": null, "height_m": null, "levels": null, "tract_id": "40031001000", "tract_name": "10", "tags": {"building": "yes", "source": "microsoft/BuildingFootprints"}}}, {"type": "Feature", "geometry": {"type": "Polygon", "coordinates": [[[-98.4185312, 34.6131414], [-98.4183703, 34.6131419], [-98.4183709, 34.6132665], [-98.4185318, 34.613266], [-98.4185312, 34.6131414]]]}, "properties": {"osm_id": 1420111124, "building": "yes", "name": "", "height": null, "height_m": null, "levels": null, "tract_id": "40031001000", "tract_name": "10", "tags": {"building": "yes", "source": "microsoft/BuildingFootprints"}}}, {"type": "Feature", "geometry": {"type": "Polygon", "coordinates": [[[-98.4175019, 34.6135088], [-98.4175045, 34.6136015], [-98.4175849, 34.6135999], [-98.4175823, 34.6135072], [-98.4175019, 34.6135088]]]}, "properties": {"osm_id": 1420111125, "building": "yes", "name": "", "height": null, "height_m": null, "levels": null, "tract_id": "40031001000", "tract_name": "10", "tags": {"building": "yes", "source": "microsoft/BuildingFootprints"}}}, {"type": "Feature", "geometry": {"type": "Polygon", "coordinates": [[[-98.4177299, 34.6137989], [-98.4177269, 34.613682], [-98.4176454, 34.6136834], [-98.4176464, 34.6137231], [-98.4175365, 34.6137251], [-98.4175385, 34.6138023], [-98.4177299, 34.6137989]]]}, "properties": {"osm_id": 1420111126, "building": "yes", "name": "", "height": null, "height_m": null, "levels": null, "tract_id": "40031001000", "tract_name": "10", "tags": {"building": "yes", "source": "microsoft/BuildingFootprints"}}}, {"type": "Feature", "geometry": {"type": "Polygon", "coordinates": [[[-98.4180334, 34.6137157], [-98.4178082, 34.613711], [-98.4178054, 34.6138014], [-98.4180306, 34.6138061], [-98.4180334, 34.6137157]]]}, "properties": {"osm_id": 1420111127, "building": "yes", "name": "", "height": null, "height_m": null, "levels": null, "tract_id": "40031001000", "tract_name": "10", "tags": {"building": "yes", "source": "microsoft/BuildingFootprints"}}}, {"type": "Feature", "geometry": {"type": "Polygon", "coordinates": [[[-98.4172739, 34.6137083], [-98.4172699, 34.6138075], [-98.4173932, 34.6138109], [-98.4173936, 34.6137998], [-98.4174687, 34.6138019], [-98.4174722, 34.6137137], [-98.4172739, 34.6137083]]]}, "properties": {"osm_id": 1420111128, "building": "yes", "name": "", "height": null, "height_m": null, "levels": null, "tract_id": "40031001000", "tract_name": "10", "tags": {"building": "yes", "source": "microsoft/BuildingFootprints"}}}, {"type": "Feature", "geometry": {"type": "Polygon", "coordinates": [[[-98.4171473, 34.6135619], [-98.4171453, 34.6136577], [-98.4172472, 34.6136592], [-98.4172492, 34.6135634], [-98.4171473, 34.6135619]]]}, "properties": {"osm_id": 1420111129, "building": "yes", "name": "", "height": null, "height_m": null, "levels": null, "tract_id": "40031001000", "tract_name": "10", "tags": {"building": "yes", "source": "microsoft/BuildingFootprints"}}}, {"type": "Feature", "geometry": {"type": "Polygon", "coordinates": [[[-98.4168258, 34.6137478], [-98.4168273, 34.613825], [-98.4170488, 34.6138221], [-98.4170478, 34.613767], [-98.4170193, 34.6137673], [-98.4170172, 34.6136592], [-98.4168724, 34.6136611], [-98.4168741, 34.6137472], [-98.4168258, 34.6137478]]]}, "properties": {"osm_id": 1420111130, "building": "yes", "name": "", "height": null, "height_m": null, "levels": null, "tract_id": "40031001000", "tract_name": "10", "tags": {"building": "yes", "source": "microsoft/BuildingFootprints"}}}, {"type": "Feature", "geometry": {"type": "Polygon", "coordinates": [[[-98.4169836, 34.6141686], [-98.4169058, 34.6141697], [-98.4169061, 34.6141852], [-98.4167989, 34.6141868], [-98.4168008, 34.6142728], [-98.41679, 34.614273], [-98.4167919, 34.614359], [-98.4169421, 34.6143568], [-98.4169403, 34.6142743], [-98.4169858, 34.6142736], [-98.4169836, 34.6141686]]]}, "properties": {"osm_id": 1420111131, "building": "yes", "name": "", "height": null, "height_m": null, "levels": null, "tract_id": "40031001000", "tract_name": "10", "tags": {"building": "yes", "source": "microsoft/BuildingFootprints"}}}, {"type": "Feature", "geometry": {"type": "Polygon", "coordinates": [[[-98.4170111, 34.6143278], [-98.4171854, 34.6143263], [-98.4171843, 34.6142446], [-98.4171028, 34.6142454], [-98.4171019, 34.614176], [-98.4170091, 34.6141769], [-98.4170111, 34.6143278]]]}, "properties": {"osm_id": 1420111132, "building": "yes", "name": "", "height": null, "height_m": null, "levels": null, "tract_id": "40031001000", "tract_name": "10", "tags": {"building": "yes", "source": "microsoft/BuildingFootprints"}}}, {"type": "Feature", "geometry": {"type": "Polygon", "coordinates": [[[-98.4172122, 34.6143261], [-98.4172803, 34.6143257], [-98.4172799, 34.6142772], [-98.4173979, 34.6142765], [-98.4173971, 34.6141759], [-98.417211, 34.6141769], [-98.4172122, 34.6143261]]]}, "properties": {"osm_id": 1420111133, "building": "yes", "name": "", "height": null, "height_m": null, "levels": null, "tract_id": "40031001000", "tract_name": "10", "tags": {"building": "yes", "source": "microsoft/BuildingFootprints"}}}, {"type": "Feature", "geometry": {"type": "Polygon", "coordinates": [[[-98.4173546, 34.6144227], [-98.4174296, 34.6144204], [-98.417424, 34.6142969], [-98.417349, 34.6142992], [-98.4173546, 34.6144227]]]}, "properties": {"osm_id": 1420111134, "building": "yes", "name": "", "height": null, "height_m": null, "levels": null, "tract_id": "40031001000", "tract_name": "10", "tags": {"building": "yes", "source": "microsoft/BuildingFootprints"}}}, {"type": "Feature", "geometry": {"type": "Polygon", "coordinates": [[[-98.4176468, 34.6144677], [-98.4176446, 34.6143838], [-98.4175561, 34.6143854], [-98.4175584, 34.6144693], [-98.4176468, 34.6144677]]]}, "properties": {"osm_id": 1420111135, "building": "yes", "name": "", "height": null, "height_m": null, "levels": null, "tract_id": "40031001000", "tract_name": "10", "tags": {"building": "yes", "source": "microsoft/BuildingFootprints"}}}, {"type": "Feature", "geometry": {"type": "Polygon", "coordinates": [[[-98.4175336, 34.6142636], [-98.4175336, 34.6142901], [-98.4175819, 34.6142901], [-98.4175819, 34.6143077], [-98.4176329, 34.6143077], [-98.4176329, 34.6141996], [-98.4175926, 34.6141996], [-98.4175926, 34.6141819], [-98.4174532, 34.6141819], [-98.4174532, 34.6142636], [-98.4175336, 34.6142636]]]}, "properties": {"osm_id": 1420111136, "building": "yes", "name": "", "height": null, "height_m": null, "levels": null, "tract_id": "40031001000", "tract_name": "10", "tags": {"building": "yes", "source": "microsoft/BuildingFootprints"}}}, {"type": "Feature", "geometry": {"type": "Polygon", "coordinates": [[[-98.4178504, 34.6142667], [-98.4178524, 34.6141829], [-98.4176755, 34.61418], [-98.4176735, 34.6142639], [-98.4178504, 34.6142667]]]}, "properties": {"osm_id": 1420111137, "building": "yes", "name": "", "height": null, "height_m": null, "levels": null, "tract_id": "40031001000", "tract_name": "10", "tags": {"building": "yes", "source": "microsoft/BuildingFootprints"}}}, {"type": "Feature", "geometry": {"type": "Polygon", "coordinates": [[[-98.4181575, 34.6142701], [-98.4181594, 34.6142017], [-98.4181101, 34.6142008], [-98.4181108, 34.6141734], [-98.41801, 34.6141715], [-98.4180095, 34.6141901], [-98.4179585, 34.6141891], [-98.4179563, 34.6142698], [-98.4180207, 34.614271], [-98.4180202, 34.6142896], [-98.4181086, 34.6142912], [-98.4181092, 34.6142692], [-98.4181575, 34.6142701]]]}, "properties": {"osm_id": 1420111138, "building": "yes", "name": "", "height": null, "height_m": null, "levels": null, "tract_id": "40031001000", "tract_name": "10", "tags": {"building": "yes", "source": "microsoft/BuildingFootprints"}}}, {"type": "Feature", "geometry": {"type": "Polygon", "coordinates": [[[-98.4180711, 34.6147007], [-98.4180068, 34.6146992], [-98.4180045, 34.6147676], [-98.4178758, 34.6147645], [-98.417873, 34.6148461], [-98.4180231, 34.6148497], [-98.4180229, 34.6148541], [-98.4180658, 34.6148551], [-98.4180711, 34.6147007]]]}, "properties": {"osm_id": 1420111139, "building": "yes", "name": "", "height": null, "height_m": null, "levels": null, "tract_id": "40031001000", "tract_name": "10", "tags": {"building": "yes", "source": "microsoft/BuildingFootprints"}}}, {"type": "Feature", "geometry": {"type": "Polygon", "coordinates": [[[-98.4178448, 34.6147688], [-98.4176641, 34.6147701], [-98.4176648, 34.6148407], [-98.4178455, 34.6148394], [-98.4178448, 34.6147688]]]}, "properties": {"osm_id": 1420111140, "building": "yes", "name": "", "height": null, "height_m": null, "levels": null, "tract_id": "40031001000", "tract_name": "10", "tags": {"building": "yes", "source": "microsoft/BuildingFootprints"}}}, {"type": "Feature", "geometry": {"type": "Polygon", "coordinates": [[[-98.4172416, 34.6147557], [-98.4173301, 34.6147562], [-98.4173289, 34.6148939], [-98.4174094, 34.6148944], [-98.4174118, 34.6146096], [-98.4173035, 34.614609], [-98.4173032, 34.6146443], [-98.4172425, 34.614644], [-98.4172416, 34.6147557]]]}, "properties": {"osm_id": 1420111141, "building": "yes", "name": "", "height": null, "height_m": null, "levels": null, "tract_id": "40031001000", "tract_name": "10", "tags": {"building": "yes", "source": "microsoft/BuildingFootprints"}}}, {"type": "Feature", "geometry": {"type": "Polygon", "coordinates": [[[-98.417016, 34.6147478], [-98.4170167, 34.614814], [-98.4170506, 34.6148138], [-98.4170508, 34.6148358], [-98.4171457, 34.6148352], [-98.4171463, 34.6148903], [-98.4172026, 34.6148899], [-98.4172004, 34.6146825], [-98.4171575, 34.6146828], [-98.4171582, 34.6147468], [-98.417016, 34.6147478]]]}, "properties": {"osm_id": 1420111142, "building": "yes", "name": "", "height": null, "height_m": null, "levels": null, "tract_id": "40031001000", "tract_name": "10", "tags": {"building": "yes", "source": "microsoft/BuildingFootprints"}}}, {"type": "Feature", "geometry": {"type": "Polygon", "coordinates": [[[-98.4175538, 34.6148522], [-98.4175529, 34.6148866], [-98.4176307, 34.6148879], [-98.4176346, 34.6147321], [-98.4175585, 34.6147308], [-98.4175576, 34.6147674], [-98.417446, 34.6147655], [-98.4174439, 34.6148503], [-98.4175538, 34.6148522]]]}, "properties": {"osm_id": 1420111143, "building": "yes", "name": "", "height": null, "height_m": null, "levels": null, "tract_id": "40031001000", "tract_name": "10", "tags": {"building": "yes", "source": "microsoft/BuildingFootprints"}}}, {"type": "Feature", "geometry": {"type": "Polygon", "coordinates": [[[-98.416786, 34.6148515], [-98.416987, 34.6148555], [-98.4169904, 34.6147439], [-98.4167893, 34.6147398], [-98.416786, 34.6148515]]]}, "properties": {"osm_id": 1420111144, "building": "yes", "name": "", "height": null, "height_m": null, "levels": null, "tract_id": "40031001000", "tract_name": "10", "tags": {"building": "yes", "source": "microsoft/BuildingFootprints"}}}, {"type": "Feature", "geometry": {"type": "Polygon", "coordinates": [[[-98.4176614, 34.6153222], [-98.4177445, 34.6153204], [-98.4177441, 34.6153072], [-98.4178459, 34.6153051], [-98.4178426, 34.615197], [-98.4176577, 34.6152008], [-98.4176614, 34.6153222]]]}, "properties": {"osm_id": 1420111192, "building": "yes", "name": "", "height": null, "height_m": null, "levels": null, "tract_id": "40031001000", "tract_name": "10", "tags": {"building": "yes", "source": "microsoft/BuildingFootprints"}}}, {"type": "Feature", "geometry": {"type": "Polygon", "coordinates": [[[-98.4179685, 34.6153314], [-98.4180462, 34.6153325], [-98.4180492, 34.6151868], [-98.4179017, 34.6151848], [-98.4178999, 34.6152762], [-98.4179696, 34.6152771], [-98.4179685, 34.6153314]]]}, "properties": {"osm_id": 1420111193, "building": "yes", "name": "", "height": null, "height_m": null, "levels": null, "tract_id": "40031001000", "tract_name": "10", "tags": {"building": "yes", "source": "microsoft/BuildingFootprints"}}}, {"type": "Feature", "geometry": {"type": "Polygon", "coordinates": [[[-98.4176239, 34.6152746], [-98.4176225, 34.6151996], [-98.4174696, 34.6152016], [-98.4174711, 34.6152766], [-98.4176239, 34.6152746]]]}, "properties": {"osm_id": 1420111194, "building": "yes", "name": "", "height": null, "height_m": null, "levels": null, "tract_id": "40031001000", "tract_name": "10", "tags": {"building": "yes", "source": "microsoft/BuildingFootprints"}}}, {"type": "Feature", "geometry": {"type": "Polygon", "coordinates": [[[-98.4174165, 34.6152021], [-98.4172422, 34.6152001], [-98.4172409, 34.6152796], [-98.4174152, 34.6152815], [-98.4174165, 34.6152021]]]}, "properties": {"osm_id": 1420111195, "building": "yes", "name": "", "height": null, "height_m": null, "levels": null, "tract_id": "40031001000", "tract_name": "10", "tags": {"building": "yes", "source": "microsoft/BuildingFootprints"}}}, {"type": "Feature", "geometry": {"type": "Polygon", "coordinates": [[[-98.4169908, 34.6153735], [-98.4169911, 34.6152601], [-98.4169616, 34.61526], [-98.4169618, 34.6151916], [-98.4167875, 34.6151912], [-98.4167869, 34.6153943], [-98.4168593, 34.6153945], [-98.4168595, 34.6153062], [-98.4168854, 34.6153062], [-98.4168852, 34.6153733], [-98.4169908, 34.6153735]]]}, "properties": {"osm_id": 1420111196, "building": "yes", "name": "", "height": null, "height_m": null, "levels": null, "tract_id": "40031001000", "tract_name": "10", "tags": {"building": "yes", "source": "microsoft/BuildingFootprints"}}}, {"type": "Feature", "geometry": {"type": "Polygon", "coordinates": [[[-98.4171367, 34.6154953], [-98.4172145, 34.6154953], [-98.4172145, 34.6154181], [-98.4171367, 34.6154181], [-98.4171367, 34.6154953]]]}, "properties": {"osm_id": 1420111197, "building": "yes", "name": "", "height": null, "height_m": null, "levels": null, "tract_id": "40031001000", "tract_name": "10", "tags": {"building": "yes", "source": "microsoft/BuildingFootprints"}}}, {"type": "Feature", "geometry": {"type": "Polygon", "coordinates": [[[-98.4169959, 34.61463], [-98.416995, 34.6145616], [-98.4168717, 34.6145627], [-98.4168726, 34.6146311], [-98.4169959, 34.61463]]]}, "properties": {"osm_id": 1420111198, "building": "yes", "name": "", "height": null, "height_m": null, "levels": null, "tract_id": "40031001000", "tract_name": "10", "tags": {"building": "yes", "source": "microsoft/BuildingFootprints"}}}, {"type": "Feature", "geometry": {"type": "Polygon", "coordinates": [[[-98.4171994, 34.6153273], [-98.4172037, 34.6151884], [-98.4171045, 34.6151863], [-98.4171038, 34.6152097], [-98.4170153, 34.6152079], [-98.4170132, 34.6152772], [-98.4170802, 34.6152785], [-98.4170788, 34.6153249], [-98.4171994, 34.6153273]]]}, "properties": {"osm_id": 1420111199, "building": "yes", "name": "", "height": null, "height_m": null, "levels": null, "tract_id": "40031001000", "tract_name": "10", "tags": {"building": "yes", "source": "microsoft/BuildingFootprints"}}}]}