{"type": "FeatureCollection", "features": [{"type": "Feature", "geometry": {"type": "Polygon", "coordinates": [[[-97.4588795, 35.609693], [-97.4587219, 35.6096939], [-97.4587205, 35.6095396], [-97.4586616, 35.6095394], [-97.4586626, 35.6094832], [-97.4587198, 35.6094831], [-97.4587191, 35.6094267], [-97.4588755, 35.6094249], [-97.4588795, 35.609693]]]}, "properties": {"osm_id": 91040670, "building": "commercial", "name": "Braum's", "height": null, "height_m": null, "levels": null, "tract_id": "40109108110", "tract_name": "1081.10", "tags": {"amenity": "fast_food", "brand": "Braum's", "brand:wikidata": "Q4958263", "building": "commercial", "cuisine": "ice_cream;burger", "name": "Braum's", "shop": "dairy", "takeaway": "yes"}}}, {"type": "Feature", "geometry": {"type": "Polygon", "coordinates": [[[-97.4394129, 35.5888153], [-97.4382488, 35.5883183], [-97.4381578, 35.5884592], [-97.4382422, 35.5884952], [-97.4382826, 35.5884326], [-97.4393624, 35.5888936], [-97.4394129, 35.5888153]]]}, "properties": {"osm_id": 159423303, "building": "yes", "name": "Super 8", "height": null, "height_m": null, "levels": null, "tract_id": "40109108110", "tract_name": "1081.10", "tags": {"addr:city": "Oklahoma City", "addr:housenumber": "11935", "addr:postcode": "73131", "addr:state": "OK", "addr:street": "North I-35 Service Road", "branch": "Oklahoma/Frontier City", "brand": "Super 8", "brand:wikidata": "Q5364003", "building": "yes", "contact:fax": "(405)478-7377", "name": "Super 8", "operator": "Wyndham Hotels and Resorts", "operator:wikidata": "Q8040120", "phone": "+1 405-478-8288", "ref": "12718", "tourism": "motel", "website": "http://www.super8.com/hotels/oklahoma/oklahoma-city/super-8-oklahoma-frontier-city/hotel-overview"}}}, {"type": "Feature", "geometry": {"type": "Polygon", "coordinates": [[[-97.4344156, 35.5956829], [-97.4344162, 35.5955289], [-97.434383, 35.5955288], [-97.434383, 35.5955211], [-97.4340547, 35.5955203], [-97.4340535, 35.5958322], [-97.4343596, 35.595833], [-97.4343601, 35.5956938], [-97.4343816, 35.5956938], [-97.4343817, 35.5956828], [-97.4344156, 35.5956829]]]}, "properties": {"osm_id": 159423306, "building": "retail", "name": "Cracker Barrel", "height": null, "height_m": null, "levels": null, "tract_id": "40109108110", "tract_name": "1081.10", "tags": {"addr:city": "Edmond", "addr:housenumber": "4901", "addr:postcode": "73013", "addr:state": "OK", "addr:street": "Northeast 122nd Street", "amenity": "restaurant", "brand": "Cracker Barrel", "brand:wikidata": "Q4492609", "building": "retail", "cuisine": "american", "name": "Cracker Barrel", "official_name": "Cracker Barrel Old Country Store", "source": "Bing"}}}, {"type": "Feature", "geometry": {"type": "Polygon", "coordinates": [[[-97.4364468, 35.5932101], [-97.4364007, 35.5932106], [-97.4364003, 35.5931848], [-97.4361545, 35.5931876], [-97.4361548, 35.5932082], [-97.4361134, 35.5932087], [-97.4361158, 35.5933487], [-97.4364491, 35.5933449], [-97.4364468, 35.5932101]]]}, "properties": {"osm_id": 159423313, "building": "retail", "name": "McDonald's", "height": null, "height_m": null, "levels": null, "tract_id": "40109108110", "tract_name": "1081.10", "tags": {"amenity": "fast_food", "brand": "McDonald's", "brand:wikidata": "Q38076", "building": "retail", "cuisine": "burger", "name": "McDonald's", "source": "Bing", "survey:date": "2021-02-04", "takeaway": "yes"}}}, {"type": "Feature", "geometry": {"type": "Polygon", "coordinates": [[[-97.4403772, 35.5864045], [-97.4401975, 35.5863696], [-97.4402323, 35.58623], [-97.4401545, 35.5862234], [-97.4401787, 35.5860969], [-97.4402699, 35.5861056], [-97.4402994, 35.586062], [-97.4404281, 35.5860926], [-97.4404147, 35.5861711], [-97.440493, 35.586196], [-97.440485, 35.58629], [-97.4404829, 35.5863146], [-97.4403959, 35.5863129], [-97.4403772, 35.5864045]]]}, "properties": {"osm_id": 182470268, "building": "yes", "name": "", "height": null, "height_m": null, "levels": null, "tract_id": "40109108110", "tract_name": "1081.10", "tags": {"building": "yes", "layer": "1", "source": "Bing"}}}, {"type": "Feature", "geometry": {"type": "Polygon", "coordinates": [[[-97.4412468, 35.5831582], [-97.4411719, 35.5831209], [-97.4414351, 35.5827709], [-97.4414814, 35.582794], [-97.4414339, 35.5828572], [-97.4414625, 35.5828715], [-97.4414135, 35.5829366], [-97.4414601, 35.5829597], [-97.4414769, 35.5829944], [-97.441423, 35.583075], [-97.4413683, 35.5830761], [-97.4413249, 35.5830544], [-97.4412468, 35.5831582]]]}, "properties": {"osm_id": 182470269, "building": "yes", "name": "Sitting Area", "height": null, "height_m": null, "levels": null, "tract_id": "40109108110", "tract_name": "1081.10", "tags": {"building": "yes", "name": "Sitting Area", "source": "Bing"}}}, {"type": "Feature", "geometry": {"type": "Polygon", "coordinates": [[[-97.4407795, 35.5844435], [-97.4406052, 35.5844239], [-97.4406186, 35.5841839], [-97.4407151, 35.584149], [-97.4408224, 35.5841621], [-97.4407795, 35.5844435]]]}, "properties": {"osm_id": 182470273, "building": "yes", "name": "Goldrush Games", "height": null, "height_m": null, "levels": null, "tract_id": "40109108110", "tract_name": "1081.10", "tags": {"building": "yes", "leisure": "amusement_arcade", "name": "Goldrush Games", "source": "Bing"}}}, {"type": "Feature", "geometry": {"type": "Polygon", "coordinates": [[[-97.4403756, 35.5855492], [-97.4403976, 35.5854374], [-97.4404224, 35.5854384], [-97.4404863, 35.5849732], [-97.4404887, 35.5849483], [-97.4403175, 35.5849506], [-97.4403074, 35.5850084], [-97.4401465, 35.5850084], [-97.4401465, 35.5849212], [-97.4399552, 35.584899], [-97.439948, 35.5849757], [-97.4400178, 35.5849823], [-97.439999, 35.5851851], [-97.439889, 35.5851851], [-97.4397951, 35.585412], [-97.4397925, 35.5854883], [-97.4400174, 35.5855142], [-97.4400201, 35.5854809], [-97.4400929, 35.5854905], [-97.440092, 35.5855363], [-97.4403756, 35.5855492]]]}, "properties": {"osm_id": 182470277, "building": "yes", "name": "Fort Frontier", "height": null, "height_m": null, "levels": null, "tract_id": "40109108110", "tract_name": "1081.10", "tags": {"building": "yes", "name": "Fort Frontier", "source": "Bing"}}}, {"type": "Feature", "geometry": {"type": "Polygon", "coordinates": [[[-97.4401514, 35.5857928], [-97.440167, 35.5856138], [-97.4403369, 35.5856236], [-97.4403664, 35.5856563], [-97.4403581, 35.5857512], [-97.4403275, 35.5857494], [-97.4403229, 35.5858027], [-97.4401514, 35.5857928]]]}, "properties": {"osm_id": 182470289, "building": "yes", "name": "Penny Ann's Pizzeria", "height": null, "height_m": null, "levels": null, "tract_id": "40109108110", "tract_name": "1081.10", "tags": {"amenity": "restaurant", "building": "yes", "cuisine": "pizza", "name": "Penny Ann's Pizzeria", "source": "Bing"}}}, {"type": "Feature", "geometry": {"type": "Polygon", "coordinates": [[[-97.4599647, 35.6096956], [-97.4597517, 35.6095309], [-97.4595875, 35.6096664], [-97.4594608, 35.6096688], [-97.4593839, 35.6096703], [-97.4593861, 35.609753], [-97.4594611, 35.609752], [-97.4595284, 35.6097511], [-97.4595307, 35.6098988], [-97.4596621, 35.6099962], [-97.4596861, 35.6099757], [-97.4597101, 35.6099967], [-97.4597518, 35.609961], [-97.4596337, 35.6098678], [-97.4596291, 35.6097624], [-97.4597599, 35.6098687], [-97.4599647, 35.6096956]]]}, "properties": {"osm_id": 199128706, "building": "yes", "name": "", "height": null, "height_m": null, "levels": null, "tract_id": "40109108110", "tract_name": "1081.10", "tags": {"amenity": "bank", "building": "yes"}}}, {"type": "Feature", "geometry": {"type": "Polygon", "coordinates": [[[-97.457431, 35.6087918], [-97.457431, 35.6086994], [-97.457431, 35.6086564], [-97.4574389, 35.6085791], [-97.4574389, 35.6084609], [-97.4574617, 35.6084614], [-97.4574603, 35.6082763], [-97.4576892, 35.6082758], [-97.4576877, 35.6084512], [-97.4576139, 35.6085228], [-97.4577388, 35.6086206], [-97.4575213, 35.6087918], [-97.457431, 35.6087918]]]}, "properties": {"osm_id": 199128709, "building": "commercial", "name": "", "height": null, "height_m": 3.0, "levels": 1, "tract_id": "40109108110", "tract_name": "1081.10", "tags": {"atm": "no", "building": "commercial", "building:levels": "1", "description": "Originally a bank, office space is now rented to businesses.", "drive_through": "yes", "layer": "1"}}}, {"type": "Feature", "geometry": {"type": "Polygon", "coordinates": [[[-97.4596738, 35.6088931], [-97.4595429, 35.6088933], [-97.4594775, 35.6088934], [-97.4594773, 35.6087903], [-97.4595429, 35.6087902], [-97.4596735, 35.60879], [-97.4596738, 35.6088931]]]}, "properties": {"osm_id": 199128713, "building": "yes", "name": "", "height": null, "height_m": null, "levels": null, "tract_id": "40109108110", "tract_name": "1081.10", "tags": {"building": "yes"}}}, {"type": "Feature", "geometry": {"type": "Polygon", "coordinates": [[[-97.4601798, 35.6089043], [-97.4599988, 35.6089037], [-97.4599994, 35.6087816], [-97.4601805, 35.6087822], [-97.4601798, 35.6089043]]]}, "properties": {"osm_id": 199128718, "building": "roof", "name": "", "height": null, "height_m": null, "levels": null, "tract_id": "40109108110", "tract_name": "1081.10", "tags": {"amenity": "fuel", "building": "roof"}}}, {"type": "Feature", "geometry": {"type": "Polygon", "coordinates": [[[-97.4369932, 35.595495], [-97.4369932, 35.5957868], [-97.4366994, 35.5957868], [-97.4366994, 35.5957463], [-97.4366337, 35.5957463], [-97.4366337, 35.5955233], [-97.4367233, 35.5955233], [-97.4367234, 35.595495], [-97.4369932, 35.595495]]]}, "properties": {"osm_id": 226295911, "building": "yes", "name": "Flying J", "height": null, "height_m": null, "levels": null, "tract_id": "40109108110", "tract_name": "1081.10", "tags": {"addr:city": "Edmond", "addr:housenumber": "4801", "addr:postcode": "73013", "addr:state": "OK", "addr:street": "Northeast 122nd Street", "building": "yes", "name": "Flying J", "shop": "convenience"}}}, {"type": "Feature", "geometry": {"type": "Polygon", "coordinates": [[[-97.4365855, 35.5958674], [-97.4364917, 35.5958751], [-97.4366686, 35.5962796], [-97.4367652, 35.596272], [-97.4365855, 35.5958674]]]}, "properties": {"osm_id": 226295912, "building": "roof", "name": "Pilot", "height": null, "height_m": null, "levels": null, "tract_id": "40109108110", "tract_name": "1081.10", "tags": {"amenity": "fuel", "brand": "Pilot", "brand:wikidata": "Q64128179", "building": "roof", "layer": "1", "name": "Pilot"}}}, {"type": "Feature", "geometry": {"type": "Polygon", "coordinates": [[[-97.436354, 35.595342], [-97.4362358, 35.5953426], [-97.4362377, 35.5955867], [-97.4363559, 35.5955861], [-97.436354, 35.595342]]]}, "properties": {"osm_id": 226295913, "building": "roof", "name": "Pilot", "height": null, "height_m": null, "levels": null, "tract_id": "40109108110", "tract_name": "1081.10", "tags": {"amenity": "fuel", "brand": "Pilot", "brand:wikidata": "Q64128179", "building": "roof", "layer": "1", "name": "Pilot"}}}, {"type": "Feature", "geometry": {"type": "Polygon", "coordinates": [[[-97.4363521, 35.5939781], [-97.4362173, 35.5939803], [-97.436216, 35.5942791], [-97.4363534, 35.594278], [-97.4363521, 35.5939781]]]}, "properties": {"osm_id": 226296051, "building": "roof", "name": "Love\u2019s", "height": null, "height_m": null, "levels": null, "tract_id": "40109108110", "tract_name": "1081.10", "tags": {"amenity": "fuel", "building": "roof", "hgv": "no", "name": "Love\u2019s"}}}, {"type": "Feature", "geometry": {"type": "Polygon", "coordinates": [[[-97.4370255, 35.5924104], [-97.4370304, 35.5922759], [-97.4359156, 35.5922827], [-97.4359188, 35.5924335], [-97.4359747, 35.5924336], [-97.4361692, 35.5924327], [-97.4361688, 35.5923661], [-97.4369366, 35.5923623], [-97.436937, 35.5924108], [-97.4370255, 35.5924104]]]}, "properties": {"osm_id": 229834325, "building": "yes", "name": "Days Inn Oklahoma City", "height": null, "height_m": null, "levels": null, "tract_id": "40109108110", "tract_name": "1081.10", "tags": {"addr:city": "Oklahoma City", "addr:postcode": "73131", "addr:state": "OK", "branch": "Oklahoma City", "brand": "Days Inn", "brand:wikidata": "Q1047239", "building": "yes", "name": "Days Inn Oklahoma City", "phone": "+1 405-478-2554", "ref": "04295", "source": "Bing", "tourism": "hotel", "website": "https://www.wyndhamhotels.com/days-inn/oklahoma-city-oklahoma/days-inn-oklahoma-city/overview"}}}, {"type": "Feature", "geometry": {"type": "Polygon", "coordinates": [[[-97.4365131, 35.5927462], [-97.4365185, 35.5925543], [-97.4361733, 35.5925523], [-97.4361718, 35.5926286], [-97.4361698, 35.5927419], [-97.4365131, 35.5927462]]]}, "properties": {"osm_id": 229834326, "building": "yes", "name": "", "height": null, "height_m": null, "levels": null, "tract_id": "40109108110", "tract_name": "1081.10", "tags": {"building": "yes", "source": "Bing"}}}, {"type": "Feature", "geometry": {"type": "Polygon", "coordinates": [[[-97.4374705, 35.592431], [-97.4374452, 35.5923526], [-97.4378105, 35.5922748], [-97.4378358, 35.5923532], [-97.4374705, 35.592431]]]}, "properties": {"osm_id": 229834328, "building": "roof", "name": "", "height": null, "height_m": null, "levels": null, "tract_id": "40109108110", "tract_name": "1081.10", "tags": {"amenity": "fuel", "building": "roof", "source": "Bing"}}}, {"type": "Feature", "geometry": {"type": "Polygon", "coordinates": [[[-97.437429, 35.5921867], [-97.4374282, 35.592316], [-97.4374363, 35.5923161], [-97.4374356, 35.5924249], [-97.4374525, 35.5924377], [-97.43738, 35.5924955], [-97.4373635, 35.5924824], [-97.4371241, 35.5924831], [-97.4371236, 35.5922872], [-97.4371474, 35.5922872], [-97.4371472, 35.5922267], [-97.437193, 35.5922266], [-97.4371929, 35.5921829], [-97.437429, 35.5921867]]]}, "properties": {"osm_id": 229834329, "building": "yes", "name": "", "height": null, "height_m": null, "levels": null, "tract_id": "40109108110", "tract_name": "1081.10", "tags": {"building": "yes", "shop": "convenience", "source": "Bing"}}}, {"type": "Feature", "geometry": {"type": "Polygon", "coordinates": [[[-97.4389908, 35.5921547], [-97.4387186, 35.5921503], [-97.4387226, 35.5919846], [-97.4389948, 35.5919889], [-97.4389908, 35.5921547]]]}, "properties": {"osm_id": 229834337, "building": "yes", "name": "", "height": null, "height_m": null, "levels": null, "tract_id": "40109108110", "tract_name": "1081.10", "tags": {"building": "yes"}}}, {"type": "Feature", "geometry": {"type": "Polygon", "coordinates": [[[-97.4361738, 35.5920145], [-97.4359087, 35.5920148], [-97.4359088, 35.5920782], [-97.4361739, 35.5920779], [-97.4361738, 35.5920145]]]}, "properties": {"osm_id": 229834338, "building": "yes", "name": "", "height": null, "height_m": null, "levels": null, "tract_id": "40109108110", "tract_name": "1081.10", "tags": {"building": "yes", "source": "Bing"}}}, {"type": "Feature", "geometry": {"type": "Polygon", "coordinates": [[[-97.4366757, 35.5911579], [-97.436491, 35.5911726], [-97.4364765, 35.5910527], [-97.4366612, 35.5910379], [-97.4366757, 35.5911579]]]}, "properties": {"osm_id": 229834341, "building": "yes", "name": "", "height": null, "height_m": null, "levels": null, "tract_id": "40109108110", "tract_name": "1081.10", "tags": {"building": "yes", "source": "Bing"}}}, {"type": "Feature", "geometry": {"type": "Polygon", "coordinates": [[[-97.4376233, 35.5900369], [-97.4369625, 35.5897614], [-97.437036, 35.5896449], [-97.4370675, 35.589658], [-97.4371352, 35.5895508], [-97.4370894, 35.5895317], [-97.4371569, 35.5894245], [-97.4374304, 35.5895386], [-97.4374627, 35.5894873], [-97.4378082, 35.5896314], [-97.4377079, 35.5897906], [-97.4377639, 35.5898139], [-97.4376233, 35.5900369]]]}, "properties": {"osm_id": 229834628, "building": "yes", "name": "The Ruins Live", "height": null, "height_m": null, "levels": null, "tract_id": "40109108110", "tract_name": "1081.10", "tags": {"addr:city": "Oklahoma City", "addr:housenumber": "12101", "addr:postcode": "73131", "addr:state": "OK", "addr:street": "North I-35 Service Road", "amenity": "events_venue", "building": "yes", "name": "The Ruins Live", "source": "Bing"}}}, {"type": "Feature", "geometry": {"type": "Polygon", "coordinates": [[[-97.4361415, 35.5912161], [-97.4360167, 35.5912238], [-97.4360033, 35.5910799], [-97.4361281, 35.5910722], [-97.4361415, 35.5912161]]]}, "properties": {"osm_id": 229834629, "building": "yes", "name": "", "height": null, "height_m": null, "levels": null, "tract_id": "40109108110", "tract_name": "1081.10", "tags": {"building": "yes", "source": "Bing"}}}, {"type": "Feature", "geometry": {"type": "Polygon", "coordinates": [[[-97.4362851, 35.5910626], [-97.4361708, 35.5910741], [-97.4361928, 35.5912179], [-97.4363071, 35.5912063], [-97.4362851, 35.5910626]]]}, "properties": {"osm_id": 229834630, "building": "yes", "name": "", "height": null, "height_m": null, "levels": null, "tract_id": "40109108110", "tract_name": "1081.10", "tags": {"building": "yes", "source": "Bing"}}}, {"type": "Feature", "geometry": {"type": "Polygon", "coordinates": [[[-97.4372506, 35.5891492], [-97.4373281, 35.5890196], [-97.4371497, 35.5889491], [-97.4371161, 35.5890054], [-97.4371939, 35.5890362], [-97.4371501, 35.5891095], [-97.4372506, 35.5891492]]]}, "properties": {"osm_id": 229834659, "building": "yes", "name": "", "height": null, "height_m": null, "levels": null, "tract_id": "40109108110", "tract_name": "1081.10", "tags": {"building": "yes", "source": "Bing"}}}, {"type": "Feature", "geometry": {"type": "Polygon", "coordinates": [[[-97.4379767, 35.58802], [-97.4378856, 35.5879806], [-97.4377889, 35.5881285], [-97.4378471, 35.5881536], [-97.4378644, 35.5881271], [-97.4378973, 35.5881414], [-97.4379767, 35.58802]]]}, "properties": {"osm_id": 229834723, "building": "yes", "name": "", "height": null, "height_m": null, "levels": null, "tract_id": "40109108110", "tract_name": "1081.10", "tags": {"building": "yes", "source": "Bing"}}}, {"type": "Feature", "geometry": {"type": "Polygon", "coordinates": [[[-97.4378767, 35.5942085], [-97.4375549, 35.5942111], [-97.4375514, 35.5939221], [-97.4378732, 35.5939195], [-97.4378767, 35.5942085]]]}, "properties": {"osm_id": 229834757, "building": "retail", "name": "Charly's", "height": null, "height_m": null, "levels": null, "tract_id": "40109108110", "tract_name": "1081.10", "tags": {"amenity": "restaurant", "building": "retail", "name": "Charly's", "source": "Bing", "source:name": "local_knowledge"}}}, {"type": "Feature", "geometry": {"type": "Polygon", "coordinates": [[[-97.4366339, 35.5936647], [-97.4367241, 35.5939005], [-97.436721, 35.5939815], [-97.436598, 35.5939813], [-97.4365983, 35.5939068], [-97.4365045, 35.593666], [-97.4366339, 35.5936647]]]}, "properties": {"osm_id": 229834795, "building": "roof", "name": "Love's", "height": null, "height_m": null, "levels": null, "tract_id": "40109108110", "tract_name": "1081.10", "tags": {"amenity": "fuel", "brand": "Love's", "brand:wikidata": "Q1872496", "building": "roof", "hgv": "yes", "name": "Love's"}}}, {"type": "Feature", "geometry": {"type": "Polygon", "coordinates": [[[-97.436598, 35.5939813], [-97.436721, 35.5939815], [-97.436721, 35.5939915], [-97.436808, 35.5939917], [-97.436808, 35.5940217], [-97.4368434, 35.5940218], [-97.4368432, 35.5941299], [-97.4367965, 35.5941298], [-97.4367964, 35.5942017], [-97.4367853, 35.5942017], [-97.4367852, 35.594236], [-97.436692, 35.5942359], [-97.4366921, 35.594202], [-97.4365681, 35.5942018], [-97.4365686, 35.5939813], [-97.436598, 35.5939813]]]}, "properties": {"osm_id": 229834796, "building": "yes", "name": "Love's", "height": null, "height_m": null, "levels": null, "tract_id": "40109108110", "tract_name": "1081.10", "tags": {"building": "yes", "name": "Love's", "shop": "convenience"}}}, {"type": "Feature", "geometry": {"type": "Polygon", "coordinates": [[[-97.4415098, 35.5826036], [-97.4413075, 35.5825086], [-97.4414323, 35.5823473], [-97.4414728, 35.5823299], [-97.441639, 35.5824107], [-97.4415098, 35.5826036]]]}, "properties": {"osm_id": 229835053, "building": "yes", "name": "", "height": null, "height_m": null, "levels": null, "tract_id": "40109108110", "tract_name": "1081.10", "tags": {"building": "yes", "source": "Bing"}}}, {"type": "Feature", "geometry": {"type": "Polygon", "coordinates": [[[-97.441071, 35.5841263], [-97.4410736, 35.5840347], [-97.4409395, 35.5840325], [-97.4409395, 35.5841241], [-97.441071, 35.5841263]]]}, "properties": {"osm_id": 229835054, "building": "yes", "name": "", "height": null, "height_m": null, "levels": null, "tract_id": "40109108110", "tract_name": "1081.10", "tags": {"amenity": "toilets", "building": "yes", "source": "Bing"}}}, {"type": "Feature", "geometry": {"type": "Polygon", "coordinates": [[[-97.4404997, 35.5841679], [-97.440314, 35.5840937], [-97.4401375, 35.5843857], [-97.4401862, 35.5844052], [-97.4401651, 35.5844402], [-97.440238, 35.5844694], [-97.4402739, 35.58441], [-97.4403379, 35.5844356], [-97.4404997, 35.5841679]]]}, "properties": {"osm_id": 229835055, "building": "yes", "name": "Rodeo Round Up", "height": null, "height_m": null, "levels": null, "tract_id": "40109108110", "tract_name": "1081.10", "tags": {"attraction": "bumper_car", "building": "yes", "name": "Rodeo Round Up", "source": "Bing"}}}, {"type": "Feature", "geometry": {"type": "Polygon", "coordinates": [[[-97.4411917, 35.5864189], [-97.4412158, 35.5862553], [-97.4409181, 35.5862225], [-97.4408912, 35.5863861], [-97.4411917, 35.5864189]]]}, "properties": {"osm_id": 229835056, "building": "yes", "name": "", "height": null, "height_m": null, "levels": null, "tract_id": "40109108110", "tract_name": "1081.10", "tags": {"building": "yes", "source": "Bing"}}}, {"type": "Feature", "geometry": {"type": "Polygon", "coordinates": [[[-97.4406994, 35.5861993], [-97.4407098, 35.5860702], [-97.4404663, 35.5860475], [-97.440446, 35.5861767], [-97.4406994, 35.5861993]]]}, "properties": {"osm_id": 229835058, "building": "yes", "name": "", "height": null, "height_m": null, "levels": null, "tract_id": "40109108110", "tract_name": "1081.10", "tags": {"building": "yes", "source": "Bing"}}}, {"type": "Feature", "geometry": {"type": "Polygon", "coordinates": [[[-97.4416262, 35.5860764], [-97.4415898, 35.5860772], [-97.441425, 35.5860808], [-97.4414357, 35.586421], [-97.4416369, 35.5864167], [-97.4416262, 35.5860764]]]}, "properties": {"osm_id": 229835060, "building": "yes", "name": "", "height": null, "height_m": null, "levels": null, "tract_id": "40109108110", "tract_name": "1081.10", "tags": {"building": "yes", "source": "Bing"}}}, {"type": "Feature", "geometry": {"type": "Polygon", "coordinates": [[[-97.4410303, 35.5859436], [-97.4408671, 35.5859412], [-97.4408698, 35.5860808], [-97.4410352, 35.5860778], [-97.4410303, 35.5859436]]]}, "properties": {"osm_id": 229835061, "building": "yes", "name": "", "height": null, "height_m": null, "levels": null, "tract_id": "40109108110", "tract_name": "1081.10", "tags": {"building": "yes", "source": "Bing"}}}, {"type": "Feature", "geometry": {"type": "Polygon", "coordinates": [[[-97.4420792, 35.5853171], [-97.4419976, 35.5853171], [-97.4419977, 35.585363], [-97.4418705, 35.585363], [-97.4418705, 35.585306], [-97.4418009, 35.585306], [-97.4418009, 35.5851737], [-97.4420792, 35.5851737], [-97.4420792, 35.5853171]]]}, "properties": {"osm_id": 229835084, "building": "yes", "name": "", "height": null, "height_m": null, "levels": null, "tract_id": "40109108110", "tract_name": "1081.10", "tags": {"building": "yes", "source": "Bing"}}}, {"type": "Feature", "geometry": {"type": "Polygon", "coordinates": [[[-97.4418229, 35.5848339], [-97.4417903, 35.5850537], [-97.4416177, 35.5850395], [-97.4416543, 35.5848177], [-97.4418229, 35.5848339]]]}, "properties": {"osm_id": 229835180, "building": "yes", "name": "", "height": null, "height_m": null, "levels": null, "tract_id": "40109108110", "tract_name": "1081.10", "tags": {"building": "yes", "source": "Bing"}}}, {"type": "Feature", "geometry": {"type": "Polygon", "coordinates": [[[-97.4417327, 35.5886153], [-97.4417461, 35.5884495], [-97.4415664, 35.5884408], [-97.4415552, 35.588609], [-97.4417327, 35.5886153]]]}, "properties": {"osm_id": 229838922, "building": "yes", "name": "", "height": null, "height_m": null, "levels": null, "tract_id": "40109108110", "tract_name": "1081.10", "tags": {"building": "yes", "source": "Bing"}}}, {"type": "Feature", "geometry": {"type": "Polygon", "coordinates": [[[-97.4330011, 35.6088747], [-97.4329528, 35.6088749], [-97.4329533, 35.608942], [-97.4330015, 35.6089418], [-97.4330011, 35.6088747]]]}, "properties": {"osm_id": 229838936, "building": "yes", "name": "", "height": null, "height_m": null, "levels": null, "tract_id": "40109108110", "tract_name": "1081.10", "tags": {"building": "yes"}}}, {"type": "Feature", "geometry": {"type": "Polygon", "coordinates": [[[-97.4599978, 35.6076729], [-97.4595927, 35.6076735], [-97.4595918, 35.6076035], [-97.4592102, 35.6076057], [-97.4592105, 35.6077281], [-97.4589986, 35.6077275], [-97.4589996, 35.6081389], [-97.4592098, 35.6081387], [-97.4592098, 35.6081045], [-97.4592908, 35.6081043], [-97.459291, 35.6081441], [-97.4595718, 35.6081432], [-97.4595716, 35.6081032], [-97.4598074, 35.6081032], [-97.4598078, 35.6081361], [-97.4600071, 35.6081348], [-97.4600433, 35.608101], [-97.4600427, 35.6076765], [-97.4599977, 35.6076768], [-97.4599978, 35.6076729]]]}, "properties": {"osm_id": 229840160, "building": "yes", "name": "", "height": null, "height_m": null, "levels": null, "tract_id": "40109108110", "tract_name": "1081.10", "tags": {"building": "yes"}}}, {"type": "Feature", "geometry": {"type": "Polygon", "coordinates": [[[-97.4451513, 35.5775098], [-97.4451829, 35.577393], [-97.4449793, 35.5773565], [-97.4449476, 35.5774733], [-97.4451513, 35.5775098]]]}, "properties": {"osm_id": 229927230, "building": "yes", "name": "", "height": null, "height_m": null, "levels": null, "tract_id": "40109108110", "tract_name": "1081.10", "tags": {"building": "yes", "source": "Bing"}}}, {"type": "Feature", "geometry": {"type": "Polygon", "coordinates": [[[-97.44508, 35.577667], [-97.4449137, 35.5776364], [-97.4448762, 35.5777651], [-97.4450398, 35.5777979], [-97.44508, 35.577667]]]}, "properties": {"osm_id": 229927232, "building": "roof", "name": "", "height": null, "height_m": null, "levels": null, "tract_id": "40109108110", "tract_name": "1081.10", "tags": {"building": "roof"}}}, {"type": "Feature", "geometry": {"type": "Polygon", "coordinates": [[[-97.4454046, 35.5779048], [-97.4452007, 35.5779048], [-97.4452092, 35.5778178], [-97.4452624, 35.5778088], [-97.4452651, 35.5777499], [-97.4454314, 35.5777477], [-97.4454398, 35.5778789], [-97.4453965, 35.5778764], [-97.4454046, 35.5779048]]]}, "properties": {"osm_id": 229927234, "building": "yes", "name": "", "height": null, "height_m": null, "levels": null, "tract_id": "40109108110", "tract_name": "1081.10", "tags": {"building": "yes", "source": "Bing"}}}, {"type": "Feature", "geometry": {"type": "Polygon", "coordinates": [[[-97.4478133, 35.5754375], [-97.4490149, 35.5754375], [-97.4490096, 35.5743162], [-97.4493261, 35.5743162], [-97.4493797, 35.5742857], [-97.4493744, 35.5741635], [-97.4505277, 35.5741417], [-97.4505277, 35.5734087], [-97.4490579, 35.5734087], [-97.4490581, 35.5737819], [-97.448559, 35.5737795], [-97.448511, 35.5737819], [-97.448457, 35.5737926], [-97.4484359, 35.573843], [-97.448339, 35.5738493], [-97.4483498, 35.5742813], [-97.4482425, 35.57429], [-97.4482532, 35.5744297], [-97.4477972, 35.574434], [-97.4478133, 35.5754375]]]}, "properties": {"osm_id": 229927502, "building": "yes", "name": "", "height": null, "height_m": null, "levels": null, "tract_id": "40109108110", "tract_name": "1081.10", "tags": {"building": "yes", "source": "Bing"}}}, {"type": "Feature", "geometry": {"type": "Polygon", "coordinates": [[[-97.4509403, 35.5685059], [-97.4509407, 35.5682553], [-97.4507824, 35.5682551], [-97.4507822, 35.5683491], [-97.4508341, 35.5683491], [-97.4508339, 35.5685058], [-97.4509403, 35.5685059]]]}, "properties": {"osm_id": 229927588, "building": "yes", "name": "", "height": null, "height_m": null, "levels": null, "tract_id": "40109108110", "tract_name": "1081.10", "tags": {"building": "yes", "source": "Bing"}}}, {"type": "Feature", "geometry": {"type": "Polygon", "coordinates": [[[-97.4510532, 35.5683275], [-97.450993, 35.5683263], [-97.4509904, 35.5684133], [-97.4510506, 35.5684145], [-97.4510532, 35.5683275]]]}, "properties": {"osm_id": 229927589, "building": "yes", "name": "", "height": null, "height_m": null, "levels": null, "tract_id": "40109108110", "tract_name": "1081.10", "tags": {"building": "yes", "source": "Bing"}}}, {"type": "Feature", "geometry": {"type": "Polygon", "coordinates": [[[-97.4360813, 35.5917713], [-97.4361402, 35.5916894], [-97.4361026, 35.5916731], [-97.4360707, 35.5916558], [-97.4360089, 35.5917386], [-97.4360813, 35.5917713]]]}, "properties": {"osm_id": 245933372, "building": "roof", "name": "", "height": null, "height_m": null, "levels": null, "tract_id": "40109108110", "tract_name": "1081.10", "tags": {"building": "roof", "source": "Bing"}}}, {"type": "Feature", "geometry": {"type": "Polygon", "coordinates": [[[-97.4373851, 35.5926164], [-97.4372539, 35.5926145], [-97.4372509, 35.5927518], [-97.4373821, 35.5927537], [-97.4373851, 35.5926164]]]}, "properties": {"osm_id": 245933379, "building": "roof", "name": "", "height": null, "height_m": null, "levels": null, "tract_id": "40109108110", "tract_name": "1081.10", "tags": {"amenity": "fuel", "building": "roof", "source": "Bing"}}}, {"type": "Feature", "geometry": {"type": "Polygon", "coordinates": [[[-97.4345772, 35.5941833], [-97.4345772, 35.594012], [-97.4346316, 35.594012], [-97.4346316, 35.5939797], [-97.4347773, 35.5939797], [-97.4347773, 35.594012], [-97.4348316, 35.594012], [-97.4348316, 35.5941833], [-97.4345772, 35.5941833]]]}, "properties": {"osm_id": 282443107, "building": "yes", "name": "Tourism Information Center", "height": null, "height_m": null, "levels": null, "tract_id": "40109108110", "tract_name": "1081.10", "tags": {"addr:city": "Edmond", "addr:housenumber": "12133", "addr:postcode": "73013", "addr:state": "OK", "addr:street": "North I-35 Service Road", "building": "yes", "information": "office", "name": "Tourism Information Center", "operator": "Oklahoma Department of Tourism and Recreation", "tourism": "information"}}}, {"type": "Feature", "geometry": {"type": "Polygon", "coordinates": [[[-97.441498, 35.5853956], [-97.4415382, 35.5848992], [-97.4412397, 35.5848846], [-97.4412169, 35.5850482], [-97.4411968, 35.585383], [-97.441498, 35.5853956]]]}, "properties": {"osm_id": 322379269, "building": "yes", "name": "Nightmare Haunted House", "height": null, "height_m": null, "levels": null, "tract_id": "40109108110", "tract_name": "1081.10", "tags": {"building": "yes", "name": "Nightmare Haunted House"}}}, {"type": "Feature", "geometry": {"type": "Polygon", "coordinates": [[[-97.4598159, 35.6088963], [-97.4596738, 35.6088965], [-97.4596738, 35.6088931], [-97.4596735, 35.60879], [-97.4596734, 35.608725], [-97.4598155, 35.6087248], [-97.4598159, 35.6088963]]]}, "properties": {"osm_id": 546930641, "building": "commercial", "name": "", "height": null, "height_m": null, "levels": null, "tract_id": "40109108110", "tract_name": "1081.10", "tags": {"building": "commercial"}}}, {"type": "Feature", "geometry": {"type": "Polygon", "coordinates": [[[-97.4581223, 35.6097779], [-97.4580343, 35.6097779], [-97.4580343, 35.6098476], [-97.4577552, 35.6098467], [-97.4577541, 35.6097798], [-97.4576834, 35.6097779], [-97.4576788, 35.6095944], [-97.4581211, 35.6095972], [-97.4581223, 35.6097779]]]}, "properties": {"osm_id": 547763117, "building": "commercial", "name": "", "height": null, "height_m": null, "levels": null, "tract_id": "40109108110", "tract_name": "1081.10", "tags": {"building": "commercial"}}}, {"type": "Feature", "geometry": {"type": "Polygon", "coordinates": [[[-97.4575908, 35.6098617], [-97.4575873, 35.6093628], [-97.4572319, 35.6093638], [-97.4572354, 35.6098608], [-97.4575908, 35.6098617]]]}, "properties": {"osm_id": 547763118, "building": "commercial", "name": "", "height": null, "height_m": null, "levels": null, "tract_id": "40109108110", "tract_name": "1081.10", "tags": {"building": "commercial"}}}, {"type": "Feature", "geometry": {"type": "Polygon", "coordinates": [[[-97.456994, 35.6096386], [-97.4569446, 35.6096386], [-97.4569446, 35.6096463], [-97.4569129, 35.6096458], [-97.4569129, 35.609639], [-97.4568635, 35.6096386], [-97.4568629, 35.6096147], [-97.4568396, 35.6096147], [-97.4568391, 35.609591], [-97.4568096, 35.6095913], [-97.4568096, 35.6095984], [-97.4567755, 35.6095981], [-97.4567754, 35.6095914], [-97.4567485, 35.6095914], [-97.4567488, 35.6095999], [-97.4567058, 35.6096002], [-97.4567063, 35.6096399], [-97.4565975, 35.6096399], [-97.4565964, 35.6095984], [-97.4565536, 35.6095989], [-97.4565535, 35.6095918], [-97.456527, 35.6095921], [-97.456527, 35.6095993], [-97.4564959, 35.6095993], [-97.4564953, 35.6095921], [-97.4564664, 35.6095921], [-97.456467, 35.6096156], [-97.4564403, 35.6096156], [-97.4564414, 35.6096408], [-97.4563909, 35.6096408], [-97.4563909, 35.6096476], [-97.4563587, 35.6096472], [-97.4563581, 35.6096408], [-97.4563148, 35.6096408], [-97.4563129, 35.6095609], [-97.4563075, 35.6095609], [-97.4563067, 35.6095095], [-97.4563127, 35.6095096], [-97.4563104, 35.6094205], [-97.4563601, 35.6094207], [-97.4563598, 35.6094158], [-97.4563936, 35.609416], [-97.4563941, 35.6094218], [-97.4564418, 35.6094218], [-97.4564434, 35.6094716], [-97.4564858, 35.6094716], [-97.456486, 35.6094649], [-97.4565284, 35.6094645], [-97.4565287, 35.6094729], [-97.4565553, 35.6094729], [-97.4565556, 35.6094643], [-97.4565934, 35.6094645], [-97.4565928, 35.6094225], [-97.456709, 35.609423], [-97.4567097, 35.6094664], [-97.4567519, 35.6094664], [-97.4567519, 35.6094737], [-97.4567782, 35.6094737], [-97.4567789, 35.6094664], [-97.4568232, 35.6094664], [-97.4568239, 35.609476], [-97.456862, 35.6094754], [-97.4568634, 35.6094219], [-97.4569098, 35.6094225], [-97.4569105, 35.6094152], [-97.4569485, 35.6094152], [-97.4569485, 35.6094242], [-97.4569935, 35.6094236], [-97.4569942, 35.6095041], [-97.4570018, 35.6095047], [-97.4570032, 35.6095587], [-97.4569935, 35.6095587], [-97.456994, 35.6096386]]]}, "properties": {"osm_id": 547763119, "building": "commercial", "name": "", "height": null, "height_m": null, "levels": null, "tract_id": "40109108110", "tract_name": "1081.10", "tags": {"building": "commercial"}}}, {"type": "Feature", "geometry": {"type": "Polygon", "coordinates": [[[-97.4570222, 35.6099295], [-97.4570213, 35.6098551], [-97.456731, 35.6098551], [-97.4567335, 35.6099577], [-97.4570044, 35.609957], [-97.4570035, 35.6099295], [-97.4570222, 35.6099295]]]}, "properties": {"osm_id": 547763122, "building": "commercial", "name": "", "height": null, "height_m": null, "levels": null, "tract_id": "40109108110", "tract_name": "1081.10", "tags": {"building": "commercial"}}}, {"type": "Feature", "geometry": {"type": "Polygon", "coordinates": [[[-97.4570493, 35.6108323], [-97.4570473, 35.610038], [-97.4569124, 35.610038], [-97.4569124, 35.610834], [-97.4570493, 35.6108323]]]}, "properties": {"osm_id": 547763123, "building": "yes", "name": "", "height": null, "height_m": null, "levels": null, "tract_id": "40109108110", "tract_name": "1081.10", "tags": {"building": "yes"}}}, {"type": "Feature", "geometry": {"type": "Polygon", "coordinates": [[[-97.4568367, 35.6108323], [-97.4568327, 35.6100347], [-97.4566977, 35.6100347], [-97.4567039, 35.610834], [-97.4568367, 35.6108323]]]}, "properties": {"osm_id": 547763125, "building": "yes", "name": "", "height": null, "height_m": null, "levels": null, "tract_id": "40109108110", "tract_name": "1081.10", "tags": {"building": "yes"}}}, {"type": "Feature", "geometry": {"type": "Polygon", "coordinates": [[[-97.4566242, 35.6108357], [-97.4566242, 35.6097921], [-97.4564831, 35.6097904], [-97.4564852, 35.6108357], [-97.4566242, 35.6108357]]]}, "properties": {"osm_id": 547763126, "building": "yes", "name": "", "height": null, "height_m": null, "levels": null, "tract_id": "40109108110", "tract_name": "1081.10", "tags": {"building": "yes"}}}, {"type": "Feature", "geometry": {"type": "Polygon", "coordinates": [[[-97.4564136, 35.610834], [-97.4564116, 35.6097904], [-97.4562726, 35.6097887], [-97.4562787, 35.610834], [-97.4564136, 35.610834]]]}, "properties": {"osm_id": 547763127, "building": "yes", "name": "", "height": null, "height_m": null, "levels": null, "tract_id": "40109108110", "tract_name": "1081.10", "tags": {"building": "yes"}}}, {"type": "Feature", "geometry": {"type": "Polygon", "coordinates": [[[-97.4553129, 35.6095412], [-97.4551722, 35.6095412], [-97.4551722, 35.6095546], [-97.455111, 35.6095546], [-97.4551116, 35.6095412], [-97.4549678, 35.6095407], [-97.4549684, 35.6094828], [-97.4549539, 35.6094833], [-97.4549533, 35.6094284], [-97.4549684, 35.6094289], [-97.454969, 35.6093674], [-97.4551078, 35.6093689], [-97.4551078, 35.6093561], [-97.455176, 35.6093561], [-97.4551766, 35.6093704], [-97.4553122, 35.6093694], [-97.4553116, 35.6094294], [-97.4553293, 35.6094294], [-97.4553286, 35.6094807], [-97.4553116, 35.6094807], [-97.4553129, 35.6095412]]]}, "properties": {"osm_id": 547763128, "building": "commercial", "name": "", "height": null, "height_m": null, "levels": null, "tract_id": "40109108110", "tract_name": "1081.10", "tags": {"building": "commercial"}}}, {"type": "Feature", "geometry": {"type": "Polygon", "coordinates": [[[-97.453358, 35.6096616], [-97.453359, 35.6094928], [-97.4533107, 35.609492], [-97.4533107, 35.6093795], [-97.4532087, 35.6093795], [-97.4532087, 35.6094269], [-97.4530993, 35.6094254], [-97.4530984, 35.609495], [-97.4531239, 35.609495], [-97.4531239, 35.6095076], [-97.4531977, 35.6095076], [-97.4531995, 35.6096609], [-97.453358, 35.6096616]]]}, "properties": {"osm_id": 547763129, "building": "yes", "name": "Delmar Smith Kennels", "height": null, "height_m": null, "levels": null, "tract_id": "40109108110", "tract_name": "1081.10", "tags": {"addr:city": "Edmond", "addr:housenumber": "3509", "addr:postcode": "73013", "addr:state": "OK", "addr:street": "East Memorial Road", "amenity": "animal_boarding", "building": "yes", "name": "Delmar Smith Kennels"}}}, {"type": "Feature", "geometry": {"type": "Polygon", "coordinates": [[[-97.4530593, 35.6096579], [-97.4530602, 35.6094269], [-97.4529663, 35.6094276], [-97.4529682, 35.6096572], [-97.4530037, 35.6096565], [-97.4530028, 35.6096765], [-97.4530237, 35.6096765], [-97.4530246, 35.6096579], [-97.4530593, 35.6096579]]]}, "properties": {"osm_id": 547763130, "building": "yes", "name": "", "height": null, "height_m": null, "levels": null, "tract_id": "40109108110", "tract_name": "1081.10", "tags": {"building": "yes"}}}, {"type": "Feature", "geometry": {"type": "Polygon", "coordinates": [[[-97.4593922, 35.6163232], [-97.4593888, 35.615683], [-97.4592123, 35.6156794], [-97.4592156, 35.6159394], [-97.4591523, 35.6159412], [-97.4591523, 35.6160604], [-97.4592145, 35.6160604], [-97.4592145, 35.6163223], [-97.4593922, 35.6163232]]]}, "properties": {"osm_id": 555285054, "building": "yes", "name": "", "height": null, "height_m": null, "levels": null, "tract_id": "40109108110", "tract_name": "1081.10", "tags": {"building": "yes"}}}, {"type": "Feature", "geometry": {"type": "Polygon", "coordinates": [[[-97.4599433, 35.6161635], [-97.4596923, 35.6161635], [-97.4596923, 35.61563], [-97.4599385, 35.615629], [-97.4599433, 35.6161635]]]}, "properties": {"osm_id": 555285056, "building": "yes", "name": "", "height": null, "height_m": null, "levels": null, "tract_id": "40109108110", "tract_name": "1081.10", "tags": {"building": "yes"}}}, {"type": "Feature", "geometry": {"type": "Polygon", "coordinates": [[[-97.4514438, 35.611039], [-97.4512215, 35.611038], [-97.4512194, 35.6107055], [-97.4512592, 35.6107058], [-97.4512574, 35.6106297], [-97.4513925, 35.6106298], [-97.4513936, 35.6107164], [-97.4513613, 35.6107164], [-97.4513641, 35.6108681], [-97.4513544, 35.610868], [-97.4513553, 35.6109117], [-97.4514426, 35.6109117], [-97.4514438, 35.611039]]]}, "properties": {"osm_id": 555285058, "building": "church", "name": "", "height": null, "height_m": null, "levels": null, "tract_id": "40109108110", "tract_name": "1081.10", "tags": {"building": "church"}}}, {"type": "Feature", "geometry": {"type": "Polygon", "coordinates": [[[-97.4582606, 35.6136243], [-97.4581969, 35.6136276], [-97.4581952, 35.6135933], [-97.458182, 35.613594], [-97.4581787, 35.6135462], [-97.4581902, 35.6135455], [-97.4581869, 35.6135045], [-97.4582515, 35.6135011], [-97.4582606, 35.6136243]]]}, "properties": {"osm_id": 555285078, "building": "yes", "name": "", "height": null, "height_m": null, "levels": null, "tract_id": "40109108110", "tract_name": "1081.10", "tags": {"building": "yes"}}}, {"type": "Feature", "geometry": {"type": "Polygon", "coordinates": [[[-97.4594982, 35.615541], [-97.4590839, 35.615541], [-97.4590884, 35.6154369], [-97.4594967, 35.6154381], [-97.4594982, 35.615541]]]}, "properties": {"osm_id": 555285080, "building": "yes", "name": "", "height": null, "height_m": null, "levels": null, "tract_id": "40109108110", "tract_name": "1081.10", "tags": {"building": "yes"}}}, {"type": "Feature", "geometry": {"type": "Polygon", "coordinates": [[[-97.4587667, 35.6157225], [-97.4587404, 35.6157218], [-97.4587111, 35.6157138], [-97.4586902, 35.6157016], [-97.4586678, 35.6156853], [-97.4586527, 35.6156657], [-97.4586454, 35.615644], [-97.4586477, 35.6156193], [-97.4586536, 35.6155979], [-97.4586697, 35.6155814], [-97.4586887, 35.6155641], [-97.4587141, 35.6155536], [-97.4587402, 35.6155495], [-97.458773, 35.6155492], [-97.4587984, 35.6155533], [-97.4588229, 35.6155656], [-97.4588425, 35.6155803], [-97.4588574, 35.6155988], [-97.4588646, 35.6156221], [-97.4588669, 35.6156492], [-97.4588564, 35.6156736], [-97.4588379, 35.6156931], [-97.4588177, 35.6157071], [-97.4587935, 35.6157165], [-97.4587667, 35.6157225]]]}, "properties": {"osm_id": 555285082, "building": "yes", "name": "", "height": null, "height_m": null, "levels": null, "tract_id": "40109108110", "tract_name": "1081.10", "tags": {"building": "yes"}}}, {"type": "Feature", "geometry": {"type": "Polygon", "coordinates": [[[-97.4592154, 35.6153349], [-97.4590688, 35.6153349], [-97.4590688, 35.6152266], [-97.4592132, 35.6152257], [-97.4592154, 35.6153349]]]}, "properties": {"osm_id": 555285085, "building": "yes", "name": "", "height": null, "height_m": null, "levels": null, "tract_id": "40109108110", "tract_name": "1081.10", "tags": {"building": "yes"}}}, {"type": "Feature", "geometry": {"type": "Polygon", "coordinates": [[[-97.4600897, 35.610248], [-97.4599037, 35.6102469], [-97.4599043, 35.6100792], [-97.4600872, 35.6100795], [-97.4600885, 35.610164], [-97.4600897, 35.610248]]]}, "properties": {"osm_id": 557435862, "building": "yes", "name": "", "height": null, "height_m": null, "levels": null, "tract_id": "40109108110", "tract_name": "1081.10", "tags": {"building": "yes"}}}, {"type": "Feature", "geometry": {"type": "Polygon", "coordinates": [[[-97.4600932, 35.6108573], [-97.4599988, 35.6108576], [-97.4599984, 35.6108042], [-97.4599834, 35.6108038], [-97.4599834, 35.6107848], [-97.4599701, 35.6107845], [-97.4599675, 35.6106682], [-97.4601003, 35.6106693], [-97.4601007, 35.6107855], [-97.4600915, 35.6107855], [-97.4600932, 35.6108573]]]}, "properties": {"osm_id": 557435864, "building": "yes", "name": "", "height": null, "height_m": null, "levels": null, "tract_id": "40109108110", "tract_name": "1081.10", "tags": {"building": "yes"}}}, {"type": "Feature", "geometry": {"type": "Polygon", "coordinates": [[[-97.444477, 35.6100073], [-97.4444706, 35.6097119], [-97.4444605, 35.609712], [-97.4442268, 35.6097127], [-97.4442291, 35.609857], [-97.4442314, 35.6100088], [-97.444477, 35.6100073]]]}, "properties": {"osm_id": 559245000, "building": "yes", "name": "", "height": null, "height_m": null, "levels": null, "tract_id": "40109108110", "tract_name": "1081.10", "tags": {"amenity": "place_of_worship", "building": "yes", "religion": "christian"}}}, {"type": "Feature", "geometry": {"type": "Polygon", "coordinates": [[[-97.4442291, 35.609857], [-97.4441716, 35.609857], [-97.4441707, 35.6097045], [-97.4441146, 35.6097037], [-97.4441137, 35.6096663], [-97.4440502, 35.6096678], [-97.4440502, 35.609594], [-97.4440502, 35.6095856], [-97.4442222, 35.6095833], [-97.4442232, 35.6095713], [-97.4442783, 35.6095699], [-97.4442783, 35.6095826], [-97.4444559, 35.6095826], [-97.4444568, 35.6096319], [-97.4444642, 35.6096319], [-97.4444605, 35.609712], [-97.4442268, 35.6097127], [-97.4442291, 35.609857]]]}, "properties": {"osm_id": 559245001, "building": "yes", "name": "", "height": null, "height_m": null, "levels": null, "tract_id": "40109108110", "tract_name": "1081.10", "tags": {"amenity": "place_of_worship", "building": "yes", "religion": "christian"}}}, {"type": "Feature", "geometry": {"type": "Polygon", "coordinates": [[[-97.4440685, 35.6098016], [-97.4440523, 35.6098016], [-97.4438728, 35.6098016], [-97.4438711, 35.6096869], [-97.4440513, 35.6096876], [-97.4440677, 35.6096876], [-97.4440685, 35.6098016]]]}, "properties": {"osm_id": 559245002, "building": "yes", "name": "", "height": null, "height_m": null, "levels": null, "tract_id": "40109108110", "tract_name": "1081.10", "tags": {"amenity": "place_of_worship", "building": "yes", "religion": "christian"}}}, {"type": "Feature", "geometry": {"type": "Polygon", "coordinates": [[[-97.4440514, 35.6098391], [-97.4440523, 35.6098016], [-97.4438728, 35.6098016], [-97.4439207, 35.6098398], [-97.4440514, 35.6098391]]]}, "properties": {"osm_id": 559245003, "building": "yes", "name": "", "height": null, "height_m": null, "levels": null, "tract_id": "40109108110", "tract_name": "1081.10", "tags": {"amenity": "place_of_worship", "building": "yes", "religion": "christian"}}}, {"type": "Feature", "geometry": {"type": "Polygon", "coordinates": [[[-97.4438994, 35.6099669], [-97.4438505, 35.6099669], [-97.443851, 35.6099815], [-97.4438334, 35.6099819], [-97.4438334, 35.6099908], [-97.4438068, 35.6099904], [-97.4438068, 35.6100063], [-97.4437617, 35.610007], [-97.4437612, 35.6099916], [-97.4437337, 35.6099912], [-97.4437337, 35.6099812], [-97.4437171, 35.6099815], [-97.4437166, 35.609965], [-97.4437128, 35.6098171], [-97.4438059, 35.6098171], [-97.4438059, 35.6098225], [-97.443851, 35.6098225], [-97.443898, 35.6098588], [-97.4438994, 35.6099669]]]}, "properties": {"osm_id": 559245004, "building": "yes", "name": "", "height": null, "height_m": null, "levels": null, "tract_id": "40109108110", "tract_name": "1081.10", "tags": {"amenity": "place_of_worship", "building": "yes", "religion": "christian"}}}, {"type": "Feature", "geometry": {"type": "Polygon", "coordinates": [[[-97.4440513, 35.6096876], [-97.4440502, 35.6096678], [-97.4440502, 35.609594], [-97.4437984, 35.6095954], [-97.4438009, 35.6097232], [-97.4437858, 35.6097348], [-97.4437671, 35.6097492], [-97.4437548, 35.6097587], [-97.4437009, 35.6097591], [-97.4435984, 35.60976], [-97.4436021, 35.6099392], [-97.4436026, 35.6099657], [-97.4437166, 35.609965], [-97.4437128, 35.6098171], [-97.4438059, 35.6098171], [-97.4438059, 35.6098225], [-97.443851, 35.6098225], [-97.4438599, 35.6098249], [-97.4438664, 35.6098237], [-97.4438777, 35.6098134], [-97.4438786, 35.6098085], [-97.4438728, 35.6098016], [-97.4438711, 35.6096869], [-97.4440513, 35.6096876]]]}, "properties": {"osm_id": 559245005, "building": "yes", "name": "", "height": null, "height_m": null, "levels": null, "tract_id": "40109108110", "tract_name": "1081.10", "tags": {"amenity": "place_of_worship", "building": "yes", "religion": "christian"}}}, {"type": "Feature", "geometry": {"type": "Polygon", "coordinates": [[[-97.4353675, 35.5953246], [-97.4353675, 35.5952787], [-97.4351424, 35.5952785], [-97.4351424, 35.5952494], [-97.435268, 35.5952495], [-97.4352681, 35.5951733], [-97.435363, 35.5951734], [-97.4353631, 35.5951331], [-97.4348205, 35.5951327], [-97.4348204, 35.5951731], [-97.4348917, 35.5951731], [-97.4348917, 35.5952353], [-97.4350588, 35.5952354], [-97.4350588, 35.5952759], [-97.4348282, 35.5952758], [-97.4348281, 35.5953243], [-97.4353675, 35.5953246]]]}, "properties": {"osm_id": 788076929, "building": "yes", "name": "Sonic", "height": null, "height_m": null, "levels": null, "tract_id": "40109108110", "tract_name": "1081.10", "tags": {"addr:city": "Edmond", "addr:housenumber": "4835", "addr:postcode": "73013", "addr:state": "OK", "addr:street": "Northeast 122nd Street", "amenity": "fast_food", "brand": "Sonic", "brand:wikidata": "Q7561808", "building": "yes", "cuisine": "burger", "drive_in": "yes", "name": "Sonic", "opening_hours": "Mo-Fr 07:00-22:00; Sa-Su 08:00-22:00", "takeaway": "yes", "website": "https://locations.sonicdrivein.com/ok/edmond/4835-ne-122nd-i-35.html"}}}, {"type": "Feature", "geometry": {"type": "Polygon", "coordinates": [[[-97.4387998, 35.5895545], [-97.4388937, 35.5894082], [-97.4388629, 35.5893951], [-97.4380416, 35.5890421], [-97.4379434, 35.589191], [-97.4387998, 35.5895545]]]}, "properties": {"osm_id": 788076941, "building": "yes", "name": "Economy Inn", "height": null, "height_m": null, "levels": null, "tract_id": "40109108110", "tract_name": "1081.10", "tags": {"addr:city": "Oklahoma City", "addr:housenumber": "12005", "addr:postcode": "73131", "addr:state": "OK", "addr:street": "North I-35 Service Road", "building": "yes", "name": "Economy Inn", "tourism": "motel"}}}, {"type": "Feature", "geometry": {"type": "Polygon", "coordinates": [[[-97.4390554, 35.5891427], [-97.4391522, 35.5889888], [-97.4382931, 35.5886314], [-97.4382181, 35.5887506], [-97.4382375, 35.5887587], [-97.4382157, 35.5887935], [-97.439028, 35.5891313], [-97.4390554, 35.5891427]]]}, "properties": {"osm_id": 788076942, "building": "yes", "name": "Americas Best Value Inn", "height": null, "height_m": null, "levels": null, "tract_id": "40109108110", "tract_name": "1081.10", "tags": {"addr:city": "Oklahoma City", "addr:housenumber": "12001", "addr:postcode": "73131", "addr:state": "OK", "addr:street": "North I-35 Service Road", "building": "yes", "name": "Americas Best Value Inn", "tourism": "motel"}}}, {"type": "Feature", "geometry": {"type": "Polygon", "coordinates": [[[-97.4400412, 35.585612], [-97.4400264, 35.5857238], [-97.439836, 35.5857041], [-97.4398471, 35.5856057], [-97.4398487, 35.5855918], [-97.4400412, 35.585612]]]}, "properties": {"osm_id": 820246566, "building": "yes", "name": "", "height": null, "height_m": null, "levels": null, "tract_id": "40109108110", "tract_name": "1081.10", "tags": {"building": "yes"}}}, {"type": "Feature", "geometry": {"type": "Polygon", "coordinates": [[[-97.4394089, 35.5858081], [-97.4393257, 35.5857764], [-97.4393807, 35.585687], [-97.4394585, 35.5857164], [-97.439441, 35.585747], [-97.4394612, 35.5857546], [-97.4394424, 35.5857906], [-97.4394209, 35.5857819], [-97.4394089, 35.5858081]]]}, "properties": {"osm_id": 820261506, "building": "yes", "name": "Hootie's Tree House", "height": null, "height_m": null, "levels": null, "tract_id": "40109108110", "tract_name": "1081.10", "tags": {"building": "yes", "name": "Hootie's Tree House"}}}, {"type": "Feature", "geometry": {"type": "Polygon", "coordinates": [[[-97.4402699, 35.5859567], [-97.4401656, 35.5859469], [-97.4401807, 35.5858621], [-97.4401989, 35.5857982], [-97.4402895, 35.5858056], [-97.4402699, 35.5859567]]]}, "properties": {"osm_id": 820261539, "building": "yes", "name": "Frontier Funnelcakes", "height": null, "height_m": null, "levels": null, "tract_id": "40109108110", "tract_name": "1081.10", "tags": {"amenity": "restaurant", "building": "yes", "name": "Frontier Funnelcakes"}}}, {"type": "Feature", "geometry": {"type": "Polygon", "coordinates": [[[-97.4400621, 35.5848186], [-97.4399843, 35.5847777], [-97.4401171, 35.5845947], [-97.4402111, 35.5846315], [-97.4400621, 35.5848186]]]}, "properties": {"osm_id": 820261691, "building": "yes", "name": "", "height": null, "height_m": null, "levels": null, "tract_id": "40109108110", "tract_name": "1081.10", "tags": {"building": "yes"}}}, {"type": "Feature", "geometry": {"type": "Polygon", "coordinates": [[[-97.440337, 35.5865269], [-97.4403458, 35.5864883], [-97.4402464, 35.5864761], [-97.440242, 35.5865148], [-97.440337, 35.5865269]]]}, "properties": {"osm_id": 820261947, "building": "yes", "name": "", "height": null, "height_m": null, "levels": null, "tract_id": "40109108110", "tract_name": "1081.10", "tags": {"building": "yes"}}}, {"type": "Feature", "geometry": {"type": "Polygon", "coordinates": [[[-97.440071, 35.5859823], [-97.4400232, 35.5860562], [-97.439976, 35.5860332], [-97.4397899, 35.5859504], [-97.4398358, 35.5858781], [-97.440071, 35.5859823]]]}, "properties": {"osm_id": 820263310, "building": "yes", "name": "", "height": null, "height_m": null, "levels": null, "tract_id": "40109108110", "tract_name": "1081.10", "tags": {"building": "yes", "layer": "1"}}}, {"type": "Feature", "geometry": {"type": "Polygon", "coordinates": [[[-97.4398956, 35.586012], [-97.4398377, 35.5861007], [-97.4396207, 35.5860111], [-97.4397086, 35.5858625], [-97.4397861, 35.5858975], [-97.4397507, 35.585959], [-97.4398956, 35.586012]]]}, "properties": {"osm_id": 820263412, "building": "yes", "name": "", "height": null, "height_m": null, "levels": null, "tract_id": "40109108110", "tract_name": "1081.10", "tags": {"amenity": "toilets", "building": "yes"}}}, {"type": "Feature", "geometry": {"type": "Polygon", "coordinates": [[[-97.4400127, 35.5858425], [-97.439941, 35.5858342], [-97.4399363, 35.5858504], [-97.4399796, 35.5858557], [-97.4399748, 35.5858914], [-97.4398544, 35.5858791], [-97.4398629, 35.5858396], [-97.4399143, 35.5858469], [-97.4399189, 35.5858306], [-97.4397608, 35.585797], [-97.439776, 35.5857024], [-97.4400302, 35.5857334], [-97.4400127, 35.5858425]]]}, "properties": {"osm_id": 820264971, "building": "yes", "name": "Najavo Tacos", "height": null, "height_m": null, "levels": null, "tract_id": "40109108110", "tract_name": "1081.10", "tags": {"amenity": "restaurant", "building": "yes", "cuisine": "mexican", "name": "Najavo Tacos"}}}, {"type": "Feature", "geometry": {"type": "Polygon", "coordinates": [[[-97.439836, 35.5857041], [-97.4397594, 35.5856945], [-97.4397677, 35.5856179], [-97.4397982, 35.5855999], [-97.4398471, 35.5856057], [-97.439836, 35.5857041]]]}, "properties": {"osm_id": 820265151, "building": "yes", "name": "Two John's Saloon", "height": null, "height_m": null, "levels": null, "tract_id": "40109108110", "tract_name": "1081.10", "tags": {"amenity": "restaurant", "building": "yes", "name": "Two John's Saloon"}}}, {"type": "Feature", "geometry": {"type": "Polygon", "coordinates": [[[-97.4413307, 35.5859091], [-97.4412824, 35.5859288], [-97.4412154, 35.585932], [-97.4411845, 35.5859178], [-97.4411523, 35.5858949], [-97.4411349, 35.5858742], [-97.4411242, 35.5858535], [-97.4411255, 35.5858142], [-97.4411389, 35.5857804], [-97.4411617, 35.5857575], [-97.4411993, 35.5857368], [-97.4412435, 35.5857281], [-97.4412824, 35.5857357], [-97.4413092, 35.5857466], [-97.4413361, 35.5857532], [-97.4413669, 35.5857761], [-97.4413709, 35.5857979], [-97.4413696, 35.5858273], [-97.4413696, 35.585847], [-97.4413696, 35.5858764], [-97.4413508, 35.5858928], [-97.4413307, 35.5859091]]]}, "properties": {"osm_id": 820265542, "building": "yes", "name": "Winged Warrior", "height": null, "height_m": null, "levels": null, "tract_id": "40109108110", "tract_name": "1081.10", "tags": {"attraction": "swing_carousel", "building": "yes", "fee": "no", "name": "Winged Warrior", "operator": "Six Flags Frontier City"}}}, {"type": "Feature", "geometry": {"type": "Polygon", "coordinates": [[[-97.4419718, 35.5822085], [-97.4418135, 35.5824288], [-97.441438, 35.5822587], [-97.4416043, 35.5820252], [-97.4419718, 35.5822085]]]}, "properties": {"osm_id": 820265762, "building": "yes", "name": "", "height": null, "height_m": null, "levels": null, "tract_id": "40109108110", "tract_name": "1081.10", "tags": {"building": "yes"}}}, {"type": "Feature", "geometry": {"type": "Polygon", "coordinates": [[[-97.4400949, 35.5857041], [-97.4401063, 35.5856997], [-97.4401137, 35.5856883], [-97.4401123, 35.5856795], [-97.4401043, 35.5856741], [-97.4400895, 35.5856692], [-97.4400761, 35.5856725], [-97.4400687, 35.5856779], [-97.4400667, 35.5856904], [-97.4400734, 35.5856997], [-97.4400808, 35.5857046], [-97.4400949, 35.5857041]]]}, "properties": {"osm_id": 820266275, "building": "yes", "name": "", "height": null, "height_m": null, "levels": null, "tract_id": "40109108110", "tract_name": "1081.10", "tags": {"amenity": "shelter", "building": "yes", "shelter_type": "gazebo"}}}, {"type": "Feature", "geometry": {"type": "Polygon", "coordinates": [[[-97.4314604, 35.6056378], [-97.4315434, 35.6058224], [-97.43156, 35.6058174], [-97.4315837, 35.60587], [-97.4313914, 35.6059272], [-97.4313692, 35.6058778], [-97.4313623, 35.6058798], [-97.4313465, 35.6058446], [-97.43132, 35.6058524], [-97.4312853, 35.6057754], [-97.4313187, 35.6057655], [-97.4312848, 35.60569], [-97.4314604, 35.6056378]]]}, "properties": {"osm_id": 917256933, "building": "yes", "name": "", "height": null, "height_m": null, "levels": null, "tract_id": "40109108110", "tract_name": "1081.10", "tags": {"building": "yes"}}}, {"type": "Feature", "geometry": {"type": "Polygon", "coordinates": [[[-97.437749, 35.593435], [-97.437749, 35.59345], [-97.437835, 35.593451], [-97.437835, 35.593399], [-97.437869, 35.593399], [-97.437869, 35.593336], [-97.437837, 35.593336], [-97.437838, 35.593267], [-97.437112, 35.593263], [-97.437113, 35.593178], [-97.437022, 35.593178], [-97.437021, 35.593291], [-97.436869, 35.59329], [-97.436868, 35.59343], [-97.437749, 35.593435]]]}, "properties": {"osm_id": 946203415, "building": "yes", "name": "Baymont Inn & Suites Oklahoma City North", "height": null, "height_m": null, "levels": null, "tract_id": "40109108110", "tract_name": "1081.10", "tags": {"addr:city": "Oklahoma City", "addr:housenumber": "4625", "addr:postcode": "73131", "addr:state": "OK", "addr:street": "Northeast 120th Street", "building": "yes", "name": "Baymont Inn & Suites Oklahoma City North", "source": "microsoft/BuildingFootprints", "tourism": "hotel"}}}, {"type": "Feature", "geometry": {"type": "Polygon", "coordinates": [[[-97.437578, 35.591497], [-97.437403, 35.59143], [-97.437276, 35.591652], [-97.437451, 35.591718], [-97.437578, 35.591497]]]}, "properties": {"osm_id": 946203416, "building": "yes", "name": "", "height": null, "height_m": null, "levels": null, "tract_id": "40109108110", "tract_name": "1081.10", "tags": {"building": "yes", "source": "microsoft/BuildingFootprints"}}}, {"type": "Feature", "geometry": {"type": "Polygon", "coordinates": [[[-97.438975, 35.592759], [-97.4389757, 35.5928545], [-97.438976, 35.592896], [-97.439099, 35.592896], [-97.439099, 35.5928536], [-97.439099, 35.592765], [-97.439166, 35.592765], [-97.439164, 35.592401], [-97.438923, 35.592401], [-97.438924, 35.592565], [-97.438741, 35.592566], [-97.438742, 35.59276], [-97.438975, 35.592759]]]}, "properties": {"osm_id": 946203417, "building": "yes", "name": "Holiday Inn Express & Suites Oklahoma City North", "height": null, "height_m": null, "levels": null, "tract_id": "40109108110", "tract_name": "1081.10", "tags": {"addr:city": "Oklahoma City", "addr:housenumber": "12013", "addr:postcode": "73131", "addr:state": "OK", "addr:street": "Holland Street", "brand": "Holiday Inn Express & Suites", "brand:wikidata": "Q5880423", "building": "yes", "layer": "1", "name": "Holiday Inn Express & Suites Oklahoma City North", "source": "microsoft/BuildingFootprints", "tourism": "hotel"}}}, {"type": "Feature", "geometry": {"type": "Polygon", "coordinates": [[[-97.439314, 35.589236], [-97.439208, 35.58919], [-97.439118, 35.589325], [-97.439224, 35.589371], [-97.439314, 35.589236]]]}, "properties": {"osm_id": 946203418, "building": "yes", "name": "", "height": null, "height_m": null, "levels": null, "tract_id": "40109108110", "tract_name": "1081.10", "tags": {"building": "yes", "source": "microsoft/BuildingFootprints"}}}, {"type": "Feature", "geometry": {"type": "Polygon", "coordinates": [[[-97.43923, 35.589398], [-97.439129, 35.589357], [-97.439093, 35.589417], [-97.439194, 35.589457], [-97.43923, 35.589398]]]}, "properties": {"osm_id": 946203419, "building": "yes", "name": "", "height": null, "height_m": null, "levels": null, "tract_id": "40109108110", "tract_name": "1081.10", "tags": {"building": "yes", "source": "microsoft/BuildingFootprints"}}}, {"type": "Feature", "geometry": {"type": "Polygon", "coordinates": [[[-97.4457532, 35.5926145], [-97.4456663, 35.5926146], [-97.4456659, 35.5925463], [-97.445663, 35.5925463], [-97.445663, 35.5925433], [-97.4456391, 35.5925433], [-97.4456392, 35.5925468], [-97.4455811, 35.5925468], [-97.4455807, 35.5925438], [-97.445556, 35.5925434], [-97.4455562, 35.5925469], [-97.445512, 35.5925466], [-97.4455105, 35.5924779], [-97.4454586, 35.5924778], [-97.4454571, 35.5923999], [-97.4457409, 35.5923996], [-97.4457396, 35.5925391], [-97.445753, 35.5925392], [-97.4457532, 35.5926145]]]}, "properties": {"osm_id": 987934708, "building": "yes", "name": "", "height": null, "height_m": null, "levels": null, "tract_id": "40109108110", "tract_name": "1081.10", "tags": {"building": "yes"}}}, {"type": "Feature", "geometry": {"type": "Polygon", "coordinates": [[[-97.4378117, 35.6044115], [-97.4377079, 35.6044782], [-97.4374153, 35.6041774], [-97.43743, 35.6041679], [-97.4373922, 35.604129], [-97.4374732, 35.6040769], [-97.4375389, 35.6041444], [-97.437561, 35.6041302], [-97.4376262, 35.6041973], [-97.4376121, 35.6042063], [-97.4378117, 35.6044115]]]}, "properties": {"osm_id": 989891197, "building": "yes", "name": "", "height": null, "height_m": null, "levels": null, "tract_id": "40109108110", "tract_name": "1081.10", "tags": {"building": "yes"}}}, {"type": "Feature", "geometry": {"type": "Polygon", "coordinates": [[[-97.4374417, 35.5943258], [-97.4374423, 35.5942548], [-97.4374032, 35.5942546], [-97.4374026, 35.5943256], [-97.4374417, 35.5943258]]]}, "properties": {"osm_id": 1030187481, "building": "yes", "name": "", "height": null, "height_m": null, "levels": null, "tract_id": "40109108110", "tract_name": "1081.10", "tags": {"building": "yes"}}}, {"type": "Feature", "geometry": {"type": "Polygon", "coordinates": [[[-97.457431, 35.6086994], [-97.4572075, 35.6087801], [-97.4571585, 35.6086962], [-97.4571718, 35.6086876], [-97.4574389, 35.6085791], [-97.457431, 35.6086994]]]}, "properties": {"osm_id": 1046273291, "building": "commercial", "name": "", "height": null, "height_m": 3.0, "levels": 1, "tract_id": "40109108110", "tract_name": "1081.10", "tags": {"atm": "no", "building": "commercial", "building:levels": "1", "building:part": "yes", "covered": "portico", "description": "Originally a bank, office space is now rented to businesses.", "drive_through": "yes", "layer": "1"}}}, {"type": "Feature", "geometry": {"type": "Polygon", "coordinates": [[[-97.459439, 35.562299], [-97.459433, 35.562372], [-97.459396, 35.562383], [-97.45942, 35.562432], [-97.459463, 35.562419], [-97.459511, 35.562518], [-97.459594, 35.562492], [-97.459535, 35.562371], [-97.459572, 35.562373], [-97.459578, 35.562303], [-97.459543, 35.562301], [-97.459619, 35.562198], [-97.45954, 35.56216], [-97.459439, 35.562299]]]}, "properties": {"osm_id": 1090688426, "building": "yes", "name": "", "height": null, "height_m": null, "levels": null, "tract_id": "40109108110", "tract_name": "1081.10", "tags": {"building": "yes", "source": "microsoft/BuildingFootprints"}}}, {"type": "Feature", "geometry": {"type": "Polygon", "coordinates": [[[-97.458738, 35.562959], [-97.458737, 35.563067], [-97.458982, 35.563069], [-97.458983, 35.563045], [-97.459024, 35.563046], [-97.459025, 35.562987], [-97.458982, 35.562986], [-97.458982, 35.562961], [-97.458738, 35.562959]]]}, "properties": {"osm_id": 1090688427, "building": "yes", "name": "", "height": null, "height_m": null, "levels": null, "tract_id": "40109108110", "tract_name": "1081.10", "tags": {"building": "yes", "source": "microsoft/BuildingFootprints"}}}, {"type": "Feature", "geometry": {"type": "Polygon", "coordinates": [[[-97.458502, 35.564487], [-97.4585, 35.564401], [-97.458315, 35.564404], [-97.458317, 35.56449], [-97.458502, 35.564487]]]}, "properties": {"osm_id": 1090688431, "building": "yes", "name": "", "height": null, "height_m": null, "levels": null, "tract_id": "40109108110", "tract_name": "1081.10", "tags": {"building": "yes", "source": "microsoft/BuildingFootprints"}}}, {"type": "Feature", "geometry": {"type": "Polygon", "coordinates": [[[-97.456851, 35.564208], [-97.456837, 35.564158], [-97.456677, 35.564189], [-97.456691, 35.564239], [-97.456851, 35.564208]]]}, "properties": {"osm_id": 1090688432, "building": "yes", "name": "", "height": null, "height_m": null, "levels": null, "tract_id": "40109108110", "tract_name": "1081.10", "tags": {"building": "yes", "source": "microsoft/BuildingFootprints"}}}, {"type": "Feature", "geometry": {"type": "Polygon", "coordinates": [[[-97.458413, 35.563918], [-97.458515, 35.563921], [-97.458518, 35.563834], [-97.458416, 35.563831], [-97.458413, 35.563918]]]}, "properties": {"osm_id": 1090688433, "building": "yes", "name": "", "height": null, "height_m": null, "levels": null, "tract_id": "40109108110", "tract_name": "1081.10", "tags": {"building": "yes", "source": "microsoft/BuildingFootprints"}}}, {"type": "Feature", "geometry": {"type": "Polygon", "coordinates": [[[-97.459861, 35.564561], [-97.460062, 35.564562], [-97.460063, 35.564423], [-97.459862, 35.564422], [-97.459861, 35.564561]]]}, "properties": {"osm_id": 1090688436, "building": "yes", "name": "", "height": null, "height_m": null, "levels": null, "tract_id": "40109108110", "tract_name": "1081.10", "tags": {"building": "yes", "source": "microsoft/BuildingFootprints"}}}, {"type": "Feature", "geometry": {"type": "Polygon", "coordinates": [[[-97.459085, 35.562706], [-97.45916, 35.562704], [-97.459159, 35.562654], [-97.459084, 35.562656], [-97.459085, 35.562706]]]}, "properties": {"osm_id": 1090688437, "building": "yes", "name": "", "height": null, "height_m": null, "levels": null, "tract_id": "40109108110", "tract_name": "1081.10", "tags": {"building": "yes", "source": "microsoft/BuildingFootprints"}}}, {"type": "Feature", "geometry": {"type": "Polygon", "coordinates": [[[-97.459631, 35.560627], [-97.459669, 35.560645], [-97.459709, 35.560588], [-97.459671, 35.56057], [-97.459631, 35.560627]]]}, "properties": {"osm_id": 1090688438, "building": "yes", "name": "", "height": null, "height_m": null, "levels": null, "tract_id": "40109108110", "tract_name": "1081.10", "tags": {"building": "yes", "source": "microsoft/BuildingFootprints"}}}, {"type": "Feature", "geometry": {"type": "Polygon", "coordinates": [[[-97.459655, 35.560467], [-97.459751, 35.560473], [-97.459757, 35.560405], [-97.459661, 35.560399], [-97.459655, 35.560467]]]}, "properties": {"osm_id": 1090688440, "building": "yes", "name": "", "height": null, "height_m": null, "levels": null, "tract_id": "40109108110", "tract_name": "1081.10", "tags": {"building": "yes", "source": "microsoft/BuildingFootprints"}}}, {"type": "Feature", "geometry": {"type": "Polygon", "coordinates": [[[-97.459525, 35.562993], [-97.45943, 35.562991], [-97.459421, 35.563207], [-97.459515, 35.563209], [-97.459519, 35.563118], [-97.45957, 35.563119], [-97.459572, 35.563046], [-97.459523, 35.563045], [-97.459525, 35.562993]]]}, "properties": {"osm_id": 1090688442, "building": "yes", "name": "", "height": null, "height_m": null, "levels": null, "tract_id": "40109108110", "tract_name": "1081.10", "tags": {"building": "yes", "source": "microsoft/BuildingFootprints"}}}, {"type": "Feature", "geometry": {"type": "Polygon", "coordinates": [[[-97.458629, 35.564447], [-97.45872, 35.564444], [-97.458717, 35.564385], [-97.458626, 35.564388], [-97.458629, 35.564447]]]}, "properties": {"osm_id": 1090688443, "building": "yes", "name": "", "height": null, "height_m": null, "levels": null, "tract_id": "40109108110", "tract_name": "1081.10", "tags": {"building": "yes", "source": "microsoft/BuildingFootprints"}}}, {"type": "Feature", "geometry": {"type": "Polygon", "coordinates": [[[-97.458567, 35.562459], [-97.458358, 35.562463], [-97.458361, 35.562602], [-97.45857, 35.562599], [-97.458569, 35.562547], [-97.458615, 35.562546], [-97.458614, 35.562511], [-97.458568, 35.562512], [-97.458567, 35.562459]]]}, "properties": {"osm_id": 1090688444, "building": "yes", "name": "", "height": null, "height_m": null, "levels": null, "tract_id": "40109108110", "tract_name": "1081.10", "tags": {"building": "yes", "source": "microsoft/BuildingFootprints"}}}, {"type": "Feature", "geometry": {"type": "Polygon", "coordinates": [[[-97.45994, 35.56148], [-97.459869, 35.561424], [-97.459734, 35.561538], [-97.45972, 35.561527], [-97.459683, 35.561558], [-97.459811, 35.561658], [-97.459845, 35.561629], [-97.459802, 35.561595], [-97.45994, 35.56148]]]}, "properties": {"osm_id": 1090688445, "building": "yes", "name": "", "height": null, "height_m": null, "levels": null, "tract_id": "40109108110", "tract_name": "1081.10", "tags": {"building": "yes", "source": "microsoft/BuildingFootprints"}}}, {"type": "Feature", "geometry": {"type": "Polygon", "coordinates": [[[-97.457184, 35.564713], [-97.457084, 35.564715], [-97.457088, 35.564811], [-97.457187, 35.564809], [-97.457184, 35.564713]]]}, "properties": {"osm_id": 1090688446, "building": "yes", "name": "", "height": null, "height_m": null, "levels": null, "tract_id": "40109108110", "tract_name": "1081.10", "tags": {"building": "yes", "source": "microsoft/BuildingFootprints"}}}, {"type": "Feature", "geometry": {"type": "Polygon", "coordinates": [[[-97.456531, 35.564883], [-97.456519, 35.564916], [-97.456474, 35.564906], [-97.456452, 35.564968], [-97.456574, 35.564997], [-97.456608, 35.564902], [-97.456531, 35.564883]]]}, "properties": {"osm_id": 1090688447, "building": "yes", "name": "", "height": null, "height_m": null, "levels": null, "tract_id": "40109108110", "tract_name": "1081.10", "tags": {"building": "yes", "source": "microsoft/BuildingFootprints"}}}, {"type": "Feature", "geometry": {"type": "Polygon", "coordinates": [[[-97.458613, 35.562742], [-97.45861, 35.562838], [-97.458749, 35.562841], [-97.458753, 35.562745], [-97.458613, 35.562742]]]}, "properties": {"osm_id": 1090688448, "building": "yes", "name": "", "height": null, "height_m": null, "levels": null, "tract_id": "40109108110", "tract_name": "1081.10", "tags": {"building": "yes", "source": "microsoft/BuildingFootprints"}}}, {"type": "Feature", "geometry": {"type": "Polygon", "coordinates": [[[-97.460044, 35.563923], [-97.460045, 35.564026], [-97.460109, 35.564025], [-97.46011, 35.564084], [-97.460196, 35.564084], [-97.460195, 35.56402], [-97.460211, 35.56402], [-97.46021, 35.563922], [-97.460044, 35.563923]]]}, "properties": {"osm_id": 1090688450, "building": "yes", "name": "", "height": null, "height_m": null, "levels": null, "tract_id": "40109108110", "tract_name": "1081.10", "tags": {"building": "yes", "source": "microsoft/BuildingFootprints"}}}, {"type": "Feature", "geometry": {"type": "Polygon", "coordinates": [[[-97.4557244, 35.5638716], [-97.4558802, 35.5630614], [-97.4544896, 35.5628844], [-97.4543359, 35.5636839], [-97.4545317, 35.5637088], [-97.4544787, 35.5639846], [-97.4554814, 35.564112], [-97.4555323, 35.5638472], [-97.4557244, 35.5638716]]]}, "properties": {"osm_id": 1113209282, "building": "yes", "name": "", "height": null, "height_m": null, "levels": null, "tract_id": "40109108110", "tract_name": "1081.10", "tags": {"building": "yes"}}}, {"type": "Feature", "geometry": {"type": "Polygon", "coordinates": [[[-97.4552399, 35.5612935], [-97.455478, 35.5602115], [-97.4548981, 35.5601271], [-97.4548903, 35.5601629], [-97.4547982, 35.5601495], [-97.4545737, 35.5611712], [-97.4546553, 35.561183], [-97.4546499, 35.5612076], [-97.4552399, 35.5612935]]]}, "properties": {"osm_id": 1113209283, "building": "yes", "name": "", "height": null, "height_m": null, "levels": null, "tract_id": "40109108110", "tract_name": "1081.10", "tags": {"building": "yes"}}}, {"type": "Feature", "geometry": {"type": "Polygon", "coordinates": [[[-97.4555208, 35.5600174], [-97.455741, 35.5589365], [-97.4551523, 35.5588571], [-97.4551463, 35.5588866], [-97.4550567, 35.5588746], [-97.4548492, 35.5598916], [-97.4549352, 35.5599032], [-97.4549282, 35.5599375], [-97.4555208, 35.5600174]]]}, "properties": {"osm_id": 1113209284, "building": "yes", "name": "", "height": null, "height_m": null, "levels": null, "tract_id": "40109108110", "tract_name": "1081.10", "tags": {"building": "yes"}}}, {"type": "Feature", "geometry": {"type": "Polygon", "coordinates": [[[-97.4589908, 35.5562106], [-97.4589908, 35.5552503], [-97.4562947, 35.5552503], [-97.4562947, 35.5562106], [-97.4589908, 35.5562106]]]}, "properties": {"osm_id": 1113211108, "building": "yes", "name": "", "height": null, "height_m": null, "levels": null, "tract_id": "40109108110", "tract_name": "1081.10", "tags": {"building": "yes"}}}, {"type": "Feature", "geometry": {"type": "Polygon", "coordinates": [[[-97.4468846, 35.5779263], [-97.446601, 35.5779263], [-97.4466011, 35.5774738], [-97.4468845, 35.5774738], [-97.4468846, 35.5779263]]]}, "properties": {"osm_id": 1210163992, "building": "yes", "name": "Human Mode LLC", "height": null, "height_m": null, "levels": null, "tract_id": "40109108110", "tract_name": "1081.10", "tags": {"addr:city": "Oklahoma City", "addr:housenumber": "3917", "addr:postcode": "73131", "addr:state": "OK", "addr:street": "Northeast 104th Street", "building": "yes", "name": "Human Mode LLC", "office": "research", "opening_hours": "Mo-Fr 09:00-17:00", "phone": "(866) 474-0114", "website": "https://www.humanmode.com/"}}}, {"type": "Feature", "geometry": {"type": "Polygon", "coordinates": [[[-97.4405664, 35.5859058], [-97.440516, 35.5858707], [-97.4405501, 35.5857352], [-97.4405525, 35.585716], [-97.4405591, 35.5857001], [-97.4405501, 35.585679], [-97.4405542, 35.5856466], [-97.4405753, 35.5856314], [-97.440594, 35.585601], [-97.4406176, 35.5856069], [-97.4406501, 35.5856043], [-97.4406802, 35.5856142], [-97.4406916, 35.5856162], [-97.440707, 35.5856016], [-97.4407298, 35.5855976], [-97.4407371, 35.5856069], [-97.4407542, 35.5856043], [-97.4407615, 35.5856142], [-97.4407729, 35.5856208], [-97.4408136, 35.5856406], [-97.440803, 35.5857028], [-97.4408737, 35.5857114], [-97.4408298, 35.5859474], [-97.4407531, 35.5859385], [-97.4407534, 35.5859104], [-97.4406444, 35.5858992], [-97.4406054, 35.5859058], [-97.4405664, 35.5859058]]]}, "properties": {"osm_id": 1230736711, "building": "yes", "name": "Quick Draw", "height": null, "height_m": null, "levels": null, "tract_id": "40109108110", "tract_name": "1081.10", "tags": {"attraction": "dark_ride", "building": "yes", "name": "Quick Draw", "operator": "Six Flags Frontier City"}}}, {"type": "Feature", "geometry": {"type": "Polygon", "coordinates": [[[-97.4404342, 35.5860375], [-97.4406062, 35.586054], [-97.4406203, 35.5859657], [-97.4404466, 35.5859493], [-97.4404342, 35.5860375]]]}, "properties": {"osm_id": 1230736712, "building": "yes", "name": "", "height": null, "height_m": null, "levels": null, "tract_id": "40109108110", "tract_name": "1081.10", "tags": {"building": "yes"}}}, {"type": "Feature", "geometry": {"type": "Polygon", "coordinates": [[[-97.4394579, 35.5855714], [-97.4394108, 35.5855726], [-97.4394089, 35.5855253], [-97.439456, 35.585524], [-97.4394579, 35.5855714]]]}, "properties": {"osm_id": 1230736713, "building": "yes", "name": "", "height": null, "height_m": null, "levels": null, "tract_id": "40109108110", "tract_name": "1081.10", "tags": {"building": "yes"}}}, {"type": "Feature", "geometry": {"type": "Polygon", "coordinates": [[[-97.4401968, 35.5848155], [-97.440141, 35.5847836], [-97.4401727, 35.5847461], [-97.4402086, 35.5847099], [-97.4402553, 35.5846676], [-97.4403111, 35.5847086], [-97.4401968, 35.5848155]]]}, "properties": {"osm_id": 1230736716, "building": "yes", "name": "", "height": null, "height_m": null, "levels": null, "tract_id": "40109108110", "tract_name": "1081.10", "tags": {"building": "yes"}}}, {"type": "Feature", "geometry": {"type": "Polygon", "coordinates": [[[-97.4408216, 35.5850018], [-97.4408191, 35.5849787], [-97.4408072, 35.5849577], [-97.4407872, 35.5849412], [-97.4407615, 35.5849312], [-97.4407331, 35.5849289], [-97.4407083, 35.5849336], [-97.4406863, 35.5849442], [-97.4406695, 35.5849597], [-97.4406592, 35.5849787], [-97.4406565, 35.5849994], [-97.4406617, 35.5850197], [-97.4406743, 35.5850377], [-97.440693, 35.5850518], [-97.440719, 35.5850613], [-97.4407474, 35.5850629], [-97.4407749, 35.5850567], [-97.4407981, 35.5850432], [-97.4408143, 35.5850242], [-97.4408216, 35.5850018]]]}, "properties": {"osm_id": 1230736717, "building": "yes", "name": "Grand Carousel", "height": null, "height_m": null, "levels": null, "tract_id": "40109108110", "tract_name": "1081.10", "tags": {"attraction": "carousel", "building": "yes", "name": "Grand Carousel", "operator": "Six Flags Frontier City"}}}, {"type": "Feature", "geometry": {"type": "Polygon", "coordinates": [[[-97.4405221, 35.5853373], [-97.4405296, 35.5851877], [-97.440562, 35.5851876], [-97.4405861, 35.5851876], [-97.4405848, 35.5853358], [-97.4405615, 35.5853364], [-97.4405221, 35.5853373]]]}, "properties": {"osm_id": 1230736718, "building": "yes", "name": "Mystery River Log Flume", "height": null, "height_m": null, "levels": null, "tract_id": "40109108110", "tract_name": "1081.10", "tags": {"attraction": "amusement_ride", "building": "yes", "name": "Mystery River Log Flume", "operator": "Six Flags Fronteir City"}}}, {"type": "Feature", "geometry": {"type": "Polygon", "coordinates": [[[-97.4413732, 35.5846633], [-97.4413811, 35.5846458], [-97.4413957, 35.5846316], [-97.4414154, 35.5846221], [-97.4414378, 35.5846187], [-97.4414604, 35.5846216], [-97.4414804, 35.5846305], [-97.4414956, 35.5846444], [-97.4415041, 35.5846616], [-97.4415053, 35.5846779], [-97.4415005, 35.5846937], [-97.4414901, 35.5847077], [-97.4414751, 35.5847185], [-97.4414593, 35.5847246], [-97.4414556, 35.5848001], [-97.4414005, 35.584799], [-97.441408, 35.5847242], [-97.441395, 35.5847138], [-97.4413806, 35.5846993], [-97.4413731, 35.5846818], [-97.4413732, 35.5846633]]]}, "properties": {"osm_id": 1230736720, "building": "yes", "name": "Gunslinger", "height": null, "height_m": null, "levels": null, "tract_id": "40109108110", "tract_name": "1081.10", "tags": {"attraction": "amusement_ride", "building": "yes", "name": "Gunslinger", "operator": "Six Flags Frontier City"}}}, {"type": "Feature", "geometry": {"type": "Polygon", "coordinates": [[[-97.4412707, 35.5848018], [-97.4412894, 35.5847621], [-97.4412309, 35.5847476], [-97.4412171, 35.584786], [-97.4412707, 35.5848018]]]}, "properties": {"osm_id": 1230736721, "building": "yes", "name": "", "height": null, "height_m": null, "levels": null, "tract_id": "40109108110", "tract_name": "1081.10", "tags": {"building": "yes"}}}, {"type": "Feature", "geometry": {"type": "Polygon", "coordinates": [[[-97.441441, 35.5844571], [-97.4414707, 35.5844739], [-97.4415056, 35.5844816], [-97.4415416, 35.5844795], [-97.4415747, 35.5844678], [-97.4415914, 35.5844471], [-97.4416264, 35.5844613], [-97.4416462, 35.5844367], [-97.4416159, 35.5844168], [-97.4416232, 35.5843959], [-97.4416182, 35.5843685], [-97.4416028, 35.5843437], [-97.4415786, 35.5843241], [-97.4415481, 35.5843116], [-97.4415143, 35.5843076], [-97.4414807, 35.5843125], [-97.4414491, 35.5843267], [-97.441425, 35.5843487], [-97.4414114, 35.5843758], [-97.4414095, 35.5844052], [-97.4414198, 35.5844334], [-97.441441, 35.5844571]]]}, "properties": {"osm_id": 1230736722, "building": "yes", "name": "Sidewinder", "height": null, "height_m": null, "levels": null, "tract_id": "40109108110", "tract_name": "1081.10", "tags": {"attraction": "amusement_ride", "building": "yes", "name": "Sidewinder", "operator": "Six Flags Frontier City"}}}, {"type": "Feature", "geometry": {"type": "Polygon", "coordinates": [[[-97.4420692, 35.5835641], [-97.4418955, 35.5834357], [-97.442001, 35.5833461], [-97.4420972, 35.5834114], [-97.4421169, 35.5833901], [-97.4421878, 35.5834524], [-97.4420692, 35.5835641]]]}, "properties": {"osm_id": 1230736723, "building": "yes", "name": "Best of the West", "height": null, "height_m": null, "levels": null, "tract_id": "40109108110", "tract_name": "1081.10", "tags": {"amenity": "restaurant", "building": "yes", "layer": "-1", "name": "Best of the West"}}}, {"type": "Feature", "geometry": {"type": "Polygon", "coordinates": [[[-97.4414584, 35.5831691], [-97.4416134, 35.5832785], [-97.4416536, 35.5832868], [-97.4416807, 35.5832709], [-97.4416956, 35.583245], [-97.4416853, 35.5832192], [-97.4416517, 35.5832093], [-97.441619, 35.58322], [-97.4415592, 35.5831812], [-97.4415835, 35.5831554], [-97.4415163, 35.5831136], [-97.4414584, 35.5831691]]]}, "properties": {"osm_id": 1230736724, "building": "yes", "name": "", "height": null, "height_m": null, "levels": null, "tract_id": "40109108110", "tract_name": "1081.10", "tags": {"building": "yes"}}}, {"type": "Feature", "geometry": {"type": "Polygon", "coordinates": [[[-97.441364, 35.5835869], [-97.44135, 35.5836697], [-97.4411903, 35.5836598], [-97.4411959, 35.5835793], [-97.4411436, 35.5835747], [-97.4411511, 35.583482], [-97.4413762, 35.5835033], [-97.441364, 35.5835869]]]}, "properties": {"osm_id": 1230736725, "building": "yes", "name": "Grand Centennial Ferris Wheel", "height": null, "height_m": null, "levels": null, "tract_id": "40109108110", "tract_name": "1081.10", "tags": {"attraction": "big_wheel", "building": "yes", "name": "Grand Centennial Ferris Wheel", "operator": "Six Flags Frontier City"}}}, {"type": "Feature", "geometry": {"type": "Polygon", "coordinates": [[[-97.4416409, 35.5829236], [-97.4417007, 35.5828476], [-97.4416773, 35.582834], [-97.4415867, 35.582799], [-97.4415298, 35.5828773], [-97.4416305, 35.5829193], [-97.4416409, 35.5829236]]]}, "properties": {"osm_id": 1230736727, "building": "yes", "name": "Emporeum", "height": null, "height_m": null, "levels": null, "tract_id": "40109108110", "tract_name": "1081.10", "tags": {"building": "yes", "layer": "-1", "name": "Emporeum", "shop": "gift"}}}, {"type": "Feature", "geometry": {"type": "Polygon", "coordinates": [[[-97.4419174, 35.5829828], [-97.4418072, 35.5830383], [-97.4417838, 35.5830087], [-97.4417222, 35.5830459], [-97.4416848, 35.5830072], [-97.4416633, 35.5830155], [-97.4416232, 35.5829737], [-97.4416521, 35.582954], [-97.4416185, 35.5829266], [-97.4416305, 35.5829193], [-97.4416409, 35.5829236], [-97.4417007, 35.5828476], [-97.4417343, 35.582894], [-97.441826, 35.5828458], [-97.4419174, 35.5829828]]]}, "properties": {"osm_id": 1230736728, "building": "yes", "name": "Wildcat", "height": null, "height_m": null, "levels": null, "tract_id": "40109108110", "tract_name": "1081.10", "tags": {"building": "yes", "fee": "no", "name": "Wildcat", "operator": "Six Flags Frontier City", "roller_coaster": "station"}}}, {"type": "Feature", "geometry": {"type": "Polygon", "coordinates": [[[-97.4409276, 35.5829911], [-97.4407894, 35.5832205], [-97.4408613, 35.5832516], [-97.4407894, 35.5833519], [-97.4406484, 35.5832896], [-97.440852, 35.5829645], [-97.4409276, 35.5829911]]]}, "properties": {"osm_id": 1230736729, "building": "yes", "name": "Silver Bullet", "height": null, "height_m": null, "levels": null, "tract_id": "40109108110", "tract_name": "1081.10", "tags": {"building": "yes", "name": "Silver Bullet", "operator": "Six Flags Frontier City", "roller_coaster": "station"}}}, {"type": "Feature", "geometry": {"type": "Polygon", "coordinates": [[[-97.4420187, 35.5864072], [-97.4420224, 35.5860472], [-97.4419084, 35.5860441], [-97.4419028, 35.5864118], [-97.4420187, 35.5864072]]]}, "properties": {"osm_id": 1230736733, "building": "yes", "name": "", "height": null, "height_m": null, "levels": null, "tract_id": "40109108110", "tract_name": "1081.10", "tags": {"building": "yes"}}}, {"type": "Feature", "geometry": {"type": "Polygon", "coordinates": [[[-97.4425361, 35.5857978], [-97.4426504, 35.5858018], [-97.4426482, 35.5856233], [-97.4425386, 35.5856284], [-97.4425361, 35.5857978]]]}, "properties": {"osm_id": 1230736734, "building": "yes", "name": "", "height": null, "height_m": null, "levels": null, "tract_id": "40109108110", "tract_name": "1081.10", "tags": {"building": "yes"}}}, {"type": "Feature", "geometry": {"type": "Polygon", "coordinates": [[[-97.4424153, 35.5861406], [-97.4425534, 35.5861385], [-97.4425558, 35.5858629], [-97.4424178, 35.5858679], [-97.4424153, 35.5861406]]]}, "properties": {"osm_id": 1230736735, "building": "barn", "name": "", "height": null, "height_m": null, "levels": null, "tract_id": "40109108110", "tract_name": "1081.10", "tags": {"building": "barn"}}}, {"type": "Feature", "geometry": {"type": "Polygon", "coordinates": [[[-97.4422046, 35.5866106], [-97.4420592, 35.5866066], [-97.4420604, 35.5865344], [-97.4421235, 35.586536], [-97.442212, 35.5865365], [-97.4422046, 35.5866106]]]}, "properties": {"osm_id": 1230736736, "building": "shed", "name": "", "height": null, "height_m": null, "levels": null, "tract_id": "40109108110", "tract_name": "1081.10", "tags": {"building": "shed"}}}, {"type": "Feature", "geometry": {"type": "Polygon", "coordinates": [[[-97.4408838, 35.5865182], [-97.4408803, 35.5865606], [-97.4408777, 35.5865914], [-97.4406373, 35.5865823], [-97.4406391, 35.5865453], [-97.440641, 35.5865042], [-97.4408838, 35.5865182]]]}, "properties": {"osm_id": 1230736737, "building": "yes", "name": "Diamondback", "height": null, "height_m": null, "levels": null, "tract_id": "40109108110", "tract_name": "1081.10", "tags": {"building": "yes", "name": "Diamondback", "operator": "Six Flags Frontier City", "roller_coaster": "station"}}}, {"type": "Feature", "geometry": {"type": "Polygon", "coordinates": [[[-97.4403108, 35.5866605], [-97.4403129, 35.5866488], [-97.4403208, 35.5866043], [-97.4402097, 35.5865883], [-97.4401961, 35.5866405], [-97.4402518, 35.5866513], [-97.4403108, 35.5866605]]]}, "properties": {"osm_id": 1230736738, "building": "yes", "name": "Entrance", "height": null, "height_m": null, "levels": null, "tract_id": "40109108110", "tract_name": "1081.10", "tags": {"building": "yes", "layer": "1", "name": "Entrance"}}}, {"type": "Feature", "geometry": {"type": "Polygon", "coordinates": [[[-97.4404419, 35.5866438], [-97.4404037, 35.5866174], [-97.4404314, 35.5865883], [-97.440472, 35.5866187], [-97.4404419, 35.5866438]]]}, "properties": {"osm_id": 1230736739, "building": "yes", "name": "", "height": null, "height_m": null, "levels": null, "tract_id": "40109108110", "tract_name": "1081.10", "tags": {"building": "yes"}}}, {"type": "Feature", "geometry": {"type": "Polygon", "coordinates": [[[-97.4421999, 35.5854056], [-97.4423658, 35.5854083], [-97.4423658, 35.5852813], [-97.4422015, 35.5852787], [-97.4421999, 35.5854056]]]}, "properties": {"osm_id": 1230736741, "building": "yes", "name": "", "height": null, "height_m": null, "levels": null, "tract_id": "40109108110", "tract_name": "1081.10", "tags": {"building": "yes"}}}, {"type": "Feature", "geometry": {"type": "Polygon", "coordinates": [[[-97.4446563, 35.5848811], [-97.4445555, 35.5848811], [-97.4445641, 35.5846141], [-97.4446649, 35.5846176], [-97.4446563, 35.5848811]]]}, "properties": {"osm_id": 1230736744, "building": "yes", "name": "", "height": null, "height_m": null, "levels": null, "tract_id": "40109108110", "tract_name": "1081.10", "tags": {"building": "yes"}}}, {"type": "Feature", "geometry": {"type": "Polygon", "coordinates": [[[-97.4412985, 35.5854287], [-97.4413058, 35.5854381], [-97.4413088, 35.5854489], [-97.4413071, 35.5854599], [-97.4413009, 35.5854698], [-97.441291, 35.5854774], [-97.4412784, 35.5854818], [-97.4412648, 35.5854825], [-97.4412529, 35.5854798], [-97.4412426, 35.5854743], [-97.4412348, 35.5854664], [-97.4412305, 35.585457], [-97.4412299, 35.585447], [-97.4412331, 35.5854373], [-97.4412399, 35.5854288], [-97.4412495, 35.5854225], [-97.4412611, 35.5854189], [-97.4412747, 35.5854186], [-97.4412877, 35.5854219], [-97.4412985, 35.5854287]]]}, "properties": {"osm_id": 1230736745, "building": "yes", "name": "", "height": null, "height_m": null, "levels": null, "tract_id": "40109108110", "tract_name": "1081.10", "tags": {"building": "yes", "man_made": "silo"}}}, {"type": "Feature", "geometry": {"type": "Polygon", "coordinates": [[[-97.440922, 35.5843556], [-97.4409503, 35.5843538], [-97.4409764, 35.5843448], [-97.4409977, 35.5843295], [-97.4410118, 35.5843095], [-97.4410173, 35.5842868], [-97.4410137, 35.5842639], [-97.4410006, 35.5842423], [-97.4409793, 35.5842254], [-97.4409523, 35.5842153], [-97.4409227, 35.584213], [-97.4408939, 35.5842189], [-97.4408691, 35.5842323], [-97.4408513, 35.5842516], [-97.4408423, 35.5842747], [-97.4408431, 35.5842978], [-97.4408529, 35.5843194], [-97.4408706, 35.5843375], [-97.4408945, 35.5843499], [-97.440922, 35.5843556]]]}, "properties": {"osm_id": 1230736746, "building": "yes", "name": "Casino", "height": null, "height_m": null, "levels": null, "tract_id": "40109108110", "tract_name": "1081.10", "tags": {"attraction": "amusement_ride", "building": "yes", "name": "Casino", "operator": "Six Flags Frontier City"}}}, {"type": "Feature", "geometry": {"type": "Polygon", "coordinates": [[[-97.4410006, 35.5842423], [-97.4410017, 35.5842237], [-97.4410435, 35.5842254], [-97.4410449, 35.5841696], [-97.4410229, 35.584169], [-97.4410123, 35.5841592], [-97.4410003, 35.5841587], [-97.4409918, 35.5841679], [-97.4409288, 35.5841644], [-97.4409227, 35.584213], [-97.4409523, 35.5842153], [-97.4409793, 35.5842254], [-97.4410006, 35.5842423]]]}, "properties": {"osm_id": 1230736747, "building": "roof", "name": "", "height": null, "height_m": null, "levels": null, "tract_id": "40109108110", "tract_name": "1081.10", "tags": {"building": "roof", "layer": "1"}}}, {"type": "Feature", "geometry": {"type": "Polygon", "coordinates": [[[-97.4410496, 35.5839098], [-97.440937, 35.5839525], [-97.4407911, 35.583922], [-97.4408329, 35.583806], [-97.4409649, 35.5838304], [-97.4410496, 35.5839098]]]}, "properties": {"osm_id": 1230736748, "building": "yes", "name": "Thunderbird Plaza", "height": null, "height_m": null, "levels": null, "tract_id": "40109108110", "tract_name": "1081.10", "tags": {"amenity": "theatre", "building": "yes", "layer": "1", "name": "Thunderbird Plaza", "theatre:type": "amphi"}}}, {"type": "Feature", "geometry": {"type": "Polygon", "coordinates": [[[-97.4414459, 35.5842509], [-97.4413855, 35.584279], [-97.4413066, 35.5841517], [-97.4413658, 35.5841257], [-97.4414459, 35.5842509]]]}, "properties": {"osm_id": 1230736749, "building": "yes", "name": "", "height": null, "height_m": null, "levels": null, "tract_id": "40109108110", "tract_name": "1081.10", "tags": {"building": "yes"}}}, {"type": "Feature", "geometry": {"type": "Polygon", "coordinates": [[[-97.4413609, 35.5841046], [-97.4412928, 35.5841079], [-97.4412672, 35.5839633], [-97.4413436, 35.5839573], [-97.4413609, 35.5841046]]]}, "properties": {"osm_id": 1230736750, "building": "yes", "name": "", "height": null, "height_m": null, "levels": null, "tract_id": "40109108110", "tract_name": "1081.10", "tags": {"building": "yes"}}}, {"type": "Feature", "geometry": {"type": "Polygon", "coordinates": [[[-97.4412928, 35.5841079], [-97.4413066, 35.5841517], [-97.44126, 35.5841582], [-97.4412466, 35.5841162], [-97.4412928, 35.5841079]]]}, "properties": {"osm_id": 1230736751, "building": "yes", "name": "", "height": null, "height_m": null, "levels": null, "tract_id": "40109108110", "tract_name": "1081.10", "tags": {"building": "yes"}}}, {"type": "Feature", "geometry": {"type": "Polygon", "coordinates": [[[-97.4394964, 35.5855103], [-97.4394461, 35.5854948], [-97.4394518, 35.5854781], [-97.4394164, 35.5854677], [-97.4394433, 35.5854205], [-97.4394766, 35.5854338], [-97.4394822, 35.5854263], [-97.4395318, 35.5854447], [-97.4394964, 35.5855103]]]}, "properties": {"osm_id": 1230736754, "building": "yes", "name": "", "height": null, "height_m": null, "levels": null, "tract_id": "40109108110", "tract_name": "1081.10", "tags": {"building": "yes", "operator": "Six Flags Frontier City", "public_transport": "platform", "railway": "platform", "ref": "Ol' 89er Express", "train": "yes"}}}, {"type": "Feature", "geometry": {"type": "Polygon", "coordinates": [[[-97.4395302, 35.5856586], [-97.4395319, 35.5856699], [-97.4395292, 35.585681], [-97.4395222, 35.5856908], [-97.4395118, 35.5856984], [-97.439499, 35.5857029], [-97.4394851, 35.5857038], [-97.4394708, 35.5857008], [-97.4394585, 35.5856941], [-97.4394497, 35.5856844], [-97.4394454, 35.5856729], [-97.4394461, 35.5856609], [-97.4394517, 35.5856498], [-97.4394616, 35.5856409], [-97.4394746, 35.5856351], [-97.4394883, 35.5856333], [-97.4395021, 35.585635], [-97.4395145, 35.5856403], [-97.4395242, 35.5856484], [-97.4395302, 35.5856586]]]}, "properties": {"osm_id": 1230736755, "building": "yes", "name": "Tina's Tea Cup Twirl", "height": null, "height_m": null, "levels": null, "tract_id": "40109108110", "tract_name": "1081.10", "tags": {"attraction": "amusement_ride", "building": "yes", "name": "Tina's Tea Cup Twirl"}}}, {"type": "Feature", "geometry": {"type": "Polygon", "coordinates": [[[-97.4396795, 35.5857607], [-97.4396221, 35.5857367], [-97.4395668, 35.5858283], [-97.4396301, 35.5858475], [-97.4396795, 35.5857607]]]}, "properties": {"osm_id": 1230736756, "building": "yes", "name": "Sheldon's Balloon Race", "height": null, "height_m": null, "levels": null, "tract_id": "40109108110", "tract_name": "1081.10", "tags": {"attraction": "amusement_ride", "building": "yes", "name": "Sheldon's Balloon Race", "operator": "Six Flags Frontier City"}}}, {"type": "Feature", "geometry": {"type": "Polygon", "coordinates": [[[-97.4396802, 35.5850872], [-97.4396781, 35.5851945], [-97.4397447, 35.5851907], [-97.4397446, 35.5850829], [-97.4396802, 35.5850872]]]}, "properties": {"osm_id": 1230736757, "building": "yes", "name": "Gamesville Junction", "height": null, "height_m": null, "levels": null, "tract_id": "40109108110", "tract_name": "1081.10", "tags": {"building": "yes", "leisure": "amusement_arcade", "name": "Gamesville Junction"}}}, {"type": "Feature", "geometry": {"type": "Polygon", "coordinates": [[[-97.4398541, 35.5851808], [-97.43978, 35.5851684], [-97.4398272, 35.5849782], [-97.4399012, 35.5849886], [-97.4398541, 35.5851808]]]}, "properties": {"osm_id": 1230736758, "building": "yes", "name": "", "height": null, "height_m": null, "levels": null, "tract_id": "40109108110", "tract_name": "1081.10", "tags": {"building": "yes", "layer": "1"}}}, {"type": "Feature", "geometry": {"type": "Polygon", "coordinates": [[[-97.4397875, 35.5853141], [-97.4397135, 35.5853359], [-97.4396812, 35.585225], [-97.439745, 35.5852128], [-97.4397875, 35.5853141]]]}, "properties": {"osm_id": 1230736759, "building": "yes", "name": "", "height": null, "height_m": null, "levels": null, "tract_id": "40109108110", "tract_name": "1081.10", "tags": {"building": "yes", "leisure": "amusement_arcade"}}}, {"type": "Feature", "geometry": {"type": "Polygon", "coordinates": [[[-97.4400578, 35.5862266], [-97.4401196, 35.5862279], [-97.4401228, 35.5861836], [-97.4400594, 35.5861803], [-97.4400578, 35.5862266]]]}, "properties": {"osm_id": 1230736761, "building": "yes", "name": "", "height": null, "height_m": null, "levels": null, "tract_id": "40109108110", "tract_name": "1081.10", "tags": {"building": "yes"}}}, {"type": "Feature", "geometry": {"type": "Polygon", "coordinates": [[[-97.4400082, 35.5862736], [-97.4399163, 35.5862736], [-97.4399204, 35.5862537], [-97.4399033, 35.5862471], [-97.4399009, 35.5861995], [-97.4399253, 35.5861949], [-97.4399253, 35.5861797], [-97.4400139, 35.5861784], [-97.4400131, 35.5862061], [-97.440022, 35.5862141], [-97.4400082, 35.5862736]]]}, "properties": {"osm_id": 1230736762, "building": "yes", "name": "Bubba's Honey Swings", "height": null, "height_m": null, "levels": null, "tract_id": "40109108110", "tract_name": "1081.10", "tags": {"attraction": "amusement_ride", "building": "yes", "name": "Bubba's Honey Swings", "operator": "Six Flags Frontier City"}}}, {"type": "Feature", "geometry": {"type": "Polygon", "coordinates": [[[-97.4403097, 35.5840886], [-97.4403689, 35.5839914], [-97.4402851, 35.5839603], [-97.4402235, 35.5840515], [-97.4403097, 35.5840886]]]}, "properties": {"osm_id": 1230736763, "building": "yes", "name": "", "height": null, "height_m": null, "levels": null, "tract_id": "40109108110", "tract_name": "1081.10", "tags": {"building": "yes"}}}, {"type": "Feature", "geometry": {"type": "Polygon", "coordinates": [[[-97.4403265, 35.5844488], [-97.4403474, 35.5844564], [-97.4403638, 35.5844694], [-97.4403739, 35.5844861], [-97.4403764, 35.5845046], [-97.4403711, 35.5845226], [-97.4403585, 35.5845382], [-97.4403403, 35.5845494], [-97.440321, 35.5845546], [-97.4403007, 35.5845548], [-97.4402813, 35.5845501], [-97.4402645, 35.5845408], [-97.4402536, 35.5845299], [-97.4402228, 35.5845397], [-97.4402068, 35.5845085], [-97.4402437, 35.584496], [-97.4402497, 35.5844781], [-97.4402629, 35.5844629], [-97.4402816, 35.5844522], [-97.4403037, 35.5844473], [-97.4403265, 35.5844488]]]}, "properties": {"osm_id": 1230736764, "building": "yes", "name": "Tornado", "height": null, "height_m": null, "levels": null, "tract_id": "40109108110", "tract_name": "1081.10", "tags": {"attraction": "amusement_ride", "building": "yes", "name": "Tornado", "operator": "Six Flags Frontier City"}}}, {"type": "Feature", "geometry": {"type": "Polygon", "coordinates": [[[-97.4403175, 35.5849506], [-97.4403413, 35.584786], [-97.4403112, 35.5847807], [-97.4403153, 35.5847437], [-97.4403429, 35.5847443], [-97.4403437, 35.5847225], [-97.4405015, 35.5847397], [-97.4405023, 35.5847615], [-97.4405115, 35.5847615], [-97.4405072, 35.5847727], [-97.4405221, 35.5847731], [-97.4404887, 35.5849483], [-97.4403175, 35.5849506]]]}, "properties": {"osm_id": 1230736765, "building": "yes", "name": "Opera House", "height": null, "height_m": null, "levels": null, "tract_id": "40109108110", "tract_name": "1081.10", "tags": {"amenity": "theatre", "building": "yes", "name": "Opera House", "operator": "Six Flags Frontier City"}}}, {"type": "Feature", "geometry": {"type": "Polygon", "coordinates": [[[-97.441587, 35.5856561], [-97.441513, 35.585639], [-97.441534, 35.5855809], [-97.4416079, 35.5855999], [-97.441587, 35.5856561]]]}, "properties": {"osm_id": 1230736766, "building": "yes", "name": "", "height": null, "height_m": null, "levels": null, "tract_id": "40109108110", "tract_name": "1081.10", "tags": {"building": "yes"}}}, {"type": "Feature", "geometry": {"type": "Polygon", "coordinates": [[[-97.4422405, 35.5851027], [-97.4422681, 35.5851143], [-97.4422889, 35.5850817], [-97.4422613, 35.58507], [-97.4422405, 35.5851027]]]}, "properties": {"osm_id": 1230736767, "building": "yes", "name": "", "height": null, "height_m": null, "levels": null, "tract_id": "40109108110", "tract_name": "1081.10", "tags": {"building": "yes"}}}, {"type": "Feature", "geometry": {"type": "Polygon", "coordinates": [[[-97.4444083, 35.586212], [-97.4444017, 35.5864923], [-97.4441507, 35.5864884], [-97.4441573, 35.5862081], [-97.4444083, 35.586212]]]}, "properties": {"osm_id": 1230736768, "building": "yes", "name": "", "height": null, "height_m": null, "levels": null, "tract_id": "40109108110", "tract_name": "1081.10", "tags": {"building": "yes"}}}, {"type": "Feature", "geometry": {"type": "Polygon", "coordinates": [[[-97.4437368, 35.586096], [-97.4437371, 35.5860693], [-97.4436251, 35.5860683], [-97.4436269, 35.5859268], [-97.4436685, 35.5859272], [-97.443669, 35.5858827], [-97.4437393, 35.5858833], [-97.4437388, 35.5859193], [-97.4437573, 35.5859195], [-97.4437562, 35.5860008], [-97.4438417, 35.5860015], [-97.4438404, 35.5860969], [-97.4437368, 35.586096]]]}, "properties": {"osm_id": 1230736769, "building": "yes", "name": "", "height": null, "height_m": null, "levels": null, "tract_id": "40109108110", "tract_name": "1081.10", "tags": {"building": "yes"}}}, {"type": "Feature", "geometry": {"type": "Polygon", "coordinates": [[[-97.4454792, 35.587938], [-97.4454766, 35.5879192], [-97.4454712, 35.5879197], [-97.4454691, 35.5879049], [-97.4454833, 35.5879182], [-97.4455068, 35.5879016], [-97.4454971, 35.5878925], [-97.4455031, 35.5878908], [-97.445513, 35.5878983], [-97.4455686, 35.5878498], [-97.4454866, 35.5877876], [-97.4454246, 35.5878416], [-97.4454281, 35.5878442], [-97.4454236, 35.5878481], [-97.4454277, 35.5878512], [-97.4453874, 35.5878865], [-97.4453221, 35.587886], [-97.4453224, 35.5878578], [-97.4452646, 35.5878573], [-97.445266, 35.5877316], [-97.4452815, 35.5877381], [-97.445297, 35.5877136], [-97.4452747, 35.5877043], [-97.4452865, 35.5876856], [-97.4453282, 35.587703], [-97.4453718, 35.5876339], [-97.4451944, 35.58756], [-97.4451884, 35.5875694], [-97.4451267, 35.5875439], [-97.445103, 35.5875819], [-97.445137, 35.587596], [-97.4451206, 35.5876222], [-97.4451857, 35.587649], [-97.4451613, 35.5876882], [-97.4451431, 35.5876807], [-97.4451143, 35.5877269], [-97.4451147, 35.5877864], [-97.4451054, 35.5877864], [-97.4451064, 35.5879671], [-97.445179, 35.5879669], [-97.4451794, 35.5880235], [-97.4451928, 35.5880235], [-97.4452095, 35.5880119], [-97.445244, 35.588008], [-97.4452639, 35.5879888], [-97.4452656, 35.5879697], [-97.4452948, 35.5879714], [-97.4452932, 35.5879888], [-97.4453058, 35.5880023], [-97.4453497, 35.5880023], [-97.4453497, 35.5880119], [-97.4453802, 35.5880304], [-97.4453806, 35.588079], [-97.4453526, 35.5880714], [-97.4453505, 35.5880594], [-97.4453149, 35.5880587], [-97.4453158, 35.5880754], [-97.4453257, 35.5880758], [-97.4453209, 35.588086], [-97.4453248, 35.5881027], [-97.4453443, 35.5880997], [-97.4453465, 35.5881091], [-97.4453412, 35.588124], [-97.4453463, 35.5881732], [-97.4453723, 35.5881746], [-97.4454801, 35.5881686], [-97.4454773, 35.5881355], [-97.445489, 35.5881384], [-97.4454965, 35.5881187], [-97.4454736, 35.5880549], [-97.4454688, 35.5880081], [-97.4454967, 35.5880063], [-97.4454955, 35.5879946], [-97.4454778, 35.5879915], [-97.4454757, 35.5879761], [-97.4454993, 35.587974], [-97.4454942, 35.5879367], [-97.4454792, 35.587938]]]}, "properties": {"osm_id": 1230736770, "building": "house", "name": "", "height": null, "height_m": null, "levels": null, "tract_id": "40109108110", "tract_name": "1081.10", "tags": {"building": "house"}}}, {"type": "Feature", "geometry": {"type": "Polygon", "coordinates": [[[-97.4455252, 35.5883522], [-97.4455017, 35.5882733], [-97.445358, 35.5883003], [-97.4453867, 35.5883782], [-97.4455252, 35.5883522]]]}, "properties": {"osm_id": 1230736772, "building": "yes", "name": "", "height": null, "height_m": null, "levels": null, "tract_id": "40109108110", "tract_name": "1081.10", "tags": {"building": "yes"}}}, {"type": "Feature", "geometry": {"type": "Polygon", "coordinates": [[[-97.4446169, 35.5882146], [-97.4446178, 35.5883051], [-97.4448229, 35.5883039], [-97.4448286, 35.5882889], [-97.4448497, 35.5882888], [-97.4448486, 35.5881576], [-97.4446782, 35.5881585], [-97.4446787, 35.5882142], [-97.4446169, 35.5882146]]]}, "properties": {"osm_id": 1230736775, "building": "house", "name": "", "height": null, "height_m": null, "levels": null, "tract_id": "40109108110", "tract_name": "1081.10", "tags": {"building": "house"}}}, {"type": "Feature", "geometry": {"type": "Polygon", "coordinates": [[[-97.4443186, 35.5883262], [-97.4442933, 35.5882611], [-97.4442779, 35.5882651], [-97.4442595, 35.5882179], [-97.4442281, 35.588226], [-97.4442148, 35.5881918], [-97.444071, 35.5882288], [-97.4440838, 35.5882616], [-97.4440564, 35.5882687], [-97.4440835, 35.5883382], [-97.4441056, 35.5883325], [-97.4441228, 35.5883766], [-97.4443186, 35.5883262]]]}, "properties": {"osm_id": 1230736776, "building": "house", "name": "", "height": null, "height_m": null, "levels": null, "tract_id": "40109108110", "tract_name": "1081.10", "tags": {"building": "house"}}}, {"type": "Feature", "geometry": {"type": "Polygon", "coordinates": [[[-97.4441655, 35.5879961], [-97.4442687, 35.5879961], [-97.4442687, 35.5879803], [-97.4442976, 35.5879803], [-97.4442975, 35.587883], [-97.4442809, 35.5878792], [-97.4442809, 35.5878585], [-97.444154, 35.5878585], [-97.444154, 35.5879479], [-97.4441655, 35.5879479], [-97.4441655, 35.5879961]]]}, "properties": {"osm_id": 1230736777, "building": "house", "name": "", "height": null, "height_m": null, "levels": null, "tract_id": "40109108110", "tract_name": "1081.10", "tags": {"building": "house"}}}, {"type": "Feature", "geometry": {"type": "Polygon", "coordinates": [[[-97.4447886, 35.5889895], [-97.4448779, 35.5889497], [-97.4449225, 35.5890159], [-97.4448331, 35.5890557], [-97.4447886, 35.5889895]]]}, "properties": {"osm_id": 1230736778, "building": "yes", "name": "", "height": null, "height_m": null, "levels": null, "tract_id": "40109108110", "tract_name": "1081.10", "tags": {"amenity": "toilets", "building": "yes"}}}, {"type": "Feature", "geometry": {"type": "Polygon", "coordinates": [[[-97.4446213, 35.5878121], [-97.4447662, 35.5877516], [-97.4447484, 35.5877234], [-97.4447705, 35.5877141], [-97.4447343, 35.5876567], [-97.4447465, 35.5876442], [-97.4447175, 35.5876017], [-97.4444866, 35.5877056], [-97.4445454, 35.5877919], [-97.4445982, 35.5877681], [-97.4446001, 35.5877713], [-97.4445967, 35.5877728], [-97.4446213, 35.5878121]]]}, "properties": {"osm_id": 1230736781, "building": "house", "name": "", "height": null, "height_m": null, "levels": null, "tract_id": "40109108110", "tract_name": "1081.10", "tags": {"building": "house"}}}, {"type": "Feature", "geometry": {"type": "Polygon", "coordinates": [[[-97.4452269, 35.5894705], [-97.4453328, 35.5893823], [-97.4453335, 35.5893618], [-97.4453572, 35.5893623], [-97.4453579, 35.5893402], [-97.4454511, 35.5893422], [-97.4454519, 35.5893191], [-97.4454632, 35.5893156], [-97.4454654, 35.5892815], [-97.4454765, 35.5892819], [-97.4454793, 35.5892376], [-97.4454918, 35.5892381], [-97.4454931, 35.5892167], [-97.4454806, 35.5892162], [-97.4454828, 35.5891784], [-97.4454607, 35.5891775], [-97.4454627, 35.589144], [-97.4454237, 35.5891425], [-97.4454241, 35.5891347], [-97.4452797, 35.5891294], [-97.4452745, 35.5892221], [-97.4452478, 35.5892211], [-97.4452436, 35.5892964], [-97.4452027, 35.5892949], [-97.4451066, 35.5893749], [-97.4452269, 35.5894705]]]}, "properties": {"osm_id": 1230736782, "building": "house", "name": "", "height": null, "height_m": null, "levels": null, "tract_id": "40109108110", "tract_name": "1081.10", "tags": {"building": "house"}}}, {"type": "Feature", "geometry": {"type": "Polygon", "coordinates": [[[-97.4419622, 35.5922045], [-97.441961, 35.5920975], [-97.4419461, 35.5920977], [-97.4419458, 35.5920768], [-97.4419222, 35.592077], [-97.441922, 35.5920551], [-97.4417929, 35.592056], [-97.4417932, 35.5920802], [-97.4417736, 35.5920803], [-97.441775, 35.5922059], [-97.4419622, 35.5922045]]]}, "properties": {"osm_id": 1230736784, "building": "house", "name": "", "height": null, "height_m": null, "levels": null, "tract_id": "40109108110", "tract_name": "1081.10", "tags": {"building": "house"}}}, {"type": "Feature", "geometry": {"type": "Polygon", "coordinates": [[[-97.4421709, 35.5916879], [-97.4421709, 35.5916718], [-97.4421907, 35.5916719], [-97.4421909, 35.5915619], [-97.4421642, 35.5915619], [-97.4421643, 35.5915423], [-97.4420127, 35.5915421], [-97.4420124, 35.5916877], [-97.4421709, 35.5916879]]]}, "properties": {"osm_id": 1230736787, "building": "house", "name": "", "height": null, "height_m": null, "levels": null, "tract_id": "40109108110", "tract_name": "1081.10", "tags": {"building": "house"}}}, {"type": "Feature", "geometry": {"type": "Polygon", "coordinates": [[[-97.4421734, 35.5915224], [-97.4421734, 35.5915064], [-97.4421932, 35.5915064], [-97.4421934, 35.5913964], [-97.4421667, 35.5913964], [-97.4421667, 35.5913768], [-97.4420152, 35.5913766], [-97.4420149, 35.5915222], [-97.4421734, 35.5915224]]]}, "properties": {"osm_id": 1230736788, "building": "house", "name": "", "height": null, "height_m": null, "levels": null, "tract_id": "40109108110", "tract_name": "1081.10", "tags": {"building": "house"}}}, {"type": "Feature", "geometry": {"type": "Polygon", "coordinates": [[[-97.4417639, 35.5918724], [-97.4417639, 35.5918563], [-97.4417837, 35.5918564], [-97.4417839, 35.5917464], [-97.4417572, 35.5917464], [-97.4417572, 35.5917268], [-97.4416057, 35.5917266], [-97.4416054, 35.5918722], [-97.4417639, 35.5918724]]]}, "properties": {"osm_id": 1230736789, "building": "house", "name": "", "height": null, "height_m": null, "levels": null, "tract_id": "40109108110", "tract_name": "1081.10", "tags": {"building": "house"}}}, {"type": "Feature", "geometry": {"type": "Polygon", "coordinates": [[[-97.4417603, 35.5916965], [-97.4417604, 35.5916805], [-97.4417801, 35.5916805], [-97.4417804, 35.5915706], [-97.4417537, 35.5915705], [-97.4417537, 35.5915509], [-97.4416022, 35.5915507], [-97.4416019, 35.5916963], [-97.4417603, 35.5916965]]]}, "properties": {"osm_id": 1230736790, "building": "house", "name": "", "height": null, "height_m": null, "levels": null, "tract_id": "40109108110", "tract_name": "1081.10", "tags": {"building": "house"}}}, {"type": "Feature", "geometry": {"type": "Polygon", "coordinates": [[[-97.4417632, 35.5915313], [-97.4417632, 35.5915153], [-97.441783, 35.5915153], [-97.4417832, 35.5914054], [-97.4417565, 35.5914053], [-97.4417565, 35.5913857], [-97.441605, 35.5913855], [-97.4416047, 35.5915311], [-97.4417632, 35.5915313]]]}, "properties": {"osm_id": 1230736791, "building": "house", "name": "", "height": null, "height_m": null, "levels": null, "tract_id": "40109108110", "tract_name": "1081.10", "tags": {"building": "house"}}}, {"type": "Feature", "geometry": {"type": "Polygon", "coordinates": [[[-97.4411081, 35.5919009], [-97.4411081, 35.5918848], [-97.4411279, 35.5918848], [-97.4411281, 35.5917749], [-97.4411014, 35.5917749], [-97.4411014, 35.5917552], [-97.4409499, 35.5917551], [-97.4409496, 35.5919007], [-97.4411081, 35.5919009]]]}, "properties": {"osm_id": 1230736792, "building": "house", "name": "", "height": null, "height_m": null, "levels": null, "tract_id": "40109108110", "tract_name": "1081.10", "tags": {"building": "house"}}}, {"type": "Feature", "geometry": {"type": "Polygon", "coordinates": [[[-97.4411116, 35.5917348], [-97.4411116, 35.5917188], [-97.4411314, 35.5917188], [-97.4411317, 35.5916088], [-97.4411049, 35.5916088], [-97.441105, 35.5915892], [-97.4409534, 35.591589], [-97.4409531, 35.5917346], [-97.4411116, 35.5917348]]]}, "properties": {"osm_id": 1230736793, "building": "house", "name": "", "height": null, "height_m": null, "levels": null, "tract_id": "40109108110", "tract_name": "1081.10", "tags": {"building": "house"}}}, {"type": "Feature", "geometry": {"type": "Polygon", "coordinates": [[[-97.4411035, 35.5915731], [-97.4411035, 35.591557], [-97.4411233, 35.591557], [-97.4411235, 35.5914471], [-97.4410968, 35.5914471], [-97.4410968, 35.5914274], [-97.4409453, 35.5914272], [-97.440945, 35.5915728], [-97.4411035, 35.5915731]]]}, "properties": {"osm_id": 1230736794, "building": "house", "name": "", "height": null, "height_m": null, "levels": null, "tract_id": "40109108110", "tract_name": "1081.10", "tags": {"building": "house"}}}, {"type": "Feature", "geometry": {"type": "Polygon", "coordinates": [[[-97.4413992, 35.591869], [-97.4413992, 35.591853], [-97.4413794, 35.591853], [-97.4413796, 35.591743], [-97.4414063, 35.591743], [-97.4414064, 35.5917234], [-97.4415579, 35.5917236], [-97.4415576, 35.5918692], [-97.4413992, 35.591869]]]}, "properties": {"osm_id": 1230736795, "building": "house", "name": "", "height": null, "height_m": null, "levels": null, "tract_id": "40109108110", "tract_name": "1081.10", "tags": {"building": "house"}}}, {"type": "Feature", "geometry": {"type": "Polygon", "coordinates": [[[-97.4413907, 35.5917024], [-97.4413907, 35.5916863], [-97.4413709, 35.5916863], [-97.4413711, 35.5915764], [-97.4413978, 35.5915764], [-97.4413979, 35.5915568], [-97.4415494, 35.591557], [-97.4415491, 35.5917026], [-97.4413907, 35.5917024]]]}, "properties": {"osm_id": 1230736796, "building": "house", "name": "", "height": null, "height_m": null, "levels": null, "tract_id": "40109108110", "tract_name": "1081.10", "tags": {"building": "house"}}}, {"type": "Feature", "geometry": {"type": "Polygon", "coordinates": [[[-97.4413974, 35.591534], [-97.4413974, 35.591518], [-97.4413776, 35.591518], [-97.4413778, 35.591408], [-97.4414046, 35.591408], [-97.4414046, 35.5913884], [-97.4415561, 35.5913886], [-97.4415558, 35.5915342], [-97.4413974, 35.591534]]]}, "properties": {"osm_id": 1230736797, "building": "house", "name": "", "height": null, "height_m": null, "levels": null, "tract_id": "40109108110", "tract_name": "1081.10", "tags": {"building": "house"}}}, {"type": "Feature", "geometry": {"type": "Polygon", "coordinates": [[[-97.4421885, 35.592383], [-97.4421886, 35.592367], [-97.4422084, 35.592367], [-97.4422086, 35.592257], [-97.4421819, 35.592257], [-97.4421819, 35.5922374], [-97.4420304, 35.5922372], [-97.4420301, 35.5923828], [-97.4421885, 35.592383]]]}, "properties": {"osm_id": 1230736798, "building": "house", "name": "", "height": null, "height_m": null, "levels": null, "tract_id": "40109108110", "tract_name": "1081.10", "tags": {"addr:housenumber": "12016", "addr:street": "Rivers Trail", "building": "house"}}}, {"type": "Feature", "geometry": {"type": "Polygon", "coordinates": [[[-97.4410965, 35.5913795], [-97.4411041, 35.5913647], [-97.4411224, 35.591371], [-97.4411747, 35.5912696], [-97.4411501, 35.5912612], [-97.4411594, 35.5912431], [-97.4410197, 35.5911954], [-97.4409504, 35.5913296], [-97.4410965, 35.5913795]]]}, "properties": {"osm_id": 1230736799, "building": "house", "name": "", "height": null, "height_m": null, "levels": null, "tract_id": "40109108110", "tract_name": "1081.10", "tags": {"building": "house"}}}, {"type": "Feature", "geometry": {"type": "Polygon", "coordinates": [[[-97.4414243, 35.5911865], [-97.441444, 35.5911857], [-97.441445, 35.5912017], [-97.44158, 35.5911962], [-97.4415787, 35.5911745], [-97.4416028, 35.5911735], [-97.4415951, 35.5910505], [-97.4414163, 35.5910578], [-97.4414243, 35.5911865]]]}, "properties": {"osm_id": 1230736800, "building": "house", "name": "", "height": null, "height_m": null, "levels": null, "tract_id": "40109108110", "tract_name": "1081.10", "tags": {"building": "house"}}}, {"type": "Feature", "geometry": {"type": "Polygon", "coordinates": [[[-97.441639, 35.5911891], [-97.4416587, 35.5911883], [-97.4416597, 35.5912044], [-97.4417947, 35.5911989], [-97.4417933, 35.5911772], [-97.4418174, 35.5911762], [-97.4418098, 35.5910531], [-97.441631, 35.5910604], [-97.441639, 35.5911891]]]}, "properties": {"osm_id": 1230736801, "building": "house", "name": "", "height": null, "height_m": null, "levels": null, "tract_id": "40109108110", "tract_name": "1081.10", "tags": {"building": "house"}}}, {"type": "Feature", "geometry": {"type": "Polygon", "coordinates": [[[-97.4418373, 35.5911891], [-97.4418571, 35.5911883], [-97.441858, 35.5912044], [-97.4419931, 35.5911989], [-97.4419917, 35.5911772], [-97.4420158, 35.5911762], [-97.4420082, 35.5910531], [-97.4418294, 35.5910604], [-97.4418373, 35.5911891]]]}, "properties": {"osm_id": 1230736802, "building": "house", "name": "", "height": null, "height_m": null, "levels": null, "tract_id": "40109108110", "tract_name": "1081.10", "tags": {"building": "house"}}}, {"type": "Feature", "geometry": {"type": "Polygon", "coordinates": [[[-97.4420427, 35.5911865], [-97.4420624, 35.5911857], [-97.4420634, 35.5912017], [-97.4421984, 35.5911962], [-97.442197, 35.5911745], [-97.4422211, 35.5911735], [-97.4422135, 35.5910505], [-97.4420347, 35.5910578], [-97.4420427, 35.5911865]]]}, "properties": {"osm_id": 1230736803, "building": "house", "name": "", "height": null, "height_m": null, "levels": null, "tract_id": "40109108110", "tract_name": "1081.10", "tags": {"building": "house"}}}, {"type": "Feature", "geometry": {"type": "Polygon", "coordinates": [[[-97.441199, 35.5912377], [-97.4412171, 35.5912313], [-97.4412249, 35.5912461], [-97.4413491, 35.5912026], [-97.4413385, 35.5911826], [-97.4413606, 35.5911748], [-97.4413006, 35.5910617], [-97.4411362, 35.5911194], [-97.441199, 35.5912377]]]}, "properties": {"osm_id": 1230736804, "building": "house", "name": "", "height": null, "height_m": null, "levels": null, "tract_id": "40109108110", "tract_name": "1081.10", "tags": {"building": "house"}}}, {"type": "Feature", "geometry": {"type": "Polygon", "coordinates": [[[-97.4367625, 35.5918956], [-97.4366338, 35.5918411], [-97.4369825, 35.5913112], [-97.4371139, 35.5913701], [-97.4367625, 35.5918956]]]}, "properties": {"osm_id": 1230736805, "building": "yes", "name": "", "height": null, "height_m": null, "levels": null, "tract_id": "40109108110", "tract_name": "1081.10", "tags": {"building": "yes", "tourism": "hotel"}}}, {"type": "Feature", "geometry": {"type": "Polygon", "coordinates": [[[-97.4398701, 35.5861735], [-97.4398827, 35.5861855], [-97.4398898, 35.5862002], [-97.4398905, 35.586216], [-97.4398847, 35.5862311], [-97.4398732, 35.5862438], [-97.4398571, 35.5862527], [-97.4398383, 35.5862568], [-97.4398195, 35.5862557], [-97.4398021, 35.5862498], [-97.439788, 35.5862397], [-97.4397785, 35.5862264], [-97.4397748, 35.5862114], [-97.4397772, 35.5861962], [-97.4397855, 35.5861824], [-97.4397987, 35.5861715], [-97.4398156, 35.5861647], [-97.4398342, 35.5861625], [-97.4398533, 35.5861655], [-97.4398701, 35.5861735]]]}, "properties": {"osm_id": 1279220075, "building": "yes", "name": "Rocky's Ranger Planes", "height": null, "height_m": null, "levels": null, "tract_id": "40109108110", "tract_name": "1081.10", "tags": {"attraction": "amusement_ride", "building": "yes", "name": "Rocky's Ranger Planes"}}}, {"type": "Feature", "geometry": {"type": "Polygon", "coordinates": [[[-97.4396256, 35.5861459], [-97.4394802, 35.5860928], [-97.4395014, 35.5860545], [-97.4396467, 35.5861077], [-97.4396256, 35.5861459]]]}, "properties": {"osm_id": 1279220076, "building": "yes", "name": "Frankies Mine Train", "height": null, "height_m": null, "levels": null, "tract_id": "40109108110", "tract_name": "1081.10", "tags": {"building": "yes", "name": "Frankies Mine Train", "roller_coaster": "station"}}}, {"type": "Feature", "geometry": {"type": "Polygon", "coordinates": [[[-97.4393715, 35.5861185], [-97.4393207, 35.5860954], [-97.439365, 35.586031], [-97.4394158, 35.5860541], [-97.4393715, 35.5861185]]]}, "properties": {"osm_id": 1279220077, "building": "yes", "name": "", "height": null, "height_m": null, "levels": null, "tract_id": "40109108110", "tract_name": "1081.10", "tags": {"building": "yes"}}}, {"type": "Feature", "geometry": {"type": "Polygon", "coordinates": [[[-97.4404823, 35.5837961], [-97.4404055, 35.5837655], [-97.440472, 35.583655], [-97.4405564, 35.5836887], [-97.4405278, 35.583736], [-97.4405572, 35.5837477], [-97.4405336, 35.5837868], [-97.4404967, 35.5837721], [-97.4404823, 35.5837961]]]}, "properties": {"osm_id": 1279220082, "building": "yes", "name": "Steel Lasso", "height": null, "height_m": null, "levels": null, "tract_id": "40109108110", "tract_name": "1081.10", "tags": {"building": "yes", "name": "Steel Lasso", "roller_coaster": "station"}}}, {"type": "Feature", "geometry": {"type": "Polygon", "coordinates": [[[-97.441001, 35.5835062], [-97.4409351, 35.5835193], [-97.4409225, 35.5834775], [-97.4409424, 35.5834735], [-97.4409267, 35.5834213], [-97.4409727, 35.5834122], [-97.441001, 35.5835062]]]}, "properties": {"osm_id": 1279220083, "building": "yes", "name": "Tin Lizzie's Pump House", "height": null, "height_m": null, "levels": null, "tract_id": "40109108110", "tract_name": "1081.10", "tags": {"amenity": "restaurant", "building": "yes", "name": "Tin Lizzie's Pump House"}}}, {"type": "Feature", "geometry": {"type": "Polygon", "coordinates": [[[-97.4424062, 35.5822632], [-97.4423725, 35.5822709], [-97.4423527, 35.5822754], [-97.4423252, 35.5822817], [-97.4423163, 35.5822559], [-97.4423039, 35.5822199], [-97.4423848, 35.5822014], [-97.4424062, 35.5822632]]]}, "properties": {"osm_id": 1279220084, "building": "yes", "name": "Gully Washer", "height": null, "height_m": null, "levels": null, "tract_id": "40109108110", "tract_name": "1081.10", "tags": {"attraction": "amusement_ride", "building": "yes", "name": "Gully Washer"}}}, {"type": "Feature", "geometry": {"type": "Polygon", "coordinates": [[[-97.440649, 35.5953071], [-97.4406476, 35.5954158], [-97.4404484, 35.5954142], [-97.4404492, 35.5953546], [-97.4405157, 35.5953551], [-97.4405163, 35.5953061], [-97.440649, 35.5953071]]]}, "properties": {"osm_id": 1343778552, "building": "yes", "name": "", "height": null, "height_m": null, "levels": null, "tract_id": "40109108110", "tract_name": "1081.10", "tags": {"building": "yes"}}}, {"type": "Feature", "geometry": {"type": "Polygon", "coordinates": [[[-97.4416206, 35.596283], [-97.4416183, 35.5964074], [-97.4414352, 35.5964051], [-97.4414375, 35.5962807], [-97.4416206, 35.596283]]]}, "properties": {"osm_id": 1414216240, "building": "yes", "name": "", "height": null, "height_m": null, "levels": null, "tract_id": "40109108110", "tract_name": "1081.10", "tags": {"building": "yes"}}}, {"type": "Feature", "geometry": {"type": "Polygon", "coordinates": [[[-97.4461119, 35.5797285], [-97.4461179, 35.5795127], [-97.4461111, 35.5793703], [-97.4460039, 35.5793704], [-97.4460041, 35.5795127], [-97.4460045, 35.5797286], [-97.4461119, 35.5797285]]]}, "properties": {"osm_id": 1428287145, "building": "roof", "name": "", "height": null, "height_m": null, "levels": null, "tract_id": "40109108110", "tract_name": "1081.10", "tags": {"building": "roof", "layer": "1"}}}, {"type": "Feature", "geometry": {"type": "Polygon", "coordinates": [[[-97.4450005, 35.5797241], [-97.4449976, 35.5792934], [-97.444892, 35.5792938], [-97.4448949, 35.5797246], [-97.4450005, 35.5797241]]]}, "properties": {"osm_id": 1428287146, "building": "roof", "name": "", "height": null, "height_m": null, "levels": null, "tract_id": "40109108110", "tract_name": "1081.10", "tags": {"building": "roof", "layer": "1"}}}, {"type": "Feature", "geometry": {"type": "Polygon", "coordinates": [[[-97.4450017, 35.5792064], [-97.4449963, 35.5789051], [-97.4448908, 35.5789064], [-97.4448961, 35.5792076], [-97.4450017, 35.5792064]]]}, "properties": {"osm_id": 1428287147, "building": "roof", "name": "", "height": null, "height_m": null, "levels": null, "tract_id": "40109108110", "tract_name": "1081.10", "tags": {"building": "roof", "layer": "1"}}}, {"type": "Feature", "geometry": {"type": "Polygon", "coordinates": [[[-97.4454824, 35.5796377], [-97.4454836, 35.5793337], [-97.4452494, 35.5793331], [-97.4452482, 35.5796371], [-97.4454824, 35.5796377]]]}, "properties": {"osm_id": 1428287148, "building": "retail", "name": "", "height": null, "height_m": null, "levels": null, "tract_id": "40109108110", "tract_name": "1081.10", "tags": {"building": "retail", "shop": "convenience"}}}]}