{"type": "FeatureCollection", "features": [{"type": "Feature", "geometry": {"type": "Polygon", "coordinates": [[[-97.3666902, 35.6518094], [-97.3665968, 35.6518318], [-97.3665552, 35.6517168], [-97.3662588, 35.6517877], [-97.3662284, 35.6517036], [-97.3666181, 35.6516104], [-97.3666902, 35.6518094]]]}, "properties": {"osm_id": 197866213, "building": "yes", "name": "", "height": null, "height_m": null, "levels": null, "tract_id": "40109109205", "tract_name": "1092.05", "tags": {"building": "yes"}}}, {"type": "Feature", "geometry": {"type": "Polygon", "coordinates": [[[-97.4234761, 35.6199391], [-97.423471, 35.6192196], [-97.4237405, 35.6192183], [-97.4237457, 35.6199378], [-97.4234761, 35.6199391]]]}, "properties": {"osm_id": 229839024, "building": "yes", "name": "", "height": null, "height_m": null, "levels": null, "tract_id": "40109109205", "tract_name": "1092.05", "tags": {"building": "yes", "source": "Bing"}}}, {"type": "Feature", "geometry": {"type": "Polygon", "coordinates": [[[-97.4185858, 35.6447165], [-97.4186865, 35.6447612], [-97.4187493, 35.6447891], [-97.4188097, 35.6446942], [-97.4187464, 35.6446689], [-97.4186421, 35.6446272], [-97.4186929, 35.6445468], [-97.4185693, 35.6444954], [-97.4186256, 35.6444151], [-97.4186009, 35.6444039], [-97.4186847, 35.6442635], [-97.418663, 35.6442515], [-97.4186847, 35.64422], [-97.4186956, 35.6442244], [-97.4187386, 35.6441552], [-97.4187642, 35.644114], [-97.4186338, 35.6440524], [-97.4186067, 35.6440948], [-97.4185628, 35.6441635], [-97.4185729, 35.6441685], [-97.4185284, 35.6442326], [-97.4184363, 35.6441914], [-97.4183193, 35.6437149], [-97.4183318, 35.6437206], [-97.4186102, 35.643307], [-97.4183555, 35.6431942], [-97.4180854, 35.643612], [-97.4182653, 35.6436932], [-97.4183454, 35.6440342], [-97.4181502, 35.6440682], [-97.4181214, 35.6440512], [-97.4179373, 35.6443291], [-97.4181121, 35.6444065], [-97.4181157, 35.644401], [-97.4182044, 35.6444446], [-97.4180608, 35.6446646], [-97.4182017, 35.6452633], [-97.418492, 35.6453884], [-97.4185365, 35.6453171], [-97.4186209, 35.6453513], [-97.4186792, 35.6452616], [-97.418337, 35.6451129], [-97.4183351, 35.6450986], [-97.418394, 35.6450049], [-97.4184966, 35.6450523], [-97.4185564, 35.6450799], [-97.4186163, 35.6449876], [-97.4185527, 35.6449593], [-97.4184491, 35.6449132], [-97.4185858, 35.6447165]]]}, "properties": {"osm_id": 258219920, "building": "hospital", "name": "", "height": null, "height_m": null, "levels": null, "tract_id": "40109109205", "tract_name": "1092.05", "tags": {"building": "hospital", "source": "Bing"}}}, {"type": "Feature", "geometry": {"type": "Polygon", "coordinates": [[[-97.409854, 35.6256659], [-97.4098202, 35.625631], [-97.4097478, 35.6256773], [-97.4097816, 35.6257122], [-97.409854, 35.6256659]]]}, "properties": {"osm_id": 291366785, "building": "yes", "name": "", "height": null, "height_m": null, "levels": null, "tract_id": "40109109205", "tract_name": "1092.05", "tags": {"building": "yes"}}}, {"type": "Feature", "geometry": {"type": "Polygon", "coordinates": [[[-97.4128057, 35.6264877], [-97.4127879, 35.6265628], [-97.4127194, 35.6265521], [-97.4127371, 35.626477], [-97.4127725, 35.6264826], [-97.4128057, 35.6264877]]]}, "properties": {"osm_id": 291366788, "building": "yes", "name": "", "height": null, "height_m": null, "levels": null, "tract_id": "40109109205", "tract_name": "1092.05", "tags": {"building": "yes"}}}, {"type": "Feature", "geometry": {"type": "Polygon", "coordinates": [[[-97.4099975, 35.6241709], [-97.4099901, 35.6241708], [-97.4098427, 35.6241696], [-97.4098422, 35.6242122], [-97.4098393, 35.6244462], [-97.4099941, 35.6244475], [-97.4099975, 35.6241709]]]}, "properties": {"osm_id": 291366789, "building": "yes", "name": "", "height": null, "height_m": null, "levels": null, "tract_id": "40109109205", "tract_name": "1092.05", "tags": {"building": "yes"}}}, {"type": "Feature", "geometry": {"type": "Polygon", "coordinates": [[[-97.409131, 35.6239789], [-97.4091303, 35.6240381], [-97.4091214, 35.6240472], [-97.4090717, 35.6240468], [-97.4090558, 35.6240467], [-97.4090567, 35.6239783], [-97.409131, 35.6239789]]]}, "properties": {"osm_id": 291366796, "building": "yes", "name": "", "height": null, "height_m": null, "levels": null, "tract_id": "40109109205", "tract_name": "1092.05", "tags": {"building": "yes"}}}, {"type": "Feature", "geometry": {"type": "Polygon", "coordinates": [[[-97.4094506, 35.6239483], [-97.4094483, 35.6238282], [-97.4094482, 35.623821], [-97.4093485, 35.6238223], [-97.4093509, 35.6239496], [-97.4093707, 35.6239493], [-97.4094506, 35.6239483]]]}, "properties": {"osm_id": 291366799, "building": "yes", "name": "", "height": null, "height_m": null, "levels": null, "tract_id": "40109109205", "tract_name": "1092.05", "tags": {"building": "yes"}}}, {"type": "Feature", "geometry": {"type": "Polygon", "coordinates": [[[-97.3881911, 35.6381749], [-97.388191, 35.6382063], [-97.3882704, 35.6382066], [-97.3882706, 35.6381752], [-97.3881911, 35.6381749]]]}, "properties": {"osm_id": 376777696, "building": "yes", "name": "", "height": null, "height_m": null, "levels": null, "tract_id": "40109109205", "tract_name": "1092.05", "tags": {"barrier": "toll_booth", "building": "yes", "description": "Payment to use the Spring Creek Campground is collected here."}}}, {"type": "Feature", "geometry": {"type": "Polygon", "coordinates": [[[-97.3920506, 35.6431233], [-97.3920516, 35.6430718], [-97.3919634, 35.6430707], [-97.3919624, 35.6431222], [-97.3920506, 35.6431233]]]}, "properties": {"osm_id": 376777697, "building": "yes", "name": "", "height": null, "height_m": null, "levels": null, "tract_id": "40109109205", "tract_name": "1092.05", "tags": {"amenity": "toilets", "building": "yes"}}}, {"type": "Feature", "geometry": {"type": "Polygon", "coordinates": [[[-97.3855673, 35.6415531], [-97.3855707, 35.6414523], [-97.3854839, 35.6414495], [-97.3854777, 35.6415481], [-97.3855673, 35.6415531]]]}, "properties": {"osm_id": 376777699, "building": "yes", "name": "", "height": null, "height_m": null, "levels": null, "tract_id": "40109109205", "tract_name": "1092.05", "tags": {"amenity": "shelter", "building": "yes"}}}, {"type": "Feature", "geometry": {"type": "Polygon", "coordinates": [[[-97.3858266, 35.6410259], [-97.3858403, 35.6410762], [-97.3859264, 35.6410608], [-97.3859128, 35.6410105], [-97.3858266, 35.6410259]]]}, "properties": {"osm_id": 376777701, "building": "yes", "name": "", "height": null, "height_m": null, "levels": null, "tract_id": "40109109205", "tract_name": "1092.05", "tags": {"building": "yes"}}}, {"type": "Feature", "geometry": {"type": "Polygon", "coordinates": [[[-97.3823914, 35.637565], [-97.3824357, 35.6375647], [-97.3824345, 35.6374421], [-97.3823902, 35.6374424], [-97.3823914, 35.637565]]]}, "properties": {"osm_id": 376777703, "building": "yes", "name": "", "height": null, "height_m": null, "levels": null, "tract_id": "40109109205", "tract_name": "1092.05", "tags": {"amenity": "toilets", "building": "yes"}}}, {"type": "Feature", "geometry": {"type": "Polygon", "coordinates": [[[-97.3830981, 35.6408918], [-97.3831586, 35.6408765], [-97.3831324, 35.640808], [-97.3830719, 35.6408233], [-97.3830981, 35.6408918]]]}, "properties": {"osm_id": 376777704, "building": "yes", "name": "", "height": null, "height_m": null, "levels": null, "tract_id": "40109109205", "tract_name": "1092.05", "tags": {"amenity": "toilets", "building": "yes"}}}, {"type": "Feature", "geometry": {"type": "Polygon", "coordinates": [[[-97.3846215, 35.6410873], [-97.3846701, 35.6410542], [-97.3846133, 35.6409993], [-97.3845648, 35.6410324], [-97.3846215, 35.6410873]]]}, "properties": {"osm_id": 376777706, "building": "yes", "name": "", "height": null, "height_m": null, "levels": null, "tract_id": "40109109205", "tract_name": "1092.05", "tags": {"amenity": "toilets", "building": "yes"}}}, {"type": "Feature", "geometry": {"type": "Polygon", "coordinates": [[[-97.3828221, 35.6367868], [-97.3828631, 35.6367475], [-97.3827958, 35.6367011], [-97.3827548, 35.6367405], [-97.3828221, 35.6367868]]]}, "properties": {"osm_id": 376777707, "building": "yes", "name": "", "height": null, "height_m": null, "levels": null, "tract_id": "40109109205", "tract_name": "1092.05", "tags": {"amenity": "toilets", "building": "yes"}}}, {"type": "Feature", "geometry": {"type": "Polygon", "coordinates": [[[-97.3737265, 35.646836], [-97.3737283, 35.6468875], [-97.3738165, 35.6468855], [-97.3738147, 35.646834], [-97.3737265, 35.646836]]]}, "properties": {"osm_id": 376778311, "building": "yes", "name": "", "height": null, "height_m": null, "levels": null, "tract_id": "40109109205", "tract_name": "1092.05", "tags": {"amenity": "toilets", "building": "yes"}}}, {"type": "Feature", "geometry": {"type": "Polygon", "coordinates": [[[-97.37451, 35.6462822], [-97.3746337, 35.6462747], [-97.3746283, 35.6462042], [-97.374507, 35.6462092], [-97.37451, 35.6462822]]]}, "properties": {"osm_id": 376778315, "building": "yes", "name": "", "height": null, "height_m": null, "levels": null, "tract_id": "40109109205", "tract_name": "1092.05", "tags": {"amenity": "shelter", "building": "yes"}}}, {"type": "Feature", "geometry": {"type": "Polygon", "coordinates": [[[-97.3711176, 35.6483537], [-97.371173, 35.6483787], [-97.3712158, 35.648316], [-97.3711604, 35.648291], [-97.3711176, 35.6483537]]]}, "properties": {"osm_id": 376778326, "building": "yes", "name": "", "height": null, "height_m": null, "levels": null, "tract_id": "40109109205", "tract_name": "1092.05", "tags": {"amenity": "toilets", "building": "yes"}}}, {"type": "Feature", "geometry": {"type": "Polygon", "coordinates": [[[-97.3749629, 35.6480561], [-97.3750234, 35.6480408], [-97.3749972, 35.6479723], [-97.3749367, 35.6479876], [-97.3749629, 35.6480561]]]}, "properties": {"osm_id": 376778336, "building": "yes", "name": "", "height": null, "height_m": null, "levels": null, "tract_id": "40109109205", "tract_name": "1092.05", "tags": {"amenity": "toilets", "building": "yes"}}}, {"type": "Feature", "geometry": {"type": "Polygon", "coordinates": [[[-97.3819259, 35.6477347], [-97.381888, 35.6476934], [-97.3818337, 35.6477275], [-97.3818716, 35.6477689], [-97.3819259, 35.6477347]]]}, "properties": {"osm_id": 376778347, "building": "yes", "name": "", "height": null, "height_m": null, "levels": null, "tract_id": "40109109205", "tract_name": "1092.05", "tags": {"amenity": "toilets", "building": "yes"}}}, {"type": "Feature", "geometry": {"type": "Polygon", "coordinates": [[[-97.3727177, 35.6465326], [-97.3728291, 35.646488], [-97.3727916, 35.6464243], [-97.3726814, 35.6464658], [-97.3727177, 35.6465326]]]}, "properties": {"osm_id": 376778352, "building": "yes", "name": "", "height": null, "height_m": null, "levels": null, "tract_id": "40109109205", "tract_name": "1092.05", "tags": {"amenity": "shelter", "building": "yes"}}}, {"type": "Feature", "geometry": {"type": "Polygon", "coordinates": [[[-97.3839163, 35.6493511], [-97.3839768, 35.6493358], [-97.3839506, 35.6492673], [-97.3838901, 35.6492826], [-97.3839163, 35.6493511]]]}, "properties": {"osm_id": 376778353, "building": "yes", "name": "", "height": null, "height_m": null, "levels": null, "tract_id": "40109109205", "tract_name": "1092.05", "tags": {"amenity": "toilets", "building": "yes"}}}, {"type": "Feature", "geometry": {"type": "Polygon", "coordinates": [[[-97.3779001, 35.6483152], [-97.3779142, 35.6482649], [-97.3778282, 35.6482489], [-97.377814, 35.6482992], [-97.3779001, 35.6483152]]]}, "properties": {"osm_id": 376778354, "building": "yes", "name": "", "height": null, "height_m": null, "levels": null, "tract_id": "40109109205", "tract_name": "1092.05", "tags": {"amenity": "toilets", "building": "yes"}}}, {"type": "Feature", "geometry": {"type": "Polygon", "coordinates": [[[-97.3707671, 35.6474381], [-97.3708313, 35.6473519], [-97.3707575, 35.6473146], [-97.3706922, 35.6473978], [-97.3707671, 35.6474381]]]}, "properties": {"osm_id": 376778355, "building": "yes", "name": "", "height": null, "height_m": null, "levels": null, "tract_id": "40109109205", "tract_name": "1092.05", "tags": {"amenity": "shelter", "building": "yes"}}}, {"type": "Feature", "geometry": {"type": "Polygon", "coordinates": [[[-97.3943868, 35.6476078], [-97.3944265, 35.6476479], [-97.3944953, 35.647603], [-97.3944556, 35.6475629], [-97.3944262, 35.6475821], [-97.3943868, 35.6476078]]]}, "properties": {"osm_id": 376778356, "building": "yes", "name": "", "height": null, "height_m": null, "levels": null, "tract_id": "40109109205", "tract_name": "1092.05", "tags": {"amenity": "toilets", "building": "yes"}}}, {"type": "Feature", "geometry": {"type": "Polygon", "coordinates": [[[-97.3869273, 35.6470044], [-97.3869484, 35.647053], [-97.3870316, 35.6470291], [-97.3870105, 35.6469805], [-97.3869273, 35.6470044]]]}, "properties": {"osm_id": 376778357, "building": "yes", "name": "", "height": null, "height_m": null, "levels": null, "tract_id": "40109109205", "tract_name": "1092.05", "tags": {"amenity": "toilets", "building": "yes"}}}, {"type": "Feature", "geometry": {"type": "Polygon", "coordinates": [[[-97.3966755, 35.6312943], [-97.3966093, 35.6312402], [-97.3966916, 35.6311737], [-97.3967578, 35.6312278], [-97.3966755, 35.6312943]]]}, "properties": {"osm_id": 376779039, "building": "yes", "name": "", "height": null, "height_m": null, "levels": null, "tract_id": "40109109205", "tract_name": "1092.05", "tags": {"amenity": "shelter", "building": "yes"}}}, {"type": "Feature", "geometry": {"type": "Polygon", "coordinates": [[[-97.3973141, 35.6310499], [-97.3973181, 35.6310089], [-97.3974642, 35.6310183], [-97.3974602, 35.6310593], [-97.3973141, 35.6310499]]]}, "properties": {"osm_id": 376779040, "building": "yes", "name": "", "height": null, "height_m": null, "levels": null, "tract_id": "40109109205", "tract_name": "1092.05", "tags": {"amenity": "toilets", "building": "yes"}}}, {"type": "Feature", "geometry": {"type": "Polygon", "coordinates": [[[-97.4212758, 35.650163], [-97.4219022, 35.6496137], [-97.4218987, 35.6494325], [-97.4212262, 35.6489149], [-97.421074, 35.6490443], [-97.4209557, 35.6489811], [-97.4206024, 35.6492798], [-97.4206997, 35.6493559], [-97.4207029, 35.6493593], [-97.4207304, 35.649357], [-97.4211713, 35.649732], [-97.4209541, 35.6499259], [-97.4212758, 35.650163]]]}, "properties": {"osm_id": 422922133, "building": "church", "name": "LifeChurch", "height": null, "height_m": null, "levels": null, "tract_id": "40109109205", "tract_name": "1092.05", "tags": {"addr:city": "Edmond", "addr:housenumber": "4600", "addr:postcode": "73034", "addr:state": "OK", "addr:street": "East 2nd Street", "branch": "Edmond", "building": "church", "name": "LifeChurch", "website": "https://www.life.church/edmond/"}}}, {"type": "Feature", "geometry": {"type": "Polygon", "coordinates": [[[-97.4173484, 35.6509394], [-97.4173574, 35.6509193], [-97.41743, 35.6509401], [-97.4174256, 35.6509485], [-97.4175838, 35.6509969], [-97.4175876, 35.6509903], [-97.4177363, 35.6510389], [-97.4177325, 35.6510461], [-97.4177777, 35.6510599], [-97.4178239, 35.6509689], [-97.4178559, 35.650979], [-97.4178862, 35.6509176], [-97.4178553, 35.6509059], [-97.4178626, 35.6508877], [-97.417337, 35.6507275], [-97.4173069, 35.6506724], [-97.4172248, 35.6507218], [-97.4170531, 35.6507547], [-97.4167689, 35.6508497], [-97.4167998, 35.6510277], [-97.4168913, 35.6510161], [-97.416894, 35.6510408], [-97.4169321, 35.6510373], [-97.4169311, 35.651028], [-97.4170099, 35.6510197], [-97.4170565, 35.6509783], [-97.4170625, 35.6509812], [-97.4170921, 35.6509635], [-97.4170882, 35.650959], [-97.4171434, 35.6509378], [-97.4172208, 35.6509462], [-97.4172652, 35.6509384], [-97.4172891, 35.6509274], [-97.417301, 35.650925], [-97.4173484, 35.6509394]]]}, "properties": {"osm_id": 422922449, "building": "school", "name": "Oklahoma Christian High School", "height": null, "height_m": null, "levels": null, "tract_id": "40109109205", "tract_name": "1092.05", "tags": {"addr:city": "Edmond", "addr:housenumber": "4680", "addr:postcode": "73034", "addr:state": "OK", "addr:street": "East 2nd Street", "building": "school", "name": "Oklahoma Christian High School"}}}, {"type": "Feature", "geometry": {"type": "Polygon", "coordinates": [[[-97.4190901, 35.6503944], [-97.4191509, 35.6503374], [-97.4191739, 35.650352], [-97.4192127, 35.6503172], [-97.4192125, 35.6502749], [-97.4191929, 35.6502575], [-97.4192064, 35.6502419], [-97.4191865, 35.6502255], [-97.4192622, 35.6501609], [-97.4192835, 35.6501766], [-97.4193012, 35.6501601], [-97.4193213, 35.6501764], [-97.4193811, 35.6501732], [-97.4194252, 35.6501352], [-97.4194033, 35.6501184], [-97.4194629, 35.6500671], [-97.4191611, 35.6498392], [-97.4191375, 35.6498603], [-97.4191277, 35.6498517], [-97.4189956, 35.6497369], [-97.4186572, 35.6500291], [-97.4186902, 35.6500556], [-97.4188108, 35.6501458], [-97.4187917, 35.6501646], [-97.4190901, 35.6503944]]]}, "properties": {"osm_id": 422922536, "building": "school", "name": "Oklahoma Christian Middle School", "height": null, "height_m": null, "levels": null, "tract_id": "40109109205", "tract_name": "1092.05", "tags": {"addr:city": "Edmond", "addr:housenumber": "4680", "addr:postcode": "73034", "addr:state": "OK", "addr:street": "East 2nd Street", "building": "school", "leisure": "sports_hall", "name": "Oklahoma Christian Middle School"}}}, {"type": "Feature", "geometry": {"type": "Polygon", "coordinates": [[[-97.4198528, 35.6499068], [-97.4199095, 35.6495574], [-97.4194954, 35.6495143], [-97.4194901, 35.6495589], [-97.4193202, 35.6495373], [-97.4192883, 35.6497861], [-97.4193432, 35.6497932], [-97.4193414, 35.649822], [-97.4194441, 35.649835], [-97.4194405, 35.6498637], [-97.4198528, 35.6499068]]]}, "properties": {"osm_id": 422922620, "building": "school", "name": "Centennial Student Center", "height": null, "height_m": null, "levels": null, "tract_id": "40109109205", "tract_name": "1092.05", "tags": {"addr:city": "Edmond", "addr:housenumber": "4680", "addr:postcode": "73034", "addr:state": "OK", "addr:street": "East 2nd Street", "building": "school", "name": "Centennial Student Center"}}}, {"type": "Feature", "geometry": {"type": "Polygon", "coordinates": [[[-97.4203812, 35.6508224], [-97.4206918, 35.6505568], [-97.4203696, 35.6503272], [-97.4200613, 35.650589], [-97.4203812, 35.6508224]]]}, "properties": {"osm_id": 422922720, "building": "yes", "name": "", "height": null, "height_m": null, "levels": null, "tract_id": "40109109205", "tract_name": "1092.05", "tags": {"addr:city": "Edmond", "addr:housenumber": "4680", "addr:postcode": "73034", "addr:state": "OK", "addr:street": "East 2nd Street", "building": "yes"}}}, {"type": "Feature", "geometry": {"type": "Polygon", "coordinates": [[[-97.4211214, 35.6504619], [-97.4211238, 35.6503462], [-97.4213526, 35.65035], [-97.4213456, 35.6504676], [-97.4211214, 35.6504619]]]}, "properties": {"osm_id": 422923659, "building": "chapel", "name": "Prayer Chapel", "height": null, "height_m": null, "levels": null, "tract_id": "40109109205", "tract_name": "1092.05", "tags": {"building": "chapel", "name": "Prayer Chapel"}}}, {"type": "Feature", "geometry": {"type": "Polygon", "coordinates": [[[-97.4206823, 35.6408878], [-97.4207012, 35.6408786], [-97.4207242, 35.6408674], [-97.420746, 35.6408948], [-97.4212204, 35.6406775], [-97.4212008, 35.6406452], [-97.4212185, 35.6406376], [-97.4212389, 35.6406288], [-97.421264, 35.6406585], [-97.4214851, 35.6405571], [-97.4215973, 35.6406054], [-97.4215967, 35.6408156], [-97.4216305, 35.6408156], [-97.4216311, 35.6408361], [-97.4216316, 35.6408524], [-97.4215957, 35.6408519], [-97.4215924, 35.6413007], [-97.4216289, 35.6413007], [-97.4216296, 35.6413421], [-97.42163, 35.6413636], [-97.4216783, 35.64138], [-97.4217384, 35.6414003], [-97.421703, 35.641472], [-97.4216439, 35.6414512], [-97.4215842, 35.6414301], [-97.4215374, 35.6414136], [-97.4215363, 35.6413406], [-97.4213315, 35.6413397], [-97.4213061, 35.6413904], [-97.4212781, 35.6414464], [-97.4214481, 35.6415048], [-97.4213081, 35.6417854], [-97.4213348, 35.6417943], [-97.4211632, 35.6421378], [-97.4208625, 35.6420404], [-97.4208941, 35.6419784], [-97.4208647, 35.6419682], [-97.4210347, 35.6416323], [-97.4210042, 35.6416212], [-97.4210886, 35.6414543], [-97.4209878, 35.6414211], [-97.4210112, 35.6413605], [-97.4209519, 35.6413313], [-97.4209039, 35.6413809], [-97.4208222, 35.6413277], [-97.4206866, 35.6414698], [-97.4206545, 35.6414499], [-97.4203805, 35.6417407], [-97.42035, 35.6417199], [-97.4203043, 35.6417651], [-97.4200036, 35.6415743], [-97.4200232, 35.6415526], [-97.4199906, 35.6415331], [-97.4200673, 35.6414521], [-97.4201, 35.6414716], [-97.420136, 35.641434], [-97.4201066, 35.6414145], [-97.420185, 35.6413331], [-97.4202144, 35.6413525], [-97.4202362, 35.64133], [-97.4203838, 35.6414207], [-97.4204208, 35.6413795], [-97.4203048, 35.6413021], [-97.4205417, 35.6410591], [-97.4207482, 35.6411892], [-97.420832, 35.641098], [-97.4206943, 35.6409046], [-97.4206823, 35.6408878]]]}, "properties": {"osm_id": 558852987, "building": "yes", "name": "Henderson Hills Baptist Church", "height": null, "height_m": null, "levels": null, "tract_id": "40109109205", "tract_name": "1092.05", "tags": {"amenity": "place_of_worship", "building": "yes", "name": "Henderson Hills Baptist Church", "religion": "christian"}}}, {"type": "Feature", "geometry": {"type": "Polygon", "coordinates": [[[-97.4193467, 35.6416631], [-97.4192687, 35.6416874], [-97.4192664, 35.641695], [-97.4193021, 35.6417074], [-97.4192095, 35.6418841], [-97.4191081, 35.6418498], [-97.4189862, 35.6420837], [-97.4189504, 35.6420723], [-97.4189229, 35.642128], [-97.4188883, 35.6421166], [-97.4188807, 35.6421304], [-97.4188027, 35.6421056], [-97.4188116, 35.6420874], [-97.4187744, 35.6420746], [-97.4188045, 35.6420147], [-97.4187731, 35.6420048], [-97.4188906, 35.641771], [-97.418748, 35.6417225], [-97.4187608, 35.6416954], [-97.4186872, 35.6416703], [-97.4187006, 35.6416419], [-97.418686, 35.6416363], [-97.4187182, 35.641573], [-97.4187319, 35.641579], [-97.418748, 35.6415516], [-97.4188148, 35.6415749], [-97.4188324, 35.6415448], [-97.4190188, 35.6416066], [-97.4190492, 35.6415548], [-97.4190802, 35.6415653], [-97.4190874, 35.6415519], [-97.4191809, 35.6415844], [-97.419174, 35.6415972], [-97.4192361, 35.6416195], [-97.4193122, 35.6415941], [-97.4193274, 35.6416245], [-97.4193467, 35.6416631]]]}, "properties": {"osm_id": 558852989, "building": "yes", "name": "", "height": null, "height_m": null, "levels": null, "tract_id": "40109109205", "tract_name": "1092.05", "tags": {"amenity": "place_of_worship", "building": "yes", "religion": "christian"}}}, {"type": "Feature", "geometry": {"type": "Polygon", "coordinates": [[[-97.4223839, 35.6420984], [-97.4224226, 35.6420776], [-97.4224604, 35.6420572], [-97.4224778, 35.6420761], [-97.4224811, 35.6420797], [-97.4225459, 35.6420434], [-97.4226278, 35.6421432], [-97.4226876, 35.6421111], [-97.4227122, 35.6421375], [-97.4227185, 35.642134], [-97.4227401, 35.642122], [-97.4227871, 35.6421786], [-97.422757, 35.6421938], [-97.4227812, 35.6422223], [-97.4224526, 35.6424013], [-97.4224321, 35.6423743], [-97.422402, 35.6423892], [-97.4223574, 35.6423324], [-97.42238, 35.6423204], [-97.4223849, 35.6423178], [-97.4223622, 35.6422908], [-97.4224238, 35.642256], [-97.4223386, 35.642157], [-97.4224033, 35.6421207], [-97.4223839, 35.6420984]]]}, "properties": {"osm_id": 558852991, "building": "yes", "name": "", "height": null, "height_m": null, "levels": null, "tract_id": "40109109205", "tract_name": "1092.05", "tags": {"amenity": "place_of_worship", "building": "yes", "religion": "christian"}}}, {"type": "Feature", "geometry": {"type": "Polygon", "coordinates": [[[-97.3958044, 35.6336784], [-97.3957562, 35.6336705], [-97.3957741, 35.6335984], [-97.3958223, 35.6336063], [-97.3958044, 35.6336784]]]}, "properties": {"osm_id": 593454411, "building": "yes", "name": "", "height": null, "height_m": null, "levels": null, "tract_id": "40109109205", "tract_name": "1092.05", "tags": {"amenity": "toilets", "building": "yes"}}}, {"type": "Feature", "geometry": {"type": "Polygon", "coordinates": [[[-97.3976256, 35.6316613], [-97.3975987, 35.6316765], [-97.3975752, 35.631649], [-97.3976021, 35.6316338], [-97.3976256, 35.6316613]]]}, "properties": {"osm_id": 593454419, "building": "yes", "name": "Fee Collection Station", "height": null, "height_m": null, "levels": null, "tract_id": "40109109205", "tract_name": "1092.05", "tags": {"building": "yes", "name": "Fee Collection Station"}}}, {"type": "Feature", "geometry": {"type": "Polygon", "coordinates": [[[-97.389492, 35.6508033], [-97.389443, 35.6508038], [-97.3894417, 35.6507345], [-97.3894907, 35.6507339], [-97.389492, 35.6508033]]]}, "properties": {"osm_id": 594799172, "building": "yes", "name": "Fee Collection Station", "height": null, "height_m": null, "levels": null, "tract_id": "40109109205", "tract_name": "1092.05", "tags": {"building": "yes", "name": "Fee Collection Station"}}}, {"type": "Feature", "geometry": {"type": "Polygon", "coordinates": [[[-97.3902299, 35.649855], [-97.3900997, 35.6498605], [-97.3900935, 35.6497639], [-97.3901088, 35.6497633], [-97.3901028, 35.6496701], [-97.3902178, 35.6496652], [-97.3902299, 35.649855]]]}, "properties": {"osm_id": 594799180, "building": "yes", "name": "", "height": null, "height_m": null, "levels": null, "tract_id": "40109109205", "tract_name": "1092.05", "tags": {"building": "yes"}}}, {"type": "Feature", "geometry": {"type": "Polygon", "coordinates": [[[-97.3905958, 35.6498963], [-97.3905965, 35.6499701], [-97.3908021, 35.6499687], [-97.3908022, 35.6499803], [-97.3908439, 35.64998], [-97.3908435, 35.6499366], [-97.3907631, 35.6499372], [-97.3907627, 35.6498951], [-97.3905958, 35.6498963]]]}, "properties": {"osm_id": 594799183, "building": "yes", "name": "", "height": null, "height_m": null, "levels": null, "tract_id": "40109109205", "tract_name": "1092.05", "tags": {"building": "yes"}}}, {"type": "Feature", "geometry": {"type": "Polygon", "coordinates": [[[-97.3908948, 35.6497092], [-97.3907601, 35.6497092], [-97.3907601, 35.649821], [-97.3908948, 35.649821], [-97.3908948, 35.6497092]]]}, "properties": {"osm_id": 594799185, "building": "yes", "name": "", "height": null, "height_m": null, "levels": null, "tract_id": "40109109205", "tract_name": "1092.05", "tags": {"building": "yes"}}}, {"type": "Feature", "geometry": {"type": "Polygon", "coordinates": [[[-97.390082, 35.6487973], [-97.3899737, 35.6487498], [-97.389848, 35.6489389], [-97.3899314, 35.6489756], [-97.3899684, 35.64892], [-97.3899932, 35.6489309], [-97.390082, 35.6487973]]]}, "properties": {"osm_id": 594799187, "building": "yes", "name": "", "height": null, "height_m": null, "levels": null, "tract_id": "40109109205", "tract_name": "1092.05", "tags": {"building": "yes"}}}, {"type": "Feature", "geometry": {"type": "Polygon", "coordinates": [[[-97.3902927, 35.6490546], [-97.3901837, 35.6490523], [-97.390188, 35.6489201], [-97.3902969, 35.6489224], [-97.3902927, 35.6490546]]]}, "properties": {"osm_id": 594799189, "building": "yes", "name": "", "height": null, "height_m": null, "levels": null, "tract_id": "40109109205", "tract_name": "1092.05", "tags": {"building": "yes"}}}, {"type": "Feature", "geometry": {"type": "Polygon", "coordinates": [[[-97.3875636, 35.6481145], [-97.3874513, 35.6479447], [-97.3871698, 35.6480677], [-97.3872056, 35.6481219], [-97.3872409, 35.6481751], [-97.3873637, 35.6481215], [-97.387405, 35.6481838], [-97.3875097, 35.648138], [-97.3875636, 35.6481145]]]}, "properties": {"osm_id": 594799196, "building": "yes", "name": "UCO Outdoor Adventure Recreation Center", "height": null, "height_m": null, "levels": null, "tract_id": "40109109205", "tract_name": "1092.05", "tags": {"building": "yes", "name": "UCO Outdoor Adventure Recreation Center"}}}, {"type": "Feature", "geometry": {"type": "Polygon", "coordinates": [[[-97.3908307, 35.6475435], [-97.3908252, 35.6475061], [-97.390745, 35.6475137], [-97.3906685, 35.647521], [-97.3906739, 35.6475585], [-97.3908307, 35.6475435]]]}, "properties": {"osm_id": 594799200, "building": "yes", "name": "", "height": null, "height_m": null, "levels": null, "tract_id": "40109109205", "tract_name": "1092.05", "tags": {"amenity": "toilets", "building": "yes"}}}, {"type": "Feature", "geometry": {"type": "Polygon", "coordinates": [[[-97.3947327, 35.6504238], [-97.3947073, 35.6504555], [-97.3947812, 35.6504946], [-97.3948066, 35.6504628], [-97.3947327, 35.6504238]]]}, "properties": {"osm_id": 594799210, "building": "yes", "name": "", "height": null, "height_m": null, "levels": null, "tract_id": "40109109205", "tract_name": "1092.05", "tags": {"amenity": "toilets", "building": "yes"}}}, {"type": "Feature", "geometry": {"type": "Polygon", "coordinates": [[[-97.3792105, 35.6464913], [-97.3791616, 35.6464801], [-97.3792024, 35.6463627], [-97.3792513, 35.6463739], [-97.3792105, 35.6464913]]]}, "properties": {"osm_id": 594809577, "building": "yes", "name": "", "height": null, "height_m": null, "levels": null, "tract_id": "40109109205", "tract_name": "1092.05", "tags": {"amenity": "toilets", "building": "yes"}}}, {"type": "Feature", "geometry": {"type": "Polygon", "coordinates": [[[-97.380257, 35.6512334], [-97.3801467, 35.6512875], [-97.38028, 35.651467], [-97.3803903, 35.6514129], [-97.380257, 35.6512334]]]}, "properties": {"osm_id": 594809585, "building": "yes", "name": "", "height": null, "height_m": null, "levels": null, "tract_id": "40109109205", "tract_name": "1092.05", "tags": {"building": "yes"}}}, {"type": "Feature", "geometry": {"type": "Polygon", "coordinates": [[[-97.3788028, 35.6512784], [-97.3787629, 35.6512809], [-97.3787562, 35.6512089], [-97.3787961, 35.6512065], [-97.3788028, 35.6512784]]]}, "properties": {"osm_id": 594809587, "building": "yes", "name": "", "height": null, "height_m": null, "levels": null, "tract_id": "40109109205", "tract_name": "1092.05", "tags": {"building": "yes"}}}, {"type": "Feature", "geometry": {"type": "Polygon", "coordinates": [[[-97.420987, 35.600597], [-97.421098, 35.600772], [-97.421435, 35.600631], [-97.421324, 35.600455], [-97.420987, 35.600597]]]}, "properties": {"osm_id": 946203421, "building": "yes", "name": "", "height": null, "height_m": null, "levels": null, "tract_id": "40109109205", "tract_name": "1092.05", "tags": {"building": "yes", "source": "microsoft/BuildingFootprints"}}}, {"type": "Feature", "geometry": {"type": "Polygon", "coordinates": [[[-97.4185969, 35.6499057], [-97.4184275, 35.6498706], [-97.4185396, 35.6494689], [-97.4187142, 35.6494966], [-97.4185969, 35.6499057]]]}, "properties": {"osm_id": 959931218, "building": "garage", "name": "", "height": null, "height_m": null, "levels": null, "tract_id": "40109109205", "tract_name": "1092.05", "tags": {"access": "private", "building": "garage"}}}, {"type": "Feature", "geometry": {"type": "Polygon", "coordinates": [[[-97.4202464, 35.6485825], [-97.4202145, 35.6486017], [-97.4201657, 35.6485483], [-97.4201986, 35.6485274], [-97.4202464, 35.6485825]]]}, "properties": {"osm_id": 959931219, "building": "yes", "name": "", "height": null, "height_m": null, "levels": null, "tract_id": "40109109205", "tract_name": "1092.05", "tags": {"building": "yes"}}}, {"type": "Feature", "geometry": {"type": "Polygon", "coordinates": [[[-97.4214585, 35.6483935], [-97.421473, 35.6482585], [-97.4209706, 35.6482259], [-97.420965, 35.6482874], [-97.4209577, 35.6483672], [-97.4214585, 35.6483935]]]}, "properties": {"osm_id": 959931221, "building": "yes", "name": "", "height": null, "height_m": null, "levels": null, "tract_id": "40109109205", "tract_name": "1092.05", "tags": {"building": "yes"}}}, {"type": "Feature", "geometry": {"type": "Polygon", "coordinates": [[[-97.4199542, 35.6511771], [-97.4201163, 35.6510381], [-97.4199439, 35.6509077], [-97.4197846, 35.6509124], [-97.4197877, 35.6510522], [-97.4199542, 35.6511771]]]}, "properties": {"osm_id": 959931223, "building": "yes", "name": "", "height": null, "height_m": null, "levels": null, "tract_id": "40109109205", "tract_name": "1092.05", "tags": {"building": "yes"}}}, {"type": "Feature", "geometry": {"type": "Polygon", "coordinates": [[[-97.4159426, 35.650189], [-97.4159646, 35.6501113], [-97.4158692, 35.650095], [-97.4158655, 35.6501058], [-97.415728, 35.6500788], [-97.4156745, 35.6502541], [-97.4158243, 35.650283], [-97.4158438, 35.6502165], [-97.4158524, 35.6501942], [-97.4158772, 35.6502022], [-97.415889, 35.6501776], [-97.4159426, 35.650189]]]}, "properties": {"osm_id": 959931224, "building": "house", "name": "", "height": null, "height_m": null, "levels": null, "tract_id": "40109109205", "tract_name": "1092.05", "tags": {"building": "house"}}}, {"type": "Feature", "geometry": {"type": "Polygon", "coordinates": [[[-97.3243017, 35.66269], [-97.3242089, 35.6625643], [-97.3240436, 35.6626404], [-97.3241206, 35.6627607], [-97.3243017, 35.66269]]]}, "properties": {"osm_id": 959931226, "building": "yes", "name": "", "height": null, "height_m": null, "levels": null, "tract_id": "40109109205", "tract_name": "1092.05", "tags": {"abandoned": "yes", "building": "yes"}}}, {"type": "Feature", "geometry": {"type": "Polygon", "coordinates": [[[-97.4206645, 35.6418832], [-97.4206369, 35.6419218], [-97.4205541, 35.6418828], [-97.4205828, 35.6418425], [-97.4206204, 35.6418603], [-97.4206242, 35.6418549], [-97.4206381, 35.6418614], [-97.4206331, 35.6418684], [-97.4206645, 35.6418832]]]}, "properties": {"osm_id": 959931238, "building": "religious", "name": "", "height": null, "height_m": null, "levels": null, "tract_id": "40109109205", "tract_name": "1092.05", "tags": {"building": "religious", "description": "Rituial sight=Pagan"}}}, {"type": "Feature", "geometry": {"type": "Polygon", "coordinates": [[[-97.420324, 35.6489397], [-97.4203341, 35.6488714], [-97.4202705, 35.6488657], [-97.4202615, 35.6489338], [-97.420324, 35.6489397]]]}, "properties": {"osm_id": 960599663, "building": "yes", "name": "", "height": null, "height_m": null, "levels": null, "tract_id": "40109109205", "tract_name": "1092.05", "tags": {"building": "yes"}}}, {"type": "Feature", "geometry": {"type": "Polygon", "coordinates": [[[-97.4171874, 35.6440804], [-97.4169727, 35.6441423], [-97.4169667, 35.644351], [-97.4168203, 35.6443967], [-97.4168182, 35.6444162], [-97.4166979, 35.6444113], [-97.4166959, 35.6442711], [-97.4166076, 35.6442679], [-97.4165755, 35.6442793], [-97.4165775, 35.6443054], [-97.4165996, 35.6443119], [-97.4164812, 35.6445695], [-97.4163588, 35.6445304], [-97.4162525, 35.6445271], [-97.4162605, 35.6440168], [-97.4163568, 35.6440151], [-97.4164852, 35.6439793], [-97.4165975, 35.644219], [-97.4167019, 35.6441847], [-97.4166096, 35.643994], [-97.4166597, 35.643976], [-97.4166618, 35.6438342], [-97.4166256, 35.6437608], [-97.4166979, 35.6437363], [-97.4167019, 35.6437086], [-97.4170249, 35.643707], [-97.4171874, 35.6440804]]]}, "properties": {"osm_id": 973009000, "building": "hospital", "name": "Arcadia Trails INTEGRIS Center for Addiction Recovery", "height": null, "height_m": null, "levels": null, "tract_id": "40109109205", "tract_name": "1092.05", "tags": {"building": "hospital", "name": "Arcadia Trails INTEGRIS Center for Addiction Recovery"}}}, {"type": "Feature", "geometry": {"type": "Polygon", "coordinates": [[[-97.3349264, 35.6574814], [-97.3349248, 35.6570678], [-97.3346334, 35.6570672], [-97.3346362, 35.6574823], [-97.3349264, 35.6574814]]]}, "properties": {"osm_id": 1026617013, "building": "yes", "name": "", "height": null, "height_m": null, "levels": null, "tract_id": "40109109205", "tract_name": "1092.05", "tags": {"building": "yes", "source": "microsoft/BuildingFootprints"}}}, {"type": "Feature", "geometry": {"type": "Polygon", "coordinates": [[[-97.3345808, 35.6576666], [-97.3345849, 35.6576515], [-97.3345831, 35.6576362], [-97.3345756, 35.6576221], [-97.334563, 35.6576106], [-97.3345467, 35.6576027], [-97.3345282, 35.6575994], [-97.3345094, 35.6576009], [-97.334492, 35.657607], [-97.3344765, 35.6576185], [-97.3344668, 35.6576337], [-97.334464, 35.6576506], [-97.3344686, 35.6576673], [-97.3344798, 35.6576817], [-97.3344965, 35.6576921], [-97.3345166, 35.6576973], [-97.3345376, 35.6576965], [-97.334557, 35.65769], [-97.3345712, 35.6576798], [-97.3345808, 35.6576666]]]}, "properties": {"osm_id": 1026617014, "building": "yes", "name": "", "height": null, "height_m": null, "levels": null, "tract_id": "40109109205", "tract_name": "1092.05", "tags": {"building": "yes", "source": "microsoft/BuildingFootprints"}}}, {"type": "Feature", "geometry": {"type": "Polygon", "coordinates": [[[-97.3351941, 35.6566531], [-97.3354461, 35.6566531], [-97.3354451, 35.6561651], [-97.3352251, 35.6561651], [-97.3352261, 35.6566081], [-97.3351941, 35.6566081], [-97.3351941, 35.6566531]]]}, "properties": {"osm_id": 1026617015, "building": "yes", "name": "", "height": null, "height_m": null, "levels": null, "tract_id": "40109109205", "tract_name": "1092.05", "tags": {"building": "yes", "source": "microsoft/BuildingFootprints"}}}, {"type": "Feature", "geometry": {"type": "Polygon", "coordinates": [[[-97.386794, 35.6241302], [-97.3867081, 35.6241167], [-97.3867378, 35.6239986], [-97.3868248, 35.6240084], [-97.386794, 35.6241302]]]}, "properties": {"osm_id": 1046273282, "building": "yes", "name": "", "height": null, "height_m": null, "levels": null, "tract_id": "40109109205", "tract_name": "1092.05", "tags": {"amenity": "shelter", "bench": "yes", "building": "yes", "floor:material": "cement", "operator": "Oklahoma Department of Wildlife Conservation", "shelter_type": "gazebo"}}}, {"type": "Feature", "geometry": {"type": "Polygon", "coordinates": [[[-97.3881934, 35.624711], [-97.3881125, 35.6246392], [-97.38802, 35.6247082], [-97.3879948, 35.624727], [-97.3879959, 35.6247], [-97.3879349, 35.6246985], [-97.3879335, 35.6247353], [-97.3878922, 35.6246987], [-97.3879358, 35.6246662], [-97.3878665, 35.6246048], [-97.3876519, 35.6247649], [-97.3879416, 35.6250214], [-97.3881253, 35.6248844], [-97.3880501, 35.6248178], [-97.3881934, 35.624711]]]}, "properties": {"osm_id": 1046273283, "building": "yes", "name": "Arcadia Conservation Education Area Education Center", "height": null, "height_m": null, "levels": null, "tract_id": "40109109205", "tract_name": "1092.05", "tags": {"addr:city": "Edmond", "addr:housenumber": "7201", "addr:postcode": "73013", "addr:state": "OK", "addr:street": "East 33rd Street", "amenity": "ranger_station", "building": "yes", "name": "Arcadia Conservation Education Area Education Center", "operator": "Oklahoma Department of Wildlife Conservation", "website": "https://www.wildlifedepartment.com/hunting/wma/northeast/arcadia-cea"}}}, {"type": "Feature", "geometry": {"type": "Polygon", "coordinates": [[[-97.3518969, 35.6176108], [-97.3518487, 35.617608], [-97.3518542, 35.6175456], [-97.3519024, 35.6175484], [-97.3518969, 35.6176108]]]}, "properties": {"osm_id": 1095788461, "building": "yes", "name": "", "height": null, "height_m": null, "levels": null, "tract_id": "40109109205", "tract_name": "1092.05", "tags": {"building": "yes"}}}, {"type": "Feature", "geometry": {"type": "Polygon", "coordinates": [[[-97.4194499, 35.651735], [-97.4194522, 35.6515384], [-97.4196048, 35.6515356], [-97.4196039, 35.6513417], [-97.4195352, 35.6513384], [-97.4195345, 35.6512617], [-97.4191609, 35.6512611], [-97.4191609, 35.651311], [-97.4191166, 35.6513068], [-97.4191141, 35.6513778], [-97.4185789, 35.651378], [-97.4185781, 35.6513591], [-97.4184834, 35.651373], [-97.4184979, 35.6513972], [-97.4181858, 35.6515034], [-97.4182014, 35.6515269], [-97.418088, 35.6515638], [-97.4182008, 35.6517837], [-97.4183642, 35.651732], [-97.4183836, 35.6517656], [-97.4184985, 35.6517241], [-97.4184867, 35.6516988], [-97.4185811, 35.6516729], [-97.4185913, 35.6517009], [-97.4188819, 35.6516981], [-97.4188832, 35.6516309], [-97.419166, 35.6516413], [-97.4191667, 35.6517322], [-97.4194499, 35.651735]]]}, "properties": {"osm_id": 1145538606, "building": "yes", "name": "Oklahoma Christian Elementary School", "height": null, "height_m": null, "levels": null, "tract_id": "40109109205", "tract_name": "1092.05", "tags": {"building": "yes", "name": "Oklahoma Christian Elementary School"}}}, {"type": "Feature", "geometry": {"type": "Polygon", "coordinates": [[[-97.4164809, 35.6488957], [-97.4164811, 35.6487604], [-97.4163538, 35.6487577], [-97.4163515, 35.6488934], [-97.4164809, 35.6488957]]]}, "properties": {"osm_id": 1145538608, "building": "industrial", "name": "Spring Creek Lift Station", "height": null, "height_m": null, "levels": null, "tract_id": "40109109205", "tract_name": "1092.05", "tags": {"building": "industrial", "name": "Spring Creek Lift Station"}}}, {"type": "Feature", "geometry": {"type": "Polygon", "coordinates": [[[-97.4157845, 35.6512293], [-97.4158674, 35.6512698], [-97.4159262, 35.6511797], [-97.4157582, 35.6511016], [-97.4157057, 35.6511838], [-97.4157904, 35.6512195], [-97.4157845, 35.6512293]]]}, "properties": {"osm_id": 1147269866, "building": "yes", "name": "", "height": null, "height_m": null, "levels": null, "tract_id": "40109109205", "tract_name": "1092.05", "tags": {"building": "yes"}}}, {"type": "Feature", "geometry": {"type": "Polygon", "coordinates": [[[-97.4154222, 35.6511721], [-97.4154446, 35.6511554], [-97.4154447, 35.6511314], [-97.4154274, 35.6511137], [-97.4154281, 35.651022], [-97.41532, 35.6510171], [-97.4153211, 35.6510333], [-97.4152642, 35.6510331], [-97.4152641, 35.6510269], [-97.4152132, 35.6510253], [-97.4152091, 35.6509931], [-97.4151405, 35.6509913], [-97.4151412, 35.6511233], [-97.4151865, 35.6511219], [-97.4151877, 35.6511534], [-97.4152318, 35.6511552], [-97.4152316, 35.651173], [-97.4154222, 35.6511721]]]}, "properties": {"osm_id": 1147269867, "building": "yes", "name": "", "height": null, "height_m": null, "levels": null, "tract_id": "40109109205", "tract_name": "1092.05", "tags": {"building": "yes"}}}, {"type": "Feature", "geometry": {"type": "Polygon", "coordinates": [[[-97.4153631, 35.6507206], [-97.4152521, 35.6507226], [-97.4152516, 35.6505746], [-97.4153589, 35.6505729], [-97.4153928, 35.6505721], [-97.4153923, 35.6506837], [-97.4153644, 35.6506842], [-97.4153631, 35.6507206]]]}, "properties": {"osm_id": 1147269868, "building": "yes", "name": "", "height": null, "height_m": null, "levels": null, "tract_id": "40109109205", "tract_name": "1092.05", "tags": {"building": "yes"}}}, {"type": "Feature", "geometry": {"type": "Polygon", "coordinates": [[[-97.4146651, 35.6506797], [-97.4146601, 35.6506028], [-97.4147912, 35.6505973], [-97.4147951, 35.6506744], [-97.4146651, 35.6506797]]]}, "properties": {"osm_id": 1147269869, "building": "yes", "name": "", "height": null, "height_m": null, "levels": null, "tract_id": "40109109205", "tract_name": "1092.05", "tags": {"building": "yes"}}}, {"type": "Feature", "geometry": {"type": "Polygon", "coordinates": [[[-97.411679, 35.6507774], [-97.4116343, 35.650824], [-97.4115468, 35.6507671], [-97.4115923, 35.6507131], [-97.4115708, 35.6506982], [-97.4117046, 35.6505593], [-97.4118259, 35.65064], [-97.4117987, 35.6506632], [-97.41182, 35.6506812], [-97.4117532, 35.6507506], [-97.4117258, 35.6507433], [-97.4116913, 35.6507807], [-97.411679, 35.6507774]]]}, "properties": {"osm_id": 1147269870, "building": "yes", "name": "", "height": null, "height_m": null, "levels": null, "tract_id": "40109109205", "tract_name": "1092.05", "tags": {"building": "yes"}}}, {"type": "Feature", "geometry": {"type": "Polygon", "coordinates": [[[-97.4117834, 35.6510705], [-97.4117042, 35.6510218], [-97.4117862, 35.6509348], [-97.4118714, 35.6509843], [-97.4117834, 35.6510705]]]}, "properties": {"osm_id": 1147269871, "building": "yes", "name": "", "height": null, "height_m": null, "levels": null, "tract_id": "40109109205", "tract_name": "1092.05", "tags": {"building": "yes"}}}, {"type": "Feature", "geometry": {"type": "Polygon", "coordinates": [[[-97.4094025, 35.6510395], [-97.4094384, 35.6509271], [-97.4092679, 35.6508838], [-97.4092268, 35.651005], [-97.4094025, 35.6510395]]]}, "properties": {"osm_id": 1147269872, "building": "yes", "name": "", "height": null, "height_m": null, "levels": null, "tract_id": "40109109205", "tract_name": "1092.05", "tags": {"building": "yes"}}}, {"type": "Feature", "geometry": {"type": "Polygon", "coordinates": [[[-97.4096148, 35.6513275], [-97.4096225, 35.6512545], [-97.4095488, 35.6512466], [-97.4095553, 35.6511984], [-97.409559, 35.6511654], [-97.4095286, 35.6511598], [-97.4095346, 35.6511335], [-97.409406, 35.6511202], [-97.4093956, 35.6511737], [-97.4094153, 35.6511776], [-97.4094046, 35.651228], [-97.409385, 35.6512273], [-97.4093853, 35.6512608], [-97.4094138, 35.6512617], [-97.4094129, 35.6513018], [-97.4096148, 35.6513275]]]}, "properties": {"osm_id": 1147269873, "building": "yes", "name": "", "height": null, "height_m": null, "levels": null, "tract_id": "40109109205", "tract_name": "1092.05", "tags": {"building": "yes"}}}, {"type": "Feature", "geometry": {"type": "Polygon", "coordinates": [[[-97.3224645, 35.6626573], [-97.322494, 35.6627721], [-97.3228963, 35.6627038], [-97.3228667, 35.6625889], [-97.3224645, 35.6626573]]]}, "properties": {"osm_id": 1148079044, "building": "yes", "name": "", "height": null, "height_m": null, "levels": null, "tract_id": "40109109205", "tract_name": "1092.05", "tags": {"building": "yes", "source": "microsoft/BuildingFootprints"}}}, {"type": "Feature", "geometry": {"type": "Polygon", "coordinates": [[[-97.3154899, 35.6662735], [-97.3154928, 35.6663693], [-97.3155705, 35.6663678], [-97.3155677, 35.666272], [-97.3154899, 35.6662735]]]}, "properties": {"osm_id": 1148079749, "building": "yes", "name": "", "height": null, "height_m": null, "levels": null, "tract_id": "40109109205", "tract_name": "1092.05", "tags": {"building": "yes", "source": "microsoft/BuildingFootprints"}}}, {"type": "Feature", "geometry": {"type": "Polygon", "coordinates": [[[-97.3151446, 35.6655052], [-97.3151676, 35.6657243], [-97.3152932, 35.6657156], [-97.3152701, 35.6654964], [-97.3151446, 35.6655052]]]}, "properties": {"osm_id": 1148079751, "building": "yes", "name": "", "height": null, "height_m": null, "levels": null, "tract_id": "40109109205", "tract_name": "1092.05", "tags": {"building": "yes", "source": "microsoft/BuildingFootprints"}}}, {"type": "Feature", "geometry": {"type": "Polygon", "coordinates": [[[-97.3156025, 35.6655739], [-97.3153675, 35.6655941], [-97.3153823, 35.6657078], [-97.3156173, 35.6656875], [-97.3156025, 35.6655739]]]}, "properties": {"osm_id": 1148079752, "building": "yes", "name": "", "height": null, "height_m": null, "levels": null, "tract_id": "40109109205", "tract_name": "1092.05", "tags": {"building": "yes", "source": "microsoft/BuildingFootprints"}}}, {"type": "Feature", "geometry": {"type": "Polygon", "coordinates": [[[-97.3148399, 35.665405], [-97.3148323, 35.6653028], [-97.3146145, 35.6653136], [-97.3146222, 35.6654158], [-97.3148399, 35.665405]]]}, "properties": {"osm_id": 1148079753, "building": "yes", "name": "", "height": null, "height_m": null, "levels": null, "tract_id": "40109109205", "tract_name": "1092.05", "tags": {"building": "yes", "source": "microsoft/BuildingFootprints"}}}, {"type": "Feature", "geometry": {"type": "Polygon", "coordinates": [[[-97.3145999, 35.6650883], [-97.3146028, 35.6651523], [-97.3148974, 35.6651434], [-97.3148909, 35.6650011], [-97.3148347, 35.6650028], [-97.3148382, 35.6650811], [-97.3145999, 35.6650883]]]}, "properties": {"osm_id": 1148079754, "building": "yes", "name": "", "height": null, "height_m": null, "levels": null, "tract_id": "40109109205", "tract_name": "1092.05", "tags": {"building": "yes", "source": "microsoft/BuildingFootprints"}}}, {"type": "Feature", "geometry": {"type": "Polygon", "coordinates": [[[-97.3145176, 35.664908], [-97.3145212, 35.6649863], [-97.3148158, 35.6649773], [-97.3148122, 35.664899], [-97.3145176, 35.664908]]]}, "properties": {"osm_id": 1148079755, "building": "yes", "name": "", "height": null, "height_m": null, "levels": null, "tract_id": "40109109205", "tract_name": "1092.05", "tags": {"building": "yes", "source": "microsoft/BuildingFootprints"}}}, {"type": "Feature", "geometry": {"type": "Polygon", "coordinates": [[[-97.3140585, 35.6651713], [-97.3140629, 35.6653053], [-97.31428, 35.6653006], [-97.3142756, 35.6651666], [-97.3140585, 35.6651713]]]}, "properties": {"osm_id": 1148079756, "building": "yes", "name": "", "height": null, "height_m": null, "levels": null, "tract_id": "40109109205", "tract_name": "1092.05", "tags": {"building": "yes", "source": "microsoft/BuildingFootprints"}}}, {"type": "Feature", "geometry": {"type": "Polygon", "coordinates": [[[-97.3140977, 35.6645155], [-97.3138861, 35.6645221], [-97.3138993, 35.6647985], [-97.3141108, 35.6647918], [-97.3140977, 35.6645155]]]}, "properties": {"osm_id": 1148079757, "building": "yes", "name": "", "height": null, "height_m": null, "levels": null, "tract_id": "40109109205", "tract_name": "1092.05", "tags": {"building": "yes", "source": "microsoft/BuildingFootprints"}}}, {"type": "Feature", "geometry": {"type": "Polygon", "coordinates": [[[-97.3272032, 35.6615041], [-97.3271561, 35.6613689], [-97.3268271, 35.6614446], [-97.3268872, 35.6616174], [-97.3270077, 35.6615897], [-97.3269946, 35.6615521], [-97.3272032, 35.6615041]]]}, "properties": {"osm_id": 1148081605, "building": "yes", "name": "", "height": null, "height_m": null, "levels": null, "tract_id": "40109109205", "tract_name": "1092.05", "tags": {"building": "yes", "source": "microsoft/BuildingFootprints"}}}, {"type": "Feature", "geometry": {"type": "Polygon", "coordinates": [[[-97.3151479, 35.6656908], [-97.3151539, 35.6656959], [-97.3151576, 35.6657024], [-97.3151585, 35.6657094], [-97.3151566, 35.6657164], [-97.315152, 35.6657224], [-97.3151452, 35.6657269], [-97.315137, 35.6657293], [-97.3151282, 35.6657295], [-97.3151199, 35.6657273], [-97.3151129, 35.6657231], [-97.3151079, 35.6657172], [-97.3151056, 35.6657104], [-97.3151061, 35.6657033], [-97.3151095, 35.6656967], [-97.3151152, 35.6656914], [-97.3151228, 35.6656879], [-97.3151314, 35.6656866], [-97.3151401, 35.6656876], [-97.3151479, 35.6656908]]]}, "properties": {"osm_id": 1385623605, "building": "yes", "name": "", "height": null, "height_m": null, "levels": null, "tract_id": "40109109205", "tract_name": "1092.05", "tags": {"building": "yes", "man_made": "storage_tank"}}}, {"type": "Feature", "geometry": {"type": "Polygon", "coordinates": [[[-97.315143, 35.6656473], [-97.3151491, 35.6656525], [-97.3151528, 35.6656589], [-97.3151537, 35.665666], [-97.3151518, 35.6656729], [-97.3151471, 35.6656789], [-97.3151404, 35.6656834], [-97.3151322, 35.6656859], [-97.3151234, 35.665686], [-97.3151151, 35.6656839], [-97.3151081, 35.6656796], [-97.3151031, 35.6656738], [-97.3151008, 35.6656669], [-97.3151013, 35.6656598], [-97.3151047, 35.6656533], [-97.3151104, 35.6656479], [-97.315118, 35.6656444], [-97.3151266, 35.6656431], [-97.3151353, 35.6656441], [-97.315143, 35.6656473]]]}, "properties": {"osm_id": 1385623606, "building": "yes", "name": "", "height": null, "height_m": null, "levels": null, "tract_id": "40109109205", "tract_name": "1092.05", "tags": {"building": "yes", "man_made": "storage_tank"}}}, {"type": "Feature", "geometry": {"type": "Polygon", "coordinates": [[[-97.3151388, 35.6656044], [-97.3151448, 35.6656095], [-97.3151485, 35.665616], [-97.3151494, 35.665623], [-97.3151475, 35.6656299], [-97.3151429, 35.665636], [-97.3151361, 35.6656405], [-97.3151279, 35.6656429], [-97.3151192, 35.6656431], [-97.3151108, 35.6656409], [-97.3151038, 35.6656367], [-97.3150989, 35.6656308], [-97.3150965, 35.665624], [-97.3150971, 35.6656169], [-97.3151004, 35.6656103], [-97.3151062, 35.665605], [-97.3151138, 35.6656015], [-97.3151223, 35.6656001], [-97.315131, 35.6656012], [-97.3151388, 35.6656044]]]}, "properties": {"osm_id": 1385623607, "building": "yes", "name": "", "height": null, "height_m": null, "levels": null, "tract_id": "40109109205", "tract_name": "1092.05", "tags": {"building": "yes", "man_made": "storage_tank"}}}, {"type": "Feature", "geometry": {"type": "Polygon", "coordinates": [[[-97.3151339, 35.6655614], [-97.3151399, 35.6655665], [-97.3151436, 35.6655729], [-97.3151445, 35.66558], [-97.3151426, 35.6655869], [-97.315138, 35.6655929], [-97.3151312, 35.6655974], [-97.315123, 35.6655999], [-97.3151142, 35.6656], [-97.3151059, 35.6655979], [-97.3150989, 35.6655936], [-97.3150939, 35.6655878], [-97.3150916, 35.6655809], [-97.3150921, 35.6655738], [-97.3150955, 35.6655673], [-97.3151013, 35.6655619], [-97.3151088, 35.6655584], [-97.3151174, 35.6655571], [-97.3151261, 35.6655581], [-97.3151339, 35.6655614]]]}, "properties": {"osm_id": 1385623608, "building": "yes", "name": "", "height": null, "height_m": null, "levels": null, "tract_id": "40109109205", "tract_name": "1092.05", "tags": {"building": "yes", "man_made": "storage_tank"}}}, {"type": "Feature", "geometry": {"type": "Polygon", "coordinates": [[[-97.3151276, 35.6655186], [-97.3151336, 35.6655237], [-97.3151373, 35.6655301], [-97.3151382, 35.6655372], [-97.3151363, 35.6655441], [-97.3151317, 35.6655501], [-97.3151249, 35.6655546], [-97.3151167, 35.6655571], [-97.3151079, 35.6655572], [-97.3150996, 35.6655551], [-97.3150926, 35.6655509], [-97.3150876, 35.665545], [-97.3150853, 35.6655381], [-97.3150858, 35.6655311], [-97.3150892, 35.6655245], [-97.3150949, 35.6655192], [-97.3151025, 35.6655156], [-97.3151111, 35.6655143], [-97.3151198, 35.6655153], [-97.3151276, 35.6655186]]]}, "properties": {"osm_id": 1385623609, "building": "yes", "name": "", "height": null, "height_m": null, "levels": null, "tract_id": "40109109205", "tract_name": "1092.05", "tags": {"building": "yes", "man_made": "storage_tank"}}}, {"type": "Feature", "geometry": {"type": "Polygon", "coordinates": [[[-97.3151277, 35.6654653], [-97.3151356, 35.6654709], [-97.3151408, 35.6654783], [-97.315143, 35.6654866], [-97.3151417, 35.6654951], [-97.3151372, 35.6655028], [-97.31513, 35.6655089], [-97.3151207, 35.6655129], [-97.3151104, 35.6655142], [-97.3151, 35.6655129], [-97.3150904, 35.6655087], [-97.315083, 35.6655021], [-97.3150786, 35.6654939], [-97.3150779, 35.665485], [-97.3150809, 35.6654764], [-97.3150872, 35.6654691], [-97.3150961, 35.6654639], [-97.3151066, 35.6654614], [-97.3151176, 35.6654619], [-97.3151277, 35.6654653]]]}, "properties": {"osm_id": 1385623610, "building": "yes", "name": "", "height": null, "height_m": null, "levels": null, "tract_id": "40109109205", "tract_name": "1092.05", "tags": {"building": "yes", "man_made": "storage_tank"}}}, {"type": "Feature", "geometry": {"type": "Polygon", "coordinates": [[[-97.3149366, 35.6656478], [-97.3149421, 35.6656551], [-97.3149444, 35.6656634], [-97.3149434, 35.6656719], [-97.3149391, 35.6656797], [-97.314932, 35.665686], [-97.3149229, 35.6656902], [-97.3149125, 35.6656918], [-97.3149021, 35.6656907], [-97.3148926, 35.6656869], [-97.3148848, 35.6656806], [-97.31488, 35.6656724], [-97.3148788, 35.6656635], [-97.3148813, 35.6656547], [-97.3148873, 35.6656471], [-97.3148961, 35.6656416], [-97.3149066, 35.6656387], [-97.3149177, 35.6656389], [-97.3149281, 35.665642], [-97.3149366, 35.6656478]]]}, "properties": {"osm_id": 1385623611, "building": "yes", "name": "", "height": null, "height_m": null, "levels": null, "tract_id": "40109109205", "tract_name": "1092.05", "tags": {"building": "yes", "man_made": "storage_tank"}}}, {"type": "Feature", "geometry": {"type": "Polygon", "coordinates": [[[-97.314901, 35.6656006], [-97.3148956, 35.6656055], [-97.3148925, 35.6656115], [-97.314892, 35.665618], [-97.3148941, 35.6656243], [-97.3148987, 35.6656297], [-97.3149052, 35.6656335], [-97.3149129, 35.6656355], [-97.3149209, 35.6656352], [-97.3149282, 35.6656329], [-97.3149342, 35.6656289], [-97.3149383, 35.6656235], [-97.3149401, 35.6656173], [-97.3149394, 35.665611], [-97.3149362, 35.6656052], [-97.3149309, 35.6656005], [-97.3149239, 35.6655974], [-97.3149159, 35.6655963], [-97.314908, 35.6655975], [-97.314901, 35.6656006]]]}, "properties": {"osm_id": 1385623612, "building": "yes", "name": "", "height": null, "height_m": null, "levels": null, "tract_id": "40109109205", "tract_name": "1092.05", "tags": {"building": "yes", "man_made": "storage_tank"}}}, {"type": "Feature", "geometry": {"type": "Polygon", "coordinates": [[[-97.3149491, 35.6655794], [-97.3148661, 35.6655838], [-97.3148633, 35.6655488], [-97.3149463, 35.6655444], [-97.3149491, 35.6655794]]]}, "properties": {"osm_id": 1385623613, "building": "yes", "name": "", "height": null, "height_m": null, "levels": null, "tract_id": "40109109205", "tract_name": "1092.05", "tags": {"building": "yes"}}}, {"type": "Feature", "geometry": {"type": "Polygon", "coordinates": [[[-97.3152303, 35.6664554], [-97.3151416, 35.666457], [-97.3151396, 35.6663828], [-97.3151315, 35.6663829], [-97.3151285, 35.6662722], [-97.3151708, 35.6662715], [-97.3151703, 35.6662538], [-97.3152349, 35.6662527], [-97.3152355, 35.6662731], [-97.315258, 35.6662727], [-97.3152609, 35.6663824], [-97.3152543, 35.6663825], [-97.3152554, 35.6664219], [-97.3152294, 35.6664224], [-97.3152303, 35.6664554]]]}, "properties": {"osm_id": 1385623615, "building": "house", "name": "", "height": null, "height_m": null, "levels": null, "tract_id": "40109109205", "tract_name": "1092.05", "tags": {"building": "house"}}}, {"type": "Feature", "geometry": {"type": "Polygon", "coordinates": [[[-97.317845, 35.6657782], [-97.3178393, 35.6657858], [-97.3178311, 35.6657875], [-97.3178225, 35.6657856], [-97.317815, 35.6657777], [-97.3178185, 35.6656141], [-97.3178255, 35.665607], [-97.317834, 35.665605], [-97.3178434, 35.6656072], [-97.3178486, 35.6656138], [-97.317845, 35.6657782]]]}, "properties": {"osm_id": 1385623619, "building": "yes", "name": "", "height": null, "height_m": null, "levels": null, "tract_id": "40109109205", "tract_name": "1092.05", "tags": {"building": "yes", "man_made": "storage_tank"}}}, {"type": "Feature", "geometry": {"type": "Polygon", "coordinates": [[[-97.3596637, 35.6511361], [-97.359664, 35.6510456], [-97.3595317, 35.6510453], [-97.3595315, 35.6511359], [-97.3596637, 35.6511361]]]}, "properties": {"osm_id": 1391992715, "building": "yes", "name": "", "height": null, "height_m": null, "levels": null, "tract_id": "40109109205", "tract_name": "1092.05", "tags": {"building": "yes"}}}]}