{"type": "FeatureCollection", "features": [{"type": "Feature", "geometry": {"type": "Polygon", "coordinates": [[[-97.5312232, 35.4677699], [-97.5308781, 35.4677744], [-97.5308825, 35.4673833], [-97.531216, 35.4673852], [-97.5312232, 35.4677699]]]}, "properties": {"osm_id": 134014161, "building": "yes", "name": "Eaton Quade Plastics", "height": null, "height_m": null, "levels": null, "tract_id": "40109109800", "tract_name": "1098", "tags": {"building": "yes", "name": "Eaton Quade Plastics"}}}, {"type": "Feature", "geometry": {"type": "Polygon", "coordinates": [[[-97.5308781, 35.4677744], [-97.5307135, 35.4677743], [-97.5307149, 35.4673833], [-97.5308825, 35.4673833], [-97.5308781, 35.4677744]]]}, "properties": {"osm_id": 134014162, "building": "yes", "name": "Steinmetz Auto Tops and Interior", "height": null, "height_m": null, "levels": null, "tract_id": "40109109800", "tract_name": "1098", "tags": {"building": "yes", "name": "Steinmetz Auto Tops and Interior"}}}, {"type": "Feature", "geometry": {"type": "Polygon", "coordinates": [[[-97.5307135, 35.4677743], [-97.5305557, 35.4677749], [-97.5305499, 35.4673844], [-97.5307149, 35.4673833], [-97.5307135, 35.4677743]]]}, "properties": {"osm_id": 134014163, "building": "yes", "name": "", "height": null, "height_m": null, "levels": null, "tract_id": "40109109800", "tract_name": "1098", "tags": {"building": "yes"}}}, {"type": "Feature", "geometry": {"type": "Polygon", "coordinates": [[[-97.5348449, 35.4673786], [-97.5341645, 35.4673827], [-97.5341682, 35.46777], [-97.5348384, 35.4677683], [-97.5348449, 35.4673786]]]}, "properties": {"osm_id": 134022228, "building": "yes", "name": "", "height": null, "height_m": null, "levels": null, "tract_id": "40109109800", "tract_name": "1098", "tags": {"building": "yes"}}}, {"type": "Feature", "geometry": {"type": "Polygon", "coordinates": [[[-97.5340978, 35.4683527], [-97.5339268, 35.468351], [-97.5339282, 35.4679677], [-97.5340956, 35.467974], [-97.5340978, 35.4683527]]]}, "properties": {"osm_id": 134022233, "building": "industrial", "name": "Antique Hardware", "height": null, "height_m": null, "levels": null, "tract_id": "40109109800", "tract_name": "1098", "tags": {"building": "industrial", "name": "Antique Hardware"}}}, {"type": "Feature", "geometry": {"type": "Polygon", "coordinates": [[[-97.5360482, 35.4677685], [-97.5360588, 35.4673832], [-97.5350375, 35.4673784], [-97.5350375, 35.4677683], [-97.5360482, 35.4677685]]]}, "properties": {"osm_id": 134022240, "building": "industrial", "name": "Enviro American", "height": null, "height_m": null, "levels": null, "tract_id": "40109109800", "tract_name": "1098", "tags": {"building": "industrial", "name": "Enviro American"}}}, {"type": "Feature", "geometry": {"type": "Polygon", "coordinates": [[[-97.5360364, 35.4665783], [-97.5350319, 35.4665794], [-97.5350509, 35.4673314], [-97.5360377, 35.4673298], [-97.5360364, 35.4665783]]]}, "properties": {"osm_id": 134032379, "building": "industrial", "name": "ACO HS Plastic Manufacturing", "height": null, "height_m": null, "levels": null, "tract_id": "40109109800", "tract_name": "1098", "tags": {"building": "industrial", "name": "ACO HS Plastic Manufacturing"}}}, {"type": "Feature", "geometry": {"type": "Polygon", "coordinates": [[[-97.534415, 35.4701976], [-97.5342455, 35.4701986], [-97.5342464, 35.4702955], [-97.5344159, 35.4702945], [-97.534415, 35.4701976]]]}, "properties": {"osm_id": 134071854, "building": "public", "name": "", "height": null, "height_m": null, "levels": null, "tract_id": "40109109800", "tract_name": "1098", "tags": {"building": "public", "operator": "City of Oklahoma City"}}}, {"type": "Feature", "geometry": {"type": "Polygon", "coordinates": [[[-97.5334526, 35.4634433], [-97.5332831, 35.4634417], [-97.5332844, 35.4637765], [-97.5334501, 35.4637744], [-97.5334526, 35.4634433]]]}, "properties": {"osm_id": 178471495, "building": "yes", "name": "", "height": null, "height_m": null, "levels": null, "tract_id": "40109109800", "tract_name": "1098", "tags": {"building": "yes", "landuse": "industrial"}}}, {"type": "Feature", "geometry": {"type": "Polygon", "coordinates": [[[-97.5342126, 35.4637708], [-97.5340403, 35.463771], [-97.5340396, 35.4634295], [-97.5342118, 35.4634292], [-97.5342126, 35.4637708]]]}, "properties": {"osm_id": 178471500, "building": "yes", "name": "Earth to Urban Elements", "height": null, "height_m": null, "levels": null, "tract_id": "40109109800", "tract_name": "1098", "tags": {"amenity": "restaurant", "building": "yes", "landuse": "industrial", "name": "Earth to Urban Elements", "shop": "greengrocer"}}}, {"type": "Feature", "geometry": {"type": "Polygon", "coordinates": [[[-97.5332844, 35.4637765], [-97.5332013, 35.463776], [-97.5332006, 35.4634423], [-97.5332831, 35.4634417], [-97.5332844, 35.4637765]]]}, "properties": {"osm_id": 178471508, "building": "yes", "name": "Orvil L Brooks Produce", "height": null, "height_m": null, "levels": null, "tract_id": "40109109800", "tract_name": "1098", "tags": {"building": "yes", "landuse": "industrial", "name": "Orvil L Brooks Produce"}}}, {"type": "Feature", "geometry": {"type": "Polygon", "coordinates": [[[-97.5326854, 35.4637299], [-97.5327313, 35.4637304], [-97.5327322, 35.4634656], [-97.5327608, 35.4634429], [-97.532864, 35.4634434], [-97.532862, 35.463776], [-97.5326844, 35.4637753], [-97.5326854, 35.4637299]]]}, "properties": {"osm_id": 178471509, "building": "yes", "name": "", "height": null, "height_m": null, "levels": null, "tract_id": "40109109800", "tract_name": "1098", "tags": {"building": "yes", "landuse": "retail"}}}, {"type": "Feature", "geometry": {"type": "Polygon", "coordinates": [[[-97.5332013, 35.463776], [-97.5330303, 35.4637771], [-97.533035, 35.4634423], [-97.5332006, 35.4634423], [-97.5332013, 35.463776]]]}, "properties": {"osm_id": 178471519, "building": "yes", "name": "VOX Video Walls", "height": null, "height_m": null, "levels": null, "tract_id": "40109109800", "tract_name": "1098", "tags": {"addr:city": "oklahoma city", "addr:housenumber": "1205", "addr:postcode": "73108", "addr:state": "ok", "addr:street": "Southwest 2nd Street", "building": "yes", "description": "Audio/Visual provider specializing in Video Walls", "fax": "405.231.1998", "image": "http://videowallsbyvox.com/wp-content/uploads/2023/10/vox-video-walls-logo-@2x.png", "landuse": "retail", "name": "VOX Video Walls", "phone": "405.231.1912", "website": "https://videowallsbyvox.com/"}}}, {"type": "Feature", "geometry": {"type": "Polygon", "coordinates": [[[-97.5330303, 35.4637771], [-97.532862, 35.463776], [-97.532864, 35.4634434], [-97.533035, 35.4634423], [-97.5330303, 35.4637771]]]}, "properties": {"osm_id": 178471546, "building": "yes", "name": "VOX Audio Visual", "height": null, "height_m": null, "levels": null, "tract_id": "40109109800", "tract_name": "1098", "tags": {"addr:city": "oklahoma city", "addr:housenumber": "1205", "addr:postcode": "73108", "addr:state": "ok", "addr:street": "Southwest 2nd Street", "building": "yes", "description": "Full service audio/visual store in OKC for both commercial & residential AV needs", "fax": "405.231.1998", "image": "https://voxaudiovisual.com/wp-content/uploads/2017/10/Vox-Audio-Visual-AV-systems-for-Oklahoma-City@2x.png", "landuse": "retail", "name": "VOX Audio Visual", "phone": "405.231.1912", "website": "https://www.voxaudiovisual.com/"}}}, {"type": "Feature", "geometry": {"type": "Polygon", "coordinates": [[[-97.5441555, 35.4676973], [-97.5441582, 35.4674253], [-97.5437091, 35.4674296], [-97.5436474, 35.4674285], [-97.5434851, 35.4674274], [-97.5434878, 35.4677005], [-97.5435978, 35.4677005], [-97.5437091, 35.4677016], [-97.5441555, 35.4676973]]]}, "properties": {"osm_id": 183798082, "building": "industrial", "name": "", "height": null, "height_m": 6.0, "levels": 2, "tract_id": "40109109800", "tract_name": "1098", "tags": {"building": "industrial", "building:levels": "2"}}}, {"type": "Feature", "geometry": {"type": "Polygon", "coordinates": [[[-97.5302542, 35.465956], [-97.5302537, 35.4658244], [-97.5304173, 35.4658244], [-97.5304204, 35.465958], [-97.5302542, 35.465956]]]}, "properties": {"osm_id": 187114879, "building": "yes", "name": "", "height": null, "height_m": null, "levels": null, "tract_id": "40109109800", "tract_name": "1098", "tags": {"building": "yes"}}}, {"type": "Feature", "geometry": {"type": "Polygon", "coordinates": [[[-97.5329417, 35.4625692], [-97.5333505, 35.4625687], [-97.5333513, 35.4629816], [-97.5329424, 35.4629821], [-97.5329417, 35.4625692]]]}, "properties": {"osm_id": 229825740, "building": "yes", "name": "", "height": null, "height_m": null, "levels": null, "tract_id": "40109109800", "tract_name": "1098", "tags": {"building": "yes", "source": "Bing"}}}, {"type": "Feature", "geometry": {"type": "Polygon", "coordinates": [[[-97.5367741, 35.4667994], [-97.5367766, 35.4667089], [-97.5367806, 35.4666371], [-97.5365978, 35.4666382], [-97.5364238, 35.4666437], [-97.536425, 35.4668022], [-97.5367741, 35.4667994]]]}, "properties": {"osm_id": 247843994, "building": "yes", "name": "", "height": null, "height_m": 6.0, "levels": 2, "tract_id": "40109109800", "tract_name": "1098", "tags": {"addr:city": "Oklahoma City", "addr:housenumber": "1335", "addr:postcode": "73106", "addr:street": "West Sheridan Avenue", "building": "yes", "building:levels": "2", "building:part": "yes"}}}, {"type": "Feature", "geometry": {"type": "Polygon", "coordinates": [[[-97.5367766, 35.4667089], [-97.5368858, 35.4667108], [-97.5368834, 35.4668013], [-97.5367741, 35.4667994], [-97.5367766, 35.4667089]]]}, "properties": {"osm_id": 247843995, "building": "yes", "name": "", "height": null, "height_m": 3.0, "levels": 1, "tract_id": "40109109800", "tract_name": "1098", "tags": {"building": "yes", "building:levels": "1", "building:part": "yes", "source": "Bing"}}}, {"type": "Feature", "geometry": {"type": "Polygon", "coordinates": [[[-97.5364238, 35.4666437], [-97.5364024, 35.4666439], [-97.5362664, 35.4666452], [-97.5362691, 35.4668394], [-97.5364265, 35.466838], [-97.536425, 35.4668022], [-97.5364238, 35.4666437]]]}, "properties": {"osm_id": 247845351, "building": "yes", "name": "", "height": null, "height_m": 3.0, "levels": 1, "tract_id": "40109109800", "tract_name": "1098", "tags": {"building": "yes", "building:levels": "1", "building:part": "yes"}}}, {"type": "Feature", "geometry": {"type": "Polygon", "coordinates": [[[-97.5367676, 35.4669207], [-97.5367663, 35.4668721], [-97.5366819, 35.4668741], [-97.5366838, 35.4669224], [-97.5367676, 35.4669207]]]}, "properties": {"osm_id": 247847776, "building": "yes", "name": "", "height": null, "height_m": null, "levels": null, "tract_id": "40109109800", "tract_name": "1098", "tags": {"building": "yes"}}}, {"type": "Feature", "geometry": {"type": "Polygon", "coordinates": [[[-97.5375066, 35.4668858], [-97.5375068, 35.4668195], [-97.5375071, 35.4667481], [-97.5376725, 35.4667486], [-97.5377851, 35.4667489], [-97.5379597, 35.4667493], [-97.5379592, 35.466887], [-97.5375066, 35.4668858]]]}, "properties": {"osm_id": 247852475, "building": "yes", "name": "", "height": null, "height_m": null, "levels": null, "tract_id": "40109109800", "tract_name": "1098", "tags": {"building": "yes"}}}, {"type": "Feature", "geometry": {"type": "Polygon", "coordinates": [[[-97.5368858, 35.4667108], [-97.5368834, 35.4668013], [-97.5367741, 35.4667994], [-97.536425, 35.4668022], [-97.5364265, 35.466838], [-97.5362691, 35.4668394], [-97.5362664, 35.4666452], [-97.5364024, 35.4666439], [-97.5364238, 35.4666437], [-97.5365978, 35.4666382], [-97.5367806, 35.4666371], [-97.5367766, 35.4667089], [-97.5368858, 35.4667108]]]}, "properties": {"osm_id": 247852476, "building": "yes", "name": "", "height": null, "height_m": null, "levels": null, "tract_id": "40109109800", "tract_name": "1098", "tags": {"building": "yes", "building:material": "brick", "source": "Bing"}}}, {"type": "Feature", "geometry": {"type": "Polygon", "coordinates": [[[-97.5325554, 35.4626899], [-97.5325613, 35.4626253], [-97.5324785, 35.4626202], [-97.5324726, 35.4626849], [-97.5325554, 35.4626899]]]}, "properties": {"osm_id": 248784256, "building": "roof", "name": "", "height": null, "height_m": null, "levels": null, "tract_id": "40109109800", "tract_name": "1098", "tags": {"building": "roof", "source": "Bing"}}}, {"type": "Feature", "geometry": {"type": "Polygon", "coordinates": [[[-97.5324726, 35.4627783], [-97.5323104, 35.4627827], [-97.5323131, 35.4628493], [-97.5324753, 35.462845], [-97.5324726, 35.4627783]]]}, "properties": {"osm_id": 248784257, "building": "roof", "name": "", "height": null, "height_m": null, "levels": null, "tract_id": "40109109800", "tract_name": "1098", "tags": {"building": "roof", "source": "Bing"}}}, {"type": "Feature", "geometry": {"type": "Polygon", "coordinates": [[[-97.5306043, 35.4611415], [-97.5306123, 35.460746], [-97.5304058, 35.4607417], [-97.5304004, 35.461065], [-97.5302609, 35.461065], [-97.5302609, 35.4610934], [-97.5302395, 35.4611], [-97.5302475, 35.4611349], [-97.5302641, 35.4611404], [-97.5302625, 35.4612645], [-97.5303602, 35.461266], [-97.530359, 35.4611415], [-97.5306043, 35.4611415]]]}, "properties": {"osm_id": 250806869, "building": "yes", "name": "", "height": null, "height_m": null, "levels": null, "tract_id": "40109109800", "tract_name": "1098", "tags": {"building": "yes", "source": "Bing"}}}, {"type": "Feature", "geometry": {"type": "Polygon", "coordinates": [[[-97.5314706, 35.4620776], [-97.5302448, 35.4620842], [-97.5302448, 35.4617062], [-97.5309079, 35.4617011], [-97.531079, 35.4617324], [-97.5310763, 35.4618329], [-97.5312587, 35.461842], [-97.5314787, 35.4620294], [-97.5314706, 35.4620776]]]}, "properties": {"osm_id": 250806871, "building": "yes", "name": "", "height": null, "height_m": null, "levels": null, "tract_id": "40109109800", "tract_name": "1098", "tags": {"abandoned": "yes", "building": "yes", "source": "Bing"}}}, {"type": "Feature", "geometry": {"type": "Polygon", "coordinates": [[[-97.5310502, 35.4625957], [-97.5310491, 35.4626244], [-97.5310054, 35.4626244], [-97.5310246, 35.4625957], [-97.5310502, 35.4625957]]]}, "properties": {"osm_id": 250813990, "building": "yes", "name": "", "height": null, "height_m": null, "levels": null, "tract_id": "40109109800", "tract_name": "1098", "tags": {"building": "yes", "source": "Bing"}}}, {"type": "Feature", "geometry": {"type": "Polygon", "coordinates": [[[-97.5304469, 35.4631509], [-97.5305921, 35.4631509], [-97.5305921, 35.4634047], [-97.5304469, 35.4634047], [-97.5304469, 35.4632865], [-97.5304469, 35.4631509]]]}, "properties": {"osm_id": 250813992, "building": "retail", "name": "", "height": null, "height_m": null, "levels": null, "tract_id": "40109109800", "tract_name": "1098", "tags": {"addr:housenumber": "201", "addr:street": "South Western Avenue", "building": "retail", "source": "Bing"}}}, {"type": "Feature", "geometry": {"type": "Polygon", "coordinates": [[[-97.5314054, 35.4627903], [-97.530684, 35.4627903], [-97.530684, 35.4627584], [-97.530684, 35.4626244], [-97.5310054, 35.4626244], [-97.5310491, 35.4626244], [-97.5314054, 35.4626244], [-97.5314054, 35.4627903]]]}, "properties": {"osm_id": 250813993, "building": "yes", "name": "", "height": null, "height_m": null, "levels": null, "tract_id": "40109109800", "tract_name": "1098", "tags": {"building": "yes", "source": "Bing"}}}, {"type": "Feature", "geometry": {"type": "Polygon", "coordinates": [[[-97.5313919, 35.4626096], [-97.5310619, 35.4626096], [-97.5310619, 35.4625957], [-97.5310502, 35.4625957], [-97.5310246, 35.4625957], [-97.5303881, 35.4625957], [-97.5303881, 35.4623834], [-97.5303881, 35.4622789], [-97.5313919, 35.4622789], [-97.5313919, 35.4626096]]]}, "properties": {"osm_id": 250813994, "building": "yes", "name": "", "height": null, "height_m": null, "levels": null, "tract_id": "40109109800", "tract_name": "1098", "tags": {"building": "yes", "source": "Bing"}}}, {"type": "Feature", "geometry": {"type": "Polygon", "coordinates": [[[-97.5307737, 35.4638948], [-97.5307757, 35.4638966], [-97.5308262, 35.4639418], [-97.5307098, 35.464028], [-97.5306626, 35.4639857], [-97.5306573, 35.4639809], [-97.5307737, 35.4638948]]]}, "properties": {"osm_id": 250822981, "building": "roof", "name": "", "height": null, "height_m": null, "levels": null, "tract_id": "40109109800", "tract_name": "1098", "tags": {"building": "roof", "source": "Bing"}}}, {"type": "Feature", "geometry": {"type": "Polygon", "coordinates": [[[-97.5311202, 35.4641048], [-97.5309658, 35.4639722], [-97.5310597, 35.4638997], [-97.531214, 35.4640324], [-97.5311202, 35.4641048]]]}, "properties": {"osm_id": 250822982, "building": "retail", "name": "", "height": null, "height_m": null, "levels": null, "tract_id": "40109109800", "tract_name": "1098", "tags": {"building": "retail", "shop": "convenience", "source": "Bing"}}}, {"type": "Feature", "geometry": {"type": "Polygon", "coordinates": [[[-97.5308708, 35.4640856], [-97.5307286, 35.4640856], [-97.5307262, 35.4641434], [-97.5307259, 35.4641512], [-97.5308734, 35.4641512], [-97.5308731, 35.4641448], [-97.5308708, 35.4640856]]]}, "properties": {"osm_id": 250822984, "building": "roof", "name": "", "height": null, "height_m": null, "levels": null, "tract_id": "40109109800", "tract_name": "1098", "tags": {"building": "roof", "source": "Bing"}}}, {"type": "Feature", "geometry": {"type": "Polygon", "coordinates": [[[-97.5427873, 35.4647685], [-97.5426908, 35.4647685], [-97.5426908, 35.4646408], [-97.5427872, 35.4646408], [-97.5427873, 35.4647685]]]}, "properties": {"osm_id": 251111920, "building": "yes", "name": "", "height": null, "height_m": null, "levels": null, "tract_id": "40109109800", "tract_name": "1098", "tags": {"building": "yes", "source": "Bing"}}}, {"type": "Feature", "geometry": {"type": "Polygon", "coordinates": [[[-97.5476858, 35.4667591], [-97.5473474, 35.4667591], [-97.5473474, 35.4666176], [-97.5476858, 35.4666176], [-97.5476858, 35.4667591]]]}, "properties": {"osm_id": 251111927, "building": "yes", "name": "", "height": null, "height_m": null, "levels": null, "tract_id": "40109109800", "tract_name": "1098", "tags": {"building": "yes", "source": "Bing"}}}, {"type": "Feature", "geometry": {"type": "Polygon", "coordinates": [[[-97.5476578, 35.4647283], [-97.5472949, 35.4647283], [-97.5472949, 35.4644418], [-97.5476578, 35.4644418], [-97.5476578, 35.4647283]]]}, "properties": {"osm_id": 251111930, "building": "yes", "name": "", "height": null, "height_m": null, "levels": null, "tract_id": "40109109800", "tract_name": "1098", "tags": {"building": "yes", "source": "Bing"}}}, {"type": "Feature", "geometry": {"type": "Polygon", "coordinates": [[[-97.54328, 35.4646899], [-97.5430845, 35.4646896], [-97.5430853, 35.464426], [-97.543074, 35.464426], [-97.5430743, 35.4643195], [-97.5433115, 35.46432], [-97.5433113, 35.4643761], [-97.5433045, 35.464376], [-97.5433039, 35.4646506], [-97.5432854, 35.4646505], [-97.5432853, 35.4646745], [-97.5432801, 35.4646745], [-97.54328, 35.4646899]]]}, "properties": {"osm_id": 251111935, "building": "yes", "name": "", "height": null, "height_m": null, "levels": null, "tract_id": "40109109800", "tract_name": "1098", "tags": {"building": "yes", "source": "Bing"}}}, {"type": "Feature", "geometry": {"type": "Polygon", "coordinates": [[[-97.5467762, 35.4649604], [-97.545957, 35.4649604], [-97.545957, 35.46442], [-97.5465647, 35.46442], [-97.5465647, 35.4645959], [-97.5467762, 35.4645959], [-97.5467762, 35.4649604]]]}, "properties": {"osm_id": 251111936, "building": "yes", "name": "", "height": null, "height_m": null, "levels": null, "tract_id": "40109109800", "tract_name": "1098", "tags": {"building": "yes", "source": "Bing"}}}, {"type": "Feature", "geometry": {"type": "Polygon", "coordinates": [[[-97.546206, 35.4664053], [-97.5477131, 35.4664053], [-97.5477131, 35.4666026], [-97.5472109, 35.4666026], [-97.5472109, 35.466759], [-97.546206, 35.466759], [-97.546206, 35.4664053]]]}, "properties": {"osm_id": 251112005, "building": "yes", "name": "", "height": null, "height_m": null, "levels": null, "tract_id": "40109109800", "tract_name": "1098", "tags": {"building": "yes", "source": "Bing"}}}, {"type": "Feature", "geometry": {"type": "Polygon", "coordinates": [[[-97.5477126, 35.466364], [-97.5457528, 35.466364], [-97.5457528, 35.4662753], [-97.5456597, 35.4662753], [-97.5456597, 35.4659244], [-97.5472051, 35.4659244], [-97.5472051, 35.4661178], [-97.5476481, 35.4661178], [-97.5476481, 35.4660924], [-97.5477126, 35.4660924], [-97.5477126, 35.466364]]]}, "properties": {"osm_id": 251112695, "building": "yes", "name": "", "height": null, "height_m": null, "levels": null, "tract_id": "40109109800", "tract_name": "1098", "tags": {"building": "yes", "source": "Bing"}}}, {"type": "Feature", "geometry": {"type": "Polygon", "coordinates": [[[-97.5448355, 35.4667748], [-97.544505, 35.4667748], [-97.544505, 35.4664475], [-97.5448355, 35.4664475], [-97.5448355, 35.4667748]]]}, "properties": {"osm_id": 251112697, "building": "yes", "name": "", "height": null, "height_m": null, "levels": null, "tract_id": "40109109800", "tract_name": "1098", "tags": {"building": "yes", "source": "Bing"}}}, {"type": "Feature", "geometry": {"type": "Polygon", "coordinates": [[[-97.547325, 35.4672328], [-97.547325, 35.4669518], [-97.547512, 35.4669518], [-97.547512, 35.4672328], [-97.547325, 35.4672328]]]}, "properties": {"osm_id": 251112698, "building": "retail", "name": "", "height": null, "height_m": 3.0, "levels": 1, "tract_id": "40109109800", "tract_name": "1098", "tags": {"addr:housenumber": "2", "addr:street": "North Pennsylvania Avenue", "building": "retail", "building:levels": "1", "roof:levels": "0", "roof:shape": "flat", "source": "Bing"}}}, {"type": "Feature", "geometry": {"type": "Polygon", "coordinates": [[[-97.5470769, 35.4676408], [-97.5468769, 35.4676408], [-97.5468769, 35.4673229], [-97.5470769, 35.4673229], [-97.5470769, 35.4676408]]]}, "properties": {"osm_id": 251112699, "building": "yes", "name": "", "height": null, "height_m": null, "levels": null, "tract_id": "40109109800", "tract_name": "1098", "tags": {"building": "yes", "roof:shape": "flat", "source": "Bing"}}}, {"type": "Feature", "geometry": {"type": "Polygon", "coordinates": [[[-97.546019, 35.4673447], [-97.5461859, 35.4673447], [-97.5461859, 35.4676844], [-97.546019, 35.4676844], [-97.546019, 35.4673447]]]}, "properties": {"osm_id": 251112700, "building": "yes", "name": "", "height": null, "height_m": null, "levels": null, "tract_id": "40109109800", "tract_name": "1098", "tags": {"building": "yes", "source": "Bing"}}}, {"type": "Feature", "geometry": {"type": "Polygon", "coordinates": [[[-97.5443148, 35.467275], [-97.5439887, 35.4672757], [-97.5439876, 35.4669185], [-97.5443137, 35.4669179], [-97.5443148, 35.467275]]]}, "properties": {"osm_id": 251112704, "building": "yes", "name": "", "height": null, "height_m": null, "levels": null, "tract_id": "40109109800", "tract_name": "1098", "tags": {"building": "yes", "roof:shape": "flat", "source": "Bing"}}}, {"type": "Feature", "geometry": {"type": "Polygon", "coordinates": [[[-97.5453252, 35.4670532], [-97.5451547, 35.4670532], [-97.5451547, 35.466924], [-97.5453252, 35.466924], [-97.5453252, 35.4670532]]]}, "properties": {"osm_id": 251112705, "building": "roof", "name": "", "height": null, "height_m": null, "levels": null, "tract_id": "40109109800", "tract_name": "1098", "tags": {"building": "roof", "source": "Bing"}}}, {"type": "Feature", "geometry": {"type": "Polygon", "coordinates": [[[-97.5438202, 35.4666276], [-97.5438202, 35.4664789], [-97.5438987, 35.4664789], [-97.5438987, 35.4666276], [-97.5438202, 35.4666276]]]}, "properties": {"osm_id": 251112706, "building": "roof", "name": "", "height": null, "height_m": null, "levels": null, "tract_id": "40109109800", "tract_name": "1098", "tags": {"building": "roof", "source": "Bing"}}}, {"type": "Feature", "geometry": {"type": "Polygon", "coordinates": [[[-97.5453252, 35.4672753], [-97.5449935, 35.4672753], [-97.5449935, 35.4670532], [-97.5451547, 35.4670532], [-97.5453252, 35.4670532], [-97.5453252, 35.4672753]]]}, "properties": {"osm_id": 251112707, "building": "yes", "name": "", "height": null, "height_m": null, "levels": null, "tract_id": "40109109800", "tract_name": "1098", "tags": {"building": "yes", "source": "Bing"}}}, {"type": "Feature", "geometry": {"type": "Polygon", "coordinates": [[[-97.5438202, 35.4667768], [-97.5434802, 35.4667768], [-97.5434802, 35.4664473], [-97.5438202, 35.4664473], [-97.5438202, 35.4664789], [-97.5438202, 35.4666276], [-97.5438202, 35.4667768]]]}, "properties": {"osm_id": 251112708, "building": "yes", "name": "", "height": null, "height_m": null, "levels": null, "tract_id": "40109109800", "tract_name": "1098", "tags": {"building": "yes", "source": "Bing"}}}, {"type": "Feature", "geometry": {"type": "Polygon", "coordinates": [[[-97.5458286, 35.4672767], [-97.5458286, 35.4669126], [-97.5466859, 35.4669126], [-97.5466859, 35.4670479], [-97.5468941, 35.4670479], [-97.5468941, 35.4669126], [-97.547102, 35.4669126], [-97.547102, 35.4672767], [-97.5458286, 35.4672767]]]}, "properties": {"osm_id": 251112709, "building": "yes", "name": "", "height": null, "height_m": null, "levels": null, "tract_id": "40109109800", "tract_name": "1098", "tags": {"building": "yes", "source": "Bing"}}}, {"type": "Feature", "geometry": {"type": "Polygon", "coordinates": [[[-97.5444782, 35.4667768], [-97.5441327, 35.4667768], [-97.5441327, 35.4666114], [-97.5440673, 35.4666114], [-97.5440673, 35.4664999], [-97.5440398, 35.4664999], [-97.5440398, 35.4664448], [-97.5444782, 35.4664448], [-97.5444782, 35.4667768]]]}, "properties": {"osm_id": 251112710, "building": "yes", "name": "", "height": null, "height_m": null, "levels": null, "tract_id": "40109109800", "tract_name": "1098", "tags": {"building": "yes", "source": "Bing"}}}, {"type": "Feature", "geometry": {"type": "Polygon", "coordinates": [[[-97.5451299, 35.4663667], [-97.5451299, 35.466286], [-97.545237, 35.466286], [-97.545237, 35.4662321], [-97.5453377, 35.4662321], [-97.5453377, 35.4663546], [-97.5452504, 35.4663546], [-97.5452504, 35.4663667], [-97.5451299, 35.4663667]]]}, "properties": {"osm_id": 251112711, "building": "yes", "name": "", "height": null, "height_m": null, "levels": null, "tract_id": "40109109800", "tract_name": "1098", "tags": {"building": "yes", "source": "Bing"}}}, {"type": "Feature", "geometry": {"type": "Polygon", "coordinates": [[[-97.5434752, 35.4663653], [-97.5434752, 35.4660379], [-97.5441524, 35.4660378], [-97.5441524, 35.4660007], [-97.5448332, 35.4660008], [-97.5448332, 35.4663168], [-97.5447887, 35.4663168], [-97.5447881, 35.4663471], [-97.5446501, 35.4663653], [-97.5434752, 35.4663653]]]}, "properties": {"osm_id": 251112713, "building": "yes", "name": "", "height": null, "height_m": null, "levels": null, "tract_id": "40109109800", "tract_name": "1098", "tags": {"building": "yes", "source": "Bing"}}}, {"type": "Feature", "geometry": {"type": "Polygon", "coordinates": [[[-97.5410738, 35.4640731], [-97.5409669, 35.464073], [-97.5409671, 35.46396], [-97.5405678, 35.4639595], [-97.5405681, 35.4638118], [-97.5408403, 35.4638121], [-97.5408405, 35.4637036], [-97.5409509, 35.4637037], [-97.5409507, 35.4638135], [-97.5410526, 35.4638136], [-97.5410522, 35.4639803], [-97.541074, 35.4639803], [-97.5410738, 35.4640731]]]}, "properties": {"osm_id": 251282483, "building": "yes", "name": "", "height": null, "height_m": null, "levels": null, "tract_id": "40109109800", "tract_name": "1098", "tags": {"building": "yes", "source": "Bing"}}}, {"type": "Feature", "geometry": {"type": "Polygon", "coordinates": [[[-97.5407763, 35.4638061], [-97.5407023, 35.463806], [-97.5407024, 35.4637495], [-97.5407764, 35.4637496], [-97.5407763, 35.4638061]]]}, "properties": {"osm_id": 251282484, "building": "yes", "name": "", "height": null, "height_m": null, "levels": null, "tract_id": "40109109800", "tract_name": "1098", "tags": {"building": "yes", "source": "Bing"}}}, {"type": "Feature", "geometry": {"type": "Polygon", "coordinates": [[[-97.5413634, 35.4627992], [-97.5412775, 35.4627991], [-97.5412777, 35.4626638], [-97.5413636, 35.4626639], [-97.5413634, 35.4627992]]]}, "properties": {"osm_id": 251282486, "building": "yes", "name": "", "height": null, "height_m": null, "levels": null, "tract_id": "40109109800", "tract_name": "1098", "tags": {"building": "yes", "source": "Bing"}}}, {"type": "Feature", "geometry": {"type": "Polygon", "coordinates": [[[-97.5415372, 35.4638525], [-97.5414248, 35.4638524], [-97.5414251, 35.4637202], [-97.5415374, 35.4637204], [-97.5415372, 35.4638525]]]}, "properties": {"osm_id": 251282487, "building": "yes", "name": "", "height": null, "height_m": null, "levels": null, "tract_id": "40109109800", "tract_name": "1098", "tags": {"building": "yes", "source": "Bing"}}}, {"type": "Feature", "geometry": {"type": "Polygon", "coordinates": [[[-97.5419275, 35.4634105], [-97.5417975, 35.4634103], [-97.5417978, 35.4632474], [-97.5419278, 35.4632476], [-97.5419275, 35.4634105]]]}, "properties": {"osm_id": 251282488, "building": "yes", "name": "", "height": null, "height_m": null, "levels": null, "tract_id": "40109109800", "tract_name": "1098", "tags": {"building": "yes", "source": "Bing"}}}, {"type": "Feature", "geometry": {"type": "Polygon", "coordinates": [[[-97.5401081, 35.4640799], [-97.5390242, 35.4640785], [-97.5390253, 35.463491], [-97.5401092, 35.4634924], [-97.5401081, 35.4640799]]]}, "properties": {"osm_id": 251282489, "building": "yes", "name": "", "height": null, "height_m": null, "levels": null, "tract_id": "40109109800", "tract_name": "1098", "tags": {"building": "yes", "source": "Bing"}}}, {"type": "Feature", "geometry": {"type": "Polygon", "coordinates": [[[-97.5415535, 35.4640751], [-97.5415548, 35.4634156], [-97.5419049, 35.463416], [-97.5419036, 35.4640755], [-97.5415535, 35.4640751]]]}, "properties": {"osm_id": 251282490, "building": "yes", "name": "", "height": null, "height_m": null, "levels": null, "tract_id": "40109109800", "tract_name": "1098", "tags": {"building": "yes", "source": "Bing"}}}, {"type": "Feature", "geometry": {"type": "Polygon", "coordinates": [[[-97.5417311, 35.4634002], [-97.541567, 35.4634], [-97.5415674, 35.4632023], [-97.5417315, 35.4632025], [-97.5417311, 35.4634002]]]}, "properties": {"osm_id": 251282491, "building": "yes", "name": "", "height": null, "height_m": null, "levels": null, "tract_id": "40109109800", "tract_name": "1098", "tags": {"building": "yes", "source": "Bing"}}}, {"type": "Feature", "geometry": {"type": "Polygon", "coordinates": [[[-97.5449114, 35.4641068], [-97.5445971, 35.464106], [-97.5445974, 35.4640103], [-97.5446121, 35.4640103], [-97.5446123, 35.4639494], [-97.5445976, 35.4639494], [-97.5445991, 35.4635198], [-97.5448901, 35.4635205], [-97.5448897, 35.4636281], [-97.5449275, 35.4636281], [-97.544927, 35.4637674], [-97.5448972, 35.4637673], [-97.5448969, 35.4638355], [-97.5449123, 35.4638355], [-97.5449122, 35.4638711], [-97.5448972, 35.463871], [-97.5448967, 35.4640226], [-97.5449117, 35.4640226], [-97.5449114, 35.4641068]]]}, "properties": {"osm_id": 251283331, "building": "industrial", "name": "", "height": null, "height_m": null, "levels": null, "tract_id": "40109109800", "tract_name": "1098", "tags": {"building": "industrial", "source": "Bing"}}}, {"type": "Feature", "geometry": {"type": "Polygon", "coordinates": [[[-97.5419453, 35.4625667], [-97.5419451, 35.4626483], [-97.5417379, 35.4626479], [-97.5417381, 35.4625662], [-97.5419453, 35.4625667]]]}, "properties": {"osm_id": 251283332, "building": "yes", "name": "", "height": null, "height_m": null, "levels": null, "tract_id": "40109109800", "tract_name": "1098", "tags": {"building": "yes", "source": "Bing"}}}, {"type": "Feature", "geometry": {"type": "Polygon", "coordinates": [[[-97.5416408, 35.4626501], [-97.5413016, 35.4626493], [-97.5413021, 35.4624876], [-97.5416413, 35.4624883], [-97.5416408, 35.4626501]]]}, "properties": {"osm_id": 251283333, "building": "yes", "name": "", "height": null, "height_m": null, "levels": null, "tract_id": "40109109800", "tract_name": "1098", "tags": {"building": "yes", "source": "Bing"}}}, {"type": "Feature", "geometry": {"type": "Polygon", "coordinates": [[[-97.5471674, 35.4641286], [-97.5468898, 35.4641264], [-97.5468965, 35.4634431], [-97.5463249, 35.4634352], [-97.5463253, 35.4633709], [-97.5462476, 35.4633669], [-97.5462463, 35.4634322], [-97.5461591, 35.4634315], [-97.5461567, 35.4634157], [-97.5458489, 35.4634136], [-97.5458469, 35.4634765], [-97.5460286, 35.4634763], [-97.5460322, 35.4636642], [-97.5456369, 35.4636655], [-97.5456321, 35.4641135], [-97.5451018, 35.4641093], [-97.5451024, 35.4634084], [-97.5447304, 35.4634066], [-97.5447302, 35.4634407], [-97.5444479, 35.4634409], [-97.5444481, 35.4634086], [-97.5443487, 35.4634089], [-97.5443473, 35.4635405], [-97.5445102, 35.4635395], [-97.5445086, 35.4641012], [-97.544035, 35.4640956], [-97.5440374, 35.4636112], [-97.5440736, 35.4636113], [-97.544074, 35.4635434], [-97.543734, 35.4635423], [-97.5437275, 35.4640976], [-97.5429807, 35.4640939], [-97.5429865, 35.4635411], [-97.5430503, 35.4635394], [-97.5430492, 35.4634905], [-97.5430485, 35.4634584], [-97.5429861, 35.4634606], [-97.5429947, 35.4624691], [-97.5430572, 35.4624722], [-97.5430573, 35.4624261], [-97.5430573, 35.4623752], [-97.5430574, 35.4623226], [-97.5429954, 35.4623233], [-97.5429904, 35.4621529], [-97.5430592, 35.4621532], [-97.5430589, 35.4621632], [-97.5433317, 35.4621663], [-97.5433324, 35.462248], [-97.5436751, 35.4622491], [-97.5436755, 35.4623393], [-97.5443539, 35.462339], [-97.5443566, 35.4624279], [-97.5443549, 35.4624682], [-97.5444522, 35.4624644], [-97.5450185, 35.4626077], [-97.5449553, 35.4627684], [-97.5443948, 35.4626256], [-97.5443953, 35.4627238], [-97.5443569, 35.4627247], [-97.5443557, 35.4627866], [-97.5445258, 35.4627911], [-97.5445196, 35.4630267], [-97.5445691, 35.4630256], [-97.5445669, 35.4629818], [-97.5446443, 35.4629825], [-97.5446469, 35.463024], [-97.544817, 35.4630261], [-97.5448177, 35.4630603], [-97.5449815, 35.4630612], [-97.5449806, 35.462995], [-97.5450351, 35.4629979], [-97.5450342, 35.4629299], [-97.545055, 35.46293], [-97.545059, 35.4627415], [-97.5451058, 35.4627399], [-97.5451035, 35.4626804], [-97.5451484, 35.4626812], [-97.5451438, 35.4626518], [-97.5452897, 35.4626502], [-97.5452922, 35.4626799], [-97.5453292, 35.4626774], [-97.5453315, 35.4627455], [-97.5454025, 35.4627415], [-97.5454039, 35.4628454], [-97.5461622, 35.462851], [-97.5461649, 35.4629337], [-97.546417, 35.4629358], [-97.5464169, 35.4630609], [-97.5471773, 35.4630679], [-97.5471674, 35.4641286]]]}, "properties": {"osm_id": 251283334, "building": "industrial", "name": "", "height": null, "height_m": null, "levels": null, "tract_id": "40109109800", "tract_name": "1098", "tags": {"building": "industrial", "source": "Bing"}}}, {"type": "Feature", "geometry": {"type": "Polygon", "coordinates": [[[-97.5477465, 35.4744772], [-97.5477355, 35.4748476], [-97.5472283, 35.474715], [-97.5472482, 35.4746725], [-97.5472286, 35.4746636], [-97.5472547, 35.4746115], [-97.5470452, 35.4746115], [-97.5470431, 35.4744418], [-97.5470073, 35.4744409], [-97.547004, 35.4742862], [-97.5471679, 35.474326], [-97.5477465, 35.4744772]]]}, "properties": {"osm_id": 251831816, "building": "yes", "name": "", "height": null, "height_m": null, "levels": null, "tract_id": "40109109800", "tract_name": "1098", "tags": {"building": "yes", "source": "Bing"}}}, {"type": "Feature", "geometry": {"type": "Polygon", "coordinates": [[[-97.5466246, 35.4741868], [-97.5467528, 35.4742156], [-97.5467522, 35.4743516], [-97.5469172, 35.4743525], [-97.5469183, 35.474448], [-97.5467511, 35.4744489], [-97.5467517, 35.4745925], [-97.5463218, 35.4744843], [-97.5463246, 35.474357], [-97.5462281, 35.474357], [-97.5462226, 35.4742023], [-97.5462009, 35.4742014], [-97.5462009, 35.4741811], [-97.5461543, 35.474182], [-97.5461591, 35.4740768], [-97.5462823, 35.4741084], [-97.5466246, 35.4741868]]]}, "properties": {"osm_id": 251831818, "building": "yes", "name": "", "height": null, "height_m": null, "levels": null, "tract_id": "40109109800", "tract_name": "1098", "tags": {"building": "yes", "source": "Bing"}}}, {"type": "Feature", "geometry": {"type": "Polygon", "coordinates": [[[-97.5476381, 35.4726977], [-97.5472954, 35.4726971], [-97.5472962, 35.4723929], [-97.5476389, 35.4723935], [-97.5476381, 35.4726977]]]}, "properties": {"osm_id": 251831819, "building": "yes", "name": "", "height": null, "height_m": null, "levels": null, "tract_id": "40109109800", "tract_name": "1098", "tags": {"building": "yes", "source": "Bing"}}}, {"type": "Feature", "geometry": {"type": "Polygon", "coordinates": [[[-97.546087, 35.4743481], [-97.5459153, 35.4743472], [-97.545911, 35.4740627], [-97.5460783, 35.4740625], [-97.546087, 35.4743481]]]}, "properties": {"osm_id": 251831820, "building": "yes", "name": "", "height": null, "height_m": null, "levels": null, "tract_id": "40109109800", "tract_name": "1098", "tags": {"building": "yes", "source": "Bing"}}}, {"type": "Feature", "geometry": {"type": "Polygon", "coordinates": [[[-97.5471738, 35.4739596], [-97.5471744, 35.4737939], [-97.5470137, 35.4737505], [-97.5470148, 35.4739591], [-97.5471738, 35.4739596]]]}, "properties": {"osm_id": 251831821, "building": "yes", "name": "", "height": null, "height_m": null, "levels": null, "tract_id": "40109109800", "tract_name": "1098", "tags": {"building": "yes", "source": "Bing"}}}, {"type": "Feature", "geometry": {"type": "Polygon", "coordinates": [[[-97.5466814, 35.4740398], [-97.5466794, 35.4736651], [-97.5463389, 35.4735789], [-97.5463401, 35.4739475], [-97.5466814, 35.4740398]]]}, "properties": {"osm_id": 251831822, "building": "yes", "name": "", "height": null, "height_m": null, "levels": null, "tract_id": "40109109800", "tract_name": "1098", "tags": {"building": "yes", "source": "Bing"}}}, {"type": "Feature", "geometry": {"type": "Polygon", "coordinates": [[[-97.5462564, 35.4732799], [-97.5462582, 35.4731473], [-97.5457355, 35.4731465], [-97.545736, 35.4732808], [-97.5462564, 35.4732799]]]}, "properties": {"osm_id": 251831823, "building": "yes", "name": "", "height": null, "height_m": null, "levels": null, "tract_id": "40109109800", "tract_name": "1098", "tags": {"building": "yes", "source": "Bing"}}}, {"type": "Feature", "geometry": {"type": "Polygon", "coordinates": [[[-97.5477258, 35.4741137], [-97.5476711, 35.4741136], [-97.5476714, 35.4740405], [-97.5477267, 35.4740408], [-97.5477258, 35.4741137]]]}, "properties": {"osm_id": 251831824, "building": "yes", "name": "", "height": null, "height_m": null, "levels": null, "tract_id": "40109109800", "tract_name": "1098", "tags": {"building": "yes", "source": "Bing"}}}, {"type": "Feature", "geometry": {"type": "Polygon", "coordinates": [[[-97.5471953, 35.4726945], [-97.5467885, 35.4726938], [-97.5467893, 35.4723942], [-97.5471961, 35.4723949], [-97.5471953, 35.4726945]]]}, "properties": {"osm_id": 251831825, "building": "yes", "name": "", "height": null, "height_m": null, "levels": null, "tract_id": "40109109800", "tract_name": "1098", "tags": {"building": "yes", "source": "Bing"}}}, {"type": "Feature", "geometry": {"type": "Polygon", "coordinates": [[[-97.5472478, 35.4739232], [-97.5471843, 35.473923], [-97.5471848, 35.473795], [-97.5472484, 35.4737952], [-97.5472478, 35.4739232]]]}, "properties": {"osm_id": 251831826, "building": "yes", "name": "", "height": null, "height_m": null, "levels": null, "tract_id": "40109109800", "tract_name": "1098", "tags": {"building": "yes", "source": "Bing"}}}, {"type": "Feature", "geometry": {"type": "Polygon", "coordinates": [[[-97.5465963, 35.4734221], [-97.5462544, 35.4734217], [-97.5462564, 35.4732799], [-97.5462582, 35.4731473], [-97.5465963, 35.4731473], [-97.5465963, 35.4734221]]]}, "properties": {"osm_id": 251831828, "building": "yes", "name": "", "height": null, "height_m": null, "levels": null, "tract_id": "40109109800", "tract_name": "1098", "tags": {"building": "yes", "source": "Bing"}}}, {"type": "Feature", "geometry": {"type": "Polygon", "coordinates": [[[-97.5470148, 35.4739591], [-97.5470145, 35.4741235], [-97.5466947, 35.4740431], [-97.546693, 35.4736682], [-97.5470137, 35.4737505], [-97.5470148, 35.4739591]]]}, "properties": {"osm_id": 251831829, "building": "yes", "name": "", "height": null, "height_m": null, "levels": null, "tract_id": "40109109800", "tract_name": "1098", "tags": {"building": "yes", "source": "Bing"}}}, {"type": "Feature", "geometry": {"type": "Polygon", "coordinates": [[[-97.5477402, 35.4742996], [-97.5477378, 35.474122], [-97.5476378, 35.4741202], [-97.5476378, 35.4741529], [-97.5475662, 35.4741538], [-97.547573, 35.4742594], [-97.5477402, 35.4742996]]]}, "properties": {"osm_id": 251831830, "building": "yes", "name": "", "height": null, "height_m": null, "levels": null, "tract_id": "40109109800", "tract_name": "1098", "tags": {"building": "yes", "source": "Bing"}}}, {"type": "Feature", "geometry": {"type": "Polygon", "coordinates": [[[-97.5472014, 35.4737256], [-97.5467622, 35.4736218], [-97.5467513, 35.4731959], [-97.546871, 35.4731984], [-97.546871, 35.4730859], [-97.5469171, 35.4730871], [-97.5469186, 35.4729934], [-97.5471955, 35.4729884], [-97.5472014, 35.4737256]]]}, "properties": {"osm_id": 251831831, "building": "yes", "name": "", "height": null, "height_m": null, "levels": null, "tract_id": "40109109800", "tract_name": "1098", "tags": {"building": "yes", "source": "Bing"}}}, {"type": "Feature", "geometry": {"type": "Polygon", "coordinates": [[[-97.5459014, 35.4741908], [-97.5459013, 35.474058], [-97.5458677, 35.4740589], [-97.5458681, 35.4740026], [-97.5457043, 35.4739997], [-97.5457054, 35.474062], [-97.5456713, 35.4740626], [-97.5456765, 35.4741903], [-97.5459014, 35.4741908]]]}, "properties": {"osm_id": 251831832, "building": "yes", "name": "", "height": null, "height_m": null, "levels": null, "tract_id": "40109109800", "tract_name": "1098", "tags": {"building": "yes", "source": "Bing"}}}, {"type": "Feature", "geometry": {"type": "Polygon", "coordinates": [[[-97.5459903, 35.4738597], [-97.5456636, 35.4737777], [-97.5456749, 35.4734189], [-97.5459972, 35.4734966], [-97.545993, 35.4737163], [-97.5460652, 35.4737172], [-97.5460628, 35.4738435], [-97.5459907, 35.4738426], [-97.5459903, 35.4738597]]]}, "properties": {"osm_id": 251831835, "building": "yes", "name": "", "height": null, "height_m": null, "levels": null, "tract_id": "40109109800", "tract_name": "1098", "tags": {"building": "yes", "source": "Bing"}}}, {"type": "Feature", "geometry": {"type": "Polygon", "coordinates": [[[-97.547736, 35.4739938], [-97.5477348, 35.4739038], [-97.5476286, 35.4739019], [-97.5476286, 35.4739526], [-97.5476025, 35.4739538], [-97.5476025, 35.4739807], [-97.5476516, 35.4739807], [-97.5476501, 35.4739938], [-97.547736, 35.4739938]]]}, "properties": {"osm_id": 251831836, "building": "yes", "name": "", "height": null, "height_m": null, "levels": null, "tract_id": "40109109800", "tract_name": "1098", "tags": {"building": "yes", "source": "Bing"}}}, {"type": "Feature", "geometry": {"type": "Polygon", "coordinates": [[[-97.5476486, 35.4736357], [-97.5476025, 35.4736356], [-97.5476022, 35.4737085], [-97.5474702, 35.4737081], [-97.5474705, 35.4736352], [-97.5473108, 35.4736347], [-97.5473139, 35.4729473], [-97.5476516, 35.4729483], [-97.5476486, 35.4736357]]]}, "properties": {"osm_id": 251831837, "building": "retail", "name": "", "height": null, "height_m": null, "levels": null, "tract_id": "40109109800", "tract_name": "1098", "tags": {"building": "retail", "source": "Bing"}}}, {"type": "Feature", "geometry": {"type": "Polygon", "coordinates": [[[-97.5474931, 35.4720102], [-97.5474923, 35.4723146], [-97.5467367, 35.4723133], [-97.5467375, 35.4720089], [-97.5474931, 35.4720102]]]}, "properties": {"osm_id": 251834560, "building": "yes", "name": "", "height": null, "height_m": null, "levels": null, "tract_id": "40109109800", "tract_name": "1098", "tags": {"building": "yes", "source": "Bing"}}}, {"type": "Feature", "geometry": {"type": "Polygon", "coordinates": [[[-97.5469353, 35.4717715], [-97.5465989, 35.471768], [-97.5466011, 35.4716293], [-97.5469375, 35.4716329], [-97.5469353, 35.4717715]]]}, "properties": {"osm_id": 251834561, "building": "yes", "name": "", "height": null, "height_m": null, "levels": null, "tract_id": "40109109800", "tract_name": "1098", "tags": {"building": "yes", "source": "Bing"}}}, {"type": "Feature", "geometry": {"type": "Polygon", "coordinates": [[[-97.5460074, 35.4717441], [-97.5457198, 35.4717433], [-97.5457208, 35.4715285], [-97.5460084, 35.4715293], [-97.5460074, 35.4717441]]]}, "properties": {"osm_id": 251834562, "building": "yes", "name": "", "height": null, "height_m": null, "levels": null, "tract_id": "40109109800", "tract_name": "1098", "tags": {"building": "yes", "source": "Bing"}}}, {"type": "Feature", "geometry": {"type": "Polygon", "coordinates": [[[-97.547632, 35.4717742], [-97.5469505, 35.4717742], [-97.5469505, 35.4715108], [-97.547632, 35.4715108], [-97.547632, 35.4717742]]]}, "properties": {"osm_id": 251834563, "building": "yes", "name": "", "height": null, "height_m": null, "levels": null, "tract_id": "40109109800", "tract_name": "1098", "tags": {"building": "yes", "source": "Bing"}}}, {"type": "Feature", "geometry": {"type": "Polygon", "coordinates": [[[-97.5464154, 35.471768], [-97.5460074, 35.4717671], [-97.5460074, 35.4717441], [-97.5460084, 35.4715293], [-97.5460082, 35.4715178], [-97.5464163, 35.4715187], [-97.5464154, 35.471768]]]}, "properties": {"osm_id": 251834564, "building": "yes", "name": "", "height": null, "height_m": null, "levels": null, "tract_id": "40109109800", "tract_name": "1098", "tags": {"building": "yes", "source": "Bing"}}}, {"type": "Feature", "geometry": {"type": "Polygon", "coordinates": [[[-97.546644, 35.4727727], [-97.5463553, 35.4727727], [-97.5463553, 35.4726363], [-97.5457356, 35.4726363], [-97.5457356, 35.4725197], [-97.5457899, 35.4725197], [-97.5457899, 35.4722148], [-97.545689, 35.4722148], [-97.545689, 35.4719702], [-97.5461296, 35.4719702], [-97.5461296, 35.4720521], [-97.5463607, 35.4720521], [-97.5463607, 35.4719702], [-97.546644, 35.4719702], [-97.546644, 35.4727727]]]}, "properties": {"osm_id": 251835327, "building": "yes", "name": "", "height": null, "height_m": null, "levels": null, "tract_id": "40109109800", "tract_name": "1098", "tags": {"building": "yes", "source": "Bing"}}}, {"type": "Feature", "geometry": {"type": "Polygon", "coordinates": [[[-97.5468544, 35.4711393], [-97.5468544, 35.4714488], [-97.5465109, 35.4714488], [-97.5465109, 35.4714575], [-97.5463418, 35.4714575], [-97.5463418, 35.4714404], [-97.5461818, 35.4714404], [-97.5461818, 35.4711759], [-97.5463466, 35.4711759], [-97.5463466, 35.4711488], [-97.5465173, 35.4711488], [-97.5465173, 35.4711393], [-97.5468544, 35.4711393]]]}, "properties": {"osm_id": 252224353, "building": "yes", "name": "", "height": null, "height_m": null, "levels": null, "tract_id": "40109109800", "tract_name": "1098", "tags": {"building": "yes", "source": "Bing"}}}, {"type": "Feature", "geometry": {"type": "Polygon", "coordinates": [[[-97.5472883, 35.470591], [-97.54722, 35.470591], [-97.54722, 35.4705367], [-97.5472883, 35.4705367], [-97.5472883, 35.470591]]]}, "properties": {"osm_id": 252224354, "building": "yes", "name": "", "height": null, "height_m": null, "levels": null, "tract_id": "40109109800", "tract_name": "1098", "tags": {"building": "yes", "source": "Bing"}}}, {"type": "Feature", "geometry": {"type": "Polygon", "coordinates": [[[-97.5473114, 35.4713006], [-97.5473105, 35.4711234], [-97.5474315, 35.471123], [-97.5474325, 35.4713002], [-97.5473114, 35.4713006]]]}, "properties": {"osm_id": 252224355, "building": "yes", "name": "", "height": null, "height_m": null, "levels": null, "tract_id": "40109109800", "tract_name": "1098", "tags": {"building": "yes", "source": "Bing"}}}, {"type": "Feature", "geometry": {"type": "Polygon", "coordinates": [[[-97.5463677, 35.468317], [-97.5462867, 35.4683169], [-97.5462875, 35.4679529], [-97.5463684, 35.467953], [-97.5463677, 35.468317]]]}, "properties": {"osm_id": 252224356, "building": "yes", "name": "", "height": null, "height_m": null, "levels": null, "tract_id": "40109109800", "tract_name": "1098", "tags": {"building": "yes", "source": "Bing"}}}, {"type": "Feature", "geometry": {"type": "Polygon", "coordinates": [[[-97.5460648, 35.468531], [-97.5459938, 35.4685309], [-97.5459941, 35.4684146], [-97.546065, 35.4684147], [-97.5460648, 35.468531]]]}, "properties": {"osm_id": 252224357, "building": "yes", "name": "", "height": null, "height_m": null, "levels": null, "tract_id": "40109109800", "tract_name": "1098", "tags": {"building": "yes", "source": "Bing"}}}, {"type": "Feature", "geometry": {"type": "Polygon", "coordinates": [[[-97.5461973, 35.4703964], [-97.5458622, 35.4703964], [-97.5458622, 35.4700511], [-97.5461973, 35.4700511], [-97.5461973, 35.4703964]]]}, "properties": {"osm_id": 252224358, "building": "yes", "name": "", "height": null, "height_m": null, "levels": null, "tract_id": "40109109800", "tract_name": "1098", "tags": {"building": "yes", "source": "Bing"}}}, {"type": "Feature", "geometry": {"type": "Polygon", "coordinates": [[[-97.5472772, 35.4714523], [-97.5471994, 35.4714523], [-97.5471994, 35.4713864], [-97.5472772, 35.4713864], [-97.5472772, 35.4714523]]]}, "properties": {"osm_id": 252224359, "building": "yes", "name": "", "height": null, "height_m": null, "levels": null, "tract_id": "40109109800", "tract_name": "1098", "tags": {"building": "yes", "source": "Bing"}}}, {"type": "Feature", "geometry": {"type": "Polygon", "coordinates": [[[-97.5477012, 35.4681312], [-97.5475837, 35.4681312], [-97.5475837, 35.4680653], [-97.5477012, 35.4680653], [-97.5477012, 35.4681312]]]}, "properties": {"osm_id": 252224360, "building": "roof", "name": "", "height": null, "height_m": null, "levels": null, "tract_id": "40109109800", "tract_name": "1098", "tags": {"building": "roof", "roof:shape": "flat", "source": "Bing"}}}, {"type": "Feature", "geometry": {"type": "Polygon", "coordinates": [[[-97.5464625, 35.4706608], [-97.5462132, 35.4706608], [-97.5462132, 35.4705004], [-97.5464625, 35.4705004], [-97.5464625, 35.4706608]]]}, "properties": {"osm_id": 252224361, "building": "yes", "name": "", "height": null, "height_m": null, "levels": null, "tract_id": "40109109800", "tract_name": "1098", "tags": {"building": "yes", "source": "Bing"}}}, {"type": "Feature", "geometry": {"type": "Polygon", "coordinates": [[[-97.5475313, 35.4712933], [-97.5474567, 35.4712933], [-97.5474567, 35.4712092], [-97.5475313, 35.4712092], [-97.5475313, 35.4712933]]]}, "properties": {"osm_id": 252224362, "building": "yes", "name": "", "height": null, "height_m": null, "levels": null, "tract_id": "40109109800", "tract_name": "1098", "tags": {"building": "yes", "source": "Bing"}}}, {"type": "Feature", "geometry": {"type": "Polygon", "coordinates": [[[-97.5473646, 35.4708497], [-97.5471867, 35.4708497], [-97.5471867, 35.4706375], [-97.5473646, 35.4706375], [-97.5473646, 35.4708497]]]}, "properties": {"osm_id": 252224363, "building": "yes", "name": "", "height": null, "height_m": null, "levels": null, "tract_id": "40109109800", "tract_name": "1098", "tags": {"building": "yes", "source": "Bing"}}}, {"type": "Feature", "geometry": {"type": "Polygon", "coordinates": [[[-97.5467531, 35.4707992], [-97.546588, 35.4707992], [-97.546588, 35.4705599], [-97.5467531, 35.4705599], [-97.5467531, 35.4707992]]]}, "properties": {"osm_id": 252224364, "building": "yes", "name": "", "height": null, "height_m": null, "levels": null, "tract_id": "40109109800", "tract_name": "1098", "tags": {"building": "yes", "source": "Bing"}}}, {"type": "Feature", "geometry": {"type": "Polygon", "coordinates": [[[-97.5472035, 35.4683925], [-97.5475381, 35.4683925], [-97.5475381, 35.4686787], [-97.5472035, 35.4686787], [-97.5472035, 35.4683925]]]}, "properties": {"osm_id": 252224365, "building": "yes", "name": "", "height": null, "height_m": null, "levels": null, "tract_id": "40109109800", "tract_name": "1098", "tags": {"building": "yes", "source": "Bing"}}}, {"type": "Feature", "geometry": {"type": "Polygon", "coordinates": [[[-97.5458673, 35.4686978], [-97.5456984, 35.4686976], [-97.5456991, 35.4683838], [-97.5458679, 35.468384], [-97.5458673, 35.4686978]]]}, "properties": {"osm_id": 252224366, "building": "yes", "name": "", "height": null, "height_m": null, "levels": null, "tract_id": "40109109800", "tract_name": "1098", "tags": {"building": "yes", "source": "Bing"}}}, {"type": "Feature", "geometry": {"type": "Polygon", "coordinates": [[[-97.5461916, 35.46981], [-97.5459623, 35.4698091], [-97.5459645, 35.4694304], [-97.5461938, 35.4694313], [-97.5461916, 35.46981]]]}, "properties": {"osm_id": 252224367, "building": "yes", "name": "", "height": null, "height_m": null, "levels": null, "tract_id": "40109109800", "tract_name": "1098", "tags": {"building": "yes", "source": "Bing"}}}, {"type": "Feature", "geometry": {"type": "Polygon", "coordinates": [[[-97.5463609, 35.4686972], [-97.5461912, 35.468697], [-97.5461918, 35.4684217], [-97.5463615, 35.468422], [-97.5463609, 35.4686972]]]}, "properties": {"osm_id": 252224368, "building": "yes", "name": "", "height": null, "height_m": null, "levels": null, "tract_id": "40109109800", "tract_name": "1098", "tags": {"building": "yes", "source": "Bing"}}}, {"type": "Feature", "geometry": {"type": "Polygon", "coordinates": [[[-97.5470128, 35.4714228], [-97.5468758, 35.4714228], [-97.5468758, 35.4711338], [-97.5470128, 35.4711338], [-97.5470128, 35.4714228]]]}, "properties": {"osm_id": 252224369, "building": "yes", "name": "", "height": null, "height_m": null, "levels": null, "tract_id": "40109109800", "tract_name": "1098", "tags": {"building": "yes", "source": "Bing"}}}, {"type": "Feature", "geometry": {"type": "Polygon", "coordinates": [[[-97.5472571, 35.4703935], [-97.5471235, 35.4703935], [-97.5471235, 35.4703386], [-97.5472571, 35.4703386], [-97.5472571, 35.4703935]]]}, "properties": {"osm_id": 252224370, "building": "yes", "name": "", "height": null, "height_m": null, "levels": null, "tract_id": "40109109800", "tract_name": "1098", "tags": {"building": "yes", "source": "Bing"}}}, {"type": "Feature", "geometry": {"type": "Polygon", "coordinates": [[[-97.5467379, 35.468604], [-97.5468659, 35.468604], [-97.5468659, 35.4687128], [-97.5467379, 35.4687128], [-97.5467379, 35.468604]]]}, "properties": {"osm_id": 252224371, "building": "yes", "name": "", "height": null, "height_m": null, "levels": null, "tract_id": "40109109800", "tract_name": "1098", "tags": {"building": "yes", "source": "Bing"}}}, {"type": "Feature", "geometry": {"type": "Polygon", "coordinates": [[[-97.5472616, 35.4703039], [-97.5471235, 35.4703039], [-97.5471235, 35.4701951], [-97.5472616, 35.4701951], [-97.5472616, 35.4703039]]]}, "properties": {"osm_id": 252224372, "building": "yes", "name": "", "height": null, "height_m": null, "levels": null, "tract_id": "40109109800", "tract_name": "1098", "tags": {"building": "yes", "source": "Bing"}}}, {"type": "Feature", "geometry": {"type": "Polygon", "coordinates": [[[-97.5475742, 35.4680924], [-97.5475742, 35.4683046], [-97.547463, 35.4683046], [-97.547463, 35.4680924], [-97.5475742, 35.4680924]]]}, "properties": {"osm_id": 252224373, "building": "roof", "name": "", "height": null, "height_m": null, "levels": null, "tract_id": "40109109800", "tract_name": "1098", "tags": {"building": "roof", "source": "Bing"}}}, {"type": "Feature", "geometry": {"type": "Polygon", "coordinates": [[[-97.5458527, 35.4707824], [-97.5457161, 35.4707824], [-97.5457161, 35.4705367], [-97.5458527, 35.4705367], [-97.5458527, 35.4707824]]]}, "properties": {"osm_id": 252224374, "building": "yes", "name": "", "height": null, "height_m": null, "levels": null, "tract_id": "40109109800", "tract_name": "1098", "tags": {"building": "yes", "source": "Bing"}}}, {"type": "Feature", "geometry": {"type": "Polygon", "coordinates": [[[-97.5473026, 35.470525], [-97.5471915, 35.470525], [-97.5471915, 35.4704759], [-97.5473026, 35.4704759], [-97.5473026, 35.470525]]]}, "properties": {"osm_id": 252224375, "building": "yes", "name": "", "height": null, "height_m": null, "levels": null, "tract_id": "40109109800", "tract_name": "1098", "tags": {"building": "yes", "source": "Bing"}}}, {"type": "Feature", "geometry": {"type": "Polygon", "coordinates": [[[-97.5460147, 35.4707449], [-97.5458749, 35.4707449], [-97.5458749, 35.4704668], [-97.5460147, 35.4704668], [-97.5460147, 35.4707449]]]}, "properties": {"osm_id": 252224376, "building": "yes", "name": "", "height": null, "height_m": null, "levels": null, "tract_id": "40109109800", "tract_name": "1098", "tags": {"building": "yes", "source": "Bing"}}}, {"type": "Feature", "geometry": {"type": "Polygon", "coordinates": [[[-97.5458635, 35.4682271], [-97.5456937, 35.4682268], [-97.5456943, 35.4679509], [-97.545864, 35.4679512], [-97.5458643, 35.4680038], [-97.5458635, 35.4682271]]]}, "properties": {"osm_id": 252224377, "building": "yes", "name": "", "height": null, "height_m": null, "levels": null, "tract_id": "40109109800", "tract_name": "1098", "tags": {"building": "yes", "source": "Bing"}}}, {"type": "Feature", "geometry": {"type": "Polygon", "coordinates": [[[-97.5475665, 35.4674313], [-97.5475661, 35.4674935], [-97.5475369, 35.4675154], [-97.5473324, 35.4675163], [-97.5473293, 35.4674367], [-97.5475665, 35.4674313]]]}, "properties": {"osm_id": 252224378, "building": "yes", "name": "", "height": null, "height_m": null, "levels": null, "tract_id": "40109109800", "tract_name": "1098", "tags": {"building": "yes", "roof:shape": "flat", "source": "Bing"}}}, {"type": "Feature", "geometry": {"type": "Polygon", "coordinates": [[[-97.5467379, 35.4684659], [-97.5468928, 35.4684659], [-97.5468928, 35.468604], [-97.5468659, 35.468604], [-97.5467379, 35.468604], [-97.5467379, 35.4684659]]]}, "properties": {"osm_id": 252224379, "building": "yes", "name": "", "height": null, "height_m": null, "levels": null, "tract_id": "40109109800", "tract_name": "1098", "tags": {"building": "yes", "source": "Bing"}}}, {"type": "Feature", "geometry": {"type": "Polygon", "coordinates": [[[-97.5474514, 35.4714559], [-97.5473123, 35.4714564], [-97.5473114, 35.4713006], [-97.5474325, 35.4713002], [-97.5474506, 35.4713002], [-97.5474514, 35.4714559]]]}, "properties": {"osm_id": 252224380, "building": "yes", "name": "", "height": null, "height_m": null, "levels": null, "tract_id": "40109109800", "tract_name": "1098", "tags": {"building": "yes", "source": "Bing"}}}, {"type": "Feature", "geometry": {"type": "Polygon", "coordinates": [[[-97.5458643, 35.4680038], [-97.5459505, 35.4680039], [-97.54595, 35.4682502], [-97.5458638, 35.4682501], [-97.5458635, 35.4682271], [-97.5458643, 35.4680038]]]}, "properties": {"osm_id": 252224381, "building": "yes", "name": "", "height": null, "height_m": null, "levels": null, "tract_id": "40109109800", "tract_name": "1098", "tags": {"building": "yes", "source": "Bing"}}}, {"type": "Feature", "geometry": {"type": "Polygon", "coordinates": [[[-97.5468691, 35.4683237], [-97.5467007, 35.4683234], [-97.5467009, 35.4682189], [-97.5467745, 35.468219], [-97.5467751, 35.4679452], [-97.5468698, 35.4679454], [-97.5468691, 35.4683237]]]}, "properties": {"osm_id": 252224382, "building": "yes", "name": "", "height": null, "height_m": null, "levels": null, "tract_id": "40109109800", "tract_name": "1098", "tags": {"building": "yes", "source": "Bing"}}}, {"type": "Feature", "geometry": {"type": "Polygon", "coordinates": [[[-97.5467023, 35.4693605], [-97.5467031, 35.4690031], [-97.5476805, 35.4690045], [-97.5475832, 35.4692827], [-97.5475348, 35.4692824], [-97.5475345, 35.469338], [-97.5473669, 35.4693365], [-97.5473683, 35.4693601], [-97.5467023, 35.4693605]]]}, "properties": {"osm_id": 252224383, "building": "yes", "name": "", "height": null, "height_m": null, "levels": null, "tract_id": "40109109800", "tract_name": "1098", "tags": {"building": "yes", "source": "Bing"}}}, {"type": "Feature", "geometry": {"type": "Polygon", "coordinates": [[[-97.546696, 35.4693537], [-97.5460409, 35.4693537], [-97.5460409, 35.4690058], [-97.5463673, 35.4690058], [-97.5463673, 35.4690953], [-97.5465302, 35.4690953], [-97.5465302, 35.4690058], [-97.546696, 35.4690058], [-97.546696, 35.4693537]]]}, "properties": {"osm_id": 252224384, "building": "yes", "name": "", "height": null, "height_m": null, "levels": null, "tract_id": "40109109800", "tract_name": "1098", "tags": {"building": "yes", "source": "Bing"}}}, {"type": "Feature", "geometry": {"type": "Polygon", "coordinates": [[[-97.5452802, 35.474213], [-97.5452817, 35.4738522], [-97.5444238, 35.4736345], [-97.5442996, 35.4739679], [-97.5452802, 35.474213]]]}, "properties": {"osm_id": 257047337, "building": "yes", "name": "", "height": null, "height_m": null, "levels": null, "tract_id": "40109109800", "tract_name": "1098", "tags": {"building": "yes", "source": "Bing"}}}, {"type": "Feature", "geometry": {"type": "Polygon", "coordinates": [[[-97.5435783, 35.4735597], [-97.5434302, 35.4735236], [-97.5434306, 35.4737465], [-97.5434995, 35.4737671], [-97.5435783, 35.4735597]]]}, "properties": {"osm_id": 257047338, "building": "yes", "name": "", "height": null, "height_m": null, "levels": null, "tract_id": "40109109800", "tract_name": "1098", "tags": {"building": "yes", "source": "Bing"}}}, {"type": "Feature", "geometry": {"type": "Polygon", "coordinates": [[[-97.5438161, 35.4729946], [-97.5438325, 35.4729419], [-97.5437078, 35.4729096], [-97.5436898, 35.4729598], [-97.5438161, 35.4729946]]]}, "properties": {"osm_id": 257047339, "building": "yes", "name": "", "height": null, "height_m": null, "levels": null, "tract_id": "40109109800", "tract_name": "1098", "tags": {"building": "yes", "source": "Bing"}}}, {"type": "Feature", "geometry": {"type": "Polygon", "coordinates": [[[-97.5447951, 35.4735543], [-97.5447978, 35.4731906], [-97.5446248, 35.4731458], [-97.5446221, 35.4735106], [-97.5447951, 35.4735543]]]}, "properties": {"osm_id": 257047340, "building": "yes", "name": "", "height": null, "height_m": null, "levels": null, "tract_id": "40109109800", "tract_name": "1098", "tags": {"building": "yes", "source": "Bing"}}}, {"type": "Feature", "geometry": {"type": "Polygon", "coordinates": [[[-97.5450432, 35.4736176], [-97.5450446, 35.473255], [-97.5447978, 35.4731906], [-97.5447951, 35.4735543], [-97.5450432, 35.4736176]]]}, "properties": {"osm_id": 257047341, "building": "yes", "name": "", "height": null, "height_m": null, "levels": null, "tract_id": "40109109800", "tract_name": "1098", "tags": {"building": "yes", "source": "Bing"}}}, {"type": "Feature", "geometry": {"type": "Polygon", "coordinates": [[[-97.5452994, 35.4736843], [-97.5453047, 35.4733227], [-97.5450446, 35.473255], [-97.5450432, 35.4736176], [-97.5452994, 35.4736843]]]}, "properties": {"osm_id": 257047342, "building": "yes", "name": "", "height": null, "height_m": null, "levels": null, "tract_id": "40109109800", "tract_name": "1098", "tags": {"building": "yes", "source": "Bing"}}}, {"type": "Feature", "geometry": {"type": "Polygon", "coordinates": [[[-97.544292, 35.4734282], [-97.5442937, 35.4730784], [-97.5442938, 35.4730614], [-97.5440174, 35.4729898], [-97.5440134, 35.4733588], [-97.544292, 35.4734282]]]}, "properties": {"osm_id": 257047343, "building": "yes", "name": "", "height": null, "height_m": null, "levels": null, "tract_id": "40109109800", "tract_name": "1098", "tags": {"building": "yes", "source": "Bing"}}}, {"type": "Feature", "geometry": {"type": "Polygon", "coordinates": [[[-97.5446221, 35.4735106], [-97.5446248, 35.4731458], [-97.5444666, 35.4731065], [-97.5444661, 35.4731558], [-97.5444626, 35.4734724], [-97.5446221, 35.4735106]]]}, "properties": {"osm_id": 257047344, "building": "yes", "name": "", "height": null, "height_m": null, "levels": null, "tract_id": "40109109800", "tract_name": "1098", "tags": {"building": "yes", "source": "Bing"}}}, {"type": "Feature", "geometry": {"type": "Polygon", "coordinates": [[[-97.5442336, 35.4739505], [-97.5442918, 35.4737876], [-97.5437209, 35.473639], [-97.5437539, 35.4735457], [-97.5435986, 35.4735062], [-97.5435783, 35.4735597], [-97.5434995, 35.4737671], [-97.5442336, 35.4739505]]]}, "properties": {"osm_id": 257047345, "building": "yes", "name": "", "height": null, "height_m": null, "levels": null, "tract_id": "40109109800", "tract_name": "1098", "tags": {"building": "yes", "source": "Bing"}}}, {"type": "Feature", "geometry": {"type": "Polygon", "coordinates": [[[-97.5444626, 35.4734724], [-97.5444661, 35.4731558], [-97.5444103, 35.4731543], [-97.5444106, 35.4730919], [-97.5443351, 35.4730722], [-97.5442937, 35.4730784], [-97.544292, 35.4734282], [-97.5444626, 35.4734724]]]}, "properties": {"osm_id": 257047346, "building": "yes", "name": "", "height": null, "height_m": null, "levels": null, "tract_id": "40109109800", "tract_name": "1098", "tags": {"building": "yes", "source": "Bing"}}}, {"type": "Feature", "geometry": {"type": "Polygon", "coordinates": [[[-97.536721, 35.4607628], [-97.5358681, 35.4605509], [-97.5357286, 35.4606745], [-97.5352646, 35.4612627], [-97.5356682, 35.4614228], [-97.5359172, 35.461103], [-97.5358387, 35.4610649], [-97.5358671, 35.4610281], [-97.5358537, 35.46102], [-97.535994, 35.4608335], [-97.5362179, 35.4608921], [-97.536243, 35.4608594], [-97.5363516, 35.4609138], [-97.5363031, 35.4609832], [-97.5364719, 35.461069], [-97.536721, 35.4607628]]]}, "properties": {"osm_id": 275010659, "building": "yes", "name": "", "height": null, "height_m": null, "levels": null, "tract_id": "40109109800", "tract_name": "1098", "tags": {"building": "yes", "source": "Bing"}}}, {"type": "Feature", "geometry": {"type": "Polygon", "coordinates": [[[-97.5375277, 35.4618188], [-97.5375261, 35.4620855], [-97.5381776, 35.4620868], [-97.5382294, 35.4618106], [-97.5375277, 35.4618188]]]}, "properties": {"osm_id": 275010660, "building": "yes", "name": "", "height": null, "height_m": null, "levels": null, "tract_id": "40109109800", "tract_name": "1098", "tags": {"building": "yes", "source": "Bing"}}}, {"type": "Feature", "geometry": {"type": "Polygon", "coordinates": [[[-97.5356495, 35.4603863], [-97.5354841, 35.4602468], [-97.5356405, 35.4601238], [-97.5358059, 35.4602633], [-97.5356495, 35.4603863]]]}, "properties": {"osm_id": 275010662, "building": "yes", "name": "", "height": null, "height_m": null, "levels": null, "tract_id": "40109109800", "tract_name": "1098", "tags": {"building": "yes", "source": "Bing"}}}, {"type": "Feature", "geometry": {"type": "Polygon", "coordinates": [[[-97.5376029, 35.4611397], [-97.5375254, 35.4614239], [-97.5372128, 35.4613673], [-97.5372903, 35.4610831], [-97.5376029, 35.4611397]]]}, "properties": {"osm_id": 275010664, "building": "yes", "name": "", "height": null, "height_m": null, "levels": null, "tract_id": "40109109800", "tract_name": "1098", "tags": {"building": "yes", "source": "Bing"}}}, {"type": "Feature", "geometry": {"type": "Polygon", "coordinates": [[[-97.5347731, 35.4603218], [-97.5346477, 35.4604168], [-97.5344752, 35.4602657], [-97.5346007, 35.4601707], [-97.5347731, 35.4603218]]]}, "properties": {"osm_id": 275010665, "building": "yes", "name": "", "height": null, "height_m": null, "levels": null, "tract_id": "40109109800", "tract_name": "1098", "tags": {"building": "yes", "source": "Bing"}}}, {"type": "Feature", "geometry": {"type": "Polygon", "coordinates": [[[-97.5389472, 35.4614744], [-97.5389473, 35.4615811], [-97.5386023, 35.4615812], [-97.5386023, 35.4614745], [-97.5389472, 35.4614744]]]}, "properties": {"osm_id": 275010669, "building": "yes", "name": "GoPreservan", "height": null, "height_m": 6.0, "levels": 2, "tract_id": "40109109800", "tract_name": "1098", "tags": {"addr:city": "Oklahoma City", "addr:housenumber": "401", "addr:postcode": "73108", "addr:state": "OK", "addr:street": "S Blackwelder Ave", "building": "yes", "building:levels": "2", "name": "GoPreservan", "source": "Bing", "url": "https://gopreservan.com/"}}}, {"type": "Feature", "geometry": {"type": "Polygon", "coordinates": [[[-97.5349456, 35.4600648], [-97.5350838, 35.4599667], [-97.5351726, 35.4600496], [-97.5350343, 35.4601477], [-97.5349456, 35.4600648]]]}, "properties": {"osm_id": 275010670, "building": "yes", "name": "", "height": null, "height_m": null, "levels": null, "tract_id": "40109109800", "tract_name": "1098", "tags": {"building": "yes", "source": "Bing"}}}, {"type": "Feature", "geometry": {"type": "Polygon", "coordinates": [[[-97.5350908, 35.461743], [-97.534951, 35.4617409], [-97.5349574, 35.4614579], [-97.5350971, 35.46146], [-97.5350908, 35.461743]]]}, "properties": {"osm_id": 275010671, "building": "yes", "name": "", "height": null, "height_m": null, "levels": null, "tract_id": "40109109800", "tract_name": "1098", "tags": {"building": "yes", "source": "Bing"}}}, {"type": "Feature", "geometry": {"type": "Polygon", "coordinates": [[[-97.5338628, 35.4604716], [-97.5341103, 35.4602712], [-97.5344592, 35.4605573], [-97.5342504, 35.4607206], [-97.5341833, 35.4606623], [-97.5341301, 35.4607029], [-97.5338628, 35.4604716]]]}, "properties": {"osm_id": 275010672, "building": "yes", "name": "", "height": null, "height_m": null, "levels": null, "tract_id": "40109109800", "tract_name": "1098", "tags": {"building": "yes", "source": "Bing"}}}, {"type": "Feature", "geometry": {"type": "Polygon", "coordinates": [[[-97.5349776, 35.4606231], [-97.535176, 35.4604696], [-97.5355267, 35.4607704], [-97.5353992, 35.460869], [-97.5354479, 35.4609107], [-97.535377, 35.4609656], [-97.5349776, 35.4606231]]]}, "properties": {"osm_id": 275010673, "building": "yes", "name": "", "height": null, "height_m": null, "levels": null, "tract_id": "40109109800", "tract_name": "1098", "tags": {"building": "yes", "roof:shape": "flat", "source": "Bing"}}}, {"type": "Feature", "geometry": {"type": "Polygon", "coordinates": [[[-97.5389768, 35.4616053], [-97.5389768, 35.4621047], [-97.5385503, 35.4621047], [-97.5385479, 35.4618728], [-97.5386306, 35.4618728], [-97.5386306, 35.4616053], [-97.5389768, 35.4616053]]]}, "properties": {"osm_id": 275010674, "building": "yes", "name": "", "height": null, "height_m": null, "levels": null, "tract_id": "40109109800", "tract_name": "1098", "tags": {"building": "yes", "source": "Bing"}}}, {"type": "Feature", "geometry": {"type": "Polygon", "coordinates": [[[-97.5383096, 35.4612146], [-97.5382495, 35.4614268], [-97.5380156, 35.4613833], [-97.5380056, 35.4614282], [-97.5376297, 35.4613602], [-97.5377149, 35.4610635], [-97.5378786, 35.4610962], [-97.5378702, 35.4611288], [-97.5383096, 35.4612146]]]}, "properties": {"osm_id": 275010675, "building": "yes", "name": "", "height": null, "height_m": null, "levels": null, "tract_id": "40109109800", "tract_name": "1098", "tags": {"building": "yes", "source": "Bing"}}}, {"type": "Feature", "geometry": {"type": "Polygon", "coordinates": [[[-97.5347574, 35.4600643], [-97.5346771, 35.4600845], [-97.5346523, 35.4600191], [-97.5345495, 35.4600489], [-97.5345235, 35.4599883], [-97.5345861, 35.459971], [-97.534566, 35.459918], [-97.5346889, 35.4598872], [-97.5347574, 35.4600643]]]}, "properties": {"osm_id": 275010676, "building": "yes", "name": "", "height": null, "height_m": null, "levels": null, "tract_id": "40109109800", "tract_name": "1098", "tags": {"building": "yes", "source": "Bing"}}}, {"type": "Feature", "geometry": {"type": "Polygon", "coordinates": [[[-97.5344132, 35.4617645], [-97.5345991, 35.4619304], [-97.5343196, 35.4621492], [-97.5341282, 35.4619876], [-97.5344132, 35.4617645]]]}, "properties": {"osm_id": 275010677, "building": "yes", "name": "", "height": null, "height_m": null, "levels": null, "tract_id": "40109109800", "tract_name": "1098", "tags": {"building": "yes", "source": "Bing"}}}, {"type": "Feature", "geometry": {"type": "Polygon", "coordinates": [[[-97.5451115, 35.4728119], [-97.5451156, 35.4727016], [-97.5451665, 35.4727027], [-97.5451692, 35.4726087], [-97.5449801, 35.4726066], [-97.5449828, 35.4724242], [-97.5445644, 35.4724198], [-97.5445563, 35.4729757], [-97.5446381, 35.4729746], [-97.5446395, 35.4729943], [-97.5446301, 35.4730008], [-97.5446314, 35.4730238], [-97.5449747, 35.473027], [-97.5449747, 35.4728086], [-97.5451115, 35.4728119]]]}, "properties": {"osm_id": 414285680, "building": "yes", "name": "", "height": null, "height_m": null, "levels": null, "tract_id": "40109109800", "tract_name": "1098", "tags": {"building": "yes", "source": "Bing"}}}, {"type": "Feature", "geometry": {"type": "Polygon", "coordinates": [[[-97.543702, 35.4730445], [-97.543572, 35.4730423], [-97.5435726, 35.4729629], [-97.5434633, 35.4729615], [-97.5434566, 35.4732138], [-97.5435344, 35.4732171], [-97.5435344, 35.4732346], [-97.5437047, 35.4732761], [-97.543702, 35.4730445]]]}, "properties": {"osm_id": 414285681, "building": "yes", "name": "", "height": null, "height_m": null, "levels": null, "tract_id": "40109109800", "tract_name": "1098", "tags": {"building": "yes", "source": "Bing"}}}, {"type": "Feature", "geometry": {"type": "Polygon", "coordinates": [[[-97.5442546, 35.4728588], [-97.5442626, 35.472304], [-97.5435666, 35.4723029], [-97.5435652, 35.4723575], [-97.5434794, 35.4723575], [-97.5434754, 35.4725585], [-97.5435639, 35.4725596], [-97.5435612, 35.4727606], [-97.5439233, 35.4728556], [-97.5442546, 35.4728588]]]}, "properties": {"osm_id": 414285682, "building": "yes", "name": "", "height": null, "height_m": null, "levels": null, "tract_id": "40109109800", "tract_name": "1098", "tags": {"building": "yes", "source": "Bing"}}}, {"type": "Feature", "geometry": {"type": "Polygon", "coordinates": [[[-97.5475461, 35.4675437], [-97.5474824, 35.467544], [-97.5474828, 35.4676084], [-97.5475465, 35.4676081], [-97.5475461, 35.4675437]]]}, "properties": {"osm_id": 414288164, "building": "roof", "name": "", "height": null, "height_m": null, "levels": null, "tract_id": "40109109800", "tract_name": "1098", "tags": {"building": "roof", "roof:shape": "flat", "source": "Bing"}}}, {"type": "Feature", "geometry": {"type": "Polygon", "coordinates": [[[-97.5382748, 35.4660588], [-97.5382038, 35.4660595], [-97.5382026, 35.4659738], [-97.5382736, 35.4659731], [-97.5382748, 35.4660588]]]}, "properties": {"osm_id": 414289294, "building": "yes", "name": "", "height": null, "height_m": null, "levels": null, "tract_id": "40109109800", "tract_name": "1098", "tags": {"building": "yes", "source": "Bing"}}}, {"type": "Feature", "geometry": {"type": "Polygon", "coordinates": [[[-97.5407127, 35.4664224], [-97.5409085, 35.4664224], [-97.5409085, 35.4665097], [-97.5407436, 35.4665086], [-97.5407436, 35.4664912], [-97.5405786, 35.4664923], [-97.5405799, 35.4664005], [-97.5407129, 35.4664017], [-97.5407127, 35.4664224]]]}, "properties": {"osm_id": 414289295, "building": "yes", "name": "", "height": null, "height_m": null, "levels": null, "tract_id": "40109109800", "tract_name": "1098", "tags": {"building": "yes", "source": "Bing"}}}, {"type": "Feature", "geometry": {"type": "Polygon", "coordinates": [[[-97.5393172, 35.4663322], [-97.5390601, 35.4663297], [-97.5390619, 35.4662027], [-97.5393191, 35.4662052], [-97.5393172, 35.4663322]]]}, "properties": {"osm_id": 414289296, "building": "yes", "name": "", "height": null, "height_m": null, "levels": null, "tract_id": "40109109800", "tract_name": "1098", "tags": {"building": "yes", "source": "Bing"}}}, {"type": "Feature", "geometry": {"type": "Polygon", "coordinates": [[[-97.5445008, 35.4676911], [-97.5443949, 35.4676909], [-97.5443953, 35.4675757], [-97.5445012, 35.4675759], [-97.5445008, 35.4676911]]]}, "properties": {"osm_id": 414289297, "building": "yes", "name": "", "height": null, "height_m": null, "levels": null, "tract_id": "40109109800", "tract_name": "1098", "tags": {"building": "yes", "roof:shape": "gabled", "source": "Bing"}}}, {"type": "Feature", "geometry": {"type": "Polygon", "coordinates": [[[-97.5387064, 35.4663721], [-97.538697, 35.4659811], [-97.538689, 35.4659822], [-97.538689, 35.4659538], [-97.5384878, 35.4659614], [-97.5384905, 35.4661001], [-97.5385522, 35.466098], [-97.5385576, 35.4663754], [-97.5387064, 35.4663721]]]}, "properties": {"osm_id": 414289298, "building": "yes", "name": "", "height": null, "height_m": null, "levels": null, "tract_id": "40109109800", "tract_name": "1098", "tags": {"building": "yes", "source": "Bing"}}}, {"type": "Feature", "geometry": {"type": "Polygon", "coordinates": [[[-97.5453368, 35.4676916], [-97.5453368, 35.4673639], [-97.5445094, 35.4673595], [-97.5445067, 35.4676959], [-97.5453368, 35.4676916]]]}, "properties": {"osm_id": 414289789, "building": "yes", "name": "", "height": null, "height_m": null, "levels": null, "tract_id": "40109109800", "tract_name": "1098", "tags": {"building": "yes", "roof:shape": "flat", "source": "Bing"}}}, {"type": "Feature", "geometry": {"type": "Polygon", "coordinates": [[[-97.5323932, 35.4667549], [-97.532075, 35.4667566], [-97.5320772, 35.4670241], [-97.5322367, 35.4670232], [-97.532236, 35.4669348], [-97.5323947, 35.4669339], [-97.5323932, 35.4667549]]]}, "properties": {"osm_id": 551559745, "building": "yes", "name": "Starspace46", "height": null, "height_m": null, "levels": null, "tract_id": "40109109800", "tract_name": "1098", "tags": {"addr:city": "Oklahoma City", "addr:housenumber": "1141", "addr:postcode": "73106", "addr:state": "OK", "addr:street": "West Sheridan Avenue", "building": "yes", "name": "Starspace46", "office": "company", "website": "https://www.starspace46.com/"}}}, {"type": "Feature", "geometry": {"type": "Polygon", "coordinates": [[[-97.5386492, 35.4708092], [-97.5384904, 35.4708095], [-97.5383339, 35.4708099], [-97.5383339, 35.4706868], [-97.5383677, 35.4706859], [-97.5383677, 35.4706758], [-97.5384657, 35.4706749], [-97.5384652, 35.47061], [-97.5383386, 35.4706096], [-97.5383367, 35.4705065], [-97.5384439, 35.4705081], [-97.5384443, 35.4704625], [-97.538473, 35.4704619], [-97.5384998, 35.4704613], [-97.5384998, 35.4704888], [-97.5385529, 35.4704884], [-97.5385539, 35.4704675], [-97.5388161, 35.4704668], [-97.5388156, 35.4706517], [-97.5387118, 35.4706521], [-97.5387118, 35.4707676], [-97.5386482, 35.4707676], [-97.5386492, 35.4708092]]]}, "properties": {"osm_id": 585459808, "building": "yes", "name": "Pilot Recreation Center", "height": null, "height_m": null, "levels": null, "tract_id": "40109109800", "tract_name": "1098", "tags": {"building": "yes", "name": "Pilot Recreation Center"}}}, {"type": "Feature", "geometry": {"type": "Polygon", "coordinates": [[[-97.5378376, 35.4697671], [-97.537794, 35.4697668], [-97.5377942, 35.4697486], [-97.5377355, 35.4697481], [-97.5377354, 35.4697626], [-97.5376849, 35.4697621], [-97.5376865, 35.469649], [-97.5377159, 35.4696493], [-97.5377152, 35.4696974], [-97.5377408, 35.4696976], [-97.5377424, 35.4695909], [-97.5377519, 35.469591], [-97.5377525, 35.4695567], [-97.5378381, 35.4695577], [-97.5378377, 35.4695819], [-97.5378567, 35.4695873], [-97.5378563, 35.469621], [-97.5378391, 35.4696209], [-97.5378376, 35.4697671]]]}, "properties": {"osm_id": 768570567, "building": "yes", "name": "", "height": null, "height_m": null, "levels": null, "tract_id": "40109109800", "tract_name": "1098", "tags": {"building": "yes"}}}, {"type": "Feature", "geometry": {"type": "Polygon", "coordinates": [[[-97.5380144, 35.4697691], [-97.5378961, 35.4697699], [-97.5378943, 35.4696072], [-97.5379858, 35.4696065], [-97.537986, 35.4696295], [-97.5380128, 35.4696293], [-97.5380144, 35.4697691]]]}, "properties": {"osm_id": 768570568, "building": "yes", "name": "", "height": null, "height_m": null, "levels": null, "tract_id": "40109109800", "tract_name": "1098", "tags": {"building": "yes"}}}, {"type": "Feature", "geometry": {"type": "Polygon", "coordinates": [[[-97.5381575, 35.469762], [-97.5381269, 35.4697619], [-97.5381222, 35.4697711], [-97.5380629, 35.4697709], [-97.5380637, 35.4696477], [-97.5380866, 35.4696479], [-97.5380867, 35.4696279], [-97.5381583, 35.4696282], [-97.5381575, 35.469762]]]}, "properties": {"osm_id": 768570569, "building": "yes", "name": "", "height": null, "height_m": null, "levels": null, "tract_id": "40109109800", "tract_name": "1098", "tags": {"building": "yes"}}}, {"type": "Feature", "geometry": {"type": "Polygon", "coordinates": [[[-97.5382907, 35.4697732], [-97.5381993, 35.469774], [-97.5381986, 35.4697182], [-97.5381852, 35.4697183], [-97.5381847, 35.4696799], [-97.5381978, 35.4696798], [-97.5381973, 35.4696414], [-97.5382642, 35.4696409], [-97.5382643, 35.4696516], [-97.5382892, 35.4696514], [-97.5382907, 35.4697732]]]}, "properties": {"osm_id": 768570570, "building": "yes", "name": "", "height": null, "height_m": null, "levels": null, "tract_id": "40109109800", "tract_name": "1098", "tags": {"building": "yes"}}}, {"type": "Feature", "geometry": {"type": "Polygon", "coordinates": [[[-97.5384166, 35.4697745], [-97.5383261, 35.4697735], [-97.538327, 35.4697179], [-97.5383128, 35.4697209], [-97.5383121, 35.4696757], [-97.5383216, 35.4696756], [-97.5383213, 35.4696537], [-97.5384146, 35.4696527], [-97.5384152, 35.4696962], [-97.5384257, 35.4696985], [-97.538425, 35.4697351], [-97.5384173, 35.469735], [-97.5384166, 35.4697745]]]}, "properties": {"osm_id": 768570571, "building": "yes", "name": "", "height": null, "height_m": null, "levels": null, "tract_id": "40109109800", "tract_name": "1098", "tags": {"building": "yes"}}}, {"type": "Feature", "geometry": {"type": "Polygon", "coordinates": [[[-97.5385485, 35.469753], [-97.5385252, 35.4697525], [-97.5385246, 35.4697723], [-97.5384535, 35.4697709], [-97.5384574, 35.4696426], [-97.5385518, 35.4696445], [-97.5385485, 35.469753]]]}, "properties": {"osm_id": 768570572, "building": "yes", "name": "", "height": null, "height_m": null, "levels": null, "tract_id": "40109109800", "tract_name": "1098", "tags": {"building": "yes"}}}, {"type": "Feature", "geometry": {"type": "Polygon", "coordinates": [[[-97.5386505, 35.4697775], [-97.5385704, 35.469776], [-97.5385734, 35.4696676], [-97.5386535, 35.469669], [-97.5386505, 35.4697775]]]}, "properties": {"osm_id": 768570573, "building": "yes", "name": "", "height": null, "height_m": null, "levels": null, "tract_id": "40109109800", "tract_name": "1098", "tags": {"building": "yes"}}}, {"type": "Feature", "geometry": {"type": "Polygon", "coordinates": [[[-97.5387155, 35.4698147], [-97.5388021, 35.4698167], [-97.5388041, 35.4697597], [-97.5388276, 35.4697603], [-97.5388295, 35.4697073], [-97.5388194, 35.4697071], [-97.538821, 35.4696636], [-97.5387198, 35.4696612], [-97.5387178, 35.4697181], [-97.5387061, 35.4697178], [-97.5387048, 35.4697524], [-97.5387178, 35.4697527], [-97.5387155, 35.4698147]]]}, "properties": {"osm_id": 768570574, "building": "yes", "name": "", "height": null, "height_m": null, "levels": null, "tract_id": "40109109800", "tract_name": "1098", "tags": {"building": "yes"}}}, {"type": "Feature", "geometry": {"type": "Polygon", "coordinates": [[[-97.5386537, 35.4690533], [-97.538612, 35.4690522], [-97.5386123, 35.4690462], [-97.538555, 35.4690446], [-97.5385494, 35.4691814], [-97.5386484, 35.4691841], [-97.5386537, 35.4690533]]]}, "properties": {"osm_id": 768570575, "building": "yes", "name": "", "height": null, "height_m": null, "levels": null, "tract_id": "40109109800", "tract_name": "1098", "tags": {"building": "yes"}}}, {"type": "Feature", "geometry": {"type": "Polygon", "coordinates": [[[-97.5388679, 35.4691802], [-97.5386869, 35.4691798], [-97.5386866, 35.4692785], [-97.5388676, 35.4692789], [-97.5388679, 35.4691802]]]}, "properties": {"osm_id": 768570576, "building": "yes", "name": "", "height": null, "height_m": null, "levels": null, "tract_id": "40109109800", "tract_name": "1098", "tags": {"building": "yes"}}}, {"type": "Feature", "geometry": {"type": "Polygon", "coordinates": [[[-97.5381395, 35.4692021], [-97.5381366, 35.4690724], [-97.5380219, 35.4690741], [-97.5380248, 35.4692038], [-97.5381395, 35.4692021]]]}, "properties": {"osm_id": 768570577, "building": "yes", "name": "", "height": null, "height_m": null, "levels": null, "tract_id": "40109109800", "tract_name": "1098", "tags": {"building": "yes"}}}, {"type": "Feature", "geometry": {"type": "Polygon", "coordinates": [[[-97.5392528, 35.4698088], [-97.5393131, 35.4698071], [-97.5393124, 35.4697917], [-97.5393682, 35.4697901], [-97.5393634, 35.469679], [-97.5393207, 35.4696802], [-97.5393198, 35.4696579], [-97.5392634, 35.4696595], [-97.5392644, 35.4696828], [-97.5392475, 35.4696833], [-97.5392528, 35.4698088]]]}, "properties": {"osm_id": 768570578, "building": "yes", "name": "", "height": null, "height_m": null, "levels": null, "tract_id": "40109109800", "tract_name": "1098", "tags": {"building": "yes"}}}, {"type": "Feature", "geometry": {"type": "Polygon", "coordinates": [[[-97.539426, 35.4698088], [-97.5395143, 35.4698091], [-97.5395151, 35.4696591], [-97.539407, 35.4696588], [-97.5394064, 35.4697871], [-97.5394261, 35.4697872], [-97.539426, 35.4698088]]]}, "properties": {"osm_id": 768570579, "building": "yes", "name": "", "height": null, "height_m": null, "levels": null, "tract_id": "40109109800", "tract_name": "1098", "tags": {"building": "yes"}}}, {"type": "Feature", "geometry": {"type": "Polygon", "coordinates": [[[-97.5397153, 35.4697764], [-97.5396172, 35.4697761], [-97.5396181, 35.4696139], [-97.5397162, 35.4696143], [-97.5397153, 35.4697764]]]}, "properties": {"osm_id": 768570580, "building": "yes", "name": "", "height": null, "height_m": null, "levels": null, "tract_id": "40109109800", "tract_name": "1098", "tags": {"building": "yes"}}}, {"type": "Feature", "geometry": {"type": "Polygon", "coordinates": [[[-97.5398855, 35.4697846], [-97.5397931, 35.4697841], [-97.539794, 35.4696521], [-97.5398865, 35.4696525], [-97.5398855, 35.4697846]]]}, "properties": {"osm_id": 768570581, "building": "yes", "name": "", "height": null, "height_m": null, "levels": null, "tract_id": "40109109800", "tract_name": "1098", "tags": {"building": "yes"}}}, {"type": "Feature", "geometry": {"type": "Polygon", "coordinates": [[[-97.539559, 35.4695787], [-97.539614, 35.4695778], [-97.5396137, 35.4695632], [-97.5396465, 35.4695626], [-97.539644, 35.4694574], [-97.5395562, 35.4694588], [-97.539559, 35.4695787]]]}, "properties": {"osm_id": 768570582, "building": "yes", "name": "", "height": null, "height_m": null, "levels": null, "tract_id": "40109109800", "tract_name": "1098", "tags": {"building": "yes"}}}, {"type": "Feature", "geometry": {"type": "Polygon", "coordinates": [[[-97.5381818, 35.4695197], [-97.5383073, 35.4695175], [-97.5383053, 35.4694421], [-97.5381798, 35.4694443], [-97.5381818, 35.4695197]]]}, "properties": {"osm_id": 768570583, "building": "yes", "name": "", "height": null, "height_m": null, "levels": null, "tract_id": "40109109800", "tract_name": "1098", "tags": {"building": "yes"}}}, {"type": "Feature", "geometry": {"type": "Polygon", "coordinates": [[[-97.5388428, 35.4696367], [-97.5388438, 35.4695495], [-97.5387124, 35.4695485], [-97.5387114, 35.4696357], [-97.5388428, 35.4696367]]]}, "properties": {"osm_id": 768570584, "building": "yes", "name": "", "height": null, "height_m": null, "levels": null, "tract_id": "40109109800", "tract_name": "1098", "tags": {"building": "yes"}}}, {"type": "Feature", "geometry": {"type": "Polygon", "coordinates": [[[-97.5388509, 35.4695258], [-97.5388492, 35.4694486], [-97.5387359, 35.4694495], [-97.5387382, 35.469528], [-97.5388509, 35.4695258]]]}, "properties": {"osm_id": 768570585, "building": "yes", "name": "", "height": null, "height_m": null, "levels": null, "tract_id": "40109109800", "tract_name": "1098", "tags": {"building": "yes"}}}, {"type": "Feature", "geometry": {"type": "Polygon", "coordinates": [[[-97.5388721, 35.4693741], [-97.5387092, 35.4693721], [-97.5387107, 35.4692945], [-97.5388736, 35.4692966], [-97.5388721, 35.4693741]]]}, "properties": {"osm_id": 768570586, "building": "yes", "name": "", "height": null, "height_m": null, "levels": null, "tract_id": "40109109800", "tract_name": "1098", "tags": {"building": "yes"}}}, {"type": "Feature", "geometry": {"type": "Polygon", "coordinates": [[[-97.5401977, 35.4698094], [-97.5401976, 35.4697468], [-97.540219, 35.4697468], [-97.5402188, 35.4696667], [-97.5400836, 35.4696669], [-97.540084, 35.4698095], [-97.5401977, 35.4698094]]]}, "properties": {"osm_id": 768570587, "building": "yes", "name": "", "height": null, "height_m": null, "levels": null, "tract_id": "40109109800", "tract_name": "1098", "tags": {"building": "yes"}}}, {"type": "Feature", "geometry": {"type": "Polygon", "coordinates": [[[-97.5401356, 35.4695971], [-97.5401334, 35.4694516], [-97.5400459, 35.4694525], [-97.5400482, 35.469598], [-97.5401356, 35.4695971]]]}, "properties": {"osm_id": 768570588, "building": "yes", "name": "", "height": null, "height_m": null, "levels": null, "tract_id": "40109109800", "tract_name": "1098", "tags": {"building": "yes"}}}, {"type": "Feature", "geometry": {"type": "Polygon", "coordinates": [[[-97.5402791, 35.4697672], [-97.5402906, 35.469767], [-97.5402911, 35.4697849], [-97.5403599, 35.4697837], [-97.5403596, 35.4697711], [-97.5403738, 35.4697708], [-97.5403701, 35.4696336], [-97.540308, 35.4696347], [-97.5403095, 35.4696889], [-97.540277, 35.4696895], [-97.5402791, 35.4697672]]]}, "properties": {"osm_id": 768570589, "building": "yes", "name": "", "height": null, "height_m": null, "levels": null, "tract_id": "40109109800", "tract_name": "1098", "tags": {"building": "yes"}}}, {"type": "Feature", "geometry": {"type": "Polygon", "coordinates": [[[-97.5404242, 35.4697814], [-97.5405144, 35.469779], [-97.5405096, 35.4696581], [-97.5404066, 35.4696608], [-97.5404085, 35.4697106], [-97.5404214, 35.4697102], [-97.5404242, 35.4697814]]]}, "properties": {"osm_id": 768570590, "building": "yes", "name": "", "height": null, "height_m": null, "levels": null, "tract_id": "40109109800", "tract_name": "1098", "tags": {"building": "yes"}}}, {"type": "Feature", "geometry": {"type": "Polygon", "coordinates": [[[-97.5405589, 35.4697824], [-97.5406345, 35.4697811], [-97.5406314, 35.4696707], [-97.5405558, 35.4696721], [-97.5405589, 35.4697824]]]}, "properties": {"osm_id": 768570591, "building": "yes", "name": "", "height": null, "height_m": null, "levels": null, "tract_id": "40109109800", "tract_name": "1098", "tags": {"building": "yes"}}}, {"type": "Feature", "geometry": {"type": "Polygon", "coordinates": [[[-97.5406411, 35.4697783], [-97.5407208, 35.4697762], [-97.5407162, 35.4696633], [-97.5406366, 35.4696654], [-97.5406411, 35.4697783]]]}, "properties": {"osm_id": 768570592, "building": "yes", "name": "", "height": null, "height_m": null, "levels": null, "tract_id": "40109109800", "tract_name": "1098", "tags": {"building": "yes"}}}, {"type": "Feature", "geometry": {"type": "Polygon", "coordinates": [[[-97.5386881, 35.4684195], [-97.5385893, 35.4684206], [-97.538591, 35.468526], [-97.5386898, 35.4685249], [-97.5386881, 35.4684195]]]}, "properties": {"osm_id": 768570593, "building": "yes", "name": "", "height": null, "height_m": null, "levels": null, "tract_id": "40109109800", "tract_name": "1098", "tags": {"building": "yes"}}}, {"type": "Feature", "geometry": {"type": "Polygon", "coordinates": [[[-97.5394359, 35.4691635], [-97.539446, 35.4691634], [-97.5394462, 35.4691756], [-97.539542, 35.4691743], [-97.5395418, 35.4691603], [-97.539548, 35.4691602], [-97.5395456, 35.4690382], [-97.539537, 35.4690383], [-97.5395368, 35.469028], [-97.5394459, 35.4690292], [-97.5394462, 35.4690441], [-97.5394336, 35.4690443], [-97.5394359, 35.4691635]]]}, "properties": {"osm_id": 768570594, "building": "yes", "name": "", "height": null, "height_m": null, "levels": null, "tract_id": "40109109800", "tract_name": "1098", "tags": {"building": "yes"}}}, {"type": "Feature", "geometry": {"type": "Polygon", "coordinates": [[[-97.5400001, 35.4690238], [-97.5401025, 35.4690236], [-97.5401031, 35.4691934], [-97.5400006, 35.4691936], [-97.5400001, 35.4690238]]]}, "properties": {"osm_id": 768570595, "building": "yes", "name": "", "height": null, "height_m": null, "levels": null, "tract_id": "40109109800", "tract_name": "1098", "tags": {"building": "yes"}}}, {"type": "Feature", "geometry": {"type": "Polygon", "coordinates": [[[-97.5402191, 35.4690294], [-97.5401242, 35.4690301], [-97.5401261, 35.4691928], [-97.540221, 35.469192], [-97.5402191, 35.4690294]]]}, "properties": {"osm_id": 768570596, "building": "yes", "name": "", "height": null, "height_m": null, "levels": null, "tract_id": "40109109800", "tract_name": "1098", "tags": {"building": "yes"}}}, {"type": "Feature", "geometry": {"type": "Polygon", "coordinates": [[[-97.5405173, 35.4690249], [-97.5405173, 35.4690444], [-97.5405309, 35.4690443], [-97.5405314, 35.46918], [-97.5404295, 35.4691803], [-97.5404289, 35.4690433], [-97.5404418, 35.4690433], [-97.5404418, 35.4690251], [-97.5405173, 35.4690249]]]}, "properties": {"osm_id": 768570597, "building": "yes", "name": "", "height": null, "height_m": null, "levels": null, "tract_id": "40109109800", "tract_name": "1098", "tags": {"building": "yes"}}}, {"type": "Feature", "geometry": {"type": "Polygon", "coordinates": [[[-97.540702, 35.4690297], [-97.5407017, 35.4690448], [-97.5407185, 35.469045], [-97.5407164, 35.4691807], [-97.5406121, 35.4691796], [-97.5406142, 35.469048], [-97.5406254, 35.4690481], [-97.5406258, 35.4690289], [-97.540702, 35.4690297]]]}, "properties": {"osm_id": 768570598, "building": "yes", "name": "", "height": null, "height_m": null, "levels": null, "tract_id": "40109109800", "tract_name": "1098", "tags": {"building": "yes"}}}, {"type": "Feature", "geometry": {"type": "Polygon", "coordinates": [[[-97.5408408, 35.4690329], [-97.5408403, 35.4690567], [-97.5408559, 35.4690569], [-97.5408534, 35.4691715], [-97.5407529, 35.46917], [-97.5407554, 35.4690565], [-97.5407677, 35.4690567], [-97.5407682, 35.4690318], [-97.5408408, 35.4690329]]]}, "properties": {"osm_id": 768570599, "building": "yes", "name": "", "height": null, "height_m": null, "levels": null, "tract_id": "40109109800", "tract_name": "1098", "tags": {"building": "yes"}}}, {"type": "Feature", "geometry": {"type": "Polygon", "coordinates": [[[-97.539531, 35.4685637], [-97.5394087, 35.4685637], [-97.5394115, 35.4687421], [-97.5395272, 35.4687405], [-97.539531, 35.4685637]]]}, "properties": {"osm_id": 768570600, "building": "yes", "name": "", "height": null, "height_m": null, "levels": null, "tract_id": "40109109800", "tract_name": "1098", "tags": {"building": "yes"}}}, {"type": "Feature", "geometry": {"type": "Polygon", "coordinates": [[[-97.5395964, 35.4687134], [-97.5396069, 35.4687133], [-97.5396074, 35.4687391], [-97.5396738, 35.4687382], [-97.5396734, 35.4687195], [-97.5396825, 35.4687194], [-97.5396799, 35.4685776], [-97.5395939, 35.4685786], [-97.5395964, 35.4687134]]]}, "properties": {"osm_id": 768570601, "building": "yes", "name": "", "height": null, "height_m": null, "levels": null, "tract_id": "40109109800", "tract_name": "1098", "tags": {"building": "yes"}}}, {"type": "Feature", "geometry": {"type": "Polygon", "coordinates": [[[-97.5401181, 35.4687367], [-97.5402227, 35.4687357], [-97.5402209, 35.4686022], [-97.5401163, 35.4686031], [-97.5401181, 35.4687367]]]}, "properties": {"osm_id": 768570602, "building": "yes", "name": "", "height": null, "height_m": null, "levels": null, "tract_id": "40109109800", "tract_name": "1098", "tags": {"building": "yes"}}}, {"type": "Feature", "geometry": {"type": "Polygon", "coordinates": [[[-97.5403629, 35.4687166], [-97.5403295, 35.4687172], [-97.5403299, 35.4687344], [-97.5402713, 35.4687355], [-97.5402686, 35.4686365], [-97.5402765, 35.4686364], [-97.5402751, 35.4685839], [-97.5403549, 35.4685825], [-97.5403564, 35.4686371], [-97.5403831, 35.4686366], [-97.5403847, 35.4686961], [-97.5403623, 35.4686965], [-97.5403629, 35.4687166]]]}, "properties": {"osm_id": 768570603, "building": "yes", "name": "", "height": null, "height_m": null, "levels": null, "tract_id": "40109109800", "tract_name": "1098", "tags": {"building": "yes"}}}, {"type": "Feature", "geometry": {"type": "Polygon", "coordinates": [[[-97.5403993, 35.4687322], [-97.5404783, 35.4687309], [-97.5404749, 35.4685897], [-97.5403958, 35.468591], [-97.5403993, 35.4687322]]]}, "properties": {"osm_id": 768570604, "building": "yes", "name": "", "height": null, "height_m": null, "levels": null, "tract_id": "40109109800", "tract_name": "1098", "tags": {"building": "yes"}}}, {"type": "Feature", "geometry": {"type": "Polygon", "coordinates": [[[-97.5404871, 35.4687103], [-97.5404938, 35.4687103], [-97.5404939, 35.4687277], [-97.5405672, 35.4687275], [-97.5405671, 35.4687126], [-97.5405732, 35.4687125], [-97.540573, 35.4686333], [-97.5405569, 35.4686333], [-97.5405568, 35.4686109], [-97.5404941, 35.468611], [-97.5404942, 35.4686351], [-97.5404868, 35.4686352], [-97.5404871, 35.4687103]]]}, "properties": {"osm_id": 768570605, "building": "yes", "name": "", "height": null, "height_m": null, "levels": null, "tract_id": "40109109800", "tract_name": "1098", "tags": {"building": "yes"}}}, {"type": "Feature", "geometry": {"type": "Polygon", "coordinates": [[[-97.5406256, 35.4687144], [-97.5407255, 35.4687138], [-97.5407246, 35.4686245], [-97.5406247, 35.4686251], [-97.5406256, 35.4687144]]]}, "properties": {"osm_id": 768570606, "building": "yes", "name": "", "height": null, "height_m": null, "levels": null, "tract_id": "40109109800", "tract_name": "1098", "tags": {"building": "yes"}}}, {"type": "Feature", "geometry": {"type": "Polygon", "coordinates": [[[-97.5407654, 35.4687307], [-97.5408421, 35.4687285], [-97.5408415, 35.4687132], [-97.5408802, 35.4687121], [-97.5408758, 35.46861], [-97.5407883, 35.4686125], [-97.5407896, 35.4686426], [-97.5407617, 35.4686434], [-97.5407654, 35.4687307]]]}, "properties": {"osm_id": 768570607, "building": "yes", "name": "", "height": null, "height_m": null, "levels": null, "tract_id": "40109109800", "tract_name": "1098", "tags": {"building": "yes"}}}, {"type": "Feature", "geometry": {"type": "Polygon", "coordinates": [[[-97.5409217, 35.4687282], [-97.5409722, 35.4687281], [-97.5409723, 35.4687521], [-97.5410452, 35.4687519], [-97.5410447, 35.4686489], [-97.5409213, 35.4686493], [-97.5409217, 35.4687282]]]}, "properties": {"osm_id": 768570608, "building": "yes", "name": "", "height": null, "height_m": null, "levels": null, "tract_id": "40109109800", "tract_name": "1098", "tags": {"building": "yes"}}}, {"type": "Feature", "geometry": {"type": "Polygon", "coordinates": [[[-97.5415219, 35.4690342], [-97.5416126, 35.4690349], [-97.5416107, 35.4692085], [-97.5415199, 35.4692078], [-97.5415219, 35.4690342]]]}, "properties": {"osm_id": 768570609, "building": "yes", "name": "", "height": null, "height_m": null, "levels": null, "tract_id": "40109109800", "tract_name": "1098", "tags": {"building": "yes"}}}, {"type": "Feature", "geometry": {"type": "Polygon", "coordinates": [[[-97.5416562, 35.4690398], [-97.5417746, 35.4690389], [-97.5417763, 35.4692001], [-97.541658, 35.469201], [-97.5416562, 35.4690398]]]}, "properties": {"osm_id": 768570610, "building": "yes", "name": "", "height": null, "height_m": null, "levels": null, "tract_id": "40109109800", "tract_name": "1098", "tags": {"building": "yes"}}}, {"type": "Feature", "geometry": {"type": "Polygon", "coordinates": [[[-97.5418036, 35.4690386], [-97.5419248, 35.4690378], [-97.541926, 35.4691531], [-97.5418048, 35.4691539], [-97.5418036, 35.4690386]]]}, "properties": {"osm_id": 768570611, "building": "yes", "name": "", "height": null, "height_m": null, "levels": null, "tract_id": "40109109800", "tract_name": "1098", "tags": {"building": "yes"}}}, {"type": "Feature", "geometry": {"type": "Polygon", "coordinates": [[[-97.5419658, 35.4690559], [-97.5420982, 35.4690582], [-97.5420949, 35.4691887], [-97.5419624, 35.4691864], [-97.5419658, 35.4690559]]]}, "properties": {"osm_id": 768570612, "building": "yes", "name": "", "height": null, "height_m": null, "levels": null, "tract_id": "40109109800", "tract_name": "1098", "tags": {"building": "yes"}}}, {"type": "Feature", "geometry": {"type": "Polygon", "coordinates": [[[-97.5424443, 35.4690334], [-97.5423006, 35.469032], [-97.5422985, 35.4691661], [-97.5424422, 35.4691676], [-97.5424443, 35.4690334]]]}, "properties": {"osm_id": 768570613, "building": "yes", "name": "", "height": null, "height_m": null, "levels": null, "tract_id": "40109109800", "tract_name": "1098", "tags": {"building": "yes"}}}, {"type": "Feature", "geometry": {"type": "Polygon", "coordinates": [[[-97.5422683, 35.4690694], [-97.5421557, 35.469071], [-97.5421591, 35.4692292], [-97.5422657, 35.4692276], [-97.5422654, 35.4692136], [-97.5422897, 35.4692133], [-97.5422876, 35.4691152], [-97.5422693, 35.4691155], [-97.5422683, 35.4690694]]]}, "properties": {"osm_id": 768570614, "building": "yes", "name": "", "height": null, "height_m": null, "levels": null, "tract_id": "40109109800", "tract_name": "1098", "tags": {"building": "yes"}}}, {"type": "Feature", "geometry": {"type": "Polygon", "coordinates": [[[-97.5302201, 35.4671446], [-97.5305464, 35.4671433], [-97.5305446, 35.4668614], [-97.5306875, 35.4668608], [-97.5306857, 35.4665822], [-97.5305789, 35.4665827], [-97.5305791, 35.4666114], [-97.5302169, 35.4666129], [-97.5302201, 35.4671446]]]}, "properties": {"osm_id": 768572923, "building": "yes", "name": "", "height": null, "height_m": null, "levels": null, "tract_id": "40109109800", "tract_name": "1098", "tags": {"building": "yes"}}}, {"type": "Feature", "geometry": {"type": "Polygon", "coordinates": [[[-97.5303398, 35.467334], [-97.530336, 35.4672521], [-97.530225, 35.4672537], [-97.5302241, 35.4673324], [-97.5303398, 35.467334]]]}, "properties": {"osm_id": 768572924, "building": "shed", "name": "", "height": null, "height_m": null, "levels": null, "tract_id": "40109109800", "tract_name": "1098", "tags": {"building": "shed"}}}, {"type": "Feature", "geometry": {"type": "Polygon", "coordinates": [[[-97.5312062, 35.4672071], [-97.5312078, 35.4673461], [-97.5308011, 35.4673474], [-97.5308011, 35.4672071], [-97.5312062, 35.4672071]]]}, "properties": {"osm_id": 768572925, "building": "yes", "name": "", "height": null, "height_m": null, "levels": null, "tract_id": "40109109800", "tract_name": "1098", "tags": {"building": "yes"}}}, {"type": "Feature", "geometry": {"type": "Polygon", "coordinates": [[[-97.5312062, 35.4670746], [-97.5307803, 35.4670759], [-97.5307803, 35.4669291], [-97.531203, 35.4669317], [-97.5312062, 35.4670746]]]}, "properties": {"osm_id": 768572926, "building": "yes", "name": "", "height": null, "height_m": null, "levels": null, "tract_id": "40109109800", "tract_name": "1098", "tags": {"building": "yes"}}}, {"type": "Feature", "geometry": {"type": "Polygon", "coordinates": [[[-97.5324102, 35.4673448], [-97.5319535, 35.4673441], [-97.531949, 35.4670244], [-97.532029, 35.4670241], [-97.5320279, 35.4672033], [-97.5324068, 35.4672052], [-97.5324102, 35.4673448]]]}, "properties": {"osm_id": 768572927, "building": "yes", "name": "", "height": null, "height_m": null, "levels": null, "tract_id": "40109109800", "tract_name": "1098", "tags": {"building": "yes"}}}, {"type": "Feature", "geometry": {"type": "Polygon", "coordinates": [[[-97.5318678, 35.4670178], [-97.531446, 35.4670178], [-97.5314437, 35.4668764], [-97.5318667, 35.4668764], [-97.5318678, 35.4670178]]]}, "properties": {"osm_id": 768572928, "building": "yes", "name": "", "height": null, "height_m": null, "levels": null, "tract_id": "40109109800", "tract_name": "1098", "tags": {"building": "yes"}}}, {"type": "Feature", "geometry": {"type": "Polygon", "coordinates": [[[-97.5314122, 35.4668635], [-97.5318836, 35.4668617], [-97.5318779, 35.4665835], [-97.5314087, 35.4665875], [-97.5314122, 35.4668635]]]}, "properties": {"osm_id": 768572929, "building": "yes", "name": "", "height": null, "height_m": null, "levels": null, "tract_id": "40109109800", "tract_name": "1098", "tags": {"building": "yes"}}}, {"type": "Feature", "geometry": {"type": "Polygon", "coordinates": [[[-97.5304587, 35.4677733], [-97.5304616, 35.4675771], [-97.5302027, 35.467574], [-97.5302066, 35.4677717], [-97.5304587, 35.4677733]]]}, "properties": {"osm_id": 768572930, "building": "yes", "name": "", "height": null, "height_m": null, "levels": null, "tract_id": "40109109800", "tract_name": "1098", "tags": {"building": "yes"}}}, {"type": "Feature", "geometry": {"type": "Polygon", "coordinates": [[[-97.5318611, 35.4672183], [-97.5318624, 35.4673319], [-97.5316116, 35.467333], [-97.5316143, 35.4672183], [-97.5318611, 35.4672183]]]}, "properties": {"osm_id": 768572932, "building": "yes", "name": "", "height": null, "height_m": null, "levels": null, "tract_id": "40109109800", "tract_name": "1098", "tags": {"building": "yes"}}}, {"type": "Feature", "geometry": {"type": "Polygon", "coordinates": [[[-97.5320056, 35.4674407], [-97.5318286, 35.4674407], [-97.5318381, 35.4677741], [-97.532001, 35.4677765], [-97.5320056, 35.4674407]]]}, "properties": {"osm_id": 768572933, "building": "yes", "name": "", "height": null, "height_m": null, "levels": null, "tract_id": "40109109800", "tract_name": "1098", "tags": {"building": "yes"}}}, {"type": "Feature", "geometry": {"type": "Polygon", "coordinates": [[[-97.5334679, 35.4677662], [-97.5332949, 35.4677662], [-97.5332949, 35.4676461], [-97.5329543, 35.4676471], [-97.5329595, 35.4677713], [-97.5326195, 35.4677705], [-97.5326162, 35.4673834], [-97.533632, 35.4673765], [-97.5336318, 35.467491], [-97.5334639, 35.4674942], [-97.5334679, 35.4677662]]]}, "properties": {"osm_id": 768572934, "building": "yes", "name": "", "height": null, "height_m": null, "levels": null, "tract_id": "40109109800", "tract_name": "1098", "tags": {"building": "yes"}}}, {"type": "Feature", "geometry": {"type": "Polygon", "coordinates": [[[-97.5335262, 35.467207], [-97.5331574, 35.4672061], [-97.533163, 35.4673393], [-97.5335273, 35.4673393], [-97.5335262, 35.467207]]]}, "properties": {"osm_id": 768572935, "building": "yes", "name": "", "height": null, "height_m": null, "levels": null, "tract_id": "40109109800", "tract_name": "1098", "tags": {"building": "yes"}}}, {"type": "Feature", "geometry": {"type": "Polygon", "coordinates": [[[-97.5329042, 35.4668699], [-97.5330831, 35.4668694], [-97.5330848, 35.4673344], [-97.5326212, 35.4673355], [-97.5326207, 35.4671948], [-97.5329053, 35.4671942], [-97.5329042, 35.4668699]]]}, "properties": {"osm_id": 768572936, "building": "yes", "name": "", "height": null, "height_m": null, "levels": null, "tract_id": "40109109800", "tract_name": "1098", "tags": {"building": "yes"}}}, {"type": "Feature", "geometry": {"type": "Polygon", "coordinates": [[[-97.5347934, 35.4690479], [-97.5346725, 35.46905], [-97.5346751, 35.4691493], [-97.5347125, 35.4691487], [-97.5347135, 35.4691863], [-97.5347682, 35.4691853], [-97.5347671, 35.4691424], [-97.5347958, 35.4691419], [-97.5347934, 35.4690479]]]}, "properties": {"osm_id": 768575437, "building": "yes", "name": "", "height": null, "height_m": null, "levels": null, "tract_id": "40109109800", "tract_name": "1098", "tags": {"building": "yes"}}}, {"type": "Feature", "geometry": {"type": "Polygon", "coordinates": [[[-97.5349175, 35.4690591], [-97.5349176, 35.469074], [-97.5349272, 35.4690739], [-97.5349279, 35.4691586], [-97.534916, 35.4691587], [-97.5349163, 35.4691901], [-97.5348607, 35.4691904], [-97.5348609, 35.4692061], [-97.5348294, 35.4692062], [-97.5348284, 35.4690764], [-97.5348351, 35.4690764], [-97.534835, 35.4690595], [-97.5349175, 35.4690591]]]}, "properties": {"osm_id": 768575438, "building": "yes", "name": "", "height": null, "height_m": null, "levels": null, "tract_id": "40109109800", "tract_name": "1098", "tags": {"building": "yes"}}}, {"type": "Feature", "geometry": {"type": "Polygon", "coordinates": [[[-97.5346787, 35.4692132], [-97.5347827, 35.4692148], [-97.5347805, 35.4693114], [-97.5346766, 35.4693099], [-97.5346787, 35.4692132]]]}, "properties": {"osm_id": 768575439, "building": "yes", "name": "", "height": null, "height_m": null, "levels": null, "tract_id": "40109109800", "tract_name": "1098", "tags": {"building": "yes"}}}, {"type": "Feature", "geometry": {"type": "Polygon", "coordinates": [[[-97.5348143, 35.4692788], [-97.5349193, 35.4692804], [-97.5349183, 35.4693283], [-97.5349473, 35.4693287], [-97.5349462, 35.4693786], [-97.5349189, 35.4693782], [-97.5349187, 35.469388], [-97.5348119, 35.4693864], [-97.5348143, 35.4692788]]]}, "properties": {"osm_id": 768575440, "building": "yes", "name": "", "height": null, "height_m": null, "levels": null, "tract_id": "40109109800", "tract_name": "1098", "tags": {"building": "yes"}}}, {"type": "Feature", "geometry": {"type": "Polygon", "coordinates": [[[-97.5351899, 35.469055], [-97.5352709, 35.469054], [-97.5352712, 35.4690685], [-97.5352849, 35.4690683], [-97.5352867, 35.4691605], [-97.5352811, 35.4691606], [-97.5352817, 35.4691886], [-97.5351813, 35.4691899], [-97.535179, 35.4690715], [-97.5351902, 35.4690713], [-97.5351899, 35.469055]]]}, "properties": {"osm_id": 768575441, "building": "yes", "name": "", "height": null, "height_m": null, "levels": null, "tract_id": "40109109800", "tract_name": "1098", "tags": {"building": "yes"}}}, {"type": "Feature", "geometry": {"type": "Polygon", "coordinates": [[[-97.5353309, 35.4690469], [-97.5354195, 35.4690466], [-97.5354196, 35.4690666], [-97.5354386, 35.4690666], [-97.5354388, 35.4690992], [-97.5354184, 35.4690992], [-97.5354185, 35.4691271], [-97.5354314, 35.469127], [-97.5354315, 35.4691811], [-97.5353883, 35.4691812], [-97.5353884, 35.469233], [-97.5353046, 35.4692332], [-97.5353044, 35.4691595], [-97.5353313, 35.4691595], [-97.5353309, 35.4690469]]]}, "properties": {"osm_id": 768575442, "building": "yes", "name": "", "height": null, "height_m": null, "levels": null, "tract_id": "40109109800", "tract_name": "1098", "tags": {"building": "yes"}}}, {"type": "Feature", "geometry": {"type": "Polygon", "coordinates": [[[-97.5355121, 35.4690566], [-97.5355125, 35.4690702], [-97.5354704, 35.469071], [-97.5354735, 35.469182], [-97.5355971, 35.4691798], [-97.535594, 35.4690674], [-97.5355865, 35.4690676], [-97.5355862, 35.4690552], [-97.5355121, 35.4690566]]]}, "properties": {"osm_id": 768575443, "building": "yes", "name": "", "height": null, "height_m": null, "levels": null, "tract_id": "40109109800", "tract_name": "1098", "tags": {"building": "yes"}}}, {"type": "Feature", "geometry": {"type": "Polygon", "coordinates": [[[-97.5344155, 35.4687309], [-97.534108, 35.4687334], [-97.5341041, 35.4684177], [-97.5344118, 35.4684152], [-97.5344155, 35.4687309]]]}, "properties": {"osm_id": 768575444, "building": "yes", "name": "", "height": null, "height_m": null, "levels": null, "tract_id": "40109109800", "tract_name": "1098", "tags": {"building": "yes"}}}, {"type": "Feature", "geometry": {"type": "Polygon", "coordinates": [[[-97.5339589, 35.4686066], [-97.5340749, 35.4686069], [-97.5340744, 35.4687269], [-97.5340458, 35.4687268], [-97.5340457, 35.4687454], [-97.5339584, 35.4687451], [-97.5339589, 35.4686066]]]}, "properties": {"osm_id": 768575445, "building": "yes", "name": "", "height": null, "height_m": null, "levels": null, "tract_id": "40109109800", "tract_name": "1098", "tags": {"building": "yes"}}}, {"type": "Feature", "geometry": {"type": "Polygon", "coordinates": [[[-97.5339274, 35.4685926], [-97.5339831, 35.4685923], [-97.5339821, 35.4684754], [-97.5339264, 35.4684757], [-97.5339274, 35.4685926]]]}, "properties": {"osm_id": 768575446, "building": "yes", "name": "", "height": null, "height_m": null, "levels": null, "tract_id": "40109109800", "tract_name": "1098", "tags": {"building": "yes"}}}, {"type": "Feature", "geometry": {"type": "Polygon", "coordinates": [[[-97.5340251, 35.4685945], [-97.5340898, 35.4685934], [-97.534087, 35.4684796], [-97.5340223, 35.4684806], [-97.5340251, 35.4685945]]]}, "properties": {"osm_id": 768575447, "building": "yes", "name": "", "height": null, "height_m": null, "levels": null, "tract_id": "40109109800", "tract_name": "1098", "tags": {"building": "yes"}}}, {"type": "Feature", "geometry": {"type": "Polygon", "coordinates": [[[-97.5331503, 35.4687495], [-97.5332445, 35.4687493], [-97.5332439, 35.4686067], [-97.5332318, 35.4686067], [-97.5332316, 35.4685739], [-97.5331368, 35.4685741], [-97.533137, 35.4686331], [-97.5331498, 35.468633], [-97.5331503, 35.4687495]]]}, "properties": {"osm_id": 768575448, "building": "yes", "name": "", "height": null, "height_m": null, "levels": null, "tract_id": "40109109800", "tract_name": "1098", "tags": {"building": "yes"}}}, {"type": "Feature", "geometry": {"type": "Polygon", "coordinates": [[[-97.5334109, 35.4687286], [-97.53332, 35.4687293], [-97.5333194, 35.4686773], [-97.5333052, 35.4686774], [-97.5333044, 35.4686091], [-97.5334095, 35.4686083], [-97.5334109, 35.4687286]]]}, "properties": {"osm_id": 768575449, "building": "yes", "name": "", "height": null, "height_m": null, "levels": null, "tract_id": "40109109800", "tract_name": "1098", "tags": {"building": "yes"}}}, {"type": "Feature", "geometry": {"type": "Polygon", "coordinates": [[[-97.5324206, 35.4687237], [-97.5326272, 35.4687248], [-97.5326258, 35.4684212], [-97.5324206, 35.4684223], [-97.5324206, 35.4687237]]]}, "properties": {"osm_id": 768575450, "building": "yes", "name": "", "height": null, "height_m": null, "levels": null, "tract_id": "40109109800", "tract_name": "1098", "tags": {"building": "yes"}}}, {"type": "Feature", "geometry": {"type": "Polygon", "coordinates": [[[-97.5324682, 35.4680347], [-97.5324708, 35.4682527], [-97.5324171, 35.4682531], [-97.5324182, 35.4683514], [-97.5328036, 35.4683485], [-97.5328015, 35.4681719], [-97.5329207, 35.468171], [-97.5329184, 35.4679708], [-97.5326766, 35.4679727], [-97.5326773, 35.468033], [-97.5324682, 35.4680347]]]}, "properties": {"osm_id": 768575451, "building": "yes", "name": "", "height": null, "height_m": null, "levels": null, "tract_id": "40109109800", "tract_name": "1098", "tags": {"building": "yes"}}}, {"type": "Feature", "geometry": {"type": "Polygon", "coordinates": [[[-97.5335879, 35.4683196], [-97.5337688, 35.4683197], [-97.533769, 35.4679665], [-97.5335881, 35.4679664], [-97.5335879, 35.4683196]]]}, "properties": {"osm_id": 768575452, "building": "yes", "name": "", "height": null, "height_m": null, "levels": null, "tract_id": "40109109800", "tract_name": "1098", "tags": {"building": "yes"}}}, {"type": "Feature", "geometry": {"type": "Polygon", "coordinates": [[[-97.534253, 35.4679734], [-97.5342545, 35.4682483], [-97.5343894, 35.4682478], [-97.5343899, 35.4683447], [-97.5342688, 35.4683451], [-97.5342688, 35.468352], [-97.5340978, 35.4683527], [-97.5340956, 35.467974], [-97.534253, 35.4679734]]]}, "properties": {"osm_id": 768575453, "building": "yes", "name": "", "height": null, "height_m": null, "levels": null, "tract_id": "40109109800", "tract_name": "1098", "tags": {"building": "yes"}}}, {"type": "Feature", "geometry": {"type": "Polygon", "coordinates": [[[-97.5343036, 35.4670677], [-97.5339275, 35.4670701], [-97.5339286, 35.4671984], [-97.5338173, 35.4671991], [-97.5338187, 35.4673436], [-97.5343062, 35.4673405], [-97.5343036, 35.4670677]]]}, "properties": {"osm_id": 768575454, "building": "yes", "name": "", "height": null, "height_m": null, "levels": null, "tract_id": "40109109800", "tract_name": "1098", "tags": {"building": "yes"}}}, {"type": "Feature", "geometry": {"type": "Polygon", "coordinates": [[[-97.5339109, 35.4666023], [-97.5341925, 35.4666045], [-97.5341939, 35.4669125], [-97.5339149, 35.4669192], [-97.5339109, 35.4666023]]]}, "properties": {"osm_id": 768575455, "building": "yes", "name": "", "height": null, "height_m": null, "levels": null, "tract_id": "40109109800", "tract_name": "1098", "tags": {"building": "yes"}}}, {"type": "Feature", "geometry": {"type": "Polygon", "coordinates": [[[-97.5435198, 35.464766], [-97.5435193, 35.464494], [-97.5446193, 35.4644927], [-97.5446192, 35.4644827], [-97.5451016, 35.464482], [-97.5451019, 35.4646187], [-97.5450847, 35.4646187], [-97.5450852, 35.4648614], [-97.5445385, 35.464862], [-97.5445381, 35.4646797], [-97.5440681, 35.4646803], [-97.5440685, 35.4648659], [-97.54389, 35.4648661], [-97.5438898, 35.4647655], [-97.5435198, 35.464766]]]}, "properties": {"osm_id": 1026618642, "building": "yes", "name": "International Trucks", "height": null, "height_m": null, "levels": null, "tract_id": "40109109800", "tract_name": "1098", "tags": {"building": "yes", "name": "International Trucks"}}}, {"type": "Feature", "geometry": {"type": "Polygon", "coordinates": [[[-97.541626, 35.46474], [-97.541873, 35.46474], [-97.541873, 35.464644], [-97.541808, 35.464644], [-97.541808, 35.464596], [-97.541626, 35.464596], [-97.541626, 35.46474]]]}, "properties": {"osm_id": 1026618643, "building": "yes", "name": "", "height": null, "height_m": null, "levels": null, "tract_id": "40109109800", "tract_name": "1098", "tags": {"building": "yes", "source": "microsoft/BuildingFootprints"}}}, {"type": "Feature", "geometry": {"type": "Polygon", "coordinates": [[[-97.5397347, 35.4705217], [-97.5397354, 35.4705588], [-97.5395012, 35.4705617], [-97.5394998, 35.4704825], [-97.5396674, 35.4704804], [-97.5396682, 35.4705225], [-97.5397347, 35.4705217]]]}, "properties": {"osm_id": 1112175509, "building": "yes", "name": "", "height": null, "height_m": null, "levels": null, "tract_id": "40109109800", "tract_name": "1098", "tags": {"building": "yes"}}}, {"type": "Feature", "geometry": {"type": "Polygon", "coordinates": [[[-97.5399859, 35.4706583], [-97.5399874, 35.4707429], [-97.5400291, 35.4707424], [-97.5400297, 35.4707769], [-97.539988, 35.4707774], [-97.5399885, 35.4708067], [-97.5398814, 35.4708079], [-97.5398801, 35.4707344], [-97.5398008, 35.4707353], [-97.5397995, 35.4706605], [-97.5399859, 35.4706583]]]}, "properties": {"osm_id": 1112175510, "building": "yes", "name": "", "height": null, "height_m": null, "levels": null, "tract_id": "40109109800", "tract_name": "1098", "tags": {"building": "yes"}}}, {"type": "Feature", "geometry": {"type": "Polygon", "coordinates": [[[-97.5397452, 35.4708292], [-97.5395112, 35.4708303], [-97.5395106, 35.4707468], [-97.5395763, 35.4707465], [-97.539576, 35.4707053], [-97.5395669, 35.4707053], [-97.5395666, 35.4706603], [-97.5396828, 35.4706597], [-97.5396831, 35.4706917], [-97.5397442, 35.4706914], [-97.5397452, 35.4708292]]]}, "properties": {"osm_id": 1112175511, "building": "yes", "name": "", "height": null, "height_m": null, "levels": null, "tract_id": "40109109800", "tract_name": "1098", "tags": {"building": "yes"}}}, {"type": "Feature", "geometry": {"type": "Polygon", "coordinates": [[[-97.5394186, 35.4708363], [-97.5390981, 35.4708374], [-97.539098, 35.4708194], [-97.5390822, 35.4708195], [-97.5390818, 35.4707523], [-97.5390977, 35.4707522], [-97.5390976, 35.4707354], [-97.5392778, 35.4707347], [-97.5392778, 35.4707228], [-97.5393073, 35.4707227], [-97.5393073, 35.4707346], [-97.5393563, 35.4707345], [-97.5393562, 35.4707245], [-97.5394181, 35.4707243], [-97.5394186, 35.4708363]]]}, "properties": {"osm_id": 1112175512, "building": "yes", "name": "", "height": null, "height_m": null, "levels": null, "tract_id": "40109109800", "tract_name": "1098", "tags": {"building": "yes"}}}, {"type": "Feature", "geometry": {"type": "Polygon", "coordinates": [[[-97.5392792, 35.4705911], [-97.5392792, 35.4706021], [-97.5393239, 35.4706019], [-97.5393242, 35.4706696], [-97.5392795, 35.4706698], [-97.5392796, 35.4706834], [-97.539249, 35.4706835], [-97.5392491, 35.4707123], [-97.5392035, 35.4707124], [-97.5392034, 35.4706837], [-97.5390972, 35.470684], [-97.5390968, 35.4705917], [-97.5392792, 35.4705911]]]}, "properties": {"osm_id": 1112175513, "building": "yes", "name": "", "height": null, "height_m": null, "levels": null, "tract_id": "40109109800", "tract_name": "1098", "tags": {"building": "yes"}}}, {"type": "Feature", "geometry": {"type": "Polygon", "coordinates": [[[-97.5394133, 35.4701182], [-97.5394082, 35.4702891], [-97.5394256, 35.4702895], [-97.5394249, 35.4703152], [-97.5394075, 35.4703148], [-97.5394039, 35.470436], [-97.5392492, 35.470433], [-97.5392586, 35.4701152], [-97.5394133, 35.4701182]]]}, "properties": {"osm_id": 1112175516, "building": "yes", "name": "", "height": null, "height_m": null, "levels": null, "tract_id": "40109109800", "tract_name": "1098", "tags": {"addr:city": "Oklahoma City", "addr:housenumber": "317", "addr:postcode": "73160", "addr:state": "OK", "addr:street": "North Blackwelder Avenue", "building": "yes"}}}, {"type": "Feature", "geometry": {"type": "Polygon", "coordinates": [[[-97.530956, 35.4645499], [-97.5308833, 35.4645501], [-97.5307967, 35.4645503], [-97.5307171, 35.4645505], [-97.5306417, 35.4645507], [-97.5305698, 35.4645509], [-97.5305696, 35.464492], [-97.5306409, 35.4644919], [-97.5307171, 35.4644917], [-97.5307961, 35.4644915], [-97.5308836, 35.4644912], [-97.5309563, 35.4644911], [-97.5310383, 35.4644909], [-97.5310385, 35.4645497], [-97.530956, 35.4645499]]]}, "properties": {"osm_id": 1231771446, "building": "roof", "name": "", "height": null, "height_m": null, "levels": null, "tract_id": "40109109800", "tract_name": "1098", "tags": {"amenity": "fuel", "building": "roof"}}}, {"type": "Feature", "geometry": {"type": "Polygon", "coordinates": [[[-97.5309625, 35.4647137], [-97.53064, 35.4647121], [-97.5306389, 35.464856], [-97.5309614, 35.4648576], [-97.5309625, 35.4647137]]]}, "properties": {"osm_id": 1231771448, "building": "retail", "name": "7-Eleven", "height": null, "height_m": null, "levels": null, "tract_id": "40109109800", "tract_name": "1098", "tags": {"addr:city": "Oklahoma City", "addr:country": "US", "addr:housenumber": "1101", "addr:postcode": "73106", "addr:state": "OK", "addr:street": "West Reno Avenue", "brand": "7-Eleven", "brand:wikidata": "Q259340", "building": "retail", "name": "7-Eleven", "phone": "+1-800-255-0711", "shop": "convenience", "website": "https://www.7-eleven.com/locations/ok/oklahoma-city/1101-w-reno-ave-42156"}}}, {"type": "Feature", "geometry": {"type": "Polygon", "coordinates": [[[-97.5408402, 35.4730952], [-97.5408406, 35.4729569], [-97.5401208, 35.4729558], [-97.5401206, 35.4730432], [-97.5402142, 35.4730666], [-97.5405728, 35.4730672], [-97.5405727, 35.4730948], [-97.5408402, 35.4730952]]]}, "properties": {"osm_id": 1251429962, "building": "yes", "name": "Summit Machine Tool", "height": null, "height_m": null, "levels": null, "tract_id": "40109109800", "tract_name": "1098", "tags": {"addr:city": "Oklahoma City", "addr:housenumber": "518", "addr:postcode": "73106", "addr:state": "OK", "addr:street": "North Indiana Avenue", "building": "yes", "email": "sales@summitmt.com", "fax": "+1 405 232 5169", "name": "Summit Machine Tool", "phone": "+1 405 235 2075;+1 800 654 3262", "shop": "hardware", "website": "https://summitmt.com/"}}}, {"type": "Feature", "geometry": {"type": "Polygon", "coordinates": [[[-97.5420995, 35.4730268], [-97.5420982, 35.4726762], [-97.5417629, 35.472677], [-97.5417628, 35.4726421], [-97.5414114, 35.472643], [-97.5414118, 35.4727369], [-97.5412845, 35.4727372], [-97.5412851, 35.4729076], [-97.5414568, 35.4729072], [-97.5414572, 35.4730283], [-97.5420995, 35.4730268]]]}, "properties": {"osm_id": 1275051055, "building": "yes", "name": "", "height": null, "height_m": null, "levels": null, "tract_id": "40109109800", "tract_name": "1098", "tags": {"building": "yes", "source": "microsoft/BuildingFootprints"}}}, {"type": "Feature", "geometry": {"type": "Polygon", "coordinates": [[[-97.5390475, 35.4725562], [-97.5398093, 35.4725594], [-97.5398095, 35.4725266], [-97.5398792, 35.4725269], [-97.539879, 35.4725597], [-97.5410645, 35.4725647], [-97.5410662, 35.4723026], [-97.5408623, 35.4723017], [-97.5408622, 35.4723236], [-97.5390491, 35.4723159], [-97.5390475, 35.4725562]]]}, "properties": {"osm_id": 1275051056, "building": "yes", "name": "", "height": null, "height_m": null, "levels": null, "tract_id": "40109109800", "tract_name": "1098", "tags": {"building": "yes", "source": "microsoft/BuildingFootprints"}}}, {"type": "Feature", "geometry": {"type": "Polygon", "coordinates": [[[-97.5413496, 35.4725742], [-97.5423727, 35.4725776], [-97.5423737, 35.4723832], [-97.5424086, 35.4723833], [-97.5424089, 35.4723178], [-97.5423633, 35.4723177], [-97.5423634, 35.4722991], [-97.5412652, 35.4722953], [-97.5412645, 35.4724319], [-97.541314, 35.4724321], [-97.5413134, 35.4725391], [-97.5413498, 35.4725392], [-97.5413496, 35.4725742]]]}, "properties": {"osm_id": 1275051057, "building": "yes", "name": "", "height": null, "height_m": null, "levels": null, "tract_id": "40109109800", "tract_name": "1098", "tags": {"building": "yes", "source": "microsoft/BuildingFootprints"}}}, {"type": "Feature", "geometry": {"type": "Polygon", "coordinates": [[[-97.5421161, 35.4722163], [-97.5421183, 35.471963], [-97.5412762, 35.471958], [-97.5412739, 35.4722114], [-97.5421161, 35.4722163]]]}, "properties": {"osm_id": 1275051058, "building": "yes", "name": "", "height": null, "height_m": null, "levels": null, "tract_id": "40109109800", "tract_name": "1098", "tags": {"building": "yes", "source": "microsoft/BuildingFootprints"}}}, {"type": "Feature", "geometry": {"type": "Polygon", "coordinates": [[[-97.5414238, 35.471528], [-97.5412683, 35.4715287], [-97.5412699, 35.4717744], [-97.5414255, 35.4717737], [-97.5414238, 35.471528]]]}, "properties": {"osm_id": 1275051059, "building": "yes", "name": "", "height": null, "height_m": null, "levels": null, "tract_id": "40109109800", "tract_name": "1098", "tags": {"building": "yes", "source": "microsoft/BuildingFootprints"}}}, {"type": "Feature", "geometry": {"type": "Polygon", "coordinates": [[[-97.5412642, 35.4714662], [-97.5422716, 35.4714724], [-97.5422742, 35.4711961], [-97.5412668, 35.4711899], [-97.5412642, 35.4714662]]]}, "properties": {"osm_id": 1275051060, "building": "yes", "name": "", "height": null, "height_m": null, "levels": null, "tract_id": "40109109800", "tract_name": "1098", "tags": {"building": "yes", "source": "microsoft/BuildingFootprints"}}}, {"type": "Feature", "geometry": {"type": "Polygon", "coordinates": [[[-97.5410476, 35.4715889], [-97.5409028, 35.4715878], [-97.5409008, 35.4717604], [-97.5410456, 35.4717615], [-97.5410476, 35.4715889]]]}, "properties": {"osm_id": 1275051061, "building": "yes", "name": "", "height": null, "height_m": null, "levels": null, "tract_id": "40109109800", "tract_name": "1098", "tags": {"building": "yes", "source": "microsoft/BuildingFootprints"}}}, {"type": "Feature", "geometry": {"type": "Polygon", "coordinates": [[[-97.5409031, 35.4719661], [-97.5408978, 35.4721288], [-97.5410586, 35.4721322], [-97.5410639, 35.4719696], [-97.5409031, 35.4719661]]]}, "properties": {"osm_id": 1275051062, "building": "yes", "name": "", "height": null, "height_m": null, "levels": null, "tract_id": "40109109800", "tract_name": "1098", "tags": {"building": "yes", "source": "microsoft/BuildingFootprints"}}}, {"type": "Feature", "geometry": {"type": "Polygon", "coordinates": [[[-97.5408493, 35.4721306], [-97.5408506, 35.4720454], [-97.5408855, 35.4720458], [-97.5408863, 35.4719978], [-97.5407495, 35.4719963], [-97.5407474, 35.4721295], [-97.5408493, 35.4721306]]]}, "properties": {"osm_id": 1275051063, "building": "yes", "name": "", "height": null, "height_m": null, "levels": null, "tract_id": "40109109800", "tract_name": "1098", "tags": {"building": "yes", "source": "microsoft/BuildingFootprints"}}}, {"type": "Feature", "geometry": {"type": "Polygon", "coordinates": [[[-97.540749, 35.4717792], [-97.5408508, 35.4717776], [-97.5408477, 35.4716444], [-97.5407458, 35.471646], [-97.540749, 35.4717792]]]}, "properties": {"osm_id": 1275051064, "building": "yes", "name": "", "height": null, "height_m": null, "levels": null, "tract_id": "40109109800", "tract_name": "1098", "tags": {"building": "yes", "source": "microsoft/BuildingFootprints"}}}, {"type": "Feature", "geometry": {"type": "Polygon", "coordinates": [[[-97.5405687, 35.4717708], [-97.5406936, 35.471772], [-97.5406958, 35.4716268], [-97.5407253, 35.4716271], [-97.5407262, 35.471567], [-97.5406469, 35.4715662], [-97.5406463, 35.4716055], [-97.5406114, 35.4716052], [-97.5406106, 35.4716588], [-97.5405704, 35.4716584], [-97.5405687, 35.4717708]]]}, "properties": {"osm_id": 1275051065, "building": "yes", "name": "", "height": null, "height_m": null, "levels": null, "tract_id": "40109109800", "tract_name": "1098", "tags": {"building": "yes", "source": "microsoft/BuildingFootprints"}}}, {"type": "Feature", "geometry": {"type": "Polygon", "coordinates": [[[-97.5406914, 35.4721263], [-97.5406848, 35.4719955], [-97.5405858, 35.4719988], [-97.5405934, 35.4721493], [-97.5406297, 35.4721481], [-97.5406287, 35.4721284], [-97.5406914, 35.4721263]]]}, "properties": {"osm_id": 1275051066, "building": "yes", "name": "", "height": null, "height_m": null, "levels": null, "tract_id": "40109109800", "tract_name": "1098", "tags": {"building": "yes", "source": "microsoft/BuildingFootprints"}}}, {"type": "Feature", "geometry": {"type": "Polygon", "coordinates": [[[-97.540518, 35.4719973], [-97.5404188, 35.4719989], [-97.5404218, 35.4721289], [-97.5404621, 35.4721283], [-97.5404626, 35.4721523], [-97.5405216, 35.4721514], [-97.540518, 35.4719973]]]}, "properties": {"osm_id": 1275051067, "building": "yes", "name": "", "height": null, "height_m": null, "levels": null, "tract_id": "40109109800", "tract_name": "1098", "tags": {"building": "yes", "source": "microsoft/BuildingFootprints"}}}, {"type": "Feature", "geometry": {"type": "Polygon", "coordinates": [[[-97.5404153, 35.4716434], [-97.5404121, 35.4717723], [-97.5405167, 35.471774], [-97.5405199, 35.4716452], [-97.5404153, 35.4716434]]]}, "properties": {"osm_id": 1275051068, "building": "yes", "name": "", "height": null, "height_m": null, "levels": null, "tract_id": "40109109800", "tract_name": "1098", "tags": {"building": "yes", "source": "microsoft/BuildingFootprints"}}}, {"type": "Feature", "geometry": {"type": "Polygon", "coordinates": [[[-97.540248, 35.4716473], [-97.5402458, 35.4717795], [-97.5403477, 35.4717807], [-97.5403499, 35.4716484], [-97.540248, 35.4716473]]]}, "properties": {"osm_id": 1275051069, "building": "yes", "name": "", "height": null, "height_m": null, "levels": null, "tract_id": "40109109800", "tract_name": "1098", "tags": {"building": "yes", "source": "microsoft/BuildingFootprints"}}}, {"type": "Feature", "geometry": {"type": "Polygon", "coordinates": [[[-97.5400869, 35.4717664], [-97.54019, 35.4717678], [-97.5401934, 35.4715996], [-97.5400904, 35.4715982], [-97.5400869, 35.4717664]]]}, "properties": {"osm_id": 1275051070, "building": "yes", "name": "", "height": null, "height_m": null, "levels": null, "tract_id": "40109109800", "tract_name": "1098", "tags": {"building": "yes", "source": "microsoft/BuildingFootprints"}}}, {"type": "Feature", "geometry": {"type": "Polygon", "coordinates": [[[-97.5399133, 35.4717787], [-97.5400098, 35.4717769], [-97.5400061, 35.4716459], [-97.5399096, 35.4716477], [-97.5399133, 35.4717787]]]}, "properties": {"osm_id": 1275051071, "building": "yes", "name": "", "height": null, "height_m": null, "levels": null, "tract_id": "40109109800", "tract_name": "1098", "tags": {"building": "yes", "source": "microsoft/BuildingFootprints"}}}, {"type": "Feature", "geometry": {"type": "Polygon", "coordinates": [[[-97.5398489, 35.4716495], [-97.5397459, 35.4716483], [-97.5397435, 35.4717815], [-97.5398465, 35.4717828], [-97.5398489, 35.4716495]]]}, "properties": {"osm_id": 1275051072, "building": "yes", "name": "", "height": null, "height_m": null, "levels": null, "tract_id": "40109109800", "tract_name": "1098", "tags": {"building": "yes", "source": "microsoft/BuildingFootprints"}}}, {"type": "Feature", "geometry": {"type": "Polygon", "coordinates": [[[-97.5402171, 35.4712831], [-97.5402105, 35.4711194], [-97.5400964, 35.4711225], [-97.540103, 35.4712861], [-97.5402171, 35.4712831]]]}, "properties": {"osm_id": 1275051073, "building": "yes", "name": "", "height": null, "height_m": null, "levels": null, "tract_id": "40109109800", "tract_name": "1098", "tags": {"building": "yes", "source": "microsoft/BuildingFootprints"}}}, {"type": "Feature", "geometry": {"type": "Polygon", "coordinates": [[[-97.5402681, 35.4711539], [-97.5402699, 35.4712469], [-97.5402216, 35.4712475], [-97.5402237, 35.4713598], [-97.54028, 35.4713591], [-97.5402786, 35.4712817], [-97.540336, 35.471281], [-97.5403355, 35.4712558], [-97.5403719, 35.4712553], [-97.54037, 35.4711527], [-97.5402681, 35.4711539]]]}, "properties": {"osm_id": 1275051074, "building": "yes", "name": "", "height": null, "height_m": null, "levels": null, "tract_id": "40109109800", "tract_name": "1098", "tags": {"building": "yes", "source": "microsoft/BuildingFootprints"}}}, {"type": "Feature", "geometry": {"type": "Polygon", "coordinates": [[[-97.5409429, 35.4704789], [-97.5409374, 35.4706513], [-97.5409063, 35.4706506], [-97.5409046, 35.4707019], [-97.5409368, 35.4707026], [-97.5409358, 35.4707331], [-97.5410698, 35.470736], [-97.541078, 35.4704817], [-97.5409429, 35.4704789]]]}, "properties": {"osm_id": 1275051075, "building": "yes", "name": "", "height": null, "height_m": null, "levels": null, "tract_id": "40109109800", "tract_name": "1098", "tags": {"building": "yes", "source": "microsoft/BuildingFootprints"}}}, {"type": "Feature", "geometry": {"type": "Polygon", "coordinates": [[[-97.5410522, 35.470384], [-97.5410595, 35.4702051], [-97.5409283, 35.4702015], [-97.5409209, 35.4703805], [-97.5410522, 35.470384]]]}, "properties": {"osm_id": 1275051076, "building": "yes", "name": "", "height": null, "height_m": null, "levels": null, "tract_id": "40109109800", "tract_name": "1098", "tags": {"building": "yes", "source": "microsoft/BuildingFootprints"}}}, {"type": "Feature", "geometry": {"type": "Polygon", "coordinates": [[[-97.5415224, 35.4702607], [-97.5413911, 35.4702582], [-97.5413957, 35.470102], [-97.5412831, 35.4700998], [-97.5412762, 35.4703356], [-97.5415201, 35.4703404], [-97.5415224, 35.4702607]]]}, "properties": {"osm_id": 1275051077, "building": "yes", "name": "", "height": null, "height_m": null, "levels": null, "tract_id": "40109109800", "tract_name": "1098", "tags": {"building": "yes", "source": "microsoft/BuildingFootprints"}}}, {"type": "Feature", "geometry": {"type": "Polygon", "coordinates": [[[-97.5417735, 35.4701047], [-97.5416689, 35.4701059], [-97.5416714, 35.4702501], [-97.541776, 35.4702488], [-97.5417735, 35.4701047]]]}, "properties": {"osm_id": 1275051078, "building": "yes", "name": "", "height": null, "height_m": null, "levels": null, "tract_id": "40109109800", "tract_name": "1098", "tags": {"building": "yes", "source": "microsoft/BuildingFootprints"}}}, {"type": "Feature", "geometry": {"type": "Polygon", "coordinates": [[[-97.5421018, 35.4701005], [-97.5419821, 35.4700985], [-97.5419784, 35.4702481], [-97.542098, 35.4702501], [-97.5421018, 35.4701005]]]}, "properties": {"osm_id": 1275051079, "building": "yes", "name": "", "height": null, "height_m": null, "levels": null, "tract_id": "40109109800", "tract_name": "1098", "tags": {"building": "yes", "source": "microsoft/BuildingFootprints"}}}, {"type": "Feature", "geometry": {"type": "Polygon", "coordinates": [[[-97.5421987, 35.4708402], [-97.5422406, 35.4708397], [-97.5422409, 35.4708594], [-97.5422876, 35.4708588], [-97.5422844, 35.4706841], [-97.5421959, 35.4706852], [-97.5421987, 35.4708402]]]}, "properties": {"osm_id": 1275051080, "building": "yes", "name": "", "height": null, "height_m": null, "levels": null, "tract_id": "40109109800", "tract_name": "1098", "tags": {"building": "yes", "source": "microsoft/BuildingFootprints"}}}, {"type": "Feature", "geometry": {"type": "Polygon", "coordinates": [[[-97.5432938, 35.4707125], [-97.5432915, 35.4705083], [-97.5432003, 35.470509], [-97.5432011, 35.4705745], [-97.5431619, 35.4705748], [-97.5431643, 35.4707965], [-97.5432635, 35.4707957], [-97.5432626, 35.4707127], [-97.5432938, 35.4707125]]]}, "properties": {"osm_id": 1275051081, "building": "yes", "name": "", "height": null, "height_m": null, "levels": null, "tract_id": "40109109800", "tract_name": "1098", "tags": {"building": "yes", "source": "microsoft/BuildingFootprints"}}}, {"type": "Feature", "geometry": {"type": "Polygon", "coordinates": [[[-97.5444724, 35.4715041], [-97.5444736, 35.4717465], [-97.5452461, 35.471744], [-97.545245, 35.4715177], [-97.5451013, 35.4715182], [-97.5451012, 35.471502], [-97.5444724, 35.4715041]]]}, "properties": {"osm_id": 1275051082, "building": "yes", "name": "", "height": null, "height_m": null, "levels": null, "tract_id": "40109109800", "tract_name": "1098", "tags": {"building": "yes", "source": "microsoft/BuildingFootprints"}}}, {"type": "Feature", "geometry": {"type": "Polygon", "coordinates": [[[-97.5453467, 35.4704935], [-97.5450061, 35.4704908], [-97.5450028, 35.4707648], [-97.5453434, 35.4707674], [-97.5453467, 35.4704935]]]}, "properties": {"osm_id": 1275051083, "building": "yes", "name": "", "height": null, "height_m": null, "levels": null, "tract_id": "40109109800", "tract_name": "1098", "tags": {"building": "yes", "source": "microsoft/BuildingFootprints"}}}, {"type": "Feature", "geometry": {"type": "Polygon", "coordinates": [[[-97.5450488, 35.4704022], [-97.545258, 35.4704038], [-97.5452613, 35.4701229], [-97.5450521, 35.4701213], [-97.5450488, 35.4704022]]]}, "properties": {"osm_id": 1275051084, "building": "yes", "name": "", "height": null, "height_m": null, "levels": null, "tract_id": "40109109800", "tract_name": "1098", "tags": {"building": "yes", "source": "microsoft/BuildingFootprints"}}}, {"type": "Feature", "geometry": {"type": "Polygon", "coordinates": [[[-97.5445409, 35.4722443], [-97.5448923, 35.4722471], [-97.5448949, 35.4720243], [-97.5445436, 35.4720215], [-97.5445409, 35.4722443]]]}, "properties": {"osm_id": 1275051085, "building": "yes", "name": "", "height": null, "height_m": null, "levels": null, "tract_id": "40109109800", "tract_name": "1098", "tags": {"building": "yes", "source": "microsoft/BuildingFootprints"}}}, {"type": "Feature", "geometry": {"type": "Polygon", "coordinates": [[[-97.5329508, 35.4630542], [-97.5329524, 35.4632264], [-97.5333752, 35.4632238], [-97.5334323, 35.463218], [-97.5334719, 35.4632077], [-97.5335202, 35.463189], [-97.5335724, 35.4631541], [-97.5336136, 35.4631103], [-97.5336405, 35.4630606], [-97.5336516, 35.4630168], [-97.5336532, 35.4629561], [-97.5336548, 35.4628549], [-97.534069, 35.4628546], [-97.534072, 35.4627139], [-97.5336554, 35.4627113], [-97.5336555, 35.4625549], [-97.5336479, 35.4625225], [-97.5336327, 35.4624862], [-97.5336131, 35.4624542], [-97.5335863, 35.4624237], [-97.5335399, 35.4623852], [-97.5334128, 35.462524], [-97.5334346, 35.4625393], [-97.5334449, 35.4625592], [-97.5334494, 35.4625821], [-97.5334482, 35.4629909], [-97.5334385, 35.4630216], [-97.5334153, 35.463042], [-97.5333729, 35.4630525], [-97.5329508, 35.4630542]]]}, "properties": {"osm_id": 1379183550, "building": "yes", "name": "", "height": null, "height_m": null, "levels": null, "tract_id": "40109109800", "tract_name": "1098", "tags": {"building": "yes"}}}, {"type": "Feature", "geometry": {"type": "Polygon", "coordinates": [[[-97.5342084, 35.462828], [-97.5342081, 35.4632504], [-97.5342952, 35.4632505], [-97.5342956, 35.462828], [-97.5342084, 35.462828]]]}, "properties": {"osm_id": 1379183551, "building": "yes", "name": "", "height": null, "height_m": null, "levels": null, "tract_id": "40109109800", "tract_name": "1098", "tags": {"building": "yes"}}}, {"type": "Feature", "geometry": {"type": "Polygon", "coordinates": [[[-97.5342911, 35.4627672], [-97.5342932, 35.4623226], [-97.5342097, 35.4623224], [-97.5342077, 35.4627669], [-97.5342911, 35.4627672]]]}, "properties": {"osm_id": 1379183552, "building": "yes", "name": "", "height": null, "height_m": null, "levels": null, "tract_id": "40109109800", "tract_name": "1098", "tags": {"building": "yes"}}}, {"type": "Feature", "geometry": {"type": "Polygon", "coordinates": [[[-97.5345923, 35.4632218], [-97.5347633, 35.4632217], [-97.5347627, 35.462341], [-97.534592, 35.462341], [-97.5345923, 35.4632218]]]}, "properties": {"osm_id": 1379183553, "building": "yes", "name": "", "height": null, "height_m": null, "levels": null, "tract_id": "40109109800", "tract_name": "1098", "tags": {"building": "yes"}}}, {"type": "Feature", "geometry": {"type": "Polygon", "coordinates": [[[-97.5344155, 35.464155], [-97.5345692, 35.4641546], [-97.5345683, 35.4638553], [-97.5344146, 35.4638556], [-97.5344155, 35.464155]]]}, "properties": {"osm_id": 1379183554, "building": "yes", "name": "", "height": null, "height_m": null, "levels": null, "tract_id": "40109109800", "tract_name": "1098", "tags": {"building": "yes"}}}, {"type": "Feature", "geometry": {"type": "Polygon", "coordinates": [[[-97.5344151, 35.4637121], [-97.5346705, 35.4637134], [-97.5346711, 35.4636538], [-97.5345576, 35.4636535], [-97.5345578, 35.4636378], [-97.5346886, 35.463631], [-97.5346842, 35.4635711], [-97.5345595, 35.4635775], [-97.53456, 35.4634381], [-97.5344134, 35.4634363], [-97.5344151, 35.4637121]]]}, "properties": {"osm_id": 1379183555, "building": "yes", "name": "", "height": null, "height_m": null, "levels": null, "tract_id": "40109109800", "tract_name": "1098", "tags": {"building": "yes"}}}, {"type": "Feature", "geometry": {"type": "Polygon", "coordinates": [[[-97.5351386, 35.4637739], [-97.5351388, 35.463436], [-97.5349943, 35.463436], [-97.5349943, 35.4635072], [-97.5349435, 35.4635072], [-97.5349434, 35.463703], [-97.5349942, 35.463703], [-97.5349942, 35.4637738], [-97.5351386, 35.4637739]]]}, "properties": {"osm_id": 1379183556, "building": "yes", "name": "", "height": null, "height_m": null, "levels": null, "tract_id": "40109109800", "tract_name": "1098", "tags": {"building": "yes"}}}, {"type": "Feature", "geometry": {"type": "Polygon", "coordinates": [[[-97.5349876, 35.463226], [-97.535256, 35.4632271], [-97.535259, 35.462923], [-97.535416, 35.4629235], [-97.5354173, 35.4628734], [-97.5353205, 35.4628724], [-97.5353218, 35.462622], [-97.535399, 35.4626225], [-97.5354006, 35.4625588], [-97.5354417, 35.4625584], [-97.5354417, 35.462499], [-97.5354741, 35.4624981], [-97.5354747, 35.462375], [-97.535464, 35.4623644], [-97.5354493, 35.4623045], [-97.5352865, 35.4623041], [-97.5352869, 35.4623455], [-97.5349859, 35.4623448], [-97.5349876, 35.463226]]]}, "properties": {"osm_id": 1379183557, "building": "yes", "name": "", "height": null, "height_m": null, "levels": null, "tract_id": "40109109800", "tract_name": "1098", "tags": {"building": "yes"}}}, {"type": "Feature", "geometry": {"type": "Polygon", "coordinates": [[[-97.5361696, 35.4622022], [-97.5361732, 35.4624742], [-97.5360004, 35.4624757], [-97.5360018, 35.4625808], [-97.5361685, 35.4625793], [-97.5361725, 35.4628768], [-97.536988, 35.4628696], [-97.5369838, 35.462557], [-97.5372514, 35.4625546], [-97.5372503, 35.4624733], [-97.5374886, 35.4624713], [-97.5374909, 35.4626483], [-97.537544, 35.4626479], [-97.5375469, 35.4628668], [-97.5377466, 35.462865], [-97.5377377, 35.4621884], [-97.5361696, 35.4622022]]]}, "properties": {"osm_id": 1379183558, "building": "yes", "name": "", "height": null, "height_m": null, "levels": null, "tract_id": "40109109800", "tract_name": "1098", "tags": {"building": "yes"}}}, {"type": "Feature", "geometry": {"type": "Polygon", "coordinates": [[[-97.5362381, 35.462116], [-97.5364666, 35.4621145], [-97.5364649, 35.4619449], [-97.5362364, 35.4619464], [-97.5362381, 35.462116]]]}, "properties": {"osm_id": 1379183559, "building": "yes", "name": "", "height": null, "height_m": null, "levels": null, "tract_id": "40109109800", "tract_name": "1098", "tags": {"building": "yes"}}}, {"type": "Feature", "geometry": {"type": "Polygon", "coordinates": [[[-97.5364879, 35.4621149], [-97.5374766, 35.462107], [-97.5374732, 35.461828], [-97.5368035, 35.4618333], [-97.5368026, 35.4617567], [-97.5364836, 35.4617592], [-97.5364879, 35.4621149]]]}, "properties": {"osm_id": 1379183560, "building": "yes", "name": "", "height": null, "height_m": null, "levels": null, "tract_id": "40109109800", "tract_name": "1098", "tags": {"building": "yes"}}}, {"type": "Feature", "geometry": {"type": "Polygon", "coordinates": [[[-97.534267, 35.4616869], [-97.5343822, 35.4615973], [-97.5341579, 35.4614061], [-97.5340427, 35.4614958], [-97.534267, 35.4616869]]]}, "properties": {"osm_id": 1379183561, "building": "yes", "name": "", "height": null, "height_m": null, "levels": null, "tract_id": "40109109800", "tract_name": "1098", "tags": {"building": "yes"}}}, {"type": "Feature", "geometry": {"type": "Polygon", "coordinates": [[[-97.5351259, 35.4620019], [-97.5353286, 35.4620007], [-97.5353276, 35.4618942], [-97.5353547, 35.461894], [-97.5353518, 35.4615781], [-97.5351429, 35.4615794], [-97.5351449, 35.4617874], [-97.535134, 35.4617874], [-97.535135, 35.4618934], [-97.535125, 35.4618935], [-97.5351259, 35.4620019]]]}, "properties": {"osm_id": 1379183562, "building": "yes", "name": "", "height": null, "height_m": null, "levels": null, "tract_id": "40109109800", "tract_name": "1098", "tags": {"building": "yes"}}}, {"type": "Feature", "geometry": {"type": "Polygon", "coordinates": [[[-97.5355052, 35.4615286], [-97.5355819, 35.4613971], [-97.5352762, 35.4612789], [-97.5351995, 35.4614105], [-97.5355052, 35.4615286]]]}, "properties": {"osm_id": 1379183563, "building": "yes", "name": "", "height": null, "height_m": null, "levels": null, "tract_id": "40109109800", "tract_name": "1098", "tags": {"building": "yes"}}}, {"type": "Feature", "geometry": {"type": "Polygon", "coordinates": [[[-97.538545, 35.4725854], [-97.5381879, 35.4725328], [-97.5378442, 35.4724458], [-97.5378548, 35.4710862], [-97.5385528, 35.4710913], [-97.538545, 35.4725854]]]}, "properties": {"osm_id": 1380160002, "building": "yes", "name": "", "height": null, "height_m": null, "levels": null, "tract_id": "40109109800", "tract_name": "1098", "tags": {"building": "yes"}}}, {"type": "Feature", "geometry": {"type": "Polygon", "coordinates": [[[-97.5375443, 35.4711443], [-97.537297, 35.4711448], [-97.5372999, 35.4722889], [-97.5375385, 35.4723064], [-97.5375443, 35.4711443]]]}, "properties": {"osm_id": 1380160003, "building": "yes", "name": "", "height": null, "height_m": null, "levels": null, "tract_id": "40109109800", "tract_name": "1098", "tags": {"building": "yes"}}}, {"type": "Feature", "geometry": {"type": "Polygon", "coordinates": [[[-97.5372912, 35.472287], [-97.5370596, 35.4722251], [-97.5370636, 35.4713471], [-97.5371832, 35.4713476], [-97.5371832, 35.4712804], [-97.5372947, 35.4712807], [-97.5372912, 35.472287]]]}, "properties": {"osm_id": 1380160004, "building": "yes", "name": "", "height": null, "height_m": null, "levels": null, "tract_id": "40109109800", "tract_name": "1098", "tags": {"building": "yes"}}}, {"type": "Feature", "geometry": {"type": "Polygon", "coordinates": [[[-97.5370548, 35.4721961], [-97.5368763, 35.4721788], [-97.5368791, 35.4713468], [-97.5370621, 35.4713478], [-97.5370548, 35.4721961]]]}, "properties": {"osm_id": 1380160005, "building": "ruins", "name": "", "height": null, "height_m": null, "levels": null, "tract_id": "40109109800", "tract_name": "1098", "tags": {"building": "ruins"}}}, {"type": "Feature", "geometry": {"type": "Polygon", "coordinates": [[[-97.5366726, 35.4715398], [-97.5366717, 35.4716763], [-97.5360019, 35.4716777], [-97.5360009, 35.4717433], [-97.5359992, 35.4718626], [-97.5359977, 35.4719596], [-97.5358011, 35.471913], [-97.5358065, 35.4710959], [-97.5360055, 35.4710959], [-97.5360045, 35.471535], [-97.5366726, 35.4715398]]]}, "properties": {"osm_id": 1380160006, "building": "yes", "name": "", "height": null, "height_m": null, "levels": null, "tract_id": "40109109800", "tract_name": "1098", "tags": {"building": "yes"}}}, {"type": "Feature", "geometry": {"type": "Polygon", "coordinates": [[[-97.5362824, 35.471482], [-97.5362824, 35.4714992], [-97.5366314, 35.471498], [-97.5366314, 35.4710932], [-97.5362851, 35.4710915], [-97.5362851, 35.4710976], [-97.5361311, 35.4710966], [-97.5361291, 35.4714818], [-97.5362824, 35.471482]]]}, "properties": {"osm_id": 1380160007, "building": "yes", "name": "", "height": null, "height_m": null, "levels": null, "tract_id": "40109109800", "tract_name": "1098", "tags": {"building": "yes"}}}, {"type": "Feature", "geometry": {"type": "Polygon", "coordinates": [[[-97.5357686, 35.471762], [-97.5354889, 35.4717597], [-97.5354916, 35.4715341], [-97.5357714, 35.4715363], [-97.5357686, 35.471762]]]}, "properties": {"osm_id": 1380160008, "building": "yes", "name": "", "height": null, "height_m": null, "levels": null, "tract_id": "40109109800", "tract_name": "1098", "tags": {"building": "yes"}}}, {"type": "Feature", "geometry": {"type": "Polygon", "coordinates": [[[-97.5360009, 35.4717433], [-97.5360693, 35.4717433], [-97.5366902, 35.471902], [-97.5366415, 35.4720293], [-97.5359992, 35.4718626], [-97.5360009, 35.4717433]]]}, "properties": {"osm_id": 1380160009, "building": "ruins", "name": "", "height": null, "height_m": null, "levels": null, "tract_id": "40109109800", "tract_name": "1098", "tags": {"building": "ruins"}}}, {"type": "Feature", "geometry": {"type": "Polygon", "coordinates": [[[-97.540188, 35.4708319], [-97.5401884, 35.4707151], [-97.5401726, 35.4707151], [-97.5401727, 35.4706932], [-97.5400749, 35.470693], [-97.5400745, 35.4708317], [-97.540188, 35.4708319]]]}, "properties": {"osm_id": 1380160010, "building": "yes", "name": "", "height": null, "height_m": null, "levels": null, "tract_id": "40109109800", "tract_name": "1098", "tags": {"building": "yes"}}}, {"type": "Feature", "geometry": {"type": "Polygon", "coordinates": [[[-97.5402397, 35.4708026], [-97.5403377, 35.4708031], [-97.5403388, 35.4706626], [-97.5402407, 35.4706621], [-97.5402397, 35.4708026]]]}, "properties": {"osm_id": 1380160011, "building": "yes", "name": "", "height": null, "height_m": null, "levels": null, "tract_id": "40109109800", "tract_name": "1098", "tags": {"building": "yes"}}}, {"type": "Feature", "geometry": {"type": "Polygon", "coordinates": [[[-97.5406684, 35.4708293], [-97.5406683, 35.4708143], [-97.5406781, 35.4708142], [-97.5406771, 35.4706801], [-97.5405901, 35.4706805], [-97.5405902, 35.4707043], [-97.5405717, 35.4707044], [-97.5405719, 35.470737], [-97.540588, 35.470737], [-97.5405886, 35.4708132], [-97.5405981, 35.4708132], [-97.5405982, 35.4708296], [-97.5406684, 35.4708293]]]}, "properties": {"osm_id": 1380160012, "building": "yes", "name": "", "height": null, "height_m": null, "levels": null, "tract_id": "40109109800", "tract_name": "1098", "tags": {"building": "yes"}}}, {"type": "Feature", "geometry": {"type": "Polygon", "coordinates": [[[-97.5370525, 35.4706736], [-97.5369728, 35.4706734], [-97.5369725, 35.470771], [-97.5368422, 35.4707708], [-97.5368443, 35.4701575], [-97.5369725, 35.4701578], [-97.5369725, 35.4701506], [-97.5372323, 35.4701512], [-97.5372316, 35.4703651], [-97.537183, 35.470365], [-97.537183, 35.4703466], [-97.5371416, 35.4703465], [-97.5371418, 35.470273], [-97.5370555, 35.4702729], [-97.5370554, 35.4703023], [-97.5369761, 35.4703022], [-97.5369757, 35.4704227], [-97.5370533, 35.4704229], [-97.5370525, 35.4706736]]]}, "properties": {"osm_id": 1380160013, "building": "yes", "name": "", "height": null, "height_m": null, "levels": null, "tract_id": "40109109800", "tract_name": "1098", "tags": {"building": "yes"}}}, {"type": "Feature", "geometry": {"type": "Polygon", "coordinates": [[[-97.5340542, 35.4714139], [-97.5340562, 35.4711937], [-97.5338527, 35.4711925], [-97.5338507, 35.4714127], [-97.5340542, 35.4714139]]]}, "properties": {"osm_id": 1380160017, "building": "yes", "name": "", "height": null, "height_m": null, "levels": null, "tract_id": "40109109800", "tract_name": "1098", "tags": {"building": "yes"}}}, {"type": "Feature", "geometry": {"type": "Polygon", "coordinates": [[[-97.5338477, 35.4712577], [-97.5338472, 35.4711199], [-97.5335747, 35.4711206], [-97.5335752, 35.4712583], [-97.5338477, 35.4712577]]]}, "properties": {"osm_id": 1380160018, "building": "yes", "name": "", "height": null, "height_m": null, "levels": null, "tract_id": "40109109800", "tract_name": "1098", "tags": {"building": "yes"}}}, {"type": "Feature", "geometry": {"type": "Polygon", "coordinates": [[[-97.5335382, 35.471226], [-97.5335378, 35.471093], [-97.5333642, 35.4710934], [-97.5333646, 35.4712096], [-97.5334476, 35.4712095], [-97.5334477, 35.4712263], [-97.5335382, 35.471226]]]}, "properties": {"osm_id": 1380160019, "building": "yes", "name": "", "height": null, "height_m": null, "levels": null, "tract_id": "40109109800", "tract_name": "1098", "tags": {"building": "yes"}}}, {"type": "Feature", "geometry": {"type": "Polygon", "coordinates": [[[-97.5341351, 35.4711919], [-97.5341348, 35.4710928], [-97.5344152, 35.4710922], [-97.534416, 35.4713426], [-97.5344217, 35.4713426], [-97.534422, 35.4714342], [-97.5342469, 35.4714346], [-97.5342467, 35.4713845], [-97.5340603, 35.4713849], [-97.53406, 35.4712946], [-97.534247, 35.4712942], [-97.5342467, 35.4711917], [-97.5341351, 35.4711919]]]}, "properties": {"osm_id": 1380160020, "building": "yes", "name": "", "height": null, "height_m": null, "levels": null, "tract_id": "40109109800", "tract_name": "1098", "tags": {"building": "yes"}}}, {"type": "Feature", "geometry": {"type": "Polygon", "coordinates": [[[-97.530198, 35.4694525], [-97.5305336, 35.4694527], [-97.5305333, 35.4697021], [-97.5301978, 35.4697019], [-97.530198, 35.4694525]]]}, "properties": {"osm_id": 1387637010, "building": "yes", "name": "", "height": null, "height_m": null, "levels": null, "tract_id": "40109109800", "tract_name": "1098", "tags": {"building": "yes"}}}, {"type": "Feature", "geometry": {"type": "Polygon", "coordinates": [[[-97.5304512, 35.4679852], [-97.5306239, 35.4679862], [-97.5306215, 35.4682428], [-97.5304488, 35.4682417], [-97.5304512, 35.4679852]]]}, "properties": {"osm_id": 1387637015, "building": "yes", "name": "", "height": null, "height_m": null, "levels": null, "tract_id": "40109109800", "tract_name": "1098", "tags": {"building": "yes"}}}, {"type": "Feature", "geometry": {"type": "Polygon", "coordinates": [[[-97.5312762, 35.4679605], [-97.531559, 35.4679607], [-97.5315586, 35.4683037], [-97.5315585, 35.4683586], [-97.5307883, 35.4683579], [-97.5307886, 35.4681492], [-97.5309666, 35.4681494], [-97.5309665, 35.468201], [-97.5312758, 35.4682013], [-97.5312762, 35.4679605]]]}, "properties": {"osm_id": 1387637016, "building": "yes", "name": "", "height": null, "height_m": null, "levels": null, "tract_id": "40109109800", "tract_name": "1098", "tags": {"building": "yes"}}}, {"type": "Feature", "geometry": {"type": "Polygon", "coordinates": [[[-97.5323731, 35.4640932], [-97.5319427, 35.4640976], [-97.5319439, 35.463886], [-97.5320884, 35.463886], [-97.5320884, 35.4638754], [-97.532088, 35.4637461], [-97.5320732, 35.4637461], [-97.5319498, 35.4637467], [-97.5319502, 35.4636816], [-97.5320225, 35.4636809], [-97.5321007, 35.4636803], [-97.5321296, 35.4635127], [-97.5321371, 35.4634687], [-97.5321696, 35.4634684], [-97.5321759, 35.4631262], [-97.5325679, 35.463126], [-97.5325198, 35.4632627], [-97.5324472, 35.4634722], [-97.5324153, 35.4636793], [-97.5324121, 35.4637888], [-97.5323707, 35.4637891], [-97.5323241, 35.4637893], [-97.5323229, 35.4639812], [-97.5323735, 35.4639811], [-97.5323731, 35.4640895], [-97.5323731, 35.4640932]]]}, "properties": {"osm_id": 1389953593, "building": "yes", "name": "", "height": null, "height_m": null, "levels": null, "tract_id": "40109109800", "tract_name": "1098", "tags": {"building": "yes"}}}, {"type": "Feature", "geometry": {"type": "Polygon", "coordinates": [[[-97.5317688, 35.4636504], [-97.5318508, 35.4635877], [-97.5317343, 35.4634865], [-97.5316523, 35.4635491], [-97.5317688, 35.4636504]]]}, "properties": {"osm_id": 1389953594, "building": "yes", "name": "", "height": null, "height_m": null, "levels": null, "tract_id": "40109109800", "tract_name": "1098", "tags": {"building": "yes"}}}, {"type": "Feature", "geometry": {"type": "Polygon", "coordinates": [[[-97.5317031, 35.4633984], [-97.5318522, 35.4632848], [-97.5317357, 35.4631833], [-97.5315865, 35.4632969], [-97.5317031, 35.4633984]]]}, "properties": {"osm_id": 1389953595, "building": "yes", "name": "", "height": null, "height_m": null, "levels": null, "tract_id": "40109109800", "tract_name": "1098", "tags": {"building": "yes"}}}, {"type": "Feature", "geometry": {"type": "Polygon", "coordinates": [[[-97.5323731, 35.4640895], [-97.5324043, 35.4640892], [-97.5324058, 35.463937], [-97.5323719, 35.4639371], [-97.5323707, 35.4637891], [-97.5323241, 35.4637893], [-97.5323229, 35.4639812], [-97.5323735, 35.4639811], [-97.5323731, 35.4640895]]]}, "properties": {"osm_id": 1389953596, "building": "roof", "name": "", "height": null, "height_m": null, "levels": null, "tract_id": "40109109800", "tract_name": "1098", "tags": {"building": "roof", "layer": "1"}}}, {"type": "Feature", "geometry": {"type": "Polygon", "coordinates": [[[-97.5321296, 35.4635127], [-97.5321044, 35.46351], [-97.5320808, 35.4636563], [-97.5320224, 35.4636568], [-97.5320225, 35.4636809], [-97.5321007, 35.4636803], [-97.5321296, 35.4635127]]]}, "properties": {"osm_id": 1389953597, "building": "roof", "name": "", "height": null, "height_m": null, "levels": null, "tract_id": "40109109800", "tract_name": "1098", "tags": {"building": "roof", "layer": "1"}}}, {"type": "Feature", "geometry": {"type": "Polygon", "coordinates": [[[-97.5320884, 35.4638754], [-97.532073, 35.4638754], [-97.5320732, 35.4637461], [-97.532088, 35.4637461], [-97.5320884, 35.4638754]]]}, "properties": {"osm_id": 1389953598, "building": "roof", "name": "", "height": null, "height_m": null, "levels": null, "tract_id": "40109109800", "tract_name": "1098", "tags": {"building": "roof", "layer": "1"}}}, {"type": "Feature", "geometry": {"type": "Polygon", "coordinates": [[[-97.5312571, 35.4640503], [-97.5314127, 35.4639277], [-97.5313698, 35.4638915], [-97.5312582, 35.4639794], [-97.5311669, 35.4639025], [-97.5311228, 35.4639372], [-97.5312571, 35.4640503]]]}, "properties": {"osm_id": 1389953599, "building": "yes", "name": "", "height": null, "height_m": null, "levels": null, "tract_id": "40109109800", "tract_name": "1098", "tags": {"building": "yes"}}}, {"type": "Feature", "geometry": {"type": "Polygon", "coordinates": [[[-97.531122, 35.4639342], [-97.5312479, 35.4638364], [-97.5310581, 35.4636744], [-97.5309322, 35.4637723], [-97.531122, 35.4639342]]]}, "properties": {"osm_id": 1389953600, "building": "yes", "name": "", "height": null, "height_m": null, "levels": null, "tract_id": "40109109800", "tract_name": "1098", "tags": {"building": "yes"}}}, {"type": "Feature", "geometry": {"type": "Polygon", "coordinates": [[[-97.5314127, 35.4639277], [-97.5314988, 35.4638607], [-97.531452, 35.4638208], [-97.531387, 35.4637653], [-97.5313008, 35.4638323], [-97.5313698, 35.4638915], [-97.5314127, 35.4639277]]]}, "properties": {"osm_id": 1389953601, "building": "yes", "name": "", "height": null, "height_m": null, "levels": null, "tract_id": "40109109800", "tract_name": "1098", "tags": {"building": "yes"}}}, {"type": "Feature", "geometry": {"type": "Polygon", "coordinates": [[[-97.531452, 35.4638208], [-97.5315762, 35.4637256], [-97.5316458, 35.4636722], [-97.5316898, 35.4637103], [-97.5316916, 35.4637119], [-97.5314988, 35.4638607], [-97.531452, 35.4638208]]]}, "properties": {"osm_id": 1389953602, "building": "yes", "name": "", "height": null, "height_m": null, "levels": null, "tract_id": "40109109800", "tract_name": "1098", "tags": {"building": "yes"}}}, {"type": "Feature", "geometry": {"type": "Polygon", "coordinates": [[[-97.5316898, 35.4637103], [-97.5317426, 35.4636697], [-97.5315617, 35.4635134], [-97.5315091, 35.4635537], [-97.5315096, 35.4635541], [-97.5316458, 35.4636722], [-97.5316898, 35.4637103]]]}, "properties": {"osm_id": 1389953603, "building": "yes", "name": "", "height": null, "height_m": null, "levels": null, "tract_id": "40109109800", "tract_name": "1098", "tags": {"building": "yes"}}}, {"type": "Feature", "geometry": {"type": "Polygon", "coordinates": [[[-97.5314365, 35.4636094], [-97.5315579, 35.463514], [-97.5315103, 35.4634734], [-97.5313884, 35.4635683], [-97.5314365, 35.4636094]]]}, "properties": {"osm_id": 1389953604, "building": "yes", "name": "", "height": null, "height_m": null, "levels": null, "tract_id": "40109109800", "tract_name": "1098", "tags": {"building": "yes"}}}, {"type": "Feature", "geometry": {"type": "Polygon", "coordinates": [[[-97.5313884, 35.4635683], [-97.5312974, 35.4634907], [-97.5314193, 35.4633958], [-97.5315103, 35.4634734], [-97.5313884, 35.4635683]]]}, "properties": {"osm_id": 1389953605, "building": "yes", "name": "", "height": null, "height_m": null, "levels": null, "tract_id": "40109109800", "tract_name": "1098", "tags": {"building": "yes"}}}, {"type": "Feature", "geometry": {"type": "Polygon", "coordinates": [[[-97.5315762, 35.4637256], [-97.5314427, 35.4636068], [-97.5315096, 35.4635541], [-97.5316458, 35.4636722], [-97.5315762, 35.4637256]]]}, "properties": {"osm_id": 1389953606, "building": "roof", "name": "", "height": null, "height_m": null, "levels": null, "tract_id": "40109109800", "tract_name": "1098", "tags": {"building": "roof", "layer": "1"}}}, {"type": "Feature", "geometry": {"type": "Polygon", "coordinates": [[[-97.5334209, 35.4641532], [-97.5336542, 35.4641542], [-97.5336552, 35.4640148], [-97.5334218, 35.4640137], [-97.5334209, 35.4641532]]]}, "properties": {"osm_id": 1389953607, "building": "yes", "name": "", "height": null, "height_m": null, "levels": null, "tract_id": "40109109800", "tract_name": "1098", "tags": {"building": "yes"}}}, {"type": "Feature", "geometry": {"type": "Polygon", "coordinates": [[[-97.5333695, 35.4641511], [-97.5332085, 35.4641509], [-97.5332089, 35.4639319], [-97.5333699, 35.463932], [-97.5333695, 35.4641511]]]}, "properties": {"osm_id": 1389953608, "building": "yes", "name": "", "height": null, "height_m": null, "levels": null, "tract_id": "40109109800", "tract_name": "1098", "tags": {"building": "yes"}}}, {"type": "Feature", "geometry": {"type": "Polygon", "coordinates": [[[-97.5330307, 35.463979], [-97.5328677, 35.4639788], [-97.5328675, 35.4640524], [-97.5327895, 35.4640523], [-97.5327897, 35.4639793], [-97.5326788, 35.4639791], [-97.5326792, 35.4638221], [-97.5330311, 35.4638227], [-97.5330307, 35.463979]]]}, "properties": {"osm_id": 1389953609, "building": "yes", "name": "", "height": null, "height_m": null, "levels": null, "tract_id": "40109109800", "tract_name": "1098", "tags": {"building": "yes"}}}, {"type": "Feature", "geometry": {"type": "Polygon", "coordinates": [[[-97.5341975, 35.4639991], [-97.5341976, 35.4638271], [-97.5339937, 35.463827], [-97.5339936, 35.4639011], [-97.5340401, 35.4639011], [-97.53404, 35.4639991], [-97.5341975, 35.4639991]]]}, "properties": {"osm_id": 1389953610, "building": "yes", "name": "", "height": null, "height_m": null, "levels": null, "tract_id": "40109109800", "tract_name": "1098", "tags": {"building": "yes"}}}, {"type": "Feature", "geometry": {"type": "Polygon", "coordinates": [[[-97.5346519, 35.4619276], [-97.534755, 35.4618491], [-97.5345224, 35.4616464], [-97.5344193, 35.4617249], [-97.5346519, 35.4619276]]]}, "properties": {"osm_id": 1389953611, "building": "yes", "name": "", "height": null, "height_m": null, "levels": null, "tract_id": "40109109800", "tract_name": "1098", "tags": {"building": "yes"}}}, {"type": "Feature", "geometry": {"type": "Polygon", "coordinates": [[[-97.5327103, 35.4645211], [-97.5330789, 35.46452], [-97.5330783, 35.4643804], [-97.5327097, 35.4643814], [-97.5327103, 35.4645211]]]}, "properties": {"osm_id": 1389953612, "building": "yes", "name": "", "height": null, "height_m": null, "levels": null, "tract_id": "40109109800", "tract_name": "1098", "tags": {"building": "yes"}}}, {"type": "Feature", "geometry": {"type": "Polygon", "coordinates": [[[-97.5331836, 35.4646583], [-97.5331843, 35.4647811], [-97.5333138, 35.4647806], [-97.5333131, 35.4646578], [-97.5331836, 35.4646583]]]}, "properties": {"osm_id": 1389953613, "building": "yes", "name": "", "height": null, "height_m": null, "levels": null, "tract_id": "40109109800", "tract_name": "1098", "tags": {"building": "yes"}}}, {"type": "Feature", "geometry": {"type": "Polygon", "coordinates": [[[-97.53345, 35.4647941], [-97.5336198, 35.4647936], [-97.5336178, 35.4643821], [-97.5334481, 35.4643827], [-97.53345, 35.4647941]]]}, "properties": {"osm_id": 1389953614, "building": "yes", "name": "", "height": null, "height_m": null, "levels": null, "tract_id": "40109109800", "tract_name": "1098", "tags": {"building": "yes"}}}, {"type": "Feature", "geometry": {"type": "Polygon", "coordinates": [[[-97.5339519, 35.4649107], [-97.5339514, 35.4648449], [-97.5339183, 35.4648451], [-97.5339147, 35.4643792], [-97.5341552, 35.464378], [-97.5341593, 35.4649096], [-97.5339519, 35.4649107]]]}, "properties": {"osm_id": 1389953615, "building": "yes", "name": "", "height": null, "height_m": null, "levels": null, "tract_id": "40109109800", "tract_name": "1098", "tags": {"building": "yes"}}}, {"type": "Feature", "geometry": {"type": "Polygon", "coordinates": [[[-97.5344259, 35.4648779], [-97.5344204, 35.4650132], [-97.5345833, 35.4650176], [-97.5345888, 35.4648824], [-97.5344259, 35.4648779]]]}, "properties": {"osm_id": 1389953616, "building": "roof", "name": "", "height": null, "height_m": null, "levels": null, "tract_id": "40109109800", "tract_name": "1098", "tags": {"building": "roof", "layer": "1"}}}, {"type": "Feature", "geometry": {"type": "Polygon", "coordinates": [[[-97.5347011, 35.4647325], [-97.5348084, 35.464732], [-97.5348062, 35.4644483], [-97.5348181, 35.4644483], [-97.5348176, 35.4643823], [-97.5346792, 35.464383], [-97.5346797, 35.4644482], [-97.5346989, 35.4644481], [-97.5347011, 35.4647325]]]}, "properties": {"osm_id": 1389953617, "building": "yes", "name": "", "height": null, "height_m": null, "levels": null, "tract_id": "40109109800", "tract_name": "1098", "tags": {"building": "yes"}}}, {"type": "Feature", "geometry": {"type": "Polygon", "coordinates": [[[-97.5350249, 35.4643787], [-97.535026, 35.4647197], [-97.5351964, 35.4647193], [-97.5351954, 35.4643783], [-97.5350249, 35.4643787]]]}, "properties": {"osm_id": 1389953618, "building": "yes", "name": "", "height": null, "height_m": null, "levels": null, "tract_id": "40109109800", "tract_name": "1098", "tags": {"building": "yes"}}}, {"type": "Feature", "geometry": {"type": "Polygon", "coordinates": [[[-97.5354639, 35.4652019], [-97.5352878, 35.465202], [-97.5350288, 35.4651624], [-97.5350271, 35.4649912], [-97.5354653, 35.4649885], [-97.5354639, 35.4652019]]]}, "properties": {"osm_id": 1389953619, "building": "yes", "name": "", "height": null, "height_m": null, "levels": null, "tract_id": "40109109800", "tract_name": "1098", "tags": {"building": "yes"}}}, {"type": "Feature", "geometry": {"type": "Polygon", "coordinates": [[[-97.5378975, 35.4649483], [-97.5378963, 35.4652232], [-97.5375589, 35.4652221], [-97.5375602, 35.4649472], [-97.5378975, 35.4649483]]]}, "properties": {"osm_id": 1389953620, "building": "yes", "name": "", "height": null, "height_m": null, "levels": null, "tract_id": "40109109800", "tract_name": "1098", "tags": {"building": "yes"}}}, {"type": "Feature", "geometry": {"type": "Polygon", "coordinates": [[[-97.5378274, 35.4648034], [-97.5380768, 35.4648024], [-97.5380762, 35.464696], [-97.5378689, 35.4646968], [-97.5378268, 35.464697], [-97.5378274, 35.4648034]]]}, "properties": {"osm_id": 1389953621, "building": "yes", "name": "", "height": null, "height_m": null, "levels": null, "tract_id": "40109109800", "tract_name": "1098", "tags": {"building": "yes"}}}, {"type": "Feature", "geometry": {"type": "Polygon", "coordinates": [[[-97.5380736, 35.4645961], [-97.5382428, 35.4645956], [-97.5382419, 35.464401], [-97.5382418, 35.4643742], [-97.5380726, 35.4643746], [-97.5380736, 35.4645961]]]}, "properties": {"osm_id": 1389953622, "building": "yes", "name": "", "height": null, "height_m": null, "levels": null, "tract_id": "40109109800", "tract_name": "1098", "tags": {"building": "yes"}}}, {"type": "Feature", "geometry": {"type": "Polygon", "coordinates": [[[-97.5382428, 35.4645956], [-97.5382427, 35.4646248], [-97.5384062, 35.4646247], [-97.5384059, 35.4644008], [-97.5382419, 35.464401], [-97.5382428, 35.4645956]]]}, "properties": {"osm_id": 1389953623, "building": "yes", "name": "", "height": null, "height_m": null, "levels": null, "tract_id": "40109109800", "tract_name": "1098", "tags": {"building": "yes"}}}, {"type": "Feature", "geometry": {"type": "Polygon", "coordinates": [[[-97.5384062, 35.4646247], [-97.5384966, 35.4646244], [-97.5384965, 35.4645428], [-97.5384964, 35.4644009], [-97.5384059, 35.4644008], [-97.5384062, 35.4646247]]]}, "properties": {"osm_id": 1389953624, "building": "yes", "name": "", "height": null, "height_m": null, "levels": null, "tract_id": "40109109800", "tract_name": "1098", "tags": {"building": "yes"}}}, {"type": "Feature", "geometry": {"type": "Polygon", "coordinates": [[[-97.5384965, 35.4645428], [-97.5386015, 35.4645428], [-97.5386015, 35.4644006], [-97.5384964, 35.4644009], [-97.5384965, 35.4645428]]]}, "properties": {"osm_id": 1389953625, "building": "yes", "name": "", "height": null, "height_m": null, "levels": null, "tract_id": "40109109800", "tract_name": "1098", "tags": {"building": "yes"}}}, {"type": "Feature", "geometry": {"type": "Polygon", "coordinates": [[[-97.5375975, 35.4648024], [-97.5377343, 35.4648023], [-97.5377342, 35.4646872], [-97.5375973, 35.4646873], [-97.5375975, 35.4648024]]]}, "properties": {"osm_id": 1389953626, "building": "yes", "name": "", "height": null, "height_m": null, "levels": null, "tract_id": "40109109800", "tract_name": "1098", "tags": {"building": "yes"}}}, {"type": "Feature", "geometry": {"type": "Polygon", "coordinates": [[[-97.5375994, 35.4646254], [-97.5377355, 35.4646267], [-97.5377385, 35.4644058], [-97.5376024, 35.4644045], [-97.5375994, 35.4646254]]]}, "properties": {"osm_id": 1389953627, "building": "yes", "name": "", "height": null, "height_m": null, "levels": null, "tract_id": "40109109800", "tract_name": "1098", "tags": {"building": "yes"}}}, {"type": "Feature", "geometry": {"type": "Polygon", "coordinates": [[[-97.5378689, 35.4646968], [-97.5378685, 35.4646572], [-97.537868, 35.4646175], [-97.5380752, 35.464616], [-97.5380762, 35.464696], [-97.5378689, 35.4646968]]]}, "properties": {"osm_id": 1389953628, "building": "roof", "name": "", "height": null, "height_m": null, "levels": null, "tract_id": "40109109800", "tract_name": "1098", "tags": {"building": "roof", "layer": "1"}}}, {"type": "Feature", "geometry": {"type": "Polygon", "coordinates": [[[-97.5388818, 35.4646764], [-97.5388213, 35.4646766], [-97.5387821, 35.4646768], [-97.5387178, 35.464677], [-97.5387106, 35.464677], [-97.5387103, 35.4646361], [-97.5386181, 35.4646364], [-97.5386175, 35.4645384], [-97.5387097, 35.4645381], [-97.538709, 35.4644179], [-97.5387089, 35.4644004], [-97.5388803, 35.4643998], [-97.5388818, 35.4646764]]]}, "properties": {"osm_id": 1389953629, "building": "yes", "name": "", "height": null, "height_m": null, "levels": null, "tract_id": "40109109800", "tract_name": "1098", "tags": {"building": "yes"}}}, {"type": "Feature", "geometry": {"type": "Polygon", "coordinates": [[[-97.5386175, 35.4645384], [-97.5386171, 35.4645041], [-97.5386618, 35.4645037], [-97.5386609, 35.4644183], [-97.538709, 35.4644179], [-97.5387097, 35.4645381], [-97.5386175, 35.4645384]]]}, "properties": {"osm_id": 1389953630, "building": "roof", "name": "", "height": null, "height_m": null, "levels": null, "tract_id": "40109109800", "tract_name": "1098", "tags": {"building": "roof", "layer": "1"}}}, {"type": "Feature", "geometry": {"type": "Polygon", "coordinates": [[[-97.5387178, 35.464677], [-97.5387181, 35.4647157], [-97.5387824, 35.4647153], [-97.5387821, 35.4646768], [-97.5387178, 35.464677]]]}, "properties": {"osm_id": 1389953631, "building": "roof", "name": "", "height": null, "height_m": null, "levels": null, "tract_id": "40109109800", "tract_name": "1098", "tags": {"building": "roof", "layer": "1"}}}, {"type": "Feature", "geometry": {"type": "Polygon", "coordinates": [[[-97.5388219, 35.4647205], [-97.5388822, 35.46472], [-97.5388818, 35.4646764], [-97.5388213, 35.4646766], [-97.5388219, 35.4647205]]]}, "properties": {"osm_id": 1389953632, "building": "roof", "name": "", "height": null, "height_m": null, "levels": null, "tract_id": "40109109800", "tract_name": "1098", "tags": {"building": "roof", "layer": "1"}}}, {"type": "Feature", "geometry": {"type": "Polygon", "coordinates": [[[-97.5385707, 35.4652325], [-97.5387305, 35.4652342], [-97.5387325, 35.4651073], [-97.5385727, 35.4651057], [-97.5385707, 35.4652325]]]}, "properties": {"osm_id": 1389953633, "building": "yes", "name": "", "height": null, "height_m": null, "levels": null, "tract_id": "40109109800", "tract_name": "1098", "tags": {"building": "yes"}}}, {"type": "Feature", "geometry": {"type": "Polygon", "coordinates": [[[-97.5394064, 35.4645629], [-97.5394074, 35.4644606], [-97.5393632, 35.4644603], [-97.5393637, 35.4644126], [-97.5392157, 35.4644117], [-97.5392152, 35.4644602], [-97.5391754, 35.4644599], [-97.5391744, 35.4645614], [-97.5394064, 35.4645629]]]}, "properties": {"osm_id": 1389953634, "building": "yes", "name": "", "height": null, "height_m": null, "levels": null, "tract_id": "40109109800", "tract_name": "1098", "tags": {"building": "yes"}}}, {"type": "Feature", "geometry": {"type": "Polygon", "coordinates": [[[-97.5396085, 35.4646246], [-97.5397487, 35.4646252], [-97.5397498, 35.4644575], [-97.5396095, 35.4644569], [-97.5396085, 35.4646246]]]}, "properties": {"osm_id": 1389953635, "building": "yes", "name": "", "height": null, "height_m": null, "levels": null, "tract_id": "40109109800", "tract_name": "1098", "tags": {"building": "yes"}}}, {"type": "Feature", "geometry": {"type": "Polygon", "coordinates": [[[-97.5397503, 35.4647474], [-97.5399184, 35.4647479], [-97.5399191, 35.4646038], [-97.5397511, 35.4646032], [-97.5397503, 35.4647474]]]}, "properties": {"osm_id": 1389953636, "building": "yes", "name": "", "height": null, "height_m": null, "levels": null, "tract_id": "40109109800", "tract_name": "1098", "tags": {"building": "yes"}}}, {"type": "Feature", "geometry": {"type": "Polygon", "coordinates": [[[-97.5399184, 35.4647479], [-97.5400858, 35.4647482], [-97.5400859, 35.4647328], [-97.5400878, 35.4644589], [-97.5399198, 35.4644581], [-97.5399184, 35.4647479]]]}, "properties": {"osm_id": 1389953637, "building": "yes", "name": "", "height": null, "height_m": null, "levels": null, "tract_id": "40109109800", "tract_name": "1098", "tags": {"building": "yes"}}}, {"type": "Feature", "geometry": {"type": "Polygon", "coordinates": [[[-97.5400859, 35.4647328], [-97.5402526, 35.4647338], [-97.5402545, 35.4644595], [-97.5400878, 35.4644589], [-97.5400859, 35.4647328]]]}, "properties": {"osm_id": 1389953638, "building": "yes", "name": "", "height": null, "height_m": null, "levels": null, "tract_id": "40109109800", "tract_name": "1098", "tags": {"building": "yes"}}}, {"type": "Feature", "geometry": {"type": "Polygon", "coordinates": [[[-97.5402545, 35.4644595], [-97.5404231, 35.4644604], [-97.5404209, 35.4647348], [-97.5402526, 35.4647338], [-97.5402545, 35.4644595]]]}, "properties": {"osm_id": 1389953639, "building": "yes", "name": "", "height": null, "height_m": null, "levels": null, "tract_id": "40109109800", "tract_name": "1098", "tags": {"building": "yes"}}}, {"type": "Feature", "geometry": {"type": "Polygon", "coordinates": [[[-97.5404209, 35.4647348], [-97.5405896, 35.4647357], [-97.5405918, 35.4644613], [-97.5404231, 35.4644604], [-97.5404209, 35.4647348]]]}, "properties": {"osm_id": 1389953640, "building": "yes", "name": "", "height": null, "height_m": null, "levels": null, "tract_id": "40109109800", "tract_name": "1098", "tags": {"building": "yes"}}}, {"type": "Feature", "geometry": {"type": "Polygon", "coordinates": [[[-97.5400859, 35.4647328], [-97.5400858, 35.4647482], [-97.5400837, 35.4649212], [-97.5402503, 35.4649225], [-97.5402506, 35.4648992], [-97.5402526, 35.4647338], [-97.5400859, 35.4647328]]]}, "properties": {"osm_id": 1389953641, "building": "roof", "name": "", "height": null, "height_m": null, "levels": null, "tract_id": "40109109800", "tract_name": "1098", "tags": {"building": "roof", "layer": "1"}}}, {"type": "Feature", "geometry": {"type": "Polygon", "coordinates": [[[-97.5402506, 35.4648992], [-97.5404187, 35.4649011], [-97.5404209, 35.4647348], [-97.5402526, 35.4647338], [-97.5402506, 35.4648992]]]}, "properties": {"osm_id": 1389953642, "building": "roof", "name": "", "height": null, "height_m": null, "levels": null, "tract_id": "40109109800", "tract_name": "1098", "tags": {"building": "roof", "layer": "1"}}}, {"type": "Feature", "geometry": {"type": "Polygon", "coordinates": [[[-97.5385336, 35.4679992], [-97.5385332, 35.4683311], [-97.538362, 35.4683309], [-97.5383619, 35.4683393], [-97.5381934, 35.4683392], [-97.5381939, 35.4679989], [-97.5385336, 35.4679992]]]}, "properties": {"osm_id": 1422872422, "building": "commercial", "name": "", "height": null, "height_m": null, "levels": null, "tract_id": "40109109800", "tract_name": "1098", "tags": {"building": "commercial"}}}, {"type": "Feature", "geometry": {"type": "Polygon", "coordinates": [[[-97.5378885, 35.4681735], [-97.5379734, 35.4681735], [-97.5379733, 35.4680788], [-97.5379586, 35.4680788], [-97.5379585, 35.4680562], [-97.5379436, 35.4680562], [-97.5379436, 35.4680316], [-97.5378883, 35.4680316], [-97.5378885, 35.4681735]]]}, "properties": {"osm_id": 1422872423, "building": "yes", "name": "", "height": null, "height_m": null, "levels": null, "tract_id": "40109109800", "tract_name": "1098", "tags": {"building": "yes"}}}, {"type": "Feature", "geometry": {"type": "Polygon", "coordinates": [[[-97.5378574, 35.4682453], [-97.5376973, 35.4682464], [-97.5376959, 35.4680291], [-97.5378591, 35.4680289], [-97.5378574, 35.4682453]]]}, "properties": {"osm_id": 1422872424, "building": "commercial", "name": "", "height": null, "height_m": null, "levels": null, "tract_id": "40109109800", "tract_name": "1098", "tags": {"building": "commercial"}}}, {"type": "Feature", "geometry": {"type": "Polygon", "coordinates": [[[-97.5376871, 35.4682742], [-97.5374662, 35.468274], [-97.5374659, 35.4680268], [-97.5376854, 35.4680262], [-97.5376871, 35.4682742]]]}, "properties": {"osm_id": 1422872425, "building": "commercial", "name": "", "height": null, "height_m": null, "levels": null, "tract_id": "40109109800", "tract_name": "1098", "tags": {"building": "commercial"}}}, {"type": "Feature", "geometry": {"type": "Polygon", "coordinates": [[[-97.5373361, 35.4683024], [-97.5369336, 35.4683065], [-97.5369315, 35.4681672], [-97.537334, 35.468163], [-97.5373361, 35.4683024]]]}, "properties": {"osm_id": 1422872426, "building": "commercial", "name": "", "height": null, "height_m": null, "levels": null, "tract_id": "40109109800", "tract_name": "1098", "tags": {"building": "commercial"}}}, {"type": "Feature", "geometry": {"type": "Polygon", "coordinates": [[[-97.5379586, 35.4680788], [-97.5379733, 35.4680788], [-97.5380311, 35.4680787], [-97.5380309, 35.467999], [-97.5379584, 35.4679991], [-97.5379585, 35.4680562], [-97.5379586, 35.4680788]]]}, "properties": {"osm_id": 1422872431, "building": "yes", "name": "", "height": null, "height_m": null, "levels": null, "tract_id": "40109109800", "tract_name": "1098", "tags": {"building": "yes"}}}, {"type": "Feature", "geometry": {"type": "Polygon", "coordinates": [[[-97.5333354, 35.4697889], [-97.5333347, 35.4696316], [-97.5334534, 35.4696313], [-97.5334541, 35.4697886], [-97.5333354, 35.4697889]]]}, "properties": {"osm_id": 1427783189, "building": "house", "name": "", "height": null, "height_m": null, "levels": null, "tract_id": "40109109800", "tract_name": "1098", "tags": {"building": "house"}}}, {"type": "Feature", "geometry": {"type": "Polygon", "coordinates": [[[-97.5348763, 35.4698124], [-97.5347915, 35.4698127], [-97.5347909, 35.4696791], [-97.5348756, 35.4696789], [-97.5348763, 35.4698124]]]}, "properties": {"osm_id": 1427783190, "building": "yes", "name": "", "height": null, "height_m": null, "levels": null, "tract_id": "40109109800", "tract_name": "1098", "tags": {"building": "yes"}}}, {"type": "Feature", "geometry": {"type": "Polygon", "coordinates": [[[-97.5346239, 35.4698329], [-97.5346242, 35.4696942], [-97.5347764, 35.4696944], [-97.5347761, 35.4698331], [-97.5346239, 35.4698329]]]}, "properties": {"osm_id": 1427783191, "building": "yes", "name": "", "height": null, "height_m": null, "levels": null, "tract_id": "40109109800", "tract_name": "1098", "tags": {"building": "yes"}}}, {"type": "Feature", "geometry": {"type": "Polygon", "coordinates": [[[-97.5311799, 35.4700598], [-97.5311752, 35.4706389], [-97.5307916, 35.4705346], [-97.5308359, 35.4704259], [-97.5310803, 35.4704923], [-97.5310833, 35.4700598], [-97.5311799, 35.4700598]]]}, "properties": {"osm_id": 1427783208, "building": "roof", "name": "", "height": null, "height_m": null, "levels": null, "tract_id": "40109109800", "tract_name": "1098", "tags": {"building": "roof"}}}, {"type": "Feature", "geometry": {"type": "Polygon", "coordinates": [[[-97.5306183, 35.469361], [-97.5303746, 35.4693612], [-97.5303742, 35.4690846], [-97.530618, 35.4690844], [-97.5306183, 35.469361]]]}, "properties": {"osm_id": 1427783211, "building": "yes", "name": "", "height": null, "height_m": null, "levels": null, "tract_id": "40109109800", "tract_name": "1098", "tags": {"building": "yes"}}}, {"type": "Feature", "geometry": {"type": "Polygon", "coordinates": [[[-97.5306361, 35.4693184], [-97.5306378, 35.4690945], [-97.5307756, 35.4690952], [-97.5307739, 35.4693191], [-97.5306361, 35.4693184]]]}, "properties": {"osm_id": 1427783212, "building": "yes", "name": "", "height": null, "height_m": null, "levels": null, "tract_id": "40109109800", "tract_name": "1098", "tags": {"building": "yes"}}}, {"type": "Feature", "geometry": {"type": "Polygon", "coordinates": [[[-97.5313717, 35.4693925], [-97.5313739, 35.4691192], [-97.5317096, 35.469121], [-97.5317074, 35.4693942], [-97.5313717, 35.4693925]]]}, "properties": {"osm_id": 1427783213, "building": "yes", "name": "Builders Construction", "height": null, "height_m": null, "levels": null, "tract_id": "40109109800", "tract_name": "1098", "tags": {"building": "yes", "name": "Builders Construction"}}}, {"type": "Feature", "geometry": {"type": "Polygon", "coordinates": [[[-97.532103, 35.4691884], [-97.5322027, 35.469188], [-97.5322016, 35.4690207], [-97.5318861, 35.469022], [-97.5318869, 35.4691332], [-97.5317119, 35.4691339], [-97.5317134, 35.469375], [-97.5318133, 35.4693746], [-97.5318132, 35.4693624], [-97.5319629, 35.4693618], [-97.531963, 35.4693742], [-97.5320587, 35.4693738], [-97.5320586, 35.469358], [-97.5320489, 35.469358], [-97.5320483, 35.4692645], [-97.5320917, 35.4692643], [-97.5320914, 35.46922], [-97.5321032, 35.46922], [-97.532103, 35.4691884]]]}, "properties": {"osm_id": 1427783214, "building": "yes", "name": "Resonance Digital Designs", "height": null, "height_m": null, "levels": null, "tract_id": "40109109800", "tract_name": "1098", "tags": {"building": "yes", "name": "Resonance Digital Designs"}}}, {"type": "Feature", "geometry": {"type": "Polygon", "coordinates": [[[-97.5320677, 35.4700607], [-97.5322005, 35.4700606], [-97.5322009, 35.4703314], [-97.5322009, 35.4703768], [-97.5320681, 35.4703769], [-97.5320681, 35.4703315], [-97.5320677, 35.4700607]]]}, "properties": {"osm_id": 1427783215, "building": "yes", "name": "", "height": null, "height_m": null, "levels": null, "tract_id": "40109109800", "tract_name": "1098", "tags": {"building": "yes"}}}, {"type": "Feature", "geometry": {"type": "Polygon", "coordinates": [[[-97.5319024, 35.4703316], [-97.5319021, 35.4700609], [-97.5320677, 35.4700607], [-97.5320681, 35.4703315], [-97.5319024, 35.4703316]]]}, "properties": {"osm_id": 1427783216, "building": "yes", "name": "", "height": null, "height_m": null, "levels": null, "tract_id": "40109109800", "tract_name": "1098", "tags": {"building": "yes"}}}, {"type": "Feature", "geometry": {"type": "Polygon", "coordinates": [[[-97.5317341, 35.4703317], [-97.5317338, 35.4700565], [-97.5319021, 35.4700564], [-97.5319021, 35.4700609], [-97.5319024, 35.4703316], [-97.5317341, 35.4703317]]]}, "properties": {"osm_id": 1427783217, "building": "yes", "name": "", "height": null, "height_m": null, "levels": null, "tract_id": "40109109800", "tract_name": "1098", "tags": {"building": "yes"}}}, {"type": "Feature", "geometry": {"type": "Polygon", "coordinates": [[[-97.5322032, 35.4705827], [-97.5320332, 35.4705824], [-97.5319846, 35.4705823], [-97.5319849, 35.4704857], [-97.5322034, 35.470486], [-97.5322032, 35.4705827]]]}, "properties": {"osm_id": 1427783218, "building": "yes", "name": "", "height": null, "height_m": null, "levels": null, "tract_id": "40109109800", "tract_name": "1098", "tags": {"building": "yes"}}}, {"type": "Feature", "geometry": {"type": "Polygon", "coordinates": [[[-97.5319636, 35.4704856], [-97.5319638, 35.4704043], [-97.5322036, 35.4704046], [-97.5322034, 35.470486], [-97.5319849, 35.4704857], [-97.5319636, 35.4704856]]]}, "properties": {"osm_id": 1427783219, "building": "yes", "name": "", "height": null, "height_m": null, "levels": null, "tract_id": "40109109800", "tract_name": "1098", "tags": {"building": "yes"}}}, {"type": "Feature", "geometry": {"type": "Polygon", "coordinates": [[[-97.5322028, 35.4707206], [-97.5320328, 35.4707203], [-97.5320332, 35.4705824], [-97.5322032, 35.4705827], [-97.5322028, 35.4707206]]]}, "properties": {"osm_id": 1427783220, "building": "yes", "name": "", "height": null, "height_m": null, "levels": null, "tract_id": "40109109800", "tract_name": "1098", "tags": {"building": "yes"}}}, {"type": "Feature", "geometry": {"type": "Polygon", "coordinates": [[[-97.5307296, 35.4703342], [-97.5303566, 35.4703312], [-97.53036, 35.4700535], [-97.5307329, 35.4700565], [-97.5307296, 35.4703342]]]}, "properties": {"osm_id": 1427783221, "building": "yes", "name": "", "height": null, "height_m": null, "levels": null, "tract_id": "40109109800", "tract_name": "1098", "tags": {"building": "yes"}}}, {"type": "Feature", "geometry": {"type": "Polygon", "coordinates": [[[-97.5310052, 35.4703364], [-97.5307296, 35.4703342], [-97.5307329, 35.4700565], [-97.5310086, 35.4700587], [-97.5310052, 35.4703364]]]}, "properties": {"osm_id": 1427783222, "building": "yes", "name": "", "height": null, "height_m": null, "levels": null, "tract_id": "40109109800", "tract_name": "1098", "tags": {"building": "yes"}}}, {"type": "Feature", "geometry": {"type": "Polygon", "coordinates": [[[-97.5313707, 35.4696759], [-97.5309942, 35.4696756], [-97.5309944, 35.4694517], [-97.5313709, 35.469452], [-97.5313707, 35.4696759]]]}, "properties": {"osm_id": 1427783223, "building": "yes", "name": "Arenas Sports Center", "height": null, "height_m": null, "levels": null, "tract_id": "40109109800", "tract_name": "1098", "tags": {"building": "yes", "name": "Arenas Sports Center"}}}, {"type": "Feature", "geometry": {"type": "Polygon", "coordinates": [[[-97.5334249, 35.4707356], [-97.5334252, 35.4705341], [-97.533732, 35.4705344], [-97.5337317, 35.4707359], [-97.5336281, 35.4707358], [-97.5336279, 35.470822], [-97.5335264, 35.4708219], [-97.5335265, 35.4707357], [-97.5334249, 35.4707356]]]}, "properties": {"osm_id": 1427783224, "building": "yes", "name": "", "height": null, "height_m": null, "levels": null, "tract_id": "40109109800", "tract_name": "1098", "tags": {"building": "yes"}}}, {"type": "Feature", "geometry": {"type": "Polygon", "coordinates": [[[-97.5339754, 35.4703937], [-97.5339734, 35.4701174], [-97.53423, 35.4701162], [-97.534232, 35.4703925], [-97.5339754, 35.4703937]]]}, "properties": {"osm_id": 1427783225, "building": "yes", "name": "", "height": null, "height_m": null, "levels": null, "tract_id": "40109109800", "tract_name": "1098", "tags": {"building": "yes"}}}, {"type": "Feature", "geometry": {"type": "Polygon", "coordinates": [[[-97.5336918, 35.4704164], [-97.5336933, 35.4701564], [-97.5337174, 35.4701366], [-97.5339492, 35.4701366], [-97.5339489, 35.4704162], [-97.5336918, 35.4704164]]]}, "properties": {"osm_id": 1427783226, "building": "yes", "name": "", "height": null, "height_m": null, "levels": null, "tract_id": "40109109800", "tract_name": "1098", "tags": {"building": "yes"}}}, {"type": "Feature", "geometry": {"type": "Polygon", "coordinates": [[[-97.5333672, 35.4702665], [-97.5331275, 35.4702651], [-97.5331288, 35.4701131], [-97.5333685, 35.4701145], [-97.5333672, 35.4702665]]]}, "properties": {"osm_id": 1427783227, "building": "yes", "name": "", "height": null, "height_m": null, "levels": null, "tract_id": "40109109800", "tract_name": "1098", "tags": {"building": "yes"}}}, {"type": "Feature", "geometry": {"type": "Polygon", "coordinates": [[[-97.5324472, 35.4702084], [-97.532404, 35.4702082], [-97.532405, 35.4700521], [-97.5325589, 35.4700528], [-97.5325579, 35.4702089], [-97.5325577, 35.4702333], [-97.5324471, 35.4702328], [-97.5324472, 35.4702084]]]}, "properties": {"osm_id": 1427783228, "building": "yes", "name": "", "height": null, "height_m": null, "levels": null, "tract_id": "40109109800", "tract_name": "1098", "tags": {"building": "yes"}}}, {"type": "Feature", "geometry": {"type": "Polygon", "coordinates": [[[-97.5325606, 35.4704068], [-97.5324529, 35.4704064], [-97.5324536, 35.4702946], [-97.5325613, 35.4702951], [-97.5325606, 35.4704068]]]}, "properties": {"osm_id": 1427783229, "building": "yes", "name": "", "height": null, "height_m": null, "levels": null, "tract_id": "40109109800", "tract_name": "1098", "tags": {"building": "yes"}}}, {"type": "Feature", "geometry": {"type": "Polygon", "coordinates": [[[-97.5340695, 35.4708145], [-97.5337469, 35.4708132], [-97.5337486, 35.4705252], [-97.5340712, 35.4705265], [-97.5340695, 35.4708145]]]}, "properties": {"osm_id": 1427783230, "building": "yes", "name": "", "height": null, "height_m": null, "levels": null, "tract_id": "40109109800", "tract_name": "1098", "tags": {"building": "yes"}}}, {"type": "Feature", "geometry": {"type": "Polygon", "coordinates": [[[-97.5342419, 35.4708152], [-97.5340695, 35.4708145], [-97.5340712, 35.4705265], [-97.5342436, 35.4705272], [-97.5342419, 35.4708152]]]}, "properties": {"osm_id": 1427783231, "building": "yes", "name": "", "height": null, "height_m": null, "levels": null, "tract_id": "40109109800", "tract_name": "1098", "tags": {"building": "yes"}}}, {"type": "Feature", "geometry": {"type": "Polygon", "coordinates": [[[-97.534253, 35.4706198], [-97.5342539, 35.4705329], [-97.5344289, 35.470534], [-97.5344281, 35.4706209], [-97.534253, 35.4706198]]]}, "properties": {"osm_id": 1427783232, "building": "yes", "name": "", "height": null, "height_m": null, "levels": null, "tract_id": "40109109800", "tract_name": "1098", "tags": {"building": "yes"}}}]}