{"type": "FeatureCollection", "features": [{"type": "Feature", "geometry": {"type": "Polygon", "coordinates": [[[-94.9267627, 36.5542333], [-94.9266341, 36.5542398], [-94.9265981, 36.5537755], [-94.9267267, 36.5537691], [-94.9267627, 36.5542333]]]}, "properties": {"osm_id": 136592769, "building": "yes", "name": "", "height": null, "height_m": null, "levels": null, "tract_id": "40041375803", "tract_name": "3758.03", "tags": {"amenity": "boat_storage", "building": "yes", "building:use": "boat_storage", "source": "bing"}}}, {"type": "Feature", "geometry": {"type": "Polygon", "coordinates": [[[-94.9177856, 36.5743889], [-94.9177293, 36.5743323], [-94.917781, 36.5742991], [-94.9178374, 36.5743557], [-94.9177856, 36.5743889]]]}, "properties": {"osm_id": 136592795, "building": "yes", "name": "", "height": null, "height_m": null, "levels": null, "tract_id": "40041375803", "tract_name": "3758.03", "tags": {"amenity": "boat_storage", "building": "yes", "building:use": "boat_storage", "source": "bing"}}}, {"type": "Feature", "geometry": {"type": "Polygon", "coordinates": [[[-94.9262283, 36.5651424], [-94.92615, 36.5650808], [-94.9262336, 36.5650122], [-94.9263119, 36.5650739], [-94.9262283, 36.5651424]]]}, "properties": {"osm_id": 136592796, "building": "yes", "name": "", "height": null, "height_m": null, "levels": null, "tract_id": "40041375803", "tract_name": "3758.03", "tags": {"amenity": "boat_storage", "building": "yes", "building:use": "boat_storage", "source": "bing"}}}, {"type": "Feature", "geometry": {"type": "Polygon", "coordinates": [[[-94.9171294, 36.5746493], [-94.917082, 36.5746158], [-94.9171509, 36.5745529], [-94.9171983, 36.5745864], [-94.9171294, 36.5746493]]]}, "properties": {"osm_id": 136592815, "building": "yes", "name": "", "height": null, "height_m": null, "levels": null, "tract_id": "40041375803", "tract_name": "3758.03", "tags": {"amenity": "boat_storage", "building": "yes", "building:use": "boat_storage", "source": "bing"}}}, {"type": "Feature", "geometry": {"type": "Polygon", "coordinates": [[[-94.9172124, 36.5749436], [-94.9172578, 36.5748342], [-94.9173565, 36.5748606], [-94.9173111, 36.57497], [-94.9172124, 36.5749436]]]}, "properties": {"osm_id": 136592837, "building": "yes", "name": "", "height": null, "height_m": null, "levels": null, "tract_id": "40041375803", "tract_name": "3758.03", "tags": {"amenity": "boat_storage", "building": "yes", "building:use": "boat_storage", "source": "bing"}}}, {"type": "Feature", "geometry": {"type": "Polygon", "coordinates": [[[-94.9152477, 36.5728493], [-94.9152854, 36.573031], [-94.9149532, 36.5730755], [-94.9149155, 36.5728938], [-94.9152477, 36.5728493]]]}, "properties": {"osm_id": 136592845, "building": "yes", "name": "", "height": null, "height_m": null, "levels": null, "tract_id": "40041375803", "tract_name": "3758.03", "tags": {"amenity": "boat_storage", "building": "yes", "building:use": "boat_storage", "source": "bing"}}}, {"type": "Feature", "geometry": {"type": "Polygon", "coordinates": [[[-94.9222236, 36.5633348], [-94.9221296, 36.5634304], [-94.9220429, 36.5633754], [-94.9221369, 36.5632798], [-94.9222236, 36.5633348]]]}, "properties": {"osm_id": 136592868, "building": "yes", "name": "", "height": null, "height_m": null, "levels": null, "tract_id": "40041375803", "tract_name": "3758.03", "tags": {"amenity": "boat_storage", "building": "yes", "building:use": "boat_storage", "source": "bing"}}}, {"type": "Feature", "geometry": {"type": "Polygon", "coordinates": [[[-94.9155293, 36.5690694], [-94.9154196, 36.5690845], [-94.915408, 36.5690297], [-94.9155176, 36.5690146], [-94.9155293, 36.5690694]]]}, "properties": {"osm_id": 136592872, "building": "yes", "name": "", "height": null, "height_m": null, "levels": null, "tract_id": "40041375803", "tract_name": "3758.03", "tags": {"amenity": "boat_storage", "building": "yes", "building:use": "boat_storage", "source": "bing"}}}, {"type": "Feature", "geometry": {"type": "Polygon", "coordinates": [[[-94.9261437, 36.5637549], [-94.9260732, 36.5637738], [-94.9260466, 36.5637096], [-94.9261171, 36.5636908], [-94.9261437, 36.5637549]]]}, "properties": {"osm_id": 136592879, "building": "yes", "name": "", "height": null, "height_m": null, "levels": null, "tract_id": "40041375803", "tract_name": "3758.03", "tags": {"amenity": "boat_storage", "building": "yes", "building:use": "boat_storage", "source": "bing"}}}, {"type": "Feature", "geometry": {"type": "Polygon", "coordinates": [[[-94.9174364, 36.5743952], [-94.9173643, 36.5744531], [-94.9173189, 36.5744166], [-94.917391, 36.5743587], [-94.9174364, 36.5743952]]]}, "properties": {"osm_id": 136592882, "building": "yes", "name": "", "height": null, "height_m": null, "levels": null, "tract_id": "40041375803", "tract_name": "3758.03", "tags": {"amenity": "boat_storage", "building": "yes", "building:use": "boat_storage", "source": "bing"}}}, {"type": "Feature", "geometry": {"type": "Polygon", "coordinates": [[[-94.9166705, 36.5752719], [-94.9165766, 36.5752291], [-94.9166099, 36.5751819], [-94.9167039, 36.5752246], [-94.9166705, 36.5752719]]]}, "properties": {"osm_id": 136592903, "building": "yes", "name": "", "height": null, "height_m": null, "levels": null, "tract_id": "40041375803", "tract_name": "3758.03", "tags": {"amenity": "boat_storage", "building": "yes", "building:use": "boat_storage", "source": "bing"}}}, {"type": "Feature", "geometry": {"type": "Polygon", "coordinates": [[[-94.9270458, 36.5654795], [-94.9269628, 36.5654506], [-94.9269832, 36.5654128], [-94.9270662, 36.5654417], [-94.9270458, 36.5654795]]]}, "properties": {"osm_id": 136592911, "building": "yes", "name": "", "height": null, "height_m": null, "levels": null, "tract_id": "40041375803", "tract_name": "3758.03", "tags": {"amenity": "boat_storage", "building": "yes", "building:use": "boat_storage", "source": "bing"}}}, {"type": "Feature", "geometry": {"type": "Polygon", "coordinates": [[[-94.9253245, 36.5518327], [-94.9252164, 36.551757], [-94.9253228, 36.5516591], [-94.9254308, 36.5517349], [-94.9253245, 36.5518327]]]}, "properties": {"osm_id": 136592923, "building": "yes", "name": "", "height": null, "height_m": null, "levels": null, "tract_id": "40041375803", "tract_name": "3758.03", "tags": {"amenity": "boat_storage", "building": "yes", "building:use": "boat_storage", "source": "bing"}}}, {"type": "Feature", "geometry": {"type": "Polygon", "coordinates": [[[-94.9266722, 36.5536342], [-94.9263489, 36.5536591], [-94.9263205, 36.5534216], [-94.9266439, 36.5533967], [-94.9266722, 36.5536342]]]}, "properties": {"osm_id": 136592934, "building": "yes", "name": "", "height": null, "height_m": null, "levels": null, "tract_id": "40041375803", "tract_name": "3758.03", "tags": {"amenity": "boat_storage", "building": "yes", "building:use": "boat_storage", "source": "bing"}}}, {"type": "Feature", "geometry": {"type": "Polygon", "coordinates": [[[-94.926814, 36.5519866], [-94.9265239, 36.5518514], [-94.9266232, 36.5517138], [-94.9269133, 36.5518491], [-94.926814, 36.5519866]]]}, "properties": {"osm_id": 136592974, "building": "yes", "name": "", "height": null, "height_m": null, "levels": null, "tract_id": "40041375803", "tract_name": "3758.03", "tags": {"amenity": "boat_storage", "building": "yes", "building:use": "boat_storage", "source": "bing"}}}, {"type": "Feature", "geometry": {"type": "Polygon", "coordinates": [[[-94.9190308, 36.5753939], [-94.9189943, 36.5753059], [-94.919066, 36.5752867], [-94.9191026, 36.5753747], [-94.9190308, 36.5753939]]]}, "properties": {"osm_id": 136593028, "building": "yes", "name": "", "height": null, "height_m": null, "levels": null, "tract_id": "40041375803", "tract_name": "3758.03", "tags": {"amenity": "boat_storage", "building": "yes", "building:use": "boat_storage", "source": "bing"}}}, {"type": "Feature", "geometry": {"type": "Polygon", "coordinates": [[[-94.9266302, 36.5524599], [-94.9263543, 36.5524086], [-94.926423, 36.5521702], [-94.9266988, 36.5522215], [-94.9266302, 36.5524599]]]}, "properties": {"osm_id": 136593038, "building": "yes", "name": "", "height": null, "height_m": null, "levels": null, "tract_id": "40041375803", "tract_name": "3758.03", "tags": {"amenity": "boat_storage", "building": "yes", "building:use": "boat_storage", "source": "bing"}}}, {"type": "Feature", "geometry": {"type": "Polygon", "coordinates": [[[-94.9260435, 36.5650254], [-94.9259402, 36.5649856], [-94.9259966, 36.5648913], [-94.9260998, 36.5649311], [-94.9260435, 36.5650254]]]}, "properties": {"osm_id": 136593092, "building": "yes", "name": "", "height": null, "height_m": null, "levels": null, "tract_id": "40041375803", "tract_name": "3758.03", "tags": {"amenity": "boat_storage", "building": "yes", "building:use": "boat_storage", "source": "bing"}}}, {"type": "Feature", "geometry": {"type": "Polygon", "coordinates": [[[-94.9157484, 36.5734606], [-94.9160141, 36.5734353], [-94.9160274, 36.5735251], [-94.9153123, 36.5735932], [-94.9152874, 36.5734247], [-94.9157368, 36.5733819], [-94.9157484, 36.5734606]]]}, "properties": {"osm_id": 136593124, "building": "yes", "name": "", "height": null, "height_m": null, "levels": null, "tract_id": "40041375803", "tract_name": "3758.03", "tags": {"amenity": "boat_storage", "building": "yes", "building:use": "boat_storage", "source": "bing"}}}, {"type": "Feature", "geometry": {"type": "Polygon", "coordinates": [[[-94.926002, 36.5542907], [-94.9261478, 36.5542575], [-94.9262341, 36.5545015], [-94.9262146, 36.554506], [-94.9262985, 36.5547429], [-94.9261722, 36.5547718], [-94.926002, 36.5542907]]]}, "properties": {"osm_id": 136593126, "building": "yes", "name": "", "height": null, "height_m": null, "levels": null, "tract_id": "40041375803", "tract_name": "3758.03", "tags": {"amenity": "boat_storage", "building": "yes", "building:use": "boat_storage", "source": "bing"}}}, {"type": "Feature", "geometry": {"type": "Polygon", "coordinates": [[[-94.9323295, 36.5784772], [-94.9322178, 36.578494], [-94.9322008, 36.5784211], [-94.9323124, 36.5784043], [-94.9323295, 36.5784772]]]}, "properties": {"osm_id": 185089219, "building": "yes", "name": "", "height": null, "height_m": null, "levels": null, "tract_id": "40041375803", "tract_name": "3758.03", "tags": {"building": "yes", "building:use": "boat_storage", "source": "bing"}}}, {"type": "Feature", "geometry": {"type": "Polygon", "coordinates": [[[-94.9159736, 36.5799104], [-94.9160311, 36.5799137], [-94.9160245, 36.5799876], [-94.915967, 36.5799843], [-94.9159736, 36.5799104]]]}, "properties": {"osm_id": 185089220, "building": "yes", "name": "", "height": null, "height_m": null, "levels": null, "tract_id": "40041375803", "tract_name": "3758.03", "tags": {"building": "yes", "building:use": "boat_storage", "source": "bing"}}}, {"type": "Feature", "geometry": {"type": "Polygon", "coordinates": [[[-94.9807912, 36.662501], [-94.9807858, 36.6623009], [-94.9806893, 36.662303], [-94.9806866, 36.662501], [-94.9807912, 36.662501]]]}, "properties": {"osm_id": 679159543, "building": "house", "name": "", "height": null, "height_m": null, "levels": null, "tract_id": "40041375803", "tract_name": "3758.03", "tags": {"building": "house"}}}, {"type": "Feature", "geometry": {"type": "Polygon", "coordinates": [[[-94.9804318, 36.6622213], [-94.9804318, 36.6621008], [-94.9802494, 36.6621008], [-94.9802521, 36.662217], [-94.9804318, 36.6622213]]]}, "properties": {"osm_id": 679159544, "building": "yes", "name": "", "height": null, "height_m": null, "levels": null, "tract_id": "40041375803", "tract_name": "3758.03", "tags": {"building": "yes"}}}, {"type": "Feature", "geometry": {"type": "Polygon", "coordinates": [[[-94.9803325, 36.6625591], [-94.9803299, 36.6624343], [-94.9801662, 36.6624343], [-94.9801716, 36.6625268], [-94.9802574, 36.6625246], [-94.9802628, 36.6625634], [-94.9803325, 36.6625591]]]}, "properties": {"osm_id": 679159545, "building": "yes", "name": "", "height": null, "height_m": null, "levels": null, "tract_id": "40041375803", "tract_name": "3758.03", "tags": {"building": "yes"}}}, {"type": "Feature", "geometry": {"type": "Polygon", "coordinates": [[[-94.9818238, 36.659039], [-94.9818212, 36.6589228], [-94.9820304, 36.6589228], [-94.9820331, 36.659039], [-94.9818238, 36.659039]]]}, "properties": {"osm_id": 680388870, "building": "house", "name": "", "height": null, "height_m": null, "levels": null, "tract_id": "40041375803", "tract_name": "3758.03", "tags": {"building": "house"}}}, {"type": "Feature", "geometry": {"type": "Polygon", "coordinates": [[[-94.9817675, 36.6595446], [-94.9817675, 36.659422], [-94.9819043, 36.6594242], [-94.9819043, 36.6595446], [-94.9817675, 36.6595446]]]}, "properties": {"osm_id": 680388871, "building": "barn", "name": "", "height": null, "height_m": null, "levels": null, "tract_id": "40041375803", "tract_name": "3758.03", "tags": {"building": "barn"}}}, {"type": "Feature", "geometry": {"type": "Polygon", "coordinates": [[[-94.9819285, 36.6594026], [-94.9819258, 36.6592886], [-94.9820894, 36.6592907], [-94.9820867, 36.6594026], [-94.9819285, 36.6594026]]]}, "properties": {"osm_id": 680388872, "building": "barn", "name": "", "height": null, "height_m": null, "levels": null, "tract_id": "40041375803", "tract_name": "3758.03", "tags": {"building": "barn"}}}, {"type": "Feature", "geometry": {"type": "Polygon", "coordinates": [[[-94.9823737, 36.6594026], [-94.9823737, 36.6593123], [-94.9825883, 36.6593166], [-94.9825856, 36.6593983], [-94.9823737, 36.6594026]]]}, "properties": {"osm_id": 680388873, "building": "yes", "name": "", "height": null, "height_m": null, "levels": null, "tract_id": "40041375803", "tract_name": "3758.03", "tags": {"building": "yes"}}}, {"type": "Feature", "geometry": {"type": "Polygon", "coordinates": [[[-94.9821859, 36.654615], [-94.9821859, 36.654544], [-94.9822959, 36.6545419], [-94.9822959, 36.6544666], [-94.9823925, 36.6544666], [-94.9823925, 36.654615], [-94.9821859, 36.654615]]]}, "properties": {"osm_id": 680388876, "building": "house", "name": "", "height": null, "height_m": null, "levels": null, "tract_id": "40041375803", "tract_name": "3758.03", "tags": {"building": "house"}}}, {"type": "Feature", "geometry": {"type": "Polygon", "coordinates": [[[-94.9823013, 36.6538856], [-94.9822959, 36.6538016], [-94.9823817, 36.653793], [-94.9823817, 36.6537435], [-94.9824354, 36.6537392], [-94.9824381, 36.6537866], [-94.9825239, 36.6537823], [-94.9825319, 36.6538813], [-94.9824729, 36.6538813], [-94.9824676, 36.6538361], [-94.9823817, 36.6538404], [-94.9823844, 36.6538834], [-94.9823013, 36.6538856]]]}, "properties": {"osm_id": 680388877, "building": "house", "name": "", "height": null, "height_m": null, "levels": null, "tract_id": "40041375803", "tract_name": "3758.03", "tags": {"building": "house"}}}, {"type": "Feature", "geometry": {"type": "Polygon", "coordinates": [[[-94.9824139, 36.6540297], [-94.9824113, 36.653948], [-94.9825829, 36.6539394], [-94.9825856, 36.6540254], [-94.9824139, 36.6540297]]]}, "properties": {"osm_id": 680388878, "building": "yes", "name": "", "height": null, "height_m": null, "levels": null, "tract_id": "40041375803", "tract_name": "3758.03", "tags": {"building": "yes"}}}, {"type": "Feature", "geometry": {"type": "Polygon", "coordinates": [[[-94.9826687, 36.6545333], [-94.9827894, 36.6545333], [-94.9827868, 36.6544192], [-94.9826634, 36.6544214], [-94.9826687, 36.6545333]]]}, "properties": {"osm_id": 680388879, "building": "yes", "name": "", "height": null, "height_m": null, "levels": null, "tract_id": "40041375803", "tract_name": "3758.03", "tags": {"building": "yes"}}}, {"type": "Feature", "geometry": {"type": "Polygon", "coordinates": [[[-94.9829826, 36.6546107], [-94.9829772, 36.6544773], [-94.9830764, 36.6544773], [-94.9830791, 36.6546086], [-94.9829826, 36.6546107]]]}, "properties": {"osm_id": 680388880, "building": "barn", "name": "", "height": null, "height_m": null, "levels": null, "tract_id": "40041375803", "tract_name": "3758.03", "tags": {"building": "barn"}}}, {"type": "Feature", "geometry": {"type": "Polygon", "coordinates": [[[-94.9831623, 36.6542535], [-94.9833473, 36.6542535], [-94.98335, 36.6541029], [-94.9831569, 36.6541051], [-94.9831623, 36.6542535]]]}, "properties": {"osm_id": 680388881, "building": "barn", "name": "", "height": null, "height_m": null, "levels": null, "tract_id": "40041375803", "tract_name": "3758.03", "tags": {"building": "barn"}}}, {"type": "Feature", "geometry": {"type": "Polygon", "coordinates": [[[-94.9826634, 36.6283349], [-94.9826285, 36.6284576], [-94.9826875, 36.6284662], [-94.9826795, 36.6285093], [-94.9827707, 36.6285222], [-94.9827787, 36.6284835], [-94.9827465, 36.6284792], [-94.9827707, 36.6283565], [-94.9826634, 36.6283349]]]}, "properties": {"osm_id": 689392746, "building": "house", "name": "", "height": null, "height_m": null, "levels": null, "tract_id": "40041375803", "tract_name": "3758.03", "tags": {"building": "house"}}}, {"type": "Feature", "geometry": {"type": "Polygon", "coordinates": [[[-94.9853516, 36.6261463], [-94.9853514, 36.6261678], [-94.9853604, 36.6261881], [-94.9853775, 36.6262047], [-94.9854005, 36.6262157], [-94.9854269, 36.6262197], [-94.9854534, 36.6262163], [-94.9854769, 36.6262059], [-94.9854932, 36.6261913], [-94.9855032, 36.6261734], [-94.9855056, 36.6261539], [-94.9855004, 36.6261347], [-94.9854881, 36.6261178], [-94.9854698, 36.6261048], [-94.9854473, 36.626097], [-94.985423, 36.6260952], [-94.9853992, 36.6260995], [-94.9853782, 36.6261096], [-94.9853609, 36.626126], [-94.9853516, 36.6261463]]]}, "properties": {"osm_id": 689392749, "building": "yes", "name": "", "height": null, "height_m": null, "levels": null, "tract_id": "40041375803", "tract_name": "3758.03", "tags": {"building": "yes", "man_made": "silo"}}}, {"type": "Feature", "geometry": {"type": "Polygon", "coordinates": [[[-94.9852567, 36.6260906], [-94.9852798, 36.6260928], [-94.9853006, 36.6261011], [-94.9853166, 36.6261147], [-94.9853259, 36.6261319], [-94.9853273, 36.6261505], [-94.9853206, 36.6261684], [-94.9853068, 36.6261834], [-94.9852894, 36.626193], [-94.9852693, 36.6261977], [-94.9852483, 36.6261973], [-94.9852285, 36.6261916], [-94.9852119, 36.6261813], [-94.9852, 36.6261674], [-94.9851941, 36.6261513], [-94.9851947, 36.6261344], [-94.9852018, 36.6261186], [-94.9852146, 36.6261052], [-94.985234, 36.6260949], [-94.9852567, 36.6260906]]]}, "properties": {"osm_id": 689392750, "building": "yes", "name": "", "height": null, "height_m": null, "levels": null, "tract_id": "40041375803", "tract_name": "3758.03", "tags": {"building": "yes", "man_made": "silo"}}}, {"type": "Feature", "geometry": {"type": "Polygon", "coordinates": [[[-94.9849996, 36.6267808], [-94.9849996, 36.6266775], [-94.9852732, 36.6266796], [-94.9852758, 36.6267872], [-94.9849996, 36.6267808]]]}, "properties": {"osm_id": 689392752, "building": "house", "name": "", "height": null, "height_m": null, "levels": null, "tract_id": "40041375803", "tract_name": "3758.03", "tags": {"building": "house"}}}, {"type": "Feature", "geometry": {"type": "Polygon", "coordinates": [[[-94.9826446, 36.6280809], [-94.9826044, 36.6280379], [-94.98265, 36.6280056], [-94.9826956, 36.6280443], [-94.9826446, 36.6280809]]]}, "properties": {"osm_id": 689392753, "building": "yes", "name": "", "height": null, "height_m": null, "levels": null, "tract_id": "40041375803", "tract_name": "3758.03", "tags": {"building": "yes"}}}, {"type": "Feature", "geometry": {"type": "Polygon", "coordinates": [[[-94.9921557, 36.6268368], [-94.992153, 36.6266366], [-94.9922737, 36.6266366], [-94.9922791, 36.6268346], [-94.9921557, 36.6268368]]]}, "properties": {"osm_id": 689392757, "building": "barn", "name": "", "height": null, "height_m": null, "levels": null, "tract_id": "40041375803", "tract_name": "3758.03", "tags": {"building": "barn"}}}, {"type": "Feature", "geometry": {"type": "Polygon", "coordinates": [[[-94.9915817, 36.6265203], [-94.9915844, 36.626417], [-94.991799, 36.626417], [-94.991799, 36.626516], [-94.9915817, 36.6265203]]]}, "properties": {"osm_id": 689392758, "building": "house", "name": "", "height": null, "height_m": null, "levels": null, "tract_id": "40041375803", "tract_name": "3758.03", "tags": {"building": "house"}}}, {"type": "Feature", "geometry": {"type": "Polygon", "coordinates": [[[-94.9914476, 36.6264794], [-94.9913671, 36.6264794], [-94.9913671, 36.6263309], [-94.9914449, 36.6263287], [-94.9914476, 36.6264794]]]}, "properties": {"osm_id": 689392759, "building": "barn", "name": "", "height": null, "height_m": null, "levels": null, "tract_id": "40041375803", "tract_name": "3758.03", "tags": {"building": "barn"}}}, {"type": "Feature", "geometry": {"type": "Polygon", "coordinates": [[[-94.9932232, 36.6263266], [-94.9932232, 36.6262534], [-94.9930301, 36.6262534], [-94.9930328, 36.6263287], [-94.9932232, 36.6263266]]]}, "properties": {"osm_id": 689392762, "building": "house", "name": "", "height": null, "height_m": null, "levels": null, "tract_id": "40041375803", "tract_name": "3758.03", "tags": {"building": "house"}}}, {"type": "Feature", "geometry": {"type": "Polygon", "coordinates": [[[-94.9933064, 36.6263481], [-94.9933922, 36.6263503], [-94.9933976, 36.6262513], [-94.9933171, 36.6262513], [-94.9933064, 36.6263481]]]}, "properties": {"osm_id": 689392763, "building": "garage", "name": "", "height": null, "height_m": null, "levels": null, "tract_id": "40041375803", "tract_name": "3758.03", "tags": {"building": "garage"}}}, {"type": "Feature", "geometry": {"type": "Polygon", "coordinates": [[[-94.9936363, 36.6262147], [-94.9936363, 36.6260941], [-94.9937811, 36.6260941], [-94.9937811, 36.6262125], [-94.9936363, 36.6262147]]]}, "properties": {"osm_id": 689392764, "building": "barn", "name": "", "height": null, "height_m": null, "levels": null, "tract_id": "40041375803", "tract_name": "3758.03", "tags": {"building": "barn"}}}, {"type": "Feature", "geometry": {"type": "Polygon", "coordinates": [[[-94.9944115, 36.6264407], [-94.9944731, 36.6264407], [-94.9944651, 36.6262405], [-94.9944061, 36.6262426], [-94.9944115, 36.6264407]]]}, "properties": {"osm_id": 689392766, "building": "house", "name": "", "height": null, "height_m": null, "levels": null, "tract_id": "40041375803", "tract_name": "3758.03", "tags": {"building": "house"}}}, {"type": "Feature", "geometry": {"type": "Polygon", "coordinates": [[[-94.9946126, 36.6265246], [-94.9946126, 36.6264299], [-94.9947092, 36.6264299], [-94.9947092, 36.6265246], [-94.9946126, 36.6265246]]]}, "properties": {"osm_id": 689392767, "building": "yes", "name": "", "height": null, "height_m": null, "levels": null, "tract_id": "40041375803", "tract_name": "3758.03", "tags": {"building": "yes"}}}, {"type": "Feature", "geometry": {"type": "Polygon", "coordinates": [[[-94.9943176, 36.6264751], [-94.9943203, 36.6264019], [-94.9942317, 36.6264019], [-94.9942344, 36.626473], [-94.9943176, 36.6264751]]]}, "properties": {"osm_id": 689392768, "building": "yes", "name": "", "height": null, "height_m": null, "levels": null, "tract_id": "40041375803", "tract_name": "3758.03", "tags": {"building": "yes"}}}, {"type": "Feature", "geometry": {"type": "Polygon", "coordinates": [[[-94.994111, 36.6264665], [-94.994111, 36.6263783], [-94.9939769, 36.6263761], [-94.9939796, 36.6264644], [-94.994111, 36.6264665]]]}, "properties": {"osm_id": 689392769, "building": "yes", "name": "", "height": null, "height_m": null, "levels": null, "tract_id": "40041375803", "tract_name": "3758.03", "tags": {"building": "yes"}}}, {"type": "Feature", "geometry": {"type": "Polygon", "coordinates": [[[-94.9976301, 36.6266775], [-94.9978983, 36.6266796], [-94.9978983, 36.6265892], [-94.9977696, 36.6265892], [-94.9977696, 36.6265246], [-94.9976274, 36.6265268], [-94.9976301, 36.6266775]]]}, "properties": {"osm_id": 689392772, "building": "yes", "name": "", "height": null, "height_m": null, "levels": null, "tract_id": "40041375803", "tract_name": "3758.03", "tags": {"building": "yes"}}}, {"type": "Feature", "geometry": {"type": "Polygon", "coordinates": [[[-94.9986037, 36.6267657], [-94.9987459, 36.6267657], [-94.9987486, 36.6266129], [-94.9986815, 36.6266107], [-94.9986815, 36.6265677], [-94.9986091, 36.6265677], [-94.9986037, 36.6267657]]]}, "properties": {"osm_id": 689392775, "building": "house", "name": "", "height": null, "height_m": null, "levels": null, "tract_id": "40041375803", "tract_name": "3758.03", "tags": {"building": "house"}}}, {"type": "Feature", "geometry": {"type": "Polygon", "coordinates": [[[-94.9982229, 36.6266839], [-94.9982256, 36.6265548], [-94.9981156, 36.6265548], [-94.9981183, 36.6266818], [-94.9982229, 36.6266839]]]}, "properties": {"osm_id": 689392776, "building": "yes", "name": "", "height": null, "height_m": null, "levels": null, "tract_id": "40041375803", "tract_name": "3758.03", "tags": {"building": "yes"}}}, {"type": "Feature", "geometry": {"type": "Polygon", "coordinates": [[[-94.9982229, 36.6265289], [-94.9983275, 36.6265182], [-94.9983221, 36.6264471], [-94.9982148, 36.6264536], [-94.9982229, 36.6265289]]]}, "properties": {"osm_id": 689392777, "building": "yes", "name": "", "height": null, "height_m": null, "levels": null, "tract_id": "40041375803", "tract_name": "3758.03", "tags": {"building": "yes"}}}, {"type": "Feature", "geometry": {"type": "Polygon", "coordinates": [[[-94.9713803, 36.5716614], [-94.9712818, 36.5717465], [-94.971216, 36.5716974], [-94.9711112, 36.5717879], [-94.9709707, 36.5716831], [-94.9711739, 36.5715074], [-94.9713803, 36.5716614]]]}, "properties": {"osm_id": 1420055834, "building": "yes", "name": "", "height": null, "height_m": null, "levels": null, "tract_id": "40041375803", "tract_name": "3758.03", "tags": {"building": "yes"}}}, {"type": "Feature", "geometry": {"type": "Polygon", "coordinates": [[[-94.973588, 36.569638], [-94.9733593, 36.5698262], [-94.9732797, 36.5697639], [-94.9735083, 36.5695756], [-94.973588, 36.569638]]]}, "properties": {"osm_id": 1420055836, "building": "yes", "name": "", "height": null, "height_m": null, "levels": null, "tract_id": "40041375803", "tract_name": "3758.03", "tags": {"building": "yes"}}}, {"type": "Feature", "geometry": {"type": "Polygon", "coordinates": [[[-94.9733019, 36.5698703], [-94.972584, 36.5704611], [-94.9725091, 36.5704024], [-94.9732271, 36.5698117], [-94.9733019, 36.5698703]]]}, "properties": {"osm_id": 1420055837, "building": "yes", "name": "", "height": null, "height_m": null, "levels": null, "tract_id": "40041375803", "tract_name": "3758.03", "tags": {"building": "yes"}}}, {"type": "Feature", "geometry": {"type": "Polygon", "coordinates": [[[-94.9725411, 36.5705053], [-94.9720956, 36.5708677], [-94.9720175, 36.5708057], [-94.9724631, 36.5704434], [-94.9725411, 36.5705053]]]}, "properties": {"osm_id": 1420055838, "building": "yes", "name": "", "height": null, "height_m": null, "levels": null, "tract_id": "40041375803", "tract_name": "3758.03", "tags": {"building": "yes"}}}, {"type": "Feature", "geometry": {"type": "Polygon", "coordinates": [[[-94.9720511, 36.5709079], [-94.9718578, 36.5710625], [-94.9717817, 36.5710011], [-94.971975, 36.5708465], [-94.9720511, 36.5709079]]]}, "properties": {"osm_id": 1420055839, "building": "yes", "name": "", "height": null, "height_m": null, "levels": null, "tract_id": "40041375803", "tract_name": "3758.03", "tags": {"building": "yes"}}}, {"type": "Feature", "geometry": {"type": "Polygon", "coordinates": [[[-94.9718061, 36.5710998], [-94.9716166, 36.5712553], [-94.9715421, 36.5711967], [-94.9717316, 36.5710412], [-94.9718061, 36.5710998]]]}, "properties": {"osm_id": 1420055840, "building": "yes", "name": "", "height": null, "height_m": null, "levels": null, "tract_id": "40041375803", "tract_name": "3758.03", "tags": {"building": "yes"}}}, {"type": "Feature", "geometry": {"type": "Polygon", "coordinates": [[[-94.9715322, 36.5713169], [-94.9712993, 36.571521], [-94.9712183, 36.5714613], [-94.9714512, 36.5712573], [-94.9715322, 36.5713169]]]}, "properties": {"osm_id": 1420055841, "building": "yes", "name": "", "height": null, "height_m": null, "levels": null, "tract_id": "40041375803", "tract_name": "3758.03", "tags": {"building": "yes"}}}, {"type": "Feature", "geometry": {"type": "Polygon", "coordinates": [[[-94.972135, 36.5724547], [-94.9720001, 36.572617], [-94.9716303, 36.5724188], [-94.9717652, 36.5722564], [-94.972135, 36.5724547]]]}, "properties": {"osm_id": 1420055843, "building": "yes", "name": "", "height": null, "height_m": null, "levels": null, "tract_id": "40041375803", "tract_name": "3758.03", "tags": {"building": "yes"}}}]}