{"type": "FeatureCollection", "features": [{"type": "Feature", "geometry": {"type": "Polygon", "coordinates": [[[-95.6208201, 34.23287], [-95.6210694, 34.2328486], [-95.6210853, 34.2329751], [-95.6211352, 34.2329709], [-95.6211457, 34.2330545], [-95.6208464, 34.2330802], [-95.6208201, 34.23287]]]}, "properties": {"osm_id": 159486748, "building": "yes", "name": "Antlers Post Office", "height": null, "height_m": null, "levels": null, "tract_id": "40127097701", "tract_name": "977.01", "tags": {"amenity": "post_office", "building": "yes", "name": "Antlers Post Office", "wheelchair": "yes"}}}, {"type": "Feature", "geometry": {"type": "Polygon", "coordinates": [[[-95.6203627, 34.2316377], [-95.6204341, 34.2321699], [-95.6199795, 34.2322116], [-95.6199691, 34.232134], [-95.6200968, 34.2321222], [-95.6200545, 34.2318066], [-95.619933, 34.2318178], [-95.6199159, 34.2316906], [-95.6200374, 34.2316795], [-95.6200358, 34.2316677], [-95.6203627, 34.2316377]]]}, "properties": {"osm_id": 315028568, "building": "yes", "name": "", "height": null, "height_m": null, "levels": null, "tract_id": "40127097701", "tract_name": "977.01", "tags": {"building": "yes"}}}, {"type": "Feature", "geometry": {"type": "Polygon", "coordinates": [[[-95.6198572, 34.2324722], [-95.6199111, 34.232892], [-95.6198976, 34.2328932], [-95.6199048, 34.232949], [-95.6199706, 34.2329433], [-95.6200064, 34.233222], [-95.6198462, 34.2332361], [-95.6198355, 34.2331531], [-95.6198454, 34.2331523], [-95.6198131, 34.2329006], [-95.6195591, 34.2329229], [-95.6195404, 34.2327774], [-95.6198014, 34.2327545], [-95.6197832, 34.2326127], [-95.6195904, 34.2326296], [-95.6195766, 34.2325224], [-95.6197694, 34.2325055], [-95.6197662, 34.2324802], [-95.6198572, 34.2324722]]]}, "properties": {"osm_id": 315028571, "building": "yes", "name": "", "height": null, "height_m": null, "levels": null, "tract_id": "40127097701", "tract_name": "977.01", "tags": {"building": "yes"}}}, {"type": "Feature", "geometry": {"type": "Polygon", "coordinates": [[[-95.6222259, 34.2337949], [-95.622246, 34.2337938], [-95.6222522, 34.2338747], [-95.6222138, 34.2338767], [-95.6222145, 34.2338863], [-95.6221208, 34.2338912], [-95.62212, 34.2338816], [-95.6220357, 34.233886], [-95.6220295, 34.2338052], [-95.6220677, 34.2338032], [-95.6220622, 34.2337318], [-95.622106, 34.2337295], [-95.6221044, 34.2337083], [-95.6221274, 34.2337071], [-95.6221248, 34.2336727], [-95.6222024, 34.2336687], [-95.622205, 34.233703], [-95.6222188, 34.2337023], [-95.6222259, 34.2337949]]]}, "properties": {"osm_id": 315028575, "building": "yes", "name": "", "height": null, "height_m": null, "levels": null, "tract_id": "40127097701", "tract_name": "977.01", "tags": {"building": "yes"}}}, {"type": "Feature", "geometry": {"type": "Polygon", "coordinates": [[[-95.6212775, 34.2337563], [-95.6212691, 34.2336993], [-95.6211544, 34.2337109], [-95.6211364, 34.2335885], [-95.6213464, 34.2335673], [-95.6213645, 34.2336897], [-95.6213215, 34.233694], [-95.6213299, 34.233751], [-95.6213589, 34.2337481], [-95.6213845, 34.2339214], [-95.6212696, 34.233933], [-95.6212657, 34.2339066], [-95.6211364, 34.2339196], [-95.6211374, 34.2339264], [-95.6210874, 34.2339315], [-95.6210829, 34.233901], [-95.6210578, 34.233883], [-95.6210524, 34.2338467], [-95.6210718, 34.2338256], [-95.621068, 34.2337999], [-95.621118, 34.2337948], [-95.621119, 34.2338017], [-95.6212483, 34.2337886], [-95.621244, 34.2337596], [-95.6212775, 34.2337563]]]}, "properties": {"osm_id": 315028577, "building": "yes", "name": "", "height": null, "height_m": null, "levels": null, "tract_id": "40127097701", "tract_name": "977.01", "tags": {"building": "yes"}}}, {"type": "Feature", "geometry": {"type": "Polygon", "coordinates": [[[-95.621073, 34.2333021], [-95.6211013, 34.2334963], [-95.6209875, 34.2335076], [-95.6209592, 34.2333134], [-95.621073, 34.2333021]]]}, "properties": {"osm_id": 315028581, "building": "yes", "name": "", "height": null, "height_m": null, "levels": null, "tract_id": "40127097701", "tract_name": "977.01", "tags": {"addr:city": "Antlers", "addr:housenumber": "235", "addr:postcode": "74523", "addr:state": "OK", "addr:street": "North High Street", "building": "yes", "roof:shape": "flat"}}}, {"type": "Feature", "geometry": {"type": "Polygon", "coordinates": [[[-95.6216123, 34.2327369], [-95.6217999, 34.2327101], [-95.6218168, 34.2327911], [-95.6216293, 34.2328179], [-95.6216123, 34.2327369]]]}, "properties": {"osm_id": 315028584, "building": "yes", "name": "", "height": null, "height_m": null, "levels": null, "tract_id": "40127097701", "tract_name": "977.01", "tags": {"building": "yes"}}}, {"type": "Feature", "geometry": {"type": "Polygon", "coordinates": [[[-95.6215828, 34.2323789], [-95.6217703, 34.2323521], [-95.6217873, 34.2324331], [-95.6215997, 34.2324599], [-95.6215828, 34.2323789]]]}, "properties": {"osm_id": 315028586, "building": "yes", "name": "", "height": null, "height_m": null, "levels": null, "tract_id": "40127097701", "tract_name": "977.01", "tags": {"building": "yes"}}}, {"type": "Feature", "geometry": {"type": "Polygon", "coordinates": [[[-95.6218911, 34.2331464], [-95.6217037, 34.2331732], [-95.6216866, 34.2330915], [-95.621874, 34.2330647], [-95.6218911, 34.2331464]]]}, "properties": {"osm_id": 315028588, "building": "yes", "name": "", "height": null, "height_m": null, "levels": null, "tract_id": "40127097701", "tract_name": "977.01", "tags": {"building": "yes"}}}, {"type": "Feature", "geometry": {"type": "Polygon", "coordinates": [[[-95.6218441, 34.2329288], [-95.621862, 34.2330145], [-95.6216729, 34.2330416], [-95.621655, 34.2329558], [-95.6218441, 34.2329288]]]}, "properties": {"osm_id": 315028591, "building": "yes", "name": "", "height": null, "height_m": null, "levels": null, "tract_id": "40127097701", "tract_name": "977.01", "tags": {"building": "yes"}}}, {"type": "Feature", "geometry": {"type": "Polygon", "coordinates": [[[-95.621582, 34.2326028], [-95.6217695, 34.232576], [-95.6217865, 34.232657], [-95.6215989, 34.2326838], [-95.621582, 34.2326028]]]}, "properties": {"osm_id": 315028592, "building": "yes", "name": "", "height": null, "height_m": null, "levels": null, "tract_id": "40127097701", "tract_name": "977.01", "tags": {"building": "yes"}}}, {"type": "Feature", "geometry": {"type": "Polygon", "coordinates": [[[-95.6217849, 34.233394], [-95.6218012, 34.2334832], [-95.621685, 34.2334977], [-95.6216687, 34.2334085], [-95.6217849, 34.233394]]]}, "properties": {"osm_id": 315028595, "building": "yes", "name": "", "height": null, "height_m": null, "levels": null, "tract_id": "40127097701", "tract_name": "977.01", "tags": {"building": "yes"}}}, {"type": "Feature", "geometry": {"type": "Polygon", "coordinates": [[[-95.6204496, 34.2323353], [-95.620544, 34.2329824], [-95.6201529, 34.2330214], [-95.6200586, 34.2323743], [-95.6204496, 34.2323353]]]}, "properties": {"osm_id": 315028597, "building": "yes", "name": "", "height": null, "height_m": null, "levels": null, "tract_id": "40127097701", "tract_name": "977.01", "tags": {"building": "yes"}}}, {"type": "Feature", "geometry": {"type": "Polygon", "coordinates": [[[-95.6205019, 34.2330369], [-95.6205114, 34.2331201], [-95.6203677, 34.2331313], [-95.6203582, 34.2330481], [-95.6205019, 34.2330369]]]}, "properties": {"osm_id": 315028599, "building": "yes", "name": "", "height": null, "height_m": null, "levels": null, "tract_id": "40127097701", "tract_name": "977.01", "tags": {"building": "yes"}}}, {"type": "Feature", "geometry": {"type": "Polygon", "coordinates": [[[-95.6217545, 34.2333471], [-95.621654, 34.2333597], [-95.6216243, 34.2331972], [-95.6217248, 34.2331847], [-95.6217545, 34.2333471]]]}, "properties": {"osm_id": 315028602, "building": "yes", "name": "", "height": null, "height_m": null, "levels": null, "tract_id": "40127097701", "tract_name": "977.01", "tags": {"building": "yes"}}}, {"type": "Feature", "geometry": {"type": "Polygon", "coordinates": [[[-95.6210141, 34.2317284], [-95.6210681, 34.2321098], [-95.6207305, 34.2321425], [-95.6206765, 34.2317611], [-95.6210141, 34.2317284]]]}, "properties": {"osm_id": 315028603, "building": "yes", "name": "", "height": null, "height_m": null, "levels": null, "tract_id": "40127097701", "tract_name": "977.01", "tags": {"building": "yes"}}}, {"type": "Feature", "geometry": {"type": "Polygon", "coordinates": [[[-95.6208741, 34.2324969], [-95.6208876, 34.2325681], [-95.6208053, 34.2325773], [-95.6207921, 34.2325075], [-95.6208741, 34.2324969]]]}, "properties": {"osm_id": 315028608, "building": "yes", "name": "", "height": null, "height_m": null, "levels": null, "tract_id": "40127097701", "tract_name": "977.01", "tags": {"building": "yes"}}}, {"type": "Feature", "geometry": {"type": "Polygon", "coordinates": [[[-95.62207, 34.2336172], [-95.6219825, 34.2336282], [-95.6219574, 34.2334905], [-95.6220448, 34.2334795], [-95.62207, 34.2336172]]]}, "properties": {"osm_id": 315028611, "building": "yes", "name": "", "height": null, "height_m": null, "levels": null, "tract_id": "40127097701", "tract_name": "977.01", "tags": {"building": "yes"}}}, {"type": "Feature", "geometry": {"type": "Polygon", "coordinates": [[[-95.6209873, 34.2324145], [-95.6209999, 34.2324807], [-95.6208741, 34.2324969], [-95.6207921, 34.2325075], [-95.6207795, 34.2324413], [-95.6209873, 34.2324145]]]}, "properties": {"osm_id": 315028613, "building": "yes", "name": "", "height": null, "height_m": null, "levels": null, "tract_id": "40127097701", "tract_name": "977.01", "tags": {"building": "yes"}}}, {"type": "Feature", "geometry": {"type": "Polygon", "coordinates": [[[-95.6211837, 34.232245], [-95.6212103, 34.2323856], [-95.6209873, 34.2324145], [-95.6207795, 34.2324413], [-95.6207529, 34.2323006], [-95.6211837, 34.232245]]]}, "properties": {"osm_id": 315028616, "building": "yes", "name": "Cinema One", "height": null, "height_m": null, "levels": null, "tract_id": "40127097701", "tract_name": "977.01", "tags": {"addr:city": "Antlers", "addr:housenumber": "201", "addr:postcode": "74253", "addr:state": "OK", "addr:street": "North High Street", "amenity": "cinema", "building": "yes", "name": "Cinema One", "phone": "(580) 271-2010", "screen": "1", "website": "https://antlerscinemaone.com/", "wikidata": "Q43191235"}}}, {"type": "Feature", "geometry": {"type": "Polygon", "coordinates": [[[-95.6220264, 34.2334191], [-95.6219309, 34.2334311], [-95.6219241, 34.2333935], [-95.6218183, 34.2334067], [-95.6218069, 34.2333445], [-95.6220082, 34.2333193], [-95.6220264, 34.2334191]]]}, "properties": {"osm_id": 315028617, "building": "yes", "name": "", "height": null, "height_m": null, "levels": null, "tract_id": "40127097701", "tract_name": "977.01", "tags": {"building": "yes"}}}, {"type": "Feature", "geometry": {"type": "Polygon", "coordinates": [[[-95.6216539, 34.2328439], [-95.6216693, 34.2329177], [-95.621596, 34.2329282], [-95.6216044, 34.2329683], [-95.6215201, 34.2329804], [-95.6214962, 34.2328664], [-95.6216539, 34.2328439]]]}, "properties": {"osm_id": 315028620, "building": "yes", "name": "", "height": null, "height_m": null, "levels": null, "tract_id": "40127097701", "tract_name": "977.01", "tags": {"building": "yes"}}}, {"type": "Feature", "geometry": {"type": "Polygon", "coordinates": [[[-95.62153, 34.2322997], [-95.6213511, 34.2323253], [-95.6213348, 34.2322473], [-95.6214371, 34.2322327], [-95.6214391, 34.2322421], [-95.6215157, 34.2322311], [-95.62153, 34.2322997]]]}, "properties": {"osm_id": 315028622, "building": "yes", "name": "", "height": null, "height_m": null, "levels": null, "tract_id": "40127097701", "tract_name": "977.01", "tags": {"building": "yes"}}}, {"type": "Feature", "geometry": {"type": "Polygon", "coordinates": [[[-95.6211301, 34.232822], [-95.6208244, 34.2328562], [-95.6207793, 34.2325802], [-95.6208053, 34.2325773], [-95.6208876, 34.2325681], [-95.6211867, 34.2325346], [-95.6212085, 34.2326676], [-95.6211067, 34.2326789], [-95.6211301, 34.232822]]]}, "properties": {"osm_id": 315028624, "building": "yes", "name": "", "height": null, "height_m": null, "levels": null, "tract_id": "40127097701", "tract_name": "977.01", "tags": {"building": "yes"}}}, {"type": "Feature", "geometry": {"type": "Polygon", "coordinates": [[[-95.6217385, 34.2322046], [-95.621758, 34.2322974], [-95.6216573, 34.2323118], [-95.6216488, 34.2322715], [-95.6215484, 34.2322858], [-95.6215307, 34.2322015], [-95.621655, 34.2321837], [-95.6216617, 34.2322156], [-95.6217385, 34.2322046]]]}, "properties": {"osm_id": 315028627, "building": "yes", "name": "", "height": null, "height_m": null, "levels": null, "tract_id": "40127097701", "tract_name": "977.01", "tags": {"building": "yes"}}}, {"type": "Feature", "geometry": {"type": "Polygon", "coordinates": [[[-95.6215324, 34.2326101], [-95.6214493, 34.232622], [-95.6214198, 34.2324813], [-95.621503, 34.2324694], [-95.6215085, 34.2324955], [-95.6215815, 34.2324851], [-95.6215979, 34.2325639], [-95.6215249, 34.2325743], [-95.6215324, 34.2326101]]]}, "properties": {"osm_id": 315028629, "building": "yes", "name": "", "height": null, "height_m": null, "levels": null, "tract_id": "40127097701", "tract_name": "977.01", "tags": {"building": "yes"}}}, {"type": "Feature", "geometry": {"type": "Polygon", "coordinates": [[[-95.6205012, 34.2332016], [-95.6205123, 34.2332991], [-95.6203406, 34.2333125], [-95.6203294, 34.233215], [-95.6205012, 34.2332016]]]}, "properties": {"osm_id": 315028633, "building": "yes", "name": "High Street Pizza", "height": null, "height_m": null, "levels": null, "tract_id": "40127097701", "tract_name": "977.01", "tags": {"addr:postcode": "74523", "addr:street": "High Street", "amenity": "restaurant", "building": "yes", "cuisine": "pizza", "name": "High Street Pizza", "source": "Personal Knowledge", "wheelchair": "yes"}}}, {"type": "Feature", "geometry": {"type": "Polygon", "coordinates": [[[-95.6250072, 34.2314994], [-95.6249355, 34.2310848], [-95.6246766, 34.2311154], [-95.6247483, 34.23153], [-95.6250072, 34.2314994]]]}, "properties": {"osm_id": 348674937, "building": "retail", "name": "Dollar General", "height": null, "height_m": null, "levels": null, "tract_id": "40127097701", "tract_name": "977.01", "tags": {"brand": "Dollar General", "brand:wikidata": "Q145168", "building": "retail", "name": "Dollar General", "shop": "variety_store", "toilets:wheelchair": "yes", "website": "https://www.dollargeneral.com/store-directory/ok/antlers/603", "wheelchair": "yes"}}}, {"type": "Feature", "geometry": {"type": "Polygon", "coordinates": [[[-95.6398025, 34.2268931], [-95.6398232, 34.2266178], [-95.63949, 34.2266007], [-95.6394693, 34.226876], [-95.6398025, 34.2268931]]]}, "properties": {"osm_id": 372168365, "building": "yes", "name": "", "height": null, "height_m": null, "levels": null, "tract_id": "40127097701", "tract_name": "977.01", "tags": {"building": "yes"}}}, {"type": "Feature", "geometry": {"type": "Polygon", "coordinates": [[[-95.6373404, 34.2267252], [-95.6374104, 34.2266291], [-95.6371272, 34.2264881], [-95.6370572, 34.2265842], [-95.6373404, 34.2267252]]]}, "properties": {"osm_id": 372168366, "building": "yes", "name": "", "height": null, "height_m": null, "levels": null, "tract_id": "40127097701", "tract_name": "977.01", "tags": {"building": "yes"}}}, {"type": "Feature", "geometry": {"type": "Polygon", "coordinates": [[[-95.6247024, 34.2294198], [-95.6245323, 34.2291766], [-95.6242759, 34.2292993], [-95.624446, 34.2295424], [-95.6247024, 34.2294198]]]}, "properties": {"osm_id": 475732100, "building": "yes", "name": "Family Dollar", "height": null, "height_m": null, "levels": null, "tract_id": "40127097701", "tract_name": "977.01", "tags": {"addr:city": "Antlers", "addr:housenumber": "200", "addr:postcode": "74523", "addr:state": "OK", "addr:street": "West C Street", "brand": "Family Dollar", "brand:wikidata": "Q5433101", "building": "yes", "description": "Discount General Store", "name": "Family Dollar", "opening_hours": "08:00-22:00", "phone": "+1 580 298 5128", "shop": "variety_store", "smoking": "outside", "toilets:wheelchair": "no", "wheelchair": "yes"}}}, {"type": "Feature", "geometry": {"type": "Polygon", "coordinates": [[[-95.6097097, 34.2318467], [-95.6094499, 34.2318437], [-95.6094523, 34.231703], [-95.6097121, 34.2317061], [-95.6097097, 34.2318467]]]}, "properties": {"osm_id": 1030570222, "building": "yes", "name": "E-Z Mart", "height": null, "height_m": null, "levels": null, "tract_id": "40127097701", "tract_name": "977.01", "tags": {"building": "yes", "name": "E-Z Mart", "shop": "convenience"}}}, {"type": "Feature", "geometry": {"type": "Polygon", "coordinates": [[[-95.6095469, 34.2319193], [-95.6095428, 34.2319931], [-95.6093434, 34.2319855], [-95.6093474, 34.2319118], [-95.6095469, 34.2319193]]]}, "properties": {"osm_id": 1030570223, "building": "yes", "name": "E-Z Mart", "height": null, "height_m": null, "levels": null, "tract_id": "40127097701", "tract_name": "977.01", "tags": {"amenity": "fuel", "building": "yes", "name": "E-Z Mart"}}}, {"type": "Feature", "geometry": {"type": "Polygon", "coordinates": [[[-95.6085955, 34.2326363], [-95.6085937, 34.2324775], [-95.6087474, 34.2324763], [-95.6087492, 34.2326351], [-95.6085955, 34.2326363]]]}, "properties": {"osm_id": 1030570224, "building": "yes", "name": "", "height": null, "height_m": null, "levels": null, "tract_id": "40127097701", "tract_name": "977.01", "tags": {"building": "yes", "shop": "alcohol"}}}, {"type": "Feature", "geometry": {"type": "Polygon", "coordinates": [[[-95.6076513, 34.2314569], [-95.6076513, 34.2316379], [-95.6078229, 34.231637], [-95.6078229, 34.2316202], [-95.6079098, 34.2316166], [-95.6079098, 34.2316388], [-95.6084248, 34.2316352], [-95.6084259, 34.2316193], [-95.6085139, 34.231621], [-95.608515, 34.2316645], [-95.6087896, 34.2316601], [-95.6087885, 34.2316193], [-95.608986, 34.2316166], [-95.6089849, 34.2312813], [-95.6084195, 34.2312875], [-95.6084195, 34.2313399], [-95.6079077, 34.2313381], [-95.6079088, 34.2314809], [-95.6078197, 34.2314836], [-95.6078187, 34.2314534], [-95.6076513, 34.2314569]]]}, "properties": {"osm_id": 1073143981, "building": "yes", "name": "", "height": null, "height_m": null, "levels": null, "tract_id": "40127097701", "tract_name": "977.01", "tags": {"building": "yes", "shop": "mall"}}}, {"type": "Feature", "geometry": {"type": "Polygon", "coordinates": [[[-95.6145474, 34.2330621], [-95.6146302, 34.2330577], [-95.6146375, 34.2331519], [-95.6145548, 34.2331564], [-95.6145474, 34.2330621]]]}, "properties": {"osm_id": 1134390970, "building": "yes", "name": "", "height": null, "height_m": null, "levels": null, "tract_id": "40127097701", "tract_name": "977.01", "tags": {"building": "yes"}}}, {"type": "Feature", "geometry": {"type": "Polygon", "coordinates": [[[-95.6126055, 34.2327167], [-95.612608, 34.2326609], [-95.6126804, 34.2326631], [-95.6126779, 34.2327189], [-95.6126055, 34.2327167]]]}, "properties": {"osm_id": 1134390971, "building": "yes", "name": "", "height": null, "height_m": null, "levels": null, "tract_id": "40127097701", "tract_name": "977.01", "tags": {"building": "yes"}}}, {"type": "Feature", "geometry": {"type": "Polygon", "coordinates": [[[-95.6136435, 34.2322533], [-95.6136265, 34.2321682], [-95.613878, 34.2321338], [-95.613895, 34.2322189], [-95.6136435, 34.2322533]]]}, "properties": {"osm_id": 1134390972, "building": "yes", "name": "", "height": null, "height_m": null, "levels": null, "tract_id": "40127097701", "tract_name": "977.01", "tags": {"building": "yes"}}}, {"type": "Feature", "geometry": {"type": "Polygon", "coordinates": [[[-95.6161621, 34.2308834], [-95.6160294, 34.2308967], [-95.6160183, 34.230821], [-95.616151, 34.2308077], [-95.6161621, 34.2308834]]]}, "properties": {"osm_id": 1134390973, "building": "yes", "name": "", "height": null, "height_m": null, "levels": null, "tract_id": "40127097701", "tract_name": "977.01", "tags": {"building": "yes"}}}, {"type": "Feature", "geometry": {"type": "Polygon", "coordinates": [[[-95.6162024, 34.2307675], [-95.6162948, 34.2307606], [-95.6163082, 34.2308831], [-95.6162158, 34.23089], [-95.6162024, 34.2307675]]]}, "properties": {"osm_id": 1134390974, "building": "yes", "name": "", "height": null, "height_m": null, "levels": null, "tract_id": "40127097701", "tract_name": "977.01", "tags": {"building": "yes"}}}, {"type": "Feature", "geometry": {"type": "Polygon", "coordinates": [[[-95.6159918, 34.231303], [-95.6158738, 34.2313158], [-95.6158619, 34.2312409], [-95.61598, 34.2312281], [-95.6159918, 34.231303]]]}, "properties": {"osm_id": 1134390975, "building": "yes", "name": "", "height": null, "height_m": null, "levels": null, "tract_id": "40127097701", "tract_name": "977.01", "tags": {"building": "yes"}}}, {"type": "Feature", "geometry": {"type": "Polygon", "coordinates": [[[-95.6178363, 34.2335355], [-95.6178311, 34.23345], [-95.6179179, 34.2334464], [-95.6179231, 34.2335319], [-95.6178363, 34.2335355]]]}, "properties": {"osm_id": 1134390976, "building": "yes", "name": "", "height": null, "height_m": null, "levels": null, "tract_id": "40127097701", "tract_name": "977.01", "tags": {"building": "yes"}}}, {"type": "Feature", "geometry": {"type": "Polygon", "coordinates": [[[-95.6177795, 34.2332129], [-95.6178103, 34.2335411], [-95.6176106, 34.2335539], [-95.6175798, 34.2332257], [-95.6177795, 34.2332129]]]}, "properties": {"osm_id": 1134390977, "building": "yes", "name": "", "height": null, "height_m": null, "levels": null, "tract_id": "40127097701", "tract_name": "977.01", "tags": {"building": "yes"}}}, {"type": "Feature", "geometry": {"type": "Polygon", "coordinates": [[[-95.6177808, 34.233061], [-95.6177666, 34.2328528], [-95.6180267, 34.2328406], [-95.618041, 34.2330488], [-95.6177808, 34.233061]]]}, "properties": {"osm_id": 1134390978, "building": "yes", "name": "", "height": null, "height_m": null, "levels": null, "tract_id": "40127097701", "tract_name": "977.01", "tags": {"building": "yes"}}}, {"type": "Feature", "geometry": {"type": "Polygon", "coordinates": [[[-95.6189287, 34.2321627], [-95.6189387, 34.2322183], [-95.6188826, 34.2322252], [-95.6188726, 34.2321695], [-95.6189287, 34.2321627]]]}, "properties": {"osm_id": 1134390979, "building": "yes", "name": "", "height": null, "height_m": null, "levels": null, "tract_id": "40127097701", "tract_name": "977.01", "tags": {"building": "yes"}}}, {"type": "Feature", "geometry": {"type": "Polygon", "coordinates": [[[-95.6254607, 34.2314598], [-95.625272, 34.2314872], [-95.6252409, 34.2313413], [-95.6254296, 34.2313139], [-95.6254607, 34.2314598]]]}, "properties": {"osm_id": 1134390980, "building": "yes", "name": "", "height": null, "height_m": null, "levels": null, "tract_id": "40127097701", "tract_name": "977.01", "tags": {"building": "yes"}}}, {"type": "Feature", "geometry": {"type": "Polygon", "coordinates": [[[-95.626504, 34.2307104], [-95.6262063, 34.2307586], [-95.6261821, 34.2306563], [-95.6264798, 34.230608], [-95.626504, 34.2307104]]]}, "properties": {"osm_id": 1134390981, "building": "yes", "name": "", "height": null, "height_m": null, "levels": null, "tract_id": "40127097701", "tract_name": "977.01", "tags": {"building": "yes"}}}, {"type": "Feature", "geometry": {"type": "Polygon", "coordinates": [[[-95.6233518, 34.2304925], [-95.6234048, 34.2307597], [-95.6231533, 34.2307938], [-95.6231003, 34.2305266], [-95.6233518, 34.2304925]]]}, "properties": {"osm_id": 1134390982, "building": "yes", "name": "", "height": null, "height_m": null, "levels": null, "tract_id": "40127097701", "tract_name": "977.01", "tags": {"building": "yes"}}}, {"type": "Feature", "geometry": {"type": "Polygon", "coordinates": [[[-95.6221947, 34.2291351], [-95.6222612, 34.2292231], [-95.6221171, 34.2292976], [-95.6220506, 34.2292096], [-95.6221947, 34.2291351]]]}, "properties": {"osm_id": 1134390983, "building": "yes", "name": "", "height": null, "height_m": null, "levels": null, "tract_id": "40127097701", "tract_name": "977.01", "tags": {"building": "yes"}}}, {"type": "Feature", "geometry": {"type": "Polygon", "coordinates": [[[-95.6225002, 34.2290339], [-95.6226789, 34.2289364], [-95.6228398, 34.2291382], [-95.6226611, 34.2292357], [-95.6225002, 34.2290339]]]}, "properties": {"osm_id": 1134390984, "building": "yes", "name": "", "height": null, "height_m": null, "levels": null, "tract_id": "40127097701", "tract_name": "977.01", "tags": {"building": "yes"}}}, {"type": "Feature", "geometry": {"type": "Polygon", "coordinates": [[[-95.6229173, 34.2288474], [-95.6230341, 34.2287918], [-95.623164, 34.2289784], [-95.6230472, 34.229034], [-95.6229173, 34.2288474]]]}, "properties": {"osm_id": 1134390985, "building": "yes", "name": "", "height": null, "height_m": null, "levels": null, "tract_id": "40127097701", "tract_name": "977.01", "tags": {"building": "yes"}}}, {"type": "Feature", "geometry": {"type": "Polygon", "coordinates": [[[-95.6244071, 34.2288842], [-95.6243199, 34.2289277], [-95.6242755, 34.2288669], [-95.6243627, 34.2288234], [-95.6244071, 34.2288842]]]}, "properties": {"osm_id": 1134390986, "building": "yes", "name": "", "height": null, "height_m": null, "levels": null, "tract_id": "40127097701", "tract_name": "977.01", "tags": {"building": "yes"}}}, {"type": "Feature", "geometry": {"type": "Polygon", "coordinates": [[[-95.6242611, 34.2289799], [-95.6241428, 34.2290414], [-95.6239816, 34.2288297], [-95.6240998, 34.2287682], [-95.6242611, 34.2289799]]]}, "properties": {"osm_id": 1134390987, "building": "yes", "name": "", "height": null, "height_m": null, "levels": null, "tract_id": "40127097701", "tract_name": "977.01", "tags": {"building": "yes"}}}, {"type": "Feature", "geometry": {"type": "Polygon", "coordinates": [[[-95.6248225, 34.2288764], [-95.6246802, 34.2289485], [-95.6246117, 34.2288562], [-95.624754, 34.2287841], [-95.6248225, 34.2288764]]]}, "properties": {"osm_id": 1134390988, "building": "yes", "name": "", "height": null, "height_m": null, "levels": null, "tract_id": "40127097701", "tract_name": "977.01", "tags": {"building": "yes"}}}, {"type": "Feature", "geometry": {"type": "Polygon", "coordinates": [[[-95.6254178, 34.2276062], [-95.6253822, 34.2274815], [-95.6254673, 34.2274649], [-95.6255028, 34.2275897], [-95.6254178, 34.2276062]]]}, "properties": {"osm_id": 1134390989, "building": "yes", "name": "", "height": null, "height_m": null, "levels": null, "tract_id": "40127097701", "tract_name": "977.01", "tags": {"building": "yes"}}}, {"type": "Feature", "geometry": {"type": "Polygon", "coordinates": [[[-95.6255163, 34.2272525], [-95.6254365, 34.2271494], [-95.6255373, 34.2270961], [-95.6256171, 34.2271992], [-95.6255163, 34.2272525]]]}, "properties": {"osm_id": 1134390990, "building": "yes", "name": "", "height": null, "height_m": null, "levels": null, "tract_id": "40127097701", "tract_name": "977.01", "tags": {"building": "yes"}}}, {"type": "Feature", "geometry": {"type": "Polygon", "coordinates": [[[-95.6252682, 34.2266743], [-95.6252246, 34.2266016], [-95.6252961, 34.2265723], [-95.6253397, 34.226645], [-95.6252682, 34.2266743]]]}, "properties": {"osm_id": 1134390991, "building": "yes", "name": "", "height": null, "height_m": null, "levels": null, "tract_id": "40127097701", "tract_name": "977.01", "tags": {"building": "yes"}}}, {"type": "Feature", "geometry": {"type": "Polygon", "coordinates": [[[-95.6251672, 34.2263709], [-95.6251046, 34.2263983], [-95.6250696, 34.2263437], [-95.6251322, 34.2263163], [-95.6251672, 34.2263709]]]}, "properties": {"osm_id": 1134390992, "building": "yes", "name": "", "height": null, "height_m": null, "levels": null, "tract_id": "40127097701", "tract_name": "977.01", "tags": {"building": "yes"}}}, {"type": "Feature", "geometry": {"type": "Polygon", "coordinates": [[[-95.6255394, 34.2262145], [-95.6256097, 34.2261854], [-95.6256524, 34.2262559], [-95.625582, 34.226285], [-95.6255394, 34.2262145]]]}, "properties": {"osm_id": 1134390993, "building": "yes", "name": "", "height": null, "height_m": null, "levels": null, "tract_id": "40127097701", "tract_name": "977.01", "tags": {"building": "yes"}}}, {"type": "Feature", "geometry": {"type": "Polygon", "coordinates": [[[-95.6252492, 34.2259882], [-95.6252933, 34.2260643], [-95.6252235, 34.226092], [-95.6251794, 34.2260159], [-95.6252492, 34.2259882]]]}, "properties": {"osm_id": 1134390994, "building": "yes", "name": "", "height": null, "height_m": null, "levels": null, "tract_id": "40127097701", "tract_name": "977.01", "tags": {"building": "yes"}}}, {"type": "Feature", "geometry": {"type": "Polygon", "coordinates": [[[-95.6254198, 34.2260838], [-95.625452, 34.2260161], [-95.6255439, 34.226046], [-95.6255116, 34.2261137], [-95.6254198, 34.2260838]]]}, "properties": {"osm_id": 1134390995, "building": "yes", "name": "", "height": null, "height_m": null, "levels": null, "tract_id": "40127097701", "tract_name": "977.01", "tags": {"building": "yes"}}}, {"type": "Feature", "geometry": {"type": "Polygon", "coordinates": [[[-95.6261326, 34.2252793], [-95.6260682, 34.2253142], [-95.6260278, 34.2252633], [-95.6260921, 34.2252284], [-95.6261326, 34.2252793]]]}, "properties": {"osm_id": 1134390996, "building": "yes", "name": "", "height": null, "height_m": null, "levels": null, "tract_id": "40127097701", "tract_name": "977.01", "tags": {"building": "yes"}}}, {"type": "Feature", "geometry": {"type": "Polygon", "coordinates": [[[-95.6260353, 34.2253281], [-95.6258717, 34.2254179], [-95.6258201, 34.2253537], [-95.6259838, 34.2252639], [-95.6260353, 34.2253281]]]}, "properties": {"osm_id": 1134390997, "building": "yes", "name": "", "height": null, "height_m": null, "levels": null, "tract_id": "40127097701", "tract_name": "977.01", "tags": {"building": "yes"}}}, {"type": "Feature", "geometry": {"type": "Polygon", "coordinates": [[[-95.6261782, 34.2251967], [-95.6261802, 34.2249627], [-95.6262723, 34.2249633], [-95.6262703, 34.2251972], [-95.6261782, 34.2251967]]]}, "properties": {"osm_id": 1134390998, "building": "yes", "name": "", "height": null, "height_m": null, "levels": null, "tract_id": "40127097701", "tract_name": "977.01", "tags": {"building": "yes"}}}, {"type": "Feature", "geometry": {"type": "Polygon", "coordinates": [[[-95.624662, 34.2226612], [-95.6249327, 34.2226506], [-95.6249528, 34.2229999], [-95.6246822, 34.2230105], [-95.624662, 34.2226612]]]}, "properties": {"osm_id": 1134390999, "building": "yes", "name": "", "height": null, "height_m": null, "levels": null, "tract_id": "40127097701", "tract_name": "977.01", "tags": {"building": "yes"}}}, {"type": "Feature", "geometry": {"type": "Polygon", "coordinates": [[[-95.6213649, 34.223278], [-95.621363, 34.2236818], [-95.6212018, 34.2236813], [-95.6212037, 34.2232775], [-95.6213649, 34.223278]]]}, "properties": {"osm_id": 1134391000, "building": "yes", "name": "", "height": null, "height_m": null, "levels": null, "tract_id": "40127097701", "tract_name": "977.01", "tags": {"building": "yes"}}}, {"type": "Feature", "geometry": {"type": "Polygon", "coordinates": [[[-95.6225565, 34.2226834], [-95.6223071, 34.2226845], [-95.6223061, 34.2225428], [-95.6225556, 34.2225417], [-95.6225565, 34.2226834]]]}, "properties": {"osm_id": 1134391002, "building": "yes", "name": "", "height": null, "height_m": null, "levels": null, "tract_id": "40127097701", "tract_name": "977.01", "tags": {"building": "yes"}}}, {"type": "Feature", "geometry": {"type": "Polygon", "coordinates": [[[-95.6209794, 34.2246739], [-95.6210311, 34.2246733], [-95.6210325, 34.2247609], [-95.6209807, 34.2247615], [-95.6209794, 34.2246739]]]}, "properties": {"osm_id": 1134391003, "building": "yes", "name": "", "height": null, "height_m": null, "levels": null, "tract_id": "40127097701", "tract_name": "977.01", "tags": {"building": "yes"}}}, {"type": "Feature", "geometry": {"type": "Polygon", "coordinates": [[[-95.6379953, 34.2286879], [-95.6379926, 34.2285294], [-95.6380973, 34.2285281], [-95.6380999, 34.2286867], [-95.6379953, 34.2286879]]]}, "properties": {"osm_id": 1134391004, "building": "yes", "name": "", "height": null, "height_m": null, "levels": null, "tract_id": "40127097701", "tract_name": "977.01", "tags": {"building": "yes"}}}, {"type": "Feature", "geometry": {"type": "Polygon", "coordinates": [[[-95.6381254, 34.2287644], [-95.6381415, 34.2291082], [-95.638024, 34.2291119], [-95.6380079, 34.2287682], [-95.6381254, 34.2287644]]]}, "properties": {"osm_id": 1134391005, "building": "yes", "name": "", "height": null, "height_m": null, "levels": null, "tract_id": "40127097701", "tract_name": "977.01", "tags": {"building": "yes"}}}, {"type": "Feature", "geometry": {"type": "Polygon", "coordinates": [[[-95.6392234, 34.2306381], [-95.6390423, 34.2306365], [-95.6390435, 34.230541], [-95.6392246, 34.2305426], [-95.6392234, 34.2306381]]]}, "properties": {"osm_id": 1134391008, "building": "yes", "name": "", "height": null, "height_m": null, "levels": null, "tract_id": "40127097701", "tract_name": "977.01", "tags": {"building": "yes"}}}, {"type": "Feature", "geometry": {"type": "Polygon", "coordinates": [[[-95.638386, 34.2306287], [-95.6381907, 34.2306452], [-95.6381746, 34.2305147], [-95.63837, 34.2304982], [-95.638386, 34.2306287]]]}, "properties": {"osm_id": 1134391009, "building": "yes", "name": "", "height": null, "height_m": null, "levels": null, "tract_id": "40127097701", "tract_name": "977.01", "tags": {"building": "yes"}}}, {"type": "Feature", "geometry": {"type": "Polygon", "coordinates": [[[-95.6389199, 34.2305425], [-95.6389171, 34.2306339], [-95.638735, 34.2306299], [-95.6387379, 34.2305385], [-95.6389199, 34.2305425]]]}, "properties": {"osm_id": 1134391010, "building": "yes", "name": "", "height": null, "height_m": null, "levels": null, "tract_id": "40127097701", "tract_name": "977.01", "tags": {"building": "yes"}}}, {"type": "Feature", "geometry": {"type": "Polygon", "coordinates": [[[-95.6386829, 34.2305001], [-95.6386648, 34.2303504], [-95.6387775, 34.2303411], [-95.6387956, 34.2304909], [-95.6386829, 34.2305001]]]}, "properties": {"osm_id": 1134391011, "building": "yes", "name": "", "height": null, "height_m": null, "levels": null, "tract_id": "40127097701", "tract_name": "977.01", "tags": {"building": "yes"}}}, {"type": "Feature", "geometry": {"type": "Polygon", "coordinates": [[[-95.6386612, 34.2302913], [-95.6386115, 34.2301493], [-95.6387198, 34.2301234], [-95.6387694, 34.2302654], [-95.6386612, 34.2302913]]]}, "properties": {"osm_id": 1134391012, "building": "yes", "name": "", "height": null, "height_m": null, "levels": null, "tract_id": "40127097701", "tract_name": "977.01", "tags": {"building": "yes"}}}, {"type": "Feature", "geometry": {"type": "Polygon", "coordinates": [[[-95.6385463, 34.2300458], [-95.638516, 34.2298992], [-95.6386272, 34.2298834], [-95.6386576, 34.23003], [-95.6385463, 34.2300458]]]}, "properties": {"osm_id": 1134391013, "building": "yes", "name": "", "height": null, "height_m": null, "levels": null, "tract_id": "40127097701", "tract_name": "977.01", "tags": {"building": "yes"}}}, {"type": "Feature", "geometry": {"type": "Polygon", "coordinates": [[[-95.6382521, 34.22982], [-95.6381442, 34.2298007], [-95.6381837, 34.2296499], [-95.6382917, 34.2296692], [-95.6382521, 34.22982]]]}, "properties": {"osm_id": 1134391014, "building": "yes", "name": "", "height": null, "height_m": null, "levels": null, "tract_id": "40127097701", "tract_name": "977.01", "tags": {"building": "yes"}}}, {"type": "Feature", "geometry": {"type": "Polygon", "coordinates": [[[-95.638681, 34.2297012], [-95.6386468, 34.2298494], [-95.6385358, 34.2298319], [-95.6385699, 34.2296837], [-95.638681, 34.2297012]]]}, "properties": {"osm_id": 1134391015, "building": "yes", "name": "", "height": null, "height_m": null, "levels": null, "tract_id": "40127097701", "tract_name": "977.01", "tags": {"building": "yes"}}}, {"type": "Feature", "geometry": {"type": "Polygon", "coordinates": [[[-95.6387578, 34.2309564], [-95.6385861, 34.2309517], [-95.6385903, 34.2308468], [-95.638762, 34.2308515], [-95.6387578, 34.2309564]]]}, "properties": {"osm_id": 1134391017, "building": "yes", "name": "", "height": null, "height_m": null, "levels": null, "tract_id": "40127097701", "tract_name": "977.01", "tags": {"building": "yes"}}}, {"type": "Feature", "geometry": {"type": "Polygon", "coordinates": [[[-95.6389873, 34.2309596], [-95.6388128, 34.2309564], [-95.638815, 34.2308714], [-95.6389895, 34.2308745], [-95.6389873, 34.2309596]]]}, "properties": {"osm_id": 1134391018, "building": "yes", "name": "", "height": null, "height_m": null, "levels": null, "tract_id": "40127097701", "tract_name": "977.01", "tags": {"building": "yes"}}}, {"type": "Feature", "geometry": {"type": "Polygon", "coordinates": [[[-95.6392111, 34.2309635], [-95.6390385, 34.2309611], [-95.6390403, 34.230868], [-95.6392129, 34.2308703], [-95.6392111, 34.2309635]]]}, "properties": {"osm_id": 1134391019, "building": "yes", "name": "", "height": null, "height_m": null, "levels": null, "tract_id": "40127097701", "tract_name": "977.01", "tags": {"building": "yes"}}}, {"type": "Feature", "geometry": {"type": "Polygon", "coordinates": [[[-95.6367052, 34.2316529], [-95.6360695, 34.2315331], [-95.6361149, 34.2313684], [-95.6367506, 34.2314881], [-95.6367052, 34.2316529]]]}, "properties": {"osm_id": 1134391020, "building": "yes", "name": "", "height": null, "height_m": null, "levels": null, "tract_id": "40127097701", "tract_name": "977.01", "tags": {"building": "yes"}}}, {"type": "Feature", "geometry": {"type": "Polygon", "coordinates": [[[-95.6339664, 34.2306588], [-95.633753, 34.2305426], [-95.6338365, 34.2304377], [-95.6339256, 34.2304862], [-95.6339394, 34.2304689], [-95.6340637, 34.2305365], [-95.6339664, 34.2306588]]]}, "properties": {"osm_id": 1134391021, "building": "yes", "name": "", "height": null, "height_m": null, "levels": null, "tract_id": "40127097701", "tract_name": "977.01", "tags": {"building": "yes"}}}, {"type": "Feature", "geometry": {"type": "Polygon", "coordinates": [[[-95.6337795, 34.2307725], [-95.6338318, 34.2307141], [-95.6339505, 34.2307868], [-95.6338982, 34.2308451], [-95.6337795, 34.2307725]]]}, "properties": {"osm_id": 1134391022, "building": "roof", "name": "", "height": null, "height_m": null, "levels": null, "tract_id": "40127097701", "tract_name": "977.01", "tags": {"building": "roof", "layer": "1"}}}, {"type": "Feature", "geometry": {"type": "Polygon", "coordinates": [[[-95.634088, 34.230798], [-95.6340994, 34.2307329], [-95.6342294, 34.2307484], [-95.6342181, 34.2308135], [-95.634088, 34.230798]]]}, "properties": {"osm_id": 1134391023, "building": "roof", "name": "", "height": null, "height_m": null, "levels": null, "tract_id": "40127097701", "tract_name": "977.01", "tags": {"building": "roof", "layer": "1"}}}, {"type": "Feature", "geometry": {"type": "Polygon", "coordinates": [[[-95.6349436, 34.2300407], [-95.6349463, 34.2298838], [-95.6350419, 34.2298849], [-95.6350393, 34.2300418], [-95.6349436, 34.2300407]]]}, "properties": {"osm_id": 1134391024, "building": "yes", "name": "", "height": null, "height_m": null, "levels": null, "tract_id": "40127097701", "tract_name": "977.01", "tags": {"building": "yes"}}}, {"type": "Feature", "geometry": {"type": "Polygon", "coordinates": [[[-95.6353562, 34.2287854], [-95.6353562, 34.2286317], [-95.6354539, 34.2286317], [-95.6354539, 34.2287854], [-95.6353562, 34.2287854]]]}, "properties": {"osm_id": 1134391025, "building": "yes", "name": "", "height": null, "height_m": null, "levels": null, "tract_id": "40127097701", "tract_name": "977.01", "tags": {"building": "yes"}}}, {"type": "Feature", "geometry": {"type": "Polygon", "coordinates": [[[-95.6416847, 34.2279417], [-95.6416898, 34.2278566], [-95.6418239, 34.2278622], [-95.6418188, 34.2279472], [-95.6416847, 34.2279417]]]}, "properties": {"osm_id": 1134391026, "building": "yes", "name": "", "height": null, "height_m": null, "levels": null, "tract_id": "40127097701", "tract_name": "977.01", "tags": {"building": "yes"}}}, {"type": "Feature", "geometry": {"type": "Polygon", "coordinates": [[[-95.6418134, 34.2280858], [-95.6416807, 34.2280814], [-95.6416849, 34.2279936], [-95.6418177, 34.2279981], [-95.6418134, 34.2280858]]]}, "properties": {"osm_id": 1134391027, "building": "yes", "name": "", "height": null, "height_m": null, "levels": null, "tract_id": "40127097701", "tract_name": "977.01", "tags": {"building": "yes"}}}, {"type": "Feature", "geometry": {"type": "Polygon", "coordinates": [[[-95.6416169, 34.2290975], [-95.6411086, 34.2290943], [-95.6411105, 34.2288822], [-95.6416188, 34.2288854], [-95.6416169, 34.2290975]]]}, "properties": {"osm_id": 1134391028, "building": "yes", "name": "", "height": null, "height_m": null, "levels": null, "tract_id": "40127097701", "tract_name": "977.01", "tags": {"building": "yes"}}}, {"type": "Feature", "geometry": {"type": "Polygon", "coordinates": [[[-95.6397454, 34.2285149], [-95.6399793, 34.2285124], [-95.6399847, 34.2288573], [-95.6397508, 34.2288598], [-95.6397454, 34.2285149]]]}, "properties": {"osm_id": 1134391029, "building": "yes", "name": "", "height": null, "height_m": null, "levels": null, "tract_id": "40127097701", "tract_name": "977.01", "tags": {"building": "yes"}}}, {"type": "Feature", "geometry": {"type": "Polygon", "coordinates": [[[-95.6419507, 34.2323058], [-95.641763, 34.2325864], [-95.6416111, 34.232517], [-95.6417988, 34.2322363], [-95.6419507, 34.2323058]]]}, "properties": {"osm_id": 1134391030, "building": "yes", "name": "", "height": null, "height_m": null, "levels": null, "tract_id": "40127097701", "tract_name": "977.01", "tags": {"building": "yes"}}}, {"type": "Feature", "geometry": {"type": "Polygon", "coordinates": [[[-95.6197765, 34.2368929], [-95.6194217, 34.236901], [-95.6194175, 34.2367753], [-95.6197723, 34.2367672], [-95.6197765, 34.2368929]]]}, "properties": {"osm_id": 1134391034, "building": "yes", "name": "", "height": null, "height_m": null, "levels": null, "tract_id": "40127097701", "tract_name": "977.01", "tags": {"building": "yes"}}}, {"type": "Feature", "geometry": {"type": "Polygon", "coordinates": [[[-95.6006578, 34.2321811], [-95.6007485, 34.2322103], [-95.6007087, 34.2322949], [-95.6006179, 34.2322658], [-95.6006578, 34.2321811]]]}, "properties": {"osm_id": 1134391036, "building": "yes", "name": "", "height": null, "height_m": null, "levels": null, "tract_id": "40127097701", "tract_name": "977.01", "tags": {"building": "yes"}}}, {"type": "Feature", "geometry": {"type": "Polygon", "coordinates": [[[-95.6003496, 34.2355053], [-95.6001865, 34.2355076], [-95.6001848, 34.2354274], [-95.6003479, 34.2354251], [-95.6003496, 34.2355053]]]}, "properties": {"osm_id": 1134391037, "building": "yes", "name": "", "height": null, "height_m": null, "levels": null, "tract_id": "40127097701", "tract_name": "977.01", "tags": {"building": "yes"}}}, {"type": "Feature", "geometry": {"type": "Polygon", "coordinates": [[[-95.6048218, 34.2355962], [-95.6048199, 34.2353579], [-95.60505, 34.2353566], [-95.6050519, 34.235595], [-95.6048218, 34.2355962]]]}, "properties": {"osm_id": 1134391039, "building": "yes", "name": "", "height": null, "height_m": null, "levels": null, "tract_id": "40127097701", "tract_name": "977.01", "tags": {"building": "yes"}}}, {"type": "Feature", "geometry": {"type": "Polygon", "coordinates": [[[-95.6065202, 34.2354026], [-95.6065211, 34.2356056], [-95.6064008, 34.235606], [-95.6063999, 34.235403], [-95.6065202, 34.2354026]]]}, "properties": {"osm_id": 1134391040, "building": "yes", "name": "", "height": null, "height_m": null, "levels": null, "tract_id": "40127097701", "tract_name": "977.01", "tags": {"building": "yes"}}}, {"type": "Feature", "geometry": {"type": "Polygon", "coordinates": [[[-95.6059759, 34.2358393], [-95.6060487, 34.2358378], [-95.6060534, 34.2359969], [-95.6059806, 34.2359984], [-95.6059759, 34.2358393]]]}, "properties": {"osm_id": 1134391041, "building": "yes", "name": "", "height": null, "height_m": null, "levels": null, "tract_id": "40127097701", "tract_name": "977.01", "tags": {"building": "yes"}}}, {"type": "Feature", "geometry": {"type": "Polygon", "coordinates": [[[-95.6058213, 34.2361215], [-95.6056183, 34.2361254], [-95.6056155, 34.2360245], [-95.6058184, 34.2360205], [-95.6058213, 34.2361215]]]}, "properties": {"osm_id": 1134391042, "building": "yes", "name": "", "height": null, "height_m": null, "levels": null, "tract_id": "40127097701", "tract_name": "977.01", "tags": {"building": "yes"}}}, {"type": "Feature", "geometry": {"type": "Polygon", "coordinates": [[[-95.6048311, 34.2359027], [-95.6050468, 34.2359036], [-95.6050441, 34.236346], [-95.6048284, 34.2363451], [-95.6048311, 34.2359027]]]}, "properties": {"osm_id": 1134391043, "building": "yes", "name": "", "height": null, "height_m": null, "levels": null, "tract_id": "40127097701", "tract_name": "977.01", "tags": {"building": "yes"}}}, {"type": "Feature", "geometry": {"type": "Polygon", "coordinates": [[[-95.6083193, 34.2374738], [-95.6081289, 34.2374671], [-95.608136, 34.2373289], [-95.6083264, 34.2373356], [-95.6083193, 34.2374738]]]}, "properties": {"osm_id": 1134391044, "building": "yes", "name": "", "height": null, "height_m": null, "levels": null, "tract_id": "40127097701", "tract_name": "977.01", "tags": {"building": "yes"}}}, {"type": "Feature", "geometry": {"type": "Polygon", "coordinates": [[[-95.6057634, 34.2367769], [-95.6057672, 34.2370278], [-95.6056577, 34.2370289], [-95.6056539, 34.236778], [-95.6057634, 34.2367769]]]}, "properties": {"osm_id": 1134391045, "building": "yes", "name": "", "height": null, "height_m": null, "levels": null, "tract_id": "40127097701", "tract_name": "977.01", "tags": {"building": "yes"}}}, {"type": "Feature", "geometry": {"type": "Polygon", "coordinates": [[[-95.6059958, 34.2370043], [-95.605896, 34.2370053], [-95.6058922, 34.2367592], [-95.605992, 34.2367581], [-95.6059958, 34.2370043]]]}, "properties": {"osm_id": 1134391046, "building": "yes", "name": "", "height": null, "height_m": null, "levels": null, "tract_id": "40127097701", "tract_name": "977.01", "tags": {"building": "yes"}}}, {"type": "Feature", "geometry": {"type": "Polygon", "coordinates": [[[-95.6061124, 34.2367401], [-95.6062208, 34.2367394], [-95.6062237, 34.2370514], [-95.6061153, 34.2370521], [-95.6061124, 34.2367401]]]}, "properties": {"osm_id": 1134391047, "building": "yes", "name": "", "height": null, "height_m": null, "levels": null, "tract_id": "40127097701", "tract_name": "977.01", "tags": {"building": "yes"}}}, {"type": "Feature", "geometry": {"type": "Polygon", "coordinates": [[[-95.6058209, 34.2377044], [-95.605825, 34.2374836], [-95.6063507, 34.2374903], [-95.6063466, 34.237711], [-95.6058209, 34.2377044]]]}, "properties": {"osm_id": 1134391048, "building": "yes", "name": "", "height": null, "height_m": null, "levels": null, "tract_id": "40127097701", "tract_name": "977.01", "tags": {"building": "yes"}}}, {"type": "Feature", "geometry": {"type": "Polygon", "coordinates": [[[-95.6064405, 34.2379333], [-95.6061181, 34.2379294], [-95.6061211, 34.2377634], [-95.6064435, 34.2377673], [-95.6064405, 34.2379333]]]}, "properties": {"osm_id": 1134391049, "building": "yes", "name": "", "height": null, "height_m": null, "levels": null, "tract_id": "40127097701", "tract_name": "977.01", "tags": {"building": "yes"}}}, {"type": "Feature", "geometry": {"type": "Polygon", "coordinates": [[[-95.60614, 34.2391124], [-95.6061414, 34.2390021], [-95.606229, 34.2390028], [-95.6062276, 34.2391132], [-95.60614, 34.2391124]]]}, "properties": {"osm_id": 1134391050, "building": "yes", "name": "", "height": null, "height_m": null, "levels": null, "tract_id": "40127097701", "tract_name": "977.01", "tags": {"building": "yes"}}}, {"type": "Feature", "geometry": {"type": "Polygon", "coordinates": [[[-95.6050664, 34.2445521], [-95.6051293, 34.2445644], [-95.6051094, 34.2446341], [-95.6050465, 34.2446219], [-95.6050664, 34.2445521]]]}, "properties": {"osm_id": 1134391056, "building": "yes", "name": "", "height": null, "height_m": null, "levels": null, "tract_id": "40127097701", "tract_name": "977.01", "tags": {"building": "yes"}}}, {"type": "Feature", "geometry": {"type": "Polygon", "coordinates": [[[-95.6046139, 34.2447272], [-95.6045093, 34.2447266], [-95.6045097, 34.2446744], [-95.6046143, 34.244675], [-95.6046139, 34.2447272]]]}, "properties": {"osm_id": 1134391057, "building": "yes", "name": "", "height": null, "height_m": null, "levels": null, "tract_id": "40127097701", "tract_name": "977.01", "tags": {"building": "yes"}}}, {"type": "Feature", "geometry": {"type": "Polygon", "coordinates": [[[-95.6048472, 34.2448031], [-95.6048425, 34.2449456], [-95.6047006, 34.2449424], [-95.6047053, 34.2447999], [-95.6048472, 34.2448031]]]}, "properties": {"osm_id": 1134391058, "building": "yes", "name": "", "height": null, "height_m": null, "levels": null, "tract_id": "40127097701", "tract_name": "977.01", "tags": {"building": "yes"}}}, {"type": "Feature", "geometry": {"type": "Polygon", "coordinates": [[[-95.6048915, 34.2451712], [-95.6050481, 34.245184], [-95.6050307, 34.2453293], [-95.604874, 34.2453164], [-95.6048915, 34.2451712]]]}, "properties": {"osm_id": 1134391059, "building": "yes", "name": "", "height": null, "height_m": null, "levels": null, "tract_id": "40127097701", "tract_name": "977.01", "tags": {"building": "yes"}}}, {"type": "Feature", "geometry": {"type": "Polygon", "coordinates": [[[-95.6073122, 34.2432189], [-95.6073216, 34.243067], [-95.6074627, 34.243073], [-95.6074533, 34.2432249], [-95.6073122, 34.2432189]]]}, "properties": {"osm_id": 1134391060, "building": "yes", "name": "", "height": null, "height_m": null, "levels": null, "tract_id": "40127097701", "tract_name": "977.01", "tags": {"building": "yes"}}}, {"type": "Feature", "geometry": {"type": "Polygon", "coordinates": [[[-95.6059201, 34.2432045], [-95.6059161, 34.2433331], [-95.6057841, 34.2433303], [-95.6057881, 34.2432017], [-95.6059201, 34.2432045]]]}, "properties": {"osm_id": 1134391061, "building": "yes", "name": "", "height": null, "height_m": null, "levels": null, "tract_id": "40127097701", "tract_name": "977.01", "tags": {"building": "yes"}}}, {"type": "Feature", "geometry": {"type": "Polygon", "coordinates": [[[-95.6060904, 34.2435504], [-95.6061146, 34.2433774], [-95.6062175, 34.2433873], [-95.6061934, 34.2435602], [-95.6060904, 34.2435504]]]}, "properties": {"osm_id": 1134391062, "building": "yes", "name": "", "height": null, "height_m": null, "levels": null, "tract_id": "40127097701", "tract_name": "977.01", "tags": {"building": "yes"}}}, {"type": "Feature", "geometry": {"type": "Polygon", "coordinates": [[[-95.6061246, 34.2425], [-95.6061246, 34.2423747], [-95.6063285, 34.2423747], [-95.6063285, 34.2425], [-95.6061246, 34.2425]]]}, "properties": {"osm_id": 1134391063, "building": "yes", "name": "", "height": null, "height_m": null, "levels": null, "tract_id": "40127097701", "tract_name": "977.01", "tags": {"building": "yes"}}}, {"type": "Feature", "geometry": {"type": "Polygon", "coordinates": [[[-95.6065003, 34.2426644], [-95.6064984, 34.2423563], [-95.6065806, 34.242356], [-95.6065825, 34.2426641], [-95.6065003, 34.2426644]]]}, "properties": {"osm_id": 1134391064, "building": "yes", "name": "", "height": null, "height_m": null, "levels": null, "tract_id": "40127097701", "tract_name": "977.01", "tags": {"building": "yes"}}}, {"type": "Feature", "geometry": {"type": "Polygon", "coordinates": [[[-95.6063675, 34.242285], [-95.6059019, 34.2422819], [-95.6059031, 34.2421602], [-95.6063687, 34.2421633], [-95.6063675, 34.242285]]]}, "properties": {"osm_id": 1134391065, "building": "yes", "name": "", "height": null, "height_m": null, "levels": null, "tract_id": "40127097701", "tract_name": "977.01", "tags": {"building": "yes"}}}, {"type": "Feature", "geometry": {"type": "Polygon", "coordinates": [[[-95.6214488, 34.2413065], [-95.6210089, 34.2413076], [-95.6210083, 34.2411514], [-95.6214482, 34.2411502], [-95.6214488, 34.2413065]]]}, "properties": {"osm_id": 1134391066, "building": "yes", "name": "", "height": null, "height_m": null, "levels": null, "tract_id": "40127097701", "tract_name": "977.01", "tags": {"building": "yes"}}}, {"type": "Feature", "geometry": {"type": "Polygon", "coordinates": [[[-95.6331117, 34.2335866], [-95.6328481, 34.2335899], [-95.6328468, 34.2335149], [-95.6331103, 34.2335116], [-95.6331117, 34.2335866]]]}, "properties": {"osm_id": 1134391068, "building": "yes", "name": "", "height": null, "height_m": null, "levels": null, "tract_id": "40127097701", "tract_name": "977.01", "tags": {"building": "yes"}}}, {"type": "Feature", "geometry": {"type": "Polygon", "coordinates": [[[-95.6414942, 34.2364737], [-95.6414352, 34.2367465], [-95.6413116, 34.2367282], [-95.6413706, 34.2364554], [-95.6414942, 34.2364737]]]}, "properties": {"osm_id": 1134391069, "building": "yes", "name": "", "height": null, "height_m": null, "levels": null, "tract_id": "40127097701", "tract_name": "977.01", "tags": {"building": "yes"}}}, {"type": "Feature", "geometry": {"type": "Polygon", "coordinates": [[[-95.641513, 34.2367542], [-95.641572, 34.2364804], [-95.6416933, 34.2364982], [-95.6416342, 34.2367721], [-95.641513, 34.2367542]]]}, "properties": {"osm_id": 1134391070, "building": "yes", "name": "", "height": null, "height_m": null, "levels": null, "tract_id": "40127097701", "tract_name": "977.01", "tags": {"building": "yes"}}}, {"type": "Feature", "geometry": {"type": "Polygon", "coordinates": [[[-95.6416482, 34.2363277], [-95.6416066, 34.2363777], [-95.6414359, 34.2362805], [-95.6414775, 34.2362305], [-95.6416482, 34.2363277]]]}, "properties": {"osm_id": 1134391071, "building": "yes", "name": "", "height": null, "height_m": null, "levels": null, "tract_id": "40127097701", "tract_name": "977.01", "tags": {"building": "yes"}}}, {"type": "Feature", "geometry": {"type": "Polygon", "coordinates": [[[-95.6414823, 34.2361003], [-95.6415229, 34.2360504], [-95.6417932, 34.2362009], [-95.6417525, 34.2362509], [-95.6414823, 34.2361003]]]}, "properties": {"osm_id": 1134391072, "building": "yes", "name": "", "height": null, "height_m": null, "levels": null, "tract_id": "40127097701", "tract_name": "977.01", "tags": {"building": "yes"}}}, {"type": "Feature", "geometry": {"type": "Polygon", "coordinates": [[[-95.6420806, 34.2355351], [-95.6421606, 34.2355676], [-95.6420743, 34.2357126], [-95.6419943, 34.2356801], [-95.6420806, 34.2355351]]]}, "properties": {"osm_id": 1134391073, "building": "yes", "name": "", "height": null, "height_m": null, "levels": null, "tract_id": "40127097701", "tract_name": "977.01", "tags": {"building": "yes"}}}, {"type": "Feature", "geometry": {"type": "Polygon", "coordinates": [[[-95.641444, 34.2354415], [-95.6415231, 34.235348], [-95.6416726, 34.2354344], [-95.6415935, 34.235528], [-95.641444, 34.2354415]]]}, "properties": {"osm_id": 1134391074, "building": "yes", "name": "", "height": null, "height_m": null, "levels": null, "tract_id": "40127097701", "tract_name": "977.01", "tags": {"building": "yes"}}}, {"type": "Feature", "geometry": {"type": "Polygon", "coordinates": [[[-95.6414835, 34.2354964], [-95.6415734, 34.2355501], [-95.6415287, 34.2356011], [-95.6414389, 34.2355473], [-95.6414835, 34.2354964]]]}, "properties": {"osm_id": 1134391075, "building": "roof", "name": "", "height": null, "height_m": null, "levels": null, "tract_id": "40127097701", "tract_name": "977.01", "tags": {"building": "roof", "layer": "1"}}}, {"type": "Feature", "geometry": {"type": "Polygon", "coordinates": [[[-95.6417149, 34.2354897], [-95.6417618, 34.2354366], [-95.6418811, 34.2355087], [-95.6418342, 34.2355618], [-95.6417149, 34.2354897]]]}, "properties": {"osm_id": 1134391076, "building": "roof", "name": "", "height": null, "height_m": null, "levels": null, "tract_id": "40127097701", "tract_name": "977.01", "tags": {"building": "roof", "layer": "1"}}}, {"type": "Feature", "geometry": {"type": "Polygon", "coordinates": [[[-95.6391267, 34.2338189], [-95.6389503, 34.2337052], [-95.6390354, 34.233615], [-95.6392118, 34.2337286], [-95.6391267, 34.2338189]]]}, "properties": {"osm_id": 1134391077, "building": "roof", "name": "", "height": null, "height_m": null, "levels": null, "tract_id": "40127097701", "tract_name": "977.01", "tags": {"building": "roof", "layer": "1"}}}, {"type": "Feature", "geometry": {"type": "Polygon", "coordinates": [[[-95.6391782, 34.2341043], [-95.6392478, 34.2340279], [-95.6393832, 34.2341121], [-95.6393136, 34.2341886], [-95.6391782, 34.2341043]]]}, "properties": {"osm_id": 1134391078, "building": "roof", "name": "", "height": null, "height_m": null, "levels": null, "tract_id": "40127097701", "tract_name": "977.01", "tags": {"building": "roof", "layer": "1"}}}, {"type": "Feature", "geometry": {"type": "Polygon", "coordinates": [[[-95.6393874, 34.2342374], [-95.6394589, 34.2341546], [-95.6395997, 34.2342378], [-95.6395282, 34.2343205], [-95.6393874, 34.2342374]]]}, "properties": {"osm_id": 1134391079, "building": "roof", "name": "", "height": null, "height_m": null, "levels": null, "tract_id": "40127097701", "tract_name": "977.01", "tags": {"building": "roof", "layer": "1"}}}, {"type": "Feature", "geometry": {"type": "Polygon", "coordinates": [[[-95.6385207, 34.2345331], [-95.6385876, 34.23445], [-95.6387431, 34.2345354], [-95.6386762, 34.2346186], [-95.6385207, 34.2345331]]]}, "properties": {"osm_id": 1134391080, "building": "yes", "name": "", "height": null, "height_m": null, "levels": null, "tract_id": "40127097701", "tract_name": "977.01", "tags": {"building": "yes"}}}, {"type": "Feature", "geometry": {"type": "Polygon", "coordinates": [[[-95.6387995, 34.2349032], [-95.6388804, 34.2348052], [-95.6391042, 34.2349314], [-95.6390233, 34.2350294], [-95.6387995, 34.2349032]]]}, "properties": {"osm_id": 1134391081, "building": "yes", "name": "", "height": null, "height_m": null, "levels": null, "tract_id": "40127097701", "tract_name": "977.01", "tags": {"building": "yes"}}}, {"type": "Feature", "geometry": {"type": "Polygon", "coordinates": [[[-95.6400219, 34.2356911], [-95.6393903, 34.2353399], [-95.6395246, 34.2351748], [-95.6401562, 34.2355261], [-95.6400219, 34.2356911]]]}, "properties": {"osm_id": 1134391082, "building": "yes", "name": "HiWay Inn Express Hotel & Suites", "height": null, "height_m": null, "levels": null, "tract_id": "40127097701", "tract_name": "977.01", "tags": {"building": "yes", "name": "HiWay Inn Express Hotel & Suites", "tourism": "motel"}}}, {"type": "Feature", "geometry": {"type": "Polygon", "coordinates": [[[-95.6253848, 34.231851], [-95.625216, 34.231869], [-95.6252021, 34.2317801], [-95.6253709, 34.231762], [-95.6253848, 34.231851]]]}, "properties": {"osm_id": 1134391084, "building": "yes", "name": "", "height": null, "height_m": null, "levels": null, "tract_id": "40127097701", "tract_name": "977.01", "tags": {"building": "yes"}}}, {"type": "Feature", "geometry": {"type": "Polygon", "coordinates": [[[-95.6258409, 34.231942], [-95.6256399, 34.2319545], [-95.6256294, 34.2318394], [-95.6258304, 34.2318268], [-95.6258409, 34.231942]]]}, "properties": {"osm_id": 1134391085, "building": "yes", "name": "", "height": null, "height_m": null, "levels": null, "tract_id": "40127097701", "tract_name": "977.01", "tags": {"building": "yes"}}}, {"type": "Feature", "geometry": {"type": "Polygon", "coordinates": [[[-95.6228851, 34.2310253], [-95.6229334, 34.2312947], [-95.6227796, 34.2313136], [-95.6227313, 34.2310441], [-95.6228851, 34.2310253]]]}, "properties": {"osm_id": 1134391086, "building": "yes", "name": "", "height": null, "height_m": null, "levels": null, "tract_id": "40127097701", "tract_name": "977.01", "tags": {"building": "yes"}}}, {"type": "Feature", "geometry": {"type": "Polygon", "coordinates": [[[-95.6232625, 34.2316088], [-95.6229979, 34.231677], [-95.6229224, 34.2314767], [-95.623187, 34.2314085], [-95.6232625, 34.2316088]]]}, "properties": {"osm_id": 1134391087, "building": "yes", "name": "", "height": null, "height_m": null, "levels": null, "tract_id": "40127097701", "tract_name": "977.01", "tags": {"building": "yes"}}}, {"type": "Feature", "geometry": {"type": "Polygon", "coordinates": [[[-95.6208764, 34.2311112], [-95.6208453, 34.2308501], [-95.6209305, 34.2308431], [-95.6209617, 34.2311043], [-95.6208764, 34.2311112]]]}, "properties": {"osm_id": 1134391088, "building": "yes", "name": "", "height": null, "height_m": null, "levels": null, "tract_id": "40127097701", "tract_name": "977.01", "tags": {"building": "yes"}}}, {"type": "Feature", "geometry": {"type": "Polygon", "coordinates": [[[-95.6207795, 34.2311162], [-95.6206223, 34.2311317], [-95.6205907, 34.2309127], [-95.620748, 34.2308972], [-95.6207795, 34.2311162]]]}, "properties": {"osm_id": 1134391089, "building": "yes", "name": "", "height": null, "height_m": null, "levels": null, "tract_id": "40127097701", "tract_name": "977.01", "tags": {"building": "yes"}}}, {"type": "Feature", "geometry": {"type": "Polygon", "coordinates": [[[-95.6194572, 34.2309976], [-95.6194805, 34.2311592], [-95.6194963, 34.2312675], [-95.6193702, 34.2312812], [-95.6193333, 34.231009], [-95.6194572, 34.2309976]]]}, "properties": {"osm_id": 1134391090, "building": "yes", "name": "", "height": null, "height_m": null, "levels": null, "tract_id": "40127097701", "tract_name": "977.01", "tags": {"building": "yes"}}}, {"type": "Feature", "geometry": {"type": "Polygon", "coordinates": [[[-95.6197509, 34.2309635], [-95.6197926, 34.2312371], [-95.6196819, 34.231249], [-95.6196417, 34.230973], [-95.6197509, 34.2309635]]]}, "properties": {"osm_id": 1134391091, "building": "yes", "name": "", "height": null, "height_m": null, "levels": null, "tract_id": "40127097701", "tract_name": "977.01", "tags": {"building": "yes"}}}, {"type": "Feature", "geometry": {"type": "Polygon", "coordinates": [[[-95.6128122, 34.2334614], [-95.6126832, 34.2334528], [-95.6126924, 34.2333585], [-95.6128214, 34.2333671], [-95.6128122, 34.2334614]]]}, "properties": {"osm_id": 1134391092, "building": "yes", "name": "", "height": null, "height_m": null, "levels": null, "tract_id": "40127097701", "tract_name": "977.01", "tags": {"building": "yes"}}}, {"type": "Feature", "geometry": {"type": "Polygon", "coordinates": [[[-95.6123162, 34.23237], [-95.6123059, 34.2322656], [-95.6125031, 34.2322522], [-95.6125135, 34.2323567], [-95.6123162, 34.23237]]]}, "properties": {"osm_id": 1134391093, "building": "yes", "name": "", "height": null, "height_m": null, "levels": null, "tract_id": "40127097701", "tract_name": "977.01", "tags": {"building": "yes"}}}, {"type": "Feature", "geometry": {"type": "Polygon", "coordinates": [[[-95.6138316, 34.2324575], [-95.6138208, 34.2323779], [-95.6139853, 34.2323626], [-95.6139961, 34.2324422], [-95.6138316, 34.2324575]]]}, "properties": {"osm_id": 1134391094, "building": "yes", "name": "", "height": null, "height_m": null, "levels": null, "tract_id": "40127097701", "tract_name": "977.01", "tags": {"building": "yes"}}}, {"type": "Feature", "geometry": {"type": "Polygon", "coordinates": [[[-95.6138676, 34.2320952], [-95.6137586, 34.2321117], [-95.6137444, 34.2320473], [-95.6138534, 34.2320309], [-95.6138676, 34.2320952]]]}, "properties": {"osm_id": 1134391095, "building": "roof", "name": "", "height": null, "height_m": null, "levels": null, "tract_id": "40127097701", "tract_name": "977.01", "tags": {"building": "roof", "layer": "1"}}}, {"type": "Feature", "geometry": {"type": "Polygon", "coordinates": [[[-95.6239439, 34.2321575], [-95.6239277, 34.2320356], [-95.6238829, 34.2320396], [-95.623876, 34.2319876], [-95.6238049, 34.231994], [-95.6238116, 34.2320452], [-95.6237066, 34.2320547], [-95.6237228, 34.2321775], [-95.6239439, 34.2321575]]]}, "properties": {"osm_id": 1149983629, "building": "yes", "name": "Kingdom Hall-Jehovahs Witness", "height": null, "height_m": null, "levels": null, "tract_id": "40127097701", "tract_name": "977.01", "tags": {"amenity": "place_of_worship", "building": "yes", "denomination": "jehovahs_witness", "ele": "159", "gnis:feature_id": "1778623", "name": "Kingdom Hall-Jehovahs Witness", "religion": "christian"}}}, {"type": "Feature", "geometry": {"type": "Polygon", "coordinates": [[[-95.6234628, 34.2321822], [-95.6234593, 34.2321524], [-95.6234181, 34.2321557], [-95.6234217, 34.2321855], [-95.6234628, 34.2321822]]]}, "properties": {"osm_id": 1155676573, "building": "shed", "name": "", "height": null, "height_m": null, "levels": null, "tract_id": "40127097701", "tract_name": "977.01", "tags": {"building": "shed"}}}, {"type": "Feature", "geometry": {"type": "Polygon", "coordinates": [[[-95.6200878, 34.2304649], [-95.6200753, 34.2303783], [-95.6198719, 34.2303985], [-95.6198845, 34.2304851], [-95.6200878, 34.2304649]]]}, "properties": {"osm_id": 1289229392, "building": "yes", "name": "Antlers Police Department", "height": null, "height_m": null, "levels": null, "tract_id": "40127097701", "tract_name": "977.01", "tags": {"addr:city": "Antlers", "addr:housenumber": "103", "addr:postcode": "74523", "addr:state": "OK", "addr:street": "Southeast 2nd Street", "amenity": "police", "building": "yes", "emergency": "psap", "name": "Antlers Police Department"}}}, {"type": "Feature", "geometry": {"type": "Polygon", "coordinates": [[[-95.6201768, 34.2305925], [-95.620163, 34.2304892], [-95.6199051, 34.2305127], [-95.6199188, 34.230616], [-95.6201768, 34.2305925]]]}, "properties": {"osm_id": 1289229393, "building": "fire_station", "name": "Antlers Fire Department", "height": null, "height_m": null, "levels": null, "tract_id": "40127097701", "tract_name": "977.01", "tags": {"addr:city": "Antlers", "addr:housenumber": "123", "addr:postcode": "74523", "addr:state": "OK", "addr:street": "South High Street", "building": "fire_station", "designation": "fire department", "name": "Antlers Fire Department", "source": "Personal Knowledge"}}}, {"type": "Feature", "geometry": {"type": "Polygon", "coordinates": [[[-95.6206189, 34.2313492], [-95.6213887, 34.2312383], [-95.6214826, 34.2313736], [-95.6213109, 34.2313847], [-95.6213297, 34.2315089], [-95.6212144, 34.2315177], [-95.6212251, 34.2315843], [-95.6211232, 34.2315954], [-95.6211151, 34.2315244], [-95.6209542, 34.2315399], [-95.6209703, 34.2316663], [-95.6208711, 34.2316752], [-95.6208684, 34.2315954], [-95.6206645, 34.2316131], [-95.6206189, 34.2313492]]]}, "properties": {"osm_id": 1395942203, "building": "yes", "name": "", "height": null, "height_m": null, "levels": null, "tract_id": "40127097701", "tract_name": "977.01", "tags": {"building": "yes"}}}, {"type": "Feature", "geometry": {"type": "Polygon", "coordinates": [[[-95.6198807, 34.2313962], [-95.6203284, 34.2313538], [-95.6203489, 34.2315016], [-95.6200383, 34.231531], [-95.6200315, 34.2314821], [-95.6198944, 34.2314951], [-95.6198807, 34.2313962]]]}, "properties": {"osm_id": 1395942204, "building": "yes", "name": "", "height": null, "height_m": null, "levels": null, "tract_id": "40127097701", "tract_name": "977.01", "tags": {"building": "yes"}}}, {"type": "Feature", "geometry": {"type": "Polygon", "coordinates": [[[-95.6199337, 34.2312235], [-95.6202808, 34.2311914], [-95.6203056, 34.231165], [-95.6202595, 34.2308238], [-95.6200848, 34.2308399], [-95.6200717, 34.2307429], [-95.6199947, 34.23075], [-95.6200346, 34.2310446], [-95.6200028, 34.2310475], [-95.6200138, 34.231129], [-95.6199221, 34.2311375], [-95.6199337, 34.2312235]]]}, "properties": {"osm_id": 1395942205, "building": "yes", "name": "", "height": null, "height_m": null, "levels": null, "tract_id": "40127097701", "tract_name": "977.01", "tags": {"building": "yes"}}}, {"type": "Feature", "geometry": {"type": "Polygon", "coordinates": [[[-95.6196819, 34.231249], [-95.6194963, 34.2312675], [-95.6194805, 34.2311592], [-95.6195424, 34.231153], [-95.619518, 34.2309853], [-95.6196417, 34.230973], [-95.6196819, 34.231249]]]}, "properties": {"osm_id": 1395942206, "building": "yes", "name": "", "height": null, "height_m": null, "levels": null, "tract_id": "40127097701", "tract_name": "977.01", "tags": {"building": "yes"}}}]}