{"type": "FeatureCollection", "features": [{"type": "Feature", "geometry": {"type": "Polygon", "coordinates": [[[-96.1875843, 35.987817], [-96.1874812, 35.9877003], [-96.1876475, 35.9876042], [-96.1877505, 35.9877209], [-96.1875843, 35.987817]]]}, "properties": {"osm_id": 64787900, "building": "yes", "name": "Gas N Go Food Mart", "height": null, "height_m": null, "levels": null, "tract_id": "40037020604", "tract_name": "206.04", "tags": {"alt_name": "Fastop", "building": "yes", "loc_name": "Bunny's", "name": "Gas N Go Food Mart", "shop": "convenience"}}}, {"type": "Feature", "geometry": {"type": "Polygon", "coordinates": [[[-96.1878405, 35.9878415], [-96.1879308, 35.9879406], [-96.1878022, 35.9880174], [-96.1877118, 35.9879184], [-96.1878405, 35.9878415]]]}, "properties": {"osm_id": 64787928, "building": "roof", "name": "Philips 66", "height": null, "height_m": null, "levels": null, "tract_id": "40037020604", "tract_name": "206.04", "tags": {"amenity": "fuel", "building": "roof", "layer": "1", "name": "Philips 66"}}}, {"type": "Feature", "geometry": {"type": "Polygon", "coordinates": [[[-96.1874381, 35.9879147], [-96.1874766, 35.9879603], [-96.1874231, 35.9879898], [-96.1873846, 35.9879442], [-96.1874381, 35.9879147]]]}, "properties": {"osm_id": 85547251, "building": "yes", "name": "Philips 66", "height": null, "height_m": null, "levels": null, "tract_id": "40037020604", "tract_name": "206.04", "tags": {"amenity": "fuel", "building": "yes", "name": "Philips 66"}}}, {"type": "Feature", "geometry": {"type": "Polygon", "coordinates": [[[-96.1376563, 35.9935854], [-96.1372312, 35.9935414], [-96.1372671, 35.9933152], [-96.1376921, 35.9933592], [-96.1376563, 35.9935854]]]}, "properties": {"osm_id": 184490601, "building": "yes", "name": "Veterans of Foreign Wars Post 1320", "height": null, "height_m": null, "levels": null, "tract_id": "40037020604", "tract_name": "206.04", "tags": {"addr:city": "Sapulpa", "addr:country": "US", "addr:housenumber": "2400", "addr:postcode": "74066", "addr:state": "OK", "addr:street": "West Dewey Avenue", "building": "yes", "name": "Veterans of Foreign Wars Post 1320"}}}, {"type": "Feature", "geometry": {"type": "Polygon", "coordinates": [[[-96.144613, 35.974185], [-96.1446825, 35.9741856], [-96.1446823, 35.974204], [-96.144702, 35.9742041], [-96.1447007, 35.9743036], [-96.1446787, 35.9743034], [-96.1446785, 35.9743196], [-96.1446517, 35.9743193], [-96.1446519, 35.9743032], [-96.1446114, 35.9743028], [-96.144613, 35.974185]]]}, "properties": {"osm_id": 257031372, "building": "yes", "name": "", "height": null, "height_m": null, "levels": null, "tract_id": "40037020604", "tract_name": "206.04", "tags": {"addr:city": "Sapulpa", "addr:country": "US", "addr:housenumber": "13569", "addr:postcode": "74066", "addr:state": "OK", "addr:street": "West Teel Road", "building": "yes"}}}, {"type": "Feature", "geometry": {"type": "Polygon", "coordinates": [[[-96.1629205, 35.9915613], [-96.1629169, 35.99147], [-96.1627786, 35.9914818], [-96.162775, 35.9914612], [-96.1627386, 35.9914641], [-96.1627458, 35.9914906], [-96.1626585, 35.9914936], [-96.1626694, 35.9915878], [-96.1629205, 35.9915613]]]}, "properties": {"osm_id": 306471394, "building": "yes", "name": "Branscum Vet", "height": null, "height_m": null, "levels": null, "tract_id": "40037020604", "tract_name": "206.04", "tags": {"amenity": "veterinary", "building": "yes", "name": "Branscum Vet"}}}, {"type": "Feature", "geometry": {"type": "Polygon", "coordinates": [[[-96.2021768, 35.9589077], [-96.2022164, 35.9586853], [-96.2023665, 35.9587028], [-96.2023627, 35.958724], [-96.2023852, 35.9587266], [-96.2023553, 35.9588949], [-96.2022222, 35.9588794], [-96.2022164, 35.9589121], [-96.202221, 35.9589126], [-96.2021771, 35.9591594], [-96.2021087, 35.9591515], [-96.2021525, 35.9589048], [-96.2021768, 35.9589077]]]}, "properties": {"osm_id": 480180590, "building": "yes", "name": "", "height": null, "height_m": null, "levels": null, "tract_id": "40037020604", "tract_name": "206.04", "tags": {"building": "yes", "source": "Bing"}}}, {"type": "Feature", "geometry": {"type": "Polygon", "coordinates": [[[-96.2026816, 35.9585725], [-96.2024815, 35.9585506], [-96.2025006, 35.9584364], [-96.2027007, 35.9584583], [-96.2026816, 35.9585725]]]}, "properties": {"osm_id": 480180592, "building": "yes", "name": "", "height": null, "height_m": null, "levels": null, "tract_id": "40037020604", "tract_name": "206.04", "tags": {"building": "yes", "source": "Bing"}}}, {"type": "Feature", "geometry": {"type": "Polygon", "coordinates": [[[-96.2026825, 35.9585913], [-96.2026586, 35.9587322], [-96.2023221, 35.9586948], [-96.202346, 35.9585538], [-96.2026825, 35.9585913]]]}, "properties": {"osm_id": 480180594, "building": "yes", "name": "", "height": null, "height_m": null, "levels": null, "tract_id": "40037020604", "tract_name": "206.04", "tags": {"building": "yes", "source": "Bing"}}}, {"type": "Feature", "geometry": {"type": "Polygon", "coordinates": [[[-96.1983102, 35.9611363], [-96.1982251, 35.9611376], [-96.1982245, 35.961108], [-96.1982368, 35.9611078], [-96.1982358, 35.9610649], [-96.1983085, 35.9610638], [-96.1983102, 35.9611363]]]}, "properties": {"osm_id": 480182932, "building": "yes", "name": "", "height": null, "height_m": null, "levels": null, "tract_id": "40037020604", "tract_name": "206.04", "tags": {"building": "yes", "source": "Bing"}}}, {"type": "Feature", "geometry": {"type": "Polygon", "coordinates": [[[-96.1980909, 35.9611034], [-96.1980909, 35.9611404], [-96.1980161, 35.9611404], [-96.1980161, 35.9611034], [-96.1980909, 35.9611034]]]}, "properties": {"osm_id": 480182933, "building": "yes", "name": "", "height": null, "height_m": null, "levels": null, "tract_id": "40037020604", "tract_name": "206.04", "tags": {"building": "yes", "source": "Bing"}}}, {"type": "Feature", "geometry": {"type": "Polygon", "coordinates": [[[-96.1973224, 35.9609686], [-96.1972606, 35.960969], [-96.1972599, 35.9609104], [-96.1973217, 35.96091], [-96.1973224, 35.9609686]]]}, "properties": {"osm_id": 480182934, "building": "yes", "name": "", "height": null, "height_m": null, "levels": null, "tract_id": "40037020604", "tract_name": "206.04", "tags": {"building": "yes", "source": "Bing"}}}, {"type": "Feature", "geometry": {"type": "Polygon", "coordinates": [[[-96.1975358, 35.9609676], [-96.1974802, 35.9609674], [-96.1974806, 35.960908], [-96.1975362, 35.9609082], [-96.1975358, 35.9609676]]]}, "properties": {"osm_id": 480182935, "building": "yes", "name": "", "height": null, "height_m": null, "levels": null, "tract_id": "40037020604", "tract_name": "206.04", "tags": {"building": "yes", "source": "Bing"}}}, {"type": "Feature", "geometry": {"type": "Polygon", "coordinates": [[[-96.1977149, 35.960966], [-96.1976613, 35.9609656], [-96.197662, 35.9609075], [-96.1977155, 35.9609079], [-96.1977149, 35.960966]]]}, "properties": {"osm_id": 480182936, "building": "yes", "name": "", "height": null, "height_m": null, "levels": null, "tract_id": "40037020604", "tract_name": "206.04", "tags": {"building": "yes", "source": "Bing"}}}, {"type": "Feature", "geometry": {"type": "Polygon", "coordinates": [[[-96.1980035, 35.9608819], [-96.1979627, 35.9608808], [-96.1979684, 35.9607502], [-96.1980092, 35.9607514], [-96.1980035, 35.9608819]]]}, "properties": {"osm_id": 480182937, "building": "yes", "name": "", "height": null, "height_m": null, "levels": null, "tract_id": "40037020604", "tract_name": "206.04", "tags": {"building": "yes", "source": "Bing"}}}, {"type": "Feature", "geometry": {"type": "Polygon", "coordinates": [[[-96.19793, 35.9607479], [-96.197921, 35.9608797], [-96.1976467, 35.9608674], [-96.1976557, 35.9607356], [-96.19793, 35.9607479]]]}, "properties": {"osm_id": 480182938, "building": "yes", "name": "", "height": null, "height_m": null, "levels": null, "tract_id": "40037020604", "tract_name": "206.04", "tags": {"building": "yes", "source": "Bing"}}}, {"type": "Feature", "geometry": {"type": "Polygon", "coordinates": [[[-96.1986877, 35.9610241], [-96.1986034, 35.961023], [-96.1986051, 35.960934], [-96.1986894, 35.9609351], [-96.1986877, 35.9610241]]]}, "properties": {"osm_id": 480182939, "building": "yes", "name": "", "height": null, "height_m": null, "levels": null, "tract_id": "40037020604", "tract_name": "206.04", "tags": {"building": "yes", "source": "Bing"}}}, {"type": "Feature", "geometry": {"type": "Polygon", "coordinates": [[[-96.1995424, 35.961066], [-96.1994098, 35.9610356], [-96.1994515, 35.9609165], [-96.1995841, 35.9609469], [-96.1995424, 35.961066]]]}, "properties": {"osm_id": 480182940, "building": "yes", "name": "", "height": null, "height_m": null, "levels": null, "tract_id": "40037020604", "tract_name": "206.04", "tags": {"building": "yes", "source": "Bing"}}}, {"type": "Feature", "geometry": {"type": "Polygon", "coordinates": [[[-96.200168, 35.9591264], [-96.2000439, 35.9591267], [-96.2000433, 35.9589441], [-96.2002107, 35.9589438], [-96.2002109, 35.9590081], [-96.2001676, 35.9590082], [-96.200168, 35.9591264]]]}, "properties": {"osm_id": 480182941, "building": "yes", "name": "", "height": null, "height_m": null, "levels": null, "tract_id": "40037020604", "tract_name": "206.04", "tags": {"building": "yes", "source": "Bing"}}}, {"type": "Feature", "geometry": {"type": "Polygon", "coordinates": [[[-96.1996055, 35.9591427], [-96.1995003, 35.959142], [-96.1995009, 35.9590829], [-96.1994599, 35.9590827], [-96.1994608, 35.9590005], [-96.1995018, 35.9590008], [-96.1995026, 35.9589243], [-96.1996185, 35.9589251], [-96.1996177, 35.9590008], [-96.199607, 35.9590008], [-96.1996055, 35.9591427]]]}, "properties": {"osm_id": 480182942, "building": "yes", "name": "", "height": null, "height_m": null, "levels": null, "tract_id": "40037020604", "tract_name": "206.04", "tags": {"building": "yes", "source": "Bing"}}}, {"type": "Feature", "geometry": {"type": "Polygon", "coordinates": [[[-96.1994455, 35.9588882], [-96.1993038, 35.9588844], [-96.1993075, 35.9587935], [-96.1994493, 35.9587973], [-96.1994455, 35.9588882]]]}, "properties": {"osm_id": 480182943, "building": "yes", "name": "", "height": null, "height_m": null, "levels": null, "tract_id": "40037020604", "tract_name": "206.04", "tags": {"building": "yes", "source": "Bing"}}}, {"type": "Feature", "geometry": {"type": "Polygon", "coordinates": [[[-96.1995833, 35.9585312], [-96.1994348, 35.9585315], [-96.1994344, 35.9584167], [-96.1994081, 35.9584167], [-96.1994081, 35.9583961], [-96.1993773, 35.9583961], [-96.1993771, 35.9583511], [-96.1994079, 35.958351], [-96.1994079, 35.9583367], [-96.1995643, 35.9583364], [-96.1995647, 35.9584569], [-96.199583, 35.9584568], [-96.1995833, 35.9585312]]]}, "properties": {"osm_id": 480182944, "building": "yes", "name": "", "height": null, "height_m": null, "levels": null, "tract_id": "40037020604", "tract_name": "206.04", "tags": {"building": "yes", "source": "Bing"}}}, {"type": "Feature", "geometry": {"type": "Polygon", "coordinates": [[[-96.2004655, 35.9587332], [-96.200372, 35.9587288], [-96.2003799, 35.9586174], [-96.2004734, 35.9586218], [-96.2004655, 35.9587332]]]}, "properties": {"osm_id": 480182945, "building": "yes", "name": "", "height": null, "height_m": null, "levels": null, "tract_id": "40037020604", "tract_name": "206.04", "tags": {"building": "yes", "source": "Bing"}}}, {"type": "Feature", "geometry": {"type": "Polygon", "coordinates": [[[-96.2005021, 35.9584064], [-96.2001855, 35.9583921], [-96.2001971, 35.9582255], [-96.2001758, 35.9582246], [-96.2001764, 35.9582164], [-96.20014, 35.9582147], [-96.200144, 35.9581571], [-96.2002016, 35.9581598], [-96.2002047, 35.9581155], [-96.2005212, 35.9581298], [-96.2005021, 35.9584064]]]}, "properties": {"osm_id": 480182946, "building": "yes", "name": "", "height": null, "height_m": null, "levels": null, "tract_id": "40037020604", "tract_name": "206.04", "tags": {"building": "yes", "source": "Bing"}}}, {"type": "Feature", "geometry": {"type": "Polygon", "coordinates": [[[-96.1500099, 35.9940366], [-96.150014, 35.9937397], [-96.1495033, 35.9937351], [-96.1495041, 35.9936746], [-96.1491662, 35.9936715], [-96.1491653, 35.993732], [-96.1488992, 35.9937296], [-96.1488951, 35.9940265], [-96.1500099, 35.9940366]]]}, "properties": {"osm_id": 614356256, "building": "yes", "name": "TNT Powersports", "height": null, "height_m": null, "levels": null, "tract_id": "40037020604", "tract_name": "206.04", "tags": {"building": "yes", "name": "TNT Powersports", "shop": "car"}}}, {"type": "Feature", "geometry": {"type": "Polygon", "coordinates": [[[-96.1442288, 35.9765911], [-96.1442402, 35.9765075], [-96.1441069, 35.9764955], [-96.1440955, 35.9765792], [-96.1442288, 35.9765911]]]}, "properties": {"osm_id": 706947532, "building": "yes", "name": "", "height": null, "height_m": null, "levels": null, "tract_id": "40037020604", "tract_name": "206.04", "tags": {"building": "yes"}}}, {"type": "Feature", "geometry": {"type": "Polygon", "coordinates": [[[-96.1444305, 35.9762292], [-96.1443317, 35.9762108], [-96.1442855, 35.9763729], [-96.1443842, 35.9763913], [-96.1444305, 35.9762292]]]}, "properties": {"osm_id": 706947533, "building": "yes", "name": "", "height": null, "height_m": null, "levels": null, "tract_id": "40037020604", "tract_name": "206.04", "tags": {"building": "yes"}}}, {"type": "Feature", "geometry": {"type": "Polygon", "coordinates": [[[-96.1446723, 35.9765989], [-96.1447051, 35.9765497], [-96.1446301, 35.9765169], [-96.1446106, 35.9765461], [-96.1445809, 35.9765331], [-96.1445413, 35.9765924], [-96.1445107, 35.976579], [-96.1444804, 35.9766243], [-96.1445054, 35.9766353], [-96.1444782, 35.976676], [-96.1445882, 35.9767241], [-96.1445999, 35.9767067], [-96.1446943, 35.9767479], [-96.1447054, 35.9767313], [-96.1447476, 35.9767498], [-96.1448041, 35.9766651], [-96.1447649, 35.976648], [-96.1447807, 35.9766243], [-96.1447036, 35.9765906], [-96.1446923, 35.9766076], [-96.1446723, 35.9765989]]]}, "properties": {"osm_id": 706947534, "building": "yes", "name": "", "height": null, "height_m": null, "levels": null, "tract_id": "40037020604", "tract_name": "206.04", "tags": {"building": "yes"}}}, {"type": "Feature", "geometry": {"type": "Polygon", "coordinates": [[[-96.1398362, 35.9933691], [-96.1398173, 35.9931781], [-96.1392294, 35.9932201], [-96.1392247, 35.9931819], [-96.1391279, 35.9931876], [-96.1391562, 35.9934207], [-96.1398362, 35.9933691]]]}, "properties": {"osm_id": 978525285, "building": "yes", "name": "Gerber Collision & Glass", "height": null, "height_m": null, "levels": null, "tract_id": "40037020604", "tract_name": "206.04", "tags": {"addr:city": "Sapulpa", "addr:housenumber": "1205", "addr:postcode": "74066", "addr:state": "OK", "addr:street": "West Dewey Avenue", "brand": "Gerber Collision & Glass", "brand:wikidata": "Q108871639", "building": "yes", "check_date": "2024-12-18", "name": "Gerber Collision & Glass", "opening_hours": "Mo-Fr 08:00-17:00", "phone": "(918) 224-7117", "service:vehicle:body_repair": "yes", "service:vehicle:glass": "yes", "shop": "car_repair", "website": "https://www.gerbercollision.com/locations/sapulpa-ok"}}}, {"type": "Feature", "geometry": {"type": "Polygon", "coordinates": [[[-96.1221863, 35.9596504], [-96.1221433, 35.9596506], [-96.1221431, 35.9596237], [-96.1221861, 35.9596235], [-96.1221863, 35.9596504]]]}, "properties": {"osm_id": 1016270024, "building": "service", "name": "", "height": null, "height_m": null, "levels": null, "tract_id": "40037020604", "tract_name": "206.04", "tags": {"building": "service"}}}, {"type": "Feature", "geometry": {"type": "Polygon", "coordinates": [[[-96.1415284, 35.9939641], [-96.1414701, 35.9939001], [-96.1414948, 35.9938854], [-96.1415531, 35.9939494], [-96.1415284, 35.9939641]]]}, "properties": {"osm_id": 1213951646, "building": "yes", "name": "", "height": null, "height_m": null, "levels": null, "tract_id": "40037020604", "tract_name": "206.04", "tags": {"building": "yes"}}}, {"type": "Feature", "geometry": {"type": "Polygon", "coordinates": [[[-96.1416156, 35.9940743], [-96.1415903, 35.9940827], [-96.1415521, 35.9940078], [-96.1415774, 35.9939994], [-96.1416156, 35.9940743]]]}, "properties": {"osm_id": 1213951647, "building": "yes", "name": "", "height": null, "height_m": null, "levels": null, "tract_id": "40037020604", "tract_name": "206.04", "tags": {"building": "yes"}}}, {"type": "Feature", "geometry": {"type": "Polygon", "coordinates": [[[-96.1416893, 35.9942387], [-96.1416636, 35.9942452], [-96.1416267, 35.9941503], [-96.1416525, 35.9941437], [-96.1416893, 35.9942387]]]}, "properties": {"osm_id": 1213951648, "building": "yes", "name": "", "height": null, "height_m": null, "levels": null, "tract_id": "40037020604", "tract_name": "206.04", "tags": {"building": "yes"}}}, {"type": "Feature", "geometry": {"type": "Polygon", "coordinates": [[[-96.141739, 35.9944302], [-96.1417185, 35.9944324], [-96.1417044, 35.9943461], [-96.1417249, 35.9943439], [-96.141739, 35.9944302]]]}, "properties": {"osm_id": 1213951649, "building": "yes", "name": "", "height": null, "height_m": null, "levels": null, "tract_id": "40037020604", "tract_name": "206.04", "tags": {"building": "yes"}}}, {"type": "Feature", "geometry": {"type": "Polygon", "coordinates": [[[-96.140188, 35.9946526], [-96.1401454, 35.9946571], [-96.1401106, 35.9944434], [-96.1401531, 35.9944388], [-96.140188, 35.9946526]]]}, "properties": {"osm_id": 1213951650, "building": "yes", "name": "", "height": null, "height_m": null, "levels": null, "tract_id": "40037020604", "tract_name": "206.04", "tags": {"building": "yes"}}}, {"type": "Feature", "geometry": {"type": "Polygon", "coordinates": [[[-96.1407425, 35.9944746], [-96.1406862, 35.9944847], [-96.1406733, 35.9944376], [-96.1407297, 35.9944275], [-96.1407425, 35.9944746]]]}, "properties": {"osm_id": 1213951652, "building": "kiosk", "name": "", "height": null, "height_m": null, "levels": null, "tract_id": "40037020604", "tract_name": "206.04", "tags": {"building": "kiosk"}}}, {"type": "Feature", "geometry": {"type": "Polygon", "coordinates": [[[-96.140185, 35.9947443], [-96.1401367, 35.9947267], [-96.1401521, 35.9946991], [-96.1402004, 35.9947167], [-96.140185, 35.9947443]]]}, "properties": {"osm_id": 1213951654, "building": "kiosk", "name": "", "height": null, "height_m": null, "levels": null, "tract_id": "40037020604", "tract_name": "206.04", "tags": {"building": "kiosk"}}}, {"type": "Feature", "geometry": {"type": "Polygon", "coordinates": [[[-96.1380905, 35.9834107], [-96.1380905, 35.9833465], [-96.1381173, 35.9833465], [-96.1381173, 35.9831242], [-96.1381441, 35.9831242], [-96.1381441, 35.9830699], [-96.1381656, 35.9830699], [-96.1381656, 35.9829028], [-96.1379296, 35.9829028], [-96.1379296, 35.9830678], [-96.1379591, 35.9830678], [-96.1379591, 35.983122], [-96.1379832, 35.983122], [-96.1379832, 35.9833456], [-96.1380047, 35.9833456], [-96.1380047, 35.9834085], [-96.1378759, 35.9834085], [-96.1378759, 35.9835105], [-96.1378062, 35.9835105], [-96.1378062, 35.9835821], [-96.1378732, 35.9835821], [-96.1378732, 35.9836863], [-96.1382192, 35.9836863], [-96.1382192, 35.9834107], [-96.1380905, 35.9834107]]]}, "properties": {"osm_id": 1235078076, "building": "yes", "name": "", "height": null, "height_m": null, "levels": null, "tract_id": "40037020604", "tract_name": "206.04", "tags": {"building": "yes", "source": "microsoft/BuildingFootprints"}}}, {"type": "Feature", "geometry": {"type": "Polygon", "coordinates": [[[-96.1389431, 35.9821016], [-96.1386977, 35.9820987], [-96.1386947, 35.9822658], [-96.1389401, 35.9822687], [-96.1389431, 35.9821016]]]}, "properties": {"osm_id": 1235078077, "building": "yes", "name": "", "height": null, "height_m": null, "levels": null, "tract_id": "40037020604", "tract_name": "206.04", "tags": {"building": "yes", "source": "microsoft/BuildingFootprints"}}}, {"type": "Feature", "geometry": {"type": "Polygon", "coordinates": [[[-96.1378104, 35.9820958], [-96.1378634, 35.9822141], [-96.137898, 35.9822148], [-96.1380182, 35.9821795], [-96.1379593, 35.9820479], [-96.1379792, 35.9820483], [-96.1380396, 35.9820639], [-96.1380656, 35.9819981], [-96.1379962, 35.9819801], [-96.1380218, 35.9819151], [-96.137887, 35.9818803], [-96.1378628, 35.9818798], [-96.1378135, 35.9820047], [-96.1377637, 35.9820037], [-96.1377609, 35.9820948], [-96.1378104, 35.9820958]]]}, "properties": {"osm_id": 1235078078, "building": "yes", "name": "", "height": null, "height_m": null, "levels": null, "tract_id": "40037020604", "tract_name": "206.04", "tags": {"building": "yes", "source": "microsoft/BuildingFootprints"}}}, {"type": "Feature", "geometry": {"type": "Polygon", "coordinates": [[[-96.1371265, 35.9788373], [-96.1372715, 35.9788794], [-96.1372945, 35.9788275], [-96.1372755, 35.9788219], [-96.1373105, 35.9787431], [-96.1371845, 35.9787065], [-96.1371265, 35.9788373]]]}, "properties": {"osm_id": 1235078080, "building": "yes", "name": "", "height": null, "height_m": null, "levels": null, "tract_id": "40037020604", "tract_name": "206.04", "tags": {"building": "yes", "source": "microsoft/BuildingFootprints"}}}, {"type": "Feature", "geometry": {"type": "Polygon", "coordinates": [[[-96.1374667, 35.9787424], [-96.1375472, 35.9787433], [-96.1375491, 35.9786305], [-96.1375759, 35.9786308], [-96.1375766, 35.9785917], [-96.1373996, 35.9785897], [-96.1373974, 35.9787199], [-96.1374671, 35.9787207], [-96.1374667, 35.9787424]]]}, "properties": {"osm_id": 1235078081, "building": "yes", "name": "", "height": null, "height_m": null, "levels": null, "tract_id": "40037020604", "tract_name": "206.04", "tags": {"building": "yes", "source": "microsoft/BuildingFootprints"}}}, {"type": "Feature", "geometry": {"type": "Polygon", "coordinates": [[[-96.137109, 35.9790515], [-96.1372592, 35.9790524], [-96.1372604, 35.9789243], [-96.1371102, 35.9789234], [-96.137109, 35.9790515]]]}, "properties": {"osm_id": 1235078082, "building": "yes", "name": "", "height": null, "height_m": null, "levels": null, "tract_id": "40037020604", "tract_name": "206.04", "tags": {"building": "yes", "source": "microsoft/BuildingFootprints"}}}, {"type": "Feature", "geometry": {"type": "Polygon", "coordinates": [[[-96.1371522, 35.9790882], [-96.1371559, 35.9792282], [-96.1373061, 35.9792256], [-96.1373035, 35.9791311], [-96.1373223, 35.9791308], [-96.1373211, 35.9790852], [-96.1371522, 35.9790882]]]}, "properties": {"osm_id": 1235078083, "building": "yes", "name": "", "height": null, "height_m": null, "levels": null, "tract_id": "40037020604", "tract_name": "206.04", "tags": {"building": "yes", "source": "microsoft/BuildingFootprints"}}}, {"type": "Feature", "geometry": {"type": "Polygon", "coordinates": [[[-96.1373367, 35.9793771], [-96.1373348, 35.9792655], [-96.1371595, 35.9792674], [-96.1371613, 35.9793791], [-96.1373367, 35.9793771]]]}, "properties": {"osm_id": 1235078084, "building": "yes", "name": "", "height": null, "height_m": null, "levels": null, "tract_id": "40037020604", "tract_name": "206.04", "tags": {"building": "yes", "source": "microsoft/BuildingFootprints"}}}, {"type": "Feature", "geometry": {"type": "Polygon", "coordinates": [[[-96.1373371, 35.979429], [-96.1371537, 35.9794262], [-96.1371508, 35.9795477], [-96.1373117, 35.9795502], [-96.137313, 35.9794938], [-96.1373355, 35.9794941], [-96.1373371, 35.979429]]]}, "properties": {"osm_id": 1235078085, "building": "yes", "name": "", "height": null, "height_m": null, "levels": null, "tract_id": "40037020604", "tract_name": "206.04", "tags": {"building": "yes", "source": "microsoft/BuildingFootprints"}}}, {"type": "Feature", "geometry": {"type": "Polygon", "coordinates": [[[-96.1373412, 35.9799141], [-96.1371965, 35.9799114], [-96.1371928, 35.9800372], [-96.1373375, 35.98004], [-96.1373412, 35.9799141]]]}, "properties": {"osm_id": 1235078086, "building": "yes", "name": "", "height": null, "height_m": null, "levels": null, "tract_id": "40037020604", "tract_name": "206.04", "tags": {"building": "yes", "source": "microsoft/BuildingFootprints"}}}, {"type": "Feature", "geometry": {"type": "Polygon", "coordinates": [[[-96.1373455, 35.9800881], [-96.1371535, 35.9800869], [-96.1371524, 35.9802041], [-96.1373068, 35.9802051], [-96.1373073, 35.9801486], [-96.1373449, 35.9801489], [-96.1373455, 35.9800881]]]}, "properties": {"osm_id": 1235078087, "building": "yes", "name": "", "height": null, "height_m": null, "levels": null, "tract_id": "40037020604", "tract_name": "206.04", "tags": {"building": "yes", "source": "microsoft/BuildingFootprints"}}}, {"type": "Feature", "geometry": {"type": "Polygon", "coordinates": [[[-96.1371569, 35.9803699], [-96.1373178, 35.9803712], [-96.1373186, 35.9803138], [-96.1373427, 35.980314], [-96.1373435, 35.9802511], [-96.1371584, 35.9802495], [-96.1371569, 35.9803699]]]}, "properties": {"osm_id": 1235078088, "building": "yes", "name": "", "height": null, "height_m": null, "levels": null, "tract_id": "40037020604", "tract_name": "206.04", "tags": {"building": "yes", "source": "microsoft/BuildingFootprints"}}}, {"type": "Feature", "geometry": {"type": "Polygon", "coordinates": [[[-96.1373402, 35.9804131], [-96.1371996, 35.9804149], [-96.137202, 35.9805386], [-96.1373426, 35.9805368], [-96.1373402, 35.9804131]]]}, "properties": {"osm_id": 1235078089, "building": "yes", "name": "", "height": null, "height_m": null, "levels": null, "tract_id": "40037020604", "tract_name": "206.04", "tags": {"building": "yes", "source": "microsoft/BuildingFootprints"}}}, {"type": "Feature", "geometry": {"type": "Polygon", "coordinates": [[[-96.1370491, 35.9809083], [-96.1371591, 35.9809095], [-96.1371585, 35.9809464], [-96.1372389, 35.9809473], [-96.1372418, 35.9807737], [-96.1370514, 35.9807716], [-96.1370491, 35.9809083]]]}, "properties": {"osm_id": 1235078090, "building": "yes", "name": "", "height": null, "height_m": null, "levels": null, "tract_id": "40037020604", "tract_name": "206.04", "tags": {"building": "yes", "source": "microsoft/BuildingFootprints"}}}, {"type": "Feature", "geometry": {"type": "Polygon", "coordinates": [[[-96.1371322, 35.9805813], [-96.13713, 35.9806746], [-96.1371407, 35.9806747], [-96.1371399, 35.9807095], [-96.1372686, 35.9807114], [-96.1372716, 35.9805834], [-96.1371322, 35.9805813]]]}, "properties": {"osm_id": 1235078091, "building": "yes", "name": "", "height": null, "height_m": null, "levels": null, "tract_id": "40037020604", "tract_name": "206.04", "tags": {"building": "yes", "source": "microsoft/BuildingFootprints"}}}, {"type": "Feature", "geometry": {"type": "Polygon", "coordinates": [[[-96.1374704, 35.9810928], [-96.1374995, 35.9810274], [-96.137395, 35.980997], [-96.1373787, 35.9810335], [-96.1373075, 35.9810127], [-96.1372601, 35.9811193], [-96.1374002, 35.9811601], [-96.1374348, 35.9810824], [-96.1374704, 35.9810928]]]}, "properties": {"osm_id": 1235078092, "building": "yes", "name": "", "height": null, "height_m": null, "levels": null, "tract_id": "40037020604", "tract_name": "206.04", "tags": {"building": "yes", "source": "microsoft/BuildingFootprints"}}}, {"type": "Feature", "geometry": {"type": "Polygon", "coordinates": [[[-96.137713, 35.9810253], [-96.1376394, 35.981024], [-96.1376399, 35.9810056], [-96.1375633, 35.9810043], [-96.1375593, 35.9811562], [-96.1377094, 35.9811588], [-96.137713, 35.9810253]]]}, "properties": {"osm_id": 1235078093, "building": "yes", "name": "", "height": null, "height_m": null, "levels": null, "tract_id": "40037020604", "tract_name": "206.04", "tags": {"building": "yes", "source": "microsoft/BuildingFootprints"}}}, {"type": "Feature", "geometry": {"type": "Polygon", "coordinates": [[[-96.1379329, 35.9810065], [-96.137831, 35.9810057], [-96.1378312, 35.9809871], [-96.1377588, 35.9809866], [-96.1377573, 35.9811115], [-96.1378282, 35.981112], [-96.1378279, 35.9811381], [-96.1378708, 35.9811384], [-96.1378711, 35.9811124], [-96.1379316, 35.9811129], [-96.1379329, 35.9810065]]]}, "properties": {"osm_id": 1235078094, "building": "yes", "name": "", "height": null, "height_m": null, "levels": null, "tract_id": "40037020604", "tract_name": "206.04", "tags": {"building": "yes", "source": "microsoft/BuildingFootprints"}}}, {"type": "Feature", "geometry": {"type": "Polygon", "coordinates": [[[-96.138131, 35.9809749], [-96.1379728, 35.9809764], [-96.1379745, 35.9810967], [-96.1380523, 35.981096], [-96.1380521, 35.9810829], [-96.1381325, 35.9810822], [-96.138131, 35.9809749]]]}, "properties": {"osm_id": 1235078095, "building": "yes", "name": "", "height": null, "height_m": null, "levels": null, "tract_id": "40037020604", "tract_name": "206.04", "tags": {"building": "yes", "source": "microsoft/BuildingFootprints"}}}, {"type": "Feature", "geometry": {"type": "Polygon", "coordinates": [[[-96.1383293, 35.9811247], [-96.1383273, 35.9809707], [-96.1382549, 35.9809713], [-96.1382553, 35.981006], [-96.1381883, 35.9810066], [-96.1381899, 35.9811259], [-96.1383293, 35.9811247]]]}, "properties": {"osm_id": 1235078096, "building": "yes", "name": "", "height": null, "height_m": null, "levels": null, "tract_id": "40037020604", "tract_name": "206.04", "tags": {"building": "yes", "source": "microsoft/BuildingFootprints"}}}, {"type": "Feature", "geometry": {"type": "Polygon", "coordinates": [[[-96.138586, 35.9809908], [-96.1385878, 35.9811232], [-96.138738, 35.9811219], [-96.1387359, 35.9809699], [-96.1386623, 35.9809706], [-96.1386626, 35.9809901], [-96.138586, 35.9809908]]]}, "properties": {"osm_id": 1235078097, "building": "yes", "name": "", "height": null, "height_m": null, "levels": null, "tract_id": "40037020604", "tract_name": "206.04", "tags": {"building": "yes", "source": "microsoft/BuildingFootprints"}}}, {"type": "Feature", "geometry": {"type": "Polygon", "coordinates": [[[-96.1383858, 35.9811229], [-96.1385359, 35.9811247], [-96.1385384, 35.9809924], [-96.1384633, 35.9809915], [-96.1384636, 35.9809719], [-96.1383885, 35.980971], [-96.1383858, 35.9811229]]]}, "properties": {"osm_id": 1235078098, "building": "yes", "name": "", "height": null, "height_m": null, "levels": null, "tract_id": "40037020604", "tract_name": "206.04", "tags": {"building": "yes", "source": "microsoft/BuildingFootprints"}}}, {"type": "Feature", "geometry": {"type": "Polygon", "coordinates": [[[-96.1387767, 35.9809781], [-96.1387762, 35.9811018], [-96.1389478, 35.9811023], [-96.1389484, 35.9809677], [-96.1388947, 35.9809676], [-96.1388947, 35.9809784], [-96.1387767, 35.9809781]]]}, "properties": {"osm_id": 1235078099, "building": "yes", "name": "", "height": null, "height_m": null, "levels": null, "tract_id": "40037020604", "tract_name": "206.04", "tags": {"building": "yes", "source": "microsoft/BuildingFootprints"}}}, {"type": "Feature", "geometry": {"type": "Polygon", "coordinates": [[[-96.1389886, 35.9809719], [-96.1389904, 35.9810791], [-96.139162, 35.9810772], [-96.1391599, 35.9809514], [-96.139086, 35.9809522], [-96.1390864, 35.9809708], [-96.1389886, 35.9809719]]]}, "properties": {"osm_id": 1235078100, "building": "yes", "name": "", "height": null, "height_m": null, "levels": null, "tract_id": "40037020604", "tract_name": "206.04", "tags": {"building": "yes", "source": "microsoft/BuildingFootprints"}}}, {"type": "Feature", "geometry": {"type": "Polygon", "coordinates": [[[-96.1393907, 35.9810821], [-96.1393864, 35.9809476], [-96.1393355, 35.9809487], [-96.1393358, 35.9809595], [-96.1392045, 35.9809623], [-96.1392084, 35.9810837], [-96.1393156, 35.9810815], [-96.1393156, 35.9810837], [-96.1393907, 35.9810821]]]}, "properties": {"osm_id": 1235078101, "building": "yes", "name": "", "height": null, "height_m": null, "levels": null, "tract_id": "40037020604", "tract_name": "206.04", "tags": {"building": "yes", "source": "microsoft/BuildingFootprints"}}}, {"type": "Feature", "geometry": {"type": "Polygon", "coordinates": [[[-96.1395943, 35.9810828], [-96.1395932, 35.9809482], [-96.1395396, 35.9809485], [-96.1395397, 35.9809616], [-96.1394136, 35.9809623], [-96.1394146, 35.9810838], [-96.1395943, 35.9810828]]]}, "properties": {"osm_id": 1235078102, "building": "yes", "name": "", "height": null, "height_m": null, "levels": null, "tract_id": "40037020604", "tract_name": "206.04", "tags": {"building": "yes", "source": "microsoft/BuildingFootprints"}}}, {"type": "Feature", "geometry": {"type": "Polygon", "coordinates": [[[-96.1397845, 35.9809726], [-96.1397135, 35.9809717], [-96.1397139, 35.9809531], [-96.1396361, 35.9809522], [-96.1396334, 35.981101], [-96.1397821, 35.9811028], [-96.1397845, 35.9809726]]]}, "properties": {"osm_id": 1235078103, "building": "yes", "name": "", "height": null, "height_m": null, "levels": null, "tract_id": "40037020604", "tract_name": "206.04", "tags": {"building": "yes", "source": "microsoft/BuildingFootprints"}}}, {"type": "Feature", "geometry": {"type": "Polygon", "coordinates": [[[-96.1399891, 35.9810786], [-96.139988, 35.9809657], [-96.1398324, 35.9809667], [-96.1398336, 35.9810796], [-96.1399891, 35.9810786]]]}, "properties": {"osm_id": 1235078104, "building": "yes", "name": "", "height": null, "height_m": null, "levels": null, "tract_id": "40037020604", "tract_name": "206.04", "tags": {"building": "yes", "source": "microsoft/BuildingFootprints"}}}, {"type": "Feature", "geometry": {"type": "Polygon", "coordinates": [[[-96.1401106, 35.9809684], [-96.14011, 35.9809879], [-96.1400403, 35.9809866], [-96.1400366, 35.9811189], [-96.1401894, 35.9811217], [-96.1401937, 35.9809699], [-96.1401106, 35.9809684]]]}, "properties": {"osm_id": 1235078105, "building": "yes", "name": "", "height": null, "height_m": null, "levels": null, "tract_id": "40037020604", "tract_name": "206.04", "tags": {"building": "yes", "source": "microsoft/BuildingFootprints"}}}, {"type": "Feature", "geometry": {"type": "Polygon", "coordinates": [[[-96.1388132, 35.9805504], [-96.1386577, 35.9805472], [-96.1386541, 35.9806621], [-96.1388095, 35.9806653], [-96.1388132, 35.9805504]]]}, "properties": {"osm_id": 1235078106, "building": "yes", "name": "", "height": null, "height_m": null, "levels": null, "tract_id": "40037020604", "tract_name": "206.04", "tags": {"building": "yes", "source": "microsoft/BuildingFootprints"}}}, {"type": "Feature", "geometry": {"type": "Polygon", "coordinates": [[[-96.1386158, 35.9805421], [-96.1384427, 35.9805407], [-96.1384412, 35.9806653], [-96.1385177, 35.9806659], [-96.138518, 35.9806476], [-96.1386145, 35.9806484], [-96.1386158, 35.9805421]]]}, "properties": {"osm_id": 1235078107, "building": "yes", "name": "", "height": null, "height_m": null, "levels": null, "tract_id": "40037020604", "tract_name": "206.04", "tags": {"building": "yes", "source": "microsoft/BuildingFootprints"}}}, {"type": "Feature", "geometry": {"type": "Polygon", "coordinates": [[[-96.1382391, 35.9806652], [-96.1383142, 35.9806658], [-96.1383144, 35.9806506], [-96.1384136, 35.9806514], [-96.1384154, 35.9805082], [-96.1382411, 35.9805067], [-96.1382391, 35.9806652]]]}, "properties": {"osm_id": 1235078108, "building": "yes", "name": "", "height": null, "height_m": null, "levels": null, "tract_id": "40037020604", "tract_name": "206.04", "tags": {"building": "yes", "source": "microsoft/BuildingFootprints"}}}, {"type": "Feature", "geometry": {"type": "Polygon", "coordinates": [[[-96.1380479, 35.9805124], [-96.1380458, 35.9806656], [-96.1381235, 35.9806663], [-96.1381239, 35.9806424], [-96.1381963, 35.9806431], [-96.1381981, 35.9805138], [-96.1380479, 35.9805124]]]}, "properties": {"osm_id": 1235078109, "building": "yes", "name": "", "height": null, "height_m": null, "levels": null, "tract_id": "40037020604", "tract_name": "206.04", "tags": {"building": "yes", "source": "microsoft/BuildingFootprints"}}}, {"type": "Feature", "geometry": {"type": "Polygon", "coordinates": [[[-96.1377788, 35.9806135], [-96.1379129, 35.9806156], [-96.1379162, 35.9804746], [-96.137758, 35.9804721], [-96.1377566, 35.9805328], [-96.1377807, 35.9805332], [-96.1377788, 35.9806135]]]}, "properties": {"osm_id": 1235078110, "building": "yes", "name": "", "height": null, "height_m": null, "levels": null, "tract_id": "40037020604", "tract_name": "206.04", "tags": {"building": "yes", "source": "microsoft/BuildingFootprints"}}}, {"type": "Feature", "geometry": {"type": "Polygon", "coordinates": [[[-96.1378812, 35.9803008], [-96.1377149, 35.9803032], [-96.1377159, 35.9803466], [-96.1377293, 35.9803464], [-96.1377314, 35.9804452], [-96.1378843, 35.9804431], [-96.1378812, 35.9803008]]]}, "properties": {"osm_id": 1235078111, "building": "yes", "name": "", "height": null, "height_m": null, "levels": null, "tract_id": "40037020604", "tract_name": "206.04", "tags": {"building": "yes", "source": "microsoft/BuildingFootprints"}}}, {"type": "Feature", "geometry": {"type": "Polygon", "coordinates": [[[-96.1378678, 35.9802782], [-96.1378719, 35.9801415], [-96.1377191, 35.9801385], [-96.1377172, 35.9801992], [-96.1377414, 35.9801997], [-96.1377391, 35.9802756], [-96.1378678, 35.9802782]]]}, "properties": {"osm_id": 1235078112, "building": "yes", "name": "", "height": null, "height_m": null, "levels": null, "tract_id": "40037020604", "tract_name": "206.04", "tags": {"building": "yes", "source": "microsoft/BuildingFootprints"}}}, {"type": "Feature", "geometry": {"type": "Polygon", "coordinates": [[[-96.1377165, 35.9799728], [-96.1377149, 35.9800347], [-96.1377432, 35.9800352], [-96.1377412, 35.9801143], [-96.1378725, 35.9801165], [-96.1378762, 35.9799755], [-96.1377165, 35.9799728]]]}, "properties": {"osm_id": 1235078113, "building": "yes", "name": "", "height": null, "height_m": null, "levels": null, "tract_id": "40037020604", "tract_name": "206.04", "tags": {"building": "yes", "source": "microsoft/BuildingFootprints"}}}, {"type": "Feature", "geometry": {"type": "Polygon", "coordinates": [[[-96.1379138, 35.979819], [-96.1377422, 35.9798224], [-96.137744, 35.9798809], [-96.1377065, 35.9798817], [-96.1377083, 35.9799412], [-96.1379174, 35.9799371], [-96.1379138, 35.979819]]]}, "properties": {"osm_id": 1235078114, "building": "yes", "name": "", "height": null, "height_m": null, "levels": null, "tract_id": "40037020604", "tract_name": "206.04", "tags": {"building": "yes", "source": "microsoft/BuildingFootprints"}}}, {"type": "Feature", "geometry": {"type": "Polygon", "coordinates": [[[-96.1378607, 35.9796469], [-96.1377116, 35.9796487], [-96.137714, 35.9797724], [-96.1378631, 35.9797705], [-96.1378607, 35.9796469]]]}, "properties": {"osm_id": 1235078115, "building": "yes", "name": "", "height": null, "height_m": null, "levels": null, "tract_id": "40037020604", "tract_name": "206.04", "tags": {"building": "yes", "source": "microsoft/BuildingFootprints"}}}, {"type": "Feature", "geometry": {"type": "Polygon", "coordinates": [[[-96.1381446, 35.9795377], [-96.1380194, 35.9794322], [-96.1379037, 35.9795222], [-96.1380289, 35.9796277], [-96.1381446, 35.9795377]]]}, "properties": {"osm_id": 1235078116, "building": "yes", "name": "", "height": null, "height_m": null, "levels": null, "tract_id": "40037020604", "tract_name": "206.04", "tags": {"building": "yes", "source": "microsoft/BuildingFootprints"}}}, {"type": "Feature", "geometry": {"type": "Polygon", "coordinates": [[[-96.1382, 35.9795806], [-96.1380962, 35.9796604], [-96.1382061, 35.9797539], [-96.1383098, 35.9796742], [-96.1382, 35.9795806]]]}, "properties": {"osm_id": 1235078117, "building": "yes", "name": "", "height": null, "height_m": null, "levels": null, "tract_id": "40037020604", "tract_name": "206.04", "tags": {"building": "yes", "source": "microsoft/BuildingFootprints"}}}, {"type": "Feature", "geometry": {"type": "Polygon", "coordinates": [[[-96.1384444, 35.9797904], [-96.1383426, 35.9797031], [-96.1382163, 35.9797996], [-96.1383181, 35.9798868], [-96.1384444, 35.9797904]]]}, "properties": {"osm_id": 1235078118, "building": "yes", "name": "", "height": null, "height_m": null, "levels": null, "tract_id": "40037020604", "tract_name": "206.04", "tags": {"building": "yes", "source": "microsoft/BuildingFootprints"}}}, {"type": "Feature", "geometry": {"type": "Polygon", "coordinates": [[[-96.138589, 35.979921], [-96.1384698, 35.9798198], [-96.138358, 35.9799061], [-96.1384772, 35.9800073], [-96.138589, 35.979921]]]}, "properties": {"osm_id": 1235078119, "building": "yes", "name": "", "height": null, "height_m": null, "levels": null, "tract_id": "40037020604", "tract_name": "206.04", "tags": {"building": "yes", "source": "microsoft/BuildingFootprints"}}}, {"type": "Feature", "geometry": {"type": "Polygon", "coordinates": [[[-96.1386162, 35.979948], [-96.1384927, 35.9800411], [-96.1385963, 35.9801311], [-96.1387198, 35.980038], [-96.1386162, 35.979948]]]}, "properties": {"osm_id": 1235078120, "building": "yes", "name": "", "height": null, "height_m": null, "levels": null, "tract_id": "40037020604", "tract_name": "206.04", "tags": {"building": "yes", "source": "microsoft/BuildingFootprints"}}}, {"type": "Feature", "geometry": {"type": "Polygon", "coordinates": [[[-96.1387131, 35.9801018], [-96.1387391, 35.980124], [-96.1386592, 35.9801853], [-96.1387604, 35.9802717], [-96.1388763, 35.9801828], [-96.1388254, 35.9801394], [-96.1388438, 35.9801253], [-96.1387674, 35.9800601], [-96.1387131, 35.9801018]]]}, "properties": {"osm_id": 1235078121, "building": "yes", "name": "", "height": null, "height_m": null, "levels": null, "tract_id": "40037020604", "tract_name": "206.04", "tags": {"building": "yes", "source": "microsoft/BuildingFootprints"}}}, {"type": "Feature", "geometry": {"type": "Polygon", "coordinates": [[[-96.1390259, 35.9803059], [-96.1389592, 35.9802544], [-96.138978, 35.9802385], [-96.1389213, 35.9801946], [-96.1388141, 35.9802854], [-96.1389375, 35.9803808], [-96.1390259, 35.9803059]]]}, "properties": {"osm_id": 1235078122, "building": "yes", "name": "", "height": null, "height_m": null, "levels": null, "tract_id": "40037020604", "tract_name": "206.04", "tags": {"building": "yes", "source": "microsoft/BuildingFootprints"}}}, {"type": "Feature", "geometry": {"type": "Polygon", "coordinates": [[[-96.1390471, 35.980472], [-96.139142, 35.9805562], [-96.1392708, 35.9804611], [-96.139176, 35.9803769], [-96.1390471, 35.980472]]]}, "properties": {"osm_id": 1235078123, "building": "yes", "name": "", "height": null, "height_m": null, "levels": null, "tract_id": "40037020604", "tract_name": "206.04", "tags": {"building": "yes", "source": "microsoft/BuildingFootprints"}}}, {"type": "Feature", "geometry": {"type": "Polygon", "coordinates": [[[-96.1390025, 35.9804844], [-96.1388631, 35.980526], [-96.1389275, 35.9806674], [-96.1390021, 35.9806452], [-96.138993, 35.9806253], [-96.1390578, 35.9806059], [-96.1390025, 35.9804844]]]}, "properties": {"osm_id": 1235078124, "building": "yes", "name": "", "height": null, "height_m": null, "levels": null, "tract_id": "40037020604", "tract_name": "206.04", "tags": {"building": "yes", "source": "microsoft/BuildingFootprints"}}}, {"type": "Feature", "geometry": {"type": "Polygon", "coordinates": [[[-96.1403954, 35.9809737], [-96.1402357, 35.9809719], [-96.1402339, 35.9810791], [-96.1403936, 35.9810808], [-96.1403954, 35.9809737]]]}, "properties": {"osm_id": 1235078143, "building": "yes", "name": "", "height": null, "height_m": null, "levels": null, "tract_id": "40037020604", "tract_name": "206.04", "tags": {"building": "yes", "source": "microsoft/BuildingFootprints"}}}, {"type": "Feature", "geometry": {"type": "Polygon", "coordinates": [[[-96.140597, 35.9809711], [-96.1404388, 35.9809727], [-96.1404405, 35.9810856], [-96.1405988, 35.981084], [-96.140597, 35.9809711]]]}, "properties": {"osm_id": 1235078144, "building": "yes", "name": "", "height": null, "height_m": null, "levels": null, "tract_id": "40037020604", "tract_name": "206.04", "tags": {"building": "yes", "source": "microsoft/BuildingFootprints"}}}, {"type": "Feature", "geometry": {"type": "Polygon", "coordinates": [[[-96.1406503, 35.9809673], [-96.1406483, 35.9811178], [-96.1407958, 35.9811191], [-96.1407976, 35.9809881], [-96.1407264, 35.9809875], [-96.1407266, 35.9809679], [-96.1406503, 35.9809673]]]}, "properties": {"osm_id": 1235078145, "building": "yes", "name": "", "height": null, "height_m": null, "levels": null, "tract_id": "40037020604", "tract_name": "206.04", "tags": {"building": "yes", "source": "microsoft/BuildingFootprints"}}}, {"type": "Feature", "geometry": {"type": "Polygon", "coordinates": [[[-96.1408578, 35.9811114], [-96.1409931, 35.9811127], [-96.1409951, 35.9809716], [-96.1408598, 35.9809703], [-96.1408578, 35.9811114]]]}, "properties": {"osm_id": 1235078146, "building": "yes", "name": "", "height": null, "height_m": null, "levels": null, "tract_id": "40037020604", "tract_name": "206.04", "tags": {"building": "yes", "source": "microsoft/BuildingFootprints"}}}, {"type": "Feature", "geometry": {"type": "Polygon", "coordinates": [[[-96.1412564, 35.981086], [-96.1414119, 35.9810845], [-96.1414103, 35.9809695], [-96.1412547, 35.980971], [-96.1412564, 35.981086]]]}, "properties": {"osm_id": 1235078147, "building": "yes", "name": "", "height": null, "height_m": null, "levels": null, "tract_id": "40037020604", "tract_name": "206.04", "tags": {"building": "yes", "source": "microsoft/BuildingFootprints"}}}, {"type": "Feature", "geometry": {"type": "Polygon", "coordinates": [[[-96.1412177, 35.9809639], [-96.141164, 35.9809644], [-96.1411642, 35.9809788], [-96.1410409, 35.9809798], [-96.1410424, 35.9811013], [-96.1412194, 35.9810999], [-96.1412177, 35.9809639]]]}, "properties": {"osm_id": 1235078148, "building": "yes", "name": "", "height": null, "height_m": null, "levels": null, "tract_id": "40037020604", "tract_name": "206.04", "tags": {"building": "yes", "source": "microsoft/BuildingFootprints"}}}, {"type": "Feature", "geometry": {"type": "Polygon", "coordinates": [[[-96.1416084, 35.9810017], [-96.141536, 35.9810008], [-96.1415365, 35.9809718], [-96.1414654, 35.9809709], [-96.1414624, 35.9811235], [-96.141606, 35.9811254], [-96.1416084, 35.9810017]]]}, "properties": {"osm_id": 1235078149, "building": "yes", "name": "", "height": null, "height_m": null, "levels": null, "tract_id": "40037020604", "tract_name": "206.04", "tags": {"building": "yes", "source": "microsoft/BuildingFootprints"}}}, {"type": "Feature", "geometry": {"type": "Polygon", "coordinates": [[[-96.1416539, 35.9810911], [-96.1418255, 35.9810889], [-96.1418235, 35.9809826], [-96.141723, 35.9809839], [-96.1417227, 35.9809651], [-96.1416515, 35.980966], [-96.1416539, 35.9810911]]]}, "properties": {"osm_id": 1235078150, "building": "yes", "name": "", "height": null, "height_m": null, "levels": null, "tract_id": "40037020604", "tract_name": "206.04", "tags": {"building": "yes", "source": "microsoft/BuildingFootprints"}}}, {"type": "Feature", "geometry": {"type": "Polygon", "coordinates": [[[-96.1422076, 35.9809695], [-96.1420655, 35.9809705], [-96.1420667, 35.9810782], [-96.1422076, 35.9809695]]]}, "properties": {"osm_id": 1235078151, "building": "yes", "name": "", "height": null, "height_m": null, "levels": null, "tract_id": "40037020604", "tract_name": "206.04", "tags": {"building": "yes"}}}, {"type": "Feature", "geometry": {"type": "Polygon", "coordinates": [[[-96.1417163, 35.9805072], [-96.1417183, 35.9806627], [-96.1417919, 35.980662], [-96.1417915, 35.9806303], [-96.1418601, 35.9806297], [-96.1418584, 35.980506], [-96.1417163, 35.9805072]]]}, "properties": {"osm_id": 1235078152, "building": "yes", "name": "", "height": null, "height_m": null, "levels": null, "tract_id": "40037020604", "tract_name": "206.04", "tags": {"building": "yes", "source": "microsoft/BuildingFootprints"}}}, {"type": "Feature", "geometry": {"type": "Polygon", "coordinates": [[[-96.1413088, 35.9806678], [-96.1414429, 35.9806664], [-96.1414418, 35.9805991], [-96.1414632, 35.9805989], [-96.1414622, 35.980536], [-96.1413067, 35.9805376], [-96.1413088, 35.9806678]]]}, "properties": {"osm_id": 1235078153, "building": "yes", "name": "", "height": null, "height_m": null, "levels": null, "tract_id": "40037020604", "tract_name": "206.04", "tags": {"building": "yes", "source": "microsoft/BuildingFootprints"}}}, {"type": "Feature", "geometry": {"type": "Polygon", "coordinates": [[[-96.1411024, 35.9806426], [-96.1412016, 35.9806442], [-96.1412011, 35.9806637], [-96.1412735, 35.9806649], [-96.1412767, 35.9805369], [-96.141215, 35.9805359], [-96.1412157, 35.9805077], [-96.1411609, 35.9805068], [-96.1411602, 35.9805372], [-96.141105, 35.9805363], [-96.1411024, 35.9806426]]]}, "properties": {"osm_id": 1235078154, "building": "yes", "name": "", "height": null, "height_m": null, "levels": null, "tract_id": "40037020604", "tract_name": "206.04", "tags": {"building": "yes", "source": "microsoft/BuildingFootprints"}}}, {"type": "Feature", "geometry": {"type": "Polygon", "coordinates": [[[-96.1410535, 35.9805086], [-96.1409129, 35.9805078], [-96.1409118, 35.9806285], [-96.1409789, 35.9806289], [-96.1409786, 35.9806623], [-96.1410522, 35.9806627], [-96.1410535, 35.9805086]]]}, "properties": {"osm_id": 1235078155, "building": "yes", "name": "", "height": null, "height_m": null, "levels": null, "tract_id": "40037020604", "tract_name": "206.04", "tags": {"building": "yes", "source": "microsoft/BuildingFootprints"}}}, {"type": "Feature", "geometry": {"type": "Polygon", "coordinates": [[[-96.1408662, 35.980531], [-96.1406972, 35.9805295], [-96.1406955, 35.9806619], [-96.1407491, 35.9806623], [-96.1407493, 35.9806515], [-96.1408646, 35.9806525], [-96.1408662, 35.980531]]]}, "properties": {"osm_id": 1235078156, "building": "yes", "name": "", "height": null, "height_m": null, "levels": null, "tract_id": "40037020604", "tract_name": "206.04", "tags": {"building": "yes", "source": "microsoft/BuildingFootprints"}}}, {"type": "Feature", "geometry": {"type": "Polygon", "coordinates": [[[-96.1405025, 35.9806438], [-96.1405803, 35.9806444], [-96.1405801, 35.9806639], [-96.1406498, 35.9806645], [-96.1406517, 35.9805126], [-96.1405042, 35.9805114], [-96.1405025, 35.9806438]]]}, "properties": {"osm_id": 1235078157, "building": "yes", "name": "", "height": null, "height_m": null, "levels": null, "tract_id": "40037020604", "tract_name": "206.04", "tags": {"building": "yes", "source": "microsoft/BuildingFootprints"}}}, {"type": "Feature", "geometry": {"type": "Polygon", "coordinates": [[[-96.140451, 35.9806221], [-96.1404515, 35.9805123], [-96.1402971, 35.9805118], [-96.1402965, 35.9806629], [-96.1403757, 35.9806632], [-96.1403759, 35.9806219], [-96.140451, 35.9806221]]]}, "properties": {"osm_id": 1235078158, "building": "yes", "name": "", "height": null, "height_m": null, "levels": null, "tract_id": "40037020604", "tract_name": "206.04", "tags": {"building": "yes", "source": "microsoft/BuildingFootprints"}}}, {"type": "Feature", "geometry": {"type": "Polygon", "coordinates": [[[-96.1402482, 35.9806445], [-96.1402501, 35.9805035], [-96.1401026, 35.9805021], [-96.1401004, 35.9806649], [-96.1401781, 35.9806656], [-96.1401784, 35.9806439], [-96.1402482, 35.9806445]]]}, "properties": {"osm_id": 1235078159, "building": "yes", "name": "", "height": null, "height_m": null, "levels": null, "tract_id": "40037020604", "tract_name": "206.04", "tags": {"building": "yes", "source": "microsoft/BuildingFootprints"}}}, {"type": "Feature", "geometry": {"type": "Polygon", "coordinates": [[[-96.1397902, 35.9804956], [-96.1398465, 35.9805431], [-96.1398655, 35.9805284], [-96.1399311, 35.9805839], [-96.1400597, 35.9804841], [-96.1399378, 35.9803812], [-96.1397902, 35.9804956]]]}, "properties": {"osm_id": 1235078160, "building": "yes", "name": "", "height": null, "height_m": null, "levels": null, "tract_id": "40037020604", "tract_name": "206.04", "tags": {"building": "yes", "source": "microsoft/BuildingFootprints"}}}, {"type": "Feature", "geometry": {"type": "Polygon", "coordinates": [[[-96.1398703, 35.9803818], [-96.1397526, 35.9802801], [-96.1396569, 35.9803527], [-96.1397211, 35.9804082], [-96.1397054, 35.9804201], [-96.1397589, 35.9804663], [-96.1398703, 35.9803818]]]}, "properties": {"osm_id": 1235078161, "building": "yes", "name": "", "height": null, "height_m": null, "levels": null, "tract_id": "40037020604", "tract_name": "206.04", "tags": {"building": "yes", "source": "microsoft/BuildingFootprints"}}}, {"type": "Feature", "geometry": {"type": "Polygon", "coordinates": [[[-96.1396443, 35.9801485], [-96.1395102, 35.9802508], [-96.1395651, 35.9802979], [-96.1395827, 35.9802844], [-96.1396291, 35.9803242], [-96.1397455, 35.9802353], [-96.1396443, 35.9801485]]]}, "properties": {"osm_id": 1235078162, "building": "yes", "name": "", "height": null, "height_m": null, "levels": null, "tract_id": "40037020604", "tract_name": "206.04", "tags": {"building": "yes", "source": "microsoft/BuildingFootprints"}}}, {"type": "Feature", "geometry": {"type": "Polygon", "coordinates": [[[-96.1394217, 35.98018], [-96.1394538, 35.9801562], [-96.1394979, 35.9801952], [-96.1396075, 35.9801141], [-96.1395126, 35.9800302], [-96.1393709, 35.980135], [-96.1394217, 35.98018]]]}, "properties": {"osm_id": 1235078163, "building": "yes", "name": "", "height": null, "height_m": null, "levels": null, "tract_id": "40037020604", "tract_name": "206.04", "tags": {"building": "yes", "source": "microsoft/BuildingFootprints"}}}, {"type": "Feature", "geometry": {"type": "Polygon", "coordinates": [[[-96.1394437, 35.9800079], [-96.13935, 35.9799273], [-96.1392347, 35.980015], [-96.1393284, 35.9800957], [-96.1394437, 35.9800079]]]}, "properties": {"osm_id": 1235078164, "building": "yes", "name": "", "height": null, "height_m": null, "levels": null, "tract_id": "40037020604", "tract_name": "206.04", "tags": {"building": "yes", "source": "microsoft/BuildingFootprints"}}}, {"type": "Feature", "geometry": {"type": "Polygon", "coordinates": [[[-96.1393172, 35.979899], [-96.1391941, 35.9797926], [-96.1390835, 35.9798764], [-96.1391651, 35.979947], [-96.1391528, 35.9799563], [-96.1391943, 35.9799921], [-96.1393172, 35.979899]]]}, "properties": {"osm_id": 1235078165, "building": "yes", "name": "", "height": null, "height_m": null, "levels": null, "tract_id": "40037020604", "tract_name": "206.04", "tags": {"building": "yes", "source": "microsoft/BuildingFootprints"}}}, {"type": "Feature", "geometry": {"type": "Polygon", "coordinates": [[[-96.1391829, 35.9797519], [-96.1390852, 35.9796675], [-96.1389431, 35.9797751], [-96.1389939, 35.9798191], [-96.1390254, 35.9797953], [-96.1390722, 35.9798358], [-96.1391829, 35.9797519]]]}, "properties": {"osm_id": 1235078166, "building": "yes", "name": "", "height": null, "height_m": null, "levels": null, "tract_id": "40037020604", "tract_name": "206.04", "tags": {"building": "yes", "source": "microsoft/BuildingFootprints"}}}, {"type": "Feature", "geometry": {"type": "Polygon", "coordinates": [[[-96.1389647, 35.9796139], [-96.1389125, 35.9795687], [-96.1388039, 35.979651], [-96.1389056, 35.9797389], [-96.13904, 35.9796372], [-96.1389905, 35.9795944], [-96.1389647, 35.9796139]]]}, "properties": {"osm_id": 1235078167, "building": "yes", "name": "", "height": null, "height_m": null, "levels": null, "tract_id": "40037020604", "tract_name": "206.04", "tags": {"building": "yes", "source": "microsoft/BuildingFootprints"}}}, {"type": "Feature", "geometry": {"type": "Polygon", "coordinates": [[[-96.1387431, 35.979587], [-96.1387321, 35.9795957], [-96.138775, 35.9796314], [-96.1388961, 35.9795359], [-96.1388559, 35.9795025], [-96.1388628, 35.9794971], [-96.1387739, 35.9794205], [-96.138664, 35.9795213], [-96.1387431, 35.979587]]]}, "properties": {"osm_id": 1235078168, "building": "yes", "name": "", "height": null, "height_m": null, "levels": null, "tract_id": "40037020604", "tract_name": "206.04", "tags": {"building": "yes", "source": "microsoft/BuildingFootprints"}}}, {"type": "Feature", "geometry": {"type": "Polygon", "coordinates": [[[-96.1384364, 35.9793417], [-96.1384692, 35.9793168], [-96.1385174, 35.9793584], [-96.1386288, 35.979274], [-96.1385298, 35.9791884], [-96.1383855, 35.9792978], [-96.1384364, 35.9793417]]]}, "properties": {"osm_id": 1235078169, "building": "yes", "name": "", "height": null, "height_m": null, "levels": null, "tract_id": "40037020604", "tract_name": "206.04", "tags": {"building": "yes", "source": "microsoft/BuildingFootprints"}}}, {"type": "Feature", "geometry": {"type": "Polygon", "coordinates": [[[-96.1386627, 35.9793082], [-96.1385199, 35.9794148], [-96.138568, 35.979457], [-96.138592, 35.9794391], [-96.1386455, 35.979486], [-96.1387643, 35.9793973], [-96.1386627, 35.9793082]]]}, "properties": {"osm_id": 1235078170, "building": "yes", "name": "", "height": null, "height_m": null, "levels": null, "tract_id": "40037020604", "tract_name": "206.04", "tags": {"building": "yes", "source": "microsoft/BuildingFootprints"}}}, {"type": "Feature", "geometry": {"type": "Polygon", "coordinates": [[[-96.138469, 35.9791781], [-96.1383498, 35.9790768], [-96.1382423, 35.9791596], [-96.1383615, 35.9792609], [-96.138469, 35.9791781]]]}, "properties": {"osm_id": 1235078171, "building": "yes", "name": "", "height": null, "height_m": null, "levels": null, "tract_id": "40037020604", "tract_name": "206.04", "tags": {"building": "yes", "source": "microsoft/BuildingFootprints"}}}, {"type": "Feature", "geometry": {"type": "Polygon", "coordinates": [[[-96.1380609, 35.9790762], [-96.1381251, 35.9791015], [-96.1381414, 35.9790744], [-96.1382064, 35.9791001], [-96.1382746, 35.9789869], [-96.1381455, 35.9789359], [-96.1380609, 35.9790762]]]}, "properties": {"osm_id": 1235078172, "building": "yes", "name": "", "height": null, "height_m": null, "levels": null, "tract_id": "40037020604", "tract_name": "206.04", "tags": {"building": "yes", "source": "microsoft/BuildingFootprints"}}}, {"type": "Feature", "geometry": {"type": "Polygon", "coordinates": [[[-96.1380382, 35.9789034], [-96.1378627, 35.9788786], [-96.1378276, 35.9790418], [-96.1379067, 35.9790529], [-96.1379128, 35.9790246], [-96.137956, 35.9790307], [-96.1379524, 35.9790476], [-96.1380055, 35.9790551], [-96.1380382, 35.9789034]]]}, "properties": {"osm_id": 1235078173, "building": "yes", "name": "", "height": null, "height_m": null, "levels": null, "tract_id": "40037020604", "tract_name": "206.04", "tags": {"building": "yes", "source": "microsoft/BuildingFootprints"}}}, {"type": "Feature", "geometry": {"type": "Polygon", "coordinates": [[[-96.1420215, 35.9809687], [-96.1418647, 35.9809665], [-96.1418622, 35.9810851], [-96.142019, 35.9810872], [-96.1420215, 35.9809687]]]}, "properties": {"osm_id": 1235078174, "building": "yes", "name": "", "height": null, "height_m": null, "levels": null, "tract_id": "40037020604", "tract_name": "206.04", "tags": {"building": "yes", "source": "microsoft/BuildingFootprints"}}}, {"type": "Feature", "geometry": {"type": "Polygon", "coordinates": [[[-96.1422619, 35.9814065], [-96.1422018, 35.9814247], [-96.1421877, 35.9813942], [-96.1420959, 35.9814218], [-96.1421126, 35.9814581], [-96.1420337, 35.9814818], [-96.142082, 35.9815866], [-96.1423128, 35.9815171], [-96.1422619, 35.9814065]]]}, "properties": {"osm_id": 1235078175, "building": "yes", "name": "", "height": null, "height_m": null, "levels": null, "tract_id": "40037020604", "tract_name": "206.04", "tags": {"building": "yes", "source": "microsoft/BuildingFootprints"}}}, {"type": "Feature", "geometry": {"type": "Polygon", "coordinates": [[[-96.1429839, 35.9816825], [-96.1428827, 35.9817002], [-96.1428924, 35.9817363], [-96.1428437, 35.9817448], [-96.1428625, 35.9818153], [-96.1428919, 35.9818102], [-96.1429011, 35.9818446], [-96.1429332, 35.981839], [-96.1429537, 35.9819157], [-96.1431113, 35.9818881], [-96.1430893, 35.981806], [-96.143056, 35.9818118], [-96.1430289, 35.9817102], [-96.142993, 35.9817165], [-96.1429839, 35.9816825]]]}, "properties": {"osm_id": 1235078176, "building": "yes", "name": "", "height": null, "height_m": null, "levels": null, "tract_id": "40037020604", "tract_name": "206.04", "tags": {"building": "yes", "source": "microsoft/BuildingFootprints"}}}, {"type": "Feature", "geometry": {"type": "Polygon", "coordinates": [[[-96.1429497, 35.982792], [-96.1429544, 35.9825815], [-96.1427721, 35.9825788], [-96.1427694, 35.9826981], [-96.1427989, 35.9826986], [-96.1427968, 35.9827897], [-96.1429497, 35.982792]]]}, "properties": {"osm_id": 1235078177, "building": "yes", "name": "", "height": null, "height_m": null, "levels": null, "tract_id": "40037020604", "tract_name": "206.04", "tags": {"building": "yes", "source": "microsoft/BuildingFootprints"}}}, {"type": "Feature", "geometry": {"type": "Polygon", "coordinates": [[[-96.1433589, 35.9821419], [-96.1434661, 35.9821451], [-96.1434704, 35.9820497], [-96.1433632, 35.9820466], [-96.1433589, 35.9821419]]]}, "properties": {"osm_id": 1235078178, "building": "yes", "name": "", "height": null, "height_m": null, "levels": null, "tract_id": "40037020604", "tract_name": "206.04", "tags": {"building": "yes", "source": "microsoft/BuildingFootprints"}}}, {"type": "Feature", "geometry": {"type": "Polygon", "coordinates": [[[-96.1440982, 35.9823652], [-96.1438904, 35.982332], [-96.1438865, 35.9823479], [-96.1438013, 35.9823342], [-96.1437833, 35.9824082], [-96.143862, 35.9824208], [-96.1438442, 35.9824939], [-96.1440584, 35.9825282], [-96.1440982, 35.9823652]]]}, "properties": {"osm_id": 1235078179, "building": "detached", "name": "", "height": null, "height_m": null, "levels": null, "tract_id": "40037020604", "tract_name": "206.04", "tags": {"addr:country": "US", "addr:housenumber": "13471", "addr:state": "OK", "addr:street": "Victory Lane", "building": "detached"}}}, {"type": "Feature", "geometry": {"type": "Polygon", "coordinates": [[[-96.1448004, 35.9825306], [-96.1449472, 35.9825595], [-96.1449805, 35.9824488], [-96.1450463, 35.9824618], [-96.1450652, 35.9823992], [-96.1450006, 35.9823865], [-96.1450129, 35.9823455], [-96.1448648, 35.9823163], [-96.1448004, 35.9825306]]]}, "properties": {"osm_id": 1235078180, "building": "yes", "name": "", "height": null, "height_m": null, "levels": null, "tract_id": "40037020604", "tract_name": "206.04", "tags": {"addr:country": "US", "addr:housenumber": "13467", "addr:state": "OK", "addr:street": "Victory Lane", "building": "yes"}}}, {"type": "Feature", "geometry": {"type": "Polygon", "coordinates": [[[-96.1429507, 35.9831857], [-96.1427416, 35.9831827], [-96.1427381, 35.9833411], [-96.1427153, 35.9833408], [-96.1427143, 35.9833842], [-96.1428552, 35.9833862], [-96.1428577, 35.9832699], [-96.1429489, 35.9832712], [-96.1429507, 35.9831857]]]}, "properties": {"osm_id": 1235078181, "building": "detached", "name": "", "height": null, "height_m": null, "levels": null, "tract_id": "40037020604", "tract_name": "206.04", "tags": {"addr:country": "US", "addr:housenumber": "1450", "addr:state": "OK", "addr:street": "Westland Road", "building": "detached"}}}, {"type": "Feature", "geometry": {"type": "Polygon", "coordinates": [[[-96.1428899, 35.9836701], [-96.1426808, 35.9836676], [-96.1426793, 35.9837492], [-96.1427303, 35.9837498], [-96.1427287, 35.9838388], [-96.1428988, 35.9838408], [-96.1428997, 35.983793], [-96.1429414, 35.9837935], [-96.1429428, 35.9837154], [-96.1428891, 35.9837148], [-96.1428899, 35.9836701]]]}, "properties": {"osm_id": 1235078182, "building": "yes", "name": "", "height": null, "height_m": null, "levels": null, "tract_id": "40037020604", "tract_name": "206.04", "tags": {"building": "yes", "source": "microsoft/BuildingFootprints"}}}, {"type": "Feature", "geometry": {"type": "Polygon", "coordinates": [[[-96.1435341, 35.983887], [-96.1436947, 35.9838923], [-96.1437004, 35.9837796], [-96.1435397, 35.9837743], [-96.1435341, 35.983887]]]}, "properties": {"osm_id": 1235078183, "building": "yes", "name": "", "height": null, "height_m": null, "levels": null, "tract_id": "40037020604", "tract_name": "206.04", "tags": {"building": "yes", "source": "microsoft/BuildingFootprints"}}}, {"type": "Feature", "geometry": {"type": "Polygon", "coordinates": [[[-96.1418171, 35.9819599], [-96.141932, 35.9819649], [-96.1419369, 35.9818935], [-96.1419837, 35.9818956], [-96.1419891, 35.9818155], [-96.1418273, 35.9818084], [-96.1418171, 35.9819599]]]}, "properties": {"osm_id": 1235078184, "building": "yes", "name": "", "height": null, "height_m": null, "levels": null, "tract_id": "40037020604", "tract_name": "206.04", "tags": {"building": "yes", "source": "microsoft/BuildingFootprints"}}}, {"type": "Feature", "geometry": {"type": "Polygon", "coordinates": [[[-96.1418823, 35.9827345], [-96.1420565, 35.9827381], [-96.1420593, 35.9826505], [-96.1420566, 35.9826504], [-96.1420597, 35.9825528], [-96.1419176, 35.9825499], [-96.1419154, 35.9826193], [-96.1418859, 35.9826187], [-96.1418823, 35.9827345]]]}, "properties": {"osm_id": 1235078185, "building": "yes", "name": "", "height": null, "height_m": null, "levels": null, "tract_id": "40037020604", "tract_name": "206.04", "tags": {"building": "yes", "source": "microsoft/BuildingFootprints"}}}, {"type": "Feature", "geometry": {"type": "Polygon", "coordinates": [[[-96.1418751, 35.9823554], [-96.1421162, 35.982362], [-96.142119, 35.9822948], [-96.1420493, 35.9822929], [-96.1420528, 35.9822105], [-96.1419028, 35.9822064], [-96.1418987, 35.982304], [-96.1418772, 35.9823034], [-96.1418751, 35.9823554]]]}, "properties": {"osm_id": 1235078186, "building": "yes", "name": "", "height": null, "height_m": null, "levels": null, "tract_id": "40037020604", "tract_name": "206.04", "tags": {"building": "yes", "source": "microsoft/BuildingFootprints"}}}, {"type": "Feature", "geometry": {"type": "Polygon", "coordinates": [[[-96.1427149, 35.9821563], [-96.1427135, 35.9822279], [-96.1427886, 35.9822288], [-96.1427873, 35.9822961], [-96.1429107, 35.9822976], [-96.1429134, 35.9821588], [-96.1427149, 35.9821563]]]}, "properties": {"osm_id": 1235078187, "building": "yes", "name": "", "height": null, "height_m": null, "levels": null, "tract_id": "40037020604", "tract_name": "206.04", "tags": {"building": "yes", "source": "microsoft/BuildingFootprints"}}}, {"type": "Feature", "geometry": {"type": "Polygon", "coordinates": [[[-96.1413602, 35.9814913], [-96.1413642, 35.9815664], [-96.1414297, 35.9815641], [-96.1414258, 35.981489], [-96.1413602, 35.9814913]]]}, "properties": {"osm_id": 1235078188, "building": "yes", "name": "", "height": null, "height_m": null, "levels": null, "tract_id": "40037020604", "tract_name": "206.04", "tags": {"building": "yes", "source": "microsoft/BuildingFootprints"}}}, {"type": "Feature", "geometry": {"type": "Polygon", "coordinates": [[[-96.1414793, 35.9823236], [-96.1413854, 35.982323], [-96.1413846, 35.9824099], [-96.1414785, 35.9824104], [-96.1414793, 35.9823236]]]}, "properties": {"osm_id": 1235078189, "building": "yes", "name": "", "height": null, "height_m": null, "levels": null, "tract_id": "40037020604", "tract_name": "206.04", "tags": {"building": "yes", "source": "microsoft/BuildingFootprints"}}}, {"type": "Feature", "geometry": {"type": "Polygon", "coordinates": [[[-96.1412892, 35.9824697], [-96.1412899, 35.9825674], [-96.1413569, 35.9825671], [-96.1413562, 35.9824694], [-96.1412892, 35.9824697]]]}, "properties": {"osm_id": 1235078190, "building": "yes", "name": "", "height": null, "height_m": null, "levels": null, "tract_id": "40037020604", "tract_name": "206.04", "tags": {"building": "yes", "source": "microsoft/BuildingFootprints"}}}, {"type": "Feature", "geometry": {"type": "Polygon", "coordinates": [[[-96.141375, 35.9829118], [-96.1413795, 35.9830289], [-96.1415148, 35.9830255], [-96.1415103, 35.9829084], [-96.141375, 35.9829118]]]}, "properties": {"osm_id": 1235078191, "building": "yes", "name": "", "height": null, "height_m": null, "levels": null, "tract_id": "40037020604", "tract_name": "206.04", "tags": {"building": "yes", "source": "microsoft/BuildingFootprints"}}}, {"type": "Feature", "geometry": {"type": "Polygon", "coordinates": [[[-96.1417286, 35.983352], [-96.1417281, 35.9834128], [-96.141771, 35.983413], [-96.1417703, 35.9835085], [-96.1418615, 35.983509], [-96.1418621, 35.9834243], [-96.1419346, 35.9834247], [-96.1419351, 35.9833574], [-96.1418761, 35.9833571], [-96.1418765, 35.9833094], [-96.141804, 35.983309], [-96.1418037, 35.9833524], [-96.1417286, 35.983352]]]}, "properties": {"osm_id": 1235078192, "building": "detached", "name": "", "height": null, "height_m": null, "levels": null, "tract_id": "40037020604", "tract_name": "206.04", "tags": {"building": "detached"}}}, {"type": "Feature", "geometry": {"type": "Polygon", "coordinates": [[[-96.1391814, 35.9781584], [-96.1390892, 35.9781591], [-96.1390889, 35.9781309], [-96.1390067, 35.9781316], [-96.1390086, 35.9782891], [-96.1390596, 35.9782887], [-96.1390598, 35.9783026], [-96.1391831, 35.9783016], [-96.1391814, 35.9781584]]]}, "properties": {"osm_id": 1235078235, "building": "yes", "name": "", "height": null, "height_m": null, "levels": null, "tract_id": "40037020604", "tract_name": "206.04", "tags": {"building": "yes", "source": "microsoft/BuildingFootprints"}}}, {"type": "Feature", "geometry": {"type": "Polygon", "coordinates": [[[-96.1389471, 35.9781333], [-96.1388488, 35.9781324], [-96.1388486, 35.978151], [-96.1387376, 35.97815], [-96.138736, 35.9782737], [-96.1389452, 35.9782756], [-96.1389471, 35.9781333]]]}, "properties": {"osm_id": 1235078236, "building": "yes", "name": "", "height": null, "height_m": null, "levels": null, "tract_id": "40037020604", "tract_name": "206.04", "tags": {"building": "yes", "source": "microsoft/BuildingFootprints"}}}, {"type": "Feature", "geometry": {"type": "Polygon", "coordinates": [[[-96.1389554, 35.9785172], [-96.139111, 35.9785147], [-96.1391096, 35.9784583], [-96.1391525, 35.9784576], [-96.1391509, 35.9783934], [-96.1389267, 35.978397], [-96.1389281, 35.9784534], [-96.1389539, 35.978453], [-96.1389554, 35.9785172]]]}, "properties": {"osm_id": 1235078237, "building": "yes", "name": "", "height": null, "height_m": null, "levels": null, "tract_id": "40037020604", "tract_name": "206.04", "tags": {"building": "yes", "source": "microsoft/BuildingFootprints"}}}, {"type": "Feature", "geometry": {"type": "Polygon", "coordinates": [[[-96.1389964, 35.978556], [-96.1389915, 35.9786914], [-96.139164, 35.9786955], [-96.1391689, 35.9785601], [-96.1389964, 35.978556]]]}, "properties": {"osm_id": 1235078238, "building": "yes", "name": "", "height": null, "height_m": null, "levels": null, "tract_id": "40037020604", "tract_name": "206.04", "tags": {"building": "yes", "source": "microsoft/BuildingFootprints"}}}, {"type": "Feature", "geometry": {"type": "Polygon", "coordinates": [[[-96.1378853, 35.9778096], [-96.1378851, 35.9778291], [-96.1379817, 35.9778296], [-96.1379827, 35.9776863], [-96.1377655, 35.9776853], [-96.1377646, 35.977809], [-96.1378853, 35.9778096]]]}, "properties": {"osm_id": 1235078239, "building": "yes", "name": "", "height": null, "height_m": null, "levels": null, "tract_id": "40037020604", "tract_name": "206.04", "tags": {"building": "yes", "source": "microsoft/BuildingFootprints"}}}, {"type": "Feature", "geometry": {"type": "Polygon", "coordinates": [[[-96.1381188, 35.9778353], [-96.1382412, 35.977833], [-96.1382392, 35.9777624], [-96.1382107, 35.9777629], [-96.1382149, 35.9776415], [-96.1381044, 35.9776455], [-96.138105, 35.9776641], [-96.1380228, 35.9776656], [-96.1380268, 35.9778044], [-96.1381179, 35.9778027], [-96.1381188, 35.9778353]]]}, "properties": {"osm_id": 1235078240, "building": "yes", "name": "", "height": null, "height_m": null, "levels": null, "tract_id": "40037020604", "tract_name": "206.04", "tags": {"building": "yes", "source": "microsoft/BuildingFootprints"}}}, {"type": "Feature", "geometry": {"type": "Polygon", "coordinates": [[[-96.1384436, 35.977635], [-96.1383552, 35.9776371], [-96.138356, 35.977661], [-96.1383024, 35.9776622], [-96.1383082, 35.9778227], [-96.1384502, 35.9778194], [-96.1384436, 35.977635]]]}, "properties": {"osm_id": 1235078241, "building": "yes", "name": "", "height": null, "height_m": null, "levels": null, "tract_id": "40037020604", "tract_name": "206.04", "tags": {"building": "yes", "source": "microsoft/BuildingFootprints"}}}, {"type": "Feature", "geometry": {"type": "Polygon", "coordinates": [[[-96.13852, 35.9777055], [-96.1385221, 35.9778193], [-96.1387554, 35.9778164], [-96.1387533, 35.9777026], [-96.13852, 35.9777055]]]}, "properties": {"osm_id": 1235078242, "building": "yes", "name": "", "height": null, "height_m": null, "levels": null, "tract_id": "40037020604", "tract_name": "206.04", "tags": {"building": "yes", "source": "microsoft/BuildingFootprints"}}}, {"type": "Feature", "geometry": {"type": "Polygon", "coordinates": [[[-96.1387977, 35.9776421], [-96.1387935, 35.9777679], [-96.1389024, 35.9777703], [-96.1389005, 35.9778267], [-96.138997, 35.9778288], [-96.1390022, 35.9776748], [-96.1389459, 35.9776736], [-96.1389468, 35.9776454], [-96.1387977, 35.9776421]]]}, "properties": {"osm_id": 1235078243, "building": "yes", "name": "", "height": null, "height_m": null, "levels": null, "tract_id": "40037020604", "tract_name": "206.04", "tags": {"building": "yes", "source": "microsoft/BuildingFootprints"}}}, {"type": "Feature", "geometry": {"type": "Polygon", "coordinates": [[[-96.1390337, 35.9778052], [-96.1391195, 35.9778052], [-96.1391195, 35.97783], [-96.1392616, 35.97783], [-96.1392616, 35.9777584], [-96.1392107, 35.9777584], [-96.1392107, 35.9776759], [-96.1391587, 35.9776759], [-96.1391587, 35.9776554], [-96.1390809, 35.9776555], [-96.1390809, 35.9776759], [-96.1390336, 35.9776759], [-96.1390337, 35.9778052]]]}, "properties": {"osm_id": 1235078244, "building": "yes", "name": "", "height": null, "height_m": null, "levels": null, "tract_id": "40037020604", "tract_name": "206.04", "tags": {"building": "yes", "source": "microsoft/BuildingFootprints"}}}, {"type": "Feature", "geometry": {"type": "Polygon", "coordinates": [[[-96.1395055, 35.977685], [-96.1393349, 35.9776871], [-96.1393362, 35.9777617], [-96.139287, 35.9777623], [-96.1392883, 35.9778318], [-96.1395081, 35.9778291], [-96.1395055, 35.977685]]]}, "properties": {"osm_id": 1235078245, "building": "yes", "name": "", "height": null, "height_m": null, "levels": null, "tract_id": "40037020604", "tract_name": "206.04", "tags": {"building": "yes", "source": "microsoft/BuildingFootprints"}}}, {"type": "Feature", "geometry": {"type": "Polygon", "coordinates": [[[-96.1396641, 35.9776806], [-96.1395488, 35.9776792], [-96.1395463, 35.9778094], [-96.1396321, 35.9778105], [-96.1396318, 35.9778287], [-96.1397551, 35.9778302], [-96.1397565, 35.9777577], [-96.1397243, 35.9777573], [-96.1397264, 35.9776488], [-96.1396647, 35.9776481], [-96.1396641, 35.9776806]]]}, "properties": {"osm_id": 1235078246, "building": "yes", "name": "", "height": null, "height_m": null, "levels": null, "tract_id": "40037020604", "tract_name": "206.04", "tags": {"building": "yes", "source": "microsoft/BuildingFootprints"}}}, {"type": "Feature", "geometry": {"type": "Polygon", "coordinates": [[[-96.139827, 35.9778033], [-96.1399021, 35.9778037], [-96.1399019, 35.9778319], [-96.1399743, 35.9778322], [-96.1399756, 35.9776695], [-96.1399032, 35.9776691], [-96.1399032, 35.9776626], [-96.1398281, 35.9776622], [-96.139827, 35.9778033]]]}, "properties": {"osm_id": 1235078247, "building": "yes", "name": "", "height": null, "height_m": null, "levels": null, "tract_id": "40037020604", "tract_name": "206.04", "tags": {"building": "yes", "source": "microsoft/BuildingFootprints"}}}, {"type": "Feature", "geometry": {"type": "Polygon", "coordinates": [[[-96.1401486, 35.9778289], [-96.1402344, 35.9778309], [-96.1402399, 35.9776704], [-96.1400764, 35.9776666], [-96.1400715, 35.9778076], [-96.1401493, 35.9778094], [-96.1401486, 35.9778289]]]}, "properties": {"osm_id": 1235078248, "building": "yes", "name": "", "height": null, "height_m": null, "levels": null, "tract_id": "40037020604", "tract_name": "206.04", "tags": {"building": "yes", "source": "microsoft/BuildingFootprints"}}}, {"type": "Feature", "geometry": {"type": "Polygon", "coordinates": [[[-96.1405158, 35.9778325], [-96.1405122, 35.9776537], [-96.1404505, 35.9776545], [-96.1404508, 35.9776697], [-96.1403158, 35.9776715], [-96.140318, 35.9777822], [-96.1404155, 35.9777809], [-96.1404166, 35.9778338], [-96.1405158, 35.9778325]]]}, "properties": {"osm_id": 1235078249, "building": "yes", "name": "", "height": null, "height_m": null, "levels": null, "tract_id": "40037020604", "tract_name": "206.04", "tags": {"building": "yes", "source": "microsoft/BuildingFootprints"}}}, {"type": "Feature", "geometry": {"type": "Polygon", "coordinates": [[[-96.140752, 35.9777067], [-96.1407038, 35.9777064], [-96.140704, 35.9776847], [-96.1406272, 35.9776842], [-96.1406269, 35.9777081], [-96.1405777, 35.9777078], [-96.1405764, 35.9778394], [-96.1406703, 35.97784], [-96.1406701, 35.9778625], [-96.1407505, 35.977863], [-96.140752, 35.9777067]]]}, "properties": {"osm_id": 1235078250, "building": "yes", "name": "", "height": null, "height_m": null, "levels": null, "tract_id": "40037020604", "tract_name": "206.04", "tags": {"building": "yes", "source": "microsoft/BuildingFootprints"}}}, {"type": "Feature", "geometry": {"type": "Polygon", "coordinates": [[[-96.1410966, 35.9778324], [-96.1410617, 35.9778319], [-96.14106, 35.9779122], [-96.1411753, 35.9779138], [-96.1411757, 35.9778965], [-96.1412266, 35.9778972], [-96.1412271, 35.9778776], [-96.1412726, 35.9778783], [-96.1412753, 35.9777524], [-96.141227, 35.9777518], [-96.1412276, 35.9777257], [-96.1410989, 35.9777239], [-96.1410966, 35.9778324]]]}, "properties": {"osm_id": 1235078251, "building": "yes", "name": "", "height": null, "height_m": null, "levels": null, "tract_id": "40037020604", "tract_name": "206.04", "tags": {"building": "yes", "source": "microsoft/BuildingFootprints"}}}, {"type": "Feature", "geometry": {"type": "Polygon", "coordinates": [[[-96.1414602, 35.9777577], [-96.1413315, 35.9777567], [-96.1413294, 35.9779216], [-96.1415064, 35.9779231], [-96.1415082, 35.9777842], [-96.1414599, 35.9777838], [-96.1414602, 35.9777577]]]}, "properties": {"osm_id": 1235078252, "building": "yes", "name": "", "height": null, "height_m": null, "levels": null, "tract_id": "40037020604", "tract_name": "206.04", "tags": {"building": "yes", "source": "microsoft/BuildingFootprints"}}}, {"type": "Feature", "geometry": {"type": "Polygon", "coordinates": [[[-96.14174, 35.9777898], [-96.1415647, 35.9777876], [-96.1415624, 35.9779127], [-96.1416572, 35.9779138], [-96.141657, 35.9779255], [-96.1417901, 35.9779271], [-96.1417914, 35.9778555], [-96.1417388, 35.9778549], [-96.14174, 35.9777898]]]}, "properties": {"osm_id": 1235078253, "building": "yes", "name": "", "height": null, "height_m": null, "levels": null, "tract_id": "40037020604", "tract_name": "206.04", "tags": {"building": "yes", "source": "microsoft/BuildingFootprints"}}}, {"type": "Feature", "geometry": {"type": "Polygon", "coordinates": [[[-96.1419841, 35.9777393], [-96.1418474, 35.9777379], [-96.1418447, 35.9779107], [-96.1419001, 35.9779113], [-96.1418998, 35.9779294], [-96.1420151, 35.9779306], [-96.1420161, 35.9778655], [-96.1419822, 35.9778651], [-96.1419841, 35.9777393]]]}, "properties": {"osm_id": 1235078254, "building": "yes", "name": "", "height": null, "height_m": null, "levels": null, "tract_id": "40037020604", "tract_name": "206.04", "tags": {"building": "yes", "source": "microsoft/BuildingFootprints"}}}, {"type": "Feature", "geometry": {"type": "Polygon", "coordinates": [[[-96.1421094, 35.9777406], [-96.1421054, 35.9778598], [-96.1420812, 35.9778593], [-96.1420789, 35.9779287], [-96.1421888, 35.9779311], [-96.1421898, 35.9779029], [-96.1422862, 35.9779051], [-96.142291, 35.9777619], [-96.1421999, 35.9777599], [-96.1422005, 35.9777425], [-96.1421094, 35.9777406]]]}, "properties": {"osm_id": 1235078255, "building": "yes", "name": "", "height": null, "height_m": null, "levels": null, "tract_id": "40037020604", "tract_name": "206.04", "tags": {"building": "yes", "source": "microsoft/BuildingFootprints"}}}, {"type": "Feature", "geometry": {"type": "Polygon", "coordinates": [[[-96.142997, 35.9777519], [-96.1429941, 35.9778638], [-96.1429619, 35.9778633], [-96.1429603, 35.9779227], [-96.1431694, 35.9779263], [-96.143174, 35.9777549], [-96.142997, 35.9777519]]]}, "properties": {"osm_id": 1235078256, "building": "yes", "name": "", "height": null, "height_m": null, "levels": null, "tract_id": "40037020604", "tract_name": "206.04", "tags": {"building": "yes", "source": "microsoft/BuildingFootprints"}}}, {"type": "Feature", "geometry": {"type": "Polygon", "coordinates": [[[-96.1433242, 35.9777628], [-96.1433272, 35.9779256], [-96.1434425, 35.9779242], [-96.1434419, 35.9778916], [-96.1435251, 35.9778906], [-96.1435227, 35.9777647], [-96.1434637, 35.9777654], [-96.1434632, 35.9777394], [-96.1433828, 35.9777404], [-96.1433832, 35.9777621], [-96.1433242, 35.9777628]]]}, "properties": {"osm_id": 1235078257, "building": "yes", "name": "", "height": null, "height_m": null, "levels": null, "tract_id": "40037020604", "tract_name": "206.04", "tags": {"building": "yes", "source": "microsoft/BuildingFootprints"}}}, {"type": "Feature", "geometry": {"type": "Polygon", "coordinates": [[[-96.1436117, 35.9779141], [-96.1437467, 35.9779115], [-96.1437456, 35.9778755], [-96.1438251, 35.977874], [-96.143821, 35.9777343], [-96.1437164, 35.9777363], [-96.1437171, 35.9777589], [-96.1436403, 35.9777603], [-96.1436429, 35.9778484], [-96.1436098, 35.977849], [-96.1436117, 35.9779141]]]}, "properties": {"osm_id": 1235078258, "building": "yes", "name": "", "height": null, "height_m": null, "levels": null, "tract_id": "40037020604", "tract_name": "206.04", "tags": {"building": "yes", "source": "microsoft/BuildingFootprints"}}}, {"type": "Feature", "geometry": {"type": "Polygon", "coordinates": [[[-96.1439869, 35.9778724], [-96.1440674, 35.9778729], [-96.144067, 35.977915], [-96.1441833, 35.9779158], [-96.1441848, 35.9777564], [-96.1441311, 35.9777561], [-96.1441313, 35.9777396], [-96.1439882, 35.9777387], [-96.1439869, 35.9778724]]]}, "properties": {"osm_id": 1235078259, "building": "yes", "name": "", "height": null, "height_m": null, "levels": null, "tract_id": "40037020604", "tract_name": "206.04", "tags": {"building": "yes", "source": "microsoft/BuildingFootprints"}}}, {"type": "Feature", "geometry": {"type": "Polygon", "coordinates": [[[-96.1443344, 35.9777589], [-96.1443363, 35.9778783], [-96.1444195, 35.9778774], [-96.1444201, 35.9779165], [-96.1445327, 35.9779153], [-96.1445302, 35.9777569], [-96.1444685, 35.9777575], [-96.1444682, 35.9777358], [-96.1443931, 35.9777366], [-96.1443934, 35.9777583], [-96.1443344, 35.9777589]]]}, "properties": {"osm_id": 1235078260, "building": "yes", "name": "", "height": null, "height_m": null, "levels": null, "tract_id": "40037020604", "tract_name": "206.04", "tags": {"building": "yes", "source": "microsoft/BuildingFootprints"}}}, {"type": "Feature", "geometry": {"type": "Polygon", "coordinates": [[[-96.1448508, 35.9779169], [-96.1448482, 35.9777879], [-96.1446561, 35.9777905], [-96.1446582, 35.9778934], [-96.1447628, 35.977892], [-96.1447633, 35.9779181], [-96.1448508, 35.9779169]]]}, "properties": {"osm_id": 1235078261, "building": "yes", "name": "", "height": null, "height_m": null, "levels": null, "tract_id": "40037020604", "tract_name": "206.04", "tags": {"building": "yes", "source": "microsoft/BuildingFootprints"}}}, {"type": "Feature", "geometry": {"type": "Polygon", "coordinates": [[[-96.1451716, 35.9778082], [-96.1451754, 35.9777019], [-96.1449959, 35.9776977], [-96.144992, 35.9778039], [-96.1451716, 35.9778082]]]}, "properties": {"osm_id": 1235078262, "building": "yes", "name": "", "height": null, "height_m": null, "levels": null, "tract_id": "40037020604", "tract_name": "206.04", "tags": {"building": "yes", "source": "microsoft/BuildingFootprints"}}}, {"type": "Feature", "geometry": {"type": "Polygon", "coordinates": [[[-96.1455778, 35.9778229], [-96.1455346, 35.9777482], [-96.1455068, 35.9777587], [-96.145478, 35.9777088], [-96.1452989, 35.9777766], [-96.1453869, 35.9779288], [-96.1454639, 35.9778996], [-96.145448, 35.9778721], [-96.1455778, 35.9778229]]]}, "properties": {"osm_id": 1235078263, "building": "yes", "name": "", "height": null, "height_m": null, "levels": null, "tract_id": "40037020604", "tract_name": "206.04", "tags": {"building": "yes", "source": "microsoft/BuildingFootprints"}}}, {"type": "Feature", "geometry": {"type": "Polygon", "coordinates": [[[-96.1455654, 35.9781415], [-96.1455734, 35.977979], [-96.1454011, 35.9779734], [-96.1453965, 35.9780666], [-96.1453885, 35.9780663], [-96.145383, 35.9781757], [-96.1454858, 35.978179], [-96.1454878, 35.978139], [-96.1455654, 35.9781415]]]}, "properties": {"osm_id": 1235078264, "building": "yes", "name": "", "height": null, "height_m": null, "levels": null, "tract_id": "40037020604", "tract_name": "206.04", "tags": {"building": "yes", "source": "microsoft/BuildingFootprints"}}}, {"type": "Feature", "geometry": {"type": "Polygon", "coordinates": [[[-96.145359, 35.9784143], [-96.1455832, 35.9784177], [-96.1455865, 35.9782767], [-96.1453934, 35.9782737], [-96.1453916, 35.978353], [-96.1453604, 35.9783526], [-96.145359, 35.9784143]]]}, "properties": {"osm_id": 1235078265, "building": "yes", "name": "", "height": null, "height_m": null, "levels": null, "tract_id": "40037020604", "tract_name": "206.04", "tags": {"building": "yes", "source": "microsoft/BuildingFootprints"}}}, {"type": "Feature", "geometry": {"type": "Polygon", "coordinates": [[[-96.1455657, 35.9785459], [-96.1454183, 35.9785428], [-96.1454162, 35.9786101], [-96.1453636, 35.978609], [-96.1453609, 35.9786936], [-96.1455592, 35.9786977], [-96.1455609, 35.9786457], [-96.1455893, 35.9786463], [-96.1455913, 35.9785855], [-96.1455645, 35.978585], [-96.1455657, 35.9785459]]]}, "properties": {"osm_id": 1235078266, "building": "yes", "name": "", "height": null, "height_m": null, "levels": null, "tract_id": "40037020604", "tract_name": "206.04", "tags": {"building": "yes", "source": "microsoft/BuildingFootprints"}}}, {"type": "Feature", "geometry": {"type": "Polygon", "coordinates": [[[-96.1455426, 35.9790943], [-96.1453458, 35.9790925], [-96.1453446, 35.9791771], [-96.1453982, 35.9791776], [-96.1453973, 35.9792449], [-96.1455421, 35.9792463], [-96.1455427, 35.9792029], [-96.1455722, 35.9792032], [-96.1455731, 35.979138], [-96.145542, 35.9791378], [-96.1455426, 35.9790943]]]}, "properties": {"osm_id": 1235078267, "building": "yes", "name": "", "height": null, "height_m": null, "levels": null, "tract_id": "40037020604", "tract_name": "206.04", "tags": {"building": "yes", "source": "microsoft/BuildingFootprints"}}}, {"type": "Feature", "geometry": {"type": "Polygon", "coordinates": [[[-96.1455471, 35.9793522], [-96.1453702, 35.9793557], [-96.1453724, 35.9794295], [-96.1453376, 35.9794302], [-96.1453405, 35.9795244], [-96.1454247, 35.9795228], [-96.1454238, 35.9794957], [-96.145574, 35.9794927], [-96.1455716, 35.9794178], [-96.1455491, 35.9794182], [-96.1455471, 35.9793522]]]}, "properties": {"osm_id": 1235078268, "building": "yes", "name": "", "height": null, "height_m": null, "levels": null, "tract_id": "40037020604", "tract_name": "206.04", "tags": {"building": "yes", "source": "microsoft/BuildingFootprints"}}}, {"type": "Feature", "geometry": {"type": "Polygon", "coordinates": [[[-96.1453467, 35.9795967], [-96.1453437, 35.9796922], [-96.1453732, 35.9796928], [-96.1453709, 35.9797687], [-96.1455451, 35.9797723], [-96.1455471, 35.9797072], [-96.1455755, 35.9797078], [-96.145578, 35.9796297], [-96.1454343, 35.9796268], [-96.1454352, 35.9795986], [-96.1453467, 35.9795967]]]}, "properties": {"osm_id": 1235078269, "building": "yes", "name": "", "height": null, "height_m": null, "levels": null, "tract_id": "40037020604", "tract_name": "206.04", "tags": {"building": "yes", "source": "microsoft/BuildingFootprints"}}}, {"type": "Feature", "geometry": {"type": "Polygon", "coordinates": [[[-96.1455684, 35.9799162], [-96.1454263, 35.9799135], [-96.1454271, 35.9798875], [-96.1453386, 35.9798858], [-96.145336, 35.9799791], [-96.1453842, 35.97998], [-96.145382, 35.9800569], [-96.1455643, 35.9800603], [-96.1455684, 35.9799162]]]}, "properties": {"osm_id": 1235078270, "building": "yes", "name": "", "height": null, "height_m": null, "levels": null, "tract_id": "40037020604", "tract_name": "206.04", "tags": {"building": "yes", "source": "microsoft/BuildingFootprints"}}}, {"type": "Feature", "geometry": {"type": "Polygon", "coordinates": [[[-96.1455504, 35.9803506], [-96.1455543, 35.98019], [-96.1453532, 35.9801869], [-96.1453509, 35.9802823], [-96.1453938, 35.980283], [-96.1453922, 35.9803481], [-96.1455504, 35.9803506]]]}, "properties": {"osm_id": 1235078271, "building": "yes", "name": "", "height": null, "height_m": null, "levels": null, "tract_id": "40037020604", "tract_name": "206.04", "tags": {"building": "yes", "source": "microsoft/BuildingFootprints"}}}, {"type": "Feature", "geometry": {"type": "Polygon", "coordinates": [[[-96.145559, 35.9805014], [-96.1454249, 35.9805024], [-96.1454245, 35.9804677], [-96.1453494, 35.9804683], [-96.1453511, 35.9806202], [-96.1455603, 35.9806186], [-96.145559, 35.9805014]]]}, "properties": {"osm_id": 1235078272, "building": "yes", "name": "", "height": null, "height_m": null, "levels": null, "tract_id": "40037020604", "tract_name": "206.04", "tags": {"building": "yes", "source": "microsoft/BuildingFootprints"}}}, {"type": "Feature", "geometry": {"type": "Polygon", "coordinates": [[[-96.145197, 35.9808007], [-96.1452415, 35.98083], [-96.145189, 35.9808823], [-96.1452996, 35.980955], [-96.145337, 35.9809177], [-96.145358, 35.9809315], [-96.1454007, 35.9808891], [-96.145378, 35.9808742], [-96.1454174, 35.980835], [-96.145264, 35.9807341], [-96.145197, 35.9808007]]]}, "properties": {"osm_id": 1235078273, "building": "yes", "name": "", "height": null, "height_m": null, "levels": null, "tract_id": "40037020604", "tract_name": "206.04", "tags": {"building": "yes", "source": "microsoft/BuildingFootprints"}}}, {"type": "Feature", "geometry": {"type": "Polygon", "coordinates": [[[-96.1448856, 35.9809483], [-96.1448896, 35.9810915], [-96.1450624, 35.9810884], [-96.1450585, 35.9809517], [-96.1449769, 35.9809532], [-96.1449767, 35.9809467], [-96.1448856, 35.9809483]]]}, "properties": {"osm_id": 1235078274, "building": "yes", "name": "", "height": null, "height_m": null, "levels": null, "tract_id": "40037020604", "tract_name": "206.04", "tags": {"building": "yes", "source": "microsoft/BuildingFootprints"}}}, {"type": "Feature", "geometry": {"type": "Polygon", "coordinates": [[[-96.1446901, 35.9811071], [-96.1447276, 35.9811066], [-96.1447282, 35.9811326], [-96.1448596, 35.9811308], [-96.1448561, 35.9809659], [-96.1446872, 35.9809682], [-96.1446901, 35.9811071]]]}, "properties": {"osm_id": 1235078275, "building": "yes", "name": "", "height": null, "height_m": null, "levels": null, "tract_id": "40037020604", "tract_name": "206.04", "tags": {"building": "yes", "source": "microsoft/BuildingFootprints"}}}, {"type": "Feature", "geometry": {"type": "Polygon", "coordinates": [[[-96.1444437, 35.9809613], [-96.1443686, 35.9809624], [-96.1443689, 35.9809755], [-96.1442965, 35.9809766], [-96.1442997, 35.9811089], [-96.1444472, 35.9811066], [-96.1444437, 35.9809613]]]}, "properties": {"osm_id": 1235078276, "building": "yes", "name": "", "height": null, "height_m": null, "levels": null, "tract_id": "40037020604", "tract_name": "206.04", "tags": {"building": "yes", "source": "microsoft/BuildingFootprints"}}}, {"type": "Feature", "geometry": {"type": "Polygon", "coordinates": [[[-96.1446599, 35.9809989], [-96.1445649, 35.9809971], [-96.1445658, 35.9809646], [-96.1444854, 35.9809631], [-96.144481, 35.9811171], [-96.144532, 35.9811181], [-96.1445314, 35.9811376], [-96.1446092, 35.981139], [-96.1446098, 35.9811174], [-96.1446566, 35.9811182], [-96.1446599, 35.9809989]]]}, "properties": {"osm_id": 1235078277, "building": "yes", "name": "", "height": null, "height_m": null, "levels": null, "tract_id": "40037020604", "tract_name": "206.04", "tags": {"building": "yes", "source": "microsoft/BuildingFootprints"}}}, {"type": "Feature", "geometry": {"type": "Polygon", "coordinates": [[[-96.1447595, 35.9789923], [-96.1448892, 35.978994], [-96.1448885, 35.9790309], [-96.1449706, 35.9790319], [-96.1449736, 35.9788778], [-96.144752, 35.978875], [-96.1447505, 35.9789543], [-96.1447602, 35.9789545], [-96.1447595, 35.9789923]]]}, "properties": {"osm_id": 1235078278, "building": "yes", "name": "", "height": null, "height_m": null, "levels": null, "tract_id": "40037020604", "tract_name": "206.04", "tags": {"building": "yes", "source": "microsoft/BuildingFootprints"}}}, {"type": "Feature", "geometry": {"type": "Polygon", "coordinates": [[[-96.1447471, 35.978631], [-96.1447504, 35.9786556], [-96.1447796, 35.978653], [-96.1447763, 35.9786285], [-96.1447471, 35.978631]]]}, "properties": {"osm_id": 1235078279, "building": "yes", "name": "", "height": null, "height_m": null, "levels": null, "tract_id": "40037020604", "tract_name": "206.04", "tags": {"building": "yes", "source": "microsoft/BuildingFootprints"}}}, {"type": "Feature", "geometry": {"type": "Polygon", "coordinates": [[[-96.1446674, 35.9784128], [-96.1448149, 35.9784101], [-96.1448102, 35.9782409], [-96.1446627, 35.9782436], [-96.1446674, 35.9784128]]]}, "properties": {"osm_id": 1235078280, "building": "yes", "name": "", "height": null, "height_m": null, "levels": null, "tract_id": "40037020604", "tract_name": "206.04", "tags": {"building": "yes", "source": "microsoft/BuildingFootprints"}}}, {"type": "Feature", "geometry": {"type": "Polygon", "coordinates": [[[-96.144927, 35.9785842], [-96.1447811, 35.9785829], [-96.144779, 35.9787348], [-96.1449731, 35.9787366], [-96.1449748, 35.978616], [-96.1449265, 35.9786156], [-96.144927, 35.9785842]]]}, "properties": {"osm_id": 1235078281, "building": "yes", "name": "", "height": null, "height_m": null, "levels": null, "tract_id": "40037020604", "tract_name": "206.04", "tags": {"building": "yes", "source": "microsoft/BuildingFootprints"}}}, {"type": "Feature", "geometry": {"type": "Polygon", "coordinates": [[[-96.1444431, 35.9786416], [-96.1443353, 35.9786294], [-96.1442956, 35.9786399], [-96.1442923, 35.978833], [-96.144488, 35.9788353], [-96.1444893, 35.9787625], [-96.144441, 35.9787619], [-96.1444431, 35.9786416]]]}, "properties": {"osm_id": 1235078282, "building": "yes", "name": "", "height": null, "height_m": null, "levels": null, "tract_id": "40037020604", "tract_name": "206.04", "tags": {"building": "yes", "source": "microsoft/BuildingFootprints"}}}, {"type": "Feature", "geometry": {"type": "Polygon", "coordinates": [[[-96.1439064, 35.9788712], [-96.1440544, 35.9789365], [-96.1441548, 35.9787876], [-96.1440067, 35.9787223], [-96.1439064, 35.9788712]]]}, "properties": {"osm_id": 1235078283, "building": "yes", "name": "", "height": null, "height_m": null, "levels": null, "tract_id": "40037020604", "tract_name": "206.04", "tags": {"building": "yes", "source": "microsoft/BuildingFootprints"}}}, {"type": "Feature", "geometry": {"type": "Polygon", "coordinates": [[[-96.1439697, 35.979119], [-96.1441017, 35.9791444], [-96.1441234, 35.9790705], [-96.1441539, 35.9790763], [-96.1441744, 35.9790065], [-96.1440119, 35.9789752], [-96.1439697, 35.979119]]]}, "properties": {"osm_id": 1235078284, "building": "yes", "name": "", "height": null, "height_m": null, "levels": null, "tract_id": "40037020604", "tract_name": "206.04", "tags": {"building": "yes", "source": "microsoft/BuildingFootprints"}}}, {"type": "Feature", "geometry": {"type": "Polygon", "coordinates": [[[-96.1444879, 35.9783944], [-96.1444867, 35.9782316], [-96.1443767, 35.9782322], [-96.144377, 35.9782712], [-96.1442912, 35.9782717], [-96.1442921, 35.9783932], [-96.1443511, 35.9783929], [-96.1443512, 35.9784146], [-96.1444263, 35.9784143], [-96.1444262, 35.9783947], [-96.1444879, 35.9783944]]]}, "properties": {"osm_id": 1235078492, "building": "yes", "name": "", "height": null, "height_m": null, "levels": null, "tract_id": "40037020604", "tract_name": "206.04", "tags": {"building": "yes", "source": "microsoft/BuildingFootprints"}}}, {"type": "Feature", "geometry": {"type": "Polygon", "coordinates": [[[-96.1439468, 35.9782691], [-96.1439518, 35.9784166], [-96.1440868, 35.9784136], [-96.144086, 35.9783897], [-96.1441369, 35.9783886], [-96.1441339, 35.9782997], [-96.1441688, 35.9782989], [-96.1441664, 35.9782295], [-96.1440458, 35.9782322], [-96.1440478, 35.9782907], [-96.1440012, 35.9782918], [-96.1440004, 35.9782679], [-96.1439468, 35.9782691]]]}, "properties": {"osm_id": 1235078493, "building": "yes", "name": "", "height": null, "height_m": null, "levels": null, "tract_id": "40037020604", "tract_name": "206.04", "tags": {"building": "yes", "source": "microsoft/BuildingFootprints"}}}, {"type": "Feature", "geometry": {"type": "Polygon", "coordinates": [[[-96.14347, 35.9783901], [-96.1434677, 35.9783055], [-96.1435042, 35.9783048], [-96.1435023, 35.9782354], [-96.1433844, 35.9782375], [-96.1433859, 35.9782926], [-96.1433349, 35.9782936], [-96.1433343, 35.9782697], [-96.1432816, 35.9782706], [-96.1432856, 35.9784151], [-96.1433892, 35.9784132], [-96.1433886, 35.9783916], [-96.14347, 35.9783901]]]}, "properties": {"osm_id": 1235078494, "building": "yes", "name": "", "height": null, "height_m": null, "levels": null, "tract_id": "40037020604", "tract_name": "206.04", "tags": {"building": "yes", "source": "microsoft/BuildingFootprints"}}}, {"type": "Feature", "geometry": {"type": "Polygon", "coordinates": [[[-96.1437068, 35.9782303], [-96.1437067, 35.9782737], [-96.1436263, 35.9782737], [-96.1436261, 35.9783909], [-96.1436841, 35.9783909], [-96.1436841, 35.9784148], [-96.1437656, 35.9784149], [-96.1437656, 35.9783944], [-96.1438209, 35.9783945], [-96.1438211, 35.9782304], [-96.1437068, 35.9782303]]]}, "properties": {"osm_id": 1235078495, "building": "yes", "name": "", "height": null, "height_m": null, "levels": null, "tract_id": "40037020604", "tract_name": "206.04", "tags": {"building": "yes", "source": "microsoft/BuildingFootprints"}}}, {"type": "Feature", "geometry": {"type": "Polygon", "coordinates": [[[-96.1428219, 35.9784772], [-96.1428219, 35.9785141], [-96.1427844, 35.9785141], [-96.1427844, 35.9786031], [-96.1427683, 35.9786031], [-96.1427683, 35.9786725], [-96.1429292, 35.9786725], [-96.1429292, 35.9785901], [-96.1429721, 35.9785901], [-96.1429721, 35.9785141], [-96.142948, 35.9785141], [-96.142948, 35.9784772], [-96.1428219, 35.9784772]]]}, "properties": {"osm_id": 1235078496, "building": "yes", "name": "", "height": null, "height_m": null, "levels": null, "tract_id": "40037020604", "tract_name": "206.04", "tags": {"building": "yes", "source": "microsoft/BuildingFootprints"}}}, {"type": "Feature", "geometry": {"type": "Polygon", "coordinates": [[[-96.1433195, 35.9793045], [-96.1434692, 35.979441], [-96.1435676, 35.9793703], [-96.1434832, 35.9792933], [-96.1435042, 35.9792782], [-96.143439, 35.9792187], [-96.1433195, 35.9793045]]]}, "properties": {"osm_id": 1235078497, "building": "yes", "name": "", "height": null, "height_m": null, "levels": null, "tract_id": "40037020604", "tract_name": "206.04", "tags": {"building": "yes", "source": "microsoft/BuildingFootprints"}}}, {"type": "Feature", "geometry": {"type": "Polygon", "coordinates": [[[-96.143818, 35.9795434], [-96.1437241, 35.9794731], [-96.1437442, 35.9794556], [-96.1436763, 35.9794047], [-96.1435693, 35.9794982], [-96.1437311, 35.9796194], [-96.143818, 35.9795434]]]}, "properties": {"osm_id": 1235078498, "building": "yes", "name": "", "height": null, "height_m": null, "levels": null, "tract_id": "40037020604", "tract_name": "206.04", "tags": {"building": "yes", "source": "microsoft/BuildingFootprints"}}}, {"type": "Feature", "geometry": {"type": "Polygon", "coordinates": [[[-96.1442366, 35.979181], [-96.1441279, 35.9792778], [-96.144261, 35.9793757], [-96.1443564, 35.9792908], [-96.1442873, 35.97924], [-96.1443007, 35.9792281], [-96.1442366, 35.979181]]]}, "properties": {"osm_id": 1235078499, "building": "yes", "name": "", "height": null, "height_m": null, "levels": null, "tract_id": "40037020604", "tract_name": "206.04", "tags": {"building": "yes", "source": "microsoft/BuildingFootprints"}}}, {"type": "Feature", "geometry": {"type": "Polygon", "coordinates": [[[-96.1447693, 35.9797064], [-96.1447677, 35.9797563], [-96.1447383, 35.9797557], [-96.1447364, 35.9798165], [-96.1447632, 35.979817], [-96.1447618, 35.9798604], [-96.1449119, 35.9798635], [-96.1449141, 35.979795], [-96.1449623, 35.979796], [-96.144965, 35.9797105], [-96.1447693, 35.9797064]]]}, "properties": {"osm_id": 1235078500, "building": "yes", "name": "", "height": null, "height_m": null, "levels": null, "tract_id": "40037020604", "tract_name": "206.04", "tags": {"building": "yes", "source": "microsoft/BuildingFootprints"}}}, {"type": "Feature", "geometry": {"type": "Polygon", "coordinates": [[[-96.1447687, 35.9799857], [-96.1447682, 35.9800204], [-96.144743, 35.9800202], [-96.1447418, 35.9800983], [-96.1449762, 35.9801006], [-96.1449785, 35.9799487], [-96.1448889, 35.9799478], [-96.1448883, 35.9799869], [-96.1447687, 35.9799857]]]}, "properties": {"osm_id": 1235078501, "building": "yes", "name": "", "height": null, "height_m": null, "levels": null, "tract_id": "40037020604", "tract_name": "206.04", "tags": {"building": "yes", "source": "microsoft/BuildingFootprints"}}}, {"type": "Feature", "geometry": {"type": "Polygon", "coordinates": [[[-96.1449767, 35.9801935], [-96.1448897, 35.9801933], [-96.1448895, 35.9802302], [-96.1447646, 35.9802299], [-96.1447643, 35.9803058], [-96.1447739, 35.9803059], [-96.1447736, 35.9803732], [-96.1449518, 35.9803736], [-96.1449521, 35.9803042], [-96.1449762, 35.9803042], [-96.1449767, 35.9801935]]]}, "properties": {"osm_id": 1235078502, "building": "yes", "name": "", "height": null, "height_m": null, "levels": null, "tract_id": "40037020604", "tract_name": "206.04", "tags": {"building": "yes", "source": "microsoft/BuildingFootprints"}}}, {"type": "Feature", "geometry": {"type": "Polygon", "coordinates": [[[-96.1448848, 35.9804957], [-96.1448285, 35.9804951], [-96.1448289, 35.9804691], [-96.1447591, 35.9804684], [-96.1447587, 35.9804966], [-96.144697, 35.980496], [-96.1446947, 35.9806479], [-96.144802, 35.980649], [-96.1448027, 35.9806034], [-96.1448831, 35.9806042], [-96.1448848, 35.9804957]]]}, "properties": {"osm_id": 1235078503, "building": "yes", "name": "", "height": null, "height_m": null, "levels": null, "tract_id": "40037020604", "tract_name": "206.04", "tags": {"building": "yes", "source": "microsoft/BuildingFootprints"}}}, {"type": "Feature", "geometry": {"type": "Polygon", "coordinates": [[[-96.1446168, 35.9805268], [-96.1444399, 35.9805243], [-96.1444369, 35.9806598], [-96.144512, 35.9806609], [-96.1445121, 35.9806544], [-96.144614, 35.9806558], [-96.1446168, 35.9805268]]]}, "properties": {"osm_id": 1235078504, "building": "yes", "name": "", "height": null, "height_m": null, "levels": null, "tract_id": "40037020604", "tract_name": "206.04", "tags": {"building": "yes", "source": "microsoft/BuildingFootprints"}}}, {"type": "Feature", "geometry": {"type": "Polygon", "coordinates": [[[-96.1443947, 35.980661], [-96.1443982, 35.9804896], [-96.1442534, 35.9804877], [-96.1442499, 35.9806591], [-96.1443947, 35.980661]]]}, "properties": {"osm_id": 1235078505, "building": "yes", "name": "", "height": null, "height_m": null, "levels": null, "tract_id": "40037020604", "tract_name": "206.04", "tags": {"building": "yes", "source": "microsoft/BuildingFootprints"}}}, {"type": "Feature", "geometry": {"type": "Polygon", "coordinates": [[[-96.1441942, 35.9805133], [-96.1440479, 35.9805147], [-96.14405, 35.980661], [-96.1441251, 35.9806603], [-96.1441249, 35.9806473], [-96.1441961, 35.9806466], [-96.1441942, 35.9805133]]]}, "properties": {"osm_id": 1235078506, "building": "yes", "name": "", "height": null, "height_m": null, "levels": null, "tract_id": "40037020604", "tract_name": "206.04", "tags": {"building": "yes", "source": "microsoft/BuildingFootprints"}}}, {"type": "Feature", "geometry": {"type": "Polygon", "coordinates": [[[-96.1443758, 35.9800536], [-96.1442539, 35.9800018], [-96.1441463, 35.9801675], [-96.1442892, 35.9802283], [-96.1443317, 35.9801629], [-96.1443107, 35.980154], [-96.1443758, 35.9800536]]]}, "properties": {"osm_id": 1235078507, "building": "yes", "name": "", "height": null, "height_m": null, "levels": null, "tract_id": "40037020604", "tract_name": "206.04", "tags": {"building": "yes", "source": "microsoft/BuildingFootprints"}}}, {"type": "Feature", "geometry": {"type": "Polygon", "coordinates": [[[-96.1440489, 35.9801211], [-96.1439466, 35.980146], [-96.1439615, 35.9801858], [-96.1438828, 35.980205], [-96.1439228, 35.9803125], [-96.1439769, 35.9802993], [-96.1439843, 35.9803192], [-96.1441111, 35.9802882], [-96.1440489, 35.9801211]]]}, "properties": {"osm_id": 1235078508, "building": "yes", "name": "", "height": null, "height_m": null, "levels": null, "tract_id": "40037020604", "tract_name": "206.04", "tags": {"building": "yes", "source": "microsoft/BuildingFootprints"}}}, {"type": "Feature", "geometry": {"type": "Polygon", "coordinates": [[[-96.1443568, 35.9797356], [-96.1441774, 35.9797613], [-96.1441949, 35.9798413], [-96.1441455, 35.9798484], [-96.1441649, 35.9799367], [-96.1442559, 35.9799237], [-96.1442499, 35.9798963], [-96.1443565, 35.979881], [-96.1443431, 35.97982], [-96.1443744, 35.9798155], [-96.1443568, 35.9797356]]]}, "properties": {"osm_id": 1235078509, "building": "yes", "name": "", "height": null, "height_m": null, "levels": null, "tract_id": "40037020604", "tract_name": "206.04", "tags": {"building": "yes", "source": "microsoft/BuildingFootprints"}}}, {"type": "Feature", "geometry": {"type": "Polygon", "coordinates": [[[-96.1440234, 35.9795551], [-96.143946, 35.9796124], [-96.1439287, 35.979597], [-96.1438673, 35.9796424], [-96.1439381, 35.9797051], [-96.1439542, 35.9796932], [-96.1440116, 35.979744], [-96.1441343, 35.9796532], [-96.1440234, 35.9795551]]]}, "properties": {"osm_id": 1235078510, "building": "yes", "name": "", "height": null, "height_m": null, "levels": null, "tract_id": "40037020604", "tract_name": "206.04", "tags": {"building": "yes", "source": "microsoft/BuildingFootprints"}}}, {"type": "Feature", "geometry": {"type": "Polygon", "coordinates": [[[-96.1432655, 35.9790104], [-96.1431286, 35.9790712], [-96.1432378, 35.9792324], [-96.1433582, 35.979179], [-96.1432893, 35.9790771], [-96.1433058, 35.9790698], [-96.1432655, 35.9790104]]]}, "properties": {"osm_id": 1235078511, "building": "yes", "name": "", "height": null, "height_m": null, "levels": null, "tract_id": "40037020604", "tract_name": "206.04", "tags": {"building": "yes", "source": "microsoft/BuildingFootprints"}}}, {"type": "Feature", "geometry": {"type": "Polygon", "coordinates": [[[-96.1437643, 35.9801924], [-96.1438205, 35.9801353], [-96.1437285, 35.980076], [-96.1437167, 35.980088], [-96.1436477, 35.9800436], [-96.1435536, 35.9801393], [-96.1436818, 35.9802218], [-96.1437314, 35.9801713], [-96.1437643, 35.9801924]]]}, "properties": {"osm_id": 1235078512, "building": "yes", "name": "", "height": null, "height_m": null, "levels": null, "tract_id": "40037020604", "tract_name": "206.04", "tags": {"building": "yes", "source": "microsoft/BuildingFootprints"}}}, {"type": "Feature", "geometry": {"type": "Polygon", "coordinates": [[[-96.1434295, 35.9799872], [-96.1434145, 35.9800019], [-96.1435053, 35.9800626], [-96.1436238, 35.9799466], [-96.1434861, 35.9798545], [-96.1433826, 35.9799558], [-96.1434295, 35.9799872]]]}, "properties": {"osm_id": 1235078513, "building": "yes", "name": "", "height": null, "height_m": null, "levels": null, "tract_id": "40037020604", "tract_name": "206.04", "tags": {"building": "yes", "source": "microsoft/BuildingFootprints"}}}, {"type": "Feature", "geometry": {"type": "Polygon", "coordinates": [[[-96.1432546, 35.979779], [-96.1431895, 35.9798398], [-96.1432309, 35.9798688], [-96.1432216, 35.9798774], [-96.1433135, 35.9799419], [-96.1434218, 35.9798408], [-96.1433507, 35.9797909], [-96.1433765, 35.9797669], [-96.1432791, 35.9796986], [-96.1432194, 35.9797543], [-96.1432546, 35.979779]]]}, "properties": {"osm_id": 1235078514, "building": "yes", "name": "", "height": null, "height_m": null, "levels": null, "tract_id": "40037020604", "tract_name": "206.04", "tags": {"building": "yes", "source": "microsoft/BuildingFootprints"}}}, {"type": "Feature", "geometry": {"type": "Polygon", "coordinates": [[[-96.1432356, 35.9796712], [-96.1431742, 35.9796247], [-96.1431555, 35.9796409], [-96.1430969, 35.9795965], [-96.1429947, 35.9796848], [-96.1431147, 35.9797758], [-96.1432356, 35.9796712]]]}, "properties": {"osm_id": 1235078515, "building": "yes", "name": "", "height": null, "height_m": null, "levels": null, "tract_id": "40037020604", "tract_name": "206.04", "tags": {"building": "yes", "source": "microsoft/BuildingFootprints"}}}, {"type": "Feature", "geometry": {"type": "Polygon", "coordinates": [[[-96.1429353, 35.9794296], [-96.1428216, 35.9795282], [-96.1429464, 35.9796224], [-96.1430602, 35.9795238], [-96.1429353, 35.9794296]]]}, "properties": {"osm_id": 1235078516, "building": "yes", "name": "", "height": null, "height_m": null, "levels": null, "tract_id": "40037020604", "tract_name": "206.04", "tags": {"building": "yes", "source": "microsoft/BuildingFootprints"}}}, {"type": "Feature", "geometry": {"type": "Polygon", "coordinates": [[[-96.1426637, 35.9793631], [-96.1427032, 35.979391], [-96.1426907, 35.9794026], [-96.1427843, 35.9794688], [-96.1428858, 35.9793749], [-96.1428454, 35.9793463], [-96.1428821, 35.9793124], [-96.1427894, 35.9792468], [-96.1426637, 35.9793631]]]}, "properties": {"osm_id": 1235078517, "building": "yes", "name": "", "height": null, "height_m": null, "levels": null, "tract_id": "40037020604", "tract_name": "206.04", "tags": {"building": "yes", "source": "microsoft/BuildingFootprints"}}}, {"type": "Feature", "geometry": {"type": "Polygon", "coordinates": [[[-96.1424929, 35.9791852], [-96.1426348, 35.9792642], [-96.1427305, 35.9791517], [-96.1426614, 35.9791132], [-96.1426676, 35.9791058], [-96.1425948, 35.9790653], [-96.1424929, 35.9791852]]]}, "properties": {"osm_id": 1235078518, "building": "yes", "name": "", "height": null, "height_m": null, "levels": null, "tract_id": "40037020604", "tract_name": "206.04", "tags": {"building": "yes", "source": "microsoft/BuildingFootprints"}}}, {"type": "Feature", "geometry": {"type": "Polygon", "coordinates": [[[-96.1422617, 35.979185], [-96.1423089, 35.9791845], [-96.1423094, 35.9792097], [-96.1423855, 35.9792088], [-96.1423851, 35.9791849], [-96.1424387, 35.9791843], [-96.1424365, 35.979052], [-96.1423426, 35.979053], [-96.1423422, 35.979027], [-96.142259, 35.9790279], [-96.1422617, 35.979185]]]}, "properties": {"osm_id": 1235078519, "building": "yes", "name": "", "height": null, "height_m": null, "levels": null, "tract_id": "40037020604", "tract_name": "206.04", "tags": {"building": "yes", "source": "microsoft/BuildingFootprints"}}}, {"type": "Feature", "geometry": {"type": "Polygon", "coordinates": [[[-96.1421684, 35.9790283], [-96.1420852, 35.9790276], [-96.142085, 35.9790407], [-96.1420126, 35.97904], [-96.1420109, 35.9791746], [-96.1421665, 35.9791759], [-96.1421684, 35.9790283]]]}, "properties": {"osm_id": 1235078520, "building": "yes", "name": "", "height": null, "height_m": null, "levels": null, "tract_id": "40037020604", "tract_name": "206.04", "tags": {"building": "yes", "source": "microsoft/BuildingFootprints"}}}, {"type": "Feature", "geometry": {"type": "Polygon", "coordinates": [[[-96.1415612, 35.9790625], [-96.1414673, 35.9790621], [-96.1414675, 35.9790288], [-96.1413854, 35.9790284], [-96.1413843, 35.9791854], [-96.1414369, 35.9791857], [-96.1414368, 35.9792066], [-96.1415145, 35.979207], [-96.1415147, 35.9791861], [-96.1415603, 35.9791863], [-96.1415612, 35.9790625]]]}, "properties": {"osm_id": 1235078521, "building": "yes", "name": "", "height": null, "height_m": null, "levels": null, "tract_id": "40037020604", "tract_name": "206.04", "tags": {"building": "yes", "source": "microsoft/BuildingFootprints"}}}, {"type": "Feature", "geometry": {"type": "Polygon", "coordinates": [[[-96.1413565, 35.9791702], [-96.1413541, 35.9790299], [-96.1412801, 35.9790307], [-96.14128, 35.9790285], [-96.1411824, 35.9790296], [-96.1411849, 35.9791721], [-96.1413565, 35.9791702]]]}, "properties": {"osm_id": 1235078522, "building": "yes", "name": "", "height": null, "height_m": null, "levels": null, "tract_id": "40037020604", "tract_name": "206.04", "tags": {"building": "yes", "source": "microsoft/BuildingFootprints"}}}, {"type": "Feature", "geometry": {"type": "Polygon", "coordinates": [[[-96.1411484, 35.9790261], [-96.1410626, 35.9790273], [-96.141063, 35.9790447], [-96.141004, 35.9790456], [-96.1410075, 35.9791996], [-96.1411523, 35.9791975], [-96.1411484, 35.9790261]]]}, "properties": {"osm_id": 1235078523, "building": "yes", "name": "", "height": null, "height_m": null, "levels": null, "tract_id": "40037020604", "tract_name": "206.04", "tags": {"building": "yes", "source": "microsoft/BuildingFootprints"}}}, {"type": "Feature", "geometry": {"type": "Polygon", "coordinates": [[[-96.1419591, 35.9790267], [-96.1418759, 35.9790276], [-96.1418764, 35.979058], [-96.1418014, 35.9790589], [-96.1418035, 35.9791804], [-96.1418812, 35.9791795], [-96.1418815, 35.9791947], [-96.141962, 35.9791938], [-96.1419591, 35.9790267]]]}, "properties": {"osm_id": 1235078524, "building": "yes", "name": "", "height": null, "height_m": null, "levels": null, "tract_id": "40037020604", "tract_name": "206.04", "tags": {"building": "yes", "source": "microsoft/BuildingFootprints"}}}, {"type": "Feature", "geometry": {"type": "Polygon", "coordinates": [[[-96.1434489, 35.9809616], [-96.143505, 35.9809872], [-96.1435841, 35.9808734], [-96.1434577, 35.9808159], [-96.1433592, 35.9809577], [-96.1434294, 35.9809897], [-96.1434489, 35.9809616]]]}, "properties": {"osm_id": 1235078525, "building": "yes", "name": "", "height": null, "height_m": null, "levels": null, "tract_id": "40037020604", "tract_name": "206.04", "tags": {"building": "yes", "source": "microsoft/BuildingFootprints"}}}, {"type": "Feature", "geometry": {"type": "Polygon", "coordinates": [[[-96.1431696, 35.9808808], [-96.1432351, 35.9809103], [-96.1432477, 35.9808921], [-96.1432968, 35.9809142], [-96.143375, 35.9808005], [-96.1432972, 35.9807655], [-96.1433158, 35.9807383], [-96.1432421, 35.9807051], [-96.1431487, 35.980841], [-96.1431855, 35.9808576], [-96.1431696, 35.9808808]]]}, "properties": {"osm_id": 1235078526, "building": "yes", "name": "", "height": null, "height_m": null, "levels": null, "tract_id": "40037020604", "tract_name": "206.04", "tags": {"building": "yes", "source": "microsoft/BuildingFootprints"}}}, {"type": "Feature", "geometry": {"type": "Polygon", "coordinates": [[[-96.1431872, 35.9807117], [-96.1431173, 35.9806622], [-96.1431399, 35.9806413], [-96.1430791, 35.9805983], [-96.1429515, 35.9807164], [-96.142991, 35.9807444], [-96.1429711, 35.9807628], [-96.1430258, 35.9808015], [-96.1430458, 35.9807831], [-96.1430823, 35.9808089], [-96.1431872, 35.9807117]]]}, "properties": {"osm_id": 1235078527, "building": "yes", "name": "", "height": null, "height_m": null, "levels": null, "tract_id": "40037020604", "tract_name": "206.04", "tags": {"building": "yes", "source": "microsoft/BuildingFootprints"}}}, {"type": "Feature", "geometry": {"type": "Polygon", "coordinates": [[[-96.1428869, 35.9804714], [-96.1427794, 35.980395], [-96.1426584, 35.9805064], [-96.1427659, 35.9805828], [-96.1428869, 35.9804714]]]}, "properties": {"osm_id": 1235078528, "building": "yes", "name": "", "height": null, "height_m": null, "levels": null, "tract_id": "40037020604", "tract_name": "206.04", "tags": {"building": "yes", "source": "microsoft/BuildingFootprints"}}}, {"type": "Feature", "geometry": {"type": "Polygon", "coordinates": [[[-96.1426069, 35.9802901], [-96.1424987, 35.9804157], [-96.1426178, 35.9804829], [-96.142726, 35.9803573], [-96.1426069, 35.9802901]]]}, "properties": {"osm_id": 1235078529, "building": "yes", "name": "", "height": null, "height_m": null, "levels": null, "tract_id": "40037020604", "tract_name": "206.04", "tags": {"building": "yes", "source": "microsoft/BuildingFootprints"}}}, {"type": "Feature", "geometry": {"type": "Polygon", "coordinates": [[[-96.1425781, 35.9802521], [-96.1425219, 35.9802136], [-96.14251, 35.9802249], [-96.14246, 35.9801907], [-96.1423259, 35.9803188], [-96.142432, 35.9803916], [-96.1425781, 35.9802521]]]}, "properties": {"osm_id": 1235078530, "building": "yes", "name": "", "height": null, "height_m": null, "levels": null, "tract_id": "40037020604", "tract_name": "206.04", "tags": {"building": "yes", "source": "microsoft/BuildingFootprints"}}}, {"type": "Feature", "geometry": {"type": "Polygon", "coordinates": [[[-96.1423169, 35.9800872], [-96.1422011, 35.9801878], [-96.1423029, 35.9802647], [-96.1424349, 35.9801502], [-96.1423789, 35.9801079], [-96.1423629, 35.9801219], [-96.1423169, 35.9800872]]]}, "properties": {"osm_id": 1235078531, "building": "yes", "name": "", "height": null, "height_m": null, "levels": null, "tract_id": "40037020604", "tract_name": "206.04", "tags": {"building": "yes", "source": "microsoft/BuildingFootprints"}}}, {"type": "Feature", "geometry": {"type": "Polygon", "coordinates": [[[-96.1420474, 35.9800364], [-96.1421663, 35.9801415], [-96.1423071, 35.980037], [-96.1421882, 35.979932], [-96.1420474, 35.9800364]]]}, "properties": {"osm_id": 1235078532, "building": "yes", "name": "", "height": null, "height_m": null, "levels": null, "tract_id": "40037020604", "tract_name": "206.04", "tags": {"building": "yes", "source": "microsoft/BuildingFootprints"}}}, {"type": "Feature", "geometry": {"type": "Polygon", "coordinates": [[[-96.141886, 35.9799366], [-96.1419253, 35.9799504], [-96.1419125, 35.9799742], [-96.1419757, 35.9799964], [-96.1419855, 35.9799781], [-96.1420454, 35.9799992], [-96.1421235, 35.9798539], [-96.1420501, 35.979828], [-96.1420393, 35.9798481], [-96.1419504, 35.9798168], [-96.141886, 35.9799366]]]}, "properties": {"osm_id": 1235078533, "building": "yes", "name": "", "height": null, "height_m": null, "levels": null, "tract_id": "40037020604", "tract_name": "206.04", "tags": {"building": "yes", "source": "microsoft/BuildingFootprints"}}}, {"type": "Feature", "geometry": {"type": "Polygon", "coordinates": [[[-96.1438486, 35.9804171], [-96.143783, 35.9803942], [-96.1437762, 35.980407], [-96.1437106, 35.9803841], [-96.1436248, 35.9805451], [-96.1437559, 35.9805909], [-96.1438486, 35.9804171]]]}, "properties": {"osm_id": 1235078534, "building": "yes", "name": "", "height": null, "height_m": null, "levels": null, "tract_id": "40037020604", "tract_name": "206.04", "tags": {"building": "yes", "source": "microsoft/BuildingFootprints"}}}, {"type": "Feature", "geometry": {"type": "Polygon", "coordinates": [[[-96.1435067, 35.9804843], [-96.1435734, 35.9805188], [-96.1436773, 35.9803871], [-96.1435515, 35.9803221], [-96.1434652, 35.9804315], [-96.1435242, 35.9804621], [-96.1435067, 35.9804843]]]}, "properties": {"osm_id": 1235078535, "building": "yes", "name": "", "height": null, "height_m": null, "levels": null, "tract_id": "40037020604", "tract_name": "206.04", "tags": {"building": "yes", "source": "microsoft/BuildingFootprints"}}}, {"type": "Feature", "geometry": {"type": "Polygon", "coordinates": [[[-96.1434459, 35.9802001], [-96.1432856, 35.9803418], [-96.143379, 35.980411], [-96.1435393, 35.9802693], [-96.1434459, 35.9802001]]]}, "properties": {"osm_id": 1235078536, "building": "yes", "name": "", "height": null, "height_m": null, "levels": null, "tract_id": "40037020604", "tract_name": "206.04", "tags": {"building": "yes", "source": "microsoft/BuildingFootprints"}}}, {"type": "Feature", "geometry": {"type": "Polygon", "coordinates": [[[-96.1432765, 35.980103], [-96.143139, 35.9802255], [-96.1432654, 35.9803184], [-96.1434029, 35.9801959], [-96.1432765, 35.980103]]]}, "properties": {"osm_id": 1235078537, "building": "yes", "name": "", "height": null, "height_m": null, "levels": null, "tract_id": "40037020604", "tract_name": "206.04", "tags": {"building": "yes", "source": "microsoft/BuildingFootprints"}}}, {"type": "Feature", "geometry": {"type": "Polygon", "coordinates": [[[-96.1429858, 35.9801411], [-96.1430457, 35.9801796], [-96.1430575, 35.9801676], [-96.1431078, 35.9801999], [-96.1432384, 35.9800668], [-96.1431282, 35.979996], [-96.1429858, 35.9801411]]]}, "properties": {"osm_id": 1235078538, "building": "yes", "name": "", "height": null, "height_m": null, "levels": null, "tract_id": "40037020604", "tract_name": "206.04", "tags": {"building": "yes", "source": "microsoft/BuildingFootprints"}}}, {"type": "Feature", "geometry": {"type": "Polygon", "coordinates": [[[-96.1439521, 35.9805919], [-96.1440052, 35.9804988], [-96.1438703, 35.9804485], [-96.1437979, 35.9805755], [-96.1438509, 35.9805953], [-96.1438387, 35.9806168], [-96.1439448, 35.9806564], [-96.1439765, 35.980601], [-96.1439521, 35.9805919]]]}, "properties": {"osm_id": 1235078539, "building": "yes", "name": "", "height": null, "height_m": null, "levels": null, "tract_id": "40037020604", "tract_name": "206.04", "tags": {"building": "yes", "source": "microsoft/BuildingFootprints"}}}, {"type": "Feature", "geometry": {"type": "Polygon", "coordinates": [[[-96.142676, 35.9798964], [-96.1427137, 35.979925], [-96.1426968, 35.9799396], [-96.1427802, 35.980003], [-96.1428378, 35.9799535], [-96.1428113, 35.9799333], [-96.1429152, 35.9798439], [-96.1428206, 35.979772], [-96.142676, 35.9798964]]]}, "properties": {"osm_id": 1235078540, "building": "yes", "name": "", "height": null, "height_m": null, "levels": null, "tract_id": "40037020604", "tract_name": "206.04", "tags": {"building": "yes", "source": "microsoft/BuildingFootprints"}}}, {"type": "Feature", "geometry": {"type": "Polygon", "coordinates": [[[-96.1427961, 35.9797508], [-96.1426896, 35.9796719], [-96.1426081, 35.9797439], [-96.1425839, 35.9797259], [-96.1425318, 35.979772], [-96.1426625, 35.9798688], [-96.1427961, 35.9797508]]]}, "properties": {"osm_id": 1235078541, "building": "yes", "name": "", "height": null, "height_m": null, "levels": null, "tract_id": "40037020604", "tract_name": "206.04", "tags": {"building": "yes", "source": "microsoft/BuildingFootprints"}}}, {"type": "Feature", "geometry": {"type": "Polygon", "coordinates": [[[-96.1418291, 35.9799987], [-96.1418319, 35.9798259], [-96.1416898, 35.9798244], [-96.141687, 35.9799972], [-96.1418291, 35.9799987]]]}, "properties": {"osm_id": 1235078603, "building": "yes", "name": "", "height": null, "height_m": null, "levels": null, "tract_id": "40037020604", "tract_name": "206.04", "tags": {"building": "yes", "source": "microsoft/BuildingFootprints"}}}, {"type": "Feature", "geometry": {"type": "Polygon", "coordinates": [[[-96.1414923, 35.9799972], [-96.1416333, 35.9799944], [-96.1416281, 35.979823], [-96.1414872, 35.9798258], [-96.1414923, 35.9799972]]]}, "properties": {"osm_id": 1235078604, "building": "yes", "name": "", "height": null, "height_m": null, "levels": null, "tract_id": "40037020604", "tract_name": "206.04", "tags": {"building": "yes", "source": "microsoft/BuildingFootprints"}}}, {"type": "Feature", "geometry": {"type": "Polygon", "coordinates": [[[-96.1413626, 35.9799851], [-96.1414324, 35.9799843], [-96.1414299, 35.9798281], [-96.1413602, 35.9798288], [-96.1413626, 35.9799851]]]}, "properties": {"osm_id": 1235078605, "building": "yes", "name": "", "height": null, "height_m": null, "levels": null, "tract_id": "40037020604", "tract_name": "206.04", "tags": {"building": "yes", "source": "microsoft/BuildingFootprints"}}}, {"type": "Feature", "geometry": {"type": "Polygon", "coordinates": [[[-96.1410858, 35.9799935], [-96.1411957, 35.9799911], [-96.1411946, 35.9799594], [-96.1412375, 35.9799584], [-96.1412332, 35.9798283], [-96.1410804, 35.9798316], [-96.1410858, 35.9799935]]]}, "properties": {"osm_id": 1235078606, "building": "yes", "name": "", "height": null, "height_m": null, "levels": null, "tract_id": "40037020604", "tract_name": "206.04", "tags": {"building": "yes", "source": "microsoft/BuildingFootprints"}}}, {"type": "Feature", "geometry": {"type": "Polygon", "coordinates": [[[-96.1408655, 35.9799915], [-96.1410398, 35.9799896], [-96.1410372, 35.9798298], [-96.1408629, 35.9798317], [-96.1408655, 35.9799915]]]}, "properties": {"osm_id": 1235078607, "building": "yes", "name": "", "height": null, "height_m": null, "levels": null, "tract_id": "40037020604", "tract_name": "206.04", "tags": {"building": "yes", "source": "microsoft/BuildingFootprints"}}}, {"type": "Feature", "geometry": {"type": "Polygon", "coordinates": [[[-96.1408258, 35.9798559], [-96.1406784, 35.9798586], [-96.1406825, 35.9800083], [-96.1408299, 35.9800056], [-96.1408258, 35.9798559]]]}, "properties": {"osm_id": 1235078608, "building": "yes", "name": "", "height": null, "height_m": null, "levels": null, "tract_id": "40037020604", "tract_name": "206.04", "tags": {"building": "yes", "source": "microsoft/BuildingFootprints"}}}, {"type": "Feature", "geometry": {"type": "Polygon", "coordinates": [[[-96.1405831, 35.9799007], [-96.140437, 35.979858], [-96.140385, 35.9799744], [-96.1405311, 35.9800171], [-96.1405831, 35.9799007]]]}, "properties": {"osm_id": 1235078609, "building": "yes", "name": "", "height": null, "height_m": null, "levels": null, "tract_id": "40037020604", "tract_name": "206.04", "tags": {"building": "yes", "source": "microsoft/BuildingFootprints"}}}, {"type": "Feature", "geometry": {"type": "Polygon", "coordinates": [[[-96.1403283, 35.9795125], [-96.1404023, 35.9795113], [-96.1404016, 35.9794822], [-96.1404793, 35.979481], [-96.1404762, 35.9793581], [-96.1403996, 35.9793594], [-96.140399, 35.9793355], [-96.1403239, 35.9793368], [-96.1403283, 35.9795125]]]}, "properties": {"osm_id": 1235078610, "building": "yes", "name": "", "height": null, "height_m": null, "levels": null, "tract_id": "40037020604", "tract_name": "206.04", "tags": {"building": "yes", "source": "microsoft/BuildingFootprints"}}}, {"type": "Feature", "geometry": {"type": "Polygon", "coordinates": [[[-96.1405205, 35.9793328], [-96.1405128, 35.9794671], [-96.1406745, 35.9794731], [-96.1406822, 35.9793388], [-96.1405205, 35.9793328]]]}, "properties": {"osm_id": 1235078611, "building": "yes", "name": "", "height": null, "height_m": null, "levels": null, "tract_id": "40037020604", "tract_name": "206.04", "tags": {"building": "yes", "source": "microsoft/BuildingFootprints"}}}, {"type": "Feature", "geometry": {"type": "Polygon", "coordinates": [[[-96.140988, 35.9793344], [-96.140991, 35.9794863], [-96.1410499, 35.9794856], [-96.1410507, 35.9795225], [-96.1411418, 35.9795214], [-96.1411378, 35.9793109], [-96.1410482, 35.979312], [-96.1410487, 35.9793337], [-96.140988, 35.9793344]]]}, "properties": {"osm_id": 1235078612, "building": "yes", "name": "", "height": null, "height_m": null, "levels": null, "tract_id": "40037020604", "tract_name": "206.04", "tags": {"building": "yes", "source": "microsoft/BuildingFootprints"}}}, {"type": "Feature", "geometry": {"type": "Polygon", "coordinates": [[[-96.141326, 35.9793711], [-96.1411811, 35.9793719], [-96.1411825, 35.9795217], [-96.1413273, 35.9795208], [-96.141326, 35.9793711]]]}, "properties": {"osm_id": 1235078613, "building": "yes", "name": "", "height": null, "height_m": null, "levels": null, "tract_id": "40037020604", "tract_name": "206.04", "tags": {"building": "yes", "source": "microsoft/BuildingFootprints"}}}, {"type": "Feature", "geometry": {"type": "Polygon", "coordinates": [[[-96.1415485, 35.9793453], [-96.1413715, 35.9793438], [-96.1413693, 35.9795095], [-96.1415463, 35.9795111], [-96.1415485, 35.9793453]]]}, "properties": {"osm_id": 1235078614, "building": "yes", "name": "", "height": null, "height_m": null, "levels": null, "tract_id": "40037020604", "tract_name": "206.04", "tags": {"building": "yes", "source": "microsoft/BuildingFootprints"}}}, {"type": "Feature", "geometry": {"type": "Polygon", "coordinates": [[[-96.1417337, 35.9795215], [-96.1417372, 35.9793509], [-96.1415924, 35.9793489], [-96.1415892, 35.9795073], [-96.1416455, 35.9795081], [-96.1416452, 35.9795203], [-96.1417337, 35.9795215]]]}, "properties": {"osm_id": 1235078615, "building": "yes", "name": "", "height": null, "height_m": null, "levels": null, "tract_id": "40037020604", "tract_name": "206.04", "tags": {"building": "yes", "source": "microsoft/BuildingFootprints"}}}, {"type": "Feature", "geometry": {"type": "Polygon", "coordinates": [[[-96.1419341, 35.9793854], [-96.1417936, 35.9793841], [-96.1417916, 35.97952], [-96.1419322, 35.9795214], [-96.1419341, 35.9793854]]]}, "properties": {"osm_id": 1235078616, "building": "yes", "name": "", "height": null, "height_m": null, "levels": null, "tract_id": "40037020604", "tract_name": "206.04", "tags": {"building": "yes", "source": "microsoft/BuildingFootprints"}}}, {"type": "Feature", "geometry": {"type": "Polygon", "coordinates": [[[-96.1422302, 35.9795003], [-96.1422917, 35.9795433], [-96.1422718, 35.9795619], [-96.142378, 35.979636], [-96.1424624, 35.9795568], [-96.1424061, 35.9795175], [-96.1424644, 35.9794627], [-96.1424176, 35.9794301], [-96.1424084, 35.9794388], [-96.1423437, 35.9793937], [-96.1422302, 35.9795003]]]}, "properties": {"osm_id": 1235078617, "building": "yes", "name": "", "height": null, "height_m": null, "levels": null, "tract_id": "40037020604", "tract_name": "206.04", "tags": {"building": "yes", "source": "microsoft/BuildingFootprints"}}}, {"type": "Feature", "geometry": {"type": "Polygon", "coordinates": [[[-96.1405263, 35.9790361], [-96.1405317, 35.9791936], [-96.1406845, 35.9791901], [-96.140679, 35.9790326], [-96.1405263, 35.9790361]]]}, "properties": {"osm_id": 1235078618, "building": "yes", "name": "", "height": null, "height_m": null, "levels": null, "tract_id": "40037020604", "tract_name": "206.04", "tags": {"building": "yes", "source": "microsoft/BuildingFootprints"}}}, {"type": "Feature", "geometry": {"type": "Polygon", "coordinates": [[[-96.1403296, 35.9791968], [-96.1404046, 35.9791981], [-96.1404053, 35.9791756], [-96.140483, 35.979177], [-96.1404865, 35.979052], [-96.1404088, 35.9790506], [-96.1404096, 35.9790202], [-96.1403345, 35.9790189], [-96.1403296, 35.9791968]]]}, "properties": {"osm_id": 1235078619, "building": "yes", "name": "", "height": null, "height_m": null, "levels": null, "tract_id": "40037020604", "tract_name": "206.04", "tags": {"building": "yes", "source": "microsoft/BuildingFootprints"}}}, {"type": "Feature", "geometry": {"type": "Polygon", "coordinates": [[[-96.140271, 35.9789887], [-96.1400994, 35.9789866], [-96.1400963, 35.9791515], [-96.1402116, 35.979153], [-96.1402121, 35.9791248], [-96.1402684, 35.9791255], [-96.140271, 35.9789887]]]}, "properties": {"osm_id": 1235078620, "building": "yes", "name": "", "height": null, "height_m": null, "levels": null, "tract_id": "40037020604", "tract_name": "206.04", "tags": {"building": "yes", "source": "microsoft/BuildingFootprints"}}}, {"type": "Feature", "geometry": {"type": "Polygon", "coordinates": [[[-96.1394945, 35.9782879], [-96.1395481, 35.9782871], [-96.1395487, 35.9783131], [-96.1396292, 35.9783119], [-96.1396286, 35.9782881], [-96.1396849, 35.9782872], [-96.1396823, 35.9781722], [-96.13961, 35.9781733], [-96.1396091, 35.9781364], [-96.1394911, 35.9781381], [-96.1394945, 35.9782879]]]}, "properties": {"osm_id": 1235078621, "building": "yes", "name": "", "height": null, "height_m": null, "levels": null, "tract_id": "40037020604", "tract_name": "206.04", "tags": {"building": "yes", "source": "microsoft/BuildingFootprints"}}}, {"type": "Feature", "geometry": {"type": "Polygon", "coordinates": [[[-96.1397224, 35.9782877], [-96.1397653, 35.9782882], [-96.1397651, 35.9783069], [-96.1398348, 35.9783076], [-96.1398351, 35.978288], [-96.1398978, 35.9782887], [-96.139899, 35.9782084], [-96.1399463, 35.9782089], [-96.1399475, 35.9781329], [-96.1398063, 35.9781315], [-96.1398059, 35.9781575], [-96.1397245, 35.9781567], [-96.1397224, 35.9782877]]]}, "properties": {"osm_id": 1235078622, "building": "yes", "name": "", "height": null, "height_m": null, "levels": null, "tract_id": "40037020604", "tract_name": "206.04", "tags": {"building": "yes", "source": "microsoft/BuildingFootprints"}}}, {"type": "Feature", "geometry": {"type": "Polygon", "coordinates": [[[-96.1403612, 35.9781356], [-96.1402955, 35.9781366], [-96.1402298, 35.9781376], [-96.1402316, 35.9782092], [-96.1402771, 35.9782085], [-96.1402791, 35.978291], [-96.1403327, 35.9782901], [-96.1403333, 35.978314], [-96.1404084, 35.9783128], [-96.1404079, 35.9782911], [-96.1404561, 35.9782904], [-96.1404537, 35.9781884], [-96.1403625, 35.9781898], [-96.1403612, 35.9781356]]]}, "properties": {"osm_id": 1235078623, "building": "yes", "name": "", "height": null, "height_m": null, "levels": null, "tract_id": "40037020604", "tract_name": "206.04", "tags": {"building": "yes", "source": "microsoft/BuildingFootprints"}}}, {"type": "Feature", "geometry": {"type": "Polygon", "coordinates": [[[-96.1404898, 35.9782363], [-96.1405328, 35.9782358], [-96.140534, 35.9783044], [-96.1407083, 35.9783024], [-96.1407059, 35.9781657], [-96.1404887, 35.9781682], [-96.1404898, 35.9782363]]]}, "properties": {"osm_id": 1235078624, "building": "yes", "name": "", "height": null, "height_m": null, "levels": null, "tract_id": "40037020604", "tract_name": "206.04", "tags": {"building": "yes", "source": "microsoft/BuildingFootprints"}}}, {"type": "Feature", "geometry": {"type": "Polygon", "coordinates": [[[-96.1410275, 35.977889], [-96.1410275, 35.9778217], [-96.140998, 35.9778217], [-96.140998, 35.9777349], [-96.1409229, 35.9777349], [-96.1409229, 35.9777088], [-96.1408129, 35.9777088], [-96.1408129, 35.9778521], [-96.1409068, 35.9778521], [-96.1409068, 35.977889], [-96.1410275, 35.977889]]]}, "properties": {"osm_id": 1235078625, "building": "yes", "name": "", "height": null, "height_m": null, "levels": null, "tract_id": "40037020604", "tract_name": "206.04", "tags": {"building": "yes", "source": "microsoft/BuildingFootprints"}}}, {"type": "Feature", "geometry": {"type": "Polygon", "coordinates": [[[-96.141838, 35.9783878], [-96.1418943, 35.9783878], [-96.1418943, 35.9784073], [-96.1419721, 35.9784073], [-96.1419721, 35.9783877], [-96.1420177, 35.9783877], [-96.1420175, 35.9782566], [-96.1418646, 35.9782568], [-96.1418646, 35.9782337], [-96.1417895, 35.9782338], [-96.1417896, 35.9783076], [-96.1418379, 35.9783075], [-96.141838, 35.9783878]]]}, "properties": {"osm_id": 1235078626, "building": "yes", "name": "", "height": null, "height_m": null, "levels": null, "tract_id": "40037020604", "tract_name": "206.04", "tags": {"building": "yes", "source": "microsoft/BuildingFootprints"}}}, {"type": "Feature", "geometry": {"type": "Polygon", "coordinates": [[[-96.1417463, 35.9782338], [-96.1416095, 35.9782352], [-96.14161, 35.9782656], [-96.1415178, 35.9782666], [-96.1415198, 35.9783881], [-96.1415627, 35.9783877], [-96.141563, 35.9784086], [-96.1416434, 35.9784077], [-96.1416432, 35.978389], [-96.1416995, 35.9783884], [-96.1416982, 35.9783103], [-96.1417475, 35.9783098], [-96.1417463, 35.9782338]]]}, "properties": {"osm_id": 1235078627, "building": "yes", "name": "", "height": null, "height_m": null, "levels": null, "tract_id": "40037020604", "tract_name": "206.04", "tags": {"building": "yes", "source": "microsoft/BuildingFootprints"}}}, {"type": "Feature", "geometry": {"type": "Polygon", "coordinates": [[[-96.1412471, 35.9783985], [-96.1414283, 35.9783935], [-96.1414246, 35.9783068], [-96.1414728, 35.9783054], [-96.1414696, 35.9782296], [-96.1413571, 35.9782327], [-96.1413578, 35.97825], [-96.1412409, 35.9782532], [-96.1412471, 35.9783985]]]}, "properties": {"osm_id": 1235078628, "building": "yes", "name": "", "height": null, "height_m": null, "levels": null, "tract_id": "40037020604", "tract_name": "206.04", "tags": {"building": "yes", "source": "microsoft/BuildingFootprints"}}}, {"type": "Feature", "geometry": {"type": "Polygon", "coordinates": [[[-96.1407604, 35.9782061], [-96.1407633, 35.9783545], [-96.1408428, 35.9783535], [-96.1408423, 35.9783275], [-96.1409371, 35.9783262], [-96.1409347, 35.9782039], [-96.1407604, 35.9782061]]]}, "properties": {"osm_id": 1235078629, "building": "yes", "name": "", "height": null, "height_m": null, "levels": null, "tract_id": "40037020604", "tract_name": "206.04", "tags": {"building": "yes", "source": "microsoft/BuildingFootprints"}}}, {"type": "Feature", "geometry": {"type": "Polygon", "coordinates": [[[-96.1399908, 35.9781343], [-96.1399932, 35.9782876], [-96.1400539, 35.978287], [-96.1400543, 35.978313], [-96.140133, 35.9783122], [-96.1401327, 35.9782884], [-96.1401836, 35.9782879], [-96.1401819, 35.9781772], [-96.1401005, 35.978178], [-96.1400998, 35.9781333], [-96.1399908, 35.9781343]]]}, "properties": {"osm_id": 1235078630, "building": "yes", "name": "", "height": null, "height_m": null, "levels": null, "tract_id": "40037020604", "tract_name": "206.04", "tags": {"building": "yes", "source": "microsoft/BuildingFootprints"}}}, {"type": "Feature", "geometry": {"type": "Polygon", "coordinates": [[[-96.1399009, 35.9785973], [-96.1399893, 35.9785993], [-96.1399881, 35.978634], [-96.1400739, 35.978636], [-96.1400794, 35.9784777], [-96.1400311, 35.9784766], [-96.1400318, 35.978457], [-96.1399541, 35.9784553], [-96.1399534, 35.9784756], [-96.1399051, 35.9784745], [-96.1399009, 35.9785973]]]}, "properties": {"osm_id": 1235078631, "building": "yes", "name": "", "height": null, "height_m": null, "levels": null, "tract_id": "40037020604", "tract_name": "206.04", "tags": {"building": "yes", "source": "microsoft/BuildingFootprints"}}}, {"type": "Feature", "geometry": {"type": "Polygon", "coordinates": [[[-96.1397087, 35.9786145], [-96.1397827, 35.9786156], [-96.1397825, 35.9786265], [-96.1398613, 35.9786276], [-96.1398645, 35.9784822], [-96.1397116, 35.97848], [-96.1397087, 35.9786145]]]}, "properties": {"osm_id": 1235078632, "building": "yes", "name": "", "height": null, "height_m": null, "levels": null, "tract_id": "40037020604", "tract_name": "206.04", "tags": {"building": "yes", "source": "microsoft/BuildingFootprints"}}}, {"type": "Feature", "geometry": {"type": "Polygon", "coordinates": [[[-96.1402822, 35.9785189], [-96.1401106, 35.9785156], [-96.1401066, 35.9786522], [-96.1401682, 35.9786534], [-96.1401684, 35.9786469], [-96.1402783, 35.978649], [-96.1402822, 35.9785189]]]}, "properties": {"osm_id": 1235078633, "building": "yes", "name": "", "height": null, "height_m": null, "levels": null, "tract_id": "40037020604", "tract_name": "206.04", "tags": {"building": "yes", "source": "microsoft/BuildingFootprints"}}}, {"type": "Feature", "geometry": {"type": "Polygon", "coordinates": [[[-96.1403719, 35.9786825], [-96.140447, 35.9786832], [-96.1404466, 35.9787157], [-96.140526, 35.9787164], [-96.1405284, 35.9785393], [-96.1404453, 35.9785385], [-96.140445, 35.9785602], [-96.1403736, 35.9785596], [-96.1403719, 35.9786825]]]}, "properties": {"osm_id": 1235078634, "building": "yes", "name": "", "height": null, "height_m": null, "levels": null, "tract_id": "40037020604", "tract_name": "206.04", "tags": {"building": "yes", "source": "microsoft/BuildingFootprints"}}}, {"type": "Feature", "geometry": {"type": "Polygon", "coordinates": [[[-96.1407419, 35.9787169], [-96.140739, 35.9785802], [-96.140687, 35.9785809], [-96.1406864, 35.9785549], [-96.1406328, 35.9785556], [-96.1406334, 35.9785817], [-96.140562, 35.9785827], [-96.140565, 35.9787216], [-96.1406561, 35.9787203], [-96.1406561, 35.9787181], [-96.1407419, 35.9787169]]]}, "properties": {"osm_id": 1235078635, "building": "yes", "name": "", "height": null, "height_m": null, "levels": null, "tract_id": "40037020604", "tract_name": "206.04", "tags": {"building": "yes", "source": "microsoft/BuildingFootprints"}}}, {"type": "Feature", "geometry": {"type": "Polygon", "coordinates": [[[-96.1409557, 35.9785681], [-96.1408994, 35.9785683], [-96.1408993, 35.9785466], [-96.1408215, 35.9785468], [-96.1408216, 35.9785685], [-96.1407787, 35.9785686], [-96.1407792, 35.9786966], [-96.1408677, 35.9786964], [-96.1408678, 35.9787224], [-96.1409563, 35.9787222], [-96.1409557, 35.9785681]]]}, "properties": {"osm_id": 1235078636, "building": "yes", "name": "", "height": null, "height_m": null, "levels": null, "tract_id": "40037020604", "tract_name": "206.04", "tags": {"building": "yes", "source": "microsoft/BuildingFootprints"}}}, {"type": "Feature", "geometry": {"type": "Polygon", "coordinates": [[[-96.1411588, 35.9787222], [-96.1411563, 35.9785573], [-96.1410759, 35.978558], [-96.1410761, 35.9785703], [-96.1409983, 35.978571], [-96.1410001, 35.9786912], [-96.1410725, 35.9786905], [-96.141073, 35.978723], [-96.1411588, 35.9787222]]]}, "properties": {"osm_id": 1235078637, "building": "yes", "name": "", "height": null, "height_m": null, "levels": null, "tract_id": "40037020604", "tract_name": "206.04", "tags": {"building": "yes", "source": "microsoft/BuildingFootprints"}}}, {"type": "Feature", "geometry": {"type": "Polygon", "coordinates": [[[-96.1411955, 35.9785879], [-96.1411916, 35.9787232], [-96.1412576, 35.9787244], [-96.1412579, 35.9787149], [-96.1413678, 35.9787169], [-96.1413714, 35.9785911], [-96.1411955, 35.9785879]]]}, "properties": {"osm_id": 1235078638, "building": "yes", "name": "", "height": null, "height_m": null, "levels": null, "tract_id": "40037020604", "tract_name": "206.04", "tags": {"building": "yes", "source": "microsoft/BuildingFootprints"}}}, {"type": "Feature", "geometry": {"type": "Polygon", "coordinates": [[[-96.1414194, 35.9787156], [-96.1415867, 35.9787176], [-96.1415892, 35.9785874], [-96.1414927, 35.9785862], [-96.1414932, 35.978558], [-96.1414225, 35.9785572], [-96.1414194, 35.9787156]]]}, "properties": {"osm_id": 1235078639, "building": "yes", "name": "", "height": null, "height_m": null, "levels": null, "tract_id": "40037020604", "tract_name": "206.04", "tags": {"building": "yes", "source": "microsoft/BuildingFootprints"}}}, {"type": "Feature", "geometry": {"type": "Polygon", "coordinates": [[[-96.1417591, 35.9785555], [-96.1416304, 35.978554], [-96.1416274, 35.9787182], [-96.1418044, 35.9787202], [-96.1418069, 35.9785814], [-96.1417586, 35.9785808], [-96.1417591, 35.9785555]]]}, "properties": {"osm_id": 1235078640, "building": "yes", "name": "", "height": null, "height_m": null, "levels": null, "tract_id": "40037020604", "tract_name": "206.04", "tags": {"building": "yes", "source": "microsoft/BuildingFootprints"}}}, {"type": "Feature", "geometry": {"type": "Polygon", "coordinates": [[[-96.1418578, 35.978561], [-96.1418556, 35.9787165], [-96.1420031, 35.9787179], [-96.1420054, 35.9785624], [-96.1418578, 35.978561]]]}, "properties": {"osm_id": 1235078641, "building": "yes", "name": "", "height": null, "height_m": null, "levels": null, "tract_id": "40037020604", "tract_name": "206.04", "tags": {"building": "yes", "source": "microsoft/BuildingFootprints"}}}, {"type": "Feature", "geometry": {"type": "Polygon", "coordinates": [[[-96.1423261, 35.9782104], [-96.1421679, 35.9782092], [-96.1421673, 35.9782512], [-96.1421405, 35.978251], [-96.1421397, 35.9783153], [-96.1421729, 35.9783156], [-96.1421724, 35.9783598], [-96.1424047, 35.9783616], [-96.1424057, 35.978277], [-96.1423253, 35.9782763], [-96.1423261, 35.9782104]]]}, "properties": {"osm_id": 1235078642, "building": "yes", "name": "", "height": null, "height_m": null, "levels": null, "tract_id": "40037020604", "tract_name": "206.04", "tags": {"building": "yes", "source": "microsoft/BuildingFootprints"}}}, {"type": "Feature", "geometry": {"type": "Polygon", "coordinates": [[[-96.1422195, 35.9785907], [-96.1422179, 35.9786841], [-96.1421723, 35.9786836], [-96.1421716, 35.9787248], [-96.1423218, 35.9787265], [-96.1423213, 35.9787547], [-96.1423964, 35.9787555], [-96.1423992, 35.9785927], [-96.1422195, 35.9785907]]]}, "properties": {"osm_id": 1235078643, "building": "yes", "name": "", "height": null, "height_m": null, "levels": null, "tract_id": "40037020604", "tract_name": "206.04", "tags": {"building": "yes", "source": "microsoft/BuildingFootprints"}}}, {"type": "Feature", "geometry": {"type": "Polygon", "coordinates": [[[-96.1409867, 35.9782262], [-96.1409858, 35.9782913], [-96.1410367, 35.9782918], [-96.1410357, 35.9783634], [-96.1412046, 35.978365], [-96.1412066, 35.9782283], [-96.1409867, 35.9782262]]]}, "properties": {"osm_id": 1235078644, "building": "yes", "name": "", "height": null, "height_m": null, "levels": null, "tract_id": "40037020604", "tract_name": "206.04", "tags": {"building": "yes", "source": "microsoft/BuildingFootprints"}}}, {"type": "Feature", "geometry": {"type": "Polygon", "coordinates": [[[-96.1421494, 35.9793716], [-96.1419981, 35.9793699], [-96.1419959, 35.9794988], [-96.1420656, 35.9794996], [-96.1420652, 35.9795226], [-96.1421468, 35.9795235], [-96.1421494, 35.9793716]]]}, "properties": {"osm_id": 1235078645, "building": "yes", "name": "", "height": null, "height_m": null, "levels": null, "tract_id": "40037020604", "tract_name": "206.04", "tags": {"building": "yes", "source": "microsoft/BuildingFootprints"}}}, {"type": "Feature", "geometry": {"type": "Polygon", "coordinates": [[[-96.1939913, 35.969913], [-96.1941947, 35.9694367], [-96.1941084, 35.9694143], [-96.1939143, 35.9698756], [-96.1939913, 35.969913]]]}, "properties": {"osm_id": 1292732603, "building": "grandstand", "name": "", "height": null, "height_m": null, "levels": null, "tract_id": "40037020604", "tract_name": "206.04", "tags": {"building": "grandstand"}}}]}