{"type": "FeatureCollection", "features": [{"type": "Feature", "geometry": {"type": "Polygon", "coordinates": [[[-96.0720193, 36.0563741], [-96.0718721, 36.0563227], [-96.0719715, 36.0561366], [-96.0721072, 36.056184], [-96.0721545, 36.0560951], [-96.0721872, 36.0560342], [-96.0723785, 36.056101], [-96.0723426, 36.0561679], [-96.0722266, 36.0563855], [-96.0720467, 36.0563227], [-96.0720193, 36.0563741]]]}, "properties": {"osm_id": 99404114, "building": "yes", "name": "Sapulpa Fire Department #4", "height": null, "height_m": null, "levels": null, "tract_id": "40037020101", "tract_name": "201.01", "tags": {"amenity": "fire_station", "building": "yes", "name": "Sapulpa Fire Department #4"}}}, {"type": "Feature", "geometry": {"type": "Polygon", "coordinates": [[[-96.0486347, 36.0696604], [-96.0479368, 36.0696573], [-96.0479428, 36.0687798], [-96.0480717, 36.0687804], [-96.048073, 36.0685925], [-96.0481418, 36.0685928], [-96.04842, 36.068594], [-96.0484188, 36.0687767], [-96.0486407, 36.0687776], [-96.0486347, 36.0696604]]]}, "properties": {"osm_id": 188958036, "building": "industrial", "name": "xpedx", "height": null, "height_m": null, "levels": null, "tract_id": "40037020101", "tract_name": "201.01", "tags": {"addr:city": "Tulsa", "addr:country": "US", "addr:housenumber": "4901", "addr:postcode": "74131", "addr:state": "OK", "addr:street": "West 66th Street South", "alt_name": "International Paper Company", "building": "industrial", "name": "xpedx"}}}, {"type": "Feature", "geometry": {"type": "Polygon", "coordinates": [[[-96.0541569, 36.074154], [-96.0536466, 36.073617], [-96.0539227, 36.0734456], [-96.054433, 36.0739826], [-96.0541569, 36.074154]]]}, "properties": {"osm_id": 191525396, "building": "yes", "name": "SimplexGrinnell", "height": null, "height_m": null, "levels": null, "tract_id": "40037020101", "tract_name": "201.01", "tags": {"addr:city": "Tulsa", "addr:country": "US", "addr:housenumber": "6111", "addr:postcode": "74131", "addr:state": "OK", "addr:street": "New Sapulpa Road", "building": "yes", "name": "SimplexGrinnell"}}}, {"type": "Feature", "geometry": {"type": "Polygon", "coordinates": [[[-96.064063, 36.0640361], [-96.0640849, 36.064036], [-96.0640861, 36.064169], [-96.0645271, 36.0641664], [-96.0645269, 36.0641425], [-96.0646475, 36.0641417], [-96.0646445, 36.0638158], [-96.0644043, 36.0638173], [-96.0644032, 36.0637016], [-96.0644883, 36.0637011], [-96.0644871, 36.0635695], [-96.0647665, 36.0635678], [-96.0647638, 36.0632767], [-96.0648131, 36.0632764], [-96.064811, 36.0630506], [-96.0647704, 36.0630508], [-96.0647688, 36.0628865], [-96.0647257, 36.0628867], [-96.0647225, 36.062537], [-96.0645286, 36.0625381], [-96.064529, 36.0625851], [-96.0640605, 36.0625879], [-96.0640594, 36.0624686], [-96.0637233, 36.0624707], [-96.0637247, 36.0626214], [-96.0637916, 36.062621], [-96.0637971, 36.0632257], [-96.0636952, 36.0632263], [-96.063698, 36.0635271], [-96.0640624, 36.063525], [-96.0640614, 36.0634085], [-96.0643661, 36.0634067], [-96.0643672, 36.0635191], [-96.0641802, 36.0635203], [-96.064182, 36.063716], [-96.0643544, 36.063715], [-96.0643554, 36.0638193], [-96.0642067, 36.0638202], [-96.0642063, 36.063783], [-96.0640607, 36.0637839], [-96.064063, 36.0640361]]]}, "properties": {"osm_id": 195656495, "building": "industrial", "name": "", "height": null, "height_m": null, "levels": null, "tract_id": "40037020101", "tract_name": "201.01", "tags": {"addr:city": "Tulsa", "addr:country": "US", "addr:housenumber": "6801", "addr:postcode": "74131", "addr:state": "OK", "addr:street": "South 65th West Avenue", "building": "industrial"}}}, {"type": "Feature", "geometry": {"type": "Polygon", "coordinates": [[[-96.076272, 36.0489558], [-96.0764278, 36.0490176], [-96.0764468, 36.0489863], [-96.0765157, 36.0490136], [-96.076466, 36.0490953], [-96.0762414, 36.0490062], [-96.076272, 36.0489558]]]}, "properties": {"osm_id": 263295411, "building": "roof", "name": "Phillips 66", "height": null, "height_m": null, "levels": null, "tract_id": "40037020101", "tract_name": "201.01", "tags": {"addr:city": "Tulsa", "addr:housenumber": "7911", "addr:postcode": "74131", "addr:state": "OK", "addr:street": "New Sapulpa Road", "amenity": "fuel", "brand": "Phillips 66", "brand:wikidata": "Q1656230", "building": "roof", "name": "Phillips 66", "website": "https://www.phillips66gas.com/station/P66-J-N-J-0000906771/"}}}, {"type": "Feature", "geometry": {"type": "Polygon", "coordinates": [[[-96.0760923, 36.0495534], [-96.0759503, 36.0495044], [-96.0761884, 36.0490535], [-96.0763304, 36.0491025], [-96.0760923, 36.0495534]]]}, "properties": {"osm_id": 263295533, "building": "yes", "name": "", "height": null, "height_m": null, "levels": null, "tract_id": "40037020101", "tract_name": "201.01", "tags": {"building": "yes"}}}, {"type": "Feature", "geometry": {"type": "Polygon", "coordinates": [[[-96.0624989, 36.0673281], [-96.0631483, 36.0669023], [-96.0635763, 36.0673287], [-96.0633795, 36.0674578], [-96.0635219, 36.0675998], [-96.0632803, 36.0677582], [-96.0631378, 36.0676163], [-96.062927, 36.0677546], [-96.0624989, 36.0673281]]]}, "properties": {"osm_id": 263295534, "building": "industrial", "name": "", "height": null, "height_m": null, "levels": null, "tract_id": "40037020101", "tract_name": "201.01", "tags": {"building": "industrial"}}}, {"type": "Feature", "geometry": {"type": "Polygon", "coordinates": [[[-96.049683, 36.0630326], [-96.0495366, 36.0629245], [-96.0494763, 36.0629778], [-96.0494285, 36.0630202], [-96.0493511, 36.0629631], [-96.0494009, 36.0629191], [-96.0494536, 36.0628723], [-96.0494354, 36.0628589], [-96.0494572, 36.0628396], [-96.0492903, 36.0627164], [-96.0493294, 36.0626819], [-96.0493606, 36.0627049], [-96.0494656, 36.0626119], [-96.0496074, 36.0627165], [-96.0496728, 36.0626586], [-96.0499, 36.0628263], [-96.04985, 36.0628706], [-96.0498587, 36.062877], [-96.0498251, 36.0629067], [-96.0498437, 36.0629498], [-96.0498349, 36.0629858], [-96.049806, 36.0630113], [-96.0497648, 36.0630192], [-96.0497132, 36.0630058], [-96.049683, 36.0630326]]]}, "properties": {"osm_id": 289412439, "building": "yes", "name": "Temple Conference Center", "height": null, "height_m": null, "levels": null, "tract_id": "40037020101", "tract_name": "201.01", "tags": {"building": "yes", "name": "Temple Conference Center"}}}, {"type": "Feature", "geometry": {"type": "Polygon", "coordinates": [[[-96.0492296, 36.0625523], [-96.0493808, 36.0626005], [-96.0494137, 36.0625331], [-96.0492625, 36.0624849], [-96.0492296, 36.0625523]]]}, "properties": {"osm_id": 289412440, "building": "office", "name": "Camp Office", "height": null, "height_m": 3.0, "levels": 1, "tract_id": "40037020101", "tract_name": "201.01", "tags": {"building": "office", "building:levels": "1", "name": "Camp Office"}}}, {"type": "Feature", "geometry": {"type": "Polygon", "coordinates": [[[-96.0487948, 36.0640007], [-96.0486909, 36.0638937], [-96.0487583, 36.0638509], [-96.0488622, 36.0639578], [-96.0487948, 36.0640007]]]}, "properties": {"osm_id": 289412441, "building": "pavilion", "name": "Shane's Place", "height": null, "height_m": null, "levels": null, "tract_id": "40037020101", "tract_name": "201.01", "tags": {"building": "pavilion", "name": "Shane's Place"}}}, {"type": "Feature", "geometry": {"type": "Polygon", "coordinates": [[[-96.050363, 36.0651203], [-96.0506676, 36.0651592], [-96.0507268, 36.0648569], [-96.0504221, 36.064818], [-96.050363, 36.0651203]]]}, "properties": {"osm_id": 289412443, "building": "pavilion", "name": "East Pavilion, K-Dome 2", "height": null, "height_m": null, "levels": null, "tract_id": "40037020101", "tract_name": "201.01", "tags": {"building": "pavilion", "name": "East Pavilion, K-Dome 2"}}}, {"type": "Feature", "geometry": {"type": "Polygon", "coordinates": [[[-96.0509123, 36.0637504], [-96.0508493, 36.063702], [-96.0509489, 36.0636174], [-96.051011, 36.0636652], [-96.0509776, 36.0636936], [-96.0509966, 36.0637083], [-96.0509653, 36.0637349], [-96.0509471, 36.0637209], [-96.0509123, 36.0637504]]]}, "properties": {"osm_id": 289412446, "building": "yes", "name": "Activity Cabin", "height": null, "height_m": 3.0, "levels": 1, "tract_id": "40037020101", "tract_name": "201.01", "tags": {"building": "yes", "building:levels": "1", "name": "Activity Cabin"}}}, {"type": "Feature", "geometry": {"type": "Polygon", "coordinates": [[[-96.0573131, 36.0626524], [-96.0575384, 36.0625849], [-96.0574076, 36.0622993], [-96.0571823, 36.0623668], [-96.0573131, 36.0626524]]]}, "properties": {"osm_id": 289412447, "building": "pavilion", "name": "West Pavilion, K-Dome 1", "height": null, "height_m": null, "levels": null, "tract_id": "40037020101", "tract_name": "201.01", "tags": {"building": "pavilion", "name": "West Pavilion, K-Dome 1"}}}, {"type": "Feature", "geometry": {"type": "Polygon", "coordinates": [[[-96.0559202, 36.0627291], [-96.0560711, 36.0627608], [-96.0560791, 36.0627358], [-96.0561423, 36.0625394], [-96.0561088, 36.0625323], [-96.0560806, 36.0625264], [-96.0559937, 36.0624844], [-96.0559851, 36.0625113], [-96.0559113, 36.0624958], [-96.0558984, 36.062536], [-96.055977, 36.0625525], [-96.0559229, 36.0627207], [-96.0559202, 36.0627291]]]}, "properties": {"osm_id": 289412448, "building": "chapel", "name": "Kirkland Chapel", "height": null, "height_m": null, "levels": null, "tract_id": "40037020101", "tract_name": "201.01", "tags": {"building": "chapel", "name": "Kirkland Chapel"}}}, {"type": "Feature", "geometry": {"type": "Polygon", "coordinates": [[[-96.056748, 36.0619853], [-96.0566125, 36.0620562], [-96.0565527, 36.0619815], [-96.0566882, 36.0619106], [-96.056748, 36.0619853]]]}, "properties": {"osm_id": 289412451, "building": "cabin", "name": "Bunkhouse", "height": null, "height_m": 3.0, "levels": 1, "tract_id": "40037020101", "tract_name": "201.01", "tags": {"building": "cabin", "building:levels": "1", "name": "Bunkhouse"}}}, {"type": "Feature", "geometry": {"type": "Polygon", "coordinates": [[[-96.0570339, 36.061916], [-96.0570941, 36.0618681], [-96.0571918, 36.0619484], [-96.0571316, 36.0619963], [-96.0570339, 36.061916]]]}, "properties": {"osm_id": 289412453, "building": "yes", "name": "West Restrooms", "height": null, "height_m": null, "levels": null, "tract_id": "40037020101", "tract_name": "201.01", "tags": {"amenity": "toilets", "building": "yes", "name": "West Restrooms", "toilets:disposal": "flush"}}}, {"type": "Feature", "geometry": {"type": "Polygon", "coordinates": [[[-96.0568368, 36.0618678], [-96.0570092, 36.0618241], [-96.0569775, 36.0617423], [-96.0568051, 36.0617861], [-96.0568368, 36.0618678]]]}, "properties": {"osm_id": 289412454, "building": "cabin", "name": "Glass Cabin", "height": null, "height_m": 3.0, "levels": 1, "tract_id": "40037020101", "tract_name": "201.01", "tags": {"building": "cabin", "building:levels": "1", "name": "Glass Cabin"}}}, {"type": "Feature", "geometry": {"type": "Polygon", "coordinates": [[[-96.0577864, 36.0614505], [-96.0576663, 36.0614507], [-96.0576661, 36.0613776], [-96.0574626, 36.061378], [-96.0574623, 36.0612867], [-96.0578516, 36.061286], [-96.0578519, 36.0613727], [-96.0577862, 36.0613728], [-96.0577864, 36.0614505]]]}, "properties": {"osm_id": 289412456, "building": "yes", "name": "Lodge", "height": null, "height_m": 6.0, "levels": 2, "tract_id": "40037020101", "tract_name": "201.01", "tags": {"building": "yes", "building:levels": "2", "name": "Lodge"}}}, {"type": "Feature", "geometry": {"type": "Polygon", "coordinates": [[[-96.0502148, 36.0645865], [-96.0501897, 36.0645257], [-96.0502793, 36.0645016], [-96.0503044, 36.0645624], [-96.0502148, 36.0645865]]]}, "properties": {"osm_id": 289412465, "building": "yes", "name": "East Restrooms", "height": null, "height_m": null, "levels": null, "tract_id": "40037020101", "tract_name": "201.01", "tags": {"amenity": "toilets", "building": "yes", "name": "East Restrooms", "toilets:disposal": "flush"}}}, {"type": "Feature", "geometry": {"type": "Polygon", "coordinates": [[[-96.0494343, 36.0625319], [-96.0494127, 36.0624974], [-96.0495924, 36.0624238], [-96.0496141, 36.0624584], [-96.0494343, 36.0625319]]]}, "properties": {"osm_id": 289412472, "building": "office", "name": "Summer Camp Office", "height": null, "height_m": 3.0, "levels": 1, "tract_id": "40037020101", "tract_name": "201.01", "tags": {"building": "office", "building:levels": "1", "name": "Summer Camp Office"}}}, {"type": "Feature", "geometry": {"type": "Polygon", "coordinates": [[[-96.0514371, 36.0746282], [-96.0516167, 36.0746305], [-96.0516114, 36.0748993], [-96.0514317, 36.074897], [-96.0514371, 36.0746282]]]}, "properties": {"osm_id": 480680619, "building": "yes", "name": "", "height": null, "height_m": null, "levels": null, "tract_id": "40037020101", "tract_name": "201.01", "tags": {"building": "yes"}}}, {"type": "Feature", "geometry": {"type": "Polygon", "coordinates": [[[-96.0612191, 36.064362], [-96.0612028, 36.0643751], [-96.0611827, 36.0643841], [-96.0611602, 36.0643881], [-96.0611373, 36.0643868], [-96.0611157, 36.0643803], [-96.0610972, 36.0643692], [-96.0610834, 36.0643543], [-96.0610754, 36.0643369], [-96.0610737, 36.0643183], [-96.0610785, 36.0643002], [-96.0610895, 36.0642838], [-96.0611058, 36.0642707], [-96.0611259, 36.0642617], [-96.0611484, 36.0642577], [-96.0611713, 36.064259], [-96.0611929, 36.0642655], [-96.0612114, 36.0642766], [-96.0612252, 36.0642915], [-96.0612332, 36.0643089], [-96.0612349, 36.0643274], [-96.0612301, 36.0643456], [-96.0612191, 36.064362]]]}, "properties": {"osm_id": 480680620, "building": "yes", "name": "", "height": null, "height_m": null, "levels": null, "tract_id": "40037020101", "tract_name": "201.01", "tags": {"building": "yes", "man_made": "storage_tank"}}}, {"type": "Feature", "geometry": {"type": "Polygon", "coordinates": [[[-96.0585805, 36.0642118], [-96.0583377, 36.0642128], [-96.0583351, 36.0637963], [-96.0585779, 36.0637953], [-96.0585805, 36.0642118]]]}, "properties": {"osm_id": 480680621, "building": "yes", "name": "", "height": null, "height_m": null, "levels": null, "tract_id": "40037020101", "tract_name": "201.01", "tags": {"building": "yes"}}}, {"type": "Feature", "geometry": {"type": "Polygon", "coordinates": [[[-96.059763, 36.0633489], [-96.0594916, 36.0633509], [-96.0594915, 36.0633393], [-96.0588766, 36.0633439], [-96.0588753, 36.0632289], [-96.0591313, 36.063227], [-96.0591309, 36.0631892], [-96.0592059, 36.0631886], [-96.0592064, 36.063228], [-96.0592273, 36.0632278], [-96.0592269, 36.0631956], [-96.0593643, 36.0631946], [-96.0593647, 36.0632294], [-96.0594907, 36.0632285], [-96.0594908, 36.0632399], [-96.0597617, 36.0632379], [-96.059763, 36.0633489]]]}, "properties": {"osm_id": 480680622, "building": "yes", "name": "", "height": null, "height_m": null, "levels": null, "tract_id": "40037020101", "tract_name": "201.01", "tags": {"building": "yes"}}}, {"type": "Feature", "geometry": {"type": "Polygon", "coordinates": [[[-96.0598284, 36.0630378], [-96.05898, 36.0630406], [-96.0589804, 36.0628709], [-96.059827, 36.0628695], [-96.0598284, 36.0630378]]]}, "properties": {"osm_id": 480680623, "building": "yes", "name": "", "height": null, "height_m": null, "levels": null, "tract_id": "40037020101", "tract_name": "201.01", "tags": {"building": "yes"}}}, {"type": "Feature", "geometry": {"type": "Polygon", "coordinates": [[[-96.058387, 36.0625594], [-96.0586301, 36.0625655], [-96.0586141, 36.0631131], [-96.0583746, 36.06311], [-96.058387, 36.0625594]]]}, "properties": {"osm_id": 480680624, "building": "yes", "name": "", "height": null, "height_m": null, "levels": null, "tract_id": "40037020101", "tract_name": "201.01", "tags": {"building": "yes"}}}, {"type": "Feature", "geometry": {"type": "Polygon", "coordinates": [[[-96.0659699, 36.0644847], [-96.0657352, 36.0644793], [-96.0657399, 36.0643482], [-96.0659746, 36.0643537], [-96.0659699, 36.0644847]]]}, "properties": {"osm_id": 480680625, "building": "yes", "name": "", "height": null, "height_m": null, "levels": null, "tract_id": "40037020101", "tract_name": "201.01", "tags": {"building": "yes"}}}, {"type": "Feature", "geometry": {"type": "Polygon", "coordinates": [[[-96.0710615, 36.05455], [-96.0710621, 36.0544725], [-96.0711471, 36.0544744], [-96.071145, 36.0545503], [-96.0710615, 36.05455]]]}, "properties": {"osm_id": 480680626, "building": "service", "name": "", "height": null, "height_m": 3.0, "levels": 1, "tract_id": "40037020101", "tract_name": "201.01", "tags": {"building": "service", "building:levels": "1"}}}, {"type": "Feature", "geometry": {"type": "Polygon", "coordinates": [[[-96.0696667, 36.0561588], [-96.0699805, 36.0561588], [-96.0699805, 36.0564949], [-96.0696667, 36.0564949], [-96.0696667, 36.0561588]]]}, "properties": {"osm_id": 480680627, "building": "yes", "name": "", "height": null, "height_m": null, "levels": null, "tract_id": "40037020101", "tract_name": "201.01", "tags": {"building": "yes"}}}, {"type": "Feature", "geometry": {"type": "Polygon", "coordinates": [[[-96.0718393, 36.0568494], [-96.0716113, 36.0567583], [-96.0717383, 36.0565505], [-96.0719663, 36.0566416], [-96.0718393, 36.0568494]]]}, "properties": {"osm_id": 480680628, "building": "yes", "name": "", "height": null, "height_m": null, "levels": null, "tract_id": "40037020101", "tract_name": "201.01", "tags": {"building": "yes"}}}, {"type": "Feature", "geometry": {"type": "Polygon", "coordinates": [[[-96.0711473, 36.0575823], [-96.0713484, 36.0572332], [-96.0715867, 36.0573229], [-96.0713855, 36.057672], [-96.0711473, 36.0575823]]]}, "properties": {"osm_id": 480680629, "building": "yes", "name": "", "height": null, "height_m": null, "levels": null, "tract_id": "40037020101", "tract_name": "201.01", "tags": {"building": "yes"}}}, {"type": "Feature", "geometry": {"type": "Polygon", "coordinates": [[[-96.0723274, 36.0549954], [-96.0723769, 36.0549102], [-96.0728678, 36.0550967], [-96.0728183, 36.0551819], [-96.0723274, 36.0549954]]]}, "properties": {"osm_id": 480680630, "building": "yes", "name": "", "height": null, "height_m": null, "levels": null, "tract_id": "40037020101", "tract_name": "201.01", "tags": {"building": "yes"}}}, {"type": "Feature", "geometry": {"type": "Polygon", "coordinates": [[[-96.0722523, 36.0551407], [-96.0722953, 36.0550642], [-96.0728559, 36.0552702], [-96.0728129, 36.0553467], [-96.0722523, 36.0551407]]]}, "properties": {"osm_id": 480680631, "building": "yes", "name": "", "height": null, "height_m": null, "levels": null, "tract_id": "40037020101", "tract_name": "201.01", "tags": {"building": "yes"}}}, {"type": "Feature", "geometry": {"type": "Polygon", "coordinates": [[[-96.0727137, 36.0555158], [-96.0721611, 36.0553011], [-96.0722175, 36.0552063], [-96.0727701, 36.0554209], [-96.0727137, 36.0555158]]]}, "properties": {"osm_id": 480680632, "building": "yes", "name": "", "height": null, "height_m": null, "levels": null, "tract_id": "40037020101", "tract_name": "201.01", "tags": {"building": "yes"}}}, {"type": "Feature", "geometry": {"type": "Polygon", "coordinates": [[[-96.0729363, 36.0550355], [-96.0725072, 36.054862], [-96.0727078, 36.0545376], [-96.0731369, 36.0547111], [-96.0729363, 36.0550355]]]}, "properties": {"osm_id": 480680633, "building": "yes", "name": "", "height": null, "height_m": null, "levels": null, "tract_id": "40037020101", "tract_name": "201.01", "tags": {"building": "yes"}}}, {"type": "Feature", "geometry": {"type": "Polygon", "coordinates": [[[-96.0717722, 36.0535371], [-96.0713753, 36.0535349], [-96.0713777, 36.0532484], [-96.0717746, 36.0532506], [-96.0717722, 36.0535371]]]}, "properties": {"osm_id": 480680634, "building": "yes", "name": "", "height": null, "height_m": null, "levels": null, "tract_id": "40037020101", "tract_name": "201.01", "tags": {"building": "yes"}}}, {"type": "Feature", "geometry": {"type": "Polygon", "coordinates": [[[-96.0718607, 36.0527489], [-96.0700073, 36.0527358], [-96.0700132, 36.0521909], [-96.0718666, 36.0522039], [-96.0718607, 36.0527489]]]}, "properties": {"osm_id": 480680635, "building": "yes", "name": "", "height": null, "height_m": null, "levels": null, "tract_id": "40037020101", "tract_name": "201.01", "tags": {"building": "yes"}}}, {"type": "Feature", "geometry": {"type": "Polygon", "coordinates": [[[-96.0529035, 36.0708438], [-96.0532096, 36.0708522], [-96.0531989, 36.071108], [-96.0528928, 36.0710996], [-96.0529035, 36.0708438]]]}, "properties": {"osm_id": 480680639, "building": "yes", "name": "", "height": null, "height_m": null, "levels": null, "tract_id": "40037020101", "tract_name": "201.01", "tags": {"building": "yes"}}}, {"type": "Feature", "geometry": {"type": "Polygon", "coordinates": [[[-96.0532495, 36.0738475], [-96.0533747, 36.0737627], [-96.053541, 36.0739232], [-96.0534158, 36.0740079], [-96.0532495, 36.0738475]]]}, "properties": {"osm_id": 480680640, "building": "yes", "name": "", "height": null, "height_m": null, "levels": null, "tract_id": "40037020101", "tract_name": "201.01", "tags": {"building": "yes"}}}, {"type": "Feature", "geometry": {"type": "Polygon", "coordinates": [[[-96.0535821, 36.0744632], [-96.0533827, 36.0745852], [-96.0530983, 36.0742817], [-96.0532978, 36.0741597], [-96.0535821, 36.0744632]]]}, "properties": {"osm_id": 480680641, "building": "yes", "name": "", "height": null, "height_m": null, "levels": null, "tract_id": "40037020101", "tract_name": "201.01", "tags": {"building": "yes"}}}, {"type": "Feature", "geometry": {"type": "Polygon", "coordinates": [[[-96.0536841, 36.0728361], [-96.0530215, 36.0721511], [-96.0536639, 36.0717453], [-96.0543264, 36.0724303], [-96.0536841, 36.0728361]]]}, "properties": {"osm_id": 480680643, "building": "yes", "name": "", "height": null, "height_m": null, "levels": null, "tract_id": "40037020101", "tract_name": "201.01", "tags": {"building": "yes"}}}, {"type": "Feature", "geometry": {"type": "Polygon", "coordinates": [[[-96.0568296, 36.0712245], [-96.0570173, 36.071223], [-96.0570227, 36.071661], [-96.056835, 36.0716625], [-96.0568296, 36.0712245]]]}, "properties": {"osm_id": 480680644, "building": "yes", "name": "", "height": null, "height_m": null, "levels": null, "tract_id": "40037020101", "tract_name": "201.01", "tags": {"building": "yes"}}}, {"type": "Feature", "geometry": {"type": "Polygon", "coordinates": [[[-96.0549843, 36.0712202], [-96.0560196, 36.0712202], [-96.0560196, 36.0717969], [-96.0549843, 36.0717969], [-96.0549843, 36.0712202]]]}, "properties": {"osm_id": 480680645, "building": "yes", "name": "", "height": null, "height_m": null, "levels": null, "tract_id": "40037020101", "tract_name": "201.01", "tags": {"building": "yes"}}}, {"type": "Feature", "geometry": {"type": "Polygon", "coordinates": [[[-96.0585114, 36.0702359], [-96.0581788, 36.0702359], [-96.0581788, 36.0700668], [-96.0585114, 36.0700668], [-96.0585114, 36.0702359]]]}, "properties": {"osm_id": 480680646, "building": "yes", "name": "", "height": null, "height_m": null, "levels": null, "tract_id": "40037020101", "tract_name": "201.01", "tags": {"building": "yes"}}}, {"type": "Feature", "geometry": {"type": "Polygon", "coordinates": [[[-96.0602924, 36.070159], [-96.0603942, 36.0702603], [-96.0602654, 36.0703448], [-96.0601636, 36.0702435], [-96.0602924, 36.070159]]]}, "properties": {"osm_id": 480680647, "building": "yes", "name": "", "height": null, "height_m": null, "levels": null, "tract_id": "40037020101", "tract_name": "201.01", "tags": {"building": "yes"}}}, {"type": "Feature", "geometry": {"type": "Polygon", "coordinates": [[[-96.0607591, 36.0698598], [-96.0608738, 36.0699795], [-96.0606002, 36.0701508], [-96.0604855, 36.0700311], [-96.0607591, 36.0698598]]]}, "properties": {"osm_id": 480680648, "building": "yes", "name": "", "height": null, "height_m": null, "levels": null, "tract_id": "40037020101", "tract_name": "201.01", "tags": {"building": "yes"}}}, {"type": "Feature", "geometry": {"type": "Polygon", "coordinates": [[[-96.0599262, 36.0659117], [-96.0597211, 36.0659128], [-96.0597205, 36.065838], [-96.0599256, 36.0658369], [-96.0599262, 36.0659117]]]}, "properties": {"osm_id": 480680649, "building": "yes", "name": "", "height": null, "height_m": null, "levels": null, "tract_id": "40037020101", "tract_name": "201.01", "tags": {"building": "yes"}}}, {"type": "Feature", "geometry": {"type": "Polygon", "coordinates": [[[-96.0593335, 36.0664602], [-96.0591672, 36.0664559], [-96.0591703, 36.0663775], [-96.0593366, 36.0663818], [-96.0593335, 36.0664602]]]}, "properties": {"osm_id": 480680650, "building": "yes", "name": "", "height": null, "height_m": null, "levels": null, "tract_id": "40037020101", "tract_name": "201.01", "tags": {"building": "yes"}}}, {"type": "Feature", "geometry": {"type": "Polygon", "coordinates": [[[-96.0598243, 36.0662033], [-96.0598243, 36.0664451], [-96.0594528, 36.0664451], [-96.0594528, 36.0662033], [-96.0598243, 36.0662033]]]}, "properties": {"osm_id": 480680652, "building": "yes", "name": "", "height": null, "height_m": null, "levels": null, "tract_id": "40037020101", "tract_name": "201.01", "tags": {"building": "yes"}}}, {"type": "Feature", "geometry": {"type": "Polygon", "coordinates": [[[-96.0607606, 36.06478], [-96.0607617, 36.0648004], [-96.0607546, 36.0648199], [-96.0607401, 36.0648365], [-96.0607196, 36.0648484], [-96.0606955, 36.0648542], [-96.0606703, 36.0648534], [-96.0606469, 36.0648461], [-96.0606276, 36.064833], [-96.0606147, 36.0648155], [-96.0606094, 36.0647956], [-96.0606125, 36.0647754], [-96.0606234, 36.0647571], [-96.0606412, 36.0647427], [-96.0606638, 36.0647337], [-96.0606888, 36.0647311], [-96.0607134, 36.0647352], [-96.0607351, 36.0647456], [-96.0607514, 36.0647611], [-96.0607606, 36.06478]]]}, "properties": {"osm_id": 480680653, "building": "yes", "name": "", "height": null, "height_m": null, "levels": null, "tract_id": "40037020101", "tract_name": "201.01", "tags": {"building": "yes", "man_made": "storage_tank"}}}, {"type": "Feature", "geometry": {"type": "Polygon", "coordinates": [[[-96.059719, 36.0651363], [-96.0590726, 36.0651363], [-96.0590726, 36.0648588], [-96.059719, 36.0648588], [-96.059719, 36.0651363]]]}, "properties": {"osm_id": 480680654, "building": "yes", "name": "", "height": null, "height_m": null, "levels": null, "tract_id": "40037020101", "tract_name": "201.01", "tags": {"building": "yes"}}}, {"type": "Feature", "geometry": {"type": "Polygon", "coordinates": [[[-96.0597941, 36.065171], [-96.0597906, 36.0654415], [-96.0590395, 36.065435], [-96.0590431, 36.0651645], [-96.0597941, 36.065171]]]}, "properties": {"osm_id": 480680655, "building": "yes", "name": "", "height": null, "height_m": null, "levels": null, "tract_id": "40037020101", "tract_name": "201.01", "tags": {"building": "yes"}}}, {"type": "Feature", "geometry": {"type": "Polygon", "coordinates": [[[-96.0578227, 36.0645065], [-96.0574982, 36.0645065], [-96.0574982, 36.0642441], [-96.0578227, 36.0642441], [-96.0578227, 36.0645065]]]}, "properties": {"osm_id": 480680656, "building": "yes", "name": "", "height": null, "height_m": null, "levels": null, "tract_id": "40037020101", "tract_name": "201.01", "tags": {"building": "yes"}}}, {"type": "Feature", "geometry": {"type": "Polygon", "coordinates": [[[-96.0578174, 36.0639276], [-96.0578199, 36.0641947], [-96.0574712, 36.0641968], [-96.0574687, 36.0639297], [-96.0578174, 36.0639276]]]}, "properties": {"osm_id": 480680657, "building": "yes", "name": "", "height": null, "height_m": null, "levels": null, "tract_id": "40037020101", "tract_name": "201.01", "tags": {"building": "yes"}}}, {"type": "Feature", "geometry": {"type": "Polygon", "coordinates": [[[-96.057061, 36.0650116], [-96.057061, 36.0657618], [-96.056656, 36.0657618], [-96.056656, 36.0650116], [-96.057061, 36.0650116]]]}, "properties": {"osm_id": 480680658, "building": "industrial", "name": "", "height": null, "height_m": null, "levels": null, "tract_id": "40037020101", "tract_name": "201.01", "tags": {"building": "industrial"}}}, {"type": "Feature", "geometry": {"type": "Polygon", "coordinates": [[[-96.0672078, 36.0644533], [-96.0668108, 36.0648133], [-96.0664865, 36.0645796], [-96.0668835, 36.0642196], [-96.0672078, 36.0644533]]]}, "properties": {"osm_id": 480680659, "building": "yes", "name": "", "height": null, "height_m": null, "levels": null, "tract_id": "40037020101", "tract_name": "201.01", "tags": {"building": "yes"}}}, {"type": "Feature", "geometry": {"type": "Polygon", "coordinates": [[[-96.0613123, 36.0650528], [-96.0615323, 36.0650524], [-96.061535, 36.0658654], [-96.061315, 36.0658659], [-96.0613123, 36.0650528]]]}, "properties": {"osm_id": 480680661, "building": "industrial", "name": "", "height": null, "height_m": null, "levels": null, "tract_id": "40037020101", "tract_name": "201.01", "tags": {"building": "industrial"}}}, {"type": "Feature", "geometry": {"type": "Polygon", "coordinates": [[[-96.0651251, 36.066208], [-96.0647047, 36.0662116], [-96.0647011, 36.0659374], [-96.0651215, 36.0659338], [-96.0651251, 36.066208]]]}, "properties": {"osm_id": 480680662, "building": "industrial", "name": "Tulsa Gas & Gear", "height": null, "height_m": null, "levels": null, "tract_id": "40037020101", "tract_name": "201.01", "tags": {"addr:city": "Tulsa", "addr:country": "US", "addr:housenumber": "6665", "addr:postcode": "74131", "addr:state": "OK", "addr:street": "South 65th West Avenue", "building": "industrial", "name": "Tulsa Gas & Gear", "opening_hours": "Mo-Fr 07:30-17:00", "operator": "Scott Kaltrider", "operator:type": "Welding Gear Near Tulsa OK", "phone": "+1 918 447 4411", "shop": "trade", "trade": "welding_supplies", "website": "https://meritusgas.com/company/locations/tulsa-gas-and-gear/"}}}, {"type": "Feature", "geometry": {"type": "Polygon", "coordinates": [[[-96.0651291, 36.0663114], [-96.065127, 36.0664822], [-96.0645878, 36.0664778], [-96.0645899, 36.0663071], [-96.0651291, 36.0663114]]]}, "properties": {"osm_id": 480680663, "building": "yes", "name": "", "height": null, "height_m": null, "levels": null, "tract_id": "40037020101", "tract_name": "201.01", "tags": {"building": "yes"}}}, {"type": "Feature", "geometry": {"type": "Polygon", "coordinates": [[[-96.0647589, 36.0669836], [-96.0641983, 36.0672654], [-96.0639837, 36.0669865], [-96.0645443, 36.0667046], [-96.0647589, 36.0669836]]]}, "properties": {"osm_id": 480680664, "building": "yes", "name": "", "height": null, "height_m": null, "levels": null, "tract_id": "40037020101", "tract_name": "201.01", "tags": {"building": "yes"}}}, {"type": "Feature", "geometry": {"type": "Polygon", "coordinates": [[[-96.0606222, 36.0678202], [-96.0599329, 36.0678527], [-96.0599093, 36.0675251], [-96.0605986, 36.0674926], [-96.0606222, 36.0678202]]]}, "properties": {"osm_id": 480680665, "building": "yes", "name": "", "height": null, "height_m": null, "levels": null, "tract_id": "40037020101", "tract_name": "201.01", "tags": {"building": "yes"}}}, {"type": "Feature", "geometry": {"type": "Polygon", "coordinates": [[[-96.0619365, 36.0675741], [-96.0612526, 36.0675697], [-96.0612573, 36.067086], [-96.0619412, 36.0670903], [-96.0619365, 36.0675741]]]}, "properties": {"osm_id": 480680666, "building": "yes", "name": "", "height": null, "height_m": null, "levels": null, "tract_id": "40037020101", "tract_name": "201.01", "tags": {"building": "yes"}}}, {"type": "Feature", "geometry": {"type": "Polygon", "coordinates": [[[-96.0611372, 36.066296], [-96.0613622, 36.0663006], [-96.0613541, 36.0665586], [-96.0611292, 36.066554], [-96.0611372, 36.066296]]]}, "properties": {"osm_id": 480680667, "building": "industrial", "name": "", "height": null, "height_m": null, "levels": null, "tract_id": "40037020101", "tract_name": "201.01", "tags": {"building": "industrial"}}}, {"type": "Feature", "geometry": {"type": "Polygon", "coordinates": [[[-96.0484768, 36.0702297], [-96.0484829, 36.0709211], [-96.0484256, 36.0709214], [-96.0484265, 36.0710235], [-96.0484268, 36.0710609], [-96.0477673, 36.0710647], [-96.0477648, 36.0707789], [-96.0479053, 36.0707781], [-96.0479004, 36.070233], [-96.0484768, 36.0702297]]]}, "properties": {"osm_id": 480680673, "building": "yes", "name": "", "height": null, "height_m": null, "levels": null, "tract_id": "40037020101", "tract_name": "201.01", "tags": {"building": "yes"}}}, {"type": "Feature", "geometry": {"type": "Polygon", "coordinates": [[[-96.0418037, 36.0667746], [-96.0418083, 36.0668996], [-96.0415727, 36.0669053], [-96.0415734, 36.0669244], [-96.0414649, 36.066927], [-96.0414621, 36.0668528], [-96.0415001, 36.0668519], [-96.0414967, 36.0667605], [-96.0416044, 36.0667579], [-96.0416052, 36.0667794], [-96.0418037, 36.0667746]]]}, "properties": {"osm_id": 480680679, "building": "yes", "name": "", "height": null, "height_m": null, "levels": null, "tract_id": "40037020101", "tract_name": "201.01", "tags": {"building": "yes"}}}, {"type": "Feature", "geometry": {"type": "Polygon", "coordinates": [[[-96.0569081, 36.0687348], [-96.05723, 36.068739], [-96.0572193, 36.0692767], [-96.0568973, 36.0692725], [-96.0569081, 36.0687348]]]}, "properties": {"osm_id": 480680685, "building": "yes", "name": "", "height": null, "height_m": null, "levels": null, "tract_id": "40037020101", "tract_name": "201.01", "tags": {"building": "yes"}}}, {"type": "Feature", "geometry": {"type": "Polygon", "coordinates": [[[-96.056149, 36.0693126], [-96.0561513, 36.0695104], [-96.0552822, 36.0695169], [-96.05528, 36.0693191], [-96.056149, 36.0693126]]]}, "properties": {"osm_id": 480680686, "building": "yes", "name": "", "height": null, "height_m": null, "levels": null, "tract_id": "40037020101", "tract_name": "201.01", "tags": {"building": "yes"}}}, {"type": "Feature", "geometry": {"type": "Polygon", "coordinates": [[[-96.0539186, 36.0687062], [-96.0526145, 36.0687083], [-96.0526141, 36.0685455], [-96.0539182, 36.0685432], [-96.0539183, 36.0685845], [-96.0539186, 36.0687062]]]}, "properties": {"osm_id": 480680687, "building": "industrial", "name": "", "height": null, "height_m": null, "levels": null, "tract_id": "40037020101", "tract_name": "201.01", "tags": {"building": "industrial"}}}, {"type": "Feature", "geometry": {"type": "Polygon", "coordinates": [[[-96.0459448, 36.0750045], [-96.0459445, 36.0747603], [-96.0462223, 36.0747601], [-96.0462223, 36.0747849], [-96.0467439, 36.0747845], [-96.0467439, 36.0747114], [-96.0470555, 36.0747111], [-96.0470558, 36.0750036], [-96.0459448, 36.0750045]]]}, "properties": {"osm_id": 487685628, "building": "industrial", "name": "", "height": null, "height_m": null, "levels": null, "tract_id": "40037020101", "tract_name": "201.01", "tags": {"building": "industrial"}}}, {"type": "Feature", "geometry": {"type": "Polygon", "coordinates": [[[-96.0427637, 36.0651996], [-96.0426745, 36.0650768], [-96.0425868, 36.0651185], [-96.0425309, 36.0650416], [-96.0423372, 36.0651336], [-96.042379, 36.0651911], [-96.0422838, 36.0652363], [-96.0422346, 36.0651684], [-96.0422895, 36.0651424], [-96.0422255, 36.0650541], [-96.0422616, 36.065037], [-96.0422124, 36.0649691], [-96.0421718, 36.0649884], [-96.0421209, 36.0649183], [-96.0420152, 36.0649684], [-96.0419929, 36.0649376], [-96.0419184, 36.0649728], [-96.0419295, 36.064988], [-96.0418737, 36.0650144], [-96.0419001, 36.0650508], [-96.0417598, 36.0651173], [-96.0417555, 36.0651113], [-96.0416791, 36.0651475], [-96.0417222, 36.0652069], [-96.0415708, 36.0652787], [-96.0416253, 36.0653538], [-96.0415237, 36.0654019], [-96.0416023, 36.0655102], [-96.0417559, 36.0654374], [-96.0418058, 36.0655061], [-96.0419078, 36.0654577], [-96.0418645, 36.0653981], [-96.0419414, 36.0653615], [-96.0419645, 36.0653933], [-96.0419752, 36.0653883], [-96.0420159, 36.0654461], [-96.0420343, 36.0654724], [-96.0420971, 36.0654429], [-96.042079, 36.0654174], [-96.0420384, 36.06536], [-96.0420481, 36.0653537], [-96.042023, 36.0653191], [-96.0420677, 36.0652978], [-96.0420572, 36.0652833], [-96.0420999, 36.065263], [-96.0422348, 36.0654485], [-96.0423729, 36.0653829], [-96.0423879, 36.0654034], [-96.0426898, 36.0652599], [-96.0426762, 36.0652412], [-96.0427637, 36.0651996]]]}, "properties": {"osm_id": 844387221, "building": "yes", "name": "", "height": null, "height_m": null, "levels": null, "tract_id": "40037020101", "tract_name": "201.01", "tags": {"building": "yes"}}}, {"type": "Feature", "geometry": {"type": "Polygon", "coordinates": [[[-96.0465515, 36.0656112], [-96.0465504, 36.0655513], [-96.0465935, 36.0655508], [-96.0465946, 36.0656107], [-96.0465515, 36.0656112]]]}, "properties": {"osm_id": 844411836, "building": "yes", "name": "", "height": null, "height_m": null, "levels": null, "tract_id": "40037020101", "tract_name": "201.01", "tags": {"building": "yes"}}}, {"type": "Feature", "geometry": {"type": "Polygon", "coordinates": [[[-96.0396425, 36.0680266], [-96.0396153, 36.0679631], [-96.0397, 36.0679393], [-96.0397273, 36.0680028], [-96.0396425, 36.0680266]]]}, "properties": {"osm_id": 844411842, "building": "yes", "name": "", "height": null, "height_m": null, "levels": null, "tract_id": "40037020101", "tract_name": "201.01", "tags": {"building": "yes"}}}, {"type": "Feature", "geometry": {"type": "Polygon", "coordinates": [[[-96.0418268, 36.0672738], [-96.0416153, 36.0672809], [-96.0416162, 36.067341], [-96.0414224, 36.0673474], [-96.0414215, 36.0672838], [-96.0413198, 36.0672859], [-96.0413136, 36.0671779], [-96.0412729, 36.0671779], [-96.0412702, 36.0671608], [-96.0412463, 36.0671608], [-96.0412428, 36.0671443], [-96.0412269, 36.0671465], [-96.0412207, 36.0670463], [-96.0412446, 36.0670456], [-96.0412428, 36.0670299], [-96.0413401, 36.0670249], [-96.0413383, 36.0669384], [-96.0418082, 36.0669248], [-96.0418268, 36.0672738]]]}, "properties": {"osm_id": 880803834, "building": "yes", "name": "", "height": null, "height_m": null, "levels": null, "tract_id": "40037020101", "tract_name": "201.01", "tags": {"building": "yes", "golf": "clubhouse"}}}, {"type": "Feature", "geometry": {"type": "Polygon", "coordinates": [[[-96.0604858, 36.0644268], [-96.0604844, 36.0640321], [-96.0602329, 36.0640327], [-96.0602334, 36.0641824], [-96.060212, 36.0641825], [-96.0602129, 36.0644275], [-96.0604858, 36.0644268]]]}, "properties": {"osm_id": 922751966, "building": "industrial", "name": "", "height": null, "height_m": null, "levels": null, "tract_id": "40037020101", "tract_name": "201.01", "tags": {"building": "industrial", "source": "microsoft/BuildingFootprints"}}}, {"type": "Feature", "geometry": {"type": "Polygon", "coordinates": [[[-96.0599056, 36.0643566], [-96.0599042, 36.0637532], [-96.0597347, 36.0637534], [-96.0597346, 36.0636995], [-96.0592211, 36.0637003], [-96.0592213, 36.0637718], [-96.0590541, 36.0637721], [-96.0590542, 36.0638402], [-96.0588823, 36.0638405], [-96.058883, 36.0641143], [-96.0587973, 36.0641144], [-96.0587974, 36.0641719], [-96.0588814, 36.0641718], [-96.0588818, 36.0643217], [-96.0593833, 36.0643209], [-96.0593834, 36.0643574], [-96.0599056, 36.0643566]]]}, "properties": {"osm_id": 922751967, "building": "industrial", "name": "", "height": null, "height_m": null, "levels": null, "tract_id": "40037020101", "tract_name": "201.01", "tags": {"building": "industrial", "source": "microsoft/BuildingFootprints"}}}, {"type": "Feature", "geometry": {"type": "Polygon", "coordinates": [[[-96.0592665, 36.0623217], [-96.0592684, 36.0614985], [-96.0589289, 36.061498], [-96.0589286, 36.0616322], [-96.0587929, 36.061632], [-96.0587926, 36.0617748], [-96.0587617, 36.0617748], [-96.0587616, 36.0618367], [-96.058791, 36.0618367], [-96.0587902, 36.0622526], [-96.0589214, 36.0622527], [-96.0589213, 36.0623212], [-96.0592665, 36.0623217]]]}, "properties": {"osm_id": 922751971, "building": "yes", "name": "", "height": null, "height_m": null, "levels": null, "tract_id": "40037020101", "tract_name": "201.01", "tags": {"building": "yes"}}}, {"type": "Feature", "geometry": {"type": "Polygon", "coordinates": [[[-96.0626419, 36.0633395], [-96.0625335, 36.0633398], [-96.0625334, 36.0633142], [-96.062446, 36.0633144], [-96.0624461, 36.0633392], [-96.0619713, 36.0633403], [-96.0619711, 36.063279], [-96.061971, 36.0632476], [-96.0609789, 36.0632498], [-96.060979, 36.0632834], [-96.0609792, 36.0633384], [-96.0607548, 36.0633389], [-96.0607576, 36.0642095], [-96.0609863, 36.0642091], [-96.0609862, 36.0641808], [-96.0611132, 36.0641806], [-96.0611133, 36.0642254], [-96.0617175, 36.0642244], [-96.0617178, 36.0643691], [-96.0617647, 36.0643691], [-96.0617647, 36.0643813], [-96.0618446, 36.0643811], [-96.0618445, 36.0643674], [-96.0620069, 36.0643671], [-96.062007, 36.0643805], [-96.0621004, 36.0643803], [-96.0621003, 36.0643654], [-96.0622473, 36.064365], [-96.0622474, 36.0644018], [-96.0623336, 36.0644016], [-96.0623328, 36.0642279], [-96.0626459, 36.064227], [-96.0626419, 36.0633395]]]}, "properties": {"osm_id": 922751972, "building": "industrial", "name": "", "height": null, "height_m": null, "levels": null, "tract_id": "40037020101", "tract_name": "201.01", "tags": {"building": "industrial", "source": "microsoft/BuildingFootprints"}}}, {"type": "Feature", "geometry": {"type": "Polygon", "coordinates": [[[-96.0589251, 36.055925], [-96.05882, 36.0559201], [-96.0588342, 36.0557197], [-96.0589447, 36.0557248], [-96.0589413, 36.0557731], [-96.0589724, 36.0557816], [-96.0589685, 36.0558373], [-96.0589314, 36.0558355], [-96.0589251, 36.055925]]]}, "properties": {"osm_id": 985839188, "building": "yes", "name": "", "height": null, "height_m": null, "levels": null, "tract_id": "40037020101", "tract_name": "201.01", "tags": {"building": "yes"}}}, {"type": "Feature", "geometry": {"type": "Polygon", "coordinates": [[[-96.0588486, 36.055706], [-96.0587232, 36.0556981], [-96.0587328, 36.0555993], [-96.0588581, 36.0556072], [-96.0588486, 36.055706]]]}, "properties": {"osm_id": 985839189, "building": "yes", "name": "", "height": null, "height_m": null, "levels": null, "tract_id": "40037020101", "tract_name": "201.01", "tags": {"building": "yes"}}}, {"type": "Feature", "geometry": {"type": "Polygon", "coordinates": [[[-96.0586009, 36.0559588], [-96.0586042, 36.0559251], [-96.0585838, 36.0559238], [-96.058593, 36.0558315], [-96.0586062, 36.0558324], [-96.058608, 36.0558145], [-96.0585891, 36.0558133], [-96.0585919, 36.0557852], [-96.0585402, 36.0557818], [-96.0585321, 36.0558623], [-96.058506, 36.0558605], [-96.0585006, 36.0559142], [-96.0584692, 36.0559121], [-96.0584635, 36.0559692], [-96.0584988, 36.0559716], [-96.0585027, 36.0559329], [-96.0585266, 36.0559344], [-96.0585247, 36.0559539], [-96.0586009, 36.0559588]]]}, "properties": {"osm_id": 985839190, "building": "yes", "name": "", "height": null, "height_m": null, "levels": null, "tract_id": "40037020101", "tract_name": "201.01", "tags": {"building": "yes"}}}, {"type": "Feature", "geometry": {"type": "Polygon", "coordinates": [[[-96.0583735, 36.0559649], [-96.0583228, 36.0559628], [-96.0583283, 36.0558754], [-96.0582958, 36.0558741], [-96.0582987, 36.055828], [-96.0583369, 36.0558296], [-96.058341, 36.0557646], [-96.058389, 36.0557666], [-96.0583872, 36.0557944], [-96.0583984, 36.0557949], [-96.0583973, 36.0558126], [-96.0583803, 36.0558119], [-96.0583765, 36.0558724], [-96.0583939, 36.0558731], [-96.0583928, 36.0558902], [-96.0583783, 36.0558896], [-96.0583735, 36.0559649]]]}, "properties": {"osm_id": 985839191, "building": "yes", "name": "", "height": null, "height_m": null, "levels": null, "tract_id": "40037020101", "tract_name": "201.01", "tags": {"building": "yes"}}}, {"type": "Feature", "geometry": {"type": "Polygon", "coordinates": [[[-96.0581979, 36.0559224], [-96.0581457, 36.0559197], [-96.0581483, 36.0558865], [-96.0581111, 36.0558845], [-96.0581145, 36.0558409], [-96.0581553, 36.055843], [-96.0581611, 36.0557703], [-96.0582099, 36.0557728], [-96.0581979, 36.0559224]]]}, "properties": {"osm_id": 985839192, "building": "yes", "name": "", "height": null, "height_m": null, "levels": null, "tract_id": "40037020101", "tract_name": "201.01", "tags": {"building": "yes"}}}, {"type": "Feature", "geometry": {"type": "Polygon", "coordinates": [[[-96.0765992, 36.0486682], [-96.0762635, 36.0487917], [-96.0763216, 36.0488914], [-96.0766548, 36.0487634], [-96.0765992, 36.0486682]]]}, "properties": {"osm_id": 985852790, "building": "yes", "name": "", "height": null, "height_m": null, "levels": null, "tract_id": "40037020101", "tract_name": "201.01", "tags": {"building": "yes"}}}, {"type": "Feature", "geometry": {"type": "Polygon", "coordinates": [[[-96.075744, 36.0491363], [-96.0756857, 36.0491074], [-96.0757803, 36.0489861], [-96.075837, 36.049015], [-96.075744, 36.0491363]]]}, "properties": {"osm_id": 985852791, "building": "yes", "name": "", "height": null, "height_m": null, "levels": null, "tract_id": "40037020101", "tract_name": "201.01", "tags": {"building": "yes"}}}, {"type": "Feature", "geometry": {"type": "Polygon", "coordinates": [[[-96.0758748, 36.0493013], [-96.0758059, 36.0492859], [-96.07587, 36.0490985], [-96.0759422, 36.0491147], [-96.0758748, 36.0493013]]]}, "properties": {"osm_id": 985852792, "building": "yes", "name": "", "height": null, "height_m": null, "levels": null, "tract_id": "40037020101", "tract_name": "201.01", "tags": {"building": "yes"}}}, {"type": "Feature", "geometry": {"type": "Polygon", "coordinates": [[[-96.0757506, 36.0495567], [-96.0756819, 36.049558], [-96.0756809, 36.0491715], [-96.0757506, 36.0491723], [-96.0757506, 36.0495567]]]}, "properties": {"osm_id": 985852793, "building": "yes", "name": "", "height": null, "height_m": null, "levels": null, "tract_id": "40037020101", "tract_name": "201.01", "tags": {"building": "yes"}}}, {"type": "Feature", "geometry": {"type": "Polygon", "coordinates": [[[-96.057989, 36.062078], [-96.0579433, 36.0620773], [-96.0579447, 36.0620217], [-96.0579905, 36.0620225], [-96.057989, 36.062078]]]}, "properties": {"osm_id": 1098378192, "building": "yes", "name": "", "height": null, "height_m": null, "levels": null, "tract_id": "40037020101", "tract_name": "201.01", "tags": {"building": "yes"}}}, {"type": "Feature", "geometry": {"type": "Polygon", "coordinates": [[[-96.0578676, 36.0622266], [-96.0578696, 36.0621507], [-96.0579056, 36.0621513], [-96.0579065, 36.0621157], [-96.0579966, 36.0621173], [-96.0579937, 36.0622287], [-96.0578676, 36.0622266]]]}, "properties": {"osm_id": 1098378193, "building": "yes", "name": "", "height": null, "height_m": null, "levels": null, "tract_id": "40037020101", "tract_name": "201.01", "tags": {"building": "yes"}}}, {"type": "Feature", "geometry": {"type": "Polygon", "coordinates": [[[-96.0302724, 36.0645281], [-96.0302164, 36.06453], [-96.0302137, 36.0644769], [-96.0302697, 36.064475], [-96.0302724, 36.0645281]]]}, "properties": {"osm_id": 1106239388, "building": "yes", "name": "", "height": null, "height_m": null, "levels": null, "tract_id": "40037020101", "tract_name": "201.01", "tags": {"building": "yes"}}}, {"type": "Feature", "geometry": {"type": "Polygon", "coordinates": [[[-96.0301698, 36.0706936], [-96.0301718, 36.0707232], [-96.0301115, 36.0707259], [-96.0301095, 36.0706963], [-96.0301698, 36.0706936]]]}, "properties": {"osm_id": 1106239392, "building": "yes", "name": "", "height": null, "height_m": null, "levels": null, "tract_id": "40037020101", "tract_name": "201.01", "tags": {"building": "yes"}}}, {"type": "Feature", "geometry": {"type": "Polygon", "coordinates": [[[-96.0300719, 36.0706644], [-96.03004, 36.0706654], [-96.0300386, 36.0706389], [-96.0300706, 36.0706378], [-96.0300719, 36.0706644]]]}, "properties": {"osm_id": 1106239393, "building": "yes", "name": "", "height": null, "height_m": null, "levels": null, "tract_id": "40037020101", "tract_name": "201.01", "tags": {"building": "yes"}}}, {"type": "Feature", "geometry": {"type": "Polygon", "coordinates": [[[-96.0300109, 36.0706752], [-96.0299311, 36.0706763], [-96.0299305, 36.0706492], [-96.0300103, 36.0706481], [-96.0300109, 36.0706752]]]}, "properties": {"osm_id": 1106239394, "building": "yes", "name": "", "height": null, "height_m": null, "levels": null, "tract_id": "40037020101", "tract_name": "201.01", "tags": {"building": "yes"}}}, {"type": "Feature", "geometry": {"type": "Polygon", "coordinates": [[[-96.0299546, 36.0638067], [-96.0301799, 36.0638048], [-96.0301797, 36.0637916], [-96.0302545, 36.063791], [-96.0302559, 36.0639043], [-96.0302049, 36.0639048], [-96.0302059, 36.0639908], [-96.0301162, 36.0639915], [-96.0301161, 36.0639824], [-96.0300506, 36.0639829], [-96.0300504, 36.0639691], [-96.0299566, 36.0639698], [-96.0299546, 36.0638067]]]}, "properties": {"osm_id": 1106239395, "building": "yes", "name": "", "height": null, "height_m": null, "levels": null, "tract_id": "40037020101", "tract_name": "201.01", "tags": {"building": "yes"}}}, {"type": "Feature", "geometry": {"type": "Polygon", "coordinates": [[[-96.03047, 36.0677934], [-96.0303171, 36.0677925], [-96.0303177, 36.0677209], [-96.0302319, 36.0677204], [-96.0302313, 36.0677933], [-96.0299631, 36.0677917], [-96.0299611, 36.0680107], [-96.030468, 36.0680137], [-96.03047, 36.0677934]]]}, "properties": {"osm_id": 1106239396, "building": "yes", "name": "", "height": null, "height_m": null, "levels": null, "tract_id": "40037020101", "tract_name": "201.01", "tags": {"building": "yes", "source": "microsoft/BuildingFootprints"}}}, {"type": "Feature", "geometry": {"type": "Polygon", "coordinates": [[[-96.0300442, 36.0709141], [-96.0301121, 36.0709131], [-96.0301124, 36.0709239], [-96.0301582, 36.0709233], [-96.0301586, 36.0709391], [-96.0302063, 36.0709384], [-96.030204, 36.0708304], [-96.0301756, 36.0708308], [-96.0301749, 36.0708011], [-96.0301169, 36.0708019], [-96.0301176, 36.0708322], [-96.0300425, 36.0708333], [-96.0300442, 36.0709141]]]}, "properties": {"osm_id": 1106239397, "building": "yes", "name": "", "height": null, "height_m": null, "levels": null, "tract_id": "40037020101", "tract_name": "201.01", "tags": {"building": "yes", "source": "microsoft/BuildingFootprints"}}}, {"type": "Feature", "geometry": {"type": "Polygon", "coordinates": [[[-96.0299659, 36.0719634], [-96.0300704, 36.0719662], [-96.0300756, 36.0718406], [-96.0299711, 36.0718378], [-96.0299659, 36.0719634]]]}, "properties": {"osm_id": 1106239398, "building": "yes", "name": "", "height": null, "height_m": null, "levels": null, "tract_id": "40037020101", "tract_name": "201.01", "tags": {"building": "yes", "source": "microsoft/BuildingFootprints"}}}, {"type": "Feature", "geometry": {"type": "Polygon", "coordinates": [[[-96.0298406, 36.0701534], [-96.0299376, 36.0701525], [-96.0299378, 36.070167], [-96.0300101, 36.0701662], [-96.0300087, 36.070069], [-96.0299814, 36.0700692], [-96.029981, 36.0700446], [-96.0299321, 36.0700451], [-96.0299324, 36.0700697], [-96.0298393, 36.0700707], [-96.0298406, 36.0701534]]]}, "properties": {"osm_id": 1106239399, "building": "yes", "name": "", "height": null, "height_m": null, "levels": null, "tract_id": "40037020101", "tract_name": "201.01", "tags": {"building": "yes", "source": "microsoft/BuildingFootprints"}}}, {"type": "Feature", "geometry": {"type": "Polygon", "coordinates": [[[-96.0298909, 36.0718628], [-96.0298896, 36.0719148], [-96.0299566, 36.0719159], [-96.0299579, 36.0718639], [-96.0298909, 36.0718628]]]}, "properties": {"osm_id": 1106239400, "building": "yes", "name": "", "height": null, "height_m": null, "levels": null, "tract_id": "40037020101", "tract_name": "201.01", "tags": {"building": "yes", "source": "microsoft/BuildingFootprints"}}}, {"type": "Feature", "geometry": {"type": "Polygon", "coordinates": [[[-96.0304121, 36.0708455], [-96.030239, 36.0708429], [-96.0302371, 36.0709207], [-96.0303363, 36.0709222], [-96.0303361, 36.0709289], [-96.0304101, 36.07093], [-96.0304121, 36.0708455]]]}, "properties": {"osm_id": 1106239401, "building": "yes", "name": "", "height": null, "height_m": null, "levels": null, "tract_id": "40037020101", "tract_name": "201.01", "tags": {"building": "yes", "source": "microsoft/BuildingFootprints"}}}, {"type": "Feature", "geometry": {"type": "Polygon", "coordinates": [[[-96.0297929, 36.0685211], [-96.0298546, 36.0685217], [-96.0298541, 36.0685542], [-96.0299828, 36.0685554], [-96.0299845, 36.0684405], [-96.0297941, 36.0684387], [-96.0297929, 36.0685211]]]}, "properties": {"osm_id": 1106239402, "building": "yes", "name": "", "height": null, "height_m": null, "levels": null, "tract_id": "40037020101", "tract_name": "201.01", "tags": {"building": "yes", "source": "microsoft/BuildingFootprints"}}}, {"type": "Feature", "geometry": {"type": "Polygon", "coordinates": [[[-96.0300802, 36.071993], [-96.0299823, 36.0719909], [-96.0299782, 36.0721165], [-96.0300761, 36.0721186], [-96.0300802, 36.071993]]]}, "properties": {"osm_id": 1106239403, "building": "yes", "name": "", "height": null, "height_m": null, "levels": null, "tract_id": "40037020101", "tract_name": "201.01", "tags": {"building": "yes", "source": "microsoft/BuildingFootprints"}}}, {"type": "Feature", "geometry": {"type": "Polygon", "coordinates": [[[-96.0299711, 36.0716848], [-96.029969, 36.0718148], [-96.0300762, 36.071816], [-96.0300784, 36.0716859], [-96.0299711, 36.0716848]]]}, "properties": {"osm_id": 1106239404, "building": "yes", "name": "", "height": null, "height_m": null, "levels": null, "tract_id": "40037020101", "tract_name": "201.01", "tags": {"building": "yes", "source": "microsoft/BuildingFootprints"}}}, {"type": "Feature", "geometry": {"type": "Polygon", "coordinates": [[[-96.030046, 36.0701664], [-96.0302126, 36.0701683], [-96.0302141, 36.0700815], [-96.0300475, 36.0700796], [-96.030046, 36.0701664]]]}, "properties": {"osm_id": 1106239405, "building": "yes", "name": "", "height": null, "height_m": null, "levels": null, "tract_id": "40037020101", "tract_name": "201.01", "tags": {"building": "yes", "source": "microsoft/BuildingFootprints"}}}, {"type": "Feature", "geometry": {"type": "Polygon", "coordinates": [[[-96.02997, 36.0715634], [-96.0300639, 36.0715634], [-96.0300638, 36.0714238], [-96.0299699, 36.0714238], [-96.02997, 36.0715634]]]}, "properties": {"osm_id": 1106239406, "building": "yes", "name": "", "height": null, "height_m": null, "levels": null, "tract_id": "40037020101", "tract_name": "201.01", "tags": {"building": "yes", "source": "microsoft/BuildingFootprints"}}}, {"type": "Feature", "geometry": {"type": "Polygon", "coordinates": [[[-96.0303899, 36.0704398], [-96.030229, 36.0704386], [-96.030228, 36.0705253], [-96.0303889, 36.0705266], [-96.0303899, 36.0704398]]]}, "properties": {"osm_id": 1106239407, "building": "yes", "name": "", "height": null, "height_m": null, "levels": null, "tract_id": "40037020101", "tract_name": "201.01", "tags": {"building": "yes", "source": "microsoft/BuildingFootprints"}}}, {"type": "Feature", "geometry": {"type": "Polygon", "coordinates": [[[-96.0300786, 36.0712318], [-96.0299582, 36.0712328], [-96.029959, 36.0712991], [-96.0299686, 36.071299], [-96.0299697, 36.0713866], [-96.0300805, 36.0713857], [-96.0300786, 36.0712318]]]}, "properties": {"osm_id": 1106239408, "building": "yes", "name": "", "height": null, "height_m": null, "levels": null, "tract_id": "40037020101", "tract_name": "201.01", "tags": {"building": "yes", "source": "microsoft/BuildingFootprints"}}}, {"type": "Feature", "geometry": {"type": "Polygon", "coordinates": [[[-96.0300409, 36.070536], [-96.0302006, 36.0705343], [-96.0301991, 36.0704467], [-96.0300395, 36.0704485], [-96.0300409, 36.070536]]]}, "properties": {"osm_id": 1106239409, "building": "yes", "name": "", "height": null, "height_m": null, "levels": null, "tract_id": "40037020101", "tract_name": "201.01", "tags": {"building": "yes", "source": "microsoft/BuildingFootprints"}}}, {"type": "Feature", "geometry": {"type": "Polygon", "coordinates": [[[-96.0299711, 36.0721418], [-96.029974, 36.0722697], [-96.0300813, 36.0722681], [-96.0300804, 36.0722313], [-96.0301126, 36.0722308], [-96.0301116, 36.0721874], [-96.0300794, 36.0721879], [-96.0300783, 36.0721402], [-96.0299711, 36.0721418]]]}, "properties": {"osm_id": 1106239410, "building": "yes", "name": "", "height": null, "height_m": null, "levels": null, "tract_id": "40037020101", "tract_name": "201.01", "tags": {"building": "yes", "source": "microsoft/BuildingFootprints"}}}, {"type": "Feature", "geometry": {"type": "Polygon", "coordinates": [[[-96.0300604, 36.0725786], [-96.0300638, 36.0724442], [-96.0299646, 36.0724426], [-96.0299612, 36.072577], [-96.0300604, 36.0725786]]]}, "properties": {"osm_id": 1106239411, "building": "yes", "name": "", "height": null, "height_m": null, "levels": null, "tract_id": "40037020101", "tract_name": "201.01", "tags": {"building": "yes", "source": "microsoft/BuildingFootprints"}}}, {"type": "Feature", "geometry": {"type": "Polygon", "coordinates": [[[-96.0300504, 36.0682499], [-96.0299298, 36.0682536], [-96.0299342, 36.0683467], [-96.0300548, 36.0683429], [-96.0300504, 36.0682499]]]}, "properties": {"osm_id": 1106239412, "building": "yes", "name": "", "height": null, "height_m": null, "levels": null, "tract_id": "40037020101", "tract_name": "201.01", "tags": {"building": "yes", "source": "microsoft/BuildingFootprints"}}}, {"type": "Feature", "geometry": {"type": "Polygon", "coordinates": [[[-96.0298227, 36.0708393], [-96.0298236, 36.0709372], [-96.0299659, 36.0709363], [-96.0299657, 36.0709138], [-96.0299981, 36.0709136], [-96.0299974, 36.0708382], [-96.0299434, 36.0708385], [-96.0299431, 36.0708103], [-96.0299042, 36.0708106], [-96.0299045, 36.0708388], [-96.0298227, 36.0708393]]]}, "properties": {"osm_id": 1106239413, "building": "yes", "name": "", "height": null, "height_m": null, "levels": null, "tract_id": "40037020101", "tract_name": "201.01", "tags": {"building": "yes", "source": "microsoft/BuildingFootprints"}}}, {"type": "Feature", "geometry": {"type": "Polygon", "coordinates": [[[-96.0299712, 36.0724096], [-96.0300919, 36.0724081], [-96.0300909, 36.0723591], [-96.0300655, 36.0723594], [-96.0300643, 36.0723], [-96.0299691, 36.0723013], [-96.0299712, 36.0724096]]]}, "properties": {"osm_id": 1106239414, "building": "yes", "name": "", "height": null, "height_m": null, "levels": null, "tract_id": "40037020101", "tract_name": "201.01", "tags": {"building": "yes", "source": "microsoft/BuildingFootprints"}}}, {"type": "Feature", "geometry": {"type": "Polygon", "coordinates": [[[-96.0301845, 36.0642744], [-96.0300124, 36.0642762], [-96.0300129, 36.0643028], [-96.0299882, 36.0643031], [-96.0299907, 36.0644597], [-96.0300534, 36.0644591], [-96.030053, 36.0644339], [-96.0301415, 36.064433], [-96.0301417, 36.0644503], [-96.0301992, 36.0644497], [-96.030199, 36.0644361], [-96.0302275, 36.0644358], [-96.0302272, 36.0644147], [-96.0302545, 36.0644144], [-96.0302542, 36.0643941], [-96.0302814, 36.0643939], [-96.0302803, 36.0643245], [-96.0301853, 36.0643255], [-96.0301845, 36.0642744]]]}, "properties": {"osm_id": 1106239415, "building": "yes", "name": "", "height": null, "height_m": null, "levels": null, "tract_id": "40037020101", "tract_name": "201.01", "tags": {"building": "yes", "source": "microsoft/BuildingFootprints"}}}, {"type": "Feature", "geometry": {"type": "Polygon", "coordinates": [[[-96.0298379, 36.0704439], [-96.0298403, 36.0705367], [-96.030004, 36.0705339], [-96.030002, 36.0704567], [-96.0299668, 36.0704573], [-96.0299663, 36.0704417], [-96.0298379, 36.0704439]]]}, "properties": {"osm_id": 1106239416, "building": "yes", "name": "", "height": null, "height_m": null, "levels": null, "tract_id": "40037020101", "tract_name": "201.01", "tags": {"building": "yes", "source": "microsoft/BuildingFootprints"}}}, {"type": "Feature", "geometry": {"type": "Polygon", "coordinates": [[[-96.0303969, 36.0700708], [-96.0302359, 36.0700693], [-96.0302345, 36.0701691], [-96.0303955, 36.0701705], [-96.0303969, 36.0700708]]]}, "properties": {"osm_id": 1106239417, "building": "yes", "name": "", "height": null, "height_m": null, "levels": null, "tract_id": "40037020101", "tract_name": "201.01", "tags": {"building": "yes", "source": "microsoft/BuildingFootprints"}}}, {"type": "Feature", "geometry": {"type": "Polygon", "coordinates": [[[-96.0300679, 36.0740388], [-96.0299673, 36.0740388], [-96.0299673, 36.073912], [-96.0300679, 36.073912], [-96.0300679, 36.0739586], [-96.030094, 36.0739586], [-96.030094, 36.0739857], [-96.0300679, 36.0739857], [-96.0300679, 36.0740388]]]}, "properties": {"osm_id": 1106240138, "building": "yes", "name": "", "height": null, "height_m": null, "levels": null, "tract_id": "40037020101", "tract_name": "201.01", "tags": {"building": "yes"}}}, {"type": "Feature", "geometry": {"type": "Polygon", "coordinates": [[[-96.03021, 36.0730036], [-96.0301658, 36.0730036], [-96.0301658, 36.0729646], [-96.03021, 36.0729646], [-96.03021, 36.0730036]]]}, "properties": {"osm_id": 1106240139, "building": "yes", "name": "", "height": null, "height_m": null, "levels": null, "tract_id": "40037020101", "tract_name": "201.01", "tags": {"building": "yes"}}}, {"type": "Feature", "geometry": {"type": "Polygon", "coordinates": [[[-96.0300668, 36.0742247], [-96.0299649, 36.0742261], [-96.0299676, 36.0743531], [-96.0300695, 36.0743517], [-96.0300668, 36.0742247]]]}, "properties": {"osm_id": 1106240140, "building": "yes", "name": "", "height": null, "height_m": null, "levels": null, "tract_id": "40037020101", "tract_name": "201.01", "tags": {"building": "yes", "source": "microsoft/BuildingFootprints"}}}, {"type": "Feature", "geometry": {"type": "Polygon", "coordinates": [[[-96.0299803, 36.0730991], [-96.0300929, 36.0730999], [-96.0300943, 36.072972], [-96.0299816, 36.0729712], [-96.0299803, 36.0730991]]]}, "properties": {"osm_id": 1106240141, "building": "yes", "name": "", "height": null, "height_m": null, "levels": null, "tract_id": "40037020101", "tract_name": "201.01", "tags": {"building": "yes", "source": "microsoft/BuildingFootprints"}}}, {"type": "Feature", "geometry": {"type": "Polygon", "coordinates": [[[-96.029971, 36.0728041], [-96.029968, 36.0729341], [-96.0300741, 36.0729357], [-96.0300771, 36.0728057], [-96.029971, 36.0728041]]]}, "properties": {"osm_id": 1106240142, "building": "yes", "name": "", "height": null, "height_m": null, "levels": null, "tract_id": "40037020101", "tract_name": "201.01", "tags": {"building": "yes", "source": "microsoft/BuildingFootprints"}}}, {"type": "Feature", "geometry": {"type": "Polygon", "coordinates": [[[-96.0298812, 36.0740345], [-96.0299509, 36.0740349], [-96.0299514, 36.0739807], [-96.0298817, 36.0739803], [-96.0298812, 36.0740345]]]}, "properties": {"osm_id": 1106240143, "building": "yes", "name": "", "height": null, "height_m": null, "levels": null, "tract_id": "40037020101", "tract_name": "201.01", "tags": {"building": "yes", "source": "microsoft/BuildingFootprints"}}}, {"type": "Feature", "geometry": {"type": "Polygon", "coordinates": [[[-96.02996, 36.0741982], [-96.0300566, 36.0741985], [-96.0300573, 36.0740641], [-96.0299608, 36.0740638], [-96.0299605, 36.0741098], [-96.02995, 36.0741098], [-96.0299497, 36.0741526], [-96.0299603, 36.0741526], [-96.02996, 36.0741982]]]}, "properties": {"osm_id": 1106240144, "building": "yes", "name": "", "height": null, "height_m": null, "levels": null, "tract_id": "40037020101", "tract_name": "201.01", "tags": {"building": "yes", "source": "microsoft/BuildingFootprints"}}}, {"type": "Feature", "geometry": {"type": "Polygon", "coordinates": [[[-96.0300559, 36.0737508], [-96.0299501, 36.0737517], [-96.0299518, 36.0738861], [-96.0300575, 36.0738852], [-96.0300559, 36.0737508]]]}, "properties": {"osm_id": 1106240145, "building": "yes", "name": "", "height": null, "height_m": null, "levels": null, "tract_id": "40037020101", "tract_name": "201.01", "tags": {"building": "yes", "source": "microsoft/BuildingFootprints"}}}, {"type": "Feature", "geometry": {"type": "Polygon", "coordinates": [[[-96.0300525, 36.0749752], [-96.0302117, 36.0749757], [-96.0302122, 36.0748804], [-96.030053, 36.0748798], [-96.0300525, 36.0749752]]]}, "properties": {"osm_id": 1106240146, "building": "yes", "name": "", "height": null, "height_m": null, "levels": null, "tract_id": "40037020101", "tract_name": "201.01", "tags": {"building": "yes", "source": "microsoft/BuildingFootprints"}}}, {"type": "Feature", "geometry": {"type": "Polygon", "coordinates": [[[-96.0299529, 36.0747303], [-96.0304973, 36.0747341], [-96.030499, 36.0745781], [-96.030543, 36.0745784], [-96.0305414, 36.0747244], [-96.0307479, 36.0747259], [-96.0307507, 36.0744714], [-96.0304261, 36.0744692], [-96.0304258, 36.0744973], [-96.0303668, 36.0744969], [-96.0303658, 36.074588], [-96.0302586, 36.0745872], [-96.0302583, 36.0746097], [-96.0302074, 36.0746094], [-96.0302071, 36.0746311], [-96.0301642, 36.0746308], [-96.0301651, 36.0745484], [-96.0301973, 36.0745486], [-96.0301978, 36.0744979], [-96.0300584, 36.0744969], [-96.0300575, 36.0745793], [-96.0299545, 36.0745786], [-96.0299529, 36.0747303]]]}, "properties": {"osm_id": 1106240147, "building": "yes", "name": "", "height": null, "height_m": null, "levels": null, "tract_id": "40037020101", "tract_name": "201.01", "tags": {"building": "yes", "source": "microsoft/BuildingFootprints"}}}, {"type": "Feature", "geometry": {"type": "Polygon", "coordinates": [[[-96.0301019, 36.0736305], [-96.030067, 36.0736302], [-96.0300674, 36.0735998], [-96.029964, 36.0735988], [-96.0299621, 36.0737245], [-96.0300667, 36.0737256], [-96.0300672, 36.0736887], [-96.030101, 36.0736891], [-96.0301019, 36.0736305]]]}, "properties": {"osm_id": 1106240148, "building": "yes", "name": "", "height": null, "height_m": null, "levels": null, "tract_id": "40037020101", "tract_name": "201.01", "tags": {"building": "yes", "source": "microsoft/BuildingFootprints"}}}, {"type": "Feature", "geometry": {"type": "Polygon", "coordinates": [[[-96.0299721, 36.073125], [-96.0299677, 36.0732537], [-96.0300738, 36.073256], [-96.0300757, 36.0731999], [-96.0300997, 36.0732004], [-96.0301006, 36.0731727], [-96.0300766, 36.0731722], [-96.0300782, 36.0731274], [-96.0299721, 36.073125]]]}, "properties": {"osm_id": 1106240149, "building": "yes", "name": "", "height": null, "height_m": null, "levels": null, "tract_id": "40037020101", "tract_name": "201.01", "tags": {"building": "yes", "source": "microsoft/BuildingFootprints"}}}, {"type": "Feature", "geometry": {"type": "Polygon", "coordinates": [[[-96.029957, 36.0735731], [-96.0300577, 36.0735732], [-96.0300579, 36.0734388], [-96.0299572, 36.0734387], [-96.029957, 36.0735731]]]}, "properties": {"osm_id": 1106240150, "building": "yes", "name": "", "height": null, "height_m": null, "levels": null, "tract_id": "40037020101", "tract_name": "201.01", "tags": {"building": "yes", "source": "microsoft/BuildingFootprints"}}}, {"type": "Feature", "geometry": {"type": "Polygon", "coordinates": [[[-96.0300557, 36.0733523], [-96.0300553, 36.0732851], [-96.0299587, 36.0732855], [-96.0299596, 36.0734168], [-96.0300585, 36.0734164], [-96.0300584, 36.0734047], [-96.0300909, 36.0734046], [-96.0300906, 36.0733521], [-96.0300557, 36.0733523]]]}, "properties": {"osm_id": 1106240151, "building": "yes", "name": "", "height": null, "height_m": null, "levels": null, "tract_id": "40037020101", "tract_name": "201.01", "tags": {"building": "yes", "source": "microsoft/BuildingFootprints"}}}, {"type": "Feature", "geometry": {"type": "Polygon", "coordinates": [[[-96.0303026, 36.0571885], [-96.0303011, 36.0572175], [-96.0302534, 36.0572159], [-96.030255, 36.0571869], [-96.0303026, 36.0571885]]]}, "properties": {"osm_id": 1112435816, "building": "yes", "name": "", "height": null, "height_m": null, "levels": null, "tract_id": "40037020101", "tract_name": "201.01", "tags": {"building": "yes"}}}, {"type": "Feature", "geometry": {"type": "Polygon", "coordinates": [[[-96.0301095, 36.0607207], [-96.0301095, 36.0607429], [-96.0300766, 36.0607429], [-96.0300766, 36.0607207], [-96.0301095, 36.0607207]]]}, "properties": {"osm_id": 1112435824, "building": "yes", "name": "", "height": null, "height_m": null, "levels": null, "tract_id": "40037020101", "tract_name": "201.01", "tags": {"building": "yes"}}}, {"type": "Feature", "geometry": {"type": "Polygon", "coordinates": [[[-96.0302426, 36.060698], [-96.0303167, 36.0606958], [-96.0303221, 36.0608172], [-96.0302479, 36.0608194], [-96.0302426, 36.060698]]]}, "properties": {"osm_id": 1112435825, "building": "yes", "name": "", "height": null, "height_m": null, "levels": null, "tract_id": "40037020101", "tract_name": "201.01", "tags": {"building": "yes"}}}, {"type": "Feature", "geometry": {"type": "Polygon", "coordinates": [[[-96.0298594, 36.0590973], [-96.0299462, 36.0590968], [-96.0299457, 36.0590426], [-96.0298589, 36.0590431], [-96.0298594, 36.0590973]]]}, "properties": {"osm_id": 1112435858, "building": "yes", "name": "", "height": null, "height_m": null, "levels": null, "tract_id": "40037020101", "tract_name": "201.01", "tags": {"building": "yes", "source": "microsoft/BuildingFootprints"}}}, {"type": "Feature", "geometry": {"type": "Polygon", "coordinates": [[[-96.0300188, 36.0561643], [-96.0298997, 36.0561659], [-96.0299028, 36.0563071], [-96.0300204, 36.0563054], [-96.0300203, 36.0562986], [-96.0300806, 36.0562978], [-96.030079, 36.0562241], [-96.0300201, 36.0562249], [-96.0300188, 36.0561643]]]}, "properties": {"osm_id": 1112435868, "building": "yes", "name": "", "height": null, "height_m": null, "levels": null, "tract_id": "40037020101", "tract_name": "201.01", "tags": {"building": "yes", "source": "microsoft/BuildingFootprints"}}}, {"type": "Feature", "geometry": {"type": "Polygon", "coordinates": [[[-96.0301635, 36.0569411], [-96.0300482, 36.0569425], [-96.0300512, 36.0571056], [-96.0300676, 36.0571054], [-96.0300686, 36.0571613], [-96.0301648, 36.0571601], [-96.0301642, 36.0571233], [-96.0302124, 36.0571227], [-96.030211, 36.0570433], [-96.0301654, 36.0570439], [-96.0301635, 36.0569411]]]}, "properties": {"osm_id": 1112435869, "building": "yes", "name": "", "height": null, "height_m": null, "levels": null, "tract_id": "40037020101", "tract_name": "201.01", "tags": {"building": "yes", "source": "microsoft/BuildingFootprints"}}}, {"type": "Feature", "geometry": {"type": "Polygon", "coordinates": [[[-96.0299142, 36.0599624], [-96.030059, 36.0599598], [-96.0300572, 36.0598927], [-96.030017, 36.0598934], [-96.0300148, 36.059811], [-96.0298834, 36.0598133], [-96.0298857, 36.0598978], [-96.0299125, 36.0598974], [-96.0299142, 36.0599624]]]}, "properties": {"osm_id": 1112435872, "building": "yes", "name": "", "height": null, "height_m": null, "levels": null, "tract_id": "40037020101", "tract_name": "201.01", "tags": {"building": "yes", "source": "microsoft/BuildingFootprints"}}}, {"type": "Feature", "geometry": {"type": "Polygon", "coordinates": [[[-96.02992, 36.0575004], [-96.0298058, 36.0574985], [-96.0298015, 36.0576676], [-96.0299158, 36.0576694], [-96.02992, 36.0575004]]]}, "properties": {"osm_id": 1112435873, "building": "yes", "name": "", "height": null, "height_m": null, "levels": null, "tract_id": "40037020101", "tract_name": "201.01", "tags": {"building": "yes", "source": "microsoft/BuildingFootprints"}}}, {"type": "Feature", "geometry": {"type": "Polygon", "coordinates": [[[-96.0299239, 36.0555921], [-96.0299666, 36.0556754], [-96.030223, 36.0555896], [-96.0301905, 36.0555261], [-96.0301053, 36.0555546], [-96.0300951, 36.0555348], [-96.0299239, 36.0555921]]]}, "properties": {"osm_id": 1112435875, "building": "yes", "name": "", "height": null, "height_m": null, "levels": null, "tract_id": "40037020101", "tract_name": "201.01", "tags": {"building": "yes", "source": "microsoft/BuildingFootprints"}}}, {"type": "Feature", "geometry": {"type": "Polygon", "coordinates": [[[-96.0298129, 36.0585455], [-96.0300494, 36.0585427], [-96.0300479, 36.0584625], [-96.0299906, 36.0584631], [-96.0299903, 36.058448], [-96.0299002, 36.058449], [-96.0299005, 36.0584664], [-96.0298281, 36.0584672], [-96.0298287, 36.0584993], [-96.029812, 36.0584995], [-96.0298129, 36.0585455]]]}, "properties": {"osm_id": 1112435876, "building": "yes", "name": "", "height": null, "height_m": null, "levels": null, "tract_id": "40037020101", "tract_name": "201.01", "tags": {"building": "yes", "source": "microsoft/BuildingFootprints"}}}, {"type": "Feature", "geometry": {"type": "Polygon", "coordinates": [[[-96.0299549, 36.0588275], [-96.0298396, 36.0588286], [-96.0298427, 36.059038], [-96.029958, 36.0590369], [-96.0299567, 36.0589489], [-96.0299959, 36.0589485], [-96.0299949, 36.0588813], [-96.0299557, 36.0588817], [-96.0299549, 36.0588275]]]}, "properties": {"osm_id": 1112435881, "building": "yes", "name": "", "height": null, "height_m": null, "levels": null, "tract_id": "40037020101", "tract_name": "201.01", "tags": {"building": "yes", "source": "microsoft/BuildingFootprints"}}}, {"type": "Feature", "geometry": {"type": "Polygon", "coordinates": [[[-96.0299006, 36.0567423], [-96.0300133, 36.0567419], [-96.0300126, 36.0566053], [-96.0299067, 36.0566057], [-96.029907, 36.0566643], [-96.0299002, 36.0566643], [-96.0299006, 36.0567423]]]}, "properties": {"osm_id": 1112435887, "building": "yes", "name": "", "height": null, "height_m": null, "levels": null, "tract_id": "40037020101", "tract_name": "201.01", "tags": {"building": "yes", "source": "microsoft/BuildingFootprints"}}}, {"type": "Feature", "geometry": {"type": "Polygon", "coordinates": [[[-96.0302785, 36.0574301], [-96.0302393, 36.0574294], [-96.0302368, 36.0575139], [-96.0302761, 36.0575146], [-96.0302785, 36.0574301]]]}, "properties": {"osm_id": 1112435890, "building": "yes", "name": "", "height": null, "height_m": null, "levels": null, "tract_id": "40037020101", "tract_name": "201.01", "tags": {"building": "yes", "source": "microsoft/BuildingFootprints"}}}, {"type": "Feature", "geometry": {"type": "Polygon", "coordinates": [[[-96.0301542, 36.0559669], [-96.0302143, 36.0559658], [-96.0302123, 36.0558972], [-96.0301522, 36.0558984], [-96.0301542, 36.0559669]]]}, "properties": {"osm_id": 1112435893, "building": "yes", "name": "", "height": null, "height_m": null, "levels": null, "tract_id": "40037020101", "tract_name": "201.01", "tags": {"building": "yes", "source": "microsoft/BuildingFootprints"}}}, {"type": "Feature", "geometry": {"type": "Polygon", "coordinates": [[[-96.0299057, 36.0608457], [-96.0299996, 36.0608444], [-96.0299978, 36.0607408], [-96.0300234, 36.0607405], [-96.030022, 36.0606597], [-96.0299965, 36.06066], [-96.0299953, 36.0605921], [-96.0298951, 36.0605935], [-96.0298966, 36.0606659], [-96.0298671, 36.0606663], [-96.0298682, 36.0607175], [-96.0298946, 36.0607171], [-96.0298953, 36.0607485], [-96.0299037, 36.0607484], [-96.0299057, 36.0608457]]]}, "properties": {"osm_id": 1112435897, "building": "yes", "name": "", "height": null, "height_m": null, "levels": null, "tract_id": "40037020101", "tract_name": "201.01", "tags": {"building": "yes", "source": "microsoft/BuildingFootprints"}}}, {"type": "Feature", "geometry": {"type": "Polygon", "coordinates": [[[-96.0303117, 36.0563053], [-96.0302019, 36.0563087], [-96.0302055, 36.0563867], [-96.0303153, 36.0563833], [-96.0303117, 36.0563053]]]}, "properties": {"osm_id": 1112435898, "building": "yes", "name": "", "height": null, "height_m": null, "levels": null, "tract_id": "40037020101", "tract_name": "201.01", "tags": {"building": "yes", "source": "microsoft/BuildingFootprints"}}}, {"type": "Feature", "geometry": {"type": "Polygon", "coordinates": [[[-96.0388381, 36.0603844], [-96.0390901, 36.0603869], [-96.0390926, 36.0602243], [-96.0389141, 36.0602225], [-96.0389127, 36.0603148], [-96.0388391, 36.0603141], [-96.0388381, 36.0603844]]]}, "properties": {"osm_id": 1235077329, "building": "yes", "name": "", "height": null, "height_m": null, "levels": null, "tract_id": "40037020101", "tract_name": "201.01", "tags": {"building": "yes", "source": "microsoft/BuildingFootprints"}}}, {"type": "Feature", "geometry": {"type": "Polygon", "coordinates": [[[-96.0390794, 36.0600258], [-96.0388353, 36.0600258], [-96.0388353, 36.0601168], [-96.0389051, 36.0601168], [-96.0389051, 36.0601472], [-96.0389292, 36.0601472], [-96.0389292, 36.0601884], [-96.0391089, 36.0601884], [-96.0391089, 36.0601342], [-96.0390794, 36.0601342], [-96.0390794, 36.0600258]]]}, "properties": {"osm_id": 1235077330, "building": "yes", "name": "", "height": null, "height_m": null, "levels": null, "tract_id": "40037020101", "tract_name": "201.01", "tags": {"building": "yes", "source": "microsoft/BuildingFootprints"}}}, {"type": "Feature", "geometry": {"type": "Polygon", "coordinates": [[[-96.0388352, 36.060003], [-96.0390337, 36.0600024], [-96.0390331, 36.0598844], [-96.0390707, 36.0598842], [-96.0390704, 36.059831], [-96.0388735, 36.0598316], [-96.0388739, 36.0599152], [-96.0388348, 36.0599153], [-96.0388352, 36.060003]]]}, "properties": {"osm_id": 1235077331, "building": "yes", "name": "", "height": null, "height_m": null, "levels": null, "tract_id": "40037020101", "tract_name": "201.01", "tags": {"building": "yes", "source": "microsoft/BuildingFootprints"}}}, {"type": "Feature", "geometry": {"type": "Polygon", "coordinates": [[[-96.0388358, 36.059646], [-96.0388353, 36.0597132], [-96.0389131, 36.0597136], [-96.0389125, 36.0598035], [-96.0391029, 36.0598043], [-96.0391035, 36.0597154], [-96.0390714, 36.0597153], [-96.0390718, 36.0596471], [-96.0388358, 36.059646]]]}, "properties": {"osm_id": 1235077332, "building": "yes", "name": "", "height": null, "height_m": null, "levels": null, "tract_id": "40037020101", "tract_name": "201.01", "tags": {"building": "yes", "source": "microsoft/BuildingFootprints"}}}, {"type": "Feature", "geometry": {"type": "Polygon", "coordinates": [[[-96.0392814, 36.0595389], [-96.039147, 36.0593669], [-96.0390492, 36.0594168], [-96.0390984, 36.0594797], [-96.039034, 36.0595126], [-96.0391345, 36.0596412], [-96.0391931, 36.0596112], [-96.0391779, 36.0595918], [-96.0392814, 36.0595389]]]}, "properties": {"osm_id": 1235077333, "building": "yes", "name": "", "height": null, "height_m": null, "levels": null, "tract_id": "40037020101", "tract_name": "201.01", "tags": {"building": "yes", "source": "microsoft/BuildingFootprints"}}}, {"type": "Feature", "geometry": {"type": "Polygon", "coordinates": [[[-96.0393397, 36.0595694], [-96.0394228, 36.0595685], [-96.0394225, 36.0595469], [-96.0395313, 36.0595458], [-96.0395285, 36.0593615], [-96.0394384, 36.0593624], [-96.0394396, 36.0594404], [-96.0394063, 36.0594408], [-96.0394055, 36.0593887], [-96.0393369, 36.0593894], [-96.0393397, 36.0595694]]]}, "properties": {"osm_id": 1235077334, "building": "yes", "name": "", "height": null, "height_m": null, "levels": null, "tract_id": "40037020101", "tract_name": "201.01", "tags": {"building": "yes", "source": "microsoft/BuildingFootprints"}}}, {"type": "Feature", "geometry": {"type": "Polygon", "coordinates": [[[-96.0397518, 36.0593654], [-96.0395571, 36.0593676], [-96.0395607, 36.0595757], [-96.0396294, 36.0595749], [-96.0396292, 36.0595632], [-96.0397552, 36.0595617], [-96.0397518, 36.0593654]]]}, "properties": {"osm_id": 1235077335, "building": "yes", "name": "", "height": null, "height_m": null, "levels": null, "tract_id": "40037020101", "tract_name": "201.01", "tags": {"building": "yes", "source": "microsoft/BuildingFootprints"}}}, {"type": "Feature", "geometry": {"type": "Polygon", "coordinates": [[[-96.0399989, 36.0593623], [-96.0398691, 36.0593635], [-96.0398693, 36.0593786], [-96.0397899, 36.0593793], [-96.039792, 36.0595345], [-96.0400012, 36.0595327], [-96.0399989, 36.0593623]]]}, "properties": {"osm_id": 1235077336, "building": "yes", "name": "", "height": null, "height_m": null, "levels": null, "tract_id": "40037020101", "tract_name": "201.01", "tags": {"building": "yes", "source": "microsoft/BuildingFootprints"}}}, {"type": "Feature", "geometry": {"type": "Polygon", "coordinates": [[[-96.040225, 36.0593632], [-96.0401322, 36.0593628], [-96.0401317, 36.059443], [-96.0400995, 36.0594429], [-96.0400998, 36.0593908], [-96.0400301, 36.0593905], [-96.0400289, 36.0595683], [-96.0401121, 36.0595687], [-96.0401122, 36.0595557], [-96.0401765, 36.059556], [-96.0401767, 36.0595321], [-96.0402239, 36.0595323], [-96.040225, 36.0593632]]]}, "properties": {"osm_id": 1235077337, "building": "yes", "name": "", "height": null, "height_m": null, "levels": null, "tract_id": "40037020101", "tract_name": "201.01", "tags": {"building": "yes", "source": "microsoft/BuildingFootprints"}}}, {"type": "Feature", "geometry": {"type": "Polygon", "coordinates": [[[-96.0404545, 36.0593642], [-96.0403676, 36.0593652], [-96.040368, 36.0593891], [-96.0402806, 36.0593901], [-96.0402828, 36.0595136], [-96.040338, 36.059513], [-96.0403384, 36.0595369], [-96.0404575, 36.0595355], [-96.0404545, 36.0593642]]]}, "properties": {"osm_id": 1235077338, "building": "yes", "name": "", "height": null, "height_m": null, "levels": null, "tract_id": "40037020101", "tract_name": "201.01", "tags": {"building": "yes", "source": "microsoft/BuildingFootprints"}}}, {"type": "Feature", "geometry": {"type": "Polygon", "coordinates": [[[-96.0409097, 36.0593895], [-96.0407434, 36.0593921], [-96.0407467, 36.0595321], [-96.0409129, 36.0595296], [-96.0409097, 36.0593895]]]}, "properties": {"osm_id": 1235077339, "building": "yes", "name": "", "height": null, "height_m": null, "levels": null, "tract_id": "40037020101", "tract_name": "201.01", "tags": {"building": "yes", "source": "microsoft/BuildingFootprints"}}}, {"type": "Feature", "geometry": {"type": "Polygon", "coordinates": [[[-96.040985, 36.0596405], [-96.0411512, 36.0596367], [-96.041147, 36.0595141], [-96.0410719, 36.0595158], [-96.0410714, 36.0595006], [-96.0409803, 36.0595027], [-96.040985, 36.0596405]]]}, "properties": {"osm_id": 1235077340, "building": "yes", "name": "", "height": null, "height_m": null, "levels": null, "tract_id": "40037020101", "tract_name": "201.01", "tags": {"building": "yes", "source": "microsoft/BuildingFootprints"}}}, {"type": "Feature", "geometry": {"type": "Polygon", "coordinates": [[[-96.0405117, 36.0595494], [-96.0406925, 36.0595505], [-96.0406943, 36.0593619], [-96.0406058, 36.0593614], [-96.0406051, 36.0594329], [-96.0405128, 36.0594323], [-96.0405117, 36.0595494]]]}, "properties": {"osm_id": 1235077341, "building": "yes", "name": "", "height": null, "height_m": null, "levels": null, "tract_id": "40037020101", "tract_name": "201.01", "tags": {"building": "yes", "source": "microsoft/BuildingFootprints"}}}, {"type": "Feature", "geometry": {"type": "Polygon", "coordinates": [[[-96.0411793, 36.0595027], [-96.0413108, 36.0596017], [-96.0414285, 36.0594996], [-96.041297, 36.0594005], [-96.0411793, 36.0595027]]]}, "properties": {"osm_id": 1235077342, "building": "yes", "name": "", "height": null, "height_m": null, "levels": null, "tract_id": "40037020101", "tract_name": "201.01", "tags": {"building": "yes", "source": "microsoft/BuildingFootprints"}}}, {"type": "Feature", "geometry": {"type": "Polygon", "coordinates": [[[-96.0414484, 36.0592565], [-96.0412993, 36.0592541], [-96.0412962, 36.0593807], [-96.0414453, 36.059383], [-96.0414484, 36.0592565]]]}, "properties": {"osm_id": 1235077343, "building": "yes", "name": "", "height": null, "height_m": null, "levels": null, "tract_id": "40037020101", "tract_name": "201.01", "tags": {"building": "yes", "source": "microsoft/BuildingFootprints"}}}, {"type": "Feature", "geometry": {"type": "Polygon", "coordinates": [[[-96.0419536, 36.0603053], [-96.0419255, 36.0601407], [-96.0418307, 36.0601513], [-96.0418398, 36.0602045], [-96.0416372, 36.0602271], [-96.0416546, 36.0603293], [-96.0417599, 36.0603175], [-96.0417566, 36.0602984], [-96.0418593, 36.0602869], [-96.0418641, 36.0603153], [-96.0419536, 36.0603053]]]}, "properties": {"osm_id": 1235077344, "building": "yes", "name": "", "height": null, "height_m": null, "levels": null, "tract_id": "40037020101", "tract_name": "201.01", "tags": {"building": "yes", "source": "microsoft/BuildingFootprints"}}}, {"type": "Feature", "geometry": {"type": "Polygon", "coordinates": [[[-96.0423188, 36.059827], [-96.0420833, 36.0599441], [-96.0421994, 36.0600967], [-96.0424349, 36.0599797], [-96.0423188, 36.059827]]]}, "properties": {"osm_id": 1235077345, "building": "yes", "name": "", "height": null, "height_m": null, "levels": null, "tract_id": "40037020101", "tract_name": "201.01", "tags": {"building": "yes", "source": "microsoft/BuildingFootprints"}}}, {"type": "Feature", "geometry": {"type": "Polygon", "coordinates": [[[-96.0428402, 36.059664], [-96.0426488, 36.059669], [-96.04265, 36.0596972], [-96.0426125, 36.0596982], [-96.0426157, 36.0597783], [-96.0426451, 36.0597775], [-96.0426474, 36.0598339], [-96.0427921, 36.0598301], [-96.0427938, 36.0598712], [-96.0428875, 36.0598688], [-96.0428818, 36.0597272], [-96.0428428, 36.0597282], [-96.0428402, 36.059664]]]}, "properties": {"osm_id": 1235077346, "building": "yes", "name": "", "height": null, "height_m": null, "levels": null, "tract_id": "40037020101", "tract_name": "201.01", "tags": {"building": "yes", "source": "microsoft/BuildingFootprints"}}}, {"type": "Feature", "geometry": {"type": "Polygon", "coordinates": [[[-96.0430508, 36.0598312], [-96.0433699, 36.0598344], [-96.0433726, 36.0596618], [-96.0432401, 36.0596605], [-96.0432398, 36.0596835], [-96.0431095, 36.0596822], [-96.0431091, 36.059706], [-96.0430528, 36.0597054], [-96.0430508, 36.0598312]]]}, "properties": {"osm_id": 1235077347, "building": "yes", "name": "", "height": null, "height_m": null, "levels": null, "tract_id": "40037020101", "tract_name": "201.01", "tags": {"building": "yes", "source": "microsoft/BuildingFootprints"}}}, {"type": "Feature", "geometry": {"type": "Polygon", "coordinates": [[[-96.0443972, 36.0598743], [-96.0442444, 36.0598772], [-96.0442432, 36.0598352], [-96.044195, 36.0598361], [-96.0441931, 36.0597741], [-96.0440671, 36.0597765], [-96.0440679, 36.0598026], [-96.0440197, 36.0598035], [-96.0440228, 36.0599118], [-96.0440443, 36.0599114], [-96.0440459, 36.0599656], [-96.0442266, 36.0599621], [-96.0442252, 36.0599145], [-96.044275, 36.0599135], [-96.044276, 36.0599482], [-96.0443993, 36.0599458], [-96.0443972, 36.0598743]]]}, "properties": {"osm_id": 1235077348, "building": "yes", "name": "", "height": null, "height_m": null, "levels": null, "tract_id": "40037020101", "tract_name": "201.01", "tags": {"building": "yes", "source": "microsoft/BuildingFootprints"}}}, {"type": "Feature", "geometry": {"type": "Polygon", "coordinates": [[[-96.0447946, 36.0597312], [-96.044656, 36.0597595], [-96.0446432, 36.0597188], [-96.0444729, 36.0597536], [-96.0445186, 36.0598995], [-96.0446335, 36.059876], [-96.0446427, 36.0599054], [-96.0447294, 36.0598876], [-96.0447167, 36.0598469], [-96.044824, 36.0598249], [-96.0447946, 36.0597312]]]}, "properties": {"osm_id": 1235077349, "building": "yes", "name": "", "height": null, "height_m": null, "levels": null, "tract_id": "40037020101", "tract_name": "201.01", "tags": {"building": "yes", "source": "microsoft/BuildingFootprints"}}}, {"type": "Feature", "geometry": {"type": "Polygon", "coordinates": [[[-96.0450145, 36.0595027], [-96.0450254, 36.0596038], [-96.0449934, 36.0596061], [-96.0450068, 36.0597309], [-96.0451144, 36.0597233], [-96.0451163, 36.0597415], [-96.0451924, 36.0597361], [-96.0451868, 36.0596836], [-96.0452108, 36.0596819], [-96.0452027, 36.0596066], [-96.0451148, 36.0596127], [-96.0451024, 36.0594965], [-96.0450145, 36.0595027]]]}, "properties": {"osm_id": 1235077350, "building": "yes", "name": "", "height": null, "height_m": null, "levels": null, "tract_id": "40037020101", "tract_name": "201.01", "tags": {"building": "yes", "source": "microsoft/BuildingFootprints"}}}, {"type": "Feature", "geometry": {"type": "Polygon", "coordinates": [[[-96.0455354, 36.0596718], [-96.0458083, 36.0596606], [-96.0458015, 36.0595525], [-96.0455982, 36.0595608], [-96.0455942, 36.0594981], [-96.0455247, 36.059501], [-96.0455354, 36.0596718]]]}, "properties": {"osm_id": 1235077351, "building": "yes", "name": "", "height": null, "height_m": null, "levels": null, "tract_id": "40037020101", "tract_name": "201.01", "tags": {"building": "yes", "source": "microsoft/BuildingFootprints"}}}, {"type": "Feature", "geometry": {"type": "Polygon", "coordinates": [[[-96.0462928, 36.0595214], [-96.0462946, 36.0596667], [-96.0464743, 36.0596652], [-96.0464742, 36.0596544], [-96.0466109, 36.0596532], [-96.0466105, 36.0596164], [-96.046648, 36.0596161], [-96.0466468, 36.0595163], [-96.0465583, 36.0595171], [-96.0465585, 36.0595323], [-96.04636, 36.0595339], [-96.0463598, 36.0595209], [-96.0462928, 36.0595214]]]}, "properties": {"osm_id": 1235077352, "building": "yes", "name": "", "height": null, "height_m": null, "levels": null, "tract_id": "40037020101", "tract_name": "201.01", "tags": {"building": "yes", "source": "microsoft/BuildingFootprints"}}}, {"type": "Feature", "geometry": {"type": "Polygon", "coordinates": [[[-96.0471184, 36.0594655], [-96.0470191, 36.0594664], [-96.0470196, 36.0595], [-96.0469338, 36.0595008], [-96.0469344, 36.0595463], [-96.0468191, 36.0595473], [-96.0468205, 36.0596471], [-96.0470442, 36.059645], [-96.0470439, 36.0596212], [-96.0471205, 36.0596205], [-96.0471184, 36.0594655]]]}, "properties": {"osm_id": 1235077353, "building": "yes", "name": "", "height": null, "height_m": null, "levels": null, "tract_id": "40037020101", "tract_name": "201.01", "tags": {"building": "yes", "source": "microsoft/BuildingFootprints"}}}, {"type": "Feature", "geometry": {"type": "Polygon", "coordinates": [[[-96.0471284, 36.0602969], [-96.0470281, 36.0602978], [-96.0470291, 36.0603694], [-96.0468532, 36.060371], [-96.0468556, 36.0605379], [-96.0470475, 36.0605362], [-96.0470478, 36.0605633], [-96.0471322, 36.0605626], [-96.0471284, 36.0602969]]]}, "properties": {"osm_id": 1235077354, "building": "yes", "name": "", "height": null, "height_m": null, "levels": null, "tract_id": "40037020101", "tract_name": "201.01", "tags": {"building": "yes", "source": "microsoft/BuildingFootprints"}}}, {"type": "Feature", "geometry": {"type": "Polygon", "coordinates": [[[-96.0466861, 36.0603228], [-96.0463547, 36.0603066], [-96.0463479, 36.0603973], [-96.0465018, 36.0604048], [-96.046494, 36.0605085], [-96.0466929, 36.0605183], [-96.0467012, 36.0604081], [-96.0466798, 36.060407], [-96.0466861, 36.0603228]]]}, "properties": {"osm_id": 1235077355, "building": "yes", "name": "", "height": null, "height_m": null, "levels": null, "tract_id": "40037020101", "tract_name": "201.01", "tags": {"building": "yes", "source": "microsoft/BuildingFootprints"}}}, {"type": "Feature", "geometry": {"type": "Polygon", "coordinates": [[[-96.0461536, 36.0603056], [-96.0460696, 36.0603017], [-96.0460658, 36.0603548], [-96.0459589, 36.0603498], [-96.0459541, 36.0604168], [-96.0459006, 36.0604143], [-96.0458938, 36.0605104], [-96.0459698, 36.0605139], [-96.0459721, 36.0604815], [-96.0460111, 36.0604833], [-96.0460089, 36.0605136], [-96.0460903, 36.0605173], [-96.0460926, 36.0604849], [-96.0461407, 36.0604872], [-96.0461536, 36.0603056]]]}, "properties": {"osm_id": 1235077356, "building": "yes", "name": "", "height": null, "height_m": null, "levels": null, "tract_id": "40037020101", "tract_name": "201.01", "tags": {"building": "yes", "source": "microsoft/BuildingFootprints"}}}, {"type": "Feature", "geometry": {"type": "Polygon", "coordinates": [[[-96.0456971, 36.0603169], [-96.0455899, 36.0603161], [-96.0455894, 36.0603542], [-96.045399, 36.0603528], [-96.045398, 36.0604448], [-96.0454505, 36.0604452], [-96.04545, 36.0604833], [-96.0455278, 36.0604839], [-96.0455275, 36.0605152], [-96.0456106, 36.0605158], [-96.0456109, 36.0604919], [-96.0456952, 36.0604926], [-96.0456971, 36.0603169]]]}, "properties": {"osm_id": 1235077357, "building": "yes", "name": "", "height": null, "height_m": null, "levels": null, "tract_id": "40037020101", "tract_name": "201.01", "tags": {"building": "yes", "source": "microsoft/BuildingFootprints"}}}, {"type": "Feature", "geometry": {"type": "Polygon", "coordinates": [[[-96.0448845, 36.0604388], [-96.0449186, 36.0605651], [-96.0450979, 36.0605334], [-96.0451046, 36.0605583], [-96.0452761, 36.060528], [-96.0452353, 36.0603769], [-96.0448845, 36.0604388]]]}, "properties": {"osm_id": 1235077358, "building": "yes", "name": "", "height": null, "height_m": null, "levels": null, "tract_id": "40037020101", "tract_name": "201.01", "tags": {"building": "yes", "source": "microsoft/BuildingFootprints"}}}, {"type": "Feature", "geometry": {"type": "Polygon", "coordinates": [[[-96.0446562, 36.0605714], [-96.0446529, 36.0604696], [-96.0445147, 36.0604726], [-96.0445151, 36.0604856], [-96.044404, 36.060488], [-96.044407, 36.0605768], [-96.0446562, 36.0605714]]]}, "properties": {"osm_id": 1235077359, "building": "yes", "name": "", "height": null, "height_m": null, "levels": null, "tract_id": "40037020101", "tract_name": "201.01", "tags": {"building": "yes", "source": "microsoft/BuildingFootprints"}}}, {"type": "Feature", "geometry": {"type": "Polygon", "coordinates": [[[-96.0440128, 36.0606352], [-96.0439977, 36.0607334], [-96.0441958, 36.0607533], [-96.0442109, 36.0606551], [-96.0440128, 36.0606352]]]}, "properties": {"osm_id": 1235077360, "building": "yes", "name": "", "height": null, "height_m": null, "levels": null, "tract_id": "40037020101", "tract_name": "201.01", "tags": {"building": "yes", "source": "microsoft/BuildingFootprints"}}}, {"type": "Feature", "geometry": {"type": "Polygon", "coordinates": [[[-96.0439529, 36.0605084], [-96.0437537, 36.0604924], [-96.0437407, 36.0605976], [-96.0437805, 36.0606008], [-96.0437759, 36.0606386], [-96.0439219, 36.0606504], [-96.0439255, 36.0606212], [-96.0440105, 36.060628], [-96.0440154, 36.0605885], [-96.0440393, 36.0605904], [-96.0440522, 36.0604861], [-96.0439566, 36.0604784], [-96.0439529, 36.0605084]]]}, "properties": {"osm_id": 1235077361, "building": "yes", "name": "", "height": null, "height_m": null, "levels": null, "tract_id": "40037020101", "tract_name": "201.01", "tags": {"building": "yes", "source": "microsoft/BuildingFootprints"}}}, {"type": "Feature", "geometry": {"type": "Polygon", "coordinates": [[[-96.0434133, 36.0605441], [-96.0435192, 36.0605539], [-96.0435345, 36.0604455], [-96.0434286, 36.0604357], [-96.0434133, 36.0605441]]]}, "properties": {"osm_id": 1235077362, "building": "yes", "name": "", "height": null, "height_m": null, "levels": null, "tract_id": "40037020101", "tract_name": "201.01", "tags": {"building": "yes", "source": "microsoft/BuildingFootprints"}}}, {"type": "Feature", "geometry": {"type": "Polygon", "coordinates": [[[-96.0430481, 36.0603879], [-96.043033, 36.0605417], [-96.043081, 36.0605448], [-96.0430829, 36.0605254], [-96.0432908, 36.0605387], [-96.0433064, 36.0603792], [-96.0432143, 36.0603733], [-96.0432118, 36.0603984], [-96.0430481, 36.0603879]]]}, "properties": {"osm_id": 1235077363, "building": "yes", "name": "", "height": null, "height_m": null, "levels": null, "tract_id": "40037020101", "tract_name": "201.01", "tags": {"building": "yes", "source": "microsoft/BuildingFootprints"}}}, {"type": "Feature", "geometry": {"type": "Polygon", "coordinates": [[[-96.0429113, 36.0606049], [-96.042882, 36.0604569], [-96.04278, 36.0604701], [-96.0427746, 36.0604426], [-96.042683, 36.0604544], [-96.0426881, 36.0604798], [-96.0426331, 36.0604869], [-96.0426198, 36.0604192], [-96.0425204, 36.060432], [-96.0425346, 36.0605039], [-96.0424221, 36.0605184], [-96.0424313, 36.060565], [-96.0424104, 36.0605677], [-96.0424233, 36.0606332], [-96.0425698, 36.0606143], [-96.0425736, 36.0606333], [-96.0426599, 36.0606222], [-96.0426519, 36.060582], [-96.0427827, 36.0605651], [-96.0427936, 36.0606201], [-96.0429113, 36.0606049]]]}, "properties": {"osm_id": 1235077364, "building": "yes", "name": "", "height": null, "height_m": null, "levels": null, "tract_id": "40037020101", "tract_name": "201.01", "tags": {"building": "yes", "source": "microsoft/BuildingFootprints"}}}, {"type": "Feature", "geometry": {"type": "Polygon", "coordinates": [[[-96.0525656, 36.0579639], [-96.0530045, 36.057967], [-96.0530061, 36.0578218], [-96.0530329, 36.057822], [-96.0530338, 36.0577374], [-96.053008, 36.0577372], [-96.0530094, 36.0576079], [-96.0529289, 36.0576074], [-96.0529284, 36.0576543], [-96.0528748, 36.0576539], [-96.0528729, 36.057823], [-96.0529212, 36.0578233], [-96.0529205, 36.057887], [-96.0528417, 36.0578865], [-96.0528423, 36.0578314], [-96.0527494, 36.0578308], [-96.0527489, 36.0578807], [-96.0526738, 36.0578801], [-96.0526754, 36.0577348], [-96.0527129, 36.0577351], [-96.0527137, 36.0576636], [-96.0526708, 36.0576633], [-96.0526711, 36.0576394], [-96.0525691, 36.0576387], [-96.0525656, 36.0579639]]]}, "properties": {"osm_id": 1235077377, "building": "yes", "name": "", "height": null, "height_m": null, "levels": null, "tract_id": "40037020101", "tract_name": "201.01", "tags": {"building": "yes", "source": "microsoft/BuildingFootprints"}}}, {"type": "Feature", "geometry": {"type": "Polygon", "coordinates": [[[-96.0525016, 36.0581209], [-96.0524019, 36.0579984], [-96.0522128, 36.058099], [-96.052203, 36.0580868], [-96.0521412, 36.0581197], [-96.0522237, 36.0582211], [-96.0522949, 36.0581832], [-96.052354, 36.0582559], [-96.0524251, 36.058218], [-96.0523931, 36.0581787], [-96.0525016, 36.0581209]]]}, "properties": {"osm_id": 1235077378, "building": "yes", "name": "", "height": null, "height_m": null, "levels": null, "tract_id": "40037020101", "tract_name": "201.01", "tags": {"building": "yes", "source": "microsoft/BuildingFootprints"}}}, {"type": "Feature", "geometry": {"type": "Polygon", "coordinates": [[[-96.0520333, 36.0582381], [-96.0519669, 36.0582733], [-96.0520074, 36.0583234], [-96.0518409, 36.0584114], [-96.0519171, 36.0585056], [-96.0519897, 36.0584672], [-96.0519725, 36.0584459], [-96.0520126, 36.0584247], [-96.0520421, 36.0584612], [-96.0521623, 36.0583976], [-96.0520333, 36.0582381]]]}, "properties": {"osm_id": 1235077379, "building": "yes", "name": "", "height": null, "height_m": null, "levels": null, "tract_id": "40037020101", "tract_name": "201.01", "tags": {"building": "yes", "source": "microsoft/BuildingFootprints"}}}, {"type": "Feature", "geometry": {"type": "Polygon", "coordinates": [[[-96.0517054, 36.0584935], [-96.0515941, 36.0585485], [-96.0516072, 36.0585659], [-96.0515077, 36.0586151], [-96.0514826, 36.0585819], [-96.0514104, 36.0586176], [-96.0515023, 36.0587392], [-96.0517854, 36.0585992], [-96.0517054, 36.0584935]]]}, "properties": {"osm_id": 1235077380, "building": "yes", "name": "", "height": null, "height_m": null, "levels": null, "tract_id": "40037020101", "tract_name": "201.01", "tags": {"building": "yes", "source": "microsoft/BuildingFootprints"}}}, {"type": "Feature", "geometry": {"type": "Polygon", "coordinates": [[[-96.0510592, 36.0588358], [-96.0510518, 36.0588265], [-96.0509578, 36.0588751], [-96.0510357, 36.0589736], [-96.0511488, 36.0589152], [-96.0511731, 36.058946], [-96.0513102, 36.0588751], [-96.0512944, 36.0588551], [-96.0513649, 36.0588187], [-96.0513223, 36.0587648], [-96.051307, 36.0587727], [-96.0512705, 36.0587265], [-96.0510592, 36.0588358]]]}, "properties": {"osm_id": 1235077381, "building": "yes", "name": "", "height": null, "height_m": null, "levels": null, "tract_id": "40037020101", "tract_name": "201.01", "tags": {"building": "yes", "source": "microsoft/BuildingFootprints"}}}, {"type": "Feature", "geometry": {"type": "Polygon", "coordinates": [[[-96.0499098, 36.0589668], [-96.0499071, 36.0590698], [-96.0499688, 36.0590709], [-96.0499676, 36.0591174], [-96.0501703, 36.0591208], [-96.0501707, 36.0591056], [-96.0502538, 36.059107], [-96.050256, 36.0590203], [-96.0502169, 36.0590197], [-96.0502176, 36.0589915], [-96.050105, 36.0589896], [-96.0501055, 36.0589701], [-96.0499098, 36.0589668]]]}, "properties": {"osm_id": 1235077382, "building": "yes", "name": "", "height": null, "height_m": null, "levels": null, "tract_id": "40037020101", "tract_name": "201.01", "tags": {"building": "yes", "source": "microsoft/BuildingFootprints"}}}, {"type": "Feature", "geometry": {"type": "Polygon", "coordinates": [[[-96.0504567, 36.0588814], [-96.0504709, 36.0591008], [-96.0505779, 36.0590962], [-96.0505732, 36.0590249], [-96.0507006, 36.0590195], [-96.0506927, 36.0588975], [-96.0505724, 36.0589026], [-96.0505707, 36.0588766], [-96.0504567, 36.0588814]]]}, "properties": {"osm_id": 1235077383, "building": "yes", "name": "", "height": null, "height_m": null, "levels": null, "tract_id": "40037020101", "tract_name": "201.01", "tags": {"building": "yes", "source": "microsoft/BuildingFootprints"}}}, {"type": "Feature", "geometry": {"type": "Polygon", "coordinates": [[[-96.0495311, 36.0589486], [-96.0494184, 36.058948], [-96.0494175, 36.0590564], [-96.0495784, 36.0590573], [-96.049578, 36.0591017], [-96.0496772, 36.0591022], [-96.0496781, 36.0589994], [-96.0496282, 36.0589991], [-96.04963, 36.0587974], [-96.0495324, 36.0587968], [-96.0495311, 36.0589486]]]}, "properties": {"osm_id": 1235077384, "building": "yes", "name": "", "height": null, "height_m": null, "levels": null, "tract_id": "40037020101", "tract_name": "201.01", "tags": {"building": "yes", "source": "microsoft/BuildingFootprints"}}}, {"type": "Feature", "geometry": {"type": "Polygon", "coordinates": [[[-96.0488904, 36.0590317], [-96.049046, 36.0590324], [-96.0490458, 36.0590606], [-96.0492013, 36.0590614], [-96.0492016, 36.0590202], [-96.0492526, 36.0590204], [-96.0492535, 36.0589033], [-96.0490228, 36.0589022], [-96.0490225, 36.0589369], [-96.0488911, 36.0589363], [-96.0488904, 36.0590317]]]}, "properties": {"osm_id": 1235077385, "building": "yes", "name": "", "height": null, "height_m": null, "levels": null, "tract_id": "40037020101", "tract_name": "201.01", "tags": {"building": "yes", "source": "microsoft/BuildingFootprints"}}}, {"type": "Feature", "geometry": {"type": "Polygon", "coordinates": [[[-96.0483945, 36.0590215], [-96.048304, 36.0589622], [-96.048286, 36.0589634], [-96.0482045, 36.0589099], [-96.0481133, 36.0590007], [-96.0480347, 36.0590059], [-96.0480165, 36.059024], [-96.0480509, 36.0590465], [-96.0480571, 36.0591085], [-96.0482427, 36.0590963], [-96.0482708, 36.0590683], [-96.0483171, 36.0590987], [-96.0483945, 36.0590215]]]}, "properties": {"osm_id": 1235077386, "building": "yes", "name": "", "height": null, "height_m": null, "levels": null, "tract_id": "40037020101", "tract_name": "201.01", "tags": {"building": "yes", "source": "microsoft/BuildingFootprints"}}}, {"type": "Feature", "geometry": {"type": "Polygon", "coordinates": [[[-96.0479698, 36.0583549], [-96.0479641, 36.0584349], [-96.0479079, 36.0584322], [-96.0478994, 36.0585511], [-96.0479181, 36.058552], [-96.0479138, 36.0586125], [-96.0480795, 36.0586203], [-96.0480824, 36.0585792], [-96.0481172, 36.0585808], [-96.0481268, 36.0584469], [-96.0480867, 36.058445], [-96.0480928, 36.0583607], [-96.0479698, 36.0583549]]]}, "properties": {"osm_id": 1235077387, "building": "yes", "name": "", "height": null, "height_m": null, "levels": null, "tract_id": "40037020101", "tract_name": "201.01", "tags": {"building": "yes", "source": "microsoft/BuildingFootprints"}}}, {"type": "Feature", "geometry": {"type": "Polygon", "coordinates": [[[-96.0479998, 36.0579803], [-96.0480937, 36.0579817], [-96.0480912, 36.0580966], [-96.0483003, 36.0580996], [-96.0483029, 36.0579803], [-96.048142, 36.057978], [-96.0481428, 36.0579434], [-96.0480838, 36.0579425], [-96.0480848, 36.0578992], [-96.0480016, 36.057898], [-96.0479998, 36.0579803]]]}, "properties": {"osm_id": 1235077388, "building": "yes", "name": "", "height": null, "height_m": null, "levels": null, "tract_id": "40037020101", "tract_name": "201.01", "tags": {"building": "yes", "source": "microsoft/BuildingFootprints"}}}, {"type": "Feature", "geometry": {"type": "Polygon", "coordinates": [[[-96.0489898, 36.0580869], [-96.0489535, 36.0580389], [-96.0489118, 36.0580224], [-96.0489299, 36.0579927], [-96.0488974, 36.0579799], [-96.0489128, 36.0579545], [-96.048786, 36.0579042], [-96.0487731, 36.0578872], [-96.0487032, 36.0578595], [-96.0486481, 36.0579504], [-96.0486957, 36.0579692], [-96.0486519, 36.0579909], [-96.0487565, 36.0580324], [-96.0487343, 36.0580691], [-96.0487746, 36.0580851], [-96.0488244, 36.0580605], [-96.048802, 36.0580974], [-96.0488344, 36.0581402], [-96.0488707, 36.0581546], [-96.0489376, 36.0581215], [-96.0489451, 36.0581091], [-96.0489898, 36.0580869]]]}, "properties": {"osm_id": 1235077389, "building": "yes", "name": "", "height": null, "height_m": null, "levels": null, "tract_id": "40037020101", "tract_name": "201.01", "tags": {"building": "yes", "source": "microsoft/BuildingFootprints"}}}, {"type": "Feature", "geometry": {"type": "Polygon", "coordinates": [[[-96.049276, 36.0581843], [-96.0494144, 36.058411], [-96.0495481, 36.0583576], [-96.049497, 36.0582739], [-96.049535, 36.0582587], [-96.0495047, 36.0582091], [-96.0494473, 36.058232], [-96.0493903, 36.0581387], [-96.049276, 36.0581843]]]}, "properties": {"osm_id": 1235077390, "building": "yes", "name": "", "height": null, "height_m": null, "levels": null, "tract_id": "40037020101", "tract_name": "201.01", "tags": {"building": "yes", "source": "microsoft/BuildingFootprints"}}}, {"type": "Feature", "geometry": {"type": "Polygon", "coordinates": [[[-96.0469662, 36.0582618], [-96.0471046, 36.058264], [-96.0471094, 36.0580743], [-96.0469709, 36.0580721], [-96.0469662, 36.0582618]]]}, "properties": {"osm_id": 1235077391, "building": "yes", "name": "", "height": null, "height_m": null, "levels": null, "tract_id": "40037020101", "tract_name": "201.01", "tags": {"building": "yes", "source": "microsoft/BuildingFootprints"}}}, {"type": "Feature", "geometry": {"type": "Polygon", "coordinates": [[[-96.0526136, 36.0573124], [-96.0526024, 36.0572544], [-96.05255, 36.057261], [-96.0525378, 36.0571975], [-96.0523728, 36.0572183], [-96.0523859, 36.0572861], [-96.0522811, 36.0572993], [-96.0522958, 36.0573755], [-96.0524267, 36.057359], [-96.0524224, 36.0573365], [-96.0526136, 36.0573124]]]}, "properties": {"osm_id": 1235077392, "building": "yes", "name": "", "height": null, "height_m": null, "levels": null, "tract_id": "40037020101", "tract_name": "201.01", "tags": {"building": "yes", "source": "microsoft/BuildingFootprints"}}}, {"type": "Feature", "geometry": {"type": "Polygon", "coordinates": [[[-96.0519625, 36.0571851], [-96.051736, 36.0572192], [-96.0517549, 36.0573009], [-96.051704, 36.0573086], [-96.0517103, 36.0573358], [-96.0517378, 36.0573317], [-96.0517576, 36.0574176], [-96.051839, 36.0574054], [-96.0518327, 36.0573781], [-96.0519753, 36.0573566], [-96.0519593, 36.0572875], [-96.0519852, 36.0572836], [-96.0519625, 36.0571851]]]}, "properties": {"osm_id": 1235077393, "building": "yes", "name": "", "height": null, "height_m": null, "levels": null, "tract_id": "40037020101", "tract_name": "201.01", "tags": {"building": "yes", "source": "microsoft/BuildingFootprints"}}}, {"type": "Feature", "geometry": {"type": "Polygon", "coordinates": [[[-96.0514033, 36.0574993], [-96.0514027, 36.0575232], [-96.0515002, 36.0575248], [-96.0515026, 36.0574316], [-96.051448, 36.0574307], [-96.051449, 36.0573917], [-96.0512533, 36.0573884], [-96.0512546, 36.0573385], [-96.0511527, 36.0573368], [-96.0511478, 36.0575232], [-96.0512176, 36.0575244], [-96.0512183, 36.0574962], [-96.0514033, 36.0574993]]]}, "properties": {"osm_id": 1235077394, "building": "yes", "name": "", "height": null, "height_m": null, "levels": null, "tract_id": "40037020101", "tract_name": "201.01", "tags": {"building": "yes", "source": "microsoft/BuildingFootprints"}}}, {"type": "Feature", "geometry": {"type": "Polygon", "coordinates": [[[-96.0509412, 36.0574842], [-96.0508629, 36.0574737], [-96.0508703, 36.0574378], [-96.0507346, 36.0574195], [-96.0507324, 36.0574301], [-96.050615, 36.0574142], [-96.0505885, 36.0575429], [-96.0508234, 36.0575746], [-96.0508264, 36.0575598], [-96.050923, 36.0575728], [-96.0509412, 36.0574842]]]}, "properties": {"osm_id": 1235077395, "building": "yes", "name": "", "height": null, "height_m": null, "levels": null, "tract_id": "40037020101", "tract_name": "201.01", "tags": {"building": "yes", "source": "microsoft/BuildingFootprints"}}}, {"type": "Feature", "geometry": {"type": "Polygon", "coordinates": [[[-96.0501889, 36.0573687], [-96.0504375, 36.0574197], [-96.0504794, 36.0572861], [-96.0504148, 36.0572729], [-96.0504292, 36.0572272], [-96.0502452, 36.0571894], [-96.0501889, 36.0573687]]]}, "properties": {"osm_id": 1235077396, "building": "yes", "name": "", "height": null, "height_m": null, "levels": null, "tract_id": "40037020101", "tract_name": "201.01", "tags": {"building": "yes", "source": "microsoft/BuildingFootprints"}}}, {"type": "Feature", "geometry": {"type": "Polygon", "coordinates": [[[-96.0499117, 36.0570735], [-96.0498146, 36.0570481], [-96.0497432, 36.0572268], [-96.0499836, 36.0572896], [-96.0500409, 36.0571462], [-96.0498976, 36.0571088], [-96.0499117, 36.0570735]]]}, "properties": {"osm_id": 1235077397, "building": "yes", "name": "", "height": null, "height_m": null, "levels": null, "tract_id": "40037020101", "tract_name": "201.01", "tags": {"building": "yes", "source": "microsoft/BuildingFootprints"}}}, {"type": "Feature", "geometry": {"type": "Polygon", "coordinates": [[[-96.0492581, 36.0570075], [-96.0496084, 36.0570459], [-96.0496188, 36.0569842], [-96.0495819, 36.0569802], [-96.0496001, 36.0568716], [-96.0493947, 36.056849], [-96.0493993, 36.0568213], [-96.049344, 36.0568153], [-96.0493469, 36.0567982], [-96.0492863, 36.0567916], [-96.0492743, 36.056863], [-96.0493639, 36.0568728], [-96.0493523, 36.0569419], [-96.0492706, 36.056933], [-96.0492581, 36.0570075]]]}, "properties": {"osm_id": 1235077398, "building": "yes", "name": "", "height": null, "height_m": null, "levels": null, "tract_id": "40037020101", "tract_name": "201.01", "tags": {"building": "yes", "source": "microsoft/BuildingFootprints"}}}, {"type": "Feature", "geometry": {"type": "Polygon", "coordinates": [[[-96.0488055, 36.0567025], [-96.0488035, 36.0568781], [-96.0488695, 36.0568786], [-96.0488691, 36.0569089], [-96.0491384, 36.0569109], [-96.04914, 36.0567678], [-96.0490853, 36.0567674], [-96.0490857, 36.0567327], [-96.0489784, 36.0567319], [-96.0489781, 36.0567568], [-96.0489004, 36.0567562], [-96.0489009, 36.0567032], [-96.0488055, 36.0567025]]]}, "properties": {"osm_id": 1235077399, "building": "yes", "name": "", "height": null, "height_m": null, "levels": null, "tract_id": "40037020101", "tract_name": "201.01", "tags": {"building": "yes", "source": "microsoft/BuildingFootprints"}}}, {"type": "Feature", "geometry": {"type": "Polygon", "coordinates": [[[-96.048568, 36.0571226], [-96.0485828, 36.0568608], [-96.0484945, 36.0568575], [-96.0484896, 36.0569441], [-96.0484173, 36.0569414], [-96.0484181, 36.0569284], [-96.0482896, 36.0569237], [-96.0482802, 36.0570903], [-96.0483916, 36.0570944], [-96.0483903, 36.0571161], [-96.048568, 36.0571226]]]}, "properties": {"osm_id": 1235077400, "building": "yes", "name": "", "height": null, "height_m": null, "levels": null, "tract_id": "40037020101", "tract_name": "201.01", "tags": {"building": "yes", "source": "microsoft/BuildingFootprints"}}}, {"type": "Feature", "geometry": {"type": "Polygon", "coordinates": [[[-96.048149, 36.0561689], [-96.0481454, 36.0560096], [-96.0480665, 36.0560108], [-96.0480681, 36.0560801], [-96.0479314, 36.0560822], [-96.0479297, 36.0560106], [-96.0478439, 36.0560119], [-96.0478476, 36.0561734], [-96.048149, 36.0561689]]]}, "properties": {"osm_id": 1235077401, "building": "yes", "name": "", "height": null, "height_m": null, "levels": null, "tract_id": "40037020101", "tract_name": "201.01", "tags": {"building": "yes", "source": "microsoft/BuildingFootprints"}}}, {"type": "Feature", "geometry": {"type": "Polygon", "coordinates": [[[-96.0486488, 36.0560243], [-96.0485925, 36.0560238], [-96.0485927, 36.0560108], [-96.0484494, 36.0560093], [-96.048449, 36.0560365], [-96.0483777, 36.0560357], [-96.0483783, 36.0560021], [-96.0483997, 36.0560023], [-96.048401, 36.0559156], [-96.0483731, 36.0559153], [-96.0483736, 36.0558828], [-96.0482234, 36.0558813], [-96.0482214, 36.0560157], [-96.048311, 36.0560166], [-96.0483091, 36.056138], [-96.0485118, 36.0561401], [-96.0485114, 36.0561639], [-96.0486466, 36.0561653], [-96.0486488, 36.0560243]]]}, "properties": {"osm_id": 1235077402, "building": "yes", "name": "", "height": null, "height_m": null, "levels": null, "tract_id": "40037020101", "tract_name": "201.01", "tags": {"building": "yes", "source": "microsoft/BuildingFootprints"}}}, {"type": "Feature", "geometry": {"type": "Polygon", "coordinates": [[[-96.049448, 36.0561876], [-96.0495944, 36.0561885], [-96.0495947, 36.0561593], [-96.0496564, 36.0561597], [-96.0496576, 36.0560197], [-96.0493411, 36.0560179], [-96.0493403, 36.0561133], [-96.0494487, 36.0561139], [-96.049448, 36.0561876]]]}, "properties": {"osm_id": 1235077403, "building": "yes", "name": "", "height": null, "height_m": null, "levels": null, "tract_id": "40037020101", "tract_name": "201.01", "tags": {"building": "yes", "source": "microsoft/BuildingFootprints"}}}, {"type": "Feature", "geometry": {"type": "Polygon", "coordinates": [[[-96.0487927, 36.0560172], [-96.0487914, 36.0561527], [-96.0488489, 36.0561531], [-96.0488484, 36.0561986], [-96.0490254, 36.0561997], [-96.0490255, 36.0561899], [-96.0491516, 36.0561907], [-96.049153, 36.0560454], [-96.0491127, 36.0560451], [-96.049113, 36.0560191], [-96.0487927, 36.0560172]]]}, "properties": {"osm_id": 1235077404, "building": "yes", "name": "", "height": null, "height_m": null, "levels": null, "tract_id": "40037020101", "tract_name": "201.01", "tags": {"building": "yes", "source": "microsoft/BuildingFootprints"}}}, {"type": "Feature", "geometry": {"type": "Polygon", "coordinates": [[[-96.0507349, 36.0563958], [-96.0506991, 36.0564637], [-96.050656, 36.0564489], [-96.0506076, 36.0565406], [-96.0506961, 36.0565711], [-96.0507068, 36.0565509], [-96.0508657, 36.0566057], [-96.0509392, 36.0564663], [-96.0507349, 36.0563958]]]}, "properties": {"osm_id": 1235077405, "building": "yes", "name": "", "height": null, "height_m": null, "levels": null, "tract_id": "40037020101", "tract_name": "201.01", "tags": {"building": "yes", "source": "microsoft/BuildingFootprints"}}}, {"type": "Feature", "geometry": {"type": "Polygon", "coordinates": [[[-96.0507736, 36.0563409], [-96.050886, 36.0563455], [-96.0508921, 36.0562481], [-96.0507797, 36.0562436], [-96.0507736, 36.0563409]]]}, "properties": {"osm_id": 1235077406, "building": "yes", "name": "", "height": null, "height_m": null, "levels": null, "tract_id": "40037020101", "tract_name": "201.01", "tags": {"building": "yes", "source": "microsoft/BuildingFootprints"}}}, {"type": "Feature", "geometry": {"type": "Polygon", "coordinates": [[[-96.0514406, 36.0565904], [-96.0512977, 36.0565769], [-96.0513038, 36.056535], [-96.0511265, 36.0565182], [-96.0511078, 36.0566478], [-96.0511554, 36.0566523], [-96.05115, 36.0566896], [-96.0513485, 36.0567083], [-96.0513562, 36.0566549], [-96.0514303, 36.0566619], [-96.0514406, 36.0565904]]]}, "properties": {"osm_id": 1235077407, "building": "yes", "name": "", "height": null, "height_m": null, "levels": null, "tract_id": "40037020101", "tract_name": "201.01", "tags": {"building": "yes", "source": "microsoft/BuildingFootprints"}}}, {"type": "Feature", "geometry": {"type": "Polygon", "coordinates": [[[-96.0515825, 36.056589], [-96.0515905, 36.0567483], [-96.051869, 36.0567391], [-96.0518704, 36.0567659], [-96.0519303, 36.056764], [-96.0519269, 36.056696], [-96.0518225, 36.0566994], [-96.0518185, 36.0566215], [-96.0519551, 36.056617], [-96.0519508, 36.0565326], [-96.0517516, 36.0565391], [-96.0517538, 36.0565833], [-96.0515825, 36.056589]]]}, "properties": {"osm_id": 1235077408, "building": "yes", "name": "", "height": null, "height_m": null, "levels": null, "tract_id": "40037020101", "tract_name": "201.01", "tags": {"building": "yes", "source": "microsoft/BuildingFootprints"}}}, {"type": "Feature", "geometry": {"type": "Polygon", "coordinates": [[[-96.0520571, 36.0564507], [-96.0520694, 36.056631], [-96.0522967, 36.0566209], [-96.0522892, 36.0565106], [-96.0523143, 36.0565095], [-96.0523071, 36.0564027], [-96.0521974, 36.0564076], [-96.0522016, 36.056469], [-96.0521401, 36.0564717], [-96.0521384, 36.0564471], [-96.0520571, 36.0564507]]]}, "properties": {"osm_id": 1235077409, "building": "yes", "name": "", "height": null, "height_m": null, "levels": null, "tract_id": "40037020101", "tract_name": "201.01", "tags": {"building": "yes", "source": "microsoft/BuildingFootprints"}}}, {"type": "Feature", "geometry": {"type": "Polygon", "coordinates": [[[-96.0530249, 36.0563513], [-96.0528262, 36.0563622], [-96.0528327, 36.0564391], [-96.05287, 36.0564371], [-96.0528793, 36.0565471], [-96.0530432, 36.0565382], [-96.0530394, 36.0564928], [-96.0530955, 36.0564898], [-96.0530904, 36.0564293], [-96.0530317, 36.0564325], [-96.0530249, 36.0563513]]]}, "properties": {"osm_id": 1235077410, "building": "yes", "name": "", "height": null, "height_m": null, "levels": null, "tract_id": "40037020101", "tract_name": "201.01", "tags": {"building": "yes", "source": "microsoft/BuildingFootprints"}}}, {"type": "Feature", "geometry": {"type": "Polygon", "coordinates": [[[-96.0533879, 36.0567105], [-96.0535115, 36.0568528], [-96.0536415, 36.0567789], [-96.0535179, 36.0566367], [-96.0533879, 36.0567105]]]}, "properties": {"osm_id": 1235077411, "building": "yes", "name": "", "height": null, "height_m": null, "levels": null, "tract_id": "40037020101", "tract_name": "201.01", "tags": {"building": "yes", "source": "microsoft/BuildingFootprints"}}}, {"type": "Feature", "geometry": {"type": "Polygon", "coordinates": [[[-96.0538208, 36.0581965], [-96.053818, 36.0580795], [-96.0537376, 36.0580807], [-96.053742, 36.058265], [-96.0537581, 36.0582647], [-96.05376, 36.0583449], [-96.053886, 36.058343], [-96.0538842, 36.0582671], [-96.053962, 36.0582659], [-96.0539639, 36.0583483], [-96.0540873, 36.0583463], [-96.0540855, 36.0582726], [-96.0540614, 36.058273], [-96.0540603, 36.0582297], [-96.0539772, 36.058231], [-96.0539763, 36.0581941], [-96.0538208, 36.0581965]]]}, "properties": {"osm_id": 1235077412, "building": "yes", "name": "", "height": null, "height_m": null, "levels": null, "tract_id": "40037020101", "tract_name": "201.01", "tags": {"building": "yes", "source": "microsoft/BuildingFootprints"}}}, {"type": "Feature", "geometry": {"type": "Polygon", "coordinates": [[[-96.0546453, 36.0580774], [-96.0544924, 36.0580784], [-96.0544929, 36.0581283], [-96.0543374, 36.0581293], [-96.0543388, 36.0582702], [-96.0545631, 36.0582688], [-96.0545635, 36.0583143], [-96.0546476, 36.0583138], [-96.0546453, 36.0580774]]]}, "properties": {"osm_id": 1235077413, "building": "yes", "name": "", "height": null, "height_m": null, "levels": null, "tract_id": "40037020101", "tract_name": "201.01", "tags": {"building": "yes", "source": "microsoft/BuildingFootprints"}}}, {"type": "Feature", "geometry": {"type": "Polygon", "coordinates": [[[-96.0551751, 36.0588009], [-96.0550944, 36.0588263], [-96.0551252, 36.0588903], [-96.0549332, 36.0589507], [-96.055003, 36.0590957], [-96.0552719, 36.0590112], [-96.055236, 36.0589366], [-96.0552663, 36.0589271], [-96.0552424, 36.0588774], [-96.0552158, 36.0588857], [-96.0551751, 36.0588009]]]}, "properties": {"osm_id": 1235077414, "building": "yes", "name": "", "height": null, "height_m": null, "levels": null, "tract_id": "40037020101", "tract_name": "201.01", "tags": {"building": "yes", "source": "microsoft/BuildingFootprints"}}}, {"type": "Feature", "geometry": {"type": "Polygon", "coordinates": [[[-96.054356, 36.0590553], [-96.0544649, 36.0590569], [-96.0544659, 36.0590136], [-96.0546037, 36.0590157], [-96.0546068, 36.0588813], [-96.0545467, 36.0588804], [-96.0545483, 36.0588118], [-96.0544582, 36.0588105], [-96.0544572, 36.0588538], [-96.0544133, 36.0588532], [-96.0544112, 36.0589412], [-96.0543586, 36.0589404], [-96.054356, 36.0590553]]]}, "properties": {"osm_id": 1235077415, "building": "yes", "name": "", "height": null, "height_m": null, "levels": null, "tract_id": "40037020101", "tract_name": "201.01", "tags": {"building": "yes", "source": "microsoft/BuildingFootprints"}}}, {"type": "Feature", "geometry": {"type": "Polygon", "coordinates": [[[-96.0538061, 36.0588743], [-96.0538081, 36.0589436], [-96.0539234, 36.0589415], [-96.0539258, 36.0590282], [-96.0537891, 36.0590307], [-96.0537913, 36.0591109], [-96.0539521, 36.0591079], [-96.0539501, 36.0590343], [-96.0540466, 36.0590325], [-96.0540472, 36.0590542], [-96.0541249, 36.0590528], [-96.0541244, 36.0590332], [-96.0542182, 36.0590315], [-96.0542156, 36.0589383], [-96.0541861, 36.0589389], [-96.054185, 36.0588999], [-96.0541448, 36.0589006], [-96.0541439, 36.0588681], [-96.0538061, 36.0588743]]]}, "properties": {"osm_id": 1235077416, "building": "yes", "name": "", "height": null, "height_m": null, "levels": null, "tract_id": "40037020101", "tract_name": "201.01", "tags": {"building": "yes", "source": "microsoft/BuildingFootprints"}}}, {"type": "Feature", "geometry": {"type": "Polygon", "coordinates": [[[-96.0534911, 36.0589772], [-96.0536387, 36.0590337], [-96.0537113, 36.0589097], [-96.0534002, 36.0587906], [-96.0533172, 36.0589323], [-96.0534807, 36.0589949], [-96.0534911, 36.0589772]]]}, "properties": {"osm_id": 1235077417, "building": "yes", "name": "", "height": null, "height_m": null, "levels": null, "tract_id": "40037020101", "tract_name": "201.01", "tags": {"building": "yes", "source": "microsoft/BuildingFootprints"}}}, {"type": "Feature", "geometry": {"type": "Polygon", "coordinates": [[[-96.0528702, 36.0586063], [-96.0528817, 36.0586231], [-96.0528618, 36.0586474], [-96.0528809, 36.0586754], [-96.0528686, 36.0586903], [-96.0528873, 36.0587177], [-96.0529511, 36.0587518], [-96.0530352, 36.0587143], [-96.0529858, 36.0586421], [-96.0529863, 36.0586415], [-96.0530429, 36.0586162], [-96.0530606, 36.0585945], [-96.0531066, 36.0585739], [-96.0531865, 36.0586908], [-96.0532912, 36.058644], [-96.053264, 36.0586041], [-96.0533647, 36.0585592], [-96.053317, 36.0584894], [-96.053218, 36.0585336], [-96.0531674, 36.0585065], [-96.0532038, 36.0584619], [-96.0532597, 36.0584369], [-96.0532142, 36.0583705], [-96.0531718, 36.0583894], [-96.0531244, 36.0584475], [-96.0530979, 36.0584593], [-96.0530805, 36.0584338], [-96.0530188, 36.0584613], [-96.0530363, 36.0584869], [-96.0529285, 36.0585351], [-96.0528702, 36.0586063]]]}, "properties": {"osm_id": 1235077418, "building": "yes", "name": "", "height": null, "height_m": null, "levels": null, "tract_id": "40037020101", "tract_name": "201.01", "tags": {"building": "yes", "source": "microsoft/BuildingFootprints"}}}, {"type": "Feature", "geometry": {"type": "Polygon", "coordinates": [[[-96.0527953, 36.0593927], [-96.0528263, 36.0594691], [-96.053066, 36.0594054], [-96.053035, 36.0593291], [-96.0527953, 36.0593927]]]}, "properties": {"osm_id": 1235077419, "building": "yes", "name": "", "height": null, "height_m": null, "levels": null, "tract_id": "40037020101", "tract_name": "201.01", "tags": {"building": "yes", "source": "microsoft/BuildingFootprints"}}}, {"type": "Feature", "geometry": {"type": "Polygon", "coordinates": [[[-96.0525111, 36.0588305], [-96.052419, 36.0588808], [-96.0524488, 36.0589166], [-96.0523327, 36.0589799], [-96.0524385, 36.0591065], [-96.0526467, 36.0589929], [-96.0525111, 36.0588305]]]}, "properties": {"osm_id": 1235077420, "building": "yes", "name": "", "height": null, "height_m": null, "levels": null, "tract_id": "40037020101", "tract_name": "201.01", "tags": {"building": "yes", "source": "microsoft/BuildingFootprints"}}}, {"type": "Feature", "geometry": {"type": "Polygon", "coordinates": [[[-96.0519912, 36.0593167], [-96.0520554, 36.059279], [-96.0520881, 36.0593153], [-96.0522345, 36.0592293], [-96.0520997, 36.0590795], [-96.0518892, 36.0592032], [-96.0519912, 36.0593167]]]}, "properties": {"osm_id": 1235077421, "building": "yes", "name": "", "height": null, "height_m": null, "levels": null, "tract_id": "40037020101", "tract_name": "201.01", "tags": {"building": "yes", "source": "microsoft/BuildingFootprints"}}}, {"type": "Feature", "geometry": {"type": "Polygon", "coordinates": [[[-96.0517389, 36.0593415], [-96.0514933, 36.059496], [-96.0515601, 36.0595655], [-96.0515234, 36.0595886], [-96.0516776, 36.0597488], [-96.0518146, 36.0596626], [-96.0517535, 36.0595991], [-96.0517829, 36.0595806], [-96.0516815, 36.0594753], [-96.05176, 36.0594259], [-96.0518814, 36.059552], [-96.05197, 36.0594963], [-96.0518369, 36.059358], [-96.0517857, 36.0593902], [-96.0517389, 36.0593415]]]}, "properties": {"osm_id": 1235077422, "building": "yes", "name": "", "height": null, "height_m": null, "levels": null, "tract_id": "40037020101", "tract_name": "201.01", "tags": {"building": "yes", "source": "microsoft/BuildingFootprints"}}}, {"type": "Feature", "geometry": {"type": "Polygon", "coordinates": [[[-96.0510981, 36.0596895], [-96.0511421, 36.0597846], [-96.0512221, 36.0597604], [-96.0512485, 36.0598175], [-96.0513271, 36.0597937], [-96.0513056, 36.0597473], [-96.0513752, 36.0597262], [-96.051373, 36.0597213], [-96.0514845, 36.0596876], [-96.0514498, 36.0596126], [-96.0513934, 36.0596297], [-96.0513661, 36.0595707], [-96.051239, 36.0596091], [-96.0512543, 36.0596422], [-96.0510981, 36.0596895]]]}, "properties": {"osm_id": 1235077423, "building": "yes", "name": "", "height": null, "height_m": null, "levels": null, "tract_id": "40037020101", "tract_name": "201.01", "tags": {"building": "yes", "source": "microsoft/BuildingFootprints"}}}, {"type": "Feature", "geometry": {"type": "Polygon", "coordinates": [[[-96.0523155, 36.0602567], [-96.0521278, 36.0601716], [-96.052114, 36.0601914], [-96.0519948, 36.0601374], [-96.051957, 36.0601918], [-96.0519203, 36.0601752], [-96.0518761, 36.0602388], [-96.0520852, 36.0603336], [-96.0521241, 36.0602775], [-96.0522588, 36.0603386], [-96.0523155, 36.0602567]]]}, "properties": {"osm_id": 1235077424, "building": "yes", "name": "", "height": null, "height_m": null, "levels": null, "tract_id": "40037020101", "tract_name": "201.01", "tags": {"building": "yes", "source": "microsoft/BuildingFootprints"}}}, {"type": "Feature", "geometry": {"type": "Polygon", "coordinates": [[[-96.0523434, 36.0607459], [-96.052273, 36.0606351], [-96.052306, 36.0606214], [-96.0522461, 36.060527], [-96.05216, 36.0605627], [-96.0521916, 36.0606125], [-96.0518987, 36.0607341], [-96.051975, 36.0608542], [-96.0520769, 36.0608119], [-96.0520551, 36.0607776], [-96.0520954, 36.0607608], [-96.0521107, 36.0607848], [-96.0522168, 36.0607408], [-96.0522458, 36.0607865], [-96.0523434, 36.0607459]]]}, "properties": {"osm_id": 1235077425, "building": "yes", "name": "", "height": null, "height_m": null, "levels": null, "tract_id": "40037020101", "tract_name": "201.01", "tags": {"building": "yes", "source": "microsoft/BuildingFootprints"}}}, {"type": "Feature", "geometry": {"type": "Polygon", "coordinates": [[[-96.0512688, 36.060635], [-96.0512691, 36.0605852], [-96.0512101, 36.0605849], [-96.05121, 36.0606022], [-96.0511215, 36.0606018], [-96.0511213, 36.0606278], [-96.051065, 36.0606275], [-96.0510644, 36.0607012], [-96.0511878, 36.0607018], [-96.0511874, 36.0607561], [-96.0512598, 36.0607564], [-96.0512601, 36.0607195], [-96.0513593, 36.06072], [-96.0513588, 36.0607916], [-96.0514553, 36.0607921], [-96.0514559, 36.0607118], [-96.0515042, 36.0607121], [-96.0515046, 36.06066], [-96.0514563, 36.0606598], [-96.0514565, 36.060636], [-96.0512688, 36.060635]]]}, "properties": {"osm_id": 1235077426, "building": "yes", "name": "", "height": null, "height_m": null, "levels": null, "tract_id": "40037020101", "tract_name": "201.01", "tags": {"building": "yes", "source": "microsoft/BuildingFootprints"}}}, {"type": "Feature", "geometry": {"type": "Polygon", "coordinates": [[[-96.0503165, 36.0598248], [-96.05048, 36.0598697], [-96.0505127, 36.0597919], [-96.0505704, 36.0598078], [-96.050608, 36.0597184], [-96.0505214, 36.0596946], [-96.0505178, 36.0597032], [-96.0503326, 36.0596524], [-96.0502839, 36.0597681], [-96.0503344, 36.059782], [-96.0503165, 36.0598248]]]}, "properties": {"osm_id": 1235077663, "building": "yes", "name": "", "height": null, "height_m": null, "levels": null, "tract_id": "40037020101", "tract_name": "201.01", "tags": {"building": "yes", "source": "microsoft/BuildingFootprints"}}}, {"type": "Feature", "geometry": {"type": "Polygon", "coordinates": [[[-96.0504142, 36.060368], [-96.0503411, 36.0601977], [-96.0502908, 36.0602118], [-96.0502546, 36.0601275], [-96.0501277, 36.0601631], [-96.0501589, 36.0602358], [-96.0501493, 36.0602384], [-96.0502, 36.0603565], [-96.0501282, 36.0603766], [-96.0501556, 36.0604405], [-96.0504142, 36.060368]]]}, "properties": {"osm_id": 1235077664, "building": "yes", "name": "", "height": null, "height_m": null, "levels": null, "tract_id": "40037020101", "tract_name": "201.01", "tags": {"building": "yes", "source": "microsoft/BuildingFootprints"}}}, {"type": "Feature", "geometry": {"type": "Polygon", "coordinates": [[[-96.0504856, 36.0606785], [-96.0502598, 36.0605814], [-96.0502075, 36.0606609], [-96.0504334, 36.0607579], [-96.0504856, 36.0606785]]]}, "properties": {"osm_id": 1235077665, "building": "yes", "name": "", "height": null, "height_m": null, "levels": null, "tract_id": "40037020101", "tract_name": "201.01", "tags": {"building": "yes", "source": "microsoft/BuildingFootprints"}}}, {"type": "Feature", "geometry": {"type": "Polygon", "coordinates": [[[-96.0504923, 36.0605304], [-96.0504389, 36.0606311], [-96.0507401, 36.0607356], [-96.0507692, 36.0606807], [-96.0507489, 36.0606736], [-96.0507868, 36.0606022], [-96.0505784, 36.0605299], [-96.0505648, 36.0605555], [-96.0504923, 36.0605304]]]}, "properties": {"osm_id": 1235077666, "building": "yes", "name": "", "height": null, "height_m": null, "levels": null, "tract_id": "40037020101", "tract_name": "201.01", "tags": {"building": "yes", "source": "microsoft/BuildingFootprints"}}}, {"type": "Feature", "geometry": {"type": "Polygon", "coordinates": [[[-96.0493514, 36.0598876], [-96.0495981, 36.0598899], [-96.0496003, 36.0597316], [-96.0495628, 36.0597313], [-96.0495633, 36.0596978], [-96.049397, 36.0596962], [-96.0493954, 36.0598078], [-96.0493525, 36.0598074], [-96.0493514, 36.0598876]]]}, "properties": {"osm_id": 1235077667, "building": "yes", "name": "", "height": null, "height_m": null, "levels": null, "tract_id": "40037020101", "tract_name": "201.01", "tags": {"building": "yes", "source": "microsoft/BuildingFootprints"}}}, {"type": "Feature", "geometry": {"type": "Polygon", "coordinates": [[[-96.0495415, 36.0600938], [-96.049425, 36.0600926], [-96.0494234, 36.0601945], [-96.0493682, 36.0601939], [-96.0493673, 36.0602525], [-96.0493968, 36.0602528], [-96.0493961, 36.0602983], [-96.0493681, 36.060298], [-96.049367, 36.0603674], [-96.0495372, 36.0603691], [-96.0495415, 36.0600938]]]}, "properties": {"osm_id": 1235077668, "building": "yes", "name": "", "height": null, "height_m": null, "levels": null, "tract_id": "40037020101", "tract_name": "201.01", "tags": {"building": "yes", "source": "microsoft/BuildingFootprints"}}}, {"type": "Feature", "geometry": {"type": "Polygon", "coordinates": [[[-96.0493095, 36.0605151], [-96.0490934, 36.060741], [-96.0491857, 36.0607987], [-96.0492636, 36.0607173], [-96.0493072, 36.0607446], [-96.0494455, 36.0606001], [-96.0493095, 36.0605151]]]}, "properties": {"osm_id": 1235077669, "building": "yes", "name": "", "height": null, "height_m": null, "levels": null, "tract_id": "40037020101", "tract_name": "201.01", "tags": {"building": "yes", "source": "microsoft/BuildingFootprints"}}}, {"type": "Feature", "geometry": {"type": "Polygon", "coordinates": [[[-96.0486195, 36.0608056], [-96.0487128, 36.0607135], [-96.0485073, 36.0605774], [-96.0484218, 36.0606618], [-96.0485342, 36.0607362], [-96.0484757, 36.0607939], [-96.0485303, 36.0608301], [-96.0485809, 36.0607801], [-96.0486195, 36.0608056]]]}, "properties": {"osm_id": 1235077670, "building": "yes", "name": "", "height": null, "height_m": null, "levels": null, "tract_id": "40037020101", "tract_name": "201.01", "tags": {"building": "yes", "source": "microsoft/BuildingFootprints"}}}, {"type": "Feature", "geometry": {"type": "Polygon", "coordinates": [[[-96.048288, 36.0602121], [-96.0482959, 36.0603766], [-96.0483924, 36.0603736], [-96.0483891, 36.0603054], [-96.0485149, 36.0603014], [-96.0485082, 36.0601617], [-96.0484707, 36.0601629], [-96.0484679, 36.0601045], [-96.0483527, 36.0601081], [-96.0483576, 36.0602099], [-96.048288, 36.0602121]]]}, "properties": {"osm_id": 1235077671, "building": "yes", "name": "", "height": null, "height_m": null, "levels": null, "tract_id": "40037020101", "tract_name": "201.01", "tags": {"building": "yes", "source": "microsoft/BuildingFootprints"}}}, {"type": "Feature", "geometry": {"type": "Polygon", "coordinates": [[[-96.0483283, 36.05972], [-96.0484297, 36.0598107], [-96.0483544, 36.0598657], [-96.0484505, 36.0599516], [-96.0486719, 36.0597898], [-96.0486012, 36.0597266], [-96.0485613, 36.0597557], [-96.0484346, 36.0596424], [-96.0483283, 36.05972]]]}, "properties": {"osm_id": 1235077672, "building": "yes", "name": "", "height": null, "height_m": null, "levels": null, "tract_id": "40037020101", "tract_name": "201.01", "tags": {"building": "yes", "source": "microsoft/BuildingFootprints"}}}, {"type": "Feature", "geometry": {"type": "Polygon", "coordinates": [[[-96.056527, 36.0580232], [-96.056619, 36.0580215], [-96.0566156, 36.0579045], [-96.0565235, 36.0579062], [-96.056527, 36.0580232]]]}, "properties": {"osm_id": 1235077673, "building": "yes", "name": "", "height": null, "height_m": null, "levels": null, "tract_id": "40037020101", "tract_name": "201.01", "tags": {"building": "yes", "source": "microsoft/BuildingFootprints"}}}, {"type": "Feature", "geometry": {"type": "Polygon", "coordinates": [[[-96.0584254, 36.0579629], [-96.0583802, 36.0580866], [-96.0585332, 36.0581231], [-96.0585594, 36.0580513], [-96.0585841, 36.0580572], [-96.058603, 36.0580053], [-96.0584254, 36.0579629]]]}, "properties": {"osm_id": 1235077674, "building": "yes", "name": "", "height": null, "height_m": null, "levels": null, "tract_id": "40037020101", "tract_name": "201.01", "tags": {"building": "yes", "source": "microsoft/BuildingFootprints"}}}, {"type": "Feature", "geometry": {"type": "Polygon", "coordinates": [[[-96.0584739, 36.0572523], [-96.058457, 36.0573346], [-96.0586058, 36.0573546], [-96.0586141, 36.0573145], [-96.0585785, 36.0573097], [-96.0585872, 36.0572675], [-96.0584739, 36.0572523]]]}, "properties": {"osm_id": 1235077675, "building": "yes", "name": "", "height": null, "height_m": null, "levels": null, "tract_id": "40037020101", "tract_name": "201.01", "tags": {"building": "yes", "source": "microsoft/BuildingFootprints"}}}, {"type": "Feature", "geometry": {"type": "Polygon", "coordinates": [[[-96.0584473, 36.057041], [-96.0584434, 36.0571005], [-96.0585895, 36.0571067], [-96.0585934, 36.0570472], [-96.0584473, 36.057041]]]}, "properties": {"osm_id": 1235077676, "building": "yes", "name": "", "height": null, "height_m": null, "levels": null, "tract_id": "40037020101", "tract_name": "201.01", "tags": {"building": "yes", "source": "microsoft/BuildingFootprints"}}}, {"type": "Feature", "geometry": {"type": "Polygon", "coordinates": [[[-96.0586892, 36.0568672], [-96.0586982, 36.0566897], [-96.0585938, 36.0566862], [-96.0585847, 36.0568637], [-96.0586892, 36.0568672]]]}, "properties": {"osm_id": 1235077677, "building": "yes", "name": "", "height": null, "height_m": null, "levels": null, "tract_id": "40037020101", "tract_name": "201.01", "tags": {"building": "yes", "source": "microsoft/BuildingFootprints"}}}, {"type": "Feature", "geometry": {"type": "Polygon", "coordinates": [[[-96.0571763, 36.0568308], [-96.0572907, 36.0567633], [-96.0571801, 36.0566409], [-96.0572134, 36.0566212], [-96.057161, 36.0565632], [-96.0570833, 36.0566091], [-96.057059, 36.0565822], [-96.0569891, 36.0566235], [-96.0571763, 36.0568308]]]}, "properties": {"osm_id": 1235077678, "building": "yes", "name": "", "height": null, "height_m": null, "levels": null, "tract_id": "40037020101", "tract_name": "201.01", "tags": {"building": "yes", "source": "microsoft/BuildingFootprints"}}}, {"type": "Feature", "geometry": {"type": "Polygon", "coordinates": [[[-96.0561654, 36.0566147], [-96.0561681, 36.0566949], [-96.0563932, 36.0566899], [-96.0563902, 36.0566011], [-96.0562884, 36.0566033], [-96.0562887, 36.056612], [-96.0561654, 36.0566147]]]}, "properties": {"osm_id": 1235077679, "building": "yes", "name": "", "height": null, "height_m": null, "levels": null, "tract_id": "40037020101", "tract_name": "201.01", "tags": {"building": "yes", "source": "microsoft/BuildingFootprints"}}}, {"type": "Feature", "geometry": {"type": "Polygon", "coordinates": [[[-96.0532543, 36.0560238], [-96.0534056, 36.055908], [-96.0532878, 36.0558074], [-96.0531124, 36.0559417], [-96.053158, 36.0559805], [-96.0531226, 36.0560076], [-96.0532391, 36.056107], [-96.0532985, 36.0560616], [-96.0532543, 36.0560238]]]}, "properties": {"osm_id": 1235077680, "building": "yes", "name": "", "height": null, "height_m": null, "levels": null, "tract_id": "40037020101", "tract_name": "201.01", "tags": {"building": "yes", "source": "microsoft/BuildingFootprints"}}}, {"type": "Feature", "geometry": {"type": "Polygon", "coordinates": [[[-96.053364, 36.0555537], [-96.0536227, 36.0555877], [-96.0536537, 36.0554335], [-96.0536275, 36.05543], [-96.053636, 36.0553878], [-96.053474, 36.0553665], [-96.0534647, 36.055413], [-96.0534516, 36.0554113], [-96.0534355, 36.0554916], [-96.053378, 36.055484], [-96.053364, 36.0555537]]]}, "properties": {"osm_id": 1235077681, "building": "yes", "name": "", "height": null, "height_m": null, "levels": null, "tract_id": "40037020101", "tract_name": "201.01", "tags": {"building": "yes", "source": "microsoft/BuildingFootprints"}}}, {"type": "Feature", "geometry": {"type": "Polygon", "coordinates": [[[-96.053475, 36.054979], [-96.053476, 36.05508], [-96.05346, 36.05508], [-96.05346, 36.055148], [-96.053655, 36.055147], [-96.053655, 36.055114], [-96.053703, 36.055113], [-96.053702, 36.055068], [-96.053722, 36.055068], [-96.053722, 36.054977], [-96.053475, 36.054979]]]}, "properties": {"osm_id": 1235077682, "building": "yes", "name": "", "height": null, "height_m": null, "levels": null, "tract_id": "40037020101", "tract_name": "201.01", "tags": {"building": "yes", "source": "microsoft/BuildingFootprints"}}}, {"type": "Feature", "geometry": {"type": "Polygon", "coordinates": [[[-96.053469, 36.0542287], [-96.0535407, 36.0541801], [-96.0534615, 36.0541038], [-96.0534394, 36.0541187], [-96.0534011, 36.0540818], [-96.0532452, 36.0541875], [-96.0534046, 36.0543411], [-96.0535108, 36.054269], [-96.053469, 36.0542287]]]}, "properties": {"osm_id": 1235077683, "building": "yes", "name": "", "height": null, "height_m": null, "levels": null, "tract_id": "40037020101", "tract_name": "201.01", "tags": {"building": "yes", "source": "microsoft/BuildingFootprints"}}}, {"type": "Feature", "geometry": {"type": "Polygon", "coordinates": [[[-96.0530658, 36.0540825], [-96.0529907, 36.0540819], [-96.0529909, 36.0540602], [-96.0528139, 36.0540588], [-96.0528124, 36.0541837], [-96.0528968, 36.0541844], [-96.0528964, 36.0542126], [-96.0530641, 36.054214], [-96.0530658, 36.0540825]]]}, "properties": {"osm_id": 1235077684, "building": "yes", "name": "", "height": null, "height_m": null, "levels": null, "tract_id": "40037020101", "tract_name": "201.01", "tags": {"building": "yes", "source": "microsoft/BuildingFootprints"}}}, {"type": "Feature", "geometry": {"type": "Polygon", "coordinates": [[[-96.0521185, 36.0540352], [-96.0521171, 36.0541545], [-96.0522367, 36.0541554], [-96.0522785, 36.0541242], [-96.0523841, 36.0542166], [-96.0524449, 36.0541712], [-96.0523645, 36.0541008], [-96.052365, 36.0540521], [-96.0523218, 36.0540143], [-96.0522666, 36.0540138], [-96.0522367, 36.0540361], [-96.0521185, 36.0540352]]]}, "properties": {"osm_id": 1235077685, "building": "yes", "name": "", "height": null, "height_m": null, "levels": null, "tract_id": "40037020101", "tract_name": "201.01", "tags": {"building": "yes", "source": "microsoft/BuildingFootprints"}}}, {"type": "Feature", "geometry": {"type": "Polygon", "coordinates": [[[-96.05165, 36.0539455], [-96.0515186, 36.0540473], [-96.0515565, 36.0540793], [-96.0515532, 36.0541497], [-96.0515243, 36.0541721], [-96.0515873, 36.0542252], [-96.0516421, 36.0541827], [-96.0517474, 36.0541859], [-96.0517492, 36.0541458], [-96.0517757, 36.0541681], [-96.0517974, 36.0541687], [-96.0518478, 36.0541296], [-96.0518512, 36.0540553], [-96.051819, 36.0540281], [-96.05182, 36.0540059], [-96.0517708, 36.0540044], [-96.0517452, 36.0539828], [-96.0516924, 36.0539813], [-96.05165, 36.0539455]]]}, "properties": {"osm_id": 1235077686, "building": "yes", "name": "", "height": null, "height_m": null, "levels": null, "tract_id": "40037020101", "tract_name": "201.01", "tags": {"building": "yes", "source": "microsoft/BuildingFootprints"}}}, {"type": "Feature", "geometry": {"type": "Polygon", "coordinates": [[[-96.0511977, 36.0541057], [-96.0511999, 36.0539505], [-96.0511448, 36.0539499], [-96.051133, 36.0539684], [-96.050933, 36.0539666], [-96.0509026, 36.0540141], [-96.0509024, 36.0540323], [-96.0509332, 36.0540326], [-96.0509327, 36.0540656], [-96.0508693, 36.0541648], [-96.0509571, 36.0542015], [-96.0510195, 36.054104], [-96.0511977, 36.0541057]]]}, "properties": {"osm_id": 1235077687, "building": "yes", "name": "", "height": null, "height_m": null, "levels": null, "tract_id": "40037020101", "tract_name": "201.01", "tags": {"building": "yes", "source": "microsoft/BuildingFootprints"}}}, {"type": "Feature", "geometry": {"type": "Polygon", "coordinates": [[[-96.0525735, 36.0547662], [-96.0525726, 36.0548096], [-96.0526597, 36.0548108], [-96.0526631, 36.0546482], [-96.0524929, 36.0546459], [-96.052493, 36.0546415], [-96.0524057, 36.0546403], [-96.0524037, 36.0547371], [-96.0524561, 36.0547378], [-96.0524555, 36.0547646], [-96.0525735, 36.0547662]]]}, "properties": {"osm_id": 1235077688, "building": "yes", "name": "", "height": null, "height_m": null, "levels": null, "tract_id": "40037020101", "tract_name": "201.01", "tags": {"building": "yes", "source": "microsoft/BuildingFootprints"}}}, {"type": "Feature", "geometry": {"type": "Polygon", "coordinates": [[[-96.0526089, 36.0551044], [-96.0526066, 36.0551294], [-96.0525465, 36.0551257], [-96.0525291, 36.0553098], [-96.0527771, 36.055325], [-96.052784, 36.0552517], [-96.0527615, 36.0552503], [-96.0527743, 36.0551145], [-96.0526089, 36.0551044]]]}, "properties": {"osm_id": 1235077689, "building": "yes", "name": "", "height": null, "height_m": null, "levels": null, "tract_id": "40037020101", "tract_name": "201.01", "tags": {"building": "yes", "source": "microsoft/BuildingFootprints"}}}, {"type": "Feature", "geometry": {"type": "Polygon", "coordinates": [[[-96.0522521, 36.0556938], [-96.0524069, 36.0558046], [-96.0524687, 36.0557483], [-96.0524206, 36.0557138], [-96.0525039, 36.0556377], [-96.0523972, 36.0555613], [-96.0522521, 36.0556938]]]}, "properties": {"osm_id": 1235077690, "building": "yes", "name": "", "height": null, "height_m": null, "levels": null, "tract_id": "40037020101", "tract_name": "201.01", "tags": {"building": "yes", "source": "microsoft/BuildingFootprints"}}}, {"type": "Feature", "geometry": {"type": "Polygon", "coordinates": [[[-96.0510727, 36.0550077], [-96.0510733, 36.0550805], [-96.0511162, 36.0550803], [-96.0511169, 36.0551745], [-96.0513031, 36.0551736], [-96.0513024, 36.0550695], [-96.0512836, 36.0550696], [-96.0512833, 36.0550241], [-96.0511733, 36.0550246], [-96.0511732, 36.0550072], [-96.0510727, 36.0550077]]]}, "properties": {"osm_id": 1235077691, "building": "yes", "name": "", "height": null, "height_m": null, "levels": null, "tract_id": "40037020101", "tract_name": "201.01", "tags": {"building": "yes", "source": "microsoft/BuildingFootprints"}}}, {"type": "Feature", "geometry": {"type": "Polygon", "coordinates": [[[-96.0513412, 36.0553508], [-96.0511348, 36.0553559], [-96.051137, 36.055411], [-96.0511783, 36.05541], [-96.0511835, 36.0555443], [-96.0513282, 36.0555406], [-96.0513256, 36.0554735], [-96.0513459, 36.055473], [-96.0513412, 36.0553508]]]}, "properties": {"osm_id": 1235077692, "building": "yes", "name": "", "height": null, "height_m": null, "levels": null, "tract_id": "40037020101", "tract_name": "201.01", "tags": {"building": "yes", "source": "microsoft/BuildingFootprints"}}}, {"type": "Feature", "geometry": {"type": "Polygon", "coordinates": [[[-96.0501592, 36.0554239], [-96.050363, 36.0554236], [-96.0503624, 36.0551754], [-96.0503302, 36.0551755], [-96.0503301, 36.0551321], [-96.0501787, 36.0551324], [-96.0501789, 36.0552343], [-96.050215, 36.0552342], [-96.0502153, 36.0553405], [-96.0501589, 36.0553406], [-96.0501592, 36.0554239]]]}, "properties": {"osm_id": 1235077693, "building": "yes", "name": "", "height": null, "height_m": null, "levels": null, "tract_id": "40037020101", "tract_name": "201.01", "tags": {"building": "yes", "source": "microsoft/BuildingFootprints"}}}, {"type": "Feature", "geometry": {"type": "Polygon", "coordinates": [[[-96.0483676, 36.054609], [-96.0485286, 36.0546098], [-96.0485284, 36.0546294], [-96.0486062, 36.0546297], [-96.048607, 36.05453], [-96.0485721, 36.0545298], [-96.0485734, 36.0543607], [-96.0484232, 36.0543599], [-96.0484227, 36.0544326], [-96.048369, 36.0544323], [-96.0483676, 36.054609]]]}, "properties": {"osm_id": 1235077694, "building": "yes", "name": "", "height": null, "height_m": null, "levels": null, "tract_id": "40037020101", "tract_name": "201.01", "tags": {"building": "yes", "source": "microsoft/BuildingFootprints"}}}, {"type": "Feature", "geometry": {"type": "Polygon", "coordinates": [[[-96.0485844, 36.0538236], [-96.0485804, 36.0539526], [-96.0486929, 36.0539549], [-96.048697, 36.0538259], [-96.0485844, 36.0538236]]]}, "properties": {"osm_id": 1235077695, "building": "yes", "name": "", "height": null, "height_m": null, "levels": null, "tract_id": "40037020101", "tract_name": "201.01", "tags": {"building": "yes", "source": "microsoft/BuildingFootprints"}}}, {"type": "Feature", "geometry": {"type": "Polygon", "coordinates": [[[-96.0481625, 36.0533893], [-96.0481649, 36.0532917], [-96.0478968, 36.0532873], [-96.0478944, 36.0533849], [-96.0481625, 36.0533893]]]}, "properties": {"osm_id": 1235077696, "building": "yes", "name": "", "height": null, "height_m": null, "levels": null, "tract_id": "40037020101", "tract_name": "201.01", "tags": {"building": "yes", "source": "microsoft/BuildingFootprints"}}}, {"type": "Feature", "geometry": {"type": "Polygon", "coordinates": [[[-96.0625485, 36.0615424], [-96.06187, 36.0615438], [-96.0618709, 36.0618248], [-96.0616617, 36.0618252], [-96.0616624, 36.0620473], [-96.0618689, 36.0620469], [-96.0618699, 36.0623309], [-96.062578, 36.0623294], [-96.0625774, 36.0621711], [-96.0626284, 36.062171], [-96.0626282, 36.0621255], [-96.0625505, 36.0621256], [-96.0625485, 36.0615424]]]}, "properties": {"osm_id": 1235077853, "building": "yes", "name": "", "height": null, "height_m": null, "levels": null, "tract_id": "40037020101", "tract_name": "201.01", "tags": {"building": "yes", "source": "microsoft/BuildingFootprints"}}}, {"type": "Feature", "geometry": {"type": "Polygon", "coordinates": [[[-96.063781, 36.0654606], [-96.0640197, 36.0654621], [-96.0640189, 36.0655445], [-96.0642399, 36.0655458], [-96.0642407, 36.0654648], [-96.0643265, 36.0654653], [-96.0643284, 36.0652667], [-96.0645365, 36.0652679], [-96.0645373, 36.065179], [-96.064635, 36.0651796], [-96.0646354, 36.0651312], [-96.0645351, 36.0651306], [-96.0645374, 36.0648798], [-96.064332, 36.0648786], [-96.0643328, 36.0647933], [-96.0639895, 36.0647911], [-96.0639888, 36.06487], [-96.0637865, 36.0648687], [-96.063781, 36.0654606]]]}, "properties": {"osm_id": 1235077854, "building": "yes", "name": "", "height": null, "height_m": null, "levels": null, "tract_id": "40037020101", "tract_name": "201.01", "tags": {"building": "yes", "source": "microsoft/BuildingFootprints"}}}, {"type": "Feature", "geometry": {"type": "Polygon", "coordinates": [[[-96.0657346, 36.0657849], [-96.0661094, 36.0659058], [-96.0661962, 36.06573], [-96.0664738, 36.0658196], [-96.0665107, 36.0657448], [-96.0662493, 36.0656604], [-96.0662715, 36.0656156], [-96.0665297, 36.0656989], [-96.0666202, 36.0655156], [-96.0663805, 36.0654383], [-96.0664313, 36.0653354], [-96.0666534, 36.0654071], [-96.0666248, 36.0654651], [-96.0666988, 36.0654889], [-96.0668309, 36.0652215], [-96.0665949, 36.0651454], [-96.0666291, 36.0650762], [-96.0663954, 36.0650008], [-96.0663732, 36.0650457], [-96.0660355, 36.0649367], [-96.0658037, 36.065406], [-96.0659054, 36.0654389], [-96.0657346, 36.0657849]]]}, "properties": {"osm_id": 1235077855, "building": "yes", "name": "", "height": null, "height_m": null, "levels": null, "tract_id": "40037020101", "tract_name": "201.01", "tags": {"building": "yes", "source": "microsoft/BuildingFootprints"}}}, {"type": "Feature", "geometry": {"type": "Polygon", "coordinates": [[[-96.0659242, 36.0638536], [-96.0660073, 36.0638542], [-96.0660058, 36.0640059], [-96.066518, 36.0640094], [-96.0665237, 36.0634587], [-96.0660115, 36.0634553], [-96.0660098, 36.06362], [-96.0659266, 36.0636195], [-96.0659242, 36.0638536]]]}, "properties": {"osm_id": 1235077856, "building": "yes", "name": "", "height": null, "height_m": null, "levels": null, "tract_id": "40037020101", "tract_name": "201.01", "tags": {"building": "yes", "source": "microsoft/BuildingFootprints"}}}, {"type": "Feature", "geometry": {"type": "Polygon", "coordinates": [[[-96.0667329, 36.0621586], [-96.0660556, 36.0621566], [-96.0660541, 36.0624796], [-96.0658168, 36.0624789], [-96.0658149, 36.0628853], [-96.0660496, 36.062886], [-96.066049, 36.0630304], [-96.0665626, 36.0630319], [-96.0665635, 36.0628225], [-96.0667298, 36.0628229], [-96.0667329, 36.0621586]]]}, "properties": {"osm_id": 1235077857, "building": "yes", "name": "", "height": null, "height_m": null, "levels": null, "tract_id": "40037020101", "tract_name": "201.01", "tags": {"building": "yes", "source": "microsoft/BuildingFootprints"}}}, {"type": "Feature", "geometry": {"type": "Polygon", "coordinates": [[[-96.0672873, 36.06242], [-96.0672006, 36.062743], [-96.0674695, 36.0627902], [-96.0675563, 36.0624672], [-96.0672873, 36.06242]]]}, "properties": {"osm_id": 1235077858, "building": "yes", "name": "", "height": null, "height_m": null, "levels": null, "tract_id": "40037020101", "tract_name": "201.01", "tags": {"building": "yes", "source": "microsoft/BuildingFootprints"}}}, {"type": "Feature", "geometry": {"type": "Polygon", "coordinates": [[[-96.0681176, 36.0627868], [-96.0683112, 36.0628624], [-96.0683757, 36.0627543], [-96.0684399, 36.0627794], [-96.0684767, 36.0627178], [-96.0684234, 36.062697], [-96.0684586, 36.062638], [-96.0682541, 36.0625582], [-96.0681176, 36.0627868]]]}, "properties": {"osm_id": 1235077859, "building": "yes", "name": "", "height": null, "height_m": null, "levels": null, "tract_id": "40037020101", "tract_name": "201.01", "tags": {"building": "yes", "source": "microsoft/BuildingFootprints"}}}, {"type": "Feature", "geometry": {"type": "Polygon", "coordinates": [[[-96.0680717, 36.0629247], [-96.0679664, 36.0628869], [-96.0678113, 36.0631695], [-96.0679166, 36.0632073], [-96.0680717, 36.0629247]]]}, "properties": {"osm_id": 1235077860, "building": "yes", "name": "", "height": null, "height_m": null, "levels": null, "tract_id": "40037020101", "tract_name": "201.01", "tags": {"building": "yes", "source": "microsoft/BuildingFootprints"}}}, {"type": "Feature", "geometry": {"type": "Polygon", "coordinates": [[[-96.0672102, 36.0631071], [-96.0673483, 36.063129], [-96.0674102, 36.0628743], [-96.0673457, 36.0628641], [-96.0673335, 36.0629142], [-96.0672599, 36.0629025], [-96.0672102, 36.0631071]]]}, "properties": {"osm_id": 1235077861, "building": "yes", "name": "", "height": null, "height_m": null, "levels": null, "tract_id": "40037020101", "tract_name": "201.01", "tags": {"building": "yes", "source": "microsoft/BuildingFootprints"}}}, {"type": "Feature", "geometry": {"type": "Polygon", "coordinates": [[[-96.0670316, 36.0633525], [-96.0670346, 36.0632408], [-96.0666096, 36.0632334], [-96.0666065, 36.0633483], [-96.0668626, 36.0633527], [-96.066862, 36.0633765], [-96.0669491, 36.063378], [-96.0669498, 36.0633511], [-96.0670316, 36.0633525]]]}, "properties": {"osm_id": 1235077862, "building": "yes", "name": "", "height": null, "height_m": null, "levels": null, "tract_id": "40037020101", "tract_name": "201.01", "tags": {"building": "yes", "source": "microsoft/BuildingFootprints"}}}, {"type": "Feature", "geometry": {"type": "Polygon", "coordinates": [[[-96.0641914, 36.0664298], [-96.064531, 36.0664263], [-96.0645277, 36.0662174], [-96.0643919, 36.0662188], [-96.064391, 36.0661624], [-96.0642542, 36.0661639], [-96.0642551, 36.0662202], [-96.0641881, 36.0662209], [-96.0641914, 36.0664298]]]}, "properties": {"osm_id": 1235077863, "building": "yes", "name": "", "height": null, "height_m": null, "levels": null, "tract_id": "40037020101", "tract_name": "201.01", "tags": {"building": "yes", "source": "microsoft/BuildingFootprints"}}}, {"type": "Feature", "geometry": {"type": "Polygon", "coordinates": [[[-96.0623731, 36.0675657], [-96.0623662, 36.0672883], [-96.0622268, 36.0672906], [-96.0622337, 36.067568], [-96.0623731, 36.0675657]]]}, "properties": {"osm_id": 1235077864, "building": "yes", "name": "", "height": null, "height_m": null, "levels": null, "tract_id": "40037020101", "tract_name": "201.01", "tags": {"building": "yes", "source": "microsoft/BuildingFootprints"}}}, {"type": "Feature", "geometry": {"type": "Polygon", "coordinates": [[[-96.0574423, 36.0660304], [-96.0574426, 36.0664185], [-96.0577216, 36.0664184], [-96.0577215, 36.0663707], [-96.0580568, 36.0663705], [-96.0580565, 36.0660279], [-96.0579868, 36.066028], [-96.0579867, 36.0659261], [-96.0579143, 36.0659261], [-96.0579143, 36.0660302], [-96.0578285, 36.0660302], [-96.0578285, 36.065963], [-96.0576219, 36.0659631], [-96.057622, 36.0660303], [-96.0574423, 36.0660304]]]}, "properties": {"osm_id": 1235077865, "building": "yes", "name": "", "height": null, "height_m": null, "levels": null, "tract_id": "40037020101", "tract_name": "201.01", "tags": {"building": "yes", "source": "microsoft/BuildingFootprints"}}}, {"type": "Feature", "geometry": {"type": "Polygon", "coordinates": [[[-96.0570641, 36.0664078], [-96.0570684, 36.0658658], [-96.0566902, 36.0658638], [-96.0566859, 36.0664058], [-96.0570641, 36.0664078]]]}, "properties": {"osm_id": 1235077866, "building": "industrial", "name": "", "height": null, "height_m": null, "levels": null, "tract_id": "40037020101", "tract_name": "201.01", "tags": {"building": "industrial", "source": "microsoft/BuildingFootprints"}}}, {"type": "Feature", "geometry": {"type": "Polygon", "coordinates": [[[-96.0569991, 36.0668856], [-96.0571054, 36.0671515], [-96.0574299, 36.0670667], [-96.0573236, 36.0668008], [-96.0569991, 36.0668856]]]}, "properties": {"osm_id": 1235077867, "building": "yes", "name": "", "height": null, "height_m": null, "levels": null, "tract_id": "40037020101", "tract_name": "201.01", "tags": {"building": "yes", "source": "microsoft/BuildingFootprints"}}}, {"type": "Feature", "geometry": {"type": "Polygon", "coordinates": [[[-96.0573129, 36.0666372], [-96.0579244, 36.0666398], [-96.0579255, 36.0664707], [-96.057314, 36.0664681], [-96.0573129, 36.0666372]]]}, "properties": {"osm_id": 1235077868, "building": "yes", "name": "", "height": null, "height_m": null, "levels": null, "tract_id": "40037020101", "tract_name": "201.01", "tags": {"building": "yes", "source": "microsoft/BuildingFootprints"}}}, {"type": "Feature", "geometry": {"type": "Polygon", "coordinates": [[[-96.065644, 36.0664307], [-96.0660007, 36.0664346], [-96.0660032, 36.0662881], [-96.0656465, 36.0662841], [-96.065644, 36.0664307]]]}, "properties": {"osm_id": 1235077869, "building": "yes", "name": "", "height": null, "height_m": null, "levels": null, "tract_id": "40037020101", "tract_name": "201.01", "tags": {"building": "yes", "source": "microsoft/BuildingFootprints"}}}, {"type": "Feature", "geometry": {"type": "Polygon", "coordinates": [[[-96.0592858, 36.0695205], [-96.0606372, 36.0695398], [-96.0606493, 36.0689871], [-96.060164, 36.0689802], [-96.0601691, 36.0687439], [-96.0597884, 36.0687385], [-96.0597832, 36.0689747], [-96.0592979, 36.0689678], [-96.0592858, 36.0695205]]]}, "properties": {"osm_id": 1235077870, "building": "yes", "name": "", "height": null, "height_m": null, "levels": null, "tract_id": "40037020101", "tract_name": "201.01", "tags": {"building": "yes", "source": "microsoft/BuildingFootprints"}}}, {"type": "Feature", "geometry": {"type": "Polygon", "coordinates": [[[-96.0678714, 36.0635982], [-96.0678347, 36.0635846], [-96.0678784, 36.0635075], [-96.0678064, 36.0634809], [-96.067847, 36.0634092], [-96.0677562, 36.0633755], [-96.0676932, 36.0634866], [-96.0677807, 36.063519], [-96.0676466, 36.0637556], [-96.0677586, 36.0637971], [-96.0678714, 36.0635982]]]}, "properties": {"osm_id": 1235077871, "building": "yes", "name": "", "height": null, "height_m": null, "levels": null, "tract_id": "40037020101", "tract_name": "201.01", "tags": {"building": "yes", "source": "microsoft/BuildingFootprints"}}}, {"type": "Feature", "geometry": {"type": "Polygon", "coordinates": [[[-96.0678582, 36.0632544], [-96.0678283, 36.063306], [-96.0682207, 36.0634547], [-96.0682506, 36.0634031], [-96.0678582, 36.0632544]]]}, "properties": {"osm_id": 1235077872, "building": "yes", "name": "", "height": null, "height_m": null, "levels": null, "tract_id": "40037020101", "tract_name": "201.01", "tags": {"building": "yes", "source": "microsoft/BuildingFootprints"}}}, {"type": "Feature", "geometry": {"type": "Polygon", "coordinates": [[[-96.0704899, 36.0590517], [-96.0702625, 36.0589748], [-96.0701317, 36.0592276], [-96.0702915, 36.0592817], [-96.0703879, 36.0590953], [-96.0704555, 36.0591181], [-96.0704899, 36.0590517]]]}, "properties": {"osm_id": 1235077873, "building": "yes", "name": "", "height": null, "height_m": null, "levels": null, "tract_id": "40037020101", "tract_name": "201.01", "tags": {"building": "yes", "source": "microsoft/BuildingFootprints"}}}, {"type": "Feature", "geometry": {"type": "Polygon", "coordinates": [[[-96.071049, 36.0578096], [-96.0709184, 36.0580652], [-96.071081, 36.0581195], [-96.0712117, 36.057864], [-96.071049, 36.0578096]]]}, "properties": {"osm_id": 1235077874, "building": "yes", "name": "", "height": null, "height_m": null, "levels": null, "tract_id": "40037020101", "tract_name": "201.01", "tags": {"building": "yes", "source": "microsoft/BuildingFootprints"}}}, {"type": "Feature", "geometry": {"type": "Polygon", "coordinates": [[[-96.0718309, 36.0569276], [-96.0715937, 36.0568431], [-96.0714888, 36.0570355], [-96.071726, 36.05712], [-96.0718309, 36.0569276]]]}, "properties": {"osm_id": 1235077875, "building": "yes", "name": "", "height": null, "height_m": null, "levels": null, "tract_id": "40037020101", "tract_name": "201.01", "tags": {"building": "yes", "source": "microsoft/BuildingFootprints"}}}, {"type": "Feature", "geometry": {"type": "Polygon", "coordinates": [[[-96.0721163, 36.0554046], [-96.072117, 36.0554891], [-96.0720752, 36.0554893], [-96.0720758, 36.0555727], [-96.072505, 36.0555706], [-96.0725045, 36.0555133], [-96.0724202, 36.0555137], [-96.07242, 36.0554865], [-96.0723193, 36.055487], [-96.072319, 36.0554436], [-96.072217, 36.0554441], [-96.0722168, 36.0554041], [-96.0721163, 36.0554046]]]}, "properties": {"osm_id": 1235077876, "building": "yes", "name": "", "height": null, "height_m": null, "levels": null, "tract_id": "40037020101", "tract_name": "201.01", "tags": {"building": "yes", "source": "microsoft/BuildingFootprints"}}}, {"type": "Feature", "geometry": {"type": "Polygon", "coordinates": [[[-96.0718741, 36.0555693], [-96.0719337, 36.0555863], [-96.0720245, 36.055378], [-96.0720078, 36.0553732], [-96.0720499, 36.0552768], [-96.0720069, 36.0552646], [-96.0718741, 36.0555693]]]}, "properties": {"osm_id": 1235077877, "building": "yes", "name": "", "height": null, "height_m": null, "levels": null, "tract_id": "40037020101", "tract_name": "201.01", "tags": {"building": "yes", "source": "microsoft/BuildingFootprints"}}}, {"type": "Feature", "geometry": {"type": "Polygon", "coordinates": [[[-96.0738307, 36.0525502], [-96.0733041, 36.0535694], [-96.0735781, 36.0536619], [-96.0737708, 36.053289], [-96.0739147, 36.0533376], [-96.0740473, 36.0530809], [-96.0739377, 36.0530439], [-96.074139, 36.0526544], [-96.0738307, 36.0525502]]]}, "properties": {"osm_id": 1235077878, "building": "yes", "name": "", "height": null, "height_m": null, "levels": null, "tract_id": "40037020101", "tract_name": "201.01", "tags": {"building": "yes", "source": "microsoft/BuildingFootprints"}}}, {"type": "Feature", "geometry": {"type": "Polygon", "coordinates": [[[-96.0692452, 36.0527274], [-96.0675703, 36.0527232], [-96.0675692, 36.0530008], [-96.0682116, 36.0530024], [-96.0682115, 36.0530296], [-96.0681646, 36.0530295], [-96.0681642, 36.0531314], [-96.0682044, 36.0531315], [-96.0682044, 36.0531336], [-96.068199, 36.0531336], [-96.0681989, 36.0531596], [-96.0684832, 36.0531603], [-96.0684839, 36.053002], [-96.0692442, 36.0530039], [-96.0692452, 36.0527274]]]}, "properties": {"osm_id": 1235077879, "building": "yes", "name": "", "height": null, "height_m": null, "levels": null, "tract_id": "40037020101", "tract_name": "201.01", "tags": {"building": "yes", "source": "microsoft/BuildingFootprints"}}}, {"type": "Feature", "geometry": {"type": "Polygon", "coordinates": [[[-96.0687186, 36.0523443], [-96.0689749, 36.0523429], [-96.0689744, 36.0522887], [-96.0691139, 36.052288], [-96.069113, 36.0521752], [-96.0689762, 36.0521759], [-96.0689757, 36.0521196], [-96.0687168, 36.052121], [-96.0687186, 36.0523443]]]}, "properties": {"osm_id": 1235077880, "building": "yes", "name": "", "height": null, "height_m": null, "levels": null, "tract_id": "40037020101", "tract_name": "201.01", "tags": {"building": "yes", "source": "microsoft/BuildingFootprints"}}}, {"type": "Feature", "geometry": {"type": "Polygon", "coordinates": [[[-96.075656, 36.0502962], [-96.0758442, 36.0498133], [-96.0757819, 36.0498125], [-96.0757841, 36.0497041], [-96.0754435, 36.0496996], [-96.0754402, 36.0498632], [-96.0750458, 36.0497627], [-96.0748933, 36.050154], [-96.0750803, 36.0502016], [-96.0750987, 36.0501543], [-96.075656, 36.0502962]]]}, "properties": {"osm_id": 1235077881, "building": "yes", "name": "", "height": null, "height_m": null, "levels": null, "tract_id": "40037020101", "tract_name": "201.01", "tags": {"building": "yes", "source": "microsoft/BuildingFootprints"}}}, {"type": "Feature", "geometry": {"type": "Polygon", "coordinates": [[[-96.0748975, 36.050678], [-96.0748255, 36.050824], [-96.074757, 36.0508019], [-96.0747349, 36.0508468], [-96.0747904, 36.0508647], [-96.07476, 36.0509264], [-96.0749983, 36.0510033], [-96.0750186, 36.0509621], [-96.0752153, 36.0510255], [-96.0753196, 36.0508141], [-96.0748975, 36.050678]]]}, "properties": {"osm_id": 1235077882, "building": "yes", "name": "", "height": null, "height_m": null, "levels": null, "tract_id": "40037020101", "tract_name": "201.01", "tags": {"building": "yes", "source": "microsoft/BuildingFootprints"}}}, {"type": "Feature", "geometry": {"type": "Polygon", "coordinates": [[[-96.07449, 36.0508434], [-96.074362, 36.0508058], [-96.0742365, 36.0510856], [-96.0743645, 36.0511232], [-96.07449, 36.0508434]]]}, "properties": {"osm_id": 1235077883, "building": "yes", "name": "", "height": null, "height_m": null, "levels": null, "tract_id": "40037020101", "tract_name": "201.01", "tags": {"building": "yes", "source": "microsoft/BuildingFootprints"}}}, {"type": "Feature", "geometry": {"type": "Polygon", "coordinates": [[[-96.0751514, 36.0496451], [-96.0755098, 36.0496482], [-96.0755125, 36.0494488], [-96.0751541, 36.0494456], [-96.0751514, 36.0496451]]]}, "properties": {"osm_id": 1235077884, "building": "yes", "name": "", "height": null, "height_m": null, "levels": null, "tract_id": "40037020101", "tract_name": "201.01", "tags": {"building": "yes", "source": "microsoft/BuildingFootprints"}}}, {"type": "Feature", "geometry": {"type": "Polygon", "coordinates": [[[-96.0528115, 36.0743037], [-96.0527842, 36.0743189], [-96.0527571, 36.0742871], [-96.0526006, 36.0743742], [-96.0529337, 36.0747655], [-96.0531176, 36.0746633], [-96.0528115, 36.0743037]]]}, "properties": {"osm_id": 1434658530, "building": "yes", "name": "", "height": null, "height_m": null, "levels": null, "tract_id": "40037020101", "tract_name": "201.01", "tags": {"building": "yes", "source": "microsoft/BuildingFootprints"}}}, {"type": "Feature", "geometry": {"type": "Polygon", "coordinates": [[[-96.0547915, 36.0731747], [-96.05475, 36.0731291], [-96.0547195, 36.0731473], [-96.0547669, 36.0731993], [-96.0546913, 36.0732443], [-96.0548962, 36.0734692], [-96.0549675, 36.0734268], [-96.0549867, 36.0734479], [-96.0550623, 36.0734029], [-96.055038, 36.0733762], [-96.0553033, 36.0732183], [-96.0550976, 36.0729925], [-96.0547915, 36.0731747]]]}, "properties": {"osm_id": 1434658531, "building": "yes", "name": "", "height": null, "height_m": null, "levels": null, "tract_id": "40037020101", "tract_name": "201.01", "tags": {"building": "yes", "source": "microsoft/BuildingFootprints"}}}, {"type": "Feature", "geometry": {"type": "Polygon", "coordinates": [[[-96.0556986, 36.0727073], [-96.0559021, 36.0729359], [-96.056025, 36.0728644], [-96.0559678, 36.0728001], [-96.0560615, 36.0727457], [-96.0559954, 36.0726714], [-96.0559795, 36.0726806], [-96.0559222, 36.0726163], [-96.0558621, 36.0726513], [-96.0558393, 36.0726255], [-96.0556986, 36.0727073]]]}, "properties": {"osm_id": 1434658532, "building": "yes", "name": "", "height": null, "height_m": null, "levels": null, "tract_id": "40037020101", "tract_name": "201.01", "tags": {"building": "yes", "source": "microsoft/BuildingFootprints"}}}, {"type": "Feature", "geometry": {"type": "Polygon", "coordinates": [[[-96.0566919, 36.0722738], [-96.0566309, 36.0724366], [-96.0567537, 36.0724667], [-96.0568147, 36.0723038], [-96.0566919, 36.0722738]]]}, "properties": {"osm_id": 1434658533, "building": "yes", "name": "", "height": null, "height_m": null, "levels": null, "tract_id": "40037020101", "tract_name": "201.01", "tags": {"building": "yes", "source": "microsoft/BuildingFootprints"}}}, {"type": "Feature", "geometry": {"type": "Polygon", "coordinates": [[[-96.0575503, 36.0715184], [-96.0574309, 36.0715169], [-96.0574319, 36.0714649], [-96.0573099, 36.0714633], [-96.057307, 36.0716107], [-96.0575484, 36.0716138], [-96.0575503, 36.0715184]]]}, "properties": {"osm_id": 1434658534, "building": "yes", "name": "", "height": null, "height_m": null, "levels": null, "tract_id": "40037020101", "tract_name": "201.01", "tags": {"building": "yes", "source": "microsoft/BuildingFootprints"}}}, {"type": "Feature", "geometry": {"type": "Polygon", "coordinates": [[[-96.0578046, 36.070407], [-96.0581918, 36.0708256], [-96.0581608, 36.0708443], [-96.058202, 36.0708888], [-96.0581228, 36.0709366], [-96.058209, 36.0710298], [-96.058283, 36.0709851], [-96.0583293, 36.0710352], [-96.058405, 36.0709894], [-96.0584153, 36.0710005], [-96.0584807, 36.070961], [-96.0584665, 36.0709457], [-96.0585715, 36.0708823], [-96.05852, 36.0708267], [-96.0585889, 36.0707851], [-96.0585027, 36.0706919], [-96.0584167, 36.0707439], [-96.0583781, 36.0707022], [-96.0583299, 36.0707313], [-96.0579491, 36.0703196], [-96.0578046, 36.070407]]]}, "properties": {"osm_id": 1434658535, "building": "yes", "name": "", "height": null, "height_m": null, "levels": null, "tract_id": "40037020101", "tract_name": "201.01", "tags": {"building": "yes", "source": "microsoft/BuildingFootprints"}}}, {"type": "Feature", "geometry": {"type": "Polygon", "coordinates": [[[-96.05713, 36.0703856], [-96.0573526, 36.0703881], [-96.0573551, 36.0702364], [-96.0570964, 36.0702335], [-96.0570948, 36.0703289], [-96.0571309, 36.0703293], [-96.05713, 36.0703856]]]}, "properties": {"osm_id": 1434658536, "building": "yes", "name": "", "height": null, "height_m": null, "levels": null, "tract_id": "40037020101", "tract_name": "201.01", "tags": {"building": "yes", "source": "microsoft/BuildingFootprints"}}}, {"type": "Feature", "geometry": {"type": "Polygon", "coordinates": [[[-96.0559193, 36.069964], [-96.0561766, 36.0699588], [-96.0561731, 36.0698461], [-96.0559158, 36.0698514], [-96.0559193, 36.069964]]]}, "properties": {"osm_id": 1434658537, "building": "yes", "name": "", "height": null, "height_m": null, "levels": null, "tract_id": "40037020101", "tract_name": "201.01", "tags": {"building": "yes", "source": "microsoft/BuildingFootprints"}}}, {"type": "Feature", "geometry": {"type": "Polygon", "coordinates": [[[-96.0585581, 36.0671713], [-96.0585039, 36.0670274], [-96.0584278, 36.0670461], [-96.0583602, 36.0668666], [-96.0577014, 36.0670286], [-96.0577578, 36.0671784], [-96.0576473, 36.0672055], [-96.0576391, 36.0671837], [-96.0577103, 36.0671662], [-96.0576789, 36.0670829], [-96.0575954, 36.0671034], [-96.0575006, 36.0668514], [-96.0573901, 36.0668785], [-96.0574887, 36.0671405], [-96.0573512, 36.0671743], [-96.0574214, 36.0673608], [-96.0573478, 36.0673789], [-96.0572828, 36.0672063], [-96.0569587, 36.067286], [-96.05702, 36.0674487], [-96.0569513, 36.0674656], [-96.0569819, 36.067547], [-96.0570678, 36.0675258], [-96.057141, 36.0677203], [-96.0576664, 36.0675911], [-96.0576313, 36.0674979], [-96.0582008, 36.0673578], [-96.0582027, 36.0673628], [-96.0582601, 36.0673487], [-96.0582242, 36.0672534], [-96.0585581, 36.0671713]]]}, "properties": {"osm_id": 1434658538, "building": "yes", "name": "", "height": null, "height_m": null, "levels": null, "tract_id": "40037020101", "tract_name": "201.01", "tags": {"building": "yes", "source": "microsoft/BuildingFootprints"}}}, {"type": "Feature", "geometry": {"type": "Polygon", "coordinates": [[[-96.0616922, 36.0678369], [-96.061415, 36.0678392], [-96.0614143, 36.067784], [-96.0612812, 36.0677851], [-96.0612839, 36.0679954], [-96.0616942, 36.067992], [-96.0616922, 36.0678369]]]}, "properties": {"osm_id": 1434658539, "building": "yes", "name": "", "height": null, "height_m": null, "levels": null, "tract_id": "40037020101", "tract_name": "201.01", "tags": {"building": "yes", "source": "microsoft/BuildingFootprints"}}}, {"type": "Feature", "geometry": {"type": "Polygon", "coordinates": [[[-96.0601287, 36.0655702], [-96.0603985, 36.065567], [-96.0603955, 36.0654001], [-96.0601257, 36.0654033], [-96.0601287, 36.0655702]]]}, "properties": {"osm_id": 1434658540, "building": "yes", "name": "", "height": null, "height_m": null, "levels": null, "tract_id": "40037020101", "tract_name": "201.01", "tags": {"building": "yes", "source": "microsoft/BuildingFootprints"}}}, {"type": "Feature", "geometry": {"type": "Polygon", "coordinates": [[[-96.06069, 36.0653611], [-96.060505, 36.0653632], [-96.0605083, 36.0655626], [-96.0606934, 36.0655606], [-96.06069, 36.0653611]]]}, "properties": {"osm_id": 1434658541, "building": "yes", "name": "", "height": null, "height_m": null, "levels": null, "tract_id": "40037020101", "tract_name": "201.01", "tags": {"building": "yes", "source": "microsoft/BuildingFootprints"}}}, {"type": "Feature", "geometry": {"type": "Polygon", "coordinates": [[[-96.0590864, 36.0598506], [-96.0592216, 36.0598755], [-96.0592972, 36.0596064], [-96.0591621, 36.0595816], [-96.0590864, 36.0598506]]]}, "properties": {"osm_id": 1434658542, "building": "yes", "name": "", "height": null, "height_m": null, "levels": null, "tract_id": "40037020101", "tract_name": "201.01", "tags": {"building": "yes", "source": "microsoft/BuildingFootprints"}}}, {"type": "Feature", "geometry": {"type": "Polygon", "coordinates": [[[-96.0599849, 36.0603774], [-96.0597806, 36.0603601], [-96.0597449, 36.0606346], [-96.0599492, 36.0606519], [-96.0599849, 36.0603774]]]}, "properties": {"osm_id": 1434658543, "building": "yes", "name": "", "height": null, "height_m": null, "levels": null, "tract_id": "40037020101", "tract_name": "201.01", "tags": {"building": "yes", "source": "microsoft/BuildingFootprints"}}}, {"type": "Feature", "geometry": {"type": "Polygon", "coordinates": [[[-96.0593729, 36.0603081], [-96.0593017, 36.0607163], [-96.0595726, 36.0607472], [-96.0596438, 36.060339], [-96.0593729, 36.0603081]]]}, "properties": {"osm_id": 1434658544, "building": "yes", "name": "", "height": null, "height_m": null, "levels": null, "tract_id": "40037020101", "tract_name": "201.01", "tags": {"building": "yes", "source": "microsoft/BuildingFootprints"}}}, {"type": "Feature", "geometry": {"type": "Polygon", "coordinates": [[[-96.0502107, 36.0690137], [-96.0500794, 36.068998], [-96.0501003, 36.0688835], [-96.0499008, 36.0688597], [-96.0498412, 36.0691865], [-96.0497624, 36.0691771], [-96.049733, 36.0693384], [-96.0497934, 36.0693456], [-96.0497491, 36.0695886], [-96.0500983, 36.0696302], [-96.0502107, 36.0690137]]]}, "properties": {"osm_id": 1434658545, "building": "yes", "name": "", "height": null, "height_m": null, "levels": null, "tract_id": "40037020101", "tract_name": "201.01", "tags": {"building": "yes", "source": "microsoft/BuildingFootprints"}}}, {"type": "Feature", "geometry": {"type": "Polygon", "coordinates": [[[-96.0471884, 36.0730164], [-96.0468639, 36.0730143], [-96.0468636, 36.073048], [-96.0468057, 36.0730476], [-96.0468055, 36.0730736], [-96.0467265, 36.0730731], [-96.0467232, 36.0734092], [-96.0468627, 36.07341], [-96.0468599, 36.0736919], [-96.0471818, 36.0736939], [-96.0471884, 36.0730164]]]}, "properties": {"osm_id": 1434658546, "building": "yes", "name": "", "height": null, "height_m": null, "levels": null, "tract_id": "40037020101", "tract_name": "201.01", "tags": {"building": "yes", "source": "microsoft/BuildingFootprints"}}}, {"type": "Feature", "geometry": {"type": "Polygon", "coordinates": [[[-96.0460203, 36.0733008], [-96.0458882, 36.0732547], [-96.0457892, 36.0734401], [-96.0456965, 36.0734078], [-96.0456272, 36.0735376], [-96.0459008, 36.073633], [-96.0459998, 36.0734476], [-96.0459546, 36.0734318], [-96.0459995, 36.0733477], [-96.0459959, 36.0733465], [-96.0460203, 36.0733008]]]}, "properties": {"osm_id": 1434658547, "building": "yes", "name": "", "height": null, "height_m": null, "levels": null, "tract_id": "40037020101", "tract_name": "201.01", "tags": {"building": "yes", "source": "microsoft/BuildingFootprints"}}}]}