{"type": "FeatureCollection", "features": [{"type": "Feature", "geometry": {"type": "Polygon", "coordinates": [[[-96.4013658, 35.8337373], [-96.4013604, 35.8337211], [-96.4014918, 35.8336923], [-96.4015247, 35.8337907], [-96.4014717, 35.8338023], [-96.4015046, 35.8339012], [-96.4016965, 35.8338592], [-96.4016158, 35.8336175], [-96.4014336, 35.8336575], [-96.4014065, 35.8335764], [-96.4015084, 35.833554], [-96.4014566, 35.8333988], [-96.4017337, 35.8333381], [-96.4018111, 35.8335702], [-96.4017619, 35.833581], [-96.401843, 35.8338242], [-96.4019831, 35.8337934], [-96.4020213, 35.8339079], [-96.4015472, 35.8340119], [-96.4015968, 35.8341605], [-96.4014566, 35.8341912], [-96.4014057, 35.8340386], [-96.401195, 35.8340848], [-96.4011552, 35.8339656], [-96.4013233, 35.8339287], [-96.4012667, 35.833759], [-96.4013658, 35.8337373]]]}, "properties": {"osm_id": 187343049, "building": "hospital", "name": "", "height": null, "height_m": null, "levels": null, "tract_id": "40037020900", "tract_name": "209", "tags": {"building": "hospital"}}}, {"type": "Feature", "geometry": {"type": "Polygon", "coordinates": [[[-96.3916711, 35.8394133], [-96.3913637, 35.839419], [-96.3913615, 35.8393381], [-96.3914477, 35.8393365], [-96.3914471, 35.8393158], [-96.3916682, 35.8393118], [-96.3916711, 35.8394133]]]}, "properties": {"osm_id": 201065067, "building": "yes", "name": "McDonald's", "height": null, "height_m": null, "levels": null, "tract_id": "40037020900", "tract_name": "209", "tags": {"addr:city": "Bristow", "addr:country": "US", "addr:housenumber": "702", "addr:postcode": "74010", "addr:street": "North Main Street", "amenity": "fast_food", "brand": "McDonald's", "brand:wikidata": "Q38076", "building": "yes", "cuisine": "burger", "internet_access": "wlan", "internet_access:fee": "no", "name": "McDonald's", "opening_hours": "Mo-Su 06:00-23:00", "smoking": "no", "takeaway": "yes", "website": "https://www.mcdonalds.com/us/en-us/location/ok/bristow/702-n-main/32607.html", "wheelchair": "yes"}}}, {"type": "Feature", "geometry": {"type": "Polygon", "coordinates": [[[-96.3699582, 35.8996556], [-96.3699285, 35.8993467], [-96.3700213, 35.8993408], [-96.370051, 35.8996497], [-96.3699582, 35.8996556]]]}, "properties": {"osm_id": 382766276, "building": "yes", "name": "", "height": null, "height_m": null, "levels": null, "tract_id": "40037020900", "tract_name": "209", "tags": {"building": "yes"}}}, {"type": "Feature", "geometry": {"type": "Polygon", "coordinates": [[[-96.3690967, 35.8859991], [-96.3689877, 35.8859981], [-96.3689899, 35.8858463], [-96.3690989, 35.8858474], [-96.3690967, 35.8859991]]]}, "properties": {"osm_id": 382766277, "building": "yes", "name": "", "height": null, "height_m": null, "levels": null, "tract_id": "40037020900", "tract_name": "209", "tags": {"building": "yes"}}}, {"type": "Feature", "geometry": {"type": "Polygon", "coordinates": [[[-96.3672458, 35.8854767], [-96.3669764, 35.8854767], [-96.3669764, 35.88531], [-96.3672458, 35.88531], [-96.3672458, 35.8854767]]]}, "properties": {"osm_id": 382766279, "building": "yes", "name": "", "height": null, "height_m": null, "levels": null, "tract_id": "40037020900", "tract_name": "209", "tags": {"building": "yes"}}}, {"type": "Feature", "geometry": {"type": "Polygon", "coordinates": [[[-96.3687884, 35.8859524], [-96.3687876, 35.8857981], [-96.3688769, 35.8857978], [-96.3688767, 35.8857653], [-96.3687907, 35.8857656], [-96.3687906, 35.8857491], [-96.3686147, 35.8857497], [-96.3686157, 35.885953], [-96.3687884, 35.8859524]]]}, "properties": {"osm_id": 382766281, "building": "yes", "name": "", "height": null, "height_m": null, "levels": null, "tract_id": "40037020900", "tract_name": "209", "tags": {"building": "yes"}}}, {"type": "Feature", "geometry": {"type": "Polygon", "coordinates": [[[-96.4557562, 35.8552696], [-96.4557657, 35.8550502], [-96.4558737, 35.8550533], [-96.4558643, 35.8552726], [-96.4557562, 35.8552696]]]}, "properties": {"osm_id": 382767827, "building": "yes", "name": "", "height": null, "height_m": null, "levels": null, "tract_id": "40037020900", "tract_name": "209", "tags": {"building": "yes"}}}, {"type": "Feature", "geometry": {"type": "Polygon", "coordinates": [[[-96.4327242, 35.8776912], [-96.4323741, 35.8776791], [-96.4323887, 35.8774017], [-96.4327387, 35.8774138], [-96.4327242, 35.8776912]]]}, "properties": {"osm_id": 382767828, "building": "yes", "name": "", "height": null, "height_m": null, "levels": null, "tract_id": "40037020900", "tract_name": "209", "tags": {"building": "yes"}}}, {"type": "Feature", "geometry": {"type": "Polygon", "coordinates": [[[-96.4323773, 35.8757544], [-96.4321092, 35.8757514], [-96.4321116, 35.8756067], [-96.4323798, 35.8756097], [-96.4323773, 35.8757544]]]}, "properties": {"osm_id": 382767831, "building": "yes", "name": "", "height": null, "height_m": null, "levels": null, "tract_id": "40037020900", "tract_name": "209", "tags": {"building": "yes"}}}, {"type": "Feature", "geometry": {"type": "Polygon", "coordinates": [[[-96.4273097, 35.8262127], [-96.4269453, 35.8262108], [-96.4269467, 35.8260411], [-96.4273111, 35.826043], [-96.4273097, 35.8262127]]]}, "properties": {"osm_id": 382768651, "building": "yes", "name": "", "height": null, "height_m": null, "levels": null, "tract_id": "40037020900", "tract_name": "209", "tags": {"building": "yes"}}}, {"type": "Feature", "geometry": {"type": "Polygon", "coordinates": [[[-96.4175102, 35.8278997], [-96.4172891, 35.8279046], [-96.4172851, 35.8277844], [-96.4175061, 35.8277795], [-96.4175102, 35.8278997]]]}, "properties": {"osm_id": 382772344, "building": "yes", "name": "", "height": null, "height_m": null, "levels": null, "tract_id": "40037020900", "tract_name": "209", "tags": {"building": "yes"}}}, {"type": "Feature", "geometry": {"type": "Polygon", "coordinates": [[[-96.3922973, 35.8443245], [-96.3919484, 35.8443161], [-96.3919538, 35.8441679], [-96.3923027, 35.8441763], [-96.3922973, 35.8443245]]]}, "properties": {"osm_id": 382772345, "building": "yes", "name": "", "height": null, "height_m": null, "levels": null, "tract_id": "40037020900", "tract_name": "209", "tags": {"building": "yes"}}}, {"type": "Feature", "geometry": {"type": "Polygon", "coordinates": [[[-96.4089282, 35.8353682], [-96.4087957, 35.8353544], [-96.4088097, 35.8352659], [-96.4089422, 35.8352797], [-96.4089282, 35.8353682]]]}, "properties": {"osm_id": 382772346, "building": "yes", "name": "", "height": null, "height_m": null, "levels": null, "tract_id": "40037020900", "tract_name": "209", "tags": {"building": "yes"}}}, {"type": "Feature", "geometry": {"type": "Polygon", "coordinates": [[[-96.3922629, 35.8448247], [-96.3920601, 35.8448163], [-96.3920688, 35.8446773], [-96.3922717, 35.8446856], [-96.3922629, 35.8448247]]]}, "properties": {"osm_id": 382772347, "building": "yes", "name": "", "height": null, "height_m": null, "levels": null, "tract_id": "40037020900", "tract_name": "209", "tags": {"building": "yes"}}}, {"type": "Feature", "geometry": {"type": "Polygon", "coordinates": [[[-96.4172594, 35.8301178], [-96.4171756, 35.8300899], [-96.4172691, 35.8299053], [-96.4173529, 35.8299332], [-96.4172594, 35.8301178]]]}, "properties": {"osm_id": 382772348, "building": "yes", "name": "", "height": null, "height_m": null, "levels": null, "tract_id": "40037020900", "tract_name": "209", "tags": {"building": "yes"}}}, {"type": "Feature", "geometry": {"type": "Polygon", "coordinates": [[[-96.4092732, 35.8353407], [-96.4089809, 35.8353186], [-96.4090051, 35.8351079], [-96.4092973, 35.83513], [-96.4092732, 35.8353407]]]}, "properties": {"osm_id": 382772349, "building": "yes", "name": "", "height": null, "height_m": null, "levels": null, "tract_id": "40037020900", "tract_name": "209", "tags": {"building": "yes"}}}, {"type": "Feature", "geometry": {"type": "Polygon", "coordinates": [[[-96.4172347, 35.8294273], [-96.4168502, 35.8294312], [-96.4168488, 35.8293388], [-96.4172333, 35.8293349], [-96.4172347, 35.8294273]]]}, "properties": {"osm_id": 382772350, "building": "yes", "name": "", "height": null, "height_m": null, "levels": null, "tract_id": "40037020900", "tract_name": "209", "tags": {"building": "yes"}}}, {"type": "Feature", "geometry": {"type": "Polygon", "coordinates": [[[-96.4174393, 35.8277663], [-96.4173712, 35.8277695], [-96.4173616, 35.827635], [-96.4174297, 35.8276318], [-96.4174393, 35.8277663]]]}, "properties": {"osm_id": 382772351, "building": "yes", "name": "", "height": null, "height_m": null, "levels": null, "tract_id": "40037020900", "tract_name": "209", "tags": {"building": "yes"}}}, {"type": "Feature", "geometry": {"type": "Polygon", "coordinates": [[[-96.4172135, 35.8291554], [-96.4172102, 35.8290722], [-96.4169155, 35.82908], [-96.4169195, 35.8291803], [-96.4170194, 35.8291776], [-96.4170188, 35.8291606], [-96.4172135, 35.8291554]]]}, "properties": {"osm_id": 382772352, "building": "yes", "name": "", "height": null, "height_m": null, "levels": null, "tract_id": "40037020900", "tract_name": "209", "tags": {"building": "yes"}}}, {"type": "Feature", "geometry": {"type": "Polygon", "coordinates": [[[-96.3955183, 35.8443248], [-96.3955202, 35.8439216], [-96.3954078, 35.8439232], [-96.3954104, 35.8436224], [-96.3947772, 35.8436081], [-96.3941306, 35.8436108], [-96.3941284, 35.8441271], [-96.3939953, 35.8441429], [-96.3939993, 35.8443146], [-96.3955183, 35.8443248]]]}, "properties": {"osm_id": 382772353, "building": "yes", "name": "Walmart Supercenter", "height": null, "height_m": null, "levels": null, "tract_id": "40037020900", "tract_name": "209", "tags": {"addr:city": "Bristow", "addr:country": "US", "addr:housenumber": "105", "addr:postcode": "74010", "addr:state": "OK", "addr:street": "West Highway 16", "brand": "Walmart", "brand:wikidata": "Q483551", "building": "yes", "name": "Walmart Supercenter", "opening_hours": "24/7", "operator": "Walmart", "payment:app:walmart": "yes", "payment:apple_pay": "no", "payment:google_pay": "no", "payment:samsung_pay": "no", "phone": "+1 918-367-3335", "ref": "324", "ref:walmart": "324", "sensory_friendly:accommodation": "dimmed_light;static_screens;no_pa", "sensory_friendly:conditional": "yes @ 08:00-10:00", "shop": "supermarket", "website": "https://www.walmart.com/store/324-bristow-ok"}}}, {"type": "Feature", "geometry": {"type": "Polygon", "coordinates": [[[-96.4022685, 35.8399084], [-96.4022811, 35.8398483], [-96.4023235, 35.8398541], [-96.4023395, 35.8397774], [-96.4023191, 35.8397746], [-96.4023264, 35.8397399], [-96.4022987, 35.8397361], [-96.402308, 35.8396919], [-96.4022418, 35.8396828], [-96.4021967, 35.8398986], [-96.4022685, 35.8399084]]]}, "properties": {"osm_id": 382772925, "building": "yes", "name": "", "height": null, "height_m": null, "levels": null, "tract_id": "40037020900", "tract_name": "209", "tags": {"building": "yes"}}}, {"type": "Feature", "geometry": {"type": "Polygon", "coordinates": [[[-96.4039307, 35.8422999], [-96.403912, 35.8422141], [-96.4040426, 35.8421954], [-96.4040108, 35.8420488], [-96.4039687, 35.8420548], [-96.403965, 35.8420378], [-96.4037822, 35.8420639], [-96.4037868, 35.8420849], [-96.4037386, 35.8420918], [-96.4037694, 35.8422337], [-96.4038041, 35.8422288], [-96.403823, 35.8423153], [-96.4039307, 35.8422999]]]}, "properties": {"osm_id": 382772926, "building": "yes", "name": "", "height": null, "height_m": null, "levels": null, "tract_id": "40037020900", "tract_name": "209", "tags": {"building": "yes"}}}, {"type": "Feature", "geometry": {"type": "Polygon", "coordinates": [[[-96.4224685, 35.8292345], [-96.4224706, 35.8291434], [-96.4223645, 35.8291418], [-96.422366, 35.8290749], [-96.4222414, 35.8290731], [-96.4222378, 35.829231], [-96.4224685, 35.8292345]]]}, "properties": {"osm_id": 382773986, "building": "yes", "name": "", "height": null, "height_m": null, "levels": null, "tract_id": "40037020900", "tract_name": "209", "tags": {"building": "yes"}}}, {"type": "Feature", "geometry": {"type": "Polygon", "coordinates": [[[-96.3844647, 35.8479555], [-96.3845306, 35.848013], [-96.3845638, 35.848042], [-96.384423, 35.8481479], [-96.3843882, 35.8481175], [-96.3843239, 35.8480615], [-96.3844647, 35.8479555]]]}, "properties": {"osm_id": 407728327, "building": "roof", "name": "", "height": null, "height_m": null, "levels": null, "tract_id": "40037020900", "tract_name": "209", "tags": {"building": "roof"}}}, {"type": "Feature", "geometry": {"type": "Polygon", "coordinates": [[[-96.3909348, 35.8321727], [-96.3906207, 35.8321724], [-96.39062, 35.8321099], [-96.3909352, 35.8321077], [-96.3909348, 35.8321727]]]}, "properties": {"osm_id": 457486251, "building": "commercial", "name": "", "height": null, "height_m": null, "levels": null, "tract_id": "40037020900", "tract_name": "209", "tags": {"building": "commercial"}}}, {"type": "Feature", "geometry": {"type": "Polygon", "coordinates": [[[-96.3974595, 35.832085], [-96.3974872, 35.8320862], [-96.3974872, 35.8321062], [-96.3975465, 35.8321062], [-96.3975458, 35.832085], [-96.3975658, 35.832085], [-96.3975635, 35.8319582], [-96.3974587, 35.8319576], [-96.3974595, 35.832085]]]}, "properties": {"osm_id": 974869062, "building": "yes", "name": "", "height": null, "height_m": null, "levels": null, "tract_id": "40037020900", "tract_name": "209", "tags": {"building": "yes"}}}, {"type": "Feature", "geometry": {"type": "Polygon", "coordinates": [[[-96.3833286, 35.8789951], [-96.3832307, 35.8790034], [-96.3832116, 35.8788601], [-96.3833886, 35.8788441], [-96.3833979, 35.8789226], [-96.3833178, 35.8789287], [-96.3833286, 35.8789951]]]}, "properties": {"osm_id": 986097599, "building": "yes", "name": "", "height": null, "height_m": null, "levels": null, "tract_id": "40037020900", "tract_name": "209", "tags": {"building": "yes"}}}, {"type": "Feature", "geometry": {"type": "Polygon", "coordinates": [[[-96.3709801, 35.8626233], [-96.3709804, 35.8625525], [-96.3709363, 35.8625524], [-96.370936, 35.8626232], [-96.3709801, 35.8626233]]]}, "properties": {"osm_id": 1028843776, "building": "yes", "name": "", "height": null, "height_m": null, "levels": null, "tract_id": "40037020900", "tract_name": "209", "tags": {"building": "yes"}}}, {"type": "Feature", "geometry": {"type": "Polygon", "coordinates": [[[-96.3906795, 35.8371657], [-96.3906003, 35.8371653], [-96.3906007, 35.8371222], [-96.3905476, 35.837122], [-96.3905486, 35.8369922], [-96.3906808, 35.8369929], [-96.3906795, 35.8371657]]]}, "properties": {"osm_id": 1052468129, "building": "yes", "name": "", "height": null, "height_m": null, "levels": null, "tract_id": "40037020900", "tract_name": "209", "tags": {"building": "yes", "shop": "convenience"}}}, {"type": "Feature", "geometry": {"type": "Polygon", "coordinates": [[[-96.3908988, 35.8370743], [-96.3908096, 35.8370733], [-96.3908108, 35.8370043], [-96.3908121, 35.8369321], [-96.3909014, 35.8369331], [-96.3909001, 35.8370038], [-96.3908988, 35.8370743]]]}, "properties": {"osm_id": 1052468130, "building": "yes", "name": "", "height": null, "height_m": null, "levels": null, "tract_id": "40037020900", "tract_name": "209", "tags": {"amenity": "fuel", "building": "yes"}}}, {"type": "Feature", "geometry": {"type": "Polygon", "coordinates": [[[-96.3908672, 35.8366895], [-96.3907659, 35.836706], [-96.3907489, 35.8366374], [-96.3905936, 35.8366445], [-96.3905936, 35.8365968], [-96.3907376, 35.8365919], [-96.3907203, 35.8365223], [-96.3908216, 35.8365058], [-96.3908672, 35.8366895]]]}, "properties": {"osm_id": 1052468131, "building": "yes", "name": "", "height": null, "height_m": null, "levels": null, "tract_id": "40037020900", "tract_name": "209", "tags": {"amenity": "fuel", "building": "yes"}}}, {"type": "Feature", "geometry": {"type": "Polygon", "coordinates": [[[-96.3905936, 35.8367493], [-96.3904743, 35.8367493], [-96.3904743, 35.8365504], [-96.3905936, 35.8365504], [-96.3905936, 35.8365968], [-96.3905936, 35.8366445], [-96.3905936, 35.8367493]]]}, "properties": {"osm_id": 1052468132, "building": "yes", "name": "", "height": null, "height_m": null, "levels": null, "tract_id": "40037020900", "tract_name": "209", "tags": {"building": "yes", "shop": "convenience"}}}, {"type": "Feature", "geometry": {"type": "Polygon", "coordinates": [[[-96.3937157, 35.8307177], [-96.3935629, 35.8307199], [-96.3935614, 35.8306531], [-96.3937143, 35.8306509], [-96.3937157, 35.8307177]]]}, "properties": {"osm_id": 1052505371, "building": "roof", "name": "", "height": null, "height_m": null, "levels": null, "tract_id": "40037020900", "tract_name": "209", "tags": {"building": "roof"}}}, {"type": "Feature", "geometry": {"type": "Polygon", "coordinates": [[[-96.394043, 35.830715], [-96.3938036, 35.8307172], [-96.3938026, 35.8306487], [-96.394042, 35.8306465], [-96.394043, 35.830715]]]}, "properties": {"osm_id": 1052505372, "building": "roof", "name": "", "height": null, "height_m": null, "levels": null, "tract_id": "40037020900", "tract_name": "209", "tags": {"amenity": "fuel", "building": "roof"}}}, {"type": "Feature", "geometry": {"type": "Polygon", "coordinates": [[[-96.3927434, 35.8303823], [-96.3927589, 35.8303964], [-96.3927585, 35.8305378], [-96.3927347, 35.8307218], [-96.3926834, 35.8307177], [-96.3926992, 35.8305856], [-96.3926412, 35.8305843], [-96.3926596, 35.830718], [-96.3926056, 35.8307183], [-96.3925865, 35.8305283], [-96.3925852, 35.8303989], [-96.392603, 35.8303801], [-96.3927434, 35.8303823]]]}, "properties": {"osm_id": 1052505373, "building": "yes", "name": "Sonic", "height": null, "height_m": null, "levels": null, "tract_id": "40037020900", "tract_name": "209", "tags": {"addr:city": "Bristow", "addr:housenumber": "140", "addr:postcode": "74010", "addr:state": "OK", "addr:street": "West Fourth", "amenity": "fast_food", "brand": "Sonic", "brand:wikidata": "Q7561808", "building": "yes", "cuisine": "burger", "drive_in": "yes", "name": "Sonic", "opening_hours": "Mo-Th 07:00-22:30; Fr-Sa 07:00-23:00; Su 08:00-22:30", "phone": "+1 918-367-6135", "takeaway": "yes", "website": "https://locations.sonicdrivein.com/ok/bristow/140-w.-fourth.html"}}}, {"type": "Feature", "geometry": {"type": "Polygon", "coordinates": [[[-96.3904689, 35.8384736], [-96.3902061, 35.8384725], [-96.3902063, 35.8384388], [-96.3901709, 35.8384387], [-96.390171, 35.8384193], [-96.3900958, 35.838419], [-96.390097, 35.8382352], [-96.3901722, 35.8382355], [-96.3901725, 35.8381801], [-96.3901395, 35.83818], [-96.390141, 35.8379422], [-96.3902597, 35.8379427], [-96.3902584, 35.8381607], [-96.3904709, 35.8381616], [-96.3904706, 35.8382013], [-96.3905091, 35.8382014], [-96.3905087, 35.8382616], [-96.3905315, 35.8382617], [-96.3905307, 35.8383791], [-96.390508, 35.838379], [-96.3905076, 35.8384368], [-96.3904692, 35.8384367], [-96.3904689, 35.8384736]]]}, "properties": {"osm_id": 1052505383, "building": "yes", "name": "", "height": null, "height_m": null, "levels": null, "tract_id": "40037020900", "tract_name": "209", "tags": {"amenity": "bank", "building": "yes"}}}, {"type": "Feature", "geometry": {"type": "Polygon", "coordinates": [[[-96.3927743, 35.8332361], [-96.3927761, 35.8330207], [-96.3931326, 35.8330226], [-96.3931318, 35.8331212], [-96.3931541, 35.8331213], [-96.3931531, 35.8332382], [-96.3927743, 35.8332361]]]}, "properties": {"osm_id": 1059054141, "building": "yes", "name": "", "height": null, "height_m": null, "levels": null, "tract_id": "40037020900", "tract_name": "209", "tags": {"addr:city": "Bristow", "addr:housenumber": "139", "addr:postcode": "74010", "addr:state": "OK", "addr:street": "West 6th Avenue", "building": "yes", "telecom": "exchange"}}}, {"type": "Feature", "geometry": {"type": "Polygon", "coordinates": [[[-96.4488, 35.8296808], [-96.4487989, 35.8296459], [-96.4487094, 35.8296473], [-96.4487105, 35.8296845], [-96.4488, 35.8296808]]]}, "properties": {"osm_id": 1092772429, "building": "yes", "name": "", "height": null, "height_m": null, "levels": null, "tract_id": "40037020900", "tract_name": "209", "tags": {"building": "yes"}}}, {"type": "Feature", "geometry": {"type": "Polygon", "coordinates": [[[-96.3820823, 35.8496753], [-96.3821521, 35.8496735], [-96.3821505, 35.8496344], [-96.3820807, 35.8496362], [-96.3820823, 35.8496753]]]}, "properties": {"osm_id": 1095646619, "building": "yes", "name": "", "height": null, "height_m": null, "levels": null, "tract_id": "40037020900", "tract_name": "209", "tags": {"building": "yes"}}}, {"type": "Feature", "geometry": {"type": "Polygon", "coordinates": [[[-96.4047492, 35.8228264], [-96.4047458, 35.8231953], [-96.404955, 35.8231966], [-96.4049584, 35.8228277], [-96.4047492, 35.8228264]]]}, "properties": {"osm_id": 1148105691, "building": "yes", "name": "", "height": null, "height_m": null, "levels": null, "tract_id": "40037020900", "tract_name": "209", "tags": {"building": "yes", "source": "microsoft/BuildingFootprints"}}}, {"type": "Feature", "geometry": {"type": "Polygon", "coordinates": [[[-96.4042827, 35.8231221], [-96.404052, 35.8233302], [-96.4042077, 35.8234437], [-96.4044384, 35.8232357], [-96.4042827, 35.8231221]]]}, "properties": {"osm_id": 1148105692, "building": "yes", "name": "", "height": null, "height_m": null, "levels": null, "tract_id": "40037020900", "tract_name": "209", "tags": {"building": "yes", "source": "microsoft/BuildingFootprints"}}}, {"type": "Feature", "geometry": {"type": "Polygon", "coordinates": [[[-96.4040011, 35.8224711], [-96.4041108, 35.8225474], [-96.404333, 35.8223373], [-96.4042233, 35.822261], [-96.4040011, 35.8224711]]]}, "properties": {"osm_id": 1148105693, "building": "yes", "name": "", "height": null, "height_m": null, "levels": null, "tract_id": "40037020900", "tract_name": "209", "tags": {"building": "yes", "source": "microsoft/BuildingFootprints"}}}, {"type": "Feature", "geometry": {"type": "Polygon", "coordinates": [[[-96.4035342, 35.822732], [-96.4037302, 35.8228777], [-96.4038211, 35.8227974], [-96.4035734, 35.8226132], [-96.4034945, 35.8226829], [-96.4034552, 35.8226537], [-96.4033937, 35.822708], [-96.4034848, 35.8227757], [-96.4035342, 35.822732]]]}, "properties": {"osm_id": 1148105694, "building": "yes", "name": "", "height": null, "height_m": null, "levels": null, "tract_id": "40037020900", "tract_name": "209", "tags": {"building": "yes", "source": "microsoft/BuildingFootprints"}}}, {"type": "Feature", "geometry": {"type": "Polygon", "coordinates": [[[-96.4033376, 35.8229544], [-96.4032851, 35.822994], [-96.4033814, 35.8230779], [-96.4034339, 35.8230384], [-96.4033376, 35.8229544]]]}, "properties": {"osm_id": 1148105695, "building": "yes", "name": "", "height": null, "height_m": null, "levels": null, "tract_id": "40037020900", "tract_name": "209", "tags": {"building": "yes", "source": "microsoft/BuildingFootprints"}}}, {"type": "Feature", "geometry": {"type": "Polygon", "coordinates": [[[-96.4034983, 35.8231028], [-96.4034434, 35.8230556], [-96.4033952, 35.8230925], [-96.4034501, 35.8231397], [-96.4034983, 35.8231028]]]}, "properties": {"osm_id": 1148105696, "building": "yes", "name": "", "height": null, "height_m": null, "levels": null, "tract_id": "40037020900", "tract_name": "209", "tags": {"building": "yes", "source": "microsoft/BuildingFootprints"}}}, {"type": "Feature", "geometry": {"type": "Polygon", "coordinates": [[[-96.4030809, 35.8236111], [-96.4027849, 35.8234111], [-96.4026457, 35.8235466], [-96.4026306, 35.8235364], [-96.4025878, 35.823578], [-96.4028989, 35.8237882], [-96.4030809, 35.8236111]]]}, "properties": {"osm_id": 1148105697, "building": "yes", "name": "", "height": null, "height_m": null, "levels": null, "tract_id": "40037020900", "tract_name": "209", "tags": {"building": "yes", "source": "microsoft/BuildingFootprints"}}}, {"type": "Feature", "geometry": {"type": "Polygon", "coordinates": [[[-96.4043655, 35.8221613], [-96.4045001, 35.8222609], [-96.4046251, 35.8221498], [-96.4045637, 35.8221043], [-96.4045094, 35.8221525], [-96.4044362, 35.8220984], [-96.4043655, 35.8221613]]]}, "properties": {"osm_id": 1148105698, "building": "yes", "name": "", "height": null, "height_m": null, "levels": null, "tract_id": "40037020900", "tract_name": "209", "tags": {"building": "yes", "source": "microsoft/BuildingFootprints"}}}, {"type": "Feature", "geometry": {"type": "Polygon", "coordinates": [[[-96.4049024, 35.8218639], [-96.4048019, 35.821778], [-96.4044876, 35.8220196], [-96.404588, 35.8221055], [-96.4049024, 35.8218639]]]}, "properties": {"osm_id": 1148105699, "building": "yes", "name": "", "height": null, "height_m": null, "levels": null, "tract_id": "40037020900", "tract_name": "209", "tags": {"building": "yes", "source": "microsoft/BuildingFootprints"}}}, {"type": "Feature", "geometry": {"type": "Polygon", "coordinates": [[[-96.4049411, 35.8217704], [-96.4049875, 35.8217346], [-96.4049281, 35.821684], [-96.4048817, 35.8217199], [-96.4049411, 35.8217704]]]}, "properties": {"osm_id": 1148105700, "building": "yes", "name": "", "height": null, "height_m": null, "levels": null, "tract_id": "40037020900", "tract_name": "209", "tags": {"building": "yes", "source": "microsoft/BuildingFootprints"}}}, {"type": "Feature", "geometry": {"type": "Polygon", "coordinates": [[[-96.4021627, 35.8234986], [-96.4017309, 35.8237746], [-96.4018112, 35.8238571], [-96.4018393, 35.8238392], [-96.4018711, 35.823872], [-96.4022748, 35.823614], [-96.4021627, 35.8234986]]]}, "properties": {"osm_id": 1148105707, "building": "yes", "name": "", "height": null, "height_m": null, "levels": null, "tract_id": "40037020900", "tract_name": "209", "tags": {"building": "yes", "source": "microsoft/BuildingFootprints"}}}, {"type": "Feature", "geometry": {"type": "Polygon", "coordinates": [[[-96.4017347, 35.8247688], [-96.4011174, 35.8240988], [-96.4009711, 35.8241874], [-96.4015884, 35.8248574], [-96.4017347, 35.8247688]]]}, "properties": {"osm_id": 1148105708, "building": "yes", "name": "", "height": null, "height_m": null, "levels": null, "tract_id": "40037020900", "tract_name": "209", "tags": {"building": "yes", "source": "microsoft/BuildingFootprints"}}}, {"type": "Feature", "geometry": {"type": "Polygon", "coordinates": [[[-96.4015296, 35.8249932], [-96.400906, 35.8243311], [-96.4008349, 35.8243752], [-96.4014585, 35.8250372], [-96.4015296, 35.8249932]]]}, "properties": {"osm_id": 1148105709, "building": "yes", "name": "", "height": null, "height_m": null, "levels": null, "tract_id": "40037020900", "tract_name": "209", "tags": {"building": "yes", "source": "microsoft/BuildingFootprints"}}}, {"type": "Feature", "geometry": {"type": "Polygon", "coordinates": [[[-96.4006424, 35.8245011], [-96.401268, 35.8251623], [-96.4014031, 35.8250783], [-96.4007775, 35.8244171], [-96.4006424, 35.8245011]]]}, "properties": {"osm_id": 1148105710, "building": "yes", "name": "", "height": null, "height_m": null, "levels": null, "tract_id": "40037020900", "tract_name": "209", "tags": {"building": "yes", "source": "microsoft/BuildingFootprints"}}}, {"type": "Feature", "geometry": {"type": "Polygon", "coordinates": [[[-96.4006399, 35.8256414], [-96.400759, 35.8256416], [-96.4007612, 35.8248793], [-96.400642, 35.8248791], [-96.4006399, 35.8256414]]]}, "properties": {"osm_id": 1148105711, "building": "yes", "name": "", "height": null, "height_m": null, "levels": null, "tract_id": "40037020900", "tract_name": "209", "tags": {"building": "yes", "source": "microsoft/BuildingFootprints"}}}, {"type": "Feature", "geometry": {"type": "Polygon", "coordinates": [[[-96.400596, 35.8245847], [-96.40025, 35.8245829], [-96.4002494, 35.8246546], [-96.4005954, 35.8246565], [-96.400596, 35.8245847]]]}, "properties": {"osm_id": 1148105712, "building": "yes", "name": "", "height": null, "height_m": null, "levels": null, "tract_id": "40037020900", "tract_name": "209", "tags": {"building": "yes", "source": "microsoft/BuildingFootprints"}}}, {"type": "Feature", "geometry": {"type": "Polygon", "coordinates": [[[-96.4000914, 35.8252107], [-96.3998342, 35.8252178], [-96.3998372, 35.8252895], [-96.4000944, 35.8252824], [-96.4000914, 35.8252107]]]}, "properties": {"osm_id": 1148105713, "building": "yes", "name": "", "height": null, "height_m": null, "levels": null, "tract_id": "40037020900", "tract_name": "209", "tags": {"building": "yes", "source": "microsoft/BuildingFootprints"}}}, {"type": "Feature", "geometry": {"type": "Polygon", "coordinates": [[[-96.40005, 35.824773], [-96.400095, 35.824816], [-96.400199, 35.824745], [-96.400154, 35.824702], [-96.40005, 35.824773]]]}, "properties": {"osm_id": 1148105714, "building": "yes", "name": "", "height": null, "height_m": null, "levels": null, "tract_id": "40037020900", "tract_name": "209", "tags": {"building": "yes", "source": "microsoft/BuildingFootprints"}}}, {"type": "Feature", "geometry": {"type": "Polygon", "coordinates": [[[-96.3999453, 35.8256886], [-96.3999405, 35.8258527], [-96.4000504, 35.8258548], [-96.4000553, 35.8256907], [-96.3999453, 35.8256886]]]}, "properties": {"osm_id": 1148105715, "building": "yes", "name": "", "height": null, "height_m": null, "levels": null, "tract_id": "40037020900", "tract_name": "209", "tags": {"building": "yes", "source": "microsoft/BuildingFootprints"}}}, {"type": "Feature", "geometry": {"type": "Polygon", "coordinates": [[[-96.4017062, 35.8263699], [-96.4017642, 35.8263349], [-96.4017206, 35.8262873], [-96.4018069, 35.8262352], [-96.4017389, 35.826161], [-96.4015944, 35.8262481], [-96.4017062, 35.8263699]]]}, "properties": {"osm_id": 1148105716, "building": "yes", "name": "", "height": null, "height_m": null, "levels": null, "tract_id": "40037020900", "tract_name": "209", "tags": {"building": "yes", "source": "microsoft/BuildingFootprints"}}}, {"type": "Feature", "geometry": {"type": "Polygon", "coordinates": [[[-96.4017994, 35.8261481], [-96.4018708, 35.826217], [-96.4019992, 35.8261296], [-96.4019279, 35.8260607], [-96.4017994, 35.8261481]]]}, "properties": {"osm_id": 1148105717, "building": "yes", "name": "", "height": null, "height_m": null, "levels": null, "tract_id": "40037020900", "tract_name": "209", "tags": {"building": "yes", "source": "microsoft/BuildingFootprints"}}}, {"type": "Feature", "geometry": {"type": "Polygon", "coordinates": [[[-96.4020323, 35.8260387], [-96.4020707, 35.8260809], [-96.4021747, 35.8260185], [-96.4020759, 35.8259103], [-96.4019453, 35.8259887], [-96.4020056, 35.8260547], [-96.4020323, 35.8260387]]]}, "properties": {"osm_id": 1148105718, "building": "yes", "name": "", "height": null, "height_m": null, "levels": null, "tract_id": "40037020900", "tract_name": "209", "tags": {"building": "yes", "source": "microsoft/BuildingFootprints"}}}, {"type": "Feature", "geometry": {"type": "Polygon", "coordinates": [[[-96.402134, 35.8259022], [-96.4022157, 35.825972], [-96.4023278, 35.8258858], [-96.4022461, 35.825816], [-96.402134, 35.8259022]]]}, "properties": {"osm_id": 1148105719, "building": "yes", "name": "", "height": null, "height_m": null, "levels": null, "tract_id": "40037020900", "tract_name": "209", "tags": {"building": "yes", "source": "microsoft/BuildingFootprints"}}}, {"type": "Feature", "geometry": {"type": "Polygon", "coordinates": [[[-96.4024171, 35.8262992], [-96.4024963, 35.8262412], [-96.4024264, 35.8261784], [-96.4022595, 35.8263006], [-96.4023716, 35.8264012], [-96.4024592, 35.826337], [-96.4024171, 35.8262992]]]}, "properties": {"osm_id": 1148105720, "building": "yes", "name": "", "height": null, "height_m": null, "levels": null, "tract_id": "40037020900", "tract_name": "209", "tags": {"building": "yes", "source": "microsoft/BuildingFootprints"}}}, {"type": "Feature", "geometry": {"type": "Polygon", "coordinates": [[[-96.4021117, 35.8265419], [-96.4021611, 35.8264973], [-96.4022345, 35.8265506], [-96.4023099, 35.8264824], [-96.402176, 35.8263851], [-96.4020513, 35.826498], [-96.4021117, 35.8265419]]]}, "properties": {"osm_id": 1148105721, "building": "yes", "name": "", "height": null, "height_m": null, "levels": null, "tract_id": "40037020900", "tract_name": "209", "tags": {"building": "yes", "source": "microsoft/BuildingFootprints"}}}, {"type": "Feature", "geometry": {"type": "Polygon", "coordinates": [[[-96.4019458, 35.8267442], [-96.4021003, 35.8267461], [-96.4021022, 35.8266461], [-96.4021586, 35.8266468], [-96.4021594, 35.8266021], [-96.4020039, 35.8266001], [-96.4020026, 35.8266654], [-96.4019473, 35.8266647], [-96.4019458, 35.8267442]]]}, "properties": {"osm_id": 1148105722, "building": "yes", "name": "", "height": null, "height_m": null, "levels": null, "tract_id": "40037020900", "tract_name": "209", "tags": {"building": "yes", "source": "microsoft/BuildingFootprints"}}}, {"type": "Feature", "geometry": {"type": "Polygon", "coordinates": [[[-96.4015436, 35.826314], [-96.4014172, 35.8263885], [-96.401472, 35.8264497], [-96.4015229, 35.8264197], [-96.4015727, 35.8264752], [-96.4016481, 35.8264307], [-96.4015436, 35.826314]]]}, "properties": {"osm_id": 1148105723, "building": "yes", "name": "", "height": null, "height_m": null, "levels": null, "tract_id": "40037020900", "tract_name": "209", "tags": {"building": "yes", "source": "microsoft/BuildingFootprints"}}}, {"type": "Feature", "geometry": {"type": "Polygon", "coordinates": [[[-96.4013453, 35.8262452], [-96.4011842, 35.8263343], [-96.4012403, 35.8264011], [-96.4012928, 35.8263721], [-96.4013365, 35.8264241], [-96.4014122, 35.8263822], [-96.4013754, 35.8263385], [-96.4014084, 35.8263203], [-96.4013453, 35.8262452]]]}, "properties": {"osm_id": 1148105724, "building": "yes", "name": "", "height": null, "height_m": null, "levels": null, "tract_id": "40037020900", "tract_name": "209", "tags": {"building": "yes", "source": "microsoft/BuildingFootprints"}}}, {"type": "Feature", "geometry": {"type": "Polygon", "coordinates": [[[-96.4004601, 35.8265656], [-96.40045, 35.826654], [-96.4005351, 35.8266604], [-96.4005285, 35.8267186], [-96.4006003, 35.826724], [-96.4006126, 35.8266162], [-96.4005647, 35.8266126], [-96.4005692, 35.8265737], [-96.4004601, 35.8265656]]]}, "properties": {"osm_id": 1148105725, "building": "yes", "name": "", "height": null, "height_m": null, "levels": null, "tract_id": "40037020900", "tract_name": "209", "tags": {"building": "yes", "source": "microsoft/BuildingFootprints"}}}, {"type": "Feature", "geometry": {"type": "Polygon", "coordinates": [[[-96.4009239, 35.826664], [-96.4009598, 35.8266309], [-96.4008917, 35.8265824], [-96.4007986, 35.8266683], [-96.4009363, 35.8267664], [-96.4009935, 35.8267136], [-96.4009239, 35.826664]]]}, "properties": {"osm_id": 1148105726, "building": "yes", "name": "", "height": null, "height_m": null, "levels": null, "tract_id": "40037020900", "tract_name": "209", "tags": {"building": "yes", "source": "microsoft/BuildingFootprints"}}}, {"type": "Feature", "geometry": {"type": "Polygon", "coordinates": [[[-96.4015506, 35.8268782], [-96.4015635, 35.8268204], [-96.4015921, 35.8268246], [-96.4016165, 35.8267151], [-96.4015421, 35.8267042], [-96.4015252, 35.82678], [-96.4014074, 35.8267628], [-96.401382, 35.8268765], [-96.4014677, 35.826889], [-96.4014727, 35.8268668], [-96.4015506, 35.8268782]]]}, "properties": {"osm_id": 1148105727, "building": "yes", "name": "", "height": null, "height_m": null, "levels": null, "tract_id": "40037020900", "tract_name": "209", "tags": {"building": "yes", "source": "microsoft/BuildingFootprints"}}}, {"type": "Feature", "geometry": {"type": "Polygon", "coordinates": [[[-96.4015703, 35.826902], [-96.4014416, 35.8269007], [-96.401439, 35.8270638], [-96.401616, 35.8270656], [-96.4016169, 35.827009], [-96.4015686, 35.8270086], [-96.4015703, 35.826902]]]}, "properties": {"osm_id": 1148105728, "building": "yes", "name": "", "height": null, "height_m": null, "levels": null, "tract_id": "40037020900", "tract_name": "209", "tags": {"building": "yes", "source": "microsoft/BuildingFootprints"}}}, {"type": "Feature", "geometry": {"type": "Polygon", "coordinates": [[[-96.4010085, 35.8271515], [-96.4008503, 35.8271506], [-96.4008492, 35.8272714], [-96.4009002, 35.8272717], [-96.4008996, 35.8273423], [-96.4008218, 35.8273418], [-96.4008212, 35.8274114], [-96.4009017, 35.8274119], [-96.4009019, 35.8273836], [-96.4010092, 35.8273842], [-96.4010097, 35.8273255], [-96.4010553, 35.8273258], [-96.4010557, 35.8272779], [-96.4010074, 35.8272776], [-96.4010085, 35.8271515]]]}, "properties": {"osm_id": 1148105729, "building": "yes", "name": "", "height": null, "height_m": null, "levels": null, "tract_id": "40037020900", "tract_name": "209", "tags": {"building": "yes", "source": "microsoft/BuildingFootprints"}}}, {"type": "Feature", "geometry": {"type": "Polygon", "coordinates": [[[-96.4004642, 35.827147], [-96.4003462, 35.8271485], [-96.4003484, 35.827268], [-96.4004664, 35.8272666], [-96.4004642, 35.827147]]]}, "properties": {"osm_id": 1148105730, "building": "yes", "name": "", "height": null, "height_m": null, "levels": null, "tract_id": "40037020900", "tract_name": "209", "tags": {"building": "yes", "source": "microsoft/BuildingFootprints"}}}, {"type": "Feature", "geometry": {"type": "Polygon", "coordinates": [[[-96.4004662, 35.8268828], [-96.4003258, 35.8268847], [-96.4003279, 35.826989], [-96.4003933, 35.8269882], [-96.4003936, 35.8270066], [-96.4004687, 35.8270056], [-96.4004662, 35.8268828]]]}, "properties": {"osm_id": 1148105731, "building": "yes", "name": "", "height": null, "height_m": null, "levels": null, "tract_id": "40037020900", "tract_name": "209", "tags": {"building": "yes", "source": "microsoft/BuildingFootprints"}}}, {"type": "Feature", "geometry": {"type": "Polygon", "coordinates": [[[-96.3996361, 35.8267893], [-96.3996389, 35.8269034], [-96.3999285, 35.8268987], [-96.3999257, 35.8267846], [-96.3996361, 35.8267893]]]}, "properties": {"osm_id": 1148105732, "building": "yes", "name": "", "height": null, "height_m": null, "levels": null, "tract_id": "40037020900", "tract_name": "209", "tags": {"building": "yes", "source": "microsoft/BuildingFootprints"}}}, {"type": "Feature", "geometry": {"type": "Polygon", "coordinates": [[[-96.4003137, 35.8275358], [-96.4004263, 35.8275377], [-96.4004294, 35.8274159], [-96.4003168, 35.827414], [-96.4003137, 35.8275358]]]}, "properties": {"osm_id": 1148105733, "building": "yes", "name": "", "height": null, "height_m": null, "levels": null, "tract_id": "40037020900", "tract_name": "209", "tags": {"building": "yes", "source": "microsoft/BuildingFootprints"}}}, {"type": "Feature", "geometry": {"type": "Polygon", "coordinates": [[[-96.4006016, 35.8274122], [-96.4005148, 35.8274117], [-96.400514, 35.8274998], [-96.4006009, 35.8275002], [-96.4006016, 35.8274122]]]}, "properties": {"osm_id": 1148105734, "building": "yes", "name": "", "height": null, "height_m": null, "levels": null, "tract_id": "40037020900", "tract_name": "209", "tags": {"building": "yes", "source": "microsoft/BuildingFootprints"}}}, {"type": "Feature", "geometry": {"type": "Polygon", "coordinates": [[[-96.4008998, 35.8276507], [-96.4010088, 35.8276515], [-96.4010096, 35.8275764], [-96.4010402, 35.8275767], [-96.4010406, 35.8275452], [-96.4010084, 35.827545], [-96.4010094, 35.8274568], [-96.4009021, 35.827456], [-96.4008998, 35.8276507]]]}, "properties": {"osm_id": 1148105735, "building": "yes", "name": "", "height": null, "height_m": null, "levels": null, "tract_id": "40037020900", "tract_name": "209", "tags": {"building": "yes", "source": "microsoft/BuildingFootprints"}}}, {"type": "Feature", "geometry": {"type": "Polygon", "coordinates": [[[-96.4010128, 35.8278817], [-96.4008974, 35.8278829], [-96.4009014, 35.8281373], [-96.4010086, 35.8281362], [-96.4010074, 35.8280569], [-96.4010477, 35.8280565], [-96.401047, 35.8280118], [-96.4010148, 35.8280122], [-96.4010128, 35.8278817]]]}, "properties": {"osm_id": 1148105736, "building": "yes", "name": "", "height": null, "height_m": null, "levels": null, "tract_id": "40037020900", "tract_name": "209", "tags": {"building": "yes", "source": "microsoft/BuildingFootprints"}}}, {"type": "Feature", "geometry": {"type": "Polygon", "coordinates": [[[-96.4002027, 35.8280309], [-96.4002011, 35.8282223], [-96.400369, 35.8282232], [-96.4003696, 35.8281493], [-96.4003599, 35.8281492], [-96.4003603, 35.8281025], [-96.4002933, 35.8281022], [-96.4002939, 35.8280314], [-96.4002027, 35.8280309]]]}, "properties": {"osm_id": 1148105737, "building": "yes", "name": "", "height": null, "height_m": null, "levels": null, "tract_id": "40037020900", "tract_name": "209", "tags": {"building": "yes", "source": "microsoft/BuildingFootprints"}}}, {"type": "Feature", "geometry": {"type": "Polygon", "coordinates": [[[-96.4002747, 35.8278891], [-96.4003471, 35.8278884], [-96.4003454, 35.8277775], [-96.4002917, 35.827778], [-96.4002914, 35.8277585], [-96.400211, 35.8277593], [-96.400212, 35.8278245], [-96.4002737, 35.8278239], [-96.4002747, 35.8278891]]]}, "properties": {"osm_id": 1148105738, "building": "yes", "name": "", "height": null, "height_m": null, "levels": null, "tract_id": "40037020900", "tract_name": "209", "tags": {"building": "yes", "source": "microsoft/BuildingFootprints"}}}, {"type": "Feature", "geometry": {"type": "Polygon", "coordinates": [[[-96.3994444, 35.8282183], [-96.3998708, 35.8282143], [-96.3998688, 35.828073], [-96.3997079, 35.8280745], [-96.3997089, 35.8281452], [-96.3994434, 35.8281477], [-96.3994444, 35.8282183]]]}, "properties": {"osm_id": 1148105739, "building": "yes", "name": "", "height": null, "height_m": null, "levels": null, "tract_id": "40037020900", "tract_name": "209", "tags": {"building": "yes", "source": "microsoft/BuildingFootprints"}}}, {"type": "Feature", "geometry": {"type": "Polygon", "coordinates": [[[-96.3995138, 35.8285227], [-96.3995123, 35.8286054], [-96.3997027, 35.8286077], [-96.3997012, 35.8286913], [-96.3997467, 35.8286919], [-96.3997464, 35.8287126], [-96.3998279, 35.8287135], [-96.3998293, 35.8286396], [-96.3998186, 35.8286395], [-96.3998201, 35.8285569], [-96.3997492, 35.828556], [-96.3997506, 35.8284843], [-96.3996996, 35.8284837], [-96.3996989, 35.828525], [-96.3995138, 35.8285227]]]}, "properties": {"osm_id": 1148105740, "building": "yes", "name": "", "height": null, "height_m": null, "levels": null, "tract_id": "40037020900", "tract_name": "209", "tags": {"building": "yes", "source": "microsoft/BuildingFootprints"}}}, {"type": "Feature", "geometry": {"type": "Polygon", "coordinates": [[[-96.4001906, 35.8289842], [-96.4003181, 35.8289819], [-96.400316, 35.8289036], [-96.4001885, 35.8289059], [-96.4001906, 35.8289842]]]}, "properties": {"osm_id": 1148105942, "building": "yes", "name": "", "height": null, "height_m": null, "levels": null, "tract_id": "40037020900", "tract_name": "209", "tags": {"building": "yes", "source": "microsoft/BuildingFootprints"}}}, {"type": "Feature", "geometry": {"type": "Polygon", "coordinates": [[[-96.4003257, 35.8288562], [-96.4003213, 35.8287215], [-96.4002141, 35.8287238], [-96.4002185, 35.8288585], [-96.4003257, 35.8288562]]]}, "properties": {"osm_id": 1148105943, "building": "yes", "name": "", "height": null, "height_m": null, "levels": null, "tract_id": "40037020900", "tract_name": "209", "tags": {"building": "yes", "source": "microsoft/BuildingFootprints"}}}, {"type": "Feature", "geometry": {"type": "Polygon", "coordinates": [[[-96.4001973, 35.8286684], [-96.4003485, 35.8286644], [-96.4003453, 35.8285862], [-96.4001941, 35.8285902], [-96.4001973, 35.8286684]]]}, "properties": {"osm_id": 1148105944, "building": "yes", "name": "", "height": null, "height_m": null, "levels": null, "tract_id": "40037020900", "tract_name": "209", "tags": {"building": "yes", "source": "microsoft/BuildingFootprints"}}}, {"type": "Feature", "geometry": {"type": "Polygon", "coordinates": [[[-96.3991508, 35.8287031], [-96.3993025, 35.8286998], [-96.3993019, 35.8286813], [-96.3993769, 35.8286797], [-96.3993747, 35.8286102], [-96.3991479, 35.8286151], [-96.3991508, 35.8287031]]]}, "properties": {"osm_id": 1148105945, "building": "yes", "name": "", "height": null, "height_m": null, "levels": null, "tract_id": "40037020900", "tract_name": "209", "tags": {"building": "yes", "source": "microsoft/BuildingFootprints"}}}, {"type": "Feature", "geometry": {"type": "Polygon", "coordinates": [[[-96.3988752, 35.8286151], [-96.3988767, 35.8287031], [-96.3989985, 35.8287018], [-96.3989997, 35.8287736], [-96.3990844, 35.8287726], [-96.3990831, 35.8286965], [-96.399044, 35.828697], [-96.3990426, 35.8286132], [-96.3988752, 35.8286151]]]}, "properties": {"osm_id": 1148105946, "building": "yes", "name": "", "height": null, "height_m": null, "levels": null, "tract_id": "40037020900", "tract_name": "209", "tags": {"building": "yes", "source": "microsoft/BuildingFootprints"}}}, {"type": "Feature", "geometry": {"type": "Polygon", "coordinates": [[[-96.3992004, 35.8291324], [-96.3992012, 35.8290889], [-96.3992334, 35.8290893], [-96.3992342, 35.8290414], [-96.3991994, 35.829041], [-96.3992006, 35.8289725], [-96.3991013, 35.8289714], [-96.3991003, 35.829029], [-96.3990762, 35.8290287], [-96.399075, 35.8290961], [-96.3990375, 35.8290957], [-96.3990365, 35.8291501], [-96.3991062, 35.8291509], [-96.3991066, 35.8291313], [-96.3992004, 35.8291324]]]}, "properties": {"osm_id": 1148105947, "building": "yes", "name": "", "height": null, "height_m": null, "levels": null, "tract_id": "40037020900", "tract_name": "209", "tags": {"building": "yes", "source": "microsoft/BuildingFootprints"}}}, {"type": "Feature", "geometry": {"type": "Polygon", "coordinates": [[[-96.3996009, 35.8290941], [-96.3998315, 35.8290912], [-96.3998296, 35.8289945], [-96.399599, 35.8289974], [-96.3996009, 35.8290941]]]}, "properties": {"osm_id": 1148105948, "building": "yes", "name": "", "height": null, "height_m": null, "levels": null, "tract_id": "40037020900", "tract_name": "209", "tags": {"building": "yes", "source": "microsoft/BuildingFootprints"}}}, {"type": "Feature", "geometry": {"type": "Polygon", "coordinates": [[[-96.3990257, 35.8293359], [-96.3991973, 35.8293342], [-96.3991967, 35.8292907], [-96.3992545, 35.8292902], [-96.3992529, 35.8291793], [-96.3991012, 35.8291808], [-96.3991025, 35.8292699], [-96.3990247, 35.8292707], [-96.3990257, 35.8293359]]]}, "properties": {"osm_id": 1148105949, "building": "yes", "name": "", "height": null, "height_m": null, "levels": null, "tract_id": "40037020900", "tract_name": "209", "tags": {"building": "yes", "source": "microsoft/BuildingFootprints"}}}, {"type": "Feature", "geometry": {"type": "Polygon", "coordinates": [[[-96.3992408, 35.8295123], [-96.3992426, 35.8294352], [-96.3992197, 35.8294348], [-96.3992207, 35.8293902], [-96.3991027, 35.8293884], [-96.3990999, 35.8295102], [-96.3992408, 35.8295123]]]}, "properties": {"osm_id": 1148105950, "building": "yes", "name": "", "height": null, "height_m": null, "levels": null, "tract_id": "40037020900", "tract_name": "209", "tags": {"building": "yes", "source": "microsoft/BuildingFootprints"}}}, {"type": "Feature", "geometry": {"type": "Polygon", "coordinates": [[[-96.3990915, 35.8295716], [-96.3990904, 35.8296314], [-96.3991268, 35.8296318], [-96.3991252, 35.8297264], [-96.3992163, 35.8297274], [-96.399217, 35.8296915], [-96.3992599, 35.829692], [-96.3992619, 35.8295735], [-96.3990915, 35.8295716]]]}, "properties": {"osm_id": 1148105951, "building": "yes", "name": "", "height": null, "height_m": null, "levels": null, "tract_id": "40037020900", "tract_name": "209", "tags": {"building": "yes", "source": "microsoft/BuildingFootprints"}}}, {"type": "Feature", "geometry": {"type": "Polygon", "coordinates": [[[-96.3998084, 35.8295463], [-96.3996997, 35.8295454], [-96.3996989, 35.8296052], [-96.3996292, 35.8296046], [-96.399628, 35.8296916], [-96.3998065, 35.8296931], [-96.3998084, 35.8295463]]]}, "properties": {"osm_id": 1148105952, "building": "yes", "name": "", "height": null, "height_m": null, "levels": null, "tract_id": "40037020900", "tract_name": "209", "tags": {"building": "yes", "source": "microsoft/BuildingFootprints"}}}, {"type": "Feature", "geometry": {"type": "Polygon", "coordinates": [[[-96.4004348, 35.8296606], [-96.4002363, 35.8296586], [-96.400235, 35.8297477], [-96.4003261, 35.8297486], [-96.4003253, 35.829803], [-96.4003989, 35.8298037], [-96.4004003, 35.8297102], [-96.400434, 35.8297106], [-96.4004348, 35.8296606]]]}, "properties": {"osm_id": 1148105953, "building": "yes", "name": "", "height": null, "height_m": null, "levels": null, "tract_id": "40037020900", "tract_name": "209", "tags": {"building": "yes", "source": "microsoft/BuildingFootprints"}}}, {"type": "Feature", "geometry": {"type": "Polygon", "coordinates": [[[-96.4002186, 35.8296296], [-96.4004117, 35.8296317], [-96.400413, 35.8295535], [-96.4002199, 35.8295514], [-96.4002186, 35.8296296]]]}, "properties": {"osm_id": 1148105954, "building": "yes", "name": "", "height": null, "height_m": null, "levels": null, "tract_id": "40037020900", "tract_name": "209", "tags": {"building": "yes", "source": "microsoft/BuildingFootprints"}}}, {"type": "Feature", "geometry": {"type": "Polygon", "coordinates": [[[-96.399516, 35.8299514], [-96.3995064, 35.8303187], [-96.3995895, 35.8303202], [-96.3995885, 35.8303593], [-96.3997037, 35.8303613], [-96.3997048, 35.8303222], [-96.3997852, 35.8303236], [-96.3997889, 35.8301844], [-96.3998452, 35.8301854], [-96.3998473, 35.8301028], [-96.3997884, 35.8301018], [-96.3997922, 35.8299562], [-96.399516, 35.8299514]]]}, "properties": {"osm_id": 1148105955, "building": "church", "name": "", "height": null, "height_m": null, "levels": null, "tract_id": "40037020900", "tract_name": "209", "tags": {"building": "church", "source": "microsoft/BuildingFootprints"}}}, {"type": "Feature", "geometry": {"type": "Polygon", "coordinates": [[[-96.3989583, 35.8303779], [-96.398773, 35.8303748], [-96.398765, 35.8306887], [-96.3989504, 35.8306918], [-96.3989583, 35.8303779]]]}, "properties": {"osm_id": 1148105956, "building": "yes", "name": "", "height": null, "height_m": null, "levels": null, "tract_id": "40037020900", "tract_name": "209", "tags": {"building": "yes", "source": "microsoft/BuildingFootprints"}}}, {"type": "Feature", "geometry": {"type": "Polygon", "coordinates": [[[-96.4004566, 35.8308852], [-96.4004541, 35.8307895], [-96.4002464, 35.8307931], [-96.4002489, 35.8308887], [-96.4004566, 35.8308852]]]}, "properties": {"osm_id": 1148105957, "building": "yes", "name": "", "height": null, "height_m": null, "levels": null, "tract_id": "40037020900", "tract_name": "209", "tags": {"building": "yes", "source": "microsoft/BuildingFootprints"}}}, {"type": "Feature", "geometry": {"type": "Polygon", "coordinates": [[[-96.3999106, 35.8312051], [-96.3998168, 35.831203], [-96.3998207, 35.8310878], [-96.3997189, 35.8310855], [-96.3997126, 35.8312702], [-96.3999083, 35.8312746], [-96.3999106, 35.8312051]]]}, "properties": {"osm_id": 1148105958, "building": "yes", "name": "", "height": null, "height_m": null, "levels": null, "tract_id": "40037020900", "tract_name": "209", "tags": {"building": "yes", "source": "microsoft/BuildingFootprints"}}}, {"type": "Feature", "geometry": {"type": "Polygon", "coordinates": [[[-96.3991209, 35.8313066], [-96.3992268, 35.8313163], [-96.3992558, 35.831108], [-96.3992544, 35.8311079], [-96.3992588, 35.8310768], [-96.3991316, 35.8310651], [-96.3991222, 35.8311328], [-96.3991447, 35.8311349], [-96.3991209, 35.8313066]]]}, "properties": {"osm_id": 1148105959, "building": "yes", "name": "", "height": null, "height_m": null, "levels": null, "tract_id": "40037020900", "tract_name": "209", "tags": {"building": "yes", "source": "microsoft/BuildingFootprints"}}}, {"type": "Feature", "geometry": {"type": "Polygon", "coordinates": [[[-96.3996457, 35.8315658], [-96.3996068, 35.8315664], [-96.3996057, 35.8315164], [-96.3995118, 35.8315178], [-96.3995152, 35.8316667], [-96.3996091, 35.8316653], [-96.3996084, 35.831636], [-96.3996472, 35.8316354], [-96.3996457, 35.8315658]]]}, "properties": {"osm_id": 1148105960, "building": "yes", "name": "", "height": null, "height_m": null, "levels": null, "tract_id": "40037020900", "tract_name": "209", "tags": {"building": "yes", "source": "microsoft/BuildingFootprints"}}}, {"type": "Feature", "geometry": {"type": "Polygon", "coordinates": [[[-96.3997137, 35.8316895], [-96.3998008, 35.8316912], [-96.3998034, 35.8316054], [-96.3998758, 35.8316069], [-96.3998778, 35.8315395], [-96.3997183, 35.8315363], [-96.3997137, 35.8316895]]]}, "properties": {"osm_id": 1148105961, "building": "yes", "name": "", "height": null, "height_m": null, "levels": null, "tract_id": "40037020900", "tract_name": "209", "tags": {"building": "yes", "source": "microsoft/BuildingFootprints"}}}, {"type": "Feature", "geometry": {"type": "Polygon", "coordinates": [[[-96.4001622, 35.8316699], [-96.4001627, 35.8315938], [-96.4001184, 35.8315936], [-96.4001186, 35.8315599], [-96.4000583, 35.8315597], [-96.4000581, 35.8315945], [-96.3999454, 35.8315941], [-96.399945, 35.8316691], [-96.4001622, 35.8316699]]]}, "properties": {"osm_id": 1148105962, "building": "yes", "name": "", "height": null, "height_m": null, "levels": null, "tract_id": "40037020900", "tract_name": "209", "tags": {"building": "yes", "source": "microsoft/BuildingFootprints"}}}, {"type": "Feature", "geometry": {"type": "Polygon", "coordinates": [[[-96.400403, 35.8314224], [-96.4005478, 35.8314202], [-96.4005457, 35.8313311], [-96.4004009, 35.8313333], [-96.400403, 35.8314224]]]}, "properties": {"osm_id": 1148105963, "building": "yes", "name": "", "height": null, "height_m": null, "levels": null, "tract_id": "40037020900", "tract_name": "209", "tags": {"building": "yes", "source": "microsoft/BuildingFootprints"}}}, {"type": "Feature", "geometry": {"type": "Polygon", "coordinates": [[[-96.4005126, 35.8312621], [-96.4006011, 35.8312629], [-96.4006028, 35.8311411], [-96.4004432, 35.8311397], [-96.4004424, 35.8312006], [-96.4005134, 35.8312012], [-96.4005126, 35.8312621]]]}, "properties": {"osm_id": 1148105964, "building": "yes", "name": "", "height": null, "height_m": null, "levels": null, "tract_id": "40037020900", "tract_name": "209", "tags": {"building": "yes", "source": "microsoft/BuildingFootprints"}}}, {"type": "Feature", "geometry": {"type": "Polygon", "coordinates": [[[-96.3982912, 35.8311346], [-96.3982932, 35.8310454], [-96.3981042, 35.8310426], [-96.3981021, 35.8311317], [-96.3982912, 35.8311346]]]}, "properties": {"osm_id": 1148105965, "building": "yes", "name": "", "height": null, "height_m": null, "levels": null, "tract_id": "40037020900", "tract_name": "209", "tags": {"building": "yes", "source": "microsoft/BuildingFootprints"}}}, {"type": "Feature", "geometry": {"type": "Polygon", "coordinates": [[[-96.3979451, 35.831148], [-96.3979456, 35.8311784], [-96.3980194, 35.8311775], [-96.3980189, 35.8311492], [-96.3980671, 35.8311486], [-96.3980652, 35.8310443], [-96.3978479, 35.831047], [-96.3978499, 35.8311492], [-96.3979451, 35.831148]]]}, "properties": {"osm_id": 1148105966, "building": "yes", "name": "", "height": null, "height_m": null, "levels": null, "tract_id": "40037020900", "tract_name": "209", "tags": {"building": "yes", "source": "microsoft/BuildingFootprints"}}}, {"type": "Feature", "geometry": {"type": "Polygon", "coordinates": [[[-96.3982629, 35.8305299], [-96.3980523, 35.8305271], [-96.3980506, 35.8306151], [-96.3982611, 35.8306179], [-96.3982629, 35.8305299]]]}, "properties": {"osm_id": 1148105967, "building": "yes", "name": "", "height": null, "height_m": null, "levels": null, "tract_id": "40037020900", "tract_name": "209", "tags": {"building": "yes", "source": "microsoft/BuildingFootprints"}}}, {"type": "Feature", "geometry": {"type": "Polygon", "coordinates": [[[-96.3977099, 35.8306479], [-96.3977636, 35.8306489], [-96.3977641, 35.8306315], [-96.3978538, 35.8306332], [-96.3978591, 35.8304507], [-96.3977894, 35.8304493], [-96.3977907, 35.8304027], [-96.397717, 35.8304013], [-96.3977099, 35.8306479]]]}, "properties": {"osm_id": 1148105968, "building": "commercial", "name": "Creek County Health Department", "height": null, "height_m": null, "levels": null, "tract_id": "40037020900", "tract_name": "209", "tags": {"addr:city": "Bristow", "addr:housenumber": "408", "addr:postcode": "74010-2702", "addr:street": "West 4th Avenue", "amenity": "health_post", "building": "commercial", "fax": "+1 918 367 9727", "fixme": "Verify this is the correct building. I guessed where the address is.", "healthcare": "nurse", "name": "Creek County Health Department", "opening_hours": "Mo-Fr 08:00-17:00; PH off", "operator": "Oklahoma State Department of Health", "phone": "+1 918 367 3341", "source": "microsoft/BuildingFootprints", "website": "https://oklahoma.gov/health.html"}}}, {"type": "Feature", "geometry": {"type": "Polygon", "coordinates": [[[-96.3973294, 35.830614], [-96.3973272, 35.8305075], [-96.3971127, 35.8305103], [-96.3971148, 35.8306168], [-96.3973294, 35.830614]]]}, "properties": {"osm_id": 1148105969, "building": "yes", "name": "", "height": null, "height_m": null, "levels": null, "tract_id": "40037020900", "tract_name": "209", "tags": {"building": "yes", "source": "microsoft/BuildingFootprints"}}}, {"type": "Feature", "geometry": {"type": "Polygon", "coordinates": [[[-96.3973246, 35.8301219], [-96.3974184, 35.8301239], [-96.3974198, 35.8300804], [-96.3975055, 35.8300822], [-96.397508, 35.8300062], [-96.3973284, 35.8300024], [-96.3973246, 35.8301219]]]}, "properties": {"osm_id": 1148105970, "building": "yes", "name": "", "height": null, "height_m": null, "levels": null, "tract_id": "40037020900", "tract_name": "209", "tags": {"building": "yes", "source": "microsoft/BuildingFootprints"}}}, {"type": "Feature", "geometry": {"type": "Polygon", "coordinates": [[[-96.3977356, 35.8300124], [-96.3975774, 35.8300158], [-96.3975791, 35.8300648], [-96.3976314, 35.8300637], [-96.3976321, 35.8300854], [-96.3977379, 35.8300831], [-96.3977356, 35.8300124]]]}, "properties": {"osm_id": 1148105971, "building": "yes", "name": "", "height": null, "height_m": null, "levels": null, "tract_id": "40037020900", "tract_name": "209", "tags": {"building": "yes", "source": "microsoft/BuildingFootprints"}}}, {"type": "Feature", "geometry": {"type": "Polygon", "coordinates": [[[-96.3978827, 35.8300132], [-96.3977673, 35.8300118], [-96.3977651, 35.8301336], [-96.397816, 35.8301342], [-96.397817, 35.830083], [-96.3978813, 35.8300838], [-96.3978827, 35.8300132]]]}, "properties": {"osm_id": 1148105972, "building": "yes", "name": "", "height": null, "height_m": null, "levels": null, "tract_id": "40037020900", "tract_name": "209", "tags": {"building": "yes", "source": "microsoft/BuildingFootprints"}}}, {"type": "Feature", "geometry": {"type": "Polygon", "coordinates": [[[-96.3980721, 35.8300866], [-96.3980715, 35.8301139], [-96.398109, 35.8301144], [-96.3981111, 35.8300176], [-96.3979677, 35.8300156], [-96.3979662, 35.8300851], [-96.3980721, 35.8300866]]]}, "properties": {"osm_id": 1148105973, "building": "yes", "name": "", "height": null, "height_m": null, "levels": null, "tract_id": "40037020900", "tract_name": "209", "tags": {"building": "yes", "source": "microsoft/BuildingFootprints"}}}, {"type": "Feature", "geometry": {"type": "Polygon", "coordinates": [[[-96.3981611, 35.8300159], [-96.3981596, 35.8300898], [-96.3982749, 35.8300914], [-96.3982764, 35.8300174], [-96.3981611, 35.8300159]]]}, "properties": {"osm_id": 1148105974, "building": "yes", "name": "", "height": null, "height_m": null, "levels": null, "tract_id": "40037020900", "tract_name": "209", "tags": {"building": "yes", "source": "microsoft/BuildingFootprints"}}}, {"type": "Feature", "geometry": {"type": "Polygon", "coordinates": [[[-96.3985463, 35.8300146], [-96.3983292, 35.830011], [-96.3983264, 35.8301197], [-96.3985436, 35.8301233], [-96.3985463, 35.8300146]]]}, "properties": {"osm_id": 1148105975, "building": "yes", "name": "", "height": null, "height_m": null, "levels": null, "tract_id": "40037020900", "tract_name": "209", "tags": {"building": "yes", "source": "microsoft/BuildingFootprints"}}}, {"type": "Feature", "geometry": {"type": "Polygon", "coordinates": [[[-96.3986333, 35.8295805], [-96.398631, 35.8297], [-96.3987356, 35.8297014], [-96.3987379, 35.8295818], [-96.3986333, 35.8295805]]]}, "properties": {"osm_id": 1148105976, "building": "yes", "name": "", "height": null, "height_m": null, "levels": null, "tract_id": "40037020900", "tract_name": "209", "tags": {"building": "yes", "source": "microsoft/BuildingFootprints"}}}, {"type": "Feature", "geometry": {"type": "Polygon", "coordinates": [[[-96.398392, 35.8295495], [-96.3983866, 35.8296972], [-96.398475, 35.8296993], [-96.3984804, 35.8295516], [-96.398392, 35.8295495]]]}, "properties": {"osm_id": 1148105977, "building": "yes", "name": "", "height": null, "height_m": null, "levels": null, "tract_id": "40037020900", "tract_name": "209", "tags": {"building": "yes", "source": "microsoft/BuildingFootprints"}}}, {"type": "Feature", "geometry": {"type": "Polygon", "coordinates": [[[-96.3983308, 35.8296923], [-96.3983326, 35.8296358], [-96.3983594, 35.8296364], [-96.3983621, 35.8295494], [-96.3982736, 35.8295476], [-96.398274, 35.8295346], [-96.3981883, 35.8295328], [-96.3981834, 35.8296893], [-96.3983308, 35.8296923]]]}, "properties": {"osm_id": 1148105978, "building": "yes", "name": "", "height": null, "height_m": null, "levels": null, "tract_id": "40037020900", "tract_name": "209", "tags": {"building": "yes", "source": "microsoft/BuildingFootprints"}}}, {"type": "Feature", "geometry": {"type": "Polygon", "coordinates": [[[-96.3981206, 35.8296784], [-96.3981195, 35.8296045], [-96.3979774, 35.8296059], [-96.3979785, 35.8296798], [-96.3981206, 35.8296784]]]}, "properties": {"osm_id": 1148105979, "building": "yes", "name": "", "height": null, "height_m": null, "levels": null, "tract_id": "40037020900", "tract_name": "209", "tags": {"building": "yes", "source": "microsoft/BuildingFootprints"}}}, {"type": "Feature", "geometry": {"type": "Polygon", "coordinates": [[[-96.3978588, 35.8296066], [-96.397722, 35.8296084], [-96.3977234, 35.829678], [-96.3978602, 35.8296762], [-96.3978588, 35.8296066]]]}, "properties": {"osm_id": 1148105980, "building": "yes", "name": "", "height": null, "height_m": null, "levels": null, "tract_id": "40037020900", "tract_name": "209", "tags": {"building": "yes", "source": "microsoft/BuildingFootprints"}}}, {"type": "Feature", "geometry": {"type": "Polygon", "coordinates": [[[-96.3987413, 35.8291474], [-96.3987397, 35.829031], [-96.398603, 35.8290322], [-96.3986045, 35.8291486], [-96.3987413, 35.8291474]]]}, "properties": {"osm_id": 1148105981, "building": "yes", "name": "", "height": null, "height_m": null, "levels": null, "tract_id": "40037020900", "tract_name": "209", "tags": {"building": "yes", "source": "microsoft/BuildingFootprints"}}}, {"type": "Feature", "geometry": {"type": "Polygon", "coordinates": [[[-96.3983304, 35.8291172], [-96.3984966, 35.8291143], [-96.3984942, 35.829023], [-96.398328, 35.8290259], [-96.3983304, 35.8291172]]]}, "properties": {"osm_id": 1148105982, "building": "yes", "name": "", "height": null, "height_m": null, "levels": null, "tract_id": "40037020900", "tract_name": "209", "tags": {"building": "yes", "source": "microsoft/BuildingFootprints"}}}, {"type": "Feature", "geometry": {"type": "Polygon", "coordinates": [[[-96.3981121, 35.8290319], [-96.3981175, 35.8291252], [-96.3982834, 35.8291189], [-96.398278, 35.8290256], [-96.3981121, 35.8290319]]]}, "properties": {"osm_id": 1148105983, "building": "yes", "name": "", "height": null, "height_m": null, "levels": null, "tract_id": "40037020900", "tract_name": "209", "tags": {"building": "yes", "source": "microsoft/BuildingFootprints"}}}, {"type": "Feature", "geometry": {"type": "Polygon", "coordinates": [[[-96.3975967, 35.8291042], [-96.3978285, 35.829106], [-96.3978296, 35.8290113], [-96.3975978, 35.8290095], [-96.3975967, 35.8291042]]]}, "properties": {"osm_id": 1148105984, "building": "yes", "name": "", "height": null, "height_m": null, "levels": null, "tract_id": "40037020900", "tract_name": "209", "tags": {"building": "yes", "source": "microsoft/BuildingFootprints"}}}, {"type": "Feature", "geometry": {"type": "Polygon", "coordinates": [[[-96.3974953, 35.8290136], [-96.3974041, 35.8290151], [-96.3974069, 35.829126], [-96.3974981, 35.8291245], [-96.3974953, 35.8290136]]]}, "properties": {"osm_id": 1148105985, "building": "yes", "name": "", "height": null, "height_m": null, "levels": null, "tract_id": "40037020900", "tract_name": "209", "tags": {"building": "yes", "source": "microsoft/BuildingFootprints"}}}, {"type": "Feature", "geometry": {"type": "Polygon", "coordinates": [[[-96.3970784, 35.82898], [-96.3970775, 35.8290322], [-96.3970438, 35.8290318], [-96.397043, 35.8290731], [-96.3970687, 35.8290734], [-96.3970676, 35.8291321], [-96.39716, 35.8291332], [-96.3971627, 35.828981], [-96.3970784, 35.82898]]]}, "properties": {"osm_id": 1148105986, "building": "yes", "name": "", "height": null, "height_m": null, "levels": null, "tract_id": "40037020900", "tract_name": "209", "tags": {"building": "yes", "source": "microsoft/BuildingFootprints"}}}, {"type": "Feature", "geometry": {"type": "Polygon", "coordinates": [[[-96.3974104, 35.8296066], [-96.3974082, 35.8296793], [-96.3975825, 35.8296828], [-96.3975853, 35.8295871], [-96.3975183, 35.8295858], [-96.3975176, 35.8296087], [-96.3974104, 35.8296066]]]}, "properties": {"osm_id": 1148105987, "building": "yes", "name": "", "height": null, "height_m": null, "levels": null, "tract_id": "40037020900", "tract_name": "209", "tags": {"building": "yes", "source": "microsoft/BuildingFootprints"}}}, {"type": "Feature", "geometry": {"type": "Polygon", "coordinates": [[[-96.3973502, 35.8295744], [-96.3972591, 35.8295763], [-96.3972622, 35.8296741], [-96.3973534, 35.8296722], [-96.3973502, 35.8295744]]]}, "properties": {"osm_id": 1148105988, "building": "yes", "name": "", "height": null, "height_m": null, "levels": null, "tract_id": "40037020900", "tract_name": "209", "tags": {"building": "yes", "source": "microsoft/BuildingFootprints"}}}, {"type": "Feature", "geometry": {"type": "Polygon", "coordinates": [[[-96.3970756, 35.8296094], [-96.397075, 35.8296834], [-96.3971849, 35.8296839], [-96.3971855, 35.82961], [-96.3970756, 35.8296094]]]}, "properties": {"osm_id": 1148105989, "building": "yes", "name": "", "height": null, "height_m": null, "levels": null, "tract_id": "40037020900", "tract_name": "209", "tags": {"building": "yes", "source": "microsoft/BuildingFootprints"}}}, {"type": "Feature", "geometry": {"type": "Polygon", "coordinates": [[[-96.3972965, 35.8286517], [-96.3971383, 35.8286542], [-96.39714, 35.8287259], [-96.3972982, 35.8287235], [-96.3972965, 35.8286517]]]}, "properties": {"osm_id": 1148105990, "building": "yes", "name": "", "height": null, "height_m": null, "levels": null, "tract_id": "40037020900", "tract_name": "209", "tags": {"building": "yes", "source": "microsoft/BuildingFootprints"}}}, {"type": "Feature", "geometry": {"type": "Polygon", "coordinates": [[[-96.3974843, 35.8286501], [-96.3973245, 35.8286513], [-96.3973253, 35.8287219], [-96.3974851, 35.8287207], [-96.3974843, 35.8286501]]]}, "properties": {"osm_id": 1148105991, "building": "yes", "name": "", "height": null, "height_m": null, "levels": null, "tract_id": "40037020900", "tract_name": "209", "tags": {"building": "yes", "source": "microsoft/BuildingFootprints"}}}, {"type": "Feature", "geometry": {"type": "Polygon", "coordinates": [[[-96.3985528, 35.8286996], [-96.3987406, 35.8287016], [-96.3987419, 35.8286211], [-96.3987124, 35.8286208], [-96.398713, 35.8285817], [-96.3986567, 35.8285811], [-96.3986559, 35.8286267], [-96.398554, 35.8286257], [-96.3985528, 35.8286996]]]}, "properties": {"osm_id": 1148107597, "building": "yes", "name": "", "height": null, "height_m": null, "levels": null, "tract_id": "40037020900", "tract_name": "209", "tags": {"building": "yes", "source": "microsoft/BuildingFootprints"}}}, {"type": "Feature", "geometry": {"type": "Polygon", "coordinates": [[[-96.398325, 35.8287304], [-96.3984656, 35.8287324], [-96.3984661, 35.8287063], [-96.3985144, 35.8287069], [-96.3985169, 35.8285863], [-96.3984552, 35.8285855], [-96.3984543, 35.8286311], [-96.3983271, 35.8286294], [-96.398325, 35.8287304]]]}, "properties": {"osm_id": 1148107598, "building": "yes", "name": "", "height": null, "height_m": null, "levels": null, "tract_id": "40037020900", "tract_name": "209", "tags": {"building": "yes", "source": "microsoft/BuildingFootprints"}}}, {"type": "Feature", "geometry": {"type": "Polygon", "coordinates": [[[-96.3980515, 35.8287112], [-96.3982284, 35.8287146], [-96.3982322, 35.828582], [-96.3981223, 35.8285799], [-96.3981209, 35.8286277], [-96.3980539, 35.8286265], [-96.3980515, 35.8287112]]]}, "properties": {"osm_id": 1148107599, "building": "yes", "name": "", "height": null, "height_m": null, "levels": null, "tract_id": "40037020900", "tract_name": "209", "tags": {"building": "yes", "source": "microsoft/BuildingFootprints"}}}, {"type": "Feature", "geometry": {"type": "Polygon", "coordinates": [[[-96.3978923, 35.8287144], [-96.3979851, 35.8287131], [-96.3979819, 35.8285696], [-96.3978892, 35.8285709], [-96.3978923, 35.8287144]]]}, "properties": {"osm_id": 1148107600, "building": "yes", "name": "", "height": null, "height_m": null, "levels": null, "tract_id": "40037020900", "tract_name": "209", "tags": {"building": "yes", "source": "microsoft/BuildingFootprints"}}}, {"type": "Feature", "geometry": {"type": "Polygon", "coordinates": [[[-96.397821, 35.8285197], [-96.3977164, 35.8285205], [-96.3977185, 35.8286988], [-96.3978231, 35.828698], [-96.397821, 35.8285197]]]}, "properties": {"osm_id": 1148107601, "building": "yes", "name": "", "height": null, "height_m": null, "levels": null, "tract_id": "40037020900", "tract_name": "209", "tags": {"building": "yes", "source": "microsoft/BuildingFootprints"}}}, {"type": "Feature", "geometry": {"type": "Polygon", "coordinates": [[[-96.3984773, 35.8284157], [-96.3982869, 35.8284144], [-96.3982862, 35.8284818], [-96.3984766, 35.8284831], [-96.3984773, 35.8284157]]]}, "properties": {"osm_id": 1148107602, "building": "yes", "name": "", "height": null, "height_m": null, "levels": null, "tract_id": "40037020900", "tract_name": "209", "tags": {"building": "yes", "source": "microsoft/BuildingFootprints"}}}, {"type": "Feature", "geometry": {"type": "Polygon", "coordinates": [[[-96.3976088, 35.8284491], [-96.3974375, 35.8284426], [-96.397433, 35.8285207], [-96.397516, 35.8285239], [-96.3975168, 35.8285087], [-96.3976052, 35.828512], [-96.3976088, 35.8284491]]]}, "properties": {"osm_id": 1148107603, "building": "yes", "name": "", "height": null, "height_m": null, "levels": null, "tract_id": "40037020900", "tract_name": "209", "tags": {"building": "yes", "source": "microsoft/BuildingFootprints"}}}, {"type": "Feature", "geometry": {"type": "Polygon", "coordinates": [[[-96.3972918, 35.8284289], [-96.3971363, 35.828427], [-96.3971349, 35.8284997], [-96.3972905, 35.8285016], [-96.3972918, 35.8284289]]]}, "properties": {"osm_id": 1148107604, "building": "yes", "name": "", "height": null, "height_m": null, "levels": null, "tract_id": "40037020900", "tract_name": "209", "tags": {"building": "yes", "source": "microsoft/BuildingFootprints"}}}, {"type": "Feature", "geometry": {"type": "Polygon", "coordinates": [[[-96.3978497, 35.8280613], [-96.3977516, 35.8280599], [-96.3977487, 35.8281947], [-96.3978468, 35.8281961], [-96.3978497, 35.8280613]]]}, "properties": {"osm_id": 1148107605, "building": "yes", "name": "", "height": null, "height_m": null, "levels": null, "tract_id": "40037020900", "tract_name": "209", "tags": {"building": "yes", "source": "microsoft/BuildingFootprints"}}}, {"type": "Feature", "geometry": {"type": "Polygon", "coordinates": [[[-96.3978407, 35.8278965], [-96.3977523, 35.8278952], [-96.3977494, 35.8280157], [-96.3978379, 35.8280171], [-96.3978407, 35.8278965]]]}, "properties": {"osm_id": 1148107606, "building": "yes", "name": "", "height": null, "height_m": null, "levels": null, "tract_id": "40037020900", "tract_name": "209", "tags": {"building": "yes", "source": "microsoft/BuildingFootprints"}}}, {"type": "Feature", "geometry": {"type": "Polygon", "coordinates": [[[-96.3978445, 35.8277512], [-96.3977561, 35.82775], [-96.3977537, 35.8278597], [-96.3978422, 35.8278609], [-96.3978445, 35.8277512]]]}, "properties": {"osm_id": 1148107607, "building": "yes", "name": "", "height": null, "height_m": null, "levels": null, "tract_id": "40037020900", "tract_name": "209", "tags": {"building": "yes", "source": "microsoft/BuildingFootprints"}}}, {"type": "Feature", "geometry": {"type": "Polygon", "coordinates": [[[-96.3977528, 35.8275966], [-96.3978574, 35.8275974], [-96.3978579, 35.8275549], [-96.3978864, 35.8275551], [-96.3978873, 35.827478], [-96.3977542, 35.827477], [-96.3977528, 35.8275966]]]}, "properties": {"osm_id": 1148107608, "building": "yes", "name": "", "height": null, "height_m": null, "levels": null, "tract_id": "40037020900", "tract_name": "209", "tags": {"building": "yes", "source": "microsoft/BuildingFootprints"}}}, {"type": "Feature", "geometry": {"type": "Polygon", "coordinates": [[[-96.3974054, 35.8276869], [-96.3973035, 35.8276888], [-96.3973077, 35.8278311], [-96.3974096, 35.8278291], [-96.3974085, 35.8277934], [-96.3974354, 35.8277928], [-96.3974339, 35.827745], [-96.3974071, 35.8277456], [-96.3974054, 35.8276869]]]}, "properties": {"osm_id": 1148107609, "building": "yes", "name": "", "height": null, "height_m": null, "levels": null, "tract_id": "40037020900", "tract_name": "209", "tags": {"building": "yes", "source": "microsoft/BuildingFootprints"}}}, {"type": "Feature", "geometry": {"type": "Polygon", "coordinates": [[[-96.39728, 35.8276338], [-96.3973926, 35.827632], [-96.3973892, 35.8274907], [-96.3972766, 35.8274925], [-96.39728, 35.8276338]]]}, "properties": {"osm_id": 1148107610, "building": "yes", "name": "", "height": null, "height_m": null, "levels": null, "tract_id": "40037020900", "tract_name": "209", "tags": {"building": "yes", "source": "microsoft/BuildingFootprints"}}}, {"type": "Feature", "geometry": {"type": "Polygon", "coordinates": [[[-96.3972006, 35.8275066], [-96.3971363, 35.8275056], [-96.3971343, 35.8275904], [-96.3971987, 35.8275914], [-96.3972006, 35.8275066]]]}, "properties": {"osm_id": 1148107611, "building": "yes", "name": "", "height": null, "height_m": null, "levels": null, "tract_id": "40037020900", "tract_name": "209", "tags": {"building": "yes", "source": "microsoft/BuildingFootprints"}}}, {"type": "Feature", "geometry": {"type": "Polygon", "coordinates": [[[-96.3972935, 35.8280602], [-96.3972915, 35.8281373], [-96.3973398, 35.8281381], [-96.3973394, 35.8281533], [-96.3974477, 35.8281551], [-96.3974496, 35.828079], [-96.3973654, 35.8280776], [-96.3973658, 35.8280614], [-96.3972935, 35.8280602]]]}, "properties": {"osm_id": 1148107612, "building": "yes", "name": "", "height": null, "height_m": null, "levels": null, "tract_id": "40037020900", "tract_name": "209", "tags": {"building": "yes", "source": "microsoft/BuildingFootprints"}}}, {"type": "Feature", "geometry": {"type": "Polygon", "coordinates": [[[-96.3968017, 35.827489], [-96.3967987, 35.8276542], [-96.3969445, 35.827656], [-96.3969468, 35.827532], [-96.3968894, 35.8275313], [-96.3968902, 35.82749], [-96.3968017, 35.827489]]]}, "properties": {"osm_id": 1148107613, "building": "yes", "name": "", "height": null, "height_m": null, "levels": null, "tract_id": "40037020900", "tract_name": "209", "tags": {"building": "yes", "source": "microsoft/BuildingFootprints"}}}, {"type": "Feature", "geometry": {"type": "Polygon", "coordinates": [[[-96.3969501, 35.8279995], [-96.3968466, 35.8280009], [-96.3968498, 35.8281531], [-96.3969533, 35.8281517], [-96.3969501, 35.8279995]]]}, "properties": {"osm_id": 1148107614, "building": "yes", "name": "", "height": null, "height_m": null, "levels": null, "tract_id": "40037020900", "tract_name": "209", "tags": {"building": "yes", "source": "microsoft/BuildingFootprints"}}}, {"type": "Feature", "geometry": {"type": "Polygon", "coordinates": [[[-96.3970592, 35.8279669], [-96.3969627, 35.827965], [-96.3969606, 35.8280358], [-96.3970571, 35.8280376], [-96.3970592, 35.8279669]]]}, "properties": {"osm_id": 1148107615, "building": "yes", "name": "", "height": null, "height_m": null, "levels": null, "tract_id": "40037020900", "tract_name": "209", "tags": {"building": "yes", "source": "microsoft/BuildingFootprints"}}}, {"type": "Feature", "geometry": {"type": "Polygon", "coordinates": [[[-96.3979128, 35.8272224], [-96.3977225, 35.8272174], [-96.3977203, 35.8272739], [-96.3977658, 35.8272751], [-96.3977639, 35.8273229], [-96.3979086, 35.8273267], [-96.3979128, 35.8272224]]]}, "properties": {"osm_id": 1148107616, "building": "yes", "name": "", "height": null, "height_m": null, "levels": null, "tract_id": "40037020900", "tract_name": "209", "tags": {"building": "yes", "source": "microsoft/BuildingFootprints"}}}, {"type": "Feature", "geometry": {"type": "Polygon", "coordinates": [[[-96.3968657, 35.8271168], [-96.3968637, 35.8271995], [-96.3971024, 35.8272031], [-96.3971049, 35.8270922], [-96.3969012, 35.8270891], [-96.3969005, 35.8271174], [-96.3968657, 35.8271168]]]}, "properties": {"osm_id": 1148107617, "building": "yes", "name": "", "height": null, "height_m": null, "levels": null, "tract_id": "40037020900", "tract_name": "209", "tags": {"building": "yes", "source": "microsoft/BuildingFootprints"}}}, {"type": "Feature", "geometry": {"type": "Polygon", "coordinates": [[[-96.3966041, 35.8271462], [-96.3963895, 35.8271489], [-96.3963913, 35.8272402], [-96.3966058, 35.8272375], [-96.3966041, 35.8271462]]]}, "properties": {"osm_id": 1148107618, "building": "yes", "name": "", "height": null, "height_m": null, "levels": null, "tract_id": "40037020900", "tract_name": "209", "tags": {"building": "yes", "source": "microsoft/BuildingFootprints"}}}, {"type": "Feature", "geometry": {"type": "Polygon", "coordinates": [[[-96.3970241, 35.8267268], [-96.397023, 35.8267759], [-96.3970578, 35.8267764], [-96.3970556, 35.8268743], [-96.3971601, 35.8268758], [-96.3971635, 35.826729], [-96.3970241, 35.8267268]]]}, "properties": {"osm_id": 1148107619, "building": "yes", "name": "", "height": null, "height_m": null, "levels": null, "tract_id": "40037020900", "tract_name": "209", "tags": {"building": "yes", "source": "microsoft/BuildingFootprints"}}}, {"type": "Feature", "geometry": {"type": "Polygon", "coordinates": [[[-96.3978782, 35.8269033], [-96.3978487, 35.8269037], [-96.3978468, 35.8268233], [-96.3977557, 35.8268247], [-96.3977592, 35.8269747], [-96.3978798, 35.8269728], [-96.3978782, 35.8269033]]]}, "properties": {"osm_id": 1148107620, "building": "yes", "name": "", "height": null, "height_m": null, "levels": null, "tract_id": "40037020900", "tract_name": "209", "tags": {"building": "yes", "source": "microsoft/BuildingFootprints"}}}, {"type": "Feature", "geometry": {"type": "Polygon", "coordinates": [[[-96.398753, 35.8261484], [-96.3984178, 35.8261438], [-96.3984127, 35.8263906], [-96.3984566, 35.8263912], [-96.3984549, 35.8264739], [-96.3987006, 35.8264772], [-96.3987023, 35.8263946], [-96.3987479, 35.8263952], [-96.398753, 35.8261484]]]}, "properties": {"osm_id": 1148107621, "building": "yes", "name": "", "height": null, "height_m": null, "levels": null, "tract_id": "40037020900", "tract_name": "209", "tags": {"building": "yes", "source": "microsoft/BuildingFootprints"}}}, {"type": "Feature", "geometry": {"type": "Polygon", "coordinates": [[[-96.3963968, 35.8277943], [-96.3965201, 35.8277922], [-96.3965151, 35.8275944], [-96.3963917, 35.8275965], [-96.3963968, 35.8277943]]]}, "properties": {"osm_id": 1148107622, "building": "yes", "name": "", "height": null, "height_m": null, "levels": null, "tract_id": "40037020900", "tract_name": "209", "tags": {"building": "yes", "source": "microsoft/BuildingFootprints"}}}, {"type": "Feature", "geometry": {"type": "Polygon", "coordinates": [[[-96.3959685, 35.8275697], [-96.3960312, 35.8275691], [-96.3960304, 35.8275039], [-96.3958641, 35.8275053], [-96.395866, 35.8276467], [-96.3959695, 35.8276458], [-96.3959685, 35.8275697]]]}, "properties": {"osm_id": 1148107623, "building": "yes", "name": "", "height": null, "height_m": null, "levels": null, "tract_id": "40037020900", "tract_name": "209", "tags": {"building": "yes", "source": "microsoft/BuildingFootprints"}}}, {"type": "Feature", "geometry": {"type": "Polygon", "coordinates": [[[-96.3960507, 35.8274228], [-96.396048, 35.827349], [-96.3958668, 35.8273533], [-96.3958694, 35.8274272], [-96.3960507, 35.8274228]]]}, "properties": {"osm_id": 1148107624, "building": "yes", "name": "", "height": null, "height_m": null, "levels": null, "tract_id": "40037020900", "tract_name": "209", "tags": {"building": "yes", "source": "microsoft/BuildingFootprints"}}}, {"type": "Feature", "geometry": {"type": "Polygon", "coordinates": [[[-96.3956748, 35.8278121], [-96.3956715, 35.8276717], [-96.3955884, 35.8276729], [-96.395589, 35.8276968], [-96.3955075, 35.8276981], [-96.3955107, 35.8278364], [-96.3955992, 35.827835], [-96.3955987, 35.8278133], [-96.3956748, 35.8278121]]]}, "properties": {"osm_id": 1148107625, "building": "yes", "name": "", "height": null, "height_m": null, "levels": null, "tract_id": "40037020900", "tract_name": "209", "tags": {"building": "yes", "source": "microsoft/BuildingFootprints"}}}, {"type": "Feature", "geometry": {"type": "Polygon", "coordinates": [[[-96.3958477, 35.8277261], [-96.3958453, 35.8278087], [-96.3960223, 35.827812], [-96.3960263, 35.8276707], [-96.3959523, 35.8276693], [-96.3959506, 35.827728], [-96.3958477, 35.8277261]]]}, "properties": {"osm_id": 1148107626, "building": "yes", "name": "", "height": null, "height_m": null, "levels": null, "tract_id": "40037020900", "tract_name": "209", "tags": {"building": "yes", "source": "microsoft/BuildingFootprints"}}}, {"type": "Feature", "geometry": {"type": "Polygon", "coordinates": [[[-96.3963513, 35.8282017], [-96.3966499, 35.8281954], [-96.3966462, 35.8280802], [-96.3965433, 35.8280824], [-96.3965446, 35.8281259], [-96.396349, 35.82813], [-96.3963513, 35.8282017]]]}, "properties": {"osm_id": 1148107627, "building": "yes", "name": "", "height": null, "height_m": null, "levels": null, "tract_id": "40037020900", "tract_name": "209", "tags": {"building": "yes", "source": "microsoft/BuildingFootprints"}}}, {"type": "Feature", "geometry": {"type": "Polygon", "coordinates": [[[-96.3968229, 35.8285431], [-96.3967398, 35.8285439], [-96.3967412, 35.828643], [-96.396622, 35.8286441], [-96.3966233, 35.8287332], [-96.3968255, 35.8287314], [-96.3968229, 35.8285431]]]}, "properties": {"osm_id": 1148107628, "building": "yes", "name": "", "height": null, "height_m": null, "levels": null, "tract_id": "40037020900", "tract_name": "209", "tags": {"building": "yes", "source": "microsoft/BuildingFootprints"}}}, {"type": "Feature", "geometry": {"type": "Polygon", "coordinates": [[[-96.3963963, 35.8287296], [-96.3965948, 35.8287285], [-96.396594, 35.8286424], [-96.3963956, 35.8286436], [-96.3963963, 35.8287296]]]}, "properties": {"osm_id": 1148107629, "building": "yes", "name": "", "height": null, "height_m": null, "levels": null, "tract_id": "40037020900", "tract_name": "209", "tags": {"building": "yes", "source": "microsoft/BuildingFootprints"}}}, {"type": "Feature", "geometry": {"type": "Polygon", "coordinates": [[[-96.3962523, 35.8285821], [-96.3962516, 35.8286103], [-96.3961942, 35.8286094], [-96.3961913, 35.8287255], [-96.3962649, 35.8287267], [-96.3962652, 35.8287106], [-96.3963376, 35.8287118], [-96.3963408, 35.8285835], [-96.3962523, 35.8285821]]]}, "properties": {"osm_id": 1148107630, "building": "yes", "name": "", "height": null, "height_m": null, "levels": null, "tract_id": "40037020900", "tract_name": "209", "tags": {"building": "yes", "source": "microsoft/BuildingFootprints"}}}, {"type": "Feature", "geometry": {"type": "Polygon", "coordinates": [[[-96.3959683, 35.8286154], [-96.3959669, 35.8286915], [-96.3960474, 35.8286925], [-96.3960468, 35.8287251], [-96.396138, 35.8287261], [-96.3961405, 35.8285826], [-96.3960145, 35.8285812], [-96.3960139, 35.828616], [-96.3959683, 35.8286154]]]}, "properties": {"osm_id": 1148107631, "building": "yes", "name": "", "height": null, "height_m": null, "levels": null, "tract_id": "40037020900", "tract_name": "209", "tags": {"building": "yes", "source": "microsoft/BuildingFootprints"}}}, {"type": "Feature", "geometry": {"type": "Polygon", "coordinates": [[[-96.3958022, 35.8281393], [-96.3959819, 35.828138], [-96.3959812, 35.8280728], [-96.3960321, 35.8280724], [-96.3960313, 35.8279985], [-96.3958355, 35.8279999], [-96.3958363, 35.8280695], [-96.3958014, 35.8280697], [-96.3958022, 35.8281393]]]}, "properties": {"osm_id": 1148107632, "building": "yes", "name": "", "height": null, "height_m": null, "levels": null, "tract_id": "40037020900", "tract_name": "209", "tags": {"building": "yes", "source": "microsoft/BuildingFootprints"}}}, {"type": "Feature", "geometry": {"type": "Polygon", "coordinates": [[[-96.3958511, 35.8279747], [-96.3960362, 35.8279723], [-96.3960336, 35.8278375], [-96.3958486, 35.8278399], [-96.3958511, 35.8279747]]]}, "properties": {"osm_id": 1148107633, "building": "yes", "name": "", "height": null, "height_m": null, "levels": null, "tract_id": "40037020900", "tract_name": "209", "tags": {"building": "yes", "source": "microsoft/BuildingFootprints"}}}, {"type": "Feature", "geometry": {"type": "Polygon", "coordinates": [[[-96.3946608, 35.8287062], [-96.3947654, 35.8287066], [-96.3947672, 35.828376], [-96.3946625, 35.8283757], [-96.3946608, 35.8287062]]]}, "properties": {"osm_id": 1148107634, "building": "yes", "name": "", "height": null, "height_m": null, "levels": null, "tract_id": "40037020900", "tract_name": "209", "tags": {"building": "yes", "source": "microsoft/BuildingFootprints"}}}, {"type": "Feature", "geometry": {"type": "Polygon", "coordinates": [[[-96.3952684, 35.8279137], [-96.3951353, 35.8279044], [-96.3951302, 35.8279519], [-96.3951089, 35.8279504], [-96.3950989, 35.8280454], [-96.3952746, 35.8280576], [-96.3952831, 35.8279778], [-96.3952618, 35.8279763], [-96.3952684, 35.8279137]]]}, "properties": {"osm_id": 1148107635, "building": "yes", "name": "", "height": null, "height_m": null, "levels": null, "tract_id": "40037020900", "tract_name": "209", "tags": {"building": "yes", "source": "microsoft/BuildingFootprints"}}}, {"type": "Feature", "geometry": {"type": "Polygon", "coordinates": [[[-96.3953726, 35.8278136], [-96.3953392, 35.8277648], [-96.395247, 35.8278064], [-96.3953227, 35.8279166], [-96.3954742, 35.8278483], [-96.395432, 35.8277868], [-96.3953726, 35.8278136]]]}, "properties": {"osm_id": 1148107636, "building": "yes", "name": "", "height": null, "height_m": null, "levels": null, "tract_id": "40037020900", "tract_name": "209", "tags": {"building": "yes", "source": "microsoft/BuildingFootprints"}}}, {"type": "Feature", "geometry": {"type": "Polygon", "coordinates": [[[-96.3953564, 35.8285496], [-96.3952143, 35.8285518], [-96.3952164, 35.8286418], [-96.3952551, 35.8286412], [-96.3952562, 35.828689], [-96.3953248, 35.8286879], [-96.395323, 35.8286096], [-96.3953578, 35.8286091], [-96.3953564, 35.8285496]]]}, "properties": {"osm_id": 1148107637, "building": "yes", "name": "", "height": null, "height_m": null, "levels": null, "tract_id": "40037020900", "tract_name": "209", "tags": {"building": "yes", "source": "microsoft/BuildingFootprints"}}}, {"type": "Feature", "geometry": {"type": "Polygon", "coordinates": [[[-96.3942992, 35.8284047], [-96.3942919, 35.8286815], [-96.3944313, 35.8286839], [-96.3944386, 35.8284071], [-96.3942992, 35.8284047]]]}, "properties": {"osm_id": 1148107638, "building": "yes", "name": "", "height": null, "height_m": null, "levels": null, "tract_id": "40037020900", "tract_name": "209", "tags": {"building": "yes", "source": "microsoft/BuildingFootprints"}}}, {"type": "Feature", "geometry": {"type": "Polygon", "coordinates": [[[-96.3944692, 35.828376], [-96.3944643, 35.8287065], [-96.3945206, 35.828707], [-96.3945255, 35.8283765], [-96.3944692, 35.828376]]]}, "properties": {"osm_id": 1148107639, "building": "yes", "name": "", "height": null, "height_m": null, "levels": null, "tract_id": "40037020900", "tract_name": "209", "tags": {"building": "yes", "source": "microsoft/BuildingFootprints"}}}, {"type": "Feature", "geometry": {"type": "Polygon", "coordinates": [[[-96.395858, 35.8291047], [-96.3958545, 35.8289665], [-96.3957005, 35.8289691], [-96.3957055, 35.8291638], [-96.3958166, 35.829162], [-96.3958152, 35.8291055], [-96.395858, 35.8291047]]]}, "properties": {"osm_id": 1148107640, "building": "yes", "name": "", "height": null, "height_m": null, "levels": null, "tract_id": "40037020900", "tract_name": "209", "tags": {"building": "yes", "source": "microsoft/BuildingFootprints"}}}, {"type": "Feature", "geometry": {"type": "Polygon", "coordinates": [[[-96.3953761, 35.8290947], [-96.3953809, 35.8289469], [-96.3952737, 35.8289447], [-96.3952691, 35.8290859], [-96.3953469, 35.8290876], [-96.3953466, 35.8290941], [-96.3953761, 35.8290947]]]}, "properties": {"osm_id": 1148107641, "building": "yes", "name": "", "height": null, "height_m": null, "levels": null, "tract_id": "40037020900", "tract_name": "209", "tags": {"building": "yes", "source": "microsoft/BuildingFootprints"}}}, {"type": "Feature", "geometry": {"type": "Polygon", "coordinates": [[[-96.3951975, 35.8289476], [-96.3950743, 35.8289511], [-96.3950798, 35.8290771], [-96.395203, 35.8290735], [-96.3951975, 35.8289476]]]}, "properties": {"osm_id": 1148107642, "building": "yes", "name": "", "height": null, "height_m": null, "levels": null, "tract_id": "40037020900", "tract_name": "209", "tags": {"building": "yes", "source": "microsoft/BuildingFootprints"}}}, {"type": "Feature", "geometry": {"type": "Polygon", "coordinates": [[[-96.3949473, 35.8290855], [-96.3950346, 35.8290848], [-96.3950332, 35.828963], [-96.3949458, 35.8289637], [-96.3949473, 35.8290855]]]}, "properties": {"osm_id": 1148107643, "building": "yes", "name": "", "height": null, "height_m": null, "levels": null, "tract_id": "40037020900", "tract_name": "209", "tags": {"building": "yes", "source": "microsoft/BuildingFootprints"}}}, {"type": "Feature", "geometry": {"type": "Polygon", "coordinates": [[[-96.3949081, 35.8290852], [-96.3949044, 35.8290187], [-96.3948536, 35.8290206], [-96.3948525, 35.8290011], [-96.3947951, 35.8290032], [-96.3947999, 35.8290891], [-96.3949081, 35.8290852]]]}, "properties": {"osm_id": 1148107644, "building": "yes", "name": "", "height": null, "height_m": null, "levels": null, "tract_id": "40037020900", "tract_name": "209", "tags": {"building": "yes", "source": "microsoft/BuildingFootprints"}}}, {"type": "Feature", "geometry": {"type": "Polygon", "coordinates": [[[-96.3945914, 35.8290059], [-96.3945881, 35.829095], [-96.3946926, 35.8290975], [-96.3946972, 35.8289736], [-96.3945444, 35.82897], [-96.3945431, 35.8290047], [-96.3945914, 35.8290059]]]}, "properties": {"osm_id": 1148107645, "building": "yes", "name": "", "height": null, "height_m": null, "levels": null, "tract_id": "40037020900", "tract_name": "209", "tags": {"building": "yes", "source": "microsoft/BuildingFootprints"}}}, {"type": "Feature", "geometry": {"type": "Polygon", "coordinates": [[[-96.3942663, 35.8290716], [-96.3944205, 35.8290761], [-96.394424, 35.8289949], [-96.3943555, 35.8289929], [-96.3943566, 35.828969], [-96.3942709, 35.8289666], [-96.3942663, 35.8290716]]]}, "properties": {"osm_id": 1148107646, "building": "yes", "name": "", "height": null, "height_m": null, "levels": null, "tract_id": "40037020900", "tract_name": "209", "tags": {"building": "yes", "source": "microsoft/BuildingFootprints"}}}, {"type": "Feature", "geometry": {"type": "Polygon", "coordinates": [[[-96.3938946, 35.8297313], [-96.3939643, 35.829733], [-96.3939655, 35.8297004], [-96.39407, 35.8297029], [-96.3940744, 35.8295834], [-96.3939806, 35.8295812], [-96.3939821, 35.8295399], [-96.3939446, 35.829539], [-96.3939462, 35.8294955], [-96.3939033, 35.8294945], [-96.3938946, 35.8297313]]]}, "properties": {"osm_id": 1148107782, "building": "yes", "name": "", "height": null, "height_m": null, "levels": null, "tract_id": "40037020900", "tract_name": "209", "tags": {"building": "yes", "source": "microsoft/BuildingFootprints"}}}, {"type": "Feature", "geometry": {"type": "Polygon", "coordinates": [[[-96.3937342, 35.8301209], [-96.3938778, 35.8301194], [-96.3938761, 35.8300093], [-96.3938064, 35.83001], [-96.3938059, 35.829981], [-96.3937321, 35.8299817], [-96.3937342, 35.8301209]]]}, "properties": {"osm_id": 1148107783, "building": "yes", "name": "", "height": null, "height_m": null, "levels": null, "tract_id": "40037020900", "tract_name": "209", "tags": {"building": "yes", "source": "microsoft/BuildingFootprints"}}}, {"type": "Feature", "geometry": {"type": "Polygon", "coordinates": [[[-96.3937061, 35.8300097], [-96.3935747, 35.8300073], [-96.3935714, 35.8301269], [-96.3937028, 35.8301292], [-96.3937061, 35.8300097]]]}, "properties": {"osm_id": 1148107784, "building": "yes", "name": "", "height": null, "height_m": null, "levels": null, "tract_id": "40037020900", "tract_name": "209", "tags": {"building": "yes", "source": "microsoft/BuildingFootprints"}}}, {"type": "Feature", "geometry": {"type": "Polygon", "coordinates": [[[-96.3934388, 35.8301055], [-96.3935514, 35.8301076], [-96.3935542, 35.8300098], [-96.3934416, 35.8300077], [-96.3934388, 35.8301055]]]}, "properties": {"osm_id": 1148107785, "building": "yes", "name": "", "height": null, "height_m": null, "levels": null, "tract_id": "40037020900", "tract_name": "209", "tags": {"building": "yes", "source": "microsoft/BuildingFootprints"}}}, {"type": "Feature", "geometry": {"type": "Polygon", "coordinates": [[[-96.3941692, 35.8299706], [-96.3941679, 35.8300481], [-96.3943273, 35.8300499], [-96.3943286, 35.8299724], [-96.3941692, 35.8299706]]]}, "properties": {"osm_id": 1148107786, "building": "yes", "name": "", "height": null, "height_m": null, "levels": null, "tract_id": "40037020900", "tract_name": "209", "tags": {"building": "yes", "source": "microsoft/BuildingFootprints"}}}, {"type": "Feature", "geometry": {"type": "Polygon", "coordinates": [[[-96.3944432, 35.8297153], [-96.3945397, 35.8297174], [-96.3945442, 35.8295775], [-96.3944477, 35.8295754], [-96.3944432, 35.8297153]]]}, "properties": {"osm_id": 1148107787, "building": "yes", "name": "", "height": null, "height_m": null, "levels": null, "tract_id": "40037020900", "tract_name": "209", "tags": {"building": "yes", "source": "microsoft/BuildingFootprints"}}}, {"type": "Feature", "geometry": {"type": "Polygon", "coordinates": [[[-96.3947713, 35.8295805], [-96.3947752, 35.8297261], [-96.3948744, 35.8297244], [-96.3948705, 35.8295788], [-96.3947713, 35.8295805]]]}, "properties": {"osm_id": 1148107788, "building": "yes", "name": "", "height": null, "height_m": null, "levels": null, "tract_id": "40037020900", "tract_name": "209", "tags": {"building": "yes", "source": "microsoft/BuildingFootprints"}}}, {"type": "Feature", "geometry": {"type": "Polygon", "coordinates": [[[-96.3950455, 35.8295815], [-96.3949463, 35.8295829], [-96.3949495, 35.8297264], [-96.3950487, 35.8297249], [-96.3950455, 35.8295815]]]}, "properties": {"osm_id": 1148107789, "building": "yes", "name": "", "height": null, "height_m": null, "levels": null, "tract_id": "40037020900", "tract_name": "209", "tags": {"building": "yes", "source": "microsoft/BuildingFootprints"}}}, {"type": "Feature", "geometry": {"type": "Polygon", "coordinates": [[[-96.3949804, 35.8299297], [-96.3948827, 35.829932], [-96.3948887, 35.8301036], [-96.3949865, 35.8301013], [-96.3949804, 35.8299297]]]}, "properties": {"osm_id": 1148107790, "building": "yes", "name": "", "height": null, "height_m": null, "levels": null, "tract_id": "40037020900", "tract_name": "209", "tags": {"building": "yes", "source": "microsoft/BuildingFootprints"}}}, {"type": "Feature", "geometry": {"type": "Polygon", "coordinates": [[[-96.3943975, 35.830653], [-96.3944, 35.8303768], [-96.3942605, 35.830376], [-96.3942581, 35.8306522], [-96.3943975, 35.830653]]]}, "properties": {"osm_id": 1148107791, "building": "yes", "name": "", "height": null, "height_m": null, "levels": null, "tract_id": "40037020900", "tract_name": "209", "tags": {"building": "yes", "source": "microsoft/BuildingFootprints"}}}, {"type": "Feature", "geometry": {"type": "Polygon", "coordinates": [[[-96.3938787, 35.8305384], [-96.3940839, 35.8305408], [-96.3940847, 35.8304944], [-96.3941142, 35.8304947], [-96.3941154, 35.8304281], [-96.3938445, 35.8304249], [-96.3938435, 35.8304829], [-96.3938796, 35.8304833], [-96.3938787, 35.8305384]]]}, "properties": {"osm_id": 1148107792, "building": "retail", "name": "Co-op's Stop 'n' Shop", "height": null, "height_m": null, "levels": null, "tract_id": "40037020900", "tract_name": "209", "tags": {"building": "retail", "name": "Co-op's Stop 'n' Shop", "shop": "yes", "source": "microsoft/BuildingFootprints"}}}, {"type": "Feature", "geometry": {"type": "Polygon", "coordinates": [[[-96.3944854, 35.8304346], [-96.3946757, 35.830431], [-96.3946736, 35.8303571], [-96.3944832, 35.8303607], [-96.3944854, 35.8304346]]]}, "properties": {"osm_id": 1148107793, "building": "yes", "name": "", "height": null, "height_m": null, "levels": null, "tract_id": "40037020900", "tract_name": "209", "tags": {"building": "yes", "source": "microsoft/BuildingFootprints"}}}, {"type": "Feature", "geometry": {"type": "Polygon", "coordinates": [[[-96.3952728, 35.8307047], [-96.395368, 35.8307058], [-96.3953709, 35.8305405], [-96.3952756, 35.8305395], [-96.3952728, 35.8307047]]]}, "properties": {"osm_id": 1148107794, "building": "yes", "name": "", "height": null, "height_m": null, "levels": null, "tract_id": "40037020900", "tract_name": "209", "tags": {"building": "yes", "source": "microsoft/BuildingFootprints"}}}, {"type": "Feature", "geometry": {"type": "Polygon", "coordinates": [[[-96.3956899, 35.8305754], [-96.3958628, 35.8305784], [-96.3958649, 35.8304989], [-96.395692, 35.8304958], [-96.3956899, 35.8305754]]]}, "properties": {"osm_id": 1148107795, "building": "yes", "name": "", "height": null, "height_m": null, "levels": null, "tract_id": "40037020900", "tract_name": "209", "tags": {"building": "yes", "source": "microsoft/BuildingFootprints"}}}, {"type": "Feature", "geometry": {"type": "Polygon", "coordinates": [[[-96.3956833, 35.8306104], [-96.3956856, 35.8306908], [-96.3958062, 35.8306886], [-96.3958039, 35.8306081], [-96.3956833, 35.8306104]]]}, "properties": {"osm_id": 1148107796, "building": "yes", "name": "", "height": null, "height_m": null, "levels": null, "tract_id": "40037020900", "tract_name": "209", "tags": {"building": "yes", "source": "microsoft/BuildingFootprints"}}}, {"type": "Feature", "geometry": {"type": "Polygon", "coordinates": [[[-96.3958884, 35.8303616], [-96.3956926, 35.8303603], [-96.3956919, 35.8304364], [-96.3958877, 35.8304377], [-96.3958884, 35.8303616]]]}, "properties": {"osm_id": 1148107797, "building": "yes", "name": "", "height": null, "height_m": null, "levels": null, "tract_id": "40037020900", "tract_name": "209", "tags": {"building": "yes", "source": "microsoft/BuildingFootprints"}}}, {"type": "Feature", "geometry": {"type": "Polygon", "coordinates": [[[-96.3958586, 35.8302863], [-96.3958562, 35.8302177], [-96.3956968, 35.8302213], [-96.3956992, 35.83029], [-96.3958586, 35.8302863]]]}, "properties": {"osm_id": 1148107798, "building": "yes", "name": "", "height": null, "height_m": null, "levels": null, "tract_id": "40037020900", "tract_name": "209", "tags": {"building": "yes", "source": "microsoft/BuildingFootprints"}}}, {"type": "Feature", "geometry": {"type": "Polygon", "coordinates": [[[-96.3958338, 35.8300405], [-96.3958357, 35.8299327], [-96.3957097, 35.8299312], [-96.3957083, 35.8300116], [-96.3957485, 35.8300121], [-96.395748, 35.8300395], [-96.3958338, 35.8300405]]]}, "properties": {"osm_id": 1148107799, "building": "yes", "name": "", "height": null, "height_m": null, "levels": null, "tract_id": "40037020900", "tract_name": "209", "tags": {"building": "yes", "source": "microsoft/BuildingFootprints"}}}, {"type": "Feature", "geometry": {"type": "Polygon", "coordinates": [[[-96.3963242, 35.8299333], [-96.3961659, 35.8299322], [-96.3961648, 35.8300357], [-96.3963231, 35.8300368], [-96.3963242, 35.8299333]]]}, "properties": {"osm_id": 1148107800, "building": "yes", "name": "", "height": null, "height_m": null, "levels": null, "tract_id": "40037020900", "tract_name": "209", "tags": {"building": "yes", "source": "microsoft/BuildingFootprints"}}}, {"type": "Feature", "geometry": {"type": "Polygon", "coordinates": [[[-96.3963011, 35.8296835], [-96.3963052, 35.8295575], [-96.3961471, 35.8295541], [-96.396143, 35.8296779], [-96.3961966, 35.8296791], [-96.396196, 35.8296978], [-96.3962389, 35.8296987], [-96.3962394, 35.8296822], [-96.3963011, 35.8296835]]]}, "properties": {"osm_id": 1148107801, "building": "yes", "name": "", "height": null, "height_m": null, "levels": null, "tract_id": "40037020900", "tract_name": "209", "tags": {"building": "yes", "source": "microsoft/BuildingFootprints"}}}, {"type": "Feature", "geometry": {"type": "Polygon", "coordinates": [[[-96.3958699, 35.8296267], [-96.395677, 35.8296216], [-96.3956738, 35.8297011], [-96.3958667, 35.8297062], [-96.3958699, 35.8296267]]]}, "properties": {"osm_id": 1148107802, "building": "yes", "name": "", "height": null, "height_m": null, "levels": null, "tract_id": "40037020900", "tract_name": "209", "tags": {"building": "yes", "source": "microsoft/BuildingFootprints"}}}, {"type": "Feature", "geometry": {"type": "Polygon", "coordinates": [[[-96.3958802, 35.8295057], [-96.3956899, 35.8295015], [-96.395688, 35.8295567], [-96.3958783, 35.8295609], [-96.3958802, 35.8295057]]]}, "properties": {"osm_id": 1148107803, "building": "yes", "name": "", "height": null, "height_m": null, "levels": null, "tract_id": "40037020900", "tract_name": "209", "tags": {"building": "yes", "source": "microsoft/BuildingFootprints"}}}, {"type": "Feature", "geometry": {"type": "Polygon", "coordinates": [[[-96.3953765, 35.829933], [-96.3952694, 35.8299301], [-96.3952653, 35.8300279], [-96.3953725, 35.8300308], [-96.3953765, 35.829933]]]}, "properties": {"osm_id": 1148107804, "building": "yes", "name": "", "height": null, "height_m": null, "levels": null, "tract_id": "40037020900", "tract_name": "209", "tags": {"building": "yes", "source": "microsoft/BuildingFootprints"}}}, {"type": "Feature", "geometry": {"type": "Polygon", "coordinates": [[[-96.3952284, 35.8302741], [-96.3953973, 35.8302752], [-96.3953982, 35.8301869], [-96.3952293, 35.8301858], [-96.3952284, 35.8302741]]]}, "properties": {"osm_id": 1148107805, "building": "yes", "name": "", "height": null, "height_m": null, "levels": null, "tract_id": "40037020900", "tract_name": "209", "tags": {"building": "yes", "source": "microsoft/BuildingFootprints"}}}, {"type": "Feature", "geometry": {"type": "Polygon", "coordinates": [[[-96.3966123, 35.8302736], [-96.3966084, 35.8303866], [-96.3967264, 35.8303892], [-96.396728, 35.8303405], [-96.3966998, 35.8303399], [-96.396702, 35.8302756], [-96.3966123, 35.8302736]]]}, "properties": {"osm_id": 1148107806, "building": "yes", "name": "", "height": null, "height_m": null, "levels": null, "tract_id": "40037020900", "tract_name": "209", "tags": {"building": "yes", "source": "microsoft/BuildingFootprints"}}}, {"type": "Feature", "geometry": {"type": "Polygon", "coordinates": [[[-96.3966231, 35.8304116], [-96.3966263, 35.8305094], [-96.3966933, 35.830508], [-96.396692, 35.8304689], [-96.3967269, 35.8304682], [-96.396725, 35.8304095], [-96.3966231, 35.8304116]]]}, "properties": {"osm_id": 1148107807, "building": "yes", "name": "", "height": null, "height_m": null, "levels": null, "tract_id": "40037020900", "tract_name": "209", "tags": {"building": "yes", "source": "microsoft/BuildingFootprints"}}}, {"type": "Feature", "geometry": {"type": "Polygon", "coordinates": [[[-96.3967191, 35.8301386], [-96.3966292, 35.83014], [-96.3966318, 35.8302509], [-96.3967217, 35.8302495], [-96.3967191, 35.8301386]]]}, "properties": {"osm_id": 1148107808, "building": "yes", "name": "", "height": null, "height_m": null, "levels": null, "tract_id": "40037020900", "tract_name": "209", "tags": {"building": "yes", "source": "microsoft/BuildingFootprints"}}}, {"type": "Feature", "geometry": {"type": "Polygon", "coordinates": [[[-96.3965588, 35.8300812], [-96.3967692, 35.830083], [-96.3967703, 35.8300004], [-96.3967301, 35.8300001], [-96.3967305, 35.8299684], [-96.3966393, 35.8299676], [-96.3966386, 35.830021], [-96.3965596, 35.8300203], [-96.3965588, 35.8300812]]]}, "properties": {"osm_id": 1148107809, "building": "yes", "name": "", "height": null, "height_m": null, "levels": null, "tract_id": "40037020900", "tract_name": "209", "tags": {"building": "yes", "source": "microsoft/BuildingFootprints"}}}, {"type": "Feature", "geometry": {"type": "Polygon", "coordinates": [[[-96.3930297, 35.83013], [-96.3930292, 35.8302395], [-96.3931901, 35.83024], [-96.3931906, 35.8301304], [-96.3930297, 35.83013]]]}, "properties": {"osm_id": 1148107810, "building": "yes", "name": "", "height": null, "height_m": null, "levels": null, "tract_id": "40037020900", "tract_name": "209", "tags": {"building": "yes", "source": "microsoft/BuildingFootprints"}}}, {"type": "Feature", "geometry": {"type": "Polygon", "coordinates": [[[-96.3931362, 35.8295386], [-96.3929793, 35.8295422], [-96.3929847, 35.8296986], [-96.3931416, 35.829695], [-96.3931362, 35.8295386]]]}, "properties": {"osm_id": 1148107811, "building": "yes", "name": "", "height": null, "height_m": null, "levels": null, "tract_id": "40037020900", "tract_name": "209", "tags": {"building": "yes", "source": "microsoft/BuildingFootprints"}}}, {"type": "Feature", "geometry": {"type": "Polygon", "coordinates": [[[-96.3934359, 35.829523], [-96.3934319, 35.8296621], [-96.3936195, 35.8296656], [-96.3936214, 35.8296004], [-96.3935302, 35.8295987], [-96.3935324, 35.8295248], [-96.3934359, 35.829523]]]}, "properties": {"osm_id": 1148107812, "building": "yes", "name": "", "height": null, "height_m": null, "levels": null, "tract_id": "40037020900", "tract_name": "209", "tags": {"building": "yes", "source": "microsoft/BuildingFootprints"}}}, {"type": "Feature", "geometry": {"type": "Polygon", "coordinates": [[[-96.3925886, 35.8295731], [-96.3925841, 35.8297165], [-96.3927637, 35.8297202], [-96.3927664, 35.8296333], [-96.3926913, 35.8296317], [-96.3926931, 35.8295752], [-96.3925886, 35.8295731]]]}, "properties": {"osm_id": 1148107813, "building": "yes", "name": "", "height": null, "height_m": null, "levels": null, "tract_id": "40037020900", "tract_name": "209", "tags": {"building": "yes", "source": "microsoft/BuildingFootprints"}}}, {"type": "Feature", "geometry": {"type": "Polygon", "coordinates": [[[-96.3924303, 35.8297482], [-96.3924343, 35.8295691], [-96.3923821, 35.8295684], [-96.3923781, 35.8297475], [-96.3924303, 35.8297482]]]}, "properties": {"osm_id": 1148107814, "building": "yes", "name": "", "height": null, "height_m": null, "levels": null, "tract_id": "40037020900", "tract_name": "209", "tags": {"building": "yes", "source": "microsoft/BuildingFootprints"}}}, {"type": "Feature", "geometry": {"type": "Polygon", "coordinates": [[[-96.3921279, 35.8296545], [-96.3921261, 35.8297341], [-96.3923379, 35.8297373], [-96.3923397, 35.8296577], [-96.3921279, 35.8296545]]]}, "properties": {"osm_id": 1148107815, "building": "yes", "name": "", "height": null, "height_m": null, "levels": null, "tract_id": "40037020900", "tract_name": "209", "tags": {"building": "yes", "source": "microsoft/BuildingFootprints"}}}, {"type": "Feature", "geometry": {"type": "Polygon", "coordinates": [[[-96.3922503, 35.8299884], [-96.3920921, 35.8299893], [-96.3920943, 35.8302511], [-96.3922526, 35.8302502], [-96.3922503, 35.8299884]]]}, "properties": {"osm_id": 1148107816, "building": "yes", "name": "", "height": null, "height_m": null, "levels": null, "tract_id": "40037020900", "tract_name": "209", "tags": {"building": "yes", "source": "microsoft/BuildingFootprints"}}}, {"type": "Feature", "geometry": {"type": "Polygon", "coordinates": [[[-96.3912025, 35.831317], [-96.391594, 35.8313195], [-96.3915947, 35.8312478], [-96.3914043, 35.8312465], [-96.3914065, 35.8310269], [-96.3913072, 35.8310263], [-96.3913051, 35.8312459], [-96.3912032, 35.8312452], [-96.3912025, 35.831317]]]}, "properties": {"osm_id": 1148108047, "building": "yes", "name": "", "height": null, "height_m": null, "levels": null, "tract_id": "40037020900", "tract_name": "209", "tags": {"building": "yes", "source": "microsoft/BuildingFootprints"}}}, {"type": "Feature", "geometry": {"type": "Polygon", "coordinates": [[[-96.3917263, 35.8312579], [-96.391981, 35.8312618], [-96.3919836, 35.8311488], [-96.3917289, 35.8311448], [-96.3917263, 35.8312579]]]}, "properties": {"osm_id": 1148108048, "building": "yes", "name": "", "height": null, "height_m": null, "levels": null, "tract_id": "40037020900", "tract_name": "209", "tags": {"building": "yes", "source": "microsoft/BuildingFootprints"}}}, {"type": "Feature", "geometry": {"type": "Polygon", "coordinates": [[[-96.3917229, 35.8311382], [-96.3920407, 35.8311383], [-96.3920407, 35.8311848], [-96.3921305, 35.8311849], [-96.3921306, 35.8311709], [-96.3923062, 35.831171], [-96.3923063, 35.8310523], [-96.3919295, 35.8310522], [-96.3919295, 35.8309838], [-96.39179, 35.8309838], [-96.3917901, 35.8309064], [-96.391723, 35.8309064], [-96.3917229, 35.8311382]]]}, "properties": {"osm_id": 1148108049, "building": "yes", "name": "", "height": null, "height_m": null, "levels": null, "tract_id": "40037020900", "tract_name": "209", "tags": {"building": "yes", "source": "microsoft/BuildingFootprints"}}}, {"type": "Feature", "geometry": {"type": "Polygon", "coordinates": [[[-96.3923642, 35.830466], [-96.3923703, 35.8306572], [-96.3924748, 35.830655], [-96.3924688, 35.8304638], [-96.3923642, 35.830466]]]}, "properties": {"osm_id": 1148108050, "building": "yes", "name": "", "height": null, "height_m": null, "levels": null, "tract_id": "40037020900", "tract_name": "209", "tags": {"building": "yes", "source": "microsoft/BuildingFootprints"}}}, {"type": "Feature", "geometry": {"type": "Polygon", "coordinates": [[[-96.3928518, 35.8306326], [-96.3931817, 35.8306341], [-96.3931823, 35.830558], [-96.3931179, 35.8305577], [-96.3931177, 35.8305795], [-96.3928522, 35.8305782], [-96.3928518, 35.8306326]]]}, "properties": {"osm_id": 1148108051, "building": "yes", "name": "", "height": null, "height_m": null, "levels": null, "tract_id": "40037020900", "tract_name": "209", "tags": {"building": "yes", "source": "microsoft/BuildingFootprints"}}}, {"type": "Feature", "geometry": {"type": "Polygon", "coordinates": [[[-96.3928521, 35.8304693], [-96.393131, 35.8304679], [-96.3931305, 35.8303961], [-96.3930593, 35.8303965], [-96.3930595, 35.8304139], [-96.3928517, 35.830415], [-96.3928521, 35.8304693]]]}, "properties": {"osm_id": 1148108052, "building": "yes", "name": "", "height": null, "height_m": null, "levels": null, "tract_id": "40037020900", "tract_name": "209", "tags": {"building": "yes", "source": "microsoft/BuildingFootprints"}}}, {"type": "Feature", "geometry": {"type": "Polygon", "coordinates": [[[-96.3918659, 35.8302534], [-96.3920295, 35.8302526], [-96.3920281, 35.8300734], [-96.3918645, 35.8300742], [-96.3918659, 35.8302534]]]}, "properties": {"osm_id": 1148108053, "building": "yes", "name": "", "height": null, "height_m": null, "levels": null, "tract_id": "40037020900", "tract_name": "209", "tags": {"building": "yes", "source": "microsoft/BuildingFootprints"}}}, {"type": "Feature", "geometry": {"type": "Polygon", "coordinates": [[[-96.3925907, 35.8310524], [-96.3925062, 35.8310511], [-96.3925039, 35.8311533], [-96.3925883, 35.8311546], [-96.3925907, 35.8310524]]]}, "properties": {"osm_id": 1148108054, "building": "yes", "name": "", "height": null, "height_m": null, "levels": null, "tract_id": "40037020900", "tract_name": "209", "tags": {"building": "yes", "source": "microsoft/BuildingFootprints"}}}, {"type": "Feature", "geometry": {"type": "Polygon", "coordinates": [[[-96.3934365, 35.8315808], [-96.3935424, 35.831579], [-96.3935405, 35.8315059], [-96.393574, 35.8315053], [-96.3935725, 35.8314467], [-96.393543, 35.8314472], [-96.3935412, 35.8313776], [-96.3934447, 35.8313792], [-96.3934461, 35.8314336], [-96.3934327, 35.8314338], [-96.3934365, 35.8315808]]]}, "properties": {"osm_id": 1148108055, "building": "yes", "name": "", "height": null, "height_m": null, "levels": null, "tract_id": "40037020900", "tract_name": "209", "tags": {"building": "yes", "source": "microsoft/BuildingFootprints"}}}, {"type": "Feature", "geometry": {"type": "Polygon", "coordinates": [[[-96.3928631, 35.8314559], [-96.392866, 35.8316502], [-96.3930189, 35.8316487], [-96.3930167, 35.8315074], [-96.3929296, 35.8315083], [-96.3929287, 35.8314552], [-96.3928631, 35.8314559]]]}, "properties": {"osm_id": 1148108056, "building": "yes", "name": "", "height": null, "height_m": null, "levels": null, "tract_id": "40037020900", "tract_name": "209", "tags": {"building": "yes", "source": "microsoft/BuildingFootprints"}}}, {"type": "Feature", "geometry": {"type": "Polygon", "coordinates": [[[-96.3928098, 35.8316585], [-96.3928085, 35.8315542], [-96.3927066, 35.831555], [-96.3927079, 35.8316594], [-96.3928098, 35.8316585]]]}, "properties": {"osm_id": 1148108057, "building": "yes", "name": "", "height": null, "height_m": null, "levels": null, "tract_id": "40037020900", "tract_name": "209", "tags": {"building": "yes", "source": "microsoft/BuildingFootprints"}}}, {"type": "Feature", "geometry": {"type": "Polygon", "coordinates": [[[-96.393434, 35.8310136], [-96.3934325, 35.8310592], [-96.3934754, 35.8310602], [-96.3934743, 35.8310949], [-96.3936284, 35.8310982], [-96.393631, 35.8310178], [-96.393434, 35.8310136]]]}, "properties": {"osm_id": 1148108058, "building": "yes", "name": "", "height": null, "height_m": null, "levels": null, "tract_id": "40037020900", "tract_name": "209", "tags": {"building": "yes", "source": "microsoft/BuildingFootprints"}}}, {"type": "Feature", "geometry": {"type": "Polygon", "coordinates": [[[-96.3941798, 35.8312571], [-96.3943863, 35.8312548], [-96.3943839, 35.8311113], [-96.3941774, 35.8311136], [-96.3941798, 35.8312571]]]}, "properties": {"osm_id": 1148108059, "building": "yes", "name": "", "height": null, "height_m": null, "levels": null, "tract_id": "40037020900", "tract_name": "209", "tags": {"building": "yes", "source": "microsoft/BuildingFootprints"}}}, {"type": "Feature", "geometry": {"type": "Polygon", "coordinates": [[[-96.3951934, 35.83114], [-96.3953034, 35.8311396], [-96.3953029, 35.8310526], [-96.3953458, 35.8310524], [-96.3953452, 35.830948], [-96.3952164, 35.8309486], [-96.3952165, 35.830966], [-96.3951682, 35.8309661], [-96.3951689, 35.831077], [-96.395193, 35.831077], [-96.3951934, 35.83114]]]}, "properties": {"osm_id": 1148108060, "building": "yes", "name": "", "height": null, "height_m": null, "levels": null, "tract_id": "40037020900", "tract_name": "209", "tags": {"building": "yes", "source": "microsoft/BuildingFootprints"}}}, {"type": "Feature", "geometry": {"type": "Polygon", "coordinates": [[[-96.3947795, 35.8305801], [-96.3947828, 35.8306931], [-96.3949034, 35.8306908], [-96.3949002, 35.8305778], [-96.3947795, 35.8305801]]]}, "properties": {"osm_id": 1148108061, "building": "yes", "name": "", "height": null, "height_m": null, "levels": null, "tract_id": "40037020900", "tract_name": "209", "tags": {"building": "yes", "source": "microsoft/BuildingFootprints"}}}, {"type": "Feature", "geometry": {"type": "Polygon", "coordinates": [[[-96.3946082, 35.8309677], [-96.3946005, 35.8310935], [-96.3947008, 35.8310976], [-96.3947086, 35.8309718], [-96.3946082, 35.8309677]]]}, "properties": {"osm_id": 1148108062, "building": "yes", "name": "", "height": null, "height_m": null, "levels": null, "tract_id": "40037020900", "tract_name": "209", "tags": {"building": "yes", "source": "microsoft/BuildingFootprints"}}}, {"type": "Feature", "geometry": {"type": "Polygon", "coordinates": [[[-96.3958079, 35.8310869], [-96.3959661, 35.8310854], [-96.3959647, 35.8309953], [-96.3958065, 35.8309969], [-96.3958079, 35.8310869]]]}, "properties": {"osm_id": 1148108063, "building": "yes", "name": "", "height": null, "height_m": null, "levels": null, "tract_id": "40037020900", "tract_name": "209", "tags": {"building": "yes", "source": "microsoft/BuildingFootprints"}}}, {"type": "Feature", "geometry": {"type": "Polygon", "coordinates": [[[-96.3961267, 35.8309791], [-96.3960221, 35.8309783], [-96.3960203, 35.8311296], [-96.3961249, 35.8311305], [-96.3961267, 35.8309791]]]}, "properties": {"osm_id": 1148108064, "building": "yes", "name": "", "height": null, "height_m": null, "levels": null, "tract_id": "40037020900", "tract_name": "209", "tags": {"building": "yes", "source": "microsoft/BuildingFootprints"}}}, {"type": "Feature", "geometry": {"type": "Polygon", "coordinates": [[[-96.3957999, 35.8311285], [-96.3958014, 35.8311828], [-96.3956673, 35.8311852], [-96.3956698, 35.8312795], [-96.3958521, 35.8312764], [-96.3958499, 35.8311938], [-96.3959531, 35.831192], [-96.3959514, 35.8311259], [-96.3957999, 35.8311285]]]}, "properties": {"osm_id": 1148108065, "building": "yes", "name": "", "height": null, "height_m": null, "levels": null, "tract_id": "40037020900", "tract_name": "209", "tags": {"building": "yes", "source": "microsoft/BuildingFootprints"}}}, {"type": "Feature", "geometry": {"type": "Polygon", "coordinates": [[[-96.3953467, 35.831171], [-96.3952383, 35.8311675], [-96.3952331, 35.8312739], [-96.3953416, 35.8312774], [-96.3953467, 35.831171]]]}, "properties": {"osm_id": 1148108066, "building": "yes", "name": "", "height": null, "height_m": null, "levels": null, "tract_id": "40037020900", "tract_name": "209", "tags": {"building": "yes", "source": "microsoft/BuildingFootprints"}}}, {"type": "Feature", "geometry": {"type": "Polygon", "coordinates": [[[-96.3952428, 35.8314316], [-96.3953648, 35.8314322], [-96.3953654, 35.8313504], [-96.3952434, 35.8313499], [-96.3952428, 35.8314316]]]}, "properties": {"osm_id": 1148108067, "building": "yes", "name": "", "height": null, "height_m": null, "levels": null, "tract_id": "40037020900", "tract_name": "209", "tags": {"building": "yes", "source": "microsoft/BuildingFootprints"}}}, {"type": "Feature", "geometry": {"type": "Polygon", "coordinates": [[[-96.3952657, 35.8316723], [-96.3953607, 35.83167], [-96.3953555, 35.8315266], [-96.3952604, 35.8315289], [-96.3952657, 35.8316723]]]}, "properties": {"osm_id": 1148108068, "building": "yes", "name": "", "height": null, "height_m": null, "levels": null, "tract_id": "40037020900", "tract_name": "209", "tags": {"building": "yes", "source": "microsoft/BuildingFootprints"}}}, {"type": "Feature", "geometry": {"type": "Polygon", "coordinates": [[[-96.3951156, 35.831969], [-96.395118, 35.8320733], [-96.395362, 35.8320696], [-96.3953613, 35.8320392], [-96.3954444, 35.8320379], [-96.3954427, 35.831964], [-96.3951156, 35.831969]]]}, "properties": {"osm_id": 1148108069, "building": "yes", "name": "", "height": null, "height_m": null, "levels": null, "tract_id": "40037020900", "tract_name": "209", "tags": {"building": "yes", "source": "microsoft/BuildingFootprints"}}}, {"type": "Feature", "geometry": {"type": "Polygon", "coordinates": [[[-96.3930401, 35.8319378], [-96.3930383, 35.8320848], [-96.3931348, 35.8320856], [-96.3931366, 35.8319385], [-96.3930401, 35.8319378]]]}, "properties": {"osm_id": 1148108070, "building": "yes", "name": "", "height": null, "height_m": null, "levels": null, "tract_id": "40037020900", "tract_name": "209", "tags": {"building": "yes", "source": "microsoft/BuildingFootprints"}}}, {"type": "Feature", "geometry": {"type": "Polygon", "coordinates": [[[-96.3928523, 35.8319359], [-96.3928495, 35.8320837], [-96.3928978, 35.8320843], [-96.3928973, 35.8321069], [-96.3929456, 35.8321075], [-96.3929488, 35.8319371], [-96.3928523, 35.8319359]]]}, "properties": {"osm_id": 1148108071, "building": "yes", "name": "", "height": null, "height_m": null, "levels": null, "tract_id": "40037020900", "tract_name": "209", "tags": {"building": "yes", "source": "microsoft/BuildingFootprints"}}}, {"type": "Feature", "geometry": {"type": "Polygon", "coordinates": [[[-96.3928361, 35.8320987], [-96.3928344, 35.8319574], [-96.3927164, 35.8319583], [-96.3927181, 35.8320996], [-96.3928361, 35.8320987]]]}, "properties": {"osm_id": 1148108072, "building": "yes", "name": "", "height": null, "height_m": null, "levels": null, "tract_id": "40037020900", "tract_name": "209", "tags": {"building": "yes", "source": "microsoft/BuildingFootprints"}}}, {"type": "Feature", "geometry": {"type": "Polygon", "coordinates": [[[-96.3926603, 35.8320961], [-96.3926653, 35.8319636], [-96.3925554, 35.8319608], [-96.3925504, 35.8320933], [-96.3926603, 35.8320961]]]}, "properties": {"osm_id": 1148108073, "building": "yes", "name": "", "height": null, "height_m": null, "levels": null, "tract_id": "40037020900", "tract_name": "209", "tags": {"building": "yes", "source": "microsoft/BuildingFootprints"}}}, {"type": "Feature", "geometry": {"type": "Polygon", "coordinates": [[[-96.3923239, 35.8319945], [-96.3923195, 35.832101], [-96.3924321, 35.832104], [-96.3924364, 35.8319975], [-96.3923239, 35.8319945]]]}, "properties": {"osm_id": 1148108074, "building": "yes", "name": "", "height": null, "height_m": null, "levels": null, "tract_id": "40037020900", "tract_name": "209", "tags": {"building": "yes", "source": "microsoft/BuildingFootprints"}}}, {"type": "Feature", "geometry": {"type": "Polygon", "coordinates": [[[-96.3923602, 35.8313621], [-96.3921671, 35.8313596], [-96.3921605, 35.83169], [-96.3922168, 35.8316908], [-96.392216, 35.8317321], [-96.3923527, 35.8317339], [-96.3923602, 35.8313621]]]}, "properties": {"osm_id": 1148108075, "building": "yes", "name": "", "height": null, "height_m": null, "levels": null, "tract_id": "40037020900", "tract_name": "209", "tags": {"building": "yes", "source": "microsoft/BuildingFootprints"}}}, {"type": "Feature", "geometry": {"type": "Polygon", "coordinates": [[[-96.3934371, 35.8323426], [-96.3934383, 35.8324688], [-96.3935564, 35.832468], [-96.3935576, 35.8325963], [-96.3935388, 35.8325964], [-96.3935392, 35.8326356], [-96.3937055, 35.8326345], [-96.3937051, 35.8325932], [-96.3936863, 35.8325933], [-96.3936839, 35.8323411], [-96.3934371, 35.8323426]]]}, "properties": {"osm_id": 1148108076, "building": "yes", "name": "", "height": null, "height_m": null, "levels": null, "tract_id": "40037020900", "tract_name": "209", "tags": {"building": "yes", "source": "microsoft/BuildingFootprints"}}}, {"type": "Feature", "geometry": {"type": "Polygon", "coordinates": [[[-96.3925065, 35.8323344], [-96.3925107, 35.8327258], [-96.3926797, 35.8327246], [-96.3926755, 35.8323332], [-96.3925065, 35.8323344]]]}, "properties": {"osm_id": 1148108077, "building": "yes", "name": "", "height": null, "height_m": null, "levels": null, "tract_id": "40037020900", "tract_name": "209", "tags": {"building": "yes", "source": "microsoft/BuildingFootprints"}}}, {"type": "Feature", "geometry": {"type": "Polygon", "coordinates": [[[-96.3930843, 35.8325466], [-96.3929461, 35.8325443], [-96.3929432, 35.8326552], [-96.3930814, 35.8326575], [-96.3930843, 35.8325466]]]}, "properties": {"osm_id": 1148108078, "building": "yes", "name": "", "height": null, "height_m": null, "levels": null, "tract_id": "40037020900", "tract_name": "209", "tags": {"building": "yes", "source": "microsoft/BuildingFootprints"}}}, {"type": "Feature", "geometry": {"type": "Polygon", "coordinates": [[[-96.3923417, 35.8326895], [-96.3923404, 35.8324968], [-96.3923016, 35.832497], [-96.3923013, 35.8324535], [-96.3921994, 35.832454], [-96.3921997, 35.8325018], [-96.3920883, 35.8325023], [-96.3920895, 35.8326906], [-96.3923417, 35.8326895]]]}, "properties": {"osm_id": 1148108079, "building": "yes", "name": "", "height": null, "height_m": null, "levels": null, "tract_id": "40037020900", "tract_name": "209", "tags": {"building": "yes", "source": "microsoft/BuildingFootprints"}}}, {"type": "Feature", "geometry": {"type": "Polygon", "coordinates": [[[-96.393632, 35.8331306], [-96.3936328, 35.8329697], [-96.3934639, 35.8329691], [-96.3934637, 35.8329996], [-96.3934262, 35.8329994], [-96.3934255, 35.8331299], [-96.393632, 35.8331306]]]}, "properties": {"osm_id": 1148108080, "building": "yes", "name": "", "height": null, "height_m": null, "levels": null, "tract_id": "40037020900", "tract_name": "209", "tags": {"building": "yes", "source": "microsoft/BuildingFootprints"}}}, {"type": "Feature", "geometry": {"type": "Polygon", "coordinates": [[[-96.3935819, 35.8331467], [-96.3934238, 35.8331437], [-96.3934186, 35.8333219], [-96.3935767, 35.833325], [-96.3935819, 35.8331467]]]}, "properties": {"osm_id": 1148108081, "building": "yes", "name": "", "height": null, "height_m": null, "levels": null, "tract_id": "40037020900", "tract_name": "209", "tags": {"building": "yes", "source": "microsoft/BuildingFootprints"}}}, {"type": "Feature", "geometry": {"type": "Polygon", "coordinates": [[[-96.392176, 35.8329438], [-96.3916852, 35.8329428], [-96.3916844, 35.8332037], [-96.3919219, 35.8332042], [-96.3919215, 35.8333312], [-96.3921334, 35.8333316], [-96.3921342, 35.8330881], [-96.3921756, 35.8330882], [-96.392176, 35.8329438]]]}, "properties": {"osm_id": 1148108082, "building": "yes", "name": "", "height": null, "height_m": null, "levels": null, "tract_id": "40037020900", "tract_name": "209", "tags": {"building": "yes", "source": "microsoft/BuildingFootprints"}}}, {"type": "Feature", "geometry": {"type": "Polygon", "coordinates": [[[-96.3919169, 35.832462], [-96.3917492, 35.8324609], [-96.3917504, 35.8323369], [-96.3916633, 35.8323364], [-96.3916596, 35.8327213], [-96.3919144, 35.8327229], [-96.3919169, 35.832462]]]}, "properties": {"osm_id": 1148108083, "building": "yes", "name": "", "height": null, "height_m": null, "levels": null, "tract_id": "40037020900", "tract_name": "209", "tags": {"building": "yes", "source": "microsoft/BuildingFootprints"}}}, {"type": "Feature", "geometry": {"type": "Polygon", "coordinates": [[[-96.3917092, 35.8316833], [-96.3918514, 35.8316825], [-96.3918501, 35.8315055], [-96.3917079, 35.8315062], [-96.3917092, 35.8316833]]]}, "properties": {"osm_id": 1148108084, "building": "yes", "name": "", "height": null, "height_m": null, "levels": null, "tract_id": "40037020900", "tract_name": "209", "tags": {"building": "yes", "source": "microsoft/BuildingFootprints"}}}, {"type": "Feature", "geometry": {"type": "Polygon", "coordinates": [[[-96.391288, 35.8316729], [-96.3913858, 35.8316714], [-96.3913847, 35.8316236], [-96.3914678, 35.8316223], [-96.3914655, 35.8315214], [-96.3912845, 35.8315242], [-96.391288, 35.8316729]]]}, "properties": {"osm_id": 1148108085, "building": "yes", "name": "", "height": null, "height_m": null, "levels": null, "tract_id": "40037020900", "tract_name": "209", "tags": {"building": "yes", "source": "microsoft/BuildingFootprints"}}}, {"type": "Feature", "geometry": {"type": "Polygon", "coordinates": [[[-96.3912656, 35.831464], [-96.3914694, 35.8314653], [-96.3914702, 35.8313783], [-96.3912664, 35.8313771], [-96.3912656, 35.831464]]]}, "properties": {"osm_id": 1148108169, "building": "yes", "name": "", "height": null, "height_m": null, "levels": null, "tract_id": "40037020900", "tract_name": "209", "tags": {"building": "yes", "source": "microsoft/BuildingFootprints"}}}, {"type": "Feature", "geometry": {"type": "Polygon", "coordinates": [[[-96.3901809, 35.8325187], [-96.3899744, 35.8325195], [-96.3899755, 35.8327022], [-96.390182, 35.8327014], [-96.3901809, 35.8325187]]]}, "properties": {"osm_id": 1148108170, "building": "yes", "name": "", "height": null, "height_m": null, "levels": null, "tract_id": "40037020900", "tract_name": "209", "tags": {"building": "yes", "source": "microsoft/BuildingFootprints"}}}, {"type": "Feature", "geometry": {"type": "Polygon", "coordinates": [[[-96.3898954, 35.8332979], [-96.3898352, 35.8332903], [-96.3898557, 35.833182], [-96.3897142, 35.8331643], [-96.3896436, 35.8335361], [-96.389772, 35.8335521], [-96.3897849, 35.8334841], [-96.3898583, 35.8334933], [-96.3898954, 35.8332979]]]}, "properties": {"osm_id": 1148108184, "building": "yes", "name": "", "height": null, "height_m": null, "levels": null, "tract_id": "40037020900", "tract_name": "209", "tags": {"building": "yes", "source": "microsoft/BuildingFootprints"}}}, {"type": "Feature", "geometry": {"type": "Polygon", "coordinates": [[[-96.3904171, 35.8334927], [-96.3902374, 35.8334923], [-96.3902373, 35.8335141], [-96.3901836, 35.833514], [-96.3901837, 35.8334879], [-96.3899331, 35.8334873], [-96.3899322, 35.8337678], [-96.3904162, 35.8337689], [-96.3904171, 35.8334927]]]}, "properties": {"osm_id": 1148108185, "building": "yes", "name": "", "height": null, "height_m": null, "levels": null, "tract_id": "40037020900", "tract_name": "209", "tags": {"building": "yes", "source": "microsoft/BuildingFootprints"}}}, {"type": "Feature", "geometry": {"type": "Polygon", "coordinates": [[[-96.3900687, 35.8331843], [-96.3903169, 35.8331807], [-96.3903128, 35.8329894], [-96.3900646, 35.832993], [-96.3900687, 35.8331843]]]}, "properties": {"osm_id": 1148108186, "building": "yes", "name": "", "height": null, "height_m": null, "levels": null, "tract_id": "40037020900", "tract_name": "209", "tags": {"building": "yes", "source": "microsoft/BuildingFootprints"}}}, {"type": "Feature", "geometry": {"type": "Polygon", "coordinates": [[[-96.3909051, 35.8329448], [-96.3904813, 35.8329448], [-96.3904813, 35.8331514], [-96.3906304, 35.8331514], [-96.3906304, 35.8332732], [-96.3909051, 35.8332731], [-96.3909051, 35.8329448]]]}, "properties": {"osm_id": 1148108187, "building": "yes", "name": "", "height": null, "height_m": null, "levels": null, "tract_id": "40037020900", "tract_name": "209", "tags": {"building": "yes", "source": "microsoft/BuildingFootprints"}}}, {"type": "Feature", "geometry": {"type": "Polygon", "coordinates": [[[-96.3904955, 35.8336304], [-96.3909059, 35.8336291], [-96.3909049, 35.8334203], [-96.3905938, 35.8334213], [-96.3905941, 35.8334844], [-96.3904948, 35.8334847], [-96.3904955, 35.8336304]]]}, "properties": {"osm_id": 1148108188, "building": "yes", "name": "", "height": null, "height_m": null, "levels": null, "tract_id": "40037020900", "tract_name": "209", "tags": {"building": "yes", "source": "microsoft/BuildingFootprints"}}}, {"type": "Feature", "geometry": {"type": "Polygon", "coordinates": [[[-96.3909075, 35.833283], [-96.3905964, 35.8332857], [-96.390598, 35.8334043], [-96.3909091, 35.8334016], [-96.3909075, 35.833283]]]}, "properties": {"osm_id": 1148108189, "building": "yes", "name": "", "height": null, "height_m": null, "levels": null, "tract_id": "40037020900", "tract_name": "209", "tags": {"building": "yes", "source": "microsoft/BuildingFootprints"}}}, {"type": "Feature", "geometry": {"type": "Polygon", "coordinates": [[[-96.3911805, 35.8336337], [-96.3915936, 35.8336326], [-96.3915924, 35.8333508], [-96.3914637, 35.8333512], [-96.3914633, 35.8332589], [-96.3914916, 35.8332589], [-96.3914911, 35.8331467], [-96.3915486, 35.8331466], [-96.3915484, 35.8330835], [-96.3915967, 35.8330834], [-96.3915961, 35.8329398], [-96.3911776, 35.832941], [-96.3911805, 35.8336337]]]}, "properties": {"osm_id": 1148108190, "building": "yes", "name": "", "height": null, "height_m": null, "levels": null, "tract_id": "40037020900", "tract_name": "209", "tags": {"building": "yes", "source": "microsoft/BuildingFootprints"}}}, {"type": "Feature", "geometry": {"type": "Polygon", "coordinates": [[[-96.391592, 35.8341371], [-96.3915881, 35.8339262], [-96.3911725, 35.8339312], [-96.3911763, 35.8341421], [-96.391592, 35.8341371]]]}, "properties": {"osm_id": 1148108191, "building": "yes", "name": "", "height": null, "height_m": null, "levels": null, "tract_id": "40037020900", "tract_name": "209", "tags": {"building": "yes", "source": "microsoft/BuildingFootprints"}}}, {"type": "Feature", "geometry": {"type": "Polygon", "coordinates": [[[-96.3904759, 35.8346239], [-96.3909051, 35.8346232], [-96.3909039, 35.8341177], [-96.3904774, 35.8341184], [-96.3904781, 35.8344141], [-96.3905907, 35.834414], [-96.3905911, 35.8345519], [-96.3904757, 35.8345521], [-96.3904759, 35.8346239]]]}, "properties": {"osm_id": 1148108192, "building": "yes", "name": "", "height": null, "height_m": null, "levels": null, "tract_id": "40037020900", "tract_name": "209", "tags": {"building": "yes", "source": "microsoft/BuildingFootprints"}}}, {"type": "Feature", "geometry": {"type": "Polygon", "coordinates": [[[-96.3903303, 35.8339289], [-96.3901576, 35.8339273], [-96.3901548, 35.8341252], [-96.3903276, 35.8341267], [-96.3903303, 35.8339289]]]}, "properties": {"osm_id": 1148108193, "building": "yes", "name": "", "height": null, "height_m": null, "levels": null, "tract_id": "40037020900", "tract_name": "209", "tags": {"building": "yes", "source": "microsoft/BuildingFootprints"}}}, {"type": "Feature", "geometry": {"type": "Polygon", "coordinates": [[[-96.3898535, 35.8342083], [-96.3899929, 35.8342098], [-96.3899974, 35.8339359], [-96.389858, 35.8339344], [-96.3898535, 35.8342083]]]}, "properties": {"osm_id": 1148108194, "building": "yes", "name": "", "height": null, "height_m": null, "levels": null, "tract_id": "40037020900", "tract_name": "209", "tags": {"building": "yes", "source": "microsoft/BuildingFootprints"}}}, {"type": "Feature", "geometry": {"type": "Polygon", "coordinates": [[[-96.3897824, 35.8344262], [-96.3897834, 35.8345915], [-96.3898505, 35.8345912], [-96.3898509, 35.8346598], [-96.389992, 35.8346592], [-96.3899926, 35.8347559], [-96.3902431, 35.8347548], [-96.3902406, 35.8343634], [-96.3899939, 35.8343645], [-96.3899943, 35.8344254], [-96.3897824, 35.8344262]]]}, "properties": {"osm_id": 1148108195, "building": "yes", "name": "", "height": null, "height_m": null, "levels": null, "tract_id": "40037020900", "tract_name": "209", "tags": {"building": "yes", "source": "microsoft/BuildingFootprints"}}}, {"type": "Feature", "geometry": {"type": "Polygon", "coordinates": [[[-96.391173, 35.8343424], [-96.3911732, 35.8347568], [-96.3915407, 35.8347567], [-96.3915406, 35.8346871], [-96.3915782, 35.8346871], [-96.391578, 35.8343422], [-96.391173, 35.8343424]]]}, "properties": {"osm_id": 1148108196, "building": "yes", "name": "", "height": null, "height_m": null, "levels": null, "tract_id": "40037020900", "tract_name": "209", "tags": {"building": "yes", "source": "microsoft/BuildingFootprints"}}}, {"type": "Feature", "geometry": {"type": "Polygon", "coordinates": [[[-96.3909085, 35.8349127], [-96.3904955, 35.8349119], [-96.3904947, 35.8351925], [-96.3905591, 35.8351926], [-96.3905589, 35.83526], [-96.3906904, 35.8352602], [-96.3906902, 35.8353276], [-96.3909074, 35.835328], [-96.3909085, 35.8349127]]]}, "properties": {"osm_id": 1148108197, "building": "yes", "name": "", "height": null, "height_m": null, "levels": null, "tract_id": "40037020900", "tract_name": "209", "tags": {"building": "yes", "source": "microsoft/BuildingFootprints"}}}, {"type": "Feature", "geometry": {"type": "Polygon", "coordinates": [[[-96.3902052, 35.835219], [-96.3903812, 35.8352198], [-96.3903834, 35.8349318], [-96.3902074, 35.834931], [-96.3902052, 35.835219]]]}, "properties": {"osm_id": 1148108198, "building": "yes", "name": "", "height": null, "height_m": null, "levels": null, "tract_id": "40037020900", "tract_name": "209", "tags": {"building": "yes", "source": "microsoft/BuildingFootprints"}}}, {"type": "Feature", "geometry": {"type": "Polygon", "coordinates": [[[-96.3899176, 35.8350456], [-96.3899199, 35.8352805], [-96.3900449, 35.8352797], [-96.3900427, 35.8350448], [-96.3899176, 35.8350456]]]}, "properties": {"osm_id": 1148108199, "building": "yes", "name": "", "height": null, "height_m": null, "levels": null, "tract_id": "40037020900", "tract_name": "209", "tags": {"building": "yes", "source": "microsoft/BuildingFootprints"}}}, {"type": "Feature", "geometry": {"type": "Polygon", "coordinates": [[[-96.389677, 35.8351719], [-96.3898111, 35.8351711], [-96.3898099, 35.8350363], [-96.3896758, 35.8350371], [-96.389677, 35.8351719]]]}, "properties": {"osm_id": 1148108200, "building": "yes", "name": "", "height": null, "height_m": null, "levels": null, "tract_id": "40037020900", "tract_name": "209", "tags": {"building": "yes", "source": "microsoft/BuildingFootprints"}}}, {"type": "Feature", "geometry": {"type": "Polygon", "coordinates": [[[-96.38976, 35.8355514], [-96.3894435, 35.8355537], [-96.3894448, 35.8356754], [-96.3896316, 35.8356741], [-96.3896317, 35.8356828], [-96.3897614, 35.8356819], [-96.38976, 35.8355514]]]}, "properties": {"osm_id": 1148108201, "building": "yes", "name": "", "height": null, "height_m": null, "levels": null, "tract_id": "40037020900", "tract_name": "209", "tags": {"building": "yes", "source": "microsoft/BuildingFootprints"}}}, {"type": "Feature", "geometry": {"type": "Polygon", "coordinates": [[[-96.3894611, 35.8362345], [-96.3903407, 35.8362445], [-96.3903436, 35.8360793], [-96.3896142, 35.836071], [-96.3896158, 35.8359754], [-96.3895219, 35.8359743], [-96.3895201, 35.8360786], [-96.3894638, 35.836078], [-96.3894611, 35.8362345]]]}, "properties": {"osm_id": 1148108202, "building": "yes", "name": "", "height": null, "height_m": null, "levels": null, "tract_id": "40037020900", "tract_name": "209", "tags": {"building": "yes", "source": "microsoft/BuildingFootprints"}}}, {"type": "Feature", "geometry": {"type": "Polygon", "coordinates": [[[-96.3903831, 35.8353829], [-96.3902329, 35.8353841], [-96.3902356, 35.8355994], [-96.3902061, 35.8355996], [-96.3902067, 35.8356496], [-96.3902335, 35.8356494], [-96.3902347, 35.8357451], [-96.3903876, 35.8357438], [-96.3903831, 35.8353829]]]}, "properties": {"osm_id": 1148108203, "building": "yes", "name": "", "height": null, "height_m": null, "levels": null, "tract_id": "40037020900", "tract_name": "209", "tags": {"building": "yes", "source": "microsoft/BuildingFootprints"}}}, {"type": "Feature", "geometry": {"type": "Polygon", "coordinates": [[[-96.3907337, 35.8355358], [-96.3909017, 35.8355372], [-96.3909026, 35.8354664], [-96.3906274, 35.8354641], [-96.3906264, 35.8355371], [-96.3905701, 35.8355366], [-96.3905675, 35.8357398], [-96.3907758, 35.8357415], [-96.3907766, 35.8356775], [-96.3907319, 35.8356772], [-96.3907337, 35.8355358]]]}, "properties": {"osm_id": 1148108204, "building": "yes", "name": "", "height": null, "height_m": null, "levels": null, "tract_id": "40037020900", "tract_name": "209", "tags": {"building": "yes", "source": "microsoft/BuildingFootprints"}}}, {"type": "Feature", "geometry": {"type": "Polygon", "coordinates": [[[-96.3905207, 35.8353942], [-96.3905218, 35.8354647], [-96.3906291, 35.8354636], [-96.390628, 35.8353931], [-96.3905207, 35.8353942]]]}, "properties": {"osm_id": 1148108205, "building": "yes", "name": "", "height": null, "height_m": null, "levels": null, "tract_id": "40037020900", "tract_name": "209", "tags": {"building": "yes", "source": "microsoft/BuildingFootprints"}}}, {"type": "Feature", "geometry": {"type": "Polygon", "coordinates": [[[-96.3917035, 35.8356871], [-96.3918134, 35.8356875], [-96.3918143, 35.8355332], [-96.3917044, 35.8355327], [-96.3917035, 35.8356871]]]}, "properties": {"osm_id": 1148108206, "building": "yes", "name": "", "height": null, "height_m": null, "levels": null, "tract_id": "40037020900", "tract_name": "209", "tags": {"building": "yes", "source": "microsoft/BuildingFootprints"}}}, {"type": "Feature", "geometry": {"type": "Polygon", "coordinates": [[[-96.3918728, 35.8356879], [-96.3919783, 35.8356862], [-96.3919747, 35.8355384], [-96.3918691, 35.8355401], [-96.3918728, 35.8356879]]]}, "properties": {"osm_id": 1148108207, "building": "yes", "name": "", "height": null, "height_m": null, "levels": null, "tract_id": "40037020900", "tract_name": "209", "tags": {"building": "yes", "source": "microsoft/BuildingFootprints"}}}, {"type": "Feature", "geometry": {"type": "Polygon", "coordinates": [[[-96.3916038, 35.8365063], [-96.3915099, 35.8365048], [-96.3915048, 35.83672], [-96.3915986, 35.8367215], [-96.3916038, 35.8365063]]]}, "properties": {"osm_id": 1148108208, "building": "yes", "name": "", "height": null, "height_m": null, "levels": null, "tract_id": "40037020900", "tract_name": "209", "tags": {"building": "yes", "source": "microsoft/BuildingFootprints"}}}, {"type": "Feature", "geometry": {"type": "Polygon", "coordinates": [[[-96.3912031, 35.8367263], [-96.3913748, 35.8367248], [-96.3913727, 35.8365596], [-96.391201, 35.836561], [-96.3912031, 35.8367263]]]}, "properties": {"osm_id": 1148108209, "building": "yes", "name": "", "height": null, "height_m": null, "levels": null, "tract_id": "40037020900", "tract_name": "209", "tags": {"building": "yes", "source": "microsoft/BuildingFootprints"}}}, {"type": "Feature", "geometry": {"type": "Polygon", "coordinates": [[[-96.390822, 35.836269], [-96.3905055, 35.8362671], [-96.3905046, 35.8363749], [-96.3908211, 35.8363768], [-96.390822, 35.836269]]]}, "properties": {"osm_id": 1148108210, "building": "yes", "name": "", "height": null, "height_m": null, "levels": null, "tract_id": "40037020900", "tract_name": "209", "tags": {"building": "yes", "source": "microsoft/BuildingFootprints"}}}, {"type": "Feature", "geometry": {"type": "Polygon", "coordinates": [[[-96.3906298, 35.8371756], [-96.3904753, 35.8371746], [-96.3904732, 35.8373964], [-96.3906276, 35.8373973], [-96.3906298, 35.8371756]]]}, "properties": {"osm_id": 1148108211, "building": "yes", "name": "", "height": null, "height_m": null, "levels": null, "tract_id": "40037020900", "tract_name": "209", "tags": {"building": "yes", "source": "microsoft/BuildingFootprints"}}}, {"type": "Feature", "geometry": {"type": "Polygon", "coordinates": [[[-96.390765, 35.8374967], [-96.3905801, 35.8375014], [-96.3905845, 35.8376143], [-96.3907694, 35.8376097], [-96.390765, 35.8374967]]]}, "properties": {"osm_id": 1148108212, "building": "yes", "name": "", "height": null, "height_m": null, "levels": null, "tract_id": "40037020900", "tract_name": "209", "tags": {"building": "yes", "source": "microsoft/BuildingFootprints"}}}, {"type": "Feature", "geometry": {"type": "Polygon", "coordinates": [[[-96.3915902, 35.8369007], [-96.3911691, 35.8369012], [-96.39117, 35.83736], [-96.3912881, 35.8373599], [-96.3912883, 35.8374655], [-96.3914251, 35.8374653], [-96.3914253, 35.8375836], [-96.3915916, 35.8375834], [-96.3915902, 35.8369007]]]}, "properties": {"osm_id": 1148108213, "building": "yes", "name": "", "height": null, "height_m": null, "levels": null, "tract_id": "40037020900", "tract_name": "209", "tags": {"building": "yes", "source": "microsoft/BuildingFootprints"}}}, {"type": "Feature", "geometry": {"type": "Polygon", "coordinates": [[[-96.3902641, 35.8376684], [-96.390374, 35.8376667], [-96.3903691, 35.8374602], [-96.3902592, 35.837462], [-96.3902641, 35.8376684]]]}, "properties": {"osm_id": 1148108214, "building": "yes", "name": "", "height": null, "height_m": null, "levels": null, "tract_id": "40037020900", "tract_name": "209", "tags": {"building": "yes", "source": "microsoft/BuildingFootprints"}}}, {"type": "Feature", "geometry": {"type": "Polygon", "coordinates": [[[-96.390101, 35.8376662], [-96.3901949, 35.8376651], [-96.3901917, 35.8374726], [-96.3900978, 35.8374737], [-96.390101, 35.8376662]]]}, "properties": {"osm_id": 1148108215, "building": "yes", "name": "", "height": null, "height_m": null, "levels": null, "tract_id": "40037020900", "tract_name": "209", "tags": {"building": "yes", "source": "microsoft/BuildingFootprints"}}}, {"type": "Feature", "geometry": {"type": "Polygon", "coordinates": [[[-96.3899831, 35.837505], [-96.389841, 35.8375088], [-96.3898475, 35.8376695], [-96.3899895, 35.8376657], [-96.3899831, 35.837505]]]}, "properties": {"osm_id": 1148108216, "building": "yes", "name": "", "height": null, "height_m": null, "levels": null, "tract_id": "40037020900", "tract_name": "209", "tags": {"building": "yes", "source": "microsoft/BuildingFootprints"}}}, {"type": "Feature", "geometry": {"type": "Polygon", "coordinates": [[[-96.3894103, 35.8376706], [-96.3895042, 35.8376695], [-96.3895037, 35.8376456], [-96.3896179, 35.8376442], [-96.3896162, 35.8375539], [-96.3895154, 35.8375551], [-96.3895147, 35.8375128], [-96.3894503, 35.8375136], [-96.3894511, 35.837557], [-96.3894082, 35.8375576], [-96.3894103, 35.8376706]]]}, "properties": {"osm_id": 1148108217, "building": "yes", "name": "", "height": null, "height_m": null, "levels": null, "tract_id": "40037020900", "tract_name": "209", "tags": {"building": "yes", "source": "microsoft/BuildingFootprints"}}}, {"type": "Feature", "geometry": {"type": "Polygon", "coordinates": [[[-96.3893238, 35.8376679], [-96.3893197, 35.8374962], [-96.3892033, 35.837498], [-96.3892074, 35.8376697], [-96.3893238, 35.8376679]]]}, "properties": {"osm_id": 1148108218, "building": "yes", "name": "", "height": null, "height_m": null, "levels": null, "tract_id": "40037020900", "tract_name": "209", "tags": {"building": "yes", "source": "microsoft/BuildingFootprints"}}}, {"type": "Feature", "geometry": {"type": "Polygon", "coordinates": [[[-96.3891135, 35.8375282], [-96.3890159, 35.8375291], [-96.3890164, 35.8375704], [-96.3889854, 35.8375707], [-96.388986, 35.8376207], [-96.3890209, 35.8376204], [-96.3890216, 35.8376682], [-96.3891154, 35.8376674], [-96.3891135, 35.8375282]]]}, "properties": {"osm_id": 1148108702, "building": "yes", "name": "", "height": null, "height_m": null, "levels": null, "tract_id": "40037020900", "tract_name": "209", "tags": {"building": "yes", "source": "microsoft/BuildingFootprints"}}}, {"type": "Feature", "geometry": {"type": "Polygon", "coordinates": [[[-96.3889917, 35.8372654], [-96.3893634, 35.8372623], [-96.3893613, 35.8370938], [-96.3889896, 35.8370968], [-96.3889917, 35.8372654]]]}, "properties": {"osm_id": 1148108703, "building": "yes", "name": "", "height": null, "height_m": null, "levels": null, "tract_id": "40037020900", "tract_name": "209", "tags": {"building": "yes", "source": "microsoft/BuildingFootprints"}}}, {"type": "Feature", "geometry": {"type": "Polygon", "coordinates": [[[-96.3899855, 35.8371555], [-96.3901248, 35.8371519], [-96.3901188, 35.8369998], [-96.3900733, 35.837001], [-96.3900727, 35.8369858], [-96.3899655, 35.8369886], [-96.3899675, 35.8370386], [-96.3899407, 35.8370393], [-96.3899433, 35.8371044], [-96.3899834, 35.8371034], [-96.3899855, 35.8371555]]]}, "properties": {"osm_id": 1148108704, "building": "yes", "name": "", "height": null, "height_m": null, "levels": null, "tract_id": "40037020900", "tract_name": "209", "tags": {"building": "yes", "source": "microsoft/BuildingFootprints"}}}, {"type": "Feature", "geometry": {"type": "Polygon", "coordinates": [[[-96.3903857, 35.8371926], [-96.3902291, 35.8371952], [-96.3902312, 35.8372788], [-96.3903878, 35.8372762], [-96.3903857, 35.8371926]]]}, "properties": {"osm_id": 1148108705, "building": "yes", "name": "", "height": null, "height_m": null, "levels": null, "tract_id": "40037020900", "tract_name": "209", "tags": {"building": "yes", "source": "microsoft/BuildingFootprints"}}}, {"type": "Feature", "geometry": {"type": "Polygon", "coordinates": [[[-96.389258, 35.8364157], [-96.3890059, 35.8364114], [-96.3890014, 35.8365853], [-96.3892534, 35.8365896], [-96.389258, 35.8364157]]]}, "properties": {"osm_id": 1148108706, "building": "yes", "name": "", "height": null, "height_m": null, "levels": null, "tract_id": "40037020900", "tract_name": "209", "tags": {"building": "yes", "source": "microsoft/BuildingFootprints"}}}, {"type": "Feature", "geometry": {"type": "Polygon", "coordinates": [[[-96.3890852, 35.838075], [-96.3891511, 35.8380754], [-96.3891507, 35.8381134], [-96.3891963, 35.8381137], [-96.3891981, 35.8379388], [-96.3890866, 35.837938], [-96.3890852, 35.838075]]]}, "properties": {"osm_id": 1148108723, "building": "yes", "name": "", "height": null, "height_m": null, "levels": null, "tract_id": "40037020900", "tract_name": "209", "tags": {"building": "yes", "source": "microsoft/BuildingFootprints"}}}, {"type": "Feature", "geometry": {"type": "Polygon", "coordinates": [[[-96.3893794, 35.8380247], [-96.3892733, 35.8380237], [-96.3892713, 35.838165], [-96.3893774, 35.838166], [-96.3893794, 35.8380247]]]}, "properties": {"osm_id": 1148108724, "building": "yes", "name": "", "height": null, "height_m": null, "levels": null, "tract_id": "40037020900", "tract_name": "209", "tags": {"building": "yes", "source": "microsoft/BuildingFootprints"}}}, {"type": "Feature", "geometry": {"type": "Polygon", "coordinates": [[[-96.391335, 35.8387082], [-96.3915912, 35.8387059], [-96.3915898, 35.8386068], [-96.3913336, 35.8386091], [-96.391335, 35.8387082]]]}, "properties": {"osm_id": 1148108725, "building": "yes", "name": "", "height": null, "height_m": null, "levels": null, "tract_id": "40037020900", "tract_name": "209", "tags": {"building": "yes", "source": "microsoft/BuildingFootprints"}}}, {"type": "Feature", "geometry": {"type": "Polygon", "coordinates": [[[-96.3917861, 35.8385042], [-96.3917838, 35.8386303], [-96.39206, 35.8386336], [-96.3920623, 35.8385075], [-96.3917861, 35.8385042]]]}, "properties": {"osm_id": 1148108726, "building": "yes", "name": "", "height": null, "height_m": null, "levels": null, "tract_id": "40037020900", "tract_name": "209", "tags": {"building": "yes", "source": "microsoft/BuildingFootprints"}}}, {"type": "Feature", "geometry": {"type": "Polygon", "coordinates": [[[-96.3921135, 35.8380558], [-96.3919044, 35.8380598], [-96.3919057, 35.838102], [-96.3918237, 35.8381035], [-96.3918259, 35.8381787], [-96.3919052, 35.8381772], [-96.3919064, 35.8382216], [-96.3920631, 35.8382186], [-96.3920606, 35.8381316], [-96.3921157, 35.8381306], [-96.3921135, 35.8380558]]]}, "properties": {"osm_id": 1148108727, "building": "yes", "name": "", "height": null, "height_m": null, "levels": null, "tract_id": "40037020900", "tract_name": "209", "tags": {"building": "yes", "source": "microsoft/BuildingFootprints"}}}, {"type": "Feature", "geometry": {"type": "Polygon", "coordinates": [[[-96.3924674, 35.8379734], [-96.3923709, 35.8379748], [-96.3923717, 35.8380095], [-96.3923353, 35.8380101], [-96.3923367, 35.8380744], [-96.3923662, 35.838074], [-96.392367, 35.838114], [-96.3924704, 35.8381125], [-96.3924674, 35.8379734]]]}, "properties": {"osm_id": 1148108728, "building": "yes", "name": "", "height": null, "height_m": null, "levels": null, "tract_id": "40037020900", "tract_name": "209", "tags": {"building": "yes", "source": "microsoft/BuildingFootprints"}}}, {"type": "Feature", "geometry": {"type": "Polygon", "coordinates": [[[-96.3927096, 35.8375374], [-96.3927117, 35.8376178], [-96.3927745, 35.8376167], [-96.3927756, 35.8376558], [-96.3928238, 35.8376549], [-96.3928245, 35.837681], [-96.3928996, 35.8376797], [-96.392895, 35.8375101], [-96.3928575, 35.8375108], [-96.3928572, 35.8374999], [-96.3927607, 35.8375017], [-96.3927616, 35.8375364], [-96.3927096, 35.8375374]]]}, "properties": {"osm_id": 1148108729, "building": "yes", "name": "", "height": null, "height_m": null, "levels": null, "tract_id": "40037020900", "tract_name": "209", "tags": {"building": "yes", "source": "microsoft/BuildingFootprints"}}}, {"type": "Feature", "geometry": {"type": "Polygon", "coordinates": [[[-96.3926788, 35.8376191], [-96.3926771, 35.8375604], [-96.392527, 35.8375634], [-96.3925296, 35.8376525], [-96.3926369, 35.8376504], [-96.392636, 35.8376199], [-96.3926788, 35.8376191]]]}, "properties": {"osm_id": 1148108730, "building": "yes", "name": "", "height": null, "height_m": null, "levels": null, "tract_id": "40037020900", "tract_name": "209", "tags": {"building": "yes", "source": "microsoft/BuildingFootprints"}}}, {"type": "Feature", "geometry": {"type": "Polygon", "coordinates": [[[-96.3930173, 35.8375136], [-96.3930206, 35.8376584], [-96.3931343, 35.8376567], [-96.393131, 35.8375119], [-96.3930173, 35.8375136]]]}, "properties": {"osm_id": 1148108731, "building": "yes", "name": "", "height": null, "height_m": null, "levels": null, "tract_id": "40037020900", "tract_name": "209", "tags": {"building": "yes", "source": "microsoft/BuildingFootprints"}}}, {"type": "Feature", "geometry": {"type": "Polygon", "coordinates": [[[-96.3925724, 35.8384689], [-96.3927801, 35.8384672], [-96.3927787, 35.8383541], [-96.392571, 35.8383558], [-96.3925724, 35.8384689]]]}, "properties": {"osm_id": 1148108732, "building": "yes", "name": "", "height": null, "height_m": null, "levels": null, "tract_id": "40037020900", "tract_name": "209", "tags": {"building": "yes", "source": "microsoft/BuildingFootprints"}}}, {"type": "Feature", "geometry": {"type": "Polygon", "coordinates": [[[-96.3926891, 35.8386986], [-96.3928312, 35.8386974], [-96.392829, 35.8385278], [-96.3926869, 35.838529], [-96.3926891, 35.8386986]]]}, "properties": {"osm_id": 1148108733, "building": "yes", "name": "", "height": null, "height_m": null, "levels": null, "tract_id": "40037020900", "tract_name": "209", "tags": {"building": "yes", "source": "microsoft/BuildingFootprints"}}}, {"type": "Feature", "geometry": {"type": "Polygon", "coordinates": [[[-96.3929692, 35.8386718], [-96.3931112, 35.8386673], [-96.3931059, 35.8385574], [-96.3929639, 35.8385619], [-96.3929692, 35.8386718]]]}, "properties": {"osm_id": 1148108734, "building": "yes", "name": "", "height": null, "height_m": null, "levels": null, "tract_id": "40037020900", "tract_name": "209", "tags": {"building": "yes", "source": "microsoft/BuildingFootprints"}}}, {"type": "Feature", "geometry": {"type": "Polygon", "coordinates": [[[-96.391474, 35.840321], [-96.3916255, 35.840323], [-96.3916301, 35.8400926], [-96.3914786, 35.8400906], [-96.391474, 35.840321]]]}, "properties": {"osm_id": 1148108735, "building": "yes", "name": "", "height": null, "height_m": null, "levels": null, "tract_id": "40037020900", "tract_name": "209", "tags": {"building": "yes", "source": "microsoft/BuildingFootprints"}}}, {"type": "Feature", "geometry": {"type": "Polygon", "coordinates": [[[-96.3901716, 35.8405583], [-96.3898278, 35.8404702], [-96.3897877, 35.840573], [-96.3901314, 35.8406611], [-96.3901716, 35.8405583]]]}, "properties": {"osm_id": 1148108736, "building": "yes", "name": "", "height": null, "height_m": null, "levels": null, "tract_id": "40037020900", "tract_name": "209", "tags": {"building": "yes", "source": "microsoft/BuildingFootprints"}}}, {"type": "Feature", "geometry": {"type": "Polygon", "coordinates": [[[-96.3938813, 35.8399714], [-96.3932335, 35.8399692], [-96.3932297, 35.8407077], [-96.3937111, 35.8407093], [-96.3937117, 35.8406028], [-96.3938324, 35.8406032], [-96.3938321, 35.840651], [-96.3939287, 35.8406514], [-96.3939289, 35.8406057], [-96.3940818, 35.8406063], [-96.3940826, 35.8404497], [-96.3938788, 35.840449], [-96.3938813, 35.8399714]]]}, "properties": {"osm_id": 1148108737, "building": "yes", "name": "", "height": null, "height_m": null, "levels": null, "tract_id": "40037020900", "tract_name": "209", "tags": {"building": "yes", "source": "microsoft/BuildingFootprints"}}}, {"type": "Feature", "geometry": {"type": "Polygon", "coordinates": [[[-96.3979538, 35.8442284], [-96.3982327, 35.8445976], [-96.3985565, 35.8444369], [-96.3984765, 35.8443309], [-96.3985272, 35.8443057], [-96.3985009, 35.8442709], [-96.3984385, 35.8443019], [-96.398266, 35.8440734], [-96.3979538, 35.8442284]]]}, "properties": {"osm_id": 1148108738, "building": "yes", "name": "", "height": null, "height_m": null, "levels": null, "tract_id": "40037020900", "tract_name": "209", "tags": {"building": "yes", "source": "microsoft/BuildingFootprints"}}}, {"type": "Feature", "geometry": {"type": "Polygon", "coordinates": [[[-96.3952448, 35.8424407], [-96.3955029, 35.8425356], [-96.3956239, 35.8423191], [-96.3953658, 35.8422243], [-96.3952448, 35.8424407]]]}, "properties": {"osm_id": 1148108739, "building": "yes", "name": "", "height": null, "height_m": null, "levels": null, "tract_id": "40037020900", "tract_name": "209", "tags": {"building": "yes", "source": "microsoft/BuildingFootprints"}}}, {"type": "Feature", "geometry": {"type": "Polygon", "coordinates": [[[-96.3866107, 35.8480991], [-96.3868267, 35.8480966], [-96.3868227, 35.8478758], [-96.386529, 35.8478793], [-96.38653, 35.847937], [-96.3866078, 35.8479361], [-96.3866107, 35.8480991]]]}, "properties": {"osm_id": 1148115020, "building": "yes", "name": "", "height": null, "height_m": null, "levels": null, "tract_id": "40037020900", "tract_name": "209", "tags": {"building": "yes", "source": "microsoft/BuildingFootprints"}}}, {"type": "Feature", "geometry": {"type": "Polygon", "coordinates": [[[-96.3856072, 35.8482844], [-96.3856144, 35.8480715], [-96.3853384, 35.8480653], [-96.3853338, 35.8482009], [-96.3852628, 35.8481993], [-96.3852579, 35.848344], [-96.3853315, 35.8483456], [-96.3853338, 35.8482783], [-96.3856072, 35.8482844]]]}, "properties": {"osm_id": 1148115021, "building": "yes", "name": "", "height": null, "height_m": null, "levels": null, "tract_id": "40037020900", "tract_name": "209", "tags": {"building": "yes", "source": "microsoft/BuildingFootprints"}}}, {"type": "Feature", "geometry": {"type": "Polygon", "coordinates": [[[-96.3866851, 35.8485278], [-96.3865457, 35.8485298], [-96.3865499, 35.8487232], [-96.3866893, 35.8487213], [-96.3866851, 35.8485278]]]}, "properties": {"osm_id": 1148115022, "building": "yes", "name": "", "height": null, "height_m": null, "levels": null, "tract_id": "40037020900", "tract_name": "209", "tags": {"building": "yes", "source": "microsoft/BuildingFootprints"}}}, {"type": "Feature", "geometry": {"type": "Polygon", "coordinates": [[[-96.3866875, 35.8487505], [-96.3865533, 35.8487508], [-96.386554, 35.8489182], [-96.3866881, 35.8489179], [-96.3866875, 35.8487505]]]}, "properties": {"osm_id": 1148115023, "building": "yes", "name": "", "height": null, "height_m": null, "levels": null, "tract_id": "40037020900", "tract_name": "209", "tags": {"building": "yes", "source": "microsoft/BuildingFootprints"}}}, {"type": "Feature", "geometry": {"type": "Polygon", "coordinates": [[[-96.3869268, 35.8490346], [-96.3867553, 35.8490309], [-96.3867522, 35.8491265], [-96.3869237, 35.8491302], [-96.3869268, 35.8490346]]]}, "properties": {"osm_id": 1148115024, "building": "yes", "name": "", "height": null, "height_m": null, "levels": null, "tract_id": "40037020900", "tract_name": "209", "tags": {"building": "yes", "source": "microsoft/BuildingFootprints"}}}, {"type": "Feature", "geometry": {"type": "Polygon", "coordinates": [[[-96.3860543, 35.8474886], [-96.386056, 35.8476691], [-96.38663, 35.8476655], [-96.3866296, 35.8476263], [-96.3867288, 35.8476257], [-96.3867279, 35.8475257], [-96.3866274, 35.8475263], [-96.386627, 35.847485], [-96.3860543, 35.8474886]]]}, "properties": {"osm_id": 1148115025, "building": "yes", "name": "", "height": null, "height_m": null, "levels": null, "tract_id": "40037020900", "tract_name": "209", "tags": {"building": "yes", "source": "microsoft/BuildingFootprints"}}}, {"type": "Feature", "geometry": {"type": "Polygon", "coordinates": [[[-96.3878984, 35.8464863], [-96.3878776, 35.8465676], [-96.3877748, 35.8465504], [-96.3877625, 35.8465983], [-96.3879719, 35.8466335], [-96.3880049, 35.8465042], [-96.3878984, 35.8464863]]]}, "properties": {"osm_id": 1148115026, "building": "yes", "name": "", "height": null, "height_m": null, "levels": null, "tract_id": "40037020900", "tract_name": "209", "tags": {"building": "yes", "source": "microsoft/BuildingFootprints"}}}, {"type": "Feature", "geometry": {"type": "Polygon", "coordinates": [[[-96.3865182, 35.852], [-96.3867758, 35.8521795], [-96.3869282, 35.8520357], [-96.3868542, 35.8519841], [-96.3869126, 35.8519291], [-96.3868108, 35.8518582], [-96.3867577, 35.8519082], [-96.386676, 35.8518512], [-96.3865182, 35.852]]]}, "properties": {"osm_id": 1148115027, "building": "yes", "name": "", "height": null, "height_m": null, "levels": null, "tract_id": "40037020900", "tract_name": "209", "tags": {"building": "yes", "source": "microsoft/BuildingFootprints"}}}, {"type": "Feature", "geometry": {"type": "Polygon", "coordinates": [[[-96.3853759, 35.8581408], [-96.3853693, 35.8579475], [-96.3852594, 35.85795], [-96.3852661, 35.8581433], [-96.3853759, 35.8581408]]]}, "properties": {"osm_id": 1148115029, "building": "yes", "name": "", "height": null, "height_m": null, "levels": null, "tract_id": "40037020900", "tract_name": "209", "tags": {"building": "yes", "source": "microsoft/BuildingFootprints"}}}, {"type": "Feature", "geometry": {"type": "Polygon", "coordinates": [[[-96.3868324, 35.8587548], [-96.3869098, 35.8588151], [-96.3870546, 35.8586929], [-96.3869771, 35.8586326], [-96.3868324, 35.8587548]]]}, "properties": {"osm_id": 1148115030, "building": "yes", "name": "", "height": null, "height_m": null, "levels": null, "tract_id": "40037020900", "tract_name": "209", "tags": {"building": "yes", "source": "microsoft/BuildingFootprints"}}}, {"type": "Feature", "geometry": {"type": "Polygon", "coordinates": [[[-96.3909299, 35.8310607], [-96.3909309, 35.8316039], [-96.3906462, 35.8316043], [-96.3906458, 35.8314515], [-96.3908812, 35.8310608], [-96.3909299, 35.8310607]]]}, "properties": {"osm_id": 1336671485, "building": "yes", "name": "", "height": null, "height_m": null, "levels": null, "tract_id": "40037020900", "tract_name": "209", "tags": {"building": "yes"}}}, {"type": "Feature", "geometry": {"type": "Polygon", "coordinates": [[[-96.3909352, 35.8321077], [-96.3909447, 35.8318922], [-96.3904964, 35.8318953], [-96.3904964, 35.8319634], [-96.3905991, 35.831968], [-96.3905991, 35.8321073], [-96.3909352, 35.8321077]]]}, "properties": {"osm_id": 1336671486, "building": "yes", "name": "", "height": null, "height_m": null, "levels": null, "tract_id": "40037020900", "tract_name": "209", "tags": {"building": "yes"}}}, {"type": "Feature", "geometry": {"type": "Polygon", "coordinates": [[[-96.3909348, 35.8321727], [-96.390934, 35.8327255], [-96.3904723, 35.8327251], [-96.3904724, 35.8326467], [-96.3906559, 35.8326469], [-96.3906565, 35.8323107], [-96.3904848, 35.8323105], [-96.390485, 35.8321723], [-96.3906207, 35.8321724], [-96.3909348, 35.8321727]]]}, "properties": {"osm_id": 1336671487, "building": "yes", "name": "", "height": null, "height_m": null, "levels": null, "tract_id": "40037020900", "tract_name": "209", "tags": {"building": "yes"}}}, {"type": "Feature", "geometry": {"type": "Polygon", "coordinates": [[[-96.3911775, 35.8349376], [-96.3911792, 35.8355388], [-96.3914266, 35.8355384], [-96.3914272, 35.8357553], [-96.3916041, 35.835755], [-96.391602, 35.8349369], [-96.3911775, 35.8349376]]]}, "properties": {"osm_id": 1336671488, "building": "yes", "name": "", "height": null, "height_m": null, "levels": null, "tract_id": "40037020900", "tract_name": "209", "tags": {"building": "yes"}}}, {"type": "Feature", "geometry": {"type": "Polygon", "coordinates": [[[-96.3981082, 35.8304523], [-96.3980507, 35.8304518], [-96.3980516, 35.8303875], [-96.3981091, 35.830388], [-96.3981082, 35.8304523]]]}, "properties": {"osm_id": 1336821133, "building": "shed", "name": "", "height": null, "height_m": null, "levels": null, "tract_id": "40037020900", "tract_name": "209", "tags": {"building": "shed"}}}, {"type": "Feature", "geometry": {"type": "Polygon", "coordinates": [[[-96.3911923, 35.8325833], [-96.3911971, 35.8321877], [-96.3913485, 35.8321889], [-96.3913479, 35.8322396], [-96.3915548, 35.8322412], [-96.3915541, 35.832297], [-96.3916176, 35.8322975], [-96.3916141, 35.8325866], [-96.3911923, 35.8325833]]]}, "properties": {"osm_id": 1364382513, "building": "yes", "name": "", "height": null, "height_m": null, "levels": null, "tract_id": "40037020900", "tract_name": "209", "tags": {"building": "yes"}}}, {"type": "Feature", "geometry": {"type": "Polygon", "coordinates": [[[-96.3916804, 35.8322752], [-96.391676, 35.8318948], [-96.3919541, 35.8318927], [-96.3919564, 35.832092], [-96.3918565, 35.8320928], [-96.3918579, 35.8322101], [-96.3917701, 35.8322108], [-96.3917708, 35.8322745], [-96.3916804, 35.8322752]]]}, "properties": {"osm_id": 1364382514, "building": "yes", "name": "", "height": null, "height_m": null, "levels": null, "tract_id": "40037020900", "tract_name": "209", "tags": {"building": "yes"}}}]}