{"type": "FeatureCollection", "features": [{"type": "Feature", "geometry": {"type": "Polygon", "coordinates": [[[-98.4200685, 35.8420257], [-98.4196839, 35.8420097], [-98.4196963, 35.8418129], [-98.420081, 35.8418289], [-98.4200685, 35.8420257]]]}, "properties": {"osm_id": 218020905, "building": "retail", "name": "Hutch's", "height": null, "height_m": null, "levels": null, "tract_id": "40011958900", "tract_name": "9589", "tags": {"building": "retail", "name": "Hutch's", "opening_hours": "24/7", "shop": "convenience"}}}, {"type": "Feature", "geometry": {"type": "Polygon", "coordinates": [[[-98.4205002, 35.8417206], [-98.4202174, 35.8417101], [-98.4202212, 35.8416433], [-98.4205039, 35.8416536], [-98.4205002, 35.8417206]]]}, "properties": {"osm_id": 218020906, "building": "roof", "name": "", "height": null, "height_m": null, "levels": null, "tract_id": "40011958900", "tract_name": "9589", "tags": {"building": "roof"}}}, {"type": "Feature", "geometry": {"type": "Polygon", "coordinates": [[[-98.420084, 35.841676], [-98.4197224, 35.8416653], [-98.4197253, 35.8416025], [-98.4200868, 35.8416131], [-98.420084, 35.841676]]]}, "properties": {"osm_id": 218020907, "building": "roof", "name": "", "height": null, "height_m": null, "levels": null, "tract_id": "40011958900", "tract_name": "9589", "tags": {"building": "roof"}}}, {"type": "Feature", "geometry": {"type": "Polygon", "coordinates": [[[-98.4203143, 35.8425421], [-98.4203126, 35.842946], [-98.4196308, 35.8429442], [-98.4196324, 35.8425403], [-98.4203143, 35.8425421]]]}, "properties": {"osm_id": 244101954, "building": "retail", "name": "Tractor Supply Company", "height": null, "height_m": null, "levels": null, "tract_id": "40011958900", "tract_name": "9589", "tags": {"addr:city": "Watonga", "addr:housenumber": "220", "addr:postcode": "73772", "addr:state": "OK", "addr:street": "South Clarence Nash Boulevard", "brand": "Tractor Supply Company", "brand:wikidata": "Q15109925", "building": "retail", "name": "Tractor Supply Company", "opening_hours": "Mo-Sa 08:00-20:00; Su 09:00-18:00", "phone": "+1 580-623-2201", "ref": "2065", "shop": "country_store"}}}, {"type": "Feature", "geometry": {"type": "Polygon", "coordinates": [[[-98.4179172, 35.8438023], [-98.4179188, 35.8434562], [-98.4177788, 35.8434558], [-98.4177786, 35.8434952], [-98.4173507, 35.8434939], [-98.4173509, 35.843454], [-98.4172467, 35.8434536], [-98.4172465, 35.8434975], [-98.4172451, 35.8437997], [-98.417361, 35.8438001], [-98.4173609, 35.843819], [-98.4177181, 35.8438201], [-98.4177182, 35.8438017], [-98.4179172, 35.8438023]]]}, "properties": {"osm_id": 244364389, "building": "retail", "name": "Apple Market", "height": null, "height_m": null, "levels": null, "tract_id": "40011958900", "tract_name": "9589", "tags": {"addr:city": "Watonga", "addr:housenumber": "409", "addr:postcode": "73772", "addr:street": "West Main Street", "building": "retail", "name": "Apple Market", "opening_hours": "Mo-Sa 07:00-21:00; Su 07:00-20:00", "operator": "Doc's Foods", "phone": "+1-580-623-5000", "shop": "supermarket"}}}, {"type": "Feature", "geometry": {"type": "Polygon", "coordinates": [[[-98.4200511, 35.8408016], [-98.4196992, 35.8408016], [-98.4196992, 35.8406816], [-98.4200511, 35.8406816], [-98.4200511, 35.8408016]]]}, "properties": {"osm_id": 244364395, "building": "retail", "name": "Domino", "height": null, "height_m": null, "levels": null, "tract_id": "40011958900", "tract_name": "9589", "tags": {"addr:city": "Watonga", "addr:country": "US", "addr:housenumber": "603", "addr:postcode": "73772", "addr:street": "West Russworm Street", "building": "retail", "name": "Domino", "shop": "convenience"}}}, {"type": "Feature", "geometry": {"type": "Polygon", "coordinates": [[[-98.4162187, 35.8441875], [-98.4162164, 35.8439235], [-98.4165371, 35.8439217], [-98.4165394, 35.8441856], [-98.4162187, 35.8441875]]]}, "properties": {"osm_id": 244364396, "building": "yes", "name": "First State Bank", "height": null, "height_m": null, "levels": null, "tract_id": "40011958900", "tract_name": "9589", "tags": {"addr:city": "Watonga", "addr:country": "US", "addr:housenumber": "321", "addr:postcode": "73772", "addr:street": "West Main Street", "amenity": "bank", "building": "yes", "name": "First State Bank", "opening_hours": "Mo-Fr 08:30-17:00; Sa 09:00-12:00"}}}, {"type": "Feature", "geometry": {"type": "Polygon", "coordinates": [[[-98.4179745, 35.8410731], [-98.4179745, 35.8409373], [-98.4179604, 35.8409373], [-98.4179604, 35.8408273], [-98.4181272, 35.8408273], [-98.4181273, 35.8409103], [-98.4180881, 35.8409103], [-98.4180881, 35.8409382], [-98.418065, 35.8409382], [-98.4180649, 35.8410731], [-98.4179745, 35.8410731]]]}, "properties": {"osm_id": 244364397, "building": "retail", "name": "Hi De Ho Caf\u00e9", "height": null, "height_m": null, "levels": null, "tract_id": "40011958900", "tract_name": "9589", "tags": {"addr:city": "Watonga", "addr:country": "US", "addr:housename": "Hi De Ho Caf\u00e9", "addr:postcode": "73772", "addr:street": "West Russworm Street", "amenity": "restaurant", "building": "retail", "cuisine": "american", "name": "Hi De Ho Caf\u00e9", "opening_hours": "Mo-Su 05:00-22:00"}}}, {"type": "Feature", "geometry": {"type": "Polygon", "coordinates": [[[-98.4158257, 35.8414356], [-98.4157445, 35.8414366], [-98.4157433, 35.841373], [-98.4158245, 35.841372], [-98.4158257, 35.8414356]]]}, "properties": {"osm_id": 244364398, "building": "roof", "name": "", "height": null, "height_m": null, "levels": null, "tract_id": "40011958900", "tract_name": "9589", "tags": {"building": "roof"}}}, {"type": "Feature", "geometry": {"type": "Polygon", "coordinates": [[[-98.4159944, 35.8416473], [-98.4158369, 35.8416473], [-98.4158369, 35.8414751], [-98.4159944, 35.8414751], [-98.4159944, 35.8416473]]]}, "properties": {"osm_id": 244364399, "building": "retail", "name": "Love's", "height": null, "height_m": null, "levels": null, "tract_id": "40011958900", "tract_name": "9589", "tags": {"addr:city": "Watonga", "addr:country": "US", "addr:housenumber": "304", "addr:postcode": "73772", "addr:street": "West Russworm Street", "brand": "Love's", "brand:wikidata": "Q1872496", "building": "retail", "name": "Love's", "phone": "+1-580-623-4578", "shop": "convenience"}}}, {"type": "Feature", "geometry": {"type": "Polygon", "coordinates": [[[-98.4171151, 35.8438221], [-98.4172449, 35.8438225], [-98.4172451, 35.8437997], [-98.4172465, 35.8434975], [-98.4171167, 35.8434971], [-98.4171151, 35.8438221]]]}, "properties": {"osm_id": 244364402, "building": "retail", "name": "Swann's Pharmacy", "height": null, "height_m": null, "levels": null, "tract_id": "40011958900", "tract_name": "9589", "tags": {"addr:city": "Watonga", "addr:country": "US", "addr:housenumber": "407", "addr:postcode": "73772", "addr:street": "West Main Street", "amenity": "pharmacy", "building": "retail", "dispensing": "yes", "healthcare": "pharmacy", "name": "Swann's Pharmacy", "phone": "+1-580-623-4505"}}}, {"type": "Feature", "geometry": {"type": "Polygon", "coordinates": [[[-98.4161208, 35.8414921], [-98.4160369, 35.8414916], [-98.4160378, 35.8413985], [-98.4161217, 35.841399], [-98.4161208, 35.8414921]]]}, "properties": {"osm_id": 244364403, "building": "retail", "name": "Watonga Liquor Store", "height": null, "height_m": null, "levels": null, "tract_id": "40011958900", "tract_name": "9589", "tags": {"addr:city": "Watonga", "addr:country": "US", "addr:housenumber": "306", "addr:postcode": "73772", "addr:street": "West Russworm Street", "building": "retail", "name": "Watonga Liquor Store", "note": "Can open earlier if you call ahead.", "opening_hours": "Mo-Sa 14:00-21:00", "phone": "+1-580-623-5489", "shop": "alcohol"}}}, {"type": "Feature", "geometry": {"type": "Polygon", "coordinates": [[[-98.4169366, 35.8438216], [-98.4171151, 35.8438221], [-98.4171167, 35.8434971], [-98.4169381, 35.8434966], [-98.4169366, 35.8438216]]]}, "properties": {"osm_id": 244364404, "building": "retail", "name": "", "height": null, "height_m": null, "levels": null, "tract_id": "40011958900", "tract_name": "9589", "tags": {"building": "retail"}}}, {"type": "Feature", "geometry": {"type": "Polygon", "coordinates": [[[-98.419763, 35.8613375], [-98.4195208, 35.8613367], [-98.4195226, 35.8609686], [-98.4197648, 35.8609694], [-98.419763, 35.8613375]]]}, "properties": {"osm_id": 244364405, "building": "hangar", "name": "", "height": null, "height_m": null, "levels": null, "tract_id": "40011958900", "tract_name": "9589", "tags": {"building": "hangar"}}}, {"type": "Feature", "geometry": {"type": "Polygon", "coordinates": [[[-98.4196425, 35.8627012], [-98.4196476, 35.8616582], [-98.4197738, 35.8616586], [-98.4197687, 35.8627016], [-98.4196425, 35.8627012]]]}, "properties": {"osm_id": 244364406, "building": "hangar", "name": "", "height": null, "height_m": null, "levels": null, "tract_id": "40011958900", "tract_name": "9589", "tags": {"building": "hangar"}}}, {"type": "Feature", "geometry": {"type": "Polygon", "coordinates": [[[-98.4195796, 35.859967], [-98.4195779, 35.859746], [-98.4195885, 35.8597459], [-98.4197825, 35.8597449], [-98.4197842, 35.859966], [-98.4195796, 35.859967]]]}, "properties": {"osm_id": 244364408, "building": "hangar", "name": "", "height": null, "height_m": null, "levels": null, "tract_id": "40011958900", "tract_name": "9589", "tags": {"building": "hangar"}}}, {"type": "Feature", "geometry": {"type": "Polygon", "coordinates": [[[-98.4197442, 35.8607793], [-98.4196266, 35.8607793], [-98.4196266, 35.8602543], [-98.4197442, 35.8602543], [-98.4197442, 35.8607793]]]}, "properties": {"osm_id": 244364409, "building": "hangar", "name": "", "height": null, "height_m": null, "levels": null, "tract_id": "40011958900", "tract_name": "9589", "tags": {"building": "hangar"}}}, {"type": "Feature", "geometry": {"type": "Polygon", "coordinates": [[[-98.418546, 35.8493986], [-98.418428, 35.8494965], [-98.4184074, 35.8494798], [-98.4183349, 35.8495386], [-98.4186249, 35.8497737], [-98.4188701, 35.8495749], [-98.4189317, 35.8496248], [-98.4189523, 35.8496081], [-98.4189575, 35.8495422], [-98.4189285, 35.8495187], [-98.4188841, 35.8495547], [-98.4187062, 35.849408], [-98.418706, 35.8493777], [-98.4187444, 35.8493776], [-98.4187436, 35.8492398], [-98.4187111, 35.8492399], [-98.4187099, 35.8490349], [-98.4186408, 35.8490351], [-98.4186401, 35.8489193], [-98.4186495, 35.8489193], [-98.4186494, 35.8489052], [-98.4186996, 35.848905], [-98.4186994, 35.8488615], [-98.4185583, 35.848862], [-98.4185585, 35.8489047], [-98.4185989, 35.8489045], [-98.4185996, 35.8490353], [-98.418544, 35.8490355], [-98.4185451, 35.8492382], [-98.4183394, 35.849239], [-98.4183402, 35.8493759], [-98.4185459, 35.8493752], [-98.418546, 35.8493986]]]}, "properties": {"osm_id": 244366939, "building": "hospital", "name": "", "height": null, "height_m": null, "levels": null, "tract_id": "40011958900", "tract_name": "9589", "tags": {"building": "hospital"}}}, {"type": "Feature", "geometry": {"type": "Polygon", "coordinates": [[[-98.4188523, 35.840644], [-98.4186853, 35.840653], [-98.418657, 35.8403093], [-98.418824, 35.8403002], [-98.4188523, 35.840644]]]}, "properties": {"osm_id": 244389436, "building": "industrial", "name": "Wheeler Brothers Bulk Blended Fertilizer", "height": null, "height_m": null, "levels": null, "tract_id": "40011958900", "tract_name": "9589", "tags": {"building": "industrial", "name": "Wheeler Brothers Bulk Blended Fertilizer"}}}, {"type": "Feature", "geometry": {"type": "Polygon", "coordinates": [[[-98.4153657, 35.841651], [-98.4152567, 35.8416525], [-98.4152523, 35.8414332], [-98.4153612, 35.8414317], [-98.4153657, 35.841651]]]}, "properties": {"osm_id": 245251319, "building": "retail", "name": "China King", "height": null, "height_m": null, "levels": null, "tract_id": "40011958900", "tract_name": "9589", "tags": {"addr:city": "Watonga", "addr:country": "US", "addr:housenumber": "220", "addr:postcode": "73772", "addr:street": "West Russworm Street", "amenity": "restaurant", "building": "retail", "cuisine": "chinese", "name": "China King", "phone": "+1-580-623-7888"}}}, {"type": "Feature", "geometry": {"type": "Polygon", "coordinates": [[[-98.4172469, 35.8448072], [-98.4171761, 35.8448072], [-98.4171738, 35.8449041], [-98.4172517, 35.8449054], [-98.4172517, 35.8448601], [-98.4173775, 35.8448608], [-98.4173775, 35.8448678], [-98.4174491, 35.8448678], [-98.4174499, 35.8448569], [-98.4175408, 35.8448583], [-98.4175416, 35.8446212], [-98.4172682, 35.8446232], [-98.417269, 35.8446534], [-98.4172246, 35.8446527], [-98.4172246, 35.8447067], [-98.4172476, 35.8447054], [-98.4172469, 35.8448072]]]}, "properties": {"osm_id": 258225508, "building": "yes", "name": "Human Services Center", "height": null, "height_m": null, "levels": null, "tract_id": "40011958900", "tract_name": "9589", "tags": {"building": "yes", "name": "Human Services Center", "source": "Bing"}}}, {"type": "Feature", "geometry": {"type": "Polygon", "coordinates": [[[-98.4144661, 35.8447891], [-98.414467, 35.8445489], [-98.4146295, 35.8445493], [-98.4146286, 35.8447895], [-98.4144661, 35.8447891]]]}, "properties": {"osm_id": 516231225, "building": "yes", "name": "", "height": null, "height_m": null, "levels": null, "tract_id": "40011958900", "tract_name": "9589", "tags": {"building": "yes"}}}, {"type": "Feature", "geometry": {"type": "Polygon", "coordinates": [[[-98.4146284, 35.8448248], [-98.4146286, 35.8447895], [-98.4146295, 35.8445493], [-98.4147132, 35.8445495], [-98.4147121, 35.844825], [-98.4146284, 35.8448248]]]}, "properties": {"osm_id": 516231226, "building": "yes", "name": "", "height": null, "height_m": null, "levels": null, "tract_id": "40011958900", "tract_name": "9589", "tags": {"building": "yes"}}}, {"type": "Feature", "geometry": {"type": "Polygon", "coordinates": [[[-98.4149655, 35.8448689], [-98.414712, 35.8448682], [-98.4147121, 35.844825], [-98.4147132, 35.8445495], [-98.4149667, 35.8445501], [-98.4149655, 35.8448689]]]}, "properties": {"osm_id": 516231228, "building": "yes", "name": "", "height": null, "height_m": null, "levels": null, "tract_id": "40011958900", "tract_name": "9589", "tags": {"addr:city": "Watonga", "addr:country": "US", "addr:housenumber": "206", "addr:state": "OK", "addr:street": "West Main Street", "building": "yes", "source": "Bing"}}}, {"type": "Feature", "geometry": {"type": "Polygon", "coordinates": [[[-98.415338, 35.8447348], [-98.4153325, 35.8447408], [-98.4153299, 35.8447481], [-98.4153304, 35.8447556], [-98.4153341, 35.8447625], [-98.4153404, 35.844768], [-98.4153486, 35.8447715], [-98.4153578, 35.8447725], [-98.4153662, 35.8447711], [-98.4153736, 35.8447677], [-98.4153793, 35.8447626], [-98.4153828, 35.8447562], [-98.4153837, 35.8447493], [-98.4153819, 35.8447426], [-98.4153775, 35.8447366], [-98.4153711, 35.844732], [-98.4153632, 35.8447293], [-98.4153547, 35.8447287], [-98.4153457, 35.8447306], [-98.415338, 35.8447348]]]}, "properties": {"osm_id": 723262928, "building": "roof", "name": "", "height": null, "height_m": null, "levels": null, "tract_id": "40011958900", "tract_name": "9589", "tags": {"building": "roof"}}}, {"type": "Feature", "geometry": {"type": "Polygon", "coordinates": [[[-98.4151275, 35.8447682], [-98.4151286, 35.844702], [-98.4150314, 35.844701], [-98.415031, 35.8447679], [-98.4151275, 35.8447682]]]}, "properties": {"osm_id": 723262929, "building": "yes", "name": "", "height": null, "height_m": null, "levels": null, "tract_id": "40011958900", "tract_name": "9589", "tags": {"amenity": "toilets", "building": "yes"}}}, {"type": "Feature", "geometry": {"type": "Polygon", "coordinates": [[[-98.4151286, 35.844702], [-98.415129, 35.8446776], [-98.4150318, 35.8446765], [-98.4150314, 35.844701], [-98.4151286, 35.844702]]]}, "properties": {"osm_id": 723262930, "building": "roof", "name": "", "height": null, "height_m": null, "levels": null, "tract_id": "40011958900", "tract_name": "9589", "tags": {"building": "roof"}}}, {"type": "Feature", "geometry": {"type": "Polygon", "coordinates": [[[-98.4113686, 35.8461005], [-98.4113075, 35.8460994], [-98.4113025, 35.8462953], [-98.4111963, 35.8462934], [-98.4112015, 35.8460955], [-98.4111487, 35.8460946], [-98.4111509, 35.8460137], [-98.4111284, 35.8460133], [-98.4111299, 35.8459563], [-98.4111462, 35.8459567], [-98.4111487, 35.8458628], [-98.4111976, 35.8458637], [-98.411198, 35.8458505], [-98.4113102, 35.8458525], [-98.4113098, 35.8458657], [-98.4113748, 35.8458668], [-98.4113719, 35.845977], [-98.4113686, 35.8461005]]]}, "properties": {"osm_id": 723262933, "building": "yes", "name": "", "height": null, "height_m": null, "levels": null, "tract_id": "40011958900", "tract_name": "9589", "tags": {"amenity": "courthouse", "building": "yes"}}}, {"type": "Feature", "geometry": {"type": "Polygon", "coordinates": [[[-98.4108068, 35.8432235], [-98.4109895, 35.8432245], [-98.4109898, 35.8431832], [-98.4110219, 35.8431833], [-98.4110224, 35.8431249], [-98.4111525, 35.8431256], [-98.4111535, 35.8430112], [-98.4108285, 35.8430094], [-98.4108274, 35.8431417], [-98.4108075, 35.8431416], [-98.4108068, 35.8432235]]]}, "properties": {"osm_id": 723262935, "building": "yes", "name": "Union Baptist Church", "height": null, "height_m": null, "levels": null, "tract_id": "40011958900", "tract_name": "9589", "tags": {"amenity": "place_of_worship", "building": "yes", "denomination": "baptist", "ele": "461", "gnis:feature_id": "1790097", "name": "Union Baptist Church", "religion": "christian"}}}, {"type": "Feature", "geometry": {"type": "Polygon", "coordinates": [[[-98.4200249, 35.8442097], [-98.4197469, 35.8442103], [-98.4197454, 35.8437636], [-98.4200232, 35.843763], [-98.4200249, 35.8442097]]]}, "properties": {"osm_id": 723262937, "building": "yes", "name": "Family Dollar", "height": null, "height_m": null, "levels": null, "tract_id": "40011958900", "tract_name": "9589", "tags": {"brand": "Family Dollar", "brand:wikidata": "Q5433101", "building": "yes", "name": "Family Dollar", "shop": "variety_store"}}}, {"type": "Feature", "geometry": {"type": "Polygon", "coordinates": [[[-98.419937, 35.8405381], [-98.4198702, 35.8404272], [-98.4197818, 35.8404621], [-98.4198486, 35.8405731], [-98.419937, 35.8405381]]]}, "properties": {"osm_id": 723262940, "building": "roof", "name": "", "height": null, "height_m": null, "levels": null, "tract_id": "40011958900", "tract_name": "9589", "tags": {"building": "roof"}}}, {"type": "Feature", "geometry": {"type": "Polygon", "coordinates": [[[-98.4201702, 35.8410618], [-98.4201704, 35.8409861], [-98.419666, 35.8409852], [-98.4196659, 35.841061], [-98.4201702, 35.8410618]]]}, "properties": {"osm_id": 723262941, "building": "roof", "name": "", "height": null, "height_m": null, "levels": null, "tract_id": "40011958900", "tract_name": "9589", "tags": {"building": "roof"}}}, {"type": "Feature", "geometry": {"type": "Polygon", "coordinates": [[[-98.4125341, 35.8416028], [-98.4128438, 35.8416034], [-98.412844, 35.8415309], [-98.4128293, 35.8415309], [-98.4125343, 35.8415303], [-98.4125341, 35.8416028]]]}, "properties": {"osm_id": 723262942, "building": "yes", "name": "Sonic", "height": null, "height_m": null, "levels": null, "tract_id": "40011958900", "tract_name": "9589", "tags": {"addr:city": "Watonga", "addr:housenumber": "103", "addr:postcode": "73772", "addr:state": "OK", "addr:street": "East Russworm Street", "amenity": "fast_food", "brand": "Sonic", "brand:wikidata": "Q7561808", "building": "yes", "cuisine": "burger", "drive_in": "yes", "name": "Sonic", "opening_hours": "Mo-Sa 06:00-24:00; Su 07:00-24:00", "phone": "+1 580-352-5569", "takeaway": "yes", "website": "https://locations.sonicdrivein.com/ok/watonga/103-e-russworm.html"}}}, {"type": "Feature", "geometry": {"type": "Polygon", "coordinates": [[[-98.4128293, 35.8415309], [-98.4128311, 35.8414855], [-98.4124949, 35.8414855], [-98.4124949, 35.8415299], [-98.4125343, 35.8415303], [-98.4128293, 35.8415309]]]}, "properties": {"osm_id": 723262943, "building": "roof", "name": "", "height": null, "height_m": null, "levels": null, "tract_id": "40011958900", "tract_name": "9589", "tags": {"building": "roof"}}}, {"type": "Feature", "geometry": {"type": "Polygon", "coordinates": [[[-98.4129166, 35.8417423], [-98.4129173, 35.8416942], [-98.41242, 35.8416897], [-98.4124194, 35.8417378], [-98.4129166, 35.8417423]]]}, "properties": {"osm_id": 723262944, "building": "roof", "name": "", "height": null, "height_m": null, "levels": null, "tract_id": "40011958900", "tract_name": "9589", "tags": {"building": "roof"}}}, {"type": "Feature", "geometry": {"type": "Polygon", "coordinates": [[[-98.4189616, 35.8512251], [-98.4189628, 35.8510891], [-98.4186421, 35.8510871], [-98.4186446, 35.8508264], [-98.4185114, 35.8508256], [-98.4185077, 35.8512223], [-98.4189616, 35.8512251]]]}, "properties": {"osm_id": 723262952, "building": "yes", "name": "Trinity Baptist Church", "height": null, "height_m": null, "levels": null, "tract_id": "40011958900", "tract_name": "9589", "tags": {"amenity": "place_of_worship", "building": "yes", "name": "Trinity Baptist Church", "religion": "christian"}}}, {"type": "Feature", "geometry": {"type": "Polygon", "coordinates": [[[-98.4186974, 35.8522549], [-98.4183426, 35.8522542], [-98.4183438, 35.8518991], [-98.4186985, 35.8518999], [-98.4186974, 35.8522549]]]}, "properties": {"osm_id": 723262953, "building": "yes", "name": "", "height": null, "height_m": null, "levels": null, "tract_id": "40011958900", "tract_name": "9589", "tags": {"building": "yes"}}}, {"type": "Feature", "geometry": {"type": "Polygon", "coordinates": [[[-98.4190255, 35.8522737], [-98.4190269, 35.8521642], [-98.4188663, 35.8521629], [-98.4188649, 35.8522724], [-98.4190255, 35.8522737]]]}, "properties": {"osm_id": 723262954, "building": "roof", "name": "", "height": null, "height_m": null, "levels": null, "tract_id": "40011958900", "tract_name": "9589", "tags": {"building": "roof"}}}, {"type": "Feature", "geometry": {"type": "Polygon", "coordinates": [[[-98.4188494, 35.8537242], [-98.4186012, 35.8537235], [-98.4186017, 35.8536256], [-98.418613, 35.8536251], [-98.4186112, 35.8535469], [-98.4186904, 35.8535466], [-98.4186924, 35.8536034], [-98.4187404, 35.8536029], [-98.4187398, 35.8535409], [-98.4188486, 35.8535409], [-98.4188494, 35.8537242]]]}, "properties": {"osm_id": 723262955, "building": "yes", "name": "", "height": null, "height_m": null, "levels": null, "tract_id": "40011958900", "tract_name": "9589", "tags": {"amenity": "place_of_worship", "building": "yes", "religion": "christian"}}}, {"type": "Feature", "geometry": {"type": "Polygon", "coordinates": [[[-98.4188486, 35.8535409], [-98.4188485, 35.8535045], [-98.4188485, 35.8534744], [-98.4187397, 35.8534745], [-98.4187397, 35.8535045], [-98.4187398, 35.8535409], [-98.4188486, 35.8535409]]]}, "properties": {"osm_id": 723262956, "building": "roof", "name": "", "height": null, "height_m": null, "levels": null, "tract_id": "40011958900", "tract_name": "9589", "tags": {"building": "roof"}}}, {"type": "Feature", "geometry": {"type": "Polygon", "coordinates": [[[-98.4187703, 35.8532785], [-98.418772, 35.8531749], [-98.4185002, 35.8531719], [-98.4184984, 35.8532755], [-98.4187703, 35.8532785]]]}, "properties": {"osm_id": 723262958, "building": "church", "name": "", "height": null, "height_m": null, "levels": null, "tract_id": "40011958900", "tract_name": "9589", "tags": {"building": "church"}}}, {"type": "Feature", "geometry": {"type": "Polygon", "coordinates": [[[-98.4185225, 35.8535683], [-98.4185222, 35.8534594], [-98.4185514, 35.8534594], [-98.4185512, 35.8534063], [-98.4184061, 35.8534065], [-98.4184066, 35.8535685], [-98.4185225, 35.8535683]]]}, "properties": {"osm_id": 723262959, "building": "church", "name": "", "height": null, "height_m": null, "levels": null, "tract_id": "40011958900", "tract_name": "9589", "tags": {"building": "church"}}}, {"type": "Feature", "geometry": {"type": "Polygon", "coordinates": [[[-98.4178268, 35.8447624], [-98.4178286, 35.844616], [-98.4176164, 35.8446143], [-98.417615, 35.8447292], [-98.4177127, 35.8447299], [-98.4177123, 35.8447615], [-98.4178268, 35.8447624]]]}, "properties": {"osm_id": 723262966, "building": "yes", "name": "", "height": null, "height_m": null, "levels": null, "tract_id": "40011958900", "tract_name": "9589", "tags": {"amenity": "place_of_worship", "building": "yes", "religion": "christian"}}}, {"type": "Feature", "geometry": {"type": "Polygon", "coordinates": [[[-98.4166868, 35.8447599], [-98.4166889, 35.8445745], [-98.4165087, 35.8445731], [-98.4165065, 35.8447586], [-98.4166868, 35.8447599]]]}, "properties": {"osm_id": 723262967, "building": "yes", "name": "", "height": null, "height_m": null, "levels": null, "tract_id": "40011958900", "tract_name": "9589", "tags": {"building": "yes"}}}, {"type": "Feature", "geometry": {"type": "Polygon", "coordinates": [[[-98.4163611, 35.8447806], [-98.416187, 35.8447803], [-98.4161874, 35.8446236], [-98.4163615, 35.8446239], [-98.4163611, 35.8447806]]]}, "properties": {"osm_id": 723262968, "building": "yes", "name": "", "height": null, "height_m": null, "levels": null, "tract_id": "40011958900", "tract_name": "9589", "tags": {"building": "yes"}}}, {"type": "Feature", "geometry": {"type": "Polygon", "coordinates": [[[-98.4157469, 35.8442526], [-98.4161504, 35.8442526], [-98.4161486, 35.8441594], [-98.4161608, 35.8441587], [-98.4161635, 35.8438679], [-98.4157363, 35.8438652], [-98.4157469, 35.8442526]]]}, "properties": {"osm_id": 723262969, "building": "yes", "name": "", "height": null, "height_m": null, "levels": null, "tract_id": "40011958900", "tract_name": "9589", "tags": {"building": "yes", "note": "Used to be a national guard armory. Current purpose is unknown."}}}, {"type": "Feature", "geometry": {"type": "Polygon", "coordinates": [[[-98.4149847, 35.8442685], [-98.4149835, 35.8439973], [-98.4150363, 35.8439971], [-98.4150359, 35.8438973], [-98.4147272, 35.8438982], [-98.4147276, 35.8439926], [-98.4147288, 35.8442692], [-98.4149847, 35.8442685]]]}, "properties": {"osm_id": 723262970, "building": "yes", "name": "", "height": null, "height_m": null, "levels": null, "tract_id": "40011958900", "tract_name": "9589", "tags": {"building": "yes"}}}, {"type": "Feature", "geometry": {"type": "Polygon", "coordinates": [[[-98.4147288, 35.8442692], [-98.4146484, 35.8442696], [-98.4146466, 35.843993], [-98.4147276, 35.8439926], [-98.4147288, 35.8442692]]]}, "properties": {"osm_id": 723262971, "building": "yes", "name": "", "height": null, "height_m": null, "levels": null, "tract_id": "40011958900", "tract_name": "9589", "tags": {"building": "yes"}}}, {"type": "Feature", "geometry": {"type": "Polygon", "coordinates": [[[-98.4146484, 35.8442696], [-98.4144681, 35.8442704], [-98.4144663, 35.8439937], [-98.4146466, 35.843993], [-98.4146484, 35.8442696]]]}, "properties": {"osm_id": 723262972, "building": "yes", "name": "", "height": null, "height_m": null, "levels": null, "tract_id": "40011958900", "tract_name": "9589", "tags": {"building": "yes"}}}, {"type": "Feature", "geometry": {"type": "Polygon", "coordinates": [[[-98.4142759, 35.843819], [-98.4141981, 35.8438184], [-98.414198, 35.8438354], [-98.4140346, 35.8438343], [-98.4140371, 35.8435952], [-98.4142783, 35.8435969], [-98.4142759, 35.843819]]]}, "properties": {"osm_id": 723262973, "building": "yes", "name": "", "height": null, "height_m": null, "levels": null, "tract_id": "40011958900", "tract_name": "9589", "tags": {"building": "yes"}}}, {"type": "Feature", "geometry": {"type": "Polygon", "coordinates": [[[-98.4142788, 35.8449], [-98.4141713, 35.8448997], [-98.4141716, 35.8448365], [-98.4141187, 35.8448363], [-98.4141183, 35.8449276], [-98.4139288, 35.8449271], [-98.4139291, 35.8448406], [-98.4138516, 35.8448404], [-98.4138521, 35.8446993], [-98.4137692, 35.8446991], [-98.4137685, 35.8448937], [-98.4136763, 35.8448935], [-98.4135949, 35.8448706], [-98.4135952, 35.8448159], [-98.4135177, 35.8448156], [-98.4135178, 35.8447838], [-98.4133883, 35.8447834], [-98.4133877, 35.8448948], [-98.4132469, 35.8448944], [-98.4132486, 35.8445296], [-98.4142805, 35.8445329], [-98.4142788, 35.8449]]]}, "properties": {"osm_id": 723262974, "building": "yes", "name": "", "height": null, "height_m": null, "levels": null, "tract_id": "40011958900", "tract_name": "9589", "tags": {"building": "yes"}}}, {"type": "Feature", "geometry": {"type": "Polygon", "coordinates": [[[-98.4142855, 35.8442827], [-98.4142928, 35.8438732], [-98.4140918, 35.8438708], [-98.4140908, 35.8439268], [-98.4138323, 35.8439237], [-98.4138304, 35.8440266], [-98.4136979, 35.844025], [-98.4137003, 35.8438948], [-98.413496, 35.8438923], [-98.4134939, 35.8440057], [-98.4132564, 35.8440028], [-98.413252, 35.8442427], [-98.4132815, 35.844271], [-98.4142855, 35.8442827]]]}, "properties": {"osm_id": 723262975, "building": "yes", "name": "", "height": null, "height_m": null, "levels": null, "tract_id": "40011958900", "tract_name": "9589", "tags": {"building": "yes"}}}, {"type": "Feature", "geometry": {"type": "Polygon", "coordinates": [[[-98.412973, 35.8442688], [-98.4121444, 35.8442622], [-98.4121457, 35.8442402], [-98.4121454, 35.8440989], [-98.4121467, 35.8440731], [-98.4122333, 35.8440737], [-98.4122356, 35.8438865], [-98.4123038, 35.8438871], [-98.4123018, 35.8440452], [-98.4124136, 35.8440461], [-98.4124157, 35.8438784], [-98.4124856, 35.8438789], [-98.4124836, 35.844037], [-98.4125643, 35.8440377], [-98.4125646, 35.8440119], [-98.4126513, 35.8440126], [-98.4126526, 35.8439178], [-98.4127338, 35.8439185], [-98.4127342, 35.8438921], [-98.4128279, 35.843893], [-98.4128273, 35.8439369], [-98.4128941, 35.8439375], [-98.4128947, 35.8438964], [-98.4130021, 35.8438974], [-98.4129971, 35.8442514], [-98.412973, 35.8442688]]]}, "properties": {"osm_id": 723262976, "building": "yes", "name": "", "height": null, "height_m": null, "levels": null, "tract_id": "40011958900", "tract_name": "9589", "tags": {"building": "yes"}}}, {"type": "Feature", "geometry": {"type": "Polygon", "coordinates": [[[-98.4121454, 35.8440989], [-98.4121457, 35.8442402], [-98.4119834, 35.8442404], [-98.4119831, 35.8440991], [-98.4121454, 35.8440989]]]}, "properties": {"osm_id": 723262977, "building": "yes", "name": "", "height": null, "height_m": null, "levels": null, "tract_id": "40011958900", "tract_name": "9589", "tags": {"building": "yes"}}}, {"type": "Feature", "geometry": {"type": "Polygon", "coordinates": [[[-98.410063, 35.8442582], [-98.4100648, 35.8441021], [-98.4099448, 35.8441012], [-98.4099466, 35.8439433], [-98.4098453, 35.8439425], [-98.4098434, 35.844103], [-98.4098806, 35.8441033], [-98.4098789, 35.8442569], [-98.410063, 35.8442582]]]}, "properties": {"osm_id": 723262978, "building": "yes", "name": "", "height": null, "height_m": null, "levels": null, "tract_id": "40011958900", "tract_name": "9589", "tags": {"building": "yes", "shop": "car_parts"}}}, {"type": "Feature", "geometry": {"type": "Polygon", "coordinates": [[[-98.4100471, 35.8445976], [-98.4100486, 35.8445216], [-98.409881, 35.8445195], [-98.4098796, 35.8445956], [-98.4100471, 35.8445976]]]}, "properties": {"osm_id": 723262979, "building": "yes", "name": "", "height": null, "height_m": null, "levels": null, "tract_id": "40011958900", "tract_name": "9589", "tags": {"building": "yes", "self_service": "yes", "shop": "laundry"}}}, {"type": "Feature", "geometry": {"type": "Polygon", "coordinates": [[[-98.4181947, 35.8447111], [-98.418086, 35.8447098], [-98.4180879, 35.8445982], [-98.418121, 35.8445985], [-98.4181217, 35.8445595], [-98.4181973, 35.8445604], [-98.4181947, 35.8447111]]]}, "properties": {"osm_id": 723262980, "building": "yes", "name": "", "height": null, "height_m": null, "levels": null, "tract_id": "40011958900", "tract_name": "9589", "tags": {"building": "yes"}}}, {"type": "Feature", "geometry": {"type": "Polygon", "coordinates": [[[-98.4185626, 35.8446797], [-98.4184487, 35.8446811], [-98.4184465, 35.8445675], [-98.4185603, 35.844566], [-98.4185626, 35.8446797]]]}, "properties": {"osm_id": 723262981, "building": "yes", "name": "", "height": null, "height_m": null, "levels": null, "tract_id": "40011958900", "tract_name": "9589", "tags": {"building": "yes"}}}, {"type": "Feature", "geometry": {"type": "Polygon", "coordinates": [[[-98.3969611, 35.8406664], [-98.3968283, 35.8405569], [-98.3967634, 35.8405034], [-98.3967375, 35.8404821], [-98.3964777, 35.8404851], [-98.3964751, 35.8403386], [-98.396892, 35.8403338], [-98.3969449, 35.8402916], [-98.397184, 35.8404887], [-98.3969611, 35.8406664]]]}, "properties": {"osm_id": 723262982, "building": "yes", "name": "Watonga Church of the Nazarine", "height": null, "height_m": null, "levels": null, "tract_id": "40011958900", "tract_name": "9589", "tags": {"addr:city": "Watonga", "addr:housenumber": "1412", "addr:postcode": "73772", "addr:state": "OK", "addr:street": "East Russworm Street", "amenity": "place_of_worship", "building": "yes", "name": "Watonga Church of the Nazarine", "religion": "christian", "website": "https://watonganaz.com/"}}}, {"type": "Feature", "geometry": {"type": "Polygon", "coordinates": [[[-98.3976848, 35.8418343], [-98.3974244, 35.8418313], [-98.3974287, 35.8415939], [-98.3975688, 35.8415955], [-98.3975676, 35.8416656], [-98.3976877, 35.841667], [-98.3976848, 35.8418343]]]}, "properties": {"osm_id": 723262983, "building": "yes", "name": "", "height": null, "height_m": null, "levels": null, "tract_id": "40011958900", "tract_name": "9589", "tags": {"building": "yes"}}}, {"type": "Feature", "geometry": {"type": "Polygon", "coordinates": [[[-98.4142772, 35.8408653], [-98.4142776, 35.8408084], [-98.4142213, 35.8408081], [-98.4142216, 35.8407762], [-98.4140765, 35.8407755], [-98.4140758, 35.8408664], [-98.4141211, 35.8408666], [-98.414121, 35.8408866], [-98.4141666, 35.8408869], [-98.4141668, 35.8408647], [-98.4142772, 35.8408653]]]}, "properties": {"osm_id": 723262987, "building": "yes", "name": "", "height": null, "height_m": null, "levels": null, "tract_id": "40011958900", "tract_name": "9589", "tags": {"amenity": "fast_food", "building": "yes", "cuisine": "donut"}}}, {"type": "Feature", "geometry": {"type": "Polygon", "coordinates": [[[-98.4148741, 35.8469483], [-98.4146031, 35.8469453], [-98.4146058, 35.8467815], [-98.414658, 35.846782], [-98.4146986, 35.8467825], [-98.414699, 35.8467586], [-98.4146993, 35.8467379], [-98.4147006, 35.8466606], [-98.4148789, 35.8466626], [-98.4148741, 35.8469483]]]}, "properties": {"osm_id": 723263424, "building": "yes", "name": "", "height": null, "height_m": null, "levels": null, "tract_id": "40011958900", "tract_name": "9589", "tags": {"amenity": "library", "building": "yes"}}}, {"type": "Feature", "geometry": {"type": "Polygon", "coordinates": [[[-98.4151641, 35.8474043], [-98.415166, 35.8473315], [-98.4150722, 35.8473298], [-98.4150702, 35.8474027], [-98.4151171, 35.8474035], [-98.4151641, 35.8474043]]]}, "properties": {"osm_id": 723263425, "building": "roof", "name": "", "height": null, "height_m": null, "levels": null, "tract_id": "40011958900", "tract_name": "9589", "tags": {"building": "roof"}}}, {"type": "Feature", "geometry": {"type": "Polygon", "coordinates": [[[-98.4151818, 35.8467056], [-98.415182, 35.8466942], [-98.4151831, 35.8466414], [-98.415096, 35.8466403], [-98.4150947, 35.8467044], [-98.4151291, 35.8467049], [-98.4151818, 35.8467056]]]}, "properties": {"osm_id": 723263426, "building": "roof", "name": "", "height": null, "height_m": null, "levels": null, "tract_id": "40011958900", "tract_name": "9589", "tags": {"building": "roof", "tourism": "picnic_site"}}}, {"type": "Feature", "geometry": {"type": "Polygon", "coordinates": [[[-98.4146986, 35.8467825], [-98.414699, 35.8467586], [-98.4146993, 35.8467379], [-98.4146064, 35.8467371], [-98.4146058, 35.8467815], [-98.414658, 35.846782], [-98.4146986, 35.8467825]]]}, "properties": {"osm_id": 723281360, "building": "roof", "name": "", "height": null, "height_m": null, "levels": null, "tract_id": "40011958900", "tract_name": "9589", "tags": {"building": "roof"}}}, {"type": "Feature", "geometry": {"type": "Polygon", "coordinates": [[[-98.4134975, 35.8461259], [-98.4132629, 35.8461268], [-98.413262, 35.8459882], [-98.4134967, 35.8459873], [-98.4134975, 35.8461259]]]}, "properties": {"osm_id": 723282805, "building": "retail", "name": "Pioneer Telephone Cooperative", "height": null, "height_m": null, "levels": null, "tract_id": "40011958900", "tract_name": "9589", "tags": {"building": "retail", "name": "Pioneer Telephone Cooperative"}}}, {"type": "Feature", "geometry": {"type": "Polygon", "coordinates": [[[-98.4138966, 35.8461943], [-98.4137812, 35.846194], [-98.4137809, 35.8462598], [-98.413799, 35.8462599], [-98.4137986, 35.8463504], [-98.413896, 35.8463507], [-98.4138966, 35.8461943]]]}, "properties": {"osm_id": 723282812, "building": "house", "name": "", "height": null, "height_m": null, "levels": null, "tract_id": "40011958900", "tract_name": "9589", "tags": {"building": "house"}}}, {"type": "Feature", "geometry": {"type": "Polygon", "coordinates": [[[-98.4140513, 35.846384], [-98.4139584, 35.8463842], [-98.413958, 35.8462089], [-98.4140669, 35.8462087], [-98.4140671, 35.8462592], [-98.414051, 35.8462593], [-98.4140513, 35.846384]]]}, "properties": {"osm_id": 723282813, "building": "house", "name": "", "height": null, "height_m": null, "levels": null, "tract_id": "40011958900", "tract_name": "9589", "tags": {"building": "house"}}}, {"type": "Feature", "geometry": {"type": "Polygon", "coordinates": [[[-98.4142242, 35.8463773], [-98.4141579, 35.8463774], [-98.4141579, 35.8463546], [-98.4141082, 35.8463546], [-98.414108, 35.8461984], [-98.414242, 35.8461983], [-98.4142421, 35.846275], [-98.414224, 35.846275], [-98.4142242, 35.8463773]]]}, "properties": {"osm_id": 723282814, "building": "house", "name": "", "height": null, "height_m": null, "levels": null, "tract_id": "40011958900", "tract_name": "9589", "tags": {"building": "house"}}}, {"type": "Feature", "geometry": {"type": "Polygon", "coordinates": [[[-98.4134642, 35.8456611], [-98.4134613, 35.845792], [-98.4132398, 35.8457888], [-98.4132427, 35.845658], [-98.4134642, 35.8456611]]]}, "properties": {"osm_id": 723282815, "building": "yes", "name": "", "height": null, "height_m": null, "levels": null, "tract_id": "40011958900", "tract_name": "9589", "tags": {"building": "yes", "healthcare": "optometrist"}}}, {"type": "Feature", "geometry": {"type": "Polygon", "coordinates": [[[-98.4134642, 35.8456611], [-98.4132427, 35.845658], [-98.4132436, 35.8455928], [-98.4132623, 35.8455758], [-98.4134665, 35.8455787], [-98.4134642, 35.8456611]]]}, "properties": {"osm_id": 723282816, "building": "yes", "name": "", "height": null, "height_m": null, "levels": null, "tract_id": "40011958900", "tract_name": "9589", "tags": {"building": "yes"}}}, {"type": "Feature", "geometry": {"type": "Polygon", "coordinates": [[[-98.4136908, 35.8457319], [-98.4136954, 35.8455843], [-98.4135541, 35.8455814], [-98.4135495, 35.8457291], [-98.4136908, 35.8457319]]]}, "properties": {"osm_id": 723282817, "building": "yes", "name": "Pioneer Telephone Cooperative", "height": null, "height_m": null, "levels": null, "tract_id": "40011958900", "tract_name": "9589", "tags": {"building": "yes", "name": "Pioneer Telephone Cooperative"}}}, {"type": "Feature", "geometry": {"type": "Polygon", "coordinates": [[[-98.414203, 35.8457883], [-98.414203, 35.8457748], [-98.414203, 35.845599], [-98.4139205, 35.8455971], [-98.4139181, 35.845722], [-98.4137827, 35.845722], [-98.4137757, 35.845951], [-98.4139135, 35.8459548], [-98.4139181, 35.845845], [-98.4139859, 35.845845], [-98.4139859, 35.8458072], [-98.4140372, 35.8458072], [-98.4140326, 35.8457144], [-98.4140933, 35.8457144], [-98.4140933, 35.8457864], [-98.414203, 35.8457883]]]}, "properties": {"osm_id": 723282823, "building": "yes", "name": "Bible Believing Babtist Church", "height": null, "height_m": null, "levels": null, "tract_id": "40011958900", "tract_name": "9589", "tags": {"amenity": "place_of_worship", "building": "yes", "denomination": "baptist", "name": "Bible Believing Babtist Church", "religion": "christian"}}}, {"type": "Feature", "geometry": {"type": "Polygon", "coordinates": [[[-98.4140309, 35.8459576], [-98.414143, 35.8459582], [-98.4141433, 35.8459176], [-98.4140313, 35.8459169], [-98.4140309, 35.8459576]]]}, "properties": {"osm_id": 723282825, "building": "church", "name": "", "height": null, "height_m": null, "levels": null, "tract_id": "40011958900", "tract_name": "9589", "tags": {"building": "church"}}}, {"type": "Feature", "geometry": {"type": "Polygon", "coordinates": [[[-98.4184938, 35.8454412], [-98.418154, 35.8454257], [-98.4181617, 35.8453159], [-98.4185015, 35.8453315], [-98.4184938, 35.8454412]]]}, "properties": {"osm_id": 723286028, "building": "yes", "name": "", "height": null, "height_m": null, "levels": null, "tract_id": "40011958900", "tract_name": "9589", "tags": {"building": "yes", "building:material": "metal"}}}, {"type": "Feature", "geometry": {"type": "Polygon", "coordinates": [[[-98.4151198, 35.845182], [-98.4150018, 35.8451816], [-98.4150026, 35.845012], [-98.4151206, 35.8450124], [-98.4151198, 35.845182]]]}, "properties": {"osm_id": 723286029, "building": "yes", "name": "", "height": null, "height_m": null, "levels": null, "tract_id": "40011958900", "tract_name": "9589", "tags": {"building": "yes"}}}, {"type": "Feature", "geometry": {"type": "Polygon", "coordinates": [[[-98.4144609, 35.8453669], [-98.4144624, 35.8451789], [-98.4145887, 35.8451796], [-98.4145872, 35.8453675], [-98.4144609, 35.8453669]]]}, "properties": {"osm_id": 723286030, "building": "yes", "name": "", "height": null, "height_m": 6.0, "levels": 2, "tract_id": "40011958900", "tract_name": "9589", "tags": {"building": "yes", "building:levels": "2"}}}, {"type": "Feature", "geometry": {"type": "Polygon", "coordinates": [[[-98.4140225, 35.8450962], [-98.4140227, 35.8450206], [-98.4139271, 35.8450204], [-98.4139269, 35.8450961], [-98.4140225, 35.8450962]]]}, "properties": {"osm_id": 723286033, "building": "yes", "name": "", "height": null, "height_m": null, "levels": null, "tract_id": "40011958900", "tract_name": "9589", "tags": {"building": "yes"}}}, {"type": "Feature", "geometry": {"type": "Polygon", "coordinates": [[[-98.4132929, 35.8453473], [-98.4133995, 35.8453478], [-98.4133995, 35.8453391], [-98.4134899, 35.8453395], [-98.4134901, 35.8453093], [-98.4135549, 35.8453096], [-98.4135556, 35.8452192], [-98.4134983, 35.8452189], [-98.4134985, 35.8451894], [-98.4132941, 35.8451884], [-98.4132936, 35.8452609], [-98.4132929, 35.8453473]]]}, "properties": {"osm_id": 723286036, "building": "yes", "name": "", "height": null, "height_m": null, "levels": null, "tract_id": "40011958900", "tract_name": "9589", "tags": {"amenity": "post_office", "building": "yes"}}}, {"type": "Feature", "geometry": {"type": "Polygon", "coordinates": [[[-98.4132782, 35.8426079], [-98.4137234, 35.8426079], [-98.4137234, 35.8423948], [-98.4132782, 35.8423948], [-98.4132782, 35.8426079]]]}, "properties": {"osm_id": 723286040, "building": "yes", "name": "NAPA Auto Parts", "height": null, "height_m": null, "levels": null, "tract_id": "40011958900", "tract_name": "9589", "tags": {"brand": "NAPA Auto Parts", "brand:wikidata": "Q6970842", "building": "yes", "name": "NAPA Auto Parts", "shop": "car_parts"}}}, {"type": "Feature", "geometry": {"type": "Polygon", "coordinates": [[[-98.4129992, 35.8425275], [-98.4125647, 35.8425274], [-98.4125647, 35.8424046], [-98.4129992, 35.8424046], [-98.4129992, 35.8425275]]]}, "properties": {"osm_id": 723286041, "building": "yes", "name": "", "height": null, "height_m": null, "levels": null, "tract_id": "40011958900", "tract_name": "9589", "tags": {"building": "yes"}}}, {"type": "Feature", "geometry": {"type": "Polygon", "coordinates": [[[-98.4130092, 35.8421723], [-98.4130122, 35.8419473], [-98.4128641, 35.841946], [-98.412861, 35.842171], [-98.4130092, 35.8421723]]]}, "properties": {"osm_id": 723286042, "building": "yes", "name": "", "height": null, "height_m": null, "levels": null, "tract_id": "40011958900", "tract_name": "9589", "tags": {"building": "yes", "shop": "cannabis"}}}, {"type": "Feature", "geometry": {"type": "Polygon", "coordinates": [[[-98.4135183, 35.8417459], [-98.4132823, 35.8417448], [-98.4132824, 35.8416994], [-98.4132825, 35.8416374], [-98.4132826, 35.8415719], [-98.4132878, 35.8415586], [-98.4132987, 35.8415471], [-98.413314, 35.8415404], [-98.4133372, 35.8415382], [-98.4134233, 35.8415387], [-98.4134776, 35.841539], [-98.4135196, 35.8415393], [-98.4135183, 35.8417459]]]}, "properties": {"osm_id": 723286043, "building": "yes", "name": "Carrier", "height": null, "height_m": null, "levels": null, "tract_id": "40011958900", "tract_name": "9589", "tags": {"building": "yes", "craft": "hvac", "name": "Carrier"}}}, {"type": "Feature", "geometry": {"type": "Polygon", "coordinates": [[[-98.4132825, 35.8416374], [-98.4132546, 35.8416379], [-98.4132529, 35.8415688], [-98.413257, 35.8415465], [-98.4132704, 35.8415314], [-98.4132838, 35.8415229], [-98.4133101, 35.8415153], [-98.4133323, 35.8415134], [-98.4134233, 35.8415134], [-98.4134233, 35.8415387], [-98.4133372, 35.8415382], [-98.413314, 35.8415404], [-98.4132987, 35.8415471], [-98.4132878, 35.8415586], [-98.4132826, 35.8415719], [-98.4132825, 35.8416374]]]}, "properties": {"osm_id": 723286044, "building": "roof", "name": "", "height": null, "height_m": null, "levels": null, "tract_id": "40011958900", "tract_name": "9589", "tags": {"building": "roof"}}}, {"type": "Feature", "geometry": {"type": "Polygon", "coordinates": [[[-98.4134752, 35.8420599], [-98.413335, 35.8420583], [-98.413333, 35.8418935], [-98.4134752, 35.8418968], [-98.4134752, 35.8420599]]]}, "properties": {"osm_id": 723291654, "building": "yes", "name": "", "height": null, "height_m": null, "levels": null, "tract_id": "40011958900", "tract_name": "9589", "tags": {"building": "yes"}}}, {"type": "Feature", "geometry": {"type": "Polygon", "coordinates": [[[-98.4122457, 35.8416471], [-98.4120696, 35.8416471], [-98.4120695, 35.8414601], [-98.4121395, 35.8414601], [-98.4121396, 35.8414485], [-98.4121959, 35.8414485], [-98.4122456, 35.8414487], [-98.4122457, 35.8416471]]]}, "properties": {"osm_id": 723291655, "building": "yes", "name": "", "height": null, "height_m": null, "levels": null, "tract_id": "40011958900", "tract_name": "9589", "tags": {"building": "yes"}}}, {"type": "Feature", "geometry": {"type": "Polygon", "coordinates": [[[-98.4121396, 35.8414485], [-98.4121379, 35.8413851], [-98.4121942, 35.8413851], [-98.4121959, 35.8414485], [-98.4121396, 35.8414485]]]}, "properties": {"osm_id": 723291656, "building": "roof", "name": "", "height": null, "height_m": null, "levels": null, "tract_id": "40011958900", "tract_name": "9589", "tags": {"building": "roof"}}}, {"type": "Feature", "geometry": {"type": "Polygon", "coordinates": [[[-98.4120353, 35.8421209], [-98.4120383, 35.8419789], [-98.4121433, 35.8419803], [-98.4121404, 35.8421223], [-98.4120353, 35.8421209]]]}, "properties": {"osm_id": 723291657, "building": "house", "name": "", "height": null, "height_m": null, "levels": null, "tract_id": "40011958900", "tract_name": "9589", "tags": {"building": "house"}}}, {"type": "Feature", "geometry": {"type": "Polygon", "coordinates": [[[-98.4194584, 35.8469362], [-98.4195685, 35.8469368], [-98.4195708, 35.846694], [-98.4194607, 35.8466933], [-98.4194584, 35.8469362]]]}, "properties": {"osm_id": 723291661, "building": "yes", "name": "Atlas Fitness", "height": null, "height_m": null, "levels": null, "tract_id": "40011958900", "tract_name": "9589", "tags": {"building": "yes", "leisure": "fitness_centre", "name": "Atlas Fitness"}}}, {"type": "Feature", "geometry": {"type": "Polygon", "coordinates": [[[-98.4189555, 35.8475013], [-98.4187575, 35.8475005], [-98.4187596, 35.8471341], [-98.4189576, 35.8471348], [-98.4189555, 35.8475013]]]}, "properties": {"osm_id": 723291662, "building": "yes", "name": "", "height": null, "height_m": null, "levels": null, "tract_id": "40011958900", "tract_name": "9589", "tags": {"building": "yes"}}}, {"type": "Feature", "geometry": {"type": "Polygon", "coordinates": [[[-98.4185508, 35.8479687], [-98.4184168, 35.8479703], [-98.4184127, 35.8477443], [-98.4185467, 35.8477427], [-98.4185508, 35.8479687]]]}, "properties": {"osm_id": 723291663, "building": "yes", "name": "", "height": null, "height_m": null, "levels": null, "tract_id": "40011958900", "tract_name": "9589", "tags": {"building": "yes", "building:material": "metal"}}}, {"type": "Feature", "geometry": {"type": "Polygon", "coordinates": [[[-98.4190201, 35.8484041], [-98.4190209, 35.8482024], [-98.4187597, 35.8482018], [-98.418759, 35.8484034], [-98.4190201, 35.8484041]]]}, "properties": {"osm_id": 723291664, "building": "yes", "name": "", "height": null, "height_m": null, "levels": null, "tract_id": "40011958900", "tract_name": "9589", "tags": {"building": "yes"}}}, {"type": "Feature", "geometry": {"type": "Polygon", "coordinates": [[[-98.4185552, 35.8485379], [-98.4183765, 35.8485387], [-98.4183759, 35.848445], [-98.4185546, 35.8484443], [-98.4185552, 35.8485379]]]}, "properties": {"osm_id": 723291665, "building": "house", "name": "", "height": null, "height_m": null, "levels": null, "tract_id": "40011958900", "tract_name": "9589", "tags": {"building": "house"}}}, {"type": "Feature", "geometry": {"type": "Polygon", "coordinates": [[[-98.4183525, 35.8485572], [-98.4183528, 35.848458], [-98.4181433, 35.8484576], [-98.418143, 35.8485568], [-98.4183525, 35.8485572]]]}, "properties": {"osm_id": 723291666, "building": "house", "name": "", "height": null, "height_m": null, "levels": null, "tract_id": "40011958900", "tract_name": "9589", "tags": {"building": "house"}}}, {"type": "Feature", "geometry": {"type": "Polygon", "coordinates": [[[-98.4182916, 35.8483118], [-98.4182944, 35.8480484], [-98.4181642, 35.8480475], [-98.4181614, 35.8483109], [-98.4182916, 35.8483118]]]}, "properties": {"osm_id": 723291667, "building": "apartments", "name": "", "height": null, "height_m": 6.0, "levels": 2, "tract_id": "40011958900", "tract_name": "9589", "tags": {"building": "apartments", "building:levels": "2"}}}, {"type": "Feature", "geometry": {"type": "Polygon", "coordinates": [[[-98.4183701, 35.8480158], [-98.4183722, 35.8479316], [-98.418165, 35.8479282], [-98.4181629, 35.8480125], [-98.4183701, 35.8480158]]]}, "properties": {"osm_id": 723291668, "building": "yes", "name": "", "height": null, "height_m": null, "levels": null, "tract_id": "40011958900", "tract_name": "9589", "tags": {"building": "yes"}}}, {"type": "Feature", "geometry": {"type": "Polygon", "coordinates": [[[-98.4182636, 35.8478183], [-98.4182631, 35.8476728], [-98.4181476, 35.8476731], [-98.418148, 35.8478186], [-98.4182636, 35.8478183]]]}, "properties": {"osm_id": 723291669, "building": "house", "name": "", "height": null, "height_m": null, "levels": null, "tract_id": "40011958900", "tract_name": "9589", "tags": {"building": "house"}}}, {"type": "Feature", "geometry": {"type": "Polygon", "coordinates": [[[-98.4182495, 35.847821], [-98.4182494, 35.8478792], [-98.418155, 35.8478791], [-98.4181551, 35.8478209], [-98.4182495, 35.847821]]]}, "properties": {"osm_id": 723291670, "building": "carport", "name": "", "height": null, "height_m": null, "levels": null, "tract_id": "40011958900", "tract_name": "9589", "tags": {"building": "carport"}}}, {"type": "Feature", "geometry": {"type": "Polygon", "coordinates": [[[-98.4195811, 35.8447849], [-98.4195199, 35.8447838], [-98.4194702, 35.8447829], [-98.419474, 35.8446454], [-98.4195849, 35.8446475], [-98.4195811, 35.8447849]]]}, "properties": {"osm_id": 723292145, "building": "yes", "name": "City Pharmacy", "height": null, "height_m": null, "levels": null, "tract_id": "40011958900", "tract_name": "9589", "tags": {"building": "yes", "name": "City Pharmacy", "shop": "chemist"}}}, {"type": "Feature", "geometry": {"type": "Polygon", "coordinates": [[[-98.4195199, 35.8447838], [-98.4195185, 35.8448337], [-98.4194688, 35.8448328], [-98.4194702, 35.8447829], [-98.4195199, 35.8447838]]]}, "properties": {"osm_id": 723292146, "building": "roof", "name": "", "height": null, "height_m": null, "levels": null, "tract_id": "40011958900", "tract_name": "9589", "tags": {"building": "roof"}}}, {"type": "Feature", "geometry": {"type": "Polygon", "coordinates": [[[-98.4195721, 35.8417492], [-98.4195703, 35.841676], [-98.4194907, 35.8416774], [-98.4194926, 35.8417506], [-98.4195721, 35.8417492]]]}, "properties": {"osm_id": 723479836, "building": "roof", "name": "", "height": null, "height_m": null, "levels": null, "tract_id": "40011958900", "tract_name": "9589", "tags": {"building": "roof"}}}, {"type": "Feature", "geometry": {"type": "Polygon", "coordinates": [[[-98.4189343, 35.8386644], [-98.4188427, 35.8386643], [-98.4188427, 35.8385751], [-98.4189344, 35.8385751], [-98.4189343, 35.8386644]]]}, "properties": {"osm_id": 723483087, "building": "yes", "name": "Chamber of Commerce", "height": null, "height_m": null, "levels": null, "tract_id": "40011958900", "tract_name": "9589", "tags": {"building": "yes", "check_date": "2025-09-21", "name": "Chamber of Commerce", "office": "government"}}}, {"type": "Feature", "geometry": {"type": "Polygon", "coordinates": [[[-98.4190391, 35.8382847], [-98.4190391, 35.8381866], [-98.4187811, 35.8381867], [-98.4187811, 35.8382847], [-98.4190391, 35.8382847]]]}, "properties": {"osm_id": 723483088, "building": "yes", "name": "Pizza Hut", "height": null, "height_m": null, "levels": null, "tract_id": "40011958900", "tract_name": "9589", "tags": {"addr:city": "Watonga", "addr:housenumber": "511", "addr:postcode": "73772", "addr:state": "OK", "addr:street": "South Clarence Nash Boulevard", "amenity": "restaurant", "brand": "Pizza Hut", "brand:wikidata": "Q191615", "building": "yes", "cuisine": "pizza", "name": "Pizza Hut", "phone": "+1 580-623-8042", "website": "https://locations.pizzahut.com/ok/watonga/511-s-clarence-nash-blvd"}}}, {"type": "Feature", "geometry": {"type": "Polygon", "coordinates": [[[-98.4187676, 35.8378599], [-98.4186509, 35.8371182], [-98.4189269, 35.8371168], [-98.4189322, 35.8372574], [-98.4190402, 35.8372545], [-98.4190366, 35.8370357], [-98.4185252, 35.8370436], [-98.4186739, 35.8378742], [-98.4187676, 35.8378599]]]}, "properties": {"osm_id": 723483089, "building": "yes", "name": "Western Inn", "height": null, "height_m": null, "levels": null, "tract_id": "40011958900", "tract_name": "9589", "tags": {"building": "yes", "check_date": "2025-09-13", "name": "Western Inn", "tourism": "motel"}}}, {"type": "Feature", "geometry": {"type": "Polygon", "coordinates": [[[-98.418842, 35.8364388], [-98.4188373, 35.8363218], [-98.4186371, 35.8363271], [-98.4186418, 35.8364441], [-98.418842, 35.8364388]]]}, "properties": {"osm_id": 723483091, "building": "yes", "name": "", "height": null, "height_m": null, "levels": null, "tract_id": "40011958900", "tract_name": "9589", "tags": {"building": "yes"}}}, {"type": "Feature", "geometry": {"type": "Polygon", "coordinates": [[[-98.4188325, 35.8346992], [-98.4183324, 35.8347008], [-98.4183303, 35.834279], [-98.4188304, 35.8342773], [-98.4188325, 35.8346992]]]}, "properties": {"osm_id": 723483093, "building": "yes", "name": "", "height": null, "height_m": null, "levels": null, "tract_id": "40011958900", "tract_name": "9589", "tags": {"building": "yes"}}}, {"type": "Feature", "geometry": {"type": "Polygon", "coordinates": [[[-98.4185743, 35.8301585], [-98.4183656, 35.8301598], [-98.4183649, 35.8300853], [-98.4183208, 35.8300855], [-98.4183212, 35.8301283], [-98.4180889, 35.8301297], [-98.4180864, 35.8298531], [-98.4183797, 35.8298514], [-98.4183802, 35.8299032], [-98.4184135, 35.829903], [-98.4184134, 35.8298942], [-98.4186398, 35.8298928], [-98.4186416, 35.8300814], [-98.4185736, 35.8300818], [-98.4185743, 35.8301585]]]}, "properties": {"osm_id": 723483094, "building": "yes", "name": "Indian Health Service Clinic", "height": null, "height_m": null, "levels": null, "tract_id": "40011958900", "tract_name": "9589", "tags": {"building": "yes", "check_date": "2025-09-13", "name": "Indian Health Service Clinic", "office": "government"}}}, {"type": "Feature", "geometry": {"type": "Polygon", "coordinates": [[[-98.4181451, 35.8296739], [-98.4179649, 35.8296727], [-98.4179658, 35.8295889], [-98.4179423, 35.8295888], [-98.4179452, 35.8293074], [-98.4181642, 35.8293089], [-98.4181613, 35.8295914], [-98.4181459, 35.8295913], [-98.4181451, 35.8296739]]]}, "properties": {"osm_id": 723483095, "building": "yes", "name": "", "height": null, "height_m": null, "levels": null, "tract_id": "40011958900", "tract_name": "9589", "tags": {"amenity": "social_facility", "building": "yes", "social_facility": "food_bank"}}}, {"type": "Feature", "geometry": {"type": "Polygon", "coordinates": [[[-98.4186691, 35.8291165], [-98.4186709, 35.8289372], [-98.4185192, 35.8289362], [-98.4185216, 35.8287014], [-98.418406, 35.8287006], [-98.4184052, 35.8287776], [-98.4183881, 35.8287775], [-98.4183884, 35.8287459], [-98.4183106, 35.8287454], [-98.4183089, 35.8289098], [-98.4183903, 35.8289104], [-98.4183915, 35.8287968], [-98.4184062, 35.8287969], [-98.4184029, 35.8291147], [-98.4186691, 35.8291165]]]}, "properties": {"osm_id": 723483096, "building": "yes", "name": "Lucky Star Watonga", "height": null, "height_m": null, "levels": null, "tract_id": "40011958900", "tract_name": "9589", "tags": {"amenity": "casino", "building": "yes", "check_date": "2025-09-13", "name": "Lucky Star Watonga"}}}, {"type": "Feature", "geometry": {"type": "Polygon", "coordinates": [[[-98.4198741, 35.8598206], [-98.4197872, 35.8598209], [-98.4197867, 35.8597274], [-98.4198736, 35.8597271], [-98.4198741, 35.8598206]]]}, "properties": {"osm_id": 723491354, "building": "yes", "name": "", "height": null, "height_m": null, "levels": null, "tract_id": "40011958900", "tract_name": "9589", "tags": {"aeroway": "terminal", "building": "yes"}}}, {"type": "Feature", "geometry": {"type": "Polygon", "coordinates": [[[-98.4180203, 35.8625218], [-98.4178739, 35.8625218], [-98.4178738, 35.8623683], [-98.4179047, 35.8623683], [-98.4179047, 35.8623216], [-98.4180217, 35.8623216], [-98.4180217, 35.8623767], [-98.4180356, 35.8623767], [-98.4180356, 35.8624787], [-98.4180203, 35.8624787], [-98.4180203, 35.8625218]]]}, "properties": {"osm_id": 723792121, "building": "house", "name": "", "height": null, "height_m": null, "levels": null, "tract_id": "40011958900", "tract_name": "9589", "tags": {"building": "house"}}}, {"type": "Feature", "geometry": {"type": "Polygon", "coordinates": [[[-98.4158683, 35.8602341], [-98.4158305, 35.8602829], [-98.4157324, 35.8602329], [-98.4158682, 35.8600577], [-98.4159918, 35.8601206], [-98.4159745, 35.8601429], [-98.416012, 35.860162], [-98.4160293, 35.8601397], [-98.4160696, 35.8601602], [-98.4160499, 35.8601857], [-98.4160667, 35.8601942], [-98.4159972, 35.8602837], [-98.4159766, 35.8602732], [-98.4159677, 35.8602847], [-98.4158683, 35.8602341]]]}, "properties": {"osm_id": 723792124, "building": "house", "name": "", "height": null, "height_m": null, "levels": null, "tract_id": "40011958900", "tract_name": "9589", "tags": {"building": "house"}}}, {"type": "Feature", "geometry": {"type": "Polygon", "coordinates": [[[-98.4188629, 35.8602041], [-98.4188615, 35.8603535], [-98.418725, 35.8603526], [-98.4187247, 35.8603818], [-98.4185712, 35.8603808], [-98.4185728, 35.8602066], [-98.4186398, 35.860207], [-98.4186396, 35.8602281], [-98.4187002, 35.8602284], [-98.4187005, 35.8601956], [-98.4187852, 35.8601961], [-98.4187957, 35.8602037], [-98.4188629, 35.8602041]]]}, "properties": {"osm_id": 723792126, "building": "house", "name": "", "height": null, "height_m": null, "levels": null, "tract_id": "40011958900", "tract_name": "9589", "tags": {"building": "house"}}}, {"type": "Feature", "geometry": {"type": "Polygon", "coordinates": [[[-98.418221, 35.8604163], [-98.4181065, 35.8604168], [-98.418106, 35.8603497], [-98.4179644, 35.8603504], [-98.4179636, 35.860224], [-98.4182197, 35.8602228], [-98.418221, 35.8604163]]]}, "properties": {"osm_id": 723792127, "building": "house", "name": "", "height": null, "height_m": null, "levels": null, "tract_id": "40011958900", "tract_name": "9589", "tags": {"building": "house"}}}, {"type": "Feature", "geometry": {"type": "Polygon", "coordinates": [[[-98.4175623, 35.8602686], [-98.417627, 35.8602686], [-98.417627, 35.8602523], [-98.4176925, 35.8602523], [-98.4176925, 35.8604075], [-98.4174487, 35.8604075], [-98.4174487, 35.8601882], [-98.4175623, 35.8601882], [-98.4175623, 35.8602686]]]}, "properties": {"osm_id": 723792128, "building": "house", "name": "", "height": null, "height_m": null, "levels": null, "tract_id": "40011958900", "tract_name": "9589", "tags": {"building": "house"}}}, {"type": "Feature", "geometry": {"type": "Polygon", "coordinates": [[[-98.4172394, 35.8602437], [-98.4172386, 35.8602712], [-98.4172111, 35.8602707], [-98.4172115, 35.8602552], [-98.4171683, 35.8602544], [-98.4171689, 35.8602321], [-98.417123, 35.8602312], [-98.4171243, 35.8601856], [-98.4170179, 35.8601837], [-98.417012, 35.8603898], [-98.4172756, 35.8603947], [-98.4172798, 35.8602444], [-98.4172394, 35.8602437]]]}, "properties": {"osm_id": 723792129, "building": "house", "name": "", "height": null, "height_m": null, "levels": null, "tract_id": "40011958900", "tract_name": "9589", "tags": {"building": "house"}}}, {"type": "Feature", "geometry": {"type": "Polygon", "coordinates": [[[-98.4183267, 35.8599064], [-98.4182059, 35.8599056], [-98.4182062, 35.8598743], [-98.4181872, 35.8598742], [-98.4181869, 35.8599044], [-98.4181247, 35.859904], [-98.4181265, 35.8597211], [-98.4182054, 35.8597216], [-98.4182051, 35.8597548], [-98.4183281, 35.8597556], [-98.4183267, 35.8599064]]]}, "properties": {"osm_id": 723792132, "building": "house", "name": "", "height": null, "height_m": null, "levels": null, "tract_id": "40011958900", "tract_name": "9589", "tags": {"building": "house"}}}, {"type": "Feature", "geometry": {"type": "Polygon", "coordinates": [[[-98.4178479, 35.8599006], [-98.41796, 35.8599013], [-98.4179607, 35.8598228], [-98.4179409, 35.8598227], [-98.417942, 35.8597007], [-98.417897, 35.8597004], [-98.4178969, 35.8597153], [-98.4177954, 35.8597147], [-98.4177956, 35.8596908], [-98.4177383, 35.8596904], [-98.4177369, 35.8598407], [-98.4178485, 35.8598414], [-98.4178479, 35.8599006]]]}, "properties": {"osm_id": 723792133, "building": "house", "name": "", "height": null, "height_m": null, "levels": null, "tract_id": "40011958900", "tract_name": "9589", "tags": {"building": "house"}}}, {"type": "Feature", "geometry": {"type": "Polygon", "coordinates": [[[-98.4175468, 35.8598386], [-98.4174163, 35.8598378], [-98.4174157, 35.859896], [-98.4172923, 35.8598952], [-98.4172931, 35.8598078], [-98.4173381, 35.859808], [-98.4173391, 35.859694], [-98.4174243, 35.8596946], [-98.417424, 35.859726], [-98.4175479, 35.8597268], [-98.4175468, 35.8598386]]]}, "properties": {"osm_id": 723792134, "building": "house", "name": "", "height": null, "height_m": null, "levels": null, "tract_id": "40011958900", "tract_name": "9589", "tags": {"building": "house"}}}, {"type": "Feature", "geometry": {"type": "Polygon", "coordinates": [[[-98.4172352, 35.8598383], [-98.4171385, 35.8598376], [-98.4171388, 35.859811], [-98.4171182, 35.8598109], [-98.417118, 35.859827], [-98.4170885, 35.8598267], [-98.4170878, 35.8598898], [-98.4169932, 35.8598891], [-98.4169955, 35.8596877], [-98.417067, 35.8596883], [-98.4170668, 35.8597059], [-98.4171356, 35.8597064], [-98.4171357, 35.859694], [-98.4172369, 35.8596948], [-98.4172352, 35.8598383]]]}, "properties": {"osm_id": 723792135, "building": "house", "name": "", "height": null, "height_m": null, "levels": null, "tract_id": "40011958900", "tract_name": "9589", "tags": {"building": "house"}}}, {"type": "Feature", "geometry": {"type": "Polygon", "coordinates": [[[-98.4187932, 35.8594704], [-98.4186806, 35.8594692], [-98.4186809, 35.8594464], [-98.4185106, 35.8594446], [-98.4185121, 35.8593549], [-98.4185948, 35.8593558], [-98.4185958, 35.8592929], [-98.4186707, 35.8592937], [-98.4186705, 35.8593063], [-98.4187146, 35.8593068], [-98.4187145, 35.8593117], [-98.4187595, 35.8593122], [-98.4187594, 35.8593193], [-98.4187957, 35.8593197], [-98.4187932, 35.8594704]]]}, "properties": {"osm_id": 723792136, "building": "house", "name": "", "height": null, "height_m": null, "levels": null, "tract_id": "40011958900", "tract_name": "9589", "tags": {"building": "house"}}}, {"type": "Feature", "geometry": {"type": "Polygon", "coordinates": [[[-98.4183454, 35.8594228], [-98.4181471, 35.8594228], [-98.4181471, 35.8593354], [-98.4181239, 35.8593354], [-98.4181239, 35.859282], [-98.4182615, 35.859282], [-98.4182614, 35.85936], [-98.4183454, 35.85936], [-98.4183454, 35.8594228]]]}, "properties": {"osm_id": 723792137, "building": "house", "name": "", "height": null, "height_m": null, "levels": null, "tract_id": "40011958900", "tract_name": "9589", "tags": {"building": "house"}}}, {"type": "Feature", "geometry": {"type": "Polygon", "coordinates": [[[-98.4180422, 35.8594536], [-98.4179007, 35.8594539], [-98.4179006, 35.8593972], [-98.4178249, 35.8593973], [-98.4178247, 35.8593329], [-98.4178477, 35.8593329], [-98.4178476, 35.859289], [-98.417928, 35.8592888], [-98.4179281, 35.859328], [-98.4179603, 35.859328], [-98.4179603, 35.8592948], [-98.4180556, 35.8592946], [-98.4180559, 35.859401], [-98.418042, 35.859401], [-98.4180422, 35.8594536]]]}, "properties": {"osm_id": 723792138, "building": "house", "name": "", "height": null, "height_m": null, "levels": null, "tract_id": "40011958900", "tract_name": "9589", "tags": {"building": "house"}}}, {"type": "Feature", "geometry": {"type": "Polygon", "coordinates": [[[-98.4177466, 35.8594076], [-98.4177472, 35.8593304], [-98.4176241, 35.8593297], [-98.4176246, 35.8592756], [-98.4175268, 35.8592751], [-98.4175257, 35.8594063], [-98.4177466, 35.8594076]]]}, "properties": {"osm_id": 723792139, "building": "house", "name": "", "height": null, "height_m": null, "levels": null, "tract_id": "40011958900", "tract_name": "9589", "tags": {"building": "house"}}}, {"type": "Feature", "geometry": {"type": "Polygon", "coordinates": [[[-98.417414, 35.8594402], [-98.4174147, 35.8593278], [-98.4173629, 35.8593276], [-98.4173628, 35.8593481], [-98.4173334, 35.859348], [-98.4173339, 35.8592796], [-98.417247, 35.8592793], [-98.417246, 35.8594395], [-98.417414, 35.8594402]]]}, "properties": {"osm_id": 723792140, "building": "house", "name": "", "height": null, "height_m": null, "levels": null, "tract_id": "40011958900", "tract_name": "9589", "tags": {"building": "house"}}}, {"type": "Feature", "geometry": {"type": "Polygon", "coordinates": [[[-98.4171435, 35.8594201], [-98.4169663, 35.8594184], [-98.4169684, 35.8592763], [-98.4170459, 35.8592771], [-98.4170453, 35.8593162], [-98.417145, 35.8593172], [-98.4171435, 35.8594201]]]}, "properties": {"osm_id": 723792141, "building": "house", "name": "", "height": null, "height_m": null, "levels": null, "tract_id": "40011958900", "tract_name": "9589", "tags": {"building": "house"}}}, {"type": "Feature", "geometry": {"type": "Polygon", "coordinates": [[[-98.4188596, 35.8590078], [-98.4187202, 35.8590075], [-98.4187207, 35.8587941], [-98.4188602, 35.8587943], [-98.4188596, 35.8590078]]]}, "properties": {"osm_id": 723792142, "building": "house", "name": "", "height": null, "height_m": null, "levels": null, "tract_id": "40011958900", "tract_name": "9589", "tags": {"building": "house"}}}, {"type": "Feature", "geometry": {"type": "Polygon", "coordinates": [[[-98.4183902, 35.8590044], [-98.418273, 35.8590029], [-98.4182733, 35.8589902], [-98.4181171, 35.8589882], [-98.4181186, 35.8589104], [-98.418392, 35.8589139], [-98.4183902, 35.8590044]]]}, "properties": {"osm_id": 723792143, "building": "house", "name": "", "height": null, "height_m": null, "levels": null, "tract_id": "40011958900", "tract_name": "9589", "tags": {"building": "house"}}}, {"type": "Feature", "geometry": {"type": "Polygon", "coordinates": [[[-98.4180627, 35.8589736], [-98.4180016, 35.858974], [-98.4180019, 35.8590018], [-98.4178869, 35.8590026], [-98.4178866, 35.8589727], [-98.4178322, 35.8589731], [-98.417832, 35.8589446], [-98.4177978, 35.8589448], [-98.4177974, 35.8589047], [-98.417831, 35.8589045], [-98.41783, 35.8587975], [-98.4179094, 35.858797], [-98.4179099, 35.8588477], [-98.4179499, 35.8588475], [-98.4179503, 35.8588803], [-98.4180617, 35.8588795], [-98.4180627, 35.8589736]]]}, "properties": {"osm_id": 723792144, "building": "house", "name": "", "height": null, "height_m": null, "levels": null, "tract_id": "40011958900", "tract_name": "9589", "tags": {"building": "house"}}}, {"type": "Feature", "geometry": {"type": "Polygon", "coordinates": [[[-98.4177684, 35.8589911], [-98.4176669, 35.8589905], [-98.417667, 35.8589725], [-98.4176219, 35.8589723], [-98.4176218, 35.85899], [-98.4175195, 35.8589894], [-98.4175206, 35.8588477], [-98.4176105, 35.8588482], [-98.4176101, 35.8588897], [-98.4177693, 35.8588906], [-98.4177684, 35.8589911]]]}, "properties": {"osm_id": 723792145, "building": "house", "name": "", "height": null, "height_m": null, "levels": null, "tract_id": "40011958900", "tract_name": "9589", "tags": {"building": "house"}}}, {"type": "Feature", "geometry": {"type": "Polygon", "coordinates": [[[-98.4174212, 35.8589938], [-98.4173207, 35.8589926], [-98.4173215, 35.8589466], [-98.417241, 35.8589456], [-98.4172433, 35.8588156], [-98.4173622, 35.858817], [-98.4173617, 35.858844], [-98.4174239, 35.8588448], [-98.4174212, 35.8589938]]]}, "properties": {"osm_id": 723792146, "building": "house", "name": "", "height": null, "height_m": null, "levels": null, "tract_id": "40011958900", "tract_name": "9589", "tags": {"building": "house"}}}, {"type": "Feature", "geometry": {"type": "Polygon", "coordinates": [[[-98.4170615, 35.858988], [-98.4169729, 35.8589876], [-98.4169739, 35.8588214], [-98.4169183, 35.8588212], [-98.4169185, 35.8587813], [-98.4170466, 35.8587818], [-98.4170463, 35.8588233], [-98.4170566, 35.8588234], [-98.4170567, 35.8588012], [-98.4171342, 35.8588016], [-98.4171335, 35.8589126], [-98.417062, 35.8589122], [-98.4170615, 35.858988]]]}, "properties": {"osm_id": 723792147, "building": "house", "name": "", "height": null, "height_m": null, "levels": null, "tract_id": "40011958900", "tract_name": "9589", "tags": {"building": "house"}}}, {"type": "Feature", "geometry": {"type": "Polygon", "coordinates": [[[-98.4140643, 35.8602357], [-98.4140175, 35.8603366], [-98.4139302, 35.86031], [-98.4139486, 35.8602704], [-98.4139372, 35.8602669], [-98.4139176, 35.8603091], [-98.413817, 35.8602785], [-98.4138895, 35.8601218], [-98.4139588, 35.8601429], [-98.4139341, 35.8601961], [-98.4140643, 35.8602357]]]}, "properties": {"osm_id": 723792154, "building": "house", "name": "", "height": null, "height_m": null, "levels": null, "tract_id": "40011958900", "tract_name": "9589", "tags": {"building": "house"}}}, {"type": "Feature", "geometry": {"type": "Polygon", "coordinates": [[[-98.4135074, 35.8604164], [-98.4133527, 35.860416], [-98.413353, 35.86034], [-98.4133345, 35.8603399], [-98.4133347, 35.860282], [-98.413508, 35.8602825], [-98.4135074, 35.8604164]]]}, "properties": {"osm_id": 723792155, "building": "house", "name": "", "height": null, "height_m": null, "levels": null, "tract_id": "40011958900", "tract_name": "9589", "tags": {"building": "house"}}}, {"type": "Feature", "geometry": {"type": "Polygon", "coordinates": [[[-98.4134696, 35.8600452], [-98.413337, 35.8600446], [-98.4133374, 35.8599741], [-98.4133844, 35.8599743], [-98.4133846, 35.859951], [-98.4133266, 35.8599508], [-98.413327, 35.8598785], [-98.4134712, 35.859879], [-98.4134708, 35.8599285], [-98.4135149, 35.8599287], [-98.4135144, 35.86], [-98.4134699, 35.8599998], [-98.4134696, 35.8600452]]]}, "properties": {"osm_id": 723792156, "building": "house", "name": "", "height": null, "height_m": null, "levels": null, "tract_id": "40011958900", "tract_name": "9589", "tags": {"building": "house"}}}, {"type": "Feature", "geometry": {"type": "Polygon", "coordinates": [[[-98.4139014, 35.8599472], [-98.4139012, 35.8599069], [-98.4139497, 35.8599067], [-98.4139491, 35.8597947], [-98.4138265, 35.8597952], [-98.4138263, 35.8597637], [-98.4137382, 35.859764], [-98.4137391, 35.8599477], [-98.4139014, 35.8599472]]]}, "properties": {"osm_id": 723792157, "building": "house", "name": "", "height": null, "height_m": null, "levels": null, "tract_id": "40011958900", "tract_name": "9589", "tags": {"building": "house"}}}, {"type": "Feature", "geometry": {"type": "Polygon", "coordinates": [[[-98.4135305, 35.8592704], [-98.4134136, 35.8592709], [-98.4134131, 35.8591964], [-98.4133543, 35.8591966], [-98.4133538, 35.8591258], [-98.4133321, 35.8591259], [-98.4133318, 35.8590619], [-98.4135292, 35.8590611], [-98.4135305, 35.8592704]]]}, "properties": {"osm_id": 723792158, "building": "house", "name": "", "height": null, "height_m": null, "levels": null, "tract_id": "40011958900", "tract_name": "9589", "tags": {"building": "house"}}}, {"type": "Feature", "geometry": {"type": "Polygon", "coordinates": [[[-98.4142083, 35.8589227], [-98.4141085, 35.8589624], [-98.4140639, 35.8590081], [-98.4141287, 35.8590496], [-98.414075, 35.8591047], [-98.4140553, 35.8590921], [-98.414033, 35.859115], [-98.4140445, 35.8591223], [-98.4139805, 35.8591883], [-98.4138543, 35.8591078], [-98.4138702, 35.8590914], [-98.4138387, 35.8590713], [-98.4139597, 35.8589465], [-98.4139884, 35.8589648], [-98.4140392, 35.8589124], [-98.4141706, 35.8588603], [-98.4142083, 35.8589227]]]}, "properties": {"osm_id": 723792159, "building": "house", "name": "", "height": null, "height_m": null, "levels": null, "tract_id": "40011958900", "tract_name": "9589", "tags": {"building": "house"}}}, {"type": "Feature", "geometry": {"type": "Polygon", "coordinates": [[[-98.418974, 35.8682481], [-98.4189745, 35.868199], [-98.4188258, 35.8681972], [-98.4188263, 35.868246], [-98.418974, 35.8682481]]]}, "properties": {"osm_id": 723792161, "building": "yes", "name": "", "height": null, "height_m": null, "levels": null, "tract_id": "40011958900", "tract_name": "9589", "tags": {"building": "yes"}}}, {"type": "Feature", "geometry": {"type": "Polygon", "coordinates": [[[-98.4056014, 35.8429929], [-98.4054134, 35.8429926], [-98.4054146, 35.8425468], [-98.4056025, 35.8425471], [-98.4056014, 35.8429929]]]}, "properties": {"osm_id": 725706596, "building": "yes", "name": "", "height": null, "height_m": null, "levels": null, "tract_id": "40011958900", "tract_name": "9589", "tags": {"building": "yes"}}}, {"type": "Feature", "geometry": {"type": "Polygon", "coordinates": [[[-98.4073447, 35.8441985], [-98.4073477, 35.8439675], [-98.4071967, 35.8439662], [-98.4071937, 35.8441972], [-98.4073447, 35.8441985]]]}, "properties": {"osm_id": 725706597, "building": "yes", "name": "Christ Gospel Church", "height": null, "height_m": null, "levels": null, "tract_id": "40011958900", "tract_name": "9589", "tags": {"amenity": "place_of_worship", "building": "yes", "name": "Christ Gospel Church", "religion": "christian"}}}, {"type": "Feature", "geometry": {"type": "Polygon", "coordinates": [[[-98.4061043, 35.843074], [-98.4059265, 35.8430736], [-98.4059266, 35.8430505], [-98.4059054, 35.8430505], [-98.4059056, 35.8429962], [-98.4060476, 35.8429965], [-98.4060477, 35.842975], [-98.4061047, 35.8429751], [-98.4061043, 35.843074]]]}, "properties": {"osm_id": 725706598, "building": "yes", "name": "Chuch of God In Christ", "height": null, "height_m": null, "levels": null, "tract_id": "40011958900", "tract_name": "9589", "tags": {"amenity": "place_of_worship", "building": "yes", "name": "Chuch of God In Christ", "religion": "christian"}}}, {"type": "Feature", "geometry": {"type": "Polygon", "coordinates": [[[-98.4117742, 35.8452361], [-98.4117764, 35.8450797], [-98.4113321, 35.8450756], [-98.4113314, 35.8451261], [-98.4109114, 35.8451223], [-98.41091, 35.8452234], [-98.4113311, 35.8452271], [-98.411331, 35.845232], [-98.4117742, 35.8452361]]]}, "properties": {"osm_id": 725706610, "building": "yes", "name": "", "height": null, "height_m": null, "levels": null, "tract_id": "40011958900", "tract_name": "9589", "tags": {"building": "yes", "shop": "hardware"}}}, {"type": "Feature", "geometry": {"type": "Polygon", "coordinates": [[[-98.4132539, 35.8438561], [-98.4132541, 35.8437184], [-98.4133803, 35.8437185], [-98.4133805, 35.8435193], [-98.4138133, 35.8435197], [-98.413813, 35.843715], [-98.4136055, 35.8437149], [-98.4136053, 35.8438564], [-98.4132539, 35.8438561]]]}, "properties": {"osm_id": 725706611, "building": "yes", "name": "", "height": null, "height_m": null, "levels": null, "tract_id": "40011958900", "tract_name": "9589", "tags": {"building": "yes"}}}, {"type": "Feature", "geometry": {"type": "Polygon", "coordinates": [[[-98.4098777, 35.8457308], [-98.4098723, 35.8457307], [-98.4097572, 35.84573], [-98.4097576, 35.8456845], [-98.4097585, 35.8455982], [-98.409879, 35.845599], [-98.4098777, 35.8457308]]]}, "properties": {"osm_id": 725706612, "building": "yes", "name": "", "height": null, "height_m": null, "levels": null, "tract_id": "40011958900", "tract_name": "9589", "tags": {"building": "yes"}}}, {"type": "Feature", "geometry": {"type": "Polygon", "coordinates": [[[-98.3967116, 35.8406527], [-98.3966392, 35.8406015], [-98.3967634, 35.8405034], [-98.3968283, 35.8405569], [-98.3967116, 35.8406527]]]}, "properties": {"osm_id": 773803715, "building": "roof", "name": "", "height": null, "height_m": null, "levels": null, "tract_id": "40011958900", "tract_name": "9589", "tags": {"building": "roof"}}}, {"type": "Feature", "geometry": {"type": "Polygon", "coordinates": [[[-98.4129911, 35.8430871], [-98.4125862, 35.8430843], [-98.4125869, 35.8430152], [-98.4129919, 35.8430181], [-98.4129911, 35.8430871]]]}, "properties": {"osm_id": 888067708, "building": "yes", "name": "", "height": null, "height_m": null, "levels": null, "tract_id": "40011958900", "tract_name": "9589", "tags": {"building": "yes"}}}, {"type": "Feature", "geometry": {"type": "Polygon", "coordinates": [[[-98.4129919, 35.8430181], [-98.4125869, 35.8430152], [-98.4125884, 35.8428812], [-98.4129933, 35.8428841], [-98.4129919, 35.8430181]]]}, "properties": {"osm_id": 888067709, "building": "yes", "name": "", "height": null, "height_m": null, "levels": null, "tract_id": "40011958900", "tract_name": "9589", "tags": {"building": "yes"}}}, {"type": "Feature", "geometry": {"type": "Polygon", "coordinates": [[[-98.4129897, 35.8432243], [-98.4129911, 35.8430871], [-98.4125862, 35.8430843], [-98.4125848, 35.8432215], [-98.4129897, 35.8432243]]]}, "properties": {"osm_id": 888067710, "building": "yes", "name": "", "height": null, "height_m": null, "levels": null, "tract_id": "40011958900", "tract_name": "9589", "tags": {"building": "yes"}}}, {"type": "Feature", "geometry": {"type": "Polygon", "coordinates": [[[-98.4124557, 35.8432091], [-98.4124574, 35.8428449], [-98.4123339, 35.8428445], [-98.4123323, 35.8432087], [-98.4124557, 35.8432091]]]}, "properties": {"osm_id": 888067711, "building": "yes", "name": "", "height": null, "height_m": null, "levels": null, "tract_id": "40011958900", "tract_name": "9589", "tags": {"building": "yes"}}}, {"type": "Feature", "geometry": {"type": "Polygon", "coordinates": [[[-98.4140525, 35.8431599], [-98.4137214, 35.8431592], [-98.413723, 35.8430648], [-98.4136869, 35.8430647], [-98.4136869, 35.8430732], [-98.4135112, 35.8430729], [-98.4135115, 35.8429511], [-98.4136869, 35.8429514], [-98.4136869, 35.8429812], [-98.4137244, 35.8429813], [-98.4137256, 35.8429088], [-98.4138347, 35.842909], [-98.4138352, 35.8427438], [-98.4140551, 35.8427442], [-98.4140541, 35.8429034], [-98.4141155, 35.8429035], [-98.4141899, 35.8429036], [-98.4141879, 35.8429969], [-98.4141159, 35.8429968], [-98.4140536, 35.8429967], [-98.4140525, 35.8431599]]]}, "properties": {"osm_id": 888067712, "building": "yes", "name": "", "height": null, "height_m": null, "levels": null, "tract_id": "40011958900", "tract_name": "9589", "tags": {"building": "yes"}}}, {"type": "Feature", "geometry": {"type": "Polygon", "coordinates": [[[-98.3948323, 35.8405638], [-98.3948308, 35.8404938], [-98.3944715, 35.8404987], [-98.3944729, 35.8405687], [-98.3948323, 35.8405638]]]}, "properties": {"osm_id": 971478233, "building": "roof", "name": "Love's", "height": null, "height_m": null, "levels": null, "tract_id": "40011958900", "tract_name": "9589", "tags": {"amenity": "fuel", "brand": "Love's", "brand:wikidata": "Q1872496", "building": "roof", "hgv": "no", "name": "Love's"}}}, {"type": "Feature", "geometry": {"type": "Polygon", "coordinates": [[[-98.3942908, 35.8402643], [-98.3940051, 35.8402643], [-98.3940051, 35.8401928], [-98.3942908, 35.8401929], [-98.3942908, 35.8402643]]]}, "properties": {"osm_id": 971478234, "building": "roof", "name": "Love's", "height": null, "height_m": null, "levels": null, "tract_id": "40011958900", "tract_name": "9589", "tags": {"amenity": "fuel", "brand": "Love's", "brand:wikidata": "Q1872496", "building": "roof", "hgv": "yes", "name": "Love's"}}}, {"type": "Feature", "geometry": {"type": "Polygon", "coordinates": [[[-98.3946904, 35.8402807], [-98.3946882, 35.840072], [-98.3945907, 35.8400727], [-98.3945901, 35.8400191], [-98.3944489, 35.8400201], [-98.3944494, 35.8400698], [-98.3943927, 35.8400702], [-98.3943949, 35.8402827], [-98.3946904, 35.8402807]]]}, "properties": {"osm_id": 971478235, "building": "yes", "name": "Love's", "height": null, "height_m": null, "levels": null, "tract_id": "40011958900", "tract_name": "9589", "tags": {"brand": "Love's", "brand:wikidata": "Q1872496", "building": "yes", "name": "Love's", "operator": "Loves", "shop": "convenience"}}}, {"type": "Feature", "geometry": {"type": "Polygon", "coordinates": [[[-98.369683, 35.8417569], [-98.3694457, 35.841758], [-98.3694443, 35.8415591], [-98.3695905, 35.8415584], [-98.3695903, 35.8415276], [-98.3696814, 35.8415272], [-98.369683, 35.8417569]]]}, "properties": {"osm_id": 1000349663, "building": "yes", "name": "", "height": null, "height_m": null, "levels": null, "tract_id": "40011958900", "tract_name": "9589", "tags": {"building": "yes"}}}, {"type": "Feature", "geometry": {"type": "Polygon", "coordinates": [[[-98.3668512, 35.8414242], [-98.3668498, 35.8417256], [-98.3668157, 35.8417255], [-98.3668156, 35.8417635], [-98.3667803, 35.8417634], [-98.3667802, 35.8417905], [-98.3668441, 35.8417907], [-98.3668437, 35.8418779], [-98.366644, 35.8418773], [-98.3666442, 35.8418416], [-98.3666775, 35.8418417], [-98.3666778, 35.8417894], [-98.3667403, 35.8417896], [-98.3667404, 35.8417641], [-98.366707, 35.841764], [-98.3667071, 35.8417252], [-98.3666733, 35.8417251], [-98.3666747, 35.8414237], [-98.3668512, 35.8414242]]]}, "properties": {"osm_id": 1000349664, "building": "yes", "name": "", "height": null, "height_m": null, "levels": null, "tract_id": "40011958900", "tract_name": "9589", "tags": {"building": "yes", "shop": "trade"}}}, {"type": "Feature", "geometry": {"type": "Polygon", "coordinates": [[[-98.4122351, 35.8495003], [-98.4121096, 35.8495008], [-98.4121102, 35.8494081], [-98.4122357, 35.8494071], [-98.4122351, 35.8495003]]]}, "properties": {"osm_id": 1196193025, "building": "yes", "name": "T B Ferguson Museum", "height": null, "height_m": null, "levels": null, "tract_id": "40011958900", "tract_name": "9589", "tags": {"building": "yes", "name": "T B Ferguson Museum", "tourism": "museum"}}}, {"type": "Feature", "geometry": {"type": "Polygon", "coordinates": [[[-98.4053075, 35.848077], [-98.4052357, 35.848077], [-98.4052357, 35.8479963], [-98.4053075, 35.8479963], [-98.4053075, 35.848077]]]}, "properties": {"osm_id": 1299317060, "building": "yes", "name": "", "height": null, "height_m": null, "levels": null, "tract_id": "40011958900", "tract_name": "9589", "tags": {"building": "yes"}}}, {"type": "Feature", "geometry": {"type": "Polygon", "coordinates": [[[-98.4053034, 35.8481768], [-98.4052538, 35.8481768], [-98.4052538, 35.8481165], [-98.4053034, 35.8481165], [-98.4053034, 35.8481768]]]}, "properties": {"osm_id": 1299317061, "building": "yes", "name": "", "height": null, "height_m": null, "levels": null, "tract_id": "40011958900", "tract_name": "9589", "tags": {"building": "yes"}}}, {"type": "Feature", "geometry": {"type": "Polygon", "coordinates": [[[-98.4048682, 35.8482469], [-98.4047771, 35.848248], [-98.404776, 35.8481882], [-98.4047321, 35.8481888], [-98.4047307, 35.8481137], [-98.4047746, 35.8481132], [-98.4047737, 35.848065], [-98.4048649, 35.8480639], [-98.4048682, 35.8482469]]]}, "properties": {"osm_id": 1299317062, "building": "yes", "name": "", "height": null, "height_m": null, "levels": null, "tract_id": "40011958900", "tract_name": "9589", "tags": {"building": "yes"}}}, {"type": "Feature", "geometry": {"type": "Polygon", "coordinates": [[[-98.4050949, 35.8483893], [-98.4050251, 35.84839], [-98.4050254, 35.8484094], [-98.4049202, 35.8484104], [-98.4049199, 35.848391], [-98.4048509, 35.8483917], [-98.4048495, 35.8483026], [-98.4050936, 35.8483002], [-98.4050949, 35.8483893]]]}, "properties": {"osm_id": 1299317063, "building": "yes", "name": "", "height": null, "height_m": null, "levels": null, "tract_id": "40011958900", "tract_name": "9589", "tags": {"building": "yes"}}}, {"type": "Feature", "geometry": {"type": "Polygon", "coordinates": [[[-98.4055844, 35.8483937], [-98.4054818, 35.8483968], [-98.4054825, 35.8484115], [-98.4053711, 35.8484149], [-98.4053705, 35.8484002], [-98.4052834, 35.8484028], [-98.4052793, 35.8483158], [-98.4055804, 35.8483067], [-98.4055844, 35.8483937]]]}, "properties": {"osm_id": 1299317064, "building": "yes", "name": "", "height": null, "height_m": null, "levels": null, "tract_id": "40011958900", "tract_name": "9589", "tags": {"building": "yes"}}}, {"type": "Feature", "geometry": {"type": "Polygon", "coordinates": [[[-98.4056313, 35.8482513], [-98.4055066, 35.8482502], [-98.4055091, 35.8480633], [-98.4056338, 35.8480644], [-98.4056332, 35.848111], [-98.4056419, 35.8481111], [-98.4056407, 35.8481986], [-98.405632, 35.8481985], [-98.4056313, 35.8482513]]]}, "properties": {"osm_id": 1299317065, "building": "yes", "name": "", "height": null, "height_m": null, "levels": null, "tract_id": "40011958900", "tract_name": "9589", "tags": {"building": "yes"}}}, {"type": "Feature", "geometry": {"type": "Polygon", "coordinates": [[[-98.4056313, 35.8480132], [-98.4055214, 35.8480154], [-98.4055158, 35.8478288], [-98.4056257, 35.8478266], [-98.4056272, 35.8478773], [-98.4056429, 35.847877], [-98.4056455, 35.8479618], [-98.4056298, 35.8479621], [-98.4056313, 35.8480132]]]}, "properties": {"osm_id": 1299317066, "building": "yes", "name": "", "height": null, "height_m": null, "levels": null, "tract_id": "40011958900", "tract_name": "9589", "tags": {"building": "yes"}}}, {"type": "Feature", "geometry": {"type": "Polygon", "coordinates": [[[-98.4055757, 35.8476914], [-98.4055723, 35.847774], [-98.4052968, 35.8477667], [-98.4053001, 35.8476841], [-98.4055757, 35.8476914]]]}, "properties": {"osm_id": 1299317067, "building": "yes", "name": "", "height": null, "height_m": null, "levels": null, "tract_id": "40011958900", "tract_name": "9589", "tags": {"building": "yes"}}}, {"type": "Feature", "geometry": {"type": "Polygon", "coordinates": [[[-98.4049957, 35.8446693], [-98.4049065, 35.8446715], [-98.4049014, 35.8445338], [-98.4049905, 35.8445317], [-98.4049957, 35.8446693]]]}, "properties": {"osm_id": 1299317068, "building": "yes", "name": "", "height": null, "height_m": null, "levels": null, "tract_id": "40011958900", "tract_name": "9589", "tags": {"building": "yes"}}}, {"type": "Feature", "geometry": {"type": "Polygon", "coordinates": [[[-98.4051861, 35.8446617], [-98.405115, 35.8446606], [-98.405118, 35.8445337], [-98.405189, 35.8445348], [-98.4051861, 35.8446617]]]}, "properties": {"osm_id": 1299317069, "building": "yes", "name": "", "height": null, "height_m": null, "levels": null, "tract_id": "40011958900", "tract_name": "9589", "tags": {"building": "yes"}}}, {"type": "Feature", "geometry": {"type": "Polygon", "coordinates": [[[-98.4057105, 35.8445976], [-98.4056454, 35.8445976], [-98.4056454, 35.8445747], [-98.4056454, 35.8444959], [-98.4057105, 35.8444959], [-98.4057105, 35.8445976]]]}, "properties": {"osm_id": 1299317070, "building": "yes", "name": "", "height": null, "height_m": null, "levels": null, "tract_id": "40011958900", "tract_name": "9589", "tags": {"building": "yes"}}}, {"type": "Feature", "geometry": {"type": "Polygon", "coordinates": [[[-98.4056454, 35.8446987], [-98.405575, 35.8446987], [-98.405575, 35.8445747], [-98.4056454, 35.8445747], [-98.4056454, 35.8445976], [-98.4056454, 35.8446987]]]}, "properties": {"osm_id": 1299317071, "building": "yes", "name": "", "height": null, "height_m": null, "levels": null, "tract_id": "40011958900", "tract_name": "9589", "tags": {"building": "yes"}}}, {"type": "Feature", "geometry": {"type": "Polygon", "coordinates": [[[-98.4060873, 35.844653], [-98.4059156, 35.8446535], [-98.4059152, 35.8445536], [-98.4060868, 35.844553], [-98.4060873, 35.844653]]]}, "properties": {"osm_id": 1299317072, "building": "yes", "name": "", "height": null, "height_m": null, "levels": null, "tract_id": "40011958900", "tract_name": "9589", "tags": {"building": "yes"}}}, {"type": "Feature", "geometry": {"type": "Polygon", "coordinates": [[[-98.4040807, 35.8450294], [-98.4040358, 35.8450288], [-98.4040366, 35.8449834], [-98.4040815, 35.8449839], [-98.4040807, 35.8450294]]]}, "properties": {"osm_id": 1299317073, "building": "shed", "name": "", "height": null, "height_m": null, "levels": null, "tract_id": "40011958900", "tract_name": "9589", "tags": {"building": "shed"}}}, {"type": "Feature", "geometry": {"type": "Polygon", "coordinates": [[[-98.4042465, 35.8451413], [-98.4041756, 35.8451402], [-98.4041769, 35.8450875], [-98.4042478, 35.8450886], [-98.4042465, 35.8451413]]]}, "properties": {"osm_id": 1299317074, "building": "shed", "name": "", "height": null, "height_m": null, "levels": null, "tract_id": "40011958900", "tract_name": "9589", "tags": {"building": "shed"}}}, {"type": "Feature", "geometry": {"type": "Polygon", "coordinates": [[[-98.404243, 35.8451888], [-98.4041975, 35.8451882], [-98.4041984, 35.8451462], [-98.4042439, 35.8451468], [-98.404243, 35.8451888]]]}, "properties": {"osm_id": 1299317075, "building": "shed", "name": "", "height": null, "height_m": null, "levels": null, "tract_id": "40011958900", "tract_name": "9589", "tags": {"building": "shed"}}}, {"type": "Feature", "geometry": {"type": "Polygon", "coordinates": [[[-98.4043393, 35.8452843], [-98.4042421, 35.84528], [-98.4042548, 35.8450929], [-98.404352, 35.8450972], [-98.4043393, 35.8452843]]]}, "properties": {"osm_id": 1299317077, "building": "detached", "name": "", "height": null, "height_m": null, "levels": null, "tract_id": "40011958900", "tract_name": "9589", "tags": {"building": "detached"}}}, {"type": "Feature", "geometry": {"type": "Polygon", "coordinates": [[[-98.4048984, 35.8452852], [-98.4047496, 35.8452846], [-98.40475, 35.8451999], [-98.4048989, 35.8452004], [-98.4048984, 35.8452852]]]}, "properties": {"osm_id": 1299317078, "building": "yes", "name": "", "height": null, "height_m": null, "levels": null, "tract_id": "40011958900", "tract_name": "9589", "tags": {"building": "yes"}}}, {"type": "Feature", "geometry": {"type": "Polygon", "coordinates": [[[-98.4051948, 35.8452678], [-98.4050513, 35.845265], [-98.4050548, 35.8451446], [-98.4051983, 35.8451473], [-98.4051948, 35.8452678]]]}, "properties": {"osm_id": 1299317079, "building": "yes", "name": "", "height": null, "height_m": null, "levels": null, "tract_id": "40011958900", "tract_name": "9589", "tags": {"building": "yes"}}}, {"type": "Feature", "geometry": {"type": "Polygon", "coordinates": [[[-98.4055393, 35.8450914], [-98.405484, 35.8450925], [-98.4054855, 35.8450274], [-98.405541, 35.8450268], [-98.4055393, 35.8450914]]]}, "properties": {"osm_id": 1299317080, "building": "yes", "name": "", "height": null, "height_m": null, "levels": null, "tract_id": "40011958900", "tract_name": "9589", "tags": {"building": "yes"}}}, {"type": "Feature", "geometry": {"type": "Polygon", "coordinates": [[[-98.4056964, 35.8452596], [-98.4054767, 35.8452555], [-98.4054793, 35.8451615], [-98.4056991, 35.8451656], [-98.4056964, 35.8452596]]]}, "properties": {"osm_id": 1299317081, "building": "yes", "name": "", "height": null, "height_m": null, "levels": null, "tract_id": "40011958900", "tract_name": "9589", "tags": {"building": "yes"}}}, {"type": "Feature", "geometry": {"type": "Polygon", "coordinates": [[[-98.4063237, 35.8450543], [-98.4062932, 35.8450541], [-98.4062936, 35.8449973], [-98.4063241, 35.8449975], [-98.4063237, 35.8450543]]]}, "properties": {"osm_id": 1299317082, "building": "yes", "name": "", "height": null, "height_m": null, "levels": null, "tract_id": "40011958900", "tract_name": "9589", "tags": {"building": "yes"}}}, {"type": "Feature", "geometry": {"type": "Polygon", "coordinates": [[[-98.4063954, 35.8450329], [-98.4063565, 35.8450321], [-98.4063575, 35.8450031], [-98.4063964, 35.8450039], [-98.4063954, 35.8450329]]]}, "properties": {"osm_id": 1299317083, "building": "yes", "name": "", "height": null, "height_m": null, "levels": null, "tract_id": "40011958900", "tract_name": "9589", "tags": {"building": "yes"}}}, {"type": "Feature", "geometry": {"type": "Polygon", "coordinates": [[[-98.4062881, 35.8450558], [-98.4061959, 35.8450544], [-98.4061976, 35.8449813], [-98.4062898, 35.8449827], [-98.4062881, 35.8450558]]]}, "properties": {"osm_id": 1299317084, "building": "yes", "name": "", "height": null, "height_m": null, "levels": null, "tract_id": "40011958900", "tract_name": "9589", "tags": {"building": "yes"}}}, {"type": "Feature", "geometry": {"type": "Polygon", "coordinates": [[[-98.4061141, 35.8450457], [-98.4059908, 35.845046], [-98.4059904, 35.8449519], [-98.4061138, 35.8449517], [-98.4061141, 35.8450457]]]}, "properties": {"osm_id": 1299317085, "building": "yes", "name": "", "height": null, "height_m": null, "levels": null, "tract_id": "40011958900", "tract_name": "9589", "tags": {"building": "yes"}}}, {"type": "Feature", "geometry": {"type": "Polygon", "coordinates": [[[-98.4061443, 35.8452042], [-98.4059941, 35.8452052], [-98.4059927, 35.8450758], [-98.4061429, 35.8450747], [-98.4061443, 35.8452042]]]}, "properties": {"osm_id": 1299317086, "building": "yes", "name": "", "height": null, "height_m": null, "levels": null, "tract_id": "40011958900", "tract_name": "9589", "tags": {"building": "yes"}}}, {"type": "Feature", "geometry": {"type": "Polygon", "coordinates": [[[-98.4063777, 35.8452623], [-98.4062087, 35.8452615], [-98.4062093, 35.8451702], [-98.4063783, 35.845171], [-98.4063777, 35.8452623]]]}, "properties": {"osm_id": 1299317087, "building": "yes", "name": "", "height": null, "height_m": null, "levels": null, "tract_id": "40011958900", "tract_name": "9589", "tags": {"building": "yes"}}}, {"type": "Feature", "geometry": {"type": "Polygon", "coordinates": [[[-98.4066419, 35.8451504], [-98.4066425, 35.845265], [-98.4064032, 35.845266], [-98.4064025, 35.8451513], [-98.4066419, 35.8451504]]]}, "properties": {"osm_id": 1299317088, "building": "yes", "name": "", "height": null, "height_m": null, "levels": null, "tract_id": "40011958900", "tract_name": "9589", "tags": {"building": "yes"}}}, {"type": "Feature", "geometry": {"type": "Polygon", "coordinates": [[[-98.4068584, 35.8450976], [-98.4067324, 35.8450982], [-98.4067315, 35.8449564], [-98.4068575, 35.8449558], [-98.4068584, 35.8450976]]]}, "properties": {"osm_id": 1299317089, "building": "yes", "name": "", "height": null, "height_m": null, "levels": null, "tract_id": "40011958900", "tract_name": "9589", "tags": {"building": "yes"}}}, {"type": "Feature", "geometry": {"type": "Polygon", "coordinates": [[[-98.4068638, 35.8452607], [-98.4067082, 35.8452607], [-98.4067082, 35.8451357], [-98.4068638, 35.8451357], [-98.4068638, 35.8452607]]]}, "properties": {"osm_id": 1299317090, "building": "yes", "name": "", "height": null, "height_m": null, "levels": null, "tract_id": "40011958900", "tract_name": "9589", "tags": {"building": "yes"}}}, {"type": "Feature", "geometry": {"type": "Polygon", "coordinates": [[[-98.4074432, 35.8446563], [-98.4073426, 35.8446557], [-98.4073433, 35.8445672], [-98.4074439, 35.8445678], [-98.4074432, 35.8446563]]]}, "properties": {"osm_id": 1299317091, "building": "yes", "name": "", "height": null, "height_m": null, "levels": null, "tract_id": "40011958900", "tract_name": "9589", "tags": {"building": "yes"}}}, {"type": "Feature", "geometry": {"type": "Polygon", "coordinates": [[[-98.4080889, 35.8452754], [-98.4079883, 35.8452737], [-98.4079901, 35.8452015], [-98.4080907, 35.8452031], [-98.4080889, 35.8452754]]]}, "properties": {"osm_id": 1299317092, "building": "yes", "name": "", "height": null, "height_m": null, "levels": null, "tract_id": "40011958900", "tract_name": "9589", "tags": {"building": "yes"}}}, {"type": "Feature", "geometry": {"type": "Polygon", "coordinates": [[[-98.4077724, 35.8452705], [-98.4076329, 35.8452683], [-98.4076347, 35.8451933], [-98.4077742, 35.8451955], [-98.4077724, 35.8452705]]]}, "properties": {"osm_id": 1299317093, "building": "yes", "name": "", "height": null, "height_m": null, "levels": null, "tract_id": "40011958900", "tract_name": "9589", "tags": {"building": "yes"}}}, {"type": "Feature", "geometry": {"type": "Polygon", "coordinates": [[[-98.4078817, 35.845808], [-98.40781, 35.8458064], [-98.407811, 35.8457773], [-98.4078827, 35.8457789], [-98.4078817, 35.845808]]]}, "properties": {"osm_id": 1299317094, "building": "yes", "name": "", "height": null, "height_m": null, "levels": null, "tract_id": "40011958900", "tract_name": "9589", "tags": {"building": "yes"}}}, {"type": "Feature", "geometry": {"type": "Polygon", "coordinates": [[[-98.4080949, 35.8457021], [-98.4078281, 35.8457021], [-98.4078281, 35.8456303], [-98.4080949, 35.8456303], [-98.4080949, 35.8457021]]]}, "properties": {"osm_id": 1299317095, "building": "yes", "name": "", "height": null, "height_m": null, "levels": null, "tract_id": "40011958900", "tract_name": "9589", "tags": {"building": "yes"}}}, {"type": "Feature", "geometry": {"type": "Polygon", "coordinates": [[[-98.4065902, 35.8463429], [-98.4063991, 35.8463418], [-98.4063999, 35.8462462], [-98.4065911, 35.8462473], [-98.4065902, 35.8463429]]]}, "properties": {"osm_id": 1299317096, "building": "yes", "name": "", "height": null, "height_m": null, "levels": null, "tract_id": "40011958900", "tract_name": "9589", "tags": {"building": "yes"}}}, {"type": "Feature", "geometry": {"type": "Polygon", "coordinates": [[[-98.4061865, 35.8458584], [-98.4061298, 35.8458562], [-98.4061318, 35.8458226], [-98.4061886, 35.8458249], [-98.4061865, 35.8458584]]]}, "properties": {"osm_id": 1299317097, "building": "yes", "name": "", "height": null, "height_m": null, "levels": null, "tract_id": "40011958900", "tract_name": "9589", "tags": {"building": "yes"}}}, {"type": "Feature", "geometry": {"type": "Polygon", "coordinates": [[[-98.406208, 35.845889], [-98.406039, 35.8458879], [-98.4060393, 35.8458575], [-98.4061865, 35.8458584], [-98.4062083, 35.8458586], [-98.406208, 35.845889]]]}, "properties": {"osm_id": 1299317098, "building": "yes", "name": "", "height": null, "height_m": null, "levels": null, "tract_id": "40011958900", "tract_name": "9589", "tags": {"building": "yes"}}}, {"type": "Feature", "geometry": {"type": "Polygon", "coordinates": [[[-98.406155, 35.8457021], [-98.4061061, 35.8457015], [-98.4061072, 35.8456337], [-98.4061562, 35.8456342], [-98.406155, 35.8457021]]]}, "properties": {"osm_id": 1299317099, "building": "yes", "name": "", "height": null, "height_m": null, "levels": null, "tract_id": "40011958900", "tract_name": "9589", "tags": {"building": "yes"}}}, {"type": "Feature", "geometry": {"type": "Polygon", "coordinates": [[[-98.4061054, 35.8457553], [-98.4060538, 35.8457553], [-98.4060538, 35.8457249], [-98.4060732, 35.8457249], [-98.4061054, 35.8457249], [-98.4061054, 35.8457553]]]}, "properties": {"osm_id": 1299317100, "building": "yes", "name": "", "height": null, "height_m": null, "levels": null, "tract_id": "40011958900", "tract_name": "9589", "tags": {"building": "yes"}}}, {"type": "Feature", "geometry": {"type": "Polygon", "coordinates": [[[-98.4060732, 35.8457249], [-98.4060538, 35.8457249], [-98.4059572, 35.8457249], [-98.4059572, 35.8456004], [-98.4060732, 35.8456004], [-98.4060732, 35.8457249]]]}, "properties": {"osm_id": 1299317101, "building": "yes", "name": "", "height": null, "height_m": null, "levels": null, "tract_id": "40011958900", "tract_name": "9589", "tags": {"building": "yes"}}}, {"type": "Feature", "geometry": {"type": "Polygon", "coordinates": [[[-98.4065688, 35.845708], [-98.4063845, 35.8457045], [-98.4063872, 35.8456121], [-98.4065714, 35.8456156], [-98.4065688, 35.845708]]]}, "properties": {"osm_id": 1299317102, "building": "yes", "name": "", "height": null, "height_m": null, "levels": null, "tract_id": "40011958900", "tract_name": "9589", "tags": {"building": "yes"}}}, {"type": "Feature", "geometry": {"type": "Polygon", "coordinates": [[[-98.4042976, 35.846713], [-98.4040512, 35.8467087], [-98.4040532, 35.8466337], [-98.4042996, 35.846638], [-98.4042976, 35.846713]]]}, "properties": {"osm_id": 1299317103, "building": "yes", "name": "", "height": null, "height_m": null, "levels": null, "tract_id": "40011958900", "tract_name": "9589", "tags": {"building": "yes"}}}, {"type": "Feature", "geometry": {"type": "Polygon", "coordinates": [[[-98.4044223, 35.8469332], [-98.4043191, 35.8469321], [-98.4043221, 35.8467427], [-98.4044254, 35.8467438], [-98.4044245, 35.8467962], [-98.4044431, 35.8467964], [-98.4044417, 35.8468817], [-98.4044232, 35.8468815], [-98.4044223, 35.8469332]]]}, "properties": {"osm_id": 1299317104, "building": "yes", "name": "", "height": null, "height_m": null, "levels": null, "tract_id": "40011958900", "tract_name": "9589", "tags": {"building": "yes"}}}, {"type": "Feature", "geometry": {"type": "Polygon", "coordinates": [[[-98.4036317, 35.8467038], [-98.4036049, 35.8467043], [-98.4036039, 35.8466703], [-98.4036307, 35.8466698], [-98.4036317, 35.8467038]]]}, "properties": {"osm_id": 1299317105, "building": "yes", "name": "", "height": null, "height_m": null, "levels": null, "tract_id": "40011958900", "tract_name": "9589", "tags": {"building": "yes"}}}, {"type": "Feature", "geometry": {"type": "Polygon", "coordinates": [[[-98.4035553, 35.846787], [-98.4034306, 35.8467837], [-98.4034325, 35.8467355], [-98.4035572, 35.8467387], [-98.4035553, 35.846787]]]}, "properties": {"osm_id": 1299317106, "building": "yes", "name": "", "height": null, "height_m": null, "levels": null, "tract_id": "40011958900", "tract_name": "9589", "tags": {"building": "yes"}}}, {"type": "Feature", "geometry": {"type": "Polygon", "coordinates": [[[-98.4032562, 35.8467674], [-98.4031194, 35.8467652], [-98.403122, 35.8466583], [-98.4032588, 35.8466605], [-98.4032562, 35.8467674]]]}, "properties": {"osm_id": 1299317107, "building": "yes", "name": "", "height": null, "height_m": null, "levels": null, "tract_id": "40011958900", "tract_name": "9589", "tags": {"building": "yes"}}}, {"type": "Feature", "geometry": {"type": "Polygon", "coordinates": [[[-98.402701, 35.8460945], [-98.4026058, 35.8460912], [-98.4026099, 35.8460124], [-98.4027051, 35.8460156], [-98.402701, 35.8460945]]]}, "properties": {"osm_id": 1299317108, "building": "yes", "name": "", "height": null, "height_m": null, "levels": null, "tract_id": "40011958900", "tract_name": "9589", "tags": {"building": "yes"}}}, {"type": "Feature", "geometry": {"type": "Polygon", "coordinates": [[[-98.4026071, 35.8463293], [-98.4024744, 35.8463293], [-98.4024744, 35.8461445], [-98.4026071, 35.8461445], [-98.4026071, 35.8463293]]]}, "properties": {"osm_id": 1299317109, "building": "yes", "name": "", "height": null, "height_m": null, "levels": null, "tract_id": "40011958900", "tract_name": "9589", "tags": {"building": "yes"}}}, {"type": "Feature", "geometry": {"type": "Polygon", "coordinates": [[[-98.4031624, 35.846325], [-98.4029759, 35.846325], [-98.4029759, 35.8462402], [-98.4031624, 35.8462402], [-98.4031624, 35.846325]]]}, "properties": {"osm_id": 1299317110, "building": "yes", "name": "", "height": null, "height_m": null, "levels": null, "tract_id": "40011958900", "tract_name": "9589", "tags": {"building": "yes"}}}, {"type": "Feature", "geometry": {"type": "Polygon", "coordinates": [[[-98.403165, 35.846226], [-98.4030484, 35.8462239], [-98.4030525, 35.8460774], [-98.4031692, 35.8460795], [-98.403165, 35.846226]]]}, "properties": {"osm_id": 1299317111, "building": "yes", "name": "", "height": null, "height_m": null, "levels": null, "tract_id": "40011958900", "tract_name": "9589", "tags": {"building": "yes"}}}, {"type": "Feature", "geometry": {"type": "Polygon", "coordinates": [[[-98.4032348, 35.8456151], [-98.403231, 35.8456892], [-98.40307, 35.8456838], [-98.4030738, 35.8456097], [-98.4032348, 35.8456151]]]}, "properties": {"osm_id": 1299317112, "building": "yes", "name": "", "height": null, "height_m": null, "levels": null, "tract_id": "40011958900", "tract_name": "9589", "tags": {"building": "yes"}}}, {"type": "Feature", "geometry": {"type": "Polygon", "coordinates": [[[-98.4037659, 35.8457173], [-98.4037095, 35.8457151], [-98.403718, 35.8455707], [-98.4037743, 35.8455729], [-98.4037659, 35.8457173]]]}, "properties": {"osm_id": 1299317113, "building": "yes", "name": "", "height": null, "height_m": null, "levels": null, "tract_id": "40011958900", "tract_name": "9589", "tags": {"building": "yes"}}}, {"type": "Feature", "geometry": {"type": "Polygon", "coordinates": [[[-98.4039241, 35.8458238], [-98.4038369, 35.845826], [-98.403829, 35.8456176], [-98.4039162, 35.8456154], [-98.4039241, 35.8458238]]]}, "properties": {"osm_id": 1299317114, "building": "yes", "name": "", "height": null, "height_m": null, "levels": null, "tract_id": "40011958900", "tract_name": "9589", "tags": {"building": "yes"}}}, {"type": "Feature", "geometry": {"type": "Polygon", "coordinates": [[[-98.403676, 35.8463369], [-98.4035084, 35.8463369], [-98.4035084, 35.8462499], [-98.403676, 35.8462499], [-98.403676, 35.8463369]]]}, "properties": {"osm_id": 1299317115, "building": "yes", "name": "", "height": null, "height_m": null, "levels": null, "tract_id": "40011958900", "tract_name": "9589", "tags": {"building": "yes"}}}, {"type": "Feature", "geometry": {"type": "Polygon", "coordinates": [[[-98.4044324, 35.846326], [-98.4042205, 35.8463337], [-98.4042084, 35.8461597], [-98.4043042, 35.8461561], [-98.4042983, 35.8460858], [-98.4044195, 35.8460908], [-98.4044324, 35.846326]]]}, "properties": {"osm_id": 1299317116, "building": "yes", "name": "", "height": null, "height_m": null, "levels": null, "tract_id": "40011958900", "tract_name": "9589", "tags": {"building": "yes"}}}, {"type": "Feature", "geometry": {"type": "Polygon", "coordinates": [[[-98.4052907, 35.845876], [-98.4052464, 35.8458765], [-98.4052457, 35.8458379], [-98.40529, 35.8458373], [-98.4052907, 35.845876]]]}, "properties": {"osm_id": 1299317117, "building": "yes", "name": "", "height": null, "height_m": null, "levels": null, "tract_id": "40011958900", "tract_name": "9589", "tags": {"building": "yes"}}}, {"type": "Feature", "geometry": {"type": "Polygon", "coordinates": [[[-98.4053014, 35.8460564], [-98.4052491, 35.8460575], [-98.405248, 35.8460222], [-98.4053003, 35.8460211], [-98.4053014, 35.8460564]]]}, "properties": {"osm_id": 1299317118, "building": "yes", "name": "", "height": null, "height_m": null, "levels": null, "tract_id": "40011958900", "tract_name": "9589", "tags": {"building": "yes"}}}, {"type": "Feature", "geometry": {"type": "Polygon", "coordinates": [[[-98.4055991, 35.8458928], [-98.4054771, 35.8458907], [-98.4054806, 35.845761], [-98.4056027, 35.8457632], [-98.4055991, 35.8458928]]]}, "properties": {"osm_id": 1299317119, "building": "yes", "name": "", "height": null, "height_m": null, "levels": null, "tract_id": "40011958900", "tract_name": "9589", "tags": {"building": "yes"}}}, {"type": "Feature", "geometry": {"type": "Polygon", "coordinates": [[[-98.4056387, 35.8457233], [-98.4054898, 35.8457233], [-98.4054898, 35.8456151], [-98.4056387, 35.8456151], [-98.4056387, 35.8457233]]]}, "properties": {"osm_id": 1299317120, "building": "yes", "name": "", "height": null, "height_m": null, "levels": null, "tract_id": "40011958900", "tract_name": "9589", "tags": {"building": "yes"}}}, {"type": "Feature", "geometry": {"type": "Polygon", "coordinates": [[[-98.4054275, 35.8457319], [-98.4052478, 35.8457298], [-98.4052496, 35.8456327], [-98.4054293, 35.8456349], [-98.4054275, 35.8457319]]]}, "properties": {"osm_id": 1299317121, "building": "yes", "name": "", "height": null, "height_m": null, "levels": null, "tract_id": "40011958900", "tract_name": "9589", "tags": {"building": "yes"}}}, {"type": "Feature", "geometry": {"type": "Polygon", "coordinates": [[[-98.405166, 35.8457194], [-98.4050104, 35.8457189], [-98.405011, 35.8455994], [-98.4051666, 35.8455999], [-98.405166, 35.8457194]]]}, "properties": {"osm_id": 1299317122, "building": "yes", "name": "", "height": null, "height_m": null, "levels": null, "tract_id": "40011958900", "tract_name": "9589", "tags": {"building": "yes"}}}, {"type": "Feature", "geometry": {"type": "Polygon", "coordinates": [[[-98.4049356, 35.8457349], [-98.4048086, 35.845733], [-98.4048116, 35.8455984], [-98.4049387, 35.8456003], [-98.4049356, 35.8457349]]]}, "properties": {"osm_id": 1299317123, "building": "yes", "name": "", "height": null, "height_m": null, "levels": null, "tract_id": "40011958900", "tract_name": "9589", "tags": {"building": "yes"}}}, {"type": "Feature", "geometry": {"type": "Polygon", "coordinates": [[[-98.4049286, 35.8458999], [-98.4047697, 35.8458999], [-98.4047697, 35.8457749], [-98.4049286, 35.8457749], [-98.4049286, 35.8458999]]]}, "properties": {"osm_id": 1299317124, "building": "yes", "name": "", "height": null, "height_m": null, "levels": null, "tract_id": "40011958900", "tract_name": "9589", "tags": {"building": "yes"}}}, {"type": "Feature", "geometry": {"type": "Polygon", "coordinates": [[[-98.404936, 35.8461445], [-98.4048079, 35.8461434], [-98.4048097, 35.8460022], [-98.4049378, 35.8460033], [-98.404936, 35.8461445]]]}, "properties": {"osm_id": 1299317125, "building": "yes", "name": "", "height": null, "height_m": null, "levels": null, "tract_id": "40011958900", "tract_name": "9589", "tags": {"building": "yes"}}}, {"type": "Feature", "geometry": {"type": "Polygon", "coordinates": [[[-98.4056394, 35.8461369], [-98.4054838, 35.8461369], [-98.4054838, 35.8460162], [-98.4056394, 35.8460162], [-98.4056394, 35.8461369]]]}, "properties": {"osm_id": 1299317126, "building": "yes", "name": "", "height": null, "height_m": null, "levels": null, "tract_id": "40011958900", "tract_name": "9589", "tags": {"building": "yes"}}}, {"type": "Feature", "geometry": {"type": "Polygon", "coordinates": [[[-98.4056447, 35.8462923], [-98.4055116, 35.8462891], [-98.4055165, 35.8461647], [-98.4056499, 35.8461683], [-98.4056447, 35.8462923]]]}, "properties": {"osm_id": 1299317127, "building": "yes", "name": "", "height": null, "height_m": null, "levels": null, "tract_id": "40011958900", "tract_name": "9589", "tags": {"building": "yes"}}}, {"type": "Feature", "geometry": {"type": "Polygon", "coordinates": [[[-98.4054956, 35.8463014], [-98.4053443, 35.8462934], [-98.4053514, 35.8461743], [-98.4054945, 35.8461804], [-98.4054956, 35.8463014]]]}, "properties": {"osm_id": 1299317128, "building": "yes", "name": "", "height": null, "height_m": null, "levels": null, "tract_id": "40011958900", "tract_name": "9589", "tags": {"building": "yes"}}}, {"type": "Feature", "geometry": {"type": "Polygon", "coordinates": [[[-98.4052987, 35.8462554], [-98.4051217, 35.8462586], [-98.4051193, 35.846174], [-98.4052964, 35.8461707], [-98.4052987, 35.8462554]]]}, "properties": {"osm_id": 1299317129, "building": "yes", "name": "", "height": null, "height_m": null, "levels": null, "tract_id": "40011958900", "tract_name": "9589", "tags": {"building": "yes"}}}, {"type": "Feature", "geometry": {"type": "Polygon", "coordinates": [[[-98.4050654, 35.8462934], [-98.4049018, 35.8462934], [-98.4049018, 35.8461749], [-98.4050654, 35.8461749], [-98.4050654, 35.8462934]]]}, "properties": {"osm_id": 1299317130, "building": "yes", "name": "", "height": null, "height_m": null, "levels": null, "tract_id": "40011958900", "tract_name": "9589", "tags": {"building": "yes"}}}, {"type": "Feature", "geometry": {"type": "Polygon", "coordinates": [[[-98.4092004, 35.8576631], [-98.408936, 35.8576616], [-98.4089388, 35.8573465], [-98.4087614, 35.8573455], [-98.4087573, 35.8578015], [-98.4091992, 35.8578041], [-98.4092004, 35.8576631]]]}, "properties": {"osm_id": 1327651162, "building": "yes", "name": "", "height": null, "height_m": null, "levels": null, "tract_id": "40011958900", "tract_name": "9589", "tags": {"building": "yes"}}}, {"type": "Feature", "geometry": {"type": "Polygon", "coordinates": [[[-98.4101964, 35.8566086], [-98.4101964, 35.8569937], [-98.4107933, 35.8569938], [-98.4107933, 35.8566085], [-98.4101964, 35.8566086]]]}, "properties": {"osm_id": 1327651163, "building": "yes", "name": "", "height": null, "height_m": null, "levels": null, "tract_id": "40011958900", "tract_name": "9589", "tags": {"building": "yes"}}}, {"type": "Feature", "geometry": {"type": "Polygon", "coordinates": [[[-98.4085666, 35.8609354], [-98.4082029, 35.8609351], [-98.4082028, 35.8610466], [-98.4085664, 35.861047], [-98.4085666, 35.8609354]]]}, "properties": {"osm_id": 1327653373, "building": "yes", "name": "", "height": null, "height_m": null, "levels": null, "tract_id": "40011958900", "tract_name": "9589", "tags": {"building": "yes"}}}, {"type": "Feature", "geometry": {"type": "Polygon", "coordinates": [[[-98.4017066, 35.8603017], [-98.401557, 35.8603045], [-98.4015584, 35.8603559], [-98.4015009, 35.860357], [-98.4015028, 35.8604255], [-98.4015653, 35.8604244], [-98.4015669, 35.8604815], [-98.4017255, 35.8604785], [-98.4017238, 35.8604171], [-98.4017099, 35.8604174], [-98.4017066, 35.8603017]]]}, "properties": {"osm_id": 1327653374, "building": "yes", "name": "", "height": null, "height_m": null, "levels": null, "tract_id": "40011958900", "tract_name": "9589", "tags": {"building": "yes"}}}, {"type": "Feature", "geometry": {"type": "Polygon", "coordinates": [[[-98.4079078, 35.860013], [-98.4079081, 35.8599821], [-98.4078253, 35.8599816], [-98.4078251, 35.8600126], [-98.4079078, 35.860013]]]}, "properties": {"osm_id": 1327653375, "building": "yes", "name": "", "height": null, "height_m": null, "levels": null, "tract_id": "40011958900", "tract_name": "9589", "tags": {"building": "yes"}}}, {"type": "Feature", "geometry": {"type": "Polygon", "coordinates": [[[-98.4080628, 35.8599925], [-98.4080624, 35.8599438], [-98.4079626, 35.8599444], [-98.4079631, 35.8599931], [-98.4080628, 35.8599925]]]}, "properties": {"osm_id": 1327653376, "building": "yes", "name": "", "height": null, "height_m": null, "levels": null, "tract_id": "40011958900", "tract_name": "9589", "tags": {"building": "yes"}}}, {"type": "Feature", "geometry": {"type": "Polygon", "coordinates": [[[-98.4082948, 35.8601368], [-98.408236, 35.8601366], [-98.4082355, 35.8602186], [-98.4082944, 35.8602189], [-98.4082948, 35.8601368]]]}, "properties": {"osm_id": 1327653377, "building": "yes", "name": "", "height": null, "height_m": null, "levels": null, "tract_id": "40011958900", "tract_name": "9589", "tags": {"building": "yes"}}}, {"type": "Feature", "geometry": {"type": "Polygon", "coordinates": [[[-98.4082515, 35.8603361], [-98.4082146, 35.8603357], [-98.4082158, 35.8602685], [-98.4082527, 35.8602689], [-98.4082515, 35.8603361]]]}, "properties": {"osm_id": 1327653378, "building": "yes", "name": "", "height": null, "height_m": null, "levels": null, "tract_id": "40011958900", "tract_name": "9589", "tags": {"building": "yes"}}}, {"type": "Feature", "geometry": {"type": "Polygon", "coordinates": [[[-98.4170448, 35.8409953], [-98.4169048, 35.840995], [-98.4169053, 35.8408518], [-98.4170453, 35.8408522], [-98.4170448, 35.8409953]]]}, "properties": {"osm_id": 1352356185, "building": "yes", "name": "", "height": null, "height_m": null, "levels": null, "tract_id": "40011958900", "tract_name": "9589", "tags": {"building": "yes"}}}, {"type": "Feature", "geometry": {"type": "Polygon", "coordinates": [[[-98.4172487, 35.8406665], [-98.417247, 35.8410978], [-98.4171695, 35.8410976], [-98.417171, 35.8407147], [-98.4167713, 35.8407137], [-98.4167699, 35.8410966], [-98.4166948, 35.8410964], [-98.4166964, 35.8406651], [-98.4172487, 35.8406665]]]}, "properties": {"osm_id": 1352356186, "building": "hotel", "name": "", "height": null, "height_m": null, "levels": null, "tract_id": "40011958900", "tract_name": "9589", "tags": {"building": "hotel", "tourism": "motel"}}}, {"type": "Feature", "geometry": {"type": "Polygon", "coordinates": [[[-98.4164916, 35.8421961], [-98.4160464, 35.842195], [-98.4160478, 35.8418124], [-98.4161853, 35.8418127], [-98.4161843, 35.842079], [-98.416492, 35.8420798], [-98.4164916, 35.8421961]]]}, "properties": {"osm_id": 1352356187, "building": "yes", "name": "", "height": null, "height_m": null, "levels": null, "tract_id": "40011958900", "tract_name": "9589", "tags": {"building": "yes"}}}, {"type": "Feature", "geometry": {"type": "Polygon", "coordinates": [[[-98.4166626, 35.8406491], [-98.41666, 35.8410756], [-98.4165513, 35.8410751], [-98.4165516, 35.8410138], [-98.4165927, 35.841014], [-98.4165944, 35.8407387], [-98.4161934, 35.8407371], [-98.4161917, 35.8410199], [-98.4163017, 35.8410203], [-98.4163012, 35.8411113], [-98.4161206, 35.8411105], [-98.4161235, 35.8406469], [-98.4166626, 35.8406491]]]}, "properties": {"osm_id": 1352356188, "building": "hotel", "name": "", "height": null, "height_m": null, "levels": null, "tract_id": "40011958900", "tract_name": "9589", "tags": {"building": "hotel", "tourism": "motel"}}}, {"type": "Feature", "geometry": {"type": "Polygon", "coordinates": [[[-98.415298, 35.8406882], [-98.4152952, 35.8409138], [-98.4148982, 35.8409106], [-98.414901, 35.840685], [-98.415298, 35.8406882]]]}, "properties": {"osm_id": 1352356194, "building": "retail", "name": "Family Dollar", "height": null, "height_m": null, "levels": null, "tract_id": "40011958900", "tract_name": "9589", "tags": {"brand": "Family Dollar", "brand:wikidata": "Q5433101", "building": "retail", "name": "Family Dollar", "shop": "variety_store"}}}, {"type": "Feature", "geometry": {"type": "Polygon", "coordinates": [[[-98.411988, 35.8445166], [-98.4129613, 35.8445254], [-98.4130108, 35.8445512], [-98.4130101, 35.8448834], [-98.412916, 35.8448832], [-98.4129162, 35.8447855], [-98.4127613, 35.8447852], [-98.4127615, 35.8447302], [-98.4126769, 35.8447299], [-98.4126774, 35.8446464], [-98.4125554, 35.8446459], [-98.4125547, 35.8447419], [-98.412478, 35.8447415], [-98.4124776, 35.8447772], [-98.4120536, 35.844774], [-98.4120519, 35.8449166], [-98.4119825, 35.8449161], [-98.411988, 35.8445166]]]}, "properties": {"osm_id": 1354788602, "building": "yes", "name": "", "height": null, "height_m": null, "levels": null, "tract_id": "40011958900", "tract_name": "9589", "tags": {"building": "yes"}}}, {"type": "Feature", "geometry": {"type": "Polygon", "coordinates": [[[-98.4130263, 35.8434236], [-98.4130101, 35.8438391], [-98.4127137, 35.8438315], [-98.4127184, 35.8437128], [-98.4125975, 35.8437097], [-98.4126092, 35.8434129], [-98.4130263, 35.8434236]]]}, "properties": {"osm_id": 1354788603, "building": "yes", "name": "", "height": null, "height_m": null, "levels": null, "tract_id": "40011958900", "tract_name": "9589", "tags": {"building": "yes"}}}, {"type": "Feature", "geometry": {"type": "Polygon", "coordinates": [[[-98.3971163, 35.8826383], [-98.3963063, 35.8826274], [-98.3963036, 35.8824079], [-98.3962124, 35.8824275], [-98.3962151, 35.8820081], [-98.3964082, 35.8821037], [-98.3964029, 35.8818842], [-98.3972156, 35.8818777], [-98.3972156, 35.8820146], [-98.3970252, 35.8820124], [-98.3970278, 35.8822949], [-98.3972156, 35.8822971], [-98.3972129, 35.8824666], [-98.397119, 35.8824666], [-98.3971163, 35.8826383]]]}, "properties": {"osm_id": 1426026351, "building": "yes", "name": "", "height": null, "height_m": null, "levels": null, "tract_id": "40011958900", "tract_name": "9589", "tags": {"building": "yes"}}}, {"type": "Feature", "geometry": {"type": "Polygon", "coordinates": [[[-98.3958376, 35.8823737], [-98.3954943, 35.8823726], [-98.3954946, 35.882318], [-98.3953717, 35.8823176], [-98.3953719, 35.8822849], [-98.3952971, 35.8822847], [-98.3952978, 35.8821384], [-98.3953732, 35.8821387], [-98.3953733, 35.8821149], [-98.3954945, 35.8821153], [-98.3954948, 35.8820568], [-98.3958343, 35.882058], [-98.395834, 35.8821191], [-98.395858, 35.8821192], [-98.3958569, 35.8823133], [-98.3958379, 35.8823132], [-98.3958376, 35.8823737]]]}, "properties": {"osm_id": 1426026352, "building": "yes", "name": "", "height": null, "height_m": null, "levels": null, "tract_id": "40011958900", "tract_name": "9589", "tags": {"building": "yes"}}}, {"type": "Feature", "geometry": {"type": "Polygon", "coordinates": [[[-98.3960113, 35.8827752], [-98.3953461, 35.8824753], [-98.3953541, 35.8827535], [-98.3956599, 35.8826448], [-98.3957001, 35.8829273], [-98.3960113, 35.8827752]]]}, "properties": {"osm_id": 1426026353, "building": "yes", "name": "", "height": null, "height_m": null, "levels": null, "tract_id": "40011958900", "tract_name": "9589", "tags": {"building": "yes"}}}, {"type": "Feature", "geometry": {"type": "Polygon", "coordinates": [[[-98.3963289, 35.8832777], [-98.3955949, 35.883114], [-98.3956841, 35.8833827], [-98.3959494, 35.8832185], [-98.3960711, 35.8834852], [-98.3963289, 35.8832777]]]}, "properties": {"osm_id": 1426026354, "building": "yes", "name": "", "height": null, "height_m": null, "levels": null, "tract_id": "40011958900", "tract_name": "9589", "tags": {"building": "yes"}}}, {"type": "Feature", "geometry": {"type": "Polygon", "coordinates": [[[-98.3969678, 35.8828353], [-98.3962067, 35.88285], [-98.3963877, 35.8830864], [-98.3965833, 35.8828672], [-98.3967947, 35.8830942], [-98.3969678, 35.8828353]]]}, "properties": {"osm_id": 1426026355, "building": "yes", "name": "", "height": null, "height_m": null, "levels": null, "tract_id": "40011958900", "tract_name": "9589", "tags": {"building": "yes"}}}, {"type": "Feature", "geometry": {"type": "Polygon", "coordinates": [[[-98.3972022, 35.8834228], [-98.3965236, 35.883425], [-98.3965209, 35.8832555], [-98.3972022, 35.8832642], [-98.3972022, 35.8834228]]]}, "properties": {"osm_id": 1426026356, "building": "yes", "name": "", "height": null, "height_m": null, "levels": null, "tract_id": "40011958900", "tract_name": "9589", "tags": {"building": "yes"}}}, {"type": "Feature", "geometry": {"type": "Polygon", "coordinates": [[[-98.3961902, 35.8816522], [-98.3969511, 35.8816352], [-98.396769, 35.8813992], [-98.3965745, 35.8816191], [-98.3963619, 35.8813928], [-98.3961902, 35.8816522]]]}, "properties": {"osm_id": 1426026357, "building": "yes", "name": "", "height": null, "height_m": null, "levels": null, "tract_id": "40011958900", "tract_name": "9589", "tags": {"building": "yes"}}}, {"type": "Feature", "geometry": {"type": "Polygon", "coordinates": [[[-98.3956005, 35.8813514], [-98.3963348, 35.8811887], [-98.3960889, 35.8809945], [-98.3959642, 35.8812454], [-98.3956916, 35.8810663], [-98.3956005, 35.8813514]]]}, "properties": {"osm_id": 1426026358, "building": "yes", "name": "", "height": null, "height_m": null, "levels": null, "tract_id": "40011958900", "tract_name": "9589", "tags": {"building": "yes"}}}, {"type": "Feature", "geometry": {"type": "Polygon", "coordinates": [[[-98.3953297, 35.881996], [-98.395975, 35.8816688], [-98.3956704, 35.8815402], [-98.3956403, 35.8818096], [-98.3953155, 35.8817018], [-98.3953297, 35.881996]]]}, "properties": {"osm_id": 1426026359, "building": "yes", "name": "", "height": null, "height_m": null, "levels": null, "tract_id": "40011958900", "tract_name": "9589", "tags": {"building": "yes"}}}, {"type": "Feature", "geometry": {"type": "Polygon", "coordinates": [[[-98.3973014, 35.8817103], [-98.3971083, 35.8817103], [-98.3971083, 35.8813126], [-98.3973148, 35.8813148], [-98.3973014, 35.8817103]]]}, "properties": {"osm_id": 1426026360, "building": "yes", "name": "", "height": null, "height_m": null, "levels": null, "tract_id": "40011958900", "tract_name": "9589", "tags": {"building": "yes"}}}, {"type": "Feature", "geometry": {"type": "Polygon", "coordinates": [[[-98.3972022, 35.881167], [-98.3967006, 35.8811649], [-98.3966926, 35.8809953], [-98.3972049, 35.8810019], [-98.3972022, 35.881167]]]}, "properties": {"osm_id": 1426026361, "building": "yes", "name": "", "height": null, "height_m": null, "levels": null, "tract_id": "40011958900", "tract_name": "9589", "tags": {"building": "yes"}}}, {"type": "Feature", "geometry": {"type": "Polygon", "coordinates": [[[-98.3974987, 35.8803503], [-98.3979588, 35.8808416], [-98.3980895, 35.8805843], [-98.3977556, 35.8805842], [-98.397859, 35.8803124], [-98.3974987, 35.8803503]]]}, "properties": {"osm_id": 1426026362, "building": "yes", "name": "", "height": null, "height_m": null, "levels": null, "tract_id": "40011958900", "tract_name": "9589", "tags": {"building": "yes"}}}, {"type": "Feature", "geometry": {"type": "Polygon", "coordinates": [[[-98.3948162, 35.8837711], [-98.3942882, 35.8833268], [-98.3941956, 35.8835948], [-98.3945272, 35.8835632], [-98.3944638, 35.8838429], [-98.3948162, 35.8837711]]]}, "properties": {"osm_id": 1426026369, "building": "yes", "name": "", "height": null, "height_m": null, "levels": null, "tract_id": "40011958900", "tract_name": "9589", "tags": {"building": "yes"}}}, {"type": "Feature", "geometry": {"type": "Polygon", "coordinates": [[[-98.3957469, 35.8838896], [-98.3949859, 35.8839042], [-98.3951668, 35.8841407], [-98.3953624, 35.8839215], [-98.3955739, 35.8841485], [-98.3957469, 35.8838896]]]}, "properties": {"osm_id": 1426026370, "building": "yes", "name": "", "height": null, "height_m": null, "levels": null, "tract_id": "40011958900", "tract_name": "9589", "tags": {"building": "yes"}}}]}