{"type": "FeatureCollection", "features": [{"type": "Feature", "geometry": {"type": "Polygon", "coordinates": [[[-97.5659578, 35.4058895], [-97.5658345, 35.4059885], [-97.565777, 35.4059409], [-97.5659003, 35.4058419], [-97.5659578, 35.4058895]]]}, "properties": {"osm_id": 293638159, "building": "roof", "name": "", "height": null, "height_m": null, "levels": null, "tract_id": "40109107213", "tract_name": "1072.13", "tags": {"building": "roof", "roof:material": "metal", "roof:shape": "flat", "source": "Bing"}}}, {"type": "Feature", "geometry": {"type": "Polygon", "coordinates": [[[-97.5662208, 35.4058674], [-97.5660726, 35.4058674], [-97.5660234, 35.4058252], [-97.5660247, 35.4056976], [-97.5662208, 35.4056976], [-97.5662208, 35.4058674]]]}, "properties": {"osm_id": 293638161, "building": "yes", "name": "", "height": null, "height_m": null, "levels": null, "tract_id": "40109107213", "tract_name": "1072.13", "tags": {"building": "yes", "roof:shape": "flat", "source": "Bing"}}}, {"type": "Feature", "geometry": {"type": "Polygon", "coordinates": [[[-97.5652292, 35.4054139], [-97.5651075, 35.4054139], [-97.5651075, 35.4053462], [-97.5652292, 35.4053462], [-97.5652292, 35.4054139]]]}, "properties": {"osm_id": 293803580, "building": "yes", "name": "", "height": null, "height_m": null, "levels": null, "tract_id": "40109107213", "tract_name": "1072.13", "tags": {"amenity": "car_wash", "building": "yes", "roof:shape": "flat", "source": "Bing"}}}, {"type": "Feature", "geometry": {"type": "Polygon", "coordinates": [[[-97.5653139, 35.4059158], [-97.5648651, 35.4059124], [-97.5648699, 35.4058361], [-97.5653137, 35.4058415], [-97.5653139, 35.4059158]]]}, "properties": {"osm_id": 293803583, "building": "roof", "name": "", "height": null, "height_m": null, "levels": null, "tract_id": "40109107213", "tract_name": "1072.13", "tags": {"building": "roof", "roof:material": "metal", "roof:shape": "flat", "source": "Bing"}}}, {"type": "Feature", "geometry": {"type": "Polygon", "coordinates": [[[-97.5652259, 35.405684], [-97.5649052, 35.405684], [-97.5649052, 35.4056397], [-97.5649242, 35.4056397], [-97.5649242, 35.4055774], [-97.5652259, 35.4055774], [-97.5652259, 35.405684]]]}, "properties": {"osm_id": 293803585, "building": "yes", "name": "", "height": null, "height_m": null, "levels": null, "tract_id": "40109107213", "tract_name": "1072.13", "tags": {"building": "yes", "roof:shape": "flat", "source": "Bing"}}}, {"type": "Feature", "geometry": {"type": "Polygon", "coordinates": [[[-97.5664585, 35.4059418], [-97.5663015, 35.4059418], [-97.5663015, 35.4057409], [-97.5664585, 35.4057409], [-97.5664585, 35.4059418]]]}, "properties": {"osm_id": 293803773, "building": "yes", "name": "", "height": null, "height_m": null, "levels": null, "tract_id": "40109107213", "tract_name": "1072.13", "tags": {"building": "yes", "roof:shape": "flat", "source": "Bing"}}}, {"type": "Feature", "geometry": {"type": "Polygon", "coordinates": [[[-97.566012, 35.4055082], [-97.5658179, 35.4055082], [-97.5658179, 35.4054023], [-97.566012, 35.4054023], [-97.566012, 35.4055082]]]}, "properties": {"osm_id": 293803774, "building": "yes", "name": "", "height": null, "height_m": null, "levels": null, "tract_id": "40109107213", "tract_name": "1072.13", "tags": {"building": "yes", "roof:shape": "flat", "source": "Bing"}}}, {"type": "Feature", "geometry": {"type": "Polygon", "coordinates": [[[-97.5675274, 35.4058952], [-97.5673492, 35.4058952], [-97.5673492, 35.4056424], [-97.5675136, 35.4056424], [-97.5675274, 35.4056424], [-97.5675274, 35.4058952]]]}, "properties": {"osm_id": 293803775, "building": "yes", "name": "", "height": null, "height_m": null, "levels": null, "tract_id": "40109107213", "tract_name": "1072.13", "tags": {"building": "yes", "roof:shape": "gabled", "source": "Bing"}}}, {"type": "Feature", "geometry": {"type": "Polygon", "coordinates": [[[-97.5659141, 35.4052518], [-97.5658059, 35.4052518], [-97.5658059, 35.4051438], [-97.5659141, 35.4051438], [-97.5659141, 35.4052518]]]}, "properties": {"osm_id": 293804697, "building": "yes", "name": "", "height": null, "height_m": null, "levels": null, "tract_id": "40109107213", "tract_name": "1072.13", "tags": {"building": "yes", "source": "Bing"}}}, {"type": "Feature", "geometry": {"type": "Polygon", "coordinates": [[[-97.5659536, 35.4048793], [-97.5658257, 35.4048793], [-97.5658257, 35.4047713], [-97.5659536, 35.4047713], [-97.5659536, 35.4048793]]]}, "properties": {"osm_id": 293804698, "building": "yes", "name": "", "height": null, "height_m": null, "levels": null, "tract_id": "40109107213", "tract_name": "1072.13", "tags": {"building": "yes", "roof:shape": "flat", "source": "Bing"}}}, {"type": "Feature", "geometry": {"type": "Polygon", "coordinates": [[[-97.5625446, 35.4058278], [-97.5623368, 35.4058278], [-97.5623368, 35.4054941], [-97.5614679, 35.4054941], [-97.5614679, 35.4053245], [-97.5625446, 35.4053245], [-97.5625446, 35.4058278]]]}, "properties": {"osm_id": 293804699, "building": "yes", "name": "", "height": null, "height_m": null, "levels": null, "tract_id": "40109107213", "tract_name": "1072.13", "tags": {"building": "yes", "source": "Bing"}}}, {"type": "Feature", "geometry": {"type": "Polygon", "coordinates": [[[-97.5725955, 35.4059219], [-97.5723521, 35.4059219], [-97.5723521, 35.4055775], [-97.5725955, 35.4055774], [-97.5725955, 35.4059219]]]}, "properties": {"osm_id": 293805250, "building": "yes", "name": "", "height": null, "height_m": null, "levels": null, "tract_id": "40109107213", "tract_name": "1072.13", "tags": {"building": "yes", "source": "Bing"}}}, {"type": "Feature", "geometry": {"type": "Polygon", "coordinates": [[[-97.57326, 35.405846], [-97.5730902, 35.405846], [-97.5730902, 35.405448], [-97.57326, 35.405448], [-97.57326, 35.405846]]]}, "properties": {"osm_id": 293805251, "building": "yes", "name": "", "height": null, "height_m": null, "levels": null, "tract_id": "40109107213", "tract_name": "1072.13", "tags": {"building": "yes", "source": "Bing"}}}, {"type": "Feature", "geometry": {"type": "Polygon", "coordinates": [[[-97.5727999, 35.4058462], [-97.5726298, 35.4058462], [-97.5726298, 35.4054474], [-97.5727999, 35.4054474], [-97.5727999, 35.4058462]]]}, "properties": {"osm_id": 293805252, "building": "yes", "name": "", "height": null, "height_m": null, "levels": null, "tract_id": "40109107213", "tract_name": "1072.13", "tags": {"building": "yes", "source": "Bing"}}}, {"type": "Feature", "geometry": {"type": "Polygon", "coordinates": [[[-97.5673433, 35.4046731], [-97.5675925, 35.4043459], [-97.5677972, 35.4044464], [-97.5677526, 35.4045084], [-97.5679445, 35.4046062], [-97.5677411, 35.4048749], [-97.5673433, 35.4046731]]]}, "properties": {"osm_id": 500814048, "building": "retail", "name": "", "height": null, "height_m": null, "levels": null, "tract_id": "40109107213", "tract_name": "1072.13", "tags": {"addr:housenumber": "2946", "building": "retail"}}}, {"type": "Feature", "geometry": {"type": "Polygon", "coordinates": [[[-97.5673433, 35.4046731], [-97.5668676, 35.4044263], [-97.5671117, 35.4041028], [-97.5675925, 35.4043459], [-97.5673433, 35.4046731]]]}, "properties": {"osm_id": 500814049, "building": "retail", "name": "", "height": null, "height_m": null, "levels": null, "tract_id": "40109107213", "tract_name": "1072.13", "tags": {"addr:housenumber": "2936", "building": "retail"}}}, {"type": "Feature", "geometry": {"type": "Polygon", "coordinates": [[[-97.5668676, 35.4044263], [-97.5665749, 35.4042766], [-97.566775, 35.4040169], [-97.5668199, 35.4039565], [-97.5671117, 35.4041028], [-97.5668676, 35.4044263]]]}, "properties": {"osm_id": 500814050, "building": "retail", "name": "", "height": null, "height_m": null, "levels": null, "tract_id": "40109107213", "tract_name": "1072.13", "tags": {"addr:housenumber": "2930", "building": "retail"}}}, {"type": "Feature", "geometry": {"type": "Polygon", "coordinates": [[[-97.5665749, 35.4042766], [-97.5662144, 35.4040911], [-97.5663521, 35.4039019], [-97.5664149, 35.4038326], [-97.566775, 35.4040169], [-97.5665749, 35.4042766]]]}, "properties": {"osm_id": 500814051, "building": "retail", "name": "Almonte Metropolitan Library", "height": null, "height_m": 3.0, "levels": 1, "tract_id": "40109107213", "tract_name": "1072.13", "tags": {"addr:housenumber": "2914", "addr:street": "Southwest 60th Street", "amenity": "library", "building": "retail", "building:levels": "1", "changing_table": "yes", "changing_table:count": "2", "changing_table:location": "unisex_toilet;wheelchair_toilet", "level": "1", "name": "Almonte Metropolitan Library", "opening_hours": "Mo-Th 09:00-21:00; Fr 09:00-18:00; Sa 09:00-17:00; Su 13:00-18:00", "roof:levels": "0", "toilets": "yes", "toilets:access": "yes", "toilets:wheelchair": "limited", "wheelchair": "limited"}}}, {"type": "Feature", "geometry": {"type": "Polygon", "coordinates": [[[-97.5662144, 35.4040911], [-97.5659393, 35.403958], [-97.566077, 35.4037688], [-97.5661649, 35.4038114], [-97.5663521, 35.4039019], [-97.5662144, 35.4040911]]]}, "properties": {"osm_id": 500814052, "building": "retail", "name": "", "height": null, "height_m": null, "levels": null, "tract_id": "40109107213", "tract_name": "1072.13", "tags": {"building": "retail"}}}, {"type": "Feature", "geometry": {"type": "Polygon", "coordinates": [[[-97.5659393, 35.403958], [-97.5659492, 35.4035388], [-97.566113, 35.4035419], [-97.5661864, 35.4035783], [-97.5661917, 35.403775], [-97.5661649, 35.4038114], [-97.566077, 35.4037688], [-97.5659393, 35.403958]]]}, "properties": {"osm_id": 500814053, "building": "retail", "name": "", "height": null, "height_m": null, "levels": null, "tract_id": "40109107213", "tract_name": "1072.13", "tags": {"building": "retail"}}}, {"type": "Feature", "geometry": {"type": "Polygon", "coordinates": [[[-97.5683255, 35.4052141], [-97.5681222, 35.405103], [-97.5680874, 35.4051073], [-97.567935, 35.4050267], [-97.5679216, 35.404994], [-97.5677236, 35.4048991], [-97.5677411, 35.4048749], [-97.5679445, 35.4046062], [-97.5680425, 35.40448], [-97.5686018, 35.4047686], [-97.5684173, 35.4050061], [-97.5684628, 35.4050296], [-97.5683984, 35.4051125], [-97.5684279, 35.4051277], [-97.5683709, 35.4052011], [-97.5683255, 35.4052141]]]}, "properties": {"osm_id": 500814054, "building": "retail", "name": "", "height": null, "height_m": null, "levels": null, "tract_id": "40109107213", "tract_name": "1072.13", "tags": {"building": "retail"}}}, {"type": "Feature", "geometry": {"type": "Polygon", "coordinates": [[[-97.5701673, 35.4060274], [-97.5700556, 35.4060286], [-97.5700533, 35.405893], [-97.5700219, 35.4058933], [-97.5700183, 35.4056814], [-97.5702834, 35.4056784], [-97.5702871, 35.4058983], [-97.5701652, 35.4058997], [-97.5701673, 35.4060274]]]}, "properties": {"osm_id": 500814055, "building": "yes", "name": "", "height": null, "height_m": null, "levels": null, "tract_id": "40109107213", "tract_name": "1072.13", "tags": {"building": "yes"}}}, {"type": "Feature", "geometry": {"type": "Polygon", "coordinates": [[[-97.5649121, 35.3955968], [-97.5649099, 35.3951404], [-97.5647792, 35.3951408], [-97.5647813, 35.3955973], [-97.5649121, 35.3955968]]]}, "properties": {"osm_id": 727881786, "building": "yes", "name": "OnCue #127", "height": null, "height_m": null, "levels": null, "tract_id": "40109107213", "tract_name": "1072.13", "tags": {"addr:city": "Oklahoma City", "addr:housenumber": "7000", "addr:postcode": "73159", "addr:state": "OK", "addr:street": "South May Avenue", "building": "yes", "name": "OnCue #127", "shop": "convenience"}}}, {"type": "Feature", "geometry": {"type": "Polygon", "coordinates": [[[-97.5651064, 35.3949882], [-97.5652236, 35.3949881], [-97.5652237, 35.3950576], [-97.5652253, 35.3951455], [-97.5652245, 35.3952511], [-97.5652251, 35.3953144], [-97.565225, 35.3953882], [-97.565225, 35.3954562], [-97.5652249, 35.3955341], [-97.5652248, 35.3956096], [-97.5652248, 35.3956893], [-97.5652247, 35.3957648], [-97.5651059, 35.3957649], [-97.5651058, 35.3956882], [-97.5651057, 35.3956091], [-97.5651056, 35.3955594], [-97.565078, 35.395537], [-97.5650493, 35.3955096], [-97.5650144, 35.3955096], [-97.5649146, 35.3955097], [-97.5649142, 35.3952123], [-97.5650081, 35.3952122], [-97.565052, 35.3952095], [-97.5650751, 35.3951908], [-97.5651067, 35.3951642], [-97.5651067, 35.3951438], [-97.5651065, 35.3950564], [-97.5651064, 35.3949882]]]}, "properties": {"osm_id": 727881787, "building": "roof", "name": "Phillips 66", "height": null, "height_m": null, "levels": null, "tract_id": "40109107213", "tract_name": "1072.13", "tags": {"amenity": "fuel", "brand": "Phillips 66", "brand:wikidata": "Q1656230", "building": "roof", "name": "Phillips 66", "website": "https://www.phillips66gas.com/station/P66-ONCUE-0127-0000884624/"}}}, {"type": "Feature", "geometry": {"type": "Polygon", "coordinates": [[[-97.5661612, 35.394773], [-97.5661613, 35.3947542], [-97.5661892, 35.3947544], [-97.5661895, 35.3947103], [-97.5661605, 35.3947101], [-97.5661607, 35.3946905], [-97.5658898, 35.3946892], [-97.5658897, 35.3947062], [-97.5658768, 35.3947061], [-97.5658765, 35.3947536], [-97.5658861, 35.3947537], [-97.565886, 35.3947709], [-97.5659604, 35.3947713], [-97.5659603, 35.3947781], [-97.5660179, 35.3947784], [-97.5660179, 35.3947723], [-97.5661612, 35.394773]]]}, "properties": {"osm_id": 788033477, "building": "yes", "name": "Taco Bell", "height": null, "height_m": null, "levels": null, "tract_id": "40109107213", "tract_name": "1072.13", "tags": {"addr:city": "Oklahoma City", "addr:housenumber": "7101", "addr:postcode": "73159", "addr:state": "OK", "addr:street": "South May Avenue", "amenity": "fast_food", "brand": "Taco Bell", "brand:wikidata": "Q752941", "building": "yes", "cuisine": "tex-mex", "name": "Taco Bell", "phone": "+1 405-378-0661", "takeaway": "yes", "website": "https://locations.tacobell.com/ok/oklahoma-city/7101-s-may.html"}}}, {"type": "Feature", "geometry": {"type": "Polygon", "coordinates": [[[-97.5652427, 35.3947243], [-97.5652416, 35.39459], [-97.5651407, 35.3945905], [-97.565141, 35.3946258], [-97.5650582, 35.3946262], [-97.5650583, 35.3946414], [-97.5649939, 35.3946418], [-97.5649945, 35.3947186], [-97.5651469, 35.3947178], [-97.5651469, 35.3947248], [-97.5652427, 35.3947243]]]}, "properties": {"osm_id": 788033478, "building": "yes", "name": "Jack in the Box", "height": null, "height_m": null, "levels": null, "tract_id": "40109107213", "tract_name": "1072.13", "tags": {"addr:city": "Oklahoma City", "addr:housenumber": "7100", "addr:postcode": "73159", "addr:state": "OK", "addr:street": "South May Avenue", "amenity": "fast_food", "brand": "Jack in the Box", "brand:wikidata": "Q1538507", "building": "yes", "cuisine": "burger", "name": "Jack in the Box", "phone": "+1 405-681-2076", "takeaway": "yes", "website": "https://locations.jackinthebox.com/us/ok/oklahoma-city/7100-s-may-ave"}}}, {"type": "Feature", "geometry": {"type": "Polygon", "coordinates": [[[-97.5645162, 35.3958101], [-97.5645114, 35.3951841], [-97.5642532, 35.3951854], [-97.5642534, 35.3952117], [-97.5641198, 35.3952124], [-97.5641198, 35.3952044], [-97.5640248, 35.3952049], [-97.5640295, 35.3958496], [-97.564073, 35.3958494], [-97.5640732, 35.395881], [-97.5642009, 35.3958804], [-97.5642004, 35.3958117], [-97.5645162, 35.3958101]]]}, "properties": {"osm_id": 788033479, "building": "yes", "name": "American Freight Furniture and Mattress", "height": null, "height_m": null, "levels": null, "tract_id": "40109107213", "tract_name": "1072.13", "tags": {"addr:city": "Oklahoma City", "addr:housenumber": "2825", "addr:postcode": "73159", "addr:state": "OK", "addr:street": "West Interstate 240 Service Road", "building": "yes", "name": "American Freight Furniture and Mattress", "shop": "furniture"}}}, {"type": "Feature", "geometry": {"type": "Polygon", "coordinates": [[[-97.5663644, 35.3965828], [-97.5663634, 35.3965149], [-97.5664516, 35.3965141], [-97.56645, 35.3964004], [-97.5661938, 35.3964028], [-97.5661964, 35.3965844], [-97.5663644, 35.3965828]]]}, "properties": {"osm_id": 788033482, "building": "yes", "name": "7-Eleven", "height": null, "height_m": null, "levels": null, "tract_id": "40109107213", "tract_name": "1072.13", "tags": {"addr:city": "Oklahoma City", "addr:housenumber": "6809", "addr:postcode": "73159", "addr:state": "OK", "addr:street": "South May Avenue", "brand": "7-Eleven", "brand:wikidata": "Q259340", "building": "yes", "contact:website": "https://www.7-eleven.com/locations/ok/oklahoma-city/6809-s-may-41404", "name": "7-Eleven", "shop": "convenience"}}}, {"type": "Feature", "geometry": {"type": "Polygon", "coordinates": [[[-97.5659839, 35.3969589], [-97.5659795, 35.3962919], [-97.5659048, 35.3962922], [-97.5659094, 35.3969593], [-97.5659839, 35.3969589]]]}, "properties": {"osm_id": 788033483, "building": "roof", "name": "7-Eleven", "height": null, "height_m": null, "levels": null, "tract_id": "40109107213", "tract_name": "1072.13", "tags": {"amenity": "fuel", "brand": "7-Eleven", "brand:wikidata": "Q259340", "building": "roof", "name": "7-Eleven"}}}, {"type": "Feature", "geometry": {"type": "Polygon", "coordinates": [[[-97.5663033, 35.3974924], [-97.5663005, 35.3972567], [-97.5660224, 35.3972589], [-97.5660252, 35.3974947], [-97.5663033, 35.3974924]]]}, "properties": {"osm_id": 788033484, "building": "yes", "name": "O'Reilly Auto Parts", "height": null, "height_m": null, "levels": null, "tract_id": "40109107213", "tract_name": "1072.13", "tags": {"addr:city": "Oklahoma City", "addr:housenumber": "6709", "addr:postcode": "73159", "addr:state": "OK", "addr:street": "South May Avenue", "brand": "O'Reilly Auto Parts", "brand:wikidata": "Q7071951", "building": "yes", "name": "O'Reilly Auto Parts", "shop": "car_parts", "website": "https://locations.oreillyauto.com/ok/oklahomacity/autoparts-1603.html"}}}, {"type": "Feature", "geometry": {"type": "Polygon", "coordinates": [[[-97.5635752, 35.3943395], [-97.5635731, 35.394129], [-97.5633028, 35.3941308], [-97.5633049, 35.3943413], [-97.5635752, 35.3943395]]]}, "properties": {"osm_id": 788033485, "building": "yes", "name": "", "height": null, "height_m": null, "levels": null, "tract_id": "40109107213", "tract_name": "1072.13", "tags": {"building": "yes"}}}, {"type": "Feature", "geometry": {"type": "Polygon", "coordinates": [[[-97.5740738, 35.4059631], [-97.5740743, 35.4057548], [-97.5739943, 35.4057546], [-97.5739937, 35.405963], [-97.5740738, 35.4059631]]]}, "properties": {"osm_id": 1113214264, "building": "yes", "name": "Waffle House", "height": null, "height_m": null, "levels": null, "tract_id": "40109107213", "tract_name": "1072.13", "tags": {"addr:city": "Oklahoma City", "addr:housenumber": "6000", "addr:postcode": "73159", "addr:state": "OK", "addr:street": "South Independence Avenue", "amenity": "restaurant", "brand": "Waffle House", "brand:wikidata": "Q1701206", "building": "yes", "cuisine": "american", "name": "Waffle House", "opening_hours": "24/7"}}}]}