{"type": "FeatureCollection", "features": [{"type": "Feature", "geometry": {"type": "Polygon", "coordinates": [[[-95.940483, 36.1179544], [-95.9404811, 36.1175843], [-95.9405766, 36.117584], [-95.9405767, 36.1176136], [-95.9405767, 36.1176162], [-95.9409471, 36.1176149], [-95.9409488, 36.1179529], [-95.940483, 36.1179544]]]}, "properties": {"osm_id": 245716638, "building": "retail", "name": "Natural Grocers", "height": null, "height_m": null, "levels": null, "tract_id": "40143004101", "tract_name": "41.01", "tags": {"brand": "Natural Grocers", "brand:wikidata": "Q17146520", "building": "retail", "check_date": "2025-03-06", "name": "Natural Grocers", "shop": "supermarket"}}}, {"type": "Feature", "geometry": {"type": "Polygon", "coordinates": [[[-95.941029, 36.1180951], [-95.9410309, 36.1184746], [-95.9406309, 36.1184759], [-95.9406304, 36.1183791], [-95.9406609, 36.118379], [-95.9406595, 36.1180953], [-95.9408941, 36.1180945], [-95.9408938, 36.1180283], [-95.9409776, 36.118028], [-95.9409779, 36.1180953], [-95.941029, 36.1180951]]]}, "properties": {"osm_id": 245716639, "building": "retail", "name": "Walgreens", "height": null, "height_m": 3.0, "levels": 1, "tract_id": "40143004101", "tract_name": "41.01", "tags": {"addr:housenumber": "3112", "addr:street": "South Harvard Avenue East", "amenity": "pharmacy", "brand": "Walgreens", "brand:wikidata": "Q1591889", "building": "retail", "building:levels": "1", "check_date": "2025-03-06", "dispensing": "yes", "healthcare": "pharmacy", "name": "Walgreens", "opening_hours": "24/7", "roof:levels": "0", "roof:shape": "flat", "wheelchair": "yes"}}}, {"type": "Feature", "geometry": {"type": "Polygon", "coordinates": [[[-95.9485837, 36.1127181], [-95.948583, 36.1128114], [-95.9485512, 36.1128112], [-95.9485511, 36.1128253], [-95.9484571, 36.1128249], [-95.948457, 36.1128408], [-95.9484183, 36.1128406], [-95.9484182, 36.11285], [-95.9483479, 36.1128497], [-95.9483478, 36.1128667], [-95.9482551, 36.1128663], [-95.9482553, 36.1128407], [-95.948195, 36.1128404], [-95.9481955, 36.1127645], [-95.9482448, 36.1127647], [-95.9482451, 36.1127149], [-95.9484213, 36.1127157], [-95.9484214, 36.1127026], [-95.9484778, 36.1127029], [-95.9484782, 36.11264], [-95.9485548, 36.1126403], [-95.9485542, 36.1127179], [-95.9485837, 36.1127181]]]}, "properties": {"osm_id": 628231795, "building": "yes", "name": "", "height": null, "height_m": null, "levels": null, "tract_id": "40143004101", "tract_name": "41.01", "tags": {"addr:city": "Tulsa", "addr:country": "US", "addr:housenumber": "2820", "addr:postcode": "74105", "addr:state": "OK", "addr:street": "East 35th Street South", "building": "yes"}}}, {"type": "Feature", "geometry": {"type": "Polygon", "coordinates": [[[-95.9481086, 36.1128649], [-95.9477829, 36.1128649], [-95.9477829, 36.1127678], [-95.9478075, 36.1127678], [-95.9478075, 36.1127113], [-95.947875, 36.1127113], [-95.947875, 36.1127688], [-95.9478998, 36.1127688], [-95.9478998, 36.1127528], [-95.9479801, 36.1127528], [-95.9479801, 36.1127707], [-95.9481086, 36.1127707], [-95.9481086, 36.1128649]]]}, "properties": {"osm_id": 628231796, "building": "yes", "name": "", "height": null, "height_m": null, "levels": null, "tract_id": "40143004101", "tract_name": "41.01", "tags": {"addr:city": "Tulsa", "addr:country": "US", "addr:housenumber": "2828", "addr:postcode": "74105", "addr:state": "OK", "addr:street": "East 35th Street South", "building": "yes"}}}, {"type": "Feature", "geometry": {"type": "Polygon", "coordinates": [[[-95.9476664, 36.1126902], [-95.9475277, 36.1126908], [-95.9475281, 36.1127458], [-95.9474979, 36.112746], [-95.9474981, 36.1127773], [-95.9472996, 36.1127782], [-95.9473003, 36.1128775], [-95.947359, 36.1128772], [-95.9473591, 36.1128903], [-95.9474612, 36.1128899], [-95.9474611, 36.1128737], [-95.9475923, 36.1128731], [-95.9475922, 36.1128589], [-95.9476676, 36.1128586], [-95.9476664, 36.1126902]]]}, "properties": {"osm_id": 628231798, "building": "yes", "name": "", "height": null, "height_m": null, "levels": null, "tract_id": "40143004101", "tract_name": "41.01", "tags": {"addr:city": "Tulsa", "addr:country": "US", "addr:housenumber": "2842", "addr:postcode": "74105", "addr:state": "OK", "addr:street": "East 35th Street South", "building": "yes"}}}, {"type": "Feature", "geometry": {"type": "Polygon", "coordinates": [[[-95.9471589, 36.1128562], [-95.9469682, 36.1128566], [-95.9469683, 36.112886], [-95.9468715, 36.1128862], [-95.9468714, 36.1128326], [-95.9468515, 36.1128326], [-95.9468513, 36.1127848], [-95.9468676, 36.1127848], [-95.9468673, 36.1126781], [-95.9469684, 36.1126778], [-95.9469685, 36.1127239], [-95.9470424, 36.1127238], [-95.9470424, 36.1127368], [-95.9471585, 36.1127365], [-95.9471589, 36.1128562]]]}, "properties": {"osm_id": 628231800, "building": "yes", "name": "", "height": null, "height_m": null, "levels": null, "tract_id": "40143004101", "tract_name": "41.01", "tags": {"addr:city": "Tulsa", "addr:country": "US", "addr:housenumber": "2852", "addr:postcode": "74105", "addr:state": "OK", "addr:street": "East 35th Street South", "building": "yes"}}}, {"type": "Feature", "geometry": {"type": "Polygon", "coordinates": [[[-95.9462954, 36.1128738], [-95.9458919, 36.1129043], [-95.9458807, 36.1128074], [-95.9459331, 36.1128034], [-95.9459295, 36.1127722], [-95.9460169, 36.1127656], [-95.9460182, 36.1127768], [-95.9462819, 36.1127569], [-95.9462954, 36.1128738]]]}, "properties": {"osm_id": 628231802, "building": "yes", "name": "", "height": null, "height_m": null, "levels": null, "tract_id": "40143004101", "tract_name": "41.01", "tags": {"addr:city": "Tulsa", "addr:country": "US", "addr:housenumber": "2874", "addr:postcode": "74105", "addr:state": "OK", "addr:street": "East 35th Street South", "building": "yes"}}}, {"type": "Feature", "geometry": {"type": "Polygon", "coordinates": [[[-95.9457602, 36.1127122], [-95.9456618, 36.1127351], [-95.9456878, 36.1128079], [-95.9454667, 36.1128593], [-95.9454605, 36.112842], [-95.94538, 36.1128607], [-95.9454217, 36.1129777], [-95.945511, 36.1129569], [-95.9455139, 36.1129651], [-95.9455756, 36.1129508], [-95.9455817, 36.1129681], [-95.9456315, 36.1129565], [-95.9456263, 36.112942], [-95.9456912, 36.1129269], [-95.9456865, 36.1129139], [-95.9457343, 36.1129028], [-95.9457303, 36.1128916], [-95.9458169, 36.1128715], [-95.9457602, 36.1127122]]]}, "properties": {"osm_id": 628231803, "building": "yes", "name": "", "height": null, "height_m": null, "levels": null, "tract_id": "40143004101", "tract_name": "41.01", "tags": {"addr:city": "Tulsa", "addr:country": "US", "addr:housenumber": "2884", "addr:postcode": "74105", "addr:state": "OK", "addr:street": "East 35th Street South", "building": "yes"}}}, {"type": "Feature", "geometry": {"type": "Polygon", "coordinates": [[[-95.9450648, 36.1125155], [-95.9450743, 36.1126188], [-95.9449433, 36.1126267], [-95.9449207, 36.1123812], [-95.945137, 36.1123682], [-95.9451435, 36.1124384], [-95.9451095, 36.1124404], [-95.9451222, 36.1124578], [-95.9451243, 36.1124908], [-95.9451055, 36.112513], [-95.9450648, 36.1125155]]]}, "properties": {"osm_id": 628231805, "building": "yes", "name": "", "height": null, "height_m": null, "levels": null, "tract_id": "40143004101", "tract_name": "41.01", "tags": {"building": "yes"}}}, {"type": "Feature", "geometry": {"type": "Polygon", "coordinates": [[[-95.9455627, 36.1124307], [-95.9454541, 36.1124318], [-95.9454554, 36.1125141], [-95.9453455, 36.1125152], [-95.945345, 36.1124832], [-95.945266, 36.112484], [-95.9452652, 36.1124321], [-95.945236, 36.1124324], [-95.9452344, 36.1123323], [-95.9453126, 36.1123315], [-95.9453121, 36.1123002], [-95.9453946, 36.1122994], [-95.9453951, 36.1123311], [-95.9454587, 36.1123304], [-95.9454582, 36.112298], [-95.9455606, 36.112297], [-95.9455627, 36.1124307]]]}, "properties": {"osm_id": 628231807, "building": "yes", "name": "", "height": null, "height_m": null, "levels": null, "tract_id": "40143004101", "tract_name": "41.01", "tags": {"building": "yes"}}}, {"type": "Feature", "geometry": {"type": "Polygon", "coordinates": [[[-95.9459191, 36.1123969], [-95.9459146, 36.1123016], [-95.9457926, 36.1123053], [-95.9457919, 36.1122891], [-95.945606, 36.1122948], [-95.9456103, 36.1123862], [-95.9455947, 36.1123867], [-95.9455996, 36.1124889], [-95.9457055, 36.1124856], [-95.9457026, 36.1124254], [-95.9457845, 36.1124229], [-95.9457858, 36.1124506], [-95.9458757, 36.1124478], [-95.9458734, 36.1123983], [-95.9459191, 36.1123969]]]}, "properties": {"osm_id": 628231809, "building": "yes", "name": "", "height": null, "height_m": null, "levels": null, "tract_id": "40143004101", "tract_name": "41.01", "tags": {"building": "yes"}}}, {"type": "Feature", "geometry": {"type": "Polygon", "coordinates": [[[-95.9470739, 36.1124956], [-95.947004, 36.1124963], [-95.9470021, 36.1123816], [-95.9467436, 36.1123845], [-95.9467416, 36.1122664], [-95.9470699, 36.1122626], [-95.9470739, 36.1124956]]]}, "properties": {"osm_id": 628231811, "building": "yes", "name": "", "height": null, "height_m": null, "levels": null, "tract_id": "40143004101", "tract_name": "41.01", "tags": {"building": "yes"}}}, {"type": "Feature", "geometry": {"type": "Polygon", "coordinates": [[[-95.9478503, 36.1123829], [-95.94785, 36.1122741], [-95.947762, 36.1122742], [-95.947762, 36.1122855], [-95.9477303, 36.1122856], [-95.9477302, 36.1122651], [-95.9475792, 36.1122653], [-95.9475793, 36.112286], [-95.9475178, 36.1122861], [-95.9475183, 36.1124668], [-95.9476042, 36.1124667], [-95.947604, 36.1123855], [-95.9476892, 36.1123854], [-95.9476893, 36.11244], [-95.9477836, 36.1124399], [-95.9477835, 36.1123831], [-95.9478503, 36.1123829]]]}, "properties": {"osm_id": 628231813, "building": "yes", "name": "", "height": null, "height_m": null, "levels": null, "tract_id": "40143004101", "tract_name": "41.01", "tags": {"building": "yes"}}}, {"type": "Feature", "geometry": {"type": "Polygon", "coordinates": [[[-95.9482458, 36.1123739], [-95.9482442, 36.1122562], [-95.9481473, 36.112257], [-95.9481479, 36.1122979], [-95.9480179, 36.1122991], [-95.9480176, 36.1122811], [-95.9479065, 36.1122821], [-95.9479084, 36.1124173], [-95.9480096, 36.1124164], [-95.9480098, 36.112432], [-95.9481437, 36.1124308], [-95.9481433, 36.1124038], [-95.94818, 36.1124034], [-95.9481796, 36.1123745], [-95.9482458, 36.1123739]]]}, "properties": {"osm_id": 628231816, "building": "yes", "name": "", "height": null, "height_m": null, "levels": null, "tract_id": "40143004101", "tract_name": "41.01", "tags": {"building": "yes"}}}, {"type": "Feature", "geometry": {"type": "Polygon", "coordinates": [[[-95.9486302, 36.1123702], [-95.9486295, 36.112256], [-95.9485256, 36.1122565], [-95.9485258, 36.1122796], [-95.9484235, 36.1122801], [-95.9484234, 36.1122705], [-95.9482911, 36.1122711], [-95.9482919, 36.1123988], [-95.9483685, 36.1123984], [-95.9483683, 36.1123788], [-95.9484946, 36.1123783], [-95.9484946, 36.1123708], [-95.9486302, 36.1123702]]]}, "properties": {"osm_id": 628231817, "building": "yes", "name": "", "height": null, "height_m": null, "levels": null, "tract_id": "40143004101", "tract_name": "41.01", "tags": {"building": "yes"}}}, {"type": "Feature", "geometry": {"type": "Polygon", "coordinates": [[[-95.9490199, 36.1118999], [-95.9490198, 36.1118211], [-95.9487858, 36.1118212], [-95.9487858, 36.1118278], [-95.9487304, 36.1118278], [-95.9487304, 36.1118476], [-95.9486966, 36.1118476], [-95.9486967, 36.1119671], [-95.948919, 36.111967], [-95.948919, 36.1119556], [-95.9489977, 36.1119556], [-95.9489977, 36.1118999], [-95.9490199, 36.1118999]]]}, "properties": {"osm_id": 628232063, "building": "yes", "name": "", "height": null, "height_m": null, "levels": null, "tract_id": "40143004101", "tract_name": "41.01", "tags": {"building": "yes"}}}, {"type": "Feature", "geometry": {"type": "Polygon", "coordinates": [[[-95.9486323, 36.1119678], [-95.9486311, 36.1118837], [-95.9485532, 36.1118844], [-95.9485524, 36.1118257], [-95.9484892, 36.1118263], [-95.948489, 36.1118076], [-95.9482885, 36.1118095], [-95.9482905, 36.1119463], [-95.948529, 36.1119441], [-95.9485294, 36.1119688], [-95.9486323, 36.1119678]]]}, "properties": {"osm_id": 628232064, "building": "yes", "name": "", "height": null, "height_m": null, "levels": null, "tract_id": "40143004101", "tract_name": "41.01", "tags": {"building": "yes"}}}, {"type": "Feature", "geometry": {"type": "Polygon", "coordinates": [[[-95.9474743, 36.111851], [-95.9474745, 36.1116976], [-95.9473817, 36.1116975], [-95.9473816, 36.1117761], [-95.947291, 36.1117761], [-95.9472909, 36.1118524], [-95.9472118, 36.1118523], [-95.9472119, 36.1118339], [-95.9471309, 36.1118338], [-95.9471308, 36.1119348], [-95.9471512, 36.1119348], [-95.9471511, 36.1119527], [-95.9472542, 36.1119528], [-95.9472542, 36.1119448], [-95.9473604, 36.1119449], [-95.9473604, 36.1119652], [-95.9474431, 36.1119653], [-95.9474432, 36.1118509], [-95.9474743, 36.111851]]]}, "properties": {"osm_id": 628232065, "building": "yes", "name": "", "height": null, "height_m": null, "levels": null, "tract_id": "40143004101", "tract_name": "41.01", "tags": {"building": "yes"}}}, {"type": "Feature", "geometry": {"type": "Polygon", "coordinates": [[[-95.9470648, 36.1119701], [-95.9470637, 36.1118573], [-95.9469479, 36.111858], [-95.9469473, 36.1117977], [-95.9468979, 36.111798], [-95.9468488, 36.1118154], [-95.9468491, 36.1118444], [-95.9467716, 36.111845], [-95.9467718, 36.1118697], [-95.9467245, 36.11187], [-95.9467253, 36.1119497], [-95.9467736, 36.1119493], [-95.9467737, 36.1119615], [-95.9469686, 36.1119602], [-95.9469687, 36.1119707], [-95.9470648, 36.1119701]]]}, "properties": {"osm_id": 628232066, "building": "yes", "name": "", "height": null, "height_m": null, "levels": null, "tract_id": "40143004101", "tract_name": "41.01", "tags": {"building": "yes"}}}, {"type": "Feature", "geometry": {"type": "Polygon", "coordinates": [[[-95.9455472, 36.1120108], [-95.9455453, 36.1118957], [-95.9455657, 36.1118955], [-95.9455635, 36.1117667], [-95.9454676, 36.1117678], [-95.9454695, 36.1118802], [-95.9453365, 36.1118817], [-95.9453363, 36.1118692], [-95.9452488, 36.1118702], [-95.9452513, 36.1120157], [-95.9453587, 36.1120145], [-95.9453585, 36.112005], [-95.9454426, 36.112004], [-95.9454427, 36.112012], [-95.9455472, 36.1120108]]]}, "properties": {"osm_id": 628232067, "building": "yes", "name": "", "height": null, "height_m": null, "levels": null, "tract_id": "40143004101", "tract_name": "41.01", "tags": {"building": "yes"}}}, {"type": "Feature", "geometry": {"type": "Polygon", "coordinates": [[[-95.9451655, 36.1120172], [-95.9450319, 36.1117643], [-95.9448832, 36.1118155], [-95.9449155, 36.1118767], [-95.9449466, 36.111866], [-95.945048, 36.1120578], [-95.9451655, 36.1120172]]]}, "properties": {"osm_id": 628232068, "building": "yes", "name": "", "height": null, "height_m": null, "levels": null, "tract_id": "40143004101", "tract_name": "41.01", "tags": {"building": "yes"}}}, {"type": "Feature", "geometry": {"type": "Polygon", "coordinates": [[[-95.948595, 36.1133461], [-95.9484904, 36.1133461], [-95.9484904, 36.1133039], [-95.948214, 36.113304], [-95.9482139, 36.1131861], [-95.9483634, 36.113186], [-95.9483634, 36.113206], [-95.9484333, 36.113206], [-95.9484333, 36.1132168], [-95.9484836, 36.1132168], [-95.9484836, 36.1132325], [-95.9485232, 36.1132325], [-95.9485232, 36.1132482], [-95.9485949, 36.1132482], [-95.948595, 36.1133461]]]}, "properties": {"osm_id": 628233303, "building": "yes", "name": "", "height": null, "height_m": null, "levels": null, "tract_id": "40143004101", "tract_name": "41.01", "tags": {"addr:city": "Tulsa", "addr:country": "US", "addr:housenumber": "2821", "addr:postcode": "74105", "addr:state": "OK", "addr:street": "East 35th Street South", "building": "yes"}}}, {"type": "Feature", "geometry": {"type": "Polygon", "coordinates": [[[-95.9481742, 36.1134313], [-95.9481698, 36.1131918], [-95.9480717, 36.113193], [-95.9480719, 36.113209], [-95.947979, 36.1132101], [-95.9479786, 36.1131925], [-95.9478695, 36.1131938], [-95.9478718, 36.1133193], [-95.9480417, 36.1133172], [-95.9480415, 36.1133068], [-95.9480825, 36.1133063], [-95.9480834, 36.1133575], [-95.9480405, 36.113358], [-95.9480419, 36.1134329], [-95.9481742, 36.1134313]]]}, "properties": {"osm_id": 628233304, "building": "yes", "name": "", "height": null, "height_m": null, "levels": null, "tract_id": "40143004101", "tract_name": "41.01", "tags": {"addr:city": "Tulsa", "addr:country": "US", "addr:housenumber": "2829", "addr:postcode": "74105", "addr:state": "OK", "addr:street": "East 35th Street South", "building": "yes"}}}, {"type": "Feature", "geometry": {"type": "Polygon", "coordinates": [[[-95.9459766, 36.1140539], [-95.9457562, 36.1140559], [-95.945756, 36.1140407], [-95.945805, 36.1140402], [-95.9458041, 36.1139766], [-95.9456422, 36.1139781], [-95.9456453, 36.1142007], [-95.9456865, 36.1142003], [-95.9456866, 36.1142066], [-95.9457772, 36.1142058], [-95.9457771, 36.1141986], [-95.9459398, 36.114197], [-95.9459395, 36.1141797], [-95.9460026, 36.1141791], [-95.9460015, 36.1141011], [-95.9459773, 36.1141013], [-95.9459766, 36.1140539]]]}, "properties": {"osm_id": 628233305, "building": "yes", "name": "", "height": null, "height_m": null, "levels": null, "tract_id": "40143004101", "tract_name": "41.01", "tags": {"building": "yes"}}}, {"type": "Feature", "geometry": {"type": "Polygon", "coordinates": [[[-95.9464953, 36.1140474], [-95.9464749, 36.1140526], [-95.946479, 36.114063], [-95.9464402, 36.1140729], [-95.9464439, 36.1140825], [-95.9463752, 36.1141002], [-95.9463771, 36.1141049], [-95.9461852, 36.114155], [-95.9461852, 36.1141498], [-95.946141, 36.1141609], [-95.9461373, 36.1141513], [-95.9460992, 36.1141609], [-95.9460692, 36.1140832], [-95.9462163, 36.1140462], [-95.9462008, 36.114006], [-95.9464285, 36.1139487], [-95.9464488, 36.1140013], [-95.9464749, 36.1139947], [-95.9464953, 36.1140474]]]}, "properties": {"osm_id": 628233306, "building": "yes", "name": "", "height": null, "height_m": null, "levels": null, "tract_id": "40143004101", "tract_name": "41.01", "tags": {"building": "yes"}}}, {"type": "Feature", "geometry": {"type": "Polygon", "coordinates": [[[-95.9472994, 36.1138052], [-95.9473208, 36.1138604], [-95.9472226, 36.1138853], [-95.9472122, 36.1138586], [-95.9470238, 36.1139064], [-95.94698, 36.1137934], [-95.9471436, 36.113752], [-95.9471337, 36.1137266], [-95.9471769, 36.1137157], [-95.9471428, 36.1136279], [-95.9472528, 36.1136], [-95.9473295, 36.1137976], [-95.9472994, 36.1138052]]]}, "properties": {"osm_id": 628233307, "building": "yes", "name": "", "height": null, "height_m": null, "levels": null, "tract_id": "40143004101", "tract_name": "41.01", "tags": {"building": "yes"}}}, {"type": "Feature", "geometry": {"type": "Polygon", "coordinates": [[[-95.9477514, 36.1137696], [-95.9476654, 36.1137701], [-95.9476656, 36.1137892], [-95.947635, 36.1137894], [-95.9476351, 36.1138015], [-95.9475932, 36.1138018], [-95.9475934, 36.1138176], [-95.9475475, 36.1138179], [-95.9475477, 36.1138381], [-95.9474274, 36.1138389], [-95.9474272, 36.1138184], [-95.9473718, 36.1138188], [-95.9473698, 36.1136197], [-95.947487, 36.1136189], [-95.9474874, 36.1136528], [-95.9475124, 36.1136526], [-95.9475131, 36.1137226], [-95.947643, 36.1137217], [-95.9476427, 36.1136895], [-95.9477505, 36.1136888], [-95.9477514, 36.1137696]]]}, "properties": {"osm_id": 628233308, "building": "yes", "name": "", "height": null, "height_m": null, "levels": null, "tract_id": "40143004101", "tract_name": "41.01", "tags": {"building": "yes"}}}, {"type": "Feature", "geometry": {"type": "Polygon", "coordinates": [[[-95.947736, 36.1142706], [-95.9476483, 36.1142887], [-95.947655, 36.11431], [-95.9475065, 36.1143407], [-95.9475192, 36.114381], [-95.9474172, 36.114402], [-95.9473485, 36.1141852], [-95.9474557, 36.1141631], [-95.9474674, 36.1142], [-95.9475804, 36.1141767], [-95.9475743, 36.1141572], [-95.9476924, 36.1141328], [-95.947736, 36.1142706]]]}, "properties": {"osm_id": 628233309, "building": "yes", "name": "", "height": null, "height_m": null, "levels": null, "tract_id": "40143004101", "tract_name": "41.01", "tags": {"building": "yes"}}}, {"type": "Feature", "geometry": {"type": "Polygon", "coordinates": [[[-95.947331, 36.1143198], [-95.9473001, 36.1142221], [-95.9472105, 36.1142407], [-95.9472137, 36.1142508], [-95.9469698, 36.1143012], [-95.9469922, 36.1143721], [-95.9470143, 36.1143675], [-95.947029, 36.114414], [-95.9471428, 36.1143905], [-95.947137, 36.1143721], [-95.9472946, 36.1143396], [-95.947291, 36.1143281], [-95.947331, 36.1143198]]]}, "properties": {"osm_id": 628233310, "building": "yes", "name": "", "height": null, "height_m": null, "levels": null, "tract_id": "40143004101", "tract_name": "41.01", "tags": {"building": "yes"}}}, {"type": "Feature", "geometry": {"type": "Polygon", "coordinates": [[[-95.9481494, 36.1141279], [-95.9478242, 36.1141305], [-95.9478265, 36.1143261], [-95.947906, 36.1143255], [-95.9479053, 36.1142697], [-95.9480574, 36.1142685], [-95.9480584, 36.1143489], [-95.9481521, 36.1143482], [-95.9481494, 36.1141279]]]}, "properties": {"osm_id": 628233311, "building": "yes", "name": "", "height": null, "height_m": null, "levels": null, "tract_id": "40143004101", "tract_name": "41.01", "tags": {"building": "yes"}}}, {"type": "Feature", "geometry": {"type": "Polygon", "coordinates": [[[-95.9470312, 36.1153392], [-95.9470264, 36.1152128], [-95.9467575, 36.1152193], [-95.9467553, 36.1151612], [-95.9466228, 36.1151645], [-95.9466297, 36.115349], [-95.9470312, 36.1153392]]]}, "properties": {"osm_id": 628233312, "building": "yes", "name": "", "height": null, "height_m": null, "levels": null, "tract_id": "40143004101", "tract_name": "41.01", "tags": {"addr:city": "Tulsa", "addr:country": "US", "addr:housenumber": "2860", "addr:postcode": "74105", "addr:state": "OK", "addr:street": "East 33rd Street South", "building": "yes", "source": "INCOG"}}}, {"type": "Feature", "geometry": {"type": "Polygon", "coordinates": [[[-95.9478191, 36.1152277], [-95.9475257, 36.1152506], [-95.947511, 36.1151282], [-95.9475483, 36.1151253], [-95.9475392, 36.1150492], [-95.9476397, 36.1150413], [-95.9476492, 36.1151204], [-95.947871, 36.1151031], [-95.947882, 36.1151951], [-95.9478159, 36.1152002], [-95.9478191, 36.1152277]]]}, "properties": {"osm_id": 628233313, "building": "yes", "name": "", "height": null, "height_m": null, "levels": null, "tract_id": "40143004101", "tract_name": "41.01", "tags": {"addr:city": "Tulsa", "addr:country": "US", "addr:housenumber": "2838", "addr:postcode": "74105", "addr:state": "OK", "addr:street": "East 33rd Street South", "building": "yes", "source": "INCOG"}}}, {"type": "Feature", "geometry": {"type": "Polygon", "coordinates": [[[-95.9483684, 36.1151165], [-95.9482589, 36.1151279], [-95.9482571, 36.1151168], [-95.9480724, 36.1151362], [-95.9480743, 36.1151484], [-95.9479982, 36.1151564], [-95.9479966, 36.1151465], [-95.9479447, 36.1151519], [-95.9479158, 36.1149717], [-95.948046, 36.114958], [-95.9480564, 36.1150229], [-95.94825, 36.1150027], [-95.948257, 36.1150463], [-95.9483555, 36.115036], [-95.9483684, 36.1151165]]]}, "properties": {"osm_id": 628233314, "building": "yes", "name": "", "height": null, "height_m": null, "levels": null, "tract_id": "40143004101", "tract_name": "41.01", "tags": {"addr:city": "Tulsa", "addr:country": "US", "addr:housenumber": "2828", "addr:postcode": "74105", "addr:state": "OK", "addr:street": "East 33rd Street South", "building": "yes", "source": "INCOG"}}}, {"type": "Feature", "geometry": {"type": "Polygon", "coordinates": [[[-95.9562306, 36.1163475], [-95.9562273, 36.1162635], [-95.956115, 36.1162664], [-95.9561137, 36.1162338], [-95.9562551, 36.1162301], [-95.9562518, 36.1161467], [-95.955959, 36.1161544], [-95.9559623, 36.1162353], [-95.9560126, 36.116234], [-95.9560141, 36.116272], [-95.9559599, 36.1162734], [-95.9559632, 36.1163545], [-95.9562306, 36.1163475]]]}, "properties": {"osm_id": 629847565, "building": "yes", "name": "", "height": null, "height_m": null, "levels": null, "tract_id": "40143004101", "tract_name": "41.01", "tags": {"addr:city": "Tulsa", "addr:country": "US", "addr:housenumber": "2450", "addr:postcode": "74105", "addr:state": "OK", "addr:street": "East 32nd Street South", "building": "yes"}}}, {"type": "Feature", "geometry": {"type": "Polygon", "coordinates": [[[-95.9566745, 36.1162744], [-95.9566743, 36.1162034], [-95.9566548, 36.1162035], [-95.9566546, 36.1161343], [-95.956572, 36.1161345], [-95.9565721, 36.1161739], [-95.9565418, 36.1161739], [-95.9565417, 36.1161354], [-95.9564777, 36.1161355], [-95.9564778, 36.1161749], [-95.9563621, 36.1161751], [-95.9563624, 36.1162724], [-95.9564217, 36.1162723], [-95.9564219, 36.1163451], [-95.9565087, 36.1163449], [-95.9565085, 36.1162748], [-95.9566745, 36.1162744]]]}, "properties": {"osm_id": 629847566, "building": "yes", "name": "", "height": null, "height_m": null, "levels": null, "tract_id": "40143004101", "tract_name": "41.01", "tags": {"addr:city": "Tulsa", "addr:country": "US", "addr:housenumber": "2440", "addr:postcode": "74105", "addr:state": "OK", "addr:street": "East 32nd Street South", "building": "yes"}}}, {"type": "Feature", "geometry": {"type": "Polygon", "coordinates": [[[-95.9555493, 36.1168575], [-95.9555472, 36.1167671], [-95.9555156, 36.1167675], [-95.9555132, 36.1166633], [-95.9555445, 36.1166629], [-95.9555428, 36.1165911], [-95.9553767, 36.1165936], [-95.9553794, 36.1167118], [-95.9553421, 36.1167124], [-95.9553438, 36.1167849], [-95.955378, 36.1167843], [-95.9553798, 36.11686], [-95.9555493, 36.1168575]]]}, "properties": {"osm_id": 629847567, "building": "yes", "name": "", "height": null, "height_m": null, "levels": null, "tract_id": "40143004101", "tract_name": "41.01", "tags": {"building": "yes"}}}, {"type": "Feature", "geometry": {"type": "Polygon", "coordinates": [[[-95.9578246, 36.111349], [-95.9570124, 36.1113534], [-95.9570106, 36.111136], [-95.9574176, 36.1111338], [-95.9574173, 36.1111015], [-95.9575097, 36.111101], [-95.95751, 36.1111322], [-95.9578229, 36.1111306], [-95.9578246, 36.111349]]]}, "properties": {"osm_id": 635794737, "building": "office", "name": "", "height": null, "height_m": 6.0, "levels": 2, "tract_id": "40143004101", "tract_name": "41.01", "tags": {"addr:city": "Tulsa", "addr:country": "US", "addr:housenumber": "3601", "addr:postcode": "74105", "addr:state": "OK", "addr:street": "South Lewis Avenue East", "building": "office", "building:colour": "brown", "building:levels": "2", "building:material": "brick", "roof:levels": "0", "roof:shape": "flat"}}}, {"type": "Feature", "geometry": {"type": "Polygon", "coordinates": [[[-95.9569704, 36.1109161], [-95.9570257, 36.1108738], [-95.9571064, 36.1109432], [-95.9571864, 36.1108821], [-95.9571063, 36.1108138], [-95.957176, 36.1107606], [-95.9571088, 36.1107033], [-95.9570607, 36.1107401], [-95.9569911, 36.1106807], [-95.9569212, 36.1107341], [-95.9569822, 36.1107861], [-95.9568956, 36.1108522], [-95.9569704, 36.1109161]]]}, "properties": {"osm_id": 635794738, "building": "detached", "name": "", "height": null, "height_m": null, "levels": null, "tract_id": "40143004101", "tract_name": "41.01", "tags": {"addr:city": "Tulsa", "addr:country": "US", "addr:housenumber": "2425", "addr:postcode": "74105", "addr:state": "OK", "addr:street": "East 36th Place South", "building": "detached"}}}, {"type": "Feature", "geometry": {"type": "Polygon", "coordinates": [[[-95.9564774, 36.1109246], [-95.9563296, 36.1109084], [-95.956335, 36.1108763], [-95.9562927, 36.1108717], [-95.9563008, 36.110824], [-95.9563213, 36.1108262], [-95.9563288, 36.1107816], [-95.9562726, 36.1107754], [-95.9562806, 36.1107281], [-95.9564876, 36.1107509], [-95.9564822, 36.1107831], [-95.9564914, 36.1107841], [-95.9564842, 36.1108267], [-95.9564743, 36.1108257], [-95.9564686, 36.1108596], [-95.956488, 36.1108617], [-95.9564774, 36.1109246]]]}, "properties": {"osm_id": 635794740, "building": "detached", "name": "", "height": null, "height_m": null, "levels": null, "tract_id": "40143004101", "tract_name": "41.01", "tags": {"addr:city": "Tulsa", "addr:country": "US", "addr:housenumber": "3615", "addr:postcode": "74105", "addr:state": "OK", "addr:street": "South Lewis Place East", "building": "detached"}}}, {"type": "Feature", "geometry": {"type": "Polygon", "coordinates": [[[-95.9563401, 36.1106496], [-95.9562493, 36.1106177], [-95.9562565, 36.1106043], [-95.9561664, 36.1105727], [-95.9562118, 36.1104883], [-95.9562598, 36.1105052], [-95.9562657, 36.1104942], [-95.9563441, 36.1105218], [-95.9563386, 36.110532], [-95.9563834, 36.1105477], [-95.9563879, 36.1105394], [-95.9564607, 36.110565], [-95.9564348, 36.1106131], [-95.95645, 36.1106185], [-95.9564268, 36.1106617], [-95.9563485, 36.1106342], [-95.9563401, 36.1106496]]]}, "properties": {"osm_id": 635794741, "building": "detached", "name": "", "height": null, "height_m": null, "levels": null, "tract_id": "40143004101", "tract_name": "41.01", "tags": {"addr:city": "Tulsa", "addr:country": "US", "addr:housenumber": "2433", "addr:postcode": "74105", "addr:state": "OK", "addr:street": "East 36th Place South", "building": "detached"}}}, {"type": "Feature", "geometry": {"type": "Polygon", "coordinates": [[[-95.9559207, 36.1105029], [-95.9558376, 36.110501], [-95.955841, 36.1104072], [-95.9558665, 36.1104078], [-95.955868, 36.1103664], [-95.9559201, 36.1103676], [-95.9559206, 36.110354], [-95.9561133, 36.1103586], [-95.9561081, 36.1105016], [-95.956028, 36.1104997], [-95.9560284, 36.1104886], [-95.9559213, 36.1104861], [-95.9559207, 36.1105029]]]}, "properties": {"osm_id": 635794742, "building": "detached", "name": "", "height": null, "height_m": null, "levels": null, "tract_id": "40143004101", "tract_name": "41.01", "tags": {"addr:city": "Tulsa", "addr:country": "US", "addr:housenumber": "2445", "addr:postcode": "74105", "addr:state": "OK", "addr:street": "East 36th Place South", "building": "detached"}}}, {"type": "Feature", "geometry": {"type": "Polygon", "coordinates": [[[-95.9556881, 36.1112063], [-95.9557193, 36.1110353], [-95.9555724, 36.1110178], [-95.9555633, 36.1110677], [-95.9555856, 36.1110704], [-95.9555768, 36.111119], [-95.9555635, 36.1111174], [-95.9555503, 36.1111899], [-95.9556881, 36.1112063]]]}, "properties": {"osm_id": 635794743, "building": "detached", "name": "", "height": null, "height_m": null, "levels": null, "tract_id": "40143004101", "tract_name": "41.01", "tags": {"addr:city": "Tulsa", "addr:country": "US", "addr:housenumber": "3608", "addr:postcode": "74105", "addr:state": "OK", "addr:street": "South Atlanta Avenue East", "building": "detached"}}}, {"type": "Feature", "geometry": {"type": "Polygon", "coordinates": [[[-95.9571444, 36.1086365], [-95.9571684, 36.1085873], [-95.9572932, 36.1085807], [-95.9572921, 36.1085668], [-95.9573425, 36.1085642], [-95.9573361, 36.1084839], [-95.9573568, 36.1084828], [-95.9573502, 36.1084009], [-95.9571967, 36.108409], [-95.9572009, 36.1084607], [-95.95719, 36.1084612], [-95.9571911, 36.1084745], [-95.9570945, 36.1084795], [-95.9571007, 36.1085562], [-95.9570727, 36.1086137], [-95.9571444, 36.1086365]]]}, "properties": {"osm_id": 635911410, "building": "yes", "name": "", "height": null, "height_m": null, "levels": null, "tract_id": "40143004101", "tract_name": "41.01", "tags": {"building": "yes"}}}, {"type": "Feature", "geometry": {"type": "Polygon", "coordinates": [[[-95.9572325, 36.1082312], [-95.9571558, 36.1082303], [-95.9571564, 36.1081956], [-95.9570804, 36.1081948], [-95.9570827, 36.1080479], [-95.9571935, 36.1080491], [-95.9571932, 36.1080694], [-95.9573451, 36.108071], [-95.9573435, 36.1081677], [-95.9572649, 36.1081669], [-95.9572644, 36.1081962], [-95.9572331, 36.1081958], [-95.9572325, 36.1082312]]]}, "properties": {"osm_id": 635911411, "building": "detached", "name": "", "height": null, "height_m": null, "levels": null, "tract_id": "40143004101", "tract_name": "41.01", "tags": {"addr:city": "Tulsa", "addr:country": "US", "addr:housenumber": "2419", "addr:postcode": "74105", "addr:state": "OK", "addr:street": "East 38th Street South", "building": "detached"}}}, {"type": "Feature", "geometry": {"type": "Polygon", "coordinates": [[[-95.9563596, 36.1077158], [-95.9563497, 36.1074856], [-95.95629, 36.1074873], [-95.9562919, 36.1075308], [-95.9562022, 36.1075334], [-95.9562015, 36.1075182], [-95.9562103, 36.1075179], [-95.9562095, 36.1075008], [-95.9562213, 36.1075005], [-95.9562188, 36.1074427], [-95.9561201, 36.1074455], [-95.9561288, 36.1076471], [-95.9561914, 36.1076454], [-95.9561907, 36.1076284], [-95.9562822, 36.1076258], [-95.9562862, 36.1077178], [-95.9563596, 36.1077158]]]}, "properties": {"osm_id": 635911412, "building": "yes", "name": "", "height": null, "height_m": null, "levels": null, "tract_id": "40143004101", "tract_name": "41.01", "tags": {"addr:city": "Tulsa", "addr:country": "US", "addr:housenumber": "2506", "addr:postcode": "74105", "addr:state": "OK", "addr:street": "East 38th Street South", "building": "yes"}}}, {"type": "Feature", "geometry": {"type": "Polygon", "coordinates": [[[-95.9560667, 36.1077098], [-95.9559275, 36.1077112], [-95.9559272, 36.1076918], [-95.9558757, 36.1076923], [-95.9558743, 36.1076029], [-95.9558974, 36.1076027], [-95.9558968, 36.1075611], [-95.9558834, 36.1075612], [-95.9558819, 36.1074579], [-95.9560799, 36.1074559], [-95.9560811, 36.1075359], [-95.9560208, 36.1075365], [-95.9560228, 36.1076646], [-95.956066, 36.1076642], [-95.9560667, 36.1077098]]]}, "properties": {"osm_id": 635911413, "building": "yes", "name": "", "height": null, "height_m": null, "levels": null, "tract_id": "40143004101", "tract_name": "41.01", "tags": {"addr:city": "Tulsa", "addr:country": "US", "addr:housenumber": "2512", "addr:postcode": "74105", "addr:state": "OK", "addr:street": "East 38th Street South", "building": "yes"}}}, {"type": "Feature", "geometry": {"type": "Polygon", "coordinates": [[[-95.9554951, 36.1076946], [-95.9555908, 36.1076938], [-95.9555882, 36.1074996], [-95.9554697, 36.1075006], [-95.9554709, 36.107589], [-95.9554034, 36.1075896], [-95.9554029, 36.1075498], [-95.9553041, 36.1075507], [-95.955306, 36.1076949], [-95.9554565, 36.1076936], [-95.9554567, 36.1077086], [-95.9554953, 36.1077083], [-95.9554951, 36.1076946]]]}, "properties": {"osm_id": 635911414, "building": "yes", "name": "", "height": null, "height_m": null, "levels": null, "tract_id": "40143004101", "tract_name": "41.01", "tags": {"addr:city": "Tulsa", "addr:country": "US", "addr:housenumber": "2522", "addr:postcode": "74105", "addr:state": "OK", "addr:street": "East 38th Street South", "building": "yes"}}}, {"type": "Feature", "geometry": {"type": "Polygon", "coordinates": [[[-95.9546135, 36.1074353], [-95.954613, 36.1076518], [-95.954911, 36.1076522], [-95.9549111, 36.1076102], [-95.9549997, 36.1076104], [-95.9549998, 36.1075601], [-95.9550465, 36.1075602], [-95.9550467, 36.10749], [-95.9550214, 36.10749], [-95.9550215, 36.1074522], [-95.9549048, 36.107452], [-95.9549046, 36.10752], [-95.954739, 36.1075197], [-95.9547392, 36.1074355], [-95.9546135, 36.1074353]]]}, "properties": {"osm_id": 635911415, "building": "detached", "name": "", "height": null, "height_m": null, "levels": null, "tract_id": "40143004101", "tract_name": "41.01", "tags": {"addr:city": "Tulsa", "addr:country": "US", "addr:housenumber": "2532", "addr:postcode": "74105", "addr:state": "OK", "addr:street": "East 38th Street South", "building": "detached"}}}, {"type": "Feature", "geometry": {"type": "Polygon", "coordinates": [[[-95.9543197, 36.1076144], [-95.9542337, 36.1076141], [-95.9542338, 36.1075959], [-95.9541903, 36.1075958], [-95.9541902, 36.1076131], [-95.9541136, 36.1076128], [-95.9541137, 36.1075953], [-95.9540558, 36.1075951], [-95.9540567, 36.1074498], [-95.9541323, 36.1074501], [-95.954132, 36.1075071], [-95.9541538, 36.1075071], [-95.9541539, 36.107493], [-95.9541913, 36.1074931], [-95.9541914, 36.1074752], [-95.9543462, 36.1074758], [-95.9543457, 36.1075607], [-95.95432, 36.1075606], [-95.9543197, 36.1076144]]]}, "properties": {"osm_id": 635911417, "building": "yes", "name": "", "height": null, "height_m": null, "levels": null, "tract_id": "40143004101", "tract_name": "41.01", "tags": {"building": "yes"}}}, {"type": "Feature", "geometry": {"type": "Polygon", "coordinates": [[[-95.9542483, 36.1073278], [-95.9542476, 36.1072873], [-95.9541945, 36.107288], [-95.9541952, 36.1073284], [-95.9542483, 36.1073278]]]}, "properties": {"osm_id": 635911419, "building": "yes", "name": "", "height": null, "height_m": null, "levels": null, "tract_id": "40143004101", "tract_name": "41.01", "tags": {"building": "yes"}}}, {"type": "Feature", "geometry": {"type": "Polygon", "coordinates": [[[-95.9547108, 36.1067755], [-95.9547105, 36.1066707], [-95.9543871, 36.1066713], [-95.9543874, 36.106776], [-95.9547108, 36.1067755]]]}, "properties": {"osm_id": 635911420, "building": "yes", "name": "", "height": null, "height_m": null, "levels": null, "tract_id": "40143004101", "tract_name": "41.01", "tags": {"building": "yes"}}}, {"type": "Feature", "geometry": {"type": "Polygon", "coordinates": [[[-95.9555595, 36.1071991], [-95.9555631, 36.1071028], [-95.9554289, 36.1070995], [-95.9554193, 36.1073513], [-95.9555528, 36.1073546], [-95.9555561, 36.107268], [-95.9555791, 36.1072685], [-95.9555818, 36.1071997], [-95.9555595, 36.1071991]]]}, "properties": {"osm_id": 635911421, "building": "yes", "name": "", "height": null, "height_m": null, "levels": null, "tract_id": "40143004101", "tract_name": "41.01", "tags": {"building": "yes"}}}, {"type": "Feature", "geometry": {"type": "Polygon", "coordinates": [[[-95.9407858, 36.1057713], [-95.9406611, 36.1057618], [-95.9406874, 36.1055378], [-95.9408267, 36.1055485], [-95.9408189, 36.1056141], [-95.9408044, 36.105613], [-95.9407858, 36.1057713]]]}, "properties": {"osm_id": 873225866, "building": "yes", "name": "", "height": null, "height_m": null, "levels": null, "tract_id": "40143004101", "tract_name": "41.01", "tags": {"building": "yes"}}}, {"type": "Feature", "geometry": {"type": "Polygon", "coordinates": [[[-95.940784, 36.1067079], [-95.9406754, 36.1067159], [-95.9406718, 36.1066841], [-95.9406306, 36.1066872], [-95.9406266, 36.1066524], [-95.9406764, 36.1066488], [-95.9406556, 36.1064659], [-95.9407539, 36.1064586], [-95.9407585, 36.106499], [-95.9407733, 36.1064979], [-95.9407886, 36.1066332], [-95.9407757, 36.1066342], [-95.940784, 36.1067079]]]}, "properties": {"osm_id": 873225869, "building": "yes", "name": "", "height": null, "height_m": null, "levels": null, "tract_id": "40143004101", "tract_name": "41.01", "tags": {"building": "yes"}}}, {"type": "Feature", "geometry": {"type": "Polygon", "coordinates": [[[-95.9407735, 36.1060507], [-95.9407624, 36.10605], [-95.9407563, 36.1061126], [-95.9406545, 36.1061061], [-95.9406659, 36.1059891], [-95.9406471, 36.1059879], [-95.9406631, 36.1058234], [-95.9407949, 36.1058317], [-95.9407735, 36.1060507]]]}, "properties": {"osm_id": 873225871, "building": "yes", "name": "", "height": null, "height_m": null, "levels": null, "tract_id": "40143004101", "tract_name": "41.01", "tags": {"building": "yes"}}}, {"type": "Feature", "geometry": {"type": "Polygon", "coordinates": [[[-95.9407299, 36.106155], [-95.9406264, 36.1061559], [-95.9406297, 36.106405], [-95.9407187, 36.1064042], [-95.940718, 36.1063465], [-95.9407311, 36.1063464], [-95.9407305, 36.106295], [-95.9407399, 36.106295], [-95.9407394, 36.1062542], [-95.940753, 36.1062541], [-95.9407525, 36.106212], [-95.9407306, 36.1062122], [-95.9407299, 36.106155]]]}, "properties": {"osm_id": 873225873, "building": "yes", "name": "", "height": null, "height_m": null, "levels": null, "tract_id": "40143004101", "tract_name": "41.01", "tags": {"building": "yes"}}}, {"type": "Feature", "geometry": {"type": "Polygon", "coordinates": [[[-95.9406305, 36.1060983], [-95.940586, 36.1060974], [-95.9405868, 36.106071], [-95.9406313, 36.1060719], [-95.9406305, 36.1060983]]]}, "properties": {"osm_id": 873225875, "building": "yes", "name": "", "height": null, "height_m": null, "levels": null, "tract_id": "40143004101", "tract_name": "41.01", "tags": {"building": "yes"}}}, {"type": "Feature", "geometry": {"type": "Polygon", "coordinates": [[[-95.9405066, 36.1061072], [-95.9404174, 36.1061085], [-95.9404167, 36.1060749], [-95.9405059, 36.1060735], [-95.9405066, 36.1061072]]]}, "properties": {"osm_id": 873225876, "building": "yes", "name": "", "height": null, "height_m": null, "levels": null, "tract_id": "40143004101", "tract_name": "41.01", "tags": {"building": "yes"}}}, {"type": "Feature", "geometry": {"type": "Polygon", "coordinates": [[[-95.9407836, 36.1067615], [-95.940646, 36.1067707], [-95.9406595, 36.1069025], [-95.9406149, 36.1069055], [-95.9406225, 36.1069789], [-95.9406677, 36.1069759], [-95.9406713, 36.1070115], [-95.9407906, 36.1070035], [-95.9407852, 36.1069508], [-95.9408029, 36.1069496], [-95.9407836, 36.1067615]]]}, "properties": {"osm_id": 873225877, "building": "yes", "name": "", "height": null, "height_m": null, "levels": null, "tract_id": "40143004101", "tract_name": "41.01", "tags": {"building": "yes"}}}, {"type": "Feature", "geometry": {"type": "Polygon", "coordinates": [[[-95.9568261, 36.1050116], [-95.9566964, 36.1050116], [-95.9566964, 36.1049255], [-95.9567651, 36.1049255], [-95.9567651, 36.1049136], [-95.9568261, 36.1049136], [-95.9568261, 36.1050116]]]}, "properties": {"osm_id": 891740241, "building": "yes", "name": "", "height": null, "height_m": null, "levels": null, "tract_id": "40143004101", "tract_name": "41.01", "tags": {"building": "yes"}}}, {"type": "Feature", "geometry": {"type": "Polygon", "coordinates": [[[-95.9569086, 36.1049713], [-95.9568751, 36.1049713], [-95.9568751, 36.1049412], [-95.9569086, 36.1049412], [-95.9569086, 36.1049713]]]}, "properties": {"osm_id": 891740242, "building": "yes", "name": "", "height": null, "height_m": null, "levels": null, "tract_id": "40143004101", "tract_name": "41.01", "tags": {"building": "yes"}}}, {"type": "Feature", "geometry": {"type": "Polygon", "coordinates": [[[-95.957083, 36.1045945], [-95.9570836, 36.1049342], [-95.9568738, 36.1049344], [-95.9568736, 36.1048648], [-95.9568362, 36.1048649], [-95.956836, 36.1047692], [-95.9568221, 36.1047692], [-95.9568141, 36.1047613], [-95.9568027, 36.1047614], [-95.9568027, 36.1047692], [-95.9567685, 36.1047693], [-95.9567685, 36.1047627], [-95.9566759, 36.1047628], [-95.956676, 36.1047854], [-95.9566677, 36.1047978], [-95.9566878, 36.1048066], [-95.9566243, 36.104902], [-95.9565261, 36.1048556], [-95.9564251, 36.1048594], [-95.9563303, 36.1048177], [-95.9563447, 36.1048003], [-95.9563179, 36.1047871], [-95.9563179, 36.10475], [-95.9563014, 36.10475], [-95.9563014, 36.1046405], [-95.9563179, 36.1046405], [-95.9564027, 36.10464], [-95.956403, 36.1047486], [-95.9564754, 36.1047838], [-95.9565412, 36.1047833], [-95.9565566, 36.1047613], [-95.9565564, 36.1046384], [-95.9565998, 36.1046383], [-95.9565998, 36.1046275], [-95.9566541, 36.1046275], [-95.9566541, 36.1046172], [-95.9567034, 36.1046171], [-95.9567034, 36.1046138], [-95.9567644, 36.1046137], [-95.9567644, 36.1046273], [-95.9568204, 36.1046272], [-95.9568204, 36.1046414], [-95.9568732, 36.1046413], [-95.9568731, 36.1045947], [-95.957083, 36.1045945]]]}, "properties": {"osm_id": 891740243, "building": "detached", "name": "", "height": null, "height_m": null, "levels": null, "tract_id": "40143004101", "tract_name": "41.01", "tags": {"addr:city": "Tulsa", "addr:country": "US", "addr:housenumber": "2439", "addr:postcode": "74105", "addr:state": "OK", "addr:street": "East 41st Street South", "building": "detached"}}}, {"type": "Feature", "geometry": {"type": "Polygon", "coordinates": [[[-95.9545208, 36.1048762], [-95.9543411, 36.1048764], [-95.9543411, 36.1048892], [-95.9543092, 36.1048892], [-95.9543092, 36.1048764], [-95.9542291, 36.1048765], [-95.9542291, 36.1048521], [-95.9541896, 36.1048521], [-95.9541895, 36.1047925], [-95.954229, 36.1047925], [-95.9542289, 36.1047588], [-95.9543565, 36.1047586], [-95.9543565, 36.1047408], [-95.954391, 36.1047407], [-95.954391, 36.1047586], [-95.9544413, 36.1047586], [-95.9544414, 36.1048009], [-95.9545207, 36.1048008], [-95.9545208, 36.1048762]]]}, "properties": {"osm_id": 891740262, "building": "detached", "name": "", "height": null, "height_m": null, "levels": null, "tract_id": "40143004101", "tract_name": "41.01", "tags": {"addr:city": "Tulsa", "addr:country": "US", "addr:housenumber": "2525", "addr:postcode": "74105", "addr:state": "OK", "addr:street": "East 41st Street South", "building": "detached"}}}, {"type": "Feature", "geometry": {"type": "Polygon", "coordinates": [[[-95.9519804, 36.1046221], [-95.9518711, 36.1046221], [-95.9518711, 36.1046278], [-95.9518275, 36.1046278], [-95.9518275, 36.1046221], [-95.9517957, 36.1046221], [-95.9517957, 36.1045947], [-95.9517323, 36.1045947], [-95.9517323, 36.1045297], [-95.9518288, 36.1045297], [-95.9518288, 36.104511], [-95.9518855, 36.104511], [-95.9518855, 36.1045297], [-95.9519096, 36.1045297], [-95.9519096, 36.104517], [-95.9519499, 36.104517], [-95.9519499, 36.1045297], [-95.9519804, 36.1045297], [-95.9519804, 36.1046221]]]}, "properties": {"osm_id": 891740296, "building": "detached", "name": "", "height": null, "height_m": null, "levels": null, "tract_id": "40143004101", "tract_name": "41.01", "tags": {"addr:city": "Tulsa", "addr:country": "US", "addr:housenumber": "2637", "addr:postcode": "74105", "addr:state": "OK", "addr:street": "East 41st Street South", "building": "detached"}}}, {"type": "Feature", "geometry": {"type": "Polygon", "coordinates": [[[-95.9516015, 36.1048288], [-95.9515247, 36.1048288], [-95.9515247, 36.1047727], [-95.9515385, 36.1047727], [-95.9515385, 36.1047554], [-95.9515227, 36.1047554], [-95.9515227, 36.1047093], [-95.9515911, 36.1047093], [-95.9515911, 36.1047548], [-95.9515539, 36.1047548], [-95.9515539, 36.1047727], [-95.9516015, 36.1047727], [-95.9516015, 36.1048288]]]}, "properties": {"osm_id": 891740297, "building": "yes", "name": "", "height": null, "height_m": null, "levels": null, "tract_id": "40143004101", "tract_name": "41.01", "tags": {"building": "yes"}}}, {"type": "Feature", "geometry": {"type": "Polygon", "coordinates": [[[-95.9515905, 36.1046871], [-95.9514718, 36.1046877], [-95.9514714, 36.1046291], [-95.9513942, 36.1046295], [-95.9513941, 36.1046037], [-95.9513678, 36.1046038], [-95.9513671, 36.1044998], [-95.9513933, 36.1044997], [-95.9513933, 36.104495], [-95.9516068, 36.104494], [-95.9516076, 36.1045979], [-95.9515735, 36.104598], [-95.9515737, 36.1046271], [-95.95159, 36.104627], [-95.9515905, 36.1046871]]]}, "properties": {"osm_id": 891740298, "building": "detached", "name": "", "height": null, "height_m": null, "levels": null, "tract_id": "40143004101", "tract_name": "41.01", "tags": {"addr:city": "Tulsa", "addr:country": "US", "addr:housenumber": "2645", "addr:postcode": "74105", "addr:state": "OK", "addr:street": "East 41st Street South", "building": "detached"}}}, {"type": "Feature", "geometry": {"type": "Polygon", "coordinates": [[[-95.9508662, 36.1048197], [-95.950865, 36.1047318], [-95.9509169, 36.1047313], [-95.9509168, 36.1047257], [-95.9510014, 36.1047249], [-95.9510012, 36.1047145], [-95.9510643, 36.1047139], [-95.9510644, 36.104721], [-95.9511373, 36.1047203], [-95.9511379, 36.10476], [-95.9512382, 36.104759], [-95.9512391, 36.1048206], [-95.9511687, 36.1048213], [-95.9511687, 36.1048168], [-95.9510996, 36.1048174], [-95.9511, 36.1048426], [-95.9512125, 36.1048415], [-95.9512134, 36.104907], [-95.9512056, 36.1049071], [-95.9512062, 36.1049423], [-95.9510643, 36.1049437], [-95.9510637, 36.1049079], [-95.9510565, 36.1049079], [-95.9510564, 36.1048984], [-95.951012, 36.1048988], [-95.9510113, 36.1048552], [-95.9510525, 36.1048548], [-95.951052, 36.1048179], [-95.9508662, 36.1048197]]]}, "properties": {"osm_id": 891740309, "building": "detached", "name": "", "height": null, "height_m": null, "levels": null, "tract_id": "40143004101", "tract_name": "41.01", "tags": {"addr:city": "Tulsa", "addr:country": "US", "addr:housenumber": "2707", "addr:postcode": "74105", "addr:state": "OK", "addr:street": "East 41st Street South", "building": "detached"}}}, {"type": "Feature", "geometry": {"type": "Polygon", "coordinates": [[[-95.949669, 36.1047345], [-95.9496335, 36.1047345], [-95.9496335, 36.1047055], [-95.949669, 36.1047055], [-95.949669, 36.1047345]]]}, "properties": {"osm_id": 891740340, "building": "yes", "name": "", "height": null, "height_m": null, "levels": null, "tract_id": "40143004101", "tract_name": "41.01", "tags": {"building": "yes"}}}, {"type": "Feature", "geometry": {"type": "Polygon", "coordinates": [[[-95.9494286, 36.104757], [-95.9493012, 36.104728], [-95.949325, 36.1046597], [-95.9493393, 36.104663], [-95.9493639, 36.1045925], [-95.9493431, 36.1045878], [-95.9493702, 36.1045099], [-95.9494144, 36.10452], [-95.9494259, 36.1044871], [-95.9494991, 36.1045038], [-95.9495003, 36.1044805], [-95.9496348, 36.1044834], [-95.9496338, 36.1045606], [-95.9494963, 36.1045595], [-95.9494965, 36.1045295], [-95.9494764, 36.1045872], [-95.9495116, 36.1045952], [-95.9494908, 36.104655], [-95.9494661, 36.1046494], [-95.9494286, 36.104757]]]}, "properties": {"osm_id": 891740341, "building": "yes", "name": "", "height": null, "height_m": null, "levels": null, "tract_id": "40143004101", "tract_name": "41.01", "tags": {"building": "yes"}}}, {"type": "Feature", "geometry": {"type": "Polygon", "coordinates": [[[-95.9494501, 36.1047234], [-95.9494685, 36.1046682], [-95.9495354, 36.1046827], [-95.949517, 36.104738], [-95.9494501, 36.1047234]]]}, "properties": {"osm_id": 891740342, "building": "yes", "name": "", "height": null, "height_m": null, "levels": null, "tract_id": "40143004101", "tract_name": "41.01", "tags": {"building": "yes"}}}, {"type": "Feature", "geometry": {"type": "Polygon", "coordinates": [[[-95.957722, 36.1077388], [-95.9577172, 36.107496], [-95.9578427, 36.1074944], [-95.9578445, 36.1075831], [-95.9578657, 36.1075828], [-95.9578676, 36.1076803], [-95.9578266, 36.1076808], [-95.9578278, 36.1077375], [-95.957722, 36.1077388]]]}, "properties": {"osm_id": 891740406, "building": "yes", "name": "", "height": null, "height_m": null, "levels": null, "tract_id": "40143004101", "tract_name": "41.01", "tags": {"building": "yes"}}}, {"type": "Feature", "geometry": {"type": "Polygon", "coordinates": [[[-95.957559, 36.1151073], [-95.957557, 36.1149091], [-95.9576997, 36.1149081], [-95.9577001, 36.1149524], [-95.9576803, 36.1149525], [-95.9576819, 36.1151065], [-95.957559, 36.1151073]]]}, "properties": {"osm_id": 891746662, "building": "yes", "name": "", "height": null, "height_m": null, "levels": null, "tract_id": "40143004101", "tract_name": "41.01", "tags": {"building": "yes"}}}, {"type": "Feature", "geometry": {"type": "Polygon", "coordinates": [[[-95.9575261, 36.1146337], [-95.9575235, 36.1146405], [-95.9575105, 36.1146503], [-95.9574932, 36.1146535], [-95.9574772, 36.1146496], [-95.9573887, 36.1146482], [-95.9573884, 36.1147235], [-95.9573009, 36.114723], [-95.9573009, 36.1146558], [-95.9573177, 36.1146561], [-95.9573177, 36.1145713], [-95.95743, 36.1145727], [-95.9574819, 36.1145312], [-95.9574316, 36.1144914], [-95.9572828, 36.114489], [-95.9572845, 36.1144156], [-95.9574417, 36.1144169], [-95.957442, 36.1144492], [-95.9574531, 36.1144492], [-95.9574622, 36.1144567], [-95.9574712, 36.1144505], [-95.9575574, 36.1145193], [-95.9575818, 36.1145009], [-95.9576, 36.1145174], [-95.9576228, 36.1145003], [-95.9576573, 36.1145296], [-95.9576952, 36.1144995], [-95.9577525, 36.1145445], [-95.95773, 36.1145632], [-95.9577644, 36.1145892], [-95.9577398, 36.1146156], [-95.9577718, 36.1146417], [-95.9577718, 36.1146634], [-95.9577894, 36.1146634], [-95.9577894, 36.1147192], [-95.9577773, 36.1147192], [-95.9577773, 36.1147609], [-95.9576865, 36.1147609], [-95.9576865, 36.1148151], [-95.957614, 36.1148151], [-95.957614, 36.1147314], [-95.9576123, 36.1147327], [-95.9575949, 36.114736], [-95.9575779, 36.1147318], [-95.9575657, 36.1147213], [-95.9575617, 36.1147073], [-95.9575669, 36.1146935], [-95.9575799, 36.1146837], [-95.9575869, 36.1146824], [-95.9575261, 36.1146337]]]}, "properties": {"osm_id": 891746664, "building": "yes", "name": "", "height": null, "height_m": null, "levels": null, "tract_id": "40143004101", "tract_name": "41.01", "tags": {"building": "yes"}}}, {"type": "Feature", "geometry": {"type": "Polygon", "coordinates": [[[-95.9575329, 36.1128728], [-95.9574031, 36.1128728], [-95.9574031, 36.1128541], [-95.9572141, 36.1128541], [-95.9572141, 36.112797], [-95.9572214, 36.112797], [-95.9572214, 36.1127544], [-95.9572838, 36.1127544], [-95.9572838, 36.1126832], [-95.9573327, 36.1126832], [-95.9573327, 36.1126025], [-95.957437, 36.1126025], [-95.957437, 36.1127368], [-95.9574179, 36.1127368], [-95.9574179, 36.112797], [-95.9575329, 36.112797], [-95.9575329, 36.1128728]]]}, "properties": {"osm_id": 891746671, "building": "yes", "name": "", "height": null, "height_m": null, "levels": null, "tract_id": "40143004101", "tract_name": "41.01", "tags": {"building": "yes"}}}, {"type": "Feature", "geometry": {"type": "Polygon", "coordinates": [[[-95.9571208, 36.1125778], [-95.9571648, 36.1125869], [-95.9571554, 36.1126167], [-95.9571115, 36.1126076], [-95.9571208, 36.1125778]]]}, "properties": {"osm_id": 891746672, "building": "yes", "name": "", "height": null, "height_m": null, "levels": null, "tract_id": "40143004101", "tract_name": "41.01", "tags": {"building": "yes"}}}, {"type": "Feature", "geometry": {"type": "Polygon", "coordinates": [[[-95.9571688, 36.1067523], [-95.957146, 36.1066808], [-95.9571681, 36.1066087], [-95.957543, 36.1066071], [-95.957553, 36.10658], [-95.957612, 36.10658], [-95.9576388, 36.1066759], [-95.9576147, 36.1067761], [-95.9575544, 36.1067761], [-95.9575456, 36.1067496], [-95.9571688, 36.1067523]]]}, "properties": {"osm_id": 891746697, "building": "yes", "name": "", "height": null, "height_m": null, "levels": null, "tract_id": "40143004101", "tract_name": "41.01", "tags": {"building": "yes"}}}, {"type": "Feature", "geometry": {"type": "Polygon", "coordinates": [[[-95.9568805, 36.1069295], [-95.9568764, 36.1065687], [-95.957087, 36.1065671], [-95.957091, 36.1069279], [-95.9568805, 36.1069295]]]}, "properties": {"osm_id": 891746698, "building": "yes", "name": "", "height": null, "height_m": null, "levels": null, "tract_id": "40143004101", "tract_name": "41.01", "tags": {"building": "yes"}}}, {"type": "Feature", "geometry": {"type": "Polygon", "coordinates": [[[-95.9572117, 36.1071472], [-95.957095, 36.1069744], [-95.9571879, 36.1068436], [-95.9571842, 36.1068328], [-95.9572063, 36.1068057], [-95.9572694, 36.1068049], [-95.9573063, 36.1068542], [-95.9572945, 36.1068696], [-95.9573076, 36.1068864], [-95.9574058, 36.1068861], [-95.9574169, 36.1068682], [-95.9575249, 36.1068699], [-95.9575976, 36.1069733], [-95.9575249, 36.1070771], [-95.9574192, 36.1070776], [-95.9574065, 36.1070633], [-95.9573076, 36.1070649], [-95.9572972, 36.1070817], [-95.9573093, 36.1070966], [-95.9572741, 36.1071472], [-95.9572117, 36.1071472]]]}, "properties": {"osm_id": 891746699, "building": "church", "name": "BattleCreek Church", "height": null, "height_m": null, "levels": null, "tract_id": "40143004101", "tract_name": "41.01", "tags": {"amenity": "place_of_worship", "building": "church", "name": "BattleCreek Church", "religion": "christian"}}}, {"type": "Feature", "geometry": {"type": "Polygon", "coordinates": [[[-95.9424354, 36.1049813], [-95.9425078, 36.1050095], [-95.9424649, 36.1050761], [-95.9424535, 36.1050718], [-95.9424488, 36.1050794], [-95.9423925, 36.1050555], [-95.9423482, 36.1050777], [-95.9423422, 36.1050701], [-95.9422772, 36.1051021], [-95.9422195, 36.1050263], [-95.9422912, 36.1049927], [-95.9422886, 36.104952], [-95.9422812, 36.1049526], [-95.9422812, 36.1049271], [-95.9422872, 36.1049277], [-95.9422859, 36.1049], [-95.9422805, 36.1049], [-95.9422798, 36.1048648], [-95.9422933, 36.1048648], [-95.9422926, 36.1048518], [-95.9424119, 36.1048475], [-95.9424126, 36.1049098], [-95.9424327, 36.1049092], [-95.9424354, 36.1049813]]]}, "properties": {"osm_id": 894680287, "building": "yes", "name": "", "height": null, "height_m": null, "levels": null, "tract_id": "40143004101", "tract_name": "41.01", "tags": {"building": "yes"}}}, {"type": "Feature", "geometry": {"type": "Polygon", "coordinates": [[[-95.9415831, 36.1054513], [-95.9415837, 36.1054713], [-95.9415405, 36.1054721], [-95.9415399, 36.1054521], [-95.9415831, 36.1054513]]]}, "properties": {"osm_id": 894680288, "building": "yes", "name": "", "height": null, "height_m": null, "levels": null, "tract_id": "40143004101", "tract_name": "41.01", "tags": {"building": "yes"}}}, {"type": "Feature", "geometry": {"type": "Polygon", "coordinates": [[[-95.9417508, 36.1051935], [-95.9417638, 36.1051847], [-95.9416767, 36.1051011], [-95.9417691, 36.1050383], [-95.9418846, 36.1051492], [-95.9418827, 36.1051505], [-95.9419041, 36.105171], [-95.9418993, 36.1051743], [-95.9419577, 36.1052304], [-95.9418591, 36.1052975], [-95.9417508, 36.1051935]]]}, "properties": {"osm_id": 894680289, "building": "yes", "name": "", "height": null, "height_m": null, "levels": null, "tract_id": "40143004101", "tract_name": "41.01", "tags": {"building": "yes"}}}, {"type": "Feature", "geometry": {"type": "Polygon", "coordinates": [[[-95.9414726, 36.105105], [-95.9414465, 36.1051223], [-95.9414741, 36.1051495], [-95.9413938, 36.1052026], [-95.9414093, 36.105218], [-95.9413498, 36.1052573], [-95.941335, 36.1052426], [-95.9412302, 36.1053119], [-95.9411666, 36.1052491], [-95.9412382, 36.1052018], [-95.9412306, 36.1051943], [-95.941321, 36.1051345], [-95.94131, 36.1051237], [-95.9413805, 36.1050771], [-95.9413901, 36.1050866], [-95.9414283, 36.1050613], [-95.9414726, 36.105105]]]}, "properties": {"osm_id": 894680290, "building": "yes", "name": "", "height": null, "height_m": null, "levels": null, "tract_id": "40143004101", "tract_name": "41.01", "tags": {"building": "yes"}}}, {"type": "Feature", "geometry": {"type": "Polygon", "coordinates": [[[-95.9407849, 36.1054046], [-95.940821, 36.1054033], [-95.9408252, 36.1054799], [-95.9406824, 36.1054849], [-95.9406794, 36.1054285], [-95.9406641, 36.1054291], [-95.9406622, 36.1053936], [-95.9406465, 36.1053941], [-95.9406437, 36.1053427], [-95.9406756, 36.1053416], [-95.9406708, 36.1052534], [-95.9407884, 36.1052493], [-95.940792, 36.1053145], [-95.9407801, 36.1053149], [-95.9407849, 36.1054046]]]}, "properties": {"osm_id": 894680291, "building": "yes", "name": "", "height": null, "height_m": null, "levels": null, "tract_id": "40143004101", "tract_name": "41.01", "tags": {"building": "yes"}}}, {"type": "Feature", "geometry": {"type": "Polygon", "coordinates": [[[-95.9407983, 36.1050697], [-95.9407775, 36.1050667], [-95.9407498, 36.1051943], [-95.9406004, 36.1051731], [-95.9406146, 36.105108], [-95.9406602, 36.1051145], [-95.9406918, 36.1049693], [-95.9408163, 36.1049869], [-95.9407983, 36.1050697]]]}, "properties": {"osm_id": 894680292, "building": "yes", "name": "", "height": null, "height_m": null, "levels": null, "tract_id": "40143004101", "tract_name": "41.01", "tags": {"building": "yes"}}}, {"type": "Feature", "geometry": {"type": "Polygon", "coordinates": [[[-95.9404159, 36.1055466], [-95.9403902, 36.1055466], [-95.9403902, 36.1055124], [-95.9404159, 36.1055124], [-95.9404159, 36.1055466]]]}, "properties": {"osm_id": 894680293, "building": "shed", "name": "", "height": null, "height_m": null, "levels": null, "tract_id": "40143004101", "tract_name": "41.01", "tags": {"building": "shed"}}}, {"type": "Feature", "geometry": {"type": "Polygon", "coordinates": [[[-95.940403, 36.1049732], [-95.9404452, 36.1049779], [-95.9404338, 36.105045], [-95.9403916, 36.1050404], [-95.940403, 36.1049732]]]}, "properties": {"osm_id": 894680294, "building": "yes", "name": "", "height": null, "height_m": null, "levels": null, "tract_id": "40143004101", "tract_name": "41.01", "tags": {"building": "yes"}}}, {"type": "Feature", "geometry": {"type": "Polygon", "coordinates": [[[-95.9405508, 36.1048735], [-95.9405193, 36.1048627], [-95.9405366, 36.1048299], [-95.9405681, 36.1048407], [-95.9405508, 36.1048735]]]}, "properties": {"osm_id": 894680295, "building": "yes", "name": "", "height": null, "height_m": null, "levels": null, "tract_id": "40143004101", "tract_name": "41.01", "tags": {"building": "yes"}}}, {"type": "Feature", "geometry": {"type": "Polygon", "coordinates": [[[-95.9404922, 36.1049082], [-95.9405251, 36.10492], [-95.9404949, 36.1049747], [-95.940462, 36.1049629], [-95.9404922, 36.1049082]]]}, "properties": {"osm_id": 894680296, "building": "yes", "name": "", "height": null, "height_m": null, "levels": null, "tract_id": "40143004101", "tract_name": "41.01", "tags": {"building": "yes"}}}, {"type": "Feature", "geometry": {"type": "Polygon", "coordinates": [[[-95.9404606, 36.1092974], [-95.9404562, 36.1093341], [-95.9404018, 36.1093298], [-95.9404063, 36.1092931], [-95.9404606, 36.1092974]]]}, "properties": {"osm_id": 1086250757, "building": "yes", "name": "", "height": null, "height_m": null, "levels": null, "tract_id": "40143004101", "tract_name": "41.01", "tags": {"building": "yes"}}}, {"type": "Feature", "geometry": {"type": "Polygon", "coordinates": [[[-95.9404331, 36.1085964], [-95.940403, 36.1085964], [-95.940403, 36.108565], [-95.9404331, 36.108565], [-95.9404331, 36.1085964]]]}, "properties": {"osm_id": 1086250763, "building": "yes", "name": "", "height": null, "height_m": null, "levels": null, "tract_id": "40143004101", "tract_name": "41.01", "tags": {"building": "yes"}}}, {"type": "Feature", "geometry": {"type": "Polygon", "coordinates": [[[-95.9406351, 36.1088373], [-95.940637, 36.1088979], [-95.940576, 36.1088991], [-95.940579, 36.1089977], [-95.9406431, 36.1089963], [-95.9406449, 36.1090517], [-95.9407712, 36.1090492], [-95.9407687, 36.1089696], [-95.9407538, 36.1089699], [-95.9407521, 36.108916], [-95.9407661, 36.1089157], [-95.9407653, 36.1088908], [-95.9407513, 36.1088911], [-95.9407495, 36.1088349], [-95.9406351, 36.1088373]]]}, "properties": {"osm_id": 1086250765, "building": "yes", "name": "", "height": null, "height_m": null, "levels": null, "tract_id": "40143004101", "tract_name": "41.01", "tags": {"building": "yes", "source": "microsoft/BuildingFootprints"}}}, {"type": "Feature", "geometry": {"type": "Polygon", "coordinates": [[[-95.9413732, 36.1080899], [-95.9413549, 36.1080824], [-95.9413672, 36.1080629], [-95.9412874, 36.10803], [-95.9412719, 36.1080546], [-95.9411886, 36.1080202], [-95.9411394, 36.1080982], [-95.9412103, 36.1081275], [-95.9412064, 36.1081336], [-95.9412307, 36.1081436], [-95.9412211, 36.1081588], [-95.9412774, 36.1081821], [-95.9412871, 36.1081668], [-95.9414069, 36.1082163], [-95.9414525, 36.1081442], [-95.9414257, 36.1081331], [-95.9414716, 36.1080605], [-95.9414552, 36.1080538], [-95.9414752, 36.1080222], [-95.9413935, 36.1079885], [-95.9413629, 36.1080369], [-95.9413977, 36.1080512], [-95.9413732, 36.1080899]]]}, "properties": {"osm_id": 1086250766, "building": "yes", "name": "", "height": null, "height_m": null, "levels": null, "tract_id": "40143004101", "tract_name": "41.01", "tags": {"addr:city": "Tulsa", "addr:country": "US", "addr:housenumber": "3182", "addr:postcode": "74105", "addr:state": "OK", "addr:street": "East 38th Street South", "building": "yes"}}}, {"type": "Feature", "geometry": {"type": "Polygon", "coordinates": [[[-95.940611, 36.107555], [-95.940707, 36.107556], [-95.9407014, 36.1075714], [-95.940751, 36.1075915], [-95.9408006, 36.1075248], [-95.9407315, 36.1074918], [-95.940728, 36.10735], [-95.940613, 36.10735], [-95.940611, 36.107555]]]}, "properties": {"osm_id": 1086250767, "building": "yes", "name": "", "height": null, "height_m": null, "levels": null, "tract_id": "40143004101", "tract_name": "41.01", "tags": {"building": "yes", "source": "microsoft/BuildingFootprints"}}}, {"type": "Feature", "geometry": {"type": "Polygon", "coordinates": [[[-95.941149, 36.107764], [-95.941206, 36.107857], [-95.941413, 36.107774], [-95.941312, 36.10761], [-95.941213, 36.10765], [-95.941257, 36.107721], [-95.941149, 36.107764]]]}, "properties": {"osm_id": 1086250768, "building": "yes", "name": "", "height": null, "height_m": null, "levels": null, "tract_id": "40143004101", "tract_name": "41.01", "tags": {"building": "yes", "source": "microsoft/BuildingFootprints"}}}, {"type": "Feature", "geometry": {"type": "Polygon", "coordinates": [[[-95.9407788, 36.1081039], [-95.9407321, 36.1080294], [-95.9406823, 36.1080497], [-95.9406759, 36.1080395], [-95.9406557, 36.1080478], [-95.9406219, 36.107994], [-95.9404853, 36.1080499], [-95.9405049, 36.1080812], [-95.9404129, 36.1081189], [-95.9404852, 36.1082342], [-95.9406091, 36.1081834], [-95.9406064, 36.108179], [-95.940647, 36.1081624], [-95.940666, 36.1081927], [-95.9407212, 36.1081701], [-95.9406999, 36.1081362], [-95.9407788, 36.1081039]]]}, "properties": {"osm_id": 1086250769, "building": "detached", "name": "", "height": null, "height_m": null, "levels": null, "tract_id": "40143004101", "tract_name": "41.01", "tags": {"building": "detached"}}}, {"type": "Feature", "geometry": {"type": "Polygon", "coordinates": [[[-95.9407033, 36.1087391], [-95.9406109, 36.1085092], [-95.9405017, 36.1085379], [-95.9405941, 36.1087678], [-95.9407033, 36.1087391]]]}, "properties": {"osm_id": 1086250770, "building": "yes", "name": "", "height": null, "height_m": null, "levels": null, "tract_id": "40143004101", "tract_name": "41.01", "tags": {"building": "yes", "source": "microsoft/BuildingFootprints"}}}, {"type": "Feature", "geometry": {"type": "Polygon", "coordinates": [[[-95.940658, 36.107881], [-95.940758, 36.10788], [-95.940755, 36.107748], [-95.940789, 36.107747], [-95.940788, 36.1077], [-95.940761, 36.1077], [-95.94076, 36.107641], [-95.940615, 36.107644], [-95.940616, 36.107704], [-95.940654, 36.107704], [-95.940658, 36.107881]]]}, "properties": {"osm_id": 1086250771, "building": "yes", "name": "", "height": null, "height_m": null, "levels": null, "tract_id": "40143004101", "tract_name": "41.01", "tags": {"building": "yes", "source": "microsoft/BuildingFootprints"}}}, {"type": "Feature", "geometry": {"type": "Polygon", "coordinates": [[[-95.9408013, 36.1094], [-95.9406542, 36.109405], [-95.9406588, 36.1094939], [-95.9406248, 36.1094951], [-95.9406272, 36.1095421], [-95.9406652, 36.1095409], [-95.9406698, 36.1096301], [-95.940769, 36.1096268], [-95.9407651, 36.1095515], [-95.9407512, 36.1095519], [-95.9407493, 36.1095137], [-95.9407748, 36.1095128], [-95.9407738, 36.1094923], [-95.940806, 36.1094912], [-95.9408013, 36.1094]]]}, "properties": {"osm_id": 1086250772, "building": "yes", "name": "", "height": null, "height_m": null, "levels": null, "tract_id": "40143004101", "tract_name": "41.01", "tags": {"building": "yes", "source": "microsoft/BuildingFootprints"}}}, {"type": "Feature", "geometry": {"type": "Polygon", "coordinates": [[[-95.941369, 36.1091552], [-95.9412415, 36.1091201], [-95.9412342, 36.1091375], [-95.9411952, 36.1091267], [-95.9411558, 36.1092202], [-95.9413581, 36.1092758], [-95.9413451, 36.1093068], [-95.9414272, 36.1093293], [-95.9414738, 36.1092187], [-95.9413559, 36.1091863], [-95.941369, 36.1091552]]]}, "properties": {"osm_id": 1086250773, "building": "yes", "name": "", "height": null, "height_m": null, "levels": null, "tract_id": "40143004101", "tract_name": "41.01", "tags": {"building": "yes", "source": "microsoft/BuildingFootprints"}}}, {"type": "Feature", "geometry": {"type": "Polygon", "coordinates": [[[-95.9411808, 36.1088234], [-95.9411789, 36.1088667], [-95.9411607, 36.1088661], [-95.9411532, 36.1090368], [-95.9412329, 36.1090391], [-95.9412334, 36.109029], [-95.9413354, 36.109032], [-95.9413395, 36.1089383], [-95.941327, 36.108938], [-95.9413285, 36.1089037], [-95.941299, 36.1089029], [-95.9413024, 36.1088269], [-95.9411808, 36.1088234]]]}, "properties": {"osm_id": 1086250774, "building": "yes", "name": "", "height": null, "height_m": null, "levels": null, "tract_id": "40143004101", "tract_name": "41.01", "tags": {"building": "yes", "source": "microsoft/BuildingFootprints"}}}, {"type": "Feature", "geometry": {"type": "Polygon", "coordinates": [[[-95.9411664, 36.1086682], [-95.941268, 36.108745], [-95.9414702, 36.1085678], [-95.9414184, 36.1085292], [-95.9414013, 36.1085441], [-95.9413699, 36.1085207], [-95.941335, 36.1085512], [-95.9413242, 36.1085432], [-95.9412464, 36.108611], [-95.9412539, 36.1086166], [-95.9412426, 36.1086264], [-95.9412274, 36.108615], [-95.9411664, 36.1086682]]]}, "properties": {"osm_id": 1086250775, "building": "yes", "name": "", "height": null, "height_m": null, "levels": null, "tract_id": "40143004101", "tract_name": "41.01", "tags": {"building": "yes", "source": "microsoft/BuildingFootprints"}}}, {"type": "Feature", "geometry": {"type": "Polygon", "coordinates": [[[-95.940745, 36.1091803], [-95.940777, 36.1091797], [-95.940775, 36.1091102], [-95.940592, 36.1091138], [-95.940594, 36.1091833], [-95.9406213, 36.1091827], [-95.9406227, 36.1092331], [-95.9405831, 36.1092339], [-95.9405849, 36.1092959], [-95.9406251, 36.1092951], [-95.9406259, 36.1093212], [-95.940749, 36.1093188], [-95.940745, 36.1091803]]]}, "properties": {"osm_id": 1086250777, "building": "yes", "name": "", "height": null, "height_m": null, "levels": null, "tract_id": "40143004101", "tract_name": "41.01", "tags": {"building": "yes", "source": "microsoft/BuildingFootprints"}}}, {"type": "Feature", "geometry": {"type": "Polygon", "coordinates": [[[-95.9574971, 36.1107594], [-95.9574968, 36.1106942], [-95.9572986, 36.1106946], [-95.9572985, 36.1106795], [-95.9572524, 36.1106796], [-95.9572524, 36.1106973], [-95.9572463, 36.1106973], [-95.9572466, 36.1107908], [-95.9574617, 36.1107903], [-95.9574616, 36.1107595], [-95.9574971, 36.1107594]]]}, "properties": {"osm_id": 1199246187, "building": "detached", "name": "", "height": null, "height_m": null, "levels": null, "tract_id": "40143004101", "tract_name": "41.01", "tags": {"addr:city": "Tulsa", "addr:country": "US", "addr:housenumber": "2415", "addr:postcode": "74105", "addr:state": "OK", "addr:street": "East 36th Place South", "building": "detached"}}}, {"type": "Feature", "geometry": {"type": "Polygon", "coordinates": [[[-95.9422262, 36.1047456], [-95.9422825, 36.1045305], [-95.9423009, 36.1045337], [-95.9423154, 36.1044784], [-95.9424066, 36.104494], [-95.9423775, 36.1046052], [-95.9424154, 36.1046116], [-95.9423992, 36.1046733], [-95.9424548, 36.1046828], [-95.9424428, 36.1047289], [-95.942375, 36.1047173], [-95.942359, 36.1047787], [-95.9422959, 36.1047679], [-95.9422985, 36.104758], [-95.9422262, 36.1047456]]]}, "properties": {"osm_id": 1268943145, "building": "yes", "name": "", "height": null, "height_m": null, "levels": null, "tract_id": "40143004101", "tract_name": "41.01", "tags": {"building": "yes"}}}, {"type": "Feature", "geometry": {"type": "Polygon", "coordinates": [[[-95.9417085, 36.1045327], [-95.9416198, 36.1045368], [-95.9416152, 36.1044704], [-95.9417039, 36.1044663], [-95.9417085, 36.1045327]]]}, "properties": {"osm_id": 1268943146, "building": "yes", "name": "", "height": null, "height_m": null, "levels": null, "tract_id": "40143004101", "tract_name": "41.01", "tags": {"building": "yes"}}}, {"type": "Feature", "geometry": {"type": "Polygon", "coordinates": [[[-95.9418467, 36.1045733], [-95.941812, 36.1046881], [-95.9418728, 36.1047001], [-95.9418511, 36.1047717], [-95.9417415, 36.1047501], [-95.9417345, 36.1047733], [-95.941693, 36.1047651], [-95.9417, 36.1047419], [-95.9416621, 36.1047344], [-95.9417031, 36.1045987], [-95.9416824, 36.1045946], [-95.9416977, 36.104544], [-95.9418467, 36.1045733]]]}, "properties": {"osm_id": 1268943147, "building": "yes", "name": "", "height": null, "height_m": null, "levels": null, "tract_id": "40143004101", "tract_name": "41.01", "tags": {"building": "yes"}}}, {"type": "Feature", "geometry": {"type": "Polygon", "coordinates": [[[-95.9414611, 36.1047657], [-95.9413376, 36.1047825], [-95.9413391, 36.1047897], [-95.9412697, 36.1047992], [-95.9412682, 36.104792], [-95.9412029, 36.1048009], [-95.9411996, 36.104785], [-95.9411767, 36.1047881], [-95.9411608, 36.1047122], [-95.9414419, 36.1046738], [-95.9414611, 36.1047657]]]}, "properties": {"osm_id": 1268943148, "building": "yes", "name": "", "height": null, "height_m": null, "levels": null, "tract_id": "40143004101", "tract_name": "41.01", "tags": {"building": "yes"}}}, {"type": "Feature", "geometry": {"type": "Polygon", "coordinates": [[[-95.9419747, 36.1054071], [-95.942018, 36.1054927], [-95.9420053, 36.1054969], [-95.9420553, 36.1055958], [-95.9420212, 36.1056071], [-95.9420475, 36.1056591], [-95.94188, 36.1057144], [-95.9418347, 36.1056249], [-95.9418949, 36.105605], [-95.9418779, 36.1055716], [-95.9418656, 36.1055756], [-95.9418397, 36.1055243], [-95.941852, 36.1055203], [-95.9418205, 36.1054581], [-95.9419747, 36.1054071]]]}, "properties": {"osm_id": 1268943149, "building": "yes", "name": "", "height": null, "height_m": null, "levels": null, "tract_id": "40143004101", "tract_name": "41.01", "tags": {"building": "yes"}}}, {"type": "Feature", "geometry": {"type": "Polygon", "coordinates": [[[-95.9411842, 36.1057506], [-95.9411997, 36.1056269], [-95.9411845, 36.1056257], [-95.9411927, 36.1055607], [-95.9412079, 36.1055619], [-95.941213, 36.1055214], [-95.9413196, 36.1055302], [-95.9413182, 36.1055413], [-95.9413521, 36.1055441], [-95.9413336, 36.1056911], [-95.9413223, 36.1056902], [-95.9413134, 36.1057612], [-95.9411842, 36.1057506]]]}, "properties": {"osm_id": 1268943150, "building": "yes", "name": "", "height": null, "height_m": null, "levels": null, "tract_id": "40143004101", "tract_name": "41.01", "tags": {"building": "yes"}}}, {"type": "Feature", "geometry": {"type": "Polygon", "coordinates": [[[-95.9411969, 36.1059823], [-95.9411533, 36.1059819], [-95.9411539, 36.1059362], [-95.941164, 36.1059363], [-95.9411645, 36.1059004], [-95.9411848, 36.1059005], [-95.9411856, 36.1058413], [-95.9412743, 36.105842], [-95.9412725, 36.1059829], [-95.9413345, 36.1059835], [-95.941334, 36.1060235], [-95.9412854, 36.1060231], [-95.9412847, 36.1060757], [-95.9411856, 36.1060748], [-95.9411863, 36.1060198], [-95.9411964, 36.1060199], [-95.9411969, 36.1059823]]]}, "properties": {"osm_id": 1268943151, "building": "yes", "name": "", "height": null, "height_m": null, "levels": null, "tract_id": "40143004101", "tract_name": "41.01", "tags": {"building": "yes"}}}, {"type": "Feature", "geometry": {"type": "Polygon", "coordinates": [[[-95.9414269, 36.1063482], [-95.9414276, 36.1064276], [-95.9413499, 36.106428], [-95.9413498, 36.1064197], [-95.9412351, 36.1064203], [-95.9412354, 36.1064483], [-95.941134, 36.1064488], [-95.9411331, 36.1063362], [-95.9411194, 36.1063363], [-95.9411189, 36.1062798], [-95.9411299, 36.1062797], [-95.9411294, 36.1062259], [-95.9411958, 36.1062255], [-95.9411963, 36.1062794], [-95.9412219, 36.1062792], [-95.9412224, 36.1063404], [-95.9412512, 36.1063403], [-95.9412508, 36.106293], [-95.9412687, 36.1062929], [-95.9412684, 36.1062573], [-95.941347, 36.1062568], [-95.9413478, 36.1063486], [-95.9414269, 36.1063482]]]}, "properties": {"osm_id": 1268943152, "building": "yes", "name": "", "height": null, "height_m": null, "levels": null, "tract_id": "40143004101", "tract_name": "41.01", "tags": {"building": "yes"}}}, {"type": "Feature", "geometry": {"type": "Polygon", "coordinates": [[[-95.9411466, 36.107293], [-95.9411745, 36.1071916], [-95.9412557, 36.1072062], [-95.9412311, 36.1072957], [-95.9412278, 36.1073076], [-95.9411466, 36.107293]]]}, "properties": {"osm_id": 1268943153, "building": "yes", "name": "", "height": null, "height_m": null, "levels": null, "tract_id": "40143004101", "tract_name": "41.01", "tags": {"building": "yes"}}}, {"type": "Feature", "geometry": {"type": "Polygon", "coordinates": [[[-95.9414785, 36.1073401], [-95.9413697, 36.1073206], [-95.9413675, 36.1073285], [-95.9413143, 36.1073189], [-95.9413164, 36.107311], [-95.9412311, 36.1072957], [-95.9412557, 36.1072062], [-95.9412599, 36.1071908], [-95.9413238, 36.1072023], [-95.9413248, 36.1071989], [-95.9415083, 36.1072318], [-95.9414785, 36.1073401]]]}, "properties": {"osm_id": 1268943154, "building": "yes", "name": "", "height": null, "height_m": null, "levels": null, "tract_id": "40143004101", "tract_name": "41.01", "tags": {"addr:city": "Tulsa", "addr:country": "US", "addr:housenumber": "3188", "addr:postcode": "74105", "addr:state": "OK", "addr:street": "East 38th Place South", "building": "yes"}}}, {"type": "Feature", "geometry": {"type": "Polygon", "coordinates": [[[-95.9411526, 36.1068412], [-95.9412297, 36.1068246], [-95.9412338, 36.106837], [-95.94126, 36.1069166], [-95.9411829, 36.1069331], [-95.9411526, 36.1068412]]]}, "properties": {"osm_id": 1268943155, "building": "yes", "name": "", "height": null, "height_m": null, "levels": null, "tract_id": "40143004101", "tract_name": "41.01", "tags": {"building": "yes"}}}, {"type": "Feature", "geometry": {"type": "Polygon", "coordinates": [[[-95.9414933, 36.1068861], [-95.941266, 36.1069349], [-95.94126, 36.1069166], [-95.9412338, 36.106837], [-95.9413377, 36.1068147], [-95.9413319, 36.106797], [-95.9413447, 36.1067942], [-95.9413339, 36.1067613], [-95.9414445, 36.1067376], [-95.9414933, 36.1068861]]]}, "properties": {"osm_id": 1268943156, "building": "detached", "name": "", "height": null, "height_m": null, "levels": null, "tract_id": "40143004101", "tract_name": "41.01", "tags": {"addr:city": "Tulsa", "addr:country": "US", "addr:housenumber": "3177", "addr:postcode": "74105", "addr:state": "OK", "addr:street": "East 39th Street South", "building": "detached"}}}, {"type": "Feature", "geometry": {"type": "Polygon", "coordinates": [[[-95.9407812, 36.1070638], [-95.9407816, 36.1070903], [-95.9407894, 36.1070903], [-95.9407902, 36.1071337], [-95.9407977, 36.1071336], [-95.9407981, 36.1071596], [-95.9407906, 36.1071597], [-95.9407915, 36.1072079], [-95.9407837, 36.1072079], [-95.9407842, 36.1072404], [-95.9407928, 36.1072403], [-95.9407938, 36.107295], [-95.9406801, 36.1072963], [-95.9406771, 36.107125], [-95.9406509, 36.1071253], [-95.9406498, 36.1070653], [-95.9407812, 36.1070638]]]}, "properties": {"osm_id": 1268943157, "building": "yes", "name": "", "height": null, "height_m": null, "levels": null, "tract_id": "40143004101", "tract_name": "41.01", "tags": {"building": "yes"}}}, {"type": "Feature", "geometry": {"type": "Polygon", "coordinates": [[[-95.9558246, 36.1119428], [-95.9560096, 36.1119458], [-95.9560129, 36.111815], [-95.9559817, 36.1118145], [-95.9559851, 36.1116824], [-95.9558312, 36.1116799], [-95.9558246, 36.1119428]]]}, "properties": {"osm_id": 1330784505, "building": "detached", "name": "", "height": null, "height_m": null, "levels": null, "tract_id": "40143004101", "tract_name": "41.01", "tags": {"addr:city": "Tulsa", "addr:country": "US", "addr:housenumber": "3462", "addr:postcode": "74105", "addr:state": "OK", "addr:street": "South Atlanta Place East", "building": "detached"}}}, {"type": "Feature", "geometry": {"type": "Polygon", "coordinates": [[[-95.9563945, 36.1118487], [-95.9563302, 36.1118486], [-95.9563303, 36.1118031], [-95.9562525, 36.1118029], [-95.9562526, 36.1117856], [-95.9561416, 36.1117854], [-95.9561411, 36.111937], [-95.9561878, 36.1119371], [-95.9561877, 36.1119545], [-95.9562494, 36.1119546], [-95.9562494, 36.1119394], [-95.9563943, 36.1119397], [-95.9563945, 36.1118487]]]}, "properties": {"osm_id": 1330784510, "building": "detached", "name": "", "height": null, "height_m": null, "levels": null, "tract_id": "40143004101", "tract_name": "41.01", "tags": {"addr:city": "Tulsa", "addr:country": "US", "addr:housenumber": "3458", "addr:postcode": "74105", "addr:state": "OK", "addr:street": "South Atlanta Place East", "building": "detached"}}}, {"type": "Feature", "geometry": {"type": "Polygon", "coordinates": [[[-95.9556702, 36.1109763], [-95.9558181, 36.1110141], [-95.9558463, 36.110942], [-95.9558082, 36.1109323], [-95.9558306, 36.1108751], [-95.9558736, 36.1108861], [-95.9558947, 36.1108322], [-95.955724, 36.1107886], [-95.955697, 36.1108575], [-95.955715, 36.1108621], [-95.9556702, 36.1109763]]]}, "properties": {"osm_id": 1330802939, "building": "detached", "name": "", "height": null, "height_m": null, "levels": null, "tract_id": "40143004101", "tract_name": "41.01", "tags": {"addr:city": "Tulsa", "addr:country": "US", "addr:housenumber": "3618", "addr:postcode": "74105", "addr:state": "OK", "addr:street": "South Atlanta Avenue East", "building": "detached"}}}, {"type": "Feature", "geometry": {"type": "Polygon", "coordinates": [[[-95.9560032, 36.1112796], [-95.955997, 36.1113547], [-95.9563997, 36.1113765], [-95.9564126, 36.1112202], [-95.9563287, 36.1112156], [-95.9563241, 36.1112722], [-95.9562525, 36.1112683], [-95.9562505, 36.111293], [-95.9560032, 36.1112796]]]}, "properties": {"osm_id": 1330802940, "building": "detached", "name": "", "height": null, "height_m": null, "levels": null, "tract_id": "40143004101", "tract_name": "41.01", "tags": {"addr:city": "Tulsa", "addr:country": "US", "addr:housenumber": "2448", "addr:postcode": "74105", "addr:state": "OK", "addr:street": "East 36th Street South", "building": "detached"}}}, {"type": "Feature", "geometry": {"type": "Polygon", "coordinates": [[[-95.9557471, 36.1107448], [-95.9558485, 36.1107752], [-95.9559024, 36.1106579], [-95.9559472, 36.1106713], [-95.9559747, 36.1106115], [-95.9557894, 36.1105559], [-95.9557675, 36.1106035], [-95.9558067, 36.1106153], [-95.9557471, 36.1107448]]]}, "properties": {"osm_id": 1330802941, "building": "detached", "name": "", "height": null, "height_m": null, "levels": null, "tract_id": "40143004101", "tract_name": "41.01", "tags": {"addr:city": "Tulsa", "addr:country": "US", "addr:housenumber": "3626", "addr:postcode": "74105", "addr:state": "OK", "addr:street": "South Atlanta Avenue East", "building": "detached"}}}, {"type": "Feature", "geometry": {"type": "Polygon", "coordinates": [[[-95.955921, 36.1112292], [-95.9559148, 36.111353], [-95.9559934, 36.1113556], [-95.9559997, 36.1112318], [-95.955921, 36.1112292]]]}, "properties": {"osm_id": 1330802942, "building": "garage", "name": "", "height": null, "height_m": null, "levels": null, "tract_id": "40143004101", "tract_name": "41.01", "tags": {"building": "garage"}}}, {"type": "Feature", "geometry": {"type": "Polygon", "coordinates": [[[-95.9563519, 36.1109535], [-95.9563351, 36.1110246], [-95.9562944, 36.1110183], [-95.9562788, 36.1110845], [-95.9563152, 36.1110901], [-95.9563007, 36.1111514], [-95.9564318, 36.1111716], [-95.9564501, 36.1110943], [-95.9564449, 36.1110935], [-95.9564736, 36.1109723], [-95.9563519, 36.1109535]]]}, "properties": {"osm_id": 1330802943, "building": "detached", "name": "", "height": null, "height_m": null, "levels": null, "tract_id": "40143004101", "tract_name": "41.01", "tags": {"addr:city": "Tulsa", "addr:country": "US", "addr:housenumber": "3607", "addr:postcode": "74105", "addr:state": "OK", "addr:street": "South Lewis Place East", "building": "detached"}}}, {"type": "Feature", "geometry": {"type": "Polygon", "coordinates": [[[-95.9554792, 36.1117062], [-95.9553711, 36.1116868], [-95.9553594, 36.1117292], [-95.9553476, 36.1117271], [-95.955328, 36.1117984], [-95.9553399, 36.1118005], [-95.9553144, 36.1118938], [-95.9554237, 36.1119134], [-95.9554442, 36.1118387], [-95.9554709, 36.1118434], [-95.9554979, 36.1117448], [-95.95547, 36.1117398], [-95.9554792, 36.1117062]]]}, "properties": {"osm_id": 1330805189, "building": "detached", "name": "", "height": null, "height_m": null, "levels": null, "tract_id": "40143004101", "tract_name": "41.01", "tags": {"addr:city": "Tulsa", "addr:country": "US", "addr:housenumber": "3466", "addr:postcode": "74105", "addr:state": "OK", "addr:street": "South Atlanta Place East", "building": "detached"}}}, {"type": "Feature", "geometry": {"type": "Polygon", "coordinates": [[[-95.9548511, 36.1103586], [-95.9548739, 36.1104243], [-95.9548982, 36.1104188], [-95.9549155, 36.1104684], [-95.9549282, 36.1104655], [-95.954955, 36.1105424], [-95.9550729, 36.1105157], [-95.9550395, 36.1104193], [-95.9551467, 36.110395], [-95.9551067, 36.1102799], [-95.9550912, 36.1102834], [-95.955081, 36.1102539], [-95.9549957, 36.1102732], [-95.9550074, 36.1103069], [-95.9549107, 36.1103288], [-95.9549159, 36.1103439], [-95.9548511, 36.1103586]]]}, "properties": {"osm_id": 1330805190, "building": "detached", "name": "", "height": null, "height_m": null, "levels": null, "tract_id": "40143004101", "tract_name": "41.01", "tags": {"addr:city": "Tulsa", "addr:country": "US", "addr:housenumber": "3634", "addr:postcode": "74105", "addr:state": "OK", "addr:street": "South Atlanta Place East", "building": "detached"}}}, {"type": "Feature", "geometry": {"type": "Polygon", "coordinates": [[[-95.9550552, 36.1107016], [-95.9553047, 36.1107519], [-95.9553193, 36.1107045], [-95.9553445, 36.1107096], [-95.9553664, 36.1106386], [-95.9550918, 36.1105832], [-95.9550552, 36.1107016]]]}, "properties": {"osm_id": 1330805191, "building": "detached", "name": "", "height": null, "height_m": null, "levels": null, "tract_id": "40143004101", "tract_name": "41.01", "tags": {"addr:city": "Tulsa", "addr:country": "US", "addr:housenumber": "3624", "addr:postcode": "74105", "addr:state": "OK", "addr:street": "South Atlanta Place East", "building": "detached"}}}, {"type": "Feature", "geometry": {"type": "Polygon", "coordinates": [[[-95.9558025, 36.1099826], [-95.9558776, 36.1099831], [-95.9558791, 36.1098402], [-95.9558041, 36.1098396], [-95.9558025, 36.1099826]]]}, "properties": {"osm_id": 1330805192, "building": "yes", "name": "", "height": null, "height_m": null, "levels": null, "tract_id": "40143004101", "tract_name": "41.01", "tags": {"building": "yes"}}}, {"type": "Feature", "geometry": {"type": "Polygon", "coordinates": [[[-95.9556717, 36.1099971], [-95.9556725, 36.1100304], [-95.9557636, 36.110029], [-95.9557603, 36.109886], [-95.9557121, 36.1098868], [-95.9557111, 36.1098448], [-95.9556344, 36.1098459], [-95.9556352, 36.1098806], [-95.9555816, 36.1098814], [-95.9555821, 36.1099017], [-95.955389, 36.1099046], [-95.9553912, 36.1100013], [-95.9556717, 36.1099971]]]}, "properties": {"osm_id": 1330805193, "building": "detached", "name": "", "height": null, "height_m": null, "levels": null, "tract_id": "40143004101", "tract_name": "41.01", "tags": {"addr:city": "Tulsa", "addr:country": "US", "addr:housenumber": "2460", "addr:postcode": "74105", "addr:state": "OK", "addr:street": "East 36th Place South", "building": "detached"}}}, {"type": "Feature", "geometry": {"type": "Polygon", "coordinates": [[[-95.9554067, 36.1104416], [-95.9552909, 36.1102965], [-95.9552582, 36.1103135], [-95.9552426, 36.1102938], [-95.955172, 36.1103305], [-95.9551877, 36.1103502], [-95.9551817, 36.1103533], [-95.9552972, 36.1104985], [-95.9554067, 36.1104416]]]}, "properties": {"osm_id": 1330805194, "building": "detached", "name": "", "height": null, "height_m": null, "levels": null, "tract_id": "40143004101", "tract_name": "41.01", "tags": {"addr:city": "Tulsa", "addr:country": "US", "addr:housenumber": "2505", "addr:postcode": "74105", "addr:state": "OK", "addr:street": "East 36th Place South", "building": "detached"}}}, {"type": "Feature", "geometry": {"type": "Polygon", "coordinates": [[[-95.9576934, 36.1102594], [-95.9576263, 36.1102599], [-95.9576272, 36.11034], [-95.9577747, 36.1103389], [-95.9577737, 36.1102458], [-95.9578193, 36.1102454], [-95.9578183, 36.1101631], [-95.9577915, 36.1101633], [-95.9577908, 36.1100983], [-95.9577055, 36.1100989], [-95.957706, 36.1101424], [-95.957692, 36.1101425], [-95.9576934, 36.1102594]]]}, "properties": {"osm_id": 1330805196, "building": "yes", "name": "", "height": null, "height_m": null, "levels": null, "tract_id": "40143004101", "tract_name": "41.01", "tags": {"addr:city": "Tulsa", "addr:country": "US", "addr:housenumber": "3637", "addr:postcode": "74105", "addr:state": "OK", "addr:street": "South Lewis Avenue East", "building": "yes"}}}, {"type": "Feature", "geometry": {"type": "Polygon", "coordinates": [[[-95.9562642, 36.1099135], [-95.9563365, 36.109912], [-95.9563361, 36.1098969], [-95.956395, 36.1098957], [-95.9563922, 36.1098047], [-95.9563305, 36.109806], [-95.9563295, 36.1097735], [-95.9562598, 36.1097749], [-95.9562642, 36.1099135]]]}, "properties": {"osm_id": 1330805197, "building": "detached", "name": "", "height": null, "height_m": null, "levels": null, "tract_id": "40143004101", "tract_name": "41.01", "tags": {"addr:city": "Tulsa", "addr:country": "US", "addr:housenumber": "2440", "addr:postcode": "74105", "addr:state": "OK", "addr:street": "East 36th Place South", "building": "detached"}}}, {"type": "Feature", "geometry": {"type": "Polygon", "coordinates": [[[-95.9566272, 36.1099328], [-95.956534, 36.1101181], [-95.956624, 36.1101477], [-95.9566404, 36.1101151], [-95.9568621, 36.110188], [-95.9568894, 36.1101338], [-95.9568324, 36.1101151], [-95.9568455, 36.1100891], [-95.9567127, 36.1100454], [-95.956732, 36.1100071], [-95.9566842, 36.1099914], [-95.9567014, 36.1099572], [-95.9566272, 36.1099328]]]}, "properties": {"osm_id": 1330805199, "building": "detached", "name": "", "height": null, "height_m": null, "levels": null, "tract_id": "40143004101", "tract_name": "41.01", "tags": {"addr:city": "Tulsa", "addr:country": "US", "addr:housenumber": "2428", "addr:postcode": "74105", "addr:state": "OK", "addr:street": "East 36th Place South", "building": "detached"}}}, {"type": "Feature", "geometry": {"type": "Polygon", "coordinates": [[[-95.9572461, 36.1103245], [-95.9572428, 36.1101502], [-95.9571506, 36.1101514], [-95.957152, 36.1102259], [-95.9569643, 36.1102283], [-95.9569662, 36.110327], [-95.9570386, 36.1103261], [-95.9570389, 36.1103456], [-95.9571167, 36.1103447], [-95.9571164, 36.1103261], [-95.9572461, 36.1103245]]]}, "properties": {"osm_id": 1330805202, "building": "yes", "name": "", "height": null, "height_m": null, "levels": null, "tract_id": "40143004101", "tract_name": "41.01", "tags": {"addr:city": "Tulsa", "addr:country": "US", "addr:housenumber": "2424", "addr:postcode": "74105", "addr:state": "OK", "addr:street": "East 36th Place South", "building": "yes"}}}, {"type": "Feature", "geometry": {"type": "Polygon", "coordinates": [[[-95.9566438, 36.1099272], [-95.9567012, 36.109942], [-95.9567188, 36.1098976], [-95.9566614, 36.1098827], [-95.9566438, 36.1099272]]]}, "properties": {"osm_id": 1330805203, "building": "yes", "name": "", "height": null, "height_m": null, "levels": null, "tract_id": "40143004101", "tract_name": "41.01", "tags": {"building": "yes"}}}, {"type": "Feature", "geometry": {"type": "Polygon", "coordinates": [[[-95.9559609, 36.1099899], [-95.9560387, 36.1099889], [-95.9560361, 36.1098587], [-95.9561155, 36.1098577], [-95.9561139, 36.1097769], [-95.9559568, 36.1097789], [-95.9559609, 36.1099899]]]}, "properties": {"osm_id": 1330805204, "building": "detached", "name": "", "height": null, "height_m": null, "levels": null, "tract_id": "40143004101", "tract_name": "41.01", "tags": {"addr:city": "Tulsa", "addr:country": "US", "addr:housenumber": "2444", "addr:postcode": "74105", "addr:state": "OK", "addr:street": "East 36th Place South", "building": "detached"}}}, {"type": "Feature", "geometry": {"type": "Polygon", "coordinates": [[[-95.9573207, 36.110143], [-95.9573201, 36.1103424], [-95.957422, 36.1103426], [-95.9574221, 36.1103057], [-95.9574935, 36.1103059], [-95.9574934, 36.1103405], [-95.9575819, 36.1103407], [-95.9575823, 36.1102085], [-95.9575488, 36.1102085], [-95.957549, 36.1101431], [-95.9575228, 36.110143], [-95.9575229, 36.1101161], [-95.9574431, 36.1101159], [-95.9574429, 36.1101844], [-95.9573983, 36.1101843], [-95.9573985, 36.1101432], [-95.9573207, 36.110143]]]}, "properties": {"osm_id": 1330805205, "building": "yes", "name": "", "height": null, "height_m": null, "levels": null, "tract_id": "40143004101", "tract_name": "41.01", "tags": {"addr:city": "Tulsa", "addr:country": "US", "addr:housenumber": "2416", "addr:postcode": "74105", "addr:state": "OK", "addr:street": "East 36th Place South", "building": "yes"}}}]}