{"type": "FeatureCollection", "features": [{"type": "Feature", "geometry": {"type": "Polygon", "coordinates": [[[-96.9315538, 35.3524544], [-96.9314132, 35.3524531], [-96.9314181, 35.3521084], [-96.9315091, 35.3521093], [-96.9315587, 35.3521098], [-96.9315538, 35.3524544]]]}, "properties": {"osm_id": 1006882199, "building": "yes", "name": "", "height": null, "height_m": null, "levels": null, "tract_id": "40125500500", "tract_name": "5005", "tags": {"addr:city": "Shawnee", "addr:housenumber": "522", "addr:postcode": "74804", "addr:state": "OK", "addr:street": "West Saratoga Street", "building": "yes"}}}, {"type": "Feature", "geometry": {"type": "Polygon", "coordinates": [[[-96.9353111, 35.3528778], [-96.9355907, 35.3526392], [-96.9357648, 35.3527749], [-96.9356576, 35.3528664], [-96.9356894, 35.3528912], [-96.9355613, 35.3530005], [-96.9355224, 35.3529702], [-96.9354781, 35.353008], [-96.9353906, 35.3529484], [-96.9353111, 35.3528778]]]}, "properties": {"osm_id": 1118687126, "building": "yes", "name": "Shawnee Little Theatre Inc", "height": null, "height_m": null, "levels": null, "tract_id": "40125500500", "tract_name": "5005", "tags": {"addr:state": "OK", "amenity": "theatre", "building": "yes", "name": "Shawnee Little Theatre Inc"}}}, {"type": "Feature", "geometry": {"type": "Polygon", "coordinates": [[[-96.9307992, 35.3361898], [-96.9307989, 35.3362172], [-96.9307289, 35.336217], [-96.9307288, 35.3362427], [-96.9304183, 35.3362419], [-96.9304184, 35.3362184], [-96.9302975, 35.3362181], [-96.9302965, 35.336473], [-96.9304143, 35.3364733], [-96.9304144, 35.336448], [-96.9307862, 35.336449], [-96.9307855, 35.3366117], [-96.9310327, 35.336612], [-96.9310325, 35.3362603], [-96.9310172, 35.3362603], [-96.9310172, 35.3361897], [-96.9307992, 35.3361898]]]}, "properties": {"osm_id": 1153896470, "building": "yes", "name": "", "height": null, "height_m": null, "levels": null, "tract_id": "40125500500", "tract_name": "5005", "tags": {"building": "yes"}}}, {"type": "Feature", "geometry": {"type": "Polygon", "coordinates": [[[-96.930776, 35.3362052], [-96.9304514, 35.3362055], [-96.9304498, 35.3360221], [-96.9301482, 35.3360238], [-96.9301481, 35.3360047], [-96.9301301, 35.3360049], [-96.9301187, 35.335989], [-96.9301185, 35.3359692], [-96.9301048, 35.3359693], [-96.9301044, 35.3359223], [-96.9301161, 35.3359222], [-96.9301159, 35.3358998], [-96.9301307, 35.3358845], [-96.9305143, 35.33588], [-96.9305142, 35.3358644], [-96.9305768, 35.3358664], [-96.9305765, 35.3358342], [-96.9307501, 35.3358332], [-96.9307506, 35.3358934], [-96.930799, 35.3358931], [-96.930799, 35.3359375], [-96.9307725, 35.3359377], [-96.9307738, 35.3360863], [-96.9307501, 35.3360865], [-96.9307506, 35.3361447], [-96.9304968, 35.3361462], [-96.9304969, 35.3361583], [-96.9307763, 35.3361572], [-96.9307926, 35.3361734], [-96.9307926, 35.3361914], [-96.930776, 35.3362052]]]}, "properties": {"osm_id": 1153896471, "building": "church", "name": "", "height": null, "height_m": null, "levels": null, "tract_id": "40125500500", "tract_name": "5005", "tags": {"addr:city": "Shawnee", "addr:housenumber": "632", "addr:postcode": "74801", "addr:state": "OK", "addr:street": "North Kickapoo Street", "building": "church"}}}, {"type": "Feature", "geometry": {"type": "Polygon", "coordinates": [[[-96.9361307, 35.359217], [-96.9367832, 35.3592104], [-96.9368543, 35.3591723], [-96.9369133, 35.3591723], [-96.9369621, 35.3591922], [-96.9370312, 35.3592684], [-96.9370312, 35.359668], [-96.9362343, 35.3596729], [-96.9362465, 35.3598835], [-96.9355818, 35.3598934], [-96.9355839, 35.3598603], [-96.9354904, 35.3598603], [-96.9354904, 35.3597326], [-96.9354253, 35.3597359], [-96.9354253, 35.3596099], [-96.9354883, 35.3596066], [-96.9354924, 35.3594525], [-96.9354314, 35.3594475], [-96.9354192, 35.3591938], [-96.9356184, 35.3591938], [-96.9356144, 35.3592817], [-96.9361307, 35.3592784], [-96.9361307, 35.359217]]]}, "properties": {"osm_id": 1187198970, "building": "university", "name": "Noble Complex for Athletics", "height": null, "height_m": null, "levels": null, "tract_id": "40125500500", "tract_name": "5005", "tags": {"addr:city": "Shawnee", "addr:housenumber": "500", "addr:postcode": "74804", "addr:state": "OK", "addr:street": "West University Street", "building": "university", "layer": "1", "name": "Noble Complex for Athletics"}}}, {"type": "Feature", "geometry": {"type": "Polygon", "coordinates": [[[-96.932511, 35.3444387], [-96.9325091, 35.3447636], [-96.9323857, 35.3447631], [-96.9323876, 35.3444382], [-96.932511, 35.3444387]]]}, "properties": {"osm_id": 1207893096, "building": "yes", "name": "", "height": null, "height_m": null, "levels": null, "tract_id": "40125500500", "tract_name": "5005", "tags": {"building": "yes"}}}, {"type": "Feature", "geometry": {"type": "Polygon", "coordinates": [[[-96.9336035, 35.3456701], [-96.9338068, 35.3456679], [-96.9338125, 35.3460183], [-96.9336092, 35.3460205], [-96.9336035, 35.3456701]]]}, "properties": {"osm_id": 1207893097, "building": "yes", "name": "", "height": null, "height_m": null, "levels": null, "tract_id": "40125500500", "tract_name": "5005", "tags": {"building": "yes"}}}, {"type": "Feature", "geometry": {"type": "Polygon", "coordinates": [[[-96.9331085, 35.3458883], [-96.9329777, 35.3458875], [-96.9329796, 35.3456701], [-96.9331104, 35.3456709], [-96.9331085, 35.3458883]]]}, "properties": {"osm_id": 1207893098, "building": "yes", "name": "", "height": null, "height_m": null, "levels": null, "tract_id": "40125500500", "tract_name": "5005", "tags": {"building": "yes"}}}, {"type": "Feature", "geometry": {"type": "Polygon", "coordinates": [[[-96.933466, 35.3457018], [-96.9334641, 35.345978], [-96.9332932, 35.3459772], [-96.9332951, 35.3457011], [-96.933466, 35.3457018]]]}, "properties": {"osm_id": 1207893099, "building": "yes", "name": "", "height": null, "height_m": null, "levels": null, "tract_id": "40125500500", "tract_name": "5005", "tags": {"building": "yes"}}}, {"type": "Feature", "geometry": {"type": "Polygon", "coordinates": [[[-96.9335864, 35.3464885], [-96.9337943, 35.3464875], [-96.9337981, 35.3469918], [-96.9335902, 35.3469928], [-96.9335864, 35.3464885]]]}, "properties": {"osm_id": 1207893100, "building": "yes", "name": "", "height": null, "height_m": null, "levels": null, "tract_id": "40125500500", "tract_name": "5005", "tags": {"building": "yes"}}}, {"type": "Feature", "geometry": {"type": "Polygon", "coordinates": [[[-96.933063, 35.3469773], [-96.9328954, 35.34698], [-96.932884, 35.346502], [-96.9330516, 35.3464993], [-96.933063, 35.3469773]]]}, "properties": {"osm_id": 1207893101, "building": "yes", "name": "", "height": null, "height_m": null, "levels": null, "tract_id": "40125500500", "tract_name": "5005", "tags": {"building": "yes"}}}, {"type": "Feature", "geometry": {"type": "Polygon", "coordinates": [[[-96.9333607, 35.3464761], [-96.9333607, 35.3469897], [-96.9331521, 35.3469897], [-96.9331521, 35.3464761], [-96.9333607, 35.3464761]]]}, "properties": {"osm_id": 1207893102, "building": "yes", "name": "", "height": null, "height_m": null, "levels": null, "tract_id": "40125500500", "tract_name": "5005", "tags": {"building": "yes"}}}, {"type": "Feature", "geometry": {"type": "Polygon", "coordinates": [[[-96.9350032, 35.3479891], [-96.9350022, 35.3477168], [-96.9351169, 35.3477165], [-96.9351178, 35.3479888], [-96.9350032, 35.3479891]]]}, "properties": {"osm_id": 1207893103, "building": "yes", "name": "", "height": null, "height_m": null, "levels": null, "tract_id": "40125500500", "tract_name": "5005", "tags": {"building": "yes"}}}, {"type": "Feature", "geometry": {"type": "Polygon", "coordinates": [[[-96.9346046, 35.3477206], [-96.9346054, 35.3476388], [-96.9347958, 35.3476399], [-96.9347951, 35.3477217], [-96.9346046, 35.3477206]]]}, "properties": {"osm_id": 1207893104, "building": "yes", "name": "", "height": null, "height_m": null, "levels": null, "tract_id": "40125500500", "tract_name": "5005", "tags": {"building": "yes"}}}, {"type": "Feature", "geometry": {"type": "Polygon", "coordinates": [[[-96.9352444, 35.3473783], [-96.9354521, 35.3473788], [-96.9354508, 35.3477092], [-96.935243, 35.3477086], [-96.9352444, 35.3473783]]]}, "properties": {"osm_id": 1207893105, "building": "yes", "name": "", "height": null, "height_m": null, "levels": null, "tract_id": "40125500500", "tract_name": "5005", "tags": {"building": "yes"}}}, {"type": "Feature", "geometry": {"type": "Polygon", "coordinates": [[[-96.9337476, 35.3474739], [-96.9337476, 35.3482613], [-96.9335295, 35.3482613], [-96.9335295, 35.3474739], [-96.9337476, 35.3474739]]]}, "properties": {"osm_id": 1207893106, "building": "yes", "name": "", "height": null, "height_m": null, "levels": null, "tract_id": "40125500500", "tract_name": "5005", "tags": {"building": "yes"}}}, {"type": "Feature", "geometry": {"type": "Polygon", "coordinates": [[[-96.9392382, 35.3599515], [-96.9392395, 35.3594976], [-96.9394622, 35.359498], [-96.9394608, 35.3599519], [-96.9392382, 35.3599515]]]}, "properties": {"osm_id": 1207893124, "building": "yes", "name": "", "height": null, "height_m": null, "levels": null, "tract_id": "40125500500", "tract_name": "5005", "tags": {"building": "yes", "office": "company"}}}, {"type": "Feature", "geometry": {"type": "Polygon", "coordinates": [[[-96.9389965, 35.3592077], [-96.9389947, 35.3589504], [-96.9393285, 35.3589489], [-96.9393303, 35.3592062], [-96.9389965, 35.3592077]]]}, "properties": {"osm_id": 1207893125, "building": "yes", "name": "", "height": null, "height_m": null, "levels": null, "tract_id": "40125500500", "tract_name": "5005", "tags": {"building": "yes", "office": "company"}}}, {"type": "Feature", "geometry": {"type": "Polygon", "coordinates": [[[-96.9401984, 35.3560971], [-96.9403939, 35.3560934], [-96.9403974, 35.3562142], [-96.9404006, 35.3563253], [-96.940236, 35.3563284], [-96.9402051, 35.356329], [-96.9402016, 35.3562086], [-96.9401984, 35.3560971]]]}, "properties": {"osm_id": 1207893126, "building": "transportation", "name": "Shawnee Regional Airport", "height": null, "height_m": null, "levels": null, "tract_id": "40125500500", "tract_name": "5005", "tags": {"addr:city": "Shawnee", "addr:country": "US", "addr:housenumber": "2022", "addr:postcode": "74804", "addr:state": "OK", "addr:street": "Airport Drive", "aeroway": "terminal", "building": "transportation", "name": "Shawnee Regional Airport"}}}, {"type": "Feature", "geometry": {"type": "Polygon", "coordinates": [[[-96.9403251, 35.356514], [-96.9406571, 35.3565587], [-96.9405927, 35.3568773], [-96.9402606, 35.3568326], [-96.9402926, 35.3566747], [-96.9403251, 35.356514]]]}, "properties": {"osm_id": 1207893127, "building": "yes", "name": "", "height": null, "height_m": null, "levels": null, "tract_id": "40125500500", "tract_name": "5005", "tags": {"building": "yes"}}}, {"type": "Feature", "geometry": {"type": "Polygon", "coordinates": [[[-96.9393312, 35.357439], [-96.9395285, 35.3572073], [-96.9396819, 35.3572942], [-96.9398263, 35.3573759], [-96.939629, 35.3576076], [-96.9393312, 35.357439]]]}, "properties": {"osm_id": 1207893128, "building": "hangar", "name": "", "height": null, "height_m": null, "levels": null, "tract_id": "40125500500", "tract_name": "5005", "tags": {"building": "hangar"}}}, {"type": "Feature", "geometry": {"type": "Polygon", "coordinates": [[[-96.9401923, 35.3579958], [-96.9398357, 35.3577917], [-96.9400684, 35.3575215], [-96.9402812, 35.3576433], [-96.9404249, 35.3577256], [-96.9401923, 35.3579958]]]}, "properties": {"osm_id": 1207893129, "building": "hangar", "name": "", "height": null, "height_m": null, "levels": null, "tract_id": "40125500500", "tract_name": "5005", "tags": {"building": "hangar"}}}, {"type": "Feature", "geometry": {"type": "Polygon", "coordinates": [[[-96.9300673, 35.3342539], [-96.930072, 35.3341615], [-96.9302777, 35.3341685], [-96.930273, 35.3342608], [-96.9300673, 35.3342539]]]}, "properties": {"osm_id": 1207893130, "building": "yes", "name": "", "height": null, "height_m": null, "levels": null, "tract_id": "40125500500", "tract_name": "5005", "tags": {"building": "yes"}}}, {"type": "Feature", "geometry": {"type": "Polygon", "coordinates": [[[-96.9304599, 35.3345432], [-96.9303736, 35.3345424], [-96.9303745, 35.3344729], [-96.9304608, 35.3344736], [-96.9304599, 35.3345432]]]}, "properties": {"osm_id": 1207893131, "building": "yes", "name": "", "height": null, "height_m": null, "levels": null, "tract_id": "40125500500", "tract_name": "5005", "tags": {"building": "yes"}}}, {"type": "Feature", "geometry": {"type": "Polygon", "coordinates": [[[-96.9317072, 35.3344858], [-96.9317085, 35.3345432], [-96.9316465, 35.3345442], [-96.9316451, 35.3344868], [-96.9317072, 35.3344858]]]}, "properties": {"osm_id": 1207893132, "building": "yes", "name": "", "height": null, "height_m": null, "levels": null, "tract_id": "40125500500", "tract_name": "5005", "tags": {"building": "yes"}}}, {"type": "Feature", "geometry": {"type": "Polygon", "coordinates": [[[-96.9317058, 35.334343], [-96.9316381, 35.334343], [-96.9316381, 35.3342752], [-96.9317058, 35.3342752], [-96.9317058, 35.334343]]]}, "properties": {"osm_id": 1207893133, "building": "yes", "name": "", "height": null, "height_m": null, "levels": null, "tract_id": "40125500500", "tract_name": "5005", "tags": {"building": "yes"}}}, {"type": "Feature", "geometry": {"type": "Polygon", "coordinates": [[[-96.9334285, 35.3332221], [-96.9332153, 35.3332276], [-96.9332116, 35.3331314], [-96.9334248, 35.3331259], [-96.9334285, 35.3332221]]]}, "properties": {"osm_id": 1207893134, "building": "yes", "name": "", "height": null, "height_m": null, "levels": null, "tract_id": "40125500500", "tract_name": "5005", "tags": {"building": "yes"}}}, {"type": "Feature", "geometry": {"type": "Polygon", "coordinates": [[[-96.9334555, 35.3327314], [-96.9334499, 35.3329542], [-96.9332736, 35.3329512], [-96.9332793, 35.3327284], [-96.9334555, 35.3327314]]]}, "properties": {"osm_id": 1207893135, "building": "yes", "name": "", "height": null, "height_m": null, "levels": null, "tract_id": "40125500500", "tract_name": "5005", "tags": {"building": "yes"}}}, {"type": "Feature", "geometry": {"type": "Polygon", "coordinates": [[[-96.9320539, 35.3320843], [-96.9320565, 35.3319749], [-96.9321654, 35.3319767], [-96.9321627, 35.3320861], [-96.9320539, 35.3320843]]]}, "properties": {"osm_id": 1207893136, "building": "yes", "name": "", "height": null, "height_m": null, "levels": null, "tract_id": "40125500500", "tract_name": "5005", "tags": {"building": "yes"}}}, {"type": "Feature", "geometry": {"type": "Polygon", "coordinates": [[[-96.9319814, 35.3322079], [-96.9319845, 35.3321192], [-96.9321749, 35.3321236], [-96.9321719, 35.3322123], [-96.9319814, 35.3322079]]]}, "properties": {"osm_id": 1207893137, "building": "yes", "name": "", "height": null, "height_m": null, "levels": null, "tract_id": "40125500500", "tract_name": "5005", "tags": {"building": "yes"}}}, {"type": "Feature", "geometry": {"type": "Polygon", "coordinates": [[[-96.9326976, 35.3323742], [-96.9324978, 35.3323753], [-96.9324971, 35.3322879], [-96.9326969, 35.3322868], [-96.9326976, 35.3323742]]]}, "properties": {"osm_id": 1207893138, "building": "yes", "name": "", "height": null, "height_m": null, "levels": null, "tract_id": "40125500500", "tract_name": "5005", "tags": {"building": "yes"}}}, {"type": "Feature", "geometry": {"type": "Polygon", "coordinates": [[[-96.931728, 35.3292166], [-96.9317946, 35.3291566], [-96.9319354, 35.3292605], [-96.9318688, 35.3293206], [-96.931728, 35.3292166]]]}, "properties": {"osm_id": 1207893157, "building": "yes", "name": "", "height": null, "height_m": null, "levels": null, "tract_id": "40125500500", "tract_name": "5005", "tags": {"building": "yes"}}}, {"type": "Feature", "geometry": {"type": "Polygon", "coordinates": [[[-96.9404559, 35.3484874], [-96.9404586, 35.3484442], [-96.9404957, 35.3484458], [-96.940493, 35.348489], [-96.9404559, 35.3484874]]]}, "properties": {"osm_id": 1222811256, "building": "yes", "name": "", "height": null, "height_m": null, "levels": null, "tract_id": "40125500500", "tract_name": "5005", "tags": {"building": "yes"}}}, {"type": "Feature", "geometry": {"type": "Polygon", "coordinates": [[[-96.9404478, 35.3485864], [-96.9404485, 35.3485356], [-96.9404874, 35.3485359], [-96.9404868, 35.3485868], [-96.9404478, 35.3485864]]]}, "properties": {"osm_id": 1222811257, "building": "yes", "name": "", "height": null, "height_m": null, "levels": null, "tract_id": "40125500500", "tract_name": "5005", "tags": {"building": "yes"}}}, {"type": "Feature", "geometry": {"type": "Polygon", "coordinates": [[[-96.9401112, 35.3611338], [-96.939446, 35.3611381], [-96.9394472, 35.3611239], [-96.9393857, 35.3611243], [-96.9393389, 35.3610851], [-96.9393372, 35.361036], [-96.9392779, 35.3610364], [-96.939273, 35.3605396], [-96.9394458, 35.3605385], [-96.9394475, 35.3607105], [-96.940107, 35.3607061], [-96.9401112, 35.3611338]]]}, "properties": {"osm_id": 1222811282, "building": "hangar", "name": "", "height": null, "height_m": null, "levels": null, "tract_id": "40125500500", "tract_name": "5005", "tags": {"building": "hangar", "office": "company"}}}, {"type": "Feature", "geometry": {"type": "Polygon", "coordinates": [[[-96.9394434, 35.3571537], [-96.9390625, 35.3576131], [-96.9387477, 35.3574395], [-96.9391286, 35.3569801], [-96.9394434, 35.3571537]]]}, "properties": {"osm_id": 1222811329, "building": "hangar", "name": "", "height": null, "height_m": null, "levels": null, "tract_id": "40125500500", "tract_name": "5005", "tags": {"building": "hangar"}}}, {"type": "Feature", "geometry": {"type": "Polygon", "coordinates": [[[-96.9342573, 35.3607243], [-96.9342582, 35.3606514], [-96.9344502, 35.3606536], [-96.9344493, 35.3605107], [-96.9342201, 35.3605107], [-96.9342308, 35.3601629], [-96.93416, 35.36016], [-96.9341635, 35.3601081], [-96.9338839, 35.3600994], [-96.9338839, 35.3601586], [-96.9338273, 35.3601586], [-96.933822, 35.3605107], [-96.9336187, 35.3605136], [-96.9336212, 35.36066], [-96.9338052, 35.3606543], [-96.9338052, 35.360725], [-96.9342573, 35.3607243]]]}, "properties": {"osm_id": 1223258606, "building": "chapel", "name": "Raley Chapel", "height": null, "height_m": null, "levels": null, "tract_id": "40125500500", "tract_name": "5005", "tags": {"addr:city": "Shawnee", "addr:housenumber": "500", "addr:postcode": "74804", "addr:state": "OK", "addr:street": "W University", "building": "chapel", "name": "Raley Chapel"}}}]}