{"type": "FeatureCollection", "features": [{"type": "Feature", "geometry": {"type": "Polygon", "coordinates": [[[-97.067162, 36.6989779], [-97.0671649, 36.6991657], [-97.0670226, 36.6991671], [-97.0670196, 36.6989793], [-97.067162, 36.6989779]]]}, "properties": {"osm_id": 256241707, "building": "roof", "name": "Valero", "height": null, "height_m": null, "levels": null, "tract_id": "40071000300", "tract_name": "3", "tags": {"amenity": "fuel", "brand": "Valero", "brand:wikidata": "Q1283291", "building": "roof", "name": "Valero"}}}, {"type": "Feature", "geometry": {"type": "Polygon", "coordinates": [[[-97.0666766, 36.6956704], [-97.0666731, 36.6959789], [-97.066529, 36.6959778], [-97.0665326, 36.6956694], [-97.0666766, 36.6956704]]]}, "properties": {"osm_id": 256241709, "building": "roof", "name": "Conoco", "height": null, "height_m": null, "levels": null, "tract_id": "40071000300", "tract_name": "3", "tags": {"amenity": "fuel", "brand": "Conoco", "brand:wikidata": "Q1126518", "building": "roof", "layer": "1", "name": "Conoco"}}}, {"type": "Feature", "geometry": {"type": "Polygon", "coordinates": [[[-97.0671412, 36.7010429], [-97.0667133, 36.7010388], [-97.0667236, 36.7003445], [-97.0668764, 36.700346], [-97.0668677, 36.7009298], [-97.0671428, 36.7009324], [-97.0671412, 36.7010429]]]}, "properties": {"osm_id": 256241710, "building": "yes", "name": "Regal Inn", "height": null, "height_m": null, "levels": null, "tract_id": "40071000300", "tract_name": "3", "tags": {"addr:city": "Ponca City", "addr:housenumber": "301", "addr:postcode": "74601", "addr:state": "OK", "addr:street": "South 14th Street", "building": "yes", "name": "Regal Inn", "tourism": "motel"}}}, {"type": "Feature", "geometry": {"type": "Polygon", "coordinates": [[[-97.0663064, 36.6959864], [-97.0661505, 36.6959897], [-97.0661401, 36.6956724], [-97.066296, 36.6956691], [-97.0663064, 36.6959864]]]}, "properties": {"osm_id": 256241712, "building": "retail", "name": "Stop-N-Go", "height": null, "height_m": null, "levels": null, "tract_id": "40071000300", "tract_name": "3", "tags": {"addr:city": "Ponca City", "addr:housenumber": "801", "addr:postcode": "74601", "addr:state": "OK", "addr:street": "South 14th Street", "building": "retail", "check_date": "2024-12-18", "name": "Stop-N-Go", "shop": "convenience", "source": "Bing"}}}, {"type": "Feature", "geometry": {"type": "Polygon", "coordinates": [[[-97.0609361, 36.7171169], [-97.0609237, 36.717014], [-97.0609997, 36.7170082], [-97.0609916, 36.7169411], [-97.0609098, 36.7169474], [-97.0609004, 36.716869], [-97.0607357, 36.7168816], [-97.0607378, 36.7168993], [-97.0605792, 36.7169115], [-97.0605765, 36.7168889], [-97.060436, 36.7168997], [-97.06046, 36.7171002], [-97.0606154, 36.7170882], [-97.0606114, 36.7170546], [-97.0607501, 36.7170439], [-97.0607604, 36.7171304], [-97.0609361, 36.7171169]]]}, "properties": {"osm_id": 677107402, "building": "yes", "name": "Marland Mansion", "height": null, "height_m": null, "levels": null, "tract_id": "40071000300", "tract_name": "3", "tags": {"building": "yes", "heritage": "2", "heritage:operator": "nrhp", "name": "Marland Mansion", "nrhp:criteria": "(B)", "nrhp:inscription_date": "December 22, 1977", "nrhp:nhl": "yes", "protection_title": "protected_site", "ref:nrhp": "73001561", "wikidata": "Q5322214", "wikipedia": "en:E. W. Marland Mansion"}}}, {"type": "Feature", "geometry": {"type": "Polygon", "coordinates": [[[-97.0616018, 36.7175129], [-97.0616089, 36.7171134], [-97.0611195, 36.7171078], [-97.061118, 36.7171942], [-97.0614841, 36.7171984], [-97.0614785, 36.7175115], [-97.0616018, 36.7175129]]]}, "properties": {"osm_id": 677107403, "building": "yes", "name": "", "height": null, "height_m": null, "levels": null, "tract_id": "40071000300", "tract_name": "3", "tags": {"building": "yes"}}}, {"type": "Feature", "geometry": {"type": "Polygon", "coordinates": [[[-97.0615999, 36.7179892], [-97.0616315, 36.7175725], [-97.0616012, 36.717565], [-97.0616039, 36.7175293], [-97.0615494, 36.7175267], [-97.0615464, 36.7175665], [-97.0614453, 36.7175615], [-97.06144, 36.7176308], [-97.0615594, 36.7176366], [-97.0615372, 36.7179291], [-97.061458, 36.7179253], [-97.0614536, 36.7179821], [-97.0615999, 36.7179892]]]}, "properties": {"osm_id": 677107404, "building": "yes", "name": "", "height": null, "height_m": null, "levels": null, "tract_id": "40071000300", "tract_name": "3", "tags": {"building": "yes"}}}, {"type": "Feature", "geometry": {"type": "Polygon", "coordinates": [[[-97.0615716, 36.7187325], [-97.0615825, 36.7184885], [-97.0615505, 36.7184876], [-97.0615514, 36.7184664], [-97.0614471, 36.7184634], [-97.0614517, 36.7184803], [-97.0613407, 36.7184771], [-97.0613368, 36.7185648], [-97.0614581, 36.7185682], [-97.061451, 36.7187291], [-97.0615716, 36.7187325]]]}, "properties": {"osm_id": 677107405, "building": "yes", "name": "", "height": null, "height_m": null, "levels": null, "tract_id": "40071000300", "tract_name": "3", "tags": {"building": "yes"}}}, {"type": "Feature", "geometry": {"type": "Polygon", "coordinates": [[[-97.0598536, 36.7188326], [-97.0595245, 36.7188114], [-97.0595444, 36.7186119], [-97.0594455, 36.7186056], [-97.059463, 36.7184311], [-97.0599549, 36.7184627], [-97.0599402, 36.7186097], [-97.0598763, 36.7186056], [-97.0598536, 36.7188326]]]}, "properties": {"osm_id": 677107406, "building": "yes", "name": "Unity Gym", "height": null, "height_m": null, "levels": null, "tract_id": "40071000300", "tract_name": "3", "tags": {"building": "yes", "name": "Unity Gym"}}}, {"type": "Feature", "geometry": {"type": "Polygon", "coordinates": [[[-97.0457641, 36.7296987], [-97.0456618, 36.7298074], [-97.0455044, 36.7296987], [-97.0454648, 36.7297366], [-97.0454098, 36.7297049], [-97.0455428, 36.7295634], [-97.0457641, 36.7296987]]]}, "properties": {"osm_id": 732001252, "building": "house", "name": "", "height": null, "height_m": null, "levels": null, "tract_id": "40071000300", "tract_name": "3", "tags": {"building": "house"}}}, {"type": "Feature", "geometry": {"type": "Polygon", "coordinates": [[[-97.0669918, 36.6991147], [-97.0669924, 36.6989256], [-97.0668694, 36.6989254], [-97.0668689, 36.6991144], [-97.0669918, 36.6991147]]]}, "properties": {"osm_id": 867172833, "building": "yes", "name": "Triple T Quick Stop", "height": null, "height_m": null, "levels": null, "tract_id": "40071000300", "tract_name": "3", "tags": {"addr:city": "Ponca City", "addr:housenumber": "425", "addr:postcode": "74601", "addr:state": "OK", "addr:street": "South 14th Street", "building": "yes", "name": "Triple T Quick Stop", "shop": "convenience"}}}, {"type": "Feature", "geometry": {"type": "Polygon", "coordinates": [[[-97.0671541, 36.6995668], [-97.0671545, 36.6994579], [-97.0670664, 36.6994577], [-97.0670665, 36.6994396], [-97.0663903, 36.6994379], [-97.0663904, 36.6994074], [-97.0662283, 36.699407], [-97.0662281, 36.6994608], [-97.0662085, 36.6994608], [-97.0662081, 36.699579], [-97.066244, 36.6995791], [-97.0662432, 36.6997899], [-97.0663918, 36.6997902], [-97.0663926, 36.699565], [-97.0671541, 36.6995668]]]}, "properties": {"osm_id": 867172834, "building": "yes", "name": "Americas Best Value Inn", "height": null, "height_m": null, "levels": null, "tract_id": "40071000300", "tract_name": "3", "tags": {"addr:city": "Ponca City", "addr:housenumber": "407", "addr:postcode": "74601", "addr:state": "OK", "addr:street": "South 14th Street", "brand": "Americas Best Value Inn", "brand:wikidata": "Q4742512", "building": "yes", "check_date": "2024-12-18", "name": "Americas Best Value Inn", "tourism": "motel"}}}, {"type": "Feature", "geometry": {"type": "Polygon", "coordinates": [[[-97.0671983, 36.7019977], [-97.0672013, 36.701777], [-97.0666627, 36.7017723], [-97.0666579, 36.7021271], [-97.0667981, 36.7021283], [-97.0668013, 36.7018903], [-97.06707, 36.7018926], [-97.0670686, 36.7019966], [-97.0671983, 36.7019977]]]}, "properties": {"osm_id": 867172836, "building": "yes", "name": "Lazy K Motel", "height": null, "height_m": null, "levels": null, "tract_id": "40071000300", "tract_name": "3", "tags": {"addr:city": "Ponca City", "addr:housenumber": "205", "addr:postcode": "74601", "addr:state": "OK", "addr:street": "South 14th Street", "building": "yes", "name": "Lazy K Motel", "tourism": "motel"}}}, {"type": "Feature", "geometry": {"type": "Polygon", "coordinates": [[[-97.0650405, 36.7012486], [-97.0650416, 36.7011862], [-97.0650207, 36.7011859], [-97.0650214, 36.7011483], [-97.0648515, 36.7011463], [-97.0648497, 36.7012463], [-97.0650405, 36.7012486]]]}, "properties": {"osm_id": 867172837, "building": "yes", "name": "WBBZ", "height": null, "height_m": null, "levels": null, "tract_id": "40071000300", "tract_name": "3", "tags": {"addr:city": "Ponca City", "addr:housenumber": "1601", "addr:postcode": "74601", "addr:state": "OK", "addr:street": "East Oklahoma Avenue", "amenity": "studio", "building": "yes", "name": "WBBZ", "studio": "radio", "website": "https://www.poncapost.com/wbbz-newstalk-1230"}}}, {"type": "Feature", "geometry": {"type": "Polygon", "coordinates": [[[-97.0500586, 36.7091213], [-97.0500586, 36.7090383], [-97.0496818, 36.7090396], [-97.0496786, 36.70912], [-97.0500586, 36.7091213]]]}, "properties": {"osm_id": 888659098, "building": "yes", "name": "Conoco", "height": null, "height_m": null, "levels": null, "tract_id": "40071000300", "tract_name": "3", "tags": {"amenity": "fuel", "brand": "Conoco", "brand:wikidata": "Q214763", "building": "yes", "name": "Conoco", "source": "Bing"}}}, {"type": "Feature", "geometry": {"type": "Polygon", "coordinates": [[[-97.0501374, 36.7088813], [-97.0500706, 36.7088809], [-97.050071, 36.7088465], [-97.0500382, 36.7088462], [-97.0500389, 36.7087828], [-97.0501384, 36.7087835], [-97.0501374, 36.7088813]]]}, "properties": {"osm_id": 888659099, "building": "yes", "name": "", "height": null, "height_m": null, "levels": null, "tract_id": "40071000300", "tract_name": "3", "tags": {"amenity": "car_wash", "building": "yes", "source": "Bing"}}}, {"type": "Feature", "geometry": {"type": "Polygon", "coordinates": [[[-97.0500382, 36.7088462], [-97.0499406, 36.7088456], [-97.0499405, 36.7088575], [-97.0497966, 36.7088566], [-97.0497967, 36.7088458], [-97.0496879, 36.7088451], [-97.0496888, 36.7087542], [-97.0500391, 36.7087564], [-97.0500389, 36.7087828], [-97.0500382, 36.7088462]]]}, "properties": {"osm_id": 888659100, "building": "yes", "name": "Triple T", "height": null, "height_m": null, "levels": null, "tract_id": "40071000300", "tract_name": "3", "tags": {"building": "yes", "name": "Triple T", "shop": "convenience", "source": "Bing"}}}, {"type": "Feature", "geometry": {"type": "Polygon", "coordinates": [[[-97.066501, 36.7087905], [-97.0660671, 36.7087822], [-97.0660671, 36.7087387], [-97.0658759, 36.7087366], [-97.0658734, 36.7084985], [-97.0660774, 36.7085047], [-97.0660774, 36.7084861], [-97.0663073, 36.7084902], [-97.0663047, 36.7086745], [-97.0665062, 36.7086807], [-97.066501, 36.7087905]]]}, "properties": {"osm_id": 888695718, "building": "yes", "name": "", "height": null, "height_m": null, "levels": null, "tract_id": "40071000300", "tract_name": "3", "tags": {"building": "yes", "source": "Bing"}}}, {"type": "Feature", "geometry": {"type": "Polygon", "coordinates": [[[-97.0664984, 36.708836], [-97.0661936, 36.7088298], [-97.0661962, 36.7089333], [-97.0664209, 36.7089395], [-97.0664209, 36.7089623], [-97.0664958, 36.7089623], [-97.0664984, 36.708836]]]}, "properties": {"osm_id": 888695719, "building": "yes", "name": "", "height": null, "height_m": null, "levels": null, "tract_id": "40071000300", "tract_name": "3", "tags": {"building": "yes", "source": "Bing"}}}, {"type": "Feature", "geometry": {"type": "Polygon", "coordinates": [[[-97.0497017, 36.6963573], [-97.0496242, 36.6963573], [-97.0496242, 36.6963091], [-97.0497017, 36.6963091], [-97.0497017, 36.6963573]]]}, "properties": {"osm_id": 1076999606, "building": "service", "name": "", "height": null, "height_m": null, "levels": null, "tract_id": "40071000300", "tract_name": "3", "tags": {"building": "service"}}}, {"type": "Feature", "geometry": {"type": "Polygon", "coordinates": [[[-97.0519788, 36.7097332], [-97.0519802, 36.7097686], [-97.0518957, 36.7097708], [-97.0518943, 36.7097354], [-97.0519788, 36.7097332]]]}, "properties": {"osm_id": 1190284106, "building": "yes", "name": "", "height": null, "height_m": null, "levels": null, "tract_id": "40071000300", "tract_name": "3", "tags": {"building": "yes"}}}, {"type": "Feature", "geometry": {"type": "Polygon", "coordinates": [[[-97.0491226, 36.708875], [-97.0489708, 36.7088801], [-97.0489773, 36.7090036], [-97.0491291, 36.7089984], [-97.0491226, 36.708875]]]}, "properties": {"osm_id": 1190284110, "building": "yes", "name": "", "height": null, "height_m": null, "levels": null, "tract_id": "40071000300", "tract_name": "3", "tags": {"building": "yes", "shop": "yes", "source": "microsoft/BuildingFootprints"}}}, {"type": "Feature", "geometry": {"type": "Polygon", "coordinates": [[[-97.0519049, 36.7095287], [-97.0518992, 36.7096626], [-97.0520491, 36.7096667], [-97.0520549, 36.7095329], [-97.0519049, 36.7095287]]]}, "properties": {"osm_id": 1190284111, "building": "yes", "name": "", "height": null, "height_m": null, "levels": null, "tract_id": "40071000300", "tract_name": "3", "tags": {"building": "yes", "shop": "yes", "source": "microsoft/BuildingFootprints"}}}, {"type": "Feature", "geometry": {"type": "Polygon", "coordinates": [[[-97.0517494, 36.7097096], [-97.0517511, 36.7096563], [-97.0516795, 36.7096548], [-97.0516778, 36.709708], [-97.0517494, 36.7097096]]]}, "properties": {"osm_id": 1190284112, "building": "yes", "name": "", "height": null, "height_m": null, "levels": null, "tract_id": "40071000300", "tract_name": "3", "tags": {"building": "yes", "source": "microsoft/BuildingFootprints"}}}, {"type": "Feature", "geometry": {"type": "Polygon", "coordinates": [[[-97.0488953, 36.7087689], [-97.0488972, 36.7088689], [-97.0490084, 36.7088675], [-97.0490064, 36.7087675], [-97.0488953, 36.7087689]]]}, "properties": {"osm_id": 1190284113, "building": "yes", "name": "", "height": null, "height_m": null, "levels": null, "tract_id": "40071000300", "tract_name": "3", "tags": {"building": "yes", "source": "microsoft/BuildingFootprints"}}}, {"type": "Feature", "geometry": {"type": "Polygon", "coordinates": [[[-97.0667423, 36.7112131], [-97.0670596, 36.7112147], [-97.0670603, 36.7111317], [-97.0668245, 36.7111304], [-97.0668243, 36.7111623], [-97.0667427, 36.7111619], [-97.0667423, 36.7112131]]]}, "properties": {"osm_id": 1225837474, "building": "yes", "name": "Pioneer Woman Inn", "height": null, "height_m": null, "levels": null, "tract_id": "40071000300", "tract_name": "3", "tags": {"building": "yes", "name": "Pioneer Woman Inn", "tourism": "motel"}}}, {"type": "Feature", "geometry": {"type": "Polygon", "coordinates": [[[-97.0489814, 36.7372801], [-97.0489382, 36.7372804], [-97.0489378, 36.7372521], [-97.0489811, 36.7372518], [-97.0489814, 36.7372801]]]}, "properties": {"osm_id": 1274298699, "building": "yes", "name": "", "height": null, "height_m": null, "levels": null, "tract_id": "40071000300", "tract_name": "3", "tags": {"building": "yes"}}}, {"type": "Feature", "geometry": {"type": "Polygon", "coordinates": [[[-97.0481244, 36.7368459], [-97.0480735, 36.7368459], [-97.0480735, 36.7368158], [-97.0481244, 36.7368158], [-97.0481244, 36.7368459]]]}, "properties": {"osm_id": 1274298700, "building": "yes", "name": "", "height": null, "height_m": null, "levels": null, "tract_id": "40071000300", "tract_name": "3", "tags": {"building": "yes"}}}, {"type": "Feature", "geometry": {"type": "Polygon", "coordinates": [[[-97.0482492, 36.7368093], [-97.0482492, 36.736847], [-97.0482016, 36.736847], [-97.0482016, 36.7368093], [-97.0482492, 36.7368093]]]}, "properties": {"osm_id": 1274298701, "building": "yes", "name": "", "height": null, "height_m": null, "levels": null, "tract_id": "40071000300", "tract_name": "3", "tags": {"building": "yes"}}}, {"type": "Feature", "geometry": {"type": "Polygon", "coordinates": [[[-97.0513699, 36.7365944], [-97.0513315, 36.7365871], [-97.0513409, 36.7365554], [-97.0513793, 36.7365627], [-97.0513699, 36.7365944]]]}, "properties": {"osm_id": 1274298703, "building": "shed", "name": "", "height": null, "height_m": null, "levels": null, "tract_id": "40071000300", "tract_name": "3", "tags": {"building": "shed"}}}, {"type": "Feature", "geometry": {"type": "Polygon", "coordinates": [[[-97.0512901, 36.7366777], [-97.0512284, 36.7367218], [-97.0512001, 36.7366962], [-97.0512617, 36.7366522], [-97.0512901, 36.7366777]]]}, "properties": {"osm_id": 1274298704, "building": "shed", "name": "", "height": null, "height_m": null, "levels": null, "tract_id": "40071000300", "tract_name": "3", "tags": {"building": "shed"}}}, {"type": "Feature", "geometry": {"type": "Polygon", "coordinates": [[[-97.0502548, 36.7370367], [-97.0501713, 36.7370363], [-97.0501716, 36.7369818], [-97.0502552, 36.7369822], [-97.0502548, 36.7370367]]]}, "properties": {"osm_id": 1274298705, "building": "yes", "name": "", "height": null, "height_m": null, "levels": null, "tract_id": "40071000300", "tract_name": "3", "tags": {"building": "yes"}}}, {"type": "Feature", "geometry": {"type": "Polygon", "coordinates": [[[-97.0515154, 36.7368287], [-97.0514799, 36.7368599], [-97.0514421, 36.7368323], [-97.0513907, 36.7368775], [-97.0514129, 36.7368936], [-97.0513451, 36.7369533], [-97.0514122, 36.7369996], [-97.051413, 36.7370129], [-97.0513879, 36.7370139], [-97.0513899, 36.7370474], [-97.0514151, 36.7370464], [-97.0514175, 36.7370866], [-97.0515161, 36.7370813], [-97.0515073, 36.7369907], [-97.0516127, 36.7368996], [-97.0515154, 36.7368287]]]}, "properties": {"osm_id": 1274298706, "building": "detached", "name": "", "height": null, "height_m": null, "levels": null, "tract_id": "40071000300", "tract_name": "3", "tags": {"building": "detached"}}}, {"type": "Feature", "geometry": {"type": "Polygon", "coordinates": [[[-97.0490288, 36.7368568], [-97.0488786, 36.7368582], [-97.0488796, 36.7369265], [-97.0488933, 36.7369264], [-97.0488936, 36.7369472], [-97.0488386, 36.7369478], [-97.0488396, 36.737022], [-97.0490622, 36.7370199], [-97.0490608, 36.7369253], [-97.0490298, 36.7369256], [-97.0490288, 36.7368568]]]}, "properties": {"osm_id": 1274298707, "building": "detached", "name": "", "height": null, "height_m": null, "levels": null, "tract_id": "40071000300", "tract_name": "3", "tags": {"building": "detached"}}}, {"type": "Feature", "geometry": {"type": "Polygon", "coordinates": [[[-97.0499751, 36.7364325], [-97.0499323, 36.7364319], [-97.0499307, 36.7365008], [-97.0499735, 36.7365014], [-97.0499751, 36.7364325]]]}, "properties": {"osm_id": 1274298710, "building": "yes", "name": "", "height": null, "height_m": null, "levels": null, "tract_id": "40071000300", "tract_name": "3", "tags": {"building": "yes"}}}, {"type": "Feature", "geometry": {"type": "Polygon", "coordinates": [[[-97.0490542, 36.7368057], [-97.0490509, 36.7366391], [-97.0489035, 36.736641], [-97.0489053, 36.7367345], [-97.0488382, 36.7367353], [-97.0488397, 36.7368084], [-97.0490542, 36.7368057]]]}, "properties": {"osm_id": 1274298711, "building": "detached", "name": "", "height": null, "height_m": null, "levels": null, "tract_id": "40071000300", "tract_name": "3", "tags": {"building": "detached"}}}, {"type": "Feature", "geometry": {"type": "Polygon", "coordinates": [[[-97.0491224, 36.7375158], [-97.0490384, 36.7375144], [-97.0490376, 36.7375449], [-97.0490169, 36.7375445], [-97.0490173, 36.7375309], [-97.0489249, 36.7375293], [-97.0489218, 36.7376519], [-97.0491189, 36.7376551], [-97.0491224, 36.7375158]]]}, "properties": {"osm_id": 1274298712, "building": "detached", "name": "", "height": null, "height_m": null, "levels": null, "tract_id": "40071000300", "tract_name": "3", "tags": {"building": "detached"}}}, {"type": "Feature", "geometry": {"type": "Polygon", "coordinates": [[[-97.0479085, 36.7365651], [-97.0480544, 36.7365649], [-97.0480542, 36.736407], [-97.0478519, 36.7364072], [-97.047852, 36.7364781], [-97.0479083, 36.736478], [-97.0479085, 36.7365651]]]}, "properties": {"osm_id": 1274298713, "building": "detached", "name": "", "height": null, "height_m": null, "levels": null, "tract_id": "40071000300", "tract_name": "3", "tags": {"building": "detached"}}}, {"type": "Feature", "geometry": {"type": "Polygon", "coordinates": [[[-97.0484532, 36.735919], [-97.0483593, 36.7359204], [-97.0483638, 36.7361138], [-97.0484522, 36.7361125], [-97.0484516, 36.7360856], [-97.0485496, 36.7360841], [-97.0485474, 36.7359885], [-97.0484548, 36.7359899], [-97.0484532, 36.735919]]]}, "properties": {"osm_id": 1274298714, "building": "detached", "name": "", "height": null, "height_m": null, "levels": null, "tract_id": "40071000300", "tract_name": "3", "tags": {"building": "detached"}}}, {"type": "Feature", "geometry": {"type": "Polygon", "coordinates": [[[-97.0496175, 36.7363117], [-97.0496201, 36.7364795], [-97.0497956, 36.7364778], [-97.0497959, 36.7364983], [-97.049851, 36.7364977], [-97.0498487, 36.736347], [-97.0497039, 36.7363484], [-97.0497033, 36.7363109], [-97.0496175, 36.7363117]]]}, "properties": {"osm_id": 1274298715, "building": "detached", "name": "", "height": null, "height_m": null, "levels": null, "tract_id": "40071000300", "tract_name": "3", "tags": {"building": "detached"}}}, {"type": "Feature", "geometry": {"type": "Polygon", "coordinates": [[[-97.050012, 36.7374149], [-97.0497937, 36.7374168], [-97.0497947, 36.7374894], [-97.0498495, 36.7374889], [-97.0498499, 36.7375197], [-97.0498327, 36.7375199], [-97.0498344, 36.7376433], [-97.050015, 36.7376418], [-97.050012, 36.7374149]]]}, "properties": {"osm_id": 1274298716, "building": "detached", "name": "", "height": null, "height_m": null, "levels": null, "tract_id": "40071000300", "tract_name": "3", "tags": {"building": "detached"}}}, {"type": "Feature", "geometry": {"type": "Polygon", "coordinates": [[[-97.0481751, 36.7359965], [-97.0481147, 36.7359984], [-97.0481198, 36.7361047], [-97.048334, 36.7360981], [-97.048329, 36.7359939], [-97.0482502, 36.7359964], [-97.0482488, 36.7359685], [-97.0481738, 36.7359708], [-97.0481751, 36.7359965]]]}, "properties": {"osm_id": 1274298717, "building": "detached", "name": "", "height": null, "height_m": null, "levels": null, "tract_id": "40071000300", "tract_name": "3", "tags": {"building": "detached"}}}, {"type": "Feature", "geometry": {"type": "Polygon", "coordinates": [[[-97.0489204, 36.7380695], [-97.0490491, 36.7380695], [-97.0490491, 36.7380243], [-97.049076, 36.7380243], [-97.049076, 36.7379298], [-97.0491229, 36.7379298], [-97.0491229, 36.7378771], [-97.0489204, 36.7378771], [-97.0489204, 36.7380695]]]}, "properties": {"osm_id": 1274298718, "building": "detached", "name": "", "height": null, "height_m": null, "levels": null, "tract_id": "40071000300", "tract_name": "3", "tags": {"building": "detached"}}}, {"type": "Feature", "geometry": {"type": "Polygon", "coordinates": [[[-97.0478472, 36.7372244], [-97.0479824, 36.7372241], [-97.0479821, 36.7371596], [-97.0480143, 36.7371595], [-97.048014, 36.7370982], [-97.0480746, 36.737098], [-97.0480744, 36.7370422], [-97.0478639, 36.7370427], [-97.0478643, 36.7371489], [-97.0478469, 36.737149], [-97.0478472, 36.7372244]]]}, "properties": {"osm_id": 1274298719, "building": "detached", "name": "", "height": null, "height_m": null, "levels": null, "tract_id": "40071000300", "tract_name": "3", "tags": {"building": "detached"}}}, {"type": "Feature", "geometry": {"type": "Polygon", "coordinates": [[[-97.0512614, 36.7378971], [-97.0514098, 36.7379396], [-97.0514982, 36.7377414], [-97.0513498, 36.7376989], [-97.0512614, 36.7378971]]]}, "properties": {"osm_id": 1274298720, "building": "detached", "name": "", "height": null, "height_m": null, "levels": null, "tract_id": "40071000300", "tract_name": "3", "tags": {"building": "detached"}}}, {"type": "Feature", "geometry": {"type": "Polygon", "coordinates": [[[-97.0506413, 36.7364582], [-97.0506416, 36.7363787], [-97.050537, 36.7363784], [-97.0505373, 36.7363225], [-97.0504714, 36.7363224], [-97.0504713, 36.7363355], [-97.0503734, 36.7363353], [-97.0503735, 36.7363221], [-97.0503108, 36.736322], [-97.0503101, 36.7364949], [-97.0503906, 36.7364951], [-97.0503907, 36.7364576], [-97.0506413, 36.7364582]]]}, "properties": {"osm_id": 1274298721, "building": "detached", "name": "", "height": null, "height_m": null, "levels": null, "tract_id": "40071000300", "tract_name": "3", "tags": {"building": "detached"}}}, {"type": "Feature", "geometry": {"type": "Polygon", "coordinates": [[[-97.0507101, 36.7364811], [-97.0509212, 36.7364816], [-97.0509213, 36.7364547], [-97.0509946, 36.7364549], [-97.0509951, 36.7363221], [-97.0509039, 36.7363219], [-97.0509037, 36.7363683], [-97.0507638, 36.7363679], [-97.0507637, 36.7363812], [-97.0507105, 36.736381], [-97.0507101, 36.7364811]]]}, "properties": {"osm_id": 1274298722, "building": "detached", "name": "", "height": null, "height_m": null, "levels": null, "tract_id": "40071000300", "tract_name": "3", "tags": {"building": "detached"}}}, {"type": "Feature", "geometry": {"type": "Polygon", "coordinates": [[[-97.0499738, 36.7379889], [-97.0497887, 36.7379882], [-97.0497878, 36.738143], [-97.0498468, 36.7381432], [-97.0498467, 36.7381733], [-97.0498896, 36.7381734], [-97.0498893, 36.7382217], [-97.0499842, 36.738222], [-97.0499852, 36.7380565], [-97.0499734, 36.7380565], [-97.0499738, 36.7379889]]]}, "properties": {"osm_id": 1274298723, "building": "detached", "name": "", "height": null, "height_m": null, "levels": null, "tract_id": "40071000300", "tract_name": "3", "tags": {"addr:housenumber": "2908", "building": "detached"}}}, {"type": "Feature", "geometry": {"type": "Polygon", "coordinates": [[[-97.0476961, 36.7378039], [-97.0476954, 36.7379501], [-97.047785, 36.7379503], [-97.0477857, 36.7378042], [-97.0476961, 36.7378039]]]}, "properties": {"osm_id": 1274298725, "building": "yes", "name": "", "height": null, "height_m": null, "levels": null, "tract_id": "40071000300", "tract_name": "3", "tags": {"building": "yes"}}}, {"type": "Feature", "geometry": {"type": "Polygon", "coordinates": [[[-97.0504414, 36.7382418], [-97.0505433, 36.7382434], [-97.0505464, 36.7381155], [-97.0506, 36.7381163], [-97.050602, 36.7380359], [-97.0504974, 36.7380343], [-97.0504966, 36.7380665], [-97.0504457, 36.7380657], [-97.0504414, 36.7382418]]]}, "properties": {"osm_id": 1274298726, "building": "detached", "name": "", "height": null, "height_m": null, "levels": null, "tract_id": "40071000300", "tract_name": "3", "tags": {"building": "detached"}}}, {"type": "Feature", "geometry": {"type": "Polygon", "coordinates": [[[-97.0482134, 36.7382085], [-97.0482106, 36.7380666], [-97.0479757, 36.7380696], [-97.0479778, 36.7381781], [-97.0481226, 36.7381763], [-97.0481233, 36.7382096], [-97.0482134, 36.7382085]]]}, "properties": {"osm_id": 1274298727, "building": "detached", "name": "", "height": null, "height_m": null, "levels": null, "tract_id": "40071000300", "tract_name": "3", "tags": {"building": "detached"}}}, {"type": "Feature", "geometry": {"type": "Polygon", "coordinates": [[[-97.0479427, 36.7375234], [-97.0479412, 36.7376459], [-97.0480726, 36.737647], [-97.0480722, 36.7376792], [-97.0481496, 36.7376799], [-97.048152, 36.7375122], [-97.0480609, 36.7375115], [-97.0480605, 36.7375393], [-97.0480364, 36.7375391], [-97.0480366, 36.7375242], [-97.0479427, 36.7375234]]]}, "properties": {"osm_id": 1274298728, "building": "detached", "name": "", "height": null, "height_m": null, "levels": null, "tract_id": "40071000300", "tract_name": "3", "tags": {"building": "detached"}}}, {"type": "Feature", "geometry": {"type": "Polygon", "coordinates": [[[-97.0514113, 36.7382371], [-97.0516231, 36.7382352], [-97.0516221, 36.73816], [-97.0515282, 36.7381608], [-97.0515268, 36.7380576], [-97.0514088, 36.7380587], [-97.0514113, 36.7382371]]]}, "properties": {"osm_id": 1274298731, "building": "detached", "name": "", "height": null, "height_m": null, "levels": null, "tract_id": "40071000300", "tract_name": "3", "tags": {"building": "detached"}}}, {"type": "Feature", "geometry": {"type": "Polygon", "coordinates": [[[-97.0475655, 36.7387293], [-97.0475658, 36.7387594], [-97.0475148, 36.7387597], [-97.0475159, 36.7388745], [-97.0475081, 36.7388745], [-97.047509, 36.7389672], [-97.0475946, 36.7389667], [-97.0475936, 36.7388667], [-97.0476162, 36.7388666], [-97.0476159, 36.7388394], [-97.0477138, 36.7388388], [-97.0477141, 36.7388659], [-97.047768, 36.7388656], [-97.047767, 36.7387614], [-97.0477375, 36.7387616], [-97.0477371, 36.7387282], [-97.0475655, 36.7387293]]]}, "properties": {"osm_id": 1274298732, "building": "detached", "name": "", "height": null, "height_m": null, "levels": null, "tract_id": "40071000300", "tract_name": "3", "tags": {"building": "detached"}}}, {"type": "Feature", "geometry": {"type": "Polygon", "coordinates": [[[-97.0508177, 36.7381979], [-97.0509152, 36.738198], [-97.0509152, 36.7382281], [-97.051009, 36.7382281], [-97.0510091, 36.7381164], [-97.0508177, 36.7381163], [-97.0508177, 36.7381979]]]}, "properties": {"osm_id": 1274298733, "building": "detached", "name": "", "height": null, "height_m": null, "levels": null, "tract_id": "40071000300", "tract_name": "3", "tags": {"building": "detached"}}}, {"type": "Feature", "geometry": {"type": "Polygon", "coordinates": [[[-97.0513476, 36.7363829], [-97.0512674, 36.7363716], [-97.0512656, 36.7363798], [-97.0511891, 36.7363691], [-97.0511953, 36.736341], [-97.0511117, 36.7363292], [-97.0510822, 36.7364632], [-97.0512285, 36.7364838], [-97.0512168, 36.736537], [-97.0513109, 36.7365503], [-97.0513476, 36.7363829]]]}, "properties": {"osm_id": 1274298734, "building": "detached", "name": "", "height": null, "height_m": null, "levels": null, "tract_id": "40071000300", "tract_name": "3", "tags": {"building": "detached"}}}, {"type": "Feature", "geometry": {"type": "Polygon", "coordinates": [[[-97.0482618, 36.736724], [-97.0483101, 36.7367242], [-97.0483097, 36.736778], [-97.0484438, 36.7367785], [-97.0484445, 36.7366723], [-97.0484767, 36.7366725], [-97.0484771, 36.7366175], [-97.0483135, 36.7366168], [-97.0483131, 36.7366727], [-97.0482621, 36.7366724], [-97.0482618, 36.736724]]]}, "properties": {"osm_id": 1274298735, "building": "detached", "name": "", "height": null, "height_m": null, "levels": null, "tract_id": "40071000300", "tract_name": "3", "tags": {"building": "detached"}}}, {"type": "Feature", "geometry": {"type": "Polygon", "coordinates": [[[-97.0508306, 36.7376865], [-97.0508317, 36.737751], [-97.0509186, 36.73775], [-97.0509174, 36.7376855], [-97.0508306, 36.7376865]]]}, "properties": {"osm_id": 1274298736, "building": "yes", "name": "", "height": null, "height_m": null, "levels": null, "tract_id": "40071000300", "tract_name": "3", "tags": {"building": "yes"}}}, {"type": "Feature", "geometry": {"type": "Polygon", "coordinates": [[[-97.0501405, 36.7371524], [-97.0501388, 36.7372405], [-97.0502568, 36.737242], [-97.0502585, 36.7371539], [-97.0501405, 36.7371524]]]}, "properties": {"osm_id": 1274298737, "building": "garage", "name": "", "height": null, "height_m": null, "levels": null, "tract_id": "40071000300", "tract_name": "3", "tags": {"building": "garage"}}}, {"type": "Feature", "geometry": {"type": "Polygon", "coordinates": [[[-97.0488935, 36.737513], [-97.0488066, 36.7375116], [-97.0488062, 36.7375278], [-97.0486722, 36.7375256], [-97.0486686, 36.7376706], [-97.0487796, 36.7376724], [-97.04878, 36.7376552], [-97.0488513, 36.7376563], [-97.048852, 36.7376284], [-97.0488906, 36.737629], [-97.0488935, 36.737513]]]}, "properties": {"osm_id": 1274298738, "building": "detached", "name": "", "height": null, "height_m": null, "levels": null, "tract_id": "40071000300", "tract_name": "3", "tags": {"building": "detached"}}}, {"type": "Feature", "geometry": {"type": "Polygon", "coordinates": [[[-97.048425, 36.7368293], [-97.0483284, 36.7368287], [-97.0483276, 36.7369039], [-97.0482894, 36.7369036], [-97.0482886, 36.7369745], [-97.0483238, 36.7369748], [-97.0483235, 36.7370027], [-97.0484675, 36.7370037], [-97.0484682, 36.7369414], [-97.0484378, 36.7369412], [-97.0484386, 36.7368728], [-97.0484245, 36.7368727], [-97.048425, 36.7368293]]]}, "properties": {"osm_id": 1274298739, "building": "yes", "name": "", "height": null, "height_m": null, "levels": null, "tract_id": "40071000300", "tract_name": "3", "tags": {"building": "yes"}}}, {"type": "Feature", "geometry": {"type": "Polygon", "coordinates": [[[-97.0474445, 36.7375342], [-97.0474434, 36.737679], [-97.0475158, 36.7376794], [-97.0475162, 36.7376374], [-97.0476664, 36.7376382], [-97.0476674, 36.737506], [-97.0475815, 36.7375056], [-97.0475813, 36.7375349], [-97.0475451, 36.7375347], [-97.0475452, 36.7375259], [-97.0474868, 36.7375256], [-97.0474868, 36.7375344], [-97.0474445, 36.7375342]]]}, "properties": {"osm_id": 1274298740, "building": "detached", "name": "", "height": null, "height_m": null, "levels": null, "tract_id": "40071000300", "tract_name": "3", "tags": {"building": "detached"}}}, {"type": "Feature", "geometry": {"type": "Polygon", "coordinates": [[[-97.0497135, 36.736742], [-97.0497132, 36.7368828], [-97.0496879, 36.7368828], [-97.0496878, 36.7369494], [-97.0498257, 36.7369496], [-97.0498258, 36.7369157], [-97.0498496, 36.7369158], [-97.0498498, 36.7368173], [-97.0498248, 36.7368173], [-97.049825, 36.7367421], [-97.0497135, 36.736742]]]}, "properties": {"osm_id": 1274298741, "building": "detached", "name": "", "height": null, "height_m": null, "levels": null, "tract_id": "40071000300", "tract_name": "3", "tags": {"building": "detached"}}}, {"type": "Feature", "geometry": {"type": "Polygon", "coordinates": [[[-97.0482559, 36.7370549], [-97.0482548, 36.737114], [-97.0483117, 36.7371147], [-97.0483094, 36.7372393], [-97.0484712, 36.7372413], [-97.0484726, 36.7371661], [-97.0484431, 36.7371657], [-97.0484437, 36.7371307], [-97.0484568, 36.7371309], [-97.0484576, 36.7370863], [-97.0484446, 36.7370861], [-97.0484451, 36.7370572], [-97.0482559, 36.7370549]]]}, "properties": {"osm_id": 1274298742, "building": "detached", "name": "", "height": null, "height_m": null, "levels": null, "tract_id": "40071000300", "tract_name": "3", "tags": {"building": "detached"}}}, {"type": "Feature", "geometry": {"type": "Polygon", "coordinates": [[[-97.0476929, 36.7382027], [-97.0477734, 36.7382039], [-97.047774, 36.7381778], [-97.0478235, 36.7381785], [-97.0478231, 36.738193], [-97.0479023, 36.7381942], [-97.0479059, 36.7380404], [-97.0478114, 36.7380389], [-97.0478112, 36.7380489], [-97.0476966, 36.7380472], [-97.0476929, 36.7382027]]]}, "properties": {"osm_id": 1274298743, "building": "detached", "name": "", "height": null, "height_m": null, "levels": null, "tract_id": "40071000300", "tract_name": "3", "tags": {"building": "detached"}}}, {"type": "Feature", "geometry": {"type": "Polygon", "coordinates": [[[-97.0488414, 36.737235], [-97.0490265, 36.7372336], [-97.0490249, 36.7370936], [-97.0490131, 36.7370937], [-97.0490126, 36.7370553], [-97.0488689, 36.7370564], [-97.0488695, 36.7371076], [-97.0488599, 36.7371076], [-97.0488605, 36.7371618], [-97.0488406, 36.7371619], [-97.0488414, 36.737235]]]}, "properties": {"osm_id": 1274298744, "building": "detached", "name": "", "height": null, "height_m": null, "levels": null, "tract_id": "40071000300", "tract_name": "3", "tags": {"building": "detached"}}}, {"type": "Feature", "geometry": {"type": "Polygon", "coordinates": [[[-97.0485237, 36.7382085], [-97.0485917, 36.7382099], [-97.0485927, 36.7381788], [-97.0487616, 36.7381823], [-97.0487652, 36.7380728], [-97.0485283, 36.7380678], [-97.0485237, 36.7382085]]]}, "properties": {"osm_id": 1274298745, "building": "detached", "name": "", "height": null, "height_m": null, "levels": null, "tract_id": "40071000300", "tract_name": "3", "tags": {"building": "detached"}}}, {"type": "Feature", "geometry": {"type": "Polygon", "coordinates": [[[-97.0498748, 36.7367229], [-97.0500877, 36.7367238], [-97.050088, 36.7366949], [-97.0501903, 36.7366953], [-97.0501907, 36.7366427], [-97.0498754, 36.7366412], [-97.0498748, 36.7367229]]]}, "properties": {"osm_id": 1274298746, "building": "yes", "name": "", "height": null, "height_m": null, "levels": null, "tract_id": "40071000300", "tract_name": "3", "tags": {"building": "yes"}}}, {"type": "Feature", "geometry": {"type": "Polygon", "coordinates": [[[-97.0485407, 36.7375157], [-97.0485405, 36.7375909], [-97.0484922, 36.7375908], [-97.0484923, 36.7375586], [-97.0484263, 36.7375584], [-97.0484258, 36.737696], [-97.0486366, 36.7376965], [-97.0486373, 36.7375159], [-97.0485407, 36.7375157]]]}, "properties": {"osm_id": 1274298747, "building": "detached", "name": "", "height": null, "height_m": null, "levels": null, "tract_id": "40071000300", "tract_name": "3", "tags": {"building": "detached"}}}, {"type": "Feature", "geometry": {"type": "Polygon", "coordinates": [[[-97.0488386, 36.7364214], [-97.0488381, 36.7364901], [-97.0488817, 36.7364904], [-97.0488814, 36.7365257], [-97.0488593, 36.7365256], [-97.0488589, 36.7365724], [-97.0488729, 36.7365724], [-97.0488727, 36.7365999], [-97.0490518, 36.7366008], [-97.0490522, 36.7365428], [-97.0490388, 36.7365427], [-97.0490394, 36.7364632], [-97.0490046, 36.736463], [-97.0490049, 36.7364222], [-97.0488386, 36.7364214]]]}, "properties": {"osm_id": 1274298748, "building": "detached", "name": "", "height": null, "height_m": null, "levels": null, "tract_id": "40071000300", "tract_name": "3", "tags": {"building": "detached"}}}, {"type": "Feature", "geometry": {"type": "Polygon", "coordinates": [[[-97.0478433, 36.7369461], [-97.0478755, 36.7369457], [-97.0478767, 36.7370059], [-97.047976, 36.7370046], [-97.0479748, 36.7369418], [-97.0479961, 36.7369415], [-97.0479956, 36.7369179], [-97.0480082, 36.7369177], [-97.0480073, 36.7368731], [-97.0479948, 36.7368733], [-97.047994, 36.7368324], [-97.0478411, 36.7368344], [-97.0478433, 36.7369461]]]}, "properties": {"osm_id": 1274298749, "building": "detached", "name": "", "height": null, "height_m": null, "levels": null, "tract_id": "40071000300", "tract_name": "3", "tags": {"building": "detached"}}}, {"type": "Feature", "geometry": {"type": "Polygon", "coordinates": [[[-97.0498406, 36.7376947], [-97.0498414, 36.7377455], [-97.0498615, 36.7377453], [-97.0498619, 36.7377711], [-97.0498419, 36.7377713], [-97.0498428, 36.7378287], [-97.0498002, 36.7378292], [-97.0498019, 36.7379286], [-97.0500052, 36.7379265], [-97.0500023, 36.7377519], [-97.050065, 36.7377512], [-97.050064, 36.7376923], [-97.0498406, 36.7376947]]]}, "properties": {"osm_id": 1274298750, "building": "detached", "name": "", "height": null, "height_m": null, "levels": null, "tract_id": "40071000300", "tract_name": "3", "tags": {"building": "detached"}}}, {"type": "Feature", "geometry": {"type": "Polygon", "coordinates": [[[-97.0484, 36.7364019], [-97.0482464, 36.7364041], [-97.0482502, 36.7365696], [-97.0484781, 36.7365662], [-97.0484765, 36.7364953], [-97.0484022, 36.7364964], [-97.0484018, 36.7364783], [-97.0484138, 36.7364781], [-97.0484127, 36.7364287], [-97.0484006, 36.7364288], [-97.0484, 36.7364019]]]}, "properties": {"osm_id": 1274298751, "building": "detached", "name": "", "height": null, "height_m": null, "levels": null, "tract_id": "40071000300", "tract_name": "3", "tags": {"building": "detached"}}}, {"type": "Feature", "geometry": {"type": "Polygon", "coordinates": [[[-97.0479685, 36.7367736], [-97.047967, 36.7367188], [-97.0480008, 36.7367182], [-97.047998, 36.7366151], [-97.0478425, 36.7366178], [-97.0478467, 36.7367757], [-97.0479685, 36.7367736]]]}, "properties": {"osm_id": 1274298752, "building": "detached", "name": "", "height": null, "height_m": null, "levels": null, "tract_id": "40071000300", "tract_name": "3", "tags": {"building": "detached"}}}, {"type": "Feature", "geometry": {"type": "Polygon", "coordinates": [[[-97.0474528, 36.7380118], [-97.0474486, 36.7382052], [-97.0475317, 36.7382064], [-97.0475325, 36.7381699], [-97.0476623, 36.7381717], [-97.0476657, 36.7380148], [-97.0474528, 36.7380118]]]}, "properties": {"osm_id": 1274298753, "building": "detached", "name": "", "height": null, "height_m": null, "levels": null, "tract_id": "40071000300", "tract_name": "3", "tags": {"building": "detached"}}}, {"type": "Feature", "geometry": {"type": "Polygon", "coordinates": [[[-97.0475567, 36.73593], [-97.0475538, 36.7361062], [-97.0476516, 36.7361072], [-97.0476526, 36.7360438], [-97.0477694, 36.7360451], [-97.0477713, 36.7359323], [-97.0475567, 36.73593]]]}, "properties": {"osm_id": 1274298754, "building": "detached", "name": "", "height": null, "height_m": null, "levels": null, "tract_id": "40071000300", "tract_name": "3", "tags": {"building": "detached"}}}, {"type": "Feature", "geometry": {"type": "Polygon", "coordinates": [[[-97.0479046, 36.7375429], [-97.047814, 36.7375417], [-97.0478136, 36.7375619], [-97.0477899, 36.7375616], [-97.047791, 36.737506], [-97.0476988, 36.7375049], [-97.0476956, 36.7376736], [-97.047902, 36.7376761], [-97.0479046, 36.7375429]]]}, "properties": {"osm_id": 1274298755, "building": "detached", "name": "", "height": null, "height_m": null, "levels": null, "tract_id": "40071000300", "tract_name": "3", "tags": {"building": "detached"}}}, {"type": "Feature", "geometry": {"type": "Polygon", "coordinates": [[[-97.0500091, 36.7363601], [-97.0500083, 36.7365235], [-97.0500581, 36.7365236], [-97.0500583, 36.7364806], [-97.0502365, 36.7364812], [-97.0502373, 36.7363178], [-97.0501515, 36.7363176], [-97.0501513, 36.7363605], [-97.0500091, 36.7363601]]]}, "properties": {"osm_id": 1274298756, "building": "detached", "name": "", "height": null, "height_m": null, "levels": null, "tract_id": "40071000300", "tract_name": "3", "tags": {"building": "detached"}}}, {"type": "Feature", "geometry": {"type": "Polygon", "coordinates": [[[-97.0498041, 36.7373331], [-97.0500061, 36.7373331], [-97.050006, 36.7372892], [-97.0499852, 36.7372892], [-97.0499852, 36.7372454], [-97.050006, 36.7372454], [-97.050006, 36.7372256], [-97.0499963, 36.7372256], [-97.0499963, 36.7372027], [-97.0500114, 36.7372027], [-97.0500114, 36.7371902], [-97.0500416, 36.7371902], [-97.0500416, 36.7371288], [-97.0497868, 36.7371289], [-97.0497868, 36.737203], [-97.0498417, 36.737203], [-97.0498417, 36.7372325], [-97.049804, 36.7372325], [-97.0498041, 36.7373331]]]}, "properties": {"osm_id": 1274298757, "building": "detached", "name": "", "height": null, "height_m": null, "levels": null, "tract_id": "40071000300", "tract_name": "3", "tags": {"building": "detached"}}}, {"type": "Feature", "geometry": {"type": "Polygon", "coordinates": [[[-97.0484035, 36.7375286], [-97.0482588, 36.7375256], [-97.0482548, 36.7376481], [-97.0483996, 36.7376511], [-97.0484035, 36.7375286]]]}, "properties": {"osm_id": 1274298758, "building": "detached", "name": "", "height": null, "height_m": null, "levels": null, "tract_id": "40071000300", "tract_name": "3", "tags": {"building": "detached"}}}, {"type": "Feature", "geometry": {"type": "Polygon", "coordinates": [[[-97.0484699, 36.7381927], [-97.0484726, 36.7380659], [-97.0484173, 36.7380651], [-97.0484191, 36.7379823], [-97.0483521, 36.7379814], [-97.0483503, 36.7380652], [-97.0482725, 36.7380641], [-97.0482694, 36.7382081], [-97.0483703, 36.7382095], [-97.0483707, 36.7381913], [-97.0484699, 36.7381927]]]}, "properties": {"osm_id": 1274298759, "building": "detached", "name": "", "height": null, "height_m": null, "levels": null, "tract_id": "40071000300", "tract_name": "3", "tags": {"building": "detached"}}}, {"type": "Feature", "geometry": {"type": "Polygon", "coordinates": [[[-97.0480442, 36.7360919], [-97.0480472, 36.7359458], [-97.0479507, 36.7359445], [-97.0479497, 36.7359939], [-97.0478263, 36.7359922], [-97.0478239, 36.7361083], [-97.0479097, 36.7361094], [-97.0479101, 36.7360901], [-97.0480442, 36.7360919]]]}, "properties": {"osm_id": 1274298761, "building": "detached", "name": "", "height": null, "height_m": null, "levels": null, "tract_id": "40071000300", "tract_name": "3", "tags": {"building": "detached"}}}, {"type": "Feature", "geometry": {"type": "Polygon", "coordinates": [[[-97.0666192, 36.7111144], [-97.0663297, 36.7111182], [-97.0664161, 36.7109928], [-97.0663086, 36.7109329], [-97.0662012, 36.7110639], [-97.0662082, 36.7112005], [-97.0666239, 36.7112193], [-97.0666192, 36.7111144]]]}, "properties": {"osm_id": 1392686995, "building": "yes", "name": "", "height": null, "height_m": null, "levels": null, "tract_id": "40071000300", "tract_name": "3", "tags": {"building": "yes"}}}, {"type": "Feature", "geometry": {"type": "Polygon", "coordinates": [[[-97.066317, 36.7116732], [-97.0667933, 36.7116787], [-97.0667885, 36.7119465], [-97.0663122, 36.711941], [-97.066317, 36.7116732]]]}, "properties": {"osm_id": 1392686996, "building": "yes", "name": "", "height": null, "height_m": null, "levels": null, "tract_id": "40071000300", "tract_name": "3", "tags": {"building": "yes"}}}, {"type": "Feature", "geometry": {"type": "Polygon", "coordinates": [[[-97.0664135, 36.706715], [-97.0664263, 36.7079228], [-97.0665208, 36.7079222], [-97.0665201, 36.7078599], [-97.066737, 36.7078584], [-97.0667294, 36.7071661], [-97.0666734, 36.7071665], [-97.0666704, 36.7068812], [-97.0668382, 36.70688], [-97.0668365, 36.7067122], [-97.0664135, 36.706715]]]}, "properties": {"osm_id": 1392687040, "building": "yes", "name": "", "height": null, "height_m": null, "levels": null, "tract_id": "40071000300", "tract_name": "3", "tags": {"building": "yes"}}}]}