{"type": "FeatureCollection", "features": [{"type": "Feature", "geometry": {"type": "Polygon", "coordinates": [[[-97.9259307, 35.024476], [-97.925925, 35.0248264], [-97.926185, 35.0248292], [-97.9261866, 35.0247274], [-97.9263172, 35.0247288], [-97.9263195, 35.0245847], [-97.9261951, 35.0245834], [-97.9261968, 35.0244788], [-97.9259307, 35.024476]]]}, "properties": {"osm_id": 737444970, "building": "yes", "name": "Heritage Park Theater", "height": null, "height_m": null, "levels": null, "tract_id": "40051000502", "tract_name": "5.02", "tags": {"addr:housenumber": "2505", "addr:street": "Valley View Drive", "amenity": "cinema", "building": "yes", "name": "Heritage Park Theater", "wikidata": "Q43191726"}}}, {"type": "Feature", "geometry": {"type": "Polygon", "coordinates": [[[-97.9363171, 35.0264251], [-97.9369052, 35.026425], [-97.9369053, 35.0268473], [-97.9368157, 35.0268473], [-97.9368157, 35.0267956], [-97.9363172, 35.0267958], [-97.9363171, 35.0264251]]]}, "properties": {"osm_id": 930446787, "building": "retail", "name": "ALDI", "height": null, "height_m": null, "levels": null, "tract_id": "40051000502", "tract_name": "5.02", "tags": {"addr:city": "Chickasha", "addr:housenumber": "2318", "addr:postcode": "73018", "addr:state": "OK", "addr:street": "South 4th Street", "brand": "ALDI", "brand:wikidata": "Q41171672", "building": "retail", "name": "ALDI", "opening_hours": "Mo, We, Fr-Su 09:00-21:00, Tu, Th 08:30-21:00", "phone": "+1 888-475-1126", "shop": "supermarket", "website": "https://stores.aldi.us/ok/chickasha/2318-s-4th-st"}}}, {"type": "Feature", "geometry": {"type": "Polygon", "coordinates": [[[-97.939809, 35.0216787], [-97.93967, 35.0216801], [-97.9396649, 35.0214621], [-97.9398089, 35.0214621], [-97.939809, 35.0216787]]]}, "properties": {"osm_id": 985123349, "building": "yes", "name": "", "height": null, "height_m": null, "levels": null, "tract_id": "40051000502", "tract_name": "5.02", "tags": {"building": "yes"}}}, {"type": "Feature", "geometry": {"type": "Polygon", "coordinates": [[[-97.9340133, 35.015678], [-97.9337928, 35.0156765], [-97.9337961, 35.0153599], [-97.9340166, 35.0153614], [-97.9340133, 35.015678]]]}, "properties": {"osm_id": 1026642171, "building": "yes", "name": "Legends Pub House & Venue", "height": null, "height_m": null, "levels": null, "tract_id": "40051000502", "tract_name": "5.02", "tags": {"addr:city": "Chickasha", "addr:housenumber": "3127", "addr:postcode": "73018", "addr:state": "OK", "addr:street": "South 4th Street", "amenity": "nightclub", "building": "yes", "name": "Legends Pub House & Venue"}}}, {"type": "Feature", "geometry": {"type": "Polygon", "coordinates": [[[-97.9341856, 35.0101744], [-97.934187, 35.0097605], [-97.9339901, 35.0097601], [-97.9339899, 35.0098259], [-97.9336326, 35.0098251], [-97.9336316, 35.0101236], [-97.9339154, 35.0101242], [-97.9339153, 35.0101738], [-97.9341856, 35.0101744]]]}, "properties": {"osm_id": 1055872683, "building": "yes", "name": "Chickasha Bowling Center", "height": null, "height_m": null, "levels": null, "tract_id": "40051000502", "tract_name": "5.02", "tags": {"addr:city": "Chickasha", "addr:housenumber": "3501", "addr:postcode": "73018", "addr:state": "OK", "addr:street": "South 4th Street", "building": "yes", "leisure": "bowling_alley", "name": "Chickasha Bowling Center", "phone": "+1-405-825-3550", "website": "https://chickashabowling.business.site/"}}}, {"type": "Feature", "geometry": {"type": "Polygon", "coordinates": [[[-97.9359083, 35.0286267], [-97.9359066, 35.0282689], [-97.9355235, 35.02827], [-97.935521, 35.0285813], [-97.9355622, 35.0286257], [-97.9359083, 35.0286267]]]}, "properties": {"osm_id": 1187697753, "building": "yes", "name": "Walgreens", "height": null, "height_m": null, "levels": null, "tract_id": "40051000502", "tract_name": "5.02", "tags": {"addr:city": "Chickasha", "addr:housenumber": "2120", "addr:postcode": "73018", "addr:state": "OK", "addr:street": "South 4th Street", "brand": "Walgreens", "brand:wikidata": "Q1591889", "building": "yes", "name": "Walgreens", "shop": "chemist", "website": "https://www.walgreens.com/locator/walgreens-2120+s+4th+st-chickasha-ok-73018/id=12009"}}}, {"type": "Feature", "geometry": {"type": "Polygon", "coordinates": [[[-97.9357775, 35.0176267], [-97.935604, 35.0176253], [-97.935597, 35.0174311], [-97.9355721, 35.0174308], [-97.9355727, 35.0174141], [-97.9354385, 35.0174132], [-97.9354373, 35.0173008], [-97.9355733, 35.0173008], [-97.9355733, 35.0172889], [-97.9355978, 35.0172884], [-97.9355867, 35.0171082], [-97.9356001, 35.0171099], [-97.9355967, 35.0170302], [-97.9356128, 35.0170297], [-97.9356081, 35.0169962], [-97.9357576, 35.0169929], [-97.9357576, 35.0170028], [-97.9357757, 35.0170017], [-97.9357764, 35.0170291], [-97.9357898, 35.0170291], [-97.9357939, 35.0171483], [-97.9358046, 35.0171483], [-97.9358066, 35.0175228], [-97.9357945, 35.0175217], [-97.9357945, 35.017603], [-97.9357778, 35.0176041], [-97.9357775, 35.0176267]]]}, "properties": {"osm_id": 1225798640, "building": "yes", "name": "Hampton Inn Chickasha", "height": null, "height_m": null, "levels": null, "tract_id": "40051000502", "tract_name": "5.02", "tags": {"addr:city": "Chickasha", "addr:housenumber": "3004", "addr:postcode": "73018", "addr:state": "OK", "addr:street": "South 4th Street", "alt_name": "Hampton Inn", "branch": "Chickasha", "brand": "Hampton", "brand:wikidata": "Q5646230", "building": "yes", "name": "Hampton Inn Chickasha", "official_name": "Hampton Inn & Suites by Hilton", "phone": "+1 405-320-5955", "ref": "CHKSFHX", "tourism": "hotel", "website": "https://www.hilton.com/en/hotels/chksfhx-hampton-chickasha/"}}}, {"type": "Feature", "geometry": {"type": "Polygon", "coordinates": [[[-97.9343487, 35.0287926], [-97.9341474, 35.028788], [-97.9341479, 35.0288217], [-97.9335943, 35.0288246], [-97.9335928, 35.0294011], [-97.934152, 35.0293948], [-97.9341474, 35.0293115], [-97.9343369, 35.0293115], [-97.9343351, 35.0292719], [-97.9344472, 35.0292724], [-97.9344478, 35.0291766], [-97.9343473, 35.029175], [-97.9343487, 35.0287926]]]}, "properties": {"osm_id": 1225798703, "building": "yes", "name": "", "height": null, "height_m": null, "levels": null, "tract_id": "40051000502", "tract_name": "5.02", "tags": {"building": "yes"}}}, {"type": "Feature", "geometry": {"type": "Polygon", "coordinates": [[[-97.936177, 35.0208923], [-97.9355024, 35.020889], [-97.9354836, 35.020833], [-97.9354608, 35.0208335], [-97.9354548, 35.0207866], [-97.9354555, 35.0207319], [-97.936181, 35.0207451], [-97.936177, 35.0208923]]]}, "properties": {"osm_id": 1225799240, "building": "yes", "name": "Super 8 by Wyndham Chickasha", "height": null, "height_m": null, "levels": null, "tract_id": "40051000502", "tract_name": "5.02", "tags": {"addr:city": "Chickasha", "addr:housenumber": "2728", "addr:postcode": "73018", "addr:state": "OK", "addr:street": "South 4th Street Off I44 at Exit 80", "branch": "Chickasha", "brand": "Super 8", "brand:wikidata": "Q5364003", "building": "yes", "name": "Super 8 by Wyndham Chickasha", "phone": "+1 405-825-1859", "ref": "08384", "tourism": "motel", "website": "https://www.wyndhamhotels.com/super-8/chickasha-oklahoma/super-8-chickasha/overview"}}}, {"type": "Feature", "geometry": {"type": "Polygon", "coordinates": [[[-97.9360612, 35.0216164], [-97.9353268, 35.0216147], [-97.9353241, 35.0214495], [-97.9360541, 35.0214487], [-97.9360612, 35.0216164]]]}, "properties": {"osm_id": 1225799442, "building": "yes", "name": "Holiday Inn Express & Suites Chickasha, an IHG Hotel", "height": null, "height_m": null, "levels": null, "tract_id": "40051000502", "tract_name": "5.02", "tags": {"building": "yes", "name": "Holiday Inn Express & Suites Chickasha, an IHG Hotel"}}}, {"type": "Feature", "geometry": {"type": "Polygon", "coordinates": [[[-97.9360387, 35.0191231], [-97.9357785, 35.0191189], [-97.9357775, 35.0191481], [-97.9356037, 35.0191464], [-97.9355996, 35.0191173], [-97.9355589, 35.0191156], [-97.9355589, 35.0191298], [-97.935379, 35.0191281], [-97.9353811, 35.0191098], [-97.9353445, 35.0191098], [-97.9353404, 35.0190582], [-97.9353709, 35.0190548], [-97.9353709, 35.019034], [-97.9353475, 35.0190324], [-97.9353506, 35.0189641], [-97.9353831, 35.018965], [-97.9353801, 35.0189541], [-97.9359635, 35.0189566], [-97.9359635, 35.0189691], [-97.9360112, 35.0189691], [-97.9360112, 35.0189899], [-97.9360498, 35.0189908], [-97.9360387, 35.0191231]]]}, "properties": {"osm_id": 1225799990, "building": "yes", "name": "Fairfield Inn & Suites Chickasha", "height": null, "height_m": null, "levels": null, "tract_id": "40051000502", "tract_name": "5.02", "tags": {"addr:city": "Chickasha", "addr:postcode": "73018", "addr:state": "OK", "branch": "Chickasha", "brand": "Fairfield Inn", "brand:wikidata": "Q5430314", "building": "yes", "name": "Fairfield Inn & Suites Chickasha", "official_name": "Fairfield Inn & Suites by Marriott", "ref": "OKCSW", "tourism": "hotel", "website": "https://www.marriott.com/okcsw"}}}, {"type": "Feature", "geometry": {"type": "Polygon", "coordinates": [[[-97.9341191, 35.0066307], [-97.9338133, 35.0066297], [-97.933814, 35.0064945], [-97.9333543, 35.0064929], [-97.9333564, 35.0060755], [-97.9337825, 35.0060769], [-97.9337828, 35.0060187], [-97.9338817, 35.0060191], [-97.933882, 35.0059661], [-97.9334842, 35.0059648], [-97.9334846, 35.0058826], [-97.9335477, 35.0058828], [-97.9335499, 35.0054428], [-97.9341297, 35.0054447], [-97.9341293, 35.005508], [-97.9342472, 35.0055084], [-97.9342471, 35.0055212], [-97.9343984, 35.0055217], [-97.9343978, 35.0056403], [-97.9342465, 35.0056398], [-97.9342464, 35.0056556], [-97.9341286, 35.0056552], [-97.9341271, 35.0059658], [-97.9339627, 35.0059653], [-97.9339622, 35.0060775], [-97.9341218, 35.006078], [-97.9341191, 35.0066307]]]}, "properties": {"osm_id": 1252194115, "building": "industrial", "name": "Hart Trailers", "height": null, "height_m": null, "levels": null, "tract_id": "40051000502", "tract_name": "5.02", "tags": {"building": "industrial", "name": "Hart Trailers", "shop": "trade", "trade": "trailers"}}}, {"type": "Feature", "geometry": {"type": "Polygon", "coordinates": [[[-97.9278396, 35.0203237], [-97.9278373, 35.0199327], [-97.92749, 35.0199341], [-97.9274924, 35.0203251], [-97.9278396, 35.0203237]]]}, "properties": {"osm_id": 1328188959, "building": "yes", "name": "Trinity Baptist Church", "height": null, "height_m": null, "levels": null, "tract_id": "40051000502", "tract_name": "5.02", "tags": {"addr:city": "Chickasha", "addr:housenumber": "428", "addr:postcode": "73018", "addr:state": "OK", "addr:street": "East Almar Drive", "amenity": "place_of_worship", "building": "yes", "denomination": "baptist", "name": "Trinity Baptist Church", "religion": "christian", "service_times": "Su 10:30", "website": "https://www.trinitychickasha.org/"}}}, {"type": "Feature", "geometry": {"type": "Polygon", "coordinates": [[[-97.9317962, 35.0288151], [-97.9313194, 35.0288138], [-97.9313186, 35.0290091], [-97.9317955, 35.0290103], [-97.9317962, 35.0288151]]]}, "properties": {"osm_id": 1340566581, "building": "retail", "name": "", "height": null, "height_m": null, "levels": null, "tract_id": "40051000502", "tract_name": "5.02", "tags": {"building": "retail"}}}]}