{"type": "FeatureCollection", "features": [{"type": "Feature", "geometry": {"type": "Polygon", "coordinates": [[[-96.3739128, 33.9972872], [-96.3738681, 33.9974091], [-96.3737655, 33.9973833], [-96.3738102, 33.9972614], [-96.3739128, 33.9972872]]]}, "properties": {"osm_id": 463560407, "building": "roof", "name": "", "height": null, "height_m": null, "levels": null, "tract_id": "40013796300", "tract_name": "7963", "tags": {"amenity": "fuel", "building": "roof"}}}, {"type": "Feature", "geometry": {"type": "Polygon", "coordinates": [[[-96.3825189, 33.9989423], [-96.3826036, 33.9989637], [-96.3826201, 33.9989191], [-96.3829093, 33.9989922], [-96.3828863, 33.9990549], [-96.3830713, 33.9991016], [-96.383078, 33.9990836], [-96.3832327, 33.9991226], [-96.3832692, 33.9990232], [-96.3835782, 33.9991013], [-96.3835169, 33.9992679], [-96.3832037, 33.9991888], [-96.3832164, 33.9991541], [-96.3831716, 33.9991428], [-96.3831088, 33.9993136], [-96.3831747, 33.9993303], [-96.3832056, 33.9992461], [-96.3834304, 33.9993029], [-96.3833604, 33.9994934], [-96.383134, 33.9994362], [-96.3831643, 33.9993538], [-96.3831, 33.9993376], [-96.3830131, 33.9995741], [-96.3829664, 33.9995623], [-96.3829563, 33.9995899], [-96.3830538, 33.9996145], [-96.3829953, 33.9997737], [-96.382653, 33.9996873], [-96.3827114, 33.9995284], [-96.382853, 33.9995642], [-96.3828633, 33.9995362], [-96.3828307, 33.999528], [-96.3829139, 33.9993017], [-96.3828201, 33.999278], [-96.3827416, 33.9994915], [-96.3826476, 33.999506], [-96.3825871, 33.9994524], [-96.3826698, 33.9992272], [-96.38261, 33.9992121], [-96.3825349, 33.9994164], [-96.3825697, 33.9994329], [-96.3825766, 33.9994583], [-96.3825024, 33.9996599], [-96.3822761, 33.9996027], [-96.3825189, 33.9989423]]]}, "properties": {"osm_id": 608003943, "building": "school", "name": "", "height": null, "height_m": null, "levels": null, "tract_id": "40013796300", "tract_name": "7963", "tags": {"building": "school"}}}, {"type": "Feature", "geometry": {"type": "Polygon", "coordinates": [[[-96.3744535, 33.9952687], [-96.3746084, 33.9953082], [-96.3745561, 33.9954494], [-96.3744012, 33.9954099], [-96.3744535, 33.9952687]]]}, "properties": {"osm_id": 608126002, "building": "yes", "name": "Dairy Queen", "height": null, "height_m": null, "levels": null, "tract_id": "40013796300", "tract_name": "7963", "tags": {"amenity": "fast_food", "brand": "Dairy Queen", "brand:wikidata": "Q1141226", "building": "yes", "cuisine": "ice_cream;burger", "name": "Dairy Queen", "takeaway": "yes"}}}, {"type": "Feature", "geometry": {"type": "Polygon", "coordinates": [[[-96.3761245, 33.9910101], [-96.3760224, 33.9909854], [-96.3760975, 33.9907719], [-96.3761996, 33.9907966], [-96.3761245, 33.9910101]]]}, "properties": {"osm_id": 608126086, "building": "yes", "name": "Main Street BBQ", "height": null, "height_m": null, "levels": null, "tract_id": "40013796300", "tract_name": "7963", "tags": {"amenity": "restaurant", "building": "yes", "name": "Main Street BBQ"}}}, {"type": "Feature", "geometry": {"type": "Polygon", "coordinates": [[[-96.3901055, 33.9933685], [-96.3899468, 33.9933258], [-96.3899057, 33.9934308], [-96.3898012, 33.9934027], [-96.3896545, 33.9937781], [-96.3899177, 33.9938488], [-96.3901055, 33.9933685]]]}, "properties": {"osm_id": 608126098, "building": "civic", "name": "Durant Post Office", "height": null, "height_m": null, "levels": null, "tract_id": "40013796300", "tract_name": "7963", "tags": {"amenity": "post_office", "building": "civic", "name": "Durant Post Office", "operator": "United States Postal Service", "operator:short": "USPS", "operator:type": "public", "operator:website": "https://www.usps.com", "operator:wikidata": "Q668687", "operator:wikipedia": "en:United States Postal Service"}}}, {"type": "Feature", "geometry": {"type": "Polygon", "coordinates": [[[-96.3764877, 33.9906127], [-96.3765948, 33.9903304], [-96.3767037, 33.9903589], [-96.3765965, 33.9906411], [-96.3764877, 33.9906127]]]}, "properties": {"osm_id": 608126101, "building": "yes", "name": "Roma", "height": null, "height_m": null, "levels": null, "tract_id": "40013796300", "tract_name": "7963", "tags": {"amenity": "restaurant", "building": "yes", "name": "Roma", "wheelchair": "yes"}}}, {"type": "Feature", "geometry": {"type": "Polygon", "coordinates": [[[-96.3752058, 33.9934341], [-96.3751664, 33.9935402], [-96.3750653, 33.9935144], [-96.3750483, 33.9935602], [-96.3749907, 33.9935455], [-96.3750077, 33.9934997], [-96.3749747, 33.9934913], [-96.375014, 33.9933852], [-96.3752058, 33.9934341]]]}, "properties": {"osm_id": 608126116, "building": "yes", "name": "Taco Casa", "height": null, "height_m": null, "levels": null, "tract_id": "40013796300", "tract_name": "7963", "tags": {"amenity": "fast_food", "brand": "Taco Casa", "brand:wikidata": "Q123307075", "building": "yes", "cuisine": "tacos;tex-mex", "name": "Taco Casa", "takeaway": "yes"}}}, {"type": "Feature", "geometry": {"type": "Polygon", "coordinates": [[[-96.3896717, 33.9949696], [-96.389612, 33.9948784], [-96.3897286, 33.9945627], [-96.3900137, 33.9946361], [-96.390037, 33.9946686], [-96.3899003, 33.9950252], [-96.3896717, 33.9949696]]]}, "properties": {"osm_id": 608126117, "building": "yes", "name": "CVS Pharmacy", "height": null, "height_m": null, "levels": null, "tract_id": "40013796300", "tract_name": "7963", "tags": {"amenity": "pharmacy", "brand": "CVS Pharmacy", "brand:website": "https://www.cvs.com/", "brand:wikidata": "Q2078880", "building": "yes", "dispensing": "yes", "healthcare": "pharmacy", "name": "CVS Pharmacy", "short_name": "CVS", "website": "https://www.cvs.com/store-locator/durant-ok-pharmacies/1250-west-main-st-durant-ok-74701/storeid=10213"}}}, {"type": "Feature", "geometry": {"type": "Polygon", "coordinates": [[[-96.3891057, 33.9942057], [-96.3892687, 33.9942501], [-96.3892932, 33.9941881], [-96.389394, 33.9942155], [-96.3892971, 33.9944602], [-96.3890995, 33.9944064], [-96.3891289, 33.9943321], [-96.3890628, 33.9943142], [-96.3891057, 33.9942057]]]}, "properties": {"osm_id": 608126118, "building": "retail", "name": "Salita's", "height": null, "height_m": null, "levels": null, "tract_id": "40013796300", "tract_name": "7963", "tags": {"amenity": "restaurant", "building": "retail", "name": "Salita's"}}}, {"type": "Feature", "geometry": {"type": "Polygon", "coordinates": [[[-96.386109, 33.9938355], [-96.38605, 33.9939937], [-96.3860402, 33.9939912], [-96.386034, 33.9940077], [-96.3856996, 33.9939219], [-96.3857058, 33.9939054], [-96.3856771, 33.9938981], [-96.3857362, 33.9937399], [-96.3858521, 33.9937696], [-96.3858642, 33.9937373], [-96.3860012, 33.9937724], [-96.3859892, 33.9938047], [-96.386109, 33.9938355]]]}, "properties": {"osm_id": 608127774, "building": "yes", "name": "Landmark Bank", "height": null, "height_m": null, "levels": null, "tract_id": "40013796300", "tract_name": "7963", "tags": {"amenity": "bank", "building": "yes", "name": "Landmark Bank"}}}, {"type": "Feature", "geometry": {"type": "Polygon", "coordinates": [[[-96.3884908, 33.9935247], [-96.3885767, 33.9932911], [-96.3887169, 33.9933266], [-96.3886311, 33.9935601], [-96.3884908, 33.9935247]]]}, "properties": {"osm_id": 608127775, "building": "yes", "name": "Pizza Hut", "height": null, "height_m": null, "levels": null, "tract_id": "40013796300", "tract_name": "7963", "tags": {"addr:city": "Durant", "addr:housenumber": "119", "addr:postcode": "74701", "addr:state": "OK", "addr:street": "West Main Street", "amenity": "restaurant", "brand": "Pizza Hut", "brand:wikidata": "Q191615", "building": "yes", "cuisine": "pizza", "name": "Pizza Hut", "opening_hours": "Mo-Th 10:45-22:00; Fr,Sa 10:45-23:00; Su 11:45-22:00", "phone": "+1 580-924-3908", "website": "https://locations.pizzahut.com/ok/durant/1119-w-main-st"}}}, {"type": "Feature", "geometry": {"type": "Polygon", "coordinates": [[[-96.3883567, 33.9935075], [-96.3882135, 33.9934711], [-96.3883637, 33.9930642], [-96.3885069, 33.9931005], [-96.3883567, 33.9935075]]]}, "properties": {"osm_id": 608179356, "building": "yes", "name": "", "height": null, "height_m": null, "levels": null, "tract_id": "40013796300", "tract_name": "7963", "tags": {"building": "yes"}}}, {"type": "Feature", "geometry": {"type": "Polygon", "coordinates": [[[-96.3873428, 33.9933429], [-96.3871794, 33.9933019], [-96.3872934, 33.9929895], [-96.3874568, 33.9930305], [-96.3873428, 33.9933429]]]}, "properties": {"osm_id": 608179361, "building": "yes", "name": "Mental Health Center", "height": null, "height_m": null, "levels": null, "tract_id": "40013796300", "tract_name": "7963", "tags": {"amenity": "clinic", "building": "yes", "name": "Mental Health Center"}}}, {"type": "Feature", "geometry": {"type": "Polygon", "coordinates": [[[-96.3884492, 33.9929737], [-96.3879441, 33.9928423], [-96.3879885, 33.9927248], [-96.3873443, 33.9925572], [-96.3872984, 33.9926785], [-96.3862809, 33.9924137], [-96.3862878, 33.9923953], [-96.3859438, 33.9923057], [-96.3860945, 33.9919079], [-96.3871378, 33.9921795], [-96.3871314, 33.9921965], [-96.3874045, 33.9922676], [-96.3873863, 33.9923159], [-96.3876564, 33.9923862], [-96.3876698, 33.9923507], [-96.3885941, 33.9925912], [-96.3884492, 33.9929737]]]}, "properties": {"osm_id": 608179367, "building": "retail", "name": "", "height": null, "height_m": null, "levels": null, "tract_id": "40013796300", "tract_name": "7963", "tags": {"building": "retail"}}}, {"type": "Feature", "geometry": {"type": "Polygon", "coordinates": [[[-96.3799582, 33.9931386], [-96.379667, 33.9930733], [-96.3795691, 33.993328], [-96.3798656, 33.9933943], [-96.3798455, 33.9934497], [-96.3801604, 33.9935281], [-96.3801894, 33.9934479], [-96.3802882, 33.9934725], [-96.3803445, 33.9933172], [-96.3800246, 33.9932375], [-96.380052, 33.993162], [-96.3799582, 33.9931386]]]}, "properties": {"osm_id": 608695529, "building": "yes", "name": "Bryan County Courthouse", "height": null, "height_m": null, "levels": null, "tract_id": "40013796300", "tract_name": "7963", "tags": {"amenity": "courthouse", "building": "yes", "name": "Bryan County Courthouse"}}}, {"type": "Feature", "geometry": {"type": "Polygon", "coordinates": [[[-96.3789508, 33.992961], [-96.3789709, 33.992891], [-96.3784653, 33.9927598], [-96.3784224, 33.9928687], [-96.3783869, 33.9928537], [-96.378343, 33.9928629], [-96.3783042, 33.9929581], [-96.3783955, 33.9929757], [-96.378478, 33.9929917], [-96.3784694, 33.9930199], [-96.3788382, 33.9931089], [-96.3788462, 33.9930766], [-96.3789857, 33.9931133], [-96.3790219, 33.9930199], [-96.3789374, 33.9929988], [-96.3789508, 33.992961]]]}, "properties": {"osm_id": 608695530, "building": "yes", "name": "Durant City Hall", "height": null, "height_m": null, "levels": null, "tract_id": "40013796300", "tract_name": "7963", "tags": {"amenity": "townhall", "building": "yes", "name": "Durant City Hall"}}}, {"type": "Feature", "geometry": {"type": "Polygon", "coordinates": [[[-96.3781046, 33.9926291], [-96.3777183, 33.9925357], [-96.3776459, 33.9927248], [-96.3778618, 33.9927737], [-96.3778712, 33.9927414], [-96.3780523, 33.9927837], [-96.3781046, 33.9926291]]]}, "properties": {"osm_id": 608695531, "building": "yes", "name": "Wheeler Federal Building", "height": null, "height_m": null, "levels": null, "tract_id": "40013796300", "tract_name": "7963", "tags": {"building": "yes", "name": "Wheeler Federal Building", "office": "government"}}}, {"type": "Feature", "geometry": {"type": "Polygon", "coordinates": [[[-96.3838365, 33.992558], [-96.383984, 33.9921466], [-96.3836487, 33.9920532], [-96.3835012, 33.9924757], [-96.3838365, 33.992558]]]}, "properties": {"osm_id": 608696956, "building": "yes", "name": "Nautilus", "height": null, "height_m": null, "levels": null, "tract_id": "40013796300", "tract_name": "7963", "tags": {"building": "yes", "leisure": "fitness_centre", "name": "Nautilus"}}}, {"type": "Feature", "geometry": {"type": "Polygon", "coordinates": [[[-96.3895817, 33.9931806], [-96.3897078, 33.9928493], [-96.389504, 33.9927959], [-96.3893859, 33.9931339], [-96.3895817, 33.9931806]]]}, "properties": {"osm_id": 608696957, "building": "yes", "name": "Social Security Administration", "height": null, "height_m": null, "levels": null, "tract_id": "40013796300", "tract_name": "7963", "tags": {"building": "yes", "government": "social_security", "name": "Social Security Administration", "office": "government", "operator": "Social Security Administration", "operator:short": "SSA", "operator:wikidata": "Q2824618"}}}, {"type": "Feature", "geometry": {"type": "Polygon", "coordinates": [[[-96.3789499, 33.9935721], [-96.3790238, 33.9933665], [-96.3789461, 33.9933474], [-96.378961, 33.9933061], [-96.3788362, 33.9932752], [-96.3788163, 33.9933304], [-96.3786503, 33.9932894], [-96.3785964, 33.9934394], [-96.3787126, 33.9934681], [-96.3786976, 33.9935098], [-96.3789499, 33.9935721]]]}, "properties": {"osm_id": 702828284, "building": "yes", "name": "", "height": null, "height_m": null, "levels": null, "tract_id": "40013796300", "tract_name": "7963", "tags": {"building": "yes"}}}, {"type": "Feature", "geometry": {"type": "Polygon", "coordinates": [[[-96.3812944, 33.9939923], [-96.3809866, 33.9939162], [-96.3809967, 33.993888], [-96.3809015, 33.9938645], [-96.3808263, 33.9940735], [-96.3809247, 33.9940978], [-96.380967, 33.9939803], [-96.3811867, 33.9940346], [-96.3811451, 33.9941503], [-96.3812301, 33.9941713], [-96.3812944, 33.9939923]]]}, "properties": {"osm_id": 976845980, "building": "church", "name": "Saint Johns Episcopal Church", "height": null, "height_m": null, "levels": null, "tract_id": "40013796300", "tract_name": "7963", "tags": {"amenity": "place_of_worship", "building": "church", "ele": "200", "gnis:feature_id": "1782895", "mapillary": "493805471896045", "name": "Saint Johns Episcopal Church", "religion": "christian"}}}, {"type": "Feature", "geometry": {"type": "Polygon", "coordinates": [[[-96.3874005, 33.9940422], [-96.3874635, 33.9938844], [-96.3876589, 33.993938], [-96.3875845, 33.9941243], [-96.3875009, 33.9941013], [-96.3875122, 33.9940729], [-96.3874005, 33.9940422]]]}, "properties": {"osm_id": 977749420, "building": "yes", "name": "cLouD9", "height": null, "height_m": null, "levels": null, "tract_id": "40013796300", "tract_name": "7963", "tags": {"addr:city": "Durant", "addr:country": "US", "addr:housenumber": "1026", "addr:postcode": "74701", "addr:state": "OK", "addr:street": "West Main Street", "building": "yes", "mapillary": "2907789006103902", "name": "cLouD9", "opening_hours": "Mo-Th 11:00-23:00; Fr 11:00-24:00; Sa 00:00-01:00,11:00-24:00; Su 00:00-01:00,11:00-23:00", "phone": "+1 580 380 4557", "shop": "e-cigarette", "website": "https://cloud9durant.com/"}}}, {"type": "Feature", "geometry": {"type": "Polygon", "coordinates": [[[-96.3748786, 33.997776], [-96.3747555, 33.9977483], [-96.3747996, 33.9976134], [-96.3748453, 33.9976237], [-96.3748857, 33.9975006], [-96.3749631, 33.997518], [-96.3748786, 33.997776]]]}, "properties": {"osm_id": 1002868797, "building": "yes", "name": "", "height": null, "height_m": null, "levels": null, "tract_id": "40013796300", "tract_name": "7963", "tags": {"amenity": "car_wash", "building": "yes"}}}, {"type": "Feature", "geometry": {"type": "Polygon", "coordinates": [[[-96.3757919, 33.9918463], [-96.3754231, 33.9917529], [-96.3754711, 33.9916226], [-96.3756537, 33.9916689], [-96.3757342, 33.9914502], [-96.3759415, 33.9915027], [-96.3759204, 33.99156], [-96.3759451, 33.9915663], [-96.3758893, 33.9917176], [-96.3758647, 33.9917114], [-96.3758433, 33.9917695], [-96.3758221, 33.9917642], [-96.3757919, 33.9918463]]]}, "properties": {"osm_id": 1004027644, "building": "yes", "name": "Durant Central Fire Station", "height": null, "height_m": null, "levels": null, "tract_id": "40013796300", "tract_name": "7963", "tags": {"amenity": "fire_station", "building": "yes", "name": "Durant Central Fire Station"}}}, {"type": "Feature", "geometry": {"type": "Polygon", "coordinates": [[[-96.3778699, 33.9916301], [-96.377516, 33.9915416], [-96.3776453, 33.9911857], [-96.3779992, 33.9912741], [-96.3778699, 33.9916301]]]}, "properties": {"osm_id": 1004387880, "building": "yes", "name": "Massey Building", "height": null, "height_m": null, "levels": null, "tract_id": "40013796300", "tract_name": "7963", "tags": {"building": "yes", "name": "Massey Building"}}}, {"type": "Feature", "geometry": {"type": "Polygon", "coordinates": [[[-96.3779992, 33.9912741], [-96.3785403, 33.9913973], [-96.3784271, 33.9917341], [-96.378322, 33.9917099], [-96.3782048, 33.9917068], [-96.3778699, 33.9916301], [-96.3779992, 33.9912741]]]}, "properties": {"osm_id": 1004387881, "building": "yes", "name": "First Texoma National Bank Headquarters", "height": null, "height_m": null, "levels": null, "tract_id": "40013796300", "tract_name": "7963", "tags": {"amenity": "bank", "building": "yes", "name": "First Texoma National Bank Headquarters", "wheelchair": "yes"}}}, {"type": "Feature", "geometry": {"type": "Polygon", "coordinates": [[[-96.3800692, 33.991092], [-96.3800102, 33.9912559], [-96.3802174, 33.9913072], [-96.3802764, 33.9911434], [-96.3800692, 33.991092]]]}, "properties": {"osm_id": 1004387882, "building": "yes", "name": "", "height": null, "height_m": null, "levels": null, "tract_id": "40013796300", "tract_name": "7963", "tags": {"building": "yes"}}}, {"type": "Feature", "geometry": {"type": "Polygon", "coordinates": [[[-96.3800102, 33.9912559], [-96.3802174, 33.9913072], [-96.3801614, 33.9914606], [-96.3800319, 33.9914284], [-96.380012, 33.9914834], [-96.3799349, 33.9914642], [-96.3800102, 33.9912559]]]}, "properties": {"osm_id": 1004387883, "building": "yes", "name": "Three Valley Museum", "height": null, "height_m": null, "levels": null, "tract_id": "40013796300", "tract_name": "7963", "tags": {"building": "yes", "check_date:opening_hours": "2023-07-24", "contact:facebook": "https://www.facebook.com/people/Three-Valley-Museum/100057848581513/", "name": "Three Valley Museum", "opening_hours": "Tu-Fr 13:00-17:00; Sa 11:00-15:00", "tourism": "museum", "website": "http://threevalleymuseum.com/", "wheelchair": "yes"}}}, {"type": "Feature", "geometry": {"type": "Polygon", "coordinates": [[[-96.3794477, 33.9913593], [-96.3795196, 33.991175], [-96.3795822, 33.9910087], [-96.3799133, 33.9910943], [-96.3797803, 33.9914477], [-96.3794477, 33.9913593]]]}, "properties": {"osm_id": 1004387884, "building": "yes", "name": "", "height": null, "height_m": null, "levels": null, "tract_id": "40013796300", "tract_name": "7963", "tags": {"building": "yes"}}}, {"type": "Feature", "geometry": {"type": "Polygon", "coordinates": [[[-96.3817164, 33.9937624], [-96.3818419, 33.9934139], [-96.3821672, 33.9934945], [-96.3820417, 33.9938429], [-96.3817164, 33.9937624]]]}, "properties": {"osm_id": 1124829056, "building": "yes", "name": "", "height": null, "height_m": null, "levels": null, "tract_id": "40013796300", "tract_name": "7963", "tags": {"addr:city": "Durant", "addr:housenumber": "205", "addr:postcode": "74701", "addr:state": "OK", "addr:street": "North 6th Avenue", "building": "yes", "telecom": "exchange"}}}, {"type": "Feature", "geometry": {"type": "Polygon", "coordinates": [[[-96.374381, 33.9947516], [-96.3745389, 33.9947906], [-96.3744232, 33.9951129], [-96.3742653, 33.995074], [-96.374381, 33.9947516]]]}, "properties": {"osm_id": 1133405415, "building": "yes", "name": "", "height": null, "height_m": null, "levels": null, "tract_id": "40013796300", "tract_name": "7963", "tags": {"building": "yes"}}}, {"type": "Feature", "geometry": {"type": "Polygon", "coordinates": [[[-96.3738765, 33.9963209], [-96.3739375, 33.9961578], [-96.3742675, 33.9962427], [-96.3742065, 33.9964058], [-96.3738765, 33.9963209]]]}, "properties": {"osm_id": 1133405416, "building": "yes", "name": "", "height": null, "height_m": null, "levels": null, "tract_id": "40013796300", "tract_name": "7963", "tags": {"building": "yes"}}}, {"type": "Feature", "geometry": {"type": "Polygon", "coordinates": [[[-96.3745467, 33.9963261], [-96.3745743, 33.9962481], [-96.3747795, 33.9962981], [-96.3747519, 33.9963761], [-96.3745467, 33.9963261]]]}, "properties": {"osm_id": 1133405417, "building": "yes", "name": "", "height": null, "height_m": null, "levels": null, "tract_id": "40013796300", "tract_name": "7963", "tags": {"building": "yes"}}}, {"type": "Feature", "geometry": {"type": "Polygon", "coordinates": [[[-96.3747726, 33.996901], [-96.3745299, 33.9975514], [-96.3743385, 33.9975023], [-96.3745812, 33.9968518], [-96.3747726, 33.996901]]]}, "properties": {"osm_id": 1133405418, "building": "yes", "name": "", "height": null, "height_m": null, "levels": null, "tract_id": "40013796300", "tract_name": "7963", "tags": {"building": "yes"}}}, {"type": "Feature", "geometry": {"type": "Polygon", "coordinates": [[[-96.3747244, 33.9974463], [-96.374656, 33.9976237], [-96.3746027, 33.9976095], [-96.3746711, 33.9974322], [-96.3747244, 33.9974463]]]}, "properties": {"osm_id": 1133405419, "building": "yes", "name": "", "height": null, "height_m": null, "levels": null, "tract_id": "40013796300", "tract_name": "7963", "tags": {"building": "yes"}}}, {"type": "Feature", "geometry": {"type": "Polygon", "coordinates": [[[-96.3902256, 33.9959504], [-96.3895878, 33.9957689], [-96.3896396, 33.9956439], [-96.3899491, 33.995732], [-96.3899367, 33.9957619], [-96.390265, 33.9958554], [-96.3902256, 33.9959504]]]}, "properties": {"osm_id": 1133405425, "building": "yes", "name": "", "height": null, "height_m": null, "levels": null, "tract_id": "40013796300", "tract_name": "7963", "tags": {"building": "yes"}}}, {"type": "Feature", "geometry": {"type": "Polygon", "coordinates": [[[-96.375298, 33.9977031], [-96.3753305, 33.997617], [-96.3755515, 33.9976744], [-96.3755189, 33.9977605], [-96.375298, 33.9977031]]]}, "properties": {"osm_id": 1133596634, "building": "yes", "name": "", "height": null, "height_m": null, "levels": null, "tract_id": "40013796300", "tract_name": "7963", "tags": {"building": "yes"}}}, {"type": "Feature", "geometry": {"type": "Polygon", "coordinates": [[[-96.3762662, 33.9974924], [-96.3762313, 33.9975839], [-96.3759525, 33.9975107], [-96.3759874, 33.9974193], [-96.3762662, 33.9974924]]]}, "properties": {"osm_id": 1133596635, "building": "yes", "name": "", "height": null, "height_m": null, "levels": null, "tract_id": "40013796300", "tract_name": "7963", "tags": {"building": "yes"}}}, {"type": "Feature", "geometry": {"type": "Polygon", "coordinates": [[[-96.3760016, 33.9973713], [-96.3760333, 33.9972844], [-96.3763188, 33.9973559], [-96.3762871, 33.9974429], [-96.3760016, 33.9973713]]]}, "properties": {"osm_id": 1133596636, "building": "yes", "name": "", "height": null, "height_m": null, "levels": null, "tract_id": "40013796300", "tract_name": "7963", "tags": {"building": "yes"}}}, {"type": "Feature", "geometry": {"type": "Polygon", "coordinates": [[[-96.3758603, 33.9977915], [-96.3758927, 33.9977051], [-96.3761683, 33.9977763], [-96.3761359, 33.9978627], [-96.3758603, 33.9977915]]]}, "properties": {"osm_id": 1133596637, "building": "yes", "name": "", "height": null, "height_m": null, "levels": null, "tract_id": "40013796300", "tract_name": "7963", "tags": {"building": "yes"}}}, {"type": "Feature", "geometry": {"type": "Polygon", "coordinates": [[[-96.3758039, 33.9979294], [-96.3758366, 33.9978364], [-96.3761223, 33.9979053], [-96.3760896, 33.9979984], [-96.3758039, 33.9979294]]]}, "properties": {"osm_id": 1133596638, "building": "yes", "name": "", "height": null, "height_m": null, "levels": null, "tract_id": "40013796300", "tract_name": "7963", "tags": {"building": "yes"}}}, {"type": "Feature", "geometry": {"type": "Polygon", "coordinates": [[[-96.3736508, 33.9974539], [-96.3735583, 33.9974326], [-96.37358, 33.9973677], [-96.3736725, 33.9973889], [-96.3736508, 33.9974539]]]}, "properties": {"osm_id": 1133596666, "building": "roof", "name": "", "height": null, "height_m": null, "levels": null, "tract_id": "40013796300", "tract_name": "7963", "tags": {"building": "roof", "layer": "1"}}}, {"type": "Feature", "geometry": {"type": "Polygon", "coordinates": [[[-96.3733872, 33.9970089], [-96.3732999, 33.9972636], [-96.3732005, 33.9972402], [-96.3732877, 33.9969855], [-96.3733872, 33.9970089]]]}, "properties": {"osm_id": 1133596667, "building": "yes", "name": "", "height": null, "height_m": null, "levels": null, "tract_id": "40013796300", "tract_name": "7963", "tags": {"building": "yes"}}}, {"type": "Feature", "geometry": {"type": "Polygon", "coordinates": [[[-96.3728343, 33.9966677], [-96.3725833, 33.9966056], [-96.3726611, 33.9963894], [-96.3729121, 33.9964514], [-96.3728343, 33.9966677]]]}, "properties": {"osm_id": 1133596668, "building": "yes", "name": "", "height": null, "height_m": null, "levels": null, "tract_id": "40013796300", "tract_name": "7963", "tags": {"building": "yes"}}}, {"type": "Feature", "geometry": {"type": "Polygon", "coordinates": [[[-96.3723412, 33.9963091], [-96.3722425, 33.9963893], [-96.3721692, 33.9963273], [-96.3722678, 33.9962471], [-96.3723412, 33.9963091]]]}, "properties": {"osm_id": 1133596669, "building": "yes", "name": "", "height": null, "height_m": null, "levels": null, "tract_id": "40013796300", "tract_name": "7963", "tags": {"building": "yes"}}}, {"type": "Feature", "geometry": {"type": "Polygon", "coordinates": [[[-96.3723318, 33.9959981], [-96.3724592, 33.995739], [-96.3726081, 33.9957894], [-96.3724807, 33.9960484], [-96.3723318, 33.9959981]]]}, "properties": {"osm_id": 1133596670, "building": "yes", "name": "", "height": null, "height_m": null, "levels": null, "tract_id": "40013796300", "tract_name": "7963", "tags": {"building": "yes"}}}, {"type": "Feature", "geometry": {"type": "Polygon", "coordinates": [[[-96.3751316, 33.9924082], [-96.3750386, 33.9923811], [-96.3750607, 33.9923291], [-96.3751536, 33.9923562], [-96.3751316, 33.9924082]]]}, "properties": {"osm_id": 1133596671, "building": "yes", "name": "", "height": null, "height_m": null, "levels": null, "tract_id": "40013796300", "tract_name": "7963", "tags": {"building": "yes"}}}, {"type": "Feature", "geometry": {"type": "Polygon", "coordinates": [[[-96.3753661, 33.9924895], [-96.3755338, 33.9925319], [-96.3754527, 33.9927526], [-96.3752849, 33.9927102], [-96.3753661, 33.9924895]]]}, "properties": {"osm_id": 1133596672, "building": "yes", "name": "", "height": null, "height_m": null, "levels": null, "tract_id": "40013796300", "tract_name": "7963", "tags": {"building": "yes"}}}, {"type": "Feature", "geometry": {"type": "Polygon", "coordinates": [[[-96.3748746, 33.9925657], [-96.3749055, 33.9924823], [-96.3751301, 33.9925396], [-96.3750992, 33.9926229], [-96.3748746, 33.9925657]]]}, "properties": {"osm_id": 1133596673, "building": "yes", "name": "", "height": null, "height_m": null, "levels": null, "tract_id": "40013796300", "tract_name": "7963", "tags": {"building": "yes"}}}, {"type": "Feature", "geometry": {"type": "Polygon", "coordinates": [[[-96.3760527, 33.9922938], [-96.3761184, 33.9921042], [-96.3762552, 33.9921368], [-96.3761895, 33.9923264], [-96.3760527, 33.9922938]]]}, "properties": {"osm_id": 1133596674, "building": "yes", "name": "", "height": null, "height_m": null, "levels": null, "tract_id": "40013796300", "tract_name": "7963", "tags": {"building": "yes"}}}, {"type": "Feature", "geometry": {"type": "Polygon", "coordinates": [[[-96.3762975, 33.9916383], [-96.3762606, 33.9917434], [-96.3761615, 33.9917195], [-96.3761984, 33.9916144], [-96.3762975, 33.9916383]]]}, "properties": {"osm_id": 1133596675, "building": "yes", "name": "", "height": null, "height_m": null, "levels": null, "tract_id": "40013796300", "tract_name": "7963", "tags": {"building": "yes"}}}, {"type": "Feature", "geometry": {"type": "Polygon", "coordinates": [[[-96.3763994, 33.991799], [-96.3764423, 33.9916711], [-96.3765593, 33.9916981], [-96.3765164, 33.991826], [-96.3763994, 33.991799]]]}, "properties": {"osm_id": 1133596676, "building": "yes", "name": "", "height": null, "height_m": null, "levels": null, "tract_id": "40013796300", "tract_name": "7963", "tags": {"building": "yes"}}}, {"type": "Feature", "geometry": {"type": "Polygon", "coordinates": [[[-96.3763491, 33.9913175], [-96.3764049, 33.9913583], [-96.3763161, 33.9914419], [-96.3762602, 33.9914012], [-96.3763491, 33.9913175]]]}, "properties": {"osm_id": 1133596677, "building": "yes", "name": "", "height": null, "height_m": null, "levels": null, "tract_id": "40013796300", "tract_name": "7963", "tags": {"building": "yes"}}}, {"type": "Feature", "geometry": {"type": "Polygon", "coordinates": [[[-96.375578, 33.991094], [-96.3754995, 33.9913181], [-96.3753493, 33.9912819], [-96.3754278, 33.9910579], [-96.375578, 33.991094]]]}, "properties": {"osm_id": 1133596678, "building": "yes", "name": "", "height": null, "height_m": null, "levels": null, "tract_id": "40013796300", "tract_name": "7963", "tags": {"building": "yes"}}}, {"type": "Feature", "geometry": {"type": "Polygon", "coordinates": [[[-96.3894343, 33.9977499], [-96.38951, 33.9975597], [-96.389603, 33.9975852], [-96.3895272, 33.9977753], [-96.3894343, 33.9977499]]]}, "properties": {"osm_id": 1133596811, "building": "yes", "name": "", "height": null, "height_m": null, "levels": null, "tract_id": "40013796300", "tract_name": "7963", "tags": {"building": "yes"}}}, {"type": "Feature", "geometry": {"type": "Polygon", "coordinates": [[[-96.389962, 33.9973852], [-96.3900081, 33.9972715], [-96.3902515, 33.9973393], [-96.3902054, 33.997453], [-96.389962, 33.9973852]]]}, "properties": {"osm_id": 1133596812, "building": "yes", "name": "", "height": null, "height_m": null, "levels": null, "tract_id": "40013796300", "tract_name": "7963", "tags": {"building": "yes"}}}, {"type": "Feature", "geometry": {"type": "Polygon", "coordinates": [[[-96.3902015, 33.9978092], [-96.3902063, 33.9980301], [-96.390092, 33.9980318], [-96.3900873, 33.9978109], [-96.3902015, 33.9978092]]]}, "properties": {"osm_id": 1133596813, "building": "yes", "name": "", "height": null, "height_m": null, "levels": null, "tract_id": "40013796300", "tract_name": "7963", "tags": {"building": "yes"}}}, {"type": "Feature", "geometry": {"type": "Polygon", "coordinates": [[[-96.3844963, 33.996345], [-96.3845303, 33.9962572], [-96.3846933, 33.9963006], [-96.3846593, 33.9963884], [-96.3844963, 33.996345]]]}, "properties": {"osm_id": 1133596815, "building": "yes", "name": "", "height": null, "height_m": null, "levels": null, "tract_id": "40013796300", "tract_name": "7963", "tags": {"building": "yes"}}}, {"type": "Feature", "geometry": {"type": "Polygon", "coordinates": [[[-96.3848792, 33.9963775], [-96.3848488, 33.9964664], [-96.3847879, 33.9964521], [-96.3848182, 33.9963632], [-96.3848792, 33.9963775]]]}, "properties": {"osm_id": 1133596816, "building": "yes", "name": "", "height": null, "height_m": null, "levels": null, "tract_id": "40013796300", "tract_name": "7963", "tags": {"building": "yes"}}}, {"type": "Feature", "geometry": {"type": "Polygon", "coordinates": [[[-96.383469, 33.9964745], [-96.383351, 33.9964426], [-96.3833808, 33.996367], [-96.3834988, 33.9963989], [-96.383469, 33.9964745]]]}, "properties": {"osm_id": 1133596818, "building": "yes", "name": "", "height": null, "height_m": null, "levels": null, "tract_id": "40013796300", "tract_name": "7963", "tags": {"building": "yes"}}}, {"type": "Feature", "geometry": {"type": "Polygon", "coordinates": [[[-96.3850737, 33.9946789], [-96.3850998, 33.9946162], [-96.3852279, 33.9946529], [-96.3852017, 33.9947155], [-96.3850737, 33.9946789]]]}, "properties": {"osm_id": 1133596819, "building": "yes", "name": "", "height": null, "height_m": null, "levels": null, "tract_id": "40013796300", "tract_name": "7963", "tags": {"building": "yes"}}}, {"type": "Feature", "geometry": {"type": "Polygon", "coordinates": [[[-96.3853396, 33.9946384], [-96.3854069, 33.9944772], [-96.3855737, 33.9945251], [-96.3855064, 33.9946863], [-96.3853396, 33.9946384]]]}, "properties": {"osm_id": 1133596820, "building": "yes", "name": "", "height": null, "height_m": null, "levels": null, "tract_id": "40013796300", "tract_name": "7963", "tags": {"building": "yes"}}}, {"type": "Feature", "geometry": {"type": "Polygon", "coordinates": [[[-96.3856942, 33.9944694], [-96.3857972, 33.9944959], [-96.3857497, 33.9946225], [-96.3856468, 33.994596], [-96.3856942, 33.9944694]]]}, "properties": {"osm_id": 1133596821, "building": "yes", "name": "", "height": null, "height_m": null, "levels": null, "tract_id": "40013796300", "tract_name": "7963", "tags": {"building": "yes"}}}, {"type": "Feature", "geometry": {"type": "Polygon", "coordinates": [[[-96.3858743, 33.9945704], [-96.3860043, 33.9946018], [-96.3859091, 33.9948731], [-96.3857791, 33.9948417], [-96.3858743, 33.9945704]]]}, "properties": {"osm_id": 1133596822, "building": "yes", "name": "", "height": null, "height_m": null, "levels": null, "tract_id": "40013796300", "tract_name": "7963", "tags": {"building": "yes"}}}, {"type": "Feature", "geometry": {"type": "Polygon", "coordinates": [[[-96.3874045, 33.995013], [-96.3874358, 33.9949311], [-96.3876135, 33.9949778], [-96.3875822, 33.9950597], [-96.3874045, 33.995013]]]}, "properties": {"osm_id": 1133596823, "building": "yes", "name": "", "height": null, "height_m": null, "levels": null, "tract_id": "40013796300", "tract_name": "7963", "tags": {"building": "yes"}}}, {"type": "Feature", "geometry": {"type": "Polygon", "coordinates": [[[-96.3885894, 33.9952331], [-96.3886839, 33.995256], [-96.3886437, 33.9953705], [-96.3885491, 33.9953477], [-96.3885894, 33.9952331]]]}, "properties": {"osm_id": 1133596824, "building": "yes", "name": "", "height": null, "height_m": null, "levels": null, "tract_id": "40013796300", "tract_name": "7963", "tags": {"building": "yes"}}}, {"type": "Feature", "geometry": {"type": "Polygon", "coordinates": [[[-96.3792647, 33.9908272], [-96.3793067, 33.990723], [-96.3795172, 33.9907814], [-96.3794752, 33.9908855], [-96.3792647, 33.9908272]]]}, "properties": {"osm_id": 1133596829, "building": "yes", "name": "", "height": null, "height_m": null, "levels": null, "tract_id": "40013796300", "tract_name": "7963", "tags": {"building": "yes"}}}, {"type": "Feature", "geometry": {"type": "Polygon", "coordinates": [[[-96.3796194, 33.9903628], [-96.3796639, 33.9902421], [-96.3799835, 33.9903231], [-96.379939, 33.9904438], [-96.3796194, 33.9903628]]]}, "properties": {"osm_id": 1133596830, "building": "yes", "name": "", "height": null, "height_m": null, "levels": null, "tract_id": "40013796300", "tract_name": "7963", "tags": {"building": "yes"}}}, {"type": "Feature", "geometry": {"type": "Polygon", "coordinates": [[[-96.3783828, 33.9903809], [-96.3779485, 33.99027], [-96.378025, 33.990064], [-96.3784593, 33.9901749], [-96.3783828, 33.9903809]]]}, "properties": {"osm_id": 1133596831, "building": "yes", "name": "", "height": null, "height_m": null, "levels": null, "tract_id": "40013796300", "tract_name": "7963", "tags": {"building": "yes"}}}, {"type": "Feature", "geometry": {"type": "Polygon", "coordinates": [[[-96.373109, 33.993076], [-96.3730614, 33.9931722], [-96.3729575, 33.9931369], [-96.3730051, 33.9930407], [-96.373109, 33.993076]]]}, "properties": {"osm_id": 1133596835, "building": "yes", "name": "", "height": null, "height_m": null, "levels": null, "tract_id": "40013796300", "tract_name": "7963", "tags": {"building": "yes"}}}, {"type": "Feature", "geometry": {"type": "Polygon", "coordinates": [[[-96.3737628, 33.9935375], [-96.3736837, 33.9936804], [-96.3736198, 33.993656], [-96.3736989, 33.9935132], [-96.3737628, 33.9935375]]]}, "properties": {"osm_id": 1133596836, "building": "yes", "name": "", "height": null, "height_m": null, "levels": null, "tract_id": "40013796300", "tract_name": "7963", "tags": {"building": "yes"}}}, {"type": "Feature", "geometry": {"type": "Polygon", "coordinates": [[[-96.3756075, 33.9935386], [-96.3755572, 33.9936837], [-96.3754817, 33.9936657], [-96.375532, 33.9935206], [-96.3756075, 33.9935386]]]}, "properties": {"osm_id": 1133596837, "building": "roof", "name": "", "height": null, "height_m": null, "levels": null, "tract_id": "40013796300", "tract_name": "7963", "tags": {"building": "roof", "layer": "1"}}}, {"type": "Feature", "geometry": {"type": "Polygon", "coordinates": [[[-96.3792369, 33.9924258], [-96.3792975, 33.9922539], [-96.3794384, 33.9922881], [-96.3793778, 33.9924599], [-96.3792369, 33.9924258]]]}, "properties": {"osm_id": 1133596838, "building": "yes", "name": "", "height": null, "height_m": null, "levels": null, "tract_id": "40013796300", "tract_name": "7963", "tags": {"building": "yes"}}}, {"type": "Feature", "geometry": {"type": "Polygon", "coordinates": [[[-96.3789765, 33.9920108], [-96.3791569, 33.9915292], [-96.379688, 33.991666], [-96.3795075, 33.9921476], [-96.3789765, 33.9920108]]]}, "properties": {"osm_id": 1133596839, "building": "yes", "name": "", "height": null, "height_m": null, "levels": null, "tract_id": "40013796300", "tract_name": "7963", "tags": {"building": "yes"}}}, {"type": "Feature", "geometry": {"type": "Polygon", "coordinates": [[[-96.3800964, 33.9920651], [-96.3798849, 33.99201], [-96.3799532, 33.9918297], [-96.3801647, 33.9918847], [-96.3800964, 33.9920651]]]}, "properties": {"osm_id": 1133596840, "building": "yes", "name": "", "height": null, "height_m": null, "levels": null, "tract_id": "40013796300", "tract_name": "7963", "tags": {"building": "yes"}}}, {"type": "Feature", "geometry": {"type": "Polygon", "coordinates": [[[-96.3797493, 33.9921052], [-96.3797881, 33.9920034], [-96.3800944, 33.9920836], [-96.3800556, 33.9921853], [-96.3797493, 33.9921052]]]}, "properties": {"osm_id": 1133596841, "building": "yes", "name": "", "height": null, "height_m": null, "levels": null, "tract_id": "40013796300", "tract_name": "7963", "tags": {"building": "yes"}}}, {"type": "Feature", "geometry": {"type": "Polygon", "coordinates": [[[-96.3810571, 33.9912519], [-96.3809417, 33.9912236], [-96.3809679, 33.9911504], [-96.3810832, 33.9911788], [-96.3810571, 33.9912519]]]}, "properties": {"osm_id": 1133596842, "building": "yes", "name": "", "height": null, "height_m": null, "levels": null, "tract_id": "40013796300", "tract_name": "7963", "tags": {"building": "yes"}}}, {"type": "Feature", "geometry": {"type": "Polygon", "coordinates": [[[-96.3809672, 33.9909233], [-96.3811619, 33.9909708], [-96.3810915, 33.9911693], [-96.3808968, 33.9911218], [-96.3809672, 33.9909233]]]}, "properties": {"osm_id": 1133596843, "building": "yes", "name": "", "height": null, "height_m": null, "levels": null, "tract_id": "40013796300", "tract_name": "7963", "tags": {"building": "yes"}}}, {"type": "Feature", "geometry": {"type": "Polygon", "coordinates": [[[-96.3816393, 33.9917285], [-96.3817183, 33.9915136], [-96.3819828, 33.9915805], [-96.3819039, 33.9917954], [-96.3816393, 33.9917285]]]}, "properties": {"osm_id": 1133596844, "building": "yes", "name": "", "height": null, "height_m": null, "levels": null, "tract_id": "40013796300", "tract_name": "7963", "tags": {"building": "yes"}}}, {"type": "Feature", "geometry": {"type": "Polygon", "coordinates": [[[-96.381956, 33.9917513], [-96.3822026, 33.991819], [-96.3821636, 33.9919167], [-96.3819171, 33.991849], [-96.381956, 33.9917513]]]}, "properties": {"osm_id": 1133596845, "building": "yes", "name": "", "height": null, "height_m": null, "levels": null, "tract_id": "40013796300", "tract_name": "7963", "tags": {"building": "yes"}}}, {"type": "Feature", "geometry": {"type": "Polygon", "coordinates": [[[-96.3820328, 33.9916523], [-96.3820652, 33.9915659], [-96.3822757, 33.9916202], [-96.3822434, 33.9917065], [-96.3820328, 33.9916523]]]}, "properties": {"osm_id": 1133596846, "building": "yes", "name": "", "height": null, "height_m": null, "levels": null, "tract_id": "40013796300", "tract_name": "7963", "tags": {"building": "yes"}}}, {"type": "Feature", "geometry": {"type": "Polygon", "coordinates": [[[-96.3823259, 33.9921091], [-96.3824766, 33.9917246], [-96.3827915, 33.9918095], [-96.3826407, 33.992194], [-96.3823259, 33.9921091]]]}, "properties": {"osm_id": 1133596847, "building": "yes", "name": "", "height": null, "height_m": null, "levels": null, "tract_id": "40013796300", "tract_name": "7963", "tags": {"building": "yes"}}}, {"type": "Feature", "geometry": {"type": "Polygon", "coordinates": [[[-96.3828944, 33.9924956], [-96.3827576, 33.9928492], [-96.3823718, 33.9927466], [-96.3825086, 33.992393], [-96.3828944, 33.9924956]]]}, "properties": {"osm_id": 1133596848, "building": "yes", "name": "", "height": null, "height_m": null, "levels": null, "tract_id": "40013796300", "tract_name": "7963", "tags": {"building": "yes"}}}, {"type": "Feature", "geometry": {"type": "Polygon", "coordinates": [[[-96.3838224, 33.9931505], [-96.3835193, 33.9930827], [-96.3835903, 33.9928646], [-96.3838934, 33.9929324], [-96.3838224, 33.9931505]]]}, "properties": {"osm_id": 1133596850, "building": "yes", "name": "", "height": null, "height_m": null, "levels": null, "tract_id": "40013796300", "tract_name": "7963", "tags": {"building": "yes"}}}, {"type": "Feature", "geometry": {"type": "Polygon", "coordinates": [[[-96.3848872, 33.9931889], [-96.3849175, 33.9931036], [-96.3852072, 33.9931742], [-96.3851769, 33.9932595], [-96.3848872, 33.9931889]]]}, "properties": {"osm_id": 1133596851, "building": "yes", "name": "", "height": null, "height_m": null, "levels": null, "tract_id": "40013796300", "tract_name": "7963", "tags": {"building": "yes"}}}, {"type": "Feature", "geometry": {"type": "Polygon", "coordinates": [[[-96.3848654, 33.9934245], [-96.3848998, 33.9933388], [-96.3852336, 33.9934308], [-96.3851992, 33.9935165], [-96.3848654, 33.9934245]]]}, "properties": {"osm_id": 1133596852, "building": "yes", "name": "", "height": null, "height_m": null, "levels": null, "tract_id": "40013796300", "tract_name": "7963", "tags": {"building": "yes"}}}, {"type": "Feature", "geometry": {"type": "Polygon", "coordinates": [[[-96.3840933, 33.994258], [-96.3841749, 33.9942813], [-96.3841387, 33.9943686], [-96.3840571, 33.9943453], [-96.3840933, 33.994258]]]}, "properties": {"osm_id": 1133596853, "building": "yes", "name": "", "height": null, "height_m": null, "levels": null, "tract_id": "40013796300", "tract_name": "7963", "tags": {"building": "yes"}}}, {"type": "Feature", "geometry": {"type": "Polygon", "coordinates": [[[-96.384617, 33.9945143], [-96.3842784, 33.9944259], [-96.3843545, 33.9942256], [-96.3846931, 33.994314], [-96.384617, 33.9945143]]]}, "properties": {"osm_id": 1133596854, "building": "commercial", "name": "Early Head Start", "height": null, "height_m": null, "levels": null, "tract_id": "40013796300", "tract_name": "7963", "tags": {"amenity": "childcare", "building": "commercial", "name": "Early Head Start", "operator": "Choctaw Nation of Oklahoma"}}}, {"type": "Feature", "geometry": {"type": "Polygon", "coordinates": [[[-96.3812824, 33.9949418], [-96.3813953, 33.9946523], [-96.381756, 33.9947491], [-96.3816431, 33.9950386], [-96.3812824, 33.9949418]]]}, "properties": {"osm_id": 1133596855, "building": "yes", "name": "", "height": null, "height_m": null, "levels": null, "tract_id": "40013796300", "tract_name": "7963", "tags": {"building": "yes"}}}, {"type": "Feature", "geometry": {"type": "Polygon", "coordinates": [[[-96.3772644, 33.9956245], [-96.377314, 33.9954922], [-96.3774228, 33.9955202], [-96.3773732, 33.9956526], [-96.3772644, 33.9956245]]]}, "properties": {"osm_id": 1133596856, "building": "yes", "name": "", "height": null, "height_m": null, "levels": null, "tract_id": "40013796300", "tract_name": "7963", "tags": {"building": "yes"}}}, {"type": "Feature", "geometry": {"type": "Polygon", "coordinates": [[[-96.3777522, 33.9953806], [-96.3774307, 33.9952981], [-96.3774746, 33.9951807], [-96.377796, 33.9952632], [-96.3777522, 33.9953806]]]}, "properties": {"osm_id": 1133596857, "building": "yes", "name": "", "height": null, "height_m": null, "levels": null, "tract_id": "40013796300", "tract_name": "7963", "tags": {"building": "yes"}}}, {"type": "Feature", "geometry": {"type": "Polygon", "coordinates": [[[-96.3781789, 33.9943169], [-96.3781353, 33.994445], [-96.3779656, 33.9944053], [-96.3780092, 33.9942771], [-96.3781789, 33.9943169]]]}, "properties": {"osm_id": 1133596858, "building": "yes", "name": "", "height": null, "height_m": null, "levels": null, "tract_id": "40013796300", "tract_name": "7963", "tags": {"building": "yes"}}}, {"type": "Feature", "geometry": {"type": "Polygon", "coordinates": [[[-96.3779792, 33.9942313], [-96.3777754, 33.9941791], [-96.3778044, 33.9941013], [-96.3780082, 33.9941536], [-96.3779792, 33.9942313]]]}, "properties": {"osm_id": 1133596859, "building": "yes", "name": "", "height": null, "height_m": null, "levels": null, "tract_id": "40013796300", "tract_name": "7963", "tags": {"building": "yes"}}}, {"type": "Feature", "geometry": {"type": "Polygon", "coordinates": [[[-96.3772966, 33.9940768], [-96.3773689, 33.9939125], [-96.3775673, 33.9939726], [-96.3774951, 33.9941368], [-96.3772966, 33.9940768]]]}, "properties": {"osm_id": 1133596860, "building": "yes", "name": "", "height": null, "height_m": null, "levels": null, "tract_id": "40013796300", "tract_name": "7963", "tags": {"building": "yes"}}}, {"type": "Feature", "geometry": {"type": "Polygon", "coordinates": [[[-96.3755189, 33.9948232], [-96.3751358, 33.9947194], [-96.3751808, 33.9946054], [-96.3755639, 33.9947092], [-96.3755189, 33.9948232]]]}, "properties": {"osm_id": 1133596861, "building": "yes", "name": "", "height": null, "height_m": null, "levels": null, "tract_id": "40013796300", "tract_name": "7963", "tags": {"building": "yes"}}}, {"type": "Feature", "geometry": {"type": "Polygon", "coordinates": [[[-96.3748352, 33.9946573], [-96.3747091, 33.9946243], [-96.3747467, 33.9945256], [-96.3748728, 33.9945586], [-96.3748352, 33.9946573]]]}, "properties": {"osm_id": 1133596862, "building": "yes", "name": "", "height": null, "height_m": null, "levels": null, "tract_id": "40013796300", "tract_name": "7963", "tags": {"building": "yes"}}}, {"type": "Feature", "geometry": {"type": "Polygon", "coordinates": [[[-96.374509, 33.9943892], [-96.3746307, 33.9944215], [-96.3745691, 33.9945811], [-96.3744474, 33.9945488], [-96.374509, 33.9943892]]]}, "properties": {"osm_id": 1133596863, "building": "yes", "name": "", "height": null, "height_m": null, "levels": null, "tract_id": "40013796300", "tract_name": "7963", "tags": {"building": "yes"}}}, {"type": "Feature", "geometry": {"type": "Polygon", "coordinates": [[[-96.3750234, 33.99394], [-96.3749729, 33.9940914], [-96.3746457, 33.9940163], [-96.3746962, 33.9938649], [-96.3750234, 33.99394]]]}, "properties": {"osm_id": 1133596864, "building": "yes", "name": "", "height": null, "height_m": null, "levels": null, "tract_id": "40013796300", "tract_name": "7963", "tags": {"building": "yes"}}}, {"type": "Feature", "geometry": {"type": "Polygon", "coordinates": [[[-96.3821856, 33.992614], [-96.3821433, 33.9927325], [-96.3820451, 33.9927084], [-96.3820873, 33.9925899], [-96.3821856, 33.992614]]]}, "properties": {"osm_id": 1164810425, "building": "yes", "name": "", "height": null, "height_m": null, "levels": null, "tract_id": "40013796300", "tract_name": "7963", "tags": {"building": "yes"}}}, {"type": "Feature", "geometry": {"type": "Polygon", "coordinates": [[[-96.3818247, 33.9923273], [-96.3817417, 33.992308], [-96.3817552, 33.992268], [-96.3817645, 33.9922405], [-96.3818475, 33.9922598], [-96.3818384, 33.9922868], [-96.3818247, 33.9923273]]]}, "properties": {"osm_id": 1164810426, "building": "roof", "name": "", "height": null, "height_m": null, "levels": null, "tract_id": "40013796300", "tract_name": "7963", "tags": {"building": "roof", "layer": "1"}}}, {"type": "Feature", "geometry": {"type": "Polygon", "coordinates": [[[-96.3837644, 33.9935055], [-96.3838647, 33.9935293], [-96.383804, 33.9937046], [-96.3837038, 33.9936808], [-96.3837644, 33.9935055]]]}, "properties": {"osm_id": 1164810431, "building": "yes", "name": "", "height": null, "height_m": null, "levels": null, "tract_id": "40013796300", "tract_name": "7963", "tags": {"building": "yes"}}}, {"type": "Feature", "geometry": {"type": "Polygon", "coordinates": [[[-96.3838289, 33.9933002], [-96.3839396, 33.9933261], [-96.3838799, 33.9935022], [-96.3837692, 33.9934764], [-96.3838289, 33.9933002]]]}, "properties": {"osm_id": 1164810432, "building": "yes", "name": "", "height": null, "height_m": null, "levels": null, "tract_id": "40013796300", "tract_name": "7963", "tags": {"building": "yes"}}}, {"type": "Feature", "geometry": {"type": "Polygon", "coordinates": [[[-96.3817383, 33.9928325], [-96.3816297, 33.9931361], [-96.3814182, 33.9930841], [-96.3815268, 33.9927805], [-96.3817383, 33.9928325]]]}, "properties": {"osm_id": 1164810433, "building": "yes", "name": "", "height": null, "height_m": null, "levels": null, "tract_id": "40013796300", "tract_name": "7963", "tags": {"building": "yes"}}}, {"type": "Feature", "geometry": {"type": "Polygon", "coordinates": [[[-96.3792144, 33.9910134], [-96.3793714, 33.9910566], [-96.3792668, 33.9913179], [-96.3791098, 33.9912747], [-96.3792144, 33.9910134]]]}, "properties": {"osm_id": 1164810434, "building": "yes", "name": "", "height": null, "height_m": null, "levels": null, "tract_id": "40013796300", "tract_name": "7963", "tags": {"building": "yes"}}}, {"type": "Feature", "geometry": {"type": "Polygon", "coordinates": [[[-96.3796507, 33.9908102], [-96.3796737, 33.9907475], [-96.3799733, 33.9908229], [-96.3799504, 33.9908857], [-96.3796507, 33.9908102]]]}, "properties": {"osm_id": 1164810435, "building": "yes", "name": "", "height": null, "height_m": null, "levels": null, "tract_id": "40013796300", "tract_name": "7963", "tags": {"building": "yes"}}}, {"type": "Feature", "geometry": {"type": "Polygon", "coordinates": [[[-96.3805897, 33.9911552], [-96.3806453, 33.9910218], [-96.3807164, 33.9910421], [-96.3806608, 33.9911756], [-96.3805897, 33.9911552]]]}, "properties": {"osm_id": 1164810436, "building": "yes", "name": "", "height": null, "height_m": null, "levels": null, "tract_id": "40013796300", "tract_name": "7963", "tags": {"building": "yes"}}}, {"type": "Feature", "geometry": {"type": "Polygon", "coordinates": [[[-96.3816807, 33.9910851], [-96.3816399, 33.9911952], [-96.3813301, 33.9911163], [-96.3813709, 33.9910062], [-96.3816807, 33.9910851]]]}, "properties": {"osm_id": 1164810437, "building": "yes", "name": "", "height": null, "height_m": null, "levels": null, "tract_id": "40013796300", "tract_name": "7963", "tags": {"building": "yes"}}}, {"type": "Feature", "geometry": {"type": "Polygon", "coordinates": [[[-96.3874555, 33.9938555], [-96.3874099, 33.9939856], [-96.3872764, 33.9939534], [-96.387322, 33.9938233], [-96.3874555, 33.9938555]]]}, "properties": {"osm_id": 1164810439, "building": "yes", "name": "", "height": null, "height_m": null, "levels": null, "tract_id": "40013796300", "tract_name": "7963", "tags": {"building": "yes"}}}, {"type": "Feature", "geometry": {"type": "Polygon", "coordinates": [[[-96.3883327, 33.9942422], [-96.3884369, 33.9939696], [-96.3885549, 33.9940006], [-96.3885247, 33.9940796], [-96.3885334, 33.9940819], [-96.3885203, 33.9941161], [-96.3885116, 33.9941138], [-96.3884507, 33.9942732], [-96.3883327, 33.9942422]]]}, "properties": {"osm_id": 1164810440, "building": "yes", "name": "", "height": null, "height_m": null, "levels": null, "tract_id": "40013796300", "tract_name": "7963", "tags": {"building": "yes"}}}, {"type": "Feature", "geometry": {"type": "Polygon", "coordinates": [[[-96.385307, 33.9995527], [-96.385409, 33.9995774], [-96.3853634, 33.9997069], [-96.3852614, 33.9996822], [-96.385307, 33.9995527]]]}, "properties": {"osm_id": 1164810442, "building": "yes", "name": "", "height": null, "height_m": null, "levels": null, "tract_id": "40013796300", "tract_name": "7963", "tags": {"building": "yes"}}}, {"type": "Feature", "geometry": {"type": "Polygon", "coordinates": [[[-96.385364, 33.9997606], [-96.3853265, 33.9998707], [-96.3852205, 33.9998458], [-96.385258, 33.9997358], [-96.385364, 33.9997606]]]}, "properties": {"osm_id": 1164810443, "building": "yes", "name": "", "height": null, "height_m": null, "levels": null, "tract_id": "40013796300", "tract_name": "7963", "tags": {"building": "yes"}}}, {"type": "Feature", "geometry": {"type": "Polygon", "coordinates": [[[-96.3847961, 33.9989329], [-96.3848286, 33.9988449], [-96.3849902, 33.998886], [-96.3849577, 33.998974], [-96.3847961, 33.9989329]]]}, "properties": {"osm_id": 1164810444, "building": "yes", "name": "", "height": null, "height_m": null, "levels": null, "tract_id": "40013796300", "tract_name": "7963", "tags": {"building": "yes"}}}, {"type": "Feature", "geometry": {"type": "Polygon", "coordinates": [[[-96.3852396, 33.9987794], [-96.3852105, 33.9988578], [-96.3851207, 33.9988349], [-96.3851499, 33.9987565], [-96.3852396, 33.9987794]]]}, "properties": {"osm_id": 1164810445, "building": "yes", "name": "", "height": null, "height_m": null, "levels": null, "tract_id": "40013796300", "tract_name": "7963", "tags": {"building": "yes"}}}, {"type": "Feature", "geometry": {"type": "Polygon", "coordinates": [[[-96.3807178, 33.9916828], [-96.3808894, 33.9917295], [-96.380986, 33.9914626], [-96.3808385, 33.9914315], [-96.3808492, 33.9914004], [-96.3808234, 33.9913924], [-96.3807178, 33.9916828]]]}, "properties": {"osm_id": 1191946399, "building": "yes", "name": "", "height": null, "height_m": null, "levels": null, "tract_id": "40013796300", "tract_name": "7963", "tags": {"building": "yes"}}}, {"type": "Feature", "geometry": {"type": "Polygon", "coordinates": [[[-96.3805117, 33.9911994], [-96.3808626, 33.9912847], [-96.3808234, 33.9913924], [-96.3807178, 33.9916828], [-96.3806775, 33.9916272], [-96.3806239, 33.9915872], [-96.3805729, 33.9915649], [-96.3805193, 33.9915583], [-96.3804495, 33.9915694], [-96.3803674, 33.9915933], [-96.3805117, 33.9911994]]]}, "properties": {"osm_id": 1191946400, "building": "yes", "name": "", "height": null, "height_m": null, "levels": null, "tract_id": "40013796300", "tract_name": "7963", "tags": {"building": "yes"}}}, {"type": "Feature", "geometry": {"type": "Polygon", "coordinates": [[[-96.380357, 33.9911605], [-96.3805117, 33.9911994], [-96.3803674, 33.9915933], [-96.3802127, 33.9915544], [-96.380357, 33.9911605]]]}, "properties": {"osm_id": 1191946401, "building": "yes", "name": "", "height": null, "height_m": null, "levels": null, "tract_id": "40013796300", "tract_name": "7963", "tags": {"building": "yes"}}}, {"type": "Feature", "geometry": {"type": "Polygon", "coordinates": [[[-96.3802764, 33.9911434], [-96.380357, 33.9911605], [-96.3802127, 33.9915544], [-96.3801338, 33.9915354], [-96.3801614, 33.9914606], [-96.3802174, 33.9913072], [-96.3802764, 33.9911434]]]}, "properties": {"osm_id": 1191946402, "building": "yes", "name": "", "height": null, "height_m": null, "levels": null, "tract_id": "40013796300", "tract_name": "7963", "tags": {"building": "yes"}}}, {"type": "Feature", "geometry": {"type": "Polygon", "coordinates": [[[-96.3776177, 33.9905724], [-96.377528, 33.990549], [-96.377431, 33.9905241], [-96.3774558, 33.9904547], [-96.3776461, 33.9905015], [-96.3776177, 33.9905724]]]}, "properties": {"osm_id": 1230362789, "building": "yes", "name": "Merle Norman", "height": null, "height_m": null, "levels": null, "tract_id": "40013796300", "tract_name": "7963", "tags": {"addr:city": "Durant", "addr:housenumber": "114", "addr:postcode": "74701", "addr:state": "OK", "addr:street": "South 2nd Avenue", "brand": "Merle Norman Cosmetics", "brand:wikidata": "Q104844059", "building": "yes", "full_name": "Merle Norman Cosmetic Studio", "name": "Merle Norman", "shop": "cosmetics"}}}, {"type": "Feature", "geometry": {"type": "Polygon", "coordinates": [[[-96.3754045, 33.9910393], [-96.3753651, 33.9911429], [-96.3753586, 33.9911412], [-96.3750203, 33.9916474], [-96.3746671, 33.9915156], [-96.3749804, 33.9910419], [-96.3750432, 33.9909447], [-96.3754045, 33.9910393]]]}, "properties": {"osm_id": 1280721197, "building": "yes", "name": "", "height": null, "height_m": null, "levels": null, "tract_id": "40013796300", "tract_name": "7963", "tags": {"building": "yes"}}}, {"type": "Feature", "geometry": {"type": "Polygon", "coordinates": [[[-96.3750817, 33.9905346], [-96.3749977, 33.9904969], [-96.3746522, 33.9910275], [-96.3747364, 33.9910652], [-96.3750817, 33.9905346]]]}, "properties": {"osm_id": 1280721198, "building": "yes", "name": "", "height": null, "height_m": null, "levels": null, "tract_id": "40013796300", "tract_name": "7963", "tags": {"building": "yes"}}}, {"type": "Feature", "geometry": {"type": "Polygon", "coordinates": [[[-96.3746865, 33.9911509], [-96.3742638, 33.990966], [-96.3744004, 33.9907514], [-96.3744703, 33.990782], [-96.3743874, 33.9909123], [-96.3746522, 33.9910275], [-96.3747364, 33.9910652], [-96.3747402, 33.9910667], [-96.3746865, 33.9911509]]]}, "properties": {"osm_id": 1280721199, "building": "yes", "name": "", "height": null, "height_m": null, "levels": null, "tract_id": "40013796300", "tract_name": "7963", "tags": {"building": "yes"}}}, {"type": "Feature", "geometry": {"type": "Polygon", "coordinates": [[[-96.3746434, 33.9908803], [-96.3745487, 33.9908401], [-96.374799, 33.9904342], [-96.3748939, 33.9904744], [-96.3746434, 33.9908803]]]}, "properties": {"osm_id": 1280721200, "building": "yes", "name": "", "height": null, "height_m": null, "levels": null, "tract_id": "40013796300", "tract_name": "7963", "tags": {"building": "yes"}}}, {"type": "Feature", "geometry": {"type": "Polygon", "coordinates": [[[-96.3744903, 33.9907643], [-96.3744101, 33.9907294], [-96.3745649, 33.9904852], [-96.3746451, 33.9905201], [-96.3744903, 33.9907643]]]}, "properties": {"osm_id": 1280721201, "building": "yes", "name": "", "height": null, "height_m": null, "levels": null, "tract_id": "40013796300", "tract_name": "7963", "tags": {"building": "yes"}}}, {"type": "Feature", "geometry": {"type": "Polygon", "coordinates": [[[-96.3791281, 33.9926448], [-96.3792855, 33.9926791], [-96.3793699, 33.9924623], [-96.3792097, 33.9924261], [-96.3791281, 33.9926448]]]}, "properties": {"osm_id": 1326343330, "building": "yes", "name": "", "height": null, "height_m": null, "levels": null, "tract_id": "40013796300", "tract_name": "7963", "tags": {"building": "yes"}}}, {"type": "Feature", "geometry": {"type": "Polygon", "coordinates": [[[-96.3791675, 33.992438], [-96.379114, 33.9924257], [-96.379087, 33.9925063], [-96.3790978, 33.9925088], [-96.3791405, 33.9925186], [-96.3791675, 33.992438]]]}, "properties": {"osm_id": 1326343331, "building": "yes", "name": "", "height": null, "height_m": null, "levels": null, "tract_id": "40013796300", "tract_name": "7963", "tags": {"building": "yes"}}}, {"type": "Feature", "geometry": {"type": "Polygon", "coordinates": [[[-96.3791682, 33.992525], [-96.3791952, 33.9924443], [-96.3791675, 33.992438], [-96.3791405, 33.9925186], [-96.3791682, 33.992525]]]}, "properties": {"osm_id": 1326343332, "building": "yes", "name": "", "height": null, "height_m": null, "levels": null, "tract_id": "40013796300", "tract_name": "7963", "tags": {"building": "yes"}}}, {"type": "Feature", "geometry": {"type": "Polygon", "coordinates": [[[-96.3790577, 33.9926286], [-96.3791281, 33.9926448], [-96.3791682, 33.992525], [-96.3791405, 33.9925186], [-96.3790978, 33.9925088], [-96.3790577, 33.9926286]]]}, "properties": {"osm_id": 1326343333, "building": "yes", "name": "", "height": null, "height_m": null, "levels": null, "tract_id": "40013796300", "tract_name": "7963", "tags": {"building": "yes"}}}, {"type": "Feature", "geometry": {"type": "Polygon", "coordinates": [[[-96.3789505, 33.9926039], [-96.3790577, 33.9926286], [-96.3790978, 33.9925088], [-96.379087, 33.9925063], [-96.379114, 33.9924257], [-96.3790175, 33.9924035], [-96.3790087, 33.9924299], [-96.3789505, 33.9926039]]]}, "properties": {"osm_id": 1326343334, "building": "yes", "name": "", "height": null, "height_m": null, "levels": null, "tract_id": "40013796300", "tract_name": "7963", "tags": {"building": "yes"}}}, {"type": "Feature", "geometry": {"type": "Polygon", "coordinates": [[[-96.3789505, 33.9926039], [-96.3790087, 33.9924299], [-96.3788157, 33.9923855], [-96.3787575, 33.9925595], [-96.3789505, 33.9926039]]]}, "properties": {"osm_id": 1326343335, "building": "yes", "name": "", "height": null, "height_m": null, "levels": null, "tract_id": "40013796300", "tract_name": "7963", "tags": {"building": "yes"}}}, {"type": "Feature", "geometry": {"type": "Polygon", "coordinates": [[[-96.3805473, 33.9924998], [-96.3803362, 33.9924544], [-96.3803466, 33.9924211], [-96.3802913, 33.9924092], [-96.3802639, 33.9924967], [-96.3803042, 33.9925054], [-96.3801986, 33.992843], [-96.3804248, 33.9928916], [-96.3805473, 33.9924998]]]}, "properties": {"osm_id": 1326343336, "building": "yes", "name": "", "height": null, "height_m": null, "levels": null, "tract_id": "40013796300", "tract_name": "7963", "tags": {"building": "yes", "source": "microsoft/BuildingFootprints"}}}, {"type": "Feature", "geometry": {"type": "Polygon", "coordinates": [[[-96.3799281, 33.992344], [-96.3796734, 33.9922866], [-96.3796435, 33.9923777], [-96.3798982, 33.9924351], [-96.3799281, 33.992344]]]}, "properties": {"osm_id": 1326343337, "building": "yes", "name": "", "height": null, "height_m": null, "levels": null, "tract_id": "40013796300", "tract_name": "7963", "tags": {"building": "yes", "source": "microsoft/BuildingFootprints"}}}, {"type": "Feature", "geometry": {"type": "Polygon", "coordinates": [[[-96.3795928, 33.9925226], [-96.3795374, 33.9927139], [-96.3796693, 33.9927402], [-96.3797247, 33.9925488], [-96.3795928, 33.9925226]]]}, "properties": {"osm_id": 1326343338, "building": "yes", "name": "", "height": null, "height_m": null, "levels": null, "tract_id": "40013796300", "tract_name": "7963", "tags": {"building": "yes", "source": "microsoft/BuildingFootprints"}}}, {"type": "Feature", "geometry": {"type": "Polygon", "coordinates": [[[-96.3776447, 33.9909179], [-96.3786027, 33.991162], [-96.3787481, 33.9907697], [-96.3786193, 33.9907369], [-96.3785693, 33.9908719], [-96.3784272, 33.9908358], [-96.3784694, 33.9907218], [-96.3782835, 33.9906745], [-96.3782437, 33.990782], [-96.3780912, 33.9907432], [-96.3781351, 33.9906246], [-96.3779824, 33.9905858], [-96.3779426, 33.9906933], [-96.3778662, 33.9906739], [-96.3779246, 33.9906429], [-96.3779456, 33.9905713], [-96.3779316, 33.9905481], [-96.3777947, 33.9905132], [-96.3776447, 33.9909179]]]}, "properties": {"osm_id": 1395942208, "building": "yes", "name": "", "height": null, "height_m": null, "levels": null, "tract_id": "40013796300", "tract_name": "7963", "tags": {"building": "yes"}}}, {"type": "Feature", "geometry": {"type": "Polygon", "coordinates": [[[-96.3765965, 33.9906411], [-96.3775019, 33.9908777], [-96.3776177, 33.9905724], [-96.377528, 33.990549], [-96.3775124, 33.9905901], [-96.3771751, 33.9905022], [-96.3772058, 33.9904211], [-96.3770458, 33.9903794], [-96.3770168, 33.990456], [-96.3769289, 33.9904331], [-96.3769607, 33.990349], [-96.3768822, 33.9903286], [-96.3768899, 33.9903084], [-96.3767383, 33.9902689], [-96.3767037, 33.9903589], [-96.3765965, 33.9906411]]]}, "properties": {"osm_id": 1395942209, "building": "yes", "name": "", "height": null, "height_m": null, "levels": null, "tract_id": "40013796300", "tract_name": "7963", "tags": {"building": "yes"}}}, {"type": "Feature", "geometry": {"type": "Polygon", "coordinates": [[[-96.3786733, 33.9925488], [-96.3783323, 33.9924602], [-96.378718, 33.9914394], [-96.3790699, 33.9915309], [-96.3790185, 33.9916667], [-96.3789185, 33.9916407], [-96.3788928, 33.9917086], [-96.3790005, 33.9917366], [-96.3787938, 33.9922828], [-96.3787031, 33.9922593], [-96.3786536, 33.9923902], [-96.3787261, 33.9924091], [-96.3786733, 33.9925488]]]}, "properties": {"osm_id": 1395942210, "building": "yes", "name": "", "height": null, "height_m": null, "levels": null, "tract_id": "40013796300", "tract_name": "7963", "tags": {"building": "yes"}}}, {"type": "Feature", "geometry": {"type": "Polygon", "coordinates": [[[-96.377709, 33.9922935], [-96.3780974, 33.9923916], [-96.378318, 33.9917906], [-96.378019, 33.9917152], [-96.377969, 33.9918514], [-96.377885, 33.9918302], [-96.3778412, 33.9919494], [-96.3780122, 33.9919926], [-96.3779582, 33.9921394], [-96.3777819, 33.9920949], [-96.377709, 33.9922935]]]}, "properties": {"osm_id": 1395942211, "building": "yes", "name": "", "height": null, "height_m": null, "levels": null, "tract_id": "40013796300", "tract_name": "7963", "tags": {"building": "yes"}}}, {"type": "Feature", "geometry": {"type": "Polygon", "coordinates": [[[-96.3764314, 33.9908814], [-96.3764758, 33.9908756], [-96.3774593, 33.9911248], [-96.3773364, 33.9914583], [-96.3771942, 33.9914223], [-96.3772199, 33.9913525], [-96.377063, 33.9913128], [-96.3770417, 33.9913708], [-96.3768664, 33.9913264], [-96.3768827, 33.991282], [-96.3767711, 33.9912538], [-96.3768035, 33.9911657], [-96.3766869, 33.9911363], [-96.3766292, 33.9912938], [-96.3763098, 33.9912133], [-96.3764314, 33.9908814]]]}, "properties": {"osm_id": 1395942212, "building": "yes", "name": "", "height": null, "height_m": null, "levels": null, "tract_id": "40013796300", "tract_name": "7963", "tags": {"building": "yes"}}}, {"type": "Feature", "geometry": {"type": "Polygon", "coordinates": [[[-96.3791098, 33.9912747], [-96.3788091, 33.9911987], [-96.378917, 33.9909067], [-96.3789807, 33.9909228], [-96.3789737, 33.9909566], [-96.3790568, 33.99098], [-96.3791117, 33.9908451], [-96.3792727, 33.9908861], [-96.3792144, 33.9910134], [-96.3791098, 33.9912747]]]}, "properties": {"osm_id": 1395942213, "building": "yes", "name": "", "height": null, "height_m": null, "levels": null, "tract_id": "40013796300", "tract_name": "7963", "tags": {"building": "yes"}}}, {"type": "Feature", "geometry": {"type": "Polygon", "coordinates": [[[-96.3794477, 33.9913593], [-96.3792932, 33.9913179], [-96.3793652, 33.9911336], [-96.3795196, 33.991175], [-96.3794477, 33.9913593]]]}, "properties": {"osm_id": 1395942214, "building": "yes", "name": "", "height": null, "height_m": null, "levels": null, "tract_id": "40013796300", "tract_name": "7963", "tags": {"building": "yes"}}}, {"type": "Feature", "geometry": {"type": "Polygon", "coordinates": [[[-96.3769837, 33.9914397], [-96.3772883, 33.9915148], [-96.3770569, 33.9921598], [-96.3767028, 33.9920725], [-96.376886, 33.9915616], [-96.3769356, 33.9915738], [-96.3769837, 33.9914397]]]}, "properties": {"osm_id": 1395942215, "building": "yes", "name": "", "height": null, "height_m": null, "levels": null, "tract_id": "40013796300", "tract_name": "7963", "tags": {"building": "yes"}}}]}