{"type": "FeatureCollection", "features": [{"type": "Feature", "geometry": {"type": "Polygon", "coordinates": [[[-95.7929628, 36.0703318], [-95.7926298, 36.0702213], [-95.7926546, 36.0701724], [-95.7924531, 36.0701055], [-95.7924301, 36.0701508], [-95.7917582, 36.0699277], [-95.7917027, 36.070037], [-95.7919508, 36.0701193], [-95.791913, 36.0701937], [-95.7918545, 36.0701743], [-95.7917864, 36.0703084], [-95.7918506, 36.0703298], [-95.7917017, 36.0706227], [-95.7918358, 36.0706673], [-95.7917977, 36.0707423], [-95.7920204, 36.0708163], [-95.7919742, 36.0709072], [-95.7922512, 36.0709992], [-95.7922693, 36.0709636], [-95.7925772, 36.0710658], [-95.7926029, 36.0710152], [-95.7926936, 36.0710453], [-95.7927855, 36.0708644], [-95.7927056, 36.0708379], [-95.7929628, 36.0703318]]]}, "properties": {"osm_id": 125584391, "building": "yes", "name": "Bass Pro Shops", "height": null, "height_m": null, "levels": null, "tract_id": "40143007417", "tract_name": "74.17", "tags": {"addr:city": "Broken Arrow", "addr:housenumber": "101", "addr:postcode": "74012", "addr:state": "OK", "addr:street": "Bass Pro Drive", "brand": "Bass Pro Shops", "brand:wikidata": "Q4867953", "building": "yes", "check_date": "2023-07-16", "name": "Bass Pro Shops", "opening_hours": "Mo-Sa 09:00-21:00; Su 10:00-19:00", "ref": "31", "shop": "outdoor", "wheelchair": "yes"}}}, {"type": "Feature", "geometry": {"type": "Polygon", "coordinates": [[[-95.7805165, 36.0639815], [-95.7802369, 36.063982], [-95.7802362, 36.0637793], [-95.7805158, 36.0637787], [-95.7805165, 36.0639815]]]}, "properties": {"osm_id": 297207874, "building": "yes", "name": "Hideaway Pizza", "height": null, "height_m": null, "levels": null, "tract_id": "40143007417", "tract_name": "74.17", "tags": {"addr:city": "Broken Arrow", "addr:housenumber": "1150", "addr:postcode": "74012", "addr:state": "OK", "addr:street": "North 9th Street", "amenity": "restaurant", "building": "yes", "cuisine": "pizza", "name": "Hideaway Pizza", "phone": "+1 (918) 286-1777", "website": "https://hideawaypizza.com/"}}}, {"type": "Feature", "geometry": {"type": "Polygon", "coordinates": [[[-95.7957774, 36.0724031], [-95.795809, 36.0723288], [-95.7958394, 36.0723373], [-95.7958727, 36.0722591], [-95.7958423, 36.0722506], [-95.7958483, 36.0722364], [-95.7955105, 36.0721425], [-95.7955217, 36.0721161], [-95.79539, 36.0720795], [-95.7953787, 36.0721059], [-95.7950479, 36.0720145], [-95.7950408, 36.0720304], [-95.7950009, 36.0720237], [-95.7950098, 36.0719996], [-95.7948947, 36.0719677], [-95.7947815, 36.0722429], [-95.794954, 36.0722911], [-95.7949929, 36.0721947], [-95.7949862, 36.0721891], [-95.7949867, 36.0721834], [-95.795188, 36.0722393], [-95.7951812, 36.0722555], [-95.7955627, 36.0723616], [-95.7955696, 36.0723454], [-95.7957774, 36.0724031]]]}, "properties": {"osm_id": 318013151, "building": "commercial", "name": "Holiday Inn Express", "height": null, "height_m": null, "levels": null, "tract_id": "40143007417", "tract_name": "74.17", "tags": {"air_conditioning": "yes", "brand": "Holiday Inn Express", "brand:wikidata": "Q5880423", "building": "commercial", "name": "Holiday Inn Express", "tourism": "hotel", "wheelchair": "yes"}}}, {"type": "Feature", "geometry": {"type": "Polygon", "coordinates": [[[-95.7968864, 36.0732973], [-95.7967085, 36.073307], [-95.7966869, 36.0730468], [-95.7968648, 36.0730372], [-95.7968864, 36.0732973]]]}, "properties": {"osm_id": 318013152, "building": "commercial", "name": "Steak 'n Shake", "height": null, "height_m": null, "levels": null, "tract_id": "40143007417", "tract_name": "74.17", "tags": {"addr:city": "Broken Arrow", "addr:country": "US", "addr:housenumber": "501", "addr:postcode": "74012", "addr:state": "OK", "addr:street": "East Stonewood Drive", "air_conditioning": "yes", "amenity": "fast_food", "brand": "Steak 'n Shake", "brand:wikidata": "Q7605233", "building": "commercial", "check_date": "2025-05-23", "check_date:currency:XBT": "2025-05-23", "cuisine": "burger", "name": "Steak 'n Shake", "opening_hours": "10:00-00:00", "payment:credit_cards": "yes", "payment:debit_cards": "yes", "phone": "+1 918 355 6405", "source": "BTCmap verification form", "takeaway": "yes", "website": "https://www.steaknshake.com/locations/ok-broken-arrow-stonewood-drive/", "wheelchair": "yes"}}}, {"type": "Feature", "geometry": {"type": "Polygon", "coordinates": [[[-95.7952674, 36.0734573], [-95.7950821, 36.0734941], [-95.7948684, 36.0727901], [-95.7950537, 36.0727534], [-95.7950958, 36.072892], [-95.7951542, 36.0730843], [-95.7952674, 36.0734573]]]}, "properties": {"osm_id": 318013153, "building": "commercial", "name": "Towne Place Suites", "height": null, "height_m": null, "levels": null, "tract_id": "40143007417", "tract_name": "74.17", "tags": {"air_conditioning": "yes", "brand": "TownePlace Suites", "brand:wikidata": "Q7830092", "building": "commercial", "internet_access": "yes", "name": "Towne Place Suites", "official_name": "TownePlace Suites by Marriott", "operator": "Marriott", "phone": "+1 (918) 355-9600", "tourism": "hotel", "wheelchair": "yes"}}}, {"type": "Feature", "geometry": {"type": "Polygon", "coordinates": [[[-95.7804009, 36.0617323], [-95.7800808, 36.0617323], [-95.7800793, 36.0614585], [-95.7801228, 36.0614222], [-95.780521, 36.0614208], [-95.780522, 36.0617323], [-95.7804932, 36.0617323], [-95.7804009, 36.0617323]]]}, "properties": {"osm_id": 425096647, "building": "yes", "name": "Walgreens", "height": null, "height_m": null, "levels": null, "tract_id": "40143007417", "tract_name": "74.17", "tags": {"addr:city": "Broken Arrow", "addr:housenumber": "950", "addr:postcode": "74012", "addr:street": "East Kenosha Street", "amenity": "pharmacy", "brand": "Walgreens", "brand:wikidata": "Q1591889", "building": "yes", "check_date": "2024-10-20", "healthcare": "pharmacy", "name": "Walgreens", "phone": "+1 918 251 3996", "ref": "7821"}}}, {"type": "Feature", "geometry": {"type": "Polygon", "coordinates": [[[-95.796755, 36.0726944], [-95.7966324, 36.0727005], [-95.7966292, 36.0726587], [-95.7966029, 36.07266], [-95.7964129, 36.0728395], [-95.7962929, 36.0727565], [-95.7964849, 36.0725751], [-95.7964833, 36.0725533], [-95.7964098, 36.0725568], [-95.7964025, 36.0724569], [-95.7966356, 36.0724459], [-95.7967419, 36.0725213], [-95.796755, 36.0726944]]]}, "properties": {"osm_id": 470377651, "building": "yes", "name": "AVB Bank", "height": null, "height_m": null, "levels": null, "tract_id": "40143007417", "tract_name": "74.17", "tags": {"addr:city": "Broken Arrow", "addr:housenumber": "2201", "addr:postcode": "74012", "addr:state": "OK", "addr:street": "North Elm Place", "amenity": "bank", "atm": "yes", "building": "yes", "check_date": "2023-08-02", "name": "AVB Bank"}}}, {"type": "Feature", "geometry": {"type": "Polygon", "coordinates": [[[-95.7947657, 36.0733012], [-95.79466, 36.0731612], [-95.7946382, 36.073172], [-95.7946146, 36.0731407], [-95.7945564, 36.0731694], [-95.7945876, 36.0732107], [-95.7943915, 36.0733074], [-95.7944843, 36.0734302], [-95.7946462, 36.0733503], [-95.7946516, 36.0733575], [-95.7947657, 36.0733012]]]}, "properties": {"osm_id": 470377653, "building": "yes", "name": "Oklahoma Joe's Barbecue", "height": null, "height_m": null, "levels": null, "tract_id": "40143007417", "tract_name": "74.17", "tags": {"addr:city": "Broken Arrow", "addr:housenumber": "333", "addr:postcode": "74012", "addr:state": "OK", "addr:street": "West Albany Street", "amenity": "restaurant", "building": "yes", "check_date": "2023-08-02", "cuisine": "barbecue", "name": "Oklahoma Joe's Barbecue"}}}, {"type": "Feature", "geometry": {"type": "Polygon", "coordinates": [[[-95.7953796, 36.0737189], [-95.7951483, 36.0738276], [-95.7950797, 36.0737324], [-95.7948348, 36.0738476], [-95.7950458, 36.0741407], [-95.7954917, 36.073931], [-95.7955036, 36.0738911], [-95.7953796, 36.0737189]]]}, "properties": {"osm_id": 470377655, "building": "commercial", "name": "", "height": null, "height_m": null, "levels": null, "tract_id": "40143007417", "tract_name": "74.17", "tags": {"building": "commercial"}}}, {"type": "Feature", "geometry": {"type": "Polygon", "coordinates": [[[-95.7958997, 36.0733591], [-95.795671, 36.0734653], [-95.7957366, 36.0735578], [-95.7954379, 36.0736964], [-95.7955583, 36.0738659], [-95.795597, 36.0738737], [-95.7960996, 36.0736405], [-95.7958997, 36.0733591]]]}, "properties": {"osm_id": 470377656, "building": "commercial", "name": "", "height": null, "height_m": null, "levels": null, "tract_id": "40143007417", "tract_name": "74.17", "tags": {"building": "commercial"}}}, {"type": "Feature", "geometry": {"type": "Polygon", "coordinates": [[[-95.790596, 36.0700519], [-95.7903441, 36.0698967], [-95.7902972, 36.0699472], [-95.7901817, 36.0700686], [-95.7901136, 36.0701413], [-95.7902663, 36.0702435], [-95.7902714, 36.0702502], [-95.7904273, 36.0702438], [-95.7905088, 36.070242], [-95.7905557, 36.0702411], [-95.7905854, 36.0702378], [-95.7905903, 36.0702488], [-95.7906094, 36.0702494], [-95.7906445, 36.0702535], [-95.7906986, 36.0702618], [-95.790807, 36.0702797], [-95.7908306, 36.0702632], [-95.7908092, 36.0702317], [-95.7907715, 36.0701915], [-95.7907392, 36.0701556], [-95.7907257, 36.0701362], [-95.7907033, 36.0701197], [-95.790596, 36.0700519]]]}, "properties": {"osm_id": 470380562, "building": "yes", "name": "Los Cabos", "height": null, "height_m": null, "levels": null, "tract_id": "40143007417", "tract_name": "74.17", "tags": {"air_conditioning": "yes", "amenity": "restaurant", "building": "yes", "check_date": "2023-08-02", "cuisine": "mexican", "name": "Los Cabos", "outdoor_seating": "yes", "payment:credit_cards": "yes", "payment:debit_cards": "yes", "wheelchair": "yes"}}}, {"type": "Feature", "geometry": {"type": "Polygon", "coordinates": [[[-95.7894849, 36.06918], [-95.7891931, 36.0693376], [-95.7893694, 36.0695508], [-95.7894304, 36.0695179], [-95.7894472, 36.0695382], [-95.7895216, 36.069498], [-95.7894963, 36.0694674], [-95.7895538, 36.0694364], [-95.7895733, 36.0694449], [-95.7896483, 36.0694044], [-95.7895165, 36.069245], [-95.7894683, 36.069271], [-95.7894537, 36.0692534], [-95.7895173, 36.0692191], [-95.7894849, 36.06918]]]}, "properties": {"osm_id": 470380563, "building": "yes", "name": "Charleston's", "height": null, "height_m": null, "levels": null, "tract_id": "40143007417", "tract_name": "74.17", "tags": {"addr:city": "Broken Arrow", "addr:housenumber": "215", "addr:postcode": "74012", "addr:state": "OK", "addr:street": "East Hillside Drive", "air_conditioning": "yes", "amenity": "restaurant", "building": "yes", "name": "Charleston's", "payment:credit_cards": "yes", "payment:debit_cards": "yes", "website": "https://charlestons.com/locations/charlestons-broken-arrow/", "wheelchair": "yes"}}}, {"type": "Feature", "geometry": {"type": "Polygon", "coordinates": [[[-95.7902629, 36.0724859], [-95.7901485, 36.0725269], [-95.7901621, 36.0725518], [-95.7900939, 36.0725762], [-95.7900834, 36.0725571], [-95.7899967, 36.0725881], [-95.7899847, 36.0725664], [-95.7899258, 36.0725875], [-95.7898388, 36.0724287], [-95.7898674, 36.0724184], [-95.7898581, 36.0724015], [-95.7898486, 36.0724049], [-95.7898255, 36.0723626], [-95.789894, 36.0723381], [-95.7898885, 36.0723279], [-95.7900994, 36.0722524], [-95.7901775, 36.0723948], [-95.7902071, 36.0723842], [-95.7902629, 36.0724859]]]}, "properties": {"osm_id": 470683172, "building": "yes", "name": "Element 8", "height": null, "height_m": null, "levels": null, "tract_id": "40143007417", "tract_name": "74.17", "tags": {"amenity": "dentist", "building": "yes", "healthcare": "dentist", "name": "Element 8", "note": "building says \"childhood smile and facial development\"", "wheelchair": "yes"}}}, {"type": "Feature", "geometry": {"type": "Polygon", "coordinates": [[[-95.7815463, 36.0668443], [-95.7815441, 36.0672967], [-95.7809129, 36.0672947], [-95.7809132, 36.0672259], [-95.7810074, 36.0672261], [-95.7810091, 36.06685], [-95.781064, 36.0668502], [-95.7810642, 36.0668083], [-95.7814777, 36.0668096], [-95.7814775, 36.0668441], [-95.7815463, 36.0668443]]]}, "properties": {"osm_id": 473114062, "building": "yes", "name": "Sprouts Farmers Market", "height": null, "height_m": null, "levels": null, "tract_id": "40143007417", "tract_name": "74.17", "tags": {"addr:city": "Broken Arrow", "addr:housenumber": "851", "addr:postcode": "74012", "addr:state": "OK", "addr:street": "East Hillside Drive", "branch": "Broken Arrow", "brand": "Sprouts Farmers Market", "brand:wikidata": "Q7581369", "building": "yes", "name": "Sprouts Farmers Market", "opening_hours": "Mo-Su 07:00-22:00", "phone": "+1 918-806-0810", "ref": "806", "shop": "supermarket", "short_name": "Sprouts", "website": "https://www.sprouts.com/store/ok/broken-arrow/broken-arrow/", "wheelchair": "yes"}}}, {"type": "Feature", "geometry": {"type": "Polygon", "coordinates": [[[-95.7806773, 36.0684993], [-95.7806764, 36.0683246], [-95.7803979, 36.0683255], [-95.7803985, 36.0684302], [-95.7803915, 36.0684302], [-95.7803919, 36.0685046], [-95.7804837, 36.0685043], [-95.7804837, 36.0685], [-95.7806773, 36.0684993]]]}, "properties": {"osm_id": 473149426, "building": "yes", "name": "Louie's Grill and Bar", "height": null, "height_m": null, "levels": null, "tract_id": "40143007417", "tract_name": "74.17", "tags": {"air_conditioning": "yes", "amenity": "restaurant", "building": "yes", "check_date": "2023-08-02", "name": "Louie's Grill and Bar", "opening_hours": "Mo-Su 11:00-23:00", "payment:credit_cards": "yes", "payment:debit_cards": "yes", "wheelchair": "yes"}}}, {"type": "Feature", "geometry": {"type": "Polygon", "coordinates": [[[-95.7809818, 36.0683907], [-95.7810657, 36.06839], [-95.7810658, 36.0684035], [-95.7811881, 36.0684026], [-95.7811933, 36.0688847], [-95.7809881, 36.0690514], [-95.7803197, 36.0690531], [-95.7803194, 36.0689561], [-95.7803104, 36.0689561], [-95.7803101, 36.0688777], [-95.7804015, 36.0688775], [-95.7804015, 36.0688864], [-95.780883, 36.0688852], [-95.7809866, 36.0688022], [-95.7809818, 36.0683907]]]}, "properties": {"osm_id": 473149568, "building": "commercial", "name": "", "height": null, "height_m": null, "levels": null, "tract_id": "40143007417", "tract_name": "74.17", "tags": {"building": "commercial"}}}, {"type": "Feature", "geometry": {"type": "Polygon", "coordinates": [[[-95.7962474, 36.0749055], [-95.7960344, 36.0749056], [-95.7960343, 36.0743932], [-95.796132, 36.0743932], [-95.796132, 36.0743687], [-95.7962869, 36.0743687], [-95.7962869, 36.0744592], [-95.7963913, 36.0744592], [-95.7963912, 36.0745459], [-95.7962978, 36.0745459], [-95.7962978, 36.0746186], [-95.7962598, 36.0746186], [-95.7962597, 36.0748682], [-95.7962474, 36.0748682], [-95.7962474, 36.0749055]]]}, "properties": {"osm_id": 474205648, "building": "yes", "name": "La Quinta Inn & Suites", "height": null, "height_m": null, "levels": null, "tract_id": "40143007417", "tract_name": "74.17", "tags": {"addr:city": "Broken Arrow", "addr:housenumber": "451", "addr:postcode": "74012", "addr:state": "OK", "addr:street": "West Albany Street", "air_conditioning": "yes", "branch": "Tulsa Broken Arrow", "brand": "La Quinta Inn & Suites", "brand:wikidata": "Q6464734", "building": "yes", "internet_access": "wlan", "name": "La Quinta Inn & Suites", "official_name": "La Quinta Inn & Suites by Wyndham", "phone": "+1 918-615-3400", "ref": "52997", "tourism": "hotel", "website": "https://www.wyndhamhotels.com/laquinta/broken-arrow-oklahoma/la-quinta-tulsa-broken-arrow/overview", "wheelchair": "yes"}}}, {"type": "Feature", "geometry": {"type": "Polygon", "coordinates": [[[-95.7817407, 36.0744087], [-95.78167, 36.0744086], [-95.781671, 36.0740637], [-95.7817417, 36.0740639], [-95.7817407, 36.0744087]]]}, "properties": {"osm_id": 524482643, "building": "yes", "name": "", "height": null, "height_m": null, "levels": null, "tract_id": "40143007417", "tract_name": "74.17", "tags": {"building": "yes"}}}, {"type": "Feature", "geometry": {"type": "Polygon", "coordinates": [[[-95.7815757, 36.074422], [-95.7815056, 36.074422], [-95.7815051, 36.0740651], [-95.7815753, 36.074065], [-95.7815757, 36.074422]]]}, "properties": {"osm_id": 524482644, "building": "yes", "name": "", "height": null, "height_m": null, "levels": null, "tract_id": "40143007417", "tract_name": "74.17", "tags": {"building": "yes"}}}, {"type": "Feature", "geometry": {"type": "Polygon", "coordinates": [[[-95.7814139, 36.0744366], [-95.7813429, 36.0744369], [-95.7813402, 36.0740649], [-95.7814113, 36.0740645], [-95.7814139, 36.0744366]]]}, "properties": {"osm_id": 524482645, "building": "yes", "name": "", "height": null, "height_m": null, "levels": null, "tract_id": "40143007417", "tract_name": "74.17", "tags": {"building": "yes"}}}, {"type": "Feature", "geometry": {"type": "Polygon", "coordinates": [[[-95.7812526, 36.0744483], [-95.7811479, 36.0744491], [-95.7811437, 36.0740646], [-95.7812484, 36.0740639], [-95.7812526, 36.0744483]]]}, "properties": {"osm_id": 524482646, "building": "yes", "name": "", "height": null, "height_m": null, "levels": null, "tract_id": "40143007417", "tract_name": "74.17", "tags": {"building": "yes"}}}, {"type": "Feature", "geometry": {"type": "Polygon", "coordinates": [[[-95.7810527, 36.074478], [-95.7809485, 36.0744781], [-95.7809477, 36.0740649], [-95.781052, 36.0740648], [-95.7810527, 36.074478]]]}, "properties": {"osm_id": 524482647, "building": "yes", "name": "", "height": null, "height_m": null, "levels": null, "tract_id": "40143007417", "tract_name": "74.17", "tags": {"building": "yes"}}}, {"type": "Feature", "geometry": {"type": "Polygon", "coordinates": [[[-95.7808584, 36.0745078], [-95.780753, 36.0745081], [-95.7807512, 36.0740657], [-95.7808566, 36.0740654], [-95.7808584, 36.0745078]]]}, "properties": {"osm_id": 524482648, "building": "yes", "name": "", "height": null, "height_m": null, "levels": null, "tract_id": "40143007417", "tract_name": "74.17", "tags": {"building": "yes"}}}, {"type": "Feature", "geometry": {"type": "Polygon", "coordinates": [[[-95.7806601, 36.0745186], [-95.780659, 36.0740672], [-95.7805518, 36.0740673], [-95.7805529, 36.0745188], [-95.7806601, 36.0745186]]]}, "properties": {"osm_id": 524482649, "building": "yes", "name": "", "height": null, "height_m": null, "levels": null, "tract_id": "40143007417", "tract_name": "74.17", "tags": {"building": "yes"}}}, {"type": "Feature", "geometry": {"type": "Polygon", "coordinates": [[[-95.7804541, 36.0745122], [-95.7804541, 36.074401], [-95.7801485, 36.074401], [-95.7801485, 36.0744174], [-95.7799938, 36.0744174], [-95.7799938, 36.0744962], [-95.780147, 36.0744962], [-95.780147, 36.0745122], [-95.7804541, 36.0745122]]]}, "properties": {"osm_id": 524484045, "building": "yes", "name": "", "height": null, "height_m": null, "levels": null, "tract_id": "40143007417", "tract_name": "74.17", "tags": {"building": "yes"}}}, {"type": "Feature", "geometry": {"type": "Polygon", "coordinates": [[[-95.7801487, 36.0743687], [-95.7801489, 36.0743546], [-95.7801489, 36.0742567], [-95.7801484, 36.0742191], [-95.7803803, 36.0742189], [-95.7803797, 36.0739244], [-95.781739, 36.0739228], [-95.7817391, 36.0739815], [-95.7804531, 36.073983], [-95.7804536, 36.0742631], [-95.780217, 36.0742634], [-95.7802172, 36.0743686], [-95.7801487, 36.0743687]]]}, "properties": {"osm_id": 524484046, "building": "yes", "name": "", "height": null, "height_m": null, "levels": null, "tract_id": "40143007417", "tract_name": "74.17", "tags": {"building": "yes"}}}, {"type": "Feature", "geometry": {"type": "Polygon", "coordinates": [[[-95.7806466, 36.069757], [-95.7806466, 36.0694955], [-95.7802184, 36.0694955], [-95.7802184, 36.0695931], [-95.7801405, 36.0695932], [-95.7801405, 36.0696682], [-95.7802264, 36.0696682], [-95.7802264, 36.0697571], [-95.7806466, 36.069757]]]}, "properties": {"osm_id": 529508392, "building": "yes", "name": "", "height": null, "height_m": null, "levels": null, "tract_id": "40143007417", "tract_name": "74.17", "tags": {"amenity": "place_of_worship", "building": "yes", "denomination": "pentecostal", "religion": "christian"}}}, {"type": "Feature", "geometry": {"type": "Polygon", "coordinates": [[[-95.7804785, 36.0628363], [-95.7804839, 36.0629642], [-95.7801325, 36.0629772], [-95.780111, 36.0624482], [-95.7804544, 36.0624439], [-95.7804624, 36.0625783], [-95.7803659, 36.0625805], [-95.7803793, 36.0628298], [-95.7804785, 36.0628363]]]}, "properties": {"osm_id": 529508394, "building": "retail", "name": "", "height": null, "height_m": null, "levels": null, "tract_id": "40143007417", "tract_name": "74.17", "tags": {"building": "retail"}}}, {"type": "Feature", "geometry": {"type": "Polygon", "coordinates": [[[-95.7963708, 36.0694077], [-95.7963717, 36.0691906], [-95.7958181, 36.0691891], [-95.7958179, 36.0692352], [-95.7957874, 36.0692352], [-95.7957871, 36.0692908], [-95.7958162, 36.0692909], [-95.7958141, 36.0698125], [-95.796421, 36.0698141], [-95.7964226, 36.0694078], [-95.7963708, 36.0694077]]]}, "properties": {"osm_id": 544637894, "building": "retail", "name": "Ferguson Buick GMC", "height": null, "height_m": null, "levels": null, "tract_id": "40143007417", "tract_name": "74.17", "tags": {"building": "retail", "description": "certified pre-owned", "name": "Ferguson Buick GMC", "second_hand": "only", "shop": "car"}}}, {"type": "Feature", "geometry": {"type": "Polygon", "coordinates": [[[-95.7963994, 36.0690837], [-95.7957176, 36.0690846], [-95.7957171, 36.0688365], [-95.7962983, 36.0688357], [-95.7962983, 36.0688203], [-95.7963989, 36.0688201], [-95.7963994, 36.0690837]]]}, "properties": {"osm_id": 544637895, "building": "yes", "name": "Ferguson Imports", "height": null, "height_m": null, "levels": null, "tract_id": "40143007417", "tract_name": "74.17", "tags": {"building": "yes", "name": "Ferguson Imports", "opening_hours": "Mo-Sa 08:00-14:00", "shop": "car"}}}, {"type": "Feature", "geometry": {"type": "Polygon", "coordinates": [[[-95.7968215, 36.0685464], [-95.7964868, 36.0685481], [-95.7964861, 36.068459], [-95.7963535, 36.0684596], [-95.796352, 36.0682674], [-95.7964661, 36.0682669], [-95.7964663, 36.0682982], [-95.7966005, 36.0682975], [-95.7966709, 36.068375], [-95.7968202, 36.0683743], [-95.7968215, 36.0685464]]]}, "properties": {"osm_id": 544637896, "building": "commercial", "name": "Kia", "height": null, "height_m": null, "levels": null, "tract_id": "40143007417", "tract_name": "74.17", "tags": {"brand": "Kia", "brand:wikidata": "Q35349", "building": "commercial", "name": "Kia", "shop": "car"}}}, {"type": "Feature", "geometry": {"type": "Polygon", "coordinates": [[[-95.7966725, 36.0658396], [-95.7966733, 36.0659774], [-95.7966198, 36.0659766], [-95.7966191, 36.0660166], [-95.79661, 36.066053], [-95.796593, 36.0660894], [-95.7965885, 36.0660994], [-95.7966865, 36.0661584], [-95.7967294, 36.0661843], [-95.7966739, 36.0662481], [-95.7966312, 36.0662254], [-95.7965252, 36.066169], [-95.796503, 36.0661917], [-95.7964685, 36.0662133], [-95.796458, 36.066218], [-95.7964566, 36.0662796], [-95.7961508, 36.066279], [-95.7961524, 36.0660791], [-95.79607, 36.0660785], [-95.7960692, 36.0657454], [-95.7964605, 36.0657466], [-95.796462, 36.0658425], [-95.7966725, 36.0658396]]]}, "properties": {"osm_id": 544637904, "building": "church", "name": "Northside Christian Church", "height": null, "height_m": null, "levels": null, "tract_id": "40143007417", "tract_name": "74.17", "tags": {"addr:housenumber": "1221", "addr:postcode": "74012", "addr:street": "North Elm Place", "amenity": "place_of_worship", "building": "church", "ele": "227", "gnis:feature_id": "1782614", "name": "Northside Christian Church", "opening_hours:office": "Mo-Th 09:00-16:00", "religion": "christian", "service_times": "Su 10:30"}}}, {"type": "Feature", "geometry": {"type": "Polygon", "coordinates": [[[-95.7969767, 36.0677994], [-95.7965831, 36.0678007], [-95.7965823, 36.0676342], [-95.7969735, 36.0676329], [-95.7969736, 36.0676529], [-95.796996, 36.0676528], [-95.7969961, 36.0676751], [-95.7970019, 36.0676751], [-95.797002, 36.0676964], [-95.7970064, 36.0676964], [-95.7970067, 36.0677321], [-95.7970027, 36.0677321], [-95.7970029, 36.0677597], [-95.7969958, 36.0677651], [-95.7969959, 36.0677787], [-95.7969766, 36.0677788], [-95.7969767, 36.0677994]]]}, "properties": {"osm_id": 544637905, "building": "yes", "name": "Luxury Inn & Suites", "height": null, "height_m": null, "levels": null, "tract_id": "40143007417", "tract_name": "74.17", "tags": {"addr:housenumber": "1401", "addr:postcode": "74012", "addr:street": "North Elm Place", "building": "yes", "name": "Luxury Inn & Suites", "tourism": "hotel"}}}, {"type": "Feature", "geometry": {"type": "Polygon", "coordinates": [[[-95.7969536, 36.0673856], [-95.7970943, 36.0673867], [-95.7970915, 36.067516], [-95.797056, 36.0675145], [-95.7970569, 36.0675368], [-95.7970158, 36.0675353], [-95.7970149, 36.0675141], [-95.7968138, 36.0675126], [-95.7968119, 36.0675266], [-95.7964762, 36.0675251], [-95.7964762, 36.0675837], [-95.7964864, 36.0675837], [-95.7964864, 36.0676381], [-95.7964752, 36.0676385], [-95.796471, 36.0677156], [-95.7963592, 36.067716], [-95.7963612, 36.0676438], [-95.7963568, 36.0676413], [-95.7963568, 36.0676126], [-95.79636, 36.0676086], [-95.7963618, 36.0675706], [-95.7963566, 36.0675665], [-95.7963553, 36.0675026], [-95.7963602, 36.0674992], [-95.7963596, 36.0674562], [-95.7963559, 36.0674562], [-95.7963559, 36.0674497], [-95.796361, 36.0674495], [-95.7963614, 36.0674382], [-95.7963185, 36.0674369], [-95.7963177, 36.0674225], [-95.7963521, 36.0674217], [-95.7963521, 36.0674174], [-95.7969544, 36.0674163], [-95.7969536, 36.0673856]]]}, "properties": {"osm_id": 544639679, "building": "yes", "name": "Canterbury Inn & Suites", "height": null, "height_m": null, "levels": null, "tract_id": "40143007417", "tract_name": "74.17", "tags": {"addr:housenumber": "1301", "addr:postcode": "74012", "addr:street": "North Elm Place", "building": "yes", "name": "Canterbury Inn & Suites", "tourism": "hotel"}}}, {"type": "Feature", "geometry": {"type": "Polygon", "coordinates": [[[-95.7958032, 36.0677676], [-95.7950915, 36.067771], [-95.7950897, 36.0675252], [-95.7958014, 36.0675219], [-95.7958032, 36.0677676]]]}, "properties": {"osm_id": 544639682, "building": "retail", "name": "", "height": null, "height_m": null, "levels": null, "tract_id": "40143007417", "tract_name": "74.17", "tags": {"building": "retail"}}}, {"type": "Feature", "geometry": {"type": "Polygon", "coordinates": [[[-95.7964379, 36.067033], [-95.7964363, 36.0666509], [-95.7961862, 36.0666515], [-95.7961864, 36.0667146], [-95.7958602, 36.0667154], [-95.7958613, 36.0669776], [-95.7961864, 36.0669768], [-95.7961866, 36.0670336], [-95.7964379, 36.067033]]]}, "properties": {"osm_id": 544645048, "building": "industrial", "name": "Stewart Martin Equipment", "height": null, "height_m": null, "levels": null, "tract_id": "40143007417", "tract_name": "74.17", "tags": {"addr:housenumber": "1275", "addr:postcode": "74012", "addr:street": "North Elm Place", "brand": "Kubota", "building": "industrial", "name": "Stewart Martin Equipment", "shop": "tractor"}}}, {"type": "Feature", "geometry": {"type": "Polygon", "coordinates": [[[-95.7955872, 36.0663887], [-95.7943673, 36.0663958], [-95.7943653, 36.0661685], [-95.795108, 36.0661642], [-95.7951092, 36.0662983], [-95.7955864, 36.0662956], [-95.7955872, 36.0663887]]]}, "properties": {"osm_id": 544645049, "building": "industrial", "name": "", "height": null, "height_m": null, "levels": null, "tract_id": "40143007417", "tract_name": "74.17", "tags": {"building": "industrial", "operator": "Northside Christian Church"}}}, {"type": "Feature", "geometry": {"type": "Polygon", "coordinates": [[[-95.7962072, 36.065308], [-95.7961525, 36.0653064], [-95.7961476, 36.065416], [-95.7957304, 36.0654039], [-95.7957417, 36.0651509], [-95.7960622, 36.0651603], [-95.7960634, 36.0651334], [-95.7961232, 36.0651351], [-95.796122, 36.0651604], [-95.7961562, 36.0651614], [-95.7961542, 36.0652044], [-95.7962117, 36.0652061], [-95.7962072, 36.065308]]]}, "properties": {"osm_id": 544645050, "building": "church", "name": "", "height": null, "height_m": null, "levels": null, "tract_id": "40143007417", "tract_name": "74.17", "tags": {"building": "church"}}}, {"type": "Feature", "geometry": {"type": "Polygon", "coordinates": [[[-95.7970813, 36.0612765], [-95.7970811, 36.0613681], [-95.7970926, 36.0613681], [-95.7970925, 36.061402], [-95.7970812, 36.061402], [-95.797081, 36.0614957], [-95.7969457, 36.0614955], [-95.7969463, 36.0612763], [-95.7970813, 36.0612765]]]}, "properties": {"osm_id": 546837669, "building": "commercial", "name": "Arby's", "height": null, "height_m": null, "levels": null, "tract_id": "40143007417", "tract_name": "74.17", "tags": {"addr:city": "Broken Arrow", "addr:housenumber": "624", "addr:postcode": "74012", "addr:state": "OK", "addr:street": "West Kenosha Street", "air_conditioning": "yes", "amenity": "fast_food", "brand": "Arby's", "brand:wikidata": "Q630866", "building": "commercial", "check_date": "2024-06-21", "cuisine": "sandwich", "name": "Arby's", "opening_hours": "09:30-23:00", "phone": "+1 918-258-7477", "takeaway": "yes", "website": "https://www.arbys.com/locations/us/ok/broken-arrow/624-w-kenosha/store-748/", "wheelchair": "yes"}}}, {"type": "Feature", "geometry": {"type": "Polygon", "coordinates": [[[-95.7967571, 36.061341], [-95.7967582, 36.0612539], [-95.7967295, 36.0612537], [-95.7967285, 36.0613407], [-95.7967571, 36.061341]]]}, "properties": {"osm_id": 546837670, "building": "service", "name": "", "height": null, "height_m": null, "levels": null, "tract_id": "40143007417", "tract_name": "74.17", "tags": {"building": "service"}}}, {"type": "Feature", "geometry": {"type": "Polygon", "coordinates": [[[-95.7964981, 36.0612511], [-95.7964989, 36.0613558], [-95.7964911, 36.0613559], [-95.7964916, 36.0614129], [-95.7964802, 36.0614129], [-95.7964803, 36.0614359], [-95.7963492, 36.0614365], [-95.7963478, 36.0612518], [-95.7964981, 36.0612511]]]}, "properties": {"osm_id": 546837671, "building": "yes", "name": "Papa Murphy's", "height": null, "height_m": null, "levels": null, "tract_id": "40143007417", "tract_name": "74.17", "tags": {"addr:city": "Broken Arrow", "addr:housenumber": "610", "addr:postcode": "74012", "addr:state": "OK", "addr:street": "West Kenosha Street", "amenity": "fast_food", "brand": "Papa Murphy's", "brand:wikidata": "Q7132349", "building": "yes", "cuisine": "pizza", "name": "Papa Murphy's", "official_name": "Papa Murphy's Take 'N' Bake Pizza", "phone": "+1-918-251-7272", "takeaway": "only"}}}, {"type": "Feature", "geometry": {"type": "Polygon", "coordinates": [[[-95.7961175, 36.0621984], [-95.7959444, 36.0621968], [-95.7959463, 36.0619306], [-95.7961179, 36.0619324], [-95.7961175, 36.0621984]]]}, "properties": {"osm_id": 546837673, "building": "industrial", "name": "", "height": null, "height_m": null, "levels": null, "tract_id": "40143007417", "tract_name": "74.17", "tags": {"building": "industrial", "craft": "agricultural_engines", "operator": "BA Lawn & Garden"}}}, {"type": "Feature", "geometry": {"type": "Polygon", "coordinates": [[[-95.7837228, 36.0675597], [-95.7829813, 36.0674523], [-95.7831248, 36.0668045], [-95.7838664, 36.0669119], [-95.7837228, 36.0675597]]]}, "properties": {"osm_id": 705544363, "building": "yes", "name": "Hobby Lobby", "height": null, "height_m": null, "levels": null, "tract_id": "40143007417", "tract_name": "74.17", "tags": {"addr:city": "Broken Arrow", "addr:housenumber": "751", "addr:postcode": "74012", "addr:state": "OK", "addr:street": "Hillside Drive", "brand": "Hobby Lobby", "brand:wikidata": "Q5874938", "building": "yes", "check_date": "2024-10-13", "name": "Hobby Lobby", "opening_hours": "Mo-Sa 09:00-20:00", "shop": "craft", "wheelchair": "yes"}}}, {"type": "Feature", "geometry": {"type": "Polygon", "coordinates": [[[-95.7956234, 36.0617566], [-95.7956077, 36.0612968], [-95.7959297, 36.0612896], [-95.7959322, 36.061364], [-95.7959277, 36.0613641], [-95.7959384, 36.0616797], [-95.7958991, 36.0616806], [-95.7959015, 36.0617504], [-95.7956234, 36.0617566]]]}, "properties": {"osm_id": 739583904, "building": "industrial", "name": "BA Lawn & Garden", "height": null, "height_m": null, "levels": null, "tract_id": "40143007417", "tract_name": "74.17", "tags": {"addr:housenumber": "502", "addr:postcode": "74012", "addr:street": "West Kenosha Street", "building": "industrial", "craft": "agricultural_engines", "name": "BA Lawn & Garden", "official_name": "Broken Arrow Lawn & Garden", "opening_hours": "Mo-Fr 08:00-17:30; Sa-Su off; Mar-Jun Mo-Fr 08:00-17:30; Sa 09:00-14:00; Su off", "phone": "+1 918 258 5296"}}}, {"type": "Feature", "geometry": {"type": "Polygon", "coordinates": [[[-95.7957454, 36.0634398], [-95.7957443, 36.0631844], [-95.7952143, 36.0631859], [-95.7952154, 36.0634412], [-95.7953602, 36.0634408], [-95.7953593, 36.0632812], [-95.7956027, 36.0632784], [-95.7956052, 36.0634401], [-95.7957454, 36.0634398]]]}, "properties": {"osm_id": 742034848, "building": "apartments", "name": "", "height": null, "height_m": null, "levels": null, "tract_id": "40143007417", "tract_name": "74.17", "tags": {"building": "apartments"}}}, {"type": "Feature", "geometry": {"type": "Polygon", "coordinates": [[[-95.7927196, 36.0637158], [-95.7926575, 36.0637169], [-95.7926567, 36.063685], [-95.7927188, 36.063684], [-95.7927196, 36.0637158]]]}, "properties": {"osm_id": 742034849, "building": "yes", "name": "", "height": null, "height_m": null, "levels": null, "tract_id": "40143007417", "tract_name": "74.17", "tags": {"building": "yes"}}}, {"type": "Feature", "geometry": {"type": "Polygon", "coordinates": [[[-95.7926913, 36.0636312], [-95.7925279, 36.0634893], [-95.7925829, 36.0634479], [-95.7925982, 36.0634611], [-95.7926713, 36.063406], [-95.792797, 36.0635152], [-95.7927388, 36.063559], [-95.7927613, 36.0635786], [-95.7926913, 36.0636312]]]}, "properties": {"osm_id": 742034850, "building": "detached", "name": "", "height": null, "height_m": null, "levels": null, "tract_id": "40143007417", "tract_name": "74.17", "tags": {"addr:city": "Broken Arrow", "addr:housenumber": "1112", "addr:postcode": "74012", "addr:street": "North Circle Drive", "building": "detached"}}}, {"type": "Feature", "geometry": {"type": "Polygon", "coordinates": [[[-95.7926395, 36.0631939], [-95.7928504, 36.0631961], [-95.7928494, 36.0632624], [-95.7928754, 36.0632626], [-95.7928739, 36.0633583], [-95.7928366, 36.0633579], [-95.7928365, 36.0633634], [-95.7927471, 36.0633625], [-95.7927472, 36.0633556], [-95.7926963, 36.0633551], [-95.7926977, 36.0632633], [-95.7926385, 36.0632627], [-95.7926395, 36.0631939]]]}, "properties": {"osm_id": 742034851, "building": "detached", "name": "", "height": null, "height_m": null, "levels": null, "tract_id": "40143007417", "tract_name": "74.17", "tags": {"addr:city": "Broken Arrow", "addr:housenumber": "1108", "addr:postcode": "74012", "addr:street": "North Circle Drive", "building": "detached"}}}, {"type": "Feature", "geometry": {"type": "Polygon", "coordinates": [[[-95.7928602, 36.063229], [-95.7928603, 36.0632014], [-95.7928862, 36.0632015], [-95.7928861, 36.0632291], [-95.7928602, 36.063229]]]}, "properties": {"osm_id": 742034852, "building": "yes", "name": "", "height": null, "height_m": null, "levels": null, "tract_id": "40143007417", "tract_name": "74.17", "tags": {"building": "yes"}}}, {"type": "Feature", "geometry": {"type": "Polygon", "coordinates": [[[-95.7929312, 36.0631582], [-95.7929319, 36.0631134], [-95.7928833, 36.0631129], [-95.7928826, 36.0631577], [-95.7929312, 36.0631582]]]}, "properties": {"osm_id": 742034853, "building": "yes", "name": "", "height": null, "height_m": null, "levels": null, "tract_id": "40143007417", "tract_name": "74.17", "tags": {"building": "yes"}}}, {"type": "Feature", "geometry": {"type": "Polygon", "coordinates": [[[-95.7928176, 36.0631609], [-95.7925761, 36.0631585], [-95.7925768, 36.0631121], [-95.7925829, 36.0631122], [-95.792583, 36.0631019], [-95.7926034, 36.0631021], [-95.7926036, 36.0630893], [-95.7925832, 36.0630891], [-95.7925842, 36.0630222], [-95.7925944, 36.0630223], [-95.7925949, 36.0629879], [-95.7927537, 36.0629894], [-95.7927531, 36.0630284], [-95.7928119, 36.063029], [-95.7928104, 36.0631306], [-95.7928181, 36.0631307], [-95.7928176, 36.0631609]]]}, "properties": {"osm_id": 742034854, "building": "detached", "name": "", "height": null, "height_m": null, "levels": null, "tract_id": "40143007417", "tract_name": "74.17", "tags": {"addr:city": "Broken Arrow", "addr:housenumber": "1104", "addr:postcode": "74012", "addr:street": "North Circle Drive", "building": "detached"}}}, {"type": "Feature", "geometry": {"type": "Polygon", "coordinates": [[[-95.7929544, 36.0627972], [-95.7929527, 36.0627462], [-95.7928964, 36.0627474], [-95.792897, 36.0627653], [-95.7928654, 36.062766], [-95.7928666, 36.0627991], [-95.7929544, 36.0627972]]]}, "properties": {"osm_id": 742034855, "building": "yes", "name": "", "height": null, "height_m": null, "levels": null, "tract_id": "40143007417", "tract_name": "74.17", "tags": {"building": "yes"}}}, {"type": "Feature", "geometry": {"type": "Polygon", "coordinates": [[[-95.792777, 36.0627126], [-95.7925822, 36.0626862], [-95.792605, 36.0625758], [-95.7926494, 36.0625818], [-95.7926627, 36.0625177], [-95.7926202, 36.0625119], [-95.7926367, 36.0624322], [-95.7927945, 36.0624535], [-95.7927838, 36.0625053], [-95.7928766, 36.0625179], [-95.7928576, 36.0626096], [-95.7928, 36.0626018], [-95.792777, 36.0627126]]]}, "properties": {"osm_id": 742034856, "building": "detached", "name": "", "height": null, "height_m": null, "levels": null, "tract_id": "40143007417", "tract_name": "74.17", "tags": {"addr:city": "Broken Arrow", "addr:postcode": "74012", "addr:street": "North Circle Drive", "building": "detached"}}}, {"type": "Feature", "geometry": {"type": "Polygon", "coordinates": [[[-95.7929063, 36.0625084], [-95.7929054, 36.0624445], [-95.7929543, 36.062444], [-95.7929552, 36.0625079], [-95.7929063, 36.0625084]]]}, "properties": {"osm_id": 742034857, "building": "yes", "name": "", "height": null, "height_m": null, "levels": null, "tract_id": "40143007417", "tract_name": "74.17", "tags": {"building": "yes"}}}, {"type": "Feature", "geometry": {"type": "Polygon", "coordinates": [[[-95.781327, 36.0677913], [-95.7813642, 36.0677914], [-95.7814387, 36.0677915], [-95.7814945, 36.0677916], [-95.7816061, 36.0677917], [-95.781662, 36.0677918], [-95.7817364, 36.0677919], [-95.7817736, 36.067792], [-95.781773, 36.0680136], [-95.7817545, 36.0680136], [-95.7816986, 36.0680135], [-95.7816416, 36.0680134], [-95.7816242, 36.0680134], [-95.7816097, 36.0680134], [-95.7815498, 36.0680133], [-95.7814917, 36.0680132], [-95.7814753, 36.0680132], [-95.7814585, 36.0680132], [-95.7814009, 36.0680131], [-95.7813447, 36.068013], [-95.7813265, 36.068013], [-95.781327, 36.0677913]]]}, "properties": {"osm_id": 795053180, "building": "yes", "name": "", "height": null, "height_m": null, "levels": null, "tract_id": "40143007417", "tract_name": "74.17", "tags": {"addr:city": "Broken Arrow", "addr:postcode": "74012", "addr:state": "OK", "addr:street": "Hillside Drive", "building": "yes"}}}, {"type": "Feature", "geometry": {"type": "Polygon", "coordinates": [[[-95.7820053, 36.066948], [-95.7822574, 36.0669487], [-95.7822567, 36.0671138], [-95.7820046, 36.067113], [-95.7820053, 36.066948]]]}, "properties": {"osm_id": 795054709, "building": "yes", "name": "Smitty's Garage", "height": null, "height_m": null, "levels": null, "tract_id": "40143007417", "tract_name": "74.17", "tags": {"addr:city": "Broken Arrow", "addr:state": "OK", "addr:street": "Hillside Drive", "air_conditioning": "yes", "amenity": "restaurant", "building": "yes", "check_date": "2024-10-13", "cuisine": "burger", "name": "Smitty's Garage", "opening_hours": "Mo-Th 11:00-22:00; Fr,Sa 11:00-23:00; Su 11:00-21:00", "payment:credit_cards": "yes", "payment:debit_cards": "yes", "wheelchair": "yes"}}}, {"type": "Feature", "geometry": {"type": "Polygon", "coordinates": [[[-95.7804209, 36.0671511], [-95.7802573, 36.0671519], [-95.7802573, 36.0671587], [-95.7801887, 36.0671578], [-95.7801887, 36.0671484], [-95.7801939, 36.0667992], [-95.7802441, 36.0667992], [-95.7802436, 36.0667832], [-95.7802898, 36.0667826], [-95.7802914, 36.0668004], [-95.7804212, 36.0668007], [-95.7804209, 36.0671511]]]}, "properties": {"osm_id": 795054710, "building": "yes", "name": "", "height": null, "height_m": null, "levels": null, "tract_id": "40143007417", "tract_name": "74.17", "tags": {"addr:city": "Broken Arrow", "addr:postcode": "74012", "addr:state": "OK", "addr:street": "Hillside Drive", "building": "yes"}}}, {"type": "Feature", "geometry": {"type": "Polygon", "coordinates": [[[-95.7812343, 36.061445], [-95.7812341, 36.0614689], [-95.781196, 36.0614687], [-95.7811956, 36.061546], [-95.7811753, 36.0615459], [-95.7811749, 36.0616029], [-95.7811892, 36.061603], [-95.7811884, 36.0617354], [-95.7811991, 36.0617354], [-95.7811989, 36.0617723], [-95.7813212, 36.0617728], [-95.7813214, 36.0617378], [-95.7813394, 36.0617379], [-95.7813401, 36.0616251], [-95.7813504, 36.0616252], [-95.7813507, 36.0615826], [-95.7813356, 36.0615825], [-95.7813362, 36.0614701], [-95.7813061, 36.06147], [-95.7813062, 36.0614452], [-95.7812343, 36.061445]]]}, "properties": {"osm_id": 834335122, "building": "yes", "name": "Chick-fil-A", "height": null, "height_m": null, "levels": null, "tract_id": "40143007417", "tract_name": "74.17", "tags": {"addr:city": "Broken Arrow", "addr:housenumber": "850", "addr:postcode": "74012", "addr:state": "OK", "addr:street": "East Kenosha Street", "amenity": "fast_food", "branch": "Broken Arrow", "brand": "Chick-fil-A", "brand:wikidata": "Q491516", "building": "yes", "check_date": "2024-10-20", "cuisine": "chicken", "delivery": "yes", "drive_through": "yes", "indoor_seating": "yes", "internet_access": "wlan", "name": "Chick-fil-A", "opening_hours": "Mo-Sa 06:30-22:00; Su off", "phone": "+1 918-251-0199", "ref": "02821", "takeaway": "yes", "website": "https://www.chick-fil-a.com/locations/ok/broken-arrow"}}}, {"type": "Feature", "geometry": {"type": "Polygon", "coordinates": [[[-95.7817418, 36.06141], [-95.7815657, 36.0614113], [-95.7815668, 36.061508], [-95.7815937, 36.0615078], [-95.7815946, 36.0615888], [-95.7817207, 36.0615878], [-95.7817198, 36.0615099], [-95.781743, 36.0615097], [-95.7817418, 36.06141]]]}, "properties": {"osm_id": 834335123, "building": "yes", "name": "Andy's Frozen Custard", "height": null, "height_m": null, "levels": null, "tract_id": "40143007417", "tract_name": "74.17", "tags": {"addr:city": "Broken Arrow", "addr:housenumber": "800", "addr:postcode": "74012", "addr:street": "East Kenosha Street", "amenity": "ice_cream", "brand": "Andy's Frozen Custard", "brand:wikidata": "Q4760327", "building": "yes", "check_date": "2024-10-20", "name": "Andy's Frozen Custard", "short_name": "Andy's"}}}, {"type": "Feature", "geometry": {"type": "Polygon", "coordinates": [[[-95.7800658, 36.0620158], [-95.7800659, 36.0621353], [-95.7803151, 36.0621351], [-95.7803151, 36.0621205], [-95.7803487, 36.0621204], [-95.7803486, 36.0620491], [-95.7803733, 36.0620491], [-95.7803732, 36.0620156], [-95.7800658, 36.0620158]]]}, "properties": {"osm_id": 842862756, "building": "yes", "name": "Raising Cane's", "height": null, "height_m": null, "levels": null, "tract_id": "40143007417", "tract_name": "74.17", "tags": {"addr:city": "Broken Arrow", "addr:housenumber": "1100", "addr:postcode": "74012", "addr:street": "North 9th Street", "amenity": "fast_food", "brand": "Raising Cane's", "brand:wikidata": "Q7285144", "building": "yes", "check_date": "2024-10-20", "cuisine": "chicken", "name": "Raising Cane's", "official_name": "Raising Cane's Chicken Fingers", "opening_hours": "Su-Th 09:00-01:00; Fr-Sa 09:00-02:00", "phone": "+1 918 259 0213", "takeaway": "yes"}}}, {"type": "Feature", "geometry": {"type": "Polygon", "coordinates": [[[-95.7912347, 36.0647748], [-95.7912186, 36.0647389], [-95.7912854, 36.0647192], [-95.7913015, 36.0647552], [-95.7912347, 36.0647748]]]}, "properties": {"osm_id": 847595178, "building": "shed", "name": "", "height": null, "height_m": null, "levels": null, "tract_id": "40143007417", "tract_name": "74.17", "tags": {"building": "shed"}}}, {"type": "Feature", "geometry": {"type": "Polygon", "coordinates": [[[-95.7912258, 36.0652804], [-95.79122, 36.0652408], [-95.7912693, 36.0652361], [-95.791275, 36.0652757], [-95.7912258, 36.0652804]]]}, "properties": {"osm_id": 847595179, "building": "shed", "name": "", "height": null, "height_m": null, "levels": null, "tract_id": "40143007417", "tract_name": "74.17", "tags": {"building": "shed"}}}, {"type": "Feature", "geometry": {"type": "Polygon", "coordinates": [[[-95.7803901, 36.0665669], [-95.7803895, 36.0664219], [-95.7803227, 36.0664221], [-95.7803224, 36.0663268], [-95.7802156, 36.0663271], [-95.780216, 36.0664208], [-95.7802004, 36.0664208], [-95.780201, 36.0665674], [-95.7803901, 36.0665669]]]}, "properties": {"osm_id": 869732900, "building": "yes", "name": "Bank of Oklahoma", "height": null, "height_m": null, "levels": null, "tract_id": "40143007417", "tract_name": "74.17", "tags": {"addr:housenumber": "1520", "addr:postcode": "74012", "addr:street": "North 9th Street", "amenity": "bank", "building": "yes", "check_date": "2024-10-13", "name": "Bank of Oklahoma", "opening_hours": "Mo-Fr 09:00-17:00; Sa 09:00-12:00", "wheelchair": "yes"}}}, {"type": "Feature", "geometry": {"type": "Polygon", "coordinates": [[[-95.7819107, 36.0631271], [-95.7819119, 36.0628012], [-95.7818945, 36.0628012], [-95.7818958, 36.0627751], [-95.7819349, 36.0625989], [-95.7818493, 36.0625836], [-95.7818455, 36.062595], [-95.78181, 36.0625934], [-95.7818048, 36.0625932], [-95.7818037, 36.0625837], [-95.7816, 36.0625851], [-95.7815999, 36.0625935], [-95.7815459, 36.0625928], [-95.7815459, 36.0625656], [-95.7810409, 36.0625661], [-95.7810373, 36.0628262], [-95.7809926, 36.0628265], [-95.7809934, 36.0627949], [-95.7809417, 36.0627945], [-95.7809412, 36.0629642], [-95.7809409, 36.0631846], [-95.7811529, 36.0631862], [-95.7811708, 36.0631902], [-95.781334, 36.0631935], [-95.7813358, 36.0631861], [-95.7814669, 36.0631852], [-95.7814669, 36.0631249], [-95.7819107, 36.0631271]]]}, "properties": {"osm_id": 870856097, "building": "commercial", "name": "Broken Arrow Public Safety Complex", "height": null, "height_m": null, "levels": null, "tract_id": "40143007417", "tract_name": "74.17", "tags": {"addr:city": "Broken Arrow", "addr:housenumber": "1101", "addr:postcode": "74012", "addr:state": "OK", "addr:street": "North 6th Street", "amenity": "police", "building": "commercial", "description": "Police and Fire Headquarters", "name": "Broken Arrow Public Safety Complex", "website": "https://www.brokenarrowok.gov/government/police"}}}, {"type": "Feature", "geometry": {"type": "Polygon", "coordinates": [[[-95.7826039, 36.0618281], [-95.7823594, 36.0618272], [-95.7823618, 36.0614084], [-95.7824678, 36.0614088], [-95.782468, 36.0613694], [-95.7826141, 36.0613699], [-95.7826138, 36.0614297], [-95.7826061, 36.0614297], [-95.7826039, 36.0618281]]]}, "properties": {"osm_id": 870856100, "building": "industrial", "name": "Bill Knight Collision", "height": null, "height_m": null, "levels": null, "tract_id": "40143007417", "tract_name": "74.17", "tags": {"addr:city": "Broken Arrow", "addr:housenumber": "700", "addr:postcode": "74012", "addr:street": "East Kenosha Street", "building": "industrial", "check_date": "2024-10-20", "name": "Bill Knight Collision", "opening_hours": "Mo-Fr 08:00-17:00", "phone": "+1 918 893 3680", "shop": "car_repair"}}}, {"type": "Feature", "geometry": {"type": "Polygon", "coordinates": [[[-95.7837774, 36.0614497], [-95.7835766, 36.0614489], [-95.7835757, 36.0613685], [-95.7836433, 36.0613685], [-95.7836435, 36.0613778], [-95.7837764, 36.061377], [-95.7837774, 36.0614497]]]}, "properties": {"osm_id": 870856106, "building": "commercial", "name": "Take 5 Oil Change", "height": null, "height_m": null, "levels": null, "tract_id": "40143007417", "tract_name": "74.17", "tags": {"addr:city": "Broken Arrow", "addr:housenumber": "580", "addr:postcode": "74012", "addr:street": "East Kenosha Street", "brand": "Take 5 Oil Change", "brand:wikidata": "Q112359190", "building": "commercial", "check_date": "2024-10-20", "name": "Take 5 Oil Change", "service:vehicle:oil_change": "yes", "shop": "car_repair"}}}, {"type": "Feature", "geometry": {"type": "Polygon", "coordinates": [[[-95.7834086, 36.0615921], [-95.7831956, 36.0615921], [-95.7831949, 36.0614085], [-95.7832779, 36.0614093], [-95.7832782, 36.0613783], [-95.7834155, 36.0613794], [-95.7834179, 36.0615023], [-95.7834067, 36.0615025], [-95.7834086, 36.0615921]]]}, "properties": {"osm_id": 870856107, "building": "yes", "name": "First Watch", "height": null, "height_m": null, "levels": null, "tract_id": "40143007417", "tract_name": "74.17", "tags": {"addr:city": "Broken Arrow", "addr:housenumber": "600", "addr:postcode": "74012", "addr:street": "East Kenosha Street", "amenity": "restaurant", "brand": "First Watch", "brand:wikidata": "Q5454064", "building": "yes", "check_date": "2024-10-20", "cuisine": "american;breakfast", "name": "First Watch", "official_name": "First Watch The Daytime Cafe"}}}, {"type": "Feature", "geometry": {"type": "Polygon", "coordinates": [[[-95.7821104, 36.0616731], [-95.781993, 36.0616731], [-95.781993, 36.0614888], [-95.7821104, 36.0614888], [-95.7821104, 36.0615197], [-95.7821231, 36.0615197], [-95.7821231, 36.0615512], [-95.7821104, 36.0615512], [-95.7821104, 36.0616731]]]}, "properties": {"osm_id": 902530695, "building": "yes", "name": "Chipotle", "height": null, "height_m": null, "levels": null, "tract_id": "40143007417", "tract_name": "74.17", "tags": {"addr:city": "Broken Arrow", "addr:housenumber": "750", "addr:postcode": "74012", "addr:state": "OK", "addr:street": "East Kenosha Street", "amenity": "fast_food", "brand": "Chipotle", "brand:wikidata": "Q465751", "building": "yes", "check_date": "2024-10-20", "cuisine": "mexican", "name": "Chipotle", "official_name": "Chipotle Mexican Grill", "opening_hours": "10:45-23:00", "phone": "+1 918-615-4060", "takeaway": "yes", "website": "https://locations.chipotle.com/ok/broken-arrow/750-e-kenosha-st"}}}, {"type": "Feature", "geometry": {"type": "Polygon", "coordinates": [[[-95.7807291, 36.0680145], [-95.7803777, 36.0680156], [-95.7803774, 36.0679505], [-95.7803618, 36.0679506], [-95.7803616, 36.0679056], [-95.7803772, 36.0679055], [-95.780377, 36.067879], [-95.7804152, 36.0678788], [-95.7804152, 36.0678732], [-95.7804642, 36.0678731], [-95.7804641, 36.0678599], [-95.780499, 36.0678598], [-95.780499, 36.0678503], [-95.7806063, 36.06785], [-95.7806063, 36.0678595], [-95.7806418, 36.0678594], [-95.7806419, 36.0678725], [-95.7806921, 36.0678724], [-95.7806922, 36.067878], [-95.7807284, 36.0678779], [-95.7807285, 36.067905], [-95.7807437, 36.0679049], [-95.7807439, 36.0679499], [-95.7807288, 36.06795], [-95.7807291, 36.0680145]]]}, "properties": {"osm_id": 913710341, "building": "retail", "name": "QuikTrip", "height": null, "height_m": null, "levels": null, "tract_id": "40143007417", "tract_name": "74.17", "tags": {"addr:city": "Broken Arrow", "addr:housenumber": "900", "addr:postcode": "74012", "addr:state": "OK", "addr:street": "East Hillside Drive", "brand": "QuikTrip", "brand:wikidata": "Q7271953", "building": "retail", "check_date": "2025-06-17", "name": "QuikTrip", "opening_hours": "24/7", "phone": "+1-918-355-0014", "shop": "convenience", "short_name": "QT", "website": "https://locations.quiktrip.com/ok/broken-arrow/900-e-hillside-dr", "wheelchair": "yes"}}}, {"type": "Feature", "geometry": {"type": "Polygon", "coordinates": [[[-95.7833918, 36.0678996], [-95.7833254, 36.0679007], [-95.7833248, 36.0678676], [-95.7833911, 36.0678665], [-95.7833918, 36.0678996]]]}, "properties": {"osm_id": 973078110, "building": "service", "name": "", "height": null, "height_m": null, "levels": null, "tract_id": "40143007417", "tract_name": "74.17", "tags": {"building": "service"}}}, {"type": "Feature", "geometry": {"type": "Polygon", "coordinates": [[[-95.7833056, 36.0680005], [-95.7833057, 36.06792], [-95.7831837, 36.0679198], [-95.7831835, 36.0680003], [-95.7833056, 36.0680005]]]}, "properties": {"osm_id": 973078111, "building": "service", "name": "", "height": null, "height_m": null, "levels": null, "tract_id": "40143007417", "tract_name": "74.17", "tags": {"building": "service"}}}, {"type": "Feature", "geometry": {"type": "Polygon", "coordinates": [[[-95.7952197, 36.0616157], [-95.7952197, 36.0614514], [-95.7951225, 36.0614514], [-95.7951225, 36.0616157], [-95.7952197, 36.0616157]]]}, "properties": {"osm_id": 1164775407, "building": "yes", "name": "", "height": null, "height_m": null, "levels": null, "tract_id": "40143007417", "tract_name": "74.17", "tags": {"addr:housenumber": "408", "addr:postcode": "74012", "addr:street": "West Kenosha Street", "building": "yes", "old_name": "Big Bud's Dispensary", "shop": "cannabis"}}}, {"type": "Feature", "geometry": {"type": "Polygon", "coordinates": [[[-95.7952244, 36.0612445], [-95.7952278, 36.0611897], [-95.795207, 36.0611888], [-95.7952035, 36.0612437], [-95.7952244, 36.0612445]]]}, "properties": {"osm_id": 1164775408, "building": "no", "name": "Taqueria La Raza", "height": null, "height_m": null, "levels": null, "tract_id": "40143007417", "tract_name": "74.17", "tags": {"alt_phone": "918-313-0781", "amenity": "fast_food", "building": "no", "cuisine": "mexican", "name": "Taqueria La Raza", "phone": "+1-918-636-0144", "street_vendor": "yes"}}}, {"type": "Feature", "geometry": {"type": "Polygon", "coordinates": [[[-95.795681, 36.0627533], [-95.7956797, 36.062871], [-95.7956415, 36.0628707], [-95.7956408, 36.062924], [-95.7954587, 36.0629226], [-95.7954593, 36.0628693], [-95.7954296, 36.062869], [-95.7954309, 36.0627514], [-95.795681, 36.0627533]]]}, "properties": {"osm_id": 1188501442, "building": "yes", "name": "", "height": null, "height_m": null, "levels": null, "tract_id": "40143007417", "tract_name": "74.17", "tags": {"building": "yes"}}}, {"type": "Feature", "geometry": {"type": "Polygon", "coordinates": [[[-95.7959694, 36.0629204], [-95.7959667, 36.062689], [-95.7960564, 36.0626883], [-95.7960573, 36.0627686], [-95.796068, 36.0627686], [-95.7960688, 36.0628379], [-95.7960581, 36.062838], [-95.7960591, 36.0629197], [-95.7959694, 36.0629204]]]}, "properties": {"osm_id": 1188501443, "building": "yes", "name": "", "height": null, "height_m": null, "levels": null, "tract_id": "40143007417", "tract_name": "74.17", "tags": {"building": "yes"}}}, {"type": "Feature", "geometry": {"type": "Polygon", "coordinates": [[[-95.7962953, 36.0629182], [-95.7961833, 36.0629188], [-95.7961832, 36.0629096], [-95.7961311, 36.0629098], [-95.7961305, 36.0628291], [-95.7961826, 36.0628288], [-95.7961825, 36.0628163], [-95.7962945, 36.0628158], [-95.7962953, 36.0629182]]]}, "properties": {"osm_id": 1188501444, "building": "yes", "name": "", "height": null, "height_m": null, "levels": null, "tract_id": "40143007417", "tract_name": "74.17", "tags": {"building": "yes"}}}, {"type": "Feature", "geometry": {"type": "Polygon", "coordinates": [[[-95.7966506, 36.0629253], [-95.7963543, 36.0629258], [-95.796354, 36.0628169], [-95.7966503, 36.0628163], [-95.7966506, 36.0629253]]]}, "properties": {"osm_id": 1188501445, "building": "yes", "name": "", "height": null, "height_m": null, "levels": null, "tract_id": "40143007417", "tract_name": "74.17", "tags": {"building": "yes"}}}, {"type": "Feature", "geometry": {"type": "Polygon", "coordinates": [[[-95.7967703, 36.062698], [-95.7967701, 36.0626454], [-95.7966066, 36.062645], [-95.7966064, 36.0626976], [-95.7967703, 36.062698]]]}, "properties": {"osm_id": 1188501454, "building": "retail", "name": "", "height": null, "height_m": null, "levels": null, "tract_id": "40143007417", "tract_name": "74.17", "tags": {"building": "retail"}}}, {"type": "Feature", "geometry": {"type": "Polygon", "coordinates": [[[-95.7967701, 36.0626454], [-95.7967703, 36.062698], [-95.7970402, 36.0626987], [-95.7970404, 36.0626461], [-95.7967701, 36.0626454]]]}, "properties": {"osm_id": 1188501455, "building": "retail", "name": "Quality Value Auto Sales", "height": null, "height_m": null, "levels": null, "tract_id": "40143007417", "tract_name": "74.17", "tags": {"building": "retail", "name": "Quality Value Auto Sales", "phone": "+1 918 251 8181", "second_hand": "only", "shop": "car"}}}, {"type": "Feature", "geometry": {"type": "Polygon", "coordinates": [[[-95.7962074, 36.0625475], [-95.7961397, 36.0625479], [-95.7961383, 36.0624124], [-95.7962061, 36.062412], [-95.7962074, 36.0625475]]]}, "properties": {"osm_id": 1188501493, "building": "industrial", "name": "", "height": null, "height_m": null, "levels": null, "tract_id": "40143007417", "tract_name": "74.17", "tags": {"building": "industrial"}}}, {"type": "Feature", "geometry": {"type": "Polygon", "coordinates": [[[-95.7963154, 36.0621433], [-95.7963154, 36.0622233], [-95.7965212, 36.0622217], [-95.7965212, 36.0621418], [-95.7963154, 36.0621433]]]}, "properties": {"osm_id": 1188501496, "building": "retail", "name": "Sushi House", "height": null, "height_m": 3.0, "levels": 1, "tract_id": "40143007417", "tract_name": "74.17", "tags": {"addr:city": "Broken Arrow", "addr:housenumber": "939", "addr:postcode": "74012", "addr:state": "OK", "addr:street": "North Elm Place", "amenity": "restaurant", "building": "retail", "building:levels": "1", "cuisine": "sushi", "name": "Sushi House", "opening_hours": "Mo-Sa 11:00-21:00; Su off", "phone": "+1-918-251-0112", "roof:material": "tar_paper", "roof:shape": "flat"}}}, {"type": "Feature", "geometry": {"type": "Polygon", "coordinates": [[[-95.7963154, 36.0620633], [-95.7963154, 36.0621433], [-95.7965212, 36.0621418], [-95.7965212, 36.0620619], [-95.7963154, 36.0620633]]]}, "properties": {"osm_id": 1188501497, "building": "retail", "name": "Palin Music Center", "height": null, "height_m": 3.0, "levels": 1, "tract_id": "40143007417", "tract_name": "74.17", "tags": {"addr:city": "Broken Arrow", "addr:housenumber": "929", "addr:postcode": "74012", "addr:state": "OK", "addr:street": "North Elm Place", "amenity": "music_school", "building": "retail", "building:levels": "1", "name": "Palin Music Center", "opening_hours": "Mo-Fr 10:00-18:00; Sa-Su off", "roof:material": "tar_paper", "roof:shape": "flat", "website": "https://www.palinmusic.com"}}}, {"type": "Feature", "geometry": {"type": "Polygon", "coordinates": [[[-95.7963154, 36.0619833], [-95.7963154, 36.0620633], [-95.7965212, 36.0620619], [-95.7965212, 36.061982], [-95.7963154, 36.0619833]]]}, "properties": {"osm_id": 1188501498, "building": "retail", "name": "Fastsigns", "height": null, "height_m": 3.0, "levels": 1, "tract_id": "40143007417", "tract_name": "74.17", "tags": {"addr:city": "Broken Arrow", "addr:housenumber": "927", "addr:postcode": "74012", "addr:state": "OK", "addr:street": "North Elm Place", "brand": "Fastsigns", "brand:wikidata": "Q5437127", "building": "retail", "building:levels": "1", "craft": "signmaker", "name": "Fastsigns", "opening_hours": "Mo-Fr 08:00-17:00; Sa-Su off", "roof:material": "tar_paper", "roof:shape": "flat"}}}, {"type": "Feature", "geometry": {"type": "Polygon", "coordinates": [[[-95.7963154, 36.0619033], [-95.7963154, 36.0619833], [-95.7965212, 36.061982], [-95.7965212, 36.0619021], [-95.7963154, 36.0619033]]]}, "properties": {"osm_id": 1188501499, "building": "retail", "name": "Sky Nails", "height": null, "height_m": 3.0, "levels": 1, "tract_id": "40143007417", "tract_name": "74.17", "tags": {"addr:city": "Broken Arrow", "addr:housenumber": "923", "addr:postcode": "74012", "addr:state": "OK", "addr:street": "North Elm Place", "beauty": "nails", "building": "retail", "building:levels": "1", "name": "Sky Nails", "opening_hours": "Mo-Sa 10:00-19:30; Su off", "roof:material": "tar_paper", "roof:shape": "flat", "shop": "beauty"}}}, {"type": "Feature", "geometry": {"type": "Polygon", "coordinates": [[[-95.7963154, 36.0617232], [-95.7963154, 36.0618233], [-95.7965212, 36.0618222], [-95.7965212, 36.0617225], [-95.7963154, 36.0617232]]]}, "properties": {"osm_id": 1188501500, "building": "retail", "name": "Print-N-Copy", "height": null, "height_m": 3.0, "levels": 1, "tract_id": "40143007417", "tract_name": "74.17", "tags": {"addr:city": "Broken Arrow", "addr:housenumber": "921", "addr:postcode": "74012", "addr:state": "OK", "addr:street": "North Elm Place", "building": "retail", "building:levels": "1", "name": "Print-N-Copy", "opening_hours": "Mo-Th 09:00-17:00; Fr 09:00-12:00", "roof:material": "tar_paper", "roof:shape": "flat", "shop": "copyshop"}}}, {"type": "Feature", "geometry": {"type": "Polygon", "coordinates": [[[-95.7963154, 36.0616231], [-95.7963154, 36.0617232], [-95.7965212, 36.0617225], [-95.7965212, 36.0616227], [-95.7963154, 36.0616231]]]}, "properties": {"osm_id": 1188501501, "building": "retail", "name": "Dance Dynamics", "height": null, "height_m": 3.0, "levels": 1, "tract_id": "40143007417", "tract_name": "74.17", "tags": {"addr:city": "Broken Arrow", "addr:housenumber": "917", "addr:postcode": "74012", "addr:state": "OK", "addr:street": "North Elm Place", "building": "retail", "building:levels": "1", "dance:teaching": "yes", "leisure": "dance", "name": "Dance Dynamics", "roof:material": "tar_paper", "roof:shape": "flat"}}}, {"type": "Feature", "geometry": {"type": "Polygon", "coordinates": [[[-95.7963154, 36.061523], [-95.7963154, 36.0616231], [-95.7965212, 36.0616227], [-95.7965212, 36.061523], [-95.7963154, 36.061523]]]}, "properties": {"osm_id": 1188501502, "building": "retail", "name": "Liberty Tax", "height": null, "height_m": 3.0, "levels": 1, "tract_id": "40143007417", "tract_name": "74.17", "tags": {"addr:city": "Broken Arrow", "addr:housenumber": "915", "addr:postcode": "74012", "addr:state": "OK", "addr:street": "North Elm Place", "alt_name": "Liberty Tax Service", "brand": "Liberty Tax", "brand:wikidata": "Q6541978", "building": "retail", "building:levels": "1", "name": "Liberty Tax", "office": "tax_advisor", "roof:material": "tar_paper", "roof:shape": "flat"}}}, {"type": "Feature", "geometry": {"type": "Polygon", "coordinates": [[[-95.7963154, 36.0618233], [-95.7963154, 36.0619033], [-95.7965212, 36.0619021], [-95.7965212, 36.0618222], [-95.7963154, 36.0618233]]]}, "properties": {"osm_id": 1188501503, "building": "retail", "name": "", "height": null, "height_m": 3.0, "levels": 1, "tract_id": "40143007417", "tract_name": "74.17", "tags": {"building": "retail", "building:levels": "1", "roof:material": "tar_paper", "roof:shape": "flat", "shop": "vacant"}}}, {"type": "Feature", "geometry": {"type": "Polygon", "coordinates": [[[-95.7966996, 36.06237], [-95.7966989, 36.0625361], [-95.7967737, 36.0625361], [-95.7967737, 36.06237], [-95.7966996, 36.06237]]]}, "properties": {"osm_id": 1188501504, "building": "retail", "name": "Pho 71", "height": null, "height_m": 3.0, "levels": 1, "tract_id": "40143007417", "tract_name": "74.17", "tags": {"addr:city": "Broken Arrow", "addr:postcode": "74012", "addr:state": "OK", "amenity": "restaurant", "building": "retail", "building:levels": "1", "cuisine": "vietnamese", "name": "Pho 71", "roof:material": "tar_paper", "roof:shape": "flat"}}}, {"type": "Feature", "geometry": {"type": "Polygon", "coordinates": [[[-95.7965212, 36.0622217], [-95.7963154, 36.0622233], [-95.7963154, 36.0623209], [-95.7965212, 36.0623187], [-95.7965212, 36.0622217]]]}, "properties": {"osm_id": 1188501505, "building": "retail", "name": "Lima Peruvian Restaurant", "height": null, "height_m": 3.0, "levels": 1, "tract_id": "40143007417", "tract_name": "74.17", "tags": {"addr:city": "Broken Arrow", "addr:housenumber": "941", "addr:postcode": "74012", "addr:state": "OK", "addr:street": "North Elm Place", "amenity": "restaurant", "building": "retail", "building:levels": "1", "cuisine": "peruvian", "name": "Lima Peruvian Restaurant", "phone": "+1-539-367-1883", "roof:material": "tar_paper", "roof:shape": "flat"}}}, {"type": "Feature", "geometry": {"type": "Polygon", "coordinates": [[[-95.7963154, 36.0623209], [-95.7963154, 36.0625361], [-95.7965192, 36.0625361], [-95.7965212, 36.06237], [-95.7965212, 36.0623187], [-95.7963154, 36.0623209]]]}, "properties": {"osm_id": 1188501506, "building": "retail", "name": "Embody Fitness", "height": null, "height_m": 3.0, "levels": 1, "tract_id": "40143007417", "tract_name": "74.17", "tags": {"addr:city": "Broken Arrow", "addr:housenumber": "943", "addr:postcode": "74012", "addr:state": "OK", "addr:street": "North Elm Place", "building": "retail", "building:levels": "1", "leisure": "fitness_centre", "name": "Embody Fitness", "opening_hours": "Su off", "phone": "+1-918-893-6499", "roof:material": "tar_paper", "roof:shape": "flat"}}}, {"type": "Feature", "geometry": {"type": "Polygon", "coordinates": [[[-95.7965192, 36.0625361], [-95.7966185, 36.0625361], [-95.7966191, 36.06237], [-95.7965212, 36.06237], [-95.7965192, 36.0625361]]]}, "properties": {"osm_id": 1188501507, "building": "retail", "name": "Huntington Learning Center", "height": null, "height_m": 3.0, "levels": 1, "tract_id": "40143007417", "tract_name": "74.17", "tags": {"addr:city": "Broken Arrow", "addr:housenumber": "947", "addr:postcode": "74012", "addr:state": "OK", "addr:street": "North Elm Place", "amenity": "prep_school", "brand": "Huntington Learning Center", "brand:wikidata": "Q5945399", "building": "retail", "building:levels": "1", "name": "Huntington Learning Center", "phone": "+1-918-893-5500", "roof:material": "tar_paper", "roof:shape": "flat", "website": "https://huntingtonhelps.com"}}}, {"type": "Feature", "geometry": {"type": "Polygon", "coordinates": [[[-95.7966989, 36.0625361], [-95.7966996, 36.06237], [-95.7966191, 36.06237], [-95.7966185, 36.0625361], [-95.7966989, 36.0625361]]]}, "properties": {"osm_id": 1188501508, "building": "retail", "name": "Desserts By DBK Kousee", "height": null, "height_m": 3.0, "levels": 1, "tract_id": "40143007417", "tract_name": "74.17", "tags": {"addr:city": "Broken Arrow", "addr:postcode": "74012", "addr:state": "OK", "building": "retail", "building:levels": "1", "name": "Desserts By DBK Kousee", "opening_hours": "Su off", "roof:material": "tar_paper", "roof:shape": "flat", "shop": "bakery"}}}, {"type": "Feature", "geometry": {"type": "Polygon", "coordinates": [[[-95.7967737, 36.06237], [-95.7967737, 36.0625361], [-95.796882, 36.0625361], [-95.7968847, 36.0623705], [-95.7967737, 36.06237]]]}, "properties": {"osm_id": 1188501509, "building": "retail", "name": "Subway", "height": null, "height_m": 3.0, "levels": 1, "tract_id": "40143007417", "tract_name": "74.17", "tags": {"addr:city": "Broken Arrow", "addr:housenumber": "1003", "addr:postcode": "74012", "addr:state": "OK", "addr:street": "North Elm Place", "amenity": "fast_food", "brand": "Subway", "brand:wikidata": "Q244457", "building": "retail", "building:levels": "1", "cuisine": "sandwich", "name": "Subway", "opening_hours": "09:00-22:00", "phone": "+1 918-258-0782", "roof:material": "tar_paper", "roof:shape": "flat", "takeaway": "yes", "website": "https://restaurants.subway.com/united-states/ok/broken-arrow/1003-n-elm-place"}}}, {"type": "Feature", "geometry": {"type": "Polygon", "coordinates": [[[-95.796882, 36.0625361], [-95.7969718, 36.0625361], [-95.7969739, 36.0623708], [-95.7968847, 36.0623705], [-95.796882, 36.0625361]]]}, "properties": {"osm_id": 1188501510, "building": "retail", "name": "", "height": null, "height_m": 3.0, "levels": 1, "tract_id": "40143007417", "tract_name": "74.17", "tags": {"building": "retail", "building:levels": "1", "roof:material": "tar_paper", "roof:shape": "flat", "shop": "vacant"}}}, {"type": "Feature", "geometry": {"type": "Polygon", "coordinates": [[[-95.7969739, 36.0623708], [-95.7969718, 36.0625361], [-95.7971066, 36.0625361], [-95.7971066, 36.0623697], [-95.7969739, 36.0623708]]]}, "properties": {"osm_id": 1188501511, "building": "retail", "name": "Blue Plate Cafe", "height": null, "height_m": 3.0, "levels": 1, "tract_id": "40143007417", "tract_name": "74.17", "tags": {"addr:city": "Broken Arrow", "addr:postcode": "74012", "addr:state": "OK", "amenity": "restaurant", "building": "retail", "building:levels": "1", "cuisine": "american", "name": "Blue Plate Cafe", "roof:material": "tar_paper", "roof:shape": "flat"}}}, {"type": "Feature", "geometry": {"type": "Polygon", "coordinates": [[[-95.7839779, 36.0646772], [-95.7839788, 36.0646378], [-95.7839081, 36.0646367], [-95.7839071, 36.0646761], [-95.7839779, 36.0646772]]]}, "properties": {"osm_id": 1191621478, "building": "shed", "name": "", "height": null, "height_m": null, "levels": null, "tract_id": "40143007417", "tract_name": "74.17", "tags": {"building": "shed"}}}, {"type": "Feature", "geometry": {"type": "Polygon", "coordinates": [[[-95.7837895, 36.064539], [-95.7837465, 36.0645396], [-95.7837452, 36.0644778], [-95.7837881, 36.0644772], [-95.7837895, 36.064539]]]}, "properties": {"osm_id": 1191621479, "building": "shed", "name": "", "height": null, "height_m": null, "levels": null, "tract_id": "40143007417", "tract_name": "74.17", "tags": {"building": "shed"}}}, {"type": "Feature", "geometry": {"type": "Polygon", "coordinates": [[[-95.781251, 36.0639135], [-95.7813407, 36.0639148], [-95.7813419, 36.0638606], [-95.7812522, 36.0638593], [-95.781251, 36.0639135]]]}, "properties": {"osm_id": 1191621517, "building": "carport", "name": "", "height": null, "height_m": null, "levels": null, "tract_id": "40143007417", "tract_name": "74.17", "tags": {"building": "carport"}}}, {"type": "Feature", "geometry": {"type": "Polygon", "coordinates": [[[-95.7838953, 36.0640978], [-95.7837934, 36.0640991], [-95.7837964, 36.0642574], [-95.7838983, 36.0642561], [-95.7838953, 36.0640978]]]}, "properties": {"osm_id": 1191621518, "building": "detached", "name": "", "height": null, "height_m": null, "levels": null, "tract_id": "40143007417", "tract_name": "74.17", "tags": {"addr:city": "Broken Arrow", "addr:postcode": "74012", "addr:street": "North 5th Street", "building": "detached", "source": "microsoft/BuildingFootprints"}}}, {"type": "Feature", "geometry": {"type": "Polygon", "coordinates": [[[-95.781386, 36.0634991], [-95.7810186, 36.0634976], [-95.7810165, 36.0638244], [-95.7812159, 36.0638253], [-95.7812168, 36.0636798], [-95.7813848, 36.0636805], [-95.781386, 36.0634991]]]}, "properties": {"osm_id": 1191621519, "building": "yes", "name": "", "height": null, "height_m": null, "levels": null, "tract_id": "40143007417", "tract_name": "74.17", "tags": {"building": "yes", "source": "microsoft/BuildingFootprints"}}}, {"type": "Feature", "geometry": {"type": "Polygon", "coordinates": [[[-95.7834201, 36.0647306], [-95.7834147, 36.0648736], [-95.7834613, 36.0648743], [-95.7834616, 36.0648615], [-95.7835216, 36.0648625], [-95.7835246, 36.0647321], [-95.7834201, 36.0647306]]]}, "properties": {"osm_id": 1191621554, "building": "detached", "name": "", "height": null, "height_m": null, "levels": null, "tract_id": "40143007417", "tract_name": "74.17", "tags": {"addr:city": "Broken Arrow", "addr:housenumber": "525", "addr:postcode": "74012", "addr:street": "East Madison Street", "building": "detached"}}}, {"type": "Feature", "geometry": {"type": "Polygon", "coordinates": [[[-95.7830903, 36.0648003], [-95.78309, 36.0648398], [-95.7831316, 36.0648736], [-95.7832285, 36.0648741], [-95.7832296, 36.06473], [-95.7831629, 36.0647297], [-95.7831623, 36.0648007], [-95.7830903, 36.0648003]]]}, "properties": {"osm_id": 1191621555, "building": "detached", "name": "", "height": null, "height_m": null, "levels": null, "tract_id": "40143007417", "tract_name": "74.17", "tags": {"addr:city": "Broken Arrow", "addr:housenumber": "1152", "addr:postcode": "74012", "addr:street": "North 6th Street", "building": "detached"}}}, {"type": "Feature", "geometry": {"type": "Polygon", "coordinates": [[[-95.7838372, 36.0648438], [-95.7838837, 36.0648436], [-95.7838835, 36.0648247], [-95.7839016, 36.0648246], [-95.783902, 36.0648717], [-95.7839741, 36.0648713], [-95.7839728, 36.0646926], [-95.783892, 36.064693], [-95.7838921, 36.064712], [-95.7838656, 36.0647122], [-95.7838659, 36.0647421], [-95.7838364, 36.0647423], [-95.7838372, 36.0648438]]]}, "properties": {"osm_id": 1191621556, "building": "detached", "name": "", "height": null, "height_m": null, "levels": null, "tract_id": "40143007417", "tract_name": "74.17", "tags": {"addr:city": "Broken Arrow", "addr:housenumber": "517", "addr:postcode": "74012", "addr:street": "East Madison Street", "building": "detached", "source": "microsoft/BuildingFootprints"}}}, {"type": "Feature", "geometry": {"type": "Polygon", "coordinates": [[[-95.7836873, 36.0647272], [-95.7836858, 36.0648723], [-95.783731, 36.0648726], [-95.7837311, 36.0648598], [-95.7837899, 36.0648602], [-95.7837911, 36.0647278], [-95.7836873, 36.0647272]]]}, "properties": {"osm_id": 1191621557, "building": "detached", "name": "", "height": null, "height_m": null, "levels": null, "tract_id": "40143007417", "tract_name": "74.17", "tags": {"addr:city": "Broken Arrow", "addr:housenumber": "521", "addr:postcode": "74012", "addr:street": "East Madison Street", "building": "detached"}}}, {"type": "Feature", "geometry": {"type": "Polygon", "coordinates": [[[-95.7853908, 36.0648654], [-95.7854528, 36.0648658], [-95.7854532, 36.0648108], [-95.7854811, 36.0648109], [-95.7854822, 36.0646824], [-95.7853923, 36.0646819], [-95.7853908, 36.0648654]]]}, "properties": {"osm_id": 1197740025, "building": "detached", "name": "", "height": null, "height_m": null, "levels": null, "tract_id": "40143007417", "tract_name": "74.17", "tags": {"addr:city": "Broken Arrow", "addr:housenumber": "417", "addr:postcode": "74012", "addr:street": "East Madison Street", "building": "detached"}}}, {"type": "Feature", "geometry": {"type": "Polygon", "coordinates": [[[-95.7841765, 36.0648674], [-95.7842385, 36.0648678], [-95.7842389, 36.0648128], [-95.7842668, 36.0648129], [-95.7842679, 36.0646844], [-95.784178, 36.0646839], [-95.7841765, 36.0648674]]]}, "properties": {"osm_id": 1197740026, "building": "detached", "name": "", "height": null, "height_m": null, "levels": null, "tract_id": "40143007417", "tract_name": "74.17", "tags": {"addr:city": "Broken Arrow", "addr:housenumber": "513", "addr:postcode": "74012", "addr:street": "East Madison Street", "building": "detached"}}}, {"type": "Feature", "geometry": {"type": "Polygon", "coordinates": [[[-95.7848118, 36.0645797], [-95.7848182, 36.0645797], [-95.7848185, 36.0644986], [-95.7848247, 36.0644986], [-95.7848257, 36.064268], [-95.7846157, 36.0642674], [-95.7846153, 36.064346], [-95.7847237, 36.0643463], [-95.784723, 36.0644983], [-95.7847307, 36.0644983], [-95.7847304, 36.0645795], [-95.7847349, 36.0645795], [-95.7848118, 36.0645797]]]}, "properties": {"osm_id": 1197740027, "building": "detached", "name": "", "height": null, "height_m": null, "levels": null, "tract_id": "40143007417", "tract_name": "74.17", "tags": {"addr:city": "Broken Arrow", "addr:housenumber": "1201", "addr:postcode": "74012", "addr:street": "North 4th Street", "building": "detached"}}}, {"type": "Feature", "geometry": {"type": "Polygon", "coordinates": [[[-95.784649, 36.0653977], [-95.7846504, 36.065612], [-95.7848407, 36.0656112], [-95.7848393, 36.0653968], [-95.784649, 36.0653977]]]}, "properties": {"osm_id": 1197740028, "building": "apartments", "name": "", "height": null, "height_m": null, "levels": null, "tract_id": "40143007417", "tract_name": "74.17", "tags": {"addr:housenumber": "516", "addr:postcode": "74012", "addr:street": "East Madison Street", "building": "apartments", "source": "microsoft/BuildingFootprints"}}}, {"type": "Feature", "geometry": {"type": "Polygon", "coordinates": [[[-95.7848993, 36.0648671], [-95.7849613, 36.0648672], [-95.7849613, 36.0648122], [-95.7849892, 36.0648121], [-95.7849893, 36.0646836], [-95.7848994, 36.0646836], [-95.7848993, 36.0648671]]]}, "properties": {"osm_id": 1197740029, "building": "detached", "name": "", "height": null, "height_m": null, "levels": null, "tract_id": "40143007417", "tract_name": "74.17", "tags": {"addr:city": "Broken Arrow", "addr:housenumber": "501", "addr:postcode": "74012", "addr:street": "East Madison Street", "building": "detached"}}}, {"type": "Feature", "geometry": {"type": "Polygon", "coordinates": [[[-95.7846575, 36.0648662], [-95.7847195, 36.0648666], [-95.78472, 36.0648116], [-95.7847479, 36.0648118], [-95.7847492, 36.0646833], [-95.7846593, 36.0646827], [-95.7846575, 36.0648662]]]}, "properties": {"osm_id": 1197740031, "building": "detached", "name": "", "height": null, "height_m": null, "levels": null, "tract_id": "40143007417", "tract_name": "74.17", "tags": {"addr:city": "Broken Arrow", "addr:housenumber": "505", "addr:postcode": "74012", "addr:street": "East Madison Street", "building": "detached"}}}, {"type": "Feature", "geometry": {"type": "Polygon", "coordinates": [[[-95.7844144, 36.0648683], [-95.7844764, 36.0648687], [-95.7844768, 36.0648137], [-95.7845047, 36.0648138], [-95.7845058, 36.0646853], [-95.7844159, 36.0646848], [-95.7844144, 36.0648683]]]}, "properties": {"osm_id": 1197740032, "building": "detached", "name": "", "height": null, "height_m": null, "levels": null, "tract_id": "40143007417", "tract_name": "74.17", "tags": {"addr:city": "Broken Arrow", "addr:housenumber": "509", "addr:postcode": "74012", "addr:street": "East Madison Street", "building": "detached"}}}, {"type": "Feature", "geometry": {"type": "Polygon", "coordinates": [[[-95.784935, 36.0656977], [-95.7850133, 36.065698], [-95.7850131, 36.0657294], [-95.7850625, 36.0657296], [-95.7850627, 36.0657014], [-95.785111, 36.0657016], [-95.7851114, 36.0656268], [-95.7849355, 36.0656261], [-95.784935, 36.0656977]]]}, "properties": {"osm_id": 1197740034, "building": "yes", "name": "", "height": null, "height_m": null, "levels": null, "tract_id": "40143007417", "tract_name": "74.17", "tags": {"building": "yes", "office": "property_management", "source": "microsoft/BuildingFootprints"}}}, {"type": "Feature", "geometry": {"type": "Polygon", "coordinates": [[[-95.7842979, 36.0653391], [-95.7842951, 36.0651483], [-95.7841209, 36.06515], [-95.7841237, 36.0653407], [-95.7842979, 36.0653391]]]}, "properties": {"osm_id": 1197740035, "building": "apartments", "name": "", "height": null, "height_m": null, "levels": null, "tract_id": "40143007417", "tract_name": "74.17", "tags": {"addr:housenumber": "520", "addr:postcode": "74012", "addr:street": "East Madison Street", "building": "apartments", "source": "microsoft/BuildingFootprints"}}}, {"type": "Feature", "geometry": {"type": "Polygon", "coordinates": [[[-95.7854854, 36.0657737], [-95.7853943, 36.0655988], [-95.785227, 36.0656557], [-95.7853182, 36.0658307], [-95.7854854, 36.0657737]]]}, "properties": {"osm_id": 1197740036, "building": "apartments", "name": "", "height": null, "height_m": null, "levels": null, "tract_id": "40143007417", "tract_name": "74.17", "tags": {"addr:housenumber": "506", "addr:postcode": "74012", "addr:street": "East Madison Street", "building": "apartments", "source": "microsoft/BuildingFootprints"}}}, {"type": "Feature", "geometry": {"type": "Polygon", "coordinates": [[[-95.7850578, 36.0653152], [-95.7852914, 36.0653148], [-95.785291, 36.0651692], [-95.7850575, 36.0651696], [-95.7850578, 36.0653152]]]}, "properties": {"osm_id": 1197740037, "building": "apartments", "name": "", "height": null, "height_m": null, "levels": null, "tract_id": "40143007417", "tract_name": "74.17", "tags": {"addr:housenumber": "502", "addr:postcode": "74012", "addr:street": "East Madison Street", "building": "apartments", "source": "microsoft/BuildingFootprints"}}}, {"type": "Feature", "geometry": {"type": "Polygon", "coordinates": [[[-95.7828037, 36.0683852], [-95.7828055, 36.0685509], [-95.7821846, 36.0685553], [-95.7821828, 36.0683896], [-95.7828037, 36.0683852]]]}, "properties": {"osm_id": 1197740067, "building": "warehouse", "name": "", "height": null, "height_m": null, "levels": null, "tract_id": "40143007417", "tract_name": "74.17", "tags": {"building": "warehouse"}}}, {"type": "Feature", "geometry": {"type": "Polygon", "coordinates": [[[-95.7820795, 36.0683841], [-95.78208, 36.06855], [-95.7814846, 36.068551], [-95.7814841, 36.0683852], [-95.7820795, 36.0683841]]]}, "properties": {"osm_id": 1197740068, "building": "warehouse", "name": "", "height": null, "height_m": null, "levels": null, "tract_id": "40143007417", "tract_name": "74.17", "tags": {"building": "warehouse"}}}, {"type": "Feature", "geometry": {"type": "Polygon", "coordinates": [[[-95.7814828, 36.068254], [-95.7828051, 36.0682465], [-95.7828056, 36.0683028], [-95.7814833, 36.0683104], [-95.7814828, 36.068254]]]}, "properties": {"osm_id": 1197740069, "building": "warehouse", "name": "", "height": null, "height_m": null, "levels": null, "tract_id": "40143007417", "tract_name": "74.17", "tags": {"building": "warehouse"}}}, {"type": "Feature", "geometry": {"type": "Polygon", "coordinates": [[[-95.782274, 36.0680074], [-95.782274, 36.0679099], [-95.782215, 36.0679099], [-95.782215, 36.0678925], [-95.7821312, 36.0678925], [-95.7821312, 36.0680074], [-95.782274, 36.0680074]]]}, "properties": {"osm_id": 1197740079, "building": "construction", "name": "", "height": null, "height_m": null, "levels": null, "tract_id": "40143007417", "tract_name": "74.17", "tags": {"building": "construction", "fixme": "Site abandoned? Re-check and maybe label this as a foundation only if it's still here at all, otherwise delete."}}}, {"type": "Feature", "geometry": {"type": "Polygon", "coordinates": [[[-95.7918462, 36.0613773], [-95.7918438, 36.061201], [-95.7915276, 36.0612037], [-95.7915299, 36.0613798], [-95.7916326, 36.061379], [-95.791633, 36.0614102], [-95.7916676, 36.0614099], [-95.7916672, 36.0613789], [-95.7918462, 36.0613773]]]}, "properties": {"osm_id": 1232430909, "building": "fire_station", "name": "Central Fire Station", "height": null, "height_m": null, "levels": null, "tract_id": "40143007417", "tract_name": "74.17", "tags": {"addr:housenumber": "120", "addr:postcode": "74012", "addr:street": "West Kenosha Street", "alt_name": "Broken Arrow Fire Station #1", "amenity": "fire_station", "building": "fire_station", "name": "Central Fire Station", "operator": "City of Broken Arrow", "operator:type": "government", "operator:wikidata": "Q835810", "ref": "1"}}}, {"type": "Feature", "geometry": {"type": "Polygon", "coordinates": [[[-95.7922251, 36.0614932], [-95.7924473, 36.0614887], [-95.7924438, 36.0613776], [-95.7922217, 36.0613821], [-95.7922251, 36.0614932]]]}, "properties": {"osm_id": 1232430910, "building": "commercial", "name": "Gyro King", "height": null, "height_m": null, "levels": null, "tract_id": "40143007417", "tract_name": "74.17", "tags": {"addr:postcode": "74012", "addr:street": "West Kenosha Street", "amenity": "restaurant", "building": "commercial", "cuisine": "mediterranean", "description": "Mediterranean Grill", "name": "Gyro King"}}}, {"type": "Feature", "geometry": {"type": "Polygon", "coordinates": [[[-95.7929256, 36.0614007], [-95.7929248, 36.0612779], [-95.7927634, 36.0612786], [-95.7927642, 36.0614014], [-95.7929256, 36.0614007]]]}, "properties": {"osm_id": 1232430911, "building": "commercial", "name": "Warren's Auto Repair", "height": null, "height_m": null, "levels": null, "tract_id": "40143007417", "tract_name": "74.17", "tags": {"addr:postcode": "74012", "addr:street": "West Kenosha Street", "building": "commercial", "name": "Warren's Auto Repair", "shop": "car_repair"}}}, {"type": "Feature", "geometry": {"type": "Polygon", "coordinates": [[[-95.7946425, 36.061564], [-95.7946491, 36.0613032], [-95.7943472, 36.0612982], [-95.7943429, 36.0614659], [-95.7945409, 36.0614692], [-95.7945385, 36.0615623], [-95.7946425, 36.061564]]]}, "properties": {"osm_id": 1232430912, "building": "commercial", "name": "", "height": null, "height_m": null, "levels": null, "tract_id": "40143007417", "tract_name": "74.17", "tags": {"addr:postcode": "74012", "addr:street": "West Kenosha Street", "building": "commercial"}}}, {"type": "Feature", "geometry": {"type": "Polygon", "coordinates": [[[-95.7942259, 36.061397], [-95.7942272, 36.0612822], [-95.7937276, 36.0612786], [-95.7937258, 36.0614437], [-95.7938052, 36.0614443], [-95.7938058, 36.061394], [-95.7942259, 36.061397]]]}, "properties": {"osm_id": 1232430913, "building": "commercial", "name": "", "height": null, "height_m": null, "levels": null, "tract_id": "40143007417", "tract_name": "74.17", "tags": {"addr:postcode": "74012", "addr:street": "West Kenosha Street", "building": "commercial"}}}, {"type": "Feature", "geometry": {"type": "Polygon", "coordinates": [[[-95.7920522, 36.0615523], [-95.792052, 36.0614842], [-95.7918488, 36.0614845], [-95.7918489, 36.0615527], [-95.7920522, 36.0615523]]]}, "properties": {"osm_id": 1232430922, "building": "commercial", "name": "", "height": null, "height_m": null, "levels": null, "tract_id": "40143007417", "tract_name": "74.17", "tags": {"building": "commercial"}}}, {"type": "Feature", "geometry": {"type": "Polygon", "coordinates": [[[-95.7932844, 36.061268], [-95.7932844, 36.0611108], [-95.7931001, 36.0611122], [-95.7931017, 36.0612673], [-95.7932844, 36.061268]]]}, "properties": {"osm_id": 1232430923, "building": "roof", "name": "", "height": null, "height_m": null, "levels": null, "tract_id": "40143007417", "tract_name": "74.17", "tags": {"addr:postcode": "74012", "addr:street": "West Kenosha Street", "building": "roof"}}}, {"type": "Feature", "geometry": {"type": "Polygon", "coordinates": [[[-95.7848372, 36.0615206], [-95.7847205, 36.0615207], [-95.7847202, 36.0613043], [-95.7848369, 36.0613042], [-95.7848372, 36.0615206]]]}, "properties": {"osm_id": 1238844542, "building": "yes", "name": "Quick-N-Clean", "height": null, "height_m": null, "levels": null, "tract_id": "40143007417", "tract_name": "74.17", "tags": {"amenity": "car_wash", "building": "yes", "layer": "1", "name": "Quick-N-Clean"}}}, {"type": "Feature", "geometry": {"type": "Polygon", "coordinates": [[[-95.7969192, 36.0739047], [-95.7969189, 36.0738667], [-95.7970022, 36.0738662], [-95.7970025, 36.0739043], [-95.7970032, 36.0739936], [-95.797014, 36.0739936], [-95.7970143, 36.0740312], [-95.7970035, 36.0740313], [-95.7970039, 36.074081], [-95.797015, 36.074081], [-95.7970152, 36.0740995], [-95.7970041, 36.0740996], [-95.7970043, 36.0741357], [-95.7968904, 36.0741363], [-95.7968886, 36.0739049], [-95.7969192, 36.0739047]]]}, "properties": {"osm_id": 1242462336, "building": "commercial", "name": "Wendy's", "height": null, "height_m": null, "levels": null, "tract_id": "40143007417", "tract_name": "74.17", "tags": {"addr:city": "Broken Arrow", "addr:housenumber": "500", "addr:postcode": "74012", "addr:state": "OK", "addr:street": "West Stonewood Drive", "amenity": "fast_food", "brand": "Wendy's", "brand:wikidata": "Q550258", "building": "commercial", "cuisine": "burger", "name": "Wendy's", "opening_hours": "06:30-22:00", "opening_hours:drive_through": "Mo-Su 06:30-00:00", "phone": "+1 918-770-8755", "takeaway": "yes", "website": "https://locations.wendys.com/united-states/ok/broken-arrow/500-w-stone-wood-dr"}}}, {"type": "Feature", "geometry": {"type": "Polygon", "coordinates": [[[-95.7950091, 36.0694367], [-95.7948361, 36.0694963], [-95.794808, 36.0694259], [-95.7947892, 36.0693565], [-95.7947758, 36.0692828], [-95.7947691, 36.0691885], [-95.7947691, 36.0690714], [-95.7947651, 36.0689207], [-95.794749, 36.0689218], [-95.7947382, 36.0689034], [-95.7947329, 36.0688665], [-95.7947315, 36.0686443], [-95.7953994, 36.068641], [-95.7953967, 36.0687831], [-95.7950762, 36.0687841], [-95.7950749, 36.0691885], [-95.7950105, 36.0691885], [-95.7950091, 36.0694367]]]}, "properties": {"osm_id": 1242710525, "building": "commercial", "name": "Ferguson Advantage Imports", "height": null, "height_m": null, "levels": null, "tract_id": "40143007417", "tract_name": "74.17", "tags": {"brand": "Kia;Suzuki;Isuzu;Subaru", "brand:wikidata": "Q172741", "building": "commercial", "name": "Ferguson Advantage Imports", "shop": "car"}}}, {"type": "Feature", "geometry": {"type": "Polygon", "coordinates": [[[-95.7970268, 36.0644918], [-95.79682, 36.0644932], [-95.7968193, 36.0644238], [-95.7970261, 36.0644225], [-95.7970268, 36.0644918]]]}, "properties": {"osm_id": 1294626434, "building": "yes", "name": "Auto Factory", "height": null, "height_m": null, "levels": null, "tract_id": "40143007417", "tract_name": "74.17", "tags": {"building": "yes", "name": "Auto Factory", "phone": "+1 918 286 7800", "website": "https://www.TulsaAutoFactory.com/"}}}, {"type": "Feature", "geometry": {"type": "Polygon", "coordinates": [[[-95.797004, 36.06432], [-95.7966889, 36.06432], [-95.7966889, 36.0641769], [-95.797004, 36.0641769], [-95.797004, 36.06432]]]}, "properties": {"osm_id": 1294626435, "building": "yes", "name": "El Tequila", "height": null, "height_m": null, "levels": null, "tract_id": "40143007417", "tract_name": "74.17", "tags": {"amenity": "restaurant", "building": "yes", "cuisine": "mexican", "name": "El Tequila"}}}, {"type": "Feature", "geometry": {"type": "Polygon", "coordinates": [[[-95.7970624, 36.063792], [-95.7969258, 36.0637937], [-95.7969237, 36.0636858], [-95.7970604, 36.0636842], [-95.7970624, 36.063792]]]}, "properties": {"osm_id": 1294626436, "building": "yes", "name": "Liberty Auto Finance", "height": null, "height_m": null, "levels": null, "tract_id": "40143007417", "tract_name": "74.17", "tags": {"building": "yes", "name": "Liberty Auto Finance", "second_hand": "only", "shop": "car"}}}, {"type": "Feature", "geometry": {"type": "Polygon", "coordinates": [[[-95.797114, 36.063405], [-95.7969311, 36.0634044], [-95.7969312, 36.0633974], [-95.7969182, 36.063386], [-95.7969186, 36.0632813], [-95.7969436, 36.0632814], [-95.7969437, 36.0632598], [-95.7971147, 36.0632603], [-95.797114, 36.063405]]]}, "properties": {"osm_id": 1294626437, "building": "yes", "name": "Yummy Express", "height": null, "height_m": null, "levels": null, "tract_id": "40143007417", "tract_name": "74.17", "tags": {"addr:city": "Broken Arrow", "addr:housenumber": "1105", "addr:postcode": "74012", "addr:street": "North Elm Place", "alt_name": "Yummy Subs & More", "amenity": "fast_food", "building": "yes", "name": "Yummy Express", "opening_hours": "Mo-Sa 10:00-21:00", "phone": "+1 918 940 7333", "website": "https://www.yummexpress.com/"}}}, {"type": "Feature", "geometry": {"type": "Polygon", "coordinates": [[[-95.7828045, 36.0686287], [-95.7828063, 36.0687944], [-95.7821854, 36.0687988], [-95.7821836, 36.0686331], [-95.7828045, 36.0686287]]]}, "properties": {"osm_id": 1299157350, "building": "warehouse", "name": "", "height": null, "height_m": null, "levels": null, "tract_id": "40143007417", "tract_name": "74.17", "tags": {"building": "warehouse"}}}, {"type": "Feature", "geometry": {"type": "Polygon", "coordinates": [[[-95.7828068, 36.0688789], [-95.7828086, 36.0690446], [-95.7821877, 36.069049], [-95.7821859, 36.0688833], [-95.7828068, 36.0688789]]]}, "properties": {"osm_id": 1299157351, "building": "warehouse", "name": "", "height": null, "height_m": null, "levels": null, "tract_id": "40143007417", "tract_name": "74.17", "tags": {"building": "warehouse"}}}, {"type": "Feature", "geometry": {"type": "Polygon", "coordinates": [[[-95.7820789, 36.0686359], [-95.7820794, 36.0688018], [-95.781484, 36.0688028], [-95.7814835, 36.068637], [-95.7820789, 36.0686359]]]}, "properties": {"osm_id": 1299157352, "building": "warehouse", "name": "", "height": null, "height_m": null, "levels": null, "tract_id": "40143007417", "tract_name": "74.17", "tags": {"building": "warehouse"}}}, {"type": "Feature", "geometry": {"type": "Polygon", "coordinates": [[[-95.7820789, 36.0688842], [-95.7820794, 36.0690501], [-95.781484, 36.0690511], [-95.7814835, 36.0688853], [-95.7820789, 36.0688842]]]}, "properties": {"osm_id": 1299157353, "building": "warehouse", "name": "", "height": null, "height_m": null, "levels": null, "tract_id": "40143007417", "tract_name": "74.17", "tags": {"building": "warehouse"}}}, {"type": "Feature", "geometry": {"type": "Polygon", "coordinates": [[[-95.783587, 36.0688784], [-95.7835874, 36.0690445], [-95.7830066, 36.0690454], [-95.7830062, 36.0688793], [-95.783587, 36.0688784]]]}, "properties": {"osm_id": 1299157354, "building": "warehouse", "name": "", "height": null, "height_m": null, "levels": null, "tract_id": "40143007417", "tract_name": "74.17", "tags": {"building": "warehouse"}}}, {"type": "Feature", "geometry": {"type": "Polygon", "coordinates": [[[-95.7835844, 36.0686286], [-95.7835855, 36.0687948], [-95.783007, 36.0687973], [-95.7830059, 36.068631], [-95.7835844, 36.0686286]]]}, "properties": {"osm_id": 1299157355, "building": "warehouse", "name": "", "height": null, "height_m": null, "levels": null, "tract_id": "40143007417", "tract_name": "74.17", "tags": {"building": "warehouse"}}}, {"type": "Feature", "geometry": {"type": "Polygon", "coordinates": [[[-95.7844795, 36.0691225], [-95.78448, 36.0689829], [-95.7844175, 36.0689828], [-95.7844175, 36.0689874], [-95.7844059, 36.0689874], [-95.784406, 36.0689692], [-95.7843216, 36.068969], [-95.7843213, 36.0690484], [-95.7843295, 36.0690484], [-95.7843292, 36.0691221], [-95.7844795, 36.0691225]]]}, "properties": {"osm_id": 1299157356, "building": "yes", "name": "", "height": null, "height_m": null, "levels": null, "tract_id": "40143007417", "tract_name": "74.17", "tags": {"building": "yes"}}}, {"type": "Feature", "geometry": {"type": "Polygon", "coordinates": [[[-95.7844625, 36.0689441], [-95.7843775, 36.0689444], [-95.7843773, 36.0689166], [-95.7843724, 36.0689166], [-95.784372, 36.0688528], [-95.7844251, 36.0688526], [-95.784425, 36.0688327], [-95.7843998, 36.0688328], [-95.7843996, 36.0687906], [-95.7845925, 36.0687898], [-95.7845925, 36.0687938], [-95.78462, 36.0687937], [-95.7846204, 36.068855], [-95.784605, 36.068855], [-95.7846054, 36.0689255], [-95.7844624, 36.0689261], [-95.7844625, 36.0689441]]]}, "properties": {"osm_id": 1299157357, "building": "yes", "name": "", "height": null, "height_m": null, "levels": null, "tract_id": "40143007417", "tract_name": "74.17", "tags": {"building": "yes"}}}, {"type": "Feature", "geometry": {"type": "Polygon", "coordinates": [[[-95.7846371, 36.0687323], [-95.7846456, 36.0687216], [-95.7846459, 36.0686924], [-95.784638, 36.0686876], [-95.7846381, 36.0686813], [-95.784663, 36.0686813], [-95.784663, 36.0686353], [-95.7846347, 36.0686353], [-95.7846347, 36.0685991], [-95.7845196, 36.0685991], [-95.7845196, 36.0685888], [-95.7844447, 36.0685888], [-95.7844447, 36.0686068], [-95.7844384, 36.0686068], [-95.7844384, 36.0686282], [-95.7844457, 36.0686282], [-95.7844457, 36.068645], [-95.7844741, 36.0686449], [-95.7844741, 36.068676], [-95.7844607, 36.068676], [-95.7844607, 36.0687083], [-95.784468, 36.0687083], [-95.784468, 36.0687324], [-95.7846371, 36.0687323]]]}, "properties": {"osm_id": 1299157358, "building": "yes", "name": "", "height": null, "height_m": null, "levels": null, "tract_id": "40143007417", "tract_name": "74.17", "tags": {"building": "yes"}}}, {"type": "Feature", "geometry": {"type": "Polygon", "coordinates": [[[-95.7842618, 36.0684759], [-95.7842616, 36.0682868], [-95.7841918, 36.0682869], [-95.7841918, 36.0682823], [-95.7840881, 36.0682823], [-95.7840881, 36.0684365], [-95.7841268, 36.0684365], [-95.7841268, 36.0684535], [-95.7841517, 36.0684535], [-95.7841517, 36.0684711], [-95.784181, 36.0684711], [-95.784181, 36.0684759], [-95.7842618, 36.0684759]]]}, "properties": {"osm_id": 1299157359, "building": "yes", "name": "", "height": null, "height_m": null, "levels": null, "tract_id": "40143007417", "tract_name": "74.17", "tags": {"building": "yes"}}}, {"type": "Feature", "geometry": {"type": "Polygon", "coordinates": [[[-95.7845113, 36.0683199], [-95.7845581, 36.0683723], [-95.784533, 36.0683869], [-95.7845514, 36.0684075], [-95.7845617, 36.0684015], [-95.7845919, 36.0684354], [-95.784467, 36.0685082], [-95.7844885, 36.0685322], [-95.7844237, 36.06857], [-95.7844036, 36.0685475], [-95.7843974, 36.0685511], [-95.7843514, 36.0684996], [-95.7843859, 36.0684795], [-95.7843724, 36.0684643], [-95.7843605, 36.0684713], [-95.7843304, 36.0684376], [-95.7843646, 36.0684176], [-95.7843574, 36.0684097], [-95.7845113, 36.0683199]]]}, "properties": {"osm_id": 1299157360, "building": "yes", "name": "", "height": null, "height_m": null, "levels": null, "tract_id": "40143007417", "tract_name": "74.17", "tags": {"building": "yes"}}}, {"type": "Feature", "geometry": {"type": "Polygon", "coordinates": [[[-95.7860219, 36.0663666], [-95.7860055, 36.0663726], [-95.7860106, 36.0663815], [-95.7859732, 36.0663952], [-95.7859692, 36.0663879], [-95.7859077, 36.0664103], [-95.785912, 36.0664179], [-95.7858689, 36.0664337], [-95.7858641, 36.0664251], [-95.7858497, 36.0664303], [-95.7858185, 36.0663745], [-95.7858045, 36.0663796], [-95.78579, 36.0663536], [-95.7858029, 36.0663489], [-95.7858003, 36.0663443], [-95.785784, 36.0663503], [-95.7857706, 36.0663264], [-95.7857766, 36.0663242], [-95.7857591, 36.0662932], [-95.7857715, 36.0662886], [-95.7857409, 36.0662347], [-95.7857588, 36.066228], [-95.7857539, 36.0662194], [-95.7857933, 36.0662048], [-95.7857991, 36.0662148], [-95.7858633, 36.066191], [-95.7858599, 36.0661851], [-95.785899, 36.0661706], [-95.7859035, 36.0661786], [-95.7859181, 36.0661731], [-95.785949, 36.0662275], [-95.7859564, 36.0662248], [-95.7859735, 36.066255], [-95.7859855, 36.0662506], [-95.7859978, 36.0662724], [-95.785975, 36.0662808], [-95.7859788, 36.0662875], [-95.7859876, 36.0662843], [-95.7860012, 36.0663085], [-95.7859914, 36.0663121], [-95.7860219, 36.0663666]]]}, "properties": {"osm_id": 1299157361, "building": "yes", "name": "", "height": null, "height_m": null, "levels": null, "tract_id": "40143007417", "tract_name": "74.17", "tags": {"addr:housenumber": "510", "addr:postcode": "74012", "addr:street": "East Madison Street", "building": "yes"}}}, {"type": "Feature", "geometry": {"type": "Polygon", "coordinates": [[[-95.7868368, 36.0662419], [-95.7867981, 36.0661696], [-95.7867741, 36.066178], [-95.7867572, 36.0661462], [-95.7867766, 36.0661394], [-95.7867594, 36.0661072], [-95.786765, 36.0661052], [-95.7867443, 36.0660666], [-95.7867381, 36.0660688], [-95.7867245, 36.0660437], [-95.7867321, 36.0660411], [-95.7867099, 36.0660002], [-95.786704, 36.0660023], [-95.7866913, 36.0659789], [-95.7867001, 36.0659758], [-95.7866588, 36.0658998], [-95.7866523, 36.0659021], [-95.7866392, 36.0658782], [-95.786646, 36.0658758], [-95.7866239, 36.0658352], [-95.7866171, 36.0658376], [-95.7866004, 36.0658068], [-95.7865909, 36.0658102], [-95.7865788, 36.065788], [-95.7865861, 36.0657854], [-95.7865444, 36.0657084], [-95.7865371, 36.065711], [-95.78652, 36.0656794], [-95.7865064, 36.0656843], [-95.7864727, 36.0656218], [-95.7864974, 36.0656131], [-95.7864807, 36.065582], [-95.7864882, 36.0655793], [-95.7864653, 36.0655367], [-95.7864568, 36.0655396], [-95.7864443, 36.0655164], [-95.7864534, 36.0655132], [-95.7864308, 36.0654713], [-95.7864218, 36.0654745], [-95.7864091, 36.0654509], [-95.7864156, 36.0654486], [-95.7863753, 36.0653742], [-95.7863702, 36.0653761], [-95.7863568, 36.0653515], [-95.7863623, 36.0653495], [-95.7863416, 36.0653118], [-95.7863348, 36.0653143], [-95.7863163, 36.0652806], [-95.7862404, 36.065308], [-95.7862181, 36.0652676], [-95.7861943, 36.0652762], [-95.7861854, 36.0652602], [-95.7860824, 36.0652975], [-95.7861373, 36.0653964], [-95.7861155, 36.0654043], [-95.7861236, 36.0654189], [-95.7861316, 36.0654334], [-95.786171, 36.0654191], [-95.7861842, 36.0654428], [-95.7861756, 36.0654459], [-95.7862155, 36.0655175], [-95.7862224, 36.065515], [-95.7862356, 36.0655387], [-95.7862286, 36.0655413], [-95.7862504, 36.0655804], [-95.7862577, 36.0655777], [-95.7862735, 36.0656062], [-95.7862497, 36.0656148], [-95.7862711, 36.0656534], [-95.786275, 36.065652], [-95.7863176, 36.0657287], [-95.7863096, 36.0657316], [-95.7863508, 36.0658058], [-95.7863572, 36.0658035], [-95.7863878, 36.0658586], [-95.7863792, 36.0658618], [-95.786401, 36.0659013], [-95.7864232, 36.0658932], [-95.786438, 36.06592], [-95.7864315, 36.0659224], [-95.7864534, 36.0659619], [-95.7864595, 36.0659597], [-95.7864726, 36.0659833], [-95.7864653, 36.065986], [-95.7865062, 36.0660602], [-95.7865127, 36.0660579], [-95.7865261, 36.0660824], [-95.7865179, 36.0660854], [-95.7865402, 36.0661261], [-95.7865463, 36.0661239], [-95.7865584, 36.0661461], [-95.7865507, 36.0661489], [-95.7865735, 36.0661911], [-95.7865808, 36.0661886], [-95.7865978, 36.0662202], [-95.7866138, 36.0662146], [-95.7866605, 36.0663016], [-95.7867018, 36.0662871], [-95.7867057, 36.0662945], [-95.7868008, 36.0662612], [-95.7867978, 36.0662556], [-95.7868368, 36.0662419]]]}, "properties": {"osm_id": 1299157362, "building": "apartments", "name": "Stony Ridge Estates", "height": null, "height_m": null, "levels": null, "tract_id": "40143007417", "tract_name": "74.17", "tags": {"addr:city": "Broken Arrow", "addr:housenumber": "400", "addr:postcode": "74012", "addr:street": "East Madison Street", "amenity": "social_facility", "building": "apartments", "name": "Stony Ridge Estates", "operator": "Wiegand-Omega Management Incorporated", "phone": "+1 918 615 6455", "social_facility": "assisted_living", "social_facility:for": "senior"}}}, {"type": "Feature", "geometry": {"type": "Polygon", "coordinates": [[[-95.7882277, 36.067022], [-95.788092, 36.0669756], [-95.7881354, 36.0668927], [-95.7880465, 36.0668622], [-95.7881148, 36.0667317], [-95.7883417, 36.0668094], [-95.7883157, 36.0668591], [-95.7883249, 36.0668622], [-95.7882976, 36.0669142], [-95.7882862, 36.0669103], [-95.7882277, 36.067022]]]}, "properties": {"osm_id": 1299157363, "building": "yes", "name": "Broken Arrow Seventh Adventist Church", "height": null, "height_m": null, "levels": null, "tract_id": "40143007417", "tract_name": "74.17", "tags": {"addr:city": "Broken Arrow", "addr:housenumber": "1311", "addr:postcode": "74012", "addr:street": "North Kenwood Drive", "amenity": "place_of_worship", "building": "yes", "check_date": "2025-02-01", "denomination": "jehovahs_witness", "description": "9:30am sabbath school, 11:00am Worship service, Wednesday 7:30pm Bible study.", "ele": "243", "gnis:feature_id": "1782584", "name": "Broken Arrow Seventh Adventist Church", "phone": "+1 918 251 2450", "religion": "christian"}}}, {"type": "Feature", "geometry": {"type": "Polygon", "coordinates": [[[-95.78742, 36.0666633], [-95.7872301, 36.0665972], [-95.7873657, 36.0663426], [-95.7875556, 36.0664087], [-95.78742, 36.0666633]]]}, "properties": {"osm_id": 1299157364, "building": "yes", "name": "", "height": null, "height_m": null, "levels": null, "tract_id": "40143007417", "tract_name": "74.17", "tags": {"building": "yes"}}}, {"type": "Feature", "geometry": {"type": "Polygon", "coordinates": [[[-95.790376, 36.0611549], [-95.7903726, 36.061324], [-95.7904852, 36.0613255], [-95.7904886, 36.0611564], [-95.790376, 36.0611549]]]}, "properties": {"osm_id": 1305621566, "building": "detached", "name": "", "height": null, "height_m": null, "levels": null, "tract_id": "40143007417", "tract_name": "74.17", "tags": {"addr:city": "Broken Arrow", "addr:housenumber": "1002", "addr:postcode": "74012", "addr:street": "North Highland Drive", "building": "detached"}}}, {"type": "Feature", "geometry": {"type": "Polygon", "coordinates": [[[-95.7907669, 36.0613235], [-95.790921, 36.0613257], [-95.7909205, 36.0613517], [-95.7910331, 36.0613533], [-95.7910365, 36.0611951], [-95.7907698, 36.0611913], [-95.7907669, 36.0613235]]]}, "properties": {"osm_id": 1305621567, "building": "yes", "name": "Farm Bureau Insurance", "height": null, "height_m": null, "levels": null, "tract_id": "40143007417", "tract_name": "74.17", "tags": {"building": "yes", "name": "Farm Bureau Insurance", "note": "maybe two businesses in here. There are two mailboxes, 110 and 112.", "office": "insurance", "phone": "+1 918 258 6030"}}}, {"type": "Feature", "geometry": {"type": "Polygon", "coordinates": [[[-95.7804932, 36.0617323], [-95.7804933, 36.0617577], [-95.7804935, 36.0617845], [-95.7804012, 36.0617848], [-95.7804011, 36.061758], [-95.7804009, 36.0617323], [-95.7804932, 36.0617323]]]}, "properties": {"osm_id": 1315729302, "building": "roof", "name": "", "height": null, "height_m": null, "levels": null, "tract_id": "40143007417", "tract_name": "74.17", "tags": {"building": "roof", "layer": "1"}}}, {"type": "Feature", "geometry": {"type": "Polygon", "coordinates": [[[-95.7931374, 36.0613816], [-95.7930122, 36.0613812], [-95.7930124, 36.0613464], [-95.7931375, 36.0613468], [-95.7931374, 36.0613816]]]}, "properties": {"osm_id": 1321491168, "building": "retail", "name": "", "height": null, "height_m": null, "levels": null, "tract_id": "40143007417", "tract_name": "74.17", "tags": {"brand": "Jeep", "building": "retail", "second_hand": "only", "shop": "car"}}}, {"type": "Feature", "geometry": {"type": "Polygon", "coordinates": [[[-95.7938099, 36.0617902], [-95.7938099, 36.0616634], [-95.7946216, 36.0616634], [-95.7946216, 36.0617902], [-95.7938099, 36.0617902]]]}, "properties": {"osm_id": 1321491185, "building": "industrial", "name": "", "height": null, "height_m": null, "levels": null, "tract_id": "40143007417", "tract_name": "74.17", "tags": {"building": "industrial"}}}, {"type": "Feature", "geometry": {"type": "Polygon", "coordinates": [[[-95.79377, 36.0621133], [-95.79377, 36.0619864], [-95.79424, 36.0619864], [-95.79424, 36.0621133], [-95.79377, 36.0621133]]]}, "properties": {"osm_id": 1321491186, "building": "industrial", "name": "", "height": null, "height_m": null, "levels": null, "tract_id": "40143007417", "tract_name": "74.17", "tags": {"building": "industrial"}}}, {"type": "Feature", "geometry": {"type": "Polygon", "coordinates": [[[-95.7943439, 36.0621138], [-95.7943439, 36.061987], [-95.7946457, 36.061987], [-95.7946457, 36.0621138], [-95.7943439, 36.0621138]]]}, "properties": {"osm_id": 1321491187, "building": "industrial", "name": "", "height": null, "height_m": null, "levels": null, "tract_id": "40143007417", "tract_name": "74.17", "tags": {"building": "industrial"}}}, {"type": "Feature", "geometry": {"type": "Polygon", "coordinates": [[[-95.7945634, 36.0625871], [-95.7938763, 36.0625854], [-95.7938775, 36.0622541], [-95.7945646, 36.0622558], [-95.7945634, 36.0625871]]]}, "properties": {"osm_id": 1321491188, "building": "industrial", "name": "Reniassance Tulsa Delivery Warehouse", "height": null, "height_m": null, "levels": null, "tract_id": "40143007417", "tract_name": "74.17", "tags": {"addr:city": "Broken Arrow", "addr:housenumber": "1120", "addr:postcode": "74012", "addr:street": "North Birch Avenue", "alt_phone": "+1 405 519 2593", "building": "industrial", "name": "Reniassance Tulsa Delivery Warehouse", "phone": "+1 918 327 5521"}}}, {"type": "Feature", "geometry": {"type": "Polygon", "coordinates": [[[-95.7945616, 36.0630006], [-95.7938745, 36.0629989], [-95.7938758, 36.0626676], [-95.7945629, 36.0626693], [-95.7945616, 36.0630006]]]}, "properties": {"osm_id": 1321491189, "building": "industrial", "name": "", "height": null, "height_m": null, "levels": null, "tract_id": "40143007417", "tract_name": "74.17", "tags": {"building": "industrial"}}}, {"type": "Feature", "geometry": {"type": "Polygon", "coordinates": [[[-95.793074, 36.0626268], [-95.7930689, 36.062159], [-95.7932403, 36.0621578], [-95.7932454, 36.0626256], [-95.793074, 36.0626268]]]}, "properties": {"osm_id": 1321491190, "building": "industrial", "name": "", "height": null, "height_m": null, "levels": null, "tract_id": "40143007417", "tract_name": "74.17", "tags": {"building": "industrial"}}}, {"type": "Feature", "geometry": {"type": "Polygon", "coordinates": [[[-95.7930757, 36.0634689], [-95.7930791, 36.0627156], [-95.7932489, 36.0627161], [-95.7932455, 36.0634694], [-95.7930757, 36.0634689]]]}, "properties": {"osm_id": 1321491191, "building": "industrial", "name": "", "height": null, "height_m": null, "levels": null, "tract_id": "40143007417", "tract_name": "74.17", "tags": {"building": "industrial"}}}, {"type": "Feature", "geometry": {"type": "Polygon", "coordinates": [[[-95.7942712, 36.0635824], [-95.7942002, 36.0635821], [-95.7942018, 36.0633089], [-95.7942727, 36.0633092], [-95.7942712, 36.0635824]]]}, "properties": {"osm_id": 1321491202, "building": "industrial", "name": "", "height": null, "height_m": null, "levels": null, "tract_id": "40143007417", "tract_name": "74.17", "tags": {"building": "industrial"}}}, {"type": "Feature", "geometry": {"type": "Polygon", "coordinates": [[[-95.7944064, 36.0635817], [-95.7943354, 36.0635814], [-95.7943369, 36.0633082], [-95.7944079, 36.0633085], [-95.7944064, 36.0635817]]]}, "properties": {"osm_id": 1321491203, "building": "industrial", "name": "", "height": null, "height_m": null, "levels": null, "tract_id": "40143007417", "tract_name": "74.17", "tags": {"building": "industrial"}}}, {"type": "Feature", "geometry": {"type": "Polygon", "coordinates": [[[-95.7945441, 36.0635837], [-95.7944731, 36.0635835], [-95.7944747, 36.0633103], [-95.7945456, 36.0633106], [-95.7945441, 36.0635837]]]}, "properties": {"osm_id": 1321491204, "building": "industrial", "name": "", "height": null, "height_m": null, "levels": null, "tract_id": "40143007417", "tract_name": "74.17", "tags": {"building": "industrial"}}}, {"type": "Feature", "geometry": {"type": "Polygon", "coordinates": [[[-95.7946767, 36.0635837], [-95.7946058, 36.0635835], [-95.7946073, 36.0633103], [-95.7946783, 36.0633106], [-95.7946767, 36.0635837]]]}, "properties": {"osm_id": 1321491205, "building": "industrial", "name": "", "height": null, "height_m": null, "levels": null, "tract_id": "40143007417", "tract_name": "74.17", "tags": {"building": "industrial"}}}, {"type": "Feature", "geometry": {"type": "Polygon", "coordinates": [[[-95.7948161, 36.0635817], [-95.7947452, 36.0635814], [-95.7947467, 36.0633082], [-95.7948177, 36.0633085], [-95.7948161, 36.0635817]]]}, "properties": {"osm_id": 1321491206, "building": "industrial", "name": "", "height": null, "height_m": null, "levels": null, "tract_id": "40143007417", "tract_name": "74.17", "tags": {"building": "industrial"}}}, {"type": "Feature", "geometry": {"type": "Polygon", "coordinates": [[[-95.7941343, 36.0635832], [-95.7940634, 36.0635829], [-95.7940649, 36.0633098], [-95.7941359, 36.06331], [-95.7941343, 36.0635832]]]}, "properties": {"osm_id": 1321491207, "building": "industrial", "name": "", "height": null, "height_m": null, "levels": null, "tract_id": "40143007417", "tract_name": "74.17", "tags": {"building": "industrial"}}}, {"type": "Feature", "geometry": {"type": "Polygon", "coordinates": [[[-95.7938966, 36.0635822], [-95.7938955, 36.0633097], [-95.7939976, 36.0633094], [-95.7939987, 36.0635819], [-95.7938966, 36.0635822]]]}, "properties": {"osm_id": 1321491208, "building": "industrial", "name": "", "height": null, "height_m": null, "levels": null, "tract_id": "40143007417", "tract_name": "74.17", "tags": {"building": "industrial"}}}, {"type": "Feature", "geometry": {"type": "Polygon", "coordinates": [[[-95.7938284, 36.0636109], [-95.7937946, 36.063611], [-95.7937938, 36.0632538], [-95.7938276, 36.0632537], [-95.7938284, 36.0636109]]]}, "properties": {"osm_id": 1321491209, "building": "industrial", "name": "", "height": null, "height_m": null, "levels": null, "tract_id": "40143007417", "tract_name": "74.17", "tags": {"building": "industrial"}}}, {"type": "Feature", "geometry": {"type": "Polygon", "coordinates": [[[-95.7963349, 36.0634313], [-95.7963338, 36.0631759], [-95.7958038, 36.0631774], [-95.7958049, 36.0634327], [-95.7959497, 36.0634323], [-95.7959488, 36.0632727], [-95.7961922, 36.0632699], [-95.7961947, 36.0634316], [-95.7963349, 36.0634313]]]}, "properties": {"osm_id": 1321491210, "building": "apartments", "name": "", "height": null, "height_m": null, "levels": null, "tract_id": "40143007417", "tract_name": "74.17", "tags": {"building": "apartments"}}}, {"type": "Feature", "geometry": {"type": "Polygon", "coordinates": [[[-95.7823531, 36.0665201], [-95.7823531, 36.0664333], [-95.7823399, 36.0664333], [-95.7823399, 36.066388], [-95.7818194, 36.0663883], [-95.7818195, 36.0665204], [-95.7818678, 36.0665204], [-95.7819161, 36.0665204], [-95.7819161, 36.0665122], [-95.7820374, 36.0665121], [-95.7820374, 36.0665203], [-95.7821404, 36.0665202], [-95.7821404, 36.066512], [-95.7822587, 36.066512], [-95.7822587, 36.0665202], [-95.7823059, 36.0665201], [-95.7823531, 36.0665201]]]}, "properties": {"osm_id": 1323716210, "building": "retail", "name": "", "height": null, "height_m": null, "levels": null, "tract_id": "40143007417", "tract_name": "74.17", "tags": {"building": "retail", "description": "Building front is divided into roughly 7 equal segments, but internally only divided in half. One door on the first one, two on the middle, one on the fifth that I think moved to the last section with the remodeling.", "fixme": "check size and position of building after newer imagery becomes available"}}}, {"type": "Feature", "geometry": {"type": "Polygon", "coordinates": [[[-95.7859869, 36.061298], [-95.7862215, 36.061298], [-95.7862215, 36.061382], [-95.7862075, 36.061382], [-95.7862075, 36.0614498], [-95.7859869, 36.0614498], [-95.7859869, 36.061298]]]}, "properties": {"osm_id": 1346724062, "building": "retail", "name": "America's Car Mart", "height": null, "height_m": null, "levels": null, "tract_id": "40143007417", "tract_name": "74.17", "tags": {"addr:city": "Broken Arrow", "addr:postcode": "74012", "addr:street": "East Kenosha Street", "building": "retail", "name": "America's Car Mart", "second_hand": "only", "shop": "car"}}}, {"type": "Feature", "geometry": {"type": "Polygon", "coordinates": [[[-95.784178, 36.0646839], [-95.7840882, 36.0646834], [-95.7840871, 36.0648119], [-95.784115, 36.0648121], [-95.7841145, 36.0648671], [-95.7841765, 36.0648674], [-95.784178, 36.0646839]]]}, "properties": {"osm_id": 1353268008, "building": "detached", "name": "", "height": null, "height_m": null, "levels": null, "tract_id": "40143007417", "tract_name": "74.17", "tags": {"addr:city": "Broken Arrow", "addr:housenumber": "515", "addr:postcode": "74012", "addr:street": "East Madison Street", "building": "detached"}}}, {"type": "Feature", "geometry": {"type": "Polygon", "coordinates": [[[-95.7836858, 36.0648723], [-95.7836873, 36.0647272], [-95.7835834, 36.0647266], [-95.7835822, 36.0648589], [-95.7836406, 36.0648593], [-95.7836405, 36.064872], [-95.7836858, 36.0648723]]]}, "properties": {"osm_id": 1353268009, "building": "detached", "name": "", "height": null, "height_m": null, "levels": null, "tract_id": "40143007417", "tract_name": "74.17", "tags": {"addr:city": "Broken Arrow", "addr:housenumber": "523", "addr:postcode": "74012", "addr:street": "East Madison Street", "building": "detached"}}}, {"type": "Feature", "geometry": {"type": "Polygon", "coordinates": [[[-95.7834147, 36.0648736], [-95.7834201, 36.0647306], [-95.7833155, 36.064729], [-95.7833125, 36.0648593], [-95.7833684, 36.0648601], [-95.7833681, 36.0648728], [-95.7834147, 36.0648736]]]}, "properties": {"osm_id": 1353268010, "building": "detached", "name": "", "height": null, "height_m": null, "levels": null, "tract_id": "40143007417", "tract_name": "74.17", "tags": {"addr:city": "Broken Arrow", "addr:housenumber": "527", "addr:postcode": "74012", "addr:street": "East Madison Street", "building": "detached"}}}, {"type": "Feature", "geometry": {"type": "Polygon", "coordinates": [[[-95.7832302, 36.0646524], [-95.7830827, 36.0646517], [-95.7830815, 36.0648002], [-95.7830903, 36.0648003], [-95.7831623, 36.0648007], [-95.7831629, 36.0647297], [-95.7832296, 36.06473], [-95.7832302, 36.0646524]]]}, "properties": {"osm_id": 1353268011, "building": "detached", "name": "", "height": null, "height_m": null, "levels": null, "tract_id": "40143007417", "tract_name": "74.17", "tags": {"addr:city": "Broken Arrow", "addr:housenumber": "1150", "addr:postcode": "74012", "addr:street": "North 6th Street", "building": "detached"}}}, {"type": "Feature", "geometry": {"type": "Polygon", "coordinates": [[[-95.7833147, 36.0654745], [-95.7830009, 36.0654745], [-95.7830009, 36.0652751], [-95.7833147, 36.0652751], [-95.7833147, 36.0654745]]]}, "properties": {"osm_id": 1353268012, "building": "construction", "name": "", "height": null, "height_m": null, "levels": null, "tract_id": "40143007417", "tract_name": "74.17", "tags": {"building": "construction", "construction": "apartments", "note": "Imagery not available yet - size and position need to be adjusted later."}}}, {"type": "Feature", "geometry": {"type": "Polygon", "coordinates": [[[-95.782494, 36.0649455], [-95.7822474, 36.0649504], [-95.7822394, 36.0646837], [-95.7824859, 36.0646788], [-95.782494, 36.0649455]]]}, "properties": {"osm_id": 1353268013, "building": "construction", "name": "", "height": null, "height_m": null, "levels": null, "tract_id": "40143007417", "tract_name": "74.17", "tags": {"building": "construction", "construction": "apartments", "note": "Imagery not available yet - size and position need to be adjusted later."}}}, {"type": "Feature", "geometry": {"type": "Polygon", "coordinates": [[[-95.7835175, 36.0631961], [-95.7835528, 36.0631954], [-95.7835543, 36.0632458], [-95.7835189, 36.0632464], [-95.7835175, 36.0631961]]]}, "properties": {"osm_id": 1353268017, "building": "shed", "name": "", "height": null, "height_m": null, "levels": null, "tract_id": "40143007417", "tract_name": "74.17", "tags": {"building": "shed"}}}, {"type": "Feature", "geometry": {"type": "Polygon", "coordinates": [[[-95.783046, 36.0633666], [-95.7830488, 36.0629305], [-95.7832245, 36.0629313], [-95.7832238, 36.063037], [-95.7832387, 36.063037], [-95.7832378, 36.063172], [-95.7833805, 36.0631726], [-95.7833792, 36.063368], [-95.783046, 36.0633666]]]}, "properties": {"osm_id": 1353268018, "building": "church", "name": "Agape Chinese Baptist Church", "height": null, "height_m": null, "levels": null, "tract_id": "40143007417", "tract_name": "74.17", "tags": {"addr:city": "Broken Arrow", "addr:postcode": "74012", "amenity": "place_of_worship", "building": "church", "denomination": "baptist", "description": "Friday family night 7pm; Sunday Bible Class 9:30am; Sunday Worship 10:45am.", "name": "Agape Chinese Baptist Church", "religion": "christian", "service_times": "Su 10:45"}}}, {"type": "Feature", "geometry": {"type": "Polygon", "coordinates": [[[-95.7835726, 36.0631303], [-95.783571, 36.0628855], [-95.7836326, 36.0628852], [-95.7836328, 36.0629081], [-95.7838117, 36.0629073], [-95.7838131, 36.0631293], [-95.7835726, 36.0631303]]]}, "properties": {"osm_id": 1353268019, "building": "church", "name": "Liberty Free Will Baptist Church", "height": null, "height_m": null, "levels": null, "tract_id": "40143007417", "tract_name": "74.17", "tags": {"addr:city": "Broken Arrow", "addr:housenumber": "1100", "addr:postcode": "74012", "addr:street": "North 5th Street", "amenity": "place_of_worship", "building": "church", "denomination": "baptist", "name": "Liberty Free Will Baptist Church", "religion": "christian"}}}, {"type": "Feature", "geometry": {"type": "Polygon", "coordinates": [[[-95.7838106, 36.0627371], [-95.783526, 36.0627365], [-95.7835274, 36.0623084], [-95.783812, 36.062309], [-95.7838106, 36.0627371]]]}, "properties": {"osm_id": 1353268020, "building": "school", "name": "", "height": null, "height_m": 6.0, "levels": 2, "tract_id": "40143007417", "tract_name": "74.17", "tags": {"addr:city": "Broken Arrow", "addr:postcode": "74012", "building": "school", "building:levels": "2"}}}, {"type": "Feature", "geometry": {"type": "Polygon", "coordinates": [[[-95.7833441, 36.0623048], [-95.78318, 36.0623034], [-95.7831817, 36.0621664], [-95.7833458, 36.0621678], [-95.7833441, 36.0623048]]]}, "properties": {"osm_id": 1353268021, "building": "industrial", "name": "Torres Auto Detail", "height": null, "height_m": null, "levels": null, "tract_id": "40143007417", "tract_name": "74.17", "tags": {"addr:city": "Broken Arrow", "addr:postcode": "74012", "amenity": "car_wash", "building": "industrial", "name": "Torres Auto Detail", "self_service": "no"}}}, {"type": "Feature", "geometry": {"type": "Polygon", "coordinates": [[[-95.7837609, 36.0620276], [-95.7835932, 36.0620262], [-95.783595, 36.0618864], [-95.7837627, 36.0618878], [-95.7837609, 36.0620276]]]}, "properties": {"osm_id": 1353268022, "building": "industrial", "name": "", "height": null, "height_m": null, "levels": null, "tract_id": "40143007417", "tract_name": "74.17", "tags": {"addr:city": "Broken Arrow", "addr:postcode": "74012", "building": "industrial"}}}, {"type": "Feature", "geometry": {"type": "Polygon", "coordinates": [[[-95.7832339, 36.0618777], [-95.7833837, 36.0618749], [-95.7833909, 36.0621243], [-95.783241, 36.0621271], [-95.7832339, 36.0618777]]]}, "properties": {"osm_id": 1353268023, "building": "industrial", "name": "", "height": null, "height_m": null, "levels": null, "tract_id": "40143007417", "tract_name": "74.17", "tags": {"addr:city": "Broken Arrow", "addr:postcode": "74012", "building": "industrial", "craft": "gardener", "fixme": "verify type of business"}}}, {"type": "Feature", "geometry": {"type": "Polygon", "coordinates": [[[-95.7811235, 36.0638835], [-95.7812132, 36.0638848], [-95.7812144, 36.0638306], [-95.7811247, 36.0638293], [-95.7811235, 36.0638835]]]}, "properties": {"osm_id": 1353268028, "building": "carport", "name": "", "height": null, "height_m": null, "levels": null, "tract_id": "40143007417", "tract_name": "74.17", "tags": {"building": "carport"}}}, {"type": "Feature", "geometry": {"type": "Polygon", "coordinates": [[[-95.7847349, 36.0645795], [-95.7847348, 36.0646051], [-95.7848117, 36.0646054], [-95.7848118, 36.0645797], [-95.7847349, 36.0645795]]]}, "properties": {"osm_id": 1353268031, "building": "roof", "name": "", "height": null, "height_m": null, "levels": null, "tract_id": "40143007417", "tract_name": "74.17", "tags": {"building": "roof"}}}, {"type": "Feature", "geometry": {"type": "Polygon", "coordinates": [[[-95.7847832, 36.0620575], [-95.7847832, 36.0619496], [-95.7847926, 36.0619496], [-95.7847926, 36.0619387], [-95.7849361, 36.0619387], [-95.7849361, 36.0619642], [-95.7849522, 36.0619642], [-95.7849522, 36.061994], [-95.784918, 36.061994], [-95.784918, 36.0620222], [-95.7849368, 36.0620222], [-95.7849368, 36.0620575], [-95.7847832, 36.0620575]]]}, "properties": {"osm_id": 1353560383, "building": "detached", "name": "", "height": null, "height_m": null, "levels": null, "tract_id": "40143007417", "tract_name": "74.17", "tags": {"addr:city": "Broken Arrow", "addr:postcode": "74012", "addr:street": "North 4th Street", "building": "detached"}}}, {"type": "Feature", "geometry": {"type": "Polygon", "coordinates": [[[-95.7849009, 36.062422], [-95.784861, 36.0624217], [-95.7848623, 36.0623003], [-95.7849454, 36.0623009], [-95.7849445, 36.0623879], [-95.7849784, 36.0623881], [-95.7849777, 36.0624553], [-95.7849005, 36.0624548], [-95.7849009, 36.062422]]]}, "properties": {"osm_id": 1353560384, "building": "detached", "name": "", "height": null, "height_m": null, "levels": null, "tract_id": "40143007417", "tract_name": "74.17", "tags": {"addr:city": "Broken Arrow", "addr:postcode": "74012", "addr:street": "North 4th Street", "building": "detached"}}}, {"type": "Feature", "geometry": {"type": "Polygon", "coordinates": [[[-95.7855591, 36.0641183], [-95.7854146, 36.0641179], [-95.7854147, 36.0641088], [-95.7853882, 36.0641088], [-95.7853883, 36.0640813], [-95.7854053, 36.0640813], [-95.7854055, 36.0640426], [-95.7853887, 36.0640425], [-95.7853889, 36.0639969], [-95.7854007, 36.063997], [-95.785401, 36.0639348], [-95.78556, 36.0639353], [-95.7855597, 36.0639944], [-95.7856002, 36.0639945], [-95.7856, 36.0640496], [-95.7855594, 36.0640495], [-95.7855591, 36.0641183]]]}, "properties": {"osm_id": 1353560385, "building": "detached", "name": "", "height": null, "height_m": null, "levels": null, "tract_id": "40143007417", "tract_name": "74.17", "tags": {"addr:city": "Broken Arrow", "addr:postcode": "74012", "addr:street": "North 4th Street", "building": "detached"}}}, {"type": "Feature", "geometry": {"type": "Polygon", "coordinates": [[[-95.7854159, 36.0615201], [-95.7854161, 36.0615764], [-95.7854256, 36.0615764], [-95.7854257, 36.0616191], [-95.7854163, 36.0616191], [-95.7854163, 36.0616279], [-95.7854108, 36.0616279], [-95.7854109, 36.0616327], [-95.7853386, 36.0616329], [-95.7853385, 36.0616048], [-95.7853256, 36.0616048], [-95.7853255, 36.0615733], [-95.7853087, 36.0615734], [-95.7853086, 36.0615485], [-95.7853254, 36.0615484], [-95.7853253, 36.0615203], [-95.7854159, 36.0615201]]]}, "properties": {"osm_id": 1353560386, "building": "detached", "name": "", "height": null, "height_m": null, "levels": null, "tract_id": "40143007417", "tract_name": "74.17", "tags": {"addr:city": "Broken Arrow", "addr:postcode": "74012", "addr:street": "North 4th Street", "building": "detached"}}}, {"type": "Feature", "geometry": {"type": "Polygon", "coordinates": [[[-95.7854913, 36.0611912], [-95.7855771, 36.0612453], [-95.785384, 36.0614453], [-95.7852983, 36.0613912], [-95.7854913, 36.0611912]]]}, "properties": {"osm_id": 1353560387, "building": "detached", "name": "", "height": null, "height_m": null, "levels": null, "tract_id": "40143007417", "tract_name": "74.17", "tags": {"addr:city": "Broken Arrow", "addr:postcode": "74012", "addr:street": "North 4th Street", "building": "detached"}}}, {"type": "Feature", "geometry": {"type": "Polygon", "coordinates": [[[-95.7853272, 36.0620634], [-95.7854623, 36.0620636], [-95.785462, 36.0622061], [-95.7854252, 36.0622061], [-95.7854251, 36.0622348], [-95.7853315, 36.0622346], [-95.7853316, 36.0621802], [-95.7853269, 36.0621802], [-95.7853271, 36.0621177], [-95.7853084, 36.0621177], [-95.7853085, 36.0620915], [-95.7853271, 36.0620915], [-95.7853272, 36.0620634]]]}, "properties": {"osm_id": 1353560388, "building": "detached", "name": "", "height": null, "height_m": null, "levels": null, "tract_id": "40143007417", "tract_name": "74.17", "tags": {"addr:city": "Broken Arrow", "addr:postcode": "74012", "addr:street": "North 4th Street", "building": "detached"}}}, {"type": "Feature", "geometry": {"type": "Polygon", "coordinates": [[[-95.7848883, 36.0626616], [-95.7849686, 36.0626626], [-95.7849682, 36.0626839], [-95.7849852, 36.0626841], [-95.7849846, 36.0627155], [-95.7849676, 36.0627153], [-95.7849665, 36.0627762], [-95.7848849, 36.0627752], [-95.7848855, 36.0627434], [-95.7848626, 36.0627431], [-95.7848631, 36.0627176], [-95.7848872, 36.0627179], [-95.7848883, 36.0626616]]]}, "properties": {"osm_id": 1353560389, "building": "detached", "name": "", "height": null, "height_m": null, "levels": null, "tract_id": "40143007417", "tract_name": "74.17", "tags": {"addr:city": "Broken Arrow", "addr:postcode": "74012", "addr:street": "North 4th Street", "building": "detached"}}}, {"type": "Feature", "geometry": {"type": "Polygon", "coordinates": [[[-95.7847832, 36.0628478], [-95.7849334, 36.0628478], [-95.7849334, 36.0629621], [-95.7848583, 36.0629621], [-95.7848583, 36.0629253], [-95.7847832, 36.0629253], [-95.7847832, 36.0628478]]]}, "properties": {"osm_id": 1353560390, "building": "detached", "name": "", "height": null, "height_m": null, "levels": null, "tract_id": "40143007417", "tract_name": "74.17", "tags": {"addr:city": "Broken Arrow", "addr:postcode": "74012", "addr:street": "North 4th Street", "building": "detached"}}}, {"type": "Feature", "geometry": {"type": "Polygon", "coordinates": [[[-95.784977, 36.0632364], [-95.7848429, 36.0632364], [-95.7848429, 36.0632082], [-95.7849026, 36.0632082], [-95.7849026, 36.0631838], [-95.784977, 36.0631838], [-95.784977, 36.0632364]]]}, "properties": {"osm_id": 1353560391, "building": "carport", "name": "", "height": null, "height_m": null, "levels": null, "tract_id": "40143007417", "tract_name": "74.17", "tags": {"building": "carport"}}}, {"type": "Feature", "geometry": {"type": "Polygon", "coordinates": [[[-95.7848074, 36.0632082], [-95.7848074, 36.06307], [-95.7849026, 36.06307], [-95.7849026, 36.0631838], [-95.7849026, 36.0632082], [-95.7848429, 36.0632082], [-95.7848074, 36.0632082]]]}, "properties": {"osm_id": 1353560392, "building": "detached", "name": "", "height": null, "height_m": null, "levels": null, "tract_id": "40143007417", "tract_name": "74.17", "tags": {"addr:city": "Broken Arrow", "addr:postcode": "74012", "addr:street": "North 4th Street", "building": "detached"}}}, {"type": "Feature", "geometry": {"type": "Polygon", "coordinates": [[[-95.7847894, 36.06354], [-95.7847899, 36.0634738], [-95.7848722, 36.0634742], [-95.7848717, 36.0635404], [-95.7849031, 36.0635406], [-95.7849026, 36.0636121], [-95.7847753, 36.0636115], [-95.7847758, 36.06354], [-95.7847894, 36.06354]]]}, "properties": {"osm_id": 1353560393, "building": "detached", "name": "", "height": null, "height_m": null, "levels": null, "tract_id": "40143007417", "tract_name": "74.17", "tags": {"addr:city": "Broken Arrow", "addr:postcode": "74012", "addr:street": "North 4th Street", "building": "detached"}}}, {"type": "Feature", "geometry": {"type": "Polygon", "coordinates": [[[-95.785484, 36.0627533], [-95.7854838, 36.0627867], [-95.7853968, 36.0627863], [-95.785397, 36.0627529], [-95.785484, 36.0627533]]]}, "properties": {"osm_id": 1353560394, "building": "carport", "name": "", "height": null, "height_m": null, "levels": null, "tract_id": "40143007417", "tract_name": "74.17", "tags": {"building": "carport", "fixme": "Verify this is a carport - not clear from the imagery."}}}, {"type": "Feature", "geometry": {"type": "Polygon", "coordinates": [[[-95.7853814, 36.0625235], [-95.7854452, 36.0625238], [-95.7854451, 36.062535], [-95.7854856, 36.0625352], [-95.785484, 36.0627533], [-95.785397, 36.0627529], [-95.7853797, 36.0627528], [-95.7853802, 36.0626839], [-95.7853529, 36.0626838], [-95.7853534, 36.0626163], [-95.7853807, 36.0626164], [-95.7853814, 36.0625235]]]}, "properties": {"osm_id": 1353560395, "building": "detached", "name": "", "height": null, "height_m": null, "levels": null, "tract_id": "40143007417", "tract_name": "74.17", "tags": {"addr:city": "Broken Arrow", "addr:postcode": "74012", "addr:street": "North 4th Street", "building": "detached"}}}, {"type": "Feature", "geometry": {"type": "Polygon", "coordinates": [[[-95.7855443, 36.0632314], [-95.7855363, 36.0632312], [-95.7855385, 36.0631547], [-95.7855155, 36.0631543], [-95.7855167, 36.0631106], [-95.7855397, 36.063111], [-95.7855422, 36.0630229], [-95.7856578, 36.063025], [-95.7856549, 36.0631274], [-95.7857027, 36.0631282], [-95.785701, 36.063187], [-95.7856532, 36.0631861], [-95.7856518, 36.0632333], [-95.7856505, 36.0632333], [-95.7856499, 36.0632542], [-95.7855437, 36.0632537], [-95.7855443, 36.0632314]]]}, "properties": {"osm_id": 1353560396, "building": "detached", "name": "", "height": null, "height_m": null, "levels": null, "tract_id": "40143007417", "tract_name": "74.17", "tags": {"addr:city": "Broken Arrow", "addr:postcode": "74012", "addr:street": "North 4th Street", "building": "detached"}}}, {"type": "Feature", "geometry": {"type": "Polygon", "coordinates": [[[-95.7855391, 36.0633271], [-95.7855396, 36.0632537], [-95.7855437, 36.0632537], [-95.7856499, 36.0632542], [-95.7856528, 36.0632542], [-95.7856523, 36.0633276], [-95.7855391, 36.0633271]]]}, "properties": {"osm_id": 1353560397, "building": "garage", "name": "", "height": null, "height_m": null, "levels": null, "tract_id": "40143007417", "tract_name": "74.17", "tags": {"building": "garage"}}}, {"type": "Feature", "geometry": {"type": "Polygon", "coordinates": [[[-95.7855919, 36.0634657], [-95.7857036, 36.0634648], [-95.7857064, 36.0637066], [-95.7855947, 36.0637074], [-95.7855919, 36.0634657]]]}, "properties": {"osm_id": 1353560398, "building": "detached", "name": "", "height": null, "height_m": null, "levels": null, "tract_id": "40143007417", "tract_name": "74.17", "tags": {"addr:city": "Broken Arrow", "addr:postcode": "74012", "addr:street": "North 4th Street", "building": "detached"}}}, {"type": "Feature", "geometry": {"type": "Polygon", "coordinates": [[[-95.7861649, 36.0633637], [-95.7861303, 36.0633485], [-95.7861734, 36.0632843], [-95.7862079, 36.0632995], [-95.7861649, 36.0633637]]]}, "properties": {"osm_id": 1353560399, "building": "shed", "name": "", "height": null, "height_m": null, "levels": null, "tract_id": "40143007417", "tract_name": "74.17", "tags": {"building": "shed"}}}, {"type": "Feature", "geometry": {"type": "Polygon", "coordinates": [[[-95.7860275, 36.0630883], [-95.7859473, 36.0630881], [-95.7859476, 36.0630057], [-95.7860278, 36.063006], [-95.7860275, 36.0630883]]]}, "properties": {"osm_id": 1353560400, "building": "garage", "name": "", "height": null, "height_m": null, "levels": null, "tract_id": "40143007417", "tract_name": "74.17", "tags": {"building": "garage"}}}, {"type": "Feature", "geometry": {"type": "Polygon", "coordinates": [[[-95.7858018, 36.062486], [-95.7857078, 36.0624858], [-95.7857081, 36.0624077], [-95.7858021, 36.062408], [-95.7858018, 36.062486]]]}, "properties": {"osm_id": 1353560401, "building": "garage", "name": "", "height": null, "height_m": null, "levels": null, "tract_id": "40143007417", "tract_name": "74.17", "tags": {"building": "garage"}}}, {"type": "Feature", "geometry": {"type": "Polygon", "coordinates": [[[-95.7846002, 36.0621518], [-95.7845383, 36.0621516], [-95.7845385, 36.062103], [-95.7846004, 36.0621032], [-95.7846002, 36.0621518]]]}, "properties": {"osm_id": 1353560402, "building": "shed", "name": "", "height": null, "height_m": null, "levels": null, "tract_id": "40143007417", "tract_name": "74.17", "tags": {"building": "shed"}}}, {"type": "Feature", "geometry": {"type": "Polygon", "coordinates": [[[-95.7847745, 36.0621534], [-95.7846354, 36.062153], [-95.7846357, 36.0620813], [-95.7847748, 36.0620817], [-95.7847745, 36.0621534]]]}, "properties": {"osm_id": 1353560403, "building": "garage", "name": "", "height": null, "height_m": null, "levels": null, "tract_id": "40143007417", "tract_name": "74.17", "tags": {"building": "garage"}}}, {"type": "Feature", "geometry": {"type": "Polygon", "coordinates": [[[-95.784647, 36.0627543], [-95.7846472, 36.0626962], [-95.7846811, 36.0626963], [-95.7846809, 36.0627544], [-95.784647, 36.0627543]]]}, "properties": {"osm_id": 1353560404, "building": "shed", "name": "", "height": null, "height_m": null, "levels": null, "tract_id": "40143007417", "tract_name": "74.17", "tags": {"building": "shed"}}}, {"type": "Feature", "geometry": {"type": "Polygon", "coordinates": [[[-95.784566, 36.0630303], [-95.784566, 36.0630569], [-95.7845335, 36.0630569], [-95.7845335, 36.0630303], [-95.784566, 36.0630303]]]}, "properties": {"osm_id": 1353560405, "building": "shed", "name": "", "height": null, "height_m": null, "levels": null, "tract_id": "40143007417", "tract_name": "74.17", "tags": {"building": "shed"}}}, {"type": "Feature", "geometry": {"type": "Polygon", "coordinates": [[[-95.7845399, 36.0630664], [-95.7845692, 36.0630664], [-95.7845692, 36.0630909], [-95.7845399, 36.0630909], [-95.7845399, 36.0630664]]]}, "properties": {"osm_id": 1353560406, "building": "shed", "name": "", "height": null, "height_m": null, "levels": null, "tract_id": "40143007417", "tract_name": "74.17", "tags": {"building": "shed"}}}, {"type": "Feature", "geometry": {"type": "Polygon", "coordinates": [[[-95.7846118, 36.0636076], [-95.7846122, 36.0635571], [-95.7846485, 36.0635573], [-95.7846481, 36.0636078], [-95.7846118, 36.0636076]]]}, "properties": {"osm_id": 1353560407, "building": "shed", "name": "", "height": null, "height_m": null, "levels": null, "tract_id": "40143007417", "tract_name": "74.17", "tags": {"building": "shed"}}}, {"type": "Feature", "geometry": {"type": "Polygon", "coordinates": [[[-95.7857148, 36.0637492], [-95.785784, 36.0637496], [-95.7857837, 36.0637814], [-95.7857146, 36.063781], [-95.7857148, 36.0637492]]]}, "properties": {"osm_id": 1353560408, "building": "shed", "name": "", "height": null, "height_m": null, "levels": null, "tract_id": "40143007417", "tract_name": "74.17", "tags": {"building": "shed"}}}, {"type": "Feature", "geometry": {"type": "Polygon", "coordinates": [[[-95.7858829, 36.0645525], [-95.7858306, 36.0645531], [-95.7858301, 36.0645194], [-95.7858824, 36.0645189], [-95.7858829, 36.0645525]]]}, "properties": {"osm_id": 1353560409, "building": "shed", "name": "", "height": null, "height_m": null, "levels": null, "tract_id": "40143007417", "tract_name": "74.17", "tags": {"building": "shed"}}}, {"type": "Feature", "geometry": {"type": "Polygon", "coordinates": [[[-95.7855947, 36.0643794], [-95.7855869, 36.0643794], [-95.7855865, 36.0643097], [-95.7856887, 36.0643093], [-95.785689, 36.0643628], [-95.7857361, 36.0643627], [-95.7857366, 36.0644709], [-95.7857203, 36.0644709], [-95.785721, 36.0645863], [-95.7856311, 36.0645866], [-95.7856305, 36.0644874], [-95.7856012, 36.0644875], [-95.7856011, 36.0644761], [-95.7855953, 36.0644761], [-95.7855947, 36.0643794]]]}, "properties": {"osm_id": 1353560410, "building": "detached", "name": "", "height": null, "height_m": null, "levels": null, "tract_id": "40143007417", "tract_name": "74.17", "tags": {"addr:city": "Broken Arrow", "addr:housenumber": "1200", "addr:postcode": "74012", "addr:street": "North 4th Street", "building": "detached"}}}, {"type": "Feature", "geometry": {"type": "Polygon", "coordinates": [[[-95.7860986, 36.0648634], [-95.7860367, 36.0648628], [-95.7860374, 36.0648076], [-95.7860143, 36.0648074], [-95.7860162, 36.0646717], [-95.7861012, 36.0646724], [-95.7860986, 36.0648634]]]}, "properties": {"osm_id": 1353560411, "building": "detached", "name": "", "height": null, "height_m": null, "levels": null, "tract_id": "40143007417", "tract_name": "74.17", "tags": {"addr:city": "Broken Arrow", "addr:housenumber": "407", "addr:postcode": "74012", "addr:street": "East Madison Street", "building": "detached"}}}, {"type": "Feature", "geometry": {"type": "Polygon", "coordinates": [[[-95.7861012, 36.0646724], [-95.7861862, 36.0646732], [-95.7861844, 36.0648089], [-95.7861612, 36.0648087], [-95.7861605, 36.0648639], [-95.7860986, 36.0648634], [-95.7861012, 36.0646724]]]}, "properties": {"osm_id": 1353560412, "building": "detached", "name": "", "height": null, "height_m": null, "levels": null, "tract_id": "40143007417", "tract_name": "74.17", "tags": {"addr:city": "Broken Arrow", "addr:housenumber": "405", "addr:postcode": "74012", "addr:street": "East Madison Street", "building": "detached"}}}, {"type": "Feature", "geometry": {"type": "Polygon", "coordinates": [[[-95.7863495, 36.0646674], [-95.7864449, 36.0646658], [-95.7864481, 36.0647927], [-95.7864005, 36.0647934], [-95.7864008, 36.0648048], [-95.786353, 36.0648056], [-95.7863495, 36.0646674]]]}, "properties": {"osm_id": 1353560413, "building": "detached", "name": "", "height": null, "height_m": null, "levels": null, "tract_id": "40143007417", "tract_name": "74.17", "tags": {"addr:city": "Broken Arrow", "addr:housenumber": "401", "addr:postcode": "74012", "addr:street": "East Madison Street", "building": "detached"}}}, {"type": "Feature", "geometry": {"type": "Polygon", "coordinates": [[[-95.786353, 36.0648056], [-95.7863053, 36.0648064], [-95.786305, 36.064795], [-95.7862574, 36.0647958], [-95.7862541, 36.064669], [-95.7863495, 36.0646674], [-95.786353, 36.0648056]]]}, "properties": {"osm_id": 1353560414, "building": "detached", "name": "", "height": null, "height_m": null, "levels": null, "tract_id": "40143007417", "tract_name": "74.17", "tags": {"addr:city": "Broken Arrow", "addr:housenumber": "403", "addr:postcode": "74012", "addr:street": "East Madison Street", "building": "detached"}}}, {"type": "Feature", "geometry": {"type": "Polygon", "coordinates": [[[-95.7850575, 36.0651696], [-95.7848239, 36.06517], [-95.7848243, 36.0653156], [-95.7850578, 36.0653152], [-95.7850575, 36.0651696]]]}, "properties": {"osm_id": 1353560417, "building": "apartments", "name": "", "height": null, "height_m": null, "levels": null, "tract_id": "40143007417", "tract_name": "74.17", "tags": {"addr:housenumber": "504", "addr:postcode": "74012", "addr:street": "East Madison Street", "building": "apartments", "source": "microsoft/BuildingFootprints"}}}, {"type": "Feature", "geometry": {"type": "Polygon", "coordinates": [[[-95.7853182, 36.0658307], [-95.7854093, 36.0660056], [-95.7855766, 36.0659487], [-95.7854854, 36.0657737], [-95.7853182, 36.0658307]]]}, "properties": {"osm_id": 1353560418, "building": "apartments", "name": "", "height": null, "height_m": null, "levels": null, "tract_id": "40143007417", "tract_name": "74.17", "tags": {"addr:housenumber": "508", "addr:postcode": "74012", "addr:street": "East Madison Street", "building": "apartments", "source": "microsoft/BuildingFootprints"}}}, {"type": "Feature", "geometry": {"type": "Polygon", "coordinates": [[[-95.7841237, 36.0653407], [-95.7841265, 36.0655315], [-95.7843007, 36.0655298], [-95.7842979, 36.0653391], [-95.7841237, 36.0653407]]]}, "properties": {"osm_id": 1353560419, "building": "apartments", "name": "", "height": null, "height_m": null, "levels": null, "tract_id": "40143007417", "tract_name": "74.17", "tags": {"addr:housenumber": "518", "addr:postcode": "74012", "addr:street": "East Madison Street", "building": "apartments", "source": "microsoft/BuildingFootprints"}}}, {"type": "Feature", "geometry": {"type": "Polygon", "coordinates": [[[-95.7848994, 36.0646836], [-95.7848096, 36.0646835], [-95.7848095, 36.064812], [-95.7848374, 36.0648121], [-95.7848373, 36.0648671], [-95.7848993, 36.0648671], [-95.7848994, 36.0646836]]]}, "properties": {"osm_id": 1353560420, "building": "detached", "name": "", "height": null, "height_m": null, "levels": null, "tract_id": "40143007417", "tract_name": "74.17", "tags": {"addr:city": "Broken Arrow", "addr:housenumber": "503", "addr:postcode": "74012", "addr:street": "East Madison Street", "building": "detached"}}}, {"type": "Feature", "geometry": {"type": "Polygon", "coordinates": [[[-95.7853923, 36.0646819], [-95.7853025, 36.0646814], [-95.7853014, 36.0648099], [-95.7853293, 36.0648101], [-95.7853288, 36.0648651], [-95.7853908, 36.0648654], [-95.7853923, 36.0646819]]]}, "properties": {"osm_id": 1353560421, "building": "detached", "name": "", "height": null, "height_m": null, "levels": null, "tract_id": "40143007417", "tract_name": "74.17", "tags": {"addr:city": "Broken Arrow", "addr:housenumber": "419", "addr:postcode": "74012", "addr:street": "East Madison Street", "building": "detached"}}}, {"type": "Feature", "geometry": {"type": "Polygon", "coordinates": [[[-95.7846593, 36.0646827], [-95.7845695, 36.0646821], [-95.7845682, 36.0648106], [-95.7845961, 36.0648108], [-95.7845955, 36.0648658], [-95.7846575, 36.0648662], [-95.7846593, 36.0646827]]]}, "properties": {"osm_id": 1353560422, "building": "detached", "name": "", "height": null, "height_m": null, "levels": null, "tract_id": "40143007417", "tract_name": "74.17", "tags": {"addr:city": "Broken Arrow", "addr:housenumber": "507", "addr:postcode": "74012", "addr:street": "East Madison Street", "building": "detached"}}}, {"type": "Feature", "geometry": {"type": "Polygon", "coordinates": [[[-95.7844159, 36.0646848], [-95.7843261, 36.0646843], [-95.784325, 36.0648128], [-95.7843529, 36.064813], [-95.7843524, 36.064868], [-95.7844144, 36.0648683], [-95.7844159, 36.0646848]]]}, "properties": {"osm_id": 1353560423, "building": "detached", "name": "", "height": null, "height_m": null, "levels": null, "tract_id": "40143007417", "tract_name": "74.17", "tags": {"addr:city": "Broken Arrow", "addr:housenumber": "511", "addr:postcode": "74012", "addr:street": "East Madison Street", "building": "detached"}}}, {"type": "Feature", "geometry": {"type": "Polygon", "coordinates": [[[-95.785861, 36.0648685], [-95.785923, 36.0648687], [-95.7859231, 36.0648137], [-95.785951, 36.0648137], [-95.7859514, 36.0646852], [-95.7858615, 36.064685], [-95.785861, 36.0648685]]]}, "properties": {"osm_id": 1353560424, "building": "detached", "name": "", "height": null, "height_m": null, "levels": null, "tract_id": "40143007417", "tract_name": "74.17", "tags": {"addr:city": "Broken Arrow", "addr:housenumber": "409", "addr:postcode": "74012", "addr:street": "East Madison Street", "building": "detached"}}}, {"type": "Feature", "geometry": {"type": "Polygon", "coordinates": [[[-95.7858615, 36.064685], [-95.7857717, 36.0646848], [-95.7857713, 36.0648133], [-95.7857992, 36.0648134], [-95.785799, 36.0648684], [-95.785861, 36.0648685], [-95.7858615, 36.064685]]]}, "properties": {"osm_id": 1353560425, "building": "detached", "name": "", "height": null, "height_m": null, "levels": null, "tract_id": "40143007417", "tract_name": "74.17", "tags": {"addr:city": "Broken Arrow", "addr:housenumber": "411", "addr:postcode": "74012", "addr:street": "East Madison Street", "building": "detached"}}}, {"type": "Feature", "geometry": {"type": "Polygon", "coordinates": [[[-95.785626, 36.0648678], [-95.785688, 36.0648676], [-95.7856876, 36.0648126], [-95.7857155, 36.0648124], [-95.7857146, 36.0646839], [-95.7856247, 36.0646843], [-95.785626, 36.0648678]]]}, "properties": {"osm_id": 1353560426, "building": "detached", "name": "", "height": null, "height_m": null, "levels": null, "tract_id": "40143007417", "tract_name": "74.17", "tags": {"addr:city": "Broken Arrow", "addr:housenumber": "413", "addr:postcode": "74012", "addr:street": "East Madison Street", "building": "detached"}}}, {"type": "Feature", "geometry": {"type": "Polygon", "coordinates": [[[-95.7856247, 36.0646843], [-95.7855349, 36.0646847], [-95.7855358, 36.0648132], [-95.7855637, 36.0648131], [-95.785564, 36.0648681], [-95.785626, 36.0648678], [-95.7856247, 36.0646843]]]}, "properties": {"osm_id": 1353560427, "building": "detached", "name": "", "height": null, "height_m": null, "levels": null, "tract_id": "40143007417", "tract_name": "74.17", "tags": {"addr:city": "Broken Arrow", "addr:housenumber": "415", "addr:postcode": "74012", "addr:street": "East Madison Street", "building": "detached"}}}, {"type": "Feature", "geometry": {"type": "Polygon", "coordinates": [[[-95.7872929, 36.0648853], [-95.7872852, 36.0648254], [-95.7872785, 36.0648259], [-95.7872565, 36.0646554], [-95.7873867, 36.0646444], [-95.7873952, 36.0647099], [-95.7874113, 36.0647085], [-95.7874355, 36.0647065], [-95.7874442, 36.0647732], [-95.7874196, 36.0647753], [-95.7874038, 36.0647766], [-95.7874165, 36.0648748], [-95.7872929, 36.0648853]]]}, "properties": {"osm_id": 1361682244, "building": "detached", "name": "", "height": null, "height_m": null, "levels": null, "tract_id": "40143007417", "tract_name": "74.17", "tags": {"addr:city": "Broken Arrow", "addr:postcode": "74012", "addr:street": "East Norman Place", "building": "detached"}}}, {"type": "Feature", "geometry": {"type": "Polygon", "coordinates": [[[-95.7958988, 36.0641252], [-95.7958177, 36.0641244], [-95.7958186, 36.0640645], [-95.7958997, 36.0640653], [-95.7958988, 36.0641252]]]}, "properties": {"osm_id": 1383258015, "building": "yes", "name": "", "height": null, "height_m": null, "levels": null, "tract_id": "40143007417", "tract_name": "74.17", "tags": {"building": "yes"}}}, {"type": "Feature", "geometry": {"type": "Polygon", "coordinates": [[[-95.795774, 36.064556], [-95.7957031, 36.0645553], [-95.7957082, 36.064204], [-95.7957792, 36.0642048], [-95.795774, 36.064556]]]}, "properties": {"osm_id": 1383258016, "building": "industrial", "name": "", "height": null, "height_m": null, "levels": null, "tract_id": "40143007417", "tract_name": "74.17", "tags": {"building": "industrial"}}}, {"type": "Feature", "geometry": {"type": "Polygon", "coordinates": [[[-95.7960265, 36.0645536], [-95.7959556, 36.064553], [-95.7959607, 36.0642017], [-95.7960317, 36.0642024], [-95.7960265, 36.0645536]]]}, "properties": {"osm_id": 1383258017, "building": "industrial", "name": "", "height": null, "height_m": null, "levels": null, "tract_id": "40143007417", "tract_name": "74.17", "tags": {"building": "industrial"}}}, {"type": "Feature", "geometry": {"type": "Polygon", "coordinates": [[[-95.7958938, 36.0645006], [-95.7958229, 36.0644999], [-95.7958272, 36.0642017], [-95.7958982, 36.0642024], [-95.7958938, 36.0645006]]]}, "properties": {"osm_id": 1383258018, "building": "industrial", "name": "", "height": null, "height_m": null, "levels": null, "tract_id": "40143007417", "tract_name": "74.17", "tags": {"building": "industrial"}}}]}