{"type": "FeatureCollection", "features": [{"type": "Feature", "geometry": {"type": "Polygon", "coordinates": [[[-97.6380821, 35.5944073], [-97.638259, 35.5942635], [-97.6381819, 35.5942008], [-97.6380051, 35.5943446], [-97.6380821, 35.5944073]]]}, "properties": {"osm_id": 58742825, "building": "yes", "name": "Scooter's Coffee", "height": null, "height_m": 3.0, "levels": 1, "tract_id": "40109108529", "tract_name": "1085.29", "tags": {"addr:city": "Oklahoma City", "addr:housenumber": "7040", "addr:postcode": "73142", "addr:state": "OK", "addr:street": "Northwest 122nd Street", "amenity": "cafe", "brand": "Scooter's Coffee", "brand:wikidata": "Q117280308", "building": "yes", "building:levels": "1", "cuisine": "coffee_shop", "name": "Scooter's Coffee", "phone": "(405) 367-0742", "source": "yahoo", "takeaway": "yes"}}}, {"type": "Feature", "geometry": {"type": "Polygon", "coordinates": [[[-97.6347913, 35.5941007], [-97.6349606, 35.5939489], [-97.6350387, 35.5939419], [-97.6350517, 35.5938925], [-97.634991, 35.5938889], [-97.6349389, 35.5938466], [-97.6351038, 35.5936983], [-97.6351602, 35.5937372], [-97.6352818, 35.5936278], [-97.6351819, 35.5935607], [-97.6352297, 35.5935148], [-97.6352036, 35.5935042], [-97.6351559, 35.5935325], [-97.6350821, 35.5935148], [-97.6348607, 35.5936878], [-97.6347045, 35.5935854], [-97.6345873, 35.5936736], [-97.6343529, 35.5935042], [-97.6343399, 35.593536], [-97.6342791, 35.5935042], [-97.6342314, 35.593536], [-97.6342705, 35.5935501], [-97.634175, 35.5936454], [-97.6343139, 35.5937372], [-97.6343486, 35.5936983], [-97.6345352, 35.5938325], [-97.6344962, 35.5938572], [-97.6344093, 35.5938607], [-97.6344267, 35.5939454], [-97.6345135, 35.5939454], [-97.6346394, 35.5940478], [-97.6346524, 35.5941501], [-97.6347956, 35.5941431], [-97.6347913, 35.5941007]]]}, "properties": {"osm_id": 58742828, "building": "yes", "name": "Higher Plain Baptist Church", "height": null, "height_m": null, "levels": null, "tract_id": "40109108529", "tract_name": "1085.29", "tags": {"addr:city": "Oklahoma City", "addr:housenumber": "6810", "addr:postcode": "73142", "addr:state": "OK", "addr:street": "Northwest 122nd Street", "amenity": "place_of_worship", "building": "yes", "denomination": "baptist", "name": "Higher Plain Baptist Church", "religion": "christian", "source": "yahoo", "website": "https://higherplain.org/"}}}, {"type": "Feature", "geometry": {"type": "Polygon", "coordinates": [[[-97.6311526, 35.5884469], [-97.6307525, 35.5884028], [-97.6307118, 35.5885903], [-97.6306169, 35.5885793], [-97.6306033, 35.5886124], [-97.6305016, 35.5886013], [-97.6304677, 35.5886896], [-97.6305965, 35.5887006], [-97.6305287, 35.5888881], [-97.6306372, 35.5889102], [-97.6306169, 35.5890481], [-97.6305558, 35.5890481], [-97.6305611, 35.5893233], [-97.6306069, 35.5893255], [-97.6306695, 35.5893791], [-97.6306764, 35.5894017], [-97.6309542, 35.5894073], [-97.6309611, 35.5893763], [-97.6310063, 35.5893255], [-97.6310375, 35.5893283], [-97.6310618, 35.5889584], [-97.6311526, 35.5884469]]]}, "properties": {"osm_id": 58742829, "building": "school", "name": "", "height": null, "height_m": null, "levels": null, "tract_id": "40109108529", "tract_name": "1085.29", "tags": {"building": "school", "source": "yahoo"}}}, {"type": "Feature", "geometry": {"type": "Polygon", "coordinates": [[[-97.6379196, 35.5925462], [-97.6378918, 35.5925857], [-97.6375585, 35.5925913], [-97.637555, 35.5925744], [-97.6368813, 35.5925659], [-97.6368987, 35.5927749], [-97.6368536, 35.5928144], [-97.6367043, 35.5928116], [-97.6366973, 35.5924163], [-97.6367668, 35.5924134], [-97.6367668, 35.592357], [-97.637555, 35.5923485], [-97.6375446, 35.592309], [-97.6379126, 35.5923118], [-97.6379196, 35.5925462]]]}, "properties": {"osm_id": 58742831, "building": "retail", "name": "", "height": null, "height_m": null, "levels": null, "tract_id": "40109108529", "tract_name": "1085.29", "tags": {"building": "retail", "source": "yahoo"}}}, {"type": "Feature", "geometry": {"type": "Polygon", "coordinates": [[[-97.6379846, 35.5918476], [-97.6377749, 35.5918765], [-97.6378036, 35.592014], [-97.6373412, 35.5920779], [-97.6372484, 35.5916338], [-97.6368132, 35.5916939], [-97.6367581, 35.5914302], [-97.6372794, 35.5913581], [-97.637302, 35.5914661], [-97.6376573, 35.5914171], [-97.637676, 35.5915065], [-97.63765, 35.5915101], [-97.6376798, 35.5916525], [-97.6377539, 35.5916422], [-97.6377883, 35.591807], [-97.6379708, 35.5917818], [-97.6379846, 35.5918476]]]}, "properties": {"osm_id": 58742832, "building": "yes", "name": "New Covenant Christian Church", "height": null, "height_m": null, "levels": null, "tract_id": "40109108529", "tract_name": "1085.29", "tags": {"amenity": "place_of_worship", "building": "yes", "ele": "356", "gnis:feature_id": "1809440", "name": "New Covenant Christian Church", "religion": "christian", "source": "yahoo"}}}, {"type": "Feature", "geometry": {"type": "Polygon", "coordinates": [[[-97.6350493, 35.5933849], [-97.6350584, 35.5930178], [-97.634774, 35.5930131], [-97.634765, 35.593373], [-97.6348351, 35.5933741], [-97.6348343, 35.5934061], [-97.6349648, 35.5934083], [-97.6349654, 35.5933835], [-97.6350493, 35.5933849]]]}, "properties": {"osm_id": 58742837, "building": "yes", "name": "", "height": null, "height_m": null, "levels": null, "tract_id": "40109108529", "tract_name": "1085.29", "tags": {"building": "yes", "source": "yahoo"}}}, {"type": "Feature", "geometry": {"type": "Polygon", "coordinates": [[[-97.6376074, 35.5938168], [-97.6380544, 35.5934568], [-97.637768, 35.5934497], [-97.6377174, 35.5933769], [-97.6376551, 35.5932874], [-97.637564, 35.5932874], [-97.6376169, 35.5933849], [-97.6376464, 35.5934392], [-97.6376508, 35.593718], [-97.6375857, 35.5937956], [-97.6376074, 35.5938168]]]}, "properties": {"osm_id": 58742838, "building": "yes", "name": "Chase", "height": null, "height_m": null, "levels": null, "tract_id": "40109108529", "tract_name": "1085.29", "tags": {"amenity": "bank", "brand": "Chase", "brand:wikidata": "Q524629", "building": "yes", "check_date": "2024-09-17", "check_date:opening_hours": "2024-09-17", "name": "Chase", "opening_hours": "Mo-Fr 09:00-17:00; Sa 09:00-13:00; Su closed", "phone": "+1 405-773-7350", "source": "yahoo", "website": "https://locator.chase.com/ok/oklahoma-city/12200-n-rockwell-ave"}}}, {"type": "Feature", "geometry": {"type": "Polygon", "coordinates": [[[-97.636925, 35.5903508], [-97.6365435, 35.5903532], [-97.6365379, 35.5897604], [-97.6363736, 35.5897614], [-97.6363716, 35.5895554], [-97.6362833, 35.5895559], [-97.6362828, 35.5895025], [-97.6362214, 35.5895029], [-97.6362198, 35.5893347], [-97.6361166, 35.5893354], [-97.6361132, 35.5889736], [-97.6362204, 35.5889729], [-97.6362209, 35.5890179], [-97.6363707, 35.5890169], [-97.636369, 35.5888359], [-97.6361565, 35.5888372], [-97.6361546, 35.5886437], [-97.6365942, 35.5886409], [-97.6365921, 35.5884157], [-97.6365384, 35.5884101], [-97.63638, 35.5885479], [-97.6363023, 35.5885457], [-97.6361773, 35.5884395], [-97.63618, 35.5882768], [-97.6363162, 35.5881933], [-97.6364023, 35.588191], [-97.6364578, 35.5882565], [-97.6365825, 35.5882563], [-97.6365904, 35.5882367], [-97.636852, 35.5882351], [-97.6368511, 35.5881383], [-97.6361825, 35.5881425], [-97.6361806, 35.5879418], [-97.6375612, 35.5879331], [-97.6375633, 35.5881482], [-97.6372309, 35.5881503], [-97.6372318, 35.5882426], [-97.6374772, 35.5882411], [-97.6374846, 35.5890156], [-97.6372718, 35.5890169], [-97.6372723, 35.5890781], [-97.6372932, 35.5890779], [-97.6372942, 35.5891772], [-97.6372605, 35.5891774], [-97.6372619, 35.5893295], [-97.6372905, 35.5893293], [-97.6372915, 35.5894405], [-97.6375082, 35.5894391], [-97.6375078, 35.5893968], [-97.6378692, 35.5893945], [-97.6378739, 35.5898864], [-97.6374854, 35.5898888], [-97.6374875, 35.5900998], [-97.6371664, 35.5901018], [-97.6371632, 35.5897579], [-97.6369878, 35.589759], [-97.63699, 35.5899965], [-97.6369217, 35.5899969], [-97.636925, 35.5903508]]]}, "properties": {"osm_id": 58742839, "building": "school", "name": "Putnam City North High School", "height": null, "height_m": null, "levels": null, "tract_id": "40109108529", "tract_name": "1085.29", "tags": {"building": "school", "name": "Putnam City North High School", "source": "yahoo"}}}, {"type": "Feature", "geometry": {"type": "Polygon", "coordinates": [[[-97.6237656, 35.5941916], [-97.6237685, 35.5938793], [-97.6236794, 35.5938788], [-97.6236809, 35.5937178], [-97.6231303, 35.5937144], [-97.6231235, 35.5944427], [-97.6234, 35.5944445], [-97.6234007, 35.5943706], [-97.6236008, 35.5943718], [-97.6236025, 35.5941906], [-97.6237656, 35.5941916]]]}, "properties": {"osm_id": 324886763, "building": "commercial", "name": "", "height": null, "height_m": null, "levels": null, "tract_id": "40109108529", "tract_name": "1085.29", "tags": {"building": "commercial", "roof:shape": "flat"}}}, {"type": "Feature", "geometry": {"type": "Polygon", "coordinates": [[[-97.6214752, 35.5893675], [-97.6214721, 35.5892029], [-97.6213308, 35.5892047], [-97.6213212, 35.5887021], [-97.6211077, 35.5887048], [-97.6211126, 35.5889608], [-97.6210573, 35.5889615], [-97.6210584, 35.589017], [-97.6210481, 35.5890171], [-97.6210492, 35.5890748], [-97.6210501, 35.5891245], [-97.6211059, 35.5891238], [-97.6211086, 35.5892649], [-97.6211091, 35.5892889], [-97.6211109, 35.5893855], [-97.6212325, 35.5893839], [-97.6212322, 35.5893706], [-97.6214752, 35.5893675]]]}, "properties": {"osm_id": 324886801, "building": "church", "name": "Spring Creek Church", "height": null, "height_m": null, "levels": null, "tract_id": "40109108529", "tract_name": "1085.29", "tags": {"building": "church", "name": "Spring Creek Church", "roof:shape": "flat"}}}, {"type": "Feature", "geometry": {"type": "Polygon", "coordinates": [[[-97.6220057, 35.5933819], [-97.6220049, 35.593212], [-97.6217346, 35.593213], [-97.6217354, 35.5933828], [-97.6220057, 35.5933819]]]}, "properties": {"osm_id": 324886811, "building": "commercial", "name": "", "height": null, "height_m": null, "levels": null, "tract_id": "40109108529", "tract_name": "1085.29", "tags": {"amenity": "childcare", "building": "commercial", "roof:shape": "flat"}}}, {"type": "Feature", "geometry": {"type": "Polygon", "coordinates": [[[-97.6380477, 35.5941401], [-97.6379809, 35.594088], [-97.6378674, 35.5941841], [-97.6379342, 35.5942362], [-97.6380477, 35.5941401]]]}, "properties": {"osm_id": 324886814, "building": "retail", "name": "", "height": null, "height_m": null, "levels": null, "tract_id": "40109108529", "tract_name": "1085.29", "tags": {"building": "retail"}}}, {"type": "Feature", "geometry": {"type": "Polygon", "coordinates": [[[-97.6213312, 35.5925529], [-97.6213302, 35.5922335], [-97.6211129, 35.592234], [-97.6211139, 35.5925534], [-97.6213312, 35.5925529]]]}, "properties": {"osm_id": 324886818, "building": "retail", "name": "", "height": null, "height_m": null, "levels": null, "tract_id": "40109108529", "tract_name": "1085.29", "tags": {"building": "retail", "roof:shape": "flat", "shop": "yes"}}}, {"type": "Feature", "geometry": {"type": "Polygon", "coordinates": [[[-97.6363677, 35.5927204], [-97.6363624, 35.5924963], [-97.6361906, 35.592499], [-97.6361959, 35.5927231], [-97.6363677, 35.5927204]]]}, "properties": {"osm_id": 324886819, "building": "warehouse", "name": "", "height": null, "height_m": null, "levels": null, "tract_id": "40109108529", "tract_name": "1085.29", "tags": {"building": "warehouse", "shop": "storage_rental"}}}, {"type": "Feature", "geometry": {"type": "Polygon", "coordinates": [[[-97.6366235, 35.5931272], [-97.6366174, 35.592504], [-97.6364478, 35.5925051], [-97.6364538, 35.5931283], [-97.6366235, 35.5931272]]]}, "properties": {"osm_id": 324886829, "building": "warehouse", "name": "", "height": null, "height_m": null, "levels": null, "tract_id": "40109108529", "tract_name": "1085.29", "tags": {"building": "warehouse", "shop": "storage_rental"}}}, {"type": "Feature", "geometry": {"type": "Polygon", "coordinates": [[[-97.636102, 35.593132], [-97.6360937, 35.5925398], [-97.6358997, 35.5925417], [-97.635908, 35.5931339], [-97.636102, 35.593132]]]}, "properties": {"osm_id": 324886834, "building": "warehouse", "name": "", "height": null, "height_m": null, "levels": null, "tract_id": "40109108529", "tract_name": "1085.29", "tags": {"building": "warehouse", "shop": "storage_rental"}}}, {"type": "Feature", "geometry": {"type": "Polygon", "coordinates": [[[-97.6363823, 35.5937788], [-97.636373, 35.5931995], [-97.6361918, 35.5932014], [-97.6362011, 35.5937807], [-97.6363823, 35.5937788]]]}, "properties": {"osm_id": 324886841, "building": "warehouse", "name": "", "height": null, "height_m": null, "levels": null, "tract_id": "40109108529", "tract_name": "1085.29", "tags": {"building": "warehouse", "shop": "storage_rental"}}}, {"type": "Feature", "geometry": {"type": "Polygon", "coordinates": [[[-97.635793, 35.5943369], [-97.6357938, 35.5942486], [-97.6356888, 35.5942479], [-97.635688, 35.5943363], [-97.635793, 35.5943369]]]}, "properties": {"osm_id": 324886843, "building": "retail", "name": "", "height": null, "height_m": null, "levels": null, "tract_id": "40109108529", "tract_name": "1085.29", "tags": {"building": "retail"}}}, {"type": "Feature", "geometry": {"type": "Polygon", "coordinates": [[[-97.6363663, 35.593128], [-97.6363679, 35.5927452], [-97.6361983, 35.5927448], [-97.6361967, 35.5931275], [-97.6363663, 35.593128]]]}, "properties": {"osm_id": 324886848, "building": "warehouse", "name": "", "height": null, "height_m": null, "levels": null, "tract_id": "40109108529", "tract_name": "1085.29", "tags": {"building": "warehouse", "shop": "storage_rental"}}}, {"type": "Feature", "geometry": {"type": "Polygon", "coordinates": [[[-97.6357967, 35.5931308], [-97.6357905, 35.5926593], [-97.6356887, 35.5926601], [-97.635695, 35.5931316], [-97.6357967, 35.5931308]]]}, "properties": {"osm_id": 324886854, "building": "warehouse", "name": "", "height": null, "height_m": null, "levels": null, "tract_id": "40109108529", "tract_name": "1085.29", "tags": {"building": "warehouse", "shop": "storage_rental"}}}, {"type": "Feature", "geometry": {"type": "Polygon", "coordinates": [[[-97.6366016, 35.5924095], [-97.6366011, 35.5923414], [-97.635857, 35.5923454], [-97.6358575, 35.5924134], [-97.6366016, 35.5924095]]]}, "properties": {"osm_id": 324886857, "building": "warehouse", "name": "", "height": null, "height_m": null, "levels": null, "tract_id": "40109108529", "tract_name": "1085.29", "tags": {"building": "warehouse", "shop": "storage_rental"}}}, {"type": "Feature", "geometry": {"type": "Polygon", "coordinates": [[[-97.6366677, 35.5937768], [-97.6366643, 35.5931992], [-97.636482, 35.5931999], [-97.6364854, 35.5937775], [-97.6366677, 35.5937768]]]}, "properties": {"osm_id": 324886861, "building": "warehouse", "name": "", "height": null, "height_m": null, "levels": null, "tract_id": "40109108529", "tract_name": "1085.29", "tags": {"building": "warehouse", "shop": "storage_rental"}}}, {"type": "Feature", "geometry": {"type": "Polygon", "coordinates": [[[-97.6359589, 35.5943254], [-97.6359585, 35.5938849], [-97.6358954, 35.593885], [-97.6358958, 35.5943254], [-97.6359589, 35.5943254]]]}, "properties": {"osm_id": 324886863, "building": "warehouse", "name": "", "height": null, "height_m": null, "levels": null, "tract_id": "40109108529", "tract_name": "1085.29", "tags": {"building": "warehouse", "shop": "storage_rental"}}}, {"type": "Feature", "geometry": {"type": "Polygon", "coordinates": [[[-97.6369194, 35.5942382], [-97.6369145, 35.5940648], [-97.6364769, 35.5940729], [-97.6364818, 35.5942463], [-97.6369194, 35.5942382]]]}, "properties": {"osm_id": 324886866, "building": "retail", "name": "", "height": null, "height_m": null, "levels": null, "tract_id": "40109108529", "tract_name": "1085.29", "tags": {"amenity": "fast_food", "building": "retail", "cuisine": "burger"}}}, {"type": "Feature", "geometry": {"type": "Polygon", "coordinates": [[[-97.6360984, 35.593775], [-97.6360951, 35.593194], [-97.6359085, 35.5931948], [-97.6359119, 35.5937758], [-97.6360984, 35.593775]]]}, "properties": {"osm_id": 324886868, "building": "warehouse", "name": "", "height": null, "height_m": null, "levels": null, "tract_id": "40109108529", "tract_name": "1085.29", "tags": {"building": "warehouse", "shop": "storage_rental"}}}, {"type": "Feature", "geometry": {"type": "Polygon", "coordinates": [[[-97.6369197, 35.5937774], [-97.6369233, 35.5931681], [-97.6367674, 35.5931675], [-97.6367639, 35.5937768], [-97.6369197, 35.5937774]]]}, "properties": {"osm_id": 324886880, "building": "warehouse", "name": "", "height": null, "height_m": null, "levels": null, "tract_id": "40109108529", "tract_name": "1085.29", "tags": {"building": "warehouse", "shop": "storage_rental"}}}, {"type": "Feature", "geometry": {"type": "Polygon", "coordinates": [[[-97.6376198, 35.594294], [-97.6376179, 35.5941313], [-97.6371082, 35.5941352], [-97.6371101, 35.594298], [-97.6376198, 35.594294]]]}, "properties": {"osm_id": 324886883, "building": "retail", "name": "", "height": null, "height_m": null, "levels": null, "tract_id": "40109108529", "tract_name": "1085.29", "tags": {"building": "retail"}}}, {"type": "Feature", "geometry": {"type": "Polygon", "coordinates": [[[-97.6221643, 35.5936004], [-97.6221661, 35.5934476], [-97.6216301, 35.5934522], [-97.6215325, 35.5935349], [-97.6215431, 35.5935987], [-97.6221643, 35.5936004]]]}, "properties": {"osm_id": 324886900, "building": "commercial", "name": "", "height": null, "height_m": null, "levels": null, "tract_id": "40109108529", "tract_name": "1085.29", "tags": {"building": "commercial", "office": "yes", "roof:shape": "flat"}}}, {"type": "Feature", "geometry": {"type": "Polygon", "coordinates": [[[-97.6357768, 35.5941886], [-97.6357755, 35.5938297], [-97.6357937, 35.5938296], [-97.6357913, 35.5931988], [-97.63569, 35.5931991], [-97.6356937, 35.5941888], [-97.6357768, 35.5941886]]]}, "properties": {"osm_id": 324886905, "building": "warehouse", "name": "", "height": null, "height_m": null, "levels": null, "tract_id": "40109108529", "tract_name": "1085.29", "tags": {"building": "warehouse", "shop": "storage_rental"}}}, {"type": "Feature", "geometry": {"type": "Polygon", "coordinates": [[[-97.6212262, 35.5876973], [-97.6212208, 35.5874357], [-97.6210606, 35.5874378], [-97.6210629, 35.5875521], [-97.6210091, 35.5875529], [-97.6210122, 35.5877002], [-97.6212262, 35.5876973]]]}, "properties": {"osm_id": 324886921, "building": "yes", "name": "", "height": null, "height_m": null, "levels": null, "tract_id": "40109108529", "tract_name": "1085.29", "tags": {"amenity": "fire_station", "building": "yes", "roof:shape": "flat"}}}, {"type": "Feature", "geometry": {"type": "Polygon", "coordinates": [[[-97.6214466, 35.5940512], [-97.6214467, 35.5937805], [-97.621611, 35.5937806], [-97.621611, 35.5938047], [-97.6216746, 35.5938048], [-97.6216746, 35.5938892], [-97.621629, 35.5938891], [-97.621629, 35.5940513], [-97.6214466, 35.5940512]]]}, "properties": {"osm_id": 324886936, "building": "commercial", "name": "", "height": null, "height_m": null, "levels": null, "tract_id": "40109108529", "tract_name": "1085.29", "tags": {"building": "commercial", "roof:shape": "flat"}}}, {"type": "Feature", "geometry": {"type": "Polygon", "coordinates": [[[-97.6212212, 35.5872225], [-97.6212235, 35.5870997], [-97.6212432, 35.5870999], [-97.621245, 35.587007], [-97.6210711, 35.5870048], [-97.6210693, 35.5870984], [-97.6210893, 35.5870986], [-97.621087, 35.5872208], [-97.6212212, 35.5872225]]]}, "properties": {"osm_id": 324886937, "building": "commercial", "name": "", "height": null, "height_m": null, "levels": null, "tract_id": "40109108529", "tract_name": "1085.29", "tags": {"building": "commercial", "craft": "winery", "roof:shape": "flat"}}}, {"type": "Feature", "geometry": {"type": "Polygon", "coordinates": [[[-97.6210558, 35.5934608], [-97.6210669, 35.5931114], [-97.6212687, 35.5931157], [-97.6212621, 35.5933224], [-97.6212199, 35.5933216], [-97.6212155, 35.5934625], [-97.6211167, 35.5934604], [-97.6211154, 35.5935003], [-97.6210546, 35.593499], [-97.6210558, 35.5934608]]]}, "properties": {"osm_id": 324886939, "building": "commercial", "name": "", "height": null, "height_m": null, "levels": null, "tract_id": "40109108529", "tract_name": "1085.29", "tags": {"building": "commercial", "roof:shape": "flat", "shop": "yes"}}}, {"type": "Feature", "geometry": {"type": "Polygon", "coordinates": [[[-97.6247213, 35.5868175], [-97.6246809, 35.5868175], [-97.6246782, 35.5868235], [-97.6246507, 35.5868229], [-97.6246474, 35.5868186], [-97.6244755, 35.5868171], [-97.6244764, 35.5867471], [-97.6244851, 35.5867389], [-97.624492, 35.5867391], [-97.6244925, 35.5867302], [-97.6244851, 35.5867269], [-97.6244858, 35.5866975], [-97.6244898, 35.5866937], [-97.6244897, 35.5866772], [-97.6244977, 35.5866772], [-97.6244978, 35.586632], [-97.6245843, 35.5866321], [-97.6245843, 35.5866796], [-97.6246072, 35.5866796], [-97.6246072, 35.5866729], [-97.6246788, 35.586673], [-97.6246787, 35.5866998], [-97.6247215, 35.5866999], [-97.6247213, 35.5868175]]]}, "properties": {"osm_id": 417947069, "building": "house", "name": "", "height": null, "height_m": null, "levels": null, "tract_id": "40109108529", "tract_name": "1085.29", "tags": {"addr:city": "Oklahoma City", "addr:housenumber": "6104", "addr:state": "OK", "addr:street": "Plum Thicket Road", "building": "house"}}}, {"type": "Feature", "geometry": {"type": "Polygon", "coordinates": [[[-97.6250022, 35.5900638], [-97.6248884, 35.5900615], [-97.6248903, 35.5899996], [-97.6248577, 35.5899989], [-97.6248603, 35.5899164], [-97.6248699, 35.5899166], [-97.6248773, 35.5899073], [-97.6249202, 35.5899084], [-97.6249289, 35.5899051], [-97.624941, 35.5899084], [-97.6249921, 35.5899094], [-97.6249906, 35.5899569], [-97.6250239, 35.5899576], [-97.625022, 35.5900171], [-97.6250037, 35.5900167], [-97.6250022, 35.5900638]]]}, "properties": {"osm_id": 417951511, "building": "house", "name": "", "height": null, "height_m": null, "levels": null, "tract_id": "40109108529", "tract_name": "1085.29", "tags": {"building": "house"}}}, {"type": "Feature", "geometry": {"type": "Polygon", "coordinates": [[[-97.6249343, 35.5872221], [-97.6248756, 35.587222], [-97.6248759, 35.5870961], [-97.6250823, 35.5870964], [-97.6250818, 35.5872945], [-97.6250004, 35.5872944], [-97.6250007, 35.5871928], [-97.6249344, 35.5871927], [-97.6249343, 35.5872221]]]}, "properties": {"osm_id": 417952290, "building": "house", "name": "", "height": null, "height_m": null, "levels": null, "tract_id": "40109108529", "tract_name": "1085.29", "tags": {"building": "house"}}}, {"type": "Feature", "geometry": {"type": "Polygon", "coordinates": [[[-97.6250381, 35.5867007], [-97.6250384, 35.5868048], [-97.6251049, 35.5868046], [-97.6251123, 35.5867997], [-97.6251163, 35.5868123], [-97.6251311, 35.5868172], [-97.6251573, 35.5868134], [-97.6251653, 35.5868226], [-97.6251774, 35.5868215], [-97.6251935, 35.5868156], [-97.625221, 35.5868161], [-97.6252397, 35.5868008], [-97.6252464, 35.5867708], [-97.6252572, 35.5867659], [-97.625282, 35.5867676], [-97.6253001, 35.5867501], [-97.6253014, 35.5867327], [-97.6252961, 35.5867256], [-97.6253061, 35.5867141], [-97.6253175, 35.5867114], [-97.6253424, 35.5867104], [-97.6253387, 35.5866507], [-97.6253117, 35.5866518], [-97.6253101, 35.5866263], [-97.6252914, 35.5866231], [-97.6252384, 35.5865805], [-97.6251794, 35.5866291], [-97.6251552, 35.5866258], [-97.6251391, 35.5866383], [-97.6251385, 35.5866525], [-97.6251499, 35.5866569], [-97.6251123, 35.586659], [-97.6250962, 35.5866738], [-97.6250962, 35.5866923], [-97.6251029, 35.586695], [-97.625115, 35.5866967], [-97.625119, 35.5867005], [-97.6250381, 35.5867007]]]}, "properties": {"osm_id": 417954500, "building": "house", "name": "", "height": null, "height_m": null, "levels": null, "tract_id": "40109108529", "tract_name": "1085.29", "tags": {"building": "house"}}}, {"type": "Feature", "geometry": {"type": "Polygon", "coordinates": [[[-97.6217259, 35.5893585], [-97.6218869, 35.5893585], [-97.6218887, 35.5891916], [-97.6217223, 35.5891901], [-97.6217259, 35.5893585]]]}, "properties": {"osm_id": 480480335, "building": "yes", "name": "", "height": null, "height_m": null, "levels": null, "tract_id": "40109108529", "tract_name": "1085.29", "tags": {"building": "yes"}}}, {"type": "Feature", "geometry": {"type": "Polygon", "coordinates": [[[-97.6213242, 35.591702], [-97.6213234, 35.59161], [-97.6209683, 35.5916119], [-97.6209691, 35.591704], [-97.6213242, 35.591702]]]}, "properties": {"osm_id": 480480338, "building": "yes", "name": "", "height": null, "height_m": null, "levels": null, "tract_id": "40109108529", "tract_name": "1085.29", "tags": {"building": "yes"}}}, {"type": "Feature", "geometry": {"type": "Polygon", "coordinates": [[[-97.6217344, 35.5916224], [-97.6218484, 35.5913329], [-97.6216889, 35.5912877], [-97.6215749, 35.5915784], [-97.6217344, 35.5916224]]]}, "properties": {"osm_id": 480480339, "building": "yes", "name": "", "height": null, "height_m": null, "levels": null, "tract_id": "40109108529", "tract_name": "1085.29", "tags": {"building": "yes"}}}, {"type": "Feature", "geometry": {"type": "Polygon", "coordinates": [[[-97.6218822, 35.5912471], [-97.6218822, 35.5911173], [-97.6216632, 35.5911156], [-97.6216632, 35.5912453], [-97.6218822, 35.5912471]]]}, "properties": {"osm_id": 480480340, "building": "yes", "name": "", "height": null, "height_m": null, "levels": null, "tract_id": "40109108529", "tract_name": "1085.29", "tags": {"building": "yes"}}}, {"type": "Feature", "geometry": {"type": "Polygon", "coordinates": [[[-97.6216459, 35.5912439], [-97.6216459, 35.5911142], [-97.6214312, 35.5911124], [-97.6214312, 35.5912422], [-97.6216459, 35.5912439]]]}, "properties": {"osm_id": 480480341, "building": "yes", "name": "", "height": null, "height_m": null, "levels": null, "tract_id": "40109108529", "tract_name": "1085.29", "tags": {"building": "yes"}}}, {"type": "Feature", "geometry": {"type": "Polygon", "coordinates": [[[-97.6214056, 35.5912439], [-97.6214056, 35.5911142], [-97.6211993, 35.5911125], [-97.6211993, 35.5912423], [-97.6214056, 35.5912439]]]}, "properties": {"osm_id": 480480342, "building": "yes", "name": "", "height": null, "height_m": null, "levels": null, "tract_id": "40109108529", "tract_name": "1085.29", "tags": {"building": "yes"}}}, {"type": "Feature", "geometry": {"type": "Polygon", "coordinates": [[[-97.6211745, 35.5912439], [-97.6211745, 35.5911142], [-97.6209682, 35.5911125], [-97.6209682, 35.5912423], [-97.6211745, 35.5912439]]]}, "properties": {"osm_id": 480480343, "building": "yes", "name": "", "height": null, "height_m": null, "levels": null, "tract_id": "40109108529", "tract_name": "1085.29", "tags": {"building": "yes"}}}, {"type": "Feature", "geometry": {"type": "Polygon", "coordinates": [[[-97.6209749, 35.5920516], [-97.6210648, 35.5920525], [-97.6210637, 35.5920335], [-97.621261, 35.5920335], [-97.621261, 35.5919016], [-97.6209668, 35.5919025], [-97.6209691, 35.5919737], [-97.6209446, 35.5919737], [-97.6209457, 35.592006], [-97.6209749, 35.592006], [-97.6209749, 35.5920516]]]}, "properties": {"osm_id": 480480344, "building": "yes", "name": "", "height": null, "height_m": null, "levels": null, "tract_id": "40109108529", "tract_name": "1085.29", "tags": {"building": "yes", "shop": "yes"}}}, {"type": "Feature", "geometry": {"type": "Polygon", "coordinates": [[[-97.6211297, 35.5928212], [-97.6211282, 35.5926196], [-97.6210234, 35.5926196], [-97.621025, 35.5928212], [-97.6211297, 35.5928212]]]}, "properties": {"osm_id": 480480345, "building": "industrial", "name": "", "height": null, "height_m": null, "levels": null, "tract_id": "40109108529", "tract_name": "1085.29", "tags": {"building": "industrial", "shop": "yes"}}}, {"type": "Feature", "geometry": {"type": "Polygon", "coordinates": [[[-97.6223241, 35.5927316], [-97.6223214, 35.5925862], [-97.6220295, 35.5925898], [-97.6220322, 35.5927352], [-97.6223241, 35.5927316]]]}, "properties": {"osm_id": 480480359, "building": "yes", "name": "", "height": null, "height_m": null, "levels": null, "tract_id": "40109108529", "tract_name": "1085.29", "tags": {"building": "yes"}}}, {"type": "Feature", "geometry": {"type": "Polygon", "coordinates": [[[-97.6223701, 35.5928357], [-97.6225113, 35.5928376], [-97.6225113, 35.5926012], [-97.6223701, 35.5925974], [-97.6223701, 35.5928357]]]}, "properties": {"osm_id": 480480360, "building": "yes", "name": "", "height": null, "height_m": null, "levels": null, "tract_id": "40109108529", "tract_name": "1085.29", "tags": {"building": "yes"}}}, {"type": "Feature", "geometry": {"type": "Polygon", "coordinates": [[[-97.6237169, 35.5929208], [-97.6237177, 35.592606], [-97.6235394, 35.5926058], [-97.6235392, 35.5926564], [-97.6235119, 35.5926564], [-97.6235118, 35.5927199], [-97.6235414, 35.5927199], [-97.6235414, 35.5927588], [-97.6235277, 35.5927588], [-97.6235275, 35.5928205], [-97.6235587, 35.5928205], [-97.6235584, 35.5929205], [-97.6237169, 35.5929208]]]}, "properties": {"osm_id": 480480361, "building": "yes", "name": "", "height": null, "height_m": null, "levels": null, "tract_id": "40109108529", "tract_name": "1085.29", "tags": {"building": "yes"}}}, {"type": "Feature", "geometry": {"type": "Polygon", "coordinates": [[[-97.6228792, 35.5928071], [-97.6228778, 35.5926058], [-97.6230372, 35.5926051], [-97.6230374, 35.5926289], [-97.6230563, 35.5926288], [-97.6230569, 35.5927048], [-97.623021, 35.592705], [-97.6230215, 35.5927768], [-97.6229514, 35.5927771], [-97.6229516, 35.5928067], [-97.6228792, 35.5928071]]]}, "properties": {"osm_id": 480480362, "building": "yes", "name": "", "height": null, "height_m": null, "levels": null, "tract_id": "40109108529", "tract_name": "1085.29", "tags": {"building": "yes"}}}, {"type": "Feature", "geometry": {"type": "Polygon", "coordinates": [[[-97.6232605, 35.5933833], [-97.6236913, 35.5933795], [-97.6236888, 35.5932416], [-97.6236283, 35.5932423], [-97.6236289, 35.5932254], [-97.6235525, 35.5932259], [-97.6235532, 35.5932537], [-97.6234875, 35.5932543], [-97.6234881, 35.5932701], [-97.6234164, 35.5932706], [-97.623417, 35.5932428], [-97.6233419, 35.5932423], [-97.6233419, 35.5932679], [-97.6232628, 35.5932674], [-97.6232605, 35.5933833]]]}, "properties": {"osm_id": 480480363, "building": "yes", "name": "", "height": null, "height_m": null, "levels": null, "tract_id": "40109108529", "tract_name": "1085.29", "tags": {"building": "yes"}}}, {"type": "Feature", "geometry": {"type": "Polygon", "coordinates": [[[-97.6224686, 35.5933889], [-97.6224651, 35.5932399], [-97.6226286, 35.5932399], [-97.6226286, 35.5932266], [-97.6229625, 35.5932266], [-97.6229625, 35.5932636], [-97.6231936, 35.5932626], [-97.6231948, 35.593387], [-97.6229531, 35.5933861], [-97.6229543, 35.5933709], [-97.6226344, 35.5933709], [-97.6226356, 35.5933861], [-97.6224686, 35.5933889]]]}, "properties": {"osm_id": 480480364, "building": "yes", "name": "", "height": null, "height_m": null, "levels": null, "tract_id": "40109108529", "tract_name": "1085.29", "tags": {"building": "yes"}}}, {"type": "Feature", "geometry": {"type": "Polygon", "coordinates": [[[-97.622165, 35.5943461], [-97.6221627, 35.5941553], [-97.6216711, 35.5941562], [-97.6216758, 35.5943461], [-97.622165, 35.5943461]]]}, "properties": {"osm_id": 480480372, "building": "yes", "name": "", "height": null, "height_m": null, "levels": null, "tract_id": "40109108529", "tract_name": "1085.29", "tags": {"building": "yes"}}}, {"type": "Feature", "geometry": {"type": "Polygon", "coordinates": [[[-97.6215065, 35.5944287], [-97.6215054, 35.5943252], [-97.6215672, 35.5943252], [-97.6215672, 35.5941164], [-97.6212905, 35.5941154], [-97.621294, 35.5943224], [-97.6213804, 35.5943214], [-97.6213816, 35.5944287], [-97.6215065, 35.5944287]]]}, "properties": {"osm_id": 480480373, "building": "yes", "name": "", "height": null, "height_m": null, "levels": null, "tract_id": "40109108529", "tract_name": "1085.29", "tags": {"building": "yes"}}}, {"type": "Feature", "geometry": {"type": "Polygon", "coordinates": [[[-97.6381405, 35.5833016], [-97.6377543, 35.5833016], [-97.6377516, 35.5832209], [-97.6372688, 35.5832165], [-97.6372554, 35.582922], [-97.6372554, 35.5827475], [-97.6373064, 35.5827475], [-97.6373037, 35.5826974], [-97.6378696, 35.582693], [-97.6378777, 35.5827192], [-97.6380735, 35.5827192], [-97.6380789, 35.5831467], [-97.6381379, 35.5831424], [-97.6381405, 35.5833016]]]}, "properties": {"osm_id": 567269129, "building": "yes", "name": "Crest", "height": null, "height_m": null, "levels": null, "tract_id": "40109108529", "tract_name": "1085.29", "tags": {"building": "yes", "name": "Crest", "shop": "supermarket"}}}, {"type": "Feature", "geometry": {"type": "Polygon", "coordinates": [[[-97.6380477, 35.5817327], [-97.6379825, 35.5817315], [-97.6379825, 35.58172], [-97.6379293, 35.5817211], [-97.6379293, 35.5817309], [-97.6379002, 35.5817321], [-97.6379002, 35.5817171], [-97.6378145, 35.5817194], [-97.6378159, 35.5816007], [-97.6380455, 35.5815989], [-97.6380455, 35.5816128], [-97.6380746, 35.5816116], [-97.6380732, 35.581637], [-97.6380881, 35.5816352], [-97.6380902, 35.5816923], [-97.6380746, 35.581694], [-97.638076, 35.5817177], [-97.6380463, 35.5817177], [-97.6380477, 35.5817327]]]}, "properties": {"osm_id": 567269133, "building": "yes", "name": "Mazzios Pizza", "height": null, "height_m": null, "levels": null, "tract_id": "40109108529", "tract_name": "1085.29", "tags": {"building": "yes", "name": "Mazzios Pizza"}}}, {"type": "Feature", "geometry": {"type": "Polygon", "coordinates": [[[-97.6379741, 35.5813124], [-97.637748, 35.5813124], [-97.6377466, 35.5812922], [-97.6377121, 35.5812911], [-97.6377135, 35.5812429], [-97.6377487, 35.5812404], [-97.6377481, 35.5812281], [-97.6377064, 35.5812278], [-97.637704, 35.5811629], [-97.6377487, 35.5811611], [-97.6377481, 35.5811438], [-97.6379674, 35.5811403], [-97.6379741, 35.5813124]]]}, "properties": {"osm_id": 567281259, "building": "yes", "name": "McDonald's", "height": null, "height_m": null, "levels": null, "tract_id": "40109108529", "tract_name": "1085.29", "tags": {"addr:city": "Oklahoma City", "addr:housenumber": "11000", "addr:postcode": "73132", "addr:state": "OK", "addr:street": "North Rockwell", "amenity": "fast_food", "brand": "McDonald's", "brand:wikidata": "Q38076", "building": "yes", "cuisine": "burger", "drive_through": "yes", "internet_access": "wlan", "name": "McDonald's", "opening_hours": "06:00-22:00", "phone": "+1 405-721-2100", "takeaway": "yes", "website": "https://www.mcdonalds.com/us/en-us/location/7387.html"}}}, {"type": "Feature", "geometry": {"type": "Polygon", "coordinates": [[[-97.6379849, 35.5804892], [-97.6378388, 35.5804881], [-97.6378319, 35.5803232], [-97.6379822, 35.580321], [-97.6379849, 35.5804892]]]}, "properties": {"osm_id": 567281262, "building": "yes", "name": "Bank of Oklahoma", "height": null, "height_m": null, "levels": null, "tract_id": "40109108529", "tract_name": "1085.29", "tags": {"amenity": "bank", "building": "yes", "name": "Bank of Oklahoma"}}}, {"type": "Feature", "geometry": {"type": "Polygon", "coordinates": [[[-97.6356323, 35.580963], [-97.6355101, 35.580961], [-97.6355064, 35.5805354], [-97.6356261, 35.5805314], [-97.6356323, 35.580963]]]}, "properties": {"osm_id": 567391409, "building": "yes", "name": "Christian Brothers Automotive", "height": null, "height_m": null, "levels": null, "tract_id": "40109108529", "tract_name": "1085.29", "tags": {"addr:city": "Oklahoma City", "addr:housenumber": "6801", "addr:postcode": "73162", "addr:state": "OK", "addr:street": "West Hefner Road", "building": "yes", "name": "Christian Brothers Automotive", "opening_hours": "Mo-Fr 07:00-18:00", "phone": "+1-405-384-4162", "shop": "car_repair", "website": "https://www.cbac.com/warwick/"}}}, {"type": "Feature", "geometry": {"type": "Polygon", "coordinates": [[[-97.636917, 35.5809118], [-97.6366307, 35.5809118], [-97.6366282, 35.580694], [-97.6369182, 35.580693], [-97.6369175, 35.5808155], [-97.636917, 35.5809118]]]}, "properties": {"osm_id": 567391410, "building": "yes", "name": "", "height": null, "height_m": null, "levels": null, "tract_id": "40109108529", "tract_name": "1085.29", "tags": {"building": "yes"}}}, {"type": "Feature", "geometry": {"type": "Polygon", "coordinates": [[[-97.6369083, 35.5811788], [-97.636759, 35.5811808], [-97.636759, 35.5811958], [-97.6367158, 35.5811948], [-97.6367121, 35.5811758], [-97.6366529, 35.5811758], [-97.6366517, 35.5810583], [-97.6367454, 35.5810594], [-97.6367442, 35.5810453], [-97.6367763, 35.5810453], [-97.6367775, 35.5810573], [-97.6369009, 35.5810563], [-97.6369083, 35.5811788]]]}, "properties": {"osm_id": 567391411, "building": "yes", "name": "Chuanyu Fusion", "height": null, "height_m": null, "levels": null, "tract_id": "40109108529", "tract_name": "1085.29", "tags": {"addr:city": "Oklahoma City", "addr:housenumber": "7011", "addr:postcode": "73162", "addr:state": "OK", "addr:street": "West Hefner Road", "amenity": "restaurant", "building": "yes", "cuisine": "asian", "name": "Chuanyu Fusion", "phone": "+1-405-367-7977", "website": "https://www.chuanyufusion1.com/"}}}, {"type": "Feature", "geometry": {"type": "Polygon", "coordinates": [[[-97.6376229, 35.5817438], [-97.6372662, 35.5817388], [-97.6372576, 35.5815552], [-97.6376167, 35.5815532], [-97.6376229, 35.5817438]]]}, "properties": {"osm_id": 567391412, "building": "yes", "name": "", "height": null, "height_m": null, "levels": null, "tract_id": "40109108529", "tract_name": "1085.29", "tags": {"building": "yes"}}}, {"type": "Feature", "geometry": {"type": "Polygon", "coordinates": [[[-97.6369318, 35.5821503], [-97.6366368, 35.5821493], [-97.6366344, 35.5820098], [-97.6367343, 35.5820088], [-97.6367331, 35.5819877], [-97.6367677, 35.5819887], [-97.6367677, 35.5820078], [-97.6367899, 35.5820098], [-97.6367899, 35.5819887], [-97.6368343, 35.5819857], [-97.6368355, 35.5820068], [-97.6369293, 35.5820068], [-97.6369318, 35.5821503]]]}, "properties": {"osm_id": 567391413, "building": "yes", "name": "", "height": null, "height_m": null, "levels": null, "tract_id": "40109108529", "tract_name": "1085.29", "tags": {"building": "yes"}}}, {"type": "Feature", "geometry": {"type": "Polygon", "coordinates": [[[-97.6360931, 35.5824658], [-97.6358383, 35.5824616], [-97.6358349, 35.5820263], [-97.6355492, 35.5818695], [-97.6355475, 35.5813081], [-97.6358521, 35.5813081], [-97.6358452, 35.5817617], [-97.6360845, 35.5818891], [-97.6360931, 35.5824658]]]}, "properties": {"osm_id": 567391414, "building": "yes", "name": "", "height": null, "height_m": null, "levels": null, "tract_id": "40109108529", "tract_name": "1085.29", "tags": {"building": "yes"}}}, {"type": "Feature", "geometry": {"type": "Polygon", "coordinates": [[[-97.6375027, 35.5834107], [-97.6375027, 35.5836053], [-97.6375613, 35.5836053], [-97.637563, 35.5836473], [-97.6376422, 35.5836459], [-97.6376387, 35.5836053], [-97.6377386, 35.5836011], [-97.6379399, 35.5835997], [-97.6379331, 35.5834149], [-97.6375027, 35.5834107]]]}, "properties": {"osm_id": 567391415, "building": "yes", "name": "", "height": null, "height_m": null, "levels": null, "tract_id": "40109108529", "tract_name": "1085.29", "tags": {"amenity": "clinic", "building": "yes", "healthcare": "clinic"}}}, {"type": "Feature", "geometry": {"type": "Polygon", "coordinates": [[[-97.637767, 35.587309], [-97.637972, 35.587309], [-97.637972, 35.587221], [-97.638025, 35.587221], [-97.638025, 35.587094], [-97.63797, 35.587093], [-97.63797, 35.587013], [-97.637766, 35.587012], [-97.637766, 35.587105], [-97.637714, 35.587105], [-97.637713, 35.58722], [-97.637767, 35.58722], [-97.637767, 35.587309]]]}, "properties": {"osm_id": 858326816, "building": "yes", "name": "", "height": null, "height_m": null, "levels": null, "tract_id": "40109108529", "tract_name": "1085.29", "tags": {"amenity": "childcare", "building": "yes", "source": "microsoft/BuildingFootprints"}}}, {"type": "Feature", "geometry": {"type": "Polygon", "coordinates": [[[-97.636625, 35.592153], [-97.636625, 35.59226], [-97.636794, 35.59226], [-97.636794, 35.592153], [-97.636625, 35.592153]]]}, "properties": {"osm_id": 858327056, "building": "yes", "name": "", "height": null, "height_m": null, "levels": null, "tract_id": "40109108529", "tract_name": "1085.29", "tags": {"building": "yes", "source": "microsoft/BuildingFootprints"}}}, {"type": "Feature", "geometry": {"type": "Polygon", "coordinates": [[[-97.635347, 35.591826], [-97.635403, 35.591827], [-97.635401, 35.591871], [-97.635466, 35.591872], [-97.635467, 35.591827], [-97.635558, 35.591829], [-97.635566, 35.591606], [-97.635502, 35.591605], [-97.6355, 35.591666], [-97.635411, 35.591664], [-97.635414, 35.591592], [-97.63531, 35.59159], [-97.635309, 35.591633], [-97.635353, 35.591634], [-97.635347, 35.591826]]]}, "properties": {"osm_id": 858327057, "building": "yes", "name": "", "height": null, "height_m": null, "levels": null, "tract_id": "40109108529", "tract_name": "1085.29", "tags": {"building": "yes", "source": "microsoft/BuildingFootprints"}}}, {"type": "Feature", "geometry": {"type": "Polygon", "coordinates": [[[-97.6357268, 35.586069], [-97.6355511, 35.5860675], [-97.6355516, 35.5860262], [-97.6355211, 35.586026], [-97.6355215, 35.5859975], [-97.635506, 35.5859974], [-97.6355077, 35.5858471], [-97.6356469, 35.5858481], [-97.6356462, 35.5859043], [-97.6357472, 35.5859051], [-97.6357463, 35.5859763], [-97.6356825, 35.5859758], [-97.6356823, 35.5859949], [-97.6356972, 35.5859985], [-97.6356969, 35.5860259], [-97.6357273, 35.5860262], [-97.6357268, 35.586069]]]}, "properties": {"osm_id": 1149675723, "building": "house", "name": "", "height": null, "height_m": null, "levels": null, "tract_id": "40109108529", "tract_name": "1085.29", "tags": {"addr:city": "Oklahoma City", "addr:housenumber": "11516", "addr:postcode": "73162", "addr:state": "OK", "addr:street": "Way Cross Road", "building": "house"}}}, {"type": "Feature", "geometry": {"type": "Polygon", "coordinates": [[[-97.6355143, 35.5856286], [-97.6356603, 35.5856304], [-97.6356608, 35.5856038], [-97.635748, 35.5856049], [-97.6357463, 35.5856968], [-97.6356759, 35.5856959], [-97.6356754, 35.5857203], [-97.6356897, 35.5857205], [-97.6356892, 35.5857491], [-97.6357152, 35.5857494], [-97.6357141, 35.5858058], [-97.6355036, 35.5858032], [-97.6355047, 35.5857455], [-97.6355606, 35.5857462], [-97.635561, 35.5857207], [-97.6355415, 35.5857204], [-97.6355419, 35.5857], [-97.635513, 35.5856996], [-97.6355143, 35.5856286]]]}, "properties": {"osm_id": 1149738777, "building": "house", "name": "", "height": null, "height_m": null, "levels": null, "tract_id": "40109108529", "tract_name": "1085.29", "tags": {"addr:city": "Oklahoma City", "addr:housenumber": "11508", "addr:postcode": "73162", "addr:state": "OK", "addr:street": "Way Cross Road", "building": "house"}}}, {"type": "Feature", "geometry": {"type": "Polygon", "coordinates": [[[-97.6357268, 35.5863433], [-97.6355375, 35.5863425], [-97.6355385, 35.5861827], [-97.6355138, 35.5861826], [-97.6355141, 35.5861275], [-97.6357578, 35.5861285], [-97.6357573, 35.5862115], [-97.6356954, 35.5862113], [-97.635695, 35.5862823], [-97.6357272, 35.5862824], [-97.6357268, 35.5863433]]]}, "properties": {"osm_id": 1150585883, "building": "house", "name": "", "height": null, "height_m": null, "levels": null, "tract_id": "40109108529", "tract_name": "1085.29", "tags": {"addr:city": "Oklahoma City", "addr:housenumber": "11600", "addr:postcode": "73162", "addr:state": "OK", "addr:street": "Way Cross Road", "building": "house"}}}, {"type": "Feature", "geometry": {"type": "Polygon", "coordinates": [[[-97.6357034, 35.5865985], [-97.6355179, 35.5865977], [-97.635519, 35.5864199], [-97.635491, 35.5864198], [-97.6354913, 35.5863642], [-97.6356348, 35.5863648], [-97.6356345, 35.5864197], [-97.6357566, 35.5864202], [-97.6357562, 35.5864934], [-97.6357041, 35.5864932], [-97.6357034, 35.5865985]]]}, "properties": {"osm_id": 1150585884, "building": "house", "name": "", "height": null, "height_m": null, "levels": null, "tract_id": "40109108529", "tract_name": "1085.29", "tags": {"addr:city": "Oklahoma City", "addr:housenumber": "11608", "addr:postcode": "73162", "addr:state": "OK", "addr:street": "Way Cross Road", "building": "house"}}}, {"type": "Feature", "geometry": {"type": "Polygon", "coordinates": [[[-97.6357421, 35.5868528], [-97.6354821, 35.5868518], [-97.6354826, 35.5867691], [-97.6356019, 35.5867695], [-97.6356027, 35.5866471], [-97.6357434, 35.5866477], [-97.6357421, 35.5868528]]]}, "properties": {"osm_id": 1150585885, "building": "house", "name": "", "height": null, "height_m": null, "levels": null, "tract_id": "40109108529", "tract_name": "1085.29", "tags": {"addr:city": "Oklahoma City", "addr:housenumber": "11616", "addr:postcode": "73162", "addr:state": "OK", "addr:street": "Way Cross Road", "building": "house"}}}, {"type": "Feature", "geometry": {"type": "Polygon", "coordinates": [[[-97.6363362, 35.5868163], [-97.636131, 35.5868154], [-97.6361316, 35.5867221], [-97.6360473, 35.5867218], [-97.6360479, 35.5866161], [-97.6363374, 35.5866173], [-97.6363362, 35.5868163]]]}, "properties": {"osm_id": 1150585886, "building": "house", "name": "", "height": null, "height_m": null, "levels": null, "tract_id": "40109108529", "tract_name": "1085.29", "tags": {"addr:city": "Oklahoma City", "addr:housenumber": "11617", "addr:postcode": "73162", "addr:state": "OK", "addr:street": "Way Cross Road", "building": "house"}}}, {"type": "Feature", "geometry": {"type": "Polygon", "coordinates": [[[-97.6362906, 35.5865812], [-97.6360818, 35.5865804], [-97.6360824, 35.5864756], [-97.6360426, 35.5864754], [-97.6360432, 35.5863751], [-97.6362919, 35.5863761], [-97.6362906, 35.5865812]]]}, "properties": {"osm_id": 1150585887, "building": "house", "name": "", "height": null, "height_m": null, "levels": null, "tract_id": "40109108529", "tract_name": "1085.29", "tags": {"addr:city": "Oklahoma City", "addr:housenumber": "11609", "addr:postcode": "73162", "addr:state": "OK", "addr:street": "Way Cross Road", "building": "house"}}}, {"type": "Feature", "geometry": {"type": "Polygon", "coordinates": [[[-97.6363074, 35.5863304], [-97.6360447, 35.5863293], [-97.6360451, 35.586266], [-97.6360934, 35.5862662], [-97.6360936, 35.5862346], [-97.6360453, 35.5862344], [-97.6360459, 35.5861363], [-97.6362444, 35.586137], [-97.6362459, 35.586137], [-97.6362456, 35.586202], [-97.6363082, 35.5862022], [-97.6363074, 35.5863304]]]}, "properties": {"osm_id": 1150585888, "building": "house", "name": "", "height": null, "height_m": null, "levels": null, "tract_id": "40109108529", "tract_name": "1085.29", "tags": {"addr:city": "Oklahoma City", "addr:housenumber": "11601", "addr:postcode": "73162", "addr:state": "OK", "addr:street": "Way Cross Road", "building": "house"}}}, {"type": "Feature", "geometry": {"type": "Polygon", "coordinates": [[[-97.6362379, 35.5860598], [-97.6360938, 35.5860593], [-97.6360944, 35.5859516], [-97.6360473, 35.5859514], [-97.6360479, 35.5858489], [-97.6361304, 35.5858492], [-97.6361302, 35.5858836], [-97.6362582, 35.5858841], [-97.6362577, 35.5859623], [-97.6362385, 35.5859622], [-97.6362379, 35.5860598]]]}, "properties": {"osm_id": 1150585889, "building": "house", "name": "", "height": null, "height_m": null, "levels": null, "tract_id": "40109108529", "tract_name": "1085.29", "tags": {"addr:city": "Oklahoma City", "addr:housenumber": "11517", "addr:postcode": "73162", "addr:state": "OK", "addr:street": "Way Cross Road", "building": "house"}}}, {"type": "Feature", "geometry": {"type": "Polygon", "coordinates": [[[-97.6362866, 35.5857987], [-97.6360845, 35.5857979], [-97.6360851, 35.5856969], [-97.636044, 35.5856967], [-97.6360445, 35.5856062], [-97.6362878, 35.5856072], [-97.6362866, 35.5857987]]]}, "properties": {"osm_id": 1150585890, "building": "house", "name": "", "height": null, "height_m": null, "levels": null, "tract_id": "40109108529", "tract_name": "1085.29", "tags": {"addr:city": "Oklahoma City", "addr:housenumber": "11509", "addr:postcode": "73162", "addr:state": "OK", "addr:street": "Way Cross Road", "building": "house"}}}, {"type": "Feature", "geometry": {"type": "Polygon", "coordinates": [[[-97.6357475, 35.5850271], [-97.6355349, 35.5850262], [-97.6355359, 35.5848658], [-97.6354937, 35.5848656], [-97.6354941, 35.5848036], [-97.6357072, 35.5848044], [-97.6357064, 35.5849342], [-97.6357481, 35.5849343], [-97.6357475, 35.5850271]]]}, "properties": {"osm_id": 1150585891, "building": "house", "name": "", "height": null, "height_m": null, "levels": null, "tract_id": "40109108529", "tract_name": "1085.29", "tags": {"addr:city": "Oklahoma City", "addr:housenumber": "11400", "addr:postcode": "73162", "addr:state": "OK", "addr:street": "Way Cross Road", "building": "house"}}}, {"type": "Feature", "geometry": {"type": "Polygon", "coordinates": [[[-97.6356958, 35.5852701], [-97.6355106, 35.5852701], [-97.6355106, 35.5851771], [-97.6355382, 35.5851771], [-97.6355382, 35.5851344], [-97.6355106, 35.5851344], [-97.6355106, 35.5850639], [-97.6357365, 35.5850639], [-97.6357365, 35.5851333], [-97.6356958, 35.5851333], [-97.6356958, 35.5852701]]]}, "properties": {"osm_id": 1150585892, "building": "house", "name": "", "height": null, "height_m": null, "levels": null, "tract_id": "40109108529", "tract_name": "1085.29", "tags": {"addr:city": "Oklahoma City", "addr:housenumber": "11408", "addr:postcode": "73162", "addr:state": "OK", "addr:street": "Way Cross Road", "building": "house"}}}, {"type": "Feature", "geometry": {"type": "Polygon", "coordinates": [[[-97.6357686, 35.585562], [-97.6356543, 35.5855622], [-97.6356543, 35.5855471], [-97.6355012, 35.5855474], [-97.6355009, 35.5854475], [-97.6355296, 35.5854474], [-97.6355293, 35.5853462], [-97.6356775, 35.5853459], [-97.6356779, 35.5854569], [-97.6357683, 35.5854567], [-97.6357686, 35.585562]]]}, "properties": {"osm_id": 1150585893, "building": "house", "name": "", "height": null, "height_m": null, "levels": null, "tract_id": "40109108529", "tract_name": "1085.29", "tags": {"addr:city": "Oklahoma City", "addr:housenumber": "11500", "addr:postcode": "73162", "addr:state": "OK", "addr:street": "Way Cross Road", "building": "house"}}}, {"type": "Feature", "geometry": {"type": "Polygon", "coordinates": [[[-97.6332618, 35.583252], [-97.6332618, 35.5831871], [-97.6332939, 35.5831871], [-97.6332939, 35.5830235], [-97.6333731, 35.5830235], [-97.6333731, 35.5830044], [-97.6334857, 35.5830044], [-97.6334857, 35.5830791], [-97.6334421, 35.5830791], [-97.6334421, 35.5832046], [-97.6334857, 35.5832046], [-97.6334857, 35.583252], [-97.6332618, 35.583252]]]}, "properties": {"osm_id": 1150592855, "building": "house", "name": "", "height": null, "height_m": null, "levels": null, "tract_id": "40109108529", "tract_name": "1085.29", "tags": {"addr:city": "Oklahoma City", "addr:postcode": "73162", "addr:state": "OK", "building": "house"}}}, {"type": "Feature", "geometry": {"type": "Polygon", "coordinates": [[[-97.6336225, 35.5822486], [-97.6338257, 35.5822486], [-97.6338257, 35.5823484], [-97.6338713, 35.5823484], [-97.6338713, 35.5824258], [-97.6337606, 35.5824258], [-97.6337606, 35.5824722], [-97.6336225, 35.5824722], [-97.6336225, 35.5822486]]]}, "properties": {"osm_id": 1150592856, "building": "house", "name": "", "height": null, "height_m": null, "levels": null, "tract_id": "40109108529", "tract_name": "1085.29", "tags": {"addr:city": "Oklahoma City", "addr:postcode": "73162", "addr:state": "OK", "building": "house"}}}, {"type": "Feature", "geometry": {"type": "Polygon", "coordinates": [[[-97.6338746, 35.5822306], [-97.6336601, 35.5822306], [-97.6336601, 35.5820637], [-97.6336198, 35.5820637], [-97.6336198, 35.5820113], [-97.6338304, 35.5820113], [-97.6338304, 35.5821373], [-97.6338746, 35.5821373], [-97.6338746, 35.5822306]]]}, "properties": {"osm_id": 1150592857, "building": "house", "name": "", "height": null, "height_m": null, "levels": null, "tract_id": "40109108529", "tract_name": "1085.29", "tags": {"addr:city": "Oklahoma City", "addr:postcode": "73162", "addr:state": "OK", "building": "house"}}}, {"type": "Feature", "geometry": {"type": "Polygon", "coordinates": [[[-97.6330385, 35.5815887], [-97.6331551, 35.5815887], [-97.6331551, 35.581653], [-97.6332658, 35.581653], [-97.6332691, 35.5818074], [-97.6332329, 35.581779], [-97.6331994, 35.5818008], [-97.633196, 35.5817616], [-97.6330988, 35.5818363], [-97.6330311, 35.5817823], [-97.6330525, 35.5817534], [-97.6330519, 35.5816907], [-97.6330385, 35.581689], [-97.6330385, 35.5815887]]]}, "properties": {"osm_id": 1150592858, "building": "yes", "name": "", "height": null, "height_m": null, "levels": null, "tract_id": "40109108529", "tract_name": "1085.29", "tags": {"building": "yes"}}}, {"type": "Feature", "geometry": {"type": "Polygon", "coordinates": [[[-97.63331, 35.5813367], [-97.6331927, 35.5813367], [-97.6331927, 35.5813018], [-97.6330606, 35.5813018], [-97.6330606, 35.5811442], [-97.6331283, 35.5811442], [-97.6331283, 35.5811704], [-97.63331, 35.5811704], [-97.63331, 35.5813367]]]}, "properties": {"osm_id": 1150592859, "building": "yes", "name": "", "height": null, "height_m": null, "levels": null, "tract_id": "40109108529", "tract_name": "1085.29", "tags": {"building": "yes"}}}, {"type": "Feature", "geometry": {"type": "Polygon", "coordinates": [[[-97.6333664, 35.5811592], [-97.6334327, 35.5811592], [-97.6334327, 35.5811764], [-97.6335796, 35.5811764], [-97.6335796, 35.5813018], [-97.6333664, 35.5813018], [-97.6333664, 35.5811592]]]}, "properties": {"osm_id": 1150592860, "building": "yes", "name": "", "height": null, "height_m": null, "levels": null, "tract_id": "40109108529", "tract_name": "1085.29", "tags": {"building": "yes"}}}, {"type": "Feature", "geometry": {"type": "Polygon", "coordinates": [[[-97.6335762, 35.5817834], [-97.6334576, 35.5817834], [-97.6334576, 35.5817485], [-97.6333228, 35.5817485], [-97.6333228, 35.5815794], [-97.6334388, 35.5815794], [-97.6334388, 35.5816209], [-97.6334998, 35.5816209], [-97.6334998, 35.5815947], [-97.6335762, 35.5815947], [-97.6335762, 35.5817834]]]}, "properties": {"osm_id": 1150592861, "building": "yes", "name": "", "height": null, "height_m": null, "levels": null, "tract_id": "40109108529", "tract_name": "1085.29", "tags": {"building": "yes"}}}, {"type": "Feature", "geometry": {"type": "Polygon", "coordinates": [[[-97.6338619, 35.5818286], [-97.6337948, 35.5818837], [-97.6337057, 35.5818156], [-97.6337075, 35.5818656], [-97.6336678, 35.5818659], [-97.6336681, 35.581894], [-97.6336245, 35.5818943], [-97.6336245, 35.5816918], [-97.6337472, 35.5816918], [-97.6337472, 35.581598], [-97.6338552, 35.581598], [-97.6338619, 35.5818286]]]}, "properties": {"osm_id": 1150592862, "building": "yes", "name": "", "height": null, "height_m": null, "levels": null, "tract_id": "40109108529", "tract_name": "1085.29", "tags": {"building": "yes"}}}, {"type": "Feature", "geometry": {"type": "Polygon", "coordinates": [[[-97.6351306, 35.5807636], [-97.6351306, 35.5806278], [-97.6353036, 35.5806278], [-97.6353036, 35.5805716], [-97.6353854, 35.5805716], [-97.6353854, 35.5807434], [-97.6352151, 35.5807434], [-97.6352151, 35.5807636], [-97.6351306, 35.5807636]]]}, "properties": {"osm_id": 1150592863, "building": "yes", "name": "", "height": null, "height_m": null, "levels": null, "tract_id": "40109108529", "tract_name": "1085.29", "tags": {"building": "yes"}}}, {"type": "Feature", "geometry": {"type": "Polygon", "coordinates": [[[-97.6350836, 35.5807734], [-97.6349697, 35.5807734], [-97.6349697, 35.5807063], [-97.6349046, 35.5807063], [-97.6349046, 35.5807314], [-97.6348127, 35.5807314], [-97.6348127, 35.5805869], [-97.6350836, 35.5805869], [-97.6350836, 35.5807734]]]}, "properties": {"osm_id": 1150592864, "building": "yes", "name": "", "height": null, "height_m": null, "levels": null, "tract_id": "40109108529", "tract_name": "1085.29", "tags": {"building": "yes"}}}, {"type": "Feature", "geometry": {"type": "Polygon", "coordinates": [[[-97.6351319, 35.5810133], [-97.6351319, 35.5810673], [-97.6351071, 35.5810673], [-97.6351071, 35.5811933], [-97.6350877, 35.5811933], [-97.6350877, 35.5812413], [-97.6348704, 35.5812413], [-97.6348704, 35.5811322], [-97.634918, 35.5811322], [-97.634918, 35.5810133], [-97.6351319, 35.5810133]]]}, "properties": {"osm_id": 1150592865, "building": "yes", "name": "", "height": null, "height_m": null, "levels": null, "tract_id": "40109108529", "tract_name": "1085.29", "tags": {"building": "yes"}}}, {"type": "Feature", "geometry": {"type": "Polygon", "coordinates": [[[-97.6351212, 35.5814834], [-97.6349381, 35.5814834], [-97.6349381, 35.5814431], [-97.634908, 35.5814431], [-97.634908, 35.5812751], [-97.6351212, 35.5812751], [-97.6351212, 35.5813542], [-97.635093, 35.5813542], [-97.635093, 35.5813967], [-97.6351212, 35.5813967], [-97.6351212, 35.5814834]]]}, "properties": {"osm_id": 1150592866, "building": "yes", "name": "", "height": null, "height_m": null, "levels": null, "tract_id": "40109108529", "tract_name": "1085.29", "tags": {"building": "yes"}}}, {"type": "Feature", "geometry": {"type": "Polygon", "coordinates": [[[-97.6352003, 35.5817365], [-97.6350045, 35.5817365], [-97.6350045, 35.5815647], [-97.634979, 35.5815647], [-97.634979, 35.5815031], [-97.6352003, 35.5815031], [-97.6352003, 35.5815647], [-97.6351427, 35.5815647], [-97.6351427, 35.5816634], [-97.6352003, 35.5816634], [-97.6352003, 35.5817365]]]}, "properties": {"osm_id": 1150592867, "building": "yes", "name": "", "height": null, "height_m": null, "levels": null, "tract_id": "40109108529", "tract_name": "1085.29", "tags": {"building": "yes"}}}, {"type": "Feature", "geometry": {"type": "Polygon", "coordinates": [[[-97.6349106, 35.5819241], [-97.6348168, 35.5819241], [-97.6348168, 35.5819006], [-97.6346773, 35.5819006], [-97.6346773, 35.5817654], [-97.6347229, 35.5817654], [-97.6347229, 35.5817496], [-97.6349106, 35.5817496], [-97.6349106, 35.5819241]]]}, "properties": {"osm_id": 1150592868, "building": "yes", "name": "", "height": null, "height_m": null, "levels": null, "tract_id": "40109108529", "tract_name": "1085.29", "tags": {"building": "yes"}}}, {"type": "Feature", "geometry": {"type": "Polygon", "coordinates": [[[-97.6343943, 35.5822273], [-97.6341569, 35.5822273], [-97.6341569, 35.5820102], [-97.6342542, 35.5820102], [-97.6342542, 35.5820582], [-97.6343943, 35.5820582], [-97.6343943, 35.5822273]]]}, "properties": {"osm_id": 1150592869, "building": "house", "name": "", "height": null, "height_m": null, "levels": null, "tract_id": "40109108529", "tract_name": "1085.29", "tags": {"addr:city": "Oklahoma City", "addr:postcode": "73162", "addr:state": "OK", "building": "house"}}}, {"type": "Feature", "geometry": {"type": "Polygon", "coordinates": [[[-97.634735, 35.5820615], [-97.634735, 35.5822284], [-97.6344761, 35.5822284], [-97.6344761, 35.5820931], [-97.634517, 35.5820931], [-97.634517, 35.5820615], [-97.634735, 35.5820615]]]}, "properties": {"osm_id": 1150592870, "building": "house", "name": "", "height": null, "height_m": null, "levels": null, "tract_id": "40109108529", "tract_name": "1085.29", "tags": {"addr:city": "Oklahoma City", "addr:postcode": "73162", "addr:state": "OK", "building": "house"}}}, {"type": "Feature", "geometry": {"type": "Polygon", "coordinates": [[[-97.634979, 35.582224], [-97.6348878, 35.582224], [-97.6348878, 35.5821815], [-97.6348148, 35.5821815], [-97.6348148, 35.5821635], [-97.6347658, 35.5821635], [-97.6347658, 35.5820473], [-97.6348449, 35.5820473], [-97.6348449, 35.5820212], [-97.634979, 35.5820212], [-97.634979, 35.582224]]]}, "properties": {"osm_id": 1150592871, "building": "house", "name": "", "height": null, "height_m": null, "levels": null, "tract_id": "40109108529", "tract_name": "1085.29", "tags": {"addr:city": "Oklahoma City", "addr:postcode": "73162", "addr:state": "OK", "building": "house"}}}, {"type": "Feature", "geometry": {"type": "Polygon", "coordinates": [[[-97.6350709, 35.5821728], [-97.6350709, 35.5820168], [-97.6351051, 35.5820173], [-97.635148, 35.5819868], [-97.635195, 35.5820321], [-97.6352486, 35.5820332], [-97.6352473, 35.582019], [-97.6353177, 35.5820168], [-97.6353177, 35.5821728], [-97.6350709, 35.5821728]]]}, "properties": {"osm_id": 1150592872, "building": "house", "name": "", "height": null, "height_m": null, "levels": null, "tract_id": "40109108529", "tract_name": "1085.29", "tags": {"addr:city": "Oklahoma City", "addr:postcode": "73162", "addr:state": "OK", "building": "house"}}}, {"type": "Feature", "geometry": {"type": "Polygon", "coordinates": [[[-97.6350796, 35.5826854], [-97.6350796, 35.5825305], [-97.635199, 35.5825305], [-97.635199, 35.5825638], [-97.6352674, 35.5825638], [-97.6352674, 35.5825305], [-97.6353143, 35.5825305], [-97.6353143, 35.5826854], [-97.6350796, 35.5826854]]]}, "properties": {"osm_id": 1150592873, "building": "house", "name": "", "height": null, "height_m": null, "levels": null, "tract_id": "40109108529", "tract_name": "1085.29", "tags": {"addr:city": "Oklahoma City", "addr:postcode": "73162", "addr:state": "OK", "building": "house"}}}, {"type": "Feature", "geometry": {"type": "Polygon", "coordinates": [[[-97.6347792, 35.5826668], [-97.6347792, 35.5825191], [-97.6349227, 35.5825191], [-97.6349227, 35.5824716], [-97.6350394, 35.5824716], [-97.6350394, 35.5825403], [-97.6350072, 35.5825403], [-97.6350072, 35.5826668], [-97.6347792, 35.5826668]]]}, "properties": {"osm_id": 1150592874, "building": "house", "name": "", "height": null, "height_m": null, "levels": null, "tract_id": "40109108529", "tract_name": "1085.29", "tags": {"addr:city": "Oklahoma City", "addr:postcode": "73162", "addr:state": "OK", "building": "house"}}}, {"type": "Feature", "geometry": {"type": "Polygon", "coordinates": [[[-97.6344801, 35.5826385], [-97.6344801, 35.5824847], [-97.6346062, 35.5824847], [-97.6346062, 35.5824705], [-97.6347175, 35.5824705], [-97.6347175, 35.5825463], [-97.6346961, 35.5825463], [-97.6346961, 35.5826385], [-97.6344801, 35.5826385]]]}, "properties": {"osm_id": 1150592875, "building": "house", "name": "", "height": null, "height_m": null, "levels": null, "tract_id": "40109108529", "tract_name": "1085.29", "tags": {"addr:city": "Oklahoma City", "addr:postcode": "73162", "addr:state": "OK", "building": "house"}}}, {"type": "Feature", "geometry": {"type": "Polygon", "coordinates": [[[-97.6341489, 35.582476], [-97.6342341, 35.582476], [-97.6342341, 35.582494], [-97.6343434, 35.582494], [-97.6343434, 35.582476], [-97.6344332, 35.582476], [-97.6344332, 35.5826319], [-97.6341905, 35.5826319], [-97.6341905, 35.582579], [-97.6341489, 35.582579], [-97.6341489, 35.582476]]]}, "properties": {"osm_id": 1150592876, "building": "house", "name": "", "height": null, "height_m": null, "levels": null, "tract_id": "40109108529", "tract_name": "1085.29", "tags": {"addr:city": "Oklahoma City", "addr:postcode": "73162", "addr:state": "OK", "building": "house"}}}, {"type": "Feature", "geometry": {"type": "Polygon", "coordinates": [[[-97.6336285, 35.5825392], [-97.6338686, 35.5825392], [-97.6338686, 35.5826009], [-97.633827, 35.5826009], [-97.633827, 35.5826358], [-97.6338686, 35.5826358], [-97.6338686, 35.5827279], [-97.6336594, 35.5827279], [-97.6336594, 35.5826521], [-97.6336285, 35.5826521], [-97.6336285, 35.5825392]]]}, "properties": {"osm_id": 1150592877, "building": "house", "name": "", "height": null, "height_m": null, "levels": null, "tract_id": "40109108529", "tract_name": "1085.29", "tags": {"addr:city": "Oklahoma City", "addr:postcode": "73162", "addr:state": "OK", "building": "house"}}}, {"type": "Feature", "geometry": {"type": "Polygon", "coordinates": [[[-97.633874, 35.5829646], [-97.6336259, 35.5829646], [-97.6336259, 35.5828757], [-97.6336829, 35.5828757], [-97.6336829, 35.5828468], [-97.6336259, 35.5828468], [-97.6336259, 35.5827988], [-97.6338398, 35.5827988], [-97.6338398, 35.5828708], [-97.633874, 35.5828708], [-97.633874, 35.5829646]]]}, "properties": {"osm_id": 1150592878, "building": "house", "name": "", "height": null, "height_m": null, "levels": null, "tract_id": "40109108529", "tract_name": "1085.29", "tags": {"addr:city": "Oklahoma City", "addr:postcode": "73162", "addr:state": "OK", "building": "house"}}}, {"type": "Feature", "geometry": {"type": "Polygon", "coordinates": [[[-97.6336748, 35.5832493], [-97.6336748, 35.5830922], [-97.6336607, 35.5830922], [-97.6336607, 35.5830257], [-97.6337935, 35.5830257], [-97.6337935, 35.5830437], [-97.6338927, 35.5830437], [-97.6338927, 35.5831184], [-97.6338713, 35.5831184], [-97.6338713, 35.5832493], [-97.6336748, 35.5832493]]]}, "properties": {"osm_id": 1150592879, "building": "house", "name": "", "height": null, "height_m": null, "levels": null, "tract_id": "40109108529", "tract_name": "1085.29", "tags": {"addr:city": "Oklahoma City", "addr:postcode": "73162", "addr:state": "OK", "building": "house"}}}, {"type": "Feature", "geometry": {"type": "Polygon", "coordinates": [[[-97.6341489, 35.5829886], [-97.6341489, 35.5828463], [-97.6343179, 35.5828463], [-97.6343179, 35.5828065], [-97.6343943, 35.5828065], [-97.6343943, 35.5828452], [-97.6344265, 35.5828452], [-97.6344265, 35.5829346], [-97.6343534, 35.5829346], [-97.6343534, 35.5829886], [-97.6341489, 35.5829886]]]}, "properties": {"osm_id": 1150592880, "building": "house", "name": "", "height": null, "height_m": null, "levels": null, "tract_id": "40109108529", "tract_name": "1085.29", "tags": {"addr:city": "Oklahoma City", "addr:postcode": "73162", "addr:state": "OK", "building": "house"}}}, {"type": "Feature", "geometry": {"type": "Polygon", "coordinates": [[[-97.6347457, 35.582801], [-97.6347457, 35.5829073], [-97.6346941, 35.5829073], [-97.6346941, 35.5829919], [-97.6346022, 35.5829919], [-97.6346022, 35.5829564], [-97.6345405, 35.5829564], [-97.6345405, 35.5829766], [-97.6344788, 35.5829766], [-97.6344788, 35.5828234], [-97.634574, 35.5828234], [-97.634574, 35.582801], [-97.6347457, 35.582801]]]}, "properties": {"osm_id": 1150592881, "building": "house", "name": "", "height": null, "height_m": null, "levels": null, "tract_id": "40109108529", "tract_name": "1085.29", "tags": {"addr:city": "Oklahoma City", "addr:postcode": "73162", "addr:state": "OK", "building": "house"}}}, {"type": "Feature", "geometry": {"type": "Polygon", "coordinates": [[[-97.6347792, 35.5828021], [-97.6350515, 35.5828021], [-97.6350515, 35.582909], [-97.6349878, 35.582909], [-97.6349878, 35.5829875], [-97.6349039, 35.5829875], [-97.6349039, 35.5829695], [-97.6347792, 35.5829695], [-97.6347792, 35.5828021]]]}, "properties": {"osm_id": 1150592882, "building": "house", "name": "", "height": null, "height_m": null, "levels": null, "tract_id": "40109108529", "tract_name": "1085.29", "tags": {"addr:city": "Oklahoma City", "addr:postcode": "73162", "addr:state": "OK", "building": "house"}}}, {"type": "Feature", "geometry": {"type": "Polygon", "coordinates": [[[-97.6350863, 35.5829253], [-97.6350863, 35.582771], [-97.6351487, 35.582771], [-97.6351487, 35.5827912], [-97.6352104, 35.5827912], [-97.6352104, 35.5827825], [-97.6353747, 35.5827825], [-97.6353747, 35.582885], [-97.6352701, 35.582885], [-97.6352701, 35.5829253], [-97.6350863, 35.5829253]]]}, "properties": {"osm_id": 1150592883, "building": "house", "name": "", "height": null, "height_m": null, "levels": null, "tract_id": "40109108529", "tract_name": "1085.29", "tags": {"addr:city": "Oklahoma City", "addr:postcode": "73162", "addr:state": "OK", "building": "house"}}}, {"type": "Feature", "geometry": {"type": "Polygon", "coordinates": [[[-97.634806, 35.5834271], [-97.634806, 35.5833153], [-97.6348637, 35.5833153], [-97.6348637, 35.5832405], [-97.6349556, 35.5832405], [-97.6349556, 35.583264], [-97.6350662, 35.583264], [-97.6350662, 35.5834271], [-97.634806, 35.5834271]]]}, "properties": {"osm_id": 1150592884, "building": "house", "name": "", "height": null, "height_m": null, "levels": null, "tract_id": "40109108529", "tract_name": "1085.29", "tags": {"addr:city": "Oklahoma City", "addr:postcode": "73162", "addr:state": "OK", "building": "house"}}}, {"type": "Feature", "geometry": {"type": "Polygon", "coordinates": [[[-97.6344895, 35.5832373], [-97.6346129, 35.5832373], [-97.6346129, 35.5832624], [-97.6347591, 35.5832624], [-97.6347591, 35.5834161], [-97.6345184, 35.5834161], [-97.6345184, 35.5833153], [-97.6344895, 35.5833153], [-97.6344895, 35.5832373]]]}, "properties": {"osm_id": 1150592885, "building": "house", "name": "", "height": null, "height_m": null, "levels": null, "tract_id": "40109108529", "tract_name": "1085.29", "tags": {"addr:city": "Oklahoma City", "addr:postcode": "73162", "addr:state": "OK", "building": "house"}}}, {"type": "Feature", "geometry": {"type": "Polygon", "coordinates": [[[-97.6344118, 35.5834489], [-97.634216, 35.5834489], [-97.634216, 35.5834238], [-97.6341543, 35.5834238], [-97.6341543, 35.5833207], [-97.6342005, 35.5833207], [-97.6342005, 35.5832411], [-97.634289, 35.5832411], [-97.634289, 35.5832918], [-97.6344118, 35.5832918], [-97.6344118, 35.5834489]]]}, "properties": {"osm_id": 1150592886, "building": "house", "name": "", "height": null, "height_m": null, "levels": null, "tract_id": "40109108529", "tract_name": "1085.29", "tags": {"addr:city": "Oklahoma City", "addr:postcode": "73162", "addr:state": "OK", "building": "house"}}}, {"type": "Feature", "geometry": {"type": "Polygon", "coordinates": [[[-97.6336674, 35.583294], [-97.6338767, 35.583294], [-97.6338767, 35.5834914], [-97.6336674, 35.5834914], [-97.6336674, 35.583294]]]}, "properties": {"osm_id": 1150592887, "building": "house", "name": "", "height": null, "height_m": null, "levels": null, "tract_id": "40109108529", "tract_name": "1085.29", "tags": {"addr:city": "Oklahoma City", "addr:postcode": "73162", "addr:state": "OK", "building": "house"}}}, {"type": "Feature", "geometry": {"type": "Polygon", "coordinates": [[[-97.6332383, 35.5837706], [-97.6332383, 35.5835732], [-97.6333704, 35.5835732], [-97.6333704, 35.5836043], [-97.6334388, 35.5836043], [-97.6334388, 35.5835732], [-97.6335052, 35.5835732], [-97.6335052, 35.5837597], [-97.6334334, 35.5837597], [-97.6334334, 35.5837221], [-97.6333543, 35.5837221], [-97.6333543, 35.5837706], [-97.6332383, 35.5837706]]]}, "properties": {"osm_id": 1150592888, "building": "house", "name": "", "height": null, "height_m": null, "levels": null, "tract_id": "40109108529", "tract_name": "1085.29", "tags": {"addr:city": "Oklahoma City", "addr:postcode": "73162", "addr:state": "OK", "building": "house"}}}, {"type": "Feature", "geometry": {"type": "Polygon", "coordinates": [[[-97.6336379, 35.5835558], [-97.63377, 35.5835558], [-97.63377, 35.5836027], [-97.6338767, 35.5836027], [-97.6338767, 35.5836763], [-97.633827, 35.5836763], [-97.633827, 35.5837232], [-97.6338505, 35.5837232], [-97.6338505, 35.5837673], [-97.6336379, 35.5837673], [-97.6336379, 35.5835558]]]}, "properties": {"osm_id": 1150592889, "building": "house", "name": "", "height": null, "height_m": null, "levels": null, "tract_id": "40109108529", "tract_name": "1085.29", "tags": {"addr:city": "Oklahoma City", "addr:postcode": "73162", "addr:state": "OK", "building": "house"}}}, {"type": "Feature", "geometry": {"type": "Polygon", "coordinates": [[[-97.6343903, 35.5837499], [-97.6341952, 35.5837499], [-97.6341952, 35.5836245], [-97.6341663, 35.5836245], [-97.6341663, 35.5835405], [-97.6343715, 35.5835405], [-97.6343715, 35.5836861], [-97.6343903, 35.5836861], [-97.6343903, 35.5837499]]]}, "properties": {"osm_id": 1150592890, "building": "house", "name": "", "height": null, "height_m": null, "levels": null, "tract_id": "40109108529", "tract_name": "1085.29", "tags": {"addr:city": "Oklahoma City", "addr:postcode": "73162", "addr:state": "OK", "building": "house"}}}, {"type": "Feature", "geometry": {"type": "Polygon", "coordinates": [[[-97.634735, 35.5835732], [-97.634735, 35.5837673], [-97.6346216, 35.5837673], [-97.6346216, 35.5837226], [-97.6345244, 35.5837226], [-97.6345244, 35.5835732], [-97.634735, 35.5835732]]]}, "properties": {"osm_id": 1150592891, "building": "house", "name": "", "height": null, "height_m": null, "levels": null, "tract_id": "40109108529", "tract_name": "1085.29", "tags": {"addr:city": "Oklahoma City", "addr:postcode": "73162", "addr:state": "OK", "building": "house"}}}, {"type": "Feature", "geometry": {"type": "Polygon", "coordinates": [[[-97.6350541, 35.5835634], [-97.6350541, 35.5837341], [-97.6349341, 35.5837341], [-97.6349341, 35.5837597], [-97.6348114, 35.5837597], [-97.6348114, 35.5836894], [-97.6348369, 35.5836894], [-97.6348369, 35.5835634], [-97.6350541, 35.5835634]]]}, "properties": {"osm_id": 1150592892, "building": "house", "name": "", "height": null, "height_m": null, "levels": null, "tract_id": "40109108529", "tract_name": "1085.29", "tags": {"addr:city": "Oklahoma City", "addr:postcode": "73162", "addr:state": "OK", "building": "house"}}}, {"type": "Feature", "geometry": {"type": "Polygon", "coordinates": [[[-97.6351038, 35.5835721], [-97.6353626, 35.5835721], [-97.6353626, 35.5837575], [-97.635256, 35.5837575], [-97.635256, 35.5837117], [-97.6351728, 35.5837117], [-97.6351728, 35.5837439], [-97.6351038, 35.5837439], [-97.6351038, 35.5835721]]]}, "properties": {"osm_id": 1150592893, "building": "house", "name": "", "height": null, "height_m": null, "levels": null, "tract_id": "40109108529", "tract_name": "1085.29", "tags": {"addr:city": "Oklahoma City", "addr:postcode": "73162", "addr:state": "OK", "building": "house"}}}, {"type": "Feature", "geometry": {"type": "Polygon", "coordinates": [[[-97.6354136, 35.5837619], [-97.6354136, 35.5836828], [-97.6354417, 35.5836828], [-97.6354417, 35.5836059], [-97.6354954, 35.5836059], [-97.6354954, 35.5836196], [-97.6355758, 35.5836196], [-97.6355758, 35.5836059], [-97.6356308, 35.5836059], [-97.6356308, 35.5837619], [-97.6354136, 35.5837619]]]}, "properties": {"osm_id": 1150592894, "building": "house", "name": "", "height": null, "height_m": null, "levels": null, "tract_id": "40109108529", "tract_name": "1085.29", "tags": {"addr:city": "Oklahoma City", "addr:postcode": "73162", "addr:state": "OK", "building": "house"}}}, {"type": "Feature", "geometry": {"type": "Polygon", "coordinates": [[[-97.636009, 35.5832329], [-97.636009, 35.5827475], [-97.6372554, 35.5827475], [-97.6372554, 35.582922], [-97.6372554, 35.5829242], [-97.6370162, 35.5829242], [-97.6370162, 35.5831315], [-97.6367895, 35.5831315], [-97.6367895, 35.5829253], [-97.6362115, 35.5829253], [-97.6362115, 35.5832329], [-97.636009, 35.5832329]]]}, "properties": {"osm_id": 1150592895, "building": "yes", "name": "", "height": null, "height_m": null, "levels": null, "tract_id": "40109108529", "tract_name": "1085.29", "tags": {"building": "yes"}}}, {"type": "Feature", "geometry": {"type": "Polygon", "coordinates": [[[-97.6363134, 35.5834281], [-97.6363134, 35.5835907], [-97.6362551, 35.5835907], [-97.6362551, 35.5836348], [-97.6361632, 35.5836348], [-97.6361632, 35.5836474], [-97.6360358, 35.5836474], [-97.6360358, 35.5834947], [-97.6361471, 35.5834947], [-97.6361471, 35.5834281], [-97.6363134, 35.5834281]]]}, "properties": {"osm_id": 1150592896, "building": "yes", "name": "", "height": null, "height_m": null, "levels": null, "tract_id": "40109108529", "tract_name": "1085.29", "tags": {"building": "yes"}}}, {"type": "Feature", "geometry": {"type": "Polygon", "coordinates": [[[-97.6363456, 35.5834576], [-97.6366058, 35.5834576], [-97.6366058, 35.5834734], [-97.636701, 35.5834734], [-97.636701, 35.5836179], [-97.6363456, 35.5836179], [-97.6363456, 35.5834576]]]}, "properties": {"osm_id": 1150592897, "building": "yes", "name": "", "height": null, "height_m": null, "levels": null, "tract_id": "40109108529", "tract_name": "1085.29", "tags": {"building": "yes"}}}, {"type": "Feature", "geometry": {"type": "Polygon", "coordinates": [[[-97.6368311, 35.5834423], [-97.6370819, 35.5834423], [-97.6370819, 35.5835939], [-97.63699, 35.5835939], [-97.63699, 35.5836092], [-97.636925, 35.5836092], [-97.636925, 35.5835928], [-97.6369008, 35.5835928], [-97.6369008, 35.5835857], [-97.6368747, 35.5835857], [-97.6368747, 35.5835552], [-97.6368311, 35.5835552], [-97.6368311, 35.5834423]]]}, "properties": {"osm_id": 1150592898, "building": "yes", "name": "", "height": null, "height_m": null, "levels": null, "tract_id": "40109108529", "tract_name": "1085.29", "tags": {"building": "yes"}}}, {"type": "Feature", "geometry": {"type": "Polygon", "coordinates": [[[-97.6329406, 35.5842483], [-97.6329406, 35.5840853], [-97.633068, 35.5840853], [-97.633068, 35.5840378], [-97.6331766, 35.5840378], [-97.6331766, 35.5841185], [-97.6331498, 35.5841185], [-97.6331498, 35.5842363], [-97.6330143, 35.5842363], [-97.6330143, 35.5842483], [-97.6329406, 35.5842483]]]}, "properties": {"osm_id": 1150592899, "building": "house", "name": "", "height": null, "height_m": null, "levels": null, "tract_id": "40109108529", "tract_name": "1085.29", "tags": {"addr:city": "Oklahoma City", "addr:postcode": "73162", "addr:state": "OK", "building": "house"}}}, {"type": "Feature", "geometry": {"type": "Polygon", "coordinates": [[[-97.6332638, 35.5841982], [-97.6332638, 35.5840422], [-97.6333576, 35.5840422], [-97.6333576, 35.5840629], [-97.6334891, 35.5840629], [-97.6334891, 35.5841982], [-97.6332638, 35.5841982]]]}, "properties": {"osm_id": 1150592900, "building": "house", "name": "", "height": null, "height_m": null, "levels": null, "tract_id": "40109108529", "tract_name": "1085.29", "tags": {"addr:city": "Oklahoma City", "addr:postcode": "73162", "addr:state": "OK", "building": "house"}}}, {"type": "Feature", "geometry": {"type": "Polygon", "coordinates": [[[-97.6338793, 35.5859574], [-97.6338793, 35.5860455], [-97.6338559, 35.5860455], [-97.6338559, 35.5860643], [-97.6338793, 35.5860643], [-97.6338793, 35.586133], [-97.6337077, 35.586133], [-97.6337077, 35.5860435], [-97.6336902, 35.5860435], [-97.6336902, 35.5859838], [-97.6337704, 35.5859838], [-97.6337704, 35.5859574], [-97.6338793, 35.5859574]]]}, "properties": {"osm_id": 1150592901, "building": "house", "name": "", "height": null, "height_m": null, "levels": null, "tract_id": "40109108529", "tract_name": "1085.29", "tags": {"addr:city": "Oklahoma City", "addr:postcode": "73162", "addr:state": "OK", "building": "house"}}}, {"type": "Feature", "geometry": {"type": "Polygon", "coordinates": [[[-97.6336688, 35.5857196], [-97.6338545, 35.5857196], [-97.6338545, 35.5857583], [-97.6338458, 35.5857583], [-97.6338458, 35.5857695], [-97.6338341, 35.5857695], [-97.6338341, 35.5858161], [-97.633872, 35.5858161], [-97.633872, 35.5858425], [-97.6338834, 35.5858425], [-97.6338834, 35.5859083], [-97.633701, 35.5859083], [-97.633701, 35.585863], [-97.6336876, 35.585863], [-97.6336876, 35.5858336], [-97.6336943, 35.5858336], [-97.6336943, 35.5857654], [-97.6336688, 35.5857654], [-97.6336688, 35.5857196]]]}, "properties": {"osm_id": 1150592902, "building": "house", "name": "", "height": null, "height_m": null, "levels": null, "tract_id": "40109108529", "tract_name": "1085.29", "tags": {"addr:city": "Oklahoma City", "addr:postcode": "73162", "addr:state": "OK", "building": "house"}}}, {"type": "Feature", "geometry": {"type": "Polygon", "coordinates": [[[-97.6336674, 35.5856727], [-97.6336674, 35.5856179], [-97.6336805, 35.5856179], [-97.6336805, 35.5855307], [-97.6336674, 35.5855307], [-97.6336674, 35.5855048], [-97.6338398, 35.5855048], [-97.6338398, 35.5855389], [-97.6338834, 35.5855389], [-97.6338834, 35.5856727], [-97.6336674, 35.5856727]]]}, "properties": {"osm_id": 1150592903, "building": "house", "name": "", "height": null, "height_m": null, "levels": null, "tract_id": "40109108529", "tract_name": "1085.29", "tags": {"addr:city": "Oklahoma City", "addr:postcode": "73162", "addr:state": "OK", "building": "house"}}}, {"type": "Feature", "geometry": {"type": "Polygon", "coordinates": [[[-97.6336755, 35.5854382], [-97.6336755, 35.5852496], [-97.6338686, 35.5852496], [-97.6338686, 35.5854382], [-97.6338197, 35.5854382], [-97.6338197, 35.5854104], [-97.6337338, 35.5854104], [-97.6337338, 35.5854382], [-97.6336755, 35.5854382]]]}, "properties": {"osm_id": 1150592904, "building": "house", "name": "", "height": null, "height_m": null, "levels": null, "tract_id": "40109108529", "tract_name": "1085.29", "tags": {"addr:city": "Oklahoma City", "addr:postcode": "73162", "addr:state": "OK", "building": "house"}}}, {"type": "Feature", "geometry": {"type": "Polygon", "coordinates": [[[-97.633654, 35.5852016], [-97.633654, 35.5851498], [-97.6336916, 35.5851498], [-97.6336916, 35.5851187], [-97.633654, 35.5851187], [-97.633654, 35.5850532], [-97.6336788, 35.5850532], [-97.6336788, 35.5850183], [-97.6338619, 35.5850183], [-97.6338619, 35.5852016], [-97.633654, 35.5852016]]]}, "properties": {"osm_id": 1150592905, "building": "house", "name": "", "height": null, "height_m": null, "levels": null, "tract_id": "40109108529", "tract_name": "1085.29", "tags": {"addr:city": "Oklahoma City", "addr:postcode": "73162", "addr:state": "OK", "building": "house"}}}, {"type": "Feature", "geometry": {"type": "Polygon", "coordinates": [[[-97.6336285, 35.5849802], [-97.6336285, 35.5847697], [-97.6338767, 35.5847697], [-97.6338767, 35.5848656], [-97.6338284, 35.5848656], [-97.6338284, 35.5849196], [-97.6338767, 35.5849196], [-97.6338767, 35.5849802], [-97.6336285, 35.5849802]]]}, "properties": {"osm_id": 1150592906, "building": "house", "name": "", "height": null, "height_m": null, "levels": null, "tract_id": "40109108529", "tract_name": "1085.29", "tags": {"addr:city": "Oklahoma City", "addr:postcode": "73162", "addr:state": "OK", "building": "house"}}}, {"type": "Feature", "geometry": {"type": "Polygon", "coordinates": [[[-97.6336259, 35.58475], [-97.6336259, 35.5846922], [-97.6336809, 35.5846922], [-97.6336809, 35.5846284], [-97.6336259, 35.5846284], [-97.6336259, 35.5845739], [-97.6336721, 35.5845739], [-97.6336721, 35.5845264], [-97.6337808, 35.5845264], [-97.6337808, 35.584587], [-97.633878, 35.584587], [-97.633878, 35.58475], [-97.6336259, 35.58475]]]}, "properties": {"osm_id": 1150592907, "building": "house", "name": "", "height": null, "height_m": null, "levels": null, "tract_id": "40109108529", "tract_name": "1085.29", "tags": {"addr:city": "Oklahoma City", "addr:postcode": "73162", "addr:state": "OK", "building": "house"}}}, {"type": "Feature", "geometry": {"type": "Polygon", "coordinates": [[[-97.6336339, 35.5844959], [-97.6336339, 35.5844419], [-97.6336668, 35.5844419], [-97.6336668, 35.5843972], [-97.6336339, 35.5843972], [-97.6336339, 35.5842821], [-97.6338726, 35.5842821], [-97.6338726, 35.5844959], [-97.6336339, 35.5844959]]]}, "properties": {"osm_id": 1150592908, "building": "house", "name": "", "height": null, "height_m": null, "levels": null, "tract_id": "40109108529", "tract_name": "1085.29", "tags": {"addr:city": "Oklahoma City", "addr:postcode": "73162", "addr:state": "OK", "building": "house"}}}, {"type": "Feature", "geometry": {"type": "Polygon", "coordinates": [[[-97.6336192, 35.5840378], [-97.6338411, 35.5840378], [-97.6338411, 35.5841693], [-97.633874, 35.5841693], [-97.633874, 35.5842461], [-97.6336621, 35.5842461], [-97.6336621, 35.584196], [-97.6336788, 35.584196], [-97.6336788, 35.5841807], [-97.633642, 35.5841807], [-97.633642, 35.5841], [-97.6336192, 35.5841], [-97.6336192, 35.5840378]]]}, "properties": {"osm_id": 1150592909, "building": "house", "name": "", "height": null, "height_m": null, "levels": null, "tract_id": "40109108529", "tract_name": "1085.29", "tags": {"addr:city": "Oklahoma City", "addr:postcode": "73162", "addr:state": "OK", "building": "house"}}}, {"type": "Feature", "geometry": {"type": "Polygon", "coordinates": [[[-97.634165, 35.5840346], [-97.6342569, 35.5840346], [-97.6342569, 35.5840705], [-97.6344118, 35.5840705], [-97.6344118, 35.5842151], [-97.6343883, 35.5842151], [-97.6343883, 35.5842581], [-97.6342206, 35.5842581], [-97.6342206, 35.5841534], [-97.634165, 35.5841534], [-97.634165, 35.5840346]]]}, "properties": {"osm_id": 1150592910, "building": "house", "name": "", "height": null, "height_m": null, "levels": null, "tract_id": "40109108529", "tract_name": "1085.29", "tags": {"addr:city": "Oklahoma City", "addr:postcode": "73162", "addr:state": "OK", "building": "house"}}}, {"type": "Feature", "geometry": {"type": "Polygon", "coordinates": [[[-97.634173, 35.5843061], [-97.6344386, 35.5843061], [-97.6344386, 35.5844992], [-97.6342052, 35.5844992], [-97.6342052, 35.584449], [-97.6342421, 35.584449], [-97.6342421, 35.5843939], [-97.634173, 35.5843939], [-97.634173, 35.5843061]]]}, "properties": {"osm_id": 1150592911, "building": "house", "name": "", "height": null, "height_m": null, "levels": null, "tract_id": "40109108529", "tract_name": "1085.29", "tags": {"addr:city": "Oklahoma City", "addr:postcode": "73162", "addr:state": "OK", "building": "house"}}}, {"type": "Feature", "geometry": {"type": "Polygon", "coordinates": [[[-97.6343903, 35.5845483], [-97.6343903, 35.5846104], [-97.6343712, 35.5846104], [-97.6343712, 35.5846377], [-97.6343903, 35.5846377], [-97.6343903, 35.5846756], [-97.6343702, 35.5846756], [-97.6343702, 35.584762], [-97.634173, 35.584762], [-97.634173, 35.5846655], [-97.6341985, 35.5846655], [-97.6341985, 35.5845483], [-97.6343903, 35.5845483]]]}, "properties": {"osm_id": 1150592912, "building": "house", "name": "", "height": null, "height_m": null, "levels": null, "tract_id": "40109108529", "tract_name": "1085.29", "tags": {"addr:city": "Oklahoma City", "addr:postcode": "73162", "addr:state": "OK", "building": "house"}}}, {"type": "Feature", "geometry": {"type": "Polygon", "coordinates": [[[-97.6344037, 35.5848242], [-97.6344037, 35.5850227], [-97.634332, 35.5850227], [-97.634332, 35.5849949], [-97.6342743, 35.5849949], [-97.6342743, 35.5850227], [-97.6341744, 35.5850227], [-97.6341744, 35.5849245], [-97.6342325, 35.5849245], [-97.6342325, 35.5848997], [-97.6342141, 35.5848997], [-97.6342141, 35.5848819], [-97.6342072, 35.5848819], [-97.6342072, 35.5848242], [-97.6344037, 35.5848242]]]}, "properties": {"osm_id": 1150592913, "building": "house", "name": "", "height": null, "height_m": null, "levels": null, "tract_id": "40109108529", "tract_name": "1085.29", "tags": {"addr:city": "Oklahoma City", "addr:postcode": "73162", "addr:state": "OK", "building": "house"}}}, {"type": "Feature", "geometry": {"type": "Polygon", "coordinates": [[[-97.634173, 35.585303], [-97.634173, 35.5852097], [-97.6342501, 35.5852097], [-97.6342501, 35.5851877], [-97.6342391, 35.5851877], [-97.6342391, 35.5851356], [-97.6342337, 35.5851356], [-97.6342337, 35.5851198], [-97.6342267, 35.5851198], [-97.6342267, 35.5851091], [-97.634224, 35.5851091], [-97.634224, 35.5850969], [-97.6344158, 35.5850969], [-97.6344158, 35.5851618], [-97.6343789, 35.5851618], [-97.6343789, 35.5851789], [-97.634391, 35.5851789], [-97.634391, 35.5852043], [-97.6344158, 35.5852043], [-97.6344158, 35.5852741], [-97.6342683, 35.5852741], [-97.6342683, 35.585303], [-97.634173, 35.585303]]]}, "properties": {"osm_id": 1150592914, "building": "house", "name": "", "height": null, "height_m": null, "levels": null, "tract_id": "40109108529", "tract_name": "1085.29", "tags": {"addr:city": "Oklahoma City", "addr:postcode": "73162", "addr:state": "OK", "building": "house"}}}, {"type": "Feature", "geometry": {"type": "Polygon", "coordinates": [[[-97.6343286, 35.5855811], [-97.6342025, 35.5855811], [-97.6342025, 35.5854633], [-97.6341677, 35.5854633], [-97.6341677, 35.5853673], [-97.6342582, 35.5853673], [-97.6342582, 35.5854126], [-97.6343078, 35.5854126], [-97.6343078, 35.5854759], [-97.6343286, 35.5854759], [-97.6343286, 35.5855811]]]}, "properties": {"osm_id": 1150592915, "building": "house", "name": "", "height": null, "height_m": null, "levels": null, "tract_id": "40109108529", "tract_name": "1085.29", "tags": {"addr:city": "Oklahoma City", "addr:postcode": "73162", "addr:state": "OK", "building": "house"}}}, {"type": "Feature", "geometry": {"type": "Polygon", "coordinates": [[[-97.6341757, 35.5858505], [-97.6341757, 35.5856695], [-97.6344198, 35.5856695], [-97.6344198, 35.5857229], [-97.6343387, 35.5857229], [-97.6343387, 35.585766], [-97.6343682, 35.585766], [-97.6343682, 35.585814], [-97.6343333, 35.585814], [-97.6343333, 35.5858505], [-97.6341757, 35.5858505]]]}, "properties": {"osm_id": 1150592916, "building": "house", "name": "", "height": null, "height_m": null, "levels": null, "tract_id": "40109108529", "tract_name": "1085.29", "tags": {"addr:city": "Oklahoma City", "addr:postcode": "73162", "addr:state": "OK", "building": "house"}}}, {"type": "Feature", "geometry": {"type": "Polygon", "coordinates": [[[-97.6344359, 35.5861395], [-97.6343279, 35.5861395], [-97.6343279, 35.5861024], [-97.6341704, 35.5861024], [-97.6341704, 35.5859312], [-97.6342341, 35.5859312], [-97.6342341, 35.5859476], [-97.6343507, 35.5859476], [-97.6343507, 35.5859612], [-97.6344359, 35.5859612], [-97.6344359, 35.5861395]]]}, "properties": {"osm_id": 1150592917, "building": "house", "name": "", "height": null, "height_m": null, "levels": null, "tract_id": "40109108529", "tract_name": "1085.29", "tags": {"addr:city": "Oklahoma City", "addr:postcode": "73162", "addr:state": "OK", "building": "house"}}}, {"type": "Feature", "geometry": {"type": "Polygon", "coordinates": [[[-97.63446, 35.5865551], [-97.6344091, 35.5865551], [-97.6344091, 35.5865474], [-97.6343457, 35.5865474], [-97.6343457, 35.5865551], [-97.6342911, 35.5865551], [-97.6342911, 35.5865349], [-97.6342294, 35.5865349], [-97.6342294, 35.5863707], [-97.6343454, 35.5863707], [-97.6343454, 35.5864215], [-97.6343611, 35.5864215], [-97.6343611, 35.5864029], [-97.6343869, 35.5864029], [-97.6343869, 35.5863707], [-97.63446, 35.5863707], [-97.63446, 35.5865551]]]}, "properties": {"osm_id": 1150592918, "building": "house", "name": "", "height": null, "height_m": null, "levels": null, "tract_id": "40109108529", "tract_name": "1085.29", "tags": {"addr:city": "Oklahoma City", "addr:postcode": "73162", "addr:state": "OK", "building": "house"}}}, {"type": "Feature", "geometry": {"type": "Polygon", "coordinates": [[[-97.634794, 35.5868768], [-97.6346216, 35.5868768], [-97.6346216, 35.5867655], [-97.6345137, 35.5867655], [-97.6345137, 35.5866947], [-97.634794, 35.5866947], [-97.634794, 35.5868768]]]}, "properties": {"osm_id": 1150592919, "building": "house", "name": "", "height": null, "height_m": null, "levels": null, "tract_id": "40109108529", "tract_name": "1085.29", "tags": {"addr:city": "Oklahoma City", "addr:postcode": "73162", "addr:state": "OK", "building": "house"}}}, {"type": "Feature", "geometry": {"type": "Polygon", "coordinates": [[[-97.6345687, 35.5863751], [-97.6346816, 35.5863751], [-97.6346816, 35.5863893], [-97.6347443, 35.5863893], [-97.6347443, 35.5863751], [-97.6347993, 35.5863751], [-97.6347993, 35.586428], [-97.6348064, 35.586428], [-97.6348064, 35.5864444], [-97.6348158, 35.5864444], [-97.6348158, 35.5865943], [-97.6347249, 35.5865943], [-97.6347249, 35.5865082], [-97.6346565, 35.5865082], [-97.6346565, 35.5865551], [-97.6345687, 35.5865551], [-97.6345687, 35.5863751]]]}, "properties": {"osm_id": 1150592920, "building": "house", "name": "", "height": null, "height_m": null, "levels": null, "tract_id": "40109108529", "tract_name": "1085.29", "tags": {"addr:city": "Oklahoma City", "addr:postcode": "73162", "addr:state": "OK", "building": "house"}}}, {"type": "Feature", "geometry": {"type": "Polygon", "coordinates": [[[-97.6345231, 35.586109], [-97.6345231, 35.5860588], [-97.6345941, 35.5860588], [-97.6345941, 35.5859547], [-97.6345814, 35.5859547], [-97.6345814, 35.5859094], [-97.6348194, 35.5859094], [-97.6348194, 35.5859972], [-97.6347705, 35.5859972], [-97.6347705, 35.5860506], [-97.6348194, 35.5860506], [-97.6348194, 35.586109], [-97.6345231, 35.586109]]]}, "properties": {"osm_id": 1150592921, "building": "house", "name": "", "height": null, "height_m": null, "levels": null, "tract_id": "40109108529", "tract_name": "1085.29", "tags": {"addr:city": "Oklahoma City", "addr:postcode": "73162", "addr:state": "OK", "building": "house"}}}, {"type": "Feature", "geometry": {"type": "Polygon", "coordinates": [[[-97.6348141, 35.5858538], [-97.634574, 35.5858538], [-97.634574, 35.5857436], [-97.6345988, 35.5857436], [-97.6345988, 35.5856973], [-97.634574, 35.5856973], [-97.634574, 35.5856291], [-97.6347946, 35.5856291], [-97.6347946, 35.5856934], [-97.6347517, 35.5856934], [-97.6347517, 35.5857556], [-97.6348141, 35.5857556], [-97.6348141, 35.5858538]]]}, "properties": {"osm_id": 1150592922, "building": "house", "name": "", "height": null, "height_m": null, "levels": null, "tract_id": "40109108529", "tract_name": "1085.29", "tags": {"addr:city": "Oklahoma City", "addr:postcode": "73162", "addr:state": "OK", "building": "house"}}}, {"type": "Feature", "geometry": {"type": "Polygon", "coordinates": [[[-97.6345888, 35.5855691], [-97.6345884, 35.585508], [-97.634601, 35.585508], [-97.6346002, 35.5853715], [-97.6348154, 35.5853706], [-97.634816, 35.5854715], [-97.6347737, 35.5854717], [-97.6347739, 35.5855005], [-97.634802, 35.5855004], [-97.6348024, 35.5855683], [-97.6345888, 35.5855691]]]}, "properties": {"osm_id": 1150592923, "building": "house", "name": "", "height": null, "height_m": null, "levels": null, "tract_id": "40109108529", "tract_name": "1085.29", "tags": {"addr:city": "Oklahoma City", "addr:postcode": "73162", "addr:state": "OK", "building": "house"}}}, {"type": "Feature", "geometry": {"type": "Polygon", "coordinates": [[[-97.6348101, 35.5853074], [-97.6345985, 35.5853082], [-97.6345981, 35.5852496], [-97.6346143, 35.5852495], [-97.6346142, 35.5852363], [-97.6345751, 35.5852365], [-97.6345745, 35.5851437], [-97.6345636, 35.5851438], [-97.6345633, 35.5850903], [-97.6347686, 35.5850895], [-97.6347694, 35.5852143], [-97.6348095, 35.5852141], [-97.6348101, 35.5853074]]]}, "properties": {"osm_id": 1150592924, "building": "house", "name": "", "height": null, "height_m": null, "levels": null, "tract_id": "40109108529", "tract_name": "1085.29", "tags": {"addr:city": "Oklahoma City", "addr:postcode": "73162", "addr:state": "OK", "building": "house"}}}, {"type": "Feature", "geometry": {"type": "Polygon", "coordinates": [[[-97.6345807, 35.5848344], [-97.6347135, 35.5848338], [-97.6347138, 35.5848832], [-97.6348091, 35.5848828], [-97.6348095, 35.58496], [-97.6347764, 35.5849601], [-97.6347769, 35.585049], [-97.6346485, 35.5850495], [-97.6346482, 35.58501], [-97.6345937, 35.5850103], [-97.6345933, 35.5849387], [-97.6345813, 35.5849387], [-97.6345807, 35.5848344]]]}, "properties": {"osm_id": 1150592925, "building": "house", "name": "", "height": null, "height_m": null, "levels": null, "tract_id": "40109108529", "tract_name": "1085.29", "tags": {"addr:city": "Oklahoma City", "addr:postcode": "73162", "addr:state": "OK", "building": "house"}}}, {"type": "Feature", "geometry": {"type": "Polygon", "coordinates": [[[-97.6345915, 35.5847337], [-97.6345908, 35.5846213], [-97.6346177, 35.5846212], [-97.6346175, 35.5845918], [-97.6345906, 35.5845919], [-97.6345903, 35.584547], [-97.6348114, 35.5845461], [-97.634812, 35.5846432], [-97.6347622, 35.5846434], [-97.6347625, 35.5846956], [-97.6347974, 35.5846955], [-97.6347977, 35.5847328], [-97.6345915, 35.5847337]]]}, "properties": {"osm_id": 1150592926, "building": "house", "name": "", "height": null, "height_m": null, "levels": null, "tract_id": "40109108529", "tract_name": "1085.29", "tags": {"addr:city": "Oklahoma City", "addr:postcode": "73162", "addr:state": "OK", "building": "house"}}}, {"type": "Feature", "geometry": {"type": "Polygon", "coordinates": [[[-97.6348141, 35.5844542], [-97.6346156, 35.584455], [-97.6346155, 35.5844375], [-97.6345795, 35.5844376], [-97.6345791, 35.5843721], [-97.6346117, 35.584372], [-97.6346115, 35.5843421], [-97.6345941, 35.5843421], [-97.634594, 35.5843301], [-97.6345793, 35.5843301], [-97.6345792, 35.584317], [-97.6345715, 35.584317], [-97.6345713, 35.5842843], [-97.6348131, 35.5842834], [-97.6348133, 35.5843241], [-97.6347797, 35.5843243], [-97.63478, 35.5843755], [-97.6348136, 35.5843754], [-97.6348141, 35.5844542]]]}, "properties": {"osm_id": 1150592927, "building": "house", "name": "", "height": null, "height_m": null, "levels": null, "tract_id": "40109108529", "tract_name": "1085.29", "tags": {"addr:city": "Oklahoma City", "addr:postcode": "73162", "addr:state": "OK", "building": "house"}}}, {"type": "Feature", "geometry": {"type": "Polygon", "coordinates": [[[-97.6348127, 35.5840389], [-97.6348133, 35.5841382], [-97.6347394, 35.5841385], [-97.6347399, 35.584226], [-97.6347215, 35.584226], [-97.6347216, 35.584251], [-97.6345852, 35.5842515], [-97.6345846, 35.5841479], [-97.6345654, 35.584148], [-97.6345648, 35.5840551], [-97.6347151, 35.5840545], [-97.634715, 35.5840393], [-97.6348127, 35.5840389]]]}, "properties": {"osm_id": 1150592928, "building": "house", "name": "", "height": null, "height_m": null, "levels": null, "tract_id": "40109108529", "tract_name": "1085.29", "tags": {"addr:city": "Oklahoma City", "addr:postcode": "73162", "addr:state": "OK", "building": "house"}}}, {"type": "Feature", "geometry": {"type": "Polygon", "coordinates": [[[-97.6353438, 35.5840302], [-97.6353442, 35.5840858], [-97.6353027, 35.584086], [-97.6353035, 35.5842245], [-97.6351915, 35.584225], [-97.6351916, 35.5842436], [-97.6351038, 35.584244], [-97.6351032, 35.5841507], [-97.6351455, 35.5841506], [-97.6351452, 35.5841003], [-97.6351635, 35.5841002], [-97.6351634, 35.5840806], [-97.6351451, 35.5840806], [-97.6351448, 35.584031], [-97.6353438, 35.5840302]]]}, "properties": {"osm_id": 1150592929, "building": "house", "name": "", "height": null, "height_m": null, "levels": null, "tract_id": "40109108529", "tract_name": "1085.29", "tags": {"addr:city": "Oklahoma City", "addr:postcode": "73162", "addr:state": "OK", "building": "house"}}}, {"type": "Feature", "geometry": {"type": "Polygon", "coordinates": [[[-97.6353438, 35.5842876], [-97.6353451, 35.584495], [-97.635264, 35.5844953], [-97.6352639, 35.5844675], [-97.6352069, 35.5844677], [-97.635207, 35.5844955], [-97.6351064, 35.5844959], [-97.6351058, 35.5843918], [-97.6351655, 35.5843915], [-97.6351653, 35.5843638], [-97.6351413, 35.5843639], [-97.6351408, 35.5842884], [-97.6353438, 35.5842876]]]}, "properties": {"osm_id": 1150592930, "building": "house", "name": "", "height": null, "height_m": null, "levels": null, "tract_id": "40109108529", "tract_name": "1085.29", "tags": {"addr:city": "Oklahoma City", "addr:postcode": "73162", "addr:state": "OK", "building": "house"}}}, {"type": "Feature", "geometry": {"type": "Polygon", "coordinates": [[[-97.635317, 35.5845428], [-97.6353174, 35.5846017], [-97.6353052, 35.5846018], [-97.6353062, 35.5847656], [-97.6351078, 35.5847664], [-97.6351071, 35.5846601], [-97.6351448, 35.5846599], [-97.6351441, 35.5845435], [-97.635317, 35.5845428]]]}, "properties": {"osm_id": 1150592931, "building": "house", "name": "", "height": null, "height_m": null, "levels": null, "tract_id": "40109108529", "tract_name": "1085.29", "tags": {"addr:city": "Oklahoma City", "addr:postcode": "73162", "addr:state": "OK", "building": "house"}}}, {"type": "Feature", "geometry": {"type": "Polygon", "coordinates": [[[-97.6353626, 35.5850282], [-97.6351612, 35.585029], [-97.6351607, 35.5849464], [-97.6351809, 35.5849463], [-97.6351808, 35.5849248], [-97.6351125, 35.5849251], [-97.6351118, 35.5848177], [-97.6353613, 35.5848167], [-97.6353626, 35.5850282]]]}, "properties": {"osm_id": 1150592932, "building": "house", "name": "", "height": null, "height_m": null, "levels": null, "tract_id": "40109108529", "tract_name": "1085.29", "tags": {"addr:city": "Oklahoma City", "addr:postcode": "73162", "addr:state": "OK", "building": "house"}}}, {"type": "Feature", "geometry": {"type": "Polygon", "coordinates": [[[-97.6353626, 35.5850947], [-97.6353629, 35.5851465], [-97.6353388, 35.5851466], [-97.6353394, 35.5852359], [-97.6352941, 35.5852361], [-97.6352942, 35.5852535], [-97.6353203, 35.5852534], [-97.6353207, 35.5853098], [-97.6351038, 35.5853106], [-97.6351032, 35.5852185], [-97.6351616, 35.5852182], [-97.6351613, 35.5851688], [-97.6351366, 35.5851689], [-97.6351362, 35.5851149], [-97.6351642, 35.5851147], [-97.635164, 35.5850955], [-97.6353626, 35.5850947]]]}, "properties": {"osm_id": 1150592933, "building": "house", "name": "", "height": null, "height_m": null, "levels": null, "tract_id": "40109108529", "tract_name": "1085.29", "tags": {"addr:city": "Oklahoma City", "addr:postcode": "73162", "addr:state": "OK", "building": "house"}}}, {"type": "Feature", "geometry": {"type": "Polygon", "coordinates": [[[-97.6353599, 35.5855549], [-97.6351478, 35.5855558], [-97.6351472, 35.585455], [-97.6351043, 35.5854551], [-97.6351038, 35.5853641], [-97.6353588, 35.5853631], [-97.6353599, 35.5855549]]]}, "properties": {"osm_id": 1150592934, "building": "house", "name": "", "height": null, "height_m": null, "levels": null, "tract_id": "40109108529", "tract_name": "1085.29", "tags": {"addr:city": "Oklahoma City", "addr:postcode": "73162", "addr:state": "OK", "building": "house"}}}, {"type": "Feature", "geometry": {"type": "Polygon", "coordinates": [[[-97.6353532, 35.585796], [-97.6351437, 35.5857968], [-97.6351434, 35.5857376], [-97.6351843, 35.5857375], [-97.6351841, 35.5857073], [-97.6351097, 35.5857076], [-97.6351091, 35.5856204], [-97.6353521, 35.5856194], [-97.6353526, 35.5856935], [-97.6353343, 35.5856935], [-97.6353346, 35.5857301], [-97.6353528, 35.58573], [-97.6353532, 35.585796]]]}, "properties": {"osm_id": 1150592935, "building": "house", "name": "", "height": null, "height_m": null, "levels": null, "tract_id": "40109108529", "tract_name": "1085.29", "tags": {"addr:city": "Oklahoma City", "addr:postcode": "73162", "addr:state": "OK", "building": "house"}}}, {"type": "Feature", "geometry": {"type": "Polygon", "coordinates": [[[-97.635325, 35.5860665], [-97.6351431, 35.5860672], [-97.6351424, 35.5859496], [-97.6351097, 35.5859497], [-97.6351091, 35.5858538], [-97.6353238, 35.5858529], [-97.635325, 35.5860665]]]}, "properties": {"osm_id": 1150592936, "building": "house", "name": "", "height": null, "height_m": null, "levels": null, "tract_id": "40109108529", "tract_name": "1085.29", "tags": {"addr:city": "Oklahoma City", "addr:postcode": "73162", "addr:state": "OK", "building": "house"}}}, {"type": "Feature", "geometry": {"type": "Polygon", "coordinates": [[[-97.6351118, 35.5863217], [-97.6351113, 35.5862317], [-97.6351555, 35.5862315], [-97.6351549, 35.5861239], [-97.6353438, 35.5861232], [-97.635345, 35.5863207], [-97.6351118, 35.5863217]]]}, "properties": {"osm_id": 1150592937, "building": "house", "name": "", "height": null, "height_m": null, "levels": null, "tract_id": "40109108529", "tract_name": "1085.29", "tags": {"addr:city": "Oklahoma City", "addr:postcode": "73162", "addr:state": "OK", "building": "house"}}}, {"type": "Feature", "geometry": {"type": "Polygon", "coordinates": [[[-97.6351185, 35.5865867], [-97.635118, 35.5865022], [-97.6351737, 35.5865019], [-97.6351729, 35.5863757], [-97.6353318, 35.5863751], [-97.635333, 35.5865858], [-97.6351185, 35.5865867]]]}, "properties": {"osm_id": 1150592938, "building": "house", "name": "", "height": null, "height_m": null, "levels": null, "tract_id": "40109108529", "tract_name": "1085.29", "tags": {"addr:city": "Oklahoma City", "addr:postcode": "73162", "addr:state": "OK", "building": "house"}}}, {"type": "Feature", "geometry": {"type": "Polygon", "coordinates": [[[-97.6353733, 35.5868561], [-97.6352305, 35.5868566], [-97.6352302, 35.5868019], [-97.6351129, 35.5868024], [-97.6351124, 35.5867192], [-97.6351696, 35.586719], [-97.635169, 35.5866235], [-97.6353719, 35.5866227], [-97.6353733, 35.5868561]]]}, "properties": {"osm_id": 1150592939, "building": "house", "name": "", "height": null, "height_m": null, "levels": null, "tract_id": "40109108529", "tract_name": "1085.29", "tags": {"addr:city": "Oklahoma City", "addr:postcode": "73162", "addr:state": "OK", "building": "house"}}}, {"type": "Feature", "geometry": {"type": "Polygon", "coordinates": [[[-97.6351212, 35.587258], [-97.6351201, 35.5870795], [-97.6351943, 35.5870792], [-97.6351945, 35.5871146], [-97.6352121, 35.5871145], [-97.6352121, 35.587129], [-97.6352308, 35.587129], [-97.6352305, 35.5870791], [-97.635321, 35.5870787], [-97.6353215, 35.5871658], [-97.6353551, 35.5871657], [-97.6353555, 35.5872467], [-97.6353042, 35.5872469], [-97.6353043, 35.5872617], [-97.6352406, 35.5872619], [-97.6352405, 35.5872575], [-97.6351212, 35.587258]]]}, "properties": {"osm_id": 1150592940, "building": "house", "name": "", "height": null, "height_m": null, "levels": null, "tract_id": "40109108529", "tract_name": "1085.29", "tags": {"addr:city": "Oklahoma City", "addr:postcode": "73162", "addr:state": "OK", "building": "house"}}}, {"type": "Feature", "geometry": {"type": "Polygon", "coordinates": [[[-97.6354229, 35.5872651], [-97.6354218, 35.5870828], [-97.6355027, 35.5870825], [-97.6355031, 35.5871353], [-97.63555, 35.5871352], [-97.6355497, 35.5870823], [-97.6356505, 35.5870818], [-97.635651, 35.587167], [-97.6356635, 35.5871669], [-97.6356641, 35.5872641], [-97.6354229, 35.5872651]]]}, "properties": {"osm_id": 1150592941, "building": "house", "name": "", "height": null, "height_m": null, "levels": null, "tract_id": "40109108529", "tract_name": "1085.29", "tags": {"addr:city": "Oklahoma City", "addr:postcode": "73162", "addr:state": "OK", "building": "house"}}}, {"type": "Feature", "geometry": {"type": "Polygon", "coordinates": [[[-97.636001, 35.5872792], [-97.6357822, 35.5872801], [-97.635781, 35.5870906], [-97.6358943, 35.5870901], [-97.6358945, 35.5871239], [-97.636, 35.5871235], [-97.636001, 35.5872792]]]}, "properties": {"osm_id": 1150592942, "building": "house", "name": "", "height": null, "height_m": null, "levels": null, "tract_id": "40109108529", "tract_name": "1085.29", "tags": {"addr:city": "Oklahoma City", "addr:postcode": "73162", "addr:state": "OK", "building": "house"}}}, {"type": "Feature", "geometry": {"type": "Polygon", "coordinates": [[[-97.6363403, 35.5872738], [-97.6362202, 35.5872743], [-97.6362201, 35.5872453], [-97.6361051, 35.5872458], [-97.6361046, 35.5871602], [-97.6360712, 35.5871604], [-97.6360707, 35.5870829], [-97.6361981, 35.5870824], [-97.6361982, 35.5870956], [-97.6363392, 35.587095], [-97.6363403, 35.5872738]]]}, "properties": {"osm_id": 1150592943, "building": "house", "name": "", "height": null, "height_m": null, "levels": null, "tract_id": "40109108529", "tract_name": "1085.29", "tags": {"addr:city": "Oklahoma City", "addr:postcode": "73162", "addr:state": "OK", "building": "house"}}}, {"type": "Feature", "geometry": {"type": "Polygon", "coordinates": [[[-97.63663, 35.5872928], [-97.6365703, 35.5872923], [-97.6365682, 35.5872487], [-97.6365153, 35.5872531], [-97.6364649, 35.5872959], [-97.636402, 35.5872531], [-97.6363979, 35.5870829], [-97.6365119, 35.5870825], [-97.6365122, 35.5871354], [-97.636629, 35.5871349], [-97.63663, 35.5872928]]]}, "properties": {"osm_id": 1150592944, "building": "house", "name": "", "height": null, "height_m": null, "levels": null, "tract_id": "40109108529", "tract_name": "1085.29", "tags": {"addr:city": "Oklahoma City", "addr:postcode": "73162", "addr:state": "OK", "building": "house"}}}, {"type": "Feature", "geometry": {"type": "Polygon", "coordinates": [[[-97.6373689, 35.5842385], [-97.6373685, 35.5841796], [-97.6374159, 35.5841794], [-97.6374156, 35.5841254], [-97.6373682, 35.5841256], [-97.6373678, 35.5840558], [-97.6373985, 35.5840557], [-97.6373983, 35.5840278], [-97.6375804, 35.584027], [-97.6375809, 35.5841126], [-97.6376063, 35.5841125], [-97.637607, 35.5842376], [-97.6373689, 35.5842385]]]}, "properties": {"osm_id": 1150592945, "building": "house", "name": "", "height": null, "height_m": null, "levels": null, "tract_id": "40109108529", "tract_name": "1085.29", "tags": {"addr:city": "Oklahoma City", "addr:postcode": "73162", "addr:state": "OK", "building": "house"}}}, {"type": "Feature", "geometry": {"type": "Polygon", "coordinates": [[[-97.6381253, 35.5842254], [-97.6380086, 35.5842259], [-97.6380084, 35.5841849], [-97.6378981, 35.5841854], [-97.6378977, 35.5841071], [-97.6379289, 35.584107], [-97.6379282, 35.5839963], [-97.6381239, 35.5839955], [-97.6381253, 35.5842254]]]}, "properties": {"osm_id": 1150592946, "building": "house", "name": "", "height": null, "height_m": null, "levels": null, "tract_id": "40109108529", "tract_name": "1085.29", "tags": {"addr:city": "Oklahoma City", "addr:postcode": "73162", "addr:state": "OK", "building": "house"}}}, {"type": "Feature", "geometry": {"type": "Polygon", "coordinates": [[[-97.6373702, 35.584292], [-97.6375023, 35.5842914], [-97.6375026, 35.5843422], [-97.6376026, 35.5843418], [-97.637603, 35.5844141], [-97.6375398, 35.5844144], [-97.63754, 35.5844322], [-97.6375539, 35.5844321], [-97.6375541, 35.584454], [-97.6375801, 35.5844539], [-97.6375804, 35.5845102], [-97.6373981, 35.5845109], [-97.6373977, 35.5844523], [-97.6374065, 35.5844522], [-97.6374064, 35.5844298], [-97.6373711, 35.5844299], [-97.6373702, 35.584292]]]}, "properties": {"osm_id": 1150592947, "building": "house", "name": "", "height": null, "height_m": null, "levels": null, "tract_id": "40109108529", "tract_name": "1085.29", "tags": {"addr:city": "Oklahoma City", "addr:postcode": "73162", "addr:state": "OK", "building": "house"}}}, {"type": "Feature", "geometry": {"type": "Polygon", "coordinates": [[[-97.6381239, 35.5842669], [-97.6381253, 35.5844961], [-97.6380032, 35.5844966], [-97.6380028, 35.5844271], [-97.6378942, 35.5844275], [-97.6378937, 35.5843536], [-97.6379484, 35.5843534], [-97.6379479, 35.5842676], [-97.6381239, 35.5842669]]]}, "properties": {"osm_id": 1150592948, "building": "house", "name": "", "height": null, "height_m": null, "levels": null, "tract_id": "40109108529", "tract_name": "1085.29", "tags": {"addr:city": "Oklahoma City", "addr:postcode": "73162", "addr:state": "OK", "building": "house"}}}, {"type": "Feature", "geometry": {"type": "Polygon", "coordinates": [[[-97.6373689, 35.5845286], [-97.6375576, 35.5845279], [-97.6375579, 35.584581], [-97.6375485, 35.584581], [-97.6375487, 35.5846166], [-97.6376108, 35.5846164], [-97.6376112, 35.5846903], [-97.6375093, 35.5846907], [-97.6375097, 35.5847559], [-97.6373703, 35.5847565], [-97.6373694, 35.5846175], [-97.6373918, 35.5846174], [-97.6373916, 35.5845864], [-97.6373693, 35.5845864], [-97.6373689, 35.5845286]]]}, "properties": {"osm_id": 1150592949, "building": "house", "name": "", "height": null, "height_m": null, "levels": null, "tract_id": "40109108529", "tract_name": "1085.29", "tags": {"addr:city": "Oklahoma City", "addr:postcode": "73162", "addr:state": "OK", "building": "house"}}}, {"type": "Feature", "geometry": {"type": "Polygon", "coordinates": [[[-97.6381373, 35.5847599], [-97.6378946, 35.5847608], [-97.637894, 35.5846611], [-97.6379738, 35.5846608], [-97.6379736, 35.5846237], [-97.6378937, 35.5846241], [-97.6378933, 35.584545], [-97.638136, 35.584544], [-97.6381373, 35.5847599]]]}, "properties": {"osm_id": 1150592950, "building": "house", "name": "", "height": null, "height_m": null, "levels": null, "tract_id": "40109108529", "tract_name": "1085.29", "tags": {"addr:city": "Oklahoma City", "addr:postcode": "73162", "addr:state": "OK", "building": "house"}}}, {"type": "Feature", "geometry": {"type": "Polygon", "coordinates": [[[-97.6373984, 35.5849856], [-97.6373972, 35.5847945], [-97.6376063, 35.5847937], [-97.6376069, 35.5848907], [-97.6375599, 35.5848909], [-97.6375602, 35.5849356], [-97.6376071, 35.5849354], [-97.6376074, 35.5849848], [-97.6373984, 35.5849856]]]}, "properties": {"osm_id": 1150592951, "building": "house", "name": "", "height": null, "height_m": null, "levels": null, "tract_id": "40109108529", "tract_name": "1085.29", "tags": {"addr:city": "Oklahoma City", "addr:postcode": "73162", "addr:state": "OK", "building": "house"}}}, {"type": "Feature", "geometry": {"type": "Polygon", "coordinates": [[[-97.6379013, 35.5848057], [-97.6381398, 35.5848047], [-97.6381401, 35.584857], [-97.6381551, 35.5848569], [-97.6381556, 35.584936], [-97.6381313, 35.5849361], [-97.6381314, 35.5849578], [-97.6381414, 35.5849578], [-97.6381417, 35.5850096], [-97.6379025, 35.5850106], [-97.6379019, 35.5849109], [-97.6379477, 35.5849107], [-97.6379474, 35.5848617], [-97.6379016, 35.5848618], [-97.6379013, 35.5848057]]]}, "properties": {"osm_id": 1150592952, "building": "house", "name": "", "height": null, "height_m": null, "levels": null, "tract_id": "40109108529", "tract_name": "1085.29", "tags": {"addr:city": "Oklahoma City", "addr:postcode": "73162", "addr:state": "OK", "building": "house"}}}, {"type": "Feature", "geometry": {"type": "Polygon", "coordinates": [[[-97.6381271, 35.5852419], [-97.6380019, 35.5852425], [-97.6380017, 35.5852118], [-97.6379024, 35.5852122], [-97.637902, 35.5851438], [-97.6379458, 35.5851436], [-97.6379451, 35.5850356], [-97.6381237, 35.5850349], [-97.638124, 35.5850909], [-97.6381374, 35.5850909], [-97.6381377, 35.5851459], [-97.6381265, 35.585146], [-97.6381271, 35.5852419]]]}, "properties": {"osm_id": 1150592953, "building": "house", "name": "", "height": null, "height_m": null, "levels": null, "tract_id": "40109108529", "tract_name": "1085.29", "tags": {"addr:city": "Oklahoma City", "addr:postcode": "73162", "addr:state": "OK", "building": "house"}}}, {"type": "Feature", "geometry": {"type": "Polygon", "coordinates": [[[-97.6381448, 35.5855015], [-97.6379039, 35.5855024], [-97.6379032, 35.5853826], [-97.6379597, 35.5853824], [-97.6379592, 35.5852897], [-97.6381094, 35.5852891], [-97.6381101, 35.5854073], [-97.6381442, 35.5854071], [-97.6381448, 35.5855015]]]}, "properties": {"osm_id": 1150592954, "building": "house", "name": "", "height": null, "height_m": null, "levels": null, "tract_id": "40109108529", "tract_name": "1085.29", "tags": {"addr:city": "Oklahoma City", "addr:postcode": "73162", "addr:state": "OK", "building": "house"}}}, {"type": "Feature", "geometry": {"type": "Polygon", "coordinates": [[[-97.6379013, 35.5857687], [-97.6379007, 35.5856716], [-97.6379685, 35.5856714], [-97.6379683, 35.5856422], [-97.6379755, 35.5856422], [-97.6379753, 35.5856078], [-97.6379878, 35.5856078], [-97.6379878, 35.5855947], [-97.637968, 35.5855948], [-97.6379678, 35.5855524], [-97.6381548, 35.5855517], [-97.6381561, 35.5857677], [-97.6379013, 35.5857687]]]}, "properties": {"osm_id": 1150592955, "building": "house", "name": "", "height": null, "height_m": null, "levels": null, "tract_id": "40109108529", "tract_name": "1085.29", "tags": {"addr:city": "Oklahoma City", "addr:postcode": "73162", "addr:state": "OK", "building": "house"}}}, {"type": "Feature", "geometry": {"type": "Polygon", "coordinates": [[[-97.6379228, 35.5860228], [-97.6379221, 35.5859214], [-97.637954, 35.5859213], [-97.6379539, 35.5859093], [-97.6379365, 35.5859094], [-97.6379363, 35.5858878], [-97.6379219, 35.5858879], [-97.6379216, 35.5858328], [-97.6381237, 35.585832], [-97.638124, 35.585883], [-97.638129, 35.585883], [-97.6381292, 35.5859203], [-97.6381359, 35.5859236], [-97.638136, 35.5859517], [-97.6381155, 35.5859714], [-97.63809, 35.5859715], [-97.6380903, 35.5860222], [-97.6379228, 35.5860228]]]}, "properties": {"osm_id": 1150592956, "building": "house", "name": "", "height": null, "height_m": null, "levels": null, "tract_id": "40109108529", "tract_name": "1085.29", "tags": {"addr:city": "Oklahoma City", "addr:postcode": "73162", "addr:state": "OK", "building": "house"}}}, {"type": "Feature", "geometry": {"type": "Polygon", "coordinates": [[[-97.637904, 35.5860708], [-97.6381484, 35.5860698], [-97.6381487, 35.5861142], [-97.6381395, 35.5861142], [-97.6381401, 35.5862066], [-97.6381622, 35.5862066], [-97.6381626, 35.5862741], [-97.638106, 35.5862743], [-97.6381062, 35.5863077], [-97.6379325, 35.5863084], [-97.6379323, 35.5862787], [-97.6379287, 35.5862787], [-97.6379283, 35.5862081], [-97.6379577, 35.586208], [-97.6379573, 35.5861371], [-97.6379044, 35.5861373], [-97.637904, 35.5860708]]]}, "properties": {"osm_id": 1150592957, "building": "house", "name": "", "height": null, "height_m": null, "levels": null, "tract_id": "40109108529", "tract_name": "1085.29", "tags": {"addr:city": "Oklahoma City", "addr:postcode": "73162", "addr:state": "OK", "building": "house"}}}, {"type": "Feature", "geometry": {"type": "Polygon", "coordinates": [[[-97.6382024, 35.5865196], [-97.6379521, 35.5865206], [-97.6379516, 35.5864305], [-97.6380141, 35.5864302], [-97.6380139, 35.5863873], [-97.6379838, 35.5863874], [-97.6379835, 35.5863382], [-97.6380469, 35.5863379], [-97.6380468, 35.5863202], [-97.6382012, 35.5863196], [-97.6382016, 35.5863893], [-97.6381856, 35.5863893], [-97.6381861, 35.5864627], [-97.638202, 35.5864626], [-97.6382024, 35.5865196]]]}, "properties": {"osm_id": 1150592958, "building": "house", "name": "", "height": null, "height_m": null, "levels": null, "tract_id": "40109108529", "tract_name": "1085.29", "tags": {"addr:city": "Oklahoma City", "addr:postcode": "73162", "addr:state": "OK", "building": "house"}}}, {"type": "Feature", "geometry": {"type": "Polygon", "coordinates": [[[-97.6373287, 35.5851743], [-97.6373287, 35.585105], [-97.6374614, 35.585105], [-97.6374614, 35.5850794], [-97.6373991, 35.5850794], [-97.6373991, 35.5850194], [-97.637617, 35.5850194], [-97.637617, 35.5851743], [-97.6373287, 35.5851743]]]}, "properties": {"osm_id": 1150592959, "building": "house", "name": "", "height": null, "height_m": null, "levels": null, "tract_id": "40109108529", "tract_name": "1085.29", "tags": {"addr:city": "Oklahoma City", "addr:postcode": "73162", "addr:state": "OK", "building": "house"}}}, {"type": "Feature", "geometry": {"type": "Polygon", "coordinates": [[[-97.637338, 35.5852812], [-97.6376103, 35.5852812], [-97.6376103, 35.5853374], [-97.637564, 35.5853374], [-97.637564, 35.5853924], [-97.6376103, 35.5853924], [-97.6376103, 35.585496], [-97.6374017, 35.585496], [-97.6374017, 35.5853341], [-97.637338, 35.5853341], [-97.637338, 35.5852812]]]}, "properties": {"osm_id": 1150592960, "building": "house", "name": "", "height": null, "height_m": null, "levels": null, "tract_id": "40109108529", "tract_name": "1085.29", "tags": {"addr:city": "Oklahoma City", "addr:postcode": "73162", "addr:state": "OK", "building": "house"}}}, {"type": "Feature", "geometry": {"type": "Polygon", "coordinates": [[[-97.637381, 35.5857436], [-97.637381, 35.5856815], [-97.6374024, 35.5856815], [-97.6374024, 35.5855309], [-97.6376036, 35.5855309], [-97.6376036, 35.5856329], [-97.6375647, 35.5856329], [-97.6375647, 35.5857436], [-97.637381, 35.5857436]]]}, "properties": {"osm_id": 1150592961, "building": "house", "name": "", "height": null, "height_m": null, "levels": null, "tract_id": "40109108529", "tract_name": "1085.29", "tags": {"addr:city": "Oklahoma City", "addr:postcode": "73162", "addr:state": "OK", "building": "house"}}}, {"type": "Feature", "geometry": {"type": "Polygon", "coordinates": [[[-97.6373897, 35.5860054], [-97.6373897, 35.5859029], [-97.6373756, 35.5859029], [-97.6373756, 35.5858025], [-97.6375151, 35.5858025], [-97.6375151, 35.5858554], [-97.6376103, 35.5858554], [-97.6376103, 35.5859285], [-97.6375882, 35.5859285], [-97.6375882, 35.5860054], [-97.6373897, 35.5860054]]]}, "properties": {"osm_id": 1150592962, "building": "house", "name": "", "height": null, "height_m": null, "levels": null, "tract_id": "40109108529", "tract_name": "1085.29", "tags": {"addr:city": "Oklahoma City", "addr:postcode": "73162", "addr:state": "OK", "building": "house"}}}, {"type": "Feature", "geometry": {"type": "Polygon", "coordinates": [[[-97.6373912, 35.5862748], [-97.6373908, 35.586211], [-97.6374066, 35.5862109], [-97.6374057, 35.5860533], [-97.6376049, 35.5860525], [-97.6376055, 35.5861581], [-97.6375779, 35.5861582], [-97.6375787, 35.586274], [-97.6373912, 35.5862748]]]}, "properties": {"osm_id": 1150592963, "building": "house", "name": "", "height": null, "height_m": null, "levels": null, "tract_id": "40109108529", "tract_name": "1085.29", "tags": {"addr:city": "Oklahoma City", "addr:postcode": "73162", "addr:state": "OK", "building": "house"}}}, {"type": "Feature", "geometry": {"type": "Polygon", "coordinates": [[[-97.6373273, 35.5863882], [-97.6375955, 35.5863523], [-97.6376215, 35.5864811], [-97.6375771, 35.5864871], [-97.6375793, 35.5864979], [-97.6374745, 35.5865119], [-97.6374785, 35.5865315], [-97.6373595, 35.5865474], [-97.6373273, 35.5863882]]]}, "properties": {"osm_id": 1150592964, "building": "house", "name": "", "height": null, "height_m": null, "levels": null, "tract_id": "40109108529", "tract_name": "1085.29", "tags": {"addr:city": "Oklahoma City", "addr:postcode": "73162", "addr:state": "OK", "building": "house"}}}, {"type": "Feature", "geometry": {"type": "Polygon", "coordinates": [[[-97.6372576, 35.5866794], [-97.6369816, 35.5866781], [-97.6369827, 35.5865332], [-97.6371901, 35.5865342], [-97.6371898, 35.58659], [-97.6371332, 35.5865897], [-97.6371332, 35.586602], [-97.6372581, 35.5866025], [-97.6372576, 35.5866794]]]}, "properties": {"osm_id": 1150592965, "building": "house", "name": "", "height": null, "height_m": null, "levels": null, "tract_id": "40109108529", "tract_name": "1085.29", "tags": {"addr:city": "Oklahoma City", "addr:housenumber": "11617", "addr:postcode": "73162", "addr:state": "OK", "addr:street": "Richaven Road", "building": "house"}}}, {"type": "Feature", "geometry": {"type": "Polygon", "coordinates": [[[-97.6371664, 35.5862671], [-97.6371659, 35.5863342], [-97.6371538, 35.5863341], [-97.6371536, 35.5863598], [-97.6371317, 35.5863597], [-97.6371313, 35.5864127], [-97.6371108, 35.5864126], [-97.6371105, 35.5864547], [-97.6370705, 35.5864545], [-97.6370703, 35.5864835], [-97.6369813, 35.5864831], [-97.636982, 35.5863876], [-97.6370099, 35.5863878], [-97.6370103, 35.5863327], [-97.6369823, 35.5863326], [-97.6369826, 35.5862917], [-97.6370221, 35.5862918], [-97.6370223, 35.5862665], [-97.6371664, 35.5862671]]]}, "properties": {"osm_id": 1150592966, "building": "house", "name": "", "height": null, "height_m": null, "levels": null, "tract_id": "40109108529", "tract_name": "1085.29", "tags": {"addr:city": "Oklahoma City", "addr:housenumber": "11609", "addr:postcode": "73162", "addr:state": "OK", "addr:street": "Richaven Road", "building": "house"}}}, {"type": "Feature", "geometry": {"type": "Polygon", "coordinates": [[[-97.6372696, 35.5861777], [-97.6369817, 35.5861764], [-97.6369821, 35.5861128], [-97.6370295, 35.586113], [-97.6370296, 35.5861012], [-97.6370092, 35.5861011], [-97.6370093, 35.5860783], [-97.6369824, 35.5860782], [-97.6369827, 35.5860348], [-97.6371996, 35.5860358], [-97.6371993, 35.586085], [-97.6371745, 35.5860849], [-97.6371743, 35.5861118], [-97.6372701, 35.5861123], [-97.6372696, 35.5861777]]]}, "properties": {"osm_id": 1150592967, "building": "house", "name": "", "height": null, "height_m": null, "levels": null, "tract_id": "40109108529", "tract_name": "1085.29", "tags": {"addr:city": "Oklahoma City", "addr:housenumber": "11601", "addr:postcode": "73162", "addr:state": "OK", "addr:street": "Richaven Road", "building": "house"}}}, {"type": "Feature", "geometry": {"type": "Polygon", "coordinates": [[[-97.6372186, 35.5857666], [-97.6372172, 35.5859738], [-97.6370757, 35.5859731], [-97.637076, 35.5859289], [-97.6369763, 35.5859285], [-97.6369768, 35.5858549], [-97.6370503, 35.5858552], [-97.6370505, 35.585837], [-97.6370309, 35.5858369], [-97.6370311, 35.5858178], [-97.6370177, 35.5858178], [-97.6370181, 35.5857657], [-97.6372186, 35.5857666]]]}, "properties": {"osm_id": 1150592968, "building": "house", "name": "", "height": null, "height_m": null, "levels": null, "tract_id": "40109108529", "tract_name": "1085.29", "tags": {"addr:city": "Oklahoma City", "addr:housenumber": "11509", "addr:postcode": "73162", "addr:state": "OK", "addr:street": "Richaven Road", "building": "house"}}}, {"type": "Feature", "geometry": {"type": "Polygon", "coordinates": [[[-97.637216, 35.5855255], [-97.6372156, 35.5855822], [-97.6372001, 35.5855821], [-97.6371998, 35.5856214], [-97.6372153, 35.5856215], [-97.6372145, 35.5857436], [-97.6369786, 35.5857425], [-97.6369793, 35.5856422], [-97.63702, 35.5856424], [-97.6370208, 35.5855246], [-97.637216, 35.5855255]]]}, "properties": {"osm_id": 1150592969, "building": "house", "name": "", "height": null, "height_m": null, "levels": null, "tract_id": "40109108529", "tract_name": "1085.29", "tags": {"addr:city": "Oklahoma City", "addr:housenumber": "11501", "addr:postcode": "73162", "addr:state": "OK", "addr:street": "Richaven Road", "building": "house"}}}, {"type": "Feature", "geometry": {"type": "Polygon", "coordinates": [[[-97.637224, 35.5852823], [-97.6372227, 35.5854831], [-97.6371295, 35.5854827], [-97.6371296, 35.5854748], [-97.6370978, 35.5854747], [-97.6370976, 35.5854955], [-97.636984, 35.585495], [-97.6369847, 35.5853995], [-97.6370221, 35.5853997], [-97.6370294, 35.5853997], [-97.6370297, 35.5853582], [-97.6369946, 35.5853581], [-97.6369952, 35.585291], [-97.6370071, 35.5852911], [-97.6370072, 35.5852813], [-97.637224, 35.5852823]]]}, "properties": {"osm_id": 1150592970, "building": "house", "name": "", "height": null, "height_m": null, "levels": null, "tract_id": "40109108529", "tract_name": "1085.29", "tags": {"addr:city": "Oklahoma City", "addr:housenumber": "11417", "addr:postcode": "73162", "addr:state": "OK", "addr:street": "Richaven Road", "building": "house"}}}, {"type": "Feature", "geometry": {"type": "Polygon", "coordinates": [[[-97.637224, 35.5850292], [-97.6372236, 35.5850887], [-97.6371671, 35.5850885], [-97.6371669, 35.5851192], [-97.6371799, 35.585129], [-97.6371797, 35.5851498], [-97.6371667, 35.5851588], [-97.6371664, 35.5851916], [-97.6371868, 35.5851918], [-97.6371865, 35.5852331], [-97.6369773, 35.5852321], [-97.6369779, 35.5851503], [-97.6370227, 35.5851505], [-97.6370231, 35.585096], [-97.6369906, 35.5850958], [-97.636991, 35.5850282], [-97.637224, 35.5850292]]]}, "properties": {"osm_id": 1150592971, "building": "house", "name": "", "height": null, "height_m": null, "levels": null, "tract_id": "40109108529", "tract_name": "1085.29", "tags": {"addr:city": "Oklahoma City", "addr:housenumber": "11409", "addr:postcode": "73162", "addr:state": "OK", "addr:street": "Richaven Road", "building": "house"}}}, {"type": "Feature", "geometry": {"type": "Polygon", "coordinates": [[[-97.6372248, 35.5847741], [-97.6372238, 35.584918], [-97.6371914, 35.5849179], [-97.6371909, 35.5849909], [-97.6369813, 35.58499], [-97.636982, 35.5848913], [-97.6370038, 35.5848914], [-97.6370044, 35.5848095], [-97.6370201, 35.5848095], [-97.6370204, 35.5847731], [-97.6372248, 35.5847741]]]}, "properties": {"osm_id": 1150592972, "building": "house", "name": "", "height": null, "height_m": null, "levels": null, "tract_id": "40109108529", "tract_name": "1085.29", "tags": {"addr:city": "Oklahoma City", "addr:housenumber": "11401", "addr:postcode": "73162", "addr:state": "OK", "addr:street": "Richaven Road", "building": "house"}}}, {"type": "Feature", "geometry": {"type": "Polygon", "coordinates": [[[-97.6372053, 35.5845374], [-97.6372038, 35.5847489], [-97.6369706, 35.5847479], [-97.6369712, 35.5846557], [-97.637016, 35.5846559], [-97.6370168, 35.5845365], [-97.6372053, 35.5845374]]]}, "properties": {"osm_id": 1150592973, "building": "house", "name": "", "height": null, "height_m": null, "levels": null, "tract_id": "40109108529", "tract_name": "1085.29", "tags": {"addr:city": "Oklahoma City", "addr:housenumber": "11317", "addr:postcode": "73162", "addr:state": "OK", "addr:street": "Richaven Road", "building": "house"}}}, {"type": "Feature", "geometry": {"type": "Polygon", "coordinates": [[[-97.6372388, 35.5842723], [-97.6372372, 35.5845048], [-97.6370946, 35.5845041], [-97.637095, 35.5844476], [-97.636971, 35.584447], [-97.6369716, 35.5843628], [-97.6370261, 35.5843631], [-97.6370267, 35.5842714], [-97.6372388, 35.5842723]]]}, "properties": {"osm_id": 1150592974, "building": "house", "name": "", "height": null, "height_m": null, "levels": null, "tract_id": "40109108529", "tract_name": "1085.29", "tags": {"addr:city": "Oklahoma City", "addr:housenumber": "11309", "addr:postcode": "73162", "addr:state": "OK", "addr:street": "Richaven Road", "building": "house"}}}, {"type": "Feature", "geometry": {"type": "Polygon", "coordinates": [[[-97.636984, 35.5840073], [-97.6372519, 35.5840085], [-97.6372515, 35.5840733], [-97.6372363, 35.5840732], [-97.6372352, 35.5842385], [-97.6370582, 35.5842377], [-97.6370586, 35.5841789], [-97.6369828, 35.5841785], [-97.6369833, 35.5841114], [-97.6370335, 35.5841117], [-97.6370338, 35.5840746], [-97.6369835, 35.5840744], [-97.636984, 35.5840073]]]}, "properties": {"osm_id": 1150592975, "building": "house", "name": "", "height": null, "height_m": null, "levels": null, "tract_id": "40109108529", "tract_name": "1085.29", "tags": {"addr:city": "Oklahoma City", "addr:housenumber": "11301", "addr:postcode": "73162", "addr:state": "OK", "addr:street": "Richaven Road", "building": "house"}}}, {"type": "Feature", "geometry": {"type": "Polygon", "coordinates": [[[-97.6364221, 35.5842331], [-97.6364229, 35.5841174], [-97.6364763, 35.5841177], [-97.6364765, 35.5840924], [-97.636461, 35.5840924], [-97.6364615, 35.5840193], [-97.6366555, 35.5840202], [-97.6366546, 35.5841424], [-97.6366868, 35.5841425], [-97.6366861, 35.5842343], [-97.6364221, 35.5842331]]]}, "properties": {"osm_id": 1150592976, "building": "house", "name": "", "height": null, "height_m": null, "levels": null, "tract_id": "40109108529", "tract_name": "1085.29", "tags": {"addr:city": "Oklahoma City", "addr:housenumber": "11300", "addr:postcode": "73162", "addr:state": "OK", "addr:street": "Richaven Road", "building": "house"}}}, {"type": "Feature", "geometry": {"type": "Polygon", "coordinates": [[[-97.6364248, 35.584316], [-97.6365763, 35.5843167], [-97.636576, 35.5843534], [-97.6366787, 35.5843539], [-97.6366782, 35.5844337], [-97.6366368, 35.5844336], [-97.6366366, 35.584462], [-97.636648, 35.5844621], [-97.6366477, 35.58451], [-97.6364425, 35.5845091], [-97.6364431, 35.5844338], [-97.6364239, 35.5844337], [-97.6364248, 35.584316]]]}, "properties": {"osm_id": 1150592977, "building": "house", "name": "", "height": null, "height_m": null, "levels": null, "tract_id": "40109108529", "tract_name": "1085.29", "tags": {"addr:city": "Oklahoma City", "addr:housenumber": "11308", "addr:postcode": "73162", "addr:state": "OK", "addr:street": "Richaven Road", "building": "house"}}}, {"type": "Feature", "geometry": {"type": "Polygon", "coordinates": [[[-97.6364422, 35.5845537], [-97.6366836, 35.5845548], [-97.6366829, 35.5846502], [-97.6366536, 35.5846501], [-97.6366529, 35.5847499], [-97.6364784, 35.5847491], [-97.6364794, 35.584603], [-97.6364418, 35.5846028], [-97.6364422, 35.5845537]]]}, "properties": {"osm_id": 1150592978, "building": "house", "name": "", "height": null, "height_m": null, "levels": null, "tract_id": "40109108529", "tract_name": "1085.29", "tags": {"addr:city": "Oklahoma City", "addr:housenumber": "11316", "addr:postcode": "73162", "addr:state": "OK", "addr:street": "Richaven Road", "building": "house"}}}, {"type": "Feature", "geometry": {"type": "Polygon", "coordinates": [[[-97.6366836, 35.5848209], [-97.6366829, 35.5849213], [-97.6366261, 35.584921], [-97.6366258, 35.584955], [-97.6366399, 35.5849551], [-97.6366395, 35.585016], [-97.6364328, 35.5850151], [-97.6364341, 35.5848198], [-97.6366836, 35.5848209]]]}, "properties": {"osm_id": 1150592979, "building": "house", "name": "", "height": null, "height_m": null, "levels": null, "tract_id": "40109108529", "tract_name": "1085.29", "tags": {"addr:city": "Oklahoma City", "addr:housenumber": "11400", "addr:postcode": "73162", "addr:state": "OK", "addr:street": "Richaven Road", "building": "house"}}}, {"type": "Feature", "geometry": {"type": "Polygon", "coordinates": [[[-97.6366241, 35.5852994], [-97.6364353, 35.5852986], [-97.6364368, 35.5850772], [-97.6365732, 35.5850779], [-97.6365728, 35.5851361], [-97.636686, 35.5851367], [-97.6366855, 35.5852103], [-97.6366247, 35.58521], [-97.6366241, 35.5852994]]]}, "properties": {"osm_id": 1150592980, "building": "house", "name": "", "height": null, "height_m": null, "levels": null, "tract_id": "40109108529", "tract_name": "1085.29", "tags": {"addr:city": "Oklahoma City", "addr:housenumber": "11408", "addr:postcode": "73162", "addr:state": "OK", "addr:street": "Richaven Road", "building": "house"}}}, {"type": "Feature", "geometry": {"type": "Polygon", "coordinates": [[[-97.6366807, 35.5855648], [-97.6364687, 35.5855638], [-97.6364692, 35.585489], [-97.6364506, 35.5854889], [-97.6364516, 35.5853455], [-97.6365783, 35.5853461], [-97.636578, 35.5853917], [-97.6366819, 35.5853922], [-97.6366814, 35.5854682], [-97.6366402, 35.585468], [-97.6366399, 35.5855171], [-97.636681, 35.5855173], [-97.6366807, 35.5855648]]]}, "properties": {"osm_id": 1150592981, "building": "house", "name": "", "height": null, "height_m": null, "levels": null, "tract_id": "40109108529", "tract_name": "1085.29", "tags": {"addr:city": "Oklahoma City", "addr:housenumber": "11416", "addr:postcode": "73162", "addr:state": "OK", "addr:street": "Richaven Road", "building": "house"}}}, {"type": "Feature", "geometry": {"type": "Polygon", "coordinates": [[[-97.6366796, 35.5857905], [-97.6364482, 35.5857895], [-97.6364494, 35.585615], [-97.6366364, 35.5856158], [-97.6366361, 35.5856602], [-97.636616, 35.5856601], [-97.6366159, 35.5856741], [-97.6365998, 35.585674], [-97.6365996, 35.5856996], [-97.6366802, 35.5857], [-97.6366796, 35.5857905]]]}, "properties": {"osm_id": 1150592982, "building": "house", "name": "", "height": null, "height_m": null, "levels": null, "tract_id": "40109108529", "tract_name": "1085.29", "tags": {"addr:city": "Oklahoma City", "addr:housenumber": "11500", "addr:postcode": "73162", "addr:state": "OK", "addr:street": "Richaven Road", "building": "house"}}}, {"type": "Feature", "geometry": {"type": "Polygon", "coordinates": [[[-97.6366432, 35.5860619], [-97.6364661, 35.5860611], [-97.6364665, 35.5859999], [-97.6364755, 35.586], [-97.6364766, 35.5858473], [-97.6366851, 35.5858482], [-97.6366845, 35.5859339], [-97.636659, 35.5859338], [-97.6366584, 35.5860272], [-97.6366435, 35.5860271], [-97.6366432, 35.5860619]]]}, "properties": {"osm_id": 1150592983, "building": "house", "name": "", "height": null, "height_m": null, "levels": null, "tract_id": "40109108529", "tract_name": "1085.29", "tags": {"addr:city": "Oklahoma City", "addr:housenumber": "11508", "addr:postcode": "73162", "addr:state": "OK", "addr:street": "Richaven Road", "building": "house"}}}, {"type": "Feature", "geometry": {"type": "Polygon", "coordinates": [[[-97.6366523, 35.5863401], [-97.6364486, 35.5863391], [-97.636449, 35.5862846], [-97.6364723, 35.5862847], [-97.6364724, 35.5862646], [-97.6364279, 35.5862644], [-97.6364288, 35.5861417], [-97.636583, 35.5861424], [-97.6365827, 35.5861863], [-97.636682, 35.5861868], [-97.6366815, 35.5862595], [-97.6366314, 35.5862593], [-97.6366312, 35.5862916], [-97.6366527, 35.5862917], [-97.6366523, 35.5863401]]]}, "properties": {"osm_id": 1150592984, "building": "house", "name": "", "height": null, "height_m": null, "levels": null, "tract_id": "40109108529", "tract_name": "1085.29", "tags": {"addr:city": "Oklahoma City", "addr:housenumber": "11600", "addr:postcode": "73162", "addr:state": "OK", "addr:street": "Richaven Road", "building": "house"}}}, {"type": "Feature", "geometry": {"type": "Polygon", "coordinates": [[[-97.6366916, 35.5865758], [-97.6364439, 35.5865746], [-97.6364443, 35.5865147], [-97.6364909, 35.586515], [-97.6364914, 35.5864441], [-97.6364433, 35.5864438], [-97.6364437, 35.5863805], [-97.636693, 35.5863816], [-97.6366923, 35.5864798], [-97.6366596, 35.5864797], [-97.6366593, 35.5865211], [-97.636692, 35.5865213], [-97.6366916, 35.5865758]]]}, "properties": {"osm_id": 1150592985, "building": "house", "name": "", "height": null, "height_m": null, "levels": null, "tract_id": "40109108529", "tract_name": "1085.29", "tags": {"addr:city": "Oklahoma City", "addr:housenumber": "11608", "addr:postcode": "73162", "addr:state": "OK", "addr:street": "Richaven Road", "building": "house"}}}, {"type": "Feature", "geometry": {"type": "Polygon", "coordinates": [[[-97.6366849, 35.5868234], [-97.6365166, 35.5868234], [-97.6365166, 35.5867645], [-97.6364328, 35.5867645], [-97.6364328, 35.5866892], [-97.6366849, 35.5866892], [-97.6366849, 35.5868234]]]}, "properties": {"osm_id": 1150592986, "building": "house", "name": "", "height": null, "height_m": null, "levels": null, "tract_id": "40109108529", "tract_name": "1085.29", "tags": {"addr:city": "Oklahoma City", "addr:housenumber": "11616", "addr:postcode": "73162", "addr:state": "OK", "addr:street": "Richaven Road", "building": "house"}}}, {"type": "Feature", "geometry": {"type": "Polygon", "coordinates": [[[-97.6355061, 35.5845472], [-97.6357448, 35.5845462], [-97.6357451, 35.5845963], [-97.6356863, 35.5845965], [-97.6356868, 35.5846658], [-97.6357456, 35.5846655], [-97.6357462, 35.58476], [-97.6355074, 35.5847609], [-97.6355067, 35.584648], [-97.6355297, 35.584648], [-97.6355294, 35.5846033], [-97.6355064, 35.5846033], [-97.6355061, 35.5845472]]]}, "properties": {"osm_id": 1150592987, "building": "house", "name": "", "height": null, "height_m": null, "levels": null, "tract_id": "40109108529", "tract_name": "1085.29", "tags": {"addr:city": "Oklahoma City", "addr:housenumber": "11316", "addr:postcode": "73162", "addr:state": "OK", "addr:street": "Way Cross Road", "building": "house"}}}, {"type": "Feature", "geometry": {"type": "Polygon", "coordinates": [[[-97.6354967, 35.5844905], [-97.6354967, 35.5843901], [-97.6355309, 35.5843901], [-97.6355309, 35.584281], [-97.6357421, 35.584281], [-97.6357421, 35.5843792], [-97.6357066, 35.5843792], [-97.6357066, 35.5844905], [-97.6354967, 35.5844905]]]}, "properties": {"osm_id": 1150592988, "building": "house", "name": "", "height": null, "height_m": null, "levels": null, "tract_id": "40109108529", "tract_name": "1085.29", "tags": {"addr:city": "Oklahoma City", "addr:housenumber": "11308", "addr:postcode": "73162", "addr:state": "OK", "addr:street": "Way Cross Road", "building": "house"}}}, {"type": "Feature", "geometry": {"type": "Polygon", "coordinates": [[[-97.6355049, 35.5841445], [-97.6355074, 35.5840193], [-97.6357041, 35.5840219], [-97.6357032, 35.5840657], [-97.635696, 35.5840656], [-97.6356957, 35.5840804], [-97.635687, 35.5840802], [-97.6356862, 35.5841194], [-97.6357454, 35.5841202], [-97.6357434, 35.5842199], [-97.6355483, 35.5842173], [-97.6355498, 35.5841451], [-97.6355049, 35.5841445]]]}, "properties": {"osm_id": 1150592989, "building": "house", "name": "", "height": null, "height_m": null, "levels": null, "tract_id": "40109108529", "tract_name": "1085.29", "tags": {"addr:city": "Oklahoma City", "addr:housenumber": "11300", "addr:postcode": "73162", "addr:state": "OK", "addr:street": "Way Cross Road", "building": "house"}}}, {"type": "Feature", "geometry": {"type": "Polygon", "coordinates": [[[-97.6362552, 35.5842163], [-97.6361372, 35.5842143], [-97.6361364, 35.5842453], [-97.6360344, 35.5842436], [-97.6360369, 35.5841414], [-97.636087, 35.5841423], [-97.6360872, 35.5841326], [-97.636078, 35.5841324], [-97.6360783, 35.5841192], [-97.6360726, 35.5841191], [-97.6360738, 35.5840684], [-97.6360863, 35.5840686], [-97.6360873, 35.5840274], [-97.6362598, 35.5840302], [-97.6362552, 35.5842163]]]}, "properties": {"osm_id": 1150592990, "building": "house", "name": "", "height": null, "height_m": null, "levels": null, "tract_id": "40109108529", "tract_name": "1085.29", "tags": {"addr:city": "Oklahoma City", "addr:housenumber": "11301", "addr:postcode": "73162", "addr:state": "OK", "addr:street": "Way Cross Road", "building": "house"}}}, {"type": "Feature", "geometry": {"type": "Polygon", "coordinates": [[[-97.6362772, 35.5844883], [-97.6360848, 35.5844883], [-97.6360848, 35.5844149], [-97.6361015, 35.5844149], [-97.6361015, 35.5843907], [-97.6360399, 35.5843907], [-97.6360399, 35.5842898], [-97.6362772, 35.5842898], [-97.6362772, 35.5844883]]]}, "properties": {"osm_id": 1150592991, "building": "house", "name": "", "height": null, "height_m": null, "levels": null, "tract_id": "40109108529", "tract_name": "1085.29", "tags": {"addr:city": "Oklahoma City", "addr:housenumber": "11309", "addr:postcode": "73162", "addr:state": "OK", "addr:street": "Way Cross Road", "building": "house"}}}, {"type": "Feature", "geometry": {"type": "Polygon", "coordinates": [[[-97.6362665, 35.5847522], [-97.6361354, 35.5847512], [-97.636136, 35.5847001], [-97.6360404, 35.5846993], [-97.6360413, 35.5846257], [-97.6360785, 35.584626], [-97.6360791, 35.5845736], [-97.636042, 35.5845733], [-97.6360425, 35.5845268], [-97.6362692, 35.5845286], [-97.6362665, 35.5847522]]]}, "properties": {"osm_id": 1150592992, "building": "house", "name": "", "height": null, "height_m": null, "levels": null, "tract_id": "40109108529", "tract_name": "1085.29", "tags": {"addr:city": "Oklahoma City", "addr:housenumber": "11317", "addr:postcode": "73162", "addr:state": "OK", "addr:street": "Way Cross Road", "building": "house"}}}, {"type": "Feature", "geometry": {"type": "Polygon", "coordinates": [[[-97.6362585, 35.5850445], [-97.6360982, 35.5850445], [-97.6360982, 35.5849218], [-97.6360399, 35.5849218], [-97.6360399, 35.5848335], [-97.6362585, 35.5848335], [-97.6362585, 35.5850445]]]}, "properties": {"osm_id": 1150592993, "building": "house", "name": "", "height": null, "height_m": null, "levels": null, "tract_id": "40109108529", "tract_name": "1085.29", "tags": {"addr:city": "Oklahoma City", "addr:housenumber": "11401", "addr:postcode": "73162", "addr:state": "OK", "addr:street": "Way Cross Road", "building": "house"}}}, {"type": "Feature", "geometry": {"type": "Polygon", "coordinates": [[[-97.636296, 35.5850707], [-97.6362943, 35.5851476], [-97.6362768, 35.5851473], [-97.6362745, 35.5852537], [-97.6360425, 35.5852503], [-97.6360445, 35.5851596], [-97.6360695, 35.5851599], [-97.6360715, 35.5850674], [-97.636296, 35.5850707]]]}, "properties": {"osm_id": 1150592994, "building": "house", "name": "", "height": null, "height_m": null, "levels": null, "tract_id": "40109108529", "tract_name": "1085.29", "tags": {"addr:city": "Oklahoma City", "addr:housenumber": "11409", "addr:postcode": "73162", "addr:state": "OK", "addr:street": "Way Cross Road", "building": "house"}}}, {"type": "Feature", "geometry": {"type": "Polygon", "coordinates": [[[-97.6362692, 35.5855658], [-97.6360386, 35.585564], [-97.6360399, 35.5854584], [-97.6360677, 35.5854586], [-97.6360691, 35.5853461], [-97.6362719, 35.5853477], [-97.6362692, 35.5855658]]]}, "properties": {"osm_id": 1150592995, "building": "house", "name": "", "height": null, "height_m": null, "levels": null, "tract_id": "40109108529", "tract_name": "1085.29", "tags": {"addr:city": "Oklahoma City", "addr:housenumber": "11501", "addr:postcode": "73162", "addr:state": "OK", "addr:street": "Way Cross Road", "building": "house"}}}, {"type": "Feature", "geometry": {"type": "Polygon", "coordinates": [[[-97.6336453, 35.5865049], [-97.6336126, 35.5863933], [-97.6336883, 35.5863786], [-97.633678, 35.5863435], [-97.6336504, 35.5863488], [-97.6336281, 35.5862731], [-97.6336723, 35.5862645], [-97.6336867, 35.5862426], [-97.6336862, 35.5862411], [-97.6337091, 35.5862366], [-97.6337211, 35.5862183], [-97.6338202, 35.586199], [-97.6338369, 35.5862559], [-97.6338084, 35.5862614], [-97.6338225, 35.5863094], [-97.6338305, 35.5863079], [-97.6338528, 35.586384], [-97.6337084, 35.586412], [-97.6337308, 35.5864883], [-97.6336453, 35.5865049]]]}, "properties": {"osm_id": 1151107496, "building": "yes", "name": "", "height": null, "height_m": null, "levels": null, "tract_id": "40109108529", "tract_name": "1085.29", "tags": {"building": "yes"}}}, {"type": "Feature", "geometry": {"type": "Polygon", "coordinates": [[[-97.6340718, 35.5864923], [-97.6339978, 35.5865565], [-97.6339833, 35.5865455], [-97.6339063, 35.5866123], [-97.633855, 35.5865732], [-97.6338791, 35.5865523], [-97.6338454, 35.5865267], [-97.6338338, 35.5865368], [-97.6337785, 35.5864948], [-97.6338915, 35.5863967], [-97.6339167, 35.586416], [-97.6339249, 35.586409], [-97.633955, 35.5864319], [-97.6339469, 35.5864389], [-97.6339798, 35.5864639], [-97.6340053, 35.5864417], [-97.6340718, 35.5864923]]]}, "properties": {"osm_id": 1151107497, "building": "yes", "name": "", "height": null, "height_m": null, "levels": null, "tract_id": "40109108529", "tract_name": "1085.29", "tags": {"building": "yes"}}}, {"type": "Feature", "geometry": {"type": "Polygon", "coordinates": [[[-97.6345531, 35.5869551], [-97.6347456, 35.5869138], [-97.6347739, 35.5870011], [-97.6347235, 35.5870119], [-97.6347326, 35.58704], [-97.6347435, 35.5870376], [-97.6347526, 35.5870655], [-97.634792, 35.5870571], [-97.6348062, 35.5871008], [-97.6346298, 35.5871387], [-97.6345953, 35.5870324], [-97.634567, 35.5870304], [-97.634558, 35.5870026], [-97.6345579, 35.5870026], [-97.6345644, 35.5869898], [-97.6345531, 35.5869551]]]}, "properties": {"osm_id": 1151107498, "building": "yes", "name": "", "height": null, "height_m": null, "levels": null, "tract_id": "40109108529", "tract_name": "1085.29", "tags": {"building": "yes"}}}, {"type": "Feature", "geometry": {"type": "Polygon", "coordinates": [[[-97.6348334, 35.5872847], [-97.634834, 35.5871975], [-97.6348341, 35.5871816], [-97.6348383, 35.5871816], [-97.6348384, 35.5871645], [-97.6348497, 35.5871646], [-97.6348499, 35.5871447], [-97.6349029, 35.587145], [-97.6349028, 35.5871586], [-97.6349587, 35.5871589], [-97.6349589, 35.5871305], [-97.635072, 35.587131], [-97.6350715, 35.5871999], [-97.6350361, 35.5871997], [-97.6350355, 35.5872857], [-97.6349412, 35.5872852], [-97.6349414, 35.5872581], [-97.6348974, 35.5872579], [-97.6348972, 35.587285], [-97.6348334, 35.5872847]]]}, "properties": {"osm_id": 1151107499, "building": "yes", "name": "", "height": null, "height_m": null, "levels": null, "tract_id": "40109108529", "tract_name": "1085.29", "tags": {"building": "yes"}}}, {"type": "Feature", "geometry": {"type": "Polygon", "coordinates": [[[-97.6367131, 35.5872721], [-97.6366648, 35.5870679], [-97.6367776, 35.5870503], [-97.6367912, 35.5871078], [-97.6369225, 35.5870873], [-97.6369545, 35.5872228], [-97.6368957, 35.587232], [-97.6368913, 35.5872135], [-97.6368311, 35.5872229], [-97.6368364, 35.587245], [-97.6367939, 35.5872516], [-97.6367957, 35.5872592], [-97.6367131, 35.5872721]]]}, "properties": {"osm_id": 1151107500, "building": "yes", "name": "", "height": null, "height_m": null, "levels": null, "tract_id": "40109108529", "tract_name": "1085.29", "tags": {"building": "yes"}}}, {"type": "Feature", "geometry": {"type": "Polygon", "coordinates": [[[-97.6369468, 35.5870451], [-97.6370046, 35.5870323], [-97.6370079, 35.5870422], [-97.6370306, 35.5870372], [-97.6370355, 35.587052], [-97.6370626, 35.587046], [-97.6370544, 35.5870214], [-97.6371669, 35.5869966], [-97.6372102, 35.5871268], [-97.6371513, 35.5871398], [-97.6371632, 35.5871756], [-97.6371148, 35.5871863], [-97.6371128, 35.5871801], [-97.6370613, 35.5871914], [-97.6370625, 35.5871948], [-97.6370011, 35.5872083], [-97.6369468, 35.5870451]]]}, "properties": {"osm_id": 1151107501, "building": "yes", "name": "", "height": null, "height_m": null, "levels": null, "tract_id": "40109108529", "tract_name": "1085.29", "tags": {"building": "yes"}}}, {"type": "Feature", "geometry": {"type": "Polygon", "coordinates": [[[-97.6374722, 35.5870704], [-97.6374065, 35.587091], [-97.6374018, 35.5870811], [-97.637312, 35.5871093], [-97.6373168, 35.5871193], [-97.6372589, 35.5871375], [-97.637172, 35.5869547], [-97.6372773, 35.5869215], [-97.6372985, 35.5869661], [-97.6373424, 35.5869523], [-97.6373444, 35.5869295], [-97.6373704, 35.5869213], [-97.6373995, 35.5869349], [-97.637407, 35.5869329], [-97.6374722, 35.5870704]]]}, "properties": {"osm_id": 1151107502, "building": "yes", "name": "", "height": null, "height_m": null, "levels": null, "tract_id": "40109108529", "tract_name": "1085.29", "tags": {"building": "yes"}}}, {"type": "Feature", "geometry": {"type": "Polygon", "coordinates": [[[-97.6378336, 35.5868381], [-97.637624, 35.5869461], [-97.6375682, 35.5868745], [-97.6375563, 35.5868806], [-97.6375131, 35.5868252], [-97.6375611, 35.5868004], [-97.6375572, 35.5867954], [-97.6376213, 35.5867624], [-97.6376401, 35.5867866], [-97.6377494, 35.5867302], [-97.6378336, 35.5868381]]]}, "properties": {"osm_id": 1151107503, "building": "yes", "name": "", "height": null, "height_m": null, "levels": null, "tract_id": "40109108529", "tract_name": "1085.29", "tags": {"building": "yes"}}}, {"type": "Feature", "geometry": {"type": "Polygon", "coordinates": [[[-97.6381809, 35.5867083], [-97.6380986, 35.586759], [-97.6380945, 35.5867546], [-97.6379907, 35.5868185], [-97.6379689, 35.5867952], [-97.6379593, 35.5868011], [-97.6378635, 35.5866981], [-97.6379585, 35.5866397], [-97.6379779, 35.5866605], [-97.6379892, 35.5866536], [-97.6379893, 35.5866411], [-97.6380119, 35.5866272], [-97.638041, 35.5866325], [-97.6380851, 35.5866054], [-97.6381809, 35.5867083]]]}, "properties": {"osm_id": 1151107504, "building": "yes", "name": "", "height": null, "height_m": null, "levels": null, "tract_id": "40109108529", "tract_name": "1085.29", "tags": {"building": "yes"}}}, {"type": "Feature", "geometry": {"type": "Polygon", "coordinates": [[[-97.6234906, 35.5898107], [-97.6233723, 35.5896929], [-97.6231374, 35.5898489], [-97.6231636, 35.5898751], [-97.6230977, 35.5899189], [-97.6230858, 35.5899071], [-97.6230231, 35.5899488], [-97.6231269, 35.5900522], [-97.6234906, 35.5898107]]]}, "properties": {"osm_id": 1171901532, "building": "yes", "name": "", "height": null, "height_m": null, "levels": null, "tract_id": "40109108529", "tract_name": "1085.29", "tags": {"building": "yes", "source": "microsoft/BuildingFootprints"}}}, {"type": "Feature", "geometry": {"type": "Polygon", "coordinates": [[[-97.6233512, 35.5912448], [-97.6233506, 35.5913181], [-97.6233882, 35.5913183], [-97.6233872, 35.5914426], [-97.6235401, 35.5914434], [-97.6235414, 35.5912733], [-97.6234609, 35.5912729], [-97.6234612, 35.5912453], [-97.6233512, 35.5912448]]]}, "properties": {"osm_id": 1171901533, "building": "yes", "name": "", "height": null, "height_m": null, "levels": null, "tract_id": "40109108529", "tract_name": "1085.29", "tags": {"building": "yes", "source": "microsoft/BuildingFootprints"}}}, {"type": "Feature", "geometry": {"type": "Polygon", "coordinates": [[[-97.6241853, 35.590708], [-97.624182, 35.5905408], [-97.6239903, 35.5905433], [-97.6239921, 35.5906349], [-97.6239371, 35.5906356], [-97.6239386, 35.5907111], [-97.6241853, 35.590708]]]}, "properties": {"osm_id": 1171901534, "building": "yes", "name": "", "height": null, "height_m": null, "levels": null, "tract_id": "40109108529", "tract_name": "1085.29", "tags": {"building": "yes", "source": "microsoft/BuildingFootprints"}}}, {"type": "Feature", "geometry": {"type": "Polygon", "coordinates": [[[-97.6228271, 35.5914211], [-97.6230296, 35.5914174], [-97.6230253, 35.5912626], [-97.6230041, 35.591263], [-97.6230036, 35.5912434], [-97.6228785, 35.5912457], [-97.6228818, 35.5913634], [-97.6228255, 35.5913644], [-97.6228271, 35.5914211]]]}, "properties": {"osm_id": 1171901535, "building": "yes", "name": "", "height": null, "height_m": null, "levels": null, "tract_id": "40109108529", "tract_name": "1085.29", "tags": {"building": "yes", "source": "microsoft/BuildingFootprints"}}}, {"type": "Feature", "geometry": {"type": "Polygon", "coordinates": [[[-97.6230358, 35.5917401], [-97.6228627, 35.5917408], [-97.622863, 35.5918019], [-97.6228943, 35.5918018], [-97.6228944, 35.5918257], [-97.6229117, 35.5918257], [-97.6229119, 35.5918606], [-97.6228649, 35.5918608], [-97.6228653, 35.5919262], [-97.6229191, 35.591926], [-97.6229192, 35.5919394], [-97.6229326, 35.5919509], [-97.6229535, 35.5919508], [-97.6229539, 35.5920087], [-97.6230547, 35.5920083], [-97.6230541, 35.5919058], [-97.6230368, 35.5919059], [-97.6230358, 35.5917401]]]}, "properties": {"osm_id": 1171901536, "building": "yes", "name": "", "height": null, "height_m": null, "levels": null, "tract_id": "40109108529", "tract_name": "1085.29", "tags": {"building": "yes", "source": "microsoft/BuildingFootprints"}}}, {"type": "Feature", "geometry": {"type": "Polygon", "coordinates": [[[-97.6239722, 35.5917415], [-97.6239692, 35.5918439], [-97.6239385, 35.5918434], [-97.6239365, 35.5919145], [-97.6241242, 35.591918], [-97.6241255, 35.5918723], [-97.624155, 35.5918728], [-97.6241586, 35.591745], [-97.6239722, 35.5917415]]]}, "properties": {"osm_id": 1171901538, "building": "yes", "name": "", "height": null, "height_m": null, "levels": null, "tract_id": "40109108529", "tract_name": "1085.29", "tags": {"building": "yes", "source": "microsoft/BuildingFootprints"}}}, {"type": "Feature", "geometry": {"type": "Polygon", "coordinates": [[[-97.6226418, 35.59229], [-97.6225672, 35.5923318], [-97.6225065, 35.5922601], [-97.6223871, 35.5923269], [-97.6224986, 35.5924587], [-97.6226927, 35.5923502], [-97.6226418, 35.59229]]]}, "properties": {"osm_id": 1171901539, "building": "yes", "name": "", "height": null, "height_m": null, "levels": null, "tract_id": "40109108529", "tract_name": "1085.29", "tags": {"building": "yes", "source": "microsoft/BuildingFootprints"}}}, {"type": "Feature", "geometry": {"type": "Polygon", "coordinates": [[[-97.6225969, 35.5902239], [-97.6228047, 35.5902476], [-97.6228169, 35.590177], [-97.6227459, 35.5901689], [-97.6227651, 35.5900577], [-97.6228019, 35.5900619], [-97.6228241, 35.5899336], [-97.6228583, 35.5899375], [-97.6228665, 35.5898904], [-97.6226902, 35.5898703], [-97.6226743, 35.5899622], [-97.6226428, 35.5899586], [-97.6225969, 35.5902239]]]}, "properties": {"osm_id": 1171901542, "building": "yes", "name": "", "height": null, "height_m": null, "levels": null, "tract_id": "40109108529", "tract_name": "1085.29", "tags": {"building": "yes", "source": "microsoft/BuildingFootprints"}}}, {"type": "Feature", "geometry": {"type": "Polygon", "coordinates": [[[-97.6239701, 35.5915139], [-97.6239508, 35.5916826], [-97.6241171, 35.5916952], [-97.6241257, 35.5916205], [-97.624083, 35.5916173], [-97.624086, 35.5915918], [-97.6241233, 35.5915946], [-97.6241311, 35.5915261], [-97.6239701, 35.5915139]]]}, "properties": {"osm_id": 1171901543, "building": "yes", "name": "", "height": null, "height_m": null, "levels": null, "tract_id": "40109108529", "tract_name": "1085.29", "tags": {"building": "yes", "source": "microsoft/BuildingFootprints"}}}, {"type": "Feature", "geometry": {"type": "Polygon", "coordinates": [[[-97.6232821, 35.5923269], [-97.6231843, 35.592328], [-97.6231848, 35.592355], [-97.6230587, 35.5923563], [-97.6230608, 35.592482], [-97.6232389, 35.5924801], [-97.6232383, 35.5924438], [-97.6232839, 35.5924434], [-97.6232821, 35.5923269]]]}, "properties": {"osm_id": 1171901545, "building": "yes", "name": "", "height": null, "height_m": null, "levels": null, "tract_id": "40109108529", "tract_name": "1085.29", "tags": {"building": "yes", "source": "microsoft/BuildingFootprints"}}}, {"type": "Feature", "geometry": {"type": "Polygon", "coordinates": [[[-97.6230296, 35.5901868], [-97.6230298, 35.5903482], [-97.623121, 35.5903481], [-97.623121, 35.5903329], [-97.6233302, 35.5903326], [-97.6233302, 35.5903195], [-97.6234402, 35.5903194], [-97.62344, 35.5902082], [-97.6232549, 35.5902084], [-97.6232549, 35.5901866], [-97.6230296, 35.5901868]]]}, "properties": {"osm_id": 1171901547, "building": "yes", "name": "", "height": null, "height_m": null, "levels": null, "tract_id": "40109108529", "tract_name": "1085.29", "tags": {"building": "yes", "source": "microsoft/BuildingFootprints"}}}, {"type": "Feature", "geometry": {"type": "Polygon", "coordinates": [[[-97.6227571, 35.5897504], [-97.6228634, 35.5898492], [-97.6229697, 35.5897735], [-97.622987, 35.5897895], [-97.6230492, 35.5897452], [-97.6230133, 35.5897119], [-97.6231226, 35.5896341], [-97.6231067, 35.5896192], [-97.6232084, 35.5895468], [-97.623098, 35.5894443], [-97.6228734, 35.5896043], [-97.6229119, 35.5896401], [-97.6227571, 35.5897504]]]}, "properties": {"osm_id": 1171901550, "building": "yes", "name": "", "height": null, "height_m": null, "levels": null, "tract_id": "40109108529", "tract_name": "1085.29", "tags": {"building": "yes", "source": "microsoft/BuildingFootprints"}}}, {"type": "Feature", "geometry": {"type": "Polygon", "coordinates": [[[-97.6239439, 35.5934916], [-97.6239442, 35.5935614], [-97.6239995, 35.5935612], [-97.624, 35.5936834], [-97.6241931, 35.5936828], [-97.6241928, 35.593613], [-97.6241633, 35.5936131], [-97.6241627, 35.593491], [-97.6239439, 35.5934916]]]}, "properties": {"osm_id": 1171901551, "building": "yes", "name": "", "height": null, "height_m": null, "levels": null, "tract_id": "40109108529", "tract_name": "1085.29", "tags": {"building": "yes", "source": "microsoft/BuildingFootprints"}}}, {"type": "Feature", "geometry": {"type": "Polygon", "coordinates": [[[-97.6242875, 35.591416], [-97.6243786, 35.591418], [-97.6243829, 35.5912894], [-97.6242087, 35.5912856], [-97.6242084, 35.5912943], [-97.6241468, 35.591293], [-97.6241444, 35.5913646], [-97.6241555, 35.5913649], [-97.6241548, 35.5913873], [-97.6242884, 35.5913902], [-97.6242875, 35.591416]]]}, "properties": {"osm_id": 1171901553, "building": "yes", "name": "", "height": null, "height_m": null, "levels": null, "tract_id": "40109108529", "tract_name": "1085.29", "tags": {"building": "yes", "source": "microsoft/BuildingFootprints"}}}, {"type": "Feature", "geometry": {"type": "Polygon", "coordinates": [[[-97.6241852, 35.5898511], [-97.6239963, 35.5899695], [-97.6240894, 35.5900677], [-97.6241882, 35.5900057], [-97.6241653, 35.5899815], [-97.6242553, 35.589925], [-97.6241852, 35.5898511]]]}, "properties": {"osm_id": 1171901556, "building": "yes", "name": "", "height": null, "height_m": null, "levels": null, "tract_id": "40109108529", "tract_name": "1085.29", "tags": {"building": "yes", "source": "microsoft/BuildingFootprints"}}}, {"type": "Feature", "geometry": {"type": "Polygon", "coordinates": [[[-97.6240743, 35.5924012], [-97.6239117, 35.5925386], [-97.6239666, 35.5925815], [-97.6240015, 35.5925521], [-97.6241012, 35.5926301], [-97.624132, 35.592604], [-97.6242086, 35.592664], [-97.6242903, 35.5925949], [-97.6241041, 35.5924491], [-97.6241192, 35.5924363], [-97.6240743, 35.5924012]]]}, "properties": {"osm_id": 1171901557, "building": "yes", "name": "", "height": null, "height_m": null, "levels": null, "tract_id": "40109108529", "tract_name": "1085.29", "tags": {"building": "yes", "source": "microsoft/BuildingFootprints"}}}, {"type": "Feature", "geometry": {"type": "Polygon", "coordinates": [[[-97.6228344, 35.5912154], [-97.6229212, 35.5912144], [-97.6229208, 35.5911887], [-97.6229934, 35.5911879], [-97.622992, 35.5911024], [-97.6230256, 35.591102], [-97.623024, 35.5910061], [-97.6228804, 35.5910077], [-97.6228809, 35.591036], [-97.622847, 35.5910364], [-97.6228477, 35.5910749], [-97.622832, 35.5910751], [-97.6228344, 35.5912154]]]}, "properties": {"osm_id": 1171901558, "building": "yes", "name": "", "height": null, "height_m": null, "levels": null, "tract_id": "40109108529", "tract_name": "1085.29", "tags": {"building": "yes", "source": "microsoft/BuildingFootprints"}}}, {"type": "Feature", "geometry": {"type": "Polygon", "coordinates": [[[-97.6233677, 35.5912157], [-97.6236305, 35.5912144], [-97.6236301, 35.5911599], [-97.6235684, 35.5911602], [-97.6235677, 35.5910643], [-97.6235892, 35.5910642], [-97.6235889, 35.5910183], [-97.6233662, 35.5910194], [-97.6233669, 35.5911154], [-97.6233919, 35.5911153], [-97.623392, 35.5911376], [-97.6233671, 35.5911378], [-97.6233677, 35.5912157]]]}, "properties": {"osm_id": 1171901559, "building": "yes", "name": "", "height": null, "height_m": null, "levels": null, "tract_id": "40109108529", "tract_name": "1085.29", "tags": {"building": "yes", "source": "microsoft/BuildingFootprints"}}}, {"type": "Feature", "geometry": {"type": "Polygon", "coordinates": [[[-97.6239904, 35.5905098], [-97.6241418, 35.5905061], [-97.6241375, 35.5903906], [-97.6241925, 35.5903892], [-97.6241896, 35.590313], [-97.6239833, 35.590318], [-97.6239904, 35.5905098]]]}, "properties": {"osm_id": 1171901560, "building": "yes", "name": "", "height": null, "height_m": null, "levels": null, "tract_id": "40109108529", "tract_name": "1085.29", "tags": {"building": "yes", "source": "microsoft/BuildingFootprints"}}}, {"type": "Feature", "geometry": {"type": "Polygon", "coordinates": [[[-97.6236052, 35.592265], [-97.6234689, 35.5921735], [-97.6234149, 35.5922267], [-97.6234723, 35.5922652], [-97.6233762, 35.5923599], [-97.6234783, 35.5924285], [-97.6235441, 35.5923636], [-97.623584, 35.5923904], [-97.6236407, 35.5923346], [-97.6235775, 35.5922922], [-97.6236052, 35.592265]]]}, "properties": {"osm_id": 1171901561, "building": "yes", "name": "", "height": null, "height_m": null, "levels": null, "tract_id": "40109108529", "tract_name": "1085.29", "tags": {"building": "yes", "source": "microsoft/BuildingFootprints"}}}, {"type": "Feature", "geometry": {"type": "Polygon", "coordinates": [[[-97.623669, 35.5921474], [-97.6236697, 35.5920842], [-97.6236977, 35.5920844], [-97.6236994, 35.5919383], [-97.623438, 35.5919363], [-97.6234357, 35.5921457], [-97.623669, 35.5921474]]]}, "properties": {"osm_id": 1171901563, "building": "yes", "name": "", "height": null, "height_m": null, "levels": null, "tract_id": "40109108529", "tract_name": "1085.29", "tags": {"building": "yes", "source": "microsoft/BuildingFootprints"}}}, {"type": "Feature", "geometry": {"type": "Polygon", "coordinates": [[[-97.6230075, 35.5922982], [-97.6229136, 35.5922988], [-97.6229141, 35.5923468], [-97.622867, 35.5923471], [-97.6228668, 35.5923275], [-97.6227718, 35.5923281], [-97.6227735, 35.5924895], [-97.6228298, 35.5924891], [-97.6228295, 35.5924617], [-97.622926, 35.592461], [-97.6229262, 35.5924732], [-97.6230093, 35.5924726], [-97.6230075, 35.5922982]]]}, "properties": {"osm_id": 1171901564, "building": "yes", "name": "", "height": null, "height_m": null, "levels": null, "tract_id": "40109108529", "tract_name": "1085.29", "tags": {"building": "yes", "source": "microsoft/BuildingFootprints"}}}, {"type": "Feature", "geometry": {"type": "Polygon", "coordinates": [[[-97.6239403, 35.5910753], [-97.6239439, 35.5912018], [-97.6240109, 35.5912005], [-97.6240102, 35.5911766], [-97.6241443, 35.5911741], [-97.6241419, 35.5910912], [-97.6241687, 35.5910907], [-97.6241667, 35.5910188], [-97.6240782, 35.5910204], [-97.6240797, 35.5910727], [-97.6239403, 35.5910753]]]}, "properties": {"osm_id": 1171901566, "building": "yes", "name": "", "height": null, "height_m": null, "levels": null, "tract_id": "40109108529", "tract_name": "1085.29", "tags": {"building": "yes", "source": "microsoft/BuildingFootprints"}}}, {"type": "Feature", "geometry": {"type": "Polygon", "coordinates": [[[-97.6233702, 35.5919174], [-97.6235787, 35.5919183], [-97.6235789, 35.5918717], [-97.6235574, 35.5918717], [-97.6235577, 35.5918205], [-97.6235688, 35.591815], [-97.623569, 35.5917908], [-97.6235579, 35.5917807], [-97.6235581, 35.591748], [-97.6236207, 35.5917483], [-97.6236209, 35.5917025], [-97.6233822, 35.5917015], [-97.6233818, 35.5917722], [-97.623414, 35.5917723], [-97.6234137, 35.5918153], [-97.6234405, 35.5918154], [-97.6234405, 35.5918234], [-97.6233708, 35.5918231], [-97.6233702, 35.5919174]]]}, "properties": {"osm_id": 1171901567, "building": "yes", "name": "", "height": null, "height_m": null, "levels": null, "tract_id": "40109108529", "tract_name": "1085.29", "tags": {"building": "yes", "source": "microsoft/BuildingFootprints"}}}, {"type": "Feature", "geometry": {"type": "Polygon", "coordinates": [[[-97.6234855, 35.5906673], [-97.6234894, 35.5905051], [-97.6233955, 35.5905036], [-97.6233947, 35.5905393], [-97.6233142, 35.5905381], [-97.6233149, 35.5905089], [-97.6231755, 35.5905067], [-97.6231748, 35.5905359], [-97.6230408, 35.5905338], [-97.6230378, 35.5906602], [-97.6234855, 35.5906673]]]}, "properties": {"osm_id": 1171901568, "building": "yes", "name": "", "height": null, "height_m": null, "levels": null, "tract_id": "40109108529", "tract_name": "1085.29", "tags": {"building": "yes", "source": "microsoft/BuildingFootprints"}}}, {"type": "Feature", "geometry": {"type": "Polygon", "coordinates": [[[-97.6227951, 35.5914704], [-97.6227951, 35.5915206], [-97.6228501, 35.5915206], [-97.6228501, 35.5916255], [-97.6228367, 35.5916255], [-97.6228367, 35.5916863], [-97.6230499, 35.5916863], [-97.6230499, 35.5915947], [-97.623007, 35.5915947], [-97.623007, 35.5914704], [-97.6227951, 35.5914704]]]}, "properties": {"osm_id": 1171901571, "building": "yes", "name": "", "height": null, "height_m": null, "levels": null, "tract_id": "40109108529", "tract_name": "1085.29", "tags": {"building": "yes", "source": "microsoft/BuildingFootprints"}}}, {"type": "Feature", "geometry": {"type": "Polygon", "coordinates": [[[-97.6240556, 35.5920155], [-97.6240553, 35.5919588], [-97.6239251, 35.5919592], [-97.6239259, 35.592135], [-97.6241861, 35.5921342], [-97.6241856, 35.5920426], [-97.624104, 35.5920429], [-97.6241039, 35.5920153], [-97.6240556, 35.5920155]]]}, "properties": {"osm_id": 1171901573, "building": "yes", "name": "", "height": null, "height_m": null, "levels": null, "tract_id": "40109108529", "tract_name": "1085.29", "tags": {"building": "yes", "source": "microsoft/BuildingFootprints"}}}, {"type": "Feature", "geometry": {"type": "Polygon", "coordinates": [[[-97.6221835, 35.5922275], [-97.6222869, 35.5922411], [-97.6222973, 35.5921893], [-97.6224341, 35.5922074], [-97.6224385, 35.5921852], [-97.6224742, 35.5921899], [-97.6225123, 35.5919996], [-97.6223253, 35.5919749], [-97.622301, 35.592096], [-97.6222122, 35.5920842], [-97.6221835, 35.5922275]]]}, "properties": {"osm_id": 1171901574, "building": "yes", "name": "", "height": null, "height_m": null, "levels": null, "tract_id": "40109108529", "tract_name": "1085.29", "tags": {"building": "yes", "source": "microsoft/BuildingFootprints"}}}, {"type": "Feature", "geometry": {"type": "Polygon", "coordinates": [[[-97.62396, 35.5932467], [-97.6239519, 35.593458], [-97.6241662, 35.5934635], [-97.6241695, 35.5933785], [-97.6240838, 35.5933764], [-97.6240855, 35.5933306], [-97.6241043, 35.5933311], [-97.6241074, 35.5932505], [-97.62396, 35.5932467]]]}, "properties": {"osm_id": 1171901575, "building": "yes", "name": "", "height": null, "height_m": null, "levels": null, "tract_id": "40109108529", "tract_name": "1085.29", "tags": {"building": "yes", "source": "microsoft/BuildingFootprints"}}}, {"type": "Feature", "geometry": {"type": "Polygon", "coordinates": [[[-97.6241426, 35.5922466], [-97.624103, 35.5922472], [-97.6241025, 35.5922245], [-97.6241179, 35.5922242], [-97.6241167, 35.592175], [-97.6239317, 35.5921781], [-97.6239332, 35.5922391], [-97.623893, 35.5922398], [-97.6238948, 35.5923131], [-97.623935, 35.5923124], [-97.6239361, 35.5923547], [-97.6241452, 35.5923512], [-97.6241426, 35.5922466]]]}, "properties": {"osm_id": 1171901577, "building": "yes", "name": "", "height": null, "height_m": null, "levels": null, "tract_id": "40109108529", "tract_name": "1085.29", "tags": {"building": "yes", "source": "microsoft/BuildingFootprints"}}}, {"type": "Feature", "geometry": {"type": "Polygon", "coordinates": [[[-97.623609, 35.5914769], [-97.6234431, 35.5914758], [-97.6234428, 35.5915075], [-97.6234316, 35.5915074], [-97.623431, 35.5915669], [-97.6234422, 35.591567], [-97.6234419, 35.5915914], [-97.6233706, 35.5915909], [-97.6233697, 35.5916816], [-97.6234755, 35.5916824], [-97.6234757, 35.5916636], [-97.6235776, 35.5916643], [-97.6235777, 35.5916557], [-97.6236233, 35.591656], [-97.6236242, 35.5915643], [-97.6235748, 35.5915639], [-97.623575, 35.5915456], [-97.6235829, 35.5915457], [-97.6235831, 35.591527], [-97.6236085, 35.5915271], [-97.623609, 35.5914769]]]}, "properties": {"osm_id": 1171901578, "building": "yes", "name": "", "height": null, "height_m": null, "levels": null, "tract_id": "40109108529", "tract_name": "1085.29", "tags": {"building": "yes", "source": "microsoft/BuildingFootprints"}}}, {"type": "Feature", "geometry": {"type": "Polygon", "coordinates": [[[-97.6227938, 35.5919033], [-97.6226708, 35.5917655], [-97.6226392, 35.5917842], [-97.62259, 35.591729], [-97.622524, 35.5917679], [-97.6225559, 35.5918036], [-97.6224565, 35.5918623], [-97.6225174, 35.5919306], [-97.6225334, 35.5919211], [-97.6225464, 35.5919357], [-97.622658, 35.59187], [-97.6227242, 35.5919443], [-97.6227938, 35.5919033]]]}, "properties": {"osm_id": 1171901579, "building": "yes", "name": "", "height": null, "height_m": null, "levels": null, "tract_id": "40109108529", "tract_name": "1085.29", "tags": {"building": "yes", "source": "microsoft/BuildingFootprints"}}}, {"type": "Feature", "geometry": {"type": "Polygon", "coordinates": [[[-97.6226495, 35.5902735], [-97.622624, 35.5906291], [-97.6227951, 35.5906372], [-97.6228035, 35.5905207], [-97.6228422, 35.5905225], [-97.6228471, 35.5904542], [-97.6228057, 35.5904523], [-97.6228083, 35.5904162], [-97.6227922, 35.5904154], [-97.622799, 35.5903211], [-97.6228297, 35.5903225], [-97.6228329, 35.5902778], [-97.6227367, 35.5902732], [-97.6227364, 35.5902776], [-97.6226495, 35.5902735]]]}, "properties": {"osm_id": 1171901580, "building": "yes", "name": "", "height": null, "height_m": null, "levels": null, "tract_id": "40109108529", "tract_name": "1085.29", "tags": {"building": "yes", "source": "microsoft/BuildingFootprints"}}}, {"type": "Feature", "geometry": {"type": "Polygon", "coordinates": [[[-97.6242906, 35.5930968], [-97.6242478, 35.5929586], [-97.6241293, 35.5929829], [-97.6241397, 35.5930165], [-97.6240402, 35.5930368], [-97.6240701, 35.5931332], [-97.6240509, 35.5931371], [-97.6240774, 35.5932225], [-97.6241798, 35.5932016], [-97.6241559, 35.5931244], [-97.6242906, 35.5930968]]]}, "properties": {"osm_id": 1171901584, "building": "yes", "name": "", "height": null, "height_m": null, "levels": null, "tract_id": "40109108529", "tract_name": "1085.29", "tags": {"building": "yes", "source": "microsoft/BuildingFootprints"}}}, {"type": "Feature", "geometry": {"type": "Polygon", "coordinates": [[[-97.6239299, 35.5902875], [-97.6241096, 35.5902883], [-97.6241101, 35.5902207], [-97.6240699, 35.5902205], [-97.6240703, 35.5901652], [-97.6240998, 35.5901653], [-97.6241003, 35.5901051], [-97.6239313, 35.5901042], [-97.6239299, 35.5902875]]]}, "properties": {"osm_id": 1171901586, "building": "yes", "name": "", "height": null, "height_m": null, "levels": null, "tract_id": "40109108529", "tract_name": "1085.29", "tags": {"building": "yes", "source": "microsoft/BuildingFootprints"}}}, {"type": "Feature", "geometry": {"type": "Polygon", "coordinates": [[[-97.6380603, 35.5808903], [-97.6376105, 35.5808915], [-97.6376059, 35.5807926], [-97.6378077, 35.5807913], [-97.6378123, 35.5807537], [-97.6379324, 35.5807475], [-97.6379371, 35.5807763], [-97.6380618, 35.5807775], [-97.6380603, 35.5808903]]]}, "properties": {"osm_id": 1227239505, "building": "yes", "name": "Braum's", "height": null, "height_m": null, "levels": null, "tract_id": "40109108529", "tract_name": "1085.29", "tags": {"amenity": "fast_food", "brand": "Braum's", "brand:wikidata": "Q4958263", "building": "yes", "cuisine": "ice_cream;burger", "name": "Braum's", "shop": "dairy", "takeaway": "yes"}}}, {"type": "Feature", "geometry": {"type": "Polygon", "coordinates": [[[-97.636957, 35.5818615], [-97.6367517, 35.5818615], [-97.6367517, 35.5817391], [-97.636959, 35.5817391], [-97.636957, 35.5818615]]]}, "properties": {"osm_id": 1227239506, "building": "yes", "name": "", "height": null, "height_m": null, "levels": null, "tract_id": "40109108529", "tract_name": "1085.29", "tags": {"building": "yes", "office": "yes"}}}, {"type": "Feature", "geometry": {"type": "Polygon", "coordinates": [[[-97.636711, 35.5818582], [-97.6365098, 35.5818615], [-97.6365077, 35.5817408], [-97.6367151, 35.5817424], [-97.636711, 35.5818582]]]}, "properties": {"osm_id": 1227239507, "building": "yes", "name": "", "height": null, "height_m": null, "levels": null, "tract_id": "40109108529", "tract_name": "1085.29", "tags": {"building": "yes", "office": "yes"}}}, {"type": "Feature", "geometry": {"type": "Polygon", "coordinates": [[[-97.6367456, 35.5814168], [-97.6367476, 35.5815341], [-97.6369468, 35.5815308], [-97.6369671, 35.5814102], [-97.6367456, 35.5814168]]]}, "properties": {"osm_id": 1227239508, "building": "yes", "name": "", "height": null, "height_m": null, "levels": null, "tract_id": "40109108529", "tract_name": "1085.29", "tags": {"building": "yes", "office": "yes"}}}, {"type": "Feature", "geometry": {"type": "Polygon", "coordinates": [[[-97.6367049, 35.5815341], [-97.636711, 35.5814151], [-97.6364996, 35.5814135], [-97.6365077, 35.5815408], [-97.6367049, 35.5815341]]]}, "properties": {"osm_id": 1227239509, "building": "yes", "name": "", "height": null, "height_m": null, "levels": null, "tract_id": "40109108529", "tract_name": "1085.29", "tags": {"building": "yes", "office": "yes"}}}]}