{"type": "FeatureCollection", "features": [{"type": "Feature", "geometry": {"type": "Polygon", "coordinates": [[[-94.7756925, 35.3450634], [-94.7756449, 35.3450911], [-94.7755169, 35.3449451], [-94.7755639, 35.3449177], [-94.7754633, 35.3448029], [-94.7753958, 35.344726], [-94.7753016, 35.344781], [-94.7751712, 35.3446323], [-94.7752652, 35.3445774], [-94.775161, 35.3444586], [-94.7753762, 35.3443331], [-94.7761544, 35.3452206], [-94.77594, 35.3453457], [-94.7758104, 35.3451979], [-94.7756925, 35.3450634]]]}, "properties": {"osm_id": 108145119, "building": "yes", "name": "Robert S Kerr Powerhouse", "height": null, "height_m": null, "levels": null, "tract_id": "40079040299", "tract_name": "402.99", "tags": {"building": "yes", "name": "Robert S Kerr Powerhouse", "operator": "USCE-Tulsa District", "plant:output:electricity": "110 MW", "plant:source": "hydro", "power": "plant", "ref:US:EIA": "2985", "source": "Bing", "start_date": "1971-07", "wikidata": "Q65204176"}}}, {"type": "Feature", "geometry": {"type": "Polygon", "coordinates": [[[-94.6220749, 35.2393533], [-94.6220716, 35.239176], [-94.6219732, 35.2391772], [-94.621975, 35.2392757], [-94.6219197, 35.2392764], [-94.6219212, 35.2393552], [-94.6220749, 35.2393533]]]}, "properties": {"osm_id": 1062398510, "building": "yes", "name": "", "height": null, "height_m": null, "levels": null, "tract_id": "40079040299", "tract_name": "402.99", "tags": {"addr:city": "Spiro", "addr:housenumber": "113", "addr:postcode": "74959", "addr:state": "OK", "addr:street": "Southwest 3rd Street", "building": "yes"}}}, {"type": "Feature", "geometry": {"type": "Polygon", "coordinates": [[[-94.7572764, 35.2558891], [-94.7573046, 35.2558581], [-94.7572871, 35.2558475], [-94.7572589, 35.2558785], [-94.7572764, 35.2558891]]]}, "properties": {"osm_id": 1108553289, "building": "yes", "name": "", "height": null, "height_m": null, "levels": null, "tract_id": "40079040299", "tract_name": "402.99", "tags": {"building": "yes"}}}, {"type": "Feature", "geometry": {"type": "Polygon", "coordinates": [[[-94.7598851, 35.280887], [-94.7598893, 35.2807244], [-94.7580397, 35.280693], [-94.7580355, 35.2808559], [-94.7598851, 35.280887]]]}, "properties": {"osm_id": 1214802102, "building": "yes", "name": "", "height": null, "height_m": null, "levels": null, "tract_id": "40079040299", "tract_name": "402.99", "tags": {"building": "yes"}}}, {"type": "Feature", "geometry": {"type": "Polygon", "coordinates": [[[-94.7598784, 35.2812184], [-94.7598832, 35.2810545], [-94.7580355, 35.2810181], [-94.7580306, 35.2811823], [-94.7598784, 35.2812184]]]}, "properties": {"osm_id": 1214802103, "building": "yes", "name": "", "height": null, "height_m": null, "levels": null, "tract_id": "40079040299", "tract_name": "402.99", "tags": {"building": "yes"}}}, {"type": "Feature", "geometry": {"type": "Polygon", "coordinates": [[[-94.7598652, 35.2815215], [-94.7598697, 35.2813541], [-94.7580201, 35.2813209], [-94.7580157, 35.2814886], [-94.7598652, 35.2815215]]]}, "properties": {"osm_id": 1214802104, "building": "yes", "name": "", "height": null, "height_m": null, "levels": null, "tract_id": "40079040299", "tract_name": "402.99", "tags": {"building": "yes"}}}, {"type": "Feature", "geometry": {"type": "Polygon", "coordinates": [[[-94.7598624, 35.2818482], [-94.7598675, 35.2816838], [-94.7580143, 35.2816456], [-94.7580092, 35.2818103], [-94.7598624, 35.2818482]]]}, "properties": {"osm_id": 1214802105, "building": "yes", "name": "", "height": null, "height_m": null, "levels": null, "tract_id": "40079040299", "tract_name": "402.99", "tags": {"building": "yes"}}}, {"type": "Feature", "geometry": {"type": "Polygon", "coordinates": [[[-94.7597717, 35.2820312], [-94.7597755, 35.2819397], [-94.7596268, 35.2819356], [-94.759623, 35.2820271], [-94.7597717, 35.2820312]]]}, "properties": {"osm_id": 1214802106, "building": "yes", "name": "", "height": null, "height_m": null, "levels": null, "tract_id": "40079040299", "tract_name": "402.99", "tags": {"building": "yes"}}}, {"type": "Feature", "geometry": {"type": "Polygon", "coordinates": [[[-94.7598534, 35.2822866], [-94.7598575, 35.2821232], [-94.7580022, 35.2820922], [-94.7579982, 35.2822559], [-94.7598534, 35.2822866]]]}, "properties": {"osm_id": 1214802107, "building": "yes", "name": "", "height": null, "height_m": null, "levels": null, "tract_id": "40079040299", "tract_name": "402.99", "tags": {"building": "yes"}}}, {"type": "Feature", "geometry": {"type": "Polygon", "coordinates": [[[-94.7598393, 35.2826125], [-94.7598432, 35.2824491], [-94.7579868, 35.2824188], [-94.7579828, 35.2825825], [-94.7598393, 35.2826125]]]}, "properties": {"osm_id": 1214802108, "building": "yes", "name": "", "height": null, "height_m": null, "levels": null, "tract_id": "40079040299", "tract_name": "402.99", "tags": {"building": "yes"}}}, {"type": "Feature", "geometry": {"type": "Polygon", "coordinates": [[[-94.759834, 35.2829207], [-94.7598381, 35.282759], [-94.7579889, 35.2827279], [-94.7579848, 35.2828899], [-94.759834, 35.2829207]]]}, "properties": {"osm_id": 1214802109, "building": "yes", "name": "", "height": null, "height_m": null, "levels": null, "tract_id": "40079040299", "tract_name": "402.99", "tags": {"building": "yes"}}}, {"type": "Feature", "geometry": {"type": "Polygon", "coordinates": [[[-94.7598258, 35.2832481], [-94.7598302, 35.2830813], [-94.7579789, 35.2830488], [-94.7579745, 35.2832159], [-94.7598258, 35.2832481]]]}, "properties": {"osm_id": 1214802110, "building": "yes", "name": "", "height": null, "height_m": null, "levels": null, "tract_id": "40079040299", "tract_name": "402.99", "tags": {"building": "yes"}}}]}