{"type": "FeatureCollection", "features": [{"type": "Feature", "geometry": {"type": "Polygon", "coordinates": [[[-95.1601305, 36.2014786], [-95.1599018, 36.2014808], [-95.1598993, 36.2013073], [-95.1601279, 36.2013051], [-95.1601305, 36.2014786]]]}, "properties": {"osm_id": 110155687, "building": "yes", "name": "Locust Grove", "height": null, "height_m": null, "levels": null, "tract_id": "40097040502", "tract_name": "405.02", "tags": {"amenity": "post_office", "building": "yes", "name": "Locust Grove", "operator": "United States Postal Service", "operator:short": "USPS", "operator:type": "public", "operator:website": "https://www.usps.com", "operator:wikidata": "Q668687", "operator:wikipedia": "en:United States Postal Service"}}}, {"type": "Feature", "geometry": {"type": "Polygon", "coordinates": [[[-95.0296942, 36.2210654], [-95.0295762, 36.2210654], [-95.0295762, 36.2208781], [-95.0296942, 36.2208781], [-95.0296942, 36.2210654]]]}, "properties": {"osm_id": 110156364, "building": "yes", "name": "Rose", "height": null, "height_m": null, "levels": null, "tract_id": "40097040502", "tract_name": "405.02", "tags": {"amenity": "post_office", "building": "yes", "name": "Rose", "operator": "United States Postal Service", "operator:short": "USPS", "operator:type": "public", "operator:website": "https://www.usps.com", "operator:wikidata": "Q668687", "operator:wikipedia": "en:United States Postal Service"}}}, {"type": "Feature", "geometry": {"type": "Polygon", "coordinates": [[[-95.1586409, 36.2003195], [-95.1585665, 36.2002672], [-95.1586649, 36.2001761], [-95.1587392, 36.2002284], [-95.1586409, 36.2003195]]]}, "properties": {"osm_id": 190159794, "building": "yes", "name": "", "height": null, "height_m": null, "levels": null, "tract_id": "40097040502", "tract_name": "405.02", "tags": {"amenity": "fuel", "brand": "Phillips 66", "building": "yes"}}}, {"type": "Feature", "geometry": {"type": "Polygon", "coordinates": [[[-95.1192157, 36.2127783], [-95.1191174, 36.2127304], [-95.1192833, 36.2125091], [-95.1193816, 36.212557], [-95.1192157, 36.2127783]]]}, "properties": {"osm_id": 193975585, "building": "yes", "name": "", "height": null, "height_m": null, "levels": null, "tract_id": "40097040502", "tract_name": "405.02", "tags": {"addr:city": "Locust Grove", "addr:country": "US", "addr:housenumber": "6488", "addr:postcode": "74352", "addr:street": "South 443", "building": "yes"}}}, {"type": "Feature", "geometry": {"type": "Polygon", "coordinates": [[[-95.1823772, 36.2288943], [-95.181632, 36.2288807], [-95.1816388, 36.2286353], [-95.182384, 36.2286489], [-95.1823772, 36.2288943]]]}, "properties": {"osm_id": 194201358, "building": "yes", "name": "Grand River Dam Authority", "height": null, "height_m": null, "levels": null, "tract_id": "40097040502", "tract_name": "405.02", "tags": {"addr:city": "Locust Grove", "addr:country": "US", "addr:housenumber": "4221", "addr:postcode": "74532", "addr:street": "East 545 Road", "building": "yes", "name": "Grand River Dam Authority"}}}, {"type": "Feature", "geometry": {"type": "Polygon", "coordinates": [[[-95.1598837, 36.1895993], [-95.1599035, 36.189405], [-95.1597949, 36.1893982], [-95.1597931, 36.1894399], [-95.1596106, 36.1894312], [-95.1596184, 36.1893149], [-95.1595296, 36.189314], [-95.1595086, 36.1895954], [-95.1595902, 36.1895988], [-95.159601, 36.1894864], [-95.1597859, 36.1894961], [-95.1597781, 36.1895915], [-95.1598837, 36.1895993]]]}, "properties": {"osm_id": 260556913, "building": "yes", "name": "Kum & Go", "height": null, "height_m": null, "levels": null, "tract_id": "40097040502", "tract_name": "405.02", "tags": {"amenity": "fuel", "building": "yes", "name": "Kum & Go"}}}, {"type": "Feature", "geometry": {"type": "Polygon", "coordinates": [[[-95.1193073, 36.2010567], [-95.1191625, 36.2010611], [-95.1191584, 36.200973], [-95.1193033, 36.2009687], [-95.1193073, 36.2010567]]]}, "properties": {"osm_id": 436347505, "building": "yes", "name": "", "height": null, "height_m": null, "levels": null, "tract_id": "40097040502", "tract_name": "405.02", "tags": {"building": "yes"}}}, {"type": "Feature", "geometry": {"type": "Polygon", "coordinates": [[[-95.1252135, 36.2067706], [-95.125007, 36.2069177], [-95.12494, 36.2068565], [-95.1251465, 36.2067093], [-95.1252135, 36.2067706]]]}, "properties": {"osm_id": 436347506, "building": "yes", "name": "", "height": null, "height_m": null, "levels": null, "tract_id": "40097040502", "tract_name": "405.02", "tags": {"building": "yes"}}}, {"type": "Feature", "geometry": {"type": "Polygon", "coordinates": [[[-95.1314168, 36.191992], [-95.1313013, 36.1919899], [-95.131304, 36.1918903], [-95.1314195, 36.1918924], [-95.1314168, 36.191992]]]}, "properties": {"osm_id": 436347507, "building": "yes", "name": "", "height": null, "height_m": null, "levels": null, "tract_id": "40097040502", "tract_name": "405.02", "tags": {"building": "yes"}}}, {"type": "Feature", "geometry": {"type": "Polygon", "coordinates": [[[-95.1255649, 36.2015848], [-95.1253638, 36.2015783], [-95.1253692, 36.2014693], [-95.1255703, 36.2014758], [-95.1255649, 36.2015848]]]}, "properties": {"osm_id": 436347508, "building": "yes", "name": "", "height": null, "height_m": null, "levels": null, "tract_id": "40097040502", "tract_name": "405.02", "tags": {"building": "yes"}}}, {"type": "Feature", "geometry": {"type": "Polygon", "coordinates": [[[-95.1261876, 36.2066537], [-95.1262601, 36.2066563], [-95.126257, 36.2067126], [-95.1261845, 36.20671], [-95.1261876, 36.2066537]]]}, "properties": {"osm_id": 436347509, "building": "yes", "name": "", "height": null, "height_m": null, "levels": null, "tract_id": "40097040502", "tract_name": "405.02", "tags": {"building": "yes"}}}, {"type": "Feature", "geometry": {"type": "Polygon", "coordinates": [[[-95.1311433, 36.1925309], [-95.1310771, 36.1925331], [-95.1310717, 36.1924249], [-95.1311379, 36.1924227], [-95.1311433, 36.1925309]]]}, "properties": {"osm_id": 436347510, "building": "yes", "name": "", "height": null, "height_m": null, "levels": null, "tract_id": "40097040502", "tract_name": "405.02", "tags": {"building": "yes"}}}, {"type": "Feature", "geometry": {"type": "Polygon", "coordinates": [[[-95.1206887, 36.2047859], [-95.1200932, 36.2047881], [-95.1200917, 36.2045134], [-95.1206871, 36.2045112], [-95.1206887, 36.2047859]]]}, "properties": {"osm_id": 436347511, "building": "yes", "name": "", "height": null, "height_m": null, "levels": null, "tract_id": "40097040502", "tract_name": "405.02", "tags": {"building": "yes"}}}, {"type": "Feature", "geometry": {"type": "Polygon", "coordinates": [[[-95.1207369, 36.2044786], [-95.1205251, 36.2044797], [-95.1205224, 36.2041507], [-95.1207343, 36.2041496], [-95.1207369, 36.2044786]]]}, "properties": {"osm_id": 436347512, "building": "yes", "name": "", "height": null, "height_m": null, "levels": null, "tract_id": "40097040502", "tract_name": "405.02", "tags": {"building": "yes"}}}, {"type": "Feature", "geometry": {"type": "Polygon", "coordinates": [[[-95.1270985, 36.1948211], [-95.127093, 36.1948859], [-95.126975, 36.1948794], [-95.1269805, 36.1948146], [-95.1270985, 36.1948211]]]}, "properties": {"osm_id": 436347513, "building": "yes", "name": "", "height": null, "height_m": null, "levels": null, "tract_id": "40097040502", "tract_name": "405.02", "tags": {"building": "yes"}}}, {"type": "Feature", "geometry": {"type": "Polygon", "coordinates": [[[-95.121614, 36.2035777], [-95.1214637, 36.2035773], [-95.1214643, 36.2034569], [-95.1216146, 36.2034574], [-95.121614, 36.2035777]]]}, "properties": {"osm_id": 436347514, "building": "yes", "name": "", "height": null, "height_m": null, "levels": null, "tract_id": "40097040502", "tract_name": "405.02", "tags": {"building": "yes"}}}, {"type": "Feature", "geometry": {"type": "Polygon", "coordinates": [[[-95.1269188, 36.1948146], [-95.1268643, 36.1948277], [-95.1267892, 36.1946242], [-95.1268437, 36.1946111], [-95.1269188, 36.1948146]]]}, "properties": {"osm_id": 436347515, "building": "yes", "name": "", "height": null, "height_m": null, "levels": null, "tract_id": "40097040502", "tract_name": "405.02", "tags": {"building": "yes"}}}, {"type": "Feature", "geometry": {"type": "Polygon", "coordinates": [[[-95.1324173, 36.1921305], [-95.1322909, 36.1921264], [-95.132299, 36.1919662], [-95.1324254, 36.1919703], [-95.1324173, 36.1921305]]]}, "properties": {"osm_id": 436347516, "building": "yes", "name": "", "height": null, "height_m": null, "levels": null, "tract_id": "40097040502", "tract_name": "405.02", "tags": {"building": "yes"}}}, {"type": "Feature", "geometry": {"type": "Polygon", "coordinates": [[[-95.1261845, 36.20671], [-95.1260928, 36.2067067], [-95.1260981, 36.2066093], [-95.1261899, 36.2066126], [-95.1261876, 36.2066537], [-95.1261845, 36.20671]]]}, "properties": {"osm_id": 436347518, "building": "yes", "name": "", "height": null, "height_m": null, "levels": null, "tract_id": "40097040502", "tract_name": "405.02", "tags": {"building": "yes"}}}, {"type": "Feature", "geometry": {"type": "Polygon", "coordinates": [[[-95.1217615, 36.2041258], [-95.1214611, 36.2041248], [-95.1214637, 36.2035773], [-95.121614, 36.2035777], [-95.1217642, 36.2035782], [-95.1217615, 36.2041258]]]}, "properties": {"osm_id": 436347519, "building": "yes", "name": "", "height": null, "height_m": null, "levels": null, "tract_id": "40097040502", "tract_name": "405.02", "tags": {"building": "yes"}}}, {"type": "Feature", "geometry": {"type": "Polygon", "coordinates": [[[-95.119035, 36.2018636], [-95.1190325, 36.2016903], [-95.1188948, 36.2016915], [-95.1188964, 36.2018026], [-95.1189354, 36.2018022], [-95.1189363, 36.2018645], [-95.119035, 36.2018636]]]}, "properties": {"osm_id": 436347520, "building": "yes", "name": "", "height": null, "height_m": null, "levels": null, "tract_id": "40097040502", "tract_name": "405.02", "tags": {"building": "yes"}}}, {"type": "Feature", "geometry": {"type": "Polygon", "coordinates": [[[-95.0805774, 36.2218328], [-95.0805785, 36.2217871], [-95.0803172, 36.2217828], [-95.0803161, 36.2218285], [-95.0805774, 36.2218328]]]}, "properties": {"osm_id": 986120146, "building": "yes", "name": "", "height": null, "height_m": null, "levels": null, "tract_id": "40097040502", "tract_name": "405.02", "tags": {"building": "yes"}}}, {"type": "Feature", "geometry": {"type": "Polygon", "coordinates": [[[-95.1348612, 36.2072172], [-95.1347324, 36.2072043], [-95.1347498, 36.2070924], [-95.1348785, 36.2071054], [-95.1348612, 36.2072172]]]}, "properties": {"osm_id": 1206771637, "building": "yes", "name": "", "height": null, "height_m": null, "levels": null, "tract_id": "40097040502", "tract_name": "405.02", "tags": {"building": "yes"}}}, {"type": "Feature", "geometry": {"type": "Polygon", "coordinates": [[[-95.1710764, 36.2061568], [-95.1710737, 36.2064154], [-95.1709513, 36.2064146], [-95.170954, 36.2061559], [-95.1710764, 36.2061568]]]}, "properties": {"osm_id": 1206771655, "building": "yes", "name": "", "height": null, "height_m": null, "levels": null, "tract_id": "40097040502", "tract_name": "405.02", "tags": {"building": "yes"}}}, {"type": "Feature", "geometry": {"type": "Polygon", "coordinates": [[[-95.1711193, 36.2048993], [-95.1711193, 36.2046266], [-95.1714492, 36.2046266], [-95.1714492, 36.2048993], [-95.1711193, 36.2048993]]]}, "properties": {"osm_id": 1206771656, "building": "yes", "name": "", "height": null, "height_m": null, "levels": null, "tract_id": "40097040502", "tract_name": "405.02", "tags": {"building": "yes"}}}, {"type": "Feature", "geometry": {"type": "Polygon", "coordinates": [[[-95.170957, 36.2044167], [-95.1709537, 36.2041911], [-95.1712998, 36.2041879], [-95.171303, 36.2044134], [-95.170957, 36.2044167]]]}, "properties": {"osm_id": 1206771657, "building": "yes", "name": "", "height": null, "height_m": null, "levels": null, "tract_id": "40097040502", "tract_name": "405.02", "tags": {"building": "yes"}}}, {"type": "Feature", "geometry": {"type": "Polygon", "coordinates": [[[-95.1709208, 36.2037003], [-95.1709194, 36.2040466], [-95.170706, 36.204046], [-95.1707073, 36.2036997], [-95.1709208, 36.2037003]]]}, "properties": {"osm_id": 1206771658, "building": "yes", "name": "", "height": null, "height_m": null, "levels": null, "tract_id": "40097040502", "tract_name": "405.02", "tags": {"building": "yes"}}}, {"type": "Feature", "geometry": {"type": "Polygon", "coordinates": [[[-95.170953, 36.2036613], [-95.1713607, 36.2036592], [-95.171362, 36.2038267], [-95.1709543, 36.2038288], [-95.170953, 36.2036613]]]}, "properties": {"osm_id": 1206771659, "building": "yes", "name": "", "height": null, "height_m": null, "levels": null, "tract_id": "40097040502", "tract_name": "405.02", "tags": {"building": "yes"}}}, {"type": "Feature", "geometry": {"type": "Polygon", "coordinates": [[[-95.1719682, 36.2035239], [-95.1719682, 36.2034265], [-95.1720902, 36.2034265], [-95.1720902, 36.2035239], [-95.1719682, 36.2035239]]]}, "properties": {"osm_id": 1206771660, "building": "yes", "name": "", "height": null, "height_m": null, "levels": null, "tract_id": "40097040502", "tract_name": "405.02", "tags": {"building": "yes"}}}, {"type": "Feature", "geometry": {"type": "Polygon", "coordinates": [[[-95.1718099, 36.2038734], [-95.1718099, 36.203657], [-95.1720916, 36.203657], [-95.1720916, 36.2038734], [-95.1718099, 36.2038734]]]}, "properties": {"osm_id": 1206771661, "building": "yes", "name": "", "height": null, "height_m": null, "levels": null, "tract_id": "40097040502", "tract_name": "405.02", "tags": {"building": "yes"}}}, {"type": "Feature", "geometry": {"type": "Polygon", "coordinates": [[[-95.1729029, 36.2001312], [-95.1729029, 36.2000706], [-95.1736084, 36.2000706], [-95.1736084, 36.2001312], [-95.1729029, 36.2001312]]]}, "properties": {"osm_id": 1206771662, "building": "yes", "name": "", "height": null, "height_m": null, "levels": null, "tract_id": "40097040502", "tract_name": "405.02", "tags": {"building": "yes"}}}, {"type": "Feature", "geometry": {"type": "Polygon", "coordinates": [[[-95.1729083, 36.1998542], [-95.1729101, 36.1997601], [-95.1736155, 36.1997688], [-95.1736137, 36.1998628], [-95.1729083, 36.1998542]]]}, "properties": {"osm_id": 1206771663, "building": "yes", "name": "", "height": null, "height_m": null, "levels": null, "tract_id": "40097040502", "tract_name": "405.02", "tags": {"building": "yes"}}}, {"type": "Feature", "geometry": {"type": "Polygon", "coordinates": [[[-95.1727286, 36.1999321], [-95.1724121, 36.1999299], [-95.1724132, 36.1998259], [-95.1727297, 36.1998281], [-95.1727286, 36.1999321]]]}, "properties": {"osm_id": 1206771664, "building": "yes", "name": "", "height": null, "height_m": null, "levels": null, "tract_id": "40097040502", "tract_name": "405.02", "tags": {"building": "yes"}}}, {"type": "Feature", "geometry": {"type": "Polygon", "coordinates": [[[-95.173603, 36.2000122], [-95.1729056, 36.2000078], [-95.1729063, 36.1999342], [-95.1736037, 36.1999385], [-95.173603, 36.2000122]]]}, "properties": {"osm_id": 1206771665, "building": "yes", "name": "", "height": null, "height_m": null, "levels": null, "tract_id": "40097040502", "tract_name": "405.02", "tags": {"building": "yes"}}}, {"type": "Feature", "geometry": {"type": "Polygon", "coordinates": [[[-95.1737881, 36.2000208], [-95.1737885, 36.1999409], [-95.1744912, 36.199943], [-95.1744908, 36.200023], [-95.1737881, 36.2000208]]]}, "properties": {"osm_id": 1206771666, "building": "yes", "name": "", "height": null, "height_m": null, "levels": null, "tract_id": "40097040502", "tract_name": "405.02", "tags": {"building": "yes"}}}, {"type": "Feature", "geometry": {"type": "Polygon", "coordinates": [[[-95.1736942, 36.1996897], [-95.1730129, 36.1996832], [-95.1730141, 36.1996009], [-95.1736954, 36.1996074], [-95.1736942, 36.1996897]]]}, "properties": {"osm_id": 1206771667, "building": "yes", "name": "", "height": null, "height_m": null, "levels": null, "tract_id": "40097040502", "tract_name": "405.02", "tags": {"building": "yes"}}}, {"type": "Feature", "geometry": {"type": "Polygon", "coordinates": [[[-95.1738176, 36.1996983], [-95.1738186, 36.1995904], [-95.1745106, 36.1995947], [-95.1745096, 36.1997027], [-95.1738176, 36.1996983]]]}, "properties": {"osm_id": 1206771668, "building": "yes", "name": "", "height": null, "height_m": null, "levels": null, "tract_id": "40097040502", "tract_name": "405.02", "tags": {"building": "yes"}}}, {"type": "Feature", "geometry": {"type": "Polygon", "coordinates": [[[-95.1702766, 36.1999248], [-95.1702783, 36.1998331], [-95.1704026, 36.1998347], [-95.1704008, 36.1999263], [-95.1702766, 36.1999248]]]}, "properties": {"osm_id": 1206771669, "building": "yes", "name": "", "height": null, "height_m": null, "levels": null, "tract_id": "40097040502", "tract_name": "405.02", "tags": {"building": "yes"}}}, {"type": "Feature", "geometry": {"type": "Polygon", "coordinates": [[[-95.1708873, 36.199709], [-95.170893, 36.1996026], [-95.1709948, 36.1996061], [-95.1709891, 36.1997125], [-95.1708873, 36.199709]]]}, "properties": {"osm_id": 1206771670, "building": "yes", "name": "", "height": null, "height_m": null, "levels": null, "tract_id": "40097040502", "tract_name": "405.02", "tags": {"building": "yes"}}}, {"type": "Feature", "geometry": {"type": "Polygon", "coordinates": [[[-95.1714544, 36.1993347], [-95.1714553, 36.1995], [-95.1713218, 36.1995005], [-95.1713208, 36.1993352], [-95.1714544, 36.1993347]]]}, "properties": {"osm_id": 1206771671, "building": "yes", "name": "", "height": null, "height_m": null, "levels": null, "tract_id": "40097040502", "tract_name": "405.02", "tags": {"building": "yes"}}}, {"type": "Feature", "geometry": {"type": "Polygon", "coordinates": [[[-95.1697484, 36.1989169], [-95.1697048, 36.198594], [-95.1697939, 36.1985861], [-95.1698375, 36.1989091], [-95.1697484, 36.1989169]]]}, "properties": {"osm_id": 1206771672, "building": "yes", "name": "", "height": null, "height_m": null, "levels": null, "tract_id": "40097040502", "tract_name": "405.02", "tags": {"building": "yes"}}}, {"type": "Feature", "geometry": {"type": "Polygon", "coordinates": [[[-95.1695303, 36.198633], [-95.1696324, 36.1986337], [-95.1696295, 36.1989031], [-95.1695274, 36.1989024], [-95.1695303, 36.198633]]]}, "properties": {"osm_id": 1206771673, "building": "yes", "name": "", "height": null, "height_m": null, "levels": null, "tract_id": "40097040502", "tract_name": "405.02", "tags": {"building": "yes"}}}, {"type": "Feature", "geometry": {"type": "Polygon", "coordinates": [[[-95.1686019, 36.1992261], [-95.1686026, 36.1994443], [-95.1682555, 36.199445], [-95.1682548, 36.1992268], [-95.1686019, 36.1992261]]]}, "properties": {"osm_id": 1206771674, "building": "yes", "name": "", "height": null, "height_m": null, "levels": null, "tract_id": "40097040502", "tract_name": "405.02", "tags": {"building": "yes"}}}, {"type": "Feature", "geometry": {"type": "Polygon", "coordinates": [[[-95.168692, 36.1992001], [-95.1684483, 36.1991978], [-95.1684507, 36.1990272], [-95.1686944, 36.1990295], [-95.168692, 36.1992001]]]}, "properties": {"osm_id": 1206771675, "building": "yes", "name": "", "height": null, "height_m": null, "levels": null, "tract_id": "40097040502", "tract_name": "405.02", "tags": {"building": "yes"}}}, {"type": "Feature", "geometry": {"type": "Polygon", "coordinates": [[[-95.1673085, 36.199589], [-95.1672247, 36.199589], [-95.1672247, 36.1995322], [-95.1673085, 36.1995322], [-95.1673085, 36.199589]]]}, "properties": {"osm_id": 1206771676, "building": "yes", "name": "", "height": null, "height_m": null, "levels": null, "tract_id": "40097040502", "tract_name": "405.02", "tags": {"building": "yes"}}}, {"type": "Feature", "geometry": {"type": "Polygon", "coordinates": [[[-95.1670557, 36.199654], [-95.1668103, 36.1996507], [-95.1668116, 36.1995876], [-95.167057, 36.1995909], [-95.1670557, 36.199654]]]}, "properties": {"osm_id": 1206771677, "building": "yes", "name": "", "height": null, "height_m": null, "levels": null, "tract_id": "40097040502", "tract_name": "405.02", "tags": {"building": "yes"}}}, {"type": "Feature", "geometry": {"type": "Polygon", "coordinates": [[[-95.166243, 36.2004516], [-95.1655993, 36.2004451], [-95.1656027, 36.2002238], [-95.1662464, 36.2002303], [-95.166243, 36.2004516]]]}, "properties": {"osm_id": 1206771678, "building": "yes", "name": "", "height": null, "height_m": null, "levels": null, "tract_id": "40097040502", "tract_name": "405.02", "tags": {"building": "yes"}}}, {"type": "Feature", "geometry": {"type": "Polygon", "coordinates": [[[-95.1666722, 36.2003076], [-95.1664978, 36.2003022], [-95.1665049, 36.2001537], [-95.1666792, 36.2001591], [-95.1666722, 36.2003076]]]}, "properties": {"osm_id": 1206771679, "building": "yes", "name": "", "height": null, "height_m": null, "levels": null, "tract_id": "40097040502", "tract_name": "405.02", "tags": {"building": "yes"}}}, {"type": "Feature", "geometry": {"type": "Polygon", "coordinates": [[[-95.1694923, 36.2028862], [-95.1694886, 36.2025679], [-95.1697041, 36.2025662], [-95.1697079, 36.2028845], [-95.1694923, 36.2028862]]]}, "properties": {"osm_id": 1206771681, "building": "yes", "name": "", "height": null, "height_m": null, "levels": null, "tract_id": "40097040502", "tract_name": "405.02", "tags": {"building": "yes"}}}, {"type": "Feature", "geometry": {"type": "Polygon", "coordinates": [[[-95.1689588, 36.2012167], [-95.1689595, 36.2011324], [-95.1691513, 36.2011335], [-95.1691505, 36.2012178], [-95.1689588, 36.2012167]]]}, "properties": {"osm_id": 1206771682, "building": "yes", "name": "", "height": null, "height_m": null, "levels": null, "tract_id": "40097040502", "tract_name": "405.02", "tags": {"building": "yes"}}}, {"type": "Feature", "geometry": {"type": "Polygon", "coordinates": [[[-95.1714264, 36.2012091], [-95.1715321, 36.2012076], [-95.1715341, 36.2013029], [-95.1714284, 36.2013043], [-95.1714264, 36.2012091]]]}, "properties": {"osm_id": 1206771683, "building": "yes", "name": "", "height": null, "height_m": null, "levels": null, "tract_id": "40097040502", "tract_name": "405.02", "tags": {"building": "yes"}}}, {"type": "Feature", "geometry": {"type": "Polygon", "coordinates": [[[-95.1717301, 36.200945], [-95.1717295, 36.2008622], [-95.1718186, 36.2008618], [-95.1718192, 36.2009446], [-95.1717301, 36.200945]]]}, "properties": {"osm_id": 1206771684, "building": "yes", "name": "", "height": null, "height_m": null, "levels": null, "tract_id": "40097040502", "tract_name": "405.02", "tags": {"building": "yes"}}}, {"type": "Feature", "geometry": {"type": "Polygon", "coordinates": [[[-95.1718549, 36.200852], [-95.1717275, 36.2008514], [-95.1717277, 36.20082], [-95.1718551, 36.2008206], [-95.1718549, 36.200852]]]}, "properties": {"osm_id": 1206771685, "building": "yes", "name": "", "height": null, "height_m": null, "levels": null, "tract_id": "40097040502", "tract_name": "405.02", "tags": {"building": "yes"}}}, {"type": "Feature", "geometry": {"type": "Polygon", "coordinates": [[[-95.1709456, 36.2008866], [-95.1709469, 36.2007941], [-95.1710362, 36.2007949], [-95.1710348, 36.2008874], [-95.1709456, 36.2008866]]]}, "properties": {"osm_id": 1206771686, "building": "yes", "name": "", "height": null, "height_m": null, "levels": null, "tract_id": "40097040502", "tract_name": "405.02", "tags": {"building": "yes"}}}, {"type": "Feature", "geometry": {"type": "Polygon", "coordinates": [[[-95.1710741, 36.2007294], [-95.1710405, 36.2007309], [-95.1710383, 36.2007006], [-95.171072, 36.200699], [-95.1710741, 36.2007294]]]}, "properties": {"osm_id": 1206771687, "building": "yes", "name": "", "height": null, "height_m": null, "levels": null, "tract_id": "40097040502", "tract_name": "405.02", "tags": {"building": "yes"}}}, {"type": "Feature", "geometry": {"type": "Polygon", "coordinates": [[[-95.1711799, 36.2007432], [-95.1711789, 36.2006429], [-95.1712323, 36.2006426], [-95.1712333, 36.2007428], [-95.1711799, 36.2007432]]]}, "properties": {"osm_id": 1206771688, "building": "yes", "name": "", "height": null, "height_m": null, "levels": null, "tract_id": "40097040502", "tract_name": "405.02", "tags": {"building": "yes"}}}, {"type": "Feature", "geometry": {"type": "Polygon", "coordinates": [[[-95.1605895, 36.190593], [-95.1605055, 36.1904375], [-95.1612687, 36.1901688], [-95.1613528, 36.1903245], [-95.1605895, 36.190593]]]}, "properties": {"osm_id": 1206835653, "building": "yes", "name": "Best Western Locust Grove Inn & Suites", "height": null, "height_m": null, "levels": null, "tract_id": "40097040502", "tract_name": "405.02", "tags": {"addr:city": "Locust Grove", "addr:housenumber": "106", "addr:postcode": "74352", "addr:state": "OK", "addr:street": "Holiday Lane", "branch": "Locust Grove Inn & Suites", "brand": "Best Western", "brand:wikidata": "Q830334", "building": "yes", "name": "Best Western Locust Grove Inn & Suites", "phone": "+1 918-479-8082", "ref": "37115", "tourism": "hotel", "website": "https://www.bestwestern.com/en_US/book/hotels-in-locust-grove/best-western-locust-grove-inn-suites/propertyCode.37115.html"}}}, {"type": "Feature", "geometry": {"type": "Polygon", "coordinates": [[[-95.1596681, 36.1905856], [-95.1595187, 36.1905855], [-95.1595195, 36.1901422], [-95.1596688, 36.1901424], [-95.1596681, 36.1905856]]]}, "properties": {"osm_id": 1224794455, "building": "roof", "name": "", "height": null, "height_m": null, "levels": null, "tract_id": "40097040502", "tract_name": "405.02", "tags": {"building": "roof"}}}, {"type": "Feature", "geometry": {"type": "Polygon", "coordinates": [[[-95.1600576, 36.190502], [-95.1599085, 36.1905019], [-95.159909, 36.1901931], [-95.1600582, 36.1901933], [-95.1600576, 36.190502]]]}, "properties": {"osm_id": 1224794456, "building": "yes", "name": "", "height": null, "height_m": null, "levels": null, "tract_id": "40097040502", "tract_name": "405.02", "tags": {"building": "yes", "shop": "convenience"}}}, {"type": "Feature", "geometry": {"type": "Polygon", "coordinates": [[[-95.1579178, 36.1989188], [-95.1579137, 36.1984221], [-95.1582827, 36.1984201], [-95.1582834, 36.1985021], [-95.1585787, 36.1985005], [-95.1585821, 36.1989152], [-95.1582421, 36.1989171], [-95.1582425, 36.1989588], [-95.1579583, 36.1989603], [-95.1579579, 36.1989186], [-95.1579178, 36.1989188]]]}, "properties": {"osm_id": 1323003465, "building": "yes", "name": "", "height": null, "height_m": null, "levels": null, "tract_id": "40097040502", "tract_name": "405.02", "tags": {"building": "yes"}}}, {"type": "Feature", "geometry": {"type": "Polygon", "coordinates": [[[-95.1576247, 36.1992345], [-95.1576258, 36.1994297], [-95.1574988, 36.1994302], [-95.1574977, 36.199235], [-95.1576247, 36.1992345]]]}, "properties": {"osm_id": 1323003466, "building": "roof", "name": "", "height": null, "height_m": null, "levels": null, "tract_id": "40097040502", "tract_name": "405.02", "tags": {"building": "roof"}}}]}