{"type": "FeatureCollection", "features": [{"type": "Feature", "geometry": {"type": "Polygon", "coordinates": [[[-97.1653131, 34.1858256], [-97.1654195, 34.1858495], [-97.1654167, 34.1858581], [-97.1656239, 34.1859046], [-97.1656373, 34.1858638], [-97.1656049, 34.1858565], [-97.1656245, 34.1857967], [-97.1655158, 34.1857723], [-97.1655235, 34.185749], [-97.1654662, 34.1857361], [-97.1654598, 34.1857556], [-97.1654162, 34.1857458], [-97.1654122, 34.1857581], [-97.1653405, 34.185742], [-97.1653131, 34.1858256]]]}, "properties": {"osm_id": 262085680, "building": "retail", "name": "Whataburger", "height": null, "height_m": null, "levels": null, "tract_id": "40019893002", "tract_name": "8930.02", "tags": {"addr:city": "Ardmore", "addr:housenumber": "921", "addr:postcode": "73401", "addr:state": "OK", "addr:street": "Holiday Drive", "amenity": "fast_food", "branch": "I35 & 12th", "brand": "Whataburger", "brand:wikidata": "Q376627", "building": "retail", "cuisine": "burger", "name": "Whataburger", "phone": "+1 580-226-2345", "takeaway": "yes", "website": "https://locations.whataburger.com/ok/ardmore/921-holiday-dr.html"}}}, {"type": "Feature", "geometry": {"type": "Polygon", "coordinates": [[[-97.1653511, 34.1864697], [-97.1650147, 34.186296], [-97.1651117, 34.1861675], [-97.1654481, 34.1863412], [-97.1653511, 34.1864697]]]}, "properties": {"osm_id": 426375975, "building": "commercial", "name": "Braum's", "height": null, "height_m": null, "levels": null, "tract_id": "40019893002", "tract_name": "8930.02", "tags": {"addr:city": "Ardmore", "addr:housenumber": "1021", "addr:postcode": "73401", "addr:state": "OK", "addr:street": "Holiday Drive", "amenity": "fast_food", "brand": "Braum's", "brand:wikidata": "Q4958263", "building": "commercial", "cuisine": "ice_cream;burger", "name": "Braum's", "shop": "dairy", "takeaway": "yes"}}}, {"type": "Feature", "geometry": {"type": "Polygon", "coordinates": [[[-97.1656959, 34.1853575], [-97.1656908, 34.1853567], [-97.1656857, 34.1853561], [-97.1656805, 34.1853558], [-97.1656753, 34.1853558], [-97.1656701, 34.1853561], [-97.165665, 34.1853566], [-97.1656599, 34.1853573], [-97.1656548, 34.1853584], [-97.1656499, 34.1853597], [-97.165645, 34.1853612], [-97.1656403, 34.1853631], [-97.1656358, 34.1853651], [-97.1656314, 34.1853674], [-97.1656272, 34.1853699], [-97.1656231, 34.1853726], [-97.1656193, 34.1853755], [-97.1656158, 34.1853786], [-97.1656124, 34.1853819], [-97.1656094, 34.1853854], [-97.1656066, 34.185389], [-97.165604, 34.1853927], [-97.1656018, 34.1853966], [-97.1655998, 34.1854006], [-97.1655982, 34.1854047], [-97.1655969, 34.1854088], [-97.1655959, 34.185413], [-97.1655952, 34.1854173], [-97.1655949, 34.1854216], [-97.1655948, 34.1854259], [-97.1655951, 34.1854302], [-97.1655957, 34.1854344], [-97.1655967, 34.1854387], [-97.1655979, 34.1854428], [-97.1655995, 34.1854469], [-97.1656014, 34.1854509], [-97.1656036, 34.1854548], [-97.1656061, 34.1854586], [-97.1656088, 34.1854622], [-97.1656118, 34.1854657], [-97.1656151, 34.185469], [-97.1656187, 34.1854722], [-97.1656224, 34.1854751], [-97.1656264, 34.1854779], [-97.1656306, 34.1854804], [-97.165635, 34.1854828], [-97.1656395, 34.1854848], [-97.1656442, 34.1854867], [-97.165649, 34.1854883], [-97.1656539, 34.1854897], [-97.1656589, 34.1854907], [-97.1658, 34.1855238], [-97.1658394, 34.185397], [-97.1656959, 34.1853575]]]}, "properties": {"osm_id": 426375979, "building": "retail", "name": "Starbucks", "height": null, "height_m": null, "levels": null, "tract_id": "40019893002", "tract_name": "8930.02", "tags": {"addr:city": "Ardmore", "addr:housenumber": "911", "addr:postcode": "73401", "addr:state": "OK", "addr:street": "Holiday Drive", "amenity": "cafe", "branch": "I-35 & 12th", "brand": "Starbucks", "brand:wikidata": "Q37158", "building": "retail", "cuisine": "coffee_shop", "name": "Starbucks", "official_name": "Starbucks Coffee", "phone": "+1 580-226-5057", "ref": "17181", "takeaway": "yes", "website": "https://www.starbucks.com/store-locator/store/17181/i-35-12-th-911-holiday-dr-ardmore-ok-734011216-us"}}}, {"type": "Feature", "geometry": {"type": "Polygon", "coordinates": [[[-97.165888, 34.1852825], [-97.1656565, 34.1852353], [-97.1657209, 34.1850192], [-97.1659524, 34.1850664], [-97.165888, 34.1852825]]]}, "properties": {"osm_id": 426375986, "building": "yes", "name": "Christies Toy Box", "height": null, "height_m": null, "levels": null, "tract_id": "40019893002", "tract_name": "8930.02", "tags": {"addr:city": "Ardmore", "addr:housenumber": "903", "addr:postcode": "73401", "addr:state": "OK", "addr:street": "Holiday Drive", "building": "yes", "name": "Christies Toy Box", "shop": "gift"}}}, {"type": "Feature", "geometry": {"type": "Polygon", "coordinates": [[[-97.166007, 34.1799543], [-97.1660107, 34.1797674], [-97.1658701, 34.1797654], [-97.1658707, 34.1797356], [-97.1657591, 34.1797341], [-97.1657549, 34.1799402], [-97.1658244, 34.1799412], [-97.1658239, 34.1799695], [-97.1659036, 34.1799706], [-97.1659039, 34.1799529], [-97.166007, 34.1799543]]]}, "properties": {"osm_id": 550166493, "building": "yes", "name": "Interurban Classic Grill", "height": null, "height_m": 3.0, "levels": 1, "tract_id": "40019893002", "tract_name": "8930.02", "tags": {"addr:city": "Ardmore", "addr:housenumber": "322", "addr:postcode": "73401", "addr:state": "OK", "addr:street": "Holiday Drive", "amenity": "restaurant", "building": "yes", "building:levels": "1", "cuisine": "american", "name": "Interurban Classic Grill"}}}, {"type": "Feature", "geometry": {"type": "Polygon", "coordinates": [[[-97.1668772, 34.1800037], [-97.1668895, 34.1796926], [-97.1666028, 34.1796848], [-97.1665904, 34.1799959], [-97.1668772, 34.1800037]]]}, "properties": {"osm_id": 550166499, "building": "yes", "name": "Social Security Administration", "height": null, "height_m": 3.0, "levels": 1, "tract_id": "40019893002", "tract_name": "8930.02", "tags": {"building": "yes", "building:levels": "1", "government": "social_security", "name": "Social Security Administration", "office": "government", "operator": "Social Security Administration", "operator:short": "SSA", "operator:wikidata": "Q2824618"}}}, {"type": "Feature", "geometry": {"type": "Polygon", "coordinates": [[[-97.1602704, 34.1737266], [-97.1602711, 34.1734614], [-97.1601242, 34.1734611], [-97.1601235, 34.1737263], [-97.1602704, 34.1737266]]]}, "properties": {"osm_id": 865227559, "building": "yes", "name": "Taco Casa", "height": null, "height_m": null, "levels": null, "tract_id": "40019893002", "tract_name": "8930.02", "tags": {"addr:city": "Ardmore", "addr:housenumber": "2435", "addr:postcode": "73401", "addr:state": "OK", "addr:street": "West Broadway Street", "amenity": "fast_food", "brand": "Taco Casa", "brand:wikidata": "Q123307075", "building": "yes", "cuisine": "tacos;tex-mex", "name": "Taco Casa", "takeaway": "yes"}}}, {"type": "Feature", "geometry": {"type": "Polygon", "coordinates": [[[-97.1467369, 34.1751401], [-97.1467353, 34.1749197], [-97.1464386, 34.1749212], [-97.1464402, 34.1751415], [-97.1467369, 34.1751401]]]}, "properties": {"osm_id": 865227560, "building": "yes", "name": "O'Reilly Auto Parts", "height": null, "height_m": null, "levels": null, "tract_id": "40019893002", "tract_name": "8930.02", "tags": {"addr:city": "Ardmore", "addr:housenumber": "1315", "addr:postcode": "73401", "addr:state": "OK", "addr:street": "West Broadway Street", "brand": "O'Reilly Auto Parts", "brand:wikidata": "Q7071951", "building": "yes", "name": "O'Reilly Auto Parts", "shop": "car_parts", "website": "https://locations.oreillyauto.com/ok/ardmore/autoparts-335.html"}}}, {"type": "Feature", "geometry": {"type": "Polygon", "coordinates": [[[-97.143832, 34.1800332], [-97.1438325, 34.1797995], [-97.1436405, 34.1797992], [-97.14364, 34.1800329], [-97.143832, 34.1800332]]]}, "properties": {"osm_id": 865227564, "building": "yes", "name": "Bank of the West", "height": null, "height_m": null, "levels": null, "tract_id": "40019893002", "tract_name": "8930.02", "tags": {"addr:city": "Ardmore", "addr:housenumber": "321", "addr:postcode": "73401", "addr:state": "OK", "addr:street": "North Commerce Street", "amenity": "bank", "brand": "Bank of the West", "brand:wikidata": "Q2881919", "building": "yes", "name": "Bank of the West"}}}, {"type": "Feature", "geometry": {"type": "Polygon", "coordinates": [[[-97.1449371, 34.1794405], [-97.1449371, 34.179388], [-97.1450522, 34.179388], [-97.1450523, 34.1792403], [-97.1451516, 34.1792403], [-97.1451516, 34.1791485], [-97.1450564, 34.1791485], [-97.1450566, 34.1788923], [-97.1451, 34.1788923], [-97.1451, 34.1789251], [-97.1451538, 34.1789251], [-97.1451539, 34.1787786], [-97.1443508, 34.1787781], [-97.1443506, 34.1790012], [-97.1443148, 34.1790012], [-97.1443147, 34.1791527], [-97.1443564, 34.1791528], [-97.1443562, 34.1793844], [-97.1443987, 34.1793855], [-97.1446578, 34.1793842], [-97.1447987, 34.1793846], [-97.1447987, 34.1794404], [-97.1449371, 34.1794405]]]}, "properties": {"osm_id": 865227565, "building": "yes", "name": "Homeland", "height": null, "height_m": null, "levels": null, "tract_id": "40019893002", "tract_name": "8930.02", "tags": {"addr:city": "Ardmore", "addr:housenumber": "205", "addr:postcode": "73401", "addr:state": "OK", "addr:street": "North Commerce Street", "building": "yes", "name": "Homeland", "shop": "supermarket"}}}, {"type": "Feature", "geometry": {"type": "Polygon", "coordinates": [[[-97.1446578, 34.1793842], [-97.1446591, 34.179557], [-97.1444, 34.1795583], [-97.1443987, 34.1793855], [-97.1446578, 34.1793842]]]}, "properties": {"osm_id": 865227566, "building": "yes", "name": "Cato", "height": null, "height_m": null, "levels": null, "tract_id": "40019893002", "tract_name": "8930.02", "tags": {"addr:city": "Ardmore", "addr:housenumber": "209", "addr:postcode": "73401", "addr:state": "OK", "addr:street": "North Commerce Street", "brand": "Cato", "brand:wikidata": "Q16956136", "building": "yes", "clothes": "women", "name": "Cato", "official_name": "Cato Fashions", "shop": "clothes", "website": "https://stores.catofashions.com/ok/ardmore/209-north-commerce-street"}}}, {"type": "Feature", "geometry": {"type": "Polygon", "coordinates": [[[-97.1441594, 34.1787237], [-97.1441588, 34.1785547], [-97.14376, 34.1785557], [-97.1437606, 34.1787246], [-97.1441594, 34.1787237]]]}, "properties": {"osm_id": 865227568, "building": "yes", "name": "", "height": null, "height_m": null, "levels": null, "tract_id": "40019893002", "tract_name": "8930.02", "tags": {"building": "yes"}}}, {"type": "Feature", "geometry": {"type": "Polygon", "coordinates": [[[-97.1446904, 34.1800101], [-97.1446881, 34.1798472], [-97.144742, 34.1798466], [-97.1447387, 34.1796036], [-97.1444723, 34.1796061], [-97.1444779, 34.1800122], [-97.1446904, 34.1800101]]]}, "properties": {"osm_id": 865227569, "building": "yes", "name": "", "height": null, "height_m": null, "levels": null, "tract_id": "40019893002", "tract_name": "8930.02", "tags": {"building": "yes"}}}, {"type": "Feature", "geometry": {"type": "Polygon", "coordinates": [[[-97.1439365, 34.1848551], [-97.1439363, 34.18476], [-97.1439527, 34.18476], [-97.1439526, 34.1847087], [-97.1436684, 34.1847091], [-97.1436684, 34.184725], [-97.1436341, 34.184725], [-97.1436342, 34.1847945], [-97.1436794, 34.1847944], [-97.1436794, 34.1848057], [-97.1437273, 34.1848057], [-97.1437274, 34.184826], [-97.1437849, 34.1848259], [-97.1437849, 34.1848553], [-97.1439365, 34.1848551]]]}, "properties": {"osm_id": 865227572, "building": "yes", "name": "Taco Bueno", "height": null, "height_m": null, "levels": null, "tract_id": "40019893002", "tract_name": "8930.02", "tags": {"addr:city": "Ardmore", "addr:housenumber": "905", "addr:postcode": "73401", "addr:state": "OK", "addr:street": "North Commerce Street", "amenity": "fast_food", "brand": "Taco Bueno", "brand:wikidata": "Q7673958", "building": "yes", "cuisine": "mexican", "name": "Taco Bueno", "takeaway": "yes"}}}, {"type": "Feature", "geometry": {"type": "Polygon", "coordinates": [[[-97.1439554, 34.1858973], [-97.1439557, 34.1857889], [-97.1436788, 34.1857884], [-97.1436785, 34.1858968], [-97.1439554, 34.1858973]]]}, "properties": {"osm_id": 865227573, "building": "yes", "name": "Taco Bell", "height": null, "height_m": null, "levels": null, "tract_id": "40019893002", "tract_name": "8930.02", "tags": {"addr:city": "Ardmore", "addr:housenumber": "1007", "addr:postcode": "73401", "addr:state": "OK", "addr:street": "North Commerce Street", "amenity": "fast_food", "brand": "Taco Bell", "brand:wikidata": "Q752941", "building": "yes", "cuisine": "tex-mex", "name": "Taco Bell", "opening_hours": "Mo-Th 08:00-03:00; Fr-Sa 08:00-04:00; Su 08:00-03:00", "phone": "+1 580-223-1308", "takeaway": "yes", "website": "https://locations.tacobell.com/ok/ardmore/1007-n-commerce-street.html"}}}, {"type": "Feature", "geometry": {"type": "Polygon", "coordinates": [[[-97.1439833, 34.1870609], [-97.1439862, 34.1867875], [-97.1440385, 34.1867879], [-97.1440393, 34.186709], [-97.1439783, 34.1867086], [-97.1439426, 34.186679], [-97.1436017, 34.1866762], [-97.1436002, 34.1868062], [-97.143584, 34.186806], [-97.1435813, 34.1870272], [-97.143621, 34.1870699], [-97.1438912, 34.1870718], [-97.1438913, 34.1870603], [-97.1439833, 34.1870609]]]}, "properties": {"osm_id": 865227574, "building": "yes", "name": "Walgreens", "height": null, "height_m": null, "levels": null, "tract_id": "40019893002", "tract_name": "8930.02", "tags": {"addr:city": "Ardmore", "addr:housenumber": "1111", "addr:postcode": "73401", "addr:state": "OK", "addr:street": "North Commerce Street", "brand": "Walgreens", "brand:wikidata": "Q1591889", "building": "yes", "name": "Walgreens", "shop": "chemist", "website": "https://www.walgreens.com/locator/walgreens-1111+n+commerce+st-ardmore-ok-73401/id=5739"}}}, {"type": "Feature", "geometry": {"type": "Polygon", "coordinates": [[[-97.1438148, 34.1843471], [-97.1438137, 34.184135], [-97.1435923, 34.1841358], [-97.1435934, 34.1843478], [-97.1438148, 34.1843471]]]}, "properties": {"osm_id": 865227575, "building": "yes", "name": "Grandy's", "height": null, "height_m": null, "levels": null, "tract_id": "40019893002", "tract_name": "8930.02", "tags": {"addr:city": "Ardmore", "addr:housenumber": "819", "addr:postcode": "73401", "addr:state": "OK", "addr:street": "North Commerce Street", "amenity": "fast_food", "building": "yes", "name": "Grandy's"}}}, {"type": "Feature", "geometry": {"type": "Polygon", "coordinates": [[[-97.1628737, 34.1870089], [-97.1628745, 34.1869247], [-97.1628896, 34.1869281], [-97.1628906, 34.1868095], [-97.162865, 34.1868094], [-97.1628653, 34.186767], [-97.162761, 34.1867663], [-97.1627602, 34.1868628], [-97.1627368, 34.1868627], [-97.1627364, 34.1869054], [-97.1627608, 34.1869056], [-97.1627599, 34.1870081], [-97.1628737, 34.1870089]]]}, "properties": {"osm_id": 865243903, "building": "yes", "name": "Arby's", "height": null, "height_m": null, "levels": null, "tract_id": "40019893002", "tract_name": "8930.02", "tags": {"addr:city": "Ardmore", "addr:housenumber": "2700", "addr:postcode": "73401", "addr:state": "OK", "addr:street": "12th Avenue Northwest", "amenity": "fast_food", "brand": "Arby's", "brand:wikidata": "Q630866", "building": "yes", "check_date": "2024-06-21", "cuisine": "sandwich", "drive_through": "yes", "name": "Arby's", "opening_hours": "Mo-Th 10:00-23:00; Fr-Sa 10:00-24:00; Su 10:00-23:00", "phone": "+1 580-223-5846", "takeaway": "yes", "website": "https://www.arbys.com/locations/us/ok/ardmore/2700-12th-avenue-nw/store-8426/"}}}, {"type": "Feature", "geometry": {"type": "Polygon", "coordinates": [[[-97.163466, 34.1869973], [-97.163466, 34.1868157], [-97.1632794, 34.1868157], [-97.1632794, 34.1869973], [-97.163466, 34.1869973]]]}, "properties": {"osm_id": 865243904, "building": "yes", "name": "Aspen Dental", "height": null, "height_m": null, "levels": null, "tract_id": "40019893002", "tract_name": "8930.02", "tags": {"addr:city": "Ardmore", "addr:housenumber": "2730", "addr:postcode": "73401", "addr:state": "OK", "addr:street": "12th Avenue Northwest", "amenity": "dentist", "brand": "Aspen Dental", "brand:wikidata": "Q4807808", "building": "yes", "healthcare": "dentist", "name": "Aspen Dental"}}}, {"type": "Feature", "geometry": {"type": "Polygon", "coordinates": [[[-97.1625424, 34.1872065], [-97.1625443, 34.1871171], [-97.1621919, 34.187112], [-97.16219, 34.1872015], [-97.1625424, 34.1872065]]]}, "properties": {"osm_id": 865243905, "building": "roof", "name": "Shell", "height": null, "height_m": null, "levels": null, "tract_id": "40019893002", "tract_name": "8930.02", "tags": {"amenity": "fuel", "brand": "Shell", "brand:wikidata": "Q110716465", "building": "roof", "name": "Shell"}}}, {"type": "Feature", "geometry": {"type": "Polygon", "coordinates": [[[-97.1624156, 34.186992], [-97.1624156, 34.1869624], [-97.1625049, 34.1869624], [-97.1625049, 34.1868313], [-97.1622411, 34.1868313], [-97.1622411, 34.1869574], [-97.1623284, 34.1869574], [-97.1623284, 34.186992], [-97.1624156, 34.186992]]]}, "properties": {"osm_id": 865243906, "building": "yes", "name": "Shell", "height": null, "height_m": null, "levels": null, "tract_id": "40019893002", "tract_name": "8930.02", "tags": {"addr:city": "Ardmore", "addr:housenumber": "2602", "addr:postcode": "73401", "addr:state": "OK", "addr:street": "12th Avenue Northwest", "brand": "Shell", "brand:wikidata": "Q110716465", "building": "yes", "name": "Shell", "shop": "convenience"}}}, {"type": "Feature", "geometry": {"type": "Polygon", "coordinates": [[[-97.1625867, 34.1865479], [-97.1625872, 34.1863939], [-97.1622903, 34.1863932], [-97.1622908, 34.1862436], [-97.162247, 34.1862435], [-97.1622471, 34.1862153], [-97.1622003, 34.1862151], [-97.1622002, 34.186243], [-97.1621425, 34.1862429], [-97.162142, 34.1863902], [-97.1618912, 34.1863897], [-97.1618907, 34.1865464], [-97.1625867, 34.1865479]]]}, "properties": {"osm_id": 865243907, "building": "yes", "name": "Quality Inn & Suites", "height": null, "height_m": null, "levels": null, "tract_id": "40019893002", "tract_name": "8930.02", "tags": {"addr:city": "Ardmore", "addr:housenumber": "2606", "addr:postcode": "73401", "addr:state": "OK", "addr:street": "12th Avenue Northwest", "brand": "Quality Inn & Suites", "brand:wikidata": "Q113152195", "building": "yes", "name": "Quality Inn & Suites", "official_name": "Baymont by Wyndham", "tourism": "hotel"}}}, {"type": "Feature", "geometry": {"type": "Polygon", "coordinates": [[[-97.1613306, 34.1872021], [-97.1613309, 34.1871843], [-97.1613806, 34.1871847], [-97.1613818, 34.1870856], [-97.1613317, 34.1870852], [-97.1613318, 34.1870738], [-97.1609955, 34.1870709], [-97.1609951, 34.1871055], [-97.160981, 34.1871054], [-97.1609802, 34.1871701], [-97.1610261, 34.1871705], [-97.1610258, 34.1871969], [-97.1611394, 34.1871979], [-97.1611392, 34.1872105], [-97.1612004, 34.1872111], [-97.1612005, 34.187201], [-97.1613306, 34.1872021]]]}, "properties": {"osm_id": 865243910, "building": "yes", "name": "Chick-fil-A", "height": null, "height_m": null, "levels": null, "tract_id": "40019893002", "tract_name": "8930.02", "tags": {"addr:city": "Ardmore", "addr:housenumber": "2500", "addr:postcode": "73401", "addr:state": "OK", "addr:street": "12th Avenue Northwest", "amenity": "fast_food", "branch": "Ardmore", "brand": "Chick-fil-A", "brand:wikidata": "Q491516", "building": "yes", "cuisine": "chicken", "delivery": "yes", "drive_through": "yes", "indoor_seating": "yes", "internet_access": "wlan", "name": "Chick-fil-A", "opening_hours": "Mo-Sa 06:00-22:00; Su off", "phone": "+1 580-319-7901", "ref": "03256", "takeaway": "yes", "website": "https://www.chick-fil-a.com/locations/ok/ardmore"}}}, {"type": "Feature", "geometry": {"type": "Polygon", "coordinates": [[[-97.1603834, 34.1872076], [-97.1603834, 34.1871287], [-97.1600082, 34.1871287], [-97.1600082, 34.1872076], [-97.1603834, 34.1872076]]]}, "properties": {"osm_id": 865421852, "building": "roof", "name": "Phillips 66", "height": null, "height_m": null, "levels": null, "tract_id": "40019893002", "tract_name": "8930.02", "tags": {"amenity": "fuel", "brand": "Phillips 66", "brand:wikidata": "Q1656230", "building": "roof", "name": "Phillips 66", "website": "https://www.phillips66gas.com/station/P66-RAIN-FOREST-PHILLIPS-0000880174/"}}}, {"type": "Feature", "geometry": {"type": "Polygon", "coordinates": [[[-97.1603337, 34.1869677], [-97.1603345, 34.1868571], [-97.1599714, 34.1868552], [-97.1599699, 34.1870405], [-97.1600449, 34.1870409], [-97.1600455, 34.1869691], [-97.1601706, 34.1869697], [-97.1601704, 34.1869946], [-97.1602495, 34.186995], [-97.1602497, 34.1869673], [-97.1603337, 34.1869677]]]}, "properties": {"osm_id": 865421853, "building": "yes", "name": "Rainforest", "height": null, "height_m": null, "levels": null, "tract_id": "40019893002", "tract_name": "8930.02", "tags": {"addr:city": "Ardmore", "addr:housenumber": "2424", "addr:postcode": "73401", "addr:state": "OK", "addr:street": "12th Avenue Northwest", "building": "yes", "name": "Rainforest", "shop": "convenience"}}}, {"type": "Feature", "geometry": {"type": "Polygon", "coordinates": [[[-97.1591157, 34.1871358], [-97.1591168, 34.18696], [-97.1590555, 34.1869597], [-97.1590565, 34.1868101], [-97.1589277, 34.1868095], [-97.1589267, 34.1869565], [-97.1588454, 34.1869561], [-97.1588442, 34.1871325], [-97.1589451, 34.187133], [-97.158945, 34.187145], [-97.1590488, 34.1871454], [-97.1590489, 34.1871355], [-97.1591157, 34.1871358]]]}, "properties": {"osm_id": 865421869, "building": "yes", "name": "IBC Bank", "height": null, "height_m": null, "levels": null, "tract_id": "40019893002", "tract_name": "8930.02", "tags": {"addr:city": "Ardmore", "addr:housenumber": "2302", "addr:postcode": "73401", "addr:state": "OK", "addr:street": "12th Avenue Northwest", "amenity": "bank", "building": "yes", "name": "IBC Bank"}}}, {"type": "Feature", "geometry": {"type": "Polygon", "coordinates": [[[-97.1579813, 34.1872134], [-97.1579846, 34.1870992], [-97.1579684, 34.1870989], [-97.1579723, 34.1869623], [-97.157807, 34.1869592], [-97.1578, 34.1872099], [-97.1579813, 34.1872134]]]}, "properties": {"osm_id": 865421870, "building": "yes", "name": "AT&T", "height": null, "height_m": null, "levels": null, "tract_id": "40019893002", "tract_name": "8930.02", "tags": {"addr:city": "Ardmore", "addr:housenumber": "2240", "addr:postcode": "73401", "addr:state": "OK", "addr:street": "12th Avenue Northwest", "brand": "AT&T", "brand:wikidata": "Q298594", "building": "yes", "name": "AT&T", "shop": "mobile_phone"}}}, {"type": "Feature", "geometry": {"type": "Polygon", "coordinates": [[[-97.165914, 34.1847753], [-97.1659207, 34.1847575], [-97.1660334, 34.1847868], [-97.1660833, 34.1846556], [-97.1660155, 34.184638], [-97.1660256, 34.1846113], [-97.1658682, 34.1845703], [-97.1658014, 34.1847459], [-97.165914, 34.1847753]]]}, "properties": {"osm_id": 865421878, "building": "yes", "name": "Chili's", "height": null, "height_m": null, "levels": null, "tract_id": "40019893002", "tract_name": "8930.02", "tags": {"addr:city": "Ardmore", "addr:housenumber": "821", "addr:postcode": "73401", "addr:state": "OK", "addr:street": "Holiday Drive", "amenity": "restaurant", "brand": "Chili's", "brand:wikidata": "Q1072948", "building": "yes", "cuisine": "tex-mex", "name": "Chili's", "official_name": "Chili's Grill & Bar"}}}, {"type": "Feature", "geometry": {"type": "Polygon", "coordinates": [[[-97.1646453, 34.1860221], [-97.1646433, 34.1857964], [-97.1644587, 34.1857976], [-97.1644607, 34.1860232], [-97.1646453, 34.1860221]]]}, "properties": {"osm_id": 865432346, "building": "yes", "name": "", "height": null, "height_m": null, "levels": null, "tract_id": "40019893002", "tract_name": "8930.02", "tags": {"building": "yes"}}}, {"type": "Feature", "geometry": {"type": "Polygon", "coordinates": [[[-97.1643894, 34.1859756], [-97.1643905, 34.1858302], [-97.1641246, 34.1858288], [-97.1641235, 34.1859742], [-97.1643894, 34.1859756]]]}, "properties": {"osm_id": 865432347, "building": "yes", "name": "", "height": null, "height_m": null, "levels": null, "tract_id": "40019893002", "tract_name": "8930.02", "tags": {"building": "yes"}}}, {"type": "Feature", "geometry": {"type": "Polygon", "coordinates": [[[-97.1640381, 34.1860185], [-97.1640397, 34.1857957], [-97.1638715, 34.1857949], [-97.1638699, 34.1860177], [-97.1640381, 34.1860185]]]}, "properties": {"osm_id": 865432348, "building": "yes", "name": "", "height": null, "height_m": null, "levels": null, "tract_id": "40019893002", "tract_name": "8930.02", "tags": {"building": "yes"}}}, {"type": "Feature", "geometry": {"type": "Polygon", "coordinates": [[[-97.1646415, 34.1849766], [-97.1646406, 34.1848029], [-97.1645217, 34.1848033], [-97.1645219, 34.1848355], [-97.1644402, 34.1848358], [-97.1644404, 34.1848703], [-97.1643904, 34.1848704], [-97.1643908, 34.1849486], [-97.1645016, 34.1849483], [-97.1645015, 34.184942], [-97.1645194, 34.1849419], [-97.1645196, 34.184977], [-97.1646415, 34.1849766]]]}, "properties": {"osm_id": 865432349, "building": "yes", "name": "", "height": null, "height_m": null, "levels": null, "tract_id": "40019893002", "tract_name": "8930.02", "tags": {"building": "yes"}}}, {"type": "Feature", "geometry": {"type": "Polygon", "coordinates": [[[-97.1643104, 34.184978], [-97.1643112, 34.1847993], [-97.1641932, 34.1847989], [-97.164193, 34.1848307], [-97.1640636, 34.1848303], [-97.1640631, 34.1849471], [-97.1641884, 34.1849475], [-97.1641883, 34.1849776], [-97.1643104, 34.184978]]]}, "properties": {"osm_id": 865432350, "building": "yes", "name": "", "height": null, "height_m": null, "levels": null, "tract_id": "40019893002", "tract_name": "8930.02", "tags": {"building": "yes"}}}, {"type": "Feature", "geometry": {"type": "Polygon", "coordinates": [[[-97.1640886, 34.1855585], [-97.1640896, 34.1854876], [-97.163926, 34.185486], [-97.163925, 34.1855569], [-97.1640886, 34.1855585]]]}, "properties": {"osm_id": 865432351, "building": "yes", "name": "", "height": null, "height_m": null, "levels": null, "tract_id": "40019893002", "tract_name": "8930.02", "tags": {"building": "yes"}}}, {"type": "Feature", "geometry": {"type": "Polygon", "coordinates": [[[-97.1641975, 34.1855517], [-97.1641975, 34.1854883], [-97.1641305, 34.1854883], [-97.1641305, 34.1855517], [-97.1641975, 34.1855517]]]}, "properties": {"osm_id": 865432352, "building": "yes", "name": "", "height": null, "height_m": null, "levels": null, "tract_id": "40019893002", "tract_name": "8930.02", "tags": {"building": "yes"}}}, {"type": "Feature", "geometry": {"type": "Polygon", "coordinates": [[[-97.1646444, 34.1855508], [-97.1646461, 34.1854099], [-97.1645285, 34.1854089], [-97.1645283, 34.1854297], [-97.1645101, 34.1854295], [-97.1645102, 34.1854212], [-97.1644205, 34.1854205], [-97.1644192, 34.1855357], [-97.1645122, 34.1855364], [-97.1645124, 34.1855235], [-97.1645279, 34.1855236], [-97.1645276, 34.1855498], [-97.1646444, 34.1855508]]]}, "properties": {"osm_id": 865432353, "building": "yes", "name": "", "height": null, "height_m": null, "levels": null, "tract_id": "40019893002", "tract_name": "8930.02", "tags": {"building": "yes"}}}, {"type": "Feature", "geometry": {"type": "Polygon", "coordinates": [[[-97.1646442, 34.1853519], [-97.1646461, 34.1852111], [-97.1644564, 34.1852093], [-97.164456, 34.1852432], [-97.1643814, 34.1852425], [-97.16438, 34.1853493], [-97.1646442, 34.1853519]]]}, "properties": {"osm_id": 865432354, "building": "yes", "name": "", "height": null, "height_m": null, "levels": null, "tract_id": "40019893002", "tract_name": "8930.02", "tags": {"building": "yes"}}}, {"type": "Feature", "geometry": {"type": "Polygon", "coordinates": [[[-97.1643007, 34.1853453], [-97.1643045, 34.185205], [-97.1641875, 34.1852028], [-97.1641867, 34.1852321], [-97.1641683, 34.1852317], [-97.1641688, 34.1852144], [-97.1640848, 34.1852128], [-97.1640816, 34.1853305], [-97.1641663, 34.1853321], [-97.1641666, 34.1853204], [-97.1641887, 34.1853208], [-97.1641881, 34.1853432], [-97.1643007, 34.1853453]]]}, "properties": {"osm_id": 865432355, "building": "yes", "name": "", "height": null, "height_m": null, "levels": null, "tract_id": "40019893002", "tract_name": "8930.02", "tags": {"building": "yes"}}}, {"type": "Feature", "geometry": {"type": "Polygon", "coordinates": [[[-97.163646, 34.1854306], [-97.1636447, 34.1852061], [-97.1634766, 34.1852068], [-97.1634779, 34.1854312], [-97.163646, 34.1854306]]]}, "properties": {"osm_id": 865432356, "building": "yes", "name": "", "height": null, "height_m": null, "levels": null, "tract_id": "40019893002", "tract_name": "8930.02", "tags": {"building": "yes"}}}, {"type": "Feature", "geometry": {"type": "Polygon", "coordinates": [[[-97.1639767, 34.1853647], [-97.163978, 34.1852252], [-97.1638583, 34.1852244], [-97.1638582, 34.1852411], [-97.1638332, 34.1852409], [-97.1638335, 34.1852089], [-97.1637212, 34.1852081], [-97.1637194, 34.1853783], [-97.1638363, 34.1853791], [-97.1638366, 34.185345], [-97.1638618, 34.1853452], [-97.1638616, 34.185364], [-97.1639767, 34.1853647]]]}, "properties": {"osm_id": 865432357, "building": "yes", "name": "", "height": null, "height_m": null, "levels": null, "tract_id": "40019893002", "tract_name": "8930.02", "tags": {"building": "yes"}}}, {"type": "Feature", "geometry": {"type": "Polygon", "coordinates": [[[-97.1633053, 34.1849608], [-97.1633069, 34.1848224], [-97.1631965, 34.1848215], [-97.1631963, 34.1848372], [-97.1631708, 34.184837], [-97.1631712, 34.1848023], [-97.1630581, 34.1848014], [-97.1630562, 34.1849796], [-97.1631797, 34.1849805], [-97.1631801, 34.1849474], [-97.163191, 34.1849475], [-97.1631908, 34.1849599], [-97.1633053, 34.1849608]]]}, "properties": {"osm_id": 865432358, "building": "yes", "name": "", "height": null, "height_m": null, "levels": null, "tract_id": "40019893002", "tract_name": "8930.02", "tags": {"building": "yes"}}}, {"type": "Feature", "geometry": {"type": "Polygon", "coordinates": [[[-97.1636335, 34.1849492], [-97.1636331, 34.1848366], [-97.1634974, 34.1848369], [-97.1634973, 34.1848069], [-97.1633765, 34.1848072], [-97.1633769, 34.1849789], [-97.1634995, 34.1849786], [-97.1634994, 34.1849397], [-97.1635171, 34.1849397], [-97.1635171, 34.1849494], [-97.1636335, 34.1849492]]]}, "properties": {"osm_id": 865432359, "building": "yes", "name": "", "height": null, "height_m": null, "levels": null, "tract_id": "40019893002", "tract_name": "8930.02", "tags": {"building": "yes"}}}, {"type": "Feature", "geometry": {"type": "Polygon", "coordinates": [[[-97.1639837, 34.1849451], [-97.1639835, 34.1847991], [-97.1637158, 34.1847994], [-97.163716, 34.1849454], [-97.1639837, 34.1849451]]]}, "properties": {"osm_id": 865432360, "building": "yes", "name": "", "height": null, "height_m": null, "levels": null, "tract_id": "40019893002", "tract_name": "8930.02", "tags": {"building": "yes"}}}, {"type": "Feature", "geometry": {"type": "Polygon", "coordinates": [[[-97.1447718, 34.1871924], [-97.144772, 34.1871405], [-97.1447955, 34.1871406], [-97.1447957, 34.1870898], [-97.1444771, 34.1870889], [-97.1444767, 34.1871888], [-97.1445574, 34.1871891], [-97.1445573, 34.1872076], [-97.1446572, 34.1872079], [-97.1446573, 34.1871921], [-97.1447718, 34.1871924]]]}, "properties": {"osm_id": 865432362, "building": "yes", "name": "Burger King", "height": null, "height_m": null, "levels": null, "tract_id": "40019893002", "tract_name": "8930.02", "tags": {"addr:city": "Ardmore", "addr:housenumber": "1210", "addr:postcode": "73401", "addr:state": "OK", "addr:street": "12th Avenue Northwest", "amenity": "fast_food", "brand": "Burger King", "brand:wikidata": "Q177054", "building": "yes", "cuisine": "burger", "drive_through": "yes", "internet_access": "wlan", "name": "Burger King", "opening_hours": "Mo-Sa 06:00-22:00; Su 07:00-22:00", "phone": "+1 580-223-1154", "ref": "26972", "takeaway": "yes", "website": "https://www.bk.com/store-locator/store/restaurant_88528"}}}, {"type": "Feature", "geometry": {"type": "Polygon", "coordinates": [[[-97.1458303, 34.1872764], [-97.1458318, 34.1870713], [-97.1456332, 34.1870703], [-97.1456319, 34.1872446], [-97.1457582, 34.1872452], [-97.1457579, 34.1872761], [-97.1458303, 34.1872764]]]}, "properties": {"osm_id": 865432363, "building": "yes", "name": "Family Health Center Convenient Care Clinic", "height": null, "height_m": null, "levels": null, "tract_id": "40019893002", "tract_name": "8930.02", "tags": {"addr:city": "Ardmore", "addr:housenumber": "1306", "addr:postcode": "73401", "addr:state": "OK", "addr:street": "12th Avenue Northwest", "amenity": "clinic", "building": "yes", "healthcare": "clinic", "name": "Family Health Center Convenient Care Clinic"}}}, {"type": "Feature", "geometry": {"type": "Polygon", "coordinates": [[[-97.1523096, 34.1754534], [-97.1519234, 34.1754634], [-97.1519526, 34.1762335], [-97.1522844, 34.1762249], [-97.152335, 34.1762052], [-97.1523256, 34.17596], [-97.1524755, 34.1759561], [-97.1524637, 34.1756474], [-97.1523171, 34.1756512], [-97.1523096, 34.1754534]]]}, "properties": {"osm_id": 1026635091, "building": "yes", "name": "Greater Southwest Historical Museum", "height": null, "height_m": null, "levels": null, "tract_id": "40019893002", "tract_name": "8930.02", "tags": {"addr:city": "Ardmore", "addr:housenumber": "35", "addr:postcode": "73401", "addr:state": "OK", "addr:street": "Sunset Drive Southwest", "building": "yes", "check_date:opening_hours": "2023-07-21", "fee": "no", "museum": "history", "name": "Greater Southwest Historical Museum", "opening_hours": "Tu-Sa 10:00-17:00; PH off", "tourism": "museum", "website": "https://gshm.org/"}}}, {"type": "Feature", "geometry": {"type": "Polygon", "coordinates": [[[-97.1438102, 34.1780699], [-97.1438055, 34.1778175], [-97.1440558, 34.1778143], [-97.1440605, 34.1780667], [-97.1438102, 34.1780699]]]}, "properties": {"osm_id": 1134305723, "building": "yes", "name": "", "height": null, "height_m": null, "levels": null, "tract_id": "40019893002", "tract_name": "8930.02", "tags": {"building": "yes"}}}, {"type": "Feature", "geometry": {"type": "Polygon", "coordinates": [[[-97.1499632, 34.1740063], [-97.1497889, 34.174085], [-97.149686, 34.1739292], [-97.1498603, 34.1738504], [-97.1499632, 34.1740063]]]}, "properties": {"osm_id": 1134305914, "building": "yes", "name": "", "height": null, "height_m": null, "levels": null, "tract_id": "40019893002", "tract_name": "8930.02", "tags": {"building": "yes"}}}, {"type": "Feature", "geometry": {"type": "Polygon", "coordinates": [[[-97.1481706, 34.1750181], [-97.1478387, 34.1750212], [-97.1478352, 34.1747722], [-97.1481671, 34.174769], [-97.1481706, 34.1750181]]]}, "properties": {"osm_id": 1134305915, "building": "yes", "name": "", "height": null, "height_m": null, "levels": null, "tract_id": "40019893002", "tract_name": "8930.02", "tags": {"building": "yes"}}}, {"type": "Feature", "geometry": {"type": "Polygon", "coordinates": [[[-97.1476096, 34.174986], [-97.1471255, 34.174986], [-97.1471255, 34.1748262], [-97.1476096, 34.1748262], [-97.1476096, 34.174986]]]}, "properties": {"osm_id": 1134305916, "building": "yes", "name": "", "height": null, "height_m": null, "levels": null, "tract_id": "40019893002", "tract_name": "8930.02", "tags": {"building": "yes"}}}, {"type": "Feature", "geometry": {"type": "Polygon", "coordinates": [[[-97.1651931, 34.179598], [-97.1651941, 34.1797644], [-97.1648418, 34.1797659], [-97.1648381, 34.1791591], [-97.1651906, 34.1791577], [-97.1651921, 34.1794201], [-97.1653013, 34.1795095], [-97.1651931, 34.179598]]]}, "properties": {"osm_id": 1239194483, "building": "yes", "name": "", "height": null, "height_m": null, "levels": null, "tract_id": "40019893002", "tract_name": "8930.02", "tags": {"building": "yes", "shop": "flooring"}}}, {"type": "Feature", "geometry": {"type": "Polygon", "coordinates": [[[-97.164271, 34.1797321], [-97.1642691, 34.179281], [-97.1644845, 34.1792804], [-97.1644863, 34.1797315], [-97.164271, 34.1797321]]]}, "properties": {"osm_id": 1239194484, "building": "yes", "name": "", "height": null, "height_m": null, "levels": null, "tract_id": "40019893002", "tract_name": "8930.02", "tags": {"building": "yes"}}}, {"type": "Feature", "geometry": {"type": "Polygon", "coordinates": [[[-97.165388, 34.1784662], [-97.1657481, 34.1784674], [-97.1657471, 34.1786719], [-97.165387, 34.1786707], [-97.165388, 34.1784662]]]}, "properties": {"osm_id": 1239194485, "building": "yes", "name": "", "height": null, "height_m": null, "levels": null, "tract_id": "40019893002", "tract_name": "8930.02", "tags": {"building": "yes"}}}, {"type": "Feature", "geometry": {"type": "Polygon", "coordinates": [[[-97.1666195, 34.1804101], [-97.1668691, 34.180428], [-97.1668614, 34.1805011], [-97.1668152, 34.1804978], [-97.1668074, 34.1805726], [-97.1666041, 34.1805581], [-97.1666195, 34.1804101]]]}, "properties": {"osm_id": 1239194491, "building": "yes", "name": "Freddy's", "height": null, "height_m": null, "levels": null, "tract_id": "40019893002", "tract_name": "8930.02", "tags": {"addr:housenumber": "401", "addr:street": "Holiday Drive", "amenity": "fast_food", "brand": "Freddy's", "brand:wikidata": "Q5496837", "building": "yes", "cuisine": "ice_cream;burger", "name": "Freddy's", "official_name": "Freddy's Frozen Custard & Steakburgers", "opening_hours": "Su-Th 10:30-22:00; Fr,Sa 10:30-22:00", "phone": "+1-580-319-7689", "takeaway": "yes"}}}, {"type": "Feature", "geometry": {"type": "Polygon", "coordinates": [[[-97.1647865, 34.1805637], [-97.1655057, 34.1805607], [-97.1655077, 34.1808889], [-97.1647885, 34.180892], [-97.1647865, 34.1805637]]]}, "properties": {"osm_id": 1239194495, "building": "yes", "name": "Toyota", "height": null, "height_m": null, "levels": null, "tract_id": "40019893002", "tract_name": "8930.02", "tags": {"brand": "Toyota", "brand:wikidata": "Q53268", "building": "yes", "name": "Toyota", "shop": "car"}}}, {"type": "Feature", "geometry": {"type": "Polygon", "coordinates": [[[-97.1655133, 34.1821999], [-97.1660101, 34.182202], [-97.1660152, 34.1824075], [-97.1655133, 34.1824096], [-97.1655133, 34.1821999]]]}, "properties": {"osm_id": 1239194502, "building": "yes", "name": "Hyundai", "height": null, "height_m": null, "levels": null, "tract_id": "40019893002", "tract_name": "8930.02", "tags": {"brand": "Hyundai", "brand:wikidata": "Q55931", "building": "yes", "name": "Hyundai", "shop": "car"}}}, {"type": "Feature", "geometry": {"type": "Polygon", "coordinates": [[[-97.1642608, 34.1830128], [-97.164462, 34.1830145], [-97.1644543, 34.1836717], [-97.1642529, 34.18367], [-97.1642608, 34.1830128]]]}, "properties": {"osm_id": 1239194511, "building": "yes", "name": "Hilton Garden Inn", "height": null, "height_m": null, "levels": null, "tract_id": "40019893002", "tract_name": "8930.02", "tags": {"addr:city": "Ardmore", "addr:housenumber": "710", "addr:postcode": "73401", "addr:state": "OK", "addr:street": "Premier Parkway", "branch": "Ardmore", "brand": "Hilton Garden Inn", "brand:wikidata": "Q1162859", "building": "yes", "name": "Hilton Garden Inn", "phone": "+1 580-226-2223", "ref": "ADMARGI", "tourism": "hotel", "website": "https://www.hilton.com/en/hotels/admargi-hilton-garden-inn-ardmore/"}}}, {"type": "Feature", "geometry": {"type": "Polygon", "coordinates": [[[-97.1596699, 34.1872214], [-97.1594491, 34.1872211], [-97.1594498, 34.1868672], [-97.1596708, 34.1868675], [-97.1596699, 34.1872214]]]}, "properties": {"osm_id": 1239194528, "building": "yes", "name": "Discount Tire", "height": null, "height_m": null, "levels": null, "tract_id": "40019893002", "tract_name": "8930.02", "tags": {"air_conditioning": "yes", "brand": "Discount Tire", "brand:wikidata": "Q5281735", "building": "yes", "name": "Discount Tire", "shop": "tyres"}}}, {"type": "Feature", "geometry": {"type": "Polygon", "coordinates": [[[-97.1608738, 34.1794168], [-97.1609224, 34.1794557], [-97.160855, 34.1795133], [-97.1608064, 34.1794744], [-97.1608738, 34.1794168]]]}, "properties": {"osm_id": 1279480136, "building": "yes", "name": "", "height": null, "height_m": null, "levels": null, "tract_id": "40019893002", "tract_name": "8930.02", "tags": {"building": "yes"}}}, {"type": "Feature", "geometry": {"type": "Polygon", "coordinates": [[[-97.1610387, 34.1797052], [-97.1609341, 34.1796215], [-97.1610631, 34.1795112], [-97.161199, 34.17962], [-97.1611571, 34.1796559], [-97.1611258, 34.1796308], [-97.1610387, 34.1797052]]]}, "properties": {"osm_id": 1279480137, "building": "yes", "name": "", "height": null, "height_m": null, "levels": null, "tract_id": "40019893002", "tract_name": "8930.02", "tags": {"building": "yes"}}}, {"type": "Feature", "geometry": {"type": "Polygon", "coordinates": [[[-97.1600336, 34.1797313], [-97.1600296, 34.1795261], [-97.1601527, 34.1795244], [-97.1601567, 34.1797297], [-97.1600336, 34.1797313]]]}, "properties": {"osm_id": 1279480138, "building": "yes", "name": "", "height": null, "height_m": null, "levels": null, "tract_id": "40019893002", "tract_name": "8930.02", "tags": {"building": "yes"}}}, {"type": "Feature", "geometry": {"type": "Polygon", "coordinates": [[[-97.1597596, 34.1789951], [-97.159619, 34.179061], [-97.1595123, 34.1789054], [-97.1596529, 34.1788395], [-97.1597596, 34.1789951]]]}, "properties": {"osm_id": 1279480139, "building": "yes", "name": "", "height": null, "height_m": null, "levels": null, "tract_id": "40019893002", "tract_name": "8930.02", "tags": {"building": "yes"}}}, {"type": "Feature", "geometry": {"type": "Polygon", "coordinates": [[[-97.1600564, 34.178765], [-97.160061, 34.1789363], [-97.159821, 34.1789407], [-97.1598163, 34.1787694], [-97.1600564, 34.178765]]]}, "properties": {"osm_id": 1279480140, "building": "yes", "name": "", "height": null, "height_m": null, "levels": null, "tract_id": "40019893002", "tract_name": "8930.02", "tags": {"building": "yes"}}}, {"type": "Feature", "geometry": {"type": "Polygon", "coordinates": [[[-97.1613707, 34.1784543], [-97.161374, 34.17867], [-97.1608946, 34.1786751], [-97.1608912, 34.1784594], [-97.1613707, 34.1784543]]]}, "properties": {"osm_id": 1279480141, "building": "yes", "name": "", "height": null, "height_m": null, "levels": null, "tract_id": "40019893002", "tract_name": "8930.02", "tags": {"building": "yes"}}}, {"type": "Feature", "geometry": {"type": "Polygon", "coordinates": [[[-97.1613278, 34.1787561], [-97.1613286, 34.1788079], [-97.1611977, 34.1788093], [-97.1611969, 34.1787575], [-97.1613278, 34.1787561]]]}, "properties": {"osm_id": 1279480142, "building": "yes", "name": "", "height": null, "height_m": null, "levels": null, "tract_id": "40019893002", "tract_name": "8930.02", "tags": {"building": "yes"}}}, {"type": "Feature", "geometry": {"type": "Polygon", "coordinates": [[[-97.1613479, 34.1788116], [-97.1614759, 34.1788102], [-97.1614793, 34.1790279], [-97.1613513, 34.1790293], [-97.1613479, 34.1788116]]]}, "properties": {"osm_id": 1279480143, "building": "yes", "name": "", "height": null, "height_m": null, "levels": null, "tract_id": "40019893002", "tract_name": "8930.02", "tags": {"building": "yes"}}}, {"type": "Feature", "geometry": {"type": "Polygon", "coordinates": [[[-97.1611998, 34.1789147], [-97.161232, 34.1789143], [-97.1612352, 34.1791178], [-97.1609876, 34.1791204], [-97.1609863, 34.1790345], [-97.1608267, 34.1790362], [-97.1608248, 34.1789136], [-97.1609368, 34.1789124], [-97.160936, 34.1788654], [-97.161199, 34.1788626], [-97.1611998, 34.1789147]]]}, "properties": {"osm_id": 1279480144, "building": "yes", "name": "", "height": null, "height_m": null, "levels": null, "tract_id": "40019893002", "tract_name": "8930.02", "tags": {"building": "yes"}}}, {"type": "Feature", "geometry": {"type": "Polygon", "coordinates": [[[-97.1626018, 34.1789163], [-97.1626005, 34.1788282], [-97.1628053, 34.178826], [-97.162811, 34.179191], [-97.1625471, 34.1791938], [-97.1625428, 34.178917], [-97.1626018, 34.1789163]]]}, "properties": {"osm_id": 1279480145, "building": "yes", "name": "", "height": null, "height_m": null, "levels": null, "tract_id": "40019893002", "tract_name": "8930.02", "tags": {"building": "yes"}}}, {"type": "Feature", "geometry": {"type": "Polygon", "coordinates": [[[-97.1622533, 34.1790635], [-97.1621779, 34.1790643], [-97.162174, 34.1788149], [-97.1624625, 34.1788118], [-97.1624663, 34.1790612], [-97.1623977, 34.1790619], [-97.1623993, 34.179161], [-97.1622548, 34.1791626], [-97.1622533, 34.1790635]]]}, "properties": {"osm_id": 1279480146, "building": "yes", "name": "", "height": null, "height_m": null, "levels": null, "tract_id": "40019893002", "tract_name": "8930.02", "tags": {"building": "yes"}}}, {"type": "Feature", "geometry": {"type": "Polygon", "coordinates": [[[-97.1620194, 34.1797174], [-97.1618028, 34.1797197], [-97.1617942, 34.1791672], [-97.1620108, 34.1791649], [-97.1620194, 34.1797174]]]}, "properties": {"osm_id": 1279480147, "building": "yes", "name": "", "height": null, "height_m": null, "levels": null, "tract_id": "40019893002", "tract_name": "8930.02", "tags": {"building": "yes"}}}, {"type": "Feature", "geometry": {"type": "Polygon", "coordinates": [[[-97.1625207, 34.1802589], [-97.1625171, 34.1804036], [-97.1623249, 34.1804003], [-97.1623284, 34.1802556], [-97.1625207, 34.1802589]]]}, "properties": {"osm_id": 1279480148, "building": "yes", "name": "", "height": null, "height_m": null, "levels": null, "tract_id": "40019893002", "tract_name": "8930.02", "tags": {"building": "yes"}}}, {"type": "Feature", "geometry": {"type": "Polygon", "coordinates": [[[-97.1632442, 34.1794872], [-97.1632352, 34.1798551], [-97.1626031, 34.1798445], [-97.1626122, 34.1794766], [-97.1632442, 34.1794872]]]}, "properties": {"osm_id": 1279480149, "building": "yes", "name": "", "height": null, "height_m": null, "levels": null, "tract_id": "40019893002", "tract_name": "8930.02", "tags": {"building": "yes"}}}, {"type": "Feature", "geometry": {"type": "Polygon", "coordinates": [[[-97.1651821, 34.1786529], [-97.1650478, 34.1786506], [-97.1650499, 34.1785619], [-97.1650086, 34.1785612], [-97.1650118, 34.1784314], [-97.1651028, 34.1784329], [-97.1651048, 34.1783511], [-97.165174, 34.1783522], [-97.165172, 34.1784341], [-97.1651874, 34.1784343], [-97.1651821, 34.1786529]]]}, "properties": {"osm_id": 1279480150, "building": "yes", "name": "", "height": null, "height_m": null, "levels": null, "tract_id": "40019893002", "tract_name": "8930.02", "tags": {"building": "yes"}}}, {"type": "Feature", "geometry": {"type": "Polygon", "coordinates": [[[-97.1435554, 34.1822287], [-97.14342, 34.1822287], [-97.14342, 34.1821233], [-97.1435554, 34.1821233], [-97.1435554, 34.1822287]]]}, "properties": {"osm_id": 1279481451, "building": "yes", "name": "", "height": null, "height_m": null, "levels": null, "tract_id": "40019893002", "tract_name": "8930.02", "tags": {"building": "yes"}}}, {"type": "Feature", "geometry": {"type": "Polygon", "coordinates": [[[-97.1437217, 34.1824228], [-97.1435729, 34.1824228], [-97.1435729, 34.1821499], [-97.1437217, 34.1821499], [-97.1437217, 34.1824228]]]}, "properties": {"osm_id": 1279481452, "building": "yes", "name": "", "height": null, "height_m": null, "levels": null, "tract_id": "40019893002", "tract_name": "8930.02", "tags": {"building": "yes"}}}, {"type": "Feature", "geometry": {"type": "Polygon", "coordinates": [[[-97.1451822, 34.1821055], [-97.1444285, 34.1821039], [-97.1444311, 34.1812563], [-97.1451849, 34.1812579], [-97.1451822, 34.1821055]]]}, "properties": {"osm_id": 1279481453, "building": "yes", "name": "", "height": null, "height_m": null, "levels": null, "tract_id": "40019893002", "tract_name": "8930.02", "tags": {"building": "yes"}}}, {"type": "Feature", "geometry": {"type": "Polygon", "coordinates": [[[-97.1446349, 34.1804212], [-97.1446404, 34.1807531], [-97.1445407, 34.1807543], [-97.1445417, 34.1808161], [-97.1446051, 34.1808154], [-97.1446086, 34.1810272], [-97.1444154, 34.1810294], [-97.1444164, 34.1810937], [-97.1442833, 34.1810952], [-97.1442822, 34.1810309], [-97.1441299, 34.1810327], [-97.1441262, 34.1808125], [-97.1442206, 34.1808114], [-97.1442166, 34.1805704], [-97.1441703, 34.1805709], [-97.1441677, 34.1804094], [-97.1443063, 34.1804078], [-97.1443066, 34.1804249], [-97.1446349, 34.1804212]]]}, "properties": {"osm_id": 1279481535, "building": "yes", "name": "", "height": null, "height_m": null, "levels": null, "tract_id": "40019893002", "tract_name": "8930.02", "tags": {"building": "yes"}}}, {"type": "Feature", "geometry": {"type": "Polygon", "coordinates": [[[-97.1449743, 34.180417], [-97.1449773, 34.1808003], [-97.1448791, 34.1808008], [-97.1448762, 34.1804175], [-97.1449743, 34.180417]]]}, "properties": {"osm_id": 1279481536, "building": "yes", "name": "", "height": null, "height_m": null, "levels": null, "tract_id": "40019893002", "tract_name": "8930.02", "tags": {"building": "yes"}}}, {"type": "Feature", "geometry": {"type": "Polygon", "coordinates": [[[-97.1468385, 34.1810127], [-97.1469091, 34.1810124], [-97.1469122, 34.1814221], [-97.1468416, 34.1814225], [-97.1468385, 34.1810127]]]}, "properties": {"osm_id": 1279481537, "building": "yes", "name": "", "height": null, "height_m": null, "levels": null, "tract_id": "40019893002", "tract_name": "8930.02", "tags": {"building": "yes"}}}, {"type": "Feature", "geometry": {"type": "Polygon", "coordinates": [[[-97.1466292, 34.181015], [-97.1467401, 34.1810144], [-97.1467432, 34.181421], [-97.1466324, 34.1814216], [-97.1466292, 34.181015]]]}, "properties": {"osm_id": 1279481538, "building": "yes", "name": "", "height": null, "height_m": null, "levels": null, "tract_id": "40019893002", "tract_name": "8930.02", "tags": {"building": "yes"}}}, {"type": "Feature", "geometry": {"type": "Polygon", "coordinates": [[[-97.1464697, 34.1810161], [-97.1465363, 34.1810157], [-97.1465394, 34.1814243], [-97.1464728, 34.1814247], [-97.1464697, 34.1810161]]]}, "properties": {"osm_id": 1279481539, "building": "yes", "name": "", "height": null, "height_m": null, "levels": null, "tract_id": "40019893002", "tract_name": "8930.02", "tags": {"building": "yes"}}}, {"type": "Feature", "geometry": {"type": "Polygon", "coordinates": [[[-97.1462685, 34.1810172], [-97.1463794, 34.1810166], [-97.1463825, 34.1814232], [-97.1462716, 34.1814238], [-97.1462685, 34.1810172]]]}, "properties": {"osm_id": 1279481540, "building": "yes", "name": "", "height": null, "height_m": null, "levels": null, "tract_id": "40019893002", "tract_name": "8930.02", "tags": {"building": "yes"}}}, {"type": "Feature", "geometry": {"type": "Polygon", "coordinates": [[[-97.1460043, 34.1804414], [-97.1460056, 34.1806125], [-97.145842, 34.1806133], [-97.1458407, 34.1804422], [-97.1460043, 34.1804414]]]}, "properties": {"osm_id": 1279481541, "building": "yes", "name": "", "height": null, "height_m": null, "levels": null, "tract_id": "40019893002", "tract_name": "8930.02", "tags": {"building": "yes"}}}, {"type": "Feature", "geometry": {"type": "Polygon", "coordinates": [[[-97.1471952, 34.1803792], [-97.1472636, 34.1803789], [-97.1472676, 34.1808974], [-97.1471992, 34.1808977], [-97.1471952, 34.1803792]]]}, "properties": {"osm_id": 1279481542, "building": "yes", "name": "", "height": null, "height_m": null, "levels": null, "tract_id": "40019893002", "tract_name": "8930.02", "tags": {"building": "yes"}}}, {"type": "Feature", "geometry": {"type": "Polygon", "coordinates": [[[-97.1470007, 34.1803759], [-97.1471013, 34.1803754], [-97.1471053, 34.1809007], [-97.1470048, 34.1809012], [-97.1470007, 34.1803759]]]}, "properties": {"osm_id": 1279481543, "building": "yes", "name": "", "height": null, "height_m": null, "levels": null, "tract_id": "40019893002", "tract_name": "8930.02", "tags": {"building": "yes"}}}, {"type": "Feature", "geometry": {"type": "Polygon", "coordinates": [[[-97.1468344, 34.1808996], [-97.1468304, 34.1803796], [-97.1469042, 34.1803792], [-97.1469082, 34.1808992], [-97.1468344, 34.1808996]]]}, "properties": {"osm_id": 1279481544, "building": "yes", "name": "", "height": null, "height_m": null, "levels": null, "tract_id": "40019893002", "tract_name": "8930.02", "tags": {"building": "yes"}}}, {"type": "Feature", "geometry": {"type": "Polygon", "coordinates": [[[-97.1466306, 34.1803781], [-97.1467352, 34.1803776], [-97.1467392, 34.1809007], [-97.1466346, 34.1809012], [-97.1466306, 34.1803781]]]}, "properties": {"osm_id": 1279481545, "building": "yes", "name": "", "height": null, "height_m": null, "levels": null, "tract_id": "40019893002", "tract_name": "8930.02", "tags": {"building": "yes"}}}, {"type": "Feature", "geometry": {"type": "Polygon", "coordinates": [[[-97.1464737, 34.1803781], [-97.1465394, 34.1803778], [-97.1465434, 34.1809029], [-97.1464777, 34.1809033], [-97.1464737, 34.1803781]]]}, "properties": {"osm_id": 1279481546, "building": "yes", "name": "", "height": null, "height_m": null, "levels": null, "tract_id": "40019893002", "tract_name": "8930.02", "tags": {"building": "yes"}}}, {"type": "Feature", "geometry": {"type": "Polygon", "coordinates": [[[-97.1463744, 34.1803825], [-97.1463784, 34.1809021], [-97.1462682, 34.1809026], [-97.1462642, 34.1803831], [-97.1463744, 34.1803825]]]}, "properties": {"osm_id": 1279481547, "building": "yes", "name": "", "height": null, "height_m": null, "levels": null, "tract_id": "40019893002", "tract_name": "8930.02", "tags": {"building": "yes"}}}, {"type": "Feature", "geometry": {"type": "Polygon", "coordinates": [[[-97.1534734, 34.1866852], [-97.153469, 34.1868529], [-97.1536486, 34.1868562], [-97.153651, 34.1867653], [-97.1536495, 34.1867652], [-97.1536515, 34.1866885], [-97.1534734, 34.1866852]]]}, "properties": {"osm_id": 1279557337, "building": "yes", "name": "", "height": null, "height_m": null, "levels": null, "tract_id": "40019893002", "tract_name": "8930.02", "tags": {"building": "yes", "source": "microsoft/BuildingFootprints"}}}, {"type": "Feature", "geometry": {"type": "Polygon", "coordinates": [[[-97.1494753, 34.186306], [-97.1494773, 34.1863871], [-97.1496611, 34.186384], [-97.1496567, 34.1862075], [-97.1494771, 34.1862106], [-97.1494785, 34.186266], [-97.1494421, 34.1862667], [-97.1494431, 34.1863066], [-97.1494753, 34.186306]]]}, "properties": {"osm_id": 1279557338, "building": "yes", "name": "", "height": null, "height_m": null, "levels": null, "tract_id": "40019893002", "tract_name": "8930.02", "tags": {"building": "yes", "source": "microsoft/BuildingFootprints"}}}, {"type": "Feature", "geometry": {"type": "Polygon", "coordinates": [[[-97.1520779, 34.1854371], [-97.1519667, 34.1854383], [-97.1519676, 34.1855018], [-97.1519301, 34.1855022], [-97.1519317, 34.1856087], [-97.1520804, 34.1856072], [-97.1520779, 34.1854371]]]}, "properties": {"osm_id": 1279557339, "building": "yes", "name": "", "height": null, "height_m": null, "levels": null, "tract_id": "40019893002", "tract_name": "8930.02", "tags": {"building": "yes", "source": "microsoft/BuildingFootprints"}}}, {"type": "Feature", "geometry": {"type": "Polygon", "coordinates": [[[-97.1469323, 34.1853932], [-97.1469339, 34.1853222], [-97.1467864, 34.18532], [-97.1467848, 34.185391], [-97.1469323, 34.1853932]]]}, "properties": {"osm_id": 1279557340, "building": "yes", "name": "", "height": null, "height_m": null, "levels": null, "tract_id": "40019893002", "tract_name": "8930.02", "tags": {"building": "yes", "source": "microsoft/BuildingFootprints"}}}, {"type": "Feature", "geometry": {"type": "Polygon", "coordinates": [[[-97.1468437, 34.18631], [-97.1468443, 34.1863765], [-97.1469179, 34.1863761], [-97.1469173, 34.1863096], [-97.1468437, 34.18631]]]}, "properties": {"osm_id": 1279557342, "building": "yes", "name": "", "height": null, "height_m": null, "levels": null, "tract_id": "40019893002", "tract_name": "8930.02", "tags": {"building": "yes", "source": "microsoft/BuildingFootprints"}}}, {"type": "Feature", "geometry": {"type": "Polygon", "coordinates": [[[-97.1471146, 34.1852677], [-97.147119, 34.1854252], [-97.1472223, 34.1854232], [-97.1472131, 34.1850917], [-97.1471139, 34.1850936], [-97.1471187, 34.1852677], [-97.1471146, 34.1852677]]]}, "properties": {"osm_id": 1279557343, "building": "yes", "name": "", "height": null, "height_m": null, "levels": null, "tract_id": "40019893002", "tract_name": "8930.02", "tags": {"building": "yes", "source": "microsoft/BuildingFootprints"}}}, {"type": "Feature", "geometry": {"type": "Polygon", "coordinates": [[[-97.1456627, 34.186081], [-97.1455018, 34.1860847], [-97.1455058, 34.1862022], [-97.1456666, 34.1861985], [-97.1456627, 34.186081]]]}, "properties": {"osm_id": 1279557344, "building": "yes", "name": "", "height": null, "height_m": null, "levels": null, "tract_id": "40019893002", "tract_name": "8930.02", "tags": {"building": "yes", "source": "microsoft/BuildingFootprints"}}}, {"type": "Feature", "geometry": {"type": "Polygon", "coordinates": [[[-97.1494231, 34.1858051], [-97.1494209, 34.1858872], [-97.1494155, 34.1858871], [-97.149413, 34.1859847], [-97.1496811, 34.1859895], [-97.1496834, 34.1859017], [-97.1496271, 34.1859007], [-97.1496295, 34.1858088], [-97.1494231, 34.1858051]]]}, "properties": {"osm_id": 1279557345, "building": "yes", "name": "", "height": null, "height_m": null, "levels": null, "tract_id": "40019893002", "tract_name": "8930.02", "tags": {"building": "yes", "source": "microsoft/BuildingFootprints"}}}, {"type": "Feature", "geometry": {"type": "Polygon", "coordinates": [[[-97.153629, 34.1871191], [-97.1535003, 34.1871169], [-97.1534979, 34.1872122], [-97.1534577, 34.1872115], [-97.153456, 34.1872781], [-97.1534989, 34.1872788], [-97.1534976, 34.1873298], [-97.1536435, 34.1873324], [-97.1536453, 34.1872614], [-97.1536254, 34.187261], [-97.153629, 34.1871191]]]}, "properties": {"osm_id": 1279557346, "building": "yes", "name": "", "height": null, "height_m": null, "levels": null, "tract_id": "40019893002", "tract_name": "8930.02", "tags": {"building": "yes", "source": "microsoft/BuildingFootprints"}}}, {"type": "Feature", "geometry": {"type": "Polygon", "coordinates": [[[-97.1466807, 34.1863167], [-97.1467075, 34.186317], [-97.1467065, 34.1863769], [-97.1467949, 34.186378], [-97.1467999, 34.1861007], [-97.1467114, 34.1860996], [-97.1467103, 34.1861595], [-97.1466835, 34.1861592], [-97.1466807, 34.1863167]]]}, "properties": {"osm_id": 1279557347, "building": "yes", "name": "", "height": null, "height_m": null, "levels": null, "tract_id": "40019893002", "tract_name": "8930.02", "tags": {"building": "yes", "source": "microsoft/BuildingFootprints"}}}, {"type": "Feature", "geometry": {"type": "Polygon", "coordinates": [[[-97.1533223, 34.1859426], [-97.1533188, 34.1860357], [-97.1533991, 34.1860377], [-97.153401, 34.1859881], [-97.1534237, 34.1859887], [-97.1534253, 34.1859452], [-97.1533223, 34.1859426]]]}, "properties": {"osm_id": 1279557348, "building": "yes", "name": "", "height": null, "height_m": null, "levels": null, "tract_id": "40019893002", "tract_name": "8930.02", "tags": {"building": "yes", "source": "microsoft/BuildingFootprints"}}}, {"type": "Feature", "geometry": {"type": "Polygon", "coordinates": [[[-97.1498953, 34.1870562], [-97.1495746, 34.1870539], [-97.1495735, 34.1871524], [-97.1495617, 34.1871524], [-97.1495607, 34.1872424], [-97.1498274, 34.1872443], [-97.1498278, 34.1872031], [-97.1498937, 34.1872036], [-97.1498953, 34.1870562]]]}, "properties": {"osm_id": 1279557349, "building": "yes", "name": "", "height": null, "height_m": null, "levels": null, "tract_id": "40019893002", "tract_name": "8930.02", "tags": {"building": "yes", "source": "microsoft/BuildingFootprints"}}}, {"type": "Feature", "geometry": {"type": "Polygon", "coordinates": [[[-97.1477048, 34.1871859], [-97.1474608, 34.1871885], [-97.1474632, 34.1873438], [-97.1477073, 34.1873412], [-97.1477048, 34.1871859]]]}, "properties": {"osm_id": 1279557350, "building": "yes", "name": "", "height": null, "height_m": null, "levels": null, "tract_id": "40019893002", "tract_name": "8930.02", "tags": {"building": "yes", "source": "microsoft/BuildingFootprints"}}}, {"type": "Feature", "geometry": {"type": "Polygon", "coordinates": [[[-97.1497591, 34.1868449], [-97.149757, 34.1867251], [-97.1494957, 34.1867283], [-97.1494981, 34.1868592], [-97.1496118, 34.1868578], [-97.1496136, 34.1869576], [-97.1498603, 34.1869546], [-97.1498583, 34.1868437], [-97.1497591, 34.1868449]]]}, "properties": {"osm_id": 1279557351, "building": "yes", "name": "", "height": null, "height_m": null, "levels": null, "tract_id": "40019893002", "tract_name": "8930.02", "tags": {"building": "yes", "source": "microsoft/BuildingFootprints"}}}, {"type": "Feature", "geometry": {"type": "Polygon", "coordinates": [[[-97.152064, 34.1856365], [-97.1519433, 34.185634], [-97.1519416, 34.1856924], [-97.1518892, 34.1856913], [-97.1518866, 34.1857778], [-97.1519443, 34.185779], [-97.1519437, 34.1858004], [-97.1520858, 34.1858033], [-97.1520879, 34.1857331], [-97.1520611, 34.1857326], [-97.152064, 34.1856365]]]}, "properties": {"osm_id": 1279557352, "building": "yes", "name": "", "height": null, "height_m": null, "levels": null, "tract_id": "40019893002", "tract_name": "8930.02", "tags": {"building": "yes", "source": "microsoft/BuildingFootprints"}}}, {"type": "Feature", "geometry": {"type": "Polygon", "coordinates": [[[-97.1526034, 34.18604], [-97.1526042, 34.1859424], [-97.1523977, 34.1859413], [-97.1523969, 34.1860389], [-97.1524854, 34.1860394], [-97.1524851, 34.1860704], [-97.1525402, 34.1860708], [-97.1525405, 34.1860397], [-97.1526034, 34.18604]]]}, "properties": {"osm_id": 1279557353, "building": "yes", "name": "", "height": null, "height_m": null, "levels": null, "tract_id": "40019893002", "tract_name": "8930.02", "tags": {"building": "yes", "source": "microsoft/BuildingFootprints"}}}, {"type": "Feature", "geometry": {"type": "Polygon", "coordinates": [[[-97.147109, 34.1870691], [-97.147107, 34.1871889], [-97.1473082, 34.1871912], [-97.1473102, 34.1870714], [-97.147109, 34.1870691]]]}, "properties": {"osm_id": 1279557354, "building": "yes", "name": "", "height": null, "height_m": null, "levels": null, "tract_id": "40019893002", "tract_name": "8930.02", "tags": {"building": "yes", "source": "microsoft/BuildingFootprints"}}}, {"type": "Feature", "geometry": {"type": "Polygon", "coordinates": [[[-97.1456295, 34.1853876], [-97.1456237, 34.1852502], [-97.1454965, 34.1852538], [-97.1455023, 34.1853912], [-97.1456295, 34.1853876]]]}, "properties": {"osm_id": 1279557355, "building": "yes", "name": "", "height": null, "height_m": null, "levels": null, "tract_id": "40019893002", "tract_name": "8930.02", "tags": {"building": "yes", "source": "microsoft/BuildingFootprints"}}}, {"type": "Feature", "geometry": {"type": "Polygon", "coordinates": [[[-97.1472739, 34.1856728], [-97.1471827, 34.1856712], [-97.1471785, 34.1858387], [-97.1472696, 34.1858402], [-97.1472739, 34.1856728]]]}, "properties": {"osm_id": 1279557356, "building": "yes", "name": "", "height": null, "height_m": null, "levels": null, "tract_id": "40019893002", "tract_name": "8930.02", "tags": {"building": "yes", "source": "microsoft/BuildingFootprints"}}}, {"type": "Feature", "geometry": {"type": "Polygon", "coordinates": [[[-97.1497051, 34.1863707], [-97.1498472, 34.1863726], [-97.1498504, 34.1862138], [-97.1497083, 34.1862119], [-97.1497051, 34.1863707]]]}, "properties": {"osm_id": 1279557357, "building": "yes", "name": "", "height": null, "height_m": null, "levels": null, "tract_id": "40019893002", "tract_name": "8930.02", "tags": {"building": "yes", "source": "microsoft/BuildingFootprints"}}}, {"type": "Feature", "geometry": {"type": "Polygon", "coordinates": [[[-97.1459109, 34.1853364], [-97.1459122, 34.1852255], [-97.1457795, 34.1852245], [-97.1457777, 34.1853865], [-97.1458501, 34.185387], [-97.1458506, 34.185336], [-97.1459109, 34.1853364]]]}, "properties": {"osm_id": 1279557358, "building": "yes", "name": "", "height": null, "height_m": null, "levels": null, "tract_id": "40019893002", "tract_name": "8930.02", "tags": {"building": "yes", "source": "microsoft/BuildingFootprints"}}}, {"type": "Feature", "geometry": {"type": "Polygon", "coordinates": [[[-97.1468784, 34.1872016], [-97.1468793, 34.1869132], [-97.1469061, 34.1869132], [-97.1469064, 34.1868245], [-97.1467401, 34.1868241], [-97.1467389, 34.1872013], [-97.1468784, 34.1872016]]]}, "properties": {"osm_id": 1279557359, "building": "yes", "name": "", "height": null, "height_m": null, "levels": null, "tract_id": "40019893002", "tract_name": "8930.02", "tags": {"building": "yes", "source": "microsoft/BuildingFootprints"}}}, {"type": "Feature", "geometry": {"type": "Polygon", "coordinates": [[[-97.1462376, 34.1860906], [-97.1462413, 34.1861726], [-97.146299, 34.1861708], [-97.1462954, 34.1860889], [-97.1462376, 34.1860906]]]}, "properties": {"osm_id": 1279557360, "building": "yes", "name": "", "height": null, "height_m": null, "levels": null, "tract_id": "40019893002", "tract_name": "8930.02", "tags": {"building": "yes", "source": "microsoft/BuildingFootprints"}}}, {"type": "Feature", "geometry": {"type": "Polygon", "coordinates": [[[-97.1492207, 34.1847043], [-97.1492168, 34.1854587], [-97.1497881, 34.1854607], [-97.1497884, 34.1853942], [-97.1498287, 34.1853943], [-97.149829, 34.1853265], [-97.1497888, 34.1853263], [-97.1497891, 34.1852633], [-97.1494753, 34.1852621], [-97.1494757, 34.1851823], [-97.1498137, 34.1851835], [-97.149814, 34.1851169], [-97.1498503, 34.1851171], [-97.1498506, 34.1850558], [-97.1498063, 34.1850557], [-97.1498067, 34.1849882], [-97.1494728, 34.184987], [-97.1494731, 34.1849138], [-97.149846, 34.1849151], [-97.149847, 34.1847066], [-97.1492207, 34.1847043]]]}, "properties": {"osm_id": 1279557361, "building": "yes", "name": "", "height": null, "height_m": null, "levels": null, "tract_id": "40019893002", "tract_name": "8930.02", "tags": {"building": "yes", "source": "microsoft/BuildingFootprints"}}}, {"type": "Feature", "geometry": {"type": "Polygon", "coordinates": [[[-97.1451753, 34.1852959], [-97.1450854, 34.1852951], [-97.1450837, 34.185425], [-97.1451737, 34.1854258], [-97.1451753, 34.1852959]]]}, "properties": {"osm_id": 1279557362, "building": "yes", "name": "", "height": null, "height_m": null, "levels": null, "tract_id": "40019893002", "tract_name": "8930.02", "tags": {"building": "yes", "source": "microsoft/BuildingFootprints"}}}, {"type": "Feature", "geometry": {"type": "Polygon", "coordinates": [[[-97.1520254, 34.1852664], [-97.1519021, 34.1852681], [-97.1519049, 34.1854086], [-97.1520872, 34.1854061], [-97.1520859, 34.1853396], [-97.1520269, 34.1853404], [-97.1520254, 34.1852664]]]}, "properties": {"osm_id": 1279557363, "building": "yes", "name": "", "height": null, "height_m": null, "levels": null, "tract_id": "40019893002", "tract_name": "8930.02", "tags": {"building": "yes", "source": "microsoft/BuildingFootprints"}}}, {"type": "Feature", "geometry": {"type": "Polygon", "coordinates": [[[-97.1536492, 34.1859389], [-97.1535178, 34.1859375], [-97.1535167, 34.1860062], [-97.1534818, 34.1860059], [-97.1534808, 34.186068], [-97.1535171, 34.1860684], [-97.1535159, 34.1861451], [-97.1536459, 34.1861466], [-97.1536492, 34.1859389]]]}, "properties": {"osm_id": 1279557364, "building": "yes", "name": "", "height": null, "height_m": null, "levels": null, "tract_id": "40019893002", "tract_name": "8930.02", "tags": {"building": "yes", "source": "microsoft/BuildingFootprints"}}}, {"type": "Feature", "geometry": {"type": "Polygon", "coordinates": [[[-97.1496773, 34.1866169], [-97.1496778, 34.1865371], [-97.1494981, 34.1865363], [-97.149497, 34.1867115], [-97.1498215, 34.186713], [-97.1498221, 34.1866176], [-97.1496773, 34.1866169]]]}, "properties": {"osm_id": 1279557365, "building": "yes", "name": "", "height": null, "height_m": null, "levels": null, "tract_id": "40019893002", "tract_name": "8930.02", "tags": {"building": "yes", "source": "microsoft/BuildingFootprints"}}}, {"type": "Feature", "geometry": {"type": "Polygon", "coordinates": [[[-97.1451066, 34.1858277], [-97.1452098, 34.1858243], [-97.1452028, 34.1856803], [-97.1450996, 34.1856837], [-97.1451066, 34.1858277]]]}, "properties": {"osm_id": 1279557366, "building": "yes", "name": "", "height": null, "height_m": null, "levels": null, "tract_id": "40019893002", "tract_name": "8930.02", "tags": {"building": "yes", "source": "microsoft/BuildingFootprints"}}}, {"type": "Feature", "geometry": {"type": "Polygon", "coordinates": [[[-97.1463798, 34.1864234], [-97.1463718, 34.1862384], [-97.1461869, 34.1862439], [-97.1461912, 34.1863425], [-97.1462984, 34.1863393], [-97.1463021, 34.1864258], [-97.1463798, 34.1864234]]]}, "properties": {"osm_id": 1279557367, "building": "yes", "name": "", "height": null, "height_m": null, "levels": null, "tract_id": "40019893002", "tract_name": "8930.02", "tags": {"building": "yes", "source": "microsoft/BuildingFootprints"}}}, {"type": "Feature", "geometry": {"type": "Polygon", "coordinates": [[[-97.1456676, 34.1862714], [-97.1455228, 34.1862698], [-97.1455218, 34.1863341], [-97.1454574, 34.1863335], [-97.1454565, 34.1863911], [-97.1457032, 34.1863938], [-97.1457041, 34.1863361], [-97.1456666, 34.1863357], [-97.1456676, 34.1862714]]]}, "properties": {"osm_id": 1279557368, "building": "yes", "name": "", "height": null, "height_m": null, "levels": null, "tract_id": "40019893002", "tract_name": "8930.02", "tags": {"building": "yes", "source": "microsoft/BuildingFootprints"}}}, {"type": "Feature", "geometry": {"type": "Polygon", "coordinates": [[[-97.1532992, 34.186107], [-97.1532956, 34.1859495], [-97.1530823, 34.1859528], [-97.1530846, 34.1860548], [-97.1531463, 34.1860539], [-97.1531476, 34.1861093], [-97.1532992, 34.186107]]]}, "properties": {"osm_id": 1279557369, "building": "yes", "name": "", "height": null, "height_m": null, "levels": null, "tract_id": "40019893002", "tract_name": "8930.02", "tags": {"building": "yes", "source": "microsoft/BuildingFootprints"}}}, {"type": "Feature", "geometry": {"type": "Polygon", "coordinates": [[[-97.1472949, 34.1859014], [-97.1472897, 34.1859911], [-97.1474249, 34.1859965], [-97.1474301, 34.1859068], [-97.1472949, 34.1859014]]]}, "properties": {"osm_id": 1279557370, "building": "yes", "name": "", "height": null, "height_m": null, "levels": null, "tract_id": "40019893002", "tract_name": "8930.02", "tags": {"building": "yes", "source": "microsoft/BuildingFootprints"}}}, {"type": "Feature", "geometry": {"type": "Polygon", "coordinates": [[[-97.1520938, 34.1859619], [-97.1521393, 34.1859213], [-97.1520873, 34.1858814], [-97.151975, 34.1859818], [-97.1521223, 34.1860946], [-97.1522359, 34.1859931], [-97.1521796, 34.1859499], [-97.1521328, 34.1859917], [-97.1520938, 34.1859619]]]}, "properties": {"osm_id": 1279557371, "building": "yes", "name": "", "height": null, "height_m": null, "levels": null, "tract_id": "40019893002", "tract_name": "8930.02", "tags": {"building": "yes", "source": "microsoft/BuildingFootprints"}}}, {"type": "Feature", "geometry": {"type": "Polygon", "coordinates": [[[-97.1466342, 34.1853963], [-97.1467483, 34.185397], [-97.1467498, 34.1852351], [-97.1466358, 34.1852343], [-97.1466342, 34.1853963]]]}, "properties": {"osm_id": 1279557372, "building": "yes", "name": "", "height": null, "height_m": null, "levels": null, "tract_id": "40019893002", "tract_name": "8930.02", "tags": {"building": "yes", "source": "microsoft/BuildingFootprints"}}}, {"type": "Feature", "geometry": {"type": "Polygon", "coordinates": [[[-97.1459884, 34.1856515], [-97.145981, 34.1857955], [-97.1460627, 34.1857984], [-97.1460702, 34.1856544], [-97.1459884, 34.1856515]]]}, "properties": {"osm_id": 1279557373, "building": "yes", "name": "", "height": null, "height_m": null, "levels": null, "tract_id": "40019893002", "tract_name": "8930.02", "tags": {"building": "yes", "source": "microsoft/BuildingFootprints"}}}, {"type": "Feature", "geometry": {"type": "Polygon", "coordinates": [[[-97.1470226, 34.1857899], [-97.1470196, 34.1858764], [-97.1470985, 34.1858783], [-97.1471016, 34.1857918], [-97.1470226, 34.1857899]]]}, "properties": {"osm_id": 1279557374, "building": "yes", "name": "", "height": null, "height_m": null, "levels": null, "tract_id": "40019893002", "tract_name": "8930.02", "tags": {"building": "yes", "source": "microsoft/BuildingFootprints"}}}, {"type": "Feature", "geometry": {"type": "Polygon", "coordinates": [[[-97.1460619, 34.1852598], [-97.1459654, 34.1852584], [-97.1459625, 34.1854004], [-97.146059, 34.1854017], [-97.1460619, 34.1852598]]]}, "properties": {"osm_id": 1279557375, "building": "yes", "name": "", "height": null, "height_m": null, "levels": null, "tract_id": "40019893002", "tract_name": "8930.02", "tags": {"building": "yes", "source": "microsoft/BuildingFootprints"}}}, {"type": "Feature", "geometry": {"type": "Polygon", "coordinates": [[[-97.1530733, 34.1864932], [-97.1527528, 34.1865001], [-97.1527523, 34.1864823], [-97.1525922, 34.1864339], [-97.1525774, 34.1864107], [-97.1524357, 34.1864138], [-97.1523576, 34.186448], [-97.1523557, 34.186448], [-97.1523585, 34.1865345], [-97.1520207, 34.1865418], [-97.152025, 34.1866756], [-97.1522808, 34.1866701], [-97.1522798, 34.186639], [-97.1524052, 34.1866363], [-97.1524538, 34.1867124], [-97.1524551, 34.1867551], [-97.1525328, 34.1867534], [-97.1525304, 34.1866763], [-97.152617, 34.1866384], [-97.1527678, 34.1866352], [-97.1527688, 34.186667], [-97.1528263, 34.1866844], [-97.1527873, 34.1867726], [-97.1528066, 34.1868027], [-97.1528593, 34.1868186], [-97.1529002, 34.1868007], [-97.1529262, 34.1868086], [-97.1529372, 34.1871565], [-97.1531221, 34.1871525], [-97.1531071, 34.1866782], [-97.1530789, 34.1866697], [-97.1530733, 34.1864932]]]}, "properties": {"osm_id": 1279557376, "building": "yes", "name": "", "height": null, "height_m": null, "levels": null, "tract_id": "40019893002", "tract_name": "8930.02", "tags": {"building": "yes", "source": "microsoft/BuildingFootprints"}}}, {"type": "Feature", "geometry": {"type": "Polygon", "coordinates": [[[-97.1481593, 34.185965], [-97.1481586, 34.1858719], [-97.1481345, 34.185872], [-97.1481339, 34.1857988], [-97.1481608, 34.1857986], [-97.1481601, 34.1857099], [-97.1479589, 34.1857109], [-97.1479591, 34.1857331], [-97.1478062, 34.1857339], [-97.1478069, 34.1858271], [-97.147772, 34.1858272], [-97.1477732, 34.185987], [-97.1478162, 34.1859868], [-97.1478166, 34.1860489], [-97.1479159, 34.1860484], [-97.1479155, 34.1860062], [-97.1479504, 34.186006], [-97.1479501, 34.1859661], [-97.1481593, 34.185965]]]}, "properties": {"osm_id": 1279557377, "building": "yes", "name": "", "height": null, "height_m": null, "levels": null, "tract_id": "40019893002", "tract_name": "8930.02", "tags": {"building": "yes", "source": "microsoft/BuildingFootprints"}}}, {"type": "Feature", "geometry": {"type": "Polygon", "coordinates": [[[-97.1449888, 34.1867485], [-97.1451861, 34.1867487], [-97.1451863, 34.1866755], [-97.1451418, 34.1866755], [-97.145142, 34.1866022], [-97.1450213, 34.1866021], [-97.1450211, 34.1866797], [-97.1449889, 34.1866797], [-97.1449888, 34.1867485]]]}, "properties": {"osm_id": 1279557379, "building": "yes", "name": "", "height": null, "height_m": null, "levels": null, "tract_id": "40019893002", "tract_name": "8930.02", "tags": {"building": "yes", "source": "microsoft/BuildingFootprints"}}}, {"type": "Feature", "geometry": {"type": "Polygon", "coordinates": [[[-97.1531719, 34.1856601], [-97.1531716, 34.185677], [-97.1532493, 34.1856781], [-97.1532523, 34.1855384], [-97.1532161, 34.1855379], [-97.1532168, 34.1855068], [-97.1531363, 34.1855057], [-97.1531356, 34.1855398], [-97.1530672, 34.1855388], [-97.1530647, 34.1856586], [-97.1531719, 34.1856601]]]}, "properties": {"osm_id": 1279557380, "building": "yes", "name": "", "height": null, "height_m": null, "levels": null, "tract_id": "40019893002", "tract_name": "8930.02", "tags": {"building": "yes", "source": "microsoft/BuildingFootprints"}}}, {"type": "Feature", "geometry": {"type": "Polygon", "coordinates": [[[-97.1463942, 34.1857352], [-97.146275, 34.1857319], [-97.1462695, 34.1858671], [-97.1463887, 34.1858704], [-97.1463942, 34.1857352]]]}, "properties": {"osm_id": 1279557381, "building": "yes", "name": "", "height": null, "height_m": null, "levels": null, "tract_id": "40019893002", "tract_name": "8930.02", "tags": {"building": "yes", "source": "microsoft/BuildingFootprints"}}}, {"type": "Feature", "geometry": {"type": "Polygon", "coordinates": [[[-97.150673, 34.185291], [-97.15033, 34.185291], [-97.15033, 34.185424], [-97.150617, 34.185424], [-97.150617, 34.185465], [-97.150805, 34.185465], [-97.150805, 34.185442], [-97.151097, 34.185441], [-97.151097, 34.185266], [-97.150805, 34.185266], [-97.150804, 34.18495], [-97.150858, 34.18495], [-97.150858, 34.184886], [-97.151111, 34.184886], [-97.151111, 34.184831], [-97.151187, 34.184831], [-97.151186, 34.184762], [-97.151111, 34.184762], [-97.151111, 34.184709], [-97.150599, 34.184709], [-97.150599, 34.184736], [-97.150276, 34.184736], [-97.150276, 34.184854], [-97.150598, 34.184854], [-97.150598, 34.184946], [-97.150673, 34.184946], [-97.150673, 34.185291]]]}, "properties": {"osm_id": 1279557383, "building": "yes", "name": "", "height": null, "height_m": null, "levels": null, "tract_id": "40019893002", "tract_name": "8930.02", "tags": {"building": "yes", "source": "microsoft/BuildingFootprints"}}}, {"type": "Feature", "geometry": {"type": "Polygon", "coordinates": [[[-97.1528382, 34.1855671], [-97.1528361, 34.185678], [-97.1530331, 34.1856805], [-97.1530352, 34.1855696], [-97.1528382, 34.1855671]]]}, "properties": {"osm_id": 1279557384, "building": "yes", "name": "", "height": null, "height_m": null, "levels": null, "tract_id": "40019893002", "tract_name": "8930.02", "tags": {"building": "yes", "source": "microsoft/BuildingFootprints"}}}, {"type": "Feature", "geometry": {"type": "Polygon", "coordinates": [[[-97.1460717, 34.1868015], [-97.1460768, 34.1866486], [-97.1459723, 34.1866462], [-97.1459672, 34.1867991], [-97.1460717, 34.1868015]]]}, "properties": {"osm_id": 1279557385, "building": "yes", "name": "", "height": null, "height_m": null, "levels": null, "tract_id": "40019893002", "tract_name": "8930.02", "tags": {"building": "yes", "source": "microsoft/BuildingFootprints"}}}, {"type": "Feature", "geometry": {"type": "Polygon", "coordinates": [[[-97.1476094, 34.1870064], [-97.1477086, 34.1870086], [-97.1477111, 34.1869287], [-97.147687, 34.1869282], [-97.1476889, 34.1868661], [-97.1475522, 34.1868632], [-97.1475482, 34.1869896], [-97.1476099, 34.1869909], [-97.1476094, 34.1870064]]]}, "properties": {"osm_id": 1279557386, "building": "yes", "name": "", "height": null, "height_m": null, "levels": null, "tract_id": "40019893002", "tract_name": "8930.02", "tags": {"building": "yes", "source": "microsoft/BuildingFootprints"}}}, {"type": "Feature", "geometry": {"type": "Polygon", "coordinates": [[[-97.1450584, 34.1868308], [-97.1450048, 34.1868303], [-97.1450032, 34.1869367], [-97.1451533, 34.1869383], [-97.1451545, 34.1868607], [-97.145058, 34.1868597], [-97.1450584, 34.1868308]]]}, "properties": {"osm_id": 1279557387, "building": "yes", "name": "", "height": null, "height_m": null, "levels": null, "tract_id": "40019893002", "tract_name": "8930.02", "tags": {"building": "yes", "source": "microsoft/BuildingFootprints"}}}, {"type": "Feature", "geometry": {"type": "Polygon", "coordinates": [[[-97.1525565, 34.1855324], [-97.1524453, 34.1855303], [-97.152447, 34.1854712], [-97.1523773, 34.1854699], [-97.1523722, 34.1856562], [-97.152553, 34.1856596], [-97.1525565, 34.1855324]]]}, "properties": {"osm_id": 1279557388, "building": "yes", "name": "", "height": null, "height_m": null, "levels": null, "tract_id": "40019893002", "tract_name": "8930.02", "tags": {"building": "yes", "source": "microsoft/BuildingFootprints"}}}, {"type": "Feature", "geometry": {"type": "Polygon", "coordinates": [[[-97.153486, 34.1868906], [-97.1534809, 34.1870835], [-97.153646, 34.1870865], [-97.1536479, 34.1870155], [-97.1535766, 34.1870142], [-97.1535798, 34.1868922], [-97.153486, 34.1868906]]]}, "properties": {"osm_id": 1279557389, "building": "yes", "name": "", "height": null, "height_m": null, "levels": null, "tract_id": "40019893002", "tract_name": "8930.02", "tags": {"building": "yes", "source": "microsoft/BuildingFootprints"}}}, {"type": "Feature", "geometry": {"type": "Polygon", "coordinates": [[[-97.1527512, 34.1860789], [-97.1528236, 34.1860773], [-97.1528194, 34.1859421], [-97.1526371, 34.185946], [-97.1526405, 34.1860546], [-97.1527504, 34.1860523], [-97.1527512, 34.1860789]]]}, "properties": {"osm_id": 1279557390, "building": "yes", "name": "", "height": null, "height_m": null, "levels": null, "tract_id": "40019893002", "tract_name": "8930.02", "tags": {"building": "yes", "source": "microsoft/BuildingFootprints"}}}, {"type": "Feature", "geometry": {"type": "Polygon", "coordinates": [[[-97.1469317, 34.187259], [-97.1470459, 34.1872611], [-97.1470495, 34.1871236], [-97.1469353, 34.1871216], [-97.1469317, 34.187259]]]}, "properties": {"osm_id": 1279557391, "building": "yes", "name": "", "height": null, "height_m": null, "levels": null, "tract_id": "40019893002", "tract_name": "8930.02", "tags": {"building": "yes", "source": "microsoft/BuildingFootprints"}}}, {"type": "Feature", "geometry": {"type": "Polygon", "coordinates": [[[-97.1534933, 34.1855918], [-97.1534611, 34.1855911], [-97.1534626, 34.1855423], [-97.1532964, 34.185539], [-97.1532924, 34.1856743], [-97.1533648, 34.1856757], [-97.1533663, 34.1856225], [-97.1534039, 34.1856233], [-97.1534023, 34.1856765], [-97.1534908, 34.1856783], [-97.1534933, 34.1855918]]]}, "properties": {"osm_id": 1279557392, "building": "yes", "name": "", "height": null, "height_m": null, "levels": null, "tract_id": "40019893002", "tract_name": "8930.02", "tags": {"building": "yes", "source": "microsoft/BuildingFootprints"}}}, {"type": "Feature", "geometry": {"type": "Polygon", "coordinates": [[[-97.1467119, 34.1857755], [-97.1467089, 34.1859629], [-97.1468445, 34.1859644], [-97.1468474, 34.185777], [-97.1467119, 34.1857755]]]}, "properties": {"osm_id": 1279557393, "building": "yes", "name": "", "height": null, "height_m": null, "levels": null, "tract_id": "40019893002", "tract_name": "8930.02", "tags": {"building": "yes", "source": "microsoft/BuildingFootprints"}}}, {"type": "Feature", "geometry": {"type": "Polygon", "coordinates": [[[-97.1463304, 34.1872929], [-97.146329, 34.1872297], [-97.1463918, 34.1872287], [-97.1463905, 34.1871733], [-97.1463304, 34.1871742], [-97.146328, 34.1870677], [-97.146076, 34.1870716], [-97.146081, 34.1872968], [-97.1463304, 34.1872929]]]}, "properties": {"osm_id": 1279557394, "building": "yes", "name": "", "height": null, "height_m": null, "levels": null, "tract_id": "40019893002", "tract_name": "8930.02", "tags": {"building": "yes", "source": "microsoft/BuildingFootprints"}}}, {"type": "Feature", "geometry": {"type": "Polygon", "coordinates": [[[-97.1478716, 34.1854262], [-97.1479708, 34.1854276], [-97.1479738, 34.185279], [-97.1478746, 34.1852776], [-97.1478716, 34.1854262]]]}, "properties": {"osm_id": 1279557395, "building": "yes", "name": "", "height": null, "height_m": null, "levels": null, "tract_id": "40019893002", "tract_name": "8930.02", "tags": {"building": "yes", "source": "microsoft/BuildingFootprints"}}}, {"type": "Feature", "geometry": {"type": "Polygon", "coordinates": [[[-97.1460802, 34.1869211], [-97.1460479, 34.1868218], [-97.1459453, 34.1868446], [-97.1459776, 34.1869439], [-97.1460802, 34.1869211]]]}, "properties": {"osm_id": 1279557396, "building": "yes", "name": "", "height": null, "height_m": null, "levels": null, "tract_id": "40019893002", "tract_name": "8930.02", "tags": {"building": "yes", "source": "microsoft/BuildingFootprints"}}}, {"type": "Feature", "geometry": {"type": "Polygon", "coordinates": [[[-97.1475524, 34.186622], [-97.1476704, 34.1866207], [-97.1476698, 34.1865852], [-97.1477235, 34.1865845], [-97.1477219, 34.1864958], [-97.1477005, 34.1864961], [-97.1476995, 34.1864406], [-97.1475494, 34.1864423], [-97.1475524, 34.186622]]]}, "properties": {"osm_id": 1279557397, "building": "yes", "name": "", "height": null, "height_m": null, "levels": null, "tract_id": "40019893002", "tract_name": "8930.02", "tags": {"building": "yes", "source": "microsoft/BuildingFootprints"}}}, {"type": "Feature", "geometry": {"type": "Polygon", "coordinates": [[[-97.1455799, 34.1856777], [-97.1454765, 34.1856769], [-97.1454749, 34.1858233], [-97.1455782, 34.1858241], [-97.1455799, 34.1856777]]]}, "properties": {"osm_id": 1279557399, "building": "yes", "name": "", "height": null, "height_m": null, "levels": null, "tract_id": "40019893002", "tract_name": "8930.02", "tags": {"building": "yes", "source": "microsoft/BuildingFootprints"}}}, {"type": "Feature", "geometry": {"type": "Polygon", "coordinates": [[[-97.1525858, 34.1856752], [-97.1527373, 34.1856769], [-97.1527375, 34.1856591], [-97.1528033, 34.1856598], [-97.1528067, 34.1854469], [-97.1527075, 34.1854458], [-97.1527056, 34.1855634], [-97.1525876, 34.1855621], [-97.1525858, 34.1856752]]]}, "properties": {"osm_id": 1279557400, "building": "yes", "name": "", "height": null, "height_m": null, "levels": null, "tract_id": "40019893002", "tract_name": "8930.02", "tags": {"building": "yes", "source": "microsoft/BuildingFootprints"}}}, {"type": "Feature", "geometry": {"type": "Polygon", "coordinates": [[[-97.1457006, 34.185809], [-97.1456604, 34.1858106], [-97.1456618, 34.185835], [-97.145702, 34.1858334], [-97.1457006, 34.185809]]]}, "properties": {"osm_id": 1279557401, "building": "yes", "name": "", "height": null, "height_m": null, "levels": null, "tract_id": "40019893002", "tract_name": "8930.02", "tags": {"building": "yes", "source": "microsoft/BuildingFootprints"}}}, {"type": "Feature", "geometry": {"type": "Polygon", "coordinates": [[[-97.1488446, 34.1865911], [-97.1487321, 34.1865885], [-97.1487286, 34.1866904], [-97.1488813, 34.186694], [-97.1488839, 34.1866196], [-97.1488437, 34.1866187], [-97.1488446, 34.1865911]]]}, "properties": {"osm_id": 1279557402, "building": "yes", "name": "", "height": null, "height_m": null, "levels": null, "tract_id": "40019893002", "tract_name": "8930.02", "tags": {"building": "yes", "source": "microsoft/BuildingFootprints"}}}, {"type": "Feature", "geometry": {"type": "Polygon", "coordinates": [[[-97.1450992, 34.1863283], [-97.1451016, 34.1864093], [-97.1452329, 34.1864067], [-97.1452305, 34.1863256], [-97.1450992, 34.1863283]]]}, "properties": {"osm_id": 1279557403, "building": "yes", "name": "", "height": null, "height_m": null, "levels": null, "tract_id": "40019893002", "tract_name": "8930.02", "tags": {"building": "yes", "source": "microsoft/BuildingFootprints"}}}, {"type": "Feature", "geometry": {"type": "Polygon", "coordinates": [[[-97.1529635, 34.186062], [-97.1530371, 34.1860633], [-97.1530397, 34.1859591], [-97.1528803, 34.1859563], [-97.1528776, 34.1860614], [-97.1529179, 34.1860621], [-97.152917, 34.1860945], [-97.1529626, 34.1860953], [-97.1529635, 34.186062]]]}, "properties": {"osm_id": 1279557404, "building": "yes", "name": "", "height": null, "height_m": null, "levels": null, "tract_id": "40019893002", "tract_name": "8930.02", "tags": {"building": "yes", "source": "microsoft/BuildingFootprints"}}}, {"type": "Feature", "geometry": {"type": "Polygon", "coordinates": [[[-97.1534875, 34.1862106], [-97.1534856, 34.1863615], [-97.1536438, 34.1863629], [-97.1536446, 34.1862963], [-97.1536017, 34.1862959], [-97.1536028, 34.1862116], [-97.1534875, 34.1862106]]]}, "properties": {"osm_id": 1279557405, "building": "yes", "name": "", "height": null, "height_m": null, "levels": null, "tract_id": "40019893002", "tract_name": "8930.02", "tags": {"building": "yes", "source": "microsoft/BuildingFootprints"}}}, {"type": "Feature", "geometry": {"type": "Polygon", "coordinates": [[[-97.1473971, 34.1862662], [-97.1472471, 34.1862613], [-97.1472424, 34.1863587], [-97.1473924, 34.1863636], [-97.1473971, 34.1862662]]]}, "properties": {"osm_id": 1279557407, "building": "yes", "name": "", "height": null, "height_m": null, "levels": null, "tract_id": "40019893002", "tract_name": "8930.02", "tags": {"building": "yes", "source": "microsoft/BuildingFootprints"}}}, {"type": "Feature", "geometry": {"type": "Polygon", "coordinates": [[[-97.1516921, 34.186877], [-97.1513848, 34.1868754], [-97.1513833, 34.1870676], [-97.1513806, 34.1870675], [-97.1513804, 34.1870919], [-97.1514206, 34.1870922], [-97.1514204, 34.1871241], [-97.1514541, 34.1871242], [-97.1514536, 34.187193], [-97.1514241, 34.1871929], [-97.1514233, 34.187283], [-97.1517088, 34.1872846], [-97.1517108, 34.1870302], [-97.1516909, 34.1870301], [-97.1516921, 34.186877]]]}, "properties": {"osm_id": 1279557408, "building": "yes", "name": "", "height": null, "height_m": null, "levels": null, "tract_id": "40019893002", "tract_name": "8930.02", "tags": {"building": "yes", "source": "microsoft/BuildingFootprints"}}}, {"type": "Feature", "geometry": {"type": "Polygon", "coordinates": [[[-97.1484264, 34.1872832], [-97.1486597, 34.1872849], [-97.1486591, 34.1873404], [-97.1488468, 34.1873418], [-97.1488498, 34.1870667], [-97.1486288, 34.187065], [-97.1486308, 34.1868764], [-97.148589, 34.1868761], [-97.1485879, 34.1869782], [-97.1484297, 34.186977], [-97.1484264, 34.1872832]]]}, "properties": {"osm_id": 1279557409, "building": "yes", "name": "", "height": null, "height_m": null, "levels": null, "tract_id": "40019893002", "tract_name": "8930.02", "tags": {"building": "yes", "source": "microsoft/BuildingFootprints"}}}, {"type": "Feature", "geometry": {"type": "Polygon", "coordinates": [[[-97.1471293, 34.1862647], [-97.1470168, 34.1862681], [-97.1470228, 34.1864065], [-97.1471353, 34.1864032], [-97.1471293, 34.1862647]]]}, "properties": {"osm_id": 1279557410, "building": "yes", "name": "", "height": null, "height_m": null, "levels": null, "tract_id": "40019893002", "tract_name": "8930.02", "tags": {"building": "yes", "source": "microsoft/BuildingFootprints"}}}, {"type": "Feature", "geometry": {"type": "Polygon", "coordinates": [[[-97.1460961, 34.1863382], [-97.1460799, 34.1862538], [-97.1459648, 34.1862689], [-97.145981, 34.1863533], [-97.1460961, 34.1863382]]]}, "properties": {"osm_id": 1279557411, "building": "yes", "name": "", "height": null, "height_m": null, "levels": null, "tract_id": "40019893002", "tract_name": "8930.02", "tags": {"building": "yes", "source": "microsoft/BuildingFootprints"}}}, {"type": "Feature", "geometry": {"type": "Polygon", "coordinates": [[[-97.1457769, 34.1856526], [-97.1457795, 34.1857524], [-97.1458948, 34.1857504], [-97.1458922, 34.1856506], [-97.1457769, 34.1856526]]]}, "properties": {"osm_id": 1279557412, "building": "yes", "name": "", "height": null, "height_m": null, "levels": null, "tract_id": "40019893002", "tract_name": "8930.02", "tags": {"building": "yes", "source": "microsoft/BuildingFootprints"}}}, {"type": "Feature", "geometry": {"type": "Polygon", "coordinates": [[[-97.1486495, 34.1858383], [-97.14865, 34.1859569], [-97.1486982, 34.1859568], [-97.1486983, 34.1859767], [-97.1488458, 34.1859764], [-97.1488459, 34.1859954], [-97.1489505, 34.1859951], [-97.1489499, 34.1858376], [-97.1486495, 34.1858383]]]}, "properties": {"osm_id": 1279557414, "building": "yes", "name": "", "height": null, "height_m": null, "levels": null, "tract_id": "40019893002", "tract_name": "8930.02", "tags": {"building": "yes", "source": "microsoft/BuildingFootprints"}}}, {"type": "Feature", "geometry": {"type": "Polygon", "coordinates": [[[-97.1474112, 34.185707], [-97.147312, 34.1857056], [-97.1473097, 34.1858165], [-97.1474089, 34.1858179], [-97.1474112, 34.185707]]]}, "properties": {"osm_id": 1279557416, "building": "yes", "name": "", "height": null, "height_m": null, "levels": null, "tract_id": "40019893002", "tract_name": "8930.02", "tags": {"building": "yes", "source": "microsoft/BuildingFootprints"}}}, {"type": "Feature", "geometry": {"type": "Polygon", "coordinates": [[[-97.1461982, 34.1854131], [-97.1463108, 34.1854149], [-97.1463121, 34.1853561], [-97.1461995, 34.1853544], [-97.1462001, 34.1853278], [-97.146125, 34.1853266], [-97.1461227, 34.1854309], [-97.1461978, 34.185432], [-97.1461982, 34.1854131]]]}, "properties": {"osm_id": 1279557417, "building": "yes", "name": "", "height": null, "height_m": null, "levels": null, "tract_id": "40019893002", "tract_name": "8930.02", "tags": {"building": "yes", "source": "microsoft/BuildingFootprints"}}}, {"type": "Feature", "geometry": {"type": "Polygon", "coordinates": [[[-97.1534276, 34.1864277], [-97.1534265, 34.1865098], [-97.1534655, 34.1865102], [-97.1534646, 34.1865789], [-97.1536443, 34.1865807], [-97.1536452, 34.186511], [-97.1536035, 34.1865106], [-97.1536046, 34.1864294], [-97.1534276, 34.1864277]]]}, "properties": {"osm_id": 1279557418, "building": "yes", "name": "", "height": null, "height_m": null, "levels": null, "tract_id": "40019893002", "tract_name": "8930.02", "tags": {"building": "yes", "source": "microsoft/BuildingFootprints"}}}, {"type": "Feature", "geometry": {"type": "Polygon", "coordinates": [[[-97.1470847, 34.1853207], [-97.1469493, 34.1853238], [-97.1469532, 34.1854402], [-97.1469934, 34.1854393], [-97.1469918, 34.1853927], [-97.147087, 34.1853905], [-97.1470847, 34.1853207]]]}, "properties": {"osm_id": 1279557419, "building": "yes", "name": "", "height": null, "height_m": null, "levels": null, "tract_id": "40019893002", "tract_name": "8930.02", "tags": {"building": "yes", "source": "microsoft/BuildingFootprints"}}}, {"type": "Feature", "geometry": {"type": "Polygon", "coordinates": [[[-97.154642, 34.179229], [-97.1544344, 34.1792306], [-97.1544364, 34.179278], [-97.154644, 34.179278], [-97.154646, 34.1792617], [-97.154642, 34.179229]]]}, "properties": {"osm_id": 1312459455, "building": "static_caravan", "name": "", "height": null, "height_m": null, "levels": null, "tract_id": "40019893002", "tract_name": "8930.02", "tags": {"addr:unit": "134", "building": "static_caravan"}}}, {"type": "Feature", "geometry": {"type": "Polygon", "coordinates": [[[-97.1546875, 34.1793762], [-97.1545728, 34.1793762], [-97.1544265, 34.1793745], [-97.1544245, 34.1793238], [-97.1546895, 34.1793304], [-97.1546875, 34.1793762]]]}, "properties": {"osm_id": 1312459456, "building": "static_caravan", "name": "", "height": null, "height_m": null, "levels": null, "tract_id": "40019893002", "tract_name": "8930.02", "tags": {"addr:unit": "133", "building": "static_caravan"}}}, {"type": "Feature", "geometry": {"type": "Polygon", "coordinates": [[[-97.1547607, 34.1790883], [-97.1547735, 34.1789885], [-97.1547725, 34.1788707], [-97.1546934, 34.1788691], [-97.1546934, 34.1790041], [-97.1546872, 34.1790175], [-97.1546994, 34.179085], [-97.1547607, 34.1790883]]]}, "properties": {"osm_id": 1312459457, "building": "static_caravan", "name": "", "height": null, "height_m": null, "levels": null, "tract_id": "40019893002", "tract_name": "8930.02", "tags": {"addr:unit": "138", "building": "static_caravan"}}}, {"type": "Feature", "geometry": {"type": "Polygon", "coordinates": [[[-97.1547686, 34.1793304], [-97.1547755, 34.1792388], [-97.1547705, 34.1791472], [-97.1546994, 34.179139], [-97.1546895, 34.1792543], [-97.1547033, 34.1793304], [-97.1547686, 34.1793304]]]}, "properties": {"osm_id": 1312459458, "building": "static_caravan", "name": "", "height": null, "height_m": null, "levels": null, "tract_id": "40019893002", "tract_name": "8930.02", "tags": {"addr:unit": "150", "building": "static_caravan"}}}, {"type": "Feature", "geometry": {"type": "Polygon", "coordinates": [[[-97.1546855, 34.1790768], [-97.1546872, 34.1790175], [-97.1544601, 34.1790163], [-97.1544621, 34.1790785], [-97.1546855, 34.1790768]]]}, "properties": {"osm_id": 1312459459, "building": "static_caravan", "name": "", "height": null, "height_m": null, "levels": null, "tract_id": "40019893002", "tract_name": "8930.02", "tags": {"addr:unit": "137", "building": "static_caravan"}}}, {"type": "Feature", "geometry": {"type": "Polygon", "coordinates": [[[-97.1553637, 34.1797573], [-97.1554052, 34.179579], [-97.1553222, 34.1795626], [-97.1552905, 34.1797491], [-97.1553637, 34.1797573]]]}, "properties": {"osm_id": 1312459460, "building": "static_caravan", "name": "", "height": null, "height_m": null, "levels": null, "tract_id": "40019893002", "tract_name": "8930.02", "tags": {"addr:unit": "123", "building": "static_caravan"}}}, {"type": "Feature", "geometry": {"type": "Polygon", "coordinates": [[[-97.1552787, 34.1797409], [-97.1552826, 34.1795708], [-97.1551976, 34.1795659], [-97.1551956, 34.1797426], [-97.1552787, 34.1797409]]]}, "properties": {"osm_id": 1312459461, "building": "static_caravan", "name": "", "height": null, "height_m": null, "levels": null, "tract_id": "40019893002", "tract_name": "8930.02", "tags": {"addr:unit": "124", "building": "static_caravan"}}}, {"type": "Feature", "geometry": {"type": "Polygon", "coordinates": [[[-97.1551679, 34.1797671], [-97.1551699, 34.1795692], [-97.155077, 34.1795675], [-97.155077, 34.1797671], [-97.1551679, 34.1797671]]]}, "properties": {"osm_id": 1312459462, "building": "static_caravan", "name": "", "height": null, "height_m": null, "levels": null, "tract_id": "40019893002", "tract_name": "8930.02", "tags": {"addr:unit": "125", "building": "static_caravan"}}}, {"type": "Feature", "geometry": {"type": "Polygon", "coordinates": [[[-97.1550552, 34.1797638], [-97.1550513, 34.1795725], [-97.1549564, 34.1795692], [-97.1549663, 34.1797671], [-97.1550552, 34.1797638]]]}, "properties": {"osm_id": 1312459463, "building": "static_caravan", "name": "", "height": null, "height_m": null, "levels": null, "tract_id": "40019893002", "tract_name": "8930.02", "tags": {"addr:unit": "126", "building": "static_caravan"}}}, {"type": "Feature", "geometry": {"type": "Polygon", "coordinates": [[[-97.1549307, 34.1797687], [-97.1549248, 34.1795692], [-97.1548279, 34.1795757], [-97.1548378, 34.1797736], [-97.1549307, 34.1797687]]]}, "properties": {"osm_id": 1312459464, "building": "static_caravan", "name": "", "height": null, "height_m": null, "levels": null, "tract_id": "40019893002", "tract_name": "8930.02", "tags": {"addr:unit": "127", "building": "static_caravan"}}}, {"type": "Feature", "geometry": {"type": "Polygon", "coordinates": [[[-97.15482, 34.1797704], [-97.154816, 34.179561], [-97.1547211, 34.1795659], [-97.154735, 34.1797704], [-97.15482, 34.1797704]]]}, "properties": {"osm_id": 1312459465, "building": "static_caravan", "name": "", "height": null, "height_m": null, "levels": null, "tract_id": "40019893002", "tract_name": "8930.02", "tags": {"addr:unit": "128", "building": "static_caravan"}}}, {"type": "Feature", "geometry": {"type": "Polygon", "coordinates": [[[-97.1549109, 34.1790016], [-97.1548872, 34.1787971], [-97.1548061, 34.1788053], [-97.1548279, 34.1790098], [-97.1549109, 34.1790016]]]}, "properties": {"osm_id": 1312459466, "building": "static_caravan", "name": "", "height": null, "height_m": null, "levels": null, "tract_id": "40019893002", "tract_name": "8930.02", "tags": {"addr:unit": "139", "building": "static_caravan"}}}, {"type": "Feature", "geometry": {"type": "Polygon", "coordinates": [[[-97.1550236, 34.1789934], [-97.1550058, 34.1787922], [-97.1549208, 34.1787955], [-97.1549406, 34.179], [-97.1550236, 34.1789934]]]}, "properties": {"osm_id": 1312459467, "building": "static_caravan", "name": "", "height": null, "height_m": null, "levels": null, "tract_id": "40019893002", "tract_name": "8930.02", "tags": {"addr:unit": "140", "building": "static_caravan"}}}, {"type": "Feature", "geometry": {"type": "Polygon", "coordinates": [[[-97.1551343, 34.1789722], [-97.1551284, 34.1787677], [-97.1550473, 34.1787677], [-97.1550572, 34.1789787], [-97.1551343, 34.1789722]]]}, "properties": {"osm_id": 1312459468, "building": "static_caravan", "name": "", "height": null, "height_m": null, "levels": null, "tract_id": "40019893002", "tract_name": "8930.02", "tags": {"addr:unit": "141", "building": "static_caravan"}}}, {"type": "Feature", "geometry": {"type": "Polygon", "coordinates": [[[-97.1446227, 34.1655979], [-97.14485, 34.1656015], [-97.144846, 34.1657802], [-97.1449616, 34.165782], [-97.1449566, 34.1660015], [-97.1448651, 34.1660001], [-97.1448641, 34.1660432], [-97.1446014, 34.166039], [-97.1446047, 34.1658962], [-97.1444592, 34.1658939], [-97.144461, 34.1658137], [-97.1445519, 34.1658151], [-97.144554, 34.1657251], [-97.1446198, 34.1657262], [-97.1446227, 34.1655979]]]}, "properties": {"osm_id": 1395942173, "building": "yes", "name": "", "height": null, "height_m": null, "levels": null, "tract_id": "40019893002", "tract_name": "8930.02", "tags": {"building": "yes"}}}, {"type": "Feature", "geometry": {"type": "Polygon", "coordinates": [[[-97.1437695, 34.1749894], [-97.1443084, 34.1749918], [-97.1443073, 34.1751594], [-97.1437684, 34.1751569], [-97.1437695, 34.1749894]]]}, "properties": {"osm_id": 1395942176, "building": "yes", "name": "", "height": null, "height_m": null, "levels": null, "tract_id": "40019893002", "tract_name": "8930.02", "tags": {"building": "yes"}}}, {"type": "Feature", "geometry": {"type": "Polygon", "coordinates": [[[-97.143814, 34.1758273], [-97.1442142, 34.1758243], [-97.1442178, 34.1761574], [-97.1440783, 34.1761584], [-97.1440759, 34.1759342], [-97.143984, 34.1759348], [-97.1439863, 34.1761565], [-97.1438057, 34.1761578], [-97.1438054, 34.1761204], [-97.1437188, 34.176121], [-97.1437177, 34.1760164], [-97.143816, 34.1760156], [-97.143814, 34.1758273]]]}, "properties": {"osm_id": 1395942177, "building": "yes", "name": "", "height": null, "height_m": null, "levels": null, "tract_id": "40019893002", "tract_name": "8930.02", "tags": {"building": "yes"}}}, {"type": "Feature", "geometry": {"type": "Polygon", "coordinates": [[[-97.1437139, 34.1773152], [-97.1438971, 34.1773152], [-97.1438971, 34.1775131], [-97.1437139, 34.1775131], [-97.1437139, 34.1773152]]]}, "properties": {"osm_id": 1395942179, "building": "yes", "name": "", "height": null, "height_m": null, "levels": null, "tract_id": "40019893002", "tract_name": "8930.02", "tags": {"building": "yes"}}}, {"type": "Feature", "geometry": {"type": "Polygon", "coordinates": [[[-97.1434175, 34.1831204], [-97.1438735, 34.1831223], [-97.1438725, 34.1832938], [-97.1434164, 34.1832917], [-97.1434175, 34.1831204]]]}, "properties": {"osm_id": 1395942180, "building": "yes", "name": "", "height": null, "height_m": null, "levels": null, "tract_id": "40019893002", "tract_name": "8930.02", "tags": {"building": "yes"}}}, {"type": "Feature", "geometry": {"type": "Polygon", "coordinates": [[[-97.1614532, 34.1849864], [-97.1612723, 34.1849813], [-97.1612723, 34.1849107], [-97.1612092, 34.1848989], [-97.1612072, 34.1848065], [-97.1610832, 34.1848014], [-97.1610812, 34.184714], [-97.1612031, 34.1847157], [-97.1612072, 34.1846181], [-97.1612662, 34.1846181], [-97.1612743, 34.1844701], [-97.1614532, 34.1844903], [-97.1614532, 34.1846148], [-97.1615324, 34.1846215], [-97.1615243, 34.184904], [-97.1614491, 34.1849023], [-97.1614532, 34.1849864]]]}, "properties": {"osm_id": 1409852090, "building": "church", "name": "", "height": null, "height_m": null, "levels": null, "tract_id": "40019893002", "tract_name": "8930.02", "tags": {"building": "church", "layer": "2"}}}]}