{"type": "FeatureCollection", "features": [{"type": "Feature", "geometry": {"type": "Polygon", "coordinates": [[[-99.7007196, 35.6176722], [-99.7007188, 35.617598], [-99.7006504, 35.6175985], [-99.7006512, 35.6176726], [-99.7007196, 35.6176722]]]}, "properties": {"osm_id": 134496141, "building": "yes", "name": "", "height": null, "height_m": null, "levels": null, "tract_id": "40129960000", "tract_name": "9600", "tags": {"amenity": "shelter", "building": "yes", "shelter_type": "picnic_shelter"}}}, {"type": "Feature", "geometry": {"type": "Polygon", "coordinates": [[[-99.7006498, 35.6174737], [-99.7006468, 35.6175498], [-99.7007217, 35.6175518], [-99.7007247, 35.6174756], [-99.7006498, 35.6174737]]]}, "properties": {"osm_id": 134496143, "building": "yes", "name": "", "height": null, "height_m": null, "levels": null, "tract_id": "40129960000", "tract_name": "9600", "tags": {"amenity": "shelter", "building": "yes", "shelter_type": "picnic_shelter"}}}, {"type": "Feature", "geometry": {"type": "Polygon", "coordinates": [[[-99.7007988, 35.6177456], [-99.7007614, 35.6177462], [-99.700762, 35.6177713], [-99.7007994, 35.6177707], [-99.7007988, 35.6177456]]]}, "properties": {"osm_id": 134497420, "building": "yes", "name": "", "height": null, "height_m": null, "levels": null, "tract_id": "40129960000", "tract_name": "9600", "tags": {"building": "yes"}}}, {"type": "Feature", "geometry": {"type": "Polygon", "coordinates": [[[-99.700913, 35.6177778], [-99.7009123, 35.617756], [-99.7008894, 35.6177565], [-99.7008902, 35.6177783], [-99.700913, 35.6177778]]]}, "properties": {"osm_id": 134497421, "building": "yes", "name": "", "height": null, "height_m": null, "levels": null, "tract_id": "40129960000", "tract_name": "9600", "tags": {"building": "yes"}}}, {"type": "Feature", "geometry": {"type": "Polygon", "coordinates": [[[-99.6862008, 35.6167364], [-99.6862097, 35.6167294], [-99.6862095, 35.6167045], [-99.6862418, 35.6167043], [-99.686339, 35.6166282], [-99.6863252, 35.6165744], [-99.6863675, 35.6165758], [-99.6864009, 35.6165768], [-99.6864214, 35.6165636], [-99.6864367, 35.6165765], [-99.6864524, 35.6165642], [-99.6864636, 35.6165736], [-99.6864847, 35.6165571], [-99.6865049, 35.6165741], [-99.6865184, 35.6165635], [-99.6865661, 35.6166037], [-99.6865526, 35.6166143], [-99.6865682, 35.6166275], [-99.6865496, 35.6166421], [-99.6865611, 35.6166518], [-99.6865456, 35.6166639], [-99.6865598, 35.6166759], [-99.686538, 35.6166886], [-99.6865353, 35.6167398], [-99.686484, 35.6167354], [-99.6864879, 35.6167631], [-99.6864044, 35.616826], [-99.6863555, 35.6167848], [-99.6862285, 35.6168843], [-99.6861673, 35.6168327], [-99.6860411, 35.6168336], [-99.6860401, 35.6167376], [-99.6862008, 35.6167364]]]}, "properties": {"osm_id": 446419442, "building": "yes", "name": "Washita Battlefield Visitor Center", "height": null, "height_m": null, "levels": null, "tract_id": "40129960000", "tract_name": "9600", "tags": {"building": "yes", "information": "office", "name": "Washita Battlefield Visitor Center", "tourism": "information"}}}, {"type": "Feature", "geometry": {"type": "Polygon", "coordinates": [[[-99.6841489, 35.6183157], [-99.6839501, 35.6183171], [-99.6839478, 35.618099], [-99.6841465, 35.6180976], [-99.6841489, 35.6183157]]]}, "properties": {"osm_id": 446419443, "building": "yes", "name": "", "height": null, "height_m": null, "levels": null, "tract_id": "40129960000", "tract_name": "9600", "tags": {"building": "yes"}}}, {"type": "Feature", "geometry": {"type": "Polygon", "coordinates": [[[-99.6861987, 35.6147545], [-99.6861146, 35.6147824], [-99.6860083, 35.6145703], [-99.6860924, 35.6145424], [-99.6861987, 35.6147545]]]}, "properties": {"osm_id": 446419444, "building": "yes", "name": "", "height": null, "height_m": null, "levels": null, "tract_id": "40129960000", "tract_name": "9600", "tags": {"building": "yes"}}}, {"type": "Feature", "geometry": {"type": "Polygon", "coordinates": [[[-99.6865588, 35.6145615], [-99.6866735, 35.6145611], [-99.6866747, 35.6147491], [-99.6866164, 35.6147493], [-99.6866166, 35.6147794], [-99.6865602, 35.6147796], [-99.6865588, 35.6145615]]]}, "properties": {"osm_id": 446419445, "building": "yes", "name": "", "height": null, "height_m": null, "levels": null, "tract_id": "40129960000", "tract_name": "9600", "tags": {"building": "yes"}}}, {"type": "Feature", "geometry": {"type": "Polygon", "coordinates": [[[-99.6863235, 35.615014], [-99.6861905, 35.615058], [-99.68616, 35.6149973], [-99.6861123, 35.6150131], [-99.6860394, 35.6148678], [-99.6862202, 35.6148079], [-99.6863235, 35.615014]]]}, "properties": {"osm_id": 446419446, "building": "yes", "name": "", "height": null, "height_m": null, "levels": null, "tract_id": "40129960000", "tract_name": "9600", "tags": {"building": "yes"}}}, {"type": "Feature", "geometry": {"type": "Polygon", "coordinates": [[[-99.7583184, 35.6097849], [-99.7582987, 35.6097156], [-99.7583881, 35.6096988], [-99.7584079, 35.6097681], [-99.7583184, 35.6097849]]]}, "properties": {"osm_id": 446524834, "building": "yes", "name": "", "height": null, "height_m": null, "levels": null, "tract_id": "40129960000", "tract_name": "9600", "tags": {"building": "yes"}}}, {"type": "Feature", "geometry": {"type": "Polygon", "coordinates": [[[-99.7001102, 35.6173942], [-99.7000956, 35.617394], [-99.7000799, 35.6173937], [-99.7000806, 35.6173692], [-99.7001109, 35.6173697], [-99.7001102, 35.6173942]]]}, "properties": {"osm_id": 446524835, "building": "yes", "name": "", "height": null, "height_m": null, "levels": null, "tract_id": "40129960000", "tract_name": "9600", "tags": {"amenity": "toilets", "building": "yes"}}}, {"type": "Feature", "geometry": {"type": "Polygon", "coordinates": [[[-99.7583164, 35.6098389], [-99.7582215, 35.6098567], [-99.7582078, 35.6098086], [-99.7581578, 35.609818], [-99.7581412, 35.6097598], [-99.7581912, 35.6097504], [-99.7581759, 35.6096964], [-99.7582708, 35.6096786], [-99.7583164, 35.6098389]]]}, "properties": {"osm_id": 446524836, "building": "yes", "name": "", "height": null, "height_m": null, "levels": null, "tract_id": "40129960000", "tract_name": "9600", "tags": {"building": "yes"}}}, {"type": "Feature", "geometry": {"type": "Polygon", "coordinates": [[[-99.6753271, 35.6143576], [-99.6751314, 35.6143617], [-99.6751278, 35.6142463], [-99.6753235, 35.6142423], [-99.6753271, 35.6143576]]]}, "properties": {"osm_id": 451480786, "building": "yes", "name": "Alon", "height": null, "height_m": null, "levels": null, "tract_id": "40129960000", "tract_name": "9600", "tags": {"amenity": "fuel", "brand": "Alon", "brand:wikidata": "Q62274304", "building": "yes", "name": "Alon"}}}, {"type": "Feature", "geometry": {"type": "Polygon", "coordinates": [[[-99.6723901, 35.6145351], [-99.6723807, 35.6148948], [-99.6720588, 35.6148893], [-99.6720606, 35.6148228], [-99.672175, 35.6148248], [-99.6721827, 35.6145315], [-99.6723901, 35.6145351]]]}, "properties": {"osm_id": 451480787, "building": "yes", "name": "Cheyenne Motel", "height": null, "height_m": null, "levels": null, "tract_id": "40129960000", "tract_name": "9600", "tags": {"building": "yes", "internet_access": "wlan", "internet_access:fee": "no", "name": "Cheyenne Motel", "tourism": "motel"}}}, {"type": "Feature", "geometry": {"type": "Polygon", "coordinates": [[[-99.6733529, 35.6143696], [-99.6733532, 35.6143557], [-99.6733593, 35.614112], [-99.673255, 35.6141102], [-99.6732483, 35.6143678], [-99.6733529, 35.6143696]]]}, "properties": {"osm_id": 451480788, "building": "yes", "name": "M's Motel", "height": null, "height_m": null, "levels": null, "tract_id": "40129960000", "tract_name": "9600", "tags": {"building": "yes", "name": "M's Motel", "tourism": "motel"}}}, {"type": "Feature", "geometry": {"type": "Polygon", "coordinates": [[[-99.6730191, 35.6146433], [-99.6728554, 35.6146404], [-99.6728568, 35.6145866], [-99.6730205, 35.6145894], [-99.6730191, 35.6146433]]]}, "properties": {"osm_id": 451480789, "building": "yes", "name": "Red Rock Liquor", "height": null, "height_m": null, "levels": null, "tract_id": "40129960000", "tract_name": "9600", "tags": {"building": "yes", "name": "Red Rock Liquor", "shop": "alcohol"}}}, {"type": "Feature", "geometry": {"type": "Polygon", "coordinates": [[[-99.6733455, 35.6144876], [-99.6732092, 35.6144853], [-99.6732115, 35.6143992], [-99.6733478, 35.6144016], [-99.6733455, 35.6144876]]]}, "properties": {"osm_id": 451480790, "building": "yes", "name": "Zoe's", "height": null, "height_m": null, "levels": null, "tract_id": "40129960000", "tract_name": "9600", "tags": {"amenity": "restaurant", "building": "yes", "level": "0", "name": "Zoe's"}}}, {"type": "Feature", "geometry": {"type": "Polygon", "coordinates": [[[-99.6735044, 35.613839], [-99.673515, 35.6134982], [-99.6732985, 35.6134935], [-99.6732877, 35.6138347], [-99.6735044, 35.613839]]]}, "properties": {"osm_id": 451480791, "building": "yes", "name": "Cheyenne Floral", "height": null, "height_m": null, "levels": null, "tract_id": "40129960000", "tract_name": "9600", "tags": {"building": "yes", "level": "0", "name": "Cheyenne Floral", "shop": "florist"}}}, {"type": "Feature", "geometry": {"type": "Polygon", "coordinates": [[[-99.6720066, 35.6130422], [-99.6720079, 35.6129749], [-99.6724947, 35.6129811], [-99.6724934, 35.6130484], [-99.6720066, 35.6130422]]]}, "properties": {"osm_id": 451480792, "building": "yes", "name": "", "height": null, "height_m": null, "levels": null, "tract_id": "40129960000", "tract_name": "9600", "tags": {"building": "yes"}}}, {"type": "Feature", "geometry": {"type": "Polygon", "coordinates": [[[-99.6736158, 35.613841], [-99.6735044, 35.613839], [-99.673515, 35.6134982], [-99.6736259, 35.6135004], [-99.6736158, 35.613841]]]}, "properties": {"osm_id": 451480793, "building": "yes", "name": "Cowboy Church", "height": null, "height_m": null, "levels": null, "tract_id": "40129960000", "tract_name": "9600", "tags": {"amenity": "place_of_worship", "building": "yes", "name": "Cowboy Church", "religion": "christian"}}}, {"type": "Feature", "geometry": {"type": "Polygon", "coordinates": [[[-99.6737024, 35.6138428], [-99.673707, 35.6136578], [-99.6737125, 35.6135021], [-99.6736259, 35.6135004], [-99.6736158, 35.613841], [-99.6737024, 35.6138428]]]}, "properties": {"osm_id": 451480794, "building": "retail", "name": "", "height": null, "height_m": null, "levels": null, "tract_id": "40129960000", "tract_name": "9600", "tags": {"building": "retail", "shop": "yes"}}}, {"type": "Feature", "geometry": {"type": "Polygon", "coordinates": [[[-99.6735285, 35.6142914], [-99.6736085, 35.6142928], [-99.6736103, 35.6142369], [-99.6736142, 35.6141175], [-99.6735332, 35.6141161], [-99.6735331, 35.6141206], [-99.6735285, 35.6142914]]]}, "properties": {"osm_id": 451480795, "building": "retail", "name": "", "height": null, "height_m": null, "levels": null, "tract_id": "40129960000", "tract_name": "9600", "tags": {"building": "retail", "shop": "yes"}}}, {"type": "Feature", "geometry": {"type": "Polygon", "coordinates": [[[-99.6723526, 35.6133601], [-99.6720119, 35.6133557], [-99.6720144, 35.6132269], [-99.6723551, 35.6132313], [-99.6723526, 35.6133601]]]}, "properties": {"osm_id": 451480796, "building": "yes", "name": "Bear Track Tire & Lube", "height": null, "height_m": null, "levels": null, "tract_id": "40129960000", "tract_name": "9600", "tags": {"building": "yes", "name": "Bear Track Tire & Lube", "shop": "car_repair"}}}, {"type": "Feature", "geometry": {"type": "Polygon", "coordinates": [[[-99.6727536, 35.6138179], [-99.6725941, 35.6138168], [-99.6726007, 35.6135726], [-99.6727589, 35.6135749], [-99.6727589, 35.6136053], [-99.6727556, 35.6137588], [-99.6727536, 35.6138179]]]}, "properties": {"osm_id": 451480797, "building": "yes", "name": "Clothes Closet", "height": null, "height_m": null, "levels": null, "tract_id": "40129960000", "tract_name": "9600", "tags": {"building": "yes", "level": "0", "name": "Clothes Closet", "shop": "clothes"}}}, {"type": "Feature", "geometry": {"type": "Polygon", "coordinates": [[[-99.6746056, 35.6143206], [-99.6744869, 35.614323], [-99.6744822, 35.6141723], [-99.6746009, 35.6141698], [-99.6746056, 35.6143206]]]}, "properties": {"osm_id": 451480798, "building": "yes", "name": "", "height": null, "height_m": null, "levels": null, "tract_id": "40129960000", "tract_name": "9600", "tags": {"building": "yes"}}}, {"type": "Feature", "geometry": {"type": "Polygon", "coordinates": [[[-99.6724198, 35.6138143], [-99.6724244, 35.6136036], [-99.6724277, 35.613456], [-99.6725294, 35.6134574], [-99.6725281, 35.6135161], [-99.6725216, 35.6138157], [-99.6724198, 35.6138143]]]}, "properties": {"osm_id": 451480799, "building": "yes", "name": "", "height": null, "height_m": null, "levels": null, "tract_id": "40129960000", "tract_name": "9600", "tags": {"building": "yes"}}}, {"type": "Feature", "geometry": {"type": "Polygon", "coordinates": [[[-99.6741107, 35.6143225], [-99.6737566, 35.6143176], [-99.67376, 35.6141573], [-99.674114, 35.6141622], [-99.6741107, 35.6143225]]]}, "properties": {"osm_id": 451480800, "building": "retail", "name": "", "height": null, "height_m": null, "levels": null, "tract_id": "40129960000", "tract_name": "9600", "tags": {"building": "retail", "shop": "yes"}}}, {"type": "Feature", "geometry": {"type": "Polygon", "coordinates": [[[-99.6749435, 35.6142726], [-99.6747704, 35.6142761], [-99.6747665, 35.6141505], [-99.6749396, 35.6141469], [-99.6749435, 35.6142726]]]}, "properties": {"osm_id": 451480801, "building": "yes", "name": "", "height": null, "height_m": null, "levels": null, "tract_id": "40129960000", "tract_name": "9600", "tags": {"building": "yes"}}}, {"type": "Feature", "geometry": {"type": "Polygon", "coordinates": [[[-99.6723538, 35.6131469], [-99.6720158, 35.6131426], [-99.6720172, 35.6130695], [-99.6723553, 35.6130738], [-99.6723538, 35.6131469]]]}, "properties": {"osm_id": 451480802, "building": "yes", "name": "", "height": null, "height_m": null, "levels": null, "tract_id": "40129960000", "tract_name": "9600", "tags": {"building": "yes"}}}, {"type": "Feature", "geometry": {"type": "Polygon", "coordinates": [[[-99.6728448, 35.6138223], [-99.6728461, 35.6137601], [-99.6728495, 35.6136066], [-99.6730198, 35.6136078], [-99.6730151, 35.6138247], [-99.6728448, 35.6138223]]]}, "properties": {"osm_id": 451480803, "building": "yes", "name": "Security State Bank", "height": null, "height_m": null, "levels": null, "tract_id": "40129960000", "tract_name": "9600", "tags": {"amenity": "bank", "atm": "yes", "building": "yes", "level": "0", "name": "Security State Bank"}}}, {"type": "Feature", "geometry": {"type": "Polygon", "coordinates": [[[-99.6736103, 35.6142369], [-99.6736142, 35.6141175], [-99.6736144, 35.6141113], [-99.6736916, 35.6141126], [-99.6736883, 35.6142382], [-99.6736103, 35.6142369]]]}, "properties": {"osm_id": 451480804, "building": "retail", "name": "", "height": null, "height_m": null, "levels": null, "tract_id": "40129960000", "tract_name": "9600", "tags": {"building": "retail", "shop": "yes"}}}, {"type": "Feature", "geometry": {"type": "Polygon", "coordinates": [[[-99.6725216, 35.6138157], [-99.6725941, 35.6138168], [-99.6726007, 35.6135726], [-99.6726007, 35.6135171], [-99.6725281, 35.6135161], [-99.6725216, 35.6138157]]]}, "properties": {"osm_id": 451480805, "building": "yes", "name": "", "height": null, "height_m": null, "levels": null, "tract_id": "40129960000", "tract_name": "9600", "tags": {"building": "yes"}}}, {"type": "Feature", "geometry": {"type": "Polygon", "coordinates": [[[-99.6724198, 35.6138143], [-99.6724244, 35.6136036], [-99.6723427, 35.6136025], [-99.6723381, 35.6138131], [-99.6724198, 35.6138143]]]}, "properties": {"osm_id": 451480806, "building": "yes", "name": "Cheyenne City Hall", "height": null, "height_m": null, "levels": null, "tract_id": "40129960000", "tract_name": "9600", "tags": {"amenity": "townhall", "building": "yes", "level": "0", "name": "Cheyenne City Hall", "office": "government"}}}, {"type": "Feature", "geometry": {"type": "Polygon", "coordinates": [[[-99.673446, 35.6141191], [-99.6735331, 35.6141206], [-99.6735285, 35.6142914], [-99.673526, 35.6143863], [-99.6734406, 35.6143848], [-99.6734413, 35.6143572], [-99.673446, 35.6141191]]]}, "properties": {"osm_id": 451480807, "building": "retail", "name": "", "height": null, "height_m": null, "levels": null, "tract_id": "40129960000", "tract_name": "9600", "tags": {"building": "retail", "shop": "yes"}}}, {"type": "Feature", "geometry": {"type": "Polygon", "coordinates": [[[-99.6737853, 35.613844], [-99.6737024, 35.6138428], [-99.673707, 35.6136578], [-99.6737912, 35.6136592], [-99.6737853, 35.613844]]]}, "properties": {"osm_id": 451480808, "building": "retail", "name": "", "height": null, "height_m": null, "levels": null, "tract_id": "40129960000", "tract_name": "9600", "tags": {"building": "retail", "shop": "yes"}}}, {"type": "Feature", "geometry": {"type": "Polygon", "coordinates": [[[-99.6728461, 35.6137601], [-99.6728495, 35.6136066], [-99.6727589, 35.6136053], [-99.6727556, 35.6137588], [-99.6728461, 35.6137601]]]}, "properties": {"osm_id": 451480809, "building": "yes", "name": "", "height": null, "height_m": null, "levels": null, "tract_id": "40129960000", "tract_name": "9600", "tags": {"building": "yes"}}}, {"type": "Feature", "geometry": {"type": "Polygon", "coordinates": [[[-99.6733532, 35.6143557], [-99.6734413, 35.6143572], [-99.673446, 35.6141191], [-99.6734462, 35.6141077], [-99.6733595, 35.6141062], [-99.6733593, 35.614112], [-99.6733532, 35.6143557]]]}, "properties": {"osm_id": 451480810, "building": "retail", "name": "", "height": null, "height_m": null, "levels": null, "tract_id": "40129960000", "tract_name": "9600", "tags": {"building": "retail", "shop": "yes"}}}, {"type": "Feature", "geometry": {"type": "Polygon", "coordinates": [[[-99.6738766, 35.6138459], [-99.6738833, 35.6136363], [-99.673792, 35.6136344], [-99.6737912, 35.6136592], [-99.6737853, 35.613844], [-99.6738766, 35.6138459]]]}, "properties": {"osm_id": 451480811, "building": "yes", "name": "Crossbone Cleaners", "height": null, "height_m": null, "levels": null, "tract_id": "40129960000", "tract_name": "9600", "tags": {"building": "yes", "level": "0", "name": "Crossbone Cleaners", "shop": "laundry"}}}, {"type": "Feature", "geometry": {"type": "Polygon", "coordinates": [[[-99.6717396, 35.6132287], [-99.6717337, 35.6135354], [-99.6716216, 35.6135339], [-99.6716276, 35.6132272], [-99.6717396, 35.6132287]]]}, "properties": {"osm_id": 451480812, "building": "yes", "name": "", "height": null, "height_m": null, "levels": null, "tract_id": "40129960000", "tract_name": "9600", "tags": {"building": "yes"}}}, {"type": "Feature", "geometry": {"type": "Polygon", "coordinates": [[[-99.6732068, 35.6138191], [-99.6732166, 35.6134468], [-99.6732973, 35.6134481], [-99.6732985, 35.6134935], [-99.6732877, 35.6138347], [-99.6732202, 35.6138338], [-99.6732068, 35.6138191]]]}, "properties": {"osm_id": 451480813, "building": "retail", "name": "", "height": null, "height_m": null, "levels": null, "tract_id": "40129960000", "tract_name": "9600", "tags": {"building": "retail", "shop": "yes"}}}, {"type": "Feature", "geometry": {"type": "Polygon", "coordinates": [[[-99.6707955, 35.6137705], [-99.6708111, 35.612965], [-99.671222, 35.6129703], [-99.6712203, 35.6130574], [-99.6714588, 35.6130604], [-99.6714566, 35.6131752], [-99.6710964, 35.6134681], [-99.6710905, 35.6137743], [-99.6707955, 35.6137705]]]}, "properties": {"osm_id": 451480814, "building": "yes", "name": "", "height": null, "height_m": null, "levels": null, "tract_id": "40129960000", "tract_name": "9600", "tags": {"building": "yes"}}}, {"type": "Feature", "geometry": {"type": "Polygon", "coordinates": [[[-99.67421, 35.6137324], [-99.6740486, 35.6137994], [-99.6740474, 35.6138488], [-99.6738766, 35.6138459], [-99.6738833, 35.6136363], [-99.673883, 35.613586], [-99.6740537, 35.6135887], [-99.6740506, 35.6137161], [-99.6741688, 35.613667], [-99.67421, 35.6137324]]]}, "properties": {"osm_id": 451480815, "building": "retail", "name": "", "height": null, "height_m": null, "levels": null, "tract_id": "40129960000", "tract_name": "9600", "tags": {"building": "retail", "shop": "yes"}}}, {"type": "Feature", "geometry": {"type": "Polygon", "coordinates": [[[-99.6712085, 35.6091314], [-99.6710491, 35.6091307], [-99.6710502, 35.608946], [-99.6712097, 35.6089467], [-99.6712085, 35.6091314]]]}, "properties": {"osm_id": 451482278, "building": "yes", "name": "Roger Mills County EMS", "height": null, "height_m": null, "levels": null, "tract_id": "40129960000", "tract_name": "9600", "tags": {"building": "yes", "emergency": "ambulance_station", "name": "Roger Mills County EMS"}}}, {"type": "Feature", "geometry": {"type": "Polygon", "coordinates": [[[-99.6716826, 35.6096259], [-99.671518, 35.6096252], [-99.6715182, 35.609604], [-99.6713663, 35.6096033], [-99.6713666, 35.6095548], [-99.6712738, 35.6095543], [-99.6712727, 35.6096977], [-99.6710527, 35.6096967], [-99.6710547, 35.6094313], [-99.67127, 35.6094323], [-99.6712695, 35.60949], [-99.6713296, 35.6094903], [-99.6713305, 35.6093611], [-99.6713561, 35.6093613], [-99.6713568, 35.6092717], [-99.6716852, 35.6092733], [-99.6716826, 35.6096259]]]}, "properties": {"osm_id": 451482279, "building": "hospital", "name": "", "height": null, "height_m": null, "levels": null, "tract_id": "40129960000", "tract_name": "9600", "tags": {"building": "hospital"}}}, {"type": "Feature", "geometry": {"type": "Polygon", "coordinates": [[[-99.6671198, 35.607731], [-99.6671332, 35.6084154], [-99.6667131, 35.6084208], [-99.6667116, 35.6083447], [-99.6665856, 35.6083463], [-99.6665883, 35.6084864], [-99.6662651, 35.6084906], [-99.6662674, 35.608608], [-99.6659648, 35.6086119], [-99.6659572, 35.6082249], [-99.6658306, 35.6082265], [-99.6658322, 35.6083054], [-99.6657609, 35.6083063], [-99.6657612, 35.608324], [-99.6655923, 35.6083262], [-99.665592, 35.6083085], [-99.6654149, 35.6083108], [-99.6654154, 35.6083361], [-99.6651951, 35.6083389], [-99.6651914, 35.608146], [-99.6653035, 35.6081446], [-99.6653006, 35.6079974], [-99.6658172, 35.6079907], [-99.6658182, 35.6080455], [-99.6662625, 35.6080398], [-99.6662639, 35.6081151], [-99.666646, 35.6081102], [-99.6666387, 35.6077373], [-99.6671198, 35.607731]]]}, "properties": {"osm_id": 451482280, "building": "yes", "name": "", "height": null, "height_m": null, "levels": null, "tract_id": "40129960000", "tract_name": "9600", "tags": {"building": "yes"}}}, {"type": "Feature", "geometry": {"type": "Polygon", "coordinates": [[[-99.6695039, 35.608602], [-99.6692813, 35.6084625], [-99.6693707, 35.6083682], [-99.6695933, 35.6085078], [-99.6695039, 35.608602]]]}, "properties": {"osm_id": 451482281, "building": "yes", "name": "", "height": null, "height_m": null, "levels": null, "tract_id": "40129960000", "tract_name": "9600", "tags": {"building": "yes"}}}, {"type": "Feature", "geometry": {"type": "Polygon", "coordinates": [[[-99.6696152, 35.607672], [-99.669502, 35.6077105], [-99.6694577, 35.6076243], [-99.669571, 35.6075858], [-99.6696152, 35.607672]]]}, "properties": {"osm_id": 451482282, "building": "yes", "name": "", "height": null, "height_m": null, "levels": null, "tract_id": "40129960000", "tract_name": "9600", "tags": {"building": "yes"}}}, {"type": "Feature", "geometry": {"type": "Polygon", "coordinates": [[[-99.6716993, 35.6083943], [-99.6716029, 35.6083961], [-99.6716002, 35.6082979], [-99.6716966, 35.6082962], [-99.6716993, 35.6083943]]]}, "properties": {"osm_id": 451482283, "building": "yes", "name": "", "height": null, "height_m": null, "levels": null, "tract_id": "40129960000", "tract_name": "9600", "tags": {"building": "yes"}}}, {"type": "Feature", "geometry": {"type": "Polygon", "coordinates": [[[-99.6730981, 35.6024409], [-99.6726109, 35.6024388], [-99.6726126, 35.6021661], [-99.6730999, 35.6021681], [-99.6730981, 35.6024409]]]}, "properties": {"osm_id": 451482284, "building": "yes", "name": "", "height": null, "height_m": null, "levels": null, "tract_id": "40129960000", "tract_name": "9600", "tags": {"amenity": "place_of_worship", "building": "yes", "religion": "christian"}}}, {"type": "Feature", "geometry": {"type": "Polygon", "coordinates": [[[-99.6712836, 35.6086342], [-99.6711948, 35.6086358], [-99.6711924, 35.608547], [-99.6712811, 35.6085454], [-99.6712836, 35.6086342]]]}, "properties": {"osm_id": 451482285, "building": "yes", "name": "", "height": null, "height_m": null, "levels": null, "tract_id": "40129960000", "tract_name": "9600", "tags": {"building": "yes"}}}, {"type": "Feature", "geometry": {"type": "Polygon", "coordinates": [[[-99.669984, 35.6087961], [-99.669807, 35.6088048], [-99.6697988, 35.6086952], [-99.6699759, 35.6086864], [-99.669984, 35.6087961]]]}, "properties": {"osm_id": 451482286, "building": "yes", "name": "", "height": null, "height_m": null, "levels": null, "tract_id": "40129960000", "tract_name": "9600", "tags": {"building": "yes"}}}, {"type": "Feature", "geometry": {"type": "Polygon", "coordinates": [[[-99.6711119, 35.6085775], [-99.6709474, 35.6085805], [-99.6709456, 35.6085143], [-99.6711101, 35.6085113], [-99.6711119, 35.6085775]]]}, "properties": {"osm_id": 451482287, "building": "yes", "name": "", "height": null, "height_m": null, "levels": null, "tract_id": "40129960000", "tract_name": "9600", "tags": {"building": "yes"}}}, {"type": "Feature", "geometry": {"type": "Polygon", "coordinates": [[[-99.6702228, 35.6086805], [-99.6703703, 35.6086108], [-99.6704314, 35.6086961], [-99.6702838, 35.6087659], [-99.6702228, 35.6086805]]]}, "properties": {"osm_id": 451482288, "building": "yes", "name": "", "height": null, "height_m": null, "levels": null, "tract_id": "40129960000", "tract_name": "9600", "tags": {"building": "yes"}}}, {"type": "Feature", "geometry": {"type": "Polygon", "coordinates": [[[-99.6709724, 35.6088021], [-99.6707306, 35.6088065], [-99.670723, 35.6085274], [-99.6709062, 35.608524], [-99.670909, 35.6086299], [-99.6709677, 35.6086288], [-99.6709724, 35.6088021]]]}, "properties": {"osm_id": 451482289, "building": "yes", "name": "", "height": null, "height_m": null, "levels": null, "tract_id": "40129960000", "tract_name": "9600", "tags": {"building": "yes"}}}, {"type": "Feature", "geometry": {"type": "Polygon", "coordinates": [[[-99.6662596, 35.6076221], [-99.6661065, 35.6075557], [-99.6662625, 35.6073182], [-99.6664985, 35.6074207], [-99.6663621, 35.6076283], [-99.6664881, 35.6076868], [-99.66641, 35.6077979], [-99.6662035, 35.607702], [-99.6662596, 35.6076221]]]}, "properties": {"osm_id": 451482290, "building": "yes", "name": "", "height": null, "height_m": null, "levels": null, "tract_id": "40129960000", "tract_name": "9600", "tags": {"building": "yes"}}}, {"type": "Feature", "geometry": {"type": "Polygon", "coordinates": [[[-99.7011132, 35.6080702], [-99.7009296, 35.608053], [-99.7008724, 35.608456], [-99.7010559, 35.6084733], [-99.7011132, 35.6080702]]]}, "properties": {"osm_id": 692621708, "building": "hangar", "name": "", "height": null, "height_m": null, "levels": null, "tract_id": "40129960000", "tract_name": "9600", "tags": {"building": "hangar"}}}, {"type": "Feature", "geometry": {"type": "Polygon", "coordinates": [[[-99.6721637, 35.613643], [-99.6720859, 35.613643], [-99.6720859, 35.6135209], [-99.6721637, 35.6135209], [-99.6721637, 35.613643]]]}, "properties": {"osm_id": 934825862, "building": "yes", "name": "Santa Fe Salon", "height": null, "height_m": null, "levels": null, "tract_id": "40129960000", "tract_name": "9600", "tags": {"building": "yes", "level": "0", "name": "Santa Fe Salon", "shop": "beauty"}}}, {"type": "Feature", "geometry": {"type": "Polygon", "coordinates": [[[-99.6057604, 35.663786], [-99.6057602, 35.6637341], [-99.6056767, 35.6637343], [-99.605677, 35.6637863], [-99.6057604, 35.663786]]]}, "properties": {"osm_id": 1089962639, "building": "yes", "name": "", "height": null, "height_m": null, "levels": null, "tract_id": "40129960000", "tract_name": "9600", "tags": {"building": "yes"}}}, {"type": "Feature", "geometry": {"type": "Polygon", "coordinates": [[[-99.7450189, 35.6082415], [-99.7448806, 35.608244], [-99.7448767, 35.6081013], [-99.7450151, 35.6080988], [-99.7450189, 35.6082415]]]}, "properties": {"osm_id": 1159559997, "building": "yes", "name": "", "height": null, "height_m": null, "levels": null, "tract_id": "40129960000", "tract_name": "9600", "tags": {"building": "yes"}}}, {"type": "Feature", "geometry": {"type": "Polygon", "coordinates": [[[-99.7312676, 35.5984], [-99.7312666, 35.5983756], [-99.7312084, 35.5983772], [-99.7312094, 35.5984016], [-99.7312676, 35.5984]]]}, "properties": {"osm_id": 1159559999, "building": "yes", "name": "", "height": null, "height_m": null, "levels": null, "tract_id": "40129960000", "tract_name": "9600", "tags": {"building": "yes"}}}, {"type": "Feature", "geometry": {"type": "Polygon", "coordinates": [[[-99.7312412, 35.5981655], [-99.7312407, 35.5981463], [-99.7312241, 35.5981466], [-99.7312246, 35.5981658], [-99.7312412, 35.5981655]]]}, "properties": {"osm_id": 1159560000, "building": "yes", "name": "", "height": null, "height_m": null, "levels": null, "tract_id": "40129960000", "tract_name": "9600", "tags": {"building": "yes"}}}, {"type": "Feature", "geometry": {"type": "Polygon", "coordinates": [[[-99.7312499, 35.5981264], [-99.7312497, 35.5981097], [-99.7312235, 35.5981099], [-99.7312238, 35.5981266], [-99.7312499, 35.5981264]]]}, "properties": {"osm_id": 1159560001, "building": "yes", "name": "", "height": null, "height_m": null, "levels": null, "tract_id": "40129960000", "tract_name": "9600", "tags": {"building": "yes"}}}, {"type": "Feature", "geometry": {"type": "Polygon", "coordinates": [[[-99.7263977, 35.6106391], [-99.7263993, 35.6105996], [-99.7264211, 35.6106002], [-99.7264249, 35.6105092], [-99.7263253, 35.6105065], [-99.7263217, 35.6105932], [-99.7263055, 35.6105928], [-99.7263037, 35.6106365], [-99.7263977, 35.6106391]]]}, "properties": {"osm_id": 1159560005, "building": "yes", "name": "", "height": null, "height_m": null, "levels": null, "tract_id": "40129960000", "tract_name": "9600", "tags": {"building": "yes"}}}, {"type": "Feature", "geometry": {"type": "Polygon", "coordinates": [[[-99.7262313, 35.6106323], [-99.726233, 35.6105928], [-99.7262547, 35.6105934], [-99.7262585, 35.6105024], [-99.7261589, 35.6104997], [-99.7261553, 35.6105864], [-99.7261391, 35.610586], [-99.7261373, 35.6106297], [-99.7262313, 35.6106323]]]}, "properties": {"osm_id": 1159560006, "building": "yes", "name": "", "height": null, "height_m": null, "levels": null, "tract_id": "40129960000", "tract_name": "9600", "tags": {"building": "yes"}}}, {"type": "Feature", "geometry": {"type": "Polygon", "coordinates": [[[-99.7260622, 35.61063], [-99.7260638, 35.6105905], [-99.7260856, 35.6105911], [-99.7260894, 35.6105001], [-99.7259897, 35.6104974], [-99.7259861, 35.6105841], [-99.7259699, 35.6105837], [-99.7259681, 35.6106274], [-99.7260622, 35.61063]]]}, "properties": {"osm_id": 1159560007, "building": "yes", "name": "", "height": null, "height_m": null, "levels": null, "tract_id": "40129960000", "tract_name": "9600", "tags": {"building": "yes"}}}, {"type": "Feature", "geometry": {"type": "Polygon", "coordinates": [[[-99.7198078, 35.6108313], [-99.7197415, 35.6108315], [-99.7197412, 35.6107713], [-99.7198075, 35.6107711], [-99.7198078, 35.6108313]]]}, "properties": {"osm_id": 1159560010, "building": "yes", "name": "", "height": null, "height_m": null, "levels": null, "tract_id": "40129960000", "tract_name": "9600", "tags": {"building": "yes"}}}, {"type": "Feature", "geometry": {"type": "Polygon", "coordinates": [[[-99.7198399, 35.6107867], [-99.719838, 35.610805], [-99.7198523, 35.610806], [-99.7198542, 35.6107876], [-99.7198399, 35.6107867]]]}, "properties": {"osm_id": 1159560011, "building": "yes", "name": "", "height": null, "height_m": null, "levels": null, "tract_id": "40129960000", "tract_name": "9600", "tags": {"building": "yes"}}}, {"type": "Feature", "geometry": {"type": "Polygon", "coordinates": [[[-99.7245265, 35.6116322], [-99.724527, 35.6115739], [-99.7244581, 35.6115735], [-99.7244576, 35.6116319], [-99.7245265, 35.6116322]]]}, "properties": {"osm_id": 1159560014, "building": "yes", "name": "", "height": null, "height_m": null, "levels": null, "tract_id": "40129960000", "tract_name": "9600", "tags": {"building": "yes"}}}, {"type": "Feature", "geometry": {"type": "Polygon", "coordinates": [[[-99.7257917, 35.6092065], [-99.7257951, 35.6091037], [-99.7251819, 35.6091065], [-99.7251779, 35.609206], [-99.7257917, 35.6092065]]]}, "properties": {"osm_id": 1159560015, "building": "yes", "name": "", "height": null, "height_m": null, "levels": null, "tract_id": "40129960000", "tract_name": "9600", "tags": {"building": "yes"}}}, {"type": "Feature", "geometry": {"type": "Polygon", "coordinates": [[[-99.7250945, 35.6095185], [-99.7250926, 35.6094634], [-99.7250532, 35.6094643], [-99.725055, 35.6095194], [-99.7250945, 35.6095185]]]}, "properties": {"osm_id": 1159560016, "building": "yes", "name": "", "height": null, "height_m": null, "levels": null, "tract_id": "40129960000", "tract_name": "9600", "tags": {"building": "yes"}}}, {"type": "Feature", "geometry": {"type": "Polygon", "coordinates": [[[-99.7252149, 35.6095186], [-99.7252149, 35.6094834], [-99.7251182, 35.6094835], [-99.7251182, 35.6095187], [-99.7252149, 35.6095186]]]}, "properties": {"osm_id": 1159560017, "building": "yes", "name": "", "height": null, "height_m": null, "levels": null, "tract_id": "40129960000", "tract_name": "9600", "tags": {"building": "yes"}}}, {"type": "Feature", "geometry": {"type": "Polygon", "coordinates": [[[-99.7115318, 35.6114491], [-99.7115262, 35.6113912], [-99.7114549, 35.6113958], [-99.7114604, 35.6114536], [-99.7115318, 35.6114491]]]}, "properties": {"osm_id": 1159560020, "building": "yes", "name": "", "height": null, "height_m": null, "levels": null, "tract_id": "40129960000", "tract_name": "9600", "tags": {"building": "yes"}}}, {"type": "Feature", "geometry": {"type": "Polygon", "coordinates": [[[-99.7116384, 35.6115035], [-99.7116387, 35.6114859], [-99.7116211, 35.6114857], [-99.7116208, 35.6115033], [-99.7116384, 35.6115035]]]}, "properties": {"osm_id": 1159560021, "building": "yes", "name": "", "height": null, "height_m": null, "levels": null, "tract_id": "40129960000", "tract_name": "9600", "tags": {"building": "yes"}}}, {"type": "Feature", "geometry": {"type": "Polygon", "coordinates": [[[-99.7116459, 35.6108966], [-99.7116489, 35.6108405], [-99.7115783, 35.610838], [-99.7115753, 35.6108941], [-99.7116459, 35.6108966]]]}, "properties": {"osm_id": 1159560022, "building": "yes", "name": "", "height": null, "height_m": null, "levels": null, "tract_id": "40129960000", "tract_name": "9600", "tags": {"building": "yes"}}}, {"type": "Feature", "geometry": {"type": "Polygon", "coordinates": [[[-99.7116724, 35.6107698], [-99.7116531, 35.6107693], [-99.7116539, 35.6107499], [-99.7116733, 35.6107504], [-99.7116724, 35.6107698]]]}, "properties": {"osm_id": 1159560023, "building": "yes", "name": "", "height": null, "height_m": null, "levels": null, "tract_id": "40129960000", "tract_name": "9600", "tags": {"building": "yes"}}}, {"type": "Feature", "geometry": {"type": "Polygon", "coordinates": [[[-99.7147657, 35.6098724], [-99.7146573, 35.6098713], [-99.714659, 35.6097587], [-99.7147674, 35.6097598], [-99.7147657, 35.6098724]]]}, "properties": {"osm_id": 1159560026, "building": "yes", "name": "", "height": null, "height_m": null, "levels": null, "tract_id": "40129960000", "tract_name": "9600", "tags": {"building": "yes"}}}, {"type": "Feature", "geometry": {"type": "Polygon", "coordinates": [[[-99.7165438, 35.593003], [-99.7165232, 35.5929968], [-99.7165099, 35.5930261], [-99.7165305, 35.5930323], [-99.7165438, 35.593003]]]}, "properties": {"osm_id": 1159560028, "building": "yes", "name": "", "height": null, "height_m": null, "levels": null, "tract_id": "40129960000", "tract_name": "9600", "tags": {"building": "yes"}}}, {"type": "Feature", "geometry": {"type": "Polygon", "coordinates": [[[-99.6000347, 35.6745747], [-99.6000362, 35.6747539], [-99.6001292, 35.6747533], [-99.6001288, 35.6747046], [-99.6002373, 35.674704], [-99.6002372, 35.6746857], [-99.6002994, 35.6746853], [-99.6002986, 35.6745914], [-99.6002504, 35.6745917], [-99.6002503, 35.6745735], [-99.6000347, 35.6745747]]]}, "properties": {"osm_id": 1160717583, "building": "yes", "name": "", "height": null, "height_m": null, "levels": null, "tract_id": "40129960000", "tract_name": "9600", "tags": {"building": "yes"}}}, {"type": "Feature", "geometry": {"type": "Polygon", "coordinates": [[[-99.6005723, 35.6732134], [-99.6005501, 35.6734127], [-99.6006043, 35.6734166], [-99.6006072, 35.6733906], [-99.6006427, 35.6733932], [-99.6006546, 35.6732872], [-99.6006201, 35.6732846], [-99.6006275, 35.6732175], [-99.6005723, 35.6732134]]]}, "properties": {"osm_id": 1160717584, "building": "yes", "name": "", "height": null, "height_m": null, "levels": null, "tract_id": "40129960000", "tract_name": "9600", "tags": {"building": "yes"}}}, {"type": "Feature", "geometry": {"type": "Polygon", "coordinates": [[[-99.6015345, 35.6727888], [-99.6015345, 35.6727147], [-99.601285, 35.6727147], [-99.601285, 35.6727888], [-99.6015345, 35.6727888]]]}, "properties": {"osm_id": 1160717585, "building": "yes", "name": "", "height": null, "height_m": null, "levels": null, "tract_id": "40129960000", "tract_name": "9600", "tags": {"building": "yes"}}}, {"type": "Feature", "geometry": {"type": "Polygon", "coordinates": [[[-99.6002532, 35.6718777], [-99.6002516, 35.6717998], [-99.6001306, 35.6718015], [-99.6001327, 35.6718997], [-99.6002063, 35.6718987], [-99.6002059, 35.6718783], [-99.6002532, 35.6718777]]]}, "properties": {"osm_id": 1160717586, "building": "yes", "name": "", "height": null, "height_m": null, "levels": null, "tract_id": "40129960000", "tract_name": "9600", "tags": {"building": "yes"}}}, {"type": "Feature", "geometry": {"type": "Polygon", "coordinates": [[[-99.5998574, 35.6716066], [-99.5998559, 35.6714992], [-99.5998118, 35.6714996], [-99.5998133, 35.671607], [-99.5998574, 35.6716066]]]}, "properties": {"osm_id": 1160717587, "building": "yes", "name": "", "height": null, "height_m": null, "levels": null, "tract_id": "40129960000", "tract_name": "9600", "tags": {"building": "yes"}}}, {"type": "Feature", "geometry": {"type": "Polygon", "coordinates": [[[-99.5998353, 35.6712827], [-99.5997059, 35.6712803], [-99.5997072, 35.671236], [-99.5996255, 35.6712345], [-99.5996281, 35.6711422], [-99.5997855, 35.6711451], [-99.5997831, 35.6712326], [-99.5998366, 35.6712335], [-99.5998353, 35.6712827]]]}, "properties": {"osm_id": 1160717588, "building": "yes", "name": "", "height": null, "height_m": null, "levels": null, "tract_id": "40129960000", "tract_name": "9600", "tags": {"building": "yes"}}}, {"type": "Feature", "geometry": {"type": "Polygon", "coordinates": [[[-99.5992342, 35.6712617], [-99.5990123, 35.671261], [-99.5990127, 35.6711755], [-99.5992347, 35.6711762], [-99.5992342, 35.6712617]]]}, "properties": {"osm_id": 1160717589, "building": "yes", "name": "", "height": null, "height_m": null, "levels": null, "tract_id": "40129960000", "tract_name": "9600", "tags": {"building": "yes"}}}, {"type": "Feature", "geometry": {"type": "Polygon", "coordinates": [[[-99.5985693, 35.6709301], [-99.5985693, 35.670867], [-99.5983976, 35.6708659], [-99.5983963, 35.6709301], [-99.5985693, 35.6709301]]]}, "properties": {"osm_id": 1160717590, "building": "yes", "name": "", "height": null, "height_m": null, "levels": null, "tract_id": "40129960000", "tract_name": "9600", "tags": {"building": "yes"}}}, {"type": "Feature", "geometry": {"type": "Polygon", "coordinates": [[[-99.5991111, 35.6709405], [-99.5991071, 35.6707798], [-99.5989026, 35.6707831], [-99.5989065, 35.6709438], [-99.5991111, 35.6709405]]]}, "properties": {"osm_id": 1160717591, "building": "yes", "name": "", "height": null, "height_m": null, "levels": null, "tract_id": "40129960000", "tract_name": "9600", "tags": {"building": "yes"}}}, {"type": "Feature", "geometry": {"type": "Polygon", "coordinates": [[[-99.5997143, 35.6708135], [-99.5997135, 35.6707797], [-99.5996722, 35.6707804], [-99.5996731, 35.6708142], [-99.5997143, 35.6708135]]]}, "properties": {"osm_id": 1160717592, "building": "yes", "name": "", "height": null, "height_m": null, "levels": null, "tract_id": "40129960000", "tract_name": "9600", "tags": {"building": "yes"}}}, {"type": "Feature", "geometry": {"type": "Polygon", "coordinates": [[[-99.5997851, 35.6707116], [-99.5997842, 35.6706177], [-99.5997777, 35.6706178], [-99.5997775, 35.6705922], [-99.5995617, 35.6705937], [-99.599563, 35.670712], [-99.599635, 35.6707115], [-99.5996353, 35.6707402], [-99.5996738, 35.6707399], [-99.5996735, 35.6707124], [-99.5997851, 35.6707116]]]}, "properties": {"osm_id": 1160717593, "building": "yes", "name": "", "height": null, "height_m": null, "levels": null, "tract_id": "40129960000", "tract_name": "9600", "tags": {"building": "yes"}}}, {"type": "Feature", "geometry": {"type": "Polygon", "coordinates": [[[-99.601445, 35.6706686], [-99.6014356, 35.6705556], [-99.601289, 35.6705636], [-99.6012947, 35.6706324], [-99.6012057, 35.6706373], [-99.6012224, 35.6708376], [-99.6013358, 35.6708313], [-99.6013228, 35.6706753], [-99.601445, 35.6706686]]]}, "properties": {"osm_id": 1160717594, "building": "yes", "name": "", "height": null, "height_m": null, "levels": null, "tract_id": "40129960000", "tract_name": "9600", "tags": {"building": "yes"}}}, {"type": "Feature", "geometry": {"type": "Polygon", "coordinates": [[[-99.6030096, 35.6736532], [-99.6031561, 35.6734761], [-99.603064, 35.6734259], [-99.6029176, 35.6736031], [-99.6030096, 35.6736532]]]}, "properties": {"osm_id": 1160717597, "building": "yes", "name": "", "height": null, "height_m": null, "levels": null, "tract_id": "40129960000", "tract_name": "9600", "tags": {"building": "yes"}}}, {"type": "Feature", "geometry": {"type": "Polygon", "coordinates": [[[-99.6030358, 35.6732671], [-99.6029782, 35.6732393], [-99.6029017, 35.6733395], [-99.6029607, 35.6733689], [-99.6030358, 35.6732671]]]}, "properties": {"osm_id": 1160717598, "building": "yes", "name": "", "height": null, "height_m": null, "levels": null, "tract_id": "40129960000", "tract_name": "9600", "tags": {"building": "yes"}}}, {"type": "Feature", "geometry": {"type": "Polygon", "coordinates": [[[-99.603438, 35.6712498], [-99.6033293, 35.671116], [-99.6032573, 35.6711547], [-99.603366, 35.6712885], [-99.603438, 35.6712498]]]}, "properties": {"osm_id": 1160717599, "building": "yes", "name": "", "height": null, "height_m": null, "levels": null, "tract_id": "40129960000", "tract_name": "9600", "tags": {"building": "yes"}}}, {"type": "Feature", "geometry": {"type": "Polygon", "coordinates": [[[-99.602712, 35.6705869], [-99.6026061, 35.6705914], [-99.602618, 35.6707798], [-99.602724, 35.6707754], [-99.602712, 35.6705869]]]}, "properties": {"osm_id": 1160717600, "building": "yes", "name": "", "height": null, "height_m": null, "levels": null, "tract_id": "40129960000", "tract_name": "9600", "tags": {"building": "yes"}}}, {"type": "Feature", "geometry": {"type": "Polygon", "coordinates": [[[-99.6026216, 35.6701319], [-99.6025119, 35.6701311], [-99.602511, 35.6702067], [-99.602534, 35.6702068], [-99.6025332, 35.6702821], [-99.6026199, 35.6702828], [-99.6026216, 35.6701319]]]}, "properties": {"osm_id": 1160717601, "building": "yes", "name": "", "height": null, "height_m": null, "levels": null, "tract_id": "40129960000", "tract_name": "9600", "tags": {"building": "yes"}}}, {"type": "Feature", "geometry": {"type": "Polygon", "coordinates": [[[-99.602186, 35.6694919], [-99.6020996, 35.6694878], [-99.6020959, 35.669539], [-99.6021824, 35.6695431], [-99.602186, 35.6694919]]]}, "properties": {"osm_id": 1160717602, "building": "yes", "name": "", "height": null, "height_m": null, "levels": null, "tract_id": "40129960000", "tract_name": "9600", "tags": {"building": "yes"}}}, {"type": "Feature", "geometry": {"type": "Polygon", "coordinates": [[[-99.6022902, 35.6695062], [-99.6022902, 35.6694152], [-99.602197, 35.6694152], [-99.602197, 35.6695062], [-99.6022902, 35.6695062]]]}, "properties": {"osm_id": 1160717603, "building": "yes", "name": "", "height": null, "height_m": null, "levels": null, "tract_id": "40129960000", "tract_name": "9600", "tags": {"building": "yes"}}}, {"type": "Feature", "geometry": {"type": "Polygon", "coordinates": [[[-99.6022117, 35.6696974], [-99.6021225, 35.6696952], [-99.6021186, 35.669797], [-99.6022077, 35.6697993], [-99.6022117, 35.6696974]]]}, "properties": {"osm_id": 1160717604, "building": "yes", "name": "", "height": null, "height_m": null, "levels": null, "tract_id": "40129960000", "tract_name": "9600", "tags": {"building": "yes"}}}, {"type": "Feature", "geometry": {"type": "Polygon", "coordinates": [[[-99.6024652, 35.6694847], [-99.6023847, 35.6694841], [-99.6023834, 35.6696023], [-99.6024639, 35.6696029], [-99.6024652, 35.6694847]]]}, "properties": {"osm_id": 1160717605, "building": "yes", "name": "", "height": null, "height_m": null, "levels": null, "tract_id": "40129960000", "tract_name": "9600", "tags": {"building": "yes"}}}, {"type": "Feature", "geometry": {"type": "Polygon", "coordinates": [[[-99.602233, 35.668636], [-99.6022304, 35.6685786], [-99.602173, 35.6685803], [-99.6021756, 35.6686377], [-99.602233, 35.668636]]]}, "properties": {"osm_id": 1160717606, "building": "yes", "name": "", "height": null, "height_m": null, "levels": null, "tract_id": "40129960000", "tract_name": "9600", "tags": {"building": "yes"}}}, {"type": "Feature", "geometry": {"type": "Polygon", "coordinates": [[[-99.6020698, 35.6685123], [-99.6020504, 35.6683553], [-99.6019205, 35.6683659], [-99.6019399, 35.6685229], [-99.6020698, 35.6685123]]]}, "properties": {"osm_id": 1160717607, "building": "yes", "name": "", "height": null, "height_m": null, "levels": null, "tract_id": "40129960000", "tract_name": "9600", "tags": {"building": "yes"}}}, {"type": "Feature", "geometry": {"type": "Polygon", "coordinates": [[[-99.599666, 35.6675418], [-99.599668, 35.6676068], [-99.5996336, 35.6676075], [-99.5996347, 35.6676442], [-99.5996691, 35.6676435], [-99.5996698, 35.667666], [-99.5997507, 35.6676644], [-99.5997468, 35.6675401], [-99.599666, 35.6675418]]]}, "properties": {"osm_id": 1160717608, "building": "yes", "name": "", "height": null, "height_m": null, "levels": null, "tract_id": "40129960000", "tract_name": "9600", "tags": {"building": "yes"}}}, {"type": "Feature", "geometry": {"type": "Polygon", "coordinates": [[[-99.5995183, 35.6673228], [-99.5993507, 35.6673172], [-99.5993476, 35.6673777], [-99.5995152, 35.6673834], [-99.5995183, 35.6673228]]]}, "properties": {"osm_id": 1160717609, "building": "yes", "name": "", "height": null, "height_m": null, "levels": null, "tract_id": "40129960000", "tract_name": "9600", "tags": {"building": "yes"}}}, {"type": "Feature", "geometry": {"type": "Polygon", "coordinates": [[[-99.5994701, 35.6670277], [-99.5993706, 35.6670273], [-99.59937, 35.6671367], [-99.5994695, 35.6671371], [-99.5994701, 35.6670277]]]}, "properties": {"osm_id": 1160717610, "building": "yes", "name": "", "height": null, "height_m": null, "levels": null, "tract_id": "40129960000", "tract_name": "9600", "tags": {"building": "yes"}}}, {"type": "Feature", "geometry": {"type": "Polygon", "coordinates": [[[-99.599035, 35.6667562], [-99.5990357, 35.6667065], [-99.598942, 35.6667057], [-99.5989422, 35.6666901], [-99.598873, 35.6666894], [-99.5988717, 35.6667791], [-99.5989409, 35.6667798], [-99.5989413, 35.6667553], [-99.599035, 35.6667562]]]}, "properties": {"osm_id": 1160717611, "building": "yes", "name": "", "height": null, "height_m": null, "levels": null, "tract_id": "40129960000", "tract_name": "9600", "tags": {"building": "yes"}}}, {"type": "Feature", "geometry": {"type": "Polygon", "coordinates": [[[-99.5982112, 35.6671818], [-99.5982028, 35.6671721], [-99.5981895, 35.6671674], [-99.598175, 35.667169], [-99.5981636, 35.6671764], [-99.5981586, 35.6671911], [-99.5981666, 35.6672049], [-99.5981838, 35.6672112], [-99.5982008, 35.6672075], [-99.5982115, 35.6671961], [-99.5982112, 35.6671818]]]}, "properties": {"osm_id": 1160717613, "building": "yes", "name": "", "height": null, "height_m": null, "levels": null, "tract_id": "40129960000", "tract_name": "9600", "tags": {"building": "yes"}}}, {"type": "Feature", "geometry": {"type": "Polygon", "coordinates": [[[-99.5982105, 35.6671343], [-99.5982021, 35.6671246], [-99.5981888, 35.6671199], [-99.5981743, 35.6671214], [-99.5981629, 35.6671288], [-99.5981579, 35.6671436], [-99.5981659, 35.6671574], [-99.598183, 35.6671637], [-99.5982001, 35.66716], [-99.5982107, 35.6671486], [-99.5982105, 35.6671343]]]}, "properties": {"osm_id": 1160717614, "building": "yes", "name": "", "height": null, "height_m": null, "levels": null, "tract_id": "40129960000", "tract_name": "9600", "tags": {"building": "yes"}}}, {"type": "Feature", "geometry": {"type": "Polygon", "coordinates": [[[-99.5982206, 35.6671087], [-99.598181, 35.6671087], [-99.598181, 35.6669621], [-99.5982206, 35.6669621], [-99.5982206, 35.6671087]]]}, "properties": {"osm_id": 1160717615, "building": "yes", "name": "", "height": null, "height_m": null, "levels": null, "tract_id": "40129960000", "tract_name": "9600", "tags": {"building": "yes"}}}, {"type": "Feature", "geometry": {"type": "Polygon", "coordinates": [[[-99.5983916, 35.6676429], [-99.5983902, 35.6673187], [-99.5982199, 35.6673192], [-99.5982213, 35.6676433], [-99.5983916, 35.6676429]]]}, "properties": {"osm_id": 1160717616, "building": "yes", "name": "", "height": null, "height_m": null, "levels": null, "tract_id": "40129960000", "tract_name": "9600", "tags": {"building": "yes"}}}, {"type": "Feature", "geometry": {"type": "Polygon", "coordinates": [[[-99.5985462, 35.6697614], [-99.5984455, 35.6697641], [-99.5984395, 35.6696149], [-99.5985401, 35.6696122], [-99.5985462, 35.6697614]]]}, "properties": {"osm_id": 1160717617, "building": "yes", "name": "", "height": null, "height_m": null, "levels": null, "tract_id": "40129960000", "tract_name": "9600", "tags": {"building": "yes"}}}, {"type": "Feature", "geometry": {"type": "Polygon", "coordinates": [[[-99.5991115, 35.6701715], [-99.5990904, 35.6700859], [-99.5988773, 35.6701205], [-99.5988984, 35.6702061], [-99.5991115, 35.6701715]]]}, "properties": {"osm_id": 1160717618, "building": "yes", "name": "", "height": null, "height_m": null, "levels": null, "tract_id": "40129960000", "tract_name": "9600", "tags": {"building": "yes"}}}, {"type": "Feature", "geometry": {"type": "Polygon", "coordinates": [[[-99.5960103, 35.670136], [-99.5960106, 35.6701137], [-99.5958738, 35.6701124], [-99.5958735, 35.6701347], [-99.5960103, 35.670136]]]}, "properties": {"osm_id": 1160717619, "building": "yes", "name": "", "height": null, "height_m": null, "levels": null, "tract_id": "40129960000", "tract_name": "9600", "tags": {"building": "yes"}}}, {"type": "Feature", "geometry": {"type": "Polygon", "coordinates": [[[-99.596032, 35.6703884], [-99.59592, 35.6703911], [-99.5959118, 35.670159], [-99.5960238, 35.6701564], [-99.596032, 35.6703884]]]}, "properties": {"osm_id": 1160717620, "building": "yes", "name": "", "height": null, "height_m": null, "levels": null, "tract_id": "40129960000", "tract_name": "9600", "tags": {"building": "yes"}}}, {"type": "Feature", "geometry": {"type": "Polygon", "coordinates": [[[-99.5956205, 35.6702533], [-99.5956199, 35.67014], [-99.5954415, 35.6701406], [-99.5954421, 35.6702539], [-99.5956205, 35.6702533]]]}, "properties": {"osm_id": 1160717621, "building": "yes", "name": "", "height": null, "height_m": null, "levels": null, "tract_id": "40129960000", "tract_name": "9600", "tags": {"building": "yes"}}}, {"type": "Feature", "geometry": {"type": "Polygon", "coordinates": [[[-99.5962595, 35.6718646], [-99.596057, 35.6718674], [-99.5960497, 35.671522], [-99.5962522, 35.6715192], [-99.5962595, 35.6718646]]]}, "properties": {"osm_id": 1160717623, "building": "yes", "name": "", "height": null, "height_m": null, "levels": null, "tract_id": "40129960000", "tract_name": "9600", "tags": {"building": "yes"}}}, {"type": "Feature", "geometry": {"type": "Polygon", "coordinates": [[[-99.6053382, 35.6706891], [-99.605246, 35.6706878], [-99.6052449, 35.6707399], [-99.6053371, 35.6707412], [-99.6053382, 35.6706891]]]}, "properties": {"osm_id": 1163102683, "building": "yes", "name": "", "height": null, "height_m": null, "levels": null, "tract_id": "40129960000", "tract_name": "9600", "tags": {"building": "yes"}}}, {"type": "Feature", "geometry": {"type": "Polygon", "coordinates": [[[-99.604882, 35.6706286], [-99.6048378, 35.6706148], [-99.6048094, 35.6706749], [-99.6048536, 35.6706887], [-99.604882, 35.6706286]]]}, "properties": {"osm_id": 1163102684, "building": "yes", "name": "", "height": null, "height_m": null, "levels": null, "tract_id": "40129960000", "tract_name": "9600", "tags": {"building": "yes"}}}, {"type": "Feature", "geometry": {"type": "Polygon", "coordinates": [[[-99.6052199, 35.6704613], [-99.6051653, 35.6704613], [-99.6051653, 35.6705046], [-99.6050872, 35.6705046], [-99.6050872, 35.6704581], [-99.6049235, 35.6704581], [-99.6049235, 35.6703788], [-99.6051236, 35.6703788], [-99.6051236, 35.6703608], [-99.6051744, 35.6703609], [-99.6051744, 35.6703799], [-99.6052199, 35.6703799], [-99.6052199, 35.6704613]]]}, "properties": {"osm_id": 1163102685, "building": "yes", "name": "", "height": null, "height_m": null, "levels": null, "tract_id": "40129960000", "tract_name": "9600", "tags": {"building": "yes"}}}, {"type": "Feature", "geometry": {"type": "Polygon", "coordinates": [[[-99.6049418, 35.670332], [-99.6048826, 35.670332], [-99.6048826, 35.6703767], [-99.6049418, 35.6703767], [-99.6049418, 35.670332]]]}, "properties": {"osm_id": 1163102686, "building": "yes", "name": "", "height": null, "height_m": null, "levels": null, "tract_id": "40129960000", "tract_name": "9600", "tags": {"building": "yes"}}}, {"type": "Feature", "geometry": {"type": "Polygon", "coordinates": [[[-99.595626, 35.6697961], [-99.5955711, 35.6697947], [-99.5955691, 35.6698457], [-99.5956241, 35.669847], [-99.595626, 35.6697961]]]}, "properties": {"osm_id": 1163102687, "building": "yes", "name": "", "height": null, "height_m": null, "levels": null, "tract_id": "40129960000", "tract_name": "9600", "tags": {"building": "yes"}}}, {"type": "Feature", "geometry": {"type": "Polygon", "coordinates": [[[-99.5958644, 35.6697936], [-99.595957, 35.669793], [-99.5959565, 35.6697335], [-99.5959993, 35.6697332], [-99.5959982, 35.669614], [-99.5959352, 35.6696143], [-99.5959343, 35.6695131], [-99.595853, 35.6695136], [-99.5958544, 35.6696724], [-99.5958175, 35.6696866], [-99.5958155, 35.6697419], [-99.5958641, 35.6697602], [-99.5958644, 35.6697936]]]}, "properties": {"osm_id": 1163102688, "building": "yes", "name": "", "height": null, "height_m": null, "levels": null, "tract_id": "40129960000", "tract_name": "9600", "tags": {"building": "yes"}}}, {"type": "Feature", "geometry": {"type": "Polygon", "coordinates": [[[-99.5891954, 35.6706191], [-99.5889808, 35.670635], [-99.588991, 35.6707252], [-99.5892055, 35.6707093], [-99.5891954, 35.6706191]]]}, "properties": {"osm_id": 1163102689, "building": "yes", "name": "", "height": null, "height_m": null, "levels": null, "tract_id": "40129960000", "tract_name": "9600", "tags": {"building": "yes"}}}, {"type": "Feature", "geometry": {"type": "Polygon", "coordinates": [[[-99.5887396, 35.6699703], [-99.5887571, 35.6693885], [-99.5888908, 35.6693911], [-99.5888833, 35.6696406], [-99.588928, 35.6696415], [-99.588918, 35.6699739], [-99.5887396, 35.6699703]]]}, "properties": {"osm_id": 1163102690, "building": "yes", "name": "", "height": null, "height_m": null, "levels": null, "tract_id": "40129960000", "tract_name": "9600", "tags": {"building": "yes"}}}, {"type": "Feature", "geometry": {"type": "Polygon", "coordinates": [[[-99.5888336, 35.6691149], [-99.5888442, 35.6687818], [-99.5889742, 35.6687846], [-99.5889637, 35.6691176], [-99.5888336, 35.6691149]]]}, "properties": {"osm_id": 1163102691, "building": "yes", "name": "", "height": null, "height_m": null, "levels": null, "tract_id": "40129960000", "tract_name": "9600", "tags": {"building": "yes"}}}, {"type": "Feature", "geometry": {"type": "Polygon", "coordinates": [[[-99.5974006, 35.6718468], [-99.5973988, 35.6717753], [-99.5972566, 35.6717776], [-99.597258, 35.6718359], [-99.5971551, 35.6718376], [-99.597157, 35.6719161], [-99.5972643, 35.6719143], [-99.5972645, 35.6719236], [-99.5973285, 35.6719226], [-99.5973266, 35.671848], [-99.5974006, 35.6718468]]]}, "properties": {"osm_id": 1163102692, "building": "yes", "name": "", "height": null, "height_m": null, "levels": null, "tract_id": "40129960000", "tract_name": "9600", "tags": {"building": "yes"}}}, {"type": "Feature", "geometry": {"type": "Polygon", "coordinates": [[[-99.5978415, 35.6736869], [-99.5978587, 35.6734757], [-99.5979666, 35.6734815], [-99.5979494, 35.6736928], [-99.5978415, 35.6736869]]]}, "properties": {"osm_id": 1163102693, "building": "yes", "name": "", "height": null, "height_m": null, "levels": null, "tract_id": "40129960000", "tract_name": "9600", "tags": {"building": "yes"}}}, {"type": "Feature", "geometry": {"type": "Polygon", "coordinates": [[[-99.5991301, 35.6734768], [-99.5991307, 35.6734079], [-99.5990661, 35.6734075], [-99.5990668, 35.6733278], [-99.598952, 35.6733271], [-99.5989514, 35.6734027], [-99.5989288, 35.6734025], [-99.5989278, 35.6735264], [-99.59906, 35.6735272], [-99.5990604, 35.6734764], [-99.5991301, 35.6734768]]]}, "properties": {"osm_id": 1163102694, "building": "yes", "name": "", "height": null, "height_m": null, "levels": null, "tract_id": "40129960000", "tract_name": "9600", "tags": {"building": "yes"}}}, {"type": "Feature", "geometry": {"type": "Polygon", "coordinates": [[[-99.5990177, 35.6742706], [-99.599024, 35.6741501], [-99.5988311, 35.6741435], [-99.5988266, 35.6742307], [-99.598946, 35.6742349], [-99.5989443, 35.674268], [-99.5990177, 35.6742706]]]}, "properties": {"osm_id": 1163102695, "building": "yes", "name": "", "height": null, "height_m": null, "levels": null, "tract_id": "40129960000", "tract_name": "9600", "tags": {"building": "yes"}}}, {"type": "Feature", "geometry": {"type": "Polygon", "coordinates": [[[-99.6006337, 35.6742004], [-99.6005608, 35.6741968], [-99.6005559, 35.6742611], [-99.6006288, 35.6742647], [-99.6006337, 35.6742004]]]}, "properties": {"osm_id": 1163102696, "building": "yes", "name": "", "height": null, "height_m": null, "levels": null, "tract_id": "40129960000", "tract_name": "9600", "tags": {"building": "yes"}}}, {"type": "Feature", "geometry": {"type": "Polygon", "coordinates": [[[-99.6104557, 35.6748201], [-99.6104535, 35.6747645], [-99.6104981, 35.6747634], [-99.6105002, 35.674819], [-99.6104557, 35.6748201]]]}, "properties": {"osm_id": 1163102697, "building": "yes", "name": "", "height": null, "height_m": null, "levels": null, "tract_id": "40129960000", "tract_name": "9600", "tags": {"building": "yes"}}}, {"type": "Feature", "geometry": {"type": "Polygon", "coordinates": [[[-99.610892, 35.6754945], [-99.6107777, 35.6754952], [-99.6107781, 35.6755312], [-99.6108923, 35.6755305], [-99.610892, 35.6754945]]]}, "properties": {"osm_id": 1163102698, "building": "yes", "name": "", "height": null, "height_m": null, "levels": null, "tract_id": "40129960000", "tract_name": "9600", "tags": {"building": "yes"}}}, {"type": "Feature", "geometry": {"type": "Polygon", "coordinates": [[[-99.3810474, 35.6392919], [-99.3810468, 35.6392477], [-99.3810704, 35.6392475], [-99.3810693, 35.6391658], [-99.3809712, 35.6391667], [-99.3809709, 35.6391484], [-99.3808755, 35.6391493], [-99.3808758, 35.6391681], [-99.3808147, 35.6391686], [-99.3808145, 35.6391499], [-99.3807393, 35.6391506], [-99.3807407, 35.6392492], [-99.3809733, 35.6392471], [-99.3809739, 35.6392926], [-99.3810474, 35.6392919]]]}, "properties": {"osm_id": 1233502961, "building": "house", "name": "", "height": null, "height_m": null, "levels": null, "tract_id": "40129960000", "tract_name": "9600", "tags": {"building": "house"}}}, {"type": "Feature", "geometry": {"type": "Polygon", "coordinates": [[[-99.3833009, 35.6259757], [-99.3834404, 35.626052], [-99.3836297, 35.6258234], [-99.3834903, 35.6257471], [-99.3833009, 35.6259757]]]}, "properties": {"osm_id": 1233502962, "building": "yes", "name": "", "height": null, "height_m": null, "levels": null, "tract_id": "40129960000", "tract_name": "9600", "tags": {"building": "yes"}}}, {"type": "Feature", "geometry": {"type": "Polygon", "coordinates": [[[-99.6721859, 35.6140852], [-99.6720226, 35.6140827], [-99.6720165, 35.6143513], [-99.672097, 35.6143525], [-99.6720991, 35.61426], [-99.6721819, 35.6142612], [-99.6721829, 35.6142195], [-99.6721859, 35.6140852]]]}, "properties": {"osm_id": 1286841045, "building": "retail", "name": "", "height": null, "height_m": null, "levels": null, "tract_id": "40129960000", "tract_name": "9600", "tags": {"building": "retail", "shop": "yes"}}}, {"type": "Feature", "geometry": {"type": "Polygon", "coordinates": [[[-99.6722409, 35.6142204], [-99.6721829, 35.6142195], [-99.6721859, 35.6140852], [-99.6722439, 35.614086], [-99.6722409, 35.6142204]]]}, "properties": {"osm_id": 1286841046, "building": "retail", "name": "", "height": null, "height_m": null, "levels": null, "tract_id": "40129960000", "tract_name": "9600", "tags": {"building": "retail", "shop": "yes"}}}, {"type": "Feature", "geometry": {"type": "Polygon", "coordinates": [[[-99.6723252, 35.6142505], [-99.6722402, 35.6142492], [-99.6722409, 35.6142204], [-99.6722439, 35.614086], [-99.6723289, 35.6140873], [-99.6723252, 35.6142505]]]}, "properties": {"osm_id": 1286841047, "building": "retail", "name": "", "height": null, "height_m": null, "levels": null, "tract_id": "40129960000", "tract_name": "9600", "tags": {"building": "retail", "shop": "yes"}}}, {"type": "Feature", "geometry": {"type": "Polygon", "coordinates": [[[-99.6725902, 35.6143516], [-99.6724926, 35.61435], [-99.6724993, 35.6140894], [-99.6725969, 35.6140911], [-99.6725902, 35.6143516]]]}, "properties": {"osm_id": 1286841051, "building": "yes", "name": "Cheyenne Professional Drug", "height": null, "height_m": null, "levels": null, "tract_id": "40129960000", "tract_name": "9600", "tags": {"addr:city": "Cheyenne", "addr:housenumber": "413", "addr:postcode": "73628", "addr:state": "OK", "addr:street": "Broadway", "amenity": "pharmacy", "building": "yes", "healthcare": "pharmacy", "name": "Cheyenne Professional Drug", "operator": "Jaclyn Stephens"}}}, {"type": "Feature", "geometry": {"type": "Polygon", "coordinates": [[[-99.6727567, 35.6142623], [-99.6727048, 35.6142611], [-99.6727102, 35.614096], [-99.6727622, 35.6140971], [-99.6727567, 35.6142623]]]}, "properties": {"osm_id": 1286841052, "building": "retail", "name": "", "height": null, "height_m": null, "levels": null, "tract_id": "40129960000", "tract_name": "9600", "tags": {"building": "retail", "shop": "yes"}}}, {"type": "Feature", "geometry": {"type": "Polygon", "coordinates": [[[-99.6728343, 35.6143204], [-99.6727549, 35.6143187], [-99.6727567, 35.6142623], [-99.6727622, 35.6140971], [-99.6728416, 35.6140989], [-99.6728343, 35.6143204]]]}, "properties": {"osm_id": 1286841053, "building": "retail", "name": "", "height": null, "height_m": null, "levels": null, "tract_id": "40129960000", "tract_name": "9600", "tags": {"building": "retail", "shop": "yes"}}}, {"type": "Feature", "geometry": {"type": "Polygon", "coordinates": [[[-99.6729137, 35.6143204], [-99.6729106, 35.6144147], [-99.6728312, 35.6144129], [-99.6728343, 35.6143204], [-99.6728416, 35.6140989], [-99.672921, 35.6141006], [-99.6729137, 35.6143204]]]}, "properties": {"osm_id": 1286841054, "building": "retail", "name": "", "height": null, "height_m": null, "levels": null, "tract_id": "40129960000", "tract_name": "9600", "tags": {"building": "retail", "shop": "yes"}}}, {"type": "Feature", "geometry": {"type": "Polygon", "coordinates": [[[-99.672999, 35.6143223], [-99.6729137, 35.6143204], [-99.672921, 35.6141006], [-99.6730062, 35.6141025], [-99.672999, 35.6143223]]]}, "properties": {"osm_id": 1286841055, "building": "retail", "name": "", "height": null, "height_m": null, "levels": null, "tract_id": "40129960000", "tract_name": "9600", "tags": {"building": "retail", "shop": "yes"}}}, {"type": "Feature", "geometry": {"type": "Polygon", "coordinates": [[[-99.9106078, 35.4279254], [-99.9105856, 35.4279252], [-99.9104319, 35.4279241], [-99.910431, 35.4279993], [-99.9106069, 35.4280006], [-99.9106078, 35.4279254]]]}, "properties": {"osm_id": 1300767493, "building": "yes", "name": "", "height": null, "height_m": null, "levels": null, "tract_id": "40129960000", "tract_name": "9600", "tags": {"building": "yes"}}}, {"type": "Feature", "geometry": {"type": "Polygon", "coordinates": [[[-99.9097684, 35.4239562], [-99.9097671, 35.4239818], [-99.9097978, 35.4239828], [-99.9097991, 35.4239572], [-99.9097684, 35.4239562]]]}, "properties": {"osm_id": 1300767494, "building": "yes", "name": "", "height": null, "height_m": null, "levels": null, "tract_id": "40129960000", "tract_name": "9600", "tags": {"building": "yes"}}}, {"type": "Feature", "geometry": {"type": "Polygon", "coordinates": [[[-99.9104613, 35.4275746], [-99.9104576, 35.4275751], [-99.9104539, 35.4275757], [-99.9104453, 35.4275804], [-99.9104413, 35.4275857], [-99.9104397, 35.4275918], [-99.9104407, 35.427598], [-99.910446, 35.427605], [-99.9104522, 35.4276085], [-99.9104624, 35.4276102], [-99.9104718, 35.4276082], [-99.9104795, 35.4276026], [-99.9104827, 35.427597], [-99.9104834, 35.4275916], [-99.9104818, 35.4275856], [-99.9104766, 35.4275795], [-99.9104703, 35.4275761], [-99.9104613, 35.4275746]]]}, "properties": {"osm_id": 1300767501, "building": "yes", "name": "", "height": null, "height_m": null, "levels": null, "tract_id": "40129960000", "tract_name": "9600", "tags": {"building": "yes", "man_made": "silo"}}}, {"type": "Feature", "geometry": {"type": "Polygon", "coordinates": [[[-99.9104027, 35.4275743], [-99.9104008, 35.4275745], [-99.910399, 35.4275748], [-99.9103952, 35.4275754], [-99.9103867, 35.4275801], [-99.9103826, 35.4275854], [-99.910381, 35.4275915], [-99.9103821, 35.4275977], [-99.9103873, 35.4276046], [-99.9103935, 35.4276082], [-99.9104038, 35.4276099], [-99.9104132, 35.4276078], [-99.9104208, 35.4276023], [-99.910424, 35.4275967], [-99.9104248, 35.4275913], [-99.9104231, 35.4275853], [-99.910418, 35.4275792], [-99.9104117, 35.4275758], [-99.9104027, 35.4275743]]]}, "properties": {"osm_id": 1300767505, "building": "yes", "name": "", "height": null, "height_m": null, "levels": null, "tract_id": "40129960000", "tract_name": "9600", "tags": {"building": "yes", "man_made": "silo"}}}, {"type": "Feature", "geometry": {"type": "Polygon", "coordinates": [[[-99.9104069, 35.4276215], [-99.910405, 35.4276218], [-99.9104032, 35.427622], [-99.9103994, 35.4276226], [-99.9103909, 35.4276273], [-99.9103868, 35.4276326], [-99.9103852, 35.4276387], [-99.9103863, 35.4276449], [-99.9103915, 35.4276518], [-99.9103977, 35.4276554], [-99.910408, 35.4276571], [-99.9104174, 35.4276551], [-99.9104251, 35.4276495], [-99.9104283, 35.4276439], [-99.910429, 35.4276385], [-99.9104273, 35.4276325], [-99.9104222, 35.4276264], [-99.9104159, 35.427623], [-99.9104069, 35.4276215]]]}, "properties": {"osm_id": 1300767507, "building": "yes", "name": "", "height": null, "height_m": null, "levels": null, "tract_id": "40129960000", "tract_name": "9600", "tags": {"building": "yes", "man_made": "silo"}}}, {"type": "Feature", "geometry": {"type": "Polygon", "coordinates": [[[-99.9104104, 35.4277136], [-99.9104085, 35.4277139], [-99.9104066, 35.4277141], [-99.9104029, 35.4277147], [-99.9103943, 35.4277194], [-99.9103903, 35.4277247], [-99.9103887, 35.4277308], [-99.9103898, 35.427737], [-99.910395, 35.4277439], [-99.9104012, 35.4277475], [-99.9104115, 35.4277492], [-99.9104209, 35.4277472], [-99.9104285, 35.4277416], [-99.9104317, 35.427736], [-99.9104324, 35.4277306], [-99.9104308, 35.4277246], [-99.9104257, 35.4277185], [-99.9104194, 35.4277151], [-99.9104104, 35.4277136]]]}, "properties": {"osm_id": 1300767509, "building": "yes", "name": "", "height": null, "height_m": null, "levels": null, "tract_id": "40129960000", "tract_name": "9600", "tags": {"building": "yes", "man_made": "silo"}}}, {"type": "Feature", "geometry": {"type": "Polygon", "coordinates": [[[-99.9099672, 35.4229224], [-99.9099621, 35.4230472], [-99.9098181, 35.4230433], [-99.9098232, 35.4229185], [-99.9099672, 35.4229224]]]}, "properties": {"osm_id": 1300767512, "building": "yes", "name": "", "height": null, "height_m": null, "levels": null, "tract_id": "40129960000", "tract_name": "9600", "tags": {"building": "yes"}}}, {"type": "Feature", "geometry": {"type": "Polygon", "coordinates": [[[-99.9115687, 35.4242138], [-99.9115625, 35.4242792], [-99.9116418, 35.4242842], [-99.911648, 35.4242187], [-99.9115687, 35.4242138]]]}, "properties": {"osm_id": 1300767513, "building": "yes", "name": "", "height": null, "height_m": null, "levels": null, "tract_id": "40129960000", "tract_name": "9600", "tags": {"building": "yes"}}}, {"type": "Feature", "geometry": {"type": "Polygon", "coordinates": [[[-99.910507, 35.4271777], [-99.9105067, 35.4271908], [-99.9104328, 35.42719], [-99.9104331, 35.4271769], [-99.910507, 35.4271777]]]}, "properties": {"osm_id": 1300767514, "building": "yes", "name": "", "height": null, "height_m": null, "levels": null, "tract_id": "40129960000", "tract_name": "9600", "tags": {"building": "yes"}}}, {"type": "Feature", "geometry": {"type": "Polygon", "coordinates": [[[-99.9104359, 35.4272356], [-99.910436, 35.427301], [-99.9105208, 35.4273009], [-99.9105207, 35.4272356], [-99.9104359, 35.4272356]]]}, "properties": {"osm_id": 1300767516, "building": "yes", "name": "", "height": null, "height_m": null, "levels": null, "tract_id": "40129960000", "tract_name": "9600", "tags": {"building": "yes"}}}, {"type": "Feature", "geometry": {"type": "Polygon", "coordinates": [[[-99.9098889, 35.4237915], [-99.9098861, 35.4238315], [-99.9099333, 35.4238337], [-99.9099361, 35.4237937], [-99.9098889, 35.4237915]]]}, "properties": {"osm_id": 1300767523, "building": "yes", "name": "", "height": null, "height_m": null, "levels": null, "tract_id": "40129960000", "tract_name": "9600", "tags": {"building": "yes"}}}, {"type": "Feature", "geometry": {"type": "Polygon", "coordinates": [[[-99.9105579, 35.4274671], [-99.9105504, 35.4274683], [-99.9105419, 35.427473], [-99.9105378, 35.4274782], [-99.9105362, 35.4274844], [-99.9105373, 35.4274905], [-99.9105425, 35.4274975], [-99.9105487, 35.4275011], [-99.910559, 35.4275028], [-99.9105684, 35.4275007], [-99.9105761, 35.4274952], [-99.9105793, 35.4274896], [-99.91058, 35.4274842], [-99.9105783, 35.4274781], [-99.9105732, 35.4274721], [-99.9105669, 35.4274686], [-99.9105579, 35.4274671]]]}, "properties": {"osm_id": 1300767528, "building": "yes", "name": "", "height": null, "height_m": null, "levels": null, "tract_id": "40129960000", "tract_name": "9600", "tags": {"building": "yes", "man_made": "silo"}}}, {"type": "Feature", "geometry": {"type": "Polygon", "coordinates": [[[-99.9097981, 35.4239934], [-99.9098002, 35.424023], [-99.9097656, 35.4240247], [-99.9097634, 35.4239951], [-99.9097981, 35.4239934]]]}, "properties": {"osm_id": 1300767530, "building": "yes", "name": "", "height": null, "height_m": null, "levels": null, "tract_id": "40129960000", "tract_name": "9600", "tags": {"building": "yes"}}}, {"type": "Feature", "geometry": {"type": "Polygon", "coordinates": [[[-99.9100385, 35.4278447], [-99.9100367, 35.4279097], [-99.9099963, 35.4279089], [-99.9099981, 35.427844], [-99.9100385, 35.4278447]]]}, "properties": {"osm_id": 1300767531, "building": "yes", "name": "", "height": null, "height_m": null, "levels": null, "tract_id": "40129960000", "tract_name": "9600", "tags": {"building": "yes"}}}, {"type": "Feature", "geometry": {"type": "Polygon", "coordinates": [[[-99.9116561, 35.4224326], [-99.9116581, 35.4226306], [-99.9116762, 35.4226304], [-99.9116776, 35.4227663], [-99.9115506, 35.4227671], [-99.9115471, 35.4224333], [-99.9116561, 35.4224326]]]}, "properties": {"osm_id": 1300767533, "building": "yes", "name": "", "height": null, "height_m": null, "levels": null, "tract_id": "40129960000", "tract_name": "9600", "tags": {"building": "yes"}}}, {"type": "Feature", "geometry": {"type": "Polygon", "coordinates": [[[-99.9173705, 35.422867], [-99.9173642, 35.4228649], [-99.9173573, 35.4228648], [-99.9173508, 35.4228666], [-99.9173446, 35.422871], [-99.9173415, 35.422876], [-99.9173406, 35.4228815], [-99.9173421, 35.422887], [-99.9173459, 35.4228917], [-99.9173506, 35.4228947], [-99.9173571, 35.4228966], [-99.9173653, 35.4228963], [-99.9173716, 35.4228939], [-99.917377, 35.4228893], [-99.9173796, 35.4228841], [-99.91738, 35.4228795], [-99.9173783, 35.4228741], [-99.9173745, 35.4228695], [-99.9173705, 35.422867]]]}, "properties": {"osm_id": 1300767536, "building": "yes", "name": "", "height": null, "height_m": null, "levels": null, "tract_id": "40129960000", "tract_name": "9600", "tags": {"building": "yes", "man_made": "silo"}}}, {"type": "Feature", "geometry": {"type": "Polygon", "coordinates": [[[-99.9102871, 35.4227289], [-99.9102806, 35.4228485], [-99.9102948, 35.422849], [-99.9102783, 35.4231548], [-99.910555, 35.4231647], [-99.9105599, 35.4230746], [-99.9105914, 35.4230758], [-99.9106025, 35.4228716], [-99.9105688, 35.4228704], [-99.9105695, 35.4228588], [-99.9105741, 35.4228589], [-99.9105805, 35.4227394], [-99.9102871, 35.4227289]]]}, "properties": {"osm_id": 1300767537, "building": "yes", "name": "", "height": null, "height_m": null, "levels": null, "tract_id": "40129960000", "tract_name": "9600", "tags": {"building": "yes"}}}, {"type": "Feature", "geometry": {"type": "Polygon", "coordinates": [[[-99.9117926, 35.4233343], [-99.9117925, 35.4234003], [-99.9118334, 35.4234004], [-99.9118335, 35.4233344], [-99.9117926, 35.4233343]]]}, "properties": {"osm_id": 1300767543, "building": "yes", "name": "", "height": null, "height_m": null, "levels": null, "tract_id": "40129960000", "tract_name": "9600", "tags": {"building": "yes"}}}, {"type": "Feature", "geometry": {"type": "Polygon", "coordinates": [[[-99.9105199, 35.4275745], [-99.9105161, 35.4275751], [-99.9105124, 35.4275757], [-99.9105039, 35.4275804], [-99.9104998, 35.4275856], [-99.9104982, 35.4275918], [-99.9104993, 35.4275979], [-99.9105045, 35.4276049], [-99.9105107, 35.4276085], [-99.910521, 35.4276102], [-99.9105304, 35.4276081], [-99.910538, 35.4276026], [-99.9105412, 35.427597], [-99.910542, 35.4275916], [-99.9105403, 35.4275856], [-99.9105352, 35.4275795], [-99.9105289, 35.427576], [-99.9105199, 35.4275745]]]}, "properties": {"osm_id": 1300767546, "building": "yes", "name": "", "height": null, "height_m": null, "levels": null, "tract_id": "40129960000", "tract_name": "9600", "tags": {"building": "yes", "man_made": "silo"}}}, {"type": "Feature", "geometry": {"type": "Polygon", "coordinates": [[[-99.9104686, 35.4277145], [-99.9104668, 35.4277148], [-99.9104649, 35.4277151], [-99.9104612, 35.4277156], [-99.9104526, 35.4277204], [-99.9104486, 35.4277256], [-99.910447, 35.4277317], [-99.910448, 35.4277379], [-99.9104533, 35.4277449], [-99.9104595, 35.4277484], [-99.9104697, 35.4277502], [-99.9104791, 35.4277481], [-99.9104868, 35.4277425], [-99.91049, 35.4277369], [-99.9104907, 35.4277316], [-99.9104891, 35.4277255], [-99.910484, 35.4277194], [-99.9104776, 35.427716], [-99.9104686, 35.4277145]]]}, "properties": {"osm_id": 1300767549, "building": "yes", "name": "", "height": null, "height_m": null, "levels": null, "tract_id": "40129960000", "tract_name": "9600", "tags": {"building": "yes", "man_made": "silo"}}}, {"type": "Feature", "geometry": {"type": "Polygon", "coordinates": [[[-99.9120111, 35.4247499], [-99.9120114, 35.424796], [-99.9121238, 35.4247955], [-99.9121234, 35.4247493], [-99.9120111, 35.4247499]]]}, "properties": {"osm_id": 1300767550, "building": "yes", "name": "", "height": null, "height_m": null, "levels": null, "tract_id": "40129960000", "tract_name": "9600", "tags": {"building": "yes"}}}, {"type": "Feature", "geometry": {"type": "Polygon", "coordinates": [[[-99.9105606, 35.4274224], [-99.9105531, 35.4274235], [-99.9105446, 35.4274282], [-99.9105405, 35.4274335], [-99.9105389, 35.4274396], [-99.91054, 35.4274458], [-99.9105452, 35.4274527], [-99.9105514, 35.4274563], [-99.9105617, 35.427458], [-99.9105711, 35.427456], [-99.9105788, 35.4274504], [-99.910582, 35.4274448], [-99.9105827, 35.4274394], [-99.910581, 35.4274334], [-99.9105759, 35.4274273], [-99.9105696, 35.4274239], [-99.9105606, 35.4274224]]]}, "properties": {"osm_id": 1300767551, "building": "yes", "name": "", "height": null, "height_m": null, "levels": null, "tract_id": "40129960000", "tract_name": "9600", "tags": {"building": "yes", "man_made": "silo"}}}, {"type": "Feature", "geometry": {"type": "Polygon", "coordinates": [[[-99.9104119, 35.4276695], [-99.91041, 35.4276698], [-99.9104081, 35.4276701], [-99.9104044, 35.4276707], [-99.9103958, 35.4276754], [-99.9103918, 35.4276807], [-99.9103902, 35.4276868], [-99.9103913, 35.4276929], [-99.9103965, 35.4276999], [-99.9104027, 35.4277035], [-99.910413, 35.4277052], [-99.9104223, 35.4277031], [-99.91043, 35.4276976], [-99.9104332, 35.427692], [-99.9104339, 35.4276866], [-99.9104323, 35.4276806], [-99.9104272, 35.4276745], [-99.9104209, 35.427671], [-99.9104119, 35.4276695]]]}, "properties": {"osm_id": 1300767554, "building": "yes", "name": "", "height": null, "height_m": null, "levels": null, "tract_id": "40129960000", "tract_name": "9600", "tags": {"building": "yes", "man_made": "silo"}}}, {"type": "Feature", "geometry": {"type": "Polygon", "coordinates": [[[-99.9118041, 35.422899], [-99.9118033, 35.4229262], [-99.9119353, 35.4229289], [-99.9119332, 35.4229963], [-99.9117611, 35.4229927], [-99.911764, 35.4228982], [-99.9118041, 35.422899]]]}, "properties": {"osm_id": 1300767559, "building": "yes", "name": "", "height": null, "height_m": null, "levels": null, "tract_id": "40129960000", "tract_name": "9600", "tags": {"building": "yes"}}}, {"type": "Feature", "geometry": {"type": "Polygon", "coordinates": [[[-99.9098036, 35.4239183], [-99.9098034, 35.4239473], [-99.9097668, 35.4239472], [-99.909767, 35.4239182], [-99.9098036, 35.4239183]]]}, "properties": {"osm_id": 1300767563, "building": "yes", "name": "", "height": null, "height_m": null, "levels": null, "tract_id": "40129960000", "tract_name": "9600", "tags": {"building": "yes"}}}, {"type": "Feature", "geometry": {"type": "Polygon", "coordinates": [[[-99.9173716, 35.4228249], [-99.9173652, 35.4228229], [-99.9173584, 35.4228228], [-99.9173519, 35.4228246], [-99.9173457, 35.422829], [-99.9173425, 35.422834], [-99.9173417, 35.4228395], [-99.9173432, 35.422845], [-99.9173469, 35.4228497], [-99.9173517, 35.4228527], [-99.9173581, 35.4228546], [-99.9173664, 35.4228543], [-99.9173726, 35.4228519], [-99.9173781, 35.4228473], [-99.9173807, 35.4228421], [-99.9173811, 35.4228375], [-99.9173794, 35.4228321], [-99.9173756, 35.4228275], [-99.9173716, 35.4228249]]]}, "properties": {"osm_id": 1300767565, "building": "yes", "name": "", "height": null, "height_m": null, "levels": null, "tract_id": "40129960000", "tract_name": "9600", "tags": {"building": "yes", "man_made": "silo"}}}, {"type": "Feature", "geometry": {"type": "Polygon", "coordinates": [[[-99.9131112, 35.4231299], [-99.9131101, 35.4232413], [-99.9132765, 35.4232424], [-99.9132776, 35.423131], [-99.9131112, 35.4231299]]]}, "properties": {"osm_id": 1300767567, "building": "yes", "name": "", "height": null, "height_m": null, "levels": null, "tract_id": "40129960000", "tract_name": "9600", "tags": {"building": "yes"}}}, {"type": "Feature", "geometry": {"type": "Polygon", "coordinates": [[[-99.9117357, 35.4237016], [-99.9118476, 35.4237047], [-99.911849, 35.4236709], [-99.9119004, 35.4236723], [-99.9118954, 35.4237926], [-99.9117321, 35.4237882], [-99.9117357, 35.4237016]]]}, "properties": {"osm_id": 1300767568, "building": "yes", "name": "", "height": null, "height_m": null, "levels": null, "tract_id": "40129960000", "tract_name": "9600", "tags": {"building": "yes"}}}, {"type": "Feature", "geometry": {"type": "Polygon", "coordinates": [[[-99.9099409, 35.4239228], [-99.9099392, 35.4239785], [-99.9098987, 35.4239777], [-99.9098964, 35.4240491], [-99.9098686, 35.4240485], [-99.9098726, 35.4239214], [-99.9099409, 35.4239228]]]}, "properties": {"osm_id": 1300767570, "building": "yes", "name": "", "height": null, "height_m": null, "levels": null, "tract_id": "40129960000", "tract_name": "9600", "tags": {"building": "yes"}}}, {"type": "Feature", "geometry": {"type": "Polygon", "coordinates": [[[-99.9104157, 35.4275283], [-99.9104119, 35.4275288], [-99.9104082, 35.4275294], [-99.9103996, 35.4275341], [-99.9103956, 35.4275394], [-99.910394, 35.4275455], [-99.9103951, 35.4275516], [-99.9104003, 35.4275586], [-99.9104065, 35.4275622], [-99.9104168, 35.4275639], [-99.9104262, 35.4275618], [-99.9104338, 35.4275563], [-99.910437, 35.4275507], [-99.9104377, 35.4275453], [-99.9104361, 35.4275393], [-99.910431, 35.4275332], [-99.9104247, 35.4275298], [-99.9104157, 35.4275283]]]}, "properties": {"osm_id": 1300767571, "building": "yes", "name": "", "height": null, "height_m": null, "levels": null, "tract_id": "40129960000", "tract_name": "9600", "tags": {"building": "yes", "man_made": "silo"}}}, {"type": "Feature", "geometry": {"type": "Polygon", "coordinates": [[[-99.9104663, 35.4276202], [-99.9104644, 35.4276205], [-99.9104625, 35.4276208], [-99.9104588, 35.4276214], [-99.9104502, 35.4276261], [-99.9104462, 35.4276313], [-99.9104446, 35.4276375], [-99.9104457, 35.4276436], [-99.9104509, 35.4276506], [-99.9104571, 35.4276542], [-99.9104673, 35.4276559], [-99.9104767, 35.4276538], [-99.9104844, 35.4276483], [-99.9104876, 35.4276427], [-99.9104883, 35.4276373], [-99.9104867, 35.4276312], [-99.9104816, 35.4276252], [-99.9104752, 35.4276217], [-99.9104663, 35.4276202]]]}, "properties": {"osm_id": 1300767572, "building": "yes", "name": "", "height": null, "height_m": null, "levels": null, "tract_id": "40129960000", "tract_name": "9600", "tags": {"building": "yes", "man_made": "silo"}}}, {"type": "Feature", "geometry": {"type": "Polygon", "coordinates": [[[-99.9173672, 35.4229093], [-99.9173608, 35.4229072], [-99.9173539, 35.4229071], [-99.9173474, 35.4229089], [-99.9173412, 35.4229133], [-99.9173381, 35.4229183], [-99.9173372, 35.4229238], [-99.9173388, 35.4229293], [-99.9173425, 35.422934], [-99.9173472, 35.422937], [-99.9173537, 35.4229389], [-99.9173619, 35.4229386], [-99.9173682, 35.4229362], [-99.9173736, 35.4229316], [-99.9173762, 35.4229264], [-99.9173766, 35.4229218], [-99.9173749, 35.4229164], [-99.9173711, 35.4229118], [-99.9173672, 35.4229093]]]}, "properties": {"osm_id": 1300767575, "building": "yes", "name": "", "height": null, "height_m": null, "levels": null, "tract_id": "40129960000", "tract_name": "9600", "tags": {"building": "yes", "man_made": "silo"}}}, {"type": "Feature", "geometry": {"type": "Polygon", "coordinates": [[[-99.9131197, 35.4226901], [-99.91312, 35.4227129], [-99.9132004, 35.4227123], [-99.9132001, 35.4226896], [-99.9131197, 35.4226901]]]}, "properties": {"osm_id": 1300767581, "building": "yes", "name": "", "height": null, "height_m": null, "levels": null, "tract_id": "40129960000", "tract_name": "9600", "tags": {"building": "yes"}}}, {"type": "Feature", "geometry": {"type": "Polygon", "coordinates": [[[-99.9106217, 35.4273622], [-99.910623, 35.4274454], [-99.9108397, 35.4274431], [-99.9108384, 35.4273599], [-99.9106217, 35.4273622]]]}, "properties": {"osm_id": 1300767582, "building": "yes", "name": "", "height": null, "height_m": null, "levels": null, "tract_id": "40129960000", "tract_name": "9600", "tags": {"building": "yes"}}}, {"type": "Feature", "geometry": {"type": "Polygon", "coordinates": [[[-99.9104683, 35.427669], [-99.9104664, 35.4276693], [-99.9104645, 35.4276696], [-99.9104608, 35.4276702], [-99.9104522, 35.4276749], [-99.9104482, 35.4276801], [-99.9104466, 35.4276863], [-99.9104477, 35.4276924], [-99.9104529, 35.4276994], [-99.9104591, 35.427703], [-99.9104694, 35.4277047], [-99.9104787, 35.4277026], [-99.9104864, 35.4276971], [-99.9104896, 35.4276915], [-99.9104903, 35.4276861], [-99.9104887, 35.42768], [-99.9104836, 35.427674], [-99.9104773, 35.4276705], [-99.9104683, 35.427669]]]}, "properties": {"osm_id": 1300767583, "building": "yes", "name": "", "height": null, "height_m": null, "levels": null, "tract_id": "40129960000", "tract_name": "9600", "tags": {"building": "yes", "man_made": "silo"}}}, {"type": "Feature", "geometry": {"type": "Polygon", "coordinates": [[[-99.9173612, 35.4229512], [-99.9173548, 35.4229492], [-99.917348, 35.4229491], [-99.9173415, 35.4229509], [-99.9173352, 35.4229553], [-99.9173321, 35.4229602], [-99.9173313, 35.4229658], [-99.9173328, 35.4229712], [-99.9173365, 35.4229759], [-99.9173412, 35.4229789], [-99.9173477, 35.4229808], [-99.917356, 35.4229805], [-99.9173622, 35.4229782], [-99.9173676, 35.4229736], [-99.9173702, 35.4229684], [-99.9173706, 35.4229638], [-99.917369, 35.4229584], [-99.9173651, 35.4229537], [-99.9173612, 35.4229512]]]}, "properties": {"osm_id": 1300767585, "building": "yes", "name": "", "height": null, "height_m": null, "levels": null, "tract_id": "40129960000", "tract_name": "9600", "tags": {"building": "yes", "man_made": "silo"}}}, {"type": "Feature", "geometry": {"type": "Polygon", "coordinates": [[[-99.9173757, 35.4227819], [-99.9173693, 35.4227799], [-99.9173625, 35.4227798], [-99.917356, 35.4227816], [-99.9173498, 35.422786], [-99.9173466, 35.422791], [-99.9173458, 35.4227965], [-99.9173473, 35.422802], [-99.917351, 35.4228066], [-99.9173558, 35.4228097], [-99.9173622, 35.4228116], [-99.9173705, 35.4228113], [-99.9173767, 35.4228089], [-99.9173822, 35.4228043], [-99.9173848, 35.4227991], [-99.9173852, 35.4227945], [-99.9173835, 35.4227891], [-99.9173797, 35.4227845], [-99.9173757, 35.4227819]]]}, "properties": {"osm_id": 1300767587, "building": "yes", "name": "", "height": null, "height_m": null, "levels": null, "tract_id": "40129960000", "tract_name": "9600", "tags": {"building": "yes", "man_made": "silo"}}}, {"type": "Feature", "geometry": {"type": "Polygon", "coordinates": [[[-99.9130965, 35.4226559], [-99.9130988, 35.4225647], [-99.9129862, 35.4225628], [-99.9129858, 35.4225779], [-99.9129177, 35.4225767], [-99.9129173, 35.4225944], [-99.9128808, 35.4225938], [-99.9128794, 35.4226457], [-99.9129453, 35.4226468], [-99.912945, 35.4226581], [-99.9130009, 35.4226591], [-99.9130012, 35.4226478], [-99.9130467, 35.4226486], [-99.9130466, 35.422655], [-99.9130965, 35.4226559]]]}, "properties": {"osm_id": 1300767588, "building": "yes", "name": "", "height": null, "height_m": null, "levels": null, "tract_id": "40129960000", "tract_name": "9600", "tags": {"building": "yes"}}}, {"type": "Feature", "geometry": {"type": "Polygon", "coordinates": [[[-99.9112626, 35.4236333], [-99.9112374, 35.4236331], [-99.9112373, 35.4236468], [-99.9110242, 35.4236457], [-99.9110248, 35.4235614], [-99.9110787, 35.4235617], [-99.9110791, 35.4235103], [-99.9111994, 35.4235109], [-99.911199, 35.4235659], [-99.9112374, 35.4235661], [-99.9112373, 35.4235767], [-99.9112631, 35.4235769], [-99.9112626, 35.4236333]]]}, "properties": {"osm_id": 1300868696, "building": "yes", "name": "", "height": null, "height_m": null, "levels": null, "tract_id": "40129960000", "tract_name": "9600", "tags": {"building": "yes"}}}, {"type": "Feature", "geometry": {"type": "Polygon", "coordinates": [[[-99.911081, 35.4237009], [-99.9110393, 35.4237009], [-99.9110394, 35.4236584], [-99.911081, 35.4236584], [-99.911081, 35.4237009]]]}, "properties": {"osm_id": 1300868697, "building": "yes", "name": "", "height": null, "height_m": null, "levels": null, "tract_id": "40129960000", "tract_name": "9600", "tags": {"building": "yes"}}}, {"type": "Feature", "geometry": {"type": "Polygon", "coordinates": [[[-99.9108751, 35.423686], [-99.9108389, 35.4236857], [-99.9108393, 35.4236599], [-99.9108754, 35.4236602], [-99.9108751, 35.423686]]]}, "properties": {"osm_id": 1300868698, "building": "yes", "name": "", "height": null, "height_m": null, "levels": null, "tract_id": "40129960000", "tract_name": "9600", "tags": {"building": "yes"}}}, {"type": "Feature", "geometry": {"type": "Polygon", "coordinates": [[[-99.9108769, 35.423614], [-99.9107968, 35.4236149], [-99.9107964, 35.4235891], [-99.9108765, 35.4235883], [-99.9108769, 35.423614]]]}, "properties": {"osm_id": 1300868699, "building": "yes", "name": "", "height": null, "height_m": null, "levels": null, "tract_id": "40129960000", "tract_name": "9600", "tags": {"building": "yes"}}}, {"type": "Feature", "geometry": {"type": "Polygon", "coordinates": [[[-99.9110147, 35.4238411], [-99.9109805, 35.4238411], [-99.9109805, 35.4238186], [-99.9110147, 35.4238186], [-99.9110147, 35.4238411]]]}, "properties": {"osm_id": 1300868700, "building": "yes", "name": "", "height": null, "height_m": null, "levels": null, "tract_id": "40129960000", "tract_name": "9600", "tags": {"building": "yes"}}}, {"type": "Feature", "geometry": {"type": "Polygon", "coordinates": [[[-99.911119, 35.4238934], [-99.9111203, 35.4238203], [-99.9112581, 35.423822], [-99.9112568, 35.4238951], [-99.911119, 35.4238934]]]}, "properties": {"osm_id": 1300868701, "building": "yes", "name": "", "height": null, "height_m": null, "levels": null, "tract_id": "40129960000", "tract_name": "9600", "tags": {"building": "yes"}}}]}