{"type": "FeatureCollection", "features": [{"type": "Feature", "geometry": {"type": "Polygon", "coordinates": [[[-97.5728875, 35.3844947], [-97.5731192, 35.3846875], [-97.5728228, 35.3849281], [-97.5725801, 35.3847334], [-97.5728875, 35.3844947]]]}, "properties": {"osm_id": 231102175, "building": "college", "name": "", "height": null, "height_m": null, "levels": null, "tract_id": "40109107212", "tract_name": "1072.12", "tags": {"building": "college"}}}, {"type": "Feature", "geometry": {"type": "Polygon", "coordinates": [[[-97.56965, 35.3892734], [-97.5696529, 35.389195], [-97.5695829, 35.3891356], [-97.5695817, 35.3888333], [-97.5695844, 35.3887186], [-97.5696412, 35.3886734], [-97.5696427, 35.3885962], [-97.569545, 35.3885974], [-97.5694867, 35.3886437], [-97.5692879, 35.3886432], [-97.5689883, 35.3886425], [-97.5689912, 35.3886199], [-97.5689693, 35.3886033], [-97.5689387, 35.3886045], [-97.5689285, 35.3885962], [-97.5688309, 35.388595], [-97.568828, 35.388671], [-97.5689125, 35.3887423], [-97.5689096, 35.3890702], [-97.5686924, 35.3892461], [-97.568691, 35.3893697], [-97.5688542, 35.3893708], [-97.569067, 35.389195], [-97.5690799, 35.389195], [-97.5693594, 35.3891959], [-97.5693809, 35.3892137], [-97.5694, 35.3892297], [-97.5694981, 35.3892299], [-97.5695538, 35.3892734], [-97.56965, 35.3892734]]]}, "properties": {"osm_id": 236764880, "building": "yes", "name": "Keith Leftwich Memorial Library", "height": null, "height_m": null, "levels": null, "tract_id": "40109107212", "tract_name": "1072.12", "tags": {"addr:city": "Oklahoma City", "addr:housenumber": "7777", "addr:postcode": "73159", "addr:street": "South May Avenue", "amenity": "library", "building": "yes", "name": "Keith Leftwich Memorial Library", "wheelchair": "yes"}}}, {"type": "Feature", "geometry": {"type": "Polygon", "coordinates": [[[-97.5724232, 35.3890926], [-97.5724442, 35.3890973], [-97.5724349, 35.3891254], [-97.5725121, 35.3891441], [-97.572501, 35.3892148], [-97.5724745, 35.3892848], [-97.5724419, 35.3893473], [-97.5723977, 35.3894061], [-97.5724227, 35.3894251], [-97.5724416, 35.3894473], [-97.5724554, 35.3894738], [-97.5724615, 35.3895023], [-97.5724594, 35.389532], [-97.5724503, 35.389561], [-97.5724355, 35.3895867], [-97.5724129, 35.3896085], [-97.572387, 35.3896272], [-97.5723549, 35.3896401], [-97.5723229, 35.3896481], [-97.5722862, 35.3896504], [-97.572251, 35.3896473], [-97.5722197, 35.3896359], [-97.57219, 35.3896202], [-97.5721648, 35.3895988], [-97.5720947, 35.3896337], [-97.5720201, 35.3896592], [-97.5719406, 35.3896779], [-97.5718558, 35.3896901], [-97.5718329, 35.3896254], [-97.5717896, 35.3896359], [-97.5717746, 35.3895902], [-97.5717544, 35.3895726], [-97.5717454, 35.3895806], [-97.5715837, 35.3894501], [-97.5715582, 35.3894447], [-97.571573, 35.3894026], [-97.5715247, 35.3893916], [-97.5715327, 35.3893643], [-97.5714322, 35.3892834], [-97.5714556, 35.3892648], [-97.5714262, 35.3892411], [-97.5713933, 35.3892145], [-97.5713571, 35.389244], [-97.571347, 35.3892369], [-97.5713524, 35.3892309], [-97.5711874, 35.3890975], [-97.5712168, 35.3890729], [-97.571239, 35.3890544], [-97.5711981, 35.3890216], [-97.5711244, 35.3890139], [-97.5711364, 35.3889587], [-97.5711532, 35.3889089], [-97.5711753, 35.388863], [-97.5711995, 35.3888248], [-97.5712229, 35.3887914], [-97.5712612, 35.3887477], [-97.5713115, 35.3887018], [-97.5713662, 35.3886628], [-97.5714171, 35.3886338], [-97.5714697, 35.3886088], [-97.5715211, 35.388589], [-97.571572, 35.3885737], [-97.571634, 35.3885629], [-97.5716847, 35.3885551], [-97.5716947, 35.3886147], [-97.5717303, 35.3886436], [-97.5717547, 35.3886635], [-97.5717906, 35.3886327], [-97.5718403, 35.3886737], [-97.5718694, 35.3886515], [-97.5719715, 35.3887308], [-97.5719424, 35.3887526], [-97.5721195, 35.3888887], [-97.572147, 35.3888816], [-97.5721601, 35.3889214], [-97.572208, 35.3889089], [-97.5722184, 35.3889301], [-97.572378, 35.38906], [-97.5723684, 35.3890686], [-97.5723864, 35.389085], [-97.5724232, 35.3890926]]]}, "properties": {"osm_id": 238497636, "building": "yes", "name": "OCCC Visual and Performing Arts Center", "height": null, "height_m": null, "levels": null, "tract_id": "40109107212", "tract_name": "1072.12", "tags": {"addr:city": "Oklahoma City", "addr:housenumber": "7777", "addr:postcode": "73159", "addr:street": "South May Avenue", "amenity": "arts_centre", "building": "yes", "name": "OCCC Visual and Performing Arts Center", "wheelchair": "yes"}}}, {"type": "Feature", "geometry": {"type": "Polygon", "coordinates": [[[-97.5668442, 35.3858192], [-97.5667343, 35.3859099], [-97.5666739, 35.3858662], [-97.5666069, 35.385922], [-97.5663775, 35.3857295], [-97.5664432, 35.3856727], [-97.5663883, 35.3856257], [-97.5664969, 35.3855371], [-97.5668442, 35.3858192]]]}, "properties": {"osm_id": 238497837, "building": "college", "name": "", "height": null, "height_m": null, "levels": null, "tract_id": "40109107212", "tract_name": "1072.12", "tags": {"addr:city": "Oklahoma City", "addr:housenumber": "7777", "addr:postcode": "73159", "addr:street": "South May Avenue", "building": "college", "wheelchair": "yes"}}}, {"type": "Feature", "geometry": {"type": "Polygon", "coordinates": [[[-97.5689001, 35.3868071], [-97.5687446, 35.3869338], [-97.5684255, 35.386667], [-97.5675947, 35.3859841], [-97.5676195, 35.3859636], [-97.56763, 35.3859549], [-97.5676, 35.3859316], [-97.5678903, 35.3856803], [-97.5680003, 35.3857831], [-97.5678528, 35.385899], [-97.5681642, 35.386157], [-97.5682234, 35.3862061], [-97.5681061, 35.3863004], [-97.5681497, 35.3863363], [-97.5681668, 35.3863504], [-97.5681433, 35.3863713], [-97.5682689, 35.3864782], [-97.5685757, 35.3864797], [-97.568782, 35.3866473], [-97.5690081, 35.3868337], [-97.5689708, 35.3868637], [-97.5689001, 35.3868071]]]}, "properties": {"osm_id": 270495969, "building": "college", "name": "", "height": null, "height_m": null, "levels": null, "tract_id": "40109107212", "tract_name": "1072.12", "tags": {"building": "college", "roof:shape": "flat", "source": "Bing"}}}, {"type": "Feature", "geometry": {"type": "Polygon", "coordinates": [[[-97.569431, 35.3864845], [-97.5694906, 35.3865338], [-97.5697266, 35.3867292], [-97.5700686, 35.3870123], [-97.5701043, 35.3870454], [-97.5701063, 35.3869257], [-97.5704729, 35.3866326], [-97.5705481, 35.3866937], [-97.5705537, 35.3866891], [-97.5707879, 35.3864999], [-97.5714467, 35.3859674], [-97.5718758, 35.3863216], [-97.571846, 35.3863455], [-97.5717015, 35.3864616], [-97.571831, 35.3865675], [-97.5715593, 35.3867874], [-97.5715325, 35.3867655], [-97.5711758, 35.3870607], [-97.5711785, 35.3871023], [-97.5710914, 35.387102], [-97.57109, 35.3872313], [-97.5711729, 35.3873005], [-97.5714413, 35.3875243], [-97.5714762, 35.3874959], [-97.5715394, 35.3875459], [-97.5715823, 35.3875131], [-97.5715862, 35.3874871], [-97.5715433, 35.3874893], [-97.5715433, 35.38731], [-97.5719524, 35.387312], [-97.572018, 35.3872553], [-97.5720904, 35.3872531], [-97.5720958, 35.3873056], [-97.5720153, 35.3873668], [-97.5720157, 35.3874092], [-97.572018, 35.3876271], [-97.5720958, 35.3876883], [-97.5720973, 35.3877427], [-97.572026, 35.3877451], [-97.5719509, 35.3876883], [-97.5716518, 35.3876862], [-97.5716318, 35.3876861], [-97.5715593, 35.3877473], [-97.5712482, 35.3877473], [-97.5711785, 35.3876861], [-97.5711353, 35.3877217], [-97.5708807, 35.387931], [-97.5709627, 35.3880008], [-97.5710444, 35.3879332], [-97.5713141, 35.3881626], [-97.5713421, 35.3881366], [-97.5714306, 35.3882218], [-97.5710444, 35.3885293], [-97.5708593, 35.3886767], [-97.5707896, 35.388622], [-97.5707535, 35.3886436], [-97.5706796, 35.3885804], [-97.5707144, 35.388552], [-97.5704865, 35.3883683], [-97.5705394, 35.3883222], [-97.5705642, 35.3883006], [-97.5704167, 35.3881803], [-97.5703733, 35.3882134], [-97.5703336, 35.3882437], [-97.5701136, 35.3880556], [-97.5700412, 35.3881147], [-97.5698814, 35.3881136], [-97.5698778, 35.3879899], [-97.5698095, 35.3879313], [-97.5697766, 35.3879507], [-97.5697365, 35.3879495], [-97.5696962, 35.3879477], [-97.5696957, 35.3879174], [-97.5696957, 35.3878822], [-97.569721, 35.3878591], [-97.5696441, 35.3877971], [-97.5698246, 35.3876524], [-97.5696794, 35.3875345], [-97.5695757, 35.387616], [-97.569494, 35.3875483], [-97.5692083, 35.3873117], [-97.5688169, 35.3869876], [-97.5689708, 35.3868637], [-97.5690081, 35.3868337], [-97.5690443, 35.3868045], [-97.569431, 35.3864845]]]}, "properties": {"osm_id": 270497009, "building": "college", "name": "Oklahoma City Community College", "height": null, "height_m": null, "levels": null, "tract_id": "40109107212", "tract_name": "1072.12", "tags": {"building": "college", "name": "Oklahoma City Community College", "roof:shape": "flat", "source": "Bing"}}}, {"type": "Feature", "geometry": {"type": "Polygon", "coordinates": [[[-97.5581485, 35.3830772], [-97.5580783, 35.3830772], [-97.5580664, 35.383064], [-97.5579201, 35.383064], [-97.5579202, 35.3829806], [-97.558009, 35.3829806], [-97.558009, 35.3829958], [-97.558037, 35.3829958], [-97.5580616, 35.3829958], [-97.5580616, 35.3829806], [-97.5581485, 35.3829806], [-97.5581485, 35.3830772]]]}, "properties": {"osm_id": 294547461, "building": "yes", "name": "", "height": null, "height_m": null, "levels": null, "tract_id": "40109107212", "tract_name": "1072.12", "tags": {"building": "yes", "source": "Bing"}}}, {"type": "Feature", "geometry": {"type": "Polygon", "coordinates": [[[-97.5585697, 35.3836702], [-97.5585037, 35.3836702], [-97.5585037, 35.3836203], [-97.5585697, 35.3836203], [-97.5585697, 35.3836702]]]}, "properties": {"osm_id": 294547462, "building": "roof", "name": "", "height": null, "height_m": null, "levels": null, "tract_id": "40109107212", "tract_name": "1072.12", "tags": {"amenity": "shelter", "building": "roof", "roof:shape": "pyramidal", "source": "Bing"}}}, {"type": "Feature", "geometry": {"type": "Polygon", "coordinates": [[[-97.5579124, 35.3837252], [-97.5576656, 35.3838412], [-97.5574825, 35.3835822], [-97.5577292, 35.3834662], [-97.5579124, 35.3837252]]]}, "properties": {"osm_id": 294547463, "building": "yes", "name": "", "height": null, "height_m": null, "levels": null, "tract_id": "40109107212", "tract_name": "1072.12", "tags": {"building": "yes", "source": "Bing"}}}, {"type": "Feature", "geometry": {"type": "Polygon", "coordinates": [[[-97.567291, 35.3855473], [-97.567057, 35.3855477], [-97.567057, 35.3855607], [-97.5668572, 35.385561], [-97.5666709, 35.3855613], [-97.5666708, 35.3855228], [-97.5665882, 35.385523], [-97.566588, 35.3854303], [-97.5663925, 35.3854307], [-97.5663922, 35.3853008], [-97.5666656, 35.3853003], [-97.5666655, 35.3852828], [-97.5668543, 35.3852825], [-97.5670551, 35.3852821], [-97.5670552, 35.3853069], [-97.5672903, 35.3853064], [-97.567291, 35.3855473]]]}, "properties": {"osm_id": 584732946, "building": "college", "name": "", "height": null, "height_m": null, "levels": null, "tract_id": "40109107212", "tract_name": "1072.12", "tags": {"building": "college"}}}, {"type": "Feature", "geometry": {"type": "Polygon", "coordinates": [[[-97.5666442, 35.3927993], [-97.5666474, 35.3926116], [-97.5661727, 35.3926062], [-97.566173, 35.3925908], [-97.5661339, 35.3925903], [-97.56613, 35.3928138], [-97.5663913, 35.3928169], [-97.5663916, 35.3927964], [-97.5666442, 35.3927993]]]}, "properties": {"osm_id": 677192438, "building": "yes", "name": "", "height": null, "height_m": null, "levels": null, "tract_id": "40109107212", "tract_name": "1072.12", "tags": {"building": "yes"}}}, {"type": "Feature", "geometry": {"type": "Polygon", "coordinates": [[[-97.5652297, 35.3921404], [-97.5652293, 35.391951], [-97.5649156, 35.3919514], [-97.564916, 35.3921409], [-97.5652297, 35.3921404]]]}, "properties": {"osm_id": 788033476, "building": "yes", "name": "Perry's", "height": null, "height_m": null, "levels": null, "tract_id": "40109107212", "tract_name": "1072.12", "tags": {"addr:city": "Oklahoma City", "addr:housenumber": "7432", "addr:postcode": "73159", "addr:state": "OK", "addr:street": "South May Avenue", "amenity": "restaurant", "building": "yes", "cuisine": "american", "name": "Perry's"}}}, {"type": "Feature", "geometry": {"type": "Polygon", "coordinates": [[[-97.5601374, 35.3914989], [-97.5599847, 35.3914977], [-97.5599902, 35.3910043], [-97.560143, 35.3910055], [-97.5601374, 35.3914989]]]}, "properties": {"osm_id": 929658195, "building": "yes", "name": "", "height": null, "height_m": null, "levels": null, "tract_id": "40109107212", "tract_name": "1072.12", "tags": {"building": "yes"}}}, {"type": "Feature", "geometry": {"type": "Polygon", "coordinates": [[[-97.5597469, 35.3914975], [-97.5595965, 35.3914974], [-97.559597, 35.3910087], [-97.5597476, 35.3910088], [-97.5597469, 35.3914975]]]}, "properties": {"osm_id": 929658196, "building": "yes", "name": "", "height": null, "height_m": null, "levels": null, "tract_id": "40109107212", "tract_name": "1072.12", "tags": {"building": "yes"}}}, {"type": "Feature", "geometry": {"type": "Polygon", "coordinates": [[[-97.5605381, 35.3914147], [-97.5602598, 35.3914162], [-97.5602588, 35.3912911], [-97.5605371, 35.3912897], [-97.5605381, 35.3914147]]]}, "properties": {"osm_id": 929658197, "building": "yes", "name": "", "height": null, "height_m": null, "levels": null, "tract_id": "40109107212", "tract_name": "1072.12", "tags": {"building": "yes"}}}, {"type": "Feature", "geometry": {"type": "Polygon", "coordinates": [[[-97.560536, 35.3910803], [-97.5602598, 35.3910789], [-97.5602608, 35.3909577], [-97.560537, 35.3909592], [-97.560536, 35.3910803]]]}, "properties": {"osm_id": 929658198, "building": "yes", "name": "", "height": null, "height_m": null, "levels": null, "tract_id": "40109107212", "tract_name": "1072.12", "tags": {"building": "yes"}}}, {"type": "Feature", "geometry": {"type": "Polygon", "coordinates": [[[-97.5629499, 35.383676], [-97.5629448, 35.3837614], [-97.5631081, 35.3837679], [-97.5631132, 35.3836825], [-97.5629499, 35.383676]]]}, "properties": {"osm_id": 1153071024, "building": "house", "name": "", "height": null, "height_m": null, "levels": null, "tract_id": "40109107212", "tract_name": "1072.12", "tags": {"addr:city": "Oklahoma City", "addr:housenumber": "2800", "addr:postcode": "73159", "addr:state": "OK", "addr:street": "Southwest 82nd Street", "building": "house"}}}, {"type": "Feature", "geometry": {"type": "Polygon", "coordinates": [[[-97.562906, 35.3837499], [-97.5628664, 35.3837477], [-97.5628647, 35.3837686], [-97.5627434, 35.383762], [-97.5627504, 35.3836751], [-97.5629114, 35.3836838], [-97.562906, 35.3837499]]]}, "properties": {"osm_id": 1153071376, "building": "house", "name": "", "height": null, "height_m": null, "levels": null, "tract_id": "40109107212", "tract_name": "1072.12", "tags": {"addr:city": "Oklahoma City", "addr:housenumber": "2744", "addr:postcode": "73159", "addr:state": "OK", "addr:street": "Southwest 82nd Street", "building": "house"}}}, {"type": "Feature", "geometry": {"type": "Polygon", "coordinates": [[[-97.5627188, 35.3837703], [-97.5626558, 35.3837677], [-97.5626569, 35.38375], [-97.5625673, 35.3837462], [-97.5625727, 35.3836617], [-97.5627252, 35.3836681], [-97.5627188, 35.3837703]]]}, "properties": {"osm_id": 1153071377, "building": "house", "name": "", "height": null, "height_m": null, "levels": null, "tract_id": "40109107212", "tract_name": "1072.12", "tags": {"addr:city": "Oklahoma City", "addr:housenumber": "2740", "addr:postcode": "73159", "addr:state": "OK", "addr:street": "Southwest 82nd Street", "building": "house"}}}, {"type": "Feature", "geometry": {"type": "Polygon", "coordinates": [[[-97.5625268, 35.383765], [-97.5624487, 35.3837648], [-97.5624487, 35.3837438], [-97.5623652, 35.3837436], [-97.5623654, 35.3836612], [-97.5625271, 35.3836615], [-97.5625268, 35.383765]]]}, "properties": {"osm_id": 1153071378, "building": "house", "name": "", "height": null, "height_m": null, "levels": null, "tract_id": "40109107212", "tract_name": "1072.12", "tags": {"addr:city": "Oklahoma City", "addr:housenumber": "2736", "addr:postcode": "73159", "addr:state": "OK", "addr:street": "Southwest 82nd Street", "building": "house"}}}, {"type": "Feature", "geometry": {"type": "Polygon", "coordinates": [[[-97.5719147, 35.382563], [-97.5717559, 35.3825641], [-97.5717548, 35.3824689], [-97.5718373, 35.3824682], [-97.5718369, 35.3824291], [-97.5719132, 35.3824286], [-97.5719147, 35.382563]]]}, "properties": {"osm_id": 1153071899, "building": "house", "name": "", "height": null, "height_m": null, "levels": null, "tract_id": "40109107212", "tract_name": "1072.12", "tags": {"addr:city": "Oklahoma City", "addr:housenumber": "3217", "addr:postcode": "73159", "addr:state": "OK", "addr:street": "Southwest 84th Street", "building": "house"}}}, {"type": "Feature", "geometry": {"type": "Polygon", "coordinates": [[[-97.5644824, 35.3928199], [-97.5644864, 35.3925234], [-97.5642978, 35.3925217], [-97.5642938, 35.3928182], [-97.5644824, 35.3928199]]]}, "properties": {"osm_id": 1225723315, "building": "apartments", "name": "Motel 6 Oklahoma City, OK - Airport East", "height": null, "height_m": null, "levels": null, "tract_id": "40109107212", "tract_name": "1072.12", "tags": {"addr:city": "Oklahoma City", "addr:housenumber": "7404", "addr:postcode": "73159", "addr:state": "OK", "addr:street": "South May Avenue", "building": "apartments", "name": "Motel 6 Oklahoma City, OK - Airport East", "tourism": "hotel"}}}, {"type": "Feature", "geometry": {"type": "Polygon", "coordinates": [[[-97.5738366, 35.3774365], [-97.5734665, 35.3774419], [-97.5734689, 35.377549], [-97.5738389, 35.3775436], [-97.5738366, 35.3774365]]]}, "properties": {"osm_id": 1250892525, "building": "roof", "name": "", "height": null, "height_m": null, "levels": null, "tract_id": "40109107212", "tract_name": "1072.12", "tags": {"building": "roof"}}}, {"type": "Feature", "geometry": {"type": "Polygon", "coordinates": [[[-97.5738189, 35.3778749], [-97.5738219, 35.3777284], [-97.5735522, 35.3777248], [-97.5735486, 35.3779007], [-97.5736237, 35.3779017], [-97.5736243, 35.3778723], [-97.5738189, 35.3778749]]]}, "properties": {"osm_id": 1250892526, "building": "yes", "name": "", "height": null, "height_m": null, "levels": null, "tract_id": "40109107212", "tract_name": "1072.12", "tags": {"building": "yes", "source": "microsoft/BuildingFootprints"}}}, {"type": "Feature", "geometry": {"type": "Polygon", "coordinates": [[[-97.5724169, 35.3775096], [-97.5723494, 35.3773679], [-97.5723178, 35.3773779], [-97.5722867, 35.3773124], [-97.5721854, 35.3773445], [-97.5722089, 35.3773939], [-97.5721168, 35.3774231], [-97.572128, 35.3774467], [-97.5720744, 35.3774637], [-97.572135, 35.377591], [-97.5722959, 35.3775401], [-97.5722991, 35.3775469], [-97.5724169, 35.3775096]]]}, "properties": {"osm_id": 1250892527, "building": "yes", "name": "", "height": null, "height_m": null, "levels": null, "tract_id": "40109107212", "tract_name": "1072.12", "tags": {"building": "yes", "source": "microsoft/BuildingFootprints"}}}, {"type": "Feature", "geometry": {"type": "Polygon", "coordinates": [[[-97.5717173, 35.3776477], [-97.5717191, 35.3775056], [-97.5714804, 35.3775035], [-97.5714807, 35.377483], [-97.5714175, 35.3774824], [-97.5714168, 35.3775349], [-97.5714451, 35.3775352], [-97.5714437, 35.3776454], [-97.5715039, 35.3776459], [-97.5715032, 35.3777028], [-97.571597, 35.3777036], [-97.5715978, 35.3776467], [-97.5717173, 35.3776477]]]}, "properties": {"osm_id": 1250892528, "building": "yes", "name": "", "height": null, "height_m": null, "levels": null, "tract_id": "40109107212", "tract_name": "1072.12", "tags": {"building": "yes", "source": "microsoft/BuildingFootprints"}}}, {"type": "Feature", "geometry": {"type": "Polygon", "coordinates": [[[-97.5723388, 35.3776374], [-97.5721163, 35.3776404], [-97.5721251, 35.3780677], [-97.5723476, 35.3780646], [-97.5723388, 35.3776374]]]}, "properties": {"osm_id": 1250892529, "building": "yes", "name": "", "height": null, "height_m": null, "levels": null, "tract_id": "40109107212", "tract_name": "1072.12", "tags": {"building": "yes", "source": "microsoft/BuildingFootprints"}}}, {"type": "Feature", "geometry": {"type": "Polygon", "coordinates": [[[-97.5715949, 35.3781206], [-97.5715949, 35.3781403], [-97.5715064, 35.3781402], [-97.5715063, 35.3783034], [-97.5720293, 35.3783036], [-97.5720295, 35.3781208], [-97.5715949, 35.3781206]]]}, "properties": {"osm_id": 1250892530, "building": "yes", "name": "", "height": null, "height_m": null, "levels": null, "tract_id": "40109107212", "tract_name": "1072.12", "tags": {"building": "yes", "source": "microsoft/BuildingFootprints"}}}, {"type": "Feature", "geometry": {"type": "Polygon", "coordinates": [[[-97.5720287, 35.3788147], [-97.572259, 35.3788064], [-97.5722474, 35.3785925], [-97.5722153, 35.3785937], [-97.572213, 35.3785522], [-97.5722478, 35.3785509], [-97.5722361, 35.3783336], [-97.5720059, 35.3783419], [-97.5720176, 35.3785592], [-97.5720497, 35.3785581], [-97.5720519, 35.3785983], [-97.5720171, 35.3785995], [-97.5720287, 35.3788147]]]}, "properties": {"osm_id": 1250892531, "building": "yes", "name": "", "height": null, "height_m": null, "levels": null, "tract_id": "40109107212", "tract_name": "1072.12", "tags": {"building": "yes", "source": "microsoft/BuildingFootprints"}}}, {"type": "Feature", "geometry": {"type": "Polygon", "coordinates": [[[-97.5715195, 35.3788888], [-97.5713664, 35.3790248], [-97.571641, 35.3792303], [-97.5716877, 35.3791887], [-97.571764, 35.3792458], [-97.5718455, 35.3791734], [-97.5719046, 35.3792176], [-97.5721585, 35.3789921], [-97.5719896, 35.3788657], [-97.5717606, 35.3790692], [-97.5715195, 35.3788888]]]}, "properties": {"osm_id": 1250892532, "building": "yes", "name": "", "height": null, "height_m": null, "levels": null, "tract_id": "40109107212", "tract_name": "1072.12", "tags": {"building": "yes", "source": "microsoft/BuildingFootprints"}}}, {"type": "Feature", "geometry": {"type": "Polygon", "coordinates": [[[-97.5722496, 35.3794777], [-97.5725, 35.3792776], [-97.5723405, 35.3791449], [-97.5720737, 35.3793581], [-97.5721219, 35.3793982], [-97.5720316, 35.3794704], [-97.5721013, 35.3795284], [-97.5720466, 35.3795721], [-97.5723121, 35.379793], [-97.5724736, 35.379664], [-97.5722496, 35.3794777]]]}, "properties": {"osm_id": 1250892533, "building": "yes", "name": "", "height": null, "height_m": null, "levels": null, "tract_id": "40109107212", "tract_name": "1072.12", "tags": {"building": "yes", "source": "microsoft/BuildingFootprints"}}}, {"type": "Feature", "geometry": {"type": "Polygon", "coordinates": [[[-97.5725606, 35.3793944], [-97.5728259, 35.3794013], [-97.572827, 35.3793729], [-97.5728779, 35.3793742], [-97.5728768, 35.3794026], [-97.573142, 35.3794095], [-97.5731492, 35.379226], [-97.5728357, 35.3792178], [-97.5728359, 35.3792135], [-97.572568, 35.3792065], [-97.5725606, 35.3793944]]]}, "properties": {"osm_id": 1250892534, "building": "yes", "name": "", "height": null, "height_m": null, "levels": null, "tract_id": "40109107212", "tract_name": "1072.12", "tags": {"building": "yes", "source": "microsoft/BuildingFootprints"}}}, {"type": "Feature", "geometry": {"type": "Polygon", "coordinates": [[[-97.5732413, 35.3792001], [-97.5732295, 35.3794206], [-97.573275, 35.3794222], [-97.5732728, 35.3794637], [-97.5732514, 35.3794629], [-97.5732403, 35.3796703], [-97.5734688, 35.3796784], [-97.5734807, 35.3794579], [-97.5734368, 35.3794564], [-97.573439, 35.3794149], [-97.5734604, 35.3794157], [-97.5734715, 35.3792083], [-97.5732413, 35.3792001]]]}, "properties": {"osm_id": 1250892535, "building": "yes", "name": "", "height": null, "height_m": null, "levels": null, "tract_id": "40109107212", "tract_name": "1072.12", "tags": {"building": "yes", "source": "microsoft/BuildingFootprints"}}}, {"type": "Feature", "geometry": {"type": "Polygon", "coordinates": [[[-97.5728504, 35.3799618], [-97.5726689, 35.3798048], [-97.5726699, 35.3798087], [-97.5725751, 35.3797266], [-97.5725061, 35.3797373], [-97.5724253, 35.3797994], [-97.5724467, 35.379891], [-97.572534, 35.3799666], [-97.5725347, 35.3799695], [-97.5726769, 35.3800926], [-97.572686, 35.3800912], [-97.5727374, 35.3801357], [-97.572786, 35.3801282], [-97.5728236, 35.3800993], [-97.5728078, 35.3801017], [-97.5728716, 35.3800527], [-97.5728504, 35.3799618]]]}, "properties": {"osm_id": 1250892536, "building": "yes", "name": "", "height": null, "height_m": null, "levels": null, "tract_id": "40109107212", "tract_name": "1072.12", "tags": {"building": "yes", "source": "microsoft/BuildingFootprints"}}}, {"type": "Feature", "geometry": {"type": "Polygon", "coordinates": [[[-97.5717502, 35.3798863], [-97.5719749, 35.3800682], [-97.5721345, 35.3799372], [-97.5718679, 35.3797214], [-97.5718129, 35.3797665], [-97.5717413, 35.3797086], [-97.5716528, 35.3797813], [-97.5716033, 35.3797412], [-97.5713413, 35.3799564], [-97.5715042, 35.3800883], [-97.5717502, 35.3798863]]]}, "properties": {"osm_id": 1250892537, "building": "yes", "name": "", "height": null, "height_m": null, "levels": null, "tract_id": "40109107212", "tract_name": "1072.12", "tags": {"building": "yes", "source": "microsoft/BuildingFootprints"}}}, {"type": "Feature", "geometry": {"type": "Polygon", "coordinates": [[[-97.5711117, 35.3798566], [-97.5709566, 35.3797202], [-97.570568, 35.3800142], [-97.5707231, 35.3801506], [-97.5711117, 35.3798566]]]}, "properties": {"osm_id": 1250892538, "building": "yes", "name": "", "height": null, "height_m": null, "levels": null, "tract_id": "40109107212", "tract_name": "1072.12", "tags": {"building": "yes", "source": "microsoft/BuildingFootprints"}}}, {"type": "Feature", "geometry": {"type": "Polygon", "coordinates": [[[-97.5705021, 35.3798102], [-97.5707308, 35.3798046], [-97.5707217, 35.3795568], [-97.5707448, 35.3795563], [-97.5707366, 35.3793342], [-97.5705062, 35.3793399], [-97.5705138, 35.3795474], [-97.5705389, 35.3795468], [-97.5705406, 35.3795905], [-97.570494, 35.3795917], [-97.5705021, 35.3798102]]]}, "properties": {"osm_id": 1250892539, "building": "yes", "name": "", "height": null, "height_m": null, "levels": null, "tract_id": "40109107212", "tract_name": "1072.12", "tags": {"building": "yes", "source": "microsoft/BuildingFootprints"}}}, {"type": "Feature", "geometry": {"type": "Polygon", "coordinates": [[[-97.5711928, 35.3791647], [-97.5710297, 35.3792932], [-97.5712521, 35.379481], [-97.5710033, 35.379677], [-97.5711627, 35.3798116], [-97.5714305, 35.3796007], [-97.5713788, 35.3795571], [-97.571469, 35.379486], [-97.5713974, 35.3794256], [-97.5714515, 35.379383], [-97.5711928, 35.3791647]]]}, "properties": {"osm_id": 1250892540, "building": "yes", "name": "", "height": null, "height_m": null, "levels": null, "tract_id": "40109107212", "tract_name": "1072.12", "tags": {"building": "yes", "source": "microsoft/BuildingFootprints"}}}, {"type": "Feature", "geometry": {"type": "Polygon", "coordinates": [[[-97.5704962, 35.3790831], [-97.570503, 35.3792645], [-97.5710282, 35.3792515], [-97.5710215, 35.3790701], [-97.5704962, 35.3790831]]]}, "properties": {"osm_id": 1250892541, "building": "yes", "name": "", "height": null, "height_m": null, "levels": null, "tract_id": "40109107212", "tract_name": "1072.12", "tags": {"building": "yes", "source": "microsoft/BuildingFootprints"}}}, {"type": "Feature", "geometry": {"type": "Polygon", "coordinates": [[[-97.5710165, 35.3788418], [-97.5709935, 35.3786556], [-97.5707375, 35.3786767], [-97.5707399, 35.3786962], [-97.5706921, 35.3787001], [-97.5706877, 35.3786641], [-97.5704206, 35.3786861], [-97.5704436, 35.3788723], [-97.5707028, 35.378851], [-97.5707004, 35.3788315], [-97.5707439, 35.3788279], [-97.5707484, 35.3788639], [-97.5710165, 35.3788418]]]}, "properties": {"osm_id": 1250892542, "building": "yes", "name": "", "height": null, "height_m": null, "levels": null, "tract_id": "40109107212", "tract_name": "1072.12", "tags": {"building": "yes", "source": "microsoft/BuildingFootprints"}}}, {"type": "Feature", "geometry": {"type": "Polygon", "coordinates": [[[-97.571513, 35.3783439], [-97.5712797, 35.3783405], [-97.5712694, 35.3788084], [-97.571492, 35.3788116], [-97.5714975, 35.378558], [-97.5715083, 35.3785582], [-97.571513, 35.3783439]]]}, "properties": {"osm_id": 1250892543, "building": "yes", "name": "", "height": null, "height_m": null, "levels": null, "tract_id": "40109107212", "tract_name": "1072.12", "tags": {"building": "yes", "source": "microsoft/BuildingFootprints"}}}, {"type": "Feature", "geometry": {"type": "Polygon", "coordinates": [[[-97.5708552, 35.3780611], [-97.5708568, 35.3778884], [-97.5708928, 35.3778886], [-97.5708945, 35.3777093], [-97.5707631, 35.3777084], [-97.5707625, 35.377774], [-97.5707104, 35.3777737], [-97.5707119, 35.3776075], [-97.570559, 35.3776066], [-97.5705578, 35.3777378], [-97.5704463, 35.3777371], [-97.5704449, 35.377888], [-97.5704813, 35.3778882], [-97.5704796, 35.3780631], [-97.5705762, 35.3780637], [-97.5705758, 35.3781009], [-97.5706992, 35.3781017], [-97.5706996, 35.3780601], [-97.5708552, 35.3780611]]]}, "properties": {"osm_id": 1250892544, "building": "yes", "name": "", "height": null, "height_m": null, "levels": null, "tract_id": "40109107212", "tract_name": "1072.12", "tags": {"building": "yes", "source": "microsoft/BuildingFootprints"}}}, {"type": "Feature", "geometry": {"type": "Polygon", "coordinates": [[[-97.5663024, 35.3777055], [-97.5666726, 35.3777048], [-97.5666722, 35.3775527], [-97.5665461, 35.3775529], [-97.5665461, 35.3775323], [-97.5664725, 35.3775324], [-97.5664725, 35.3775543], [-97.5664162, 35.3775544], [-97.5664162, 35.3775325], [-97.5663503, 35.3775326], [-97.5663503, 35.3775533], [-97.566302, 35.3775533], [-97.5663024, 35.3777055]]]}, "properties": {"osm_id": 1250892571, "building": "yes", "name": "", "height": null, "height_m": null, "levels": null, "tract_id": "40109107212", "tract_name": "1072.12", "tags": {"building": "yes", "source": "microsoft/BuildingFootprints"}}}, {"type": "Feature", "geometry": {"type": "Polygon", "coordinates": [[[-97.5660485, 35.3774917], [-97.5662335, 35.3774888], [-97.5662292, 35.377303], [-97.5660442, 35.3773059], [-97.5660485, 35.3774917]]]}, "properties": {"osm_id": 1250892572, "building": "yes", "name": "", "height": null, "height_m": null, "levels": null, "tract_id": "40109107212", "tract_name": "1072.12", "tags": {"building": "yes", "source": "microsoft/BuildingFootprints"}}}, {"type": "Feature", "geometry": {"type": "Polygon", "coordinates": [[[-97.5679059, 35.378445], [-97.5679043, 35.378211], [-97.5677343, 35.3782118], [-97.5678301, 35.3781186], [-97.5680657, 35.3781175], [-97.5680649, 35.3780003], [-97.5678734, 35.3780012], [-97.5678731, 35.3779628], [-97.5676925, 35.3778393], [-97.5676898, 35.3778393], [-97.5676896, 35.3778096], [-97.5675475, 35.3778103], [-97.5675477, 35.3778409], [-97.5675258, 35.377841], [-97.5673797, 35.3779829], [-97.5673798, 35.3779991], [-97.5671599, 35.3780001], [-97.5671607, 35.3781182], [-97.567389, 35.3781172], [-97.5675255, 35.3782106], [-97.5673261, 35.3782115], [-97.5673277, 35.3784477], [-97.5679059, 35.378445]]]}, "properties": {"osm_id": 1250892573, "building": "yes", "name": "", "height": null, "height_m": null, "levels": null, "tract_id": "40109107212", "tract_name": "1072.12", "tags": {"building": "yes", "source": "microsoft/BuildingFootprints"}}}, {"type": "Feature", "geometry": {"type": "Polygon", "coordinates": [[[-97.5663019, 35.3787375], [-97.566098, 35.3787389], [-97.5660989, 35.3788242], [-97.5660479, 35.3788245], [-97.5660492, 35.378946], [-97.5661082, 35.3789456], [-97.566109, 35.3790297], [-97.5663021, 35.3790284], [-97.5663013, 35.3789431], [-97.5663469, 35.3789428], [-97.5663457, 35.3788269], [-97.5663028, 35.3788272], [-97.5663019, 35.3787375]]]}, "properties": {"osm_id": 1250892915, "building": "yes", "name": "", "height": null, "height_m": null, "levels": null, "tract_id": "40109107212", "tract_name": "1072.12", "tags": {"building": "yes", "source": "microsoft/BuildingFootprints"}}}, {"type": "Feature", "geometry": {"type": "Polygon", "coordinates": [[[-97.5675944, 35.379058], [-97.5676855, 35.3790571], [-97.5676856, 35.3790615], [-97.5680316, 35.3790579], [-97.5680295, 35.3789288], [-97.5675924, 35.3789334], [-97.5675944, 35.379058]]]}, "properties": {"osm_id": 1250892916, "building": "yes", "name": "", "height": null, "height_m": null, "levels": null, "tract_id": "40109107212", "tract_name": "1072.12", "tags": {"building": "yes", "source": "microsoft/BuildingFootprints"}}}, {"type": "Feature", "geometry": {"type": "Polygon", "coordinates": [[[-97.5681017, 35.3790614], [-97.5685432, 35.3790609], [-97.568543, 35.3789305], [-97.5681015, 35.3789311], [-97.5681017, 35.3790614]]]}, "properties": {"osm_id": 1250892917, "building": "yes", "name": "", "height": null, "height_m": null, "levels": null, "tract_id": "40109107212", "tract_name": "1072.12", "tags": {"building": "yes", "source": "microsoft/BuildingFootprints"}}}, {"type": "Feature", "geometry": {"type": "Polygon", "coordinates": [[[-97.5675899, 35.3791475], [-97.5675938, 35.3795061], [-97.5677493, 35.379505], [-97.5677485, 35.3794329], [-97.5677673, 35.3794328], [-97.5677669, 35.3793912], [-97.5677454, 35.3793914], [-97.567744, 35.3792558], [-97.567752, 35.3792557], [-97.5677509, 35.3791464], [-97.5675899, 35.3791475]]]}, "properties": {"osm_id": 1250892918, "building": "yes", "name": "", "height": null, "height_m": null, "levels": null, "tract_id": "40109107212", "tract_name": "1072.12", "tags": {"building": "yes", "source": "microsoft/BuildingFootprints"}}}, {"type": "Feature", "geometry": {"type": "Polygon", "coordinates": [[[-97.5680942, 35.379145], [-97.5680961, 35.3795058], [-97.5682597, 35.3795053], [-97.5682591, 35.3793894], [-97.5682564, 35.3793894], [-97.5682555, 35.3792166], [-97.5682528, 35.3792166], [-97.5682524, 35.3791445], [-97.5680942, 35.379145]]]}, "properties": {"osm_id": 1250892919, "building": "yes", "name": "", "height": null, "height_m": null, "levels": null, "tract_id": "40109107212", "tract_name": "1072.12", "tags": {"building": "yes", "source": "microsoft/BuildingFootprints"}}}, {"type": "Feature", "geometry": {"type": "Polygon", "coordinates": [[[-97.5677395, 35.3797213], [-97.5675813, 35.379721], [-97.5675803, 35.3800797], [-97.5677439, 35.38008], [-97.5677447, 35.3797957], [-97.5677393, 35.3797957], [-97.5677395, 35.3797213]]]}, "properties": {"osm_id": 1250892920, "building": "yes", "name": "", "height": null, "height_m": null, "levels": null, "tract_id": "40109107212", "tract_name": "1072.12", "tags": {"building": "yes", "source": "microsoft/BuildingFootprints"}}}, {"type": "Feature", "geometry": {"type": "Polygon", "coordinates": [[[-97.5678249, 35.3798711], [-97.5682648, 35.3798717], [-97.5682651, 35.3797435], [-97.5678252, 35.379743], [-97.5678249, 35.3798711]]]}, "properties": {"osm_id": 1250892921, "building": "yes", "name": "", "height": null, "height_m": null, "levels": null, "tract_id": "40109107212", "tract_name": "1072.12", "tags": {"building": "yes", "source": "microsoft/BuildingFootprints"}}}, {"type": "Feature", "geometry": {"type": "Polygon", "coordinates": [[[-97.5687861, 35.3797278], [-97.5687861, 35.3800864], [-97.5689471, 35.3800864], [-97.5689471, 35.3797278], [-97.5687861, 35.3797278]]]}, "properties": {"osm_id": 1250892922, "building": "yes", "name": "", "height": null, "height_m": null, "levels": null, "tract_id": "40109107212", "tract_name": "1072.12", "tags": {"building": "yes", "source": "microsoft/BuildingFootprints"}}}, {"type": "Feature", "geometry": {"type": "Polygon", "coordinates": [[[-97.5686998, 35.3797266], [-97.5685389, 35.3797293], [-97.5685479, 35.3800886], [-97.5687007, 35.3800861], [-97.5686989, 35.3800153], [-97.5687097, 35.3800151], [-97.5687044, 35.3798031], [-97.5687017, 35.3798031], [-97.5686998, 35.3797266]]]}, "properties": {"osm_id": 1250892923, "building": "yes", "name": "", "height": null, "height_m": null, "levels": null, "tract_id": "40109107212", "tract_name": "1072.12", "tags": {"building": "yes", "source": "microsoft/BuildingFootprints"}}}, {"type": "Feature", "geometry": {"type": "Polygon", "coordinates": [[[-97.5684952, 35.3795119], [-97.5684945, 35.3796431], [-97.568937, 35.3796446], [-97.5689377, 35.3795134], [-97.5684952, 35.3795119]]]}, "properties": {"osm_id": 1250892924, "building": "yes", "name": "", "height": null, "height_m": null, "levels": null, "tract_id": "40109107212", "tract_name": "1072.12", "tags": {"building": "yes", "source": "microsoft/BuildingFootprints"}}}, {"type": "Feature", "geometry": {"type": "Polygon", "coordinates": [[[-97.5688759, 35.3791808], [-97.5684824, 35.3793336], [-97.5685501, 35.3794495], [-97.5689436, 35.3792966], [-97.5688759, 35.3791808]]]}, "properties": {"osm_id": 1250892925, "building": "yes", "name": "", "height": null, "height_m": null, "levels": null, "tract_id": "40109107212", "tract_name": "1072.12", "tags": {"building": "yes", "source": "microsoft/BuildingFootprints"}}}, {"type": "Feature", "geometry": {"type": "Polygon", "coordinates": [[[-97.5690248, 35.3793022], [-97.569462, 35.3793009], [-97.5694614, 35.3791697], [-97.5690242, 35.379171], [-97.5690248, 35.3793022]]]}, "properties": {"osm_id": 1250892926, "building": "yes", "name": "", "height": null, "height_m": null, "levels": null, "tract_id": "40109107212", "tract_name": "1072.12", "tags": {"building": "yes", "source": "microsoft/BuildingFootprints"}}}, {"type": "Feature", "geometry": {"type": "Polygon", "coordinates": [[[-97.569522, 35.3791055], [-97.5695315, 35.3792976], [-97.5696226, 35.3792946], [-97.569619, 35.3792226], [-97.5697449, 35.3792184], [-97.5697431, 35.3791835], [-97.5698208, 35.3791809], [-97.5698166, 35.3790958], [-97.569522, 35.3791055]]]}, "properties": {"osm_id": 1250892927, "building": "yes", "name": "", "height": null, "height_m": null, "levels": null, "tract_id": "40109107212", "tract_name": "1072.12", "tags": {"building": "yes", "source": "microsoft/BuildingFootprints"}}}, {"type": "Feature", "geometry": {"type": "Polygon", "coordinates": [[[-97.5696601, 35.3798601], [-97.5698184, 35.3798607], [-97.5698188, 35.3797871], [-97.5698375, 35.3797872], [-97.5698377, 35.3797492], [-97.5698216, 35.3797492], [-97.5698226, 35.379572], [-97.5698199, 35.379572], [-97.5698202, 35.3795006], [-97.569662, 35.3795001], [-97.5696601, 35.3798601]]]}, "properties": {"osm_id": 1250892928, "building": "yes", "name": "", "height": null, "height_m": null, "levels": null, "tract_id": "40109107212", "tract_name": "1072.12", "tags": {"building": "yes", "source": "microsoft/BuildingFootprints"}}}, {"type": "Feature", "geometry": {"type": "Polygon", "coordinates": [[[-97.5692188, 35.3797283], [-97.5692115, 35.3800855], [-97.5693714, 35.3800876], [-97.5693787, 35.3797305], [-97.5692188, 35.3797283]]]}, "properties": {"osm_id": 1250892929, "building": "yes", "name": "", "height": null, "height_m": null, "levels": null, "tract_id": "40109107212", "tract_name": "1072.12", "tags": {"building": "yes", "source": "microsoft/BuildingFootprints"}}}, {"type": "Feature", "geometry": {"type": "Polygon", "coordinates": [[[-97.5694545, 35.3799467], [-97.569457, 35.3800932], [-97.5699004, 35.3800882], [-97.5698979, 35.3799417], [-97.5694545, 35.3799467]]]}, "properties": {"osm_id": 1250892930, "building": "yes", "name": "", "height": null, "height_m": null, "levels": null, "tract_id": "40109107212", "tract_name": "1072.12", "tags": {"building": "yes", "source": "microsoft/BuildingFootprints"}}}, {"type": "Feature", "geometry": {"type": "Polygon", "coordinates": [[[-97.5694181, 35.3780941], [-97.5694256, 35.3784548], [-97.5695838, 35.3784527], [-97.5695823, 35.3783791], [-97.5696026, 35.3783788], [-97.569601, 35.3783001], [-97.569586, 35.3783003], [-97.5695817, 35.3780919], [-97.5694181, 35.3780941]]]}, "properties": {"osm_id": 1250892931, "building": "yes", "name": "", "height": null, "height_m": null, "levels": null, "tract_id": "40109107212", "tract_name": "1072.12", "tags": {"building": "yes", "source": "microsoft/BuildingFootprints"}}}, {"type": "Feature", "geometry": {"type": "Polygon", "coordinates": [[[-97.5698243, 35.3780917], [-97.5696649, 35.3780915], [-97.569664, 35.3784523], [-97.5698233, 35.3784526], [-97.5698243, 35.3780917]]]}, "properties": {"osm_id": 1250892932, "building": "yes", "name": "", "height": null, "height_m": null, "levels": null, "tract_id": "40109107212", "tract_name": "1072.12", "tags": {"building": "yes", "source": "microsoft/BuildingFootprints"}}}, {"type": "Feature", "geometry": {"type": "Polygon", "coordinates": [[[-97.569488, 35.3787008], [-97.5695628, 35.3788226], [-97.5698931, 35.3786878], [-97.5698803, 35.3786668], [-97.569951, 35.3786379], [-97.5698892, 35.3785371], [-97.569488, 35.3787008]]]}, "properties": {"osm_id": 1250892933, "building": "yes", "name": "", "height": null, "height_m": null, "levels": null, "tract_id": "40109107212", "tract_name": "1072.12", "tags": {"building": "yes", "source": "microsoft/BuildingFootprints"}}}, {"type": "Feature", "geometry": {"type": "Polygon", "coordinates": [[[-97.569025, 35.3788919], [-97.5691189, 35.3788908], [-97.5691189, 35.3788952], [-97.5693335, 35.3788925], [-97.5693335, 35.3788947], [-97.5694649, 35.3788931], [-97.5694624, 35.3787597], [-97.5690227, 35.3787651], [-97.569025, 35.3788919]]]}, "properties": {"osm_id": 1250892934, "building": "yes", "name": "", "height": null, "height_m": null, "levels": null, "tract_id": "40109107212", "tract_name": "1072.12", "tags": {"building": "yes", "source": "microsoft/BuildingFootprints"}}}, {"type": "Feature", "geometry": {"type": "Polygon", "coordinates": [[[-97.568939, 35.3785425], [-97.5687808, 35.3785425], [-97.5687808, 35.3789011], [-97.5689363, 35.3789011], [-97.5689363, 35.378829], [-97.5689524, 35.378829], [-97.5689524, 35.3787896], [-97.568939, 35.3787896], [-97.568939, 35.3785425]]]}, "properties": {"osm_id": 1250892935, "building": "yes", "name": "", "height": null, "height_m": null, "levels": null, "tract_id": "40109107212", "tract_name": "1072.12", "tags": {"building": "yes", "source": "microsoft/BuildingFootprints"}}}, {"type": "Feature", "geometry": {"type": "Polygon", "coordinates": [[[-97.5689434, 35.3780916], [-97.5687797, 35.3780925], [-97.5687827, 35.3784511], [-97.5689409, 35.3784503], [-97.5689389, 35.3782032], [-97.5689443, 35.3782031], [-97.5689434, 35.3780916]]]}, "properties": {"osm_id": 1250892936, "building": "yes", "name": "", "height": null, "height_m": null, "levels": null, "tract_id": "40109107212", "tract_name": "1072.12", "tags": {"building": "yes", "source": "microsoft/BuildingFootprints"}}}, {"type": "Feature", "geometry": {"type": "Polygon", "coordinates": [[[-97.5691575, 35.3780089], [-97.5691562, 35.3778777], [-97.5687137, 35.3778807], [-97.568715, 35.3780119], [-97.5691575, 35.3780089]]]}, "properties": {"osm_id": 1250892937, "building": "yes", "name": "", "height": null, "height_m": null, "levels": null, "tract_id": "40109107212", "tract_name": "1072.12", "tags": {"building": "yes", "source": "microsoft/BuildingFootprints"}}}, {"type": "Feature", "geometry": {"type": "Polygon", "coordinates": [[[-97.5693952, 35.3778718], [-97.5694009, 35.3780189], [-97.5698511, 35.3780074], [-97.569846, 35.3778755], [-97.5695834, 35.3778823], [-97.5695828, 35.377867], [-97.5693952, 35.3778718]]]}, "properties": {"osm_id": 1250892938, "building": "yes", "name": "", "height": null, "height_m": null, "levels": null, "tract_id": "40109107212", "tract_name": "1072.12", "tags": {"building": "yes", "source": "microsoft/BuildingFootprints"}}}, {"type": "Feature", "geometry": {"type": "Polygon", "coordinates": [[[-97.5659948, 35.3918617], [-97.5659917, 35.3921656], [-97.5661499, 35.3921666], [-97.566153, 35.3918627], [-97.5659948, 35.3918617]]]}, "properties": {"osm_id": 1253059351, "building": "yes", "name": "", "height": null, "height_m": null, "levels": null, "tract_id": "40109107212", "tract_name": "1072.12", "tags": {"building": "yes", "source": "microsoft/BuildingFootprints"}}}, {"type": "Feature", "geometry": {"type": "Polygon", "coordinates": [[[-97.5662228, 35.392124], [-97.5665848, 35.3921193], [-97.5665804, 35.3918963], [-97.5662184, 35.391901], [-97.5662228, 35.392124]]]}, "properties": {"osm_id": 1253059352, "building": "yes", "name": "", "height": null, "height_m": null, "levels": null, "tract_id": "40109107212", "tract_name": "1072.12", "tags": {"building": "yes", "source": "microsoft/BuildingFootprints"}}}, {"type": "Feature", "geometry": {"type": "Polygon", "coordinates": [[[-97.5649611, 35.3924712], [-97.564959, 35.3926789], [-97.5651629, 35.3926803], [-97.565166, 35.3923632], [-97.5652787, 35.392364], [-97.5652792, 35.3923093], [-97.5651827, 35.3923087], [-97.565183, 35.3922715], [-97.5650382, 35.3922706], [-97.5650374, 35.3923515], [-97.5650589, 35.3923516], [-97.5650579, 35.3924478], [-97.5649587, 35.3924471], [-97.5649591, 35.392399], [-97.5649979, 35.3923993], [-97.5649983, 35.392361], [-97.5649515, 35.3923607], [-97.564952, 35.3923072], [-97.5643056, 35.3923029], [-97.564304, 35.3924669], [-97.5649611, 35.3924712]]]}, "properties": {"osm_id": 1253059353, "building": "yes", "name": "", "height": null, "height_m": null, "levels": null, "tract_id": "40109107212", "tract_name": "1072.12", "tags": {"building": "yes", "source": "microsoft/BuildingFootprints"}}}, {"type": "Feature", "geometry": {"type": "Polygon", "coordinates": [[[-97.5651654, 35.3930112], [-97.5651677, 35.3928888], [-97.5650256, 35.392887], [-97.565022, 35.3930805], [-97.5652445, 35.3930833], [-97.5652459, 35.3930122], [-97.5651654, 35.3930112]]]}, "properties": {"osm_id": 1253059354, "building": "yes", "name": "", "height": null, "height_m": null, "levels": null, "tract_id": "40109107212", "tract_name": "1072.12", "tags": {"building": "yes", "source": "microsoft/BuildingFootprints"}}}, {"type": "Feature", "geometry": {"type": "Polygon", "coordinates": [[[-97.5647224, 35.39292], [-97.5642469, 35.3928678], [-97.5642203, 35.3930289], [-97.5646893, 35.3930804], [-97.5646988, 35.3930224], [-97.5647054, 35.3930231], [-97.5647224, 35.39292]]]}, "properties": {"osm_id": 1253059355, "building": "yes", "name": "", "height": null, "height_m": null, "levels": null, "tract_id": "40109107212", "tract_name": "1072.12", "tags": {"building": "yes", "source": "microsoft/BuildingFootprints"}}}, {"type": "Feature", "geometry": {"type": "Polygon", "coordinates": [[[-97.5659589, 35.3929601], [-97.5659602, 35.3931416], [-97.5661051, 35.3931409], [-97.5661037, 35.3929594], [-97.5659589, 35.3929601]]]}, "properties": {"osm_id": 1253059356, "building": "yes", "name": "", "height": null, "height_m": null, "levels": null, "tract_id": "40109107212", "tract_name": "1072.12", "tags": {"building": "yes", "source": "microsoft/BuildingFootprints"}}}, {"type": "Feature", "geometry": {"type": "Polygon", "coordinates": [[[-97.5658887, 35.3932395], [-97.5658955, 35.392975], [-97.5658123, 35.3929736], [-97.5658056, 35.3932381], [-97.5658887, 35.3932395]]]}, "properties": {"osm_id": 1253059357, "building": "yes", "name": "", "height": null, "height_m": null, "levels": null, "tract_id": "40109107212", "tract_name": "1072.12", "tags": {"building": "yes", "source": "microsoft/BuildingFootprints"}}}, {"type": "Feature", "geometry": {"type": "Polygon", "coordinates": [[[-97.5664591, 35.3929984], [-97.5666496, 35.3930003], [-97.566651, 35.392902], [-97.5664606, 35.3929001], [-97.5664591, 35.3929984]]]}, "properties": {"osm_id": 1253059358, "building": "yes", "name": "", "height": null, "height_m": null, "levels": null, "tract_id": "40109107212", "tract_name": "1072.12", "tags": {"building": "yes", "source": "microsoft/BuildingFootprints"}}}, {"type": "Feature", "geometry": {"type": "Polygon", "coordinates": [[[-97.5649286, 35.3914297], [-97.5651003, 35.3914285], [-97.5650983, 35.3912405], [-97.5649266, 35.3912417], [-97.5649286, 35.3914297]]]}, "properties": {"osm_id": 1253059359, "building": "yes", "name": "", "height": null, "height_m": null, "levels": null, "tract_id": "40109107212", "tract_name": "1072.12", "tags": {"building": "yes", "source": "microsoft/BuildingFootprints"}}}, {"type": "Feature", "geometry": {"type": "Polygon", "coordinates": [[[-97.5650773, 35.3907314], [-97.5650731, 35.3903728], [-97.5649148, 35.3903741], [-97.564919, 35.3907326], [-97.5650773, 35.3907314]]]}, "properties": {"osm_id": 1253059360, "building": "yes", "name": "", "height": null, "height_m": null, "levels": null, "tract_id": "40109107212", "tract_name": "1072.12", "tags": {"building": "yes", "source": "microsoft/BuildingFootprints"}}}, {"type": "Feature", "geometry": {"type": "Polygon", "coordinates": [[[-97.5644594, 35.3902666], [-97.564764, 35.39027], [-97.5647653, 35.3901913], [-97.5644607, 35.3901879], [-97.5644594, 35.3902666]]]}, "properties": {"osm_id": 1253059361, "building": "yes", "name": "", "height": null, "height_m": null, "levels": null, "tract_id": "40109107212", "tract_name": "1072.12", "tags": {"building": "yes", "source": "microsoft/BuildingFootprints"}}}, {"type": "Feature", "geometry": {"type": "Polygon", "coordinates": [[[-97.5646672, 35.390292], [-97.5646598, 35.3906188], [-97.564759, 35.3906203], [-97.5647664, 35.3902935], [-97.5646672, 35.390292]]]}, "properties": {"osm_id": 1253059362, "building": "yes", "name": "", "height": null, "height_m": null, "levels": null, "tract_id": "40109107212", "tract_name": "1072.12", "tags": {"building": "yes", "source": "microsoft/BuildingFootprints"}}}, {"type": "Feature", "geometry": {"type": "Polygon", "coordinates": [[[-97.5647589, 35.3909196], [-97.5647626, 35.3906682], [-97.564665, 35.3906672], [-97.5646612, 35.3909187], [-97.5647589, 35.3909196]]]}, "properties": {"osm_id": 1253059363, "building": "yes", "name": "", "height": null, "height_m": null, "levels": null, "tract_id": "40109107212", "tract_name": "1072.12", "tags": {"building": "yes", "source": "microsoft/BuildingFootprints"}}}, {"type": "Feature", "geometry": {"type": "Polygon", "coordinates": [[[-97.564399, 35.3910574], [-97.5648468, 35.3910528], [-97.5648456, 35.3909719], [-97.5643977, 35.3909765], [-97.564399, 35.3910574]]]}, "properties": {"osm_id": 1253059364, "building": "yes", "name": "", "height": null, "height_m": null, "levels": null, "tract_id": "40109107212", "tract_name": "1072.12", "tags": {"building": "yes", "source": "microsoft/BuildingFootprints"}}}, {"type": "Feature", "geometry": {"type": "Polygon", "coordinates": [[[-97.5638099, 35.3910541], [-97.564349, 35.3910581], [-97.5643499, 35.3909772], [-97.5638108, 35.3909732], [-97.5638099, 35.3910541]]]}, "properties": {"osm_id": 1253059365, "building": "yes", "name": "", "height": null, "height_m": null, "levels": null, "tract_id": "40109107212", "tract_name": "1072.12", "tags": {"building": "yes", "source": "microsoft/BuildingFootprints"}}}, {"type": "Feature", "geometry": {"type": "Polygon", "coordinates": [[[-97.5637356, 35.3910579], [-97.5637365, 35.390977], [-97.563294, 35.3909736], [-97.5632931, 35.3910545], [-97.5637356, 35.3910579]]]}, "properties": {"osm_id": 1253059366, "building": "yes", "name": "", "height": null, "height_m": null, "levels": null, "tract_id": "40109107212", "tract_name": "1072.12", "tags": {"building": "yes", "source": "microsoft/BuildingFootprints"}}}, {"type": "Feature", "geometry": {"type": "Polygon", "coordinates": [[[-97.5634869, 35.3906642], [-97.563411, 35.3906676], [-97.5634094, 35.3906436], [-97.5633035, 35.3906484], [-97.5633071, 35.3907029], [-97.5632831, 35.3907039], [-97.5632886, 35.3907868], [-97.5634277, 35.3907806], [-97.5634293, 35.3908045], [-97.5634962, 35.3908016], [-97.5634869, 35.3906642]]]}, "properties": {"osm_id": 1253059367, "building": "yes", "name": "", "height": null, "height_m": null, "levels": null, "tract_id": "40109107212", "tract_name": "1072.12", "tags": {"building": "yes", "source": "microsoft/BuildingFootprints"}}}, {"type": "Feature", "geometry": {"type": "Polygon", "coordinates": [[[-97.5638948, 35.3907997], [-97.5638982, 35.3905505], [-97.563806, 35.3905496], [-97.5638025, 35.3907989], [-97.5638948, 35.3907997]]]}, "properties": {"osm_id": 1253059368, "building": "yes", "name": "", "height": null, "height_m": null, "levels": null, "tract_id": "40109107212", "tract_name": "1072.12", "tags": {"building": "yes", "source": "microsoft/BuildingFootprints"}}}, {"type": "Feature", "geometry": {"type": "Polygon", "coordinates": [[[-97.5638082, 35.3905297], [-97.5639021, 35.3905288], [-97.5638985, 35.3902872], [-97.5638047, 35.3902881], [-97.5638082, 35.3905297]]]}, "properties": {"osm_id": 1253059369, "building": "yes", "name": "", "height": null, "height_m": null, "levels": null, "tract_id": "40109107212", "tract_name": "1072.12", "tags": {"building": "yes", "source": "microsoft/BuildingFootprints"}}}, {"type": "Feature", "geometry": {"type": "Polygon", "coordinates": [[[-97.5638068, 35.3902648], [-97.5640937, 35.3902669], [-97.5640946, 35.3901882], [-97.5638076, 35.3901861], [-97.5638068, 35.3902648]]]}, "properties": {"osm_id": 1253059370, "building": "yes", "name": "", "height": null, "height_m": null, "levels": null, "tract_id": "40109107212", "tract_name": "1072.12", "tags": {"building": "yes", "source": "microsoft/BuildingFootprints"}}}, {"type": "Feature", "geometry": {"type": "Polygon", "coordinates": [[[-97.5641245, 35.3901862], [-97.5641235, 35.3902638], [-97.5644319, 35.3902664], [-97.5644329, 35.3901888], [-97.5641245, 35.3901862]]]}, "properties": {"osm_id": 1253059371, "building": "yes", "name": "", "height": null, "height_m": null, "levels": null, "tract_id": "40109107212", "tract_name": "1072.12", "tags": {"building": "yes", "source": "microsoft/BuildingFootprints"}}}, {"type": "Feature", "geometry": {"type": "Polygon", "coordinates": [[[-97.5644685, 35.3905541], [-97.5644701, 35.3904754], [-97.5640759, 35.39047], [-97.5640743, 35.3905487], [-97.5644685, 35.3905541]]]}, "properties": {"osm_id": 1253059372, "building": "yes", "name": "", "height": null, "height_m": null, "levels": null, "tract_id": "40109107212", "tract_name": "1072.12", "tags": {"building": "yes", "source": "microsoft/BuildingFootprints"}}}, {"type": "Feature", "geometry": {"type": "Polygon", "coordinates": [[[-97.5641143, 35.3908262], [-97.5642135, 35.3908246], [-97.5642077, 35.3905863], [-97.5641085, 35.3905879], [-97.5641143, 35.3908262]]]}, "properties": {"osm_id": 1253059373, "building": "yes", "name": "", "height": null, "height_m": null, "levels": null, "tract_id": "40109107212", "tract_name": "1072.12", "tags": {"building": "yes", "source": "microsoft/BuildingFootprints"}}}, {"type": "Feature", "geometry": {"type": "Polygon", "coordinates": [[[-97.5643012, 35.3908245], [-97.564395, 35.3908236], [-97.5643914, 35.3905722], [-97.5642975, 35.3905731], [-97.5643012, 35.3908245]]]}, "properties": {"osm_id": 1253059374, "building": "yes", "name": "", "height": null, "height_m": null, "levels": null, "tract_id": "40109107212", "tract_name": "1072.12", "tags": {"building": "yes", "source": "microsoft/BuildingFootprints"}}}, {"type": "Feature", "geometry": {"type": "Polygon", "coordinates": [[[-97.562929, 35.390669], [-97.5628861, 35.3906814], [-97.5628658, 35.3906348], [-97.5627753, 35.3906611], [-97.5628227, 35.3907698], [-97.5629561, 35.3907311], [-97.562929, 35.390669]]]}, "properties": {"osm_id": 1253059375, "building": "yes", "name": "", "height": null, "height_m": null, "levels": null, "tract_id": "40109107212", "tract_name": "1072.12", "tags": {"building": "yes", "source": "microsoft/BuildingFootprints"}}}, {"type": "Feature", "geometry": {"type": "Polygon", "coordinates": [[[-97.5627598, 35.3909519], [-97.5627493, 35.3914362], [-97.5628351, 35.3914374], [-97.5628456, 35.3909531], [-97.5627598, 35.3909519]]]}, "properties": {"osm_id": 1253059376, "building": "yes", "name": "", "height": null, "height_m": null, "levels": null, "tract_id": "40109107212", "tract_name": "1072.12", "tags": {"building": "yes", "source": "microsoft/BuildingFootprints"}}}, {"type": "Feature", "geometry": {"type": "Polygon", "coordinates": [[[-97.5625387, 35.3909556], [-97.5625439, 35.3913951], [-97.5626297, 35.3913944], [-97.5626246, 35.3909549], [-97.5625387, 35.3909556]]]}, "properties": {"osm_id": 1253059377, "building": "yes", "name": "", "height": null, "height_m": null, "levels": null, "tract_id": "40109107212", "tract_name": "1072.12", "tags": {"building": "yes", "source": "microsoft/BuildingFootprints"}}}, {"type": "Feature", "geometry": {"type": "Polygon", "coordinates": [[[-97.5624187, 35.3908779], [-97.5621827, 35.3908813], [-97.5621949, 35.3914399], [-97.5623036, 35.3914383], [-97.5622992, 35.3912329], [-97.5623271, 35.3912325], [-97.5623316, 35.3914379], [-97.5624308, 35.3914365], [-97.5624187, 35.3908779]]]}, "properties": {"osm_id": 1253059378, "building": "yes", "name": "", "height": null, "height_m": null, "levels": null, "tract_id": "40109107212", "tract_name": "1072.12", "tags": {"building": "yes", "source": "microsoft/BuildingFootprints"}}}, {"type": "Feature", "geometry": {"type": "Polygon", "coordinates": [[[-97.5618927, 35.3914403], [-97.5619823, 35.3914401], [-97.5619801, 35.3908813], [-97.5618905, 35.3908816], [-97.5618927, 35.3914403]]]}, "properties": {"osm_id": 1253059379, "building": "yes", "name": "", "height": null, "height_m": null, "levels": null, "tract_id": "40109107212", "tract_name": "1072.12", "tags": {"building": "yes", "source": "microsoft/BuildingFootprints"}}}, {"type": "Feature", "geometry": {"type": "Polygon", "coordinates": [[[-97.5617296, 35.3914408], [-97.5618154, 35.3914413], [-97.5618201, 35.3908838], [-97.5617343, 35.3908833], [-97.5617296, 35.3914408]]]}, "properties": {"osm_id": 1253059380, "building": "yes", "name": "", "height": null, "height_m": null, "levels": null, "tract_id": "40109107212", "tract_name": "1072.12", "tags": {"building": "yes", "source": "microsoft/BuildingFootprints"}}}, {"type": "Feature", "geometry": {"type": "Polygon", "coordinates": [[[-97.5614548, 35.3914412], [-97.5615391, 35.391442], [-97.5615468, 35.3908823], [-97.5614625, 35.3908815], [-97.5614548, 35.3914412]]]}, "properties": {"osm_id": 1253059381, "building": "yes", "name": "", "height": null, "height_m": null, "levels": null, "tract_id": "40109107212", "tract_name": "1072.12", "tags": {"building": "yes", "source": "microsoft/BuildingFootprints"}}}, {"type": "Feature", "geometry": {"type": "Polygon", "coordinates": [[[-97.5613917, 35.390971], [-97.560842, 35.3909637], [-97.5608395, 35.3910883], [-97.5613892, 35.3910956], [-97.5613917, 35.390971]]]}, "properties": {"osm_id": 1253059382, "building": "yes", "name": "", "height": null, "height_m": null, "levels": null, "tract_id": "40109107212", "tract_name": "1072.12", "tags": {"building": "yes", "source": "microsoft/BuildingFootprints"}}}, {"type": "Feature", "geometry": {"type": "Polygon", "coordinates": [[[-97.5608457, 35.3912628], [-97.5608426, 35.3913895], [-97.5613911, 35.3913984], [-97.5613942, 35.3912717], [-97.5608457, 35.3912628]]]}, "properties": {"osm_id": 1253059383, "building": "yes", "name": "", "height": null, "height_m": null, "levels": null, "tract_id": "40109107212", "tract_name": "1072.12", "tags": {"building": "yes", "source": "microsoft/BuildingFootprints"}}}, {"type": "Feature", "geometry": {"type": "Polygon", "coordinates": [[[-97.5597319, 35.3919086], [-97.5594143, 35.3919043], [-97.5594123, 35.3920004], [-97.5597299, 35.3920048], [-97.5597319, 35.3919086]]]}, "properties": {"osm_id": 1253059384, "building": "yes", "name": "", "height": null, "height_m": null, "levels": null, "tract_id": "40109107212", "tract_name": "1072.12", "tags": {"building": "yes", "source": "microsoft/BuildingFootprints"}}}, {"type": "Feature", "geometry": {"type": "Polygon", "coordinates": [[[-97.559428, 35.3921104], [-97.55945, 35.3922031], [-97.559795, 35.3921487], [-97.559773, 35.392056], [-97.559428, 35.3921104]]]}, "properties": {"osm_id": 1253059385, "building": "yes", "name": "", "height": null, "height_m": null, "levels": null, "tract_id": "40109107212", "tract_name": "1072.12", "tags": {"building": "yes", "source": "microsoft/BuildingFootprints"}}}, {"type": "Feature", "geometry": {"type": "Polygon", "coordinates": [[[-97.5598189, 35.3920714], [-97.5601353, 35.3920746], [-97.5601378, 35.3919106], [-97.5598213, 35.3919074], [-97.5598189, 35.3920714]]]}, "properties": {"osm_id": 1253059386, "building": "yes", "name": "", "height": null, "height_m": null, "levels": null, "tract_id": "40109107212", "tract_name": "1072.12", "tags": {"building": "yes", "source": "microsoft/BuildingFootprints"}}}, {"type": "Feature", "geometry": {"type": "Polygon", "coordinates": [[[-97.559803, 35.3921792], [-97.559826, 35.3922725], [-97.5601688, 35.3922162], [-97.5601458, 35.3921229], [-97.559803, 35.3921792]]]}, "properties": {"osm_id": 1253059387, "building": "yes", "name": "", "height": null, "height_m": null, "levels": null, "tract_id": "40109107212", "tract_name": "1072.12", "tags": {"building": "yes", "source": "microsoft/BuildingFootprints"}}}, {"type": "Feature", "geometry": {"type": "Polygon", "coordinates": [[[-97.5601866, 35.3920717], [-97.5605084, 35.3920681], [-97.5605057, 35.3919055], [-97.5601839, 35.3919091], [-97.5601866, 35.3920717]]]}, "properties": {"osm_id": 1253059388, "building": "yes", "name": "", "height": null, "height_m": null, "levels": null, "tract_id": "40109107212", "tract_name": "1072.12", "tags": {"building": "yes", "source": "microsoft/BuildingFootprints"}}}, {"type": "Feature", "geometry": {"type": "Polygon", "coordinates": [[[-97.5601439, 35.3922632], [-97.5601912, 35.392354], [-97.5606071, 35.3922101], [-97.5605598, 35.3921193], [-97.5601439, 35.3922632]]]}, "properties": {"osm_id": 1253059389, "building": "yes", "name": "", "height": null, "height_m": null, "levels": null, "tract_id": "40109107212", "tract_name": "1072.12", "tags": {"building": "yes", "source": "microsoft/BuildingFootprints"}}}, {"type": "Feature", "geometry": {"type": "Polygon", "coordinates": [[[-97.5605661, 35.392053], [-97.5606172, 35.392143], [-97.5610147, 35.3919928], [-97.5609635, 35.3919028], [-97.5605661, 35.392053]]]}, "properties": {"osm_id": 1253059390, "building": "yes", "name": "", "height": null, "height_m": null, "levels": null, "tract_id": "40109107212", "tract_name": "1072.12", "tags": {"building": "yes", "source": "microsoft/BuildingFootprints"}}}, {"type": "Feature", "geometry": {"type": "Polygon", "coordinates": [[[-97.5604211, 35.392319], [-97.5604687, 35.3924095], [-97.5608767, 35.3922671], [-97.5608292, 35.3921766], [-97.5604211, 35.392319]]]}, "properties": {"osm_id": 1253059391, "building": "yes", "name": "", "height": null, "height_m": null, "levels": null, "tract_id": "40109107212", "tract_name": "1072.12", "tags": {"building": "yes", "source": "microsoft/BuildingFootprints"}}}, {"type": "Feature", "geometry": {"type": "Polygon", "coordinates": [[[-97.5609596, 35.3920477], [-97.5610068, 35.3921401], [-97.5614137, 35.392002], [-97.5613665, 35.3919096], [-97.5609596, 35.3920477]]]}, "properties": {"osm_id": 1253059392, "building": "yes", "name": "", "height": null, "height_m": null, "levels": null, "tract_id": "40109107212", "tract_name": "1072.12", "tags": {"building": "yes", "source": "microsoft/BuildingFootprints"}}}, {"type": "Feature", "geometry": {"type": "Polygon", "coordinates": [[[-97.5606872, 35.3923793], [-97.5607352, 35.3924694], [-97.5611437, 35.3923249], [-97.5610957, 35.3922347], [-97.5606872, 35.3923793]]]}, "properties": {"osm_id": 1253059393, "building": "yes", "name": "", "height": null, "height_m": null, "levels": null, "tract_id": "40109107212", "tract_name": "1072.12", "tags": {"building": "yes", "source": "microsoft/BuildingFootprints"}}}, {"type": "Feature", "geometry": {"type": "Polygon", "coordinates": [[[-97.5613473, 35.3924254], [-97.5613109, 35.3923395], [-97.5609825, 35.3924318], [-97.5610189, 35.3925178], [-97.5613473, 35.3924254]]]}, "properties": {"osm_id": 1253059394, "building": "yes", "name": "", "height": null, "height_m": null, "levels": null, "tract_id": "40109107212", "tract_name": "1072.12", "tags": {"building": "yes", "source": "microsoft/BuildingFootprints"}}}, {"type": "Feature", "geometry": {"type": "Polygon", "coordinates": [[[-97.5614411, 35.3920245], [-97.5614907, 35.3921117], [-97.5618185, 35.3919879], [-97.561769, 35.3919007], [-97.5614411, 35.3920245]]]}, "properties": {"osm_id": 1253059395, "building": "yes", "name": "", "height": null, "height_m": null, "levels": null, "tract_id": "40109107212", "tract_name": "1072.12", "tags": {"building": "yes", "source": "microsoft/BuildingFootprints"}}}, {"type": "Feature", "geometry": {"type": "Polygon", "coordinates": [[[-97.5612096, 35.3921319], [-97.5611835, 35.3922068], [-97.5613548, 35.3922464], [-97.5613809, 35.3921716], [-97.5612096, 35.3921319]]]}, "properties": {"osm_id": 1253059396, "building": "yes", "name": "", "height": null, "height_m": null, "levels": null, "tract_id": "40109107212", "tract_name": "1072.12", "tags": {"building": "yes", "source": "microsoft/BuildingFootprints"}}}, {"type": "Feature", "geometry": {"type": "Polygon", "coordinates": [[[-97.5616722, 35.3922009], [-97.5615758, 35.3921847], [-97.5615457, 35.3923043], [-97.5616421, 35.3923205], [-97.5616722, 35.3922009]]]}, "properties": {"osm_id": 1253059397, "building": "yes", "name": "", "height": null, "height_m": null, "levels": null, "tract_id": "40109107212", "tract_name": "1072.12", "tags": {"building": "yes", "source": "microsoft/BuildingFootprints"}}}, {"type": "Feature", "geometry": {"type": "Polygon", "coordinates": [[[-97.5617868, 35.3923201], [-97.5617635, 35.3926821], [-97.5618946, 35.3926877], [-97.5619118, 35.3924207], [-97.5619278, 35.3924214], [-97.5619339, 35.3923264], [-97.5617868, 35.3923201]]]}, "properties": {"osm_id": 1253059398, "building": "yes", "name": "", "height": null, "height_m": null, "levels": null, "tract_id": "40109107212", "tract_name": "1072.12", "tags": {"building": "yes", "source": "microsoft/BuildingFootprints"}}}, {"type": "Feature", "geometry": {"type": "Polygon", "coordinates": [[[-97.5622336, 35.3918292], [-97.5619651, 35.3921304], [-97.5620634, 35.3921886], [-97.5623319, 35.3918874], [-97.5622336, 35.3918292]]]}, "properties": {"osm_id": 1253059399, "building": "yes", "name": "", "height": null, "height_m": null, "levels": null, "tract_id": "40109107212", "tract_name": "1072.12", "tags": {"building": "yes", "source": "microsoft/BuildingFootprints"}}}, {"type": "Feature", "geometry": {"type": "Polygon", "coordinates": [[[-97.5627139, 35.3920648], [-97.5626178, 35.3920046], [-97.5623495, 35.3922892], [-97.5624457, 35.3923494], [-97.5627139, 35.3920648]]]}, "properties": {"osm_id": 1253059400, "building": "yes", "name": "", "height": null, "height_m": null, "levels": null, "tract_id": "40109107212", "tract_name": "1072.12", "tags": {"building": "yes", "source": "microsoft/BuildingFootprints"}}}, {"type": "Feature", "geometry": {"type": "Polygon", "coordinates": [[[-97.5622181, 35.3923854], [-97.5621959, 35.3927387], [-97.5623256, 35.3927441], [-97.5623477, 35.3923908], [-97.5622181, 35.3923854]]]}, "properties": {"osm_id": 1253059550, "building": "yes", "name": "", "height": null, "height_m": null, "levels": null, "tract_id": "40109107212", "tract_name": "1072.12", "tags": {"building": "yes", "source": "microsoft/BuildingFootprints"}}}, {"type": "Feature", "geometry": {"type": "Polygon", "coordinates": [[[-97.5627902, 35.3926777], [-97.5624015, 35.392685], [-97.5624044, 35.3927877], [-97.5627931, 35.3927804], [-97.5627902, 35.3926777]]]}, "properties": {"osm_id": 1253059551, "building": "yes", "name": "", "height": null, "height_m": null, "levels": null, "tract_id": "40109107212", "tract_name": "1072.12", "tags": {"building": "yes", "source": "microsoft/BuildingFootprints"}}}, {"type": "Feature", "geometry": {"type": "Polygon", "coordinates": [[[-97.5628404, 35.3920609], [-97.5625831, 35.3923488], [-97.5626856, 35.3924096], [-97.5629428, 35.3921217], [-97.5628404, 35.3920609]]]}, "properties": {"osm_id": 1253059552, "building": "yes", "name": "", "height": null, "height_m": null, "levels": null, "tract_id": "40109107212", "tract_name": "1072.12", "tags": {"building": "yes", "source": "microsoft/BuildingFootprints"}}}, {"type": "Feature", "geometry": {"type": "Polygon", "coordinates": [[[-97.5631356, 35.3920168], [-97.5631355, 35.3918999], [-97.563035, 35.3918999], [-97.563035, 35.3919119], [-97.5627158, 35.3919122], [-97.562716, 35.3920171], [-97.5631356, 35.3920168]]]}, "properties": {"osm_id": 1253059553, "building": "yes", "name": "", "height": null, "height_m": null, "levels": null, "tract_id": "40109107212", "tract_name": "1072.12", "tags": {"building": "yes", "source": "microsoft/BuildingFootprints"}}}, {"type": "Feature", "geometry": {"type": "Polygon", "coordinates": [[[-97.5636584, 35.3919018], [-97.5633392, 35.3918989], [-97.563337, 35.3920629], [-97.5636561, 35.3920658], [-97.5636584, 35.3919018]]]}, "properties": {"osm_id": 1253059554, "building": "yes", "name": "", "height": null, "height_m": null, "levels": null, "tract_id": "40109107212", "tract_name": "1072.12", "tags": {"building": "yes", "source": "microsoft/BuildingFootprints"}}}, {"type": "Feature", "geometry": {"type": "Polygon", "coordinates": [[[-97.5630526, 35.3923845], [-97.5631499, 35.3924445], [-97.5634164, 35.3921571], [-97.5633191, 35.3920972], [-97.5630526, 35.3923845]]]}, "properties": {"osm_id": 1253059555, "building": "yes", "name": "", "height": null, "height_m": null, "levels": null, "tract_id": "40109107212", "tract_name": "1072.12", "tags": {"building": "yes", "source": "microsoft/BuildingFootprints"}}}, {"type": "Feature", "geometry": {"type": "Polygon", "coordinates": [[[-97.5634517, 35.3921479], [-97.5634507, 35.3928847], [-97.5636076, 35.3928849], [-97.5636077, 35.3928116], [-97.5635862, 35.3928116], [-97.5635869, 35.3922201], [-97.5636057, 35.3922201], [-97.5636058, 35.392148], [-97.5634517, 35.3921479]]]}, "properties": {"osm_id": 1253059556, "building": "yes", "name": "", "height": null, "height_m": null, "levels": null, "tract_id": "40109107212", "tract_name": "1072.12", "tags": {"building": "yes", "source": "microsoft/BuildingFootprints"}}}, {"type": "Feature", "geometry": {"type": "Polygon", "coordinates": [[[-97.5633979, 35.3925141], [-97.5632531, 35.3925133], [-97.5632503, 35.3928457], [-97.5633737, 35.3928464], [-97.5633742, 35.3927808], [-97.5633957, 35.3927809], [-97.5633979, 35.3925141]]]}, "properties": {"osm_id": 1253059557, "building": "yes", "name": "", "height": null, "height_m": null, "levels": null, "tract_id": "40109107212", "tract_name": "1072.12", "tags": {"building": "yes", "source": "microsoft/BuildingFootprints"}}}, {"type": "Feature", "geometry": {"type": "Polygon", "coordinates": [[[-97.562991, 35.3928097], [-97.5629869, 35.3925015], [-97.5628501, 35.3925027], [-97.5628542, 35.3928109], [-97.562991, 35.3928097]]]}, "properties": {"osm_id": 1253059558, "building": "yes", "name": "", "height": null, "height_m": null, "levels": null, "tract_id": "40109107212", "tract_name": "1072.12", "tags": {"building": "yes", "source": "microsoft/BuildingFootprints"}}}, {"type": "Feature", "geometry": {"type": "Polygon", "coordinates": [[[-97.5628055, 35.3924367], [-97.562615, 35.392436], [-97.5626146, 35.3925147], [-97.562805, 35.3925154], [-97.5628055, 35.3924367]]]}, "properties": {"osm_id": 1253059559, "building": "yes", "name": "", "height": null, "height_m": null, "levels": null, "tract_id": "40109107212", "tract_name": "1072.12", "tags": {"building": "yes", "source": "microsoft/BuildingFootprints"}}}, {"type": "Feature", "geometry": {"type": "Polygon", "coordinates": [[[-97.5638993, 35.392509], [-97.5638805, 35.392509], [-97.5638804, 35.3925789], [-97.5640265, 35.3925791], [-97.5640275, 35.3918422], [-97.5638815, 35.3918421], [-97.5638814, 35.3919109], [-97.5639002, 35.391911], [-97.5638993, 35.392509]]]}, "properties": {"osm_id": 1253059560, "building": "yes", "name": "", "height": null, "height_m": null, "levels": null, "tract_id": "40109107212", "tract_name": "1072.12", "tags": {"building": "yes", "source": "microsoft/BuildingFootprints"}}}, {"type": "Feature", "geometry": {"type": "Polygon", "coordinates": [[[-97.5640348, 35.3926567], [-97.5638887, 35.3926565], [-97.5638881, 35.3929911], [-97.5640114, 35.3929912], [-97.5640116, 35.3929278], [-97.5640343, 35.3929278], [-97.5640348, 35.3926567]]]}, "properties": {"osm_id": 1253059561, "building": "yes", "name": "", "height": null, "height_m": null, "levels": null, "tract_id": "40109107212", "tract_name": "1072.12", "tags": {"building": "yes", "source": "microsoft/BuildingFootprints"}}}, {"type": "Feature", "geometry": {"type": "Polygon", "coordinates": [[[-97.5592644, 35.3914422], [-97.5594066, 35.3914429], [-97.559407, 35.3913751], [-97.5594473, 35.3913753], [-97.5594492, 35.3911042], [-97.5592121, 35.3911031], [-97.5592101, 35.3913786], [-97.5592649, 35.3913788], [-97.5592644, 35.3914422]]]}, "properties": {"osm_id": 1253059562, "building": "yes", "name": "", "height": null, "height_m": null, "levels": null, "tract_id": "40109107212", "tract_name": "1072.12", "tags": {"building": "yes", "source": "microsoft/BuildingFootprints"}}}, {"type": "Feature", "geometry": {"type": "Polygon", "coordinates": [[[-97.5581407, 35.3919447], [-97.5585939, 35.3919402], [-97.5585915, 35.3917792], [-97.5581382, 35.3917837], [-97.5581407, 35.3919447]]]}, "properties": {"osm_id": 1253059563, "building": "yes", "name": "", "height": null, "height_m": null, "levels": null, "tract_id": "40109107212", "tract_name": "1072.12", "tags": {"building": "yes", "source": "microsoft/BuildingFootprints"}}}, {"type": "Feature", "geometry": {"type": "Polygon", "coordinates": [[[-97.5583242, 35.3911438], [-97.5583313, 35.3914768], [-97.5585255, 35.3914741], [-97.5585226, 35.3913356], [-97.5585831, 35.3913347], [-97.558582, 35.3912866], [-97.5585311, 35.3912873], [-97.558528, 35.3911409], [-97.5583242, 35.3911438]]]}, "properties": {"osm_id": 1253059564, "building": "yes", "name": "", "height": null, "height_m": null, "levels": null, "tract_id": "40109107212", "tract_name": "1072.12", "tags": {"building": "yes", "source": "microsoft/BuildingFootprints"}}}, {"type": "Feature", "geometry": {"type": "Polygon", "coordinates": [[[-97.5577868, 35.3914778], [-97.5577878, 35.3914201], [-97.5578142, 35.3914205], [-97.5578143, 35.3914146], [-97.557869, 35.3914153], [-97.5578692, 35.3914037], [-97.5578525, 35.3914035], [-97.5578536, 35.3913371], [-97.5579873, 35.3913387], [-97.557986, 35.3914134], [-97.5580215, 35.3914138], [-97.5580203, 35.3914781], [-97.5580127, 35.391478], [-97.5580117, 35.3915331], [-97.5579211, 35.3915321], [-97.557922, 35.3914794], [-97.5577868, 35.3914778]]]}, "properties": {"osm_id": 1420784192, "building": "house", "name": "", "height": null, "height_m": null, "levels": null, "tract_id": "40109107212", "tract_name": "1072.12", "tags": {"building": "house", "source": "esri/Oklahoma_City_OK_Buildings"}}}, {"type": "Feature", "geometry": {"type": "Polygon", "coordinates": [[[-97.5574794, 35.3914738], [-97.5574794, 35.3914696], [-97.5574102, 35.3914698], [-97.5574099, 35.3914199], [-97.5574296, 35.3914198], [-97.5574296, 35.3914082], [-97.5574142, 35.3914083], [-97.5574138, 35.3913306], [-97.5575739, 35.39133], [-97.557574, 35.3913618], [-97.5576272, 35.3913616], [-97.5576275, 35.3914146], [-97.5576249, 35.3914146], [-97.5576253, 35.3914731], [-97.5574794, 35.3914738]]]}, "properties": {"osm_id": 1420784193, "building": "house", "name": "", "height": null, "height_m": null, "levels": null, "tract_id": "40109107212", "tract_name": "1072.12", "tags": {"building": "house"}}}, {"type": "Feature", "geometry": {"type": "Polygon", "coordinates": [[[-97.5574156, 35.3913116], [-97.5574155, 35.3913066], [-97.5573202, 35.3913078], [-97.5573193, 35.3912542], [-97.557414, 35.3912531], [-97.5574138, 35.3912436], [-97.5574168, 35.3912436], [-97.5574163, 35.3912172], [-97.5574375, 35.391217], [-97.5574373, 35.3912036], [-97.5574071, 35.391204], [-97.5574065, 35.3911713], [-97.5575443, 35.3911696], [-97.5575469, 35.39131], [-97.5574156, 35.3913116]]]}, "properties": {"osm_id": 1420784194, "building": "house", "name": "", "height": null, "height_m": null, "levels": null, "tract_id": "40109107212", "tract_name": "1072.12", "tags": {"building": "house", "source": "esri/Oklahoma_City_OK_Buildings"}}}, {"type": "Feature", "geometry": {"type": "Polygon", "coordinates": [[[-97.557873, 35.3911629], [-97.5580234, 35.3911635], [-97.558023, 35.3912444], [-97.5579631, 35.3912442], [-97.5579628, 35.3913133], [-97.5578722, 35.391313], [-97.557873, 35.3911629]]]}, "properties": {"osm_id": 1420784195, "building": "house", "name": "", "height": null, "height_m": null, "levels": null, "tract_id": "40109107212", "tract_name": "1072.12", "tags": {"building": "house", "source": "esri/Oklahoma_City_OK_Buildings"}}}, {"type": "Feature", "geometry": {"type": "Polygon", "coordinates": [[[-97.5578467, 35.391147], [-97.5578468, 35.3909995], [-97.5579388, 35.3909995], [-97.5579387, 35.3910737], [-97.5580145, 35.3910737], [-97.5580148, 35.3911471], [-97.5578467, 35.391147]]]}, "properties": {"osm_id": 1420784196, "building": "house", "name": "", "height": null, "height_m": null, "levels": null, "tract_id": "40109107212", "tract_name": "1072.12", "tags": {"building": "house", "source": "esri/Oklahoma_City_OK_Buildings"}}}, {"type": "Feature", "geometry": {"type": "Polygon", "coordinates": [[[-97.5574779, 35.3911538], [-97.5574763, 35.3910818], [-97.5574136, 35.3910829], [-97.5574117, 35.391001], [-97.5576291, 35.3909977], [-97.5576313, 35.3910843], [-97.5576102, 35.3910845], [-97.557611, 35.3911114], [-97.5575701, 35.3911118], [-97.5575709, 35.3911525], [-97.5574779, 35.3911538]]]}, "properties": {"osm_id": 1420784197, "building": "house", "name": "", "height": null, "height_m": null, "levels": null, "tract_id": "40109107212", "tract_name": "1072.12", "tags": {"building": "house", "source": "esri/Oklahoma_City_OK_Buildings"}}}, {"type": "Feature", "geometry": {"type": "Polygon", "coordinates": [[[-97.5578494, 35.3909841], [-97.5578492, 35.3909566], [-97.5578117, 35.3909568], [-97.5578113, 35.3909057], [-97.5578502, 35.3909055], [-97.5578496, 35.3908369], [-97.5579878, 35.3908363], [-97.5579884, 35.3909157], [-97.5580139, 35.3909155], [-97.5580145, 35.3909836], [-97.5578494, 35.3909841]]]}, "properties": {"osm_id": 1420784198, "building": "house", "name": "", "height": null, "height_m": null, "levels": null, "tract_id": "40109107212", "tract_name": "1072.12", "tags": {"building": "house", "source": "esri/Oklahoma_City_OK_Buildings"}}}, {"type": "Feature", "geometry": {"type": "Polygon", "coordinates": [[[-97.5574344, 35.390904], [-97.5574348, 35.3908416], [-97.5575785, 35.3908421], [-97.5575783, 35.3908786], [-97.5575514, 35.3908785], [-97.5575513, 35.3909009], [-97.5576236, 35.3909011], [-97.5576232, 35.3909792], [-97.557551, 35.390979], [-97.557551, 35.3909832], [-97.5574073, 35.3909827], [-97.5574077, 35.3909039], [-97.5574344, 35.390904]]]}, "properties": {"osm_id": 1420784199, "building": "house", "name": "", "height": null, "height_m": null, "levels": null, "tract_id": "40109107212", "tract_name": "1072.12", "tags": {"building": "house", "source": "esri/Oklahoma_City_OK_Buildings"}}}, {"type": "Feature", "geometry": {"type": "Polygon", "coordinates": [[[-97.5576358, 35.3908786], [-97.5577012, 35.3908786], [-97.5577012, 35.3909514], [-97.5576358, 35.3909514], [-97.5576358, 35.3908786]]]}, "properties": {"osm_id": 1420784200, "building": "yes", "name": "", "height": null, "height_m": null, "levels": null, "tract_id": "40109107212", "tract_name": "1072.12", "tags": {"building": "yes", "source": "esri/Oklahoma_City_OK_Buildings"}}}, {"type": "Feature", "geometry": {"type": "Polygon", "coordinates": [[[-97.5575859, 35.3908495], [-97.55763, 35.3908489], [-97.5576305, 35.3908759], [-97.5575864, 35.3908764], [-97.5575859, 35.3908495]]]}, "properties": {"osm_id": 1420784201, "building": "yes", "name": "", "height": null, "height_m": null, "levels": null, "tract_id": "40109107212", "tract_name": "1072.12", "tags": {"building": "yes", "source": "esri/Oklahoma_City_OK_Buildings"}}}, {"type": "Feature", "geometry": {"type": "Polygon", "coordinates": [[[-97.5577246, 35.3909094], [-97.557725, 35.3908859], [-97.5577631, 35.3908863], [-97.5577627, 35.3909098], [-97.5577246, 35.3909094]]]}, "properties": {"osm_id": 1420784202, "building": "yes", "name": "", "height": null, "height_m": null, "levels": null, "tract_id": "40109107212", "tract_name": "1072.12", "tags": {"building": "yes", "source": "esri/Oklahoma_City_OK_Buildings"}}}, {"type": "Feature", "geometry": {"type": "Polygon", "coordinates": [[[-97.5576728, 35.3914893], [-97.557701, 35.3914869], [-97.5577068, 35.3915339], [-97.5576787, 35.3915363], [-97.5576728, 35.3914893]]]}, "properties": {"osm_id": 1420784203, "building": "yes", "name": "", "height": null, "height_m": null, "levels": null, "tract_id": "40109107212", "tract_name": "1072.12", "tags": {"building": "yes", "source": "esri/Oklahoma_City_OK_Buildings"}}}, {"type": "Feature", "geometry": {"type": "Polygon", "coordinates": [[[-97.5577625, 35.3915685], [-97.5577623, 35.3915592], [-97.5577351, 35.3915596], [-97.5577343, 35.3915241], [-97.5578141, 35.3915229], [-97.5578152, 35.3915677], [-97.5577625, 35.3915685]]]}, "properties": {"osm_id": 1420784204, "building": "yes", "name": "", "height": null, "height_m": null, "levels": null, "tract_id": "40109107212", "tract_name": "1072.12", "tags": {"building": "yes", "source": "esri/Oklahoma_City_OK_Buildings"}}}, {"type": "Feature", "geometry": {"type": "Polygon", "coordinates": [[[-97.5578395, 35.3907767], [-97.5578408, 35.3907207], [-97.557873, 35.390721], [-97.5578743, 35.390673], [-97.5579833, 35.3906748], [-97.5579821, 35.3907168], [-97.5580012, 35.3907171], [-97.5580003, 35.3907498], [-97.5580161, 35.3907502], [-97.5580144, 35.390815], [-97.5578735, 35.3908123], [-97.5578744, 35.3907771], [-97.5578395, 35.3907767]]]}, "properties": {"osm_id": 1420784205, "building": "house", "name": "", "height": null, "height_m": null, "levels": null, "tract_id": "40109107212", "tract_name": "1072.12", "tags": {"building": "house", "source": "esri/Oklahoma_City_OK_Buildings"}}}, {"type": "Feature", "geometry": {"type": "Polygon", "coordinates": [[[-97.5574104, 35.3908097], [-97.5574105, 35.3907435], [-97.5575094, 35.3907433], [-97.5575094, 35.3906806], [-97.557593, 35.3906804], [-97.5575932, 35.390765], [-97.5576197, 35.3907651], [-97.5576198, 35.3908094], [-97.5574104, 35.3908097]]]}, "properties": {"osm_id": 1420784206, "building": "house", "name": "", "height": null, "height_m": null, "levels": null, "tract_id": "40109107212", "tract_name": "1072.12", "tags": {"building": "house", "source": "esri/Oklahoma_City_OK_Buildings"}}}, {"type": "Feature", "geometry": {"type": "Polygon", "coordinates": [[[-97.5574089, 35.3906421], [-97.5573387, 35.3906423], [-97.5573385, 35.3905871], [-97.5574061, 35.3905869], [-97.557406, 35.3905817], [-97.5574242, 35.3905816], [-97.5574241, 35.3905479], [-97.5574386, 35.3905479], [-97.5574384, 35.3905062], [-97.5575486, 35.3905059], [-97.5575488, 35.3905494], [-97.5575852, 35.3905493], [-97.5575856, 35.3906383], [-97.5575492, 35.3906384], [-97.5575492, 35.3906472], [-97.5574089, 35.3906476], [-97.5574089, 35.3906421]]]}, "properties": {"osm_id": 1420784207, "building": "house", "name": "", "height": null, "height_m": null, "levels": null, "tract_id": "40109107212", "tract_name": "1072.12", "tags": {"building": "house", "source": "esri/Oklahoma_City_OK_Buildings"}}}, {"type": "Feature", "geometry": {"type": "Polygon", "coordinates": [[[-97.5578253, 35.3906046], [-97.5578258, 35.3905359], [-97.5578619, 35.3905361], [-97.5578622, 35.3905037], [-97.5580186, 35.3905045], [-97.5580181, 35.3905765], [-97.5580394, 35.3905766], [-97.5580389, 35.3906455], [-97.5578611, 35.3906446], [-97.5578614, 35.3906047], [-97.5578253, 35.3906046]]]}, "properties": {"osm_id": 1420784208, "building": "house", "name": "", "height": null, "height_m": null, "levels": null, "tract_id": "40109107212", "tract_name": "1072.12", "tags": {"building": "house", "source": "esri/Oklahoma_City_OK_Buildings"}}}, {"type": "Feature", "geometry": {"type": "Polygon", "coordinates": [[[-97.5576345, 35.3905411], [-97.5576347, 35.3905132], [-97.5576923, 35.3905135], [-97.5576921, 35.3905413], [-97.5576345, 35.3905411]]]}, "properties": {"osm_id": 1420784209, "building": "yes", "name": "", "height": null, "height_m": null, "levels": null, "tract_id": "40109107212", "tract_name": "1072.12", "tags": {"building": "yes", "source": "esri/Oklahoma_City_OK_Buildings"}}}, {"type": "Feature", "geometry": {"type": "Polygon", "coordinates": [[[-97.5576316, 35.390435], [-97.5576859, 35.3904335], [-97.5576874, 35.390475], [-97.5576334, 35.3904764], [-97.5576316, 35.390435]]]}, "properties": {"osm_id": 1420784210, "building": "yes", "name": "", "height": null, "height_m": null, "levels": null, "tract_id": "40109107212", "tract_name": "1072.12", "tags": {"building": "yes", "source": "esri/Oklahoma_City_OK_Buildings"}}}, {"type": "Feature", "geometry": {"type": "Polygon", "coordinates": [[[-97.5574699, 35.3904838], [-97.5574698, 35.3904762], [-97.5574023, 35.3904766], [-97.5574018, 35.3904231], [-97.5574677, 35.3904226], [-97.5574676, 35.3904128], [-97.5574064, 35.3904132], [-97.5574057, 35.3903395], [-97.5575657, 35.3903386], [-97.557566, 35.3903702], [-97.5576066, 35.39037], [-97.5576074, 35.3904489], [-97.5575663, 35.3904492], [-97.5575666, 35.3904832], [-97.5574699, 35.3904838]]]}, "properties": {"osm_id": 1420784211, "building": "house", "name": "", "height": null, "height_m": null, "levels": null, "tract_id": "40109107212", "tract_name": "1072.12", "tags": {"building": "house", "source": "esri/Oklahoma_City_OK_Buildings"}}}, {"type": "Feature", "geometry": {"type": "Polygon", "coordinates": [[[-97.5578596, 35.3903984], [-97.5578934, 35.3903527], [-97.5579242, 35.3903682], [-97.5579762, 35.3902981], [-97.5580562, 35.3903379], [-97.5580133, 35.3903957], [-97.5580808, 35.3904295], [-97.5580376, 35.3904873], [-97.5578596, 35.3903984]]]}, "properties": {"osm_id": 1420784212, "building": "house", "name": "", "height": null, "height_m": null, "levels": null, "tract_id": "40109107212", "tract_name": "1072.12", "tags": {"building": "house", "source": "esri/Oklahoma_City_OK_Buildings"}}}, {"type": "Feature", "geometry": {"type": "Polygon", "coordinates": [[[-97.5574446, 35.3902175], [-97.5574452, 35.3901711], [-97.5575515, 35.3901715], [-97.5575509, 35.3902179], [-97.5575912, 35.3902181], [-97.5575905, 35.3902771], [-97.5575506, 35.390277], [-97.5575501, 35.3903138], [-97.5574115, 35.390313], [-97.5574122, 35.3902449], [-97.5574297, 35.3902449], [-97.5574298, 35.3902175], [-97.5574446, 35.3902175]]]}, "properties": {"osm_id": 1420784213, "building": "house", "name": "", "height": null, "height_m": null, "levels": null, "tract_id": "40109107212", "tract_name": "1072.12", "tags": {"building": "house", "source": "esri/Oklahoma_City_OK_Buildings"}}}, {"type": "Feature", "geometry": {"type": "Polygon", "coordinates": [[[-97.558006, 35.3901952], [-97.5580696, 35.3901578], [-97.5580949, 35.3901864], [-97.5581538, 35.3901517], [-97.5582078, 35.3902129], [-97.5581547, 35.3902443], [-97.5582103, 35.3903077], [-97.558141, 35.3903487], [-97.558006, 35.3901952]]]}, "properties": {"osm_id": 1420784214, "building": "house", "name": "", "height": null, "height_m": null, "levels": null, "tract_id": "40109107212", "tract_name": "1072.12", "tags": {"building": "house", "source": "esri/Oklahoma_City_OK_Buildings"}}}, {"type": "Feature", "geometry": {"type": "Polygon", "coordinates": [[[-97.558314, 35.390243], [-97.558251, 35.3901774], [-97.5583048, 35.3901424], [-97.5582648, 35.3901013], [-97.5583288, 35.3900598], [-97.5583331, 35.3900642], [-97.5583611, 35.3900462], [-97.5583974, 35.390084], [-97.558424, 35.390067], [-97.5584854, 35.3901307], [-97.5584322, 35.3901649], [-97.5584389, 35.3901718], [-97.5583988, 35.3901977], [-97.5583931, 35.3901916], [-97.558314, 35.390243]]]}, "properties": {"osm_id": 1420784215, "building": "house", "name": "", "height": null, "height_m": null, "levels": null, "tract_id": "40109107212", "tract_name": "1072.12", "tags": {"building": "house", "source": "esri/Oklahoma_City_OK_Buildings"}}}, {"type": "Feature", "geometry": {"type": "Polygon", "coordinates": [[[-97.5574041, 35.390141], [-97.5574048, 35.3900723], [-97.557485, 35.3900729], [-97.5574851, 35.3900528], [-97.5575002, 35.3900529], [-97.5575008, 35.3900067], [-97.5575947, 35.3900076], [-97.5575942, 35.3900475], [-97.5576227, 35.3900478], [-97.5576215, 35.3901358], [-97.5575933, 35.3901356], [-97.5575933, 35.3901425], [-97.5574041, 35.390141]]]}, "properties": {"osm_id": 1420784216, "building": "house", "name": "", "height": null, "height_m": null, "levels": null, "tract_id": "40109107212", "tract_name": "1072.12", "tags": {"building": "house", "source": "esri/Oklahoma_City_OK_Buildings"}}}, {"type": "Feature", "geometry": {"type": "Polygon", "coordinates": [[[-97.5574673, 35.3899807], [-97.557468, 35.3899114], [-97.5574065, 35.389911], [-97.5574072, 35.3898352], [-97.5575657, 35.3898363], [-97.5575656, 35.3898429], [-97.5576004, 35.3898432], [-97.5575996, 35.3899275], [-97.5575675, 35.3899273], [-97.5575669, 35.3899814], [-97.5574673, 35.3899807]]]}, "properties": {"osm_id": 1420784217, "building": "house", "name": "", "height": null, "height_m": null, "levels": null, "tract_id": "40109107212", "tract_name": "1072.12", "tags": {"building": "house", "source": "esri/Oklahoma_City_OK_Buildings"}}}, {"type": "Feature", "geometry": {"type": "Polygon", "coordinates": [[[-97.5575559, 35.3898277], [-97.5575554, 35.3898016], [-97.5575024, 35.3898023], [-97.5575008, 35.3897239], [-97.5575864, 35.3897229], [-97.5575853, 35.3896748], [-97.5576739, 35.3896735], [-97.5576768, 35.389804], [-97.5576225, 35.3898049], [-97.557623, 35.3898266], [-97.5575559, 35.3898277]]]}, "properties": {"osm_id": 1420784218, "building": "house", "name": "", "height": null, "height_m": null, "levels": null, "tract_id": "40109107212", "tract_name": "1072.12", "tags": {"building": "house", "source": "esri/Oklahoma_City_OK_Buildings"}}}, {"type": "Feature", "geometry": {"type": "Polygon", "coordinates": [[[-97.5577452, 35.3898541], [-97.557748, 35.3897761], [-97.5578067, 35.3897777], [-97.5578095, 35.3896994], [-97.5579047, 35.3897017], [-97.5579016, 35.3897857], [-97.5578986, 35.3897857], [-97.5578966, 35.3898412], [-97.5579043, 35.3898412], [-97.5579031, 35.3898791], [-97.5578296, 35.3898775], [-97.5578304, 35.389856], [-97.5577452, 35.3898541]]]}, "properties": {"osm_id": 1420784219, "building": "house", "name": "", "height": null, "height_m": null, "levels": null, "tract_id": "40109107212", "tract_name": "1072.12", "tags": {"building": "house", "source": "esri/Oklahoma_City_OK_Buildings"}}}, {"type": "Feature", "geometry": {"type": "Polygon", "coordinates": [[[-97.5580228, 35.3897024], [-97.5581134, 35.3897027], [-97.558113, 35.389773], [-97.5581076, 35.389773], [-97.5581072, 35.3898436], [-97.5579398, 35.389843], [-97.5579406, 35.3897647], [-97.5580225, 35.389765], [-97.5580228, 35.3897024]]]}, "properties": {"osm_id": 1420784220, "building": "house", "name": "", "height": null, "height_m": null, "levels": null, "tract_id": "40109107212", "tract_name": "1072.12", "tags": {"building": "house", "source": "esri/Oklahoma_City_OK_Buildings"}}}, {"type": "Feature", "geometry": {"type": "Polygon", "coordinates": [[[-97.5584032, 35.3899585], [-97.5584661, 35.3897928], [-97.5585857, 35.3898234], [-97.5585592, 35.3898928], [-97.5585508, 35.3898906], [-97.5585406, 35.3899175], [-97.558547, 35.3899192], [-97.5585207, 35.3899883], [-97.5584032, 35.3899585]]]}, "properties": {"osm_id": 1420784221, "building": "house", "name": "", "height": null, "height_m": null, "levels": null, "tract_id": "40109107212", "tract_name": "1072.12", "tags": {"building": "house", "source": "esri/Oklahoma_City_OK_Buildings"}}}, {"type": "Feature", "geometry": {"type": "Polygon", "coordinates": [[[-97.5581677, 35.3898793], [-97.5581683, 35.3898032], [-97.5582359, 35.3898036], [-97.5582366, 35.3897293], [-97.558325, 35.3897298], [-97.5583238, 35.3898725], [-97.5583339, 35.3898726], [-97.5583336, 35.389912], [-97.5582556, 35.3899115], [-97.5582559, 35.3898798], [-97.5581677, 35.3898793]]]}, "properties": {"osm_id": 1420784222, "building": "house", "name": "", "height": null, "height_m": null, "levels": null, "tract_id": "40109107212", "tract_name": "1072.12", "tags": {"building": "house"}}}, {"type": "Feature", "geometry": {"type": "Polygon", "coordinates": [[[-97.5580485, 35.3900013], [-97.5581189, 35.3900015], [-97.5581191, 35.3900356], [-97.5580483, 35.3900353], [-97.5580485, 35.3900013]]]}, "properties": {"osm_id": 1420784240, "building": "yes", "name": "", "height": null, "height_m": null, "levels": null, "tract_id": "40109107212", "tract_name": "1072.12", "tags": {"building": "yes", "source": "esri/Oklahoma_City_OK_Buildings"}}}, {"type": "Feature", "geometry": {"type": "Polygon", "coordinates": [[[-97.5581695, 35.3900436], [-97.5582351, 35.3900183], [-97.5582504, 35.390045], [-97.5581851, 35.3900703], [-97.5581695, 35.3900436]]]}, "properties": {"osm_id": 1420784241, "building": "yes", "name": "", "height": null, "height_m": null, "levels": null, "tract_id": "40109107212", "tract_name": "1072.12", "tags": {"building": "yes", "source": "esri/Oklahoma_City_OK_Buildings"}}}]}