{"type": "FeatureCollection", "features": [{"type": "Feature", "geometry": {"type": "Polygon", "coordinates": [[[-96.3802378, 34.0281543], [-96.3803558, 34.0284032], [-96.3804416, 34.0283766], [-96.3805758, 34.0286433], [-96.380903, 34.0285322], [-96.3809459, 34.0285944], [-96.3810586, 34.0285633], [-96.3810907, 34.0286077], [-96.381028, 34.028726], [-96.3811122, 34.0287633], [-96.3810854, 34.0288656], [-96.381139, 34.0288789], [-96.3812946, 34.0285944], [-96.3814555, 34.0286433], [-96.3812946, 34.0289545], [-96.381359, 34.0289723], [-96.3813321, 34.0290523], [-96.3814019, 34.0290834], [-96.3814394, 34.0290034], [-96.3818257, 34.0291368], [-96.3817935, 34.0292035], [-96.3818632, 34.0292257], [-96.3819061, 34.0291546], [-96.3819598, 34.0291635], [-96.3821744, 34.0287811], [-96.3821207, 34.0287545], [-96.3821583, 34.0286744], [-96.3820832, 34.0286389], [-96.38211, 34.0285722], [-96.3820456, 34.0285411], [-96.3820188, 34.0284833], [-96.3819651, 34.028461], [-96.3819008, 34.0284432], [-96.3817988, 34.0284655], [-96.3817184, 34.0284344], [-96.3816755, 34.0284922], [-96.3816218, 34.0284699], [-96.3815912, 34.0285082], [-96.3815199, 34.0284788], [-96.3815521, 34.0284255], [-96.3815574, 34.0283677], [-96.3815414, 34.0283054], [-96.3814931, 34.0282521], [-96.3814448, 34.0282165], [-96.3813858, 34.0281898], [-96.3813965, 34.028132], [-96.3814394, 34.0281143], [-96.381198, 34.027603], [-96.3809835, 34.0276741], [-96.3809459, 34.027603], [-96.3807168, 34.0276812], [-96.3807651, 34.0277657], [-96.380726, 34.0277853], [-96.3808172, 34.0279675], [-96.3802378, 34.0281543]]]}, "properties": {"osm_id": 157215168, "building": "school", "name": "Durant High School", "height": null, "height_m": null, "levels": null, "tract_id": "40013796101", "tract_name": "7961.01", "tags": {"building": "school", "name": "Durant High School"}}}, {"type": "Feature", "geometry": {"type": "Polygon", "coordinates": [[[-96.3932625, 34.0003687], [-96.3934713, 34.0003691], [-96.3934718, 34.0001863], [-96.3937558, 34.0001869], [-96.3937562, 34.0000388], [-96.3938092, 34.0000389], [-96.3938097, 33.9998642], [-96.3936528, 33.9998639], [-96.3936538, 33.9995174], [-96.3933933, 33.9995169], [-96.3933936, 33.9994317], [-96.3932701, 33.9994314], [-96.3932693, 33.9997011], [-96.3933264, 33.9997012], [-96.393326, 33.9998563], [-96.393264, 33.9998562], [-96.3932625, 34.0003687]]]}, "properties": {"osm_id": 157222792, "building": "yes", "name": "Choctaw Nation of Oklahoma Headquarters", "height": null, "height_m": null, "levels": null, "tract_id": "40013796101", "tract_name": "7961.01", "tags": {"building": "yes", "name": "Choctaw Nation of Oklahoma Headquarters"}}}, {"type": "Feature", "geometry": {"type": "Polygon", "coordinates": [[[-96.3724493, 34.01797], [-96.3724636, 34.0177714], [-96.3723916, 34.0177678], [-96.3723755, 34.0177233], [-96.3720917, 34.0177094], [-96.3720744, 34.0179515], [-96.3724493, 34.01797]]]}, "properties": {"osm_id": 607822062, "building": "university", "name": "SOSU Physical Plant", "height": null, "height_m": null, "levels": null, "tract_id": "40013796101", "tract_name": "7961.01", "tags": {"building": "university", "name": "SOSU Physical Plant"}}}, {"type": "Feature", "geometry": {"type": "Polygon", "coordinates": [[[-96.378242, 34.0292822], [-96.37825, 34.028761], [-96.3778424, 34.0287665], [-96.3778457, 34.0292505], [-96.3779412, 34.0292536], [-96.3779429, 34.0292789], [-96.378242, 34.0292822]]]}, "properties": {"osm_id": 607825796, "building": "school", "name": "Field House", "height": null, "height_m": null, "levels": null, "tract_id": "40013796101", "tract_name": "7961.01", "tags": {"building": "school", "description": "Weight room and wrestling room at DHS. NOTE: This is technical name of the building, not just a description. Source: I'm an alum.", "name": "Field House"}}}, {"type": "Feature", "geometry": {"type": "Polygon", "coordinates": [[[-96.3779429, 34.0292789], [-96.3779412, 34.0292536], [-96.3778457, 34.0292505], [-96.3778424, 34.0287665], [-96.377153, 34.0287632], [-96.377153, 34.0290032], [-96.3771771, 34.0290143], [-96.3771825, 34.0292433], [-96.3778242, 34.0292555], [-96.3778835, 34.0292672], [-96.3779429, 34.0292789]]]}, "properties": {"osm_id": 607825797, "building": "school", "name": "Indoor Practice Facility", "height": null, "height_m": null, "levels": null, "tract_id": "40013796101", "tract_name": "7961.01", "tags": {"building": "school", "description": "Indoor Practice Facility at DHS. Also the official building name, not just description. Source: I'm an alum.", "name": "Indoor Practice Facility"}}}, {"type": "Feature", "geometry": {"type": "Polygon", "coordinates": [[[-96.377153, 34.0287632], [-96.3770135, 34.0287654], [-96.3770216, 34.0290032], [-96.377153, 34.0290032], [-96.377153, 34.0287632]]]}, "properties": {"osm_id": 607825946, "building": "school", "name": "Ag Barn", "height": null, "height_m": null, "levels": null, "tract_id": "40013796101", "tract_name": "7961.01", "tags": {"building": "school", "description": "Agricultural education building. Referred to by staff and students as the name, not just the description.", "name": "Ag Barn"}}}, {"type": "Feature", "geometry": {"type": "Polygon", "coordinates": [[[-96.3800703, 34.0311648], [-96.3799628, 34.0310608], [-96.3798629, 34.0311318], [-96.3799705, 34.0312358], [-96.3800703, 34.0311648]]]}, "properties": {"osm_id": 607825947, "building": "yes", "name": "", "height": null, "height_m": null, "levels": null, "tract_id": "40013796101", "tract_name": "7961.01", "tags": {"building": "yes"}}}, {"type": "Feature", "geometry": {"type": "Polygon", "coordinates": [[[-96.387159, 34.0207717], [-96.3870839, 34.0200869], [-96.3866441, 34.0201225], [-96.3867299, 34.0207983], [-96.387159, 34.0207717]]]}, "properties": {"osm_id": 607992179, "building": "yes", "name": "Durant Police Department", "height": null, "height_m": null, "levels": null, "tract_id": "40013796101", "tract_name": "7961.01", "tags": {"amenity": "police", "building": "yes", "name": "Durant Police Department"}}}, {"type": "Feature", "geometry": {"type": "Polygon", "coordinates": [[[-96.3871983, 34.0214957], [-96.3871999, 34.0214009], [-96.3871818, 34.0214007], [-96.3871839, 34.0212721], [-96.3871564, 34.0212718], [-96.3871574, 34.0212085], [-96.386855, 34.0212051], [-96.3868503, 34.0214919], [-96.3871983, 34.0214957]]]}, "properties": {"osm_id": 607992180, "building": "yes", "name": "Oklahoma Highway Patrol", "height": null, "height_m": null, "levels": null, "tract_id": "40013796101", "tract_name": "7961.01", "tags": {"amenity": "police", "building": "yes", "name": "Oklahoma Highway Patrol"}}}, {"type": "Feature", "geometry": {"type": "Polygon", "coordinates": [[[-96.3872114, 34.0190142], [-96.3870786, 34.0190053], [-96.3870823, 34.0189671], [-96.3872151, 34.018976], [-96.3872114, 34.0190142]]]}, "properties": {"osm_id": 608003934, "building": "yes", "name": "", "height": null, "height_m": null, "levels": null, "tract_id": "40013796101", "tract_name": "7961.01", "tags": {"building": "yes"}}}, {"type": "Feature", "geometry": {"type": "Polygon", "coordinates": [[[-96.3874984, 34.0190031], [-96.3873719, 34.0189947], [-96.3874014, 34.0186901], [-96.3875279, 34.0186985], [-96.3874984, 34.0190031]]]}, "properties": {"osm_id": 608003935, "building": "yes", "name": "", "height": null, "height_m": null, "levels": null, "tract_id": "40013796101", "tract_name": "7961.01", "tags": {"building": "yes"}}}, {"type": "Feature", "geometry": {"type": "Polygon", "coordinates": [[[-96.3907465, 34.0050983], [-96.3906634, 34.0051906], [-96.3905772, 34.0051373], [-96.3906604, 34.005045], [-96.3907465, 34.0050983]]]}, "properties": {"osm_id": 608125883, "building": "roof", "name": "Phillips 66", "height": null, "height_m": null, "levels": null, "tract_id": "40013796101", "tract_name": "7961.01", "tags": {"amenity": "fuel", "brand": "Phillips 66", "brand:wikidata": "Q1656230", "building": "roof", "name": "Phillips 66"}}}, {"type": "Feature", "geometry": {"type": "Polygon", "coordinates": [[[-96.3906982, 33.9941546], [-96.3905962, 33.9941288], [-96.3906793, 33.993903], [-96.3907814, 33.9939289], [-96.3906982, 33.9941546]]]}, "properties": {"osm_id": 608125885, "building": "yes", "name": "Carl's Jr.", "height": null, "height_m": null, "levels": null, "tract_id": "40013796101", "tract_name": "7961.01", "tags": {"addr:city": "Durant", "addr:housenumber": "1305", "addr:postcode": "74701", "addr:state": "OK", "addr:street": "West Main Street", "amenity": "fast_food", "brand": "Carl's Jr.", "brand:wikidata": "Q1043486", "building": "yes", "cuisine": "burger", "name": "Carl's Jr.", "opening_hours": "Mo-Sa 06:00-22:00; Su 07:00-22:00", "phone": "+1 580-924-7340", "ref": "1101645", "takeaway": "yes", "website": "https://locations.carlsjr.com/ok/durant/1305-w-main-st"}}}, {"type": "Feature", "geometry": {"type": "Polygon", "coordinates": [[[-96.3912625, 34.0060984], [-96.3912625, 34.0062095], [-96.3917546, 34.0062095], [-96.3917546, 34.0060984], [-96.3912625, 34.0060984]]]}, "properties": {"osm_id": 608125973, "building": "retail", "name": "", "height": null, "height_m": null, "levels": null, "tract_id": "40013796101", "tract_name": "7961.01", "tags": {"building": "retail"}}}, {"type": "Feature", "geometry": {"type": "Polygon", "coordinates": [[[-96.3912626, 34.0056606], [-96.3917316, 34.0056604], [-96.3917316, 34.0054833], [-96.3916156, 34.0054852], [-96.3915251, 34.0054833], [-96.391525, 34.0050833], [-96.3912624, 34.0050834], [-96.3912626, 34.0056606]]]}, "properties": {"osm_id": 608125983, "building": "retail", "name": "", "height": null, "height_m": null, "levels": null, "tract_id": "40013796101", "tract_name": "7961.01", "tags": {"building": "retail"}}}, {"type": "Feature", "geometry": {"type": "Polygon", "coordinates": [[[-96.3917546, 34.0056605], [-96.3917546, 34.0060984], [-96.3912625, 34.0060984], [-96.3912626, 34.0056606], [-96.3917316, 34.0056604], [-96.3917546, 34.0056605]]]}, "properties": {"osm_id": 608125984, "building": "retail", "name": "Pruett's Food", "height": null, "height_m": null, "levels": null, "tract_id": "40013796101", "tract_name": "7961.01", "tags": {"building": "retail", "name": "Pruett's Food", "shop": "supermarket"}}}, {"type": "Feature", "geometry": {"type": "Polygon", "coordinates": [[[-96.3870773, 34.0197556], [-96.3869207, 34.019818], [-96.3869073, 34.0197949], [-96.3868157, 34.0198314], [-96.3867739, 34.0197593], [-96.3868654, 34.0197228], [-96.3868201, 34.0196446], [-96.3869767, 34.0195822], [-96.3870773, 34.0197556]]]}, "properties": {"osm_id": 608126001, "building": "yes", "name": "Durant Fire Station #2", "height": null, "height_m": null, "levels": null, "tract_id": "40013796101", "tract_name": "7961.01", "tags": {"amenity": "fire_station", "building": "yes", "name": "Durant Fire Station #2"}}}, {"type": "Feature", "geometry": {"type": "Polygon", "coordinates": [[[-96.3927769, 34.0092373], [-96.3922955, 34.0092395], [-96.3922948, 34.0091462], [-96.3924081, 34.0091457], [-96.3924077, 34.009085], [-96.3921175, 34.0090863], [-96.3921168, 34.0089885], [-96.3924242, 34.0089871], [-96.3924234, 34.0088653], [-96.392447, 34.0088652], [-96.3924466, 34.0087943], [-96.3926115, 34.0087936], [-96.392612, 34.0088644], [-96.392642, 34.0088643], [-96.3926428, 34.0089861], [-96.3929213, 34.0089848], [-96.3929219, 34.0090816], [-96.3926612, 34.0090828], [-96.3926616, 34.0091445], [-96.3927763, 34.009144], [-96.3927769, 34.0092373]]]}, "properties": {"osm_id": 608126065, "building": "yes", "name": "Bryan County Health Department", "height": null, "height_m": null, "levels": null, "tract_id": "40013796101", "tract_name": "7961.01", "tags": {"addr:city": "Durant", "addr:housenumber": "1524", "addr:postcode": "74701", "addr:street": "Chuckwa Drive", "amenity": "doctors", "building": "yes", "healthcare": "doctor", "name": "Bryan County Health Department"}}}, {"type": "Feature", "geometry": {"type": "Polygon", "coordinates": [[[-96.4010154, 33.9980684], [-96.4010738, 33.9979127], [-96.4017018, 33.9980747], [-96.4017334, 33.9979905], [-96.4018122, 33.9980108], [-96.4017714, 33.9981195], [-96.4018036, 33.9981278], [-96.4017649, 33.9982309], [-96.4017327, 33.9982226], [-96.4017221, 33.9982507], [-96.4010154, 33.9980684]]]}, "properties": {"osm_id": 608126070, "building": "yes", "name": "Quality Inn", "height": null, "height_m": null, "levels": null, "tract_id": "40013796101", "tract_name": "7961.01", "tags": {"addr:city": "Durant", "addr:housenumber": "2112", "addr:postcode": "74701", "addr:state": "OK", "addr:street": "West Main Street", "brand": "Quality Inn", "brand:wikidata": "Q1075788", "building": "yes", "name": "Quality Inn", "tourism": "hotel"}}}, {"type": "Feature", "geometry": {"type": "Polygon", "coordinates": [[[-96.4031875, 33.9970776], [-96.4032561, 33.9968948], [-96.4034354, 33.99694], [-96.4033943, 33.9970523], [-96.4033466, 33.9970403], [-96.4033206, 33.9971112], [-96.4031875, 33.9970776]]]}, "properties": {"osm_id": 608126111, "building": "retail", "name": "El Tapatio", "height": null, "height_m": null, "levels": null, "tract_id": "40013796101", "tract_name": "7961.01", "tags": {"amenity": "restaurant", "building": "retail", "name": "El Tapatio"}}}, {"type": "Feature", "geometry": {"type": "Polygon", "coordinates": [[[-96.4019065, 33.9965663], [-96.4019972, 33.9965794], [-96.4019895, 33.996616], [-96.4020101, 33.996619], [-96.4019839, 33.9967433], [-96.4019633, 33.9967404], [-96.401955, 33.9967801], [-96.4018643, 33.996767], [-96.4019065, 33.9965663]]]}, "properties": {"osm_id": 608126166, "building": "yes", "name": "Jack in the Box", "height": null, "height_m": null, "levels": null, "tract_id": "40013796101", "tract_name": "7961.01", "tags": {"addr:city": "Durant", "addr:housenumber": "2117", "addr:postcode": "74701", "addr:state": "OK", "addr:street": "West Main Street", "amenity": "fast_food", "brand": "Jack in the Box", "brand:wikidata": "Q1538507", "building": "yes", "cuisine": "burger", "name": "Jack in the Box", "phone": "+1 580-931-3502", "takeaway": "yes", "website": "https://locations.jackinthebox.com/us/ok/durant/2117-w-main-st"}}}, {"type": "Feature", "geometry": {"type": "Polygon", "coordinates": [[[-96.3931545, 34.0057109], [-96.3931537, 34.0056122], [-96.3929907, 34.005613], [-96.3929903, 34.0055565], [-96.3930086, 34.0055564], [-96.3930081, 34.0054856], [-96.3929393, 34.005486], [-96.3929398, 34.0055561], [-96.3929521, 34.0055561], [-96.3929525, 34.005614], [-96.3927625, 34.005615], [-96.3927632, 34.0057093], [-96.3927983, 34.0057092], [-96.3927985, 34.0057385], [-96.392716, 34.0057389], [-96.3927172, 34.0059018], [-96.3928184, 34.0059013], [-96.3928186, 34.0059321], [-96.3928, 34.0059322], [-96.3928009, 34.006052], [-96.3929383, 34.0060513], [-96.3929389, 34.0061374], [-96.3929912, 34.0061372], [-96.3929906, 34.006052], [-96.3931154, 34.0060514], [-96.3931145, 34.0059293], [-96.3930788, 34.0059295], [-96.3930786, 34.0059036], [-96.3931973, 34.005903], [-96.3931961, 34.0057406], [-96.3931291, 34.0057409], [-96.3931288, 34.0057111], [-96.3931545, 34.0057109]]]}, "properties": {"osm_id": 608170630, "building": "yes", "name": "AllianceHealth Medical Group", "height": null, "height_m": null, "levels": null, "tract_id": "40013796101", "tract_name": "7961.01", "tags": {"amenity": "doctors", "building": "yes", "healthcare": "doctor", "name": "AllianceHealth Medical Group"}}}, {"type": "Feature", "geometry": {"type": "Polygon", "coordinates": [[[-96.3987717, 34.0042957], [-96.3987717, 34.0041077], [-96.3988722, 34.0041077], [-96.3988722, 34.0042957], [-96.3987717, 34.0042957]]]}, "properties": {"osm_id": 608179381, "building": "roof", "name": "", "height": null, "height_m": null, "levels": null, "tract_id": "40013796101", "tract_name": "7961.01", "tags": {"building": "roof", "layer": "1"}}}, {"type": "Feature", "geometry": {"type": "Polygon", "coordinates": [[[-96.3988722, 34.0042957], [-96.3987717, 34.0042957], [-96.3987717, 34.0044713], [-96.3989903, 34.0044713], [-96.3989903, 34.0042957], [-96.3988722, 34.0042957]]]}, "properties": {"osm_id": 608179382, "building": "retail", "name": "First United Bank", "height": null, "height_m": null, "levels": null, "tract_id": "40013796101", "tract_name": "7961.01", "tags": {"amenity": "bank", "brand": "First United Bank", "brand:wikidata": "Q5453964", "building": "retail", "name": "First United Bank"}}}, {"type": "Feature", "geometry": {"type": "Polygon", "coordinates": [[[-96.3735079, 34.0197531], [-96.3735052, 34.0196175], [-96.3731833, 34.0196131], [-96.373178, 34.019722], [-96.3731297, 34.0197242], [-96.3731297, 34.0197598], [-96.3731833, 34.0197598], [-96.3735079, 34.0197531]]]}, "properties": {"osm_id": 608419737, "building": "yes", "name": "The Spin Cycle", "height": null, "height_m": null, "levels": null, "tract_id": "40013796101", "tract_name": "7961.01", "tags": {"building": "yes", "name": "The Spin Cycle", "shop": "laundry"}}}, {"type": "Feature", "geometry": {"type": "Polygon", "coordinates": [[[-96.3925302, 33.9945337], [-96.3926461, 33.9942082], [-96.3924633, 33.9941635], [-96.3923474, 33.9944889], [-96.3925302, 33.9945337]]]}, "properties": {"osm_id": 608696958, "building": "yes", "name": "NAPA Auto Parts", "height": null, "height_m": null, "levels": null, "tract_id": "40013796101", "tract_name": "7961.01", "tags": {"brand": "NAPA Auto Parts", "brand:wikidata": "Q6970842", "building": "yes", "name": "NAPA Auto Parts", "shop": "car_parts"}}}, {"type": "Feature", "geometry": {"type": "Polygon", "coordinates": [[[-96.4010777, 33.9992383], [-96.4010879, 33.9992097], [-96.4011367, 33.9992218], [-96.4011742, 33.999231], [-96.4011626, 33.9992632], [-96.4013141, 33.9993007], [-96.4011418, 33.9997791], [-96.4007564, 33.9996837], [-96.40093, 33.9992017], [-96.4010777, 33.9992383]]]}, "properties": {"osm_id": 608696961, "building": "retail", "name": "Tractor Supply Company", "height": null, "height_m": null, "levels": null, "tract_id": "40013796101", "tract_name": "7961.01", "tags": {"addr:city": "Durant", "addr:housenumber": "2100", "addr:postcode": "74701", "addr:state": "OK", "addr:street": "West Evergreen Street", "brand": "Tractor Supply Company", "brand:wikidata": "Q15109925", "building": "retail", "name": "Tractor Supply Company", "opening_hours": "Mo-Sa 08:00-21:00; Su 09:00-19:00", "phone": "+1 580-924-3334", "ref": "396", "shop": "country_store"}}}, {"type": "Feature", "geometry": {"type": "Polygon", "coordinates": [[[-96.4004479, 33.9996074], [-96.4007564, 33.9996837], [-96.40093, 33.9992017], [-96.4006215, 33.9991254], [-96.4004479, 33.9996074]]]}, "properties": {"osm_id": 608696962, "building": "yes", "name": "Locke Wholesale Electric", "height": null, "height_m": null, "levels": null, "tract_id": "40013796101", "tract_name": "7961.01", "tags": {"addr:city": "Durant", "addr:housenumber": "2100", "addr:postcode": "74701", "addr:state": "OK", "addr:street": "West Evergreen Street", "addr:unit": "A", "building": "yes", "name": "Locke Wholesale Electric", "shop": "doityourself"}}}, {"type": "Feature", "geometry": {"type": "Polygon", "coordinates": [[[-96.4015437, 33.9976173], [-96.4011838, 33.997525], [-96.401118, 33.9977014], [-96.401478, 33.9977936], [-96.4015437, 33.9976173]]]}, "properties": {"osm_id": 608696963, "building": "yes", "name": "Sherwin-Williams", "height": null, "height_m": null, "levels": null, "tract_id": "40013796101", "tract_name": "7961.01", "tags": {"addr:city": "Durant", "addr:housenumber": "2102", "addr:postcode": "74701", "addr:state": "OK", "addr:street": "West Main Street", "brand": "Sherwin-Williams", "brand:wikidata": "Q48881", "building": "yes", "name": "Sherwin-Williams", "shop": "paint"}}}, {"type": "Feature", "geometry": {"type": "Polygon", "coordinates": [[[-96.4038652, 33.9972436], [-96.4040074, 33.9968278], [-96.4038787, 33.9967877], [-96.4038652, 33.99683], [-96.4037445, 33.9968033], [-96.4036131, 33.997188], [-96.4038652, 33.9972436]]]}, "properties": {"osm_id": 608697666, "building": "yes", "name": "Hallmark", "height": null, "height_m": null, "levels": null, "tract_id": "40013796101", "tract_name": "7961.01", "tags": {"addr:city": "Durant", "addr:housenumber": "2131", "addr:postcode": "74701", "addr:state": "OK", "addr:street": "West Main Street", "brand": "Hallmark", "brand:wikidata": "Q1521910", "building": "yes", "name": "Hallmark", "shop": "gift"}}}, {"type": "Feature", "geometry": {"type": "Polygon", "coordinates": [[[-96.397796, 34.0039794], [-96.3971603, 34.0039794], [-96.3971529, 34.0041306], [-96.3971241, 34.0041328], [-96.3971248, 34.0041928], [-96.3971533, 34.0041917], [-96.3971603, 34.0043796], [-96.3971925, 34.0043796], [-96.3971992, 34.0043996], [-96.3972938, 34.0043985], [-96.3972954, 34.0043779], [-96.3974089, 34.0043743], [-96.3974147, 34.0044748], [-96.3975329, 34.0044728], [-96.3975411, 34.0043795], [-96.3976525, 34.0043729], [-96.3976545, 34.0044029], [-96.3977574, 34.0044024], [-96.3977579, 34.0043777], [-96.3977984, 34.004372], [-96.3977892, 34.004209], [-96.3978301, 34.0042098], [-96.3978319, 34.0041568], [-96.3977791, 34.0041615], [-96.397796, 34.0039794]]]}, "properties": {"osm_id": 609004164, "building": "yes", "name": "Featherstone Assisted Living", "height": null, "height_m": null, "levels": null, "tract_id": "40013796101", "tract_name": "7961.01", "tags": {"amenity": "social_facility", "building": "yes", "name": "Featherstone Assisted Living", "social_facility": "group_home", "social_facility:for": "senior"}}}, {"type": "Feature", "geometry": {"type": "Polygon", "coordinates": [[[-96.3967754, 34.0042456], [-96.3966427, 34.0042445], [-96.3966467, 34.0043079], [-96.3965837, 34.0043079], [-96.3965877, 34.0043935], [-96.3966078, 34.0043891], [-96.3966091, 34.0044624], [-96.3965179, 34.0044613], [-96.396522, 34.0045503], [-96.3966105, 34.0045469], [-96.3966132, 34.0046014], [-96.3968036, 34.004597], [-96.3968023, 34.0045458], [-96.3969122, 34.0045447], [-96.3969095, 34.0044758], [-96.3967915, 34.0044624], [-96.3967862, 34.0043879], [-96.3968398, 34.0043857], [-96.3968371, 34.0043368], [-96.3967808, 34.0043379], [-96.3967754, 34.0042456]]]}, "properties": {"osm_id": 609004165, "building": "yes", "name": "Clay Rhynes Eye Clinic", "height": null, "height_m": null, "levels": null, "tract_id": "40013796101", "tract_name": "7961.01", "tags": {"building": "yes", "healthcare": "optometrist", "name": "Clay Rhynes Eye Clinic"}}}, {"type": "Feature", "geometry": {"type": "Polygon", "coordinates": [[[-96.3960982, 34.0046298], [-96.3961733, 34.004563], [-96.3961223, 34.0045252], [-96.3960955, 34.004543], [-96.3960445, 34.0045097], [-96.3959292, 34.0045141], [-96.3959319, 34.0043585], [-96.3958031, 34.0043563], [-96.3957978, 34.0046409], [-96.3959077, 34.0046364], [-96.3959587, 34.0046787], [-96.3960472, 34.0046008], [-96.3960982, 34.0046298]]]}, "properties": {"osm_id": 609004166, "building": "yes", "name": "First Texoma National Bank", "height": null, "height_m": null, "levels": null, "tract_id": "40013796101", "tract_name": "7961.01", "tags": {"amenity": "bank", "building": "yes", "name": "First Texoma National Bank"}}}, {"type": "Feature", "geometry": {"type": "Polygon", "coordinates": [[[-96.3937674, 33.9942923], [-96.3934705, 33.994216], [-96.3933994, 33.9944062], [-96.3933292, 33.9943882], [-96.3932983, 33.994471], [-96.3931154, 33.994424], [-96.3930221, 33.9946735], [-96.3933338, 33.9947536], [-96.3933226, 33.9947837], [-96.3933873, 33.9948003], [-96.3933735, 33.9948373], [-96.3934999, 33.9948697], [-96.3935129, 33.9948349], [-96.3935292, 33.9948391], [-96.3935408, 33.994808], [-96.3936812, 33.9948441], [-96.393714, 33.9947565], [-96.3937301, 33.9947607], [-96.3937585, 33.9946846], [-96.3937404, 33.99468], [-96.3937704, 33.9945996], [-96.3936854, 33.9945778], [-96.393702, 33.9945332], [-96.3936795, 33.9945274], [-96.3937674, 33.9942923]]]}, "properties": {"osm_id": 609253080, "building": "yes", "name": "Donald W. Reynolds Library and Community Center", "height": null, "height_m": null, "levels": null, "tract_id": "40013796101", "tract_name": "7961.01", "tags": {"addr:city": "Durant", "addr:housenumber": "1515", "addr:postcode": "74701", "addr:street": "West Main Street", "amenity": "library", "building": "yes", "name": "Donald W. Reynolds Library and Community Center", "website": "https://www.donaldwreynolds.okpls.org/"}}}, {"type": "Feature", "geometry": {"type": "Polygon", "coordinates": [[[-96.3881845, 34.017171], [-96.3881789, 34.0171222], [-96.3880993, 34.0171285], [-96.388105, 34.0171773], [-96.3881845, 34.017171]]]}, "properties": {"osm_id": 610243656, "building": "yes", "name": "", "height": null, "height_m": null, "levels": null, "tract_id": "40013796101", "tract_name": "7961.01", "tags": {"amenity": "toilets", "building": "yes"}}}, {"type": "Feature", "geometry": {"type": "Polygon", "coordinates": [[[-96.3930526, 33.9975817], [-96.3929855, 33.9975731], [-96.3929937, 33.9975293], [-96.3930607, 33.9975379], [-96.3930526, 33.9975817]]]}, "properties": {"osm_id": 1057073118, "building": "yes", "name": "", "height": null, "height_m": null, "levels": null, "tract_id": "40013796101", "tract_name": "7961.01", "tags": {"building": "yes"}}}, {"type": "Feature", "geometry": {"type": "Polygon", "coordinates": [[[-96.3932281, 33.9974097], [-96.3931996, 33.9975476], [-96.3928006, 33.997491], [-96.3928291, 33.9973531], [-96.3932281, 33.9974097]]]}, "properties": {"osm_id": 1057073119, "building": "yes", "name": "Durant Nutrition Center", "height": null, "height_m": null, "levels": null, "tract_id": "40013796101", "tract_name": "7961.01", "tags": {"amenity": "social_facility", "building": "yes", "name": "Durant Nutrition Center", "social_facility": "food_bank"}}}, {"type": "Feature", "geometry": {"type": "Polygon", "coordinates": [[[-96.3909541, 33.9973076], [-96.3908984, 33.9972998], [-96.3909052, 33.9972667], [-96.3909608, 33.9972745], [-96.3909541, 33.9973076]]]}, "properties": {"osm_id": 1057073123, "building": "yes", "name": "", "height": null, "height_m": null, "levels": null, "tract_id": "40013796101", "tract_name": "7961.01", "tags": {"building": "yes"}}}, {"type": "Feature", "geometry": {"type": "Polygon", "coordinates": [[[-96.3909148, 33.9975353], [-96.3907774, 33.9975319], [-96.3907803, 33.9974485], [-96.3908851, 33.9974511], [-96.3908847, 33.9974644], [-96.3909173, 33.9974652], [-96.3909148, 33.9975353]]]}, "properties": {"osm_id": 1057073124, "building": "yes", "name": "", "height": null, "height_m": null, "levels": null, "tract_id": "40013796101", "tract_name": "7961.01", "tags": {"building": "yes"}}}, {"type": "Feature", "geometry": {"type": "Polygon", "coordinates": [[[-96.3910034, 33.9971689], [-96.3906795, 33.9970905], [-96.3907369, 33.9969274], [-96.3910608, 33.9970057], [-96.3910034, 33.9971689]]]}, "properties": {"osm_id": 1057073127, "building": "retail", "name": "The Medicine Store", "height": null, "height_m": null, "levels": null, "tract_id": "40013796101", "tract_name": "7961.01", "tags": {"amenity": "pharmacy", "building": "retail", "healthcare": "pharmacy", "name": "The Medicine Store"}}}, {"type": "Feature", "geometry": {"type": "Polygon", "coordinates": [[[-96.3907076, 33.9963706], [-96.3908499, 33.9964068], [-96.3908382, 33.9964384], [-96.3909156, 33.9964581], [-96.3908902, 33.9965269], [-96.3908127, 33.9965072], [-96.3907978, 33.9965475], [-96.3907253, 33.9965291], [-96.390723, 33.9965351], [-96.3906533, 33.9965174], [-96.3907076, 33.9963706]]]}, "properties": {"osm_id": 1057073132, "building": "office", "name": "", "height": null, "height_m": null, "levels": null, "tract_id": "40013796101", "tract_name": "7961.01", "tags": {"building": "office"}}}, {"type": "Feature", "geometry": {"type": "Polygon", "coordinates": [[[-96.3907345, 33.9959542], [-96.3906885, 33.9959422], [-96.3906791, 33.9959668], [-96.3905913, 33.9959438], [-96.3906007, 33.9959191], [-96.3905668, 33.9959103], [-96.3905885, 33.9958534], [-96.3906412, 33.995828], [-96.3907697, 33.9958617], [-96.3907345, 33.9959542]]]}, "properties": {"osm_id": 1057073136, "building": "retail", "name": "Lucky Stop", "height": null, "height_m": null, "levels": null, "tract_id": "40013796101", "tract_name": "7961.01", "tags": {"building": "retail", "name": "Lucky Stop", "shop": "convenience"}}}, {"type": "Feature", "geometry": {"type": "Polygon", "coordinates": [[[-96.3906594, 33.995803], [-96.3905346, 33.9958525], [-96.3904766, 33.9957519], [-96.3906014, 33.9957025], [-96.3906594, 33.995803]]]}, "properties": {"osm_id": 1057073137, "building": "roof", "name": "Valero", "height": null, "height_m": null, "levels": null, "tract_id": "40013796101", "tract_name": "7961.01", "tags": {"amenity": "fuel", "brand": "Valero", "brand:wikidata": "Q1283291", "building": "roof", "layer": "1", "name": "Valero", "website": "https://locations.valero.com/en-us/LocationDetails/Index/201-N-WASHINGTON/0000003752"}}}, {"type": "Feature", "geometry": {"type": "Polygon", "coordinates": [[[-96.3910749, 33.9955958], [-96.3908255, 33.9955358], [-96.390686, 33.9953178], [-96.3907641, 33.9951071], [-96.3908965, 33.9951408], [-96.3909125, 33.9950978], [-96.3907801, 33.995064], [-96.3908348, 33.9949164], [-96.3911889, 33.9947474], [-96.3913767, 33.9947975], [-96.3913552, 33.9948475], [-96.3913945, 33.9948576], [-96.391437, 33.9948686], [-96.3914558, 33.994823], [-96.3917025, 33.9948797], [-96.3917897, 33.9950332], [-96.3916905, 33.99531], [-96.3914705, 33.99525], [-96.3914021, 33.9951344], [-96.3912839, 33.9951831], [-96.3911513, 33.9952378], [-96.3911835, 33.9952834], [-96.3911634, 33.9953356], [-96.3911326, 33.9953523], [-96.3911513, 33.9953823], [-96.3910749, 33.9955958]]]}, "properties": {"osm_id": 1057073153, "building": "office", "name": "", "height": null, "height_m": 9.0, "levels": 3, "tract_id": "40013796101", "tract_name": "7961.01", "tags": {"building": "office", "building:levels": "3"}}}, {"type": "Feature", "geometry": {"type": "Polygon", "coordinates": [[[-96.3905897, 33.9972233], [-96.3905767, 33.9973717], [-96.3908064, 33.997387], [-96.3908104, 33.9973436], [-96.3907392, 33.9973389], [-96.390749, 33.9972329], [-96.3907461, 33.9972327], [-96.3905897, 33.9972233]]]}, "properties": {"osm_id": 1057073166, "building": "retail", "name": "Bond Laundry Company", "height": null, "height_m": null, "levels": null, "tract_id": "40013796101", "tract_name": "7961.01", "tags": {"building": "retail", "name": "Bond Laundry Company", "shop": "laundry", "source": "microsoft/BuildingFootprints"}}}, {"type": "Feature", "geometry": {"type": "Polygon", "coordinates": [[[-96.3939192, 33.996279], [-96.3939007, 33.9963305], [-96.3939659, 33.9963467], [-96.3940366, 33.9961506], [-96.3939531, 33.9961299], [-96.3939353, 33.9961792], [-96.3938319, 33.9961536], [-96.3938018, 33.9962373], [-96.3938919, 33.9962596], [-96.3938878, 33.9962712], [-96.3939192, 33.996279]]]}, "properties": {"osm_id": 1057073169, "building": "yes", "name": "", "height": null, "height_m": null, "levels": null, "tract_id": "40013796101", "tract_name": "7961.01", "tags": {"building": "yes", "source": "microsoft/BuildingFootprints"}}}, {"type": "Feature", "geometry": {"type": "Polygon", "coordinates": [[[-96.3750205, 34.0426716], [-96.3750931, 34.0423152], [-96.3748612, 34.0422756], [-96.3747869, 34.0426349], [-96.3750205, 34.0426716]]]}, "properties": {"osm_id": 1078023688, "building": "yes", "name": "", "height": null, "height_m": null, "levels": null, "tract_id": "40013796101", "tract_name": "7961.01", "tags": {"building": "yes", "shop": "yes"}}}, {"type": "Feature", "geometry": {"type": "Polygon", "coordinates": [[[-96.373904, 34.0176498], [-96.3739536, 34.0176492], [-96.3739565, 34.0177985], [-96.3739068, 34.0177991], [-96.373904, 34.0176498]]]}, "properties": {"osm_id": 1133405298, "building": "yes", "name": "", "height": null, "height_m": null, "levels": null, "tract_id": "40013796101", "tract_name": "7961.01", "tags": {"building": "yes"}}}, {"type": "Feature", "geometry": {"type": "Polygon", "coordinates": [[[-96.3749865, 34.0177203], [-96.3746647, 34.0177142], [-96.3746677, 34.0176063], [-96.3749895, 34.0176124], [-96.3749865, 34.0177203]]]}, "properties": {"osm_id": 1133405299, "building": "yes", "name": "", "height": null, "height_m": null, "levels": null, "tract_id": "40013796101", "tract_name": "7961.01", "tags": {"building": "yes"}}}, {"type": "Feature", "geometry": {"type": "Polygon", "coordinates": [[[-96.3749892, 34.0178954], [-96.3746593, 34.0178943], [-96.3746599, 34.0177808], [-96.3749898, 34.0177819], [-96.3749892, 34.0178954]]]}, "properties": {"osm_id": 1133405300, "building": "yes", "name": "", "height": null, "height_m": null, "levels": null, "tract_id": "40013796101", "tract_name": "7961.01", "tags": {"building": "yes"}}}, {"type": "Feature", "geometry": {"type": "Polygon", "coordinates": [[[-96.3724606, 34.0166932], [-96.3722688, 34.0166921], [-96.3722696, 34.0165998], [-96.3724614, 34.0166009], [-96.3724606, 34.0166932]]]}, "properties": {"osm_id": 1133405301, "building": "yes", "name": "", "height": null, "height_m": null, "levels": null, "tract_id": "40013796101", "tract_name": "7961.01", "tags": {"building": "yes"}}}, {"type": "Feature", "geometry": {"type": "Polygon", "coordinates": [[[-96.3725115, 34.0166943], [-96.3725103, 34.0165572], [-96.3726941, 34.016556], [-96.3726953, 34.0166932], [-96.3725115, 34.0166943]]]}, "properties": {"osm_id": 1133405302, "building": "yes", "name": "", "height": null, "height_m": null, "levels": null, "tract_id": "40013796101", "tract_name": "7961.01", "tags": {"building": "yes"}}}, {"type": "Feature", "geometry": {"type": "Polygon", "coordinates": [[[-96.3720422, 34.0175747], [-96.3720422, 34.0173846], [-96.3722527, 34.0173846], [-96.3722527, 34.0175747], [-96.3720422, 34.0175747]]]}, "properties": {"osm_id": 1133405303, "building": "yes", "name": "", "height": null, "height_m": null, "levels": null, "tract_id": "40013796101", "tract_name": "7961.01", "tags": {"building": "yes"}}}, {"type": "Feature", "geometry": {"type": "Polygon", "coordinates": [[[-96.3734154, 34.017498], [-96.3734235, 34.0171512], [-96.3734667, 34.0171519], [-96.3734587, 34.0174987], [-96.3734154, 34.017498]]]}, "properties": {"osm_id": 1133405304, "building": "yes", "name": "", "height": null, "height_m": null, "levels": null, "tract_id": "40013796101", "tract_name": "7961.01", "tags": {"building": "yes"}}}, {"type": "Feature", "geometry": {"type": "Polygon", "coordinates": [[[-96.3731754, 34.0171467], [-96.3731727, 34.0175025], [-96.3731257, 34.0175022], [-96.3731284, 34.0171465], [-96.3731754, 34.0171467]]]}, "properties": {"osm_id": 1133405305, "building": "yes", "name": "", "height": null, "height_m": null, "levels": null, "tract_id": "40013796101", "tract_name": "7961.01", "tags": {"building": "yes"}}}, {"type": "Feature", "geometry": {"type": "Polygon", "coordinates": [[[-96.3723882, 34.0175769], [-96.3723882, 34.0174002], [-96.3724767, 34.0174002], [-96.3724767, 34.0175769], [-96.3723882, 34.0175769]]]}, "properties": {"osm_id": 1133405306, "building": "yes", "name": "", "height": null, "height_m": null, "levels": null, "tract_id": "40013796101", "tract_name": "7961.01", "tags": {"building": "yes"}}}, {"type": "Feature", "geometry": {"type": "Polygon", "coordinates": [[[-96.3723224, 34.0172735], [-96.3723237, 34.017153], [-96.3726308, 34.0171552], [-96.3726296, 34.0172757], [-96.3723224, 34.0172735]]]}, "properties": {"osm_id": 1133405307, "building": "yes", "name": "", "height": null, "height_m": null, "levels": null, "tract_id": "40013796101", "tract_name": "7961.01", "tags": {"building": "yes"}}}, {"type": "Feature", "geometry": {"type": "Polygon", "coordinates": [[[-96.373353, 34.0171609], [-96.3733511, 34.0175068], [-96.3732486, 34.0175064], [-96.3732505, 34.0171605], [-96.373353, 34.0171609]]]}, "properties": {"osm_id": 1133405308, "building": "yes", "name": "", "height": null, "height_m": null, "levels": null, "tract_id": "40013796101", "tract_name": "7961.01", "tags": {"building": "yes"}}}, {"type": "Feature", "geometry": {"type": "Polygon", "coordinates": [[[-96.373221, 34.01698], [-96.3732242, 34.0168749], [-96.3735407, 34.0168816], [-96.3735375, 34.0169867], [-96.373221, 34.01698]]]}, "properties": {"osm_id": 1133405309, "building": "yes", "name": "", "height": null, "height_m": null, "levels": null, "tract_id": "40013796101", "tract_name": "7961.01", "tags": {"building": "yes"}}}, {"type": "Feature", "geometry": {"type": "Polygon", "coordinates": [[[-96.3741893, 34.016811], [-96.3732103, 34.0168066], [-96.3732108, 34.0167198], [-96.3741898, 34.0167242], [-96.3741893, 34.016811]]]}, "properties": {"osm_id": 1133405310, "building": "yes", "name": "", "height": null, "height_m": null, "levels": null, "tract_id": "40013796101", "tract_name": "7961.01", "tags": {"building": "yes"}}}, {"type": "Feature", "geometry": {"type": "Polygon", "coordinates": [[[-96.3753346, 34.0168088], [-96.3742992, 34.0168021], [-96.3743005, 34.0166643], [-96.3753359, 34.016671], [-96.3753346, 34.0168088]]]}, "properties": {"osm_id": 1133405311, "building": "yes", "name": "", "height": null, "height_m": null, "levels": null, "tract_id": "40013796101", "tract_name": "7961.01", "tags": {"building": "yes"}}}, {"type": "Feature", "geometry": {"type": "Polygon", "coordinates": [[[-96.3741354, 34.0168999], [-96.3741385, 34.0170495], [-96.3739725, 34.0170518], [-96.3739694, 34.0169023], [-96.3741354, 34.0168999]]]}, "properties": {"osm_id": 1133405312, "building": "yes", "name": "", "height": null, "height_m": null, "levels": null, "tract_id": "40013796101", "tract_name": "7961.01", "tags": {"building": "yes"}}}, {"type": "Feature", "geometry": {"type": "Polygon", "coordinates": [[[-96.3748513, 34.0173778], [-96.3737665, 34.0173763], [-96.3737667, 34.0172489], [-96.3748516, 34.0172504], [-96.3748513, 34.0173778]]]}, "properties": {"osm_id": 1133405313, "building": "yes", "name": "", "height": null, "height_m": null, "levels": null, "tract_id": "40013796101", "tract_name": "7961.01", "tags": {"building": "yes"}}}, {"type": "Feature", "geometry": {"type": "Polygon", "coordinates": [[[-96.3722862, 34.0187935], [-96.372087, 34.0187919], [-96.3720885, 34.0186659], [-96.3722876, 34.0186675], [-96.3722862, 34.0187935]]]}, "properties": {"osm_id": 1133405314, "building": "yes", "name": "", "height": null, "height_m": null, "levels": null, "tract_id": "40013796101", "tract_name": "7961.01", "tags": {"building": "yes"}}}, {"type": "Feature", "geometry": {"type": "Polygon", "coordinates": [[[-96.372022, 34.0186163], [-96.3720225, 34.0185495], [-96.3726299, 34.0185522], [-96.3726295, 34.018619], [-96.372022, 34.0186163]]]}, "properties": {"osm_id": 1133405315, "building": "yes", "name": "", "height": null, "height_m": null, "levels": null, "tract_id": "40013796101", "tract_name": "7961.01", "tags": {"building": "yes"}}}, {"type": "Feature", "geometry": {"type": "Polygon", "coordinates": [[[-96.3710015, 34.0196823], [-96.3710001, 34.0195968], [-96.3715245, 34.0195912], [-96.3715258, 34.0196767], [-96.3710015, 34.0196823]]]}, "properties": {"osm_id": 1133405316, "building": "yes", "name": "", "height": null, "height_m": null, "levels": null, "tract_id": "40013796101", "tract_name": "7961.01", "tags": {"building": "yes"}}}, {"type": "Feature", "geometry": {"type": "Polygon", "coordinates": [[[-96.3719931, 34.0196903], [-96.3719924, 34.0196365], [-96.372622, 34.0196302], [-96.3726228, 34.019684], [-96.3719931, 34.0196903]]]}, "properties": {"osm_id": 1133405317, "building": "yes", "name": "", "height": null, "height_m": null, "levels": null, "tract_id": "40013796101", "tract_name": "7961.01", "tags": {"building": "yes"}}}, {"type": "Feature", "geometry": {"type": "Polygon", "coordinates": [[[-96.3716081, 34.0196824], [-96.3716056, 34.0196022], [-96.3718626, 34.0195967], [-96.3718651, 34.0196769], [-96.3716081, 34.0196824]]]}, "properties": {"osm_id": 1133405318, "building": "yes", "name": "", "height": null, "height_m": null, "levels": null, "tract_id": "40013796101", "tract_name": "7961.01", "tags": {"building": "yes"}}}, {"type": "Feature", "geometry": {"type": "Polygon", "coordinates": [[[-96.3749772, 34.0189325], [-96.3749128, 34.0189747], [-96.3748723, 34.0189324], [-96.3749367, 34.0188902], [-96.3749772, 34.0189325]]]}, "properties": {"osm_id": 1133405319, "building": "yes", "name": "", "height": null, "height_m": null, "levels": null, "tract_id": "40013796101", "tract_name": "7961.01", "tags": {"building": "yes"}}}, {"type": "Feature", "geometry": {"type": "Polygon", "coordinates": [[[-96.3753359, 34.0183039], [-96.3754376, 34.0183054], [-96.3754309, 34.0186222], [-96.3753292, 34.0186207], [-96.3753359, 34.0183039]]]}, "properties": {"osm_id": 1133405320, "building": "yes", "name": "", "height": null, "height_m": null, "levels": null, "tract_id": "40013796101", "tract_name": "7961.01", "tags": {"building": "yes"}}}, {"type": "Feature", "geometry": {"type": "Polygon", "coordinates": [[[-96.3753037, 34.018753], [-96.3751052, 34.0187508], [-96.3751069, 34.0186482], [-96.3753054, 34.0186505], [-96.3753037, 34.018753]]]}, "properties": {"osm_id": 1133405321, "building": "yes", "name": "", "height": null, "height_m": null, "levels": null, "tract_id": "40013796101", "tract_name": "7961.01", "tags": {"building": "yes"}}}, {"type": "Feature", "geometry": {"type": "Polygon", "coordinates": [[[-96.3748987, 34.0186025], [-96.3749092, 34.0182825], [-96.375104, 34.0182869], [-96.3750935, 34.0186068], [-96.3748987, 34.0186025]]]}, "properties": {"osm_id": 1133405322, "building": "yes", "name": "", "height": null, "height_m": null, "levels": null, "tract_id": "40013796101", "tract_name": "7961.01", "tags": {"building": "yes"}}}, {"type": "Feature", "geometry": {"type": "Polygon", "coordinates": [[[-96.3745223, 34.0186017], [-96.3745232, 34.0182943], [-96.3746589, 34.0182946], [-96.374658, 34.018602], [-96.3745223, 34.0186017]]]}, "properties": {"osm_id": 1133405323, "building": "yes", "name": "", "height": null, "height_m": null, "levels": null, "tract_id": "40013796101", "tract_name": "7961.01", "tags": {"building": "yes"}}}, {"type": "Feature", "geometry": {"type": "Polygon", "coordinates": [[[-96.3742767, 34.0185529], [-96.3742786, 34.0183352], [-96.3744079, 34.018336], [-96.374406, 34.0185537], [-96.3742767, 34.0185529]]]}, "properties": {"osm_id": 1133405324, "building": "yes", "name": "", "height": null, "height_m": null, "levels": null, "tract_id": "40013796101", "tract_name": "7961.01", "tags": {"building": "yes"}}}, {"type": "Feature", "geometry": {"type": "Polygon", "coordinates": [[[-96.3732146, 34.0184563], [-96.3741154, 34.0184563], [-96.3741154, 34.0185647], [-96.3732146, 34.0185647], [-96.3732146, 34.0184563]]]}, "properties": {"osm_id": 1133405325, "building": "yes", "name": "", "height": null, "height_m": null, "levels": null, "tract_id": "40013796101", "tract_name": "7961.01", "tags": {"building": "yes"}}}, {"type": "Feature", "geometry": {"type": "Polygon", "coordinates": [[[-96.374106, 34.0182755], [-96.3741065, 34.018384], [-96.3732151, 34.0183872], [-96.3732146, 34.0182786], [-96.374106, 34.0182755]]]}, "properties": {"osm_id": 1133405326, "building": "yes", "name": "", "height": null, "height_m": null, "levels": null, "tract_id": "40013796101", "tract_name": "7961.01", "tags": {"building": "yes"}}}, {"type": "Feature", "geometry": {"type": "Polygon", "coordinates": [[[-96.3732127, 34.018211], [-96.3732141, 34.0180652], [-96.3741226, 34.0180715], [-96.3741211, 34.0182173], [-96.3732127, 34.018211]]]}, "properties": {"osm_id": 1133405327, "building": "yes", "name": "", "height": null, "height_m": null, "levels": null, "tract_id": "40013796101", "tract_name": "7961.01", "tags": {"building": "yes"}}}, {"type": "Feature", "geometry": {"type": "Polygon", "coordinates": [[[-96.3753463, 34.0182189], [-96.374233, 34.0182126], [-96.3742339, 34.0181056], [-96.3753472, 34.0181119], [-96.3753463, 34.0182189]]]}, "properties": {"osm_id": 1133405328, "building": "yes", "name": "", "height": null, "height_m": null, "levels": null, "tract_id": "40013796101", "tract_name": "7961.01", "tags": {"building": "yes"}}}, {"type": "Feature", "geometry": {"type": "Polygon", "coordinates": [[[-96.3721173, 34.0243285], [-96.3716465, 34.024324], [-96.371649, 34.0241469], [-96.3721197, 34.0241513], [-96.3721173, 34.0243285]]]}, "properties": {"osm_id": 1133405329, "building": "yes", "name": "", "height": null, "height_m": null, "levels": null, "tract_id": "40013796101", "tract_name": "7961.01", "tags": {"building": "yes"}}}, {"type": "Feature", "geometry": {"type": "Polygon", "coordinates": [[[-96.3718206, 34.0237585], [-96.3714336, 34.0237554], [-96.3714351, 34.0236342], [-96.371822, 34.0236373], [-96.3718206, 34.0237585]]]}, "properties": {"osm_id": 1133405330, "building": "yes", "name": "", "height": null, "height_m": null, "levels": null, "tract_id": "40013796101", "tract_name": "7961.01", "tags": {"building": "yes"}}}, {"type": "Feature", "geometry": {"type": "Polygon", "coordinates": [[[-96.3723895, 34.0229584], [-96.3709827, 34.0229447], [-96.3709873, 34.0226215], [-96.3723941, 34.0226353], [-96.3723895, 34.0229584]]]}, "properties": {"osm_id": 1133405331, "building": "yes", "name": "", "height": null, "height_m": null, "levels": null, "tract_id": "40013796101", "tract_name": "7961.01", "tags": {"building": "yes"}}}, {"type": "Feature", "geometry": {"type": "Polygon", "coordinates": [[[-96.3696157, 34.0260747], [-96.3694356, 34.0260747], [-96.3694356, 34.0260047], [-96.3696157, 34.0260047], [-96.3696157, 34.0260747]]]}, "properties": {"osm_id": 1133405332, "building": "yes", "name": "", "height": null, "height_m": null, "levels": null, "tract_id": "40013796101", "tract_name": "7961.01", "tags": {"building": "yes"}}}, {"type": "Feature", "geometry": {"type": "Polygon", "coordinates": [[[-96.3732269, 34.0263411], [-96.373226, 34.0261727], [-96.3736423, 34.0261711], [-96.3736432, 34.0263396], [-96.3732269, 34.0263411]]]}, "properties": {"osm_id": 1133405334, "building": "yes", "name": "", "height": null, "height_m": null, "levels": null, "tract_id": "40013796101", "tract_name": "7961.01", "tags": {"building": "yes"}}}, {"type": "Feature", "geometry": {"type": "Polygon", "coordinates": [[[-96.3743582, 34.0263961], [-96.3740339, 34.0263961], [-96.3740339, 34.0263183], [-96.3743582, 34.0263183], [-96.3743582, 34.0263961]]]}, "properties": {"osm_id": 1133405335, "building": "yes", "name": "", "height": null, "height_m": null, "levels": null, "tract_id": "40013796101", "tract_name": "7961.01", "tags": {"building": "yes"}}}, {"type": "Feature", "geometry": {"type": "Polygon", "coordinates": [[[-96.3740405, 34.0262539], [-96.3740403, 34.0261729], [-96.37443, 34.0261721], [-96.3744303, 34.0262531], [-96.3740405, 34.0262539]]]}, "properties": {"osm_id": 1133405336, "building": "yes", "name": "", "height": null, "height_m": null, "levels": null, "tract_id": "40013796101", "tract_name": "7961.01", "tags": {"building": "yes"}}}, {"type": "Feature", "geometry": {"type": "Polygon", "coordinates": [[[-96.374424, 34.0261124], [-96.3740323, 34.0261124], [-96.3740323, 34.0260202], [-96.374424, 34.0260202], [-96.374424, 34.0261124]]]}, "properties": {"osm_id": 1133405337, "building": "yes", "name": "", "height": null, "height_m": null, "levels": null, "tract_id": "40013796101", "tract_name": "7961.01", "tags": {"building": "yes"}}}, {"type": "Feature", "geometry": {"type": "Polygon", "coordinates": [[[-96.3740297, 34.0259724], [-96.3740313, 34.0258726], [-96.3744269, 34.0258771], [-96.3744253, 34.0259768], [-96.3740297, 34.0259724]]]}, "properties": {"osm_id": 1133405338, "building": "yes", "name": "", "height": null, "height_m": null, "levels": null, "tract_id": "40013796101", "tract_name": "7961.01", "tags": {"building": "yes"}}}, {"type": "Feature", "geometry": {"type": "Polygon", "coordinates": [[[-96.3834523, 34.0244619], [-96.383463, 34.0246808], [-96.3832885, 34.0246867], [-96.3832778, 34.0244677], [-96.3834523, 34.0244619]]]}, "properties": {"osm_id": 1133405340, "building": "yes", "name": "", "height": null, "height_m": null, "levels": null, "tract_id": "40013796101", "tract_name": "7961.01", "tags": {"building": "yes"}}}, {"type": "Feature", "geometry": {"type": "Polygon", "coordinates": [[[-96.3861177, 34.0293657], [-96.3861155, 34.0292851], [-96.3862342, 34.0292829], [-96.3862364, 34.0293635], [-96.3861177, 34.0293657]]]}, "properties": {"osm_id": 1133405341, "building": "yes", "name": "", "height": null, "height_m": null, "levels": null, "tract_id": "40013796101", "tract_name": "7961.01", "tags": {"building": "yes"}}}, {"type": "Feature", "geometry": {"type": "Polygon", "coordinates": [[[-96.3867018, 34.0291701], [-96.3865167, 34.0293101], [-96.3864837, 34.0292802], [-96.3866688, 34.0291402], [-96.3867018, 34.0291701]]]}, "properties": {"osm_id": 1133405342, "building": "yes", "name": "", "height": null, "height_m": null, "levels": null, "tract_id": "40013796101", "tract_name": "7961.01", "tags": {"building": "yes"}}}, {"type": "Feature", "geometry": {"type": "Polygon", "coordinates": [[[-96.3864576, 34.0290604], [-96.3863182, 34.029051], [-96.3863289, 34.0289423], [-96.3864683, 34.0289518], [-96.3864576, 34.0290604]]]}, "properties": {"osm_id": 1133405343, "building": "yes", "name": "", "height": null, "height_m": null, "levels": null, "tract_id": "40013796101", "tract_name": "7961.01", "tags": {"building": "yes"}}}, {"type": "Feature", "geometry": {"type": "Polygon", "coordinates": [[[-96.3853915, 34.02877], [-96.3854922, 34.0286224], [-96.3857792, 34.0287568], [-96.3856785, 34.0289044], [-96.3853915, 34.02877]]]}, "properties": {"osm_id": 1133405344, "building": "yes", "name": "", "height": null, "height_m": null, "levels": null, "tract_id": "40013796101", "tract_name": "7961.01", "tags": {"building": "yes"}}}, {"type": "Feature", "geometry": {"type": "Polygon", "coordinates": [[[-96.3842139, 34.0299847], [-96.3842599, 34.0299029], [-96.3845368, 34.0300098], [-96.3844908, 34.0300915], [-96.3842139, 34.0299847]]]}, "properties": {"osm_id": 1133405345, "building": "yes", "name": "", "height": null, "height_m": null, "levels": null, "tract_id": "40013796101", "tract_name": "7961.01", "tags": {"building": "yes"}}}, {"type": "Feature", "geometry": {"type": "Polygon", "coordinates": [[[-96.3840544, 34.030506], [-96.3838651, 34.030513], [-96.3838544, 34.0303129], [-96.3840437, 34.030306], [-96.3840544, 34.030506]]]}, "properties": {"osm_id": 1133405346, "building": "yes", "name": "", "height": null, "height_m": null, "levels": null, "tract_id": "40013796101", "tract_name": "7961.01", "tags": {"building": "yes"}}}, {"type": "Feature", "geometry": {"type": "Polygon", "coordinates": [[[-96.3845788, 34.030506], [-96.3842475, 34.0305027], [-96.3842516, 34.0302256], [-96.3845829, 34.030229], [-96.3845788, 34.030506]]]}, "properties": {"osm_id": 1133405347, "building": "yes", "name": "", "height": null, "height_m": null, "levels": null, "tract_id": "40013796101", "tract_name": "7961.01", "tags": {"building": "yes"}}}, {"type": "Feature", "geometry": {"type": "Polygon", "coordinates": [[[-96.3948691, 34.0325852], [-96.3946292, 34.0325852], [-96.3946292, 34.0324775], [-96.3948691, 34.0324775], [-96.3948691, 34.0325852]]]}, "properties": {"osm_id": 1133405351, "building": "yes", "name": "", "height": null, "height_m": null, "levels": null, "tract_id": "40013796101", "tract_name": "7961.01", "tags": {"building": "yes"}}}, {"type": "Feature", "geometry": {"type": "Polygon", "coordinates": [[[-96.3914362, 34.0332634], [-96.3913528, 34.0332626], [-96.3913539, 34.033183], [-96.3914373, 34.0331838], [-96.3914362, 34.0332634]]]}, "properties": {"osm_id": 1133405353, "building": "yes", "name": "", "height": null, "height_m": null, "levels": null, "tract_id": "40013796101", "tract_name": "7961.01", "tags": {"building": "yes"}}}, {"type": "Feature", "geometry": {"type": "Polygon", "coordinates": [[[-96.391716, 34.0331801], [-96.3917292, 34.032927], [-96.3918995, 34.0329332], [-96.3918862, 34.0331862], [-96.391716, 34.0331801]]]}, "properties": {"osm_id": 1133405354, "building": "yes", "name": "", "height": null, "height_m": null, "levels": null, "tract_id": "40013796101", "tract_name": "7961.01", "tags": {"building": "yes"}}}, {"type": "Feature", "geometry": {"type": "Polygon", "coordinates": [[[-96.3892693, 34.0304381], [-96.3892693, 34.030332], [-96.3893756, 34.030332], [-96.3893756, 34.0304381], [-96.3892693, 34.0304381]]]}, "properties": {"osm_id": 1133405355, "building": "yes", "name": "", "height": null, "height_m": null, "levels": null, "tract_id": "40013796101", "tract_name": "7961.01", "tags": {"building": "yes"}}}, {"type": "Feature", "geometry": {"type": "Polygon", "coordinates": [[[-96.3999112, 34.0026277], [-96.4000007, 34.0024852], [-96.4002302, 34.0025842], [-96.4001407, 34.0027268], [-96.3999112, 34.0026277]]]}, "properties": {"osm_id": 1133405377, "building": "yes", "name": "", "height": null, "height_m": null, "levels": null, "tract_id": "40013796101", "tract_name": "7961.01", "tags": {"building": "yes"}}}, {"type": "Feature", "geometry": {"type": "Polygon", "coordinates": [[[-96.4005279, 34.0017124], [-96.4005614, 34.0016236], [-96.4007391, 34.0016697], [-96.4007056, 34.0017586], [-96.4005279, 34.0017124]]]}, "properties": {"osm_id": 1133405378, "building": "yes", "name": "", "height": null, "height_m": null, "levels": null, "tract_id": "40013796101", "tract_name": "7961.01", "tags": {"building": "yes"}}}, {"type": "Feature", "geometry": {"type": "Polygon", "coordinates": [[[-96.4001767, 34.0020161], [-96.400333, 34.0017698], [-96.4006611, 34.0019129], [-96.4005049, 34.0021592], [-96.4001767, 34.0020161]]]}, "properties": {"osm_id": 1133405379, "building": "yes", "name": "", "height": null, "height_m": null, "levels": null, "tract_id": "40013796101", "tract_name": "7961.01", "tags": {"building": "yes"}}}, {"type": "Feature", "geometry": {"type": "Polygon", "coordinates": [[[-96.4018576, 33.9961271], [-96.4014821, 33.9960426], [-96.4015279, 33.9959026], [-96.4019034, 33.9959871], [-96.4018576, 33.9961271]]]}, "properties": {"osm_id": 1133405380, "building": "yes", "name": "", "height": null, "height_m": null, "levels": null, "tract_id": "40013796101", "tract_name": "7961.01", "tags": {"building": "yes"}}}, {"type": "Feature", "geometry": {"type": "Polygon", "coordinates": [[[-96.4018799, 33.9991921], [-96.4017851, 33.9994484], [-96.4016308, 33.9994092], [-96.4017257, 33.9991529], [-96.4018799, 33.9991921]]]}, "properties": {"osm_id": 1133405381, "building": "yes", "name": "", "height": null, "height_m": null, "levels": null, "tract_id": "40013796101", "tract_name": "7961.01", "tags": {"building": "yes"}}}, {"type": "Feature", "geometry": {"type": "Polygon", "coordinates": [[[-96.401584, 33.9995605], [-96.4018114, 33.9996202], [-96.4016156, 34.0001327], [-96.4013882, 34.000073], [-96.401584, 33.9995605]]]}, "properties": {"osm_id": 1133405382, "building": "yes", "name": "", "height": null, "height_m": null, "levels": null, "tract_id": "40013796101", "tract_name": "7961.01", "tags": {"building": "yes"}}}, {"type": "Feature", "geometry": {"type": "Polygon", "coordinates": [[[-96.4002336, 33.9971205], [-96.4002597, 33.9970493], [-96.4004845, 33.9971059], [-96.4004584, 33.9971771], [-96.4002336, 33.9971205]]]}, "properties": {"osm_id": 1133405383, "building": "yes", "name": "", "height": null, "height_m": null, "levels": null, "tract_id": "40013796101", "tract_name": "7961.01", "tags": {"building": "yes"}}}, {"type": "Feature", "geometry": {"type": "Polygon", "coordinates": [[[-96.400715, 33.9971634], [-96.4006278, 33.9974335], [-96.4004739, 33.9973994], [-96.4005611, 33.9971292], [-96.400715, 33.9971634]]]}, "properties": {"osm_id": 1133405384, "building": "yes", "name": "", "height": null, "height_m": null, "levels": null, "tract_id": "40013796101", "tract_name": "7961.01", "tags": {"building": "yes"}}}, {"type": "Feature", "geometry": {"type": "Polygon", "coordinates": [[[-96.4007485, 33.9972745], [-96.4008129, 33.9971111], [-96.4009424, 33.9971462], [-96.400878, 33.9973096], [-96.4007485, 33.9972745]]]}, "properties": {"osm_id": 1133405385, "building": "yes", "name": "", "height": null, "height_m": null, "levels": null, "tract_id": "40013796101", "tract_name": "7961.01", "tags": {"building": "yes"}}}, {"type": "Feature", "geometry": {"type": "Polygon", "coordinates": [[[-96.4025992, 33.9969799], [-96.4025362, 33.99714], [-96.4024146, 33.9971071], [-96.4024776, 33.996947], [-96.4025992, 33.9969799]]]}, "properties": {"osm_id": 1133405386, "building": "roof", "name": "", "height": null, "height_m": null, "levels": null, "tract_id": "40013796101", "tract_name": "7961.01", "tags": {"building": "roof", "layer": "1"}}}, {"type": "Feature", "geometry": {"type": "Polygon", "coordinates": [[[-96.4004907, 33.9960457], [-96.4006443, 33.9960865], [-96.4005178, 33.9964137], [-96.4005549, 33.9964235], [-96.4004752, 33.9966298], [-96.4002846, 33.9965792], [-96.4004907, 33.9960457]]]}, "properties": {"osm_id": 1133405420, "building": "yes", "name": "", "height": null, "height_m": null, "levels": null, "tract_id": "40013796101", "tract_name": "7961.01", "tags": {"building": "yes"}}}, {"type": "Feature", "geometry": {"type": "Polygon", "coordinates": [[[-96.4009336, 33.9961415], [-96.4008263, 33.9961082], [-96.4008617, 33.9960298], [-96.400969, 33.9960632], [-96.4009336, 33.9961415]]]}, "properties": {"osm_id": 1133405422, "building": "yes", "name": "", "height": null, "height_m": null, "levels": null, "tract_id": "40013796101", "tract_name": "7961.01", "tags": {"building": "yes"}}}, {"type": "Feature", "geometry": {"type": "Polygon", "coordinates": [[[-96.4010784, 33.9958903], [-96.401014, 33.9960437], [-96.4008857, 33.9960067], [-96.4009501, 33.9958533], [-96.4010784, 33.9958903]]]}, "properties": {"osm_id": 1133405423, "building": "yes", "name": "", "height": null, "height_m": null, "levels": null, "tract_id": "40013796101", "tract_name": "7961.01", "tags": {"building": "yes"}}}, {"type": "Feature", "geometry": {"type": "Polygon", "coordinates": [[[-96.4004242, 33.9959538], [-96.4001805, 33.9958909], [-96.4002323, 33.9957531], [-96.400476, 33.995816], [-96.4004242, 33.9959538]]]}, "properties": {"osm_id": 1133405424, "building": "yes", "name": "", "height": null, "height_m": null, "levels": null, "tract_id": "40013796101", "tract_name": "7961.01", "tags": {"building": "yes"}}}, {"type": "Feature", "geometry": {"type": "Polygon", "coordinates": [[[-96.4256596, 34.0342355], [-96.4257497, 34.0342336], [-96.4257545, 34.0343884], [-96.4256643, 34.0343903], [-96.4256596, 34.0342355]]]}, "properties": {"osm_id": 1133596705, "building": "yes", "name": "", "height": null, "height_m": null, "levels": null, "tract_id": "40013796101", "tract_name": "7961.01", "tags": {"building": "yes"}}}, {"type": "Feature", "geometry": {"type": "Polygon", "coordinates": [[[-96.4302285, 34.0321828], [-96.4303295, 34.0321902], [-96.4303172, 34.032305], [-96.4302162, 34.0322975], [-96.4302285, 34.0321828]]]}, "properties": {"osm_id": 1133596706, "building": "yes", "name": "", "height": null, "height_m": null, "levels": null, "tract_id": "40013796101", "tract_name": "7961.01", "tags": {"building": "yes"}}}, {"type": "Feature", "geometry": {"type": "Polygon", "coordinates": [[[-96.4283528, 34.0281389], [-96.4282034, 34.0281142], [-96.4282285, 34.0280103], [-96.4283778, 34.028035], [-96.4283528, 34.0281389]]]}, "properties": {"osm_id": 1133596707, "building": "yes", "name": "", "height": null, "height_m": null, "levels": null, "tract_id": "40013796101", "tract_name": "7961.01", "tags": {"building": "yes"}}}, {"type": "Feature", "geometry": {"type": "Polygon", "coordinates": [[[-96.4227454, 34.0326622], [-96.4227397, 34.0324948], [-96.4228923, 34.0324912], [-96.422898, 34.0326586], [-96.4227454, 34.0326622]]]}, "properties": {"osm_id": 1133596720, "building": "yes", "name": "", "height": null, "height_m": null, "levels": null, "tract_id": "40013796101", "tract_name": "7961.01", "tags": {"building": "yes"}}}, {"type": "Feature", "geometry": {"type": "Polygon", "coordinates": [[[-96.4231067, 34.0321859], [-96.4231096, 34.0324366], [-96.4229207, 34.0324381], [-96.4229178, 34.0321874], [-96.4231067, 34.0321859]]]}, "properties": {"osm_id": 1133596721, "building": "yes", "name": "", "height": null, "height_m": null, "levels": null, "tract_id": "40013796101", "tract_name": "7961.01", "tags": {"building": "yes"}}}, {"type": "Feature", "geometry": {"type": "Polygon", "coordinates": [[[-96.4257427, 34.0334313], [-96.425748, 34.0337035], [-96.425548, 34.0337062], [-96.4255426, 34.033434], [-96.4257427, 34.0334313]]]}, "properties": {"osm_id": 1133596725, "building": "yes", "name": "", "height": null, "height_m": null, "levels": null, "tract_id": "40013796101", "tract_name": "7961.01", "tags": {"building": "yes"}}}, {"type": "Feature", "geometry": {"type": "Polygon", "coordinates": [[[-96.3798897, 34.0401261], [-96.3798897, 34.039987], [-96.3799997, 34.039987], [-96.3799997, 34.0401261], [-96.3798897, 34.0401261]]]}, "properties": {"osm_id": 1133596727, "building": "yes", "name": "", "height": null, "height_m": null, "levels": null, "tract_id": "40013796101", "tract_name": "7961.01", "tags": {"building": "yes"}}}, {"type": "Feature", "geometry": {"type": "Polygon", "coordinates": [[[-96.380353, 34.0389386], [-96.3803562, 34.0388645], [-96.3805219, 34.0388695], [-96.3805186, 34.0389436], [-96.380353, 34.0389386]]]}, "properties": {"osm_id": 1133596728, "building": "yes", "name": "", "height": null, "height_m": null, "levels": null, "tract_id": "40013796101", "tract_name": "7961.01", "tags": {"building": "yes"}}}, {"type": "Feature", "geometry": {"type": "Polygon", "coordinates": [[[-96.3802311, 34.0378912], [-96.3801372, 34.0378897], [-96.380139, 34.0378158], [-96.3802329, 34.0378174], [-96.3802311, 34.0378912]]]}, "properties": {"osm_id": 1133596729, "building": "yes", "name": "", "height": null, "height_m": null, "levels": null, "tract_id": "40013796101", "tract_name": "7961.01", "tags": {"building": "yes"}}}, {"type": "Feature", "geometry": {"type": "Polygon", "coordinates": [[[-96.3824672, 34.0392939], [-96.3823885, 34.0392916], [-96.382391, 34.0392334], [-96.3824697, 34.0392358], [-96.3824672, 34.0392939]]]}, "properties": {"osm_id": 1133596730, "building": "yes", "name": "", "height": null, "height_m": null, "levels": null, "tract_id": "40013796101", "tract_name": "7961.01", "tags": {"building": "yes"}}}, {"type": "Feature", "geometry": {"type": "Polygon", "coordinates": [[[-96.3834159, 34.0396385], [-96.3834163, 34.0395971], [-96.3834902, 34.0395974], [-96.3834899, 34.0396389], [-96.3834159, 34.0396385]]]}, "properties": {"osm_id": 1133596731, "building": "yes", "name": "", "height": null, "height_m": null, "levels": null, "tract_id": "40013796101", "tract_name": "7961.01", "tags": {"building": "yes"}}}, {"type": "Feature", "geometry": {"type": "Polygon", "coordinates": [[[-96.3865155, 34.0391156], [-96.3865629, 34.0391312], [-96.3865279, 34.0392043], [-96.3864804, 34.0391886], [-96.3865155, 34.0391156]]]}, "properties": {"osm_id": 1133596733, "building": "yes", "name": "", "height": null, "height_m": null, "levels": null, "tract_id": "40013796101", "tract_name": "7961.01", "tags": {"building": "yes"}}}, {"type": "Feature", "geometry": {"type": "Polygon", "coordinates": [[[-96.3925034, 34.033848], [-96.3925067, 34.0337741], [-96.3925497, 34.0337755], [-96.3925463, 34.0338494], [-96.3925034, 34.033848]]]}, "properties": {"osm_id": 1133596734, "building": "yes", "name": "", "height": null, "height_m": null, "levels": null, "tract_id": "40013796101", "tract_name": "7961.01", "tags": {"building": "yes"}}}, {"type": "Feature", "geometry": {"type": "Polygon", "coordinates": [[[-96.3920906, 34.0333349], [-96.3921002, 34.0332431], [-96.3923733, 34.0332628], [-96.3923637, 34.0333545], [-96.3920906, 34.0333349]]]}, "properties": {"osm_id": 1133596735, "building": "yes", "name": "", "height": null, "height_m": null, "levels": null, "tract_id": "40013796101", "tract_name": "7961.01", "tags": {"building": "yes"}}}, {"type": "Feature", "geometry": {"type": "Polygon", "coordinates": [[[-96.3926832, 34.0332649], [-96.3927878, 34.033267], [-96.3927849, 34.0333645], [-96.3926804, 34.0333624], [-96.3926832, 34.0332649]]]}, "properties": {"osm_id": 1133596736, "building": "yes", "name": "", "height": null, "height_m": null, "levels": null, "tract_id": "40013796101", "tract_name": "7961.01", "tags": {"building": "yes"}}}, {"type": "Feature", "geometry": {"type": "Polygon", "coordinates": [[[-96.3950287, 34.0280531], [-96.3947591, 34.0280553], [-96.3947578, 34.0279487], [-96.3950274, 34.0279465], [-96.3950287, 34.0280531]]]}, "properties": {"osm_id": 1133596737, "building": "yes", "name": "", "height": null, "height_m": null, "levels": null, "tract_id": "40013796101", "tract_name": "7961.01", "tags": {"building": "yes"}}}, {"type": "Feature", "geometry": {"type": "Polygon", "coordinates": [[[-96.3891144, 34.0280575], [-96.3891171, 34.0281709], [-96.3890106, 34.0281726], [-96.3890079, 34.0280592], [-96.3891144, 34.0280575]]]}, "properties": {"osm_id": 1133596738, "building": "yes", "name": "", "height": null, "height_m": null, "levels": null, "tract_id": "40013796101", "tract_name": "7961.01", "tags": {"building": "yes"}}}, {"type": "Feature", "geometry": {"type": "Polygon", "coordinates": [[[-96.3889507, 34.0286918], [-96.3891546, 34.0285598], [-96.3892172, 34.0286262], [-96.3890133, 34.0287582], [-96.3889507, 34.0286918]]]}, "properties": {"osm_id": 1133596739, "building": "yes", "name": "", "height": null, "height_m": null, "levels": null, "tract_id": "40013796101", "tract_name": "7961.01", "tags": {"building": "yes"}}}, {"type": "Feature", "geometry": {"type": "Polygon", "coordinates": [[[-96.4034323, 34.0334591], [-96.4033118, 34.0334606], [-96.4033099, 34.033357], [-96.4034303, 34.0333554], [-96.4034323, 34.0334591]]]}, "properties": {"osm_id": 1133596766, "building": "yes", "name": "", "height": null, "height_m": null, "levels": null, "tract_id": "40013796101", "tract_name": "7961.01", "tags": {"building": "yes"}}}, {"type": "Feature", "geometry": {"type": "Polygon", "coordinates": [[[-96.4032007, 34.0332034], [-96.4030371, 34.0332056], [-96.4030337, 34.0330364], [-96.4031974, 34.0330341], [-96.4032007, 34.0332034]]]}, "properties": {"osm_id": 1133596767, "building": "yes", "name": "", "height": null, "height_m": null, "levels": null, "tract_id": "40013796101", "tract_name": "7961.01", "tags": {"building": "yes"}}}, {"type": "Feature", "geometry": {"type": "Polygon", "coordinates": [[[-96.3980146, 34.0391603], [-96.3982518, 34.0391663], [-96.3982442, 34.0393738], [-96.398007, 34.0393678], [-96.3980146, 34.0391603]]]}, "properties": {"osm_id": 1133596769, "building": "yes", "name": "", "height": null, "height_m": null, "levels": null, "tract_id": "40013796101", "tract_name": "7961.01", "tags": {"building": "yes"}}}, {"type": "Feature", "geometry": {"type": "Polygon", "coordinates": [[[-96.4031004, 34.0399595], [-96.4030696, 34.0398223], [-96.4032734, 34.0397909], [-96.4033042, 34.0399281], [-96.4031004, 34.0399595]]]}, "properties": {"osm_id": 1133596770, "building": "yes", "name": "", "height": null, "height_m": null, "levels": null, "tract_id": "40013796101", "tract_name": "7961.01", "tags": {"building": "yes"}}}, {"type": "Feature", "geometry": {"type": "Polygon", "coordinates": [[[-96.4020373, 34.0390771], [-96.4017718, 34.0390723], [-96.4017753, 34.0389357], [-96.4020408, 34.0389404], [-96.4020373, 34.0390771]]]}, "properties": {"osm_id": 1133596771, "building": "yes", "name": "", "height": null, "height_m": null, "levels": null, "tract_id": "40013796101", "tract_name": "7961.01", "tags": {"building": "yes"}}}, {"type": "Feature", "geometry": {"type": "Polygon", "coordinates": [[[-96.3934675, 34.0342033], [-96.3933167, 34.0342064], [-96.3933143, 34.0341274], [-96.3934651, 34.0341242], [-96.3934675, 34.0342033]]]}, "properties": {"osm_id": 1133596773, "building": "yes", "name": "", "height": null, "height_m": null, "levels": null, "tract_id": "40013796101", "tract_name": "7961.01", "tags": {"building": "yes"}}}, {"type": "Feature", "geometry": {"type": "Polygon", "coordinates": [[[-96.3730676, 34.0273518], [-96.3730665, 34.0271815], [-96.3734192, 34.0271799], [-96.3734203, 34.0273503], [-96.3730676, 34.0273518]]]}, "properties": {"osm_id": 1133596777, "building": "yes", "name": "", "height": null, "height_m": null, "levels": null, "tract_id": "40013796101", "tract_name": "7961.01", "tags": {"building": "yes"}}}, {"type": "Feature", "geometry": {"type": "Polygon", "coordinates": [[[-96.3758402, 34.0253978], [-96.3759912, 34.025399], [-96.3759872, 34.025738], [-96.3758361, 34.0257368], [-96.3758402, 34.0253978]]]}, "properties": {"osm_id": 1133596778, "building": "yes", "name": "", "height": null, "height_m": null, "levels": null, "tract_id": "40013796101", "tract_name": "7961.01", "tags": {"building": "yes"}}}, {"type": "Feature", "geometry": {"type": "Polygon", "coordinates": [[[-96.374784, 34.0255206], [-96.3739381, 34.0255112], [-96.3739395, 34.0254247], [-96.3747854, 34.0254341], [-96.374784, 34.0255206]]]}, "properties": {"osm_id": 1133596779, "building": "yes", "name": "", "height": null, "height_m": null, "levels": null, "tract_id": "40013796101", "tract_name": "7961.01", "tags": {"building": "yes"}}}, {"type": "Feature", "geometry": {"type": "Polygon", "coordinates": [[[-96.3738348, 34.0256621], [-96.3730723, 34.0256534], [-96.3730733, 34.0255918], [-96.3738358, 34.0256005], [-96.3738348, 34.0256621]]]}, "properties": {"osm_id": 1133596780, "building": "yes", "name": "", "height": null, "height_m": null, "levels": null, "tract_id": "40013796101", "tract_name": "7961.01", "tags": {"building": "yes"}}}, {"type": "Feature", "geometry": {"type": "Polygon", "coordinates": [[[-96.3732459, 34.0255135], [-96.3732476, 34.0253979], [-96.3738441, 34.0254042], [-96.3738423, 34.0255198], [-96.3732459, 34.0255135]]]}, "properties": {"osm_id": 1133596781, "building": "yes", "name": "", "height": null, "height_m": null, "levels": null, "tract_id": "40013796101", "tract_name": "7961.01", "tags": {"building": "yes"}}}, {"type": "Feature", "geometry": {"type": "Polygon", "coordinates": [[[-96.3723895, 34.0220608], [-96.371904, 34.0220624], [-96.3719032, 34.0218928], [-96.3723887, 34.0218912], [-96.3723895, 34.0220608]]]}, "properties": {"osm_id": 1133596782, "building": "yes", "name": "", "height": null, "height_m": null, "levels": null, "tract_id": "40013796101", "tract_name": "7961.01", "tags": {"building": "yes"}}}, {"type": "Feature", "geometry": {"type": "Polygon", "coordinates": [[[-96.3715778, 34.0223752], [-96.3715797, 34.0222374], [-96.3720728, 34.0222421], [-96.3720709, 34.0223799], [-96.3715778, 34.0223752]]]}, "properties": {"osm_id": 1133596783, "building": "yes", "name": "", "height": null, "height_m": null, "levels": null, "tract_id": "40013796101", "tract_name": "7961.01", "tags": {"building": "yes"}}}, {"type": "Feature", "geometry": {"type": "Polygon", "coordinates": [[[-96.3775464, 34.018145], [-96.3773539, 34.0181293], [-96.377364, 34.0180444], [-96.3775565, 34.0180601], [-96.3775464, 34.018145]]]}, "properties": {"osm_id": 1133596784, "building": "yes", "name": "", "height": null, "height_m": null, "levels": null, "tract_id": "40013796101", "tract_name": "7961.01", "tags": {"building": "yes"}}}, {"type": "Feature", "geometry": {"type": "Polygon", "coordinates": [[[-96.3758898, 34.0166721], [-96.3759885, 34.0166707], [-96.3759962, 34.0170578], [-96.3758975, 34.0170592], [-96.3758898, 34.0166721]]]}, "properties": {"osm_id": 1133596785, "building": "yes", "name": "", "height": null, "height_m": null, "levels": null, "tract_id": "40013796101", "tract_name": "7961.01", "tags": {"building": "yes"}}}, {"type": "Feature", "geometry": {"type": "Polygon", "coordinates": [[[-96.3761406, 34.0166754], [-96.3761446, 34.0170578], [-96.37601, 34.0170588], [-96.376006, 34.0166764], [-96.3761406, 34.0166754]]]}, "properties": {"osm_id": 1133596786, "building": "yes", "name": "", "height": null, "height_m": null, "levels": null, "tract_id": "40013796101", "tract_name": "7961.01", "tags": {"building": "yes"}}}, {"type": "Feature", "geometry": {"type": "Polygon", "coordinates": [[[-96.3767964, 34.0170389], [-96.3764571, 34.0170389], [-96.3764571, 34.0166676], [-96.3767964, 34.0166676], [-96.3767964, 34.0170389]]]}, "properties": {"osm_id": 1133596787, "building": "yes", "name": "", "height": null, "height_m": null, "levels": null, "tract_id": "40013796101", "tract_name": "7961.01", "tags": {"building": "yes"}}}, {"type": "Feature", "geometry": {"type": "Polygon", "coordinates": [[[-96.3771236, 34.0170945], [-96.3771236, 34.0166754], [-96.3772671, 34.0166754], [-96.3772671, 34.0170945], [-96.3771236, 34.0170945]]]}, "properties": {"osm_id": 1133596788, "building": "yes", "name": "", "height": null, "height_m": null, "levels": null, "tract_id": "40013796101", "tract_name": "7961.01", "tags": {"building": "yes"}}}, {"type": "Feature", "geometry": {"type": "Polygon", "coordinates": [[[-96.3907512, 34.0093735], [-96.3907559, 34.009184], [-96.3909383, 34.0091871], [-96.3909336, 34.0093766], [-96.3907512, 34.0093735]]]}, "properties": {"osm_id": 1133596800, "building": "yes", "name": "", "height": null, "height_m": null, "levels": null, "tract_id": "40013796101", "tract_name": "7961.01", "tags": {"building": "yes"}}}, {"type": "Feature", "geometry": {"type": "Polygon", "coordinates": [[[-96.3922955, 34.0050806], [-96.3924881, 34.0050825], [-96.3924841, 34.0053505], [-96.3922915, 34.0053485], [-96.3922955, 34.0050806]]]}, "properties": {"osm_id": 1133596801, "building": "yes", "name": "", "height": null, "height_m": null, "levels": null, "tract_id": "40013796101", "tract_name": "7961.01", "tags": {"building": "yes"}}}, {"type": "Feature", "geometry": {"type": "Polygon", "coordinates": [[[-96.3908082, 34.0051651], [-96.3909152, 34.0052046], [-96.3908328, 34.005358], [-96.3907257, 34.0053185], [-96.3908082, 34.0051651]]]}, "properties": {"osm_id": 1133596802, "building": "yes", "name": "", "height": null, "height_m": null, "levels": null, "tract_id": "40013796101", "tract_name": "7961.01", "tags": {"building": "yes"}}}, {"type": "Feature", "geometry": {"type": "Polygon", "coordinates": [[[-96.3905685, 33.9935652], [-96.3905966, 33.993484], [-96.3908185, 33.9935367], [-96.3907904, 33.9936179], [-96.3905685, 33.9935652]]]}, "properties": {"osm_id": 1133596825, "building": "yes", "name": "", "height": null, "height_m": null, "levels": null, "tract_id": "40013796101", "tract_name": "7961.01", "tags": {"building": "yes"}}}, {"type": "Feature", "geometry": {"type": "Polygon", "coordinates": [[[-96.3927314, 33.9936637], [-96.3926673, 33.9936474], [-96.3926881, 33.9935912], [-96.3927522, 33.9936075], [-96.3927314, 33.9936637]]]}, "properties": {"osm_id": 1133596826, "building": "yes", "name": "", "height": null, "height_m": null, "levels": null, "tract_id": "40013796101", "tract_name": "7961.01", "tags": {"building": "yes"}}}, {"type": "Feature", "geometry": {"type": "Polygon", "coordinates": [[[-96.391857, 33.9939039], [-96.391921, 33.9939167], [-96.3919023, 33.9939812], [-96.3918382, 33.9939684], [-96.391857, 33.9939039]]]}, "properties": {"osm_id": 1133596827, "building": "yes", "name": "", "height": null, "height_m": null, "levels": null, "tract_id": "40013796101", "tract_name": "7961.01", "tags": {"building": "yes"}}}, {"type": "Feature", "geometry": {"type": "Polygon", "coordinates": [[[-96.3922325, 33.9939522], [-96.392152, 33.994188], [-96.391979, 33.9941474], [-96.3920595, 33.9939116], [-96.3922325, 33.9939522]]]}, "properties": {"osm_id": 1133596828, "building": "yes", "name": "", "height": null, "height_m": null, "levels": null, "tract_id": "40013796101", "tract_name": "7961.01", "tags": {"building": "yes"}}}, {"type": "Feature", "geometry": {"type": "Polygon", "coordinates": [[[-96.3813292, 34.0458105], [-96.3813481, 34.0457253], [-96.3814771, 34.0457449], [-96.3814582, 34.0458301], [-96.3813292, 34.0458105]]]}, "properties": {"osm_id": 1133685631, "building": "yes", "name": "", "height": null, "height_m": null, "levels": null, "tract_id": "40013796101", "tract_name": "7961.01", "tags": {"building": "yes"}}}, {"type": "Feature", "geometry": {"type": "Polygon", "coordinates": [[[-96.3798944, 34.0451787], [-96.3797256, 34.0451756], [-96.379729, 34.0450516], [-96.3798978, 34.0450548], [-96.3798944, 34.0451787]]]}, "properties": {"osm_id": 1133685632, "building": "yes", "name": "", "height": null, "height_m": null, "levels": null, "tract_id": "40013796101", "tract_name": "7961.01", "tags": {"building": "yes"}}}, {"type": "Feature", "geometry": {"type": "Polygon", "coordinates": [[[-96.3800642, 34.0451756], [-96.3799779, 34.0451724], [-96.3799822, 34.0450898], [-96.3800685, 34.045093], [-96.3800642, 34.0451756]]]}, "properties": {"osm_id": 1133685633, "building": "yes", "name": "", "height": null, "height_m": null, "levels": null, "tract_id": "40013796101", "tract_name": "7961.01", "tags": {"building": "yes"}}}, {"type": "Feature", "geometry": {"type": "Polygon", "coordinates": [[[-96.4095801, 34.0434382], [-96.4095745, 34.0432996], [-96.4097452, 34.0432948], [-96.4097508, 34.0434335], [-96.4095801, 34.0434382]]]}, "properties": {"osm_id": 1133685636, "building": "yes", "name": "", "height": null, "height_m": null, "levels": null, "tract_id": "40013796101", "tract_name": "7961.01", "tags": {"building": "yes"}}}, {"type": "Feature", "geometry": {"type": "Polygon", "coordinates": [[[-96.4039551, 34.0430998], [-96.4036225, 34.0431653], [-96.4035818, 34.0430237], [-96.4039144, 34.0429581], [-96.4039551, 34.0430998]]]}, "properties": {"osm_id": 1133685637, "building": "yes", "name": "", "height": null, "height_m": null, "levels": null, "tract_id": "40013796101", "tract_name": "7961.01", "tags": {"building": "yes"}}}, {"type": "Feature", "geometry": {"type": "Polygon", "coordinates": [[[-96.3573336, 34.0402693], [-96.3572437, 34.0402927], [-96.3572157, 34.0402185], [-96.3573055, 34.0401952], [-96.3573336, 34.0402693]]]}, "properties": {"osm_id": 1133685673, "building": "yes", "name": "", "height": null, "height_m": null, "levels": null, "tract_id": "40013796101", "tract_name": "7961.01", "tags": {"building": "yes"}}}, {"type": "Feature", "geometry": {"type": "Polygon", "coordinates": [[[-96.3631225, 34.042483], [-96.3634418, 34.0424811], [-96.3634472, 34.0430767], [-96.3631278, 34.0430787], [-96.3631225, 34.042483]]]}, "properties": {"osm_id": 1133685676, "building": "yes", "name": "", "height": null, "height_m": null, "levels": null, "tract_id": "40013796101", "tract_name": "7961.01", "tags": {"building": "yes"}}}, {"type": "Feature", "geometry": {"type": "Polygon", "coordinates": [[[-96.3798479, 34.0494877], [-96.3799096, 34.0493826], [-96.3801125, 34.0494643], [-96.3800509, 34.0495694], [-96.3798479, 34.0494877]]]}, "properties": {"osm_id": 1133685677, "building": "yes", "name": "", "height": null, "height_m": null, "levels": null, "tract_id": "40013796101", "tract_name": "7961.01", "tags": {"building": "yes"}}}, {"type": "Feature", "geometry": {"type": "Polygon", "coordinates": [[[-96.3739673, 34.0528533], [-96.373915, 34.0528533], [-96.373915, 34.0528211], [-96.3739673, 34.0528211], [-96.3739673, 34.0528533]]]}, "properties": {"osm_id": 1133685678, "building": "yes", "name": "", "height": null, "height_m": null, "levels": null, "tract_id": "40013796101", "tract_name": "7961.01", "tags": {"building": "yes"}}}, {"type": "Feature", "geometry": {"type": "Polygon", "coordinates": [[[-96.373981, 34.0533975], [-96.3739804, 34.0535463], [-96.3738424, 34.053546], [-96.3738431, 34.0533943], [-96.373981, 34.0533975]]]}, "properties": {"osm_id": 1133685679, "building": "yes", "name": "", "height": null, "height_m": null, "levels": null, "tract_id": "40013796101", "tract_name": "7961.01", "tags": {"building": "yes"}}}, {"type": "Feature", "geometry": {"type": "Polygon", "coordinates": [[[-96.3760363, 34.053135], [-96.375978, 34.0532017], [-96.375885, 34.0531458], [-96.3759433, 34.0530792], [-96.3760363, 34.053135]]]}, "properties": {"osm_id": 1133685699, "building": "yes", "name": "", "height": null, "height_m": null, "levels": null, "tract_id": "40013796101", "tract_name": "7961.01", "tags": {"building": "yes"}}}, {"type": "Feature", "geometry": {"type": "Polygon", "coordinates": [[[-96.3766706, 34.0528649], [-96.3765345, 34.0528605], [-96.3765379, 34.0527892], [-96.376674, 34.0527936], [-96.3766706, 34.0528649]]]}, "properties": {"osm_id": 1133685700, "building": "yes", "name": "", "height": null, "height_m": null, "levels": null, "tract_id": "40013796101", "tract_name": "7961.01", "tags": {"building": "yes"}}}, {"type": "Feature", "geometry": {"type": "Polygon", "coordinates": [[[-96.3789395, 34.0542989], [-96.3788812, 34.0542985], [-96.3788819, 34.0542252], [-96.3789401, 34.0542256], [-96.3789395, 34.0542989]]]}, "properties": {"osm_id": 1133685701, "building": "yes", "name": "", "height": null, "height_m": null, "levels": null, "tract_id": "40013796101", "tract_name": "7961.01", "tags": {"building": "yes"}}}, {"type": "Feature", "geometry": {"type": "Polygon", "coordinates": [[[-96.3823143, 34.05531], [-96.3822178, 34.0553125], [-96.3822138, 34.055207], [-96.3823103, 34.0552044], [-96.3823143, 34.05531]]]}, "properties": {"osm_id": 1133685703, "building": "yes", "name": "", "height": null, "height_m": null, "levels": null, "tract_id": "40013796101", "tract_name": "7961.01", "tags": {"building": "yes"}}}, {"type": "Feature", "geometry": {"type": "Polygon", "coordinates": [[[-96.3814378, 34.0551133], [-96.3814373, 34.0550512], [-96.3814776, 34.055051], [-96.381478, 34.0551131], [-96.3814378, 34.0551133]]]}, "properties": {"osm_id": 1133685704, "building": "yes", "name": "", "height": null, "height_m": null, "levels": null, "tract_id": "40013796101", "tract_name": "7961.01", "tags": {"building": "yes"}}}, {"type": "Feature", "geometry": {"type": "Polygon", "coordinates": [[[-96.3857758, 34.0499961], [-96.3858678, 34.0500523], [-96.3857293, 34.0502078], [-96.3856373, 34.0501516], [-96.3857758, 34.0499961]]]}, "properties": {"osm_id": 1133685723, "building": "yes", "name": "", "height": null, "height_m": null, "levels": null, "tract_id": "40013796101", "tract_name": "7961.01", "tags": {"building": "yes"}}}, {"type": "Feature", "geometry": {"type": "Polygon", "coordinates": [[[-96.3861248, 34.0499851], [-96.3860034, 34.0500086], [-96.3859786, 34.0499211], [-96.3861, 34.0498975], [-96.3861248, 34.0499851]]]}, "properties": {"osm_id": 1133685724, "building": "yes", "name": "", "height": null, "height_m": null, "levels": null, "tract_id": "40013796101", "tract_name": "7961.01", "tags": {"building": "yes"}}}, {"type": "Feature", "geometry": {"type": "Polygon", "coordinates": [[[-96.3888355, 34.0524016], [-96.3888221, 34.0522671], [-96.3891144, 34.0522471], [-96.3891278, 34.0523816], [-96.3888355, 34.0524016]]]}, "properties": {"osm_id": 1133685726, "building": "yes", "name": "", "height": null, "height_m": null, "levels": null, "tract_id": "40013796101", "tract_name": "7961.01", "tags": {"building": "yes"}}}, {"type": "Feature", "geometry": {"type": "Polygon", "coordinates": [[[-96.3907045, 34.0027841], [-96.3907033, 34.0027142], [-96.3905826, 34.0027156], [-96.3905839, 34.0027855], [-96.3907045, 34.0027841]]]}, "properties": {"osm_id": 1138505159, "building": "yes", "name": "", "height": null, "height_m": null, "levels": null, "tract_id": "40013796101", "tract_name": "7961.01", "tags": {"building": "yes", "source": "microsoft/BuildingFootprints"}}}, {"type": "Feature", "geometry": {"type": "Polygon", "coordinates": [[[-96.390992, 34.0028266], [-96.3909946, 34.0027088], [-96.3909074, 34.0027075], [-96.3909066, 34.0027443], [-96.3908275, 34.0027431], [-96.3908251, 34.0028565], [-96.3908787, 34.0028573], [-96.3908794, 34.0028249], [-96.390992, 34.0028266]]]}, "properties": {"osm_id": 1138505160, "building": "yes", "name": "", "height": null, "height_m": null, "levels": null, "tract_id": "40013796101", "tract_name": "7961.01", "tags": {"building": "yes", "source": "microsoft/BuildingFootprints"}}}, {"type": "Feature", "geometry": {"type": "Polygon", "coordinates": [[[-96.3911876, 34.002799], [-96.3911879, 34.0028235], [-96.3912469, 34.002823], [-96.3912454, 34.0026963], [-96.3911891, 34.0026967], [-96.3911893, 34.0027091], [-96.3910833, 34.00271], [-96.3910844, 34.0027999], [-96.3911876, 34.002799]]]}, "properties": {"osm_id": 1138505161, "building": "yes", "name": "", "height": null, "height_m": null, "levels": null, "tract_id": "40013796101", "tract_name": "7961.01", "tags": {"building": "yes", "source": "microsoft/BuildingFootprints"}}}, {"type": "Feature", "geometry": {"type": "Polygon", "coordinates": [[[-96.3912959, 34.0028133], [-96.3913763, 34.0028115], [-96.3913773, 34.0028426], [-96.391447, 34.002841], [-96.3914461, 34.0028131], [-96.3915131, 34.0028116], [-96.3915101, 34.0027205], [-96.391293, 34.0027254], [-96.3912959, 34.0028133]]]}, "properties": {"osm_id": 1138505162, "building": "yes", "name": "", "height": null, "height_m": null, "levels": null, "tract_id": "40013796101", "tract_name": "7961.01", "tags": {"building": "yes", "source": "microsoft/BuildingFootprints"}}}, {"type": "Feature", "geometry": {"type": "Polygon", "coordinates": [[[-96.3917081, 34.0027218], [-96.3917101, 34.0028241], [-96.3917798, 34.0028232], [-96.3917804, 34.0028508], [-96.391842, 34.00285], [-96.3918416, 34.0028246], [-96.391934, 34.0028234], [-96.391932, 34.0027189], [-96.3917081, 34.0027218]]]}, "properties": {"osm_id": 1138505337, "building": "yes", "name": "", "height": null, "height_m": null, "levels": null, "tract_id": "40013796101", "tract_name": "7961.01", "tags": {"building": "yes", "source": "microsoft/BuildingFootprints"}}}, {"type": "Feature", "geometry": {"type": "Polygon", "coordinates": [[[-96.3920235, 34.0027318], [-96.3920282, 34.0028585], [-96.3921287, 34.0028559], [-96.392124, 34.0027293], [-96.3920235, 34.0027318]]]}, "properties": {"osm_id": 1138505338, "building": "yes", "name": "", "height": null, "height_m": null, "levels": null, "tract_id": "40013796101", "tract_name": "7961.01", "tags": {"building": "yes", "source": "microsoft/BuildingFootprints"}}}, {"type": "Feature", "geometry": {"type": "Polygon", "coordinates": [[[-96.3922314, 34.002807], [-96.3924031, 34.0028082], [-96.392404, 34.002718], [-96.3922324, 34.0027167], [-96.3922314, 34.002807]]]}, "properties": {"osm_id": 1138505339, "building": "yes", "name": "", "height": null, "height_m": null, "levels": null, "tract_id": "40013796101", "tract_name": "7961.01", "tags": {"building": "yes", "source": "microsoft/BuildingFootprints"}}}, {"type": "Feature", "geometry": {"type": "Polygon", "coordinates": [[[-96.3925848, 34.002727], [-96.3924856, 34.0027262], [-96.392484, 34.0028596], [-96.3925082, 34.0028598], [-96.3925077, 34.0029007], [-96.3925828, 34.0029013], [-96.3925848, 34.002727]]]}, "properties": {"osm_id": 1138505340, "building": "yes", "name": "", "height": null, "height_m": null, "levels": null, "tract_id": "40013796101", "tract_name": "7961.01", "tags": {"building": "yes", "source": "microsoft/BuildingFootprints"}}}, {"type": "Feature", "geometry": {"type": "Polygon", "coordinates": [[[-96.3929225, 34.0027657], [-96.393015, 34.002765], [-96.3930154, 34.002793], [-96.3930703, 34.0027926], [-96.3930692, 34.0026881], [-96.3930075, 34.0026886], [-96.3930077, 34.002705], [-96.3929218, 34.0027057], [-96.3929225, 34.0027657]]]}, "properties": {"osm_id": 1138506650, "building": "yes", "name": "", "height": null, "height_m": null, "levels": null, "tract_id": "40013796101", "tract_name": "7961.01", "tags": {"building": "yes", "source": "microsoft/BuildingFootprints"}}}, {"type": "Feature", "geometry": {"type": "Polygon", "coordinates": [[[-96.3931565, 34.0028573], [-96.3932169, 34.0028564], [-96.3932176, 34.002892], [-96.3933101, 34.0028908], [-96.3933094, 34.0028588], [-96.3933738, 34.0028579], [-96.3933714, 34.0027379], [-96.3931542, 34.0027408], [-96.3931565, 34.0028573]]]}, "properties": {"osm_id": 1138506651, "building": "yes", "name": "", "height": null, "height_m": null, "levels": null, "tract_id": "40013796101", "tract_name": "7961.01", "tags": {"building": "yes", "source": "microsoft/BuildingFootprints"}}}, {"type": "Feature", "geometry": {"type": "Polygon", "coordinates": [[[-96.3936162, 34.0028255], [-96.3936149, 34.0027388], [-96.3934339, 34.0027374], [-96.3934328, 34.0028249], [-96.3935263, 34.0028234], [-96.3935266, 34.0028434], [-96.3935695, 34.002843], [-96.3935692, 34.002826], [-96.3936162, 34.0028255]]]}, "properties": {"osm_id": 1138506652, "building": "yes", "name": "", "height": null, "height_m": null, "levels": null, "tract_id": "40013796101", "tract_name": "7961.01", "tags": {"building": "yes", "source": "microsoft/BuildingFootprints"}}}, {"type": "Feature", "geometry": {"type": "Polygon", "coordinates": [[[-96.3938538, 34.0028088], [-96.3938726, 34.0028091], [-96.3938751, 34.0027024], [-96.3937866, 34.0027009], [-96.3937834, 34.0028373], [-96.3937244, 34.0028364], [-96.3937228, 34.002903], [-96.3938515, 34.0029052], [-96.3938538, 34.0028088]]]}, "properties": {"osm_id": 1138506653, "building": "yes", "name": "", "height": null, "height_m": null, "levels": null, "tract_id": "40013796101", "tract_name": "7961.01", "tags": {"building": "yes", "source": "microsoft/BuildingFootprints"}}}, {"type": "Feature", "geometry": {"type": "Polygon", "coordinates": [[[-96.3938845, 34.0044705], [-96.3938926, 34.0043968], [-96.3939321, 34.0044014], [-96.3939491, 34.0043093], [-96.3939171, 34.0043052], [-96.3939325, 34.0041548], [-96.3938519, 34.0041479], [-96.3938509, 34.0040657], [-96.3936904, 34.0040675], [-96.3936321, 34.0040663], [-96.3936262, 34.004261], [-96.3935351, 34.0042591], [-96.3935533, 34.0036555], [-96.3933335, 34.003651], [-96.3933274, 34.0038532], [-96.39327, 34.0038522], [-96.3932652, 34.0040582], [-96.3933295, 34.0040598], [-96.3933325, 34.0041364], [-96.3933312, 34.0041712], [-96.3933228, 34.004449], [-96.3931347, 34.0044451], [-96.39313, 34.0044754], [-96.393284, 34.0044747], [-96.3932833, 34.0046395], [-96.3936909, 34.0046435], [-96.393687, 34.0047113], [-96.3940449, 34.0047153], [-96.3940435, 34.0046397], [-96.3941674, 34.0046389], [-96.3941686, 34.0045649], [-96.3941853, 34.0045658], [-96.3941832, 34.0046596], [-96.3943426, 34.0046613], [-96.3943435, 34.0046346], [-96.3943589, 34.0046353], [-96.3943556, 34.0047127], [-96.3945861, 34.0047175], [-96.3945883, 34.0045064], [-96.3943654, 34.0045068], [-96.3943668, 34.0044692], [-96.3941901, 34.0044678], [-96.3941944, 34.0045041], [-96.3941721, 34.0045059], [-96.3941708, 34.004465], [-96.3938845, 34.0044705]]]}, "properties": {"osm_id": 1138508579, "building": "yes", "name": "", "height": null, "height_m": null, "levels": null, "tract_id": "40013796101", "tract_name": "7961.01", "tags": {"building": "yes", "source": "microsoft/BuildingFootprints"}}}, {"type": "Feature", "geometry": {"type": "Polygon", "coordinates": [[[-96.3943836, 34.0041535], [-96.3944706, 34.0041553], [-96.394476, 34.0039775], [-96.394389, 34.0039757], [-96.3943836, 34.0041535]]]}, "properties": {"osm_id": 1138508580, "building": "yes", "name": "", "height": null, "height_m": null, "levels": null, "tract_id": "40013796101", "tract_name": "7961.01", "tags": {"building": "yes", "source": "microsoft/BuildingFootprints"}}}, {"type": "Feature", "geometry": {"type": "Polygon", "coordinates": [[[-96.3946532, 34.0041554], [-96.3947417, 34.0041548], [-96.3947398, 34.0039769], [-96.3946513, 34.0039775], [-96.3946532, 34.0041554]]]}, "properties": {"osm_id": 1138508581, "building": "yes", "name": "", "height": null, "height_m": null, "levels": null, "tract_id": "40013796101", "tract_name": "7961.01", "tags": {"building": "yes", "source": "microsoft/BuildingFootprints"}}}, {"type": "Feature", "geometry": {"type": "Polygon", "coordinates": [[[-96.393321, 34.0034619], [-96.393391, 34.0034619], [-96.393391, 34.0033969], [-96.393321, 34.0033969], [-96.393321, 34.0034619]]]}, "properties": {"osm_id": 1138508582, "building": "yes", "name": "", "height": null, "height_m": null, "levels": null, "tract_id": "40013796101", "tract_name": "7961.01", "tags": {"building": "yes", "source": "microsoft/BuildingFootprints"}}}, {"type": "Feature", "geometry": {"type": "Polygon", "coordinates": [[[-96.3942763, 34.002726], [-96.3941235, 34.0027241], [-96.3941206, 34.0028827], [-96.3942479, 34.0028843], [-96.3942491, 34.0028198], [-96.3942746, 34.0028202], [-96.3942763, 34.002726]]]}, "properties": {"osm_id": 1138509025, "building": "yes", "name": "", "height": null, "height_m": null, "levels": null, "tract_id": "40013796101", "tract_name": "7961.01", "tags": {"building": "yes", "source": "microsoft/BuildingFootprints"}}}, {"type": "Feature", "geometry": {"type": "Polygon", "coordinates": [[[-96.3948535, 34.0028623], [-96.3948528, 34.002892], [-96.3949399, 34.0028933], [-96.3949431, 34.0027525], [-96.3947219, 34.0027491], [-96.3947194, 34.0028602], [-96.3948535, 34.0028623]]]}, "properties": {"osm_id": 1138509026, "building": "yes", "name": "", "height": null, "height_m": null, "levels": null, "tract_id": "40013796101", "tract_name": "7961.01", "tags": {"building": "yes", "source": "microsoft/BuildingFootprints"}}}, {"type": "Feature", "geometry": {"type": "Polygon", "coordinates": [[[-96.3945649, 34.0027059], [-96.394396, 34.0027024], [-96.3943931, 34.0027979], [-96.3944735, 34.0027996], [-96.3944719, 34.0028529], [-96.3945603, 34.0028548], [-96.3945649, 34.0027059]]]}, "properties": {"osm_id": 1138509027, "building": "yes", "name": "", "height": null, "height_m": null, "levels": null, "tract_id": "40013796101", "tract_name": "7961.01", "tags": {"building": "yes", "source": "microsoft/BuildingFootprints"}}}, {"type": "Feature", "geometry": {"type": "Polygon", "coordinates": [[[-96.3953015, 34.0027092], [-96.3952996, 34.0028239], [-96.3955851, 34.0028272], [-96.3955871, 34.0027125], [-96.3953015, 34.0027092]]]}, "properties": {"osm_id": 1138509028, "building": "yes", "name": "", "height": null, "height_m": null, "levels": null, "tract_id": "40013796101", "tract_name": "7961.01", "tags": {"building": "yes", "source": "microsoft/BuildingFootprints"}}}, {"type": "Feature", "geometry": {"type": "Polygon", "coordinates": [[[-96.3959342, 34.0027384], [-96.3958176, 34.0027399], [-96.3958191, 34.0028177], [-96.3959357, 34.0028162], [-96.3959342, 34.0027384]]]}, "properties": {"osm_id": 1138509029, "building": "yes", "name": "", "height": null, "height_m": null, "levels": null, "tract_id": "40013796101", "tract_name": "7961.01", "tags": {"building": "yes", "source": "microsoft/BuildingFootprints"}}}, {"type": "Feature", "geometry": {"type": "Polygon", "coordinates": [[[-96.3960723, 34.0027019], [-96.3960766, 34.002882], [-96.3961946, 34.00288], [-96.3961903, 34.0027], [-96.3960723, 34.0027019]]]}, "properties": {"osm_id": 1138509030, "building": "yes", "name": "", "height": null, "height_m": null, "levels": null, "tract_id": "40013796101", "tract_name": "7961.01", "tags": {"building": "yes", "source": "microsoft/BuildingFootprints"}}}, {"type": "Feature", "geometry": {"type": "Polygon", "coordinates": [[[-96.3905787, 34.0067173], [-96.3910807, 34.0067215], [-96.3910802, 34.0067657], [-96.3911107, 34.0067659], [-96.3911112, 34.006721], [-96.3913273, 34.0067229], [-96.3913251, 34.0069027], [-96.3912343, 34.0069019], [-96.3912342, 34.0069106], [-96.3911324, 34.0069097], [-96.3911318, 34.0069583], [-96.3910768, 34.0069578], [-96.3910761, 34.0070071], [-96.3905751, 34.0070029], [-96.3905787, 34.0067173]]]}, "properties": {"osm_id": 1164810359, "building": "temple", "name": "", "height": null, "height_m": null, "levels": null, "tract_id": "40013796101", "tract_name": "7961.01", "tags": {"building": "temple"}}}, {"type": "Feature", "geometry": {"type": "Polygon", "coordinates": [[[-96.3905494, 34.008144], [-96.3905477, 34.0080308], [-96.3907147, 34.0080292], [-96.3907164, 34.0081423], [-96.3905494, 34.008144]]]}, "properties": {"osm_id": 1164810362, "building": "yes", "name": "", "height": null, "height_m": null, "levels": null, "tract_id": "40013796101", "tract_name": "7961.01", "tags": {"building": "yes"}}}, {"type": "Feature", "geometry": {"type": "Polygon", "coordinates": [[[-96.391091, 34.0086573], [-96.3912529, 34.0086588], [-96.3912501, 34.0088703], [-96.3910882, 34.0088688], [-96.391091, 34.0086573]]]}, "properties": {"osm_id": 1164810366, "building": "yes", "name": "", "height": null, "height_m": null, "levels": null, "tract_id": "40013796101", "tract_name": "7961.01", "tags": {"building": "yes"}}}, {"type": "Feature", "geometry": {"type": "Polygon", "coordinates": [[[-96.3927733, 34.0096101], [-96.3925799, 34.0096101], [-96.3925799, 34.0094945], [-96.3927733, 34.0094945], [-96.3927733, 34.0096101]]]}, "properties": {"osm_id": 1164810367, "building": "yes", "name": "", "height": null, "height_m": null, "levels": null, "tract_id": "40013796101", "tract_name": "7961.01", "tags": {"building": "yes"}}}, {"type": "Feature", "geometry": {"type": "Polygon", "coordinates": [[[-96.3943487, 34.0084124], [-96.3943501, 34.0079666], [-96.3945795, 34.0079671], [-96.3945781, 34.0084129], [-96.3943487, 34.0084124]]]}, "properties": {"osm_id": 1164810368, "building": "yes", "name": "", "height": null, "height_m": null, "levels": null, "tract_id": "40013796101", "tract_name": "7961.01", "tags": {"building": "yes"}}}, {"type": "Feature", "geometry": {"type": "Polygon", "coordinates": [[[-96.3949643, 34.0070439], [-96.3950357, 34.0069805], [-96.3951263, 34.0070505], [-96.3950548, 34.0071139], [-96.3949643, 34.0070439]]]}, "properties": {"osm_id": 1164810369, "building": "yes", "name": "", "height": null, "height_m": null, "levels": null, "tract_id": "40013796101", "tract_name": "7961.01", "tags": {"building": "yes"}}}, {"type": "Feature", "geometry": {"type": "Polygon", "coordinates": [[[-96.3959031, 34.0071973], [-96.3957837, 34.0071984], [-96.3957828, 34.0071302], [-96.3959022, 34.0071291], [-96.3959031, 34.0071973]]]}, "properties": {"osm_id": 1164810370, "building": "yes", "name": "", "height": null, "height_m": null, "levels": null, "tract_id": "40013796101", "tract_name": "7961.01", "tags": {"building": "yes"}}}, {"type": "Feature", "geometry": {"type": "Polygon", "coordinates": [[[-96.3957381, 34.0069872], [-96.3957395, 34.0073318], [-96.3950716, 34.0073352], [-96.3950676, 34.0071723], [-96.3950475, 34.0071729], [-96.3950381, 34.0071679], [-96.3950361, 34.0071562], [-96.3950394, 34.0071445], [-96.3950515, 34.007144], [-96.3950957, 34.0071473], [-96.3951574, 34.0070895], [-96.3951594, 34.0069839], [-96.3957381, 34.0069872]]]}, "properties": {"osm_id": 1164810371, "building": "yes", "name": "", "height": null, "height_m": null, "levels": null, "tract_id": "40013796101", "tract_name": "7961.01", "tags": {"building": "yes"}}}, {"type": "Feature", "geometry": {"type": "Polygon", "coordinates": [[[-96.3972455, 34.0052451], [-96.397351, 34.0051135], [-96.3977627, 34.0053403], [-96.3976572, 34.0054719], [-96.3972455, 34.0052451]]]}, "properties": {"osm_id": 1164810372, "building": "yes", "name": "", "height": null, "height_m": null, "levels": null, "tract_id": "40013796101", "tract_name": "7961.01", "tags": {"building": "yes"}}}, {"type": "Feature", "geometry": {"type": "Polygon", "coordinates": [[[-96.3969626, 34.0056075], [-96.3970593, 34.0054894], [-96.3974603, 34.005715], [-96.3973635, 34.0058332], [-96.3969626, 34.0056075]]]}, "properties": {"osm_id": 1164810373, "building": "yes", "name": "", "height": null, "height_m": null, "levels": null, "tract_id": "40013796101", "tract_name": "7961.01", "tags": {"building": "yes"}}}, {"type": "Feature", "geometry": {"type": "Polygon", "coordinates": [[[-96.3974836, 34.0059562], [-96.3975754, 34.0058458], [-96.3979964, 34.0060863], [-96.3979046, 34.0061968], [-96.3974836, 34.0059562]]]}, "properties": {"osm_id": 1164810374, "building": "yes", "name": "", "height": null, "height_m": null, "levels": null, "tract_id": "40013796101", "tract_name": "7961.01", "tags": {"building": "yes"}}}, {"type": "Feature", "geometry": {"type": "Polygon", "coordinates": [[[-96.3973129, 34.0061575], [-96.3974153, 34.0060329], [-96.3978439, 34.006275], [-96.3977415, 34.0063996], [-96.3973129, 34.0061575]]]}, "properties": {"osm_id": 1164810375, "building": "yes", "name": "", "height": null, "height_m": null, "levels": null, "tract_id": "40013796101", "tract_name": "7961.01", "tags": {"building": "yes"}}}, {"type": "Feature", "geometry": {"type": "Polygon", "coordinates": [[[-96.3970859, 34.0064291], [-96.3973273, 34.0065748], [-96.3972231, 34.0066935], [-96.3969817, 34.0065479], [-96.3970859, 34.0064291]]]}, "properties": {"osm_id": 1164810376, "building": "yes", "name": "", "height": null, "height_m": null, "levels": null, "tract_id": "40013796101", "tract_name": "7961.01", "tags": {"building": "yes"}}}, {"type": "Feature", "geometry": {"type": "Polygon", "coordinates": [[[-96.3973287, 34.0064652], [-96.3974329, 34.006335], [-96.3976743, 34.0064679], [-96.3975701, 34.0065981], [-96.3973287, 34.0064652]]]}, "properties": {"osm_id": 1164810377, "building": "yes", "name": "", "height": null, "height_m": null, "levels": null, "tract_id": "40013796101", "tract_name": "7961.01", "tags": {"building": "yes"}}}, {"type": "Feature", "geometry": {"type": "Polygon", "coordinates": [[[-96.4008437, 34.0010842], [-96.4009018, 34.0009162], [-96.401178, 34.0009818], [-96.40112, 34.0011498], [-96.4008437, 34.0010842]]]}, "properties": {"osm_id": 1164810414, "building": "yes", "name": "", "height": null, "height_m": null, "levels": null, "tract_id": "40013796101", "tract_name": "7961.01", "tags": {"building": "yes"}}}, {"type": "Feature", "geometry": {"type": "Polygon", "coordinates": [[[-96.3921453, 33.9961793], [-96.392097, 33.996335], [-96.3919685, 33.9963076], [-96.3920168, 33.996152], [-96.3921453, 33.9961793]]]}, "properties": {"osm_id": 1164810415, "building": "yes", "name": "", "height": null, "height_m": null, "levels": null, "tract_id": "40013796101", "tract_name": "7961.01", "tags": {"building": "yes"}}}, {"type": "Feature", "geometry": {"type": "Polygon", "coordinates": [[[-96.3930351, 33.9966268], [-96.3929687, 33.9968265], [-96.3928599, 33.9968016], [-96.3929263, 33.9966019], [-96.3930351, 33.9966268]]]}, "properties": {"osm_id": 1164810427, "building": "yes", "name": "", "height": null, "height_m": null, "levels": null, "tract_id": "40013796101", "tract_name": "7961.01", "tags": {"building": "yes"}}}, {"type": "Feature", "geometry": {"type": "Polygon", "coordinates": [[[-96.3922745, 33.9963327], [-96.3923103, 33.9962312], [-96.3925995, 33.9963012], [-96.3925638, 33.9964027], [-96.3922745, 33.9963327]]]}, "properties": {"osm_id": 1164810428, "building": "yes", "name": "", "height": null, "height_m": null, "levels": null, "tract_id": "40013796101", "tract_name": "7961.01", "tags": {"building": "yes"}}}, {"type": "Feature", "geometry": {"type": "Polygon", "coordinates": [[[-96.3932982, 33.9954616], [-96.3932352, 33.9954463], [-96.3932485, 33.9954086], [-96.3933116, 33.9954239], [-96.3932982, 33.9954616]]]}, "properties": {"osm_id": 1164810429, "building": "yes", "name": "", "height": null, "height_m": null, "levels": null, "tract_id": "40013796101", "tract_name": "7961.01", "tags": {"building": "yes"}}}, {"type": "Feature", "geometry": {"type": "Polygon", "coordinates": [[[-96.3931806, 33.9955587], [-96.3932157, 33.9954663], [-96.3932991, 33.9954881], [-96.393264, 33.9955805], [-96.3931806, 33.9955587]]]}, "properties": {"osm_id": 1164810430, "building": "yes", "name": "", "height": null, "height_m": null, "levels": null, "tract_id": "40013796101", "tract_name": "7961.01", "tags": {"building": "yes"}}}, {"type": "Feature", "geometry": {"type": "Polygon", "coordinates": [[[-96.3758985, 34.052899], [-96.3758777, 34.0529202], [-96.3757648, 34.0528445], [-96.3758149, 34.0527932], [-96.3758243, 34.0527995], [-96.3759147, 34.052707], [-96.3760514, 34.0527986], [-96.3759947, 34.0528566], [-96.3759616, 34.0528344], [-96.3759489, 34.0528474], [-96.3759706, 34.0528619], [-96.3759202, 34.0529135], [-96.3758985, 34.052899]]]}, "properties": {"osm_id": 1374322520, "building": "yes", "name": "", "height": null, "height_m": null, "levels": null, "tract_id": "40013796101", "tract_name": "7961.01", "tags": {"building": "yes"}}}, {"type": "Feature", "geometry": {"type": "Polygon", "coordinates": [[[-96.3735403, 34.0532119], [-96.373455, 34.0532136], [-96.373453, 34.0531451], [-96.3735383, 34.0531434], [-96.3735403, 34.0532119]]]}, "properties": {"osm_id": 1374322521, "building": "garage", "name": "", "height": null, "height_m": null, "levels": null, "tract_id": "40013796101", "tract_name": "7961.01", "tags": {"building": "garage"}}}, {"type": "Feature", "geometry": {"type": "Polygon", "coordinates": [[[-96.3733789, 34.0531464], [-96.3733755, 34.0530314], [-96.3735349, 34.0530282], [-96.3735383, 34.0531432], [-96.3733789, 34.0531464]]]}, "properties": {"osm_id": 1374322522, "building": "detached", "name": "", "height": null, "height_m": null, "levels": null, "tract_id": "40013796101", "tract_name": "7961.01", "tags": {"building": "detached"}}}]}