{"type": "FeatureCollection", "features": [{"type": "Feature", "geometry": {"type": "Polygon", "coordinates": [[[-97.2057157, 35.2350141], [-97.2061306, 35.2350152], [-97.2061308, 35.2349736], [-97.2063665, 35.2349742], [-97.2063662, 35.2350347], [-97.206651, 35.2350354], [-97.2066506, 35.2351318], [-97.2068249, 35.2351322], [-97.2068252, 35.2350547], [-97.2070606, 35.2350554], [-97.2070622, 35.2346638], [-97.2068283, 35.2346632], [-97.206829, 35.2344832], [-97.206499, 35.2344823], [-97.2064994, 35.234356], [-97.2062697, 35.2343554], [-97.2062695, 35.2344211], [-97.2060119, 35.2344204], [-97.2060113, 35.2345759], [-97.2059011, 35.2345756], [-97.2058999, 35.2348633], [-97.2057163, 35.2348628], [-97.2057157, 35.2350141]]]}, "properties": {"osm_id": 256778702, "building": "yes", "name": "Absentee Shawnee Tribal Health System", "height": null, "height_m": null, "levels": null, "tract_id": "40027202406", "tract_name": "2024.06", "tags": {"addr:city": "Norman", "addr:housenumber": "15951", "addr:postcode": "73026", "addr:street": "Little Axe Drive", "amenity": "clinic", "building": "yes", "name": "Absentee Shawnee Tribal Health System", "phone": "+1 405 447 0300", "website": "https://asthealth.org/"}}}, {"type": "Feature", "geometry": {"type": "Polygon", "coordinates": [[[-97.2479661, 35.2329056], [-97.2479688, 35.2328224], [-97.2480597, 35.2328244], [-97.2480636, 35.2327067], [-97.2479747, 35.2327048], [-97.2479752, 35.2326888], [-97.2478442, 35.2326859], [-97.2478371, 35.2329027], [-97.2479661, 35.2329056]]]}, "properties": {"osm_id": 385648172, "building": "office", "name": "", "height": null, "height_m": null, "levels": null, "tract_id": "40027202406", "tract_name": "2024.06", "tags": {"addr:city": "Norman", "addr:housenumber": "13101", "addr:postcode": "73026", "addr:street": "Alameda Drive", "building": "office", "office": "park", "operator": "Oklahoma Dept. of Tourism and Recreation"}}}, {"type": "Feature", "geometry": {"type": "Polygon", "coordinates": [[[-97.2377047, 35.23941], [-97.2376726, 35.2393203], [-97.2376996, 35.2393139], [-97.2376836, 35.239269], [-97.2376517, 35.2392766], [-97.2376403, 35.2392448], [-97.2374877, 35.2392812], [-97.2375473, 35.2394476], [-97.2377047, 35.23941]]]}, "properties": {"osm_id": 385650013, "building": "yes", "name": "", "height": null, "height_m": null, "levels": null, "tract_id": "40027202406", "tract_name": "2024.06", "tags": {"building": "yes"}}}, {"type": "Feature", "geometry": {"type": "Polygon", "coordinates": [[[-97.2379691, 35.2402265], [-97.2379581, 35.2400667], [-97.2378615, 35.2400689], [-97.2378588, 35.2401105], [-97.2378105, 35.2401149], [-97.2378132, 35.2401872], [-97.2378696, 35.2401872], [-97.2378722, 35.2402266], [-97.2379691, 35.2402265]]]}, "properties": {"osm_id": 385650014, "building": "yes", "name": "", "height": null, "height_m": null, "levels": null, "tract_id": "40027202406", "tract_name": "2024.06", "tags": {"building": "yes"}}}, {"type": "Feature", "geometry": {"type": "Polygon", "coordinates": [[[-97.237928, 35.2405061], [-97.2379228, 35.2404329], [-97.2378046, 35.2404385], [-97.2378099, 35.2405117], [-97.237928, 35.2405061]]]}, "properties": {"osm_id": 385650015, "building": "roof", "name": "", "height": null, "height_m": null, "levels": null, "tract_id": "40027202406", "tract_name": "2024.06", "tags": {"building": "roof"}}}, {"type": "Feature", "geometry": {"type": "Polygon", "coordinates": [[[-97.2397374, 35.2417824], [-97.2396998, 35.2417443], [-97.239582, 35.2418218], [-97.2396195, 35.2418598], [-97.2397374, 35.2417824]]]}, "properties": {"osm_id": 385650195, "building": "yes", "name": "", "height": null, "height_m": null, "levels": null, "tract_id": "40027202406", "tract_name": "2024.06", "tags": {"access": "yes", "amenity": "toilets", "building": "yes", "toilets:disposal": "flush"}}}, {"type": "Feature", "geometry": {"type": "Polygon", "coordinates": [[[-97.2390589, 35.2477313], [-97.2389534, 35.2477383], [-97.2389451, 35.2476548], [-97.2390506, 35.2476478], [-97.2390589, 35.2477313]]]}, "properties": {"osm_id": 496235953, "building": "yes", "name": "", "height": null, "height_m": null, "levels": null, "tract_id": "40027202406", "tract_name": "2024.06", "tags": {"building": "yes"}}}, {"type": "Feature", "geometry": {"type": "Polygon", "coordinates": [[[-97.28209, 35.232194], [-97.28209, 35.232379], [-97.282265, 35.232379], [-97.282265, 35.232194], [-97.28209, 35.232194]]]}, "properties": {"osm_id": 946564127, "building": "yes", "name": "", "height": null, "height_m": null, "levels": null, "tract_id": "40027202406", "tract_name": "2024.06", "tags": {"building": "yes", "source": "microsoft/BuildingFootprints"}}}, {"type": "Feature", "geometry": {"type": "Polygon", "coordinates": [[[-97.281637, 35.232387], [-97.281849, 35.232387], [-97.281849, 35.23226], [-97.281637, 35.23226], [-97.281637, 35.232387]]]}, "properties": {"osm_id": 946564128, "building": "yes", "name": "", "height": null, "height_m": null, "levels": null, "tract_id": "40027202406", "tract_name": "2024.06", "tags": {"building": "yes", "source": "microsoft/BuildingFootprints"}}}, {"type": "Feature", "geometry": {"type": "Polygon", "coordinates": [[[-97.281506, 35.231965], [-97.281697, 35.231963], [-97.281695, 35.231777], [-97.281504, 35.231778], [-97.281506, 35.231965]]]}, "properties": {"osm_id": 946564129, "building": "yes", "name": "", "height": null, "height_m": null, "levels": null, "tract_id": "40027202406", "tract_name": "2024.06", "tags": {"building": "yes", "source": "microsoft/BuildingFootprints"}}}, {"type": "Feature", "geometry": {"type": "Polygon", "coordinates": [[[-97.28242, 35.231723], [-97.28242, 35.231809], [-97.282533, 35.231809], [-97.282533, 35.231677], [-97.282447, 35.231677], [-97.282447, 35.231723], [-97.28242, 35.231723]]]}, "properties": {"osm_id": 946564130, "building": "yes", "name": "", "height": null, "height_m": null, "levels": null, "tract_id": "40027202406", "tract_name": "2024.06", "tags": {"building": "yes", "source": "microsoft/BuildingFootprints"}}}, {"type": "Feature", "geometry": {"type": "Polygon", "coordinates": [[[-97.236407, 35.230923], [-97.23618, 35.231014], [-97.236773, 35.232], [-97.237, 35.231908], [-97.236407, 35.230923]]]}, "properties": {"osm_id": 946564131, "building": "yes", "name": "", "height": null, "height_m": null, "levels": null, "tract_id": "40027202406", "tract_name": "2024.06", "tags": {"building": "yes", "source": "microsoft/BuildingFootprints"}}}, {"type": "Feature", "geometry": {"type": "Polygon", "coordinates": [[[-97.237186, 35.231809], [-97.237374, 35.231729], [-97.236755, 35.230761], [-97.236567, 35.230841], [-97.237186, 35.231809]]]}, "properties": {"osm_id": 946564132, "building": "yes", "name": "", "height": null, "height_m": null, "levels": null, "tract_id": "40027202406", "tract_name": "2024.06", "tags": {"building": "yes", "source": "microsoft/BuildingFootprints"}}}, {"type": "Feature", "geometry": {"type": "Polygon", "coordinates": [[[-97.20885, 35.233231], [-97.209005, 35.233231], [-97.209005, 35.233077], [-97.20885, 35.233077], [-97.20885, 35.233231]]]}, "properties": {"osm_id": 946566322, "building": "yes", "name": "", "height": null, "height_m": null, "levels": null, "tract_id": "40027202406", "tract_name": "2024.06", "tags": {"building": "yes", "source": "microsoft/BuildingFootprints"}}}, {"type": "Feature", "geometry": {"type": "Polygon", "coordinates": [[[-97.207755, 35.232584], [-97.207924, 35.232584], [-97.207924, 35.23253], [-97.207957, 35.23253], [-97.207957, 35.232444], [-97.207755, 35.232444], [-97.207755, 35.232584]]]}, "properties": {"osm_id": 946566323, "building": "yes", "name": "", "height": null, "height_m": null, "levels": null, "tract_id": "40027202406", "tract_name": "2024.06", "tags": {"building": "yes", "source": "microsoft/BuildingFootprints"}}}, {"type": "Feature", "geometry": {"type": "Polygon", "coordinates": [[[-97.220809, 35.232545], [-97.220759, 35.232642], [-97.220839, 35.232669], [-97.220889, 35.232572], [-97.220809, 35.232545]]]}, "properties": {"osm_id": 946566324, "building": "yes", "name": "", "height": null, "height_m": null, "levels": null, "tract_id": "40027202406", "tract_name": "2024.06", "tags": {"building": "yes", "source": "microsoft/BuildingFootprints"}}}, {"type": "Feature", "geometry": {"type": "Polygon", "coordinates": [[[-97.2308332, 35.2797311], [-97.2308376, 35.2797203], [-97.230846, 35.2797226], [-97.2308541, 35.2797025], [-97.2308411, 35.279699], [-97.2308867, 35.2795857], [-97.230798, 35.2795618], [-97.230765, 35.2796438], [-97.2307491, 35.2796395], [-97.230724, 35.2797019], [-97.2308332, 35.2797311]]]}, "properties": {"osm_id": 987337550, "building": "yes", "name": "", "height": null, "height_m": null, "levels": null, "tract_id": "40027202406", "tract_name": "2024.06", "tags": {"building": "yes"}}}, {"type": "Feature", "geometry": {"type": "Polygon", "coordinates": [[[-97.2311115, 35.2788772], [-97.2310185, 35.2788393], [-97.2310252, 35.2788284], [-97.2310195, 35.2788261], [-97.2310478, 35.2787797], [-97.2310603, 35.2787847], [-97.2310984, 35.2787224], [-97.2311846, 35.2787575], [-97.2311115, 35.2788772]]]}, "properties": {"osm_id": 987337551, "building": "yes", "name": "", "height": null, "height_m": null, "levels": null, "tract_id": "40027202406", "tract_name": "2024.06", "tags": {"building": "yes"}}}, {"type": "Feature", "geometry": {"type": "Polygon", "coordinates": [[[-97.2224556, 35.2835677], [-97.2223696, 35.2835338], [-97.2224384, 35.2834175], [-97.2225244, 35.2834514], [-97.2224556, 35.2835677]]]}, "properties": {"osm_id": 987339623, "building": "yes", "name": "", "height": null, "height_m": null, "levels": null, "tract_id": "40027202406", "tract_name": "2024.06", "tags": {"building": "yes"}}}, {"type": "Feature", "geometry": {"type": "Polygon", "coordinates": [[[-97.222657, 35.2830499], [-97.2224755, 35.2830483], [-97.2224777, 35.2828794], [-97.2226592, 35.2828809], [-97.222657, 35.2830499]]]}, "properties": {"osm_id": 987339624, "building": "yes", "name": "", "height": null, "height_m": null, "levels": null, "tract_id": "40027202406", "tract_name": "2024.06", "tags": {"building": "yes"}}}, {"type": "Feature", "geometry": {"type": "Polygon", "coordinates": [[[-97.2051491, 35.2607426], [-97.2050778, 35.26075], [-97.2050665, 35.2606773], [-97.2051377, 35.2606699], [-97.2051491, 35.2607426]]]}, "properties": {"osm_id": 987392632, "building": "yes", "name": "", "height": null, "height_m": null, "levels": null, "tract_id": "40027202406", "tract_name": "2024.06", "tags": {"building": "yes"}}}, {"type": "Feature", "geometry": {"type": "Polygon", "coordinates": [[[-97.2047816, 35.2607321], [-97.2048662, 35.2607306], [-97.2048634, 35.2606273], [-97.2047789, 35.2606288], [-97.2047816, 35.2607321]]]}, "properties": {"osm_id": 987392633, "building": "yes", "name": "", "height": null, "height_m": null, "levels": null, "tract_id": "40027202406", "tract_name": "2024.06", "tags": {"building": "yes"}}}, {"type": "Feature", "geometry": {"type": "Polygon", "coordinates": [[[-97.1746595, 35.2513384], [-97.1745831, 35.251329], [-97.1745865, 35.2513108], [-97.1745649, 35.2513081], [-97.174567, 35.2512962], [-97.1745161, 35.25129], [-97.1745282, 35.2512239], [-97.1745835, 35.2512307], [-97.174601, 35.2511352], [-97.1747292, 35.2511509], [-97.1747209, 35.251196], [-97.1746562, 35.2511881], [-97.174647, 35.2512381], [-97.1746792, 35.2512421], [-97.1746763, 35.251258], [-97.1746939, 35.2512602], [-97.1746832, 35.2513183], [-97.1746637, 35.2513159], [-97.1746595, 35.2513384]]]}, "properties": {"osm_id": 987587908, "building": "yes", "name": "", "height": null, "height_m": null, "levels": null, "tract_id": "40027202406", "tract_name": "2024.06", "tags": {"building": "yes"}}}, {"type": "Feature", "geometry": {"type": "Polygon", "coordinates": [[[-97.1747027, 35.250694], [-97.1746009, 35.2507274], [-97.174578, 35.2506811], [-97.1745048, 35.2507051], [-97.1744798, 35.2506543], [-97.1745165, 35.2506423], [-97.1744979, 35.2506045], [-97.1745504, 35.2505873], [-97.1745201, 35.2505258], [-97.1746113, 35.2504958], [-97.1746367, 35.2505473], [-97.1747992, 35.250494], [-97.1748372, 35.2505713], [-97.1747517, 35.2505993], [-97.1747622, 35.2506206], [-97.1746798, 35.2506476], [-97.1747027, 35.250694]]]}, "properties": {"osm_id": 987587909, "building": "yes", "name": "", "height": null, "height_m": null, "levels": null, "tract_id": "40027202406", "tract_name": "2024.06", "tags": {"building": "yes"}}}, {"type": "Feature", "geometry": {"type": "Polygon", "coordinates": [[[-97.2822797, 35.1964448], [-97.2822799, 35.1964193], [-97.2822268, 35.196419], [-97.2822266, 35.1964445], [-97.2822797, 35.1964448]]]}, "properties": {"osm_id": 1349587723, "building": "yes", "name": "", "height": null, "height_m": null, "levels": null, "tract_id": "40027202406", "tract_name": "2024.06", "tags": {"building": "yes"}}}, {"type": "Feature", "geometry": {"type": "Polygon", "coordinates": [[[-97.1922066, 35.2516371], [-97.1920535, 35.2516614], [-97.1920328, 35.2515742], [-97.1921859, 35.25155], [-97.1922066, 35.2516371]]]}, "properties": {"osm_id": 1427300659, "building": "garage", "name": "", "height": null, "height_m": null, "levels": null, "tract_id": "40027202406", "tract_name": "2024.06", "tags": {"building": "garage"}}}, {"type": "Feature", "geometry": {"type": "Polygon", "coordinates": [[[-97.1916907, 35.2511557], [-97.1915375, 35.2511633], [-97.1914043, 35.2511699], [-97.1913855, 35.2509176], [-97.1916719, 35.2509033], [-97.1916907, 35.2511557]]]}, "properties": {"osm_id": 1427300660, "building": "yes", "name": "", "height": null, "height_m": null, "levels": null, "tract_id": "40027202406", "tract_name": "2024.06", "tags": {"addr:city": "Norman", "addr:housenumber": "2801", "addr:postcode": "73026", "addr:state": "OK", "addr:street": "168th Avenue Northeast", "building": "yes", "fixme": "correct shape when aerial imagery available"}}}]}