{"type": "FeatureCollection", "features": [{"type": "Feature", "geometry": {"type": "Polygon", "coordinates": [[[-97.9658282, 34.5228546], [-97.9655241, 34.5228573], [-97.9655224, 34.522732], [-97.965601, 34.5227313], [-97.9656013, 34.5227557], [-97.9656805, 34.522755], [-97.9656803, 34.5227341], [-97.9657313, 34.5227337], [-97.9657309, 34.5227033], [-97.9658262, 34.5227024], [-97.9658282, 34.5228546]]]}, "properties": {"osm_id": 556021547, "building": "house", "name": "", "height": null, "height_m": null, "levels": null, "tract_id": "40137000200", "tract_name": "2", "tags": {"building": "house"}}}, {"type": "Feature", "geometry": {"type": "Polygon", "coordinates": [[[-97.9661529, 34.5228588], [-97.9659929, 34.5228606], [-97.965989, 34.5226311], [-97.9661668, 34.5226291], [-97.9661686, 34.5227352], [-97.9661508, 34.5227354], [-97.9661529, 34.5228588]]]}, "properties": {"osm_id": 556039865, "building": "house", "name": "", "height": null, "height_m": null, "levels": null, "tract_id": "40137000200", "tract_name": "2", "tags": {"building": "house"}}}, {"type": "Feature", "geometry": {"type": "Polygon", "coordinates": [[[-97.9655045, 34.522783], [-97.965502, 34.5226761], [-97.9652607, 34.5226799], [-97.9652653, 34.5228764], [-97.9653714, 34.5228748], [-97.9653693, 34.5227852], [-97.9655045, 34.522783]]]}, "properties": {"osm_id": 556039866, "building": "house", "name": "", "height": null, "height_m": null, "levels": null, "tract_id": "40137000200", "tract_name": "2", "tags": {"building": "house"}}}, {"type": "Feature", "geometry": {"type": "Polygon", "coordinates": [[[-97.9651664, 34.5228692], [-97.9651661, 34.5228459], [-97.9652125, 34.5228454], [-97.9652112, 34.5227516], [-97.9651932, 34.5227518], [-97.9651925, 34.5227063], [-97.9650078, 34.5227081], [-97.9650086, 34.5227611], [-97.9649923, 34.5227612], [-97.9649935, 34.5228449], [-97.9650608, 34.5228442], [-97.9650612, 34.5228702], [-97.9651664, 34.5228692]]]}, "properties": {"osm_id": 556039867, "building": "house", "name": "", "height": null, "height_m": null, "levels": null, "tract_id": "40137000200", "tract_name": "2", "tags": {"building": "house"}}}, {"type": "Feature", "geometry": {"type": "Polygon", "coordinates": [[[-97.9649701, 34.5228602], [-97.9649698, 34.5227068], [-97.9647399, 34.5227071], [-97.9647402, 34.5228605], [-97.9649701, 34.5228602]]]}, "properties": {"osm_id": 556039868, "building": "house", "name": "", "height": null, "height_m": null, "levels": null, "tract_id": "40137000200", "tract_name": "2", "tags": {"building": "house"}}}, {"type": "Feature", "geometry": {"type": "Polygon", "coordinates": [[[-97.9645431, 34.5228047], [-97.9646743, 34.5228034], [-97.9646715, 34.522613], [-97.9645129, 34.5226146], [-97.9645139, 34.522682], [-97.9645412, 34.5226817], [-97.9645431, 34.5228047]]]}, "properties": {"osm_id": 556039869, "building": "house", "name": "", "height": null, "height_m": null, "levels": null, "tract_id": "40137000200", "tract_name": "2", "tags": {"building": "house"}}}, {"type": "Feature", "geometry": {"type": "Polygon", "coordinates": [[[-97.9647455, 34.5223069], [-97.9646355, 34.5223082], [-97.9646367, 34.5223803], [-97.9645202, 34.5223817], [-97.9645215, 34.522461], [-97.9647481, 34.5224584], [-97.9647455, 34.5223069]]]}, "properties": {"osm_id": 556039870, "building": "house", "name": "", "height": null, "height_m": null, "levels": null, "tract_id": "40137000200", "tract_name": "2", "tags": {"building": "house"}}}, {"type": "Feature", "geometry": {"type": "Polygon", "coordinates": [[[-97.965027, 34.5223124], [-97.9649563, 34.5223149], [-97.9649581, 34.5223481], [-97.9648917, 34.5223505], [-97.9648965, 34.5224396], [-97.9650335, 34.5224347], [-97.965027, 34.5223124]]]}, "properties": {"osm_id": 556039871, "building": "house", "name": "", "height": null, "height_m": null, "levels": null, "tract_id": "40137000200", "tract_name": "2", "tags": {"building": "house"}}}, {"type": "Feature", "geometry": {"type": "Polygon", "coordinates": [[[-97.9654053, 34.5223796], [-97.965383, 34.5222989], [-97.9653002, 34.5223144], [-97.9652962, 34.5223001], [-97.9652359, 34.5223115], [-97.9652395, 34.5223246], [-97.9651461, 34.5223421], [-97.9651527, 34.5223658], [-97.9651177, 34.5223724], [-97.9651497, 34.5224879], [-97.9653594, 34.5224485], [-97.9653435, 34.5223912], [-97.9654053, 34.5223796]]]}, "properties": {"osm_id": 556039872, "building": "house", "name": "", "height": null, "height_m": null, "levels": null, "tract_id": "40137000200", "tract_name": "2", "tags": {"building": "house"}}}, {"type": "Feature", "geometry": {"type": "Polygon", "coordinates": [[[-97.9661433, 34.5220457], [-97.9661344, 34.5221835], [-97.9660514, 34.5221799], [-97.9660474, 34.5222423], [-97.9658653, 34.5222344], [-97.9658013, 34.522354], [-97.9656814, 34.5223105], [-97.9657243, 34.5222304], [-97.965686, 34.5222165], [-97.9657274, 34.522139], [-97.9658054, 34.5221112], [-97.9658105, 34.5220313], [-97.9661433, 34.5220457]]]}, "properties": {"osm_id": 556039873, "building": "house", "name": "", "height": null, "height_m": null, "levels": null, "tract_id": "40137000200", "tract_name": "2", "tags": {"building": "house"}}}, {"type": "Feature", "geometry": {"type": "Polygon", "coordinates": [[[-97.9653932, 34.5220346], [-97.9653931, 34.5219212], [-97.9652807, 34.5218246], [-97.9651597, 34.5218275], [-97.9651624, 34.5219054], [-97.9652891, 34.521996], [-97.9652891, 34.5220346], [-97.9653932, 34.5220346]]]}, "properties": {"osm_id": 556039874, "building": "house", "name": "", "height": null, "height_m": null, "levels": null, "tract_id": "40137000200", "tract_name": "2", "tags": {"building": "house"}}}, {"type": "Feature", "geometry": {"type": "Polygon", "coordinates": [[[-97.9651, 34.5219486], [-97.9650981, 34.5218264], [-97.964825, 34.5218294], [-97.964827, 34.5219513], [-97.9649274, 34.5219502], [-97.9649271, 34.5219311], [-97.9650043, 34.5219303], [-97.9650046, 34.5219497], [-97.9651, 34.5219486]]]}, "properties": {"osm_id": 556039875, "building": "house", "name": "", "height": null, "height_m": null, "levels": null, "tract_id": "40137000200", "tract_name": "2", "tags": {"building": "house"}}}, {"type": "Feature", "geometry": {"type": "Polygon", "coordinates": [[[-97.9647393, 34.521997], [-97.9647366, 34.5218248], [-97.9645402, 34.5218269], [-97.9645425, 34.5219767], [-97.9646408, 34.5219756], [-97.9646412, 34.5219981], [-97.9647393, 34.521997]]]}, "properties": {"osm_id": 556039877, "building": "house", "name": "", "height": null, "height_m": null, "levels": null, "tract_id": "40137000200", "tract_name": "2", "tags": {"building": "house"}}}, {"type": "Feature", "geometry": {"type": "Polygon", "coordinates": [[[-97.9665216, 34.5222222], [-97.9665215, 34.5221611], [-97.9665813, 34.522161], [-97.9665811, 34.5220755], [-97.9666975, 34.5220753], [-97.966697, 34.5218127], [-97.9662603, 34.5218132], [-97.966261, 34.5222225], [-97.9665216, 34.5222222]]]}, "properties": {"osm_id": 556039878, "building": "yes", "name": "Don Grantham's Funeral Home", "height": null, "height_m": null, "levels": null, "tract_id": "40137000200", "tract_name": "2", "tags": {"addr:city": "Duncan", "addr:housenumber": "1502", "addr:postcode": "73533", "addr:street": "North Highway 81", "building": "yes", "name": "Don Grantham's Funeral Home", "shop": "funeral_directors"}}}, {"type": "Feature", "geometry": {"type": "Polygon", "coordinates": [[[-97.9646582, 34.5372842], [-97.9646558, 34.5369281], [-97.9641536, 34.5369304], [-97.9641561, 34.5372912], [-97.9642612, 34.5372908], [-97.9642614, 34.5373193], [-97.9645464, 34.5373181], [-97.9645462, 34.5372847], [-97.9646582, 34.5372842]]]}, "properties": {"osm_id": 738038524, "building": "yes", "name": "Duncan", "height": null, "height_m": null, "levels": null, "tract_id": "40137000200", "tract_name": "2", "tags": {"addr:city": "Duncan", "addr:housenumber": "1501", "addr:postcode": "73533", "addr:state": "OK", "addr:street": "West Plato Road", "amenity": "cinema", "building": "yes", "name": "Duncan", "screen": "6", "wikidata": "Q43192111"}}}, {"type": "Feature", "geometry": {"type": "Polygon", "coordinates": [[[-97.9645442, 34.5296673], [-97.9645451, 34.5294739], [-97.9653374, 34.5294763], [-97.9653365, 34.5296697], [-97.9645442, 34.5296673]]]}, "properties": {"osm_id": 829277139, "building": "yes", "name": "Holiday Inn Express & Suites", "height": null, "height_m": null, "levels": null, "tract_id": "40137000200", "tract_name": "2", "tags": {"addr:city": "Duncan", "addr:housenumber": "1520", "addr:postcode": "73533", "addr:state": "OK", "addr:street": "West Apollo Drive", "branch": "Duncan", "brand": "Holiday Inn Express & Suites", "brand:wikidata": "Q5880423", "building": "yes", "name": "Holiday Inn Express & Suites", "tourism": "hotel"}}}, {"type": "Feature", "geometry": {"type": "Polygon", "coordinates": [[[-97.9665678, 34.5302622], [-97.9665656, 34.530044], [-97.9660861, 34.5300475], [-97.9660884, 34.5302655], [-97.9665678, 34.5302622]]]}, "properties": {"osm_id": 829277141, "building": "yes", "name": "", "height": null, "height_m": null, "levels": null, "tract_id": "40137000200", "tract_name": "2", "tags": {"building": "yes"}}}, {"type": "Feature", "geometry": {"type": "Polygon", "coordinates": [[[-97.9662664, 34.529709], [-97.9662701, 34.5295236], [-97.965974, 34.5295196], [-97.9659703, 34.529705], [-97.9662664, 34.529709]]]}, "properties": {"osm_id": 829277142, "building": "retail", "name": "Applebee's", "height": null, "height_m": null, "levels": null, "tract_id": "40137000200", "tract_name": "2", "tags": {"addr:city": "Duncan", "addr:housenumber": "2002", "addr:postcode": "73533", "addr:street": "North Highway 81", "amenity": "restaurant", "brand": "Applebee's Neighborhood Grill & Bar", "brand:wikidata": "Q621532", "building": "retail", "cuisine": "american", "name": "Applebee's", "official_name": "Applebee's Neighborhood Grill & Bar", "opening_hours": "Mo-Th 11:00-23:15; Fr 11:00-24:00; Sa 00:00-01:00,11:00-24:00; Su 00:00-01:00,11:00-23:15", "phone": "+1 580-475-0031", "website": "https://restaurants.applebees.com/en-us/ok/duncan/2002-n-us-hwy-81-77021", "website:menu": "https://www.applebees.com/en/menu?StoreNumber=77021&action=viewmenu"}}}, {"type": "Feature", "geometry": {"type": "Polygon", "coordinates": [[[-97.9663257, 34.5305998], [-97.9663207, 34.5303583], [-97.9661453, 34.5303608], [-97.9661477, 34.5304763], [-97.96588, 34.5304802], [-97.9658827, 34.530606], [-97.9663257, 34.5305998]]]}, "properties": {"osm_id": 829277143, "building": "yes", "name": "VFW Post", "height": null, "height_m": null, "levels": null, "tract_id": "40137000200", "tract_name": "2", "tags": {"amenity": "social_centre", "brand": "Veterans of Foreign Wars of the United States", "brand:wikidata": "Q3556413", "building": "yes", "name": "VFW Post", "name:en": "VFW Post", "official_name": "Veterans of Foreign Wars of the United States", "short_name": "VFW", "social_centre:for": "veterans"}}}, {"type": "Feature", "geometry": {"type": "Polygon", "coordinates": [[[-97.9661566, 34.515172], [-97.9661566, 34.5151411], [-97.9660987, 34.5151412], [-97.9660985, 34.5150621], [-97.9661564, 34.5150621], [-97.9661558, 34.5148002], [-97.9662331, 34.5148001], [-97.966233, 34.5147915], [-97.9664304, 34.5147912], [-97.9664304, 34.5147799], [-97.9664632, 34.5147798], [-97.9665077, 34.5148163], [-97.9665082, 34.515013], [-97.9664932, 34.515013], [-97.9664936, 34.5151715], [-97.9661566, 34.515172]]]}, "properties": {"osm_id": 1056660240, "building": "yes", "name": "Walgreens", "height": null, "height_m": null, "levels": null, "tract_id": "40137000200", "tract_name": "2", "tags": {"amenity": "pharmacy", "brand": "Walgreens", "brand:wikidata": "Q1591889", "building": "yes", "dispensing": "yes", "healthcare": "pharmacy", "name": "Walgreens"}}}, {"type": "Feature", "geometry": {"type": "Polygon", "coordinates": [[[-97.9658709, 34.5175132], [-97.9653838, 34.5175133], [-97.9653836, 34.5170328], [-97.9651275, 34.5170328], [-97.9651273, 34.5164381], [-97.9651657, 34.5164381], [-97.9651656, 34.5163589], [-97.9652016, 34.5163589], [-97.9652013, 34.515591], [-97.9650534, 34.515591], [-97.9650531, 34.5147796], [-97.9654758, 34.5147795], [-97.9654759, 34.5150426], [-97.9656793, 34.5150426], [-97.9656791, 34.5146495], [-97.9658293, 34.5146495], [-97.9658295, 34.5150396], [-97.9658631, 34.5150396], [-97.9658633, 34.5155066], [-97.9658444, 34.5155066], [-97.9658448, 34.5164245], [-97.9658705, 34.5164245], [-97.9658709, 34.5175132]]]}, "properties": {"osm_id": 1056660241, "building": "yes", "name": "Chisholm Mall", "height": null, "height_m": null, "levels": null, "tract_id": "40137000200", "tract_name": "2", "tags": {"addr:city": "Duncan", "addr:housenumber": "1204", "addr:postcode": "73533", "addr:street": "North Highway 81", "building": "yes", "name": "Chisholm Mall", "opening_hours": "Mo-Sa 10:00-17:00", "shop": "mall"}}}, {"type": "Feature", "geometry": {"type": "Polygon", "coordinates": [[[-97.9664737, 34.525725], [-97.9662629, 34.5257177], [-97.9662775, 34.5252931], [-97.9664854, 34.5252955], [-97.9664737, 34.525725]]]}, "properties": {"osm_id": 1056670381, "building": "yes", "name": "Murf's Guns", "height": null, "height_m": null, "levels": null, "tract_id": "40137000200", "tract_name": "2", "tags": {"addr:city": "Duncan", "addr:housenumber": "1720", "addr:postcode": "73533", "addr:street": "North Highway 81", "building": "yes", "name": "Murf's Guns", "shop": "weapons"}}}, {"type": "Feature", "geometry": {"type": "Polygon", "coordinates": [[[-97.966489, 34.5268155], [-97.9662475, 34.526814], [-97.9662486, 34.5266929], [-97.9663645, 34.5266936], [-97.9663647, 34.5266648], [-97.9664235, 34.5266652], [-97.9664233, 34.5266939], [-97.9664901, 34.5266943], [-97.966489, 34.5268155]]]}, "properties": {"osm_id": 1056670383, "building": "yes", "name": "Baker Express Pharmacy Duncan", "height": null, "height_m": null, "levels": null, "tract_id": "40137000200", "tract_name": "2", "tags": {"building": "yes", "name": "Baker Express Pharmacy Duncan", "shop": "chemist"}}}, {"type": "Feature", "geometry": {"type": "Polygon", "coordinates": [[[-97.9665537, 34.5273611], [-97.9661393, 34.5273564], [-97.966145, 34.5271974], [-97.9663739, 34.5271912], [-97.966425, 34.5272348], [-97.9665594, 34.5272364], [-97.9665537, 34.5273611]]]}, "properties": {"osm_id": 1056670384, "building": "yes", "name": "Braum's Ice Cream & Dairy Store", "height": null, "height_m": null, "levels": null, "tract_id": "40137000200", "tract_name": "2", "tags": {"amenity": "ice_cream", "building": "yes", "name": "Braum's Ice Cream & Dairy Store"}}}, {"type": "Feature", "geometry": {"type": "Polygon", "coordinates": [[[-97.966442, 34.5283064], [-97.9662391, 34.5283053], [-97.9662412, 34.5280582], [-97.9664441, 34.5280594], [-97.966442, 34.5283064]]]}, "properties": {"osm_id": 1056670385, "building": "yes", "name": "Duncan Tag Agancy", "height": null, "height_m": null, "levels": null, "tract_id": "40137000200", "tract_name": "2", "tags": {"building": "yes", "name": "Duncan Tag Agancy"}}}, {"type": "Feature", "geometry": {"type": "Polygon", "coordinates": [[[-97.9665896, 34.529132], [-97.9664714, 34.5291325], [-97.9664714, 34.5291422], [-97.966323, 34.5291428], [-97.9663224, 34.529027], [-97.966589, 34.529026], [-97.9665896, 34.529132]]]}, "properties": {"osm_id": 1056670386, "building": "yes", "name": "Pizza Hut", "height": null, "height_m": null, "levels": null, "tract_id": "40137000200", "tract_name": "2", "tags": {"addr:city": "Duncan", "addr:housenumber": "1910", "addr:postcode": "73533", "addr:state": "OK", "addr:street": "North Highway 81", "amenity": "restaurant", "brand": "Pizza Hut", "brand:wikidata": "Q191615", "building": "yes", "cuisine": "pizza", "name": "Pizza Hut", "phone": "+1 580-252-7011", "website": "https://locations.pizzahut.com/ok/duncan/3522-n-highway-81"}}}, {"type": "Feature", "geometry": {"type": "Polygon", "coordinates": [[[-97.9664555, 34.5311291], [-97.9661268, 34.5311336], [-97.9661268, 34.5310265], [-97.9660899, 34.5310264], [-97.966089, 34.5309515], [-97.9664515, 34.5309503], [-97.9664555, 34.5311291]]]}, "properties": {"osm_id": 1056670387, "building": "yes", "name": "Jimmy's Egg", "height": null, "height_m": null, "levels": null, "tract_id": "40137000200", "tract_name": "2", "tags": {"amenity": "restaurant", "building": "yes", "name": "Jimmy's Egg"}}}, {"type": "Feature", "geometry": {"type": "Polygon", "coordinates": [[[-97.9666448, 34.5233177], [-97.9665814, 34.5233172], [-97.9665817, 34.5232904], [-97.9664608, 34.5232894], [-97.9664618, 34.5232112], [-97.9665661, 34.5232121], [-97.966567, 34.5231421], [-97.9666469, 34.5231428], [-97.9666448, 34.5233177]]]}, "properties": {"osm_id": 1127842898, "building": "yes", "name": "", "height": null, "height_m": null, "levels": null, "tract_id": "40137000200", "tract_name": "2", "tags": {"building": "yes"}}}, {"type": "Feature", "geometry": {"type": "Polygon", "coordinates": [[[-97.9662048, 34.5232518], [-97.9662583, 34.5232512], [-97.9662581, 34.5232423], [-97.9663869, 34.523241], [-97.9663872, 34.5232659], [-97.9664245, 34.5232656], [-97.9664232, 34.5231789], [-97.9663106, 34.52318], [-97.9663101, 34.5231429], [-97.9662257, 34.5231438], [-97.9662262, 34.5231796], [-97.9662037, 34.5231798], [-97.9662048, 34.5232518]]]}, "properties": {"osm_id": 1127842899, "building": "yes", "name": "", "height": null, "height_m": null, "levels": null, "tract_id": "40137000200", "tract_name": "2", "tags": {"building": "yes"}}}, {"type": "Feature", "geometry": {"type": "Polygon", "coordinates": [[[-97.9659832, 34.5233283], [-97.9661511, 34.5233287], [-97.9661515, 34.5232416], [-97.9660847, 34.5232414], [-97.9660851, 34.5231438], [-97.965984, 34.5231435], [-97.9659832, 34.5233283]]]}, "properties": {"osm_id": 1127842900, "building": "yes", "name": "", "height": null, "height_m": null, "levels": null, "tract_id": "40137000200", "tract_name": "2", "tags": {"building": "yes"}}}, {"type": "Feature", "geometry": {"type": "Polygon", "coordinates": [[[-97.9654673, 34.5231337], [-97.9654717, 34.5232758], [-97.9655405, 34.5232744], [-97.9655409, 34.5232883], [-97.9656043, 34.523287], [-97.9656039, 34.5232723], [-97.965664, 34.523271], [-97.9656614, 34.523189], [-97.9655825, 34.5231907], [-97.9655806, 34.5231313], [-97.9654673, 34.5231337]]]}, "properties": {"osm_id": 1127842901, "building": "yes", "name": "", "height": null, "height_m": null, "levels": null, "tract_id": "40137000200", "tract_name": "2", "tags": {"building": "yes"}}}, {"type": "Feature", "geometry": {"type": "Polygon", "coordinates": [[[-97.9651998, 34.5232392], [-97.9652002, 34.5231621], [-97.9654307, 34.5231628], [-97.9654304, 34.5232412], [-97.9653833, 34.5232411], [-97.9653831, 34.5232703], [-97.9652986, 34.52327], [-97.9652987, 34.5232395], [-97.9651998, 34.5232392]]]}, "properties": {"osm_id": 1127842902, "building": "yes", "name": "", "height": null, "height_m": null, "levels": null, "tract_id": "40137000200", "tract_name": "2", "tags": {"building": "yes"}}}, {"type": "Feature", "geometry": {"type": "Polygon", "coordinates": [[[-97.9651819, 34.5233652], [-97.965082, 34.5233645], [-97.9650828, 34.5232921], [-97.9650595, 34.5232919], [-97.9650606, 34.5231942], [-97.9650048, 34.5231938], [-97.9650054, 34.5231314], [-97.9651845, 34.5231328], [-97.9651819, 34.5233652]]]}, "properties": {"osm_id": 1127842903, "building": "yes", "name": "", "height": null, "height_m": null, "levels": null, "tract_id": "40137000200", "tract_name": "2", "tags": {"building": "yes"}}}, {"type": "Feature", "geometry": {"type": "Polygon", "coordinates": [[[-97.9659302, 34.5232991], [-97.9659261, 34.523122], [-97.9658569, 34.5231231], [-97.9658579, 34.5231681], [-97.9657945, 34.5231691], [-97.9657938, 34.5231404], [-97.9657133, 34.5231417], [-97.965717, 34.5233025], [-97.9659302, 34.5232991]]]}, "properties": {"osm_id": 1127842904, "building": "yes", "name": "", "height": null, "height_m": null, "levels": null, "tract_id": "40137000200", "tract_name": "2", "tags": {"building": "yes"}}}, {"type": "Feature", "geometry": {"type": "Polygon", "coordinates": [[[-97.9664422, 34.527592], [-97.9664408, 34.5276987], [-97.9662673, 34.5276972], [-97.9662687, 34.5275904], [-97.9664422, 34.527592]]]}, "properties": {"osm_id": 1164367829, "building": "yes", "name": "", "height": null, "height_m": null, "levels": null, "tract_id": "40137000200", "tract_name": "2", "tags": {"building": "yes"}}}, {"type": "Feature", "geometry": {"type": "Polygon", "coordinates": [[[-97.9658477, 34.5211221], [-97.9657604, 34.5211979], [-97.9657623, 34.5213908], [-97.9662147, 34.5213936], [-97.9662308, 34.5213873], [-97.9662379, 34.5213795], [-97.9662431, 34.5213697], [-97.9662441, 34.5211268], [-97.9658477, 34.5211221]]]}, "properties": {"osm_id": 1164367855, "building": "yes", "name": "", "height": null, "height_m": null, "levels": null, "tract_id": "40137000200", "tract_name": "2", "tags": {"building": "yes"}}}, {"type": "Feature", "geometry": {"type": "Polygon", "coordinates": [[[-97.9655328, 34.5202345], [-97.9655537, 34.5195141], [-97.9661228, 34.5195253], [-97.9661019, 34.5202457], [-97.9655328, 34.5202345]]]}, "properties": {"osm_id": 1164367856, "building": "yes", "name": "", "height": null, "height_m": null, "levels": null, "tract_id": "40137000200", "tract_name": "2", "tags": {"building": "yes"}}}, {"type": "Feature", "geometry": {"type": "Polygon", "coordinates": [[[-97.9666083, 34.5181686], [-97.9666083, 34.5181975], [-97.9666221, 34.5181975], [-97.9666221, 34.5183058], [-97.9666083, 34.5183058], [-97.9666083, 34.5183436], [-97.9658913, 34.5183436], [-97.9658913, 34.5181686], [-97.9666083, 34.5181686]]]}, "properties": {"osm_id": 1164367858, "building": "yes", "name": "", "height": null, "height_m": null, "levels": null, "tract_id": "40137000200", "tract_name": "2", "tags": {"building": "yes"}}}, {"type": "Feature", "geometry": {"type": "Polygon", "coordinates": [[[-97.9666044, 34.5179655], [-97.9666054, 34.518103], [-97.9664919, 34.5181035], [-97.9664909, 34.517966], [-97.9666044, 34.5179655]]]}, "properties": {"osm_id": 1164367859, "building": "yes", "name": "", "height": null, "height_m": null, "levels": null, "tract_id": "40137000200", "tract_name": "2", "tags": {"building": "yes"}}}, {"type": "Feature", "geometry": {"type": "Polygon", "coordinates": [[[-97.9656239, 34.5178779], [-97.9656228, 34.5177675], [-97.9658684, 34.5177659], [-97.9658695, 34.5178764], [-97.9656239, 34.5178779]]]}, "properties": {"osm_id": 1164367860, "building": "yes", "name": "", "height": null, "height_m": null, "levels": null, "tract_id": "40137000200", "tract_name": "2", "tags": {"building": "yes"}}}, {"type": "Feature", "geometry": {"type": "Polygon", "coordinates": [[[-97.9658002, 34.5181381], [-97.9657997, 34.518034], [-97.9662634, 34.5180325], [-97.966264, 34.5181366], [-97.9658002, 34.5181381]]]}, "properties": {"osm_id": 1164367861, "building": "yes", "name": "", "height": null, "height_m": null, "levels": null, "tract_id": "40137000200", "tract_name": "2", "tags": {"building": "yes"}}}, {"type": "Feature", "geometry": {"type": "Polygon", "coordinates": [[[-97.9665598, 34.5174459], [-97.9662725, 34.5174466], [-97.9662721, 34.5173427], [-97.9665594, 34.517342], [-97.9665598, 34.5174459]]]}, "properties": {"osm_id": 1164367862, "building": "yes", "name": "", "height": null, "height_m": null, "levels": null, "tract_id": "40137000200", "tract_name": "2", "tags": {"building": "yes"}}}, {"type": "Feature", "geometry": {"type": "Polygon", "coordinates": [[[-97.9566859, 34.5214864], [-97.9566865, 34.5214219], [-97.9567723, 34.5214225], [-97.9567717, 34.521487], [-97.9566859, 34.5214864]]]}, "properties": {"osm_id": 1164367863, "building": "yes", "name": "", "height": null, "height_m": null, "levels": null, "tract_id": "40137000200", "tract_name": "2", "tags": {"building": "yes"}}}, {"type": "Feature", "geometry": {"type": "Polygon", "coordinates": [[[-97.9565571, 34.52109], [-97.9564974, 34.5211295], [-97.9564539, 34.5210848], [-97.9565136, 34.5210453], [-97.9565571, 34.52109]]]}, "properties": {"osm_id": 1164367864, "building": "yes", "name": "", "height": null, "height_m": null, "levels": null, "tract_id": "40137000200", "tract_name": "2", "tags": {"building": "yes"}}}, {"type": "Feature", "geometry": {"type": "Polygon", "coordinates": [[[-97.9509714, 34.5324275], [-97.9509352, 34.5325469], [-97.9508317, 34.5325255], [-97.9508679, 34.5324062], [-97.9509714, 34.5324275]]]}, "properties": {"osm_id": 1164367895, "building": "yes", "name": "", "height": null, "height_m": null, "levels": null, "tract_id": "40137000200", "tract_name": "2", "tags": {"building": "yes"}}}, {"type": "Feature", "geometry": {"type": "Polygon", "coordinates": [[[-97.9519854, 34.5344441], [-97.9519828, 34.5342046], [-97.9526352, 34.5342], [-97.9526378, 34.5344395], [-97.9519854, 34.5344441]]]}, "properties": {"osm_id": 1164367896, "building": "yes", "name": "", "height": null, "height_m": null, "levels": null, "tract_id": "40137000200", "tract_name": "2", "tags": {"building": "yes"}}}, {"type": "Feature", "geometry": {"type": "Polygon", "coordinates": [[[-97.9508172, 34.5594164], [-97.9508145, 34.5593653], [-97.9508755, 34.5593631], [-97.9508782, 34.5594142], [-97.9508172, 34.5594164]]]}, "properties": {"osm_id": 1164512869, "building": "yes", "name": "", "height": null, "height_m": null, "levels": null, "tract_id": "40137000200", "tract_name": "2", "tags": {"building": "yes"}}}, {"type": "Feature", "geometry": {"type": "Polygon", "coordinates": [[[-97.9511826, 34.5593505], [-97.9512446, 34.5593497], [-97.9512455, 34.5593985], [-97.9511836, 34.5593993], [-97.9511826, 34.5593505]]]}, "properties": {"osm_id": 1164512870, "building": "yes", "name": "", "height": null, "height_m": null, "levels": null, "tract_id": "40137000200", "tract_name": "2", "tags": {"building": "yes"}}}, {"type": "Feature", "geometry": {"type": "Polygon", "coordinates": [[[-97.9514636, 34.5594545], [-97.9514556, 34.559269], [-97.951578, 34.5592654], [-97.9515861, 34.5594509], [-97.9514636, 34.5594545]]]}, "properties": {"osm_id": 1164512871, "building": "yes", "name": "", "height": null, "height_m": null, "levels": null, "tract_id": "40137000200", "tract_name": "2", "tags": {"building": "yes"}}}, {"type": "Feature", "geometry": {"type": "Polygon", "coordinates": [[[-97.9515036, 34.5581353], [-97.9515074, 34.558204], [-97.9514162, 34.5582075], [-97.9514124, 34.5581387], [-97.9515036, 34.5581353]]]}, "properties": {"osm_id": 1164512872, "building": "yes", "name": "", "height": null, "height_m": null, "levels": null, "tract_id": "40137000200", "tract_name": "2", "tags": {"building": "yes"}}}, {"type": "Feature", "geometry": {"type": "Polygon", "coordinates": [[[-97.9657316, 34.5606816], [-97.9657296, 34.5605066], [-97.966148, 34.5605032], [-97.96615, 34.5606782], [-97.9657316, 34.5606816]]]}, "properties": {"osm_id": 1164512874, "building": "yes", "name": "", "height": null, "height_m": null, "levels": null, "tract_id": "40137000200", "tract_name": "2", "tags": {"building": "yes"}}}, {"type": "Feature", "geometry": {"type": "Polygon", "coordinates": [[[-97.9659861, 34.558582], [-97.9659828, 34.5584375], [-97.9661809, 34.5584344], [-97.9661843, 34.5585789], [-97.9659861, 34.558582]]]}, "properties": {"osm_id": 1164512878, "building": "yes", "name": "", "height": null, "height_m": null, "levels": null, "tract_id": "40137000200", "tract_name": "2", "tags": {"building": "yes"}}}, {"type": "Feature", "geometry": {"type": "Polygon", "coordinates": [[[-97.9606649, 34.5511928], [-97.9607658, 34.5511957], [-97.9607564, 34.5514177], [-97.9606555, 34.5514148], [-97.9606649, 34.5511928]]]}, "properties": {"osm_id": 1164512888, "building": "yes", "name": "", "height": null, "height_m": null, "levels": null, "tract_id": "40137000200", "tract_name": "2", "tags": {"building": "yes"}}}, {"type": "Feature", "geometry": {"type": "Polygon", "coordinates": [[[-97.9595317, 34.5488909], [-97.9595325, 34.5488182], [-97.9598342, 34.5488205], [-97.9598334, 34.5488931], [-97.9595317, 34.5488909]]]}, "properties": {"osm_id": 1164512889, "building": "yes", "name": "", "height": null, "height_m": null, "levels": null, "tract_id": "40137000200", "tract_name": "2", "tags": {"building": "yes"}}}, {"type": "Feature", "geometry": {"type": "Polygon", "coordinates": [[[-97.9592004, 34.5470926], [-97.9589966, 34.5470871], [-97.9590005, 34.5469895], [-97.9592043, 34.5469951], [-97.9592004, 34.5470926]]]}, "properties": {"osm_id": 1164512890, "building": "yes", "name": "", "height": null, "height_m": null, "levels": null, "tract_id": "40137000200", "tract_name": "2", "tags": {"building": "yes"}}}, {"type": "Feature", "geometry": {"type": "Polygon", "coordinates": [[[-97.9590181, 34.546822], [-97.9590288, 34.5465491], [-97.959179, 34.5465531], [-97.9591682, 34.546826], [-97.9590181, 34.546822]]]}, "properties": {"osm_id": 1164512891, "building": "yes", "name": "", "height": null, "height_m": null, "levels": null, "tract_id": "40137000200", "tract_name": "2", "tags": {"building": "yes"}}}, {"type": "Feature", "geometry": {"type": "Polygon", "coordinates": [[[-97.9548673, 34.5433136], [-97.9547319, 34.5433026], [-97.9547422, 34.5432171], [-97.9548776, 34.5432282], [-97.9548673, 34.5433136]]]}, "properties": {"osm_id": 1164512892, "building": "yes", "name": "", "height": null, "height_m": null, "levels": null, "tract_id": "40137000200", "tract_name": "2", "tags": {"building": "yes"}}}, {"type": "Feature", "geometry": {"type": "Polygon", "coordinates": [[[-97.9562017, 34.5407894], [-97.9561937, 34.5410015], [-97.9559973, 34.5409965], [-97.9560054, 34.5407844], [-97.9562017, 34.5407894]]]}, "properties": {"osm_id": 1164512893, "building": "yes", "name": "", "height": null, "height_m": null, "levels": null, "tract_id": "40137000200", "tract_name": "2", "tags": {"building": "yes"}}}, {"type": "Feature", "geometry": {"type": "Polygon", "coordinates": [[[-97.9660866, 34.5357375], [-97.9662539, 34.535736], [-97.9662549, 34.5358123], [-97.9662561, 34.5359087], [-97.966542, 34.5359062], [-97.966543, 34.5359827], [-97.9658067, 34.535989], [-97.9658057, 34.5359082], [-97.9660888, 34.5359057], [-97.9660876, 34.5358138], [-97.9660866, 34.5357375]]]}, "properties": {"osm_id": 1164512896, "building": "roof", "name": "", "height": null, "height_m": null, "levels": null, "tract_id": "40137000200", "tract_name": "2", "tags": {"building": "roof", "layer": "1"}}}, {"type": "Feature", "geometry": {"type": "Polygon", "coordinates": [[[-97.9660361, 34.5451733], [-97.9658335, 34.5451772], [-97.9658294, 34.5450285], [-97.9660319, 34.5450246], [-97.9660361, 34.5451733]]]}, "properties": {"osm_id": 1164512897, "building": "yes", "name": "", "height": null, "height_m": null, "levels": null, "tract_id": "40137000200", "tract_name": "2", "tags": {"building": "yes"}}}, {"type": "Feature", "geometry": {"type": "Polygon", "coordinates": [[[-97.9659491, 34.5322989], [-97.9659463, 34.5324653], [-97.9658106, 34.5324638], [-97.9658135, 34.5322974], [-97.9659491, 34.5322989]]]}, "properties": {"osm_id": 1164512902, "building": "yes", "name": "", "height": null, "height_m": null, "levels": null, "tract_id": "40137000200", "tract_name": "2", "tags": {"building": "yes"}}}, {"type": "Feature", "geometry": {"type": "Polygon", "coordinates": [[[-97.9648353, 34.5328704], [-97.9648358, 34.5329223], [-97.9647875, 34.5329226], [-97.964787, 34.5328707], [-97.9648353, 34.5328704]]]}, "properties": {"osm_id": 1164512903, "building": "yes", "name": "", "height": null, "height_m": null, "levels": null, "tract_id": "40137000200", "tract_name": "2", "tags": {"building": "yes"}}}, {"type": "Feature", "geometry": {"type": "Polygon", "coordinates": [[[-97.9657399, 34.5340285], [-97.965741, 34.5340584], [-97.9650175, 34.5340766], [-97.9650393, 34.5346665], [-97.9653972, 34.5346575], [-97.9653981, 34.534681], [-97.9656341, 34.5346751], [-97.9656334, 34.5346575], [-97.9661608, 34.5346443], [-97.9661513, 34.5343858], [-97.9661963, 34.5343847], [-97.9661884, 34.534171], [-97.9660644, 34.5341741], [-97.9660587, 34.5340205], [-97.9657399, 34.5340285]]]}, "properties": {"osm_id": 1164512906, "building": "yes", "name": "", "height": null, "height_m": null, "levels": null, "tract_id": "40137000200", "tract_name": "2", "tags": {"building": "yes"}}}, {"type": "Feature", "geometry": {"type": "Polygon", "coordinates": [[[-97.9666597, 34.5328783], [-97.9665121, 34.5328783], [-97.9665121, 34.5327634], [-97.9666597, 34.5327634], [-97.9666597, 34.5328783]]]}, "properties": {"osm_id": 1164512909, "building": "yes", "name": "", "height": null, "height_m": null, "levels": null, "tract_id": "40137000200", "tract_name": "2", "tags": {"building": "yes"}}}, {"type": "Feature", "geometry": {"type": "Polygon", "coordinates": [[[-97.965915, 34.5303396], [-97.9659132, 34.5302796], [-97.9660678, 34.5302764], [-97.9660696, 34.5303365], [-97.965915, 34.5303396]]]}, "properties": {"osm_id": 1164512910, "building": "yes", "name": "", "height": null, "height_m": null, "levels": null, "tract_id": "40137000200", "tract_name": "2", "tags": {"building": "yes"}}}, {"type": "Feature", "geometry": {"type": "Polygon", "coordinates": [[[-97.9658439, 34.5303904], [-97.9657073, 34.5303912], [-97.9657064, 34.5302774], [-97.9658429, 34.5302766], [-97.9658439, 34.5303904]]]}, "properties": {"osm_id": 1164512911, "building": "yes", "name": "", "height": null, "height_m": null, "levels": null, "tract_id": "40137000200", "tract_name": "2", "tags": {"building": "yes"}}}, {"type": "Feature", "geometry": {"type": "Polygon", "coordinates": [[[-97.96586, 34.5264607], [-97.9658567, 34.5263739], [-97.9660368, 34.5263692], [-97.9660402, 34.526456], [-97.96586, 34.5264607]]]}, "properties": {"osm_id": 1164512916, "building": "yes", "name": "", "height": null, "height_m": null, "levels": null, "tract_id": "40137000200", "tract_name": "2", "tags": {"building": "yes"}}}, {"type": "Feature", "geometry": {"type": "Polygon", "coordinates": [[[-97.9651959, 34.5453125], [-97.9651976, 34.5453616], [-97.9651602, 34.5453625], [-97.9651637, 34.545461], [-97.9650157, 34.5454646], [-97.9650141, 34.5454204], [-97.964993, 34.545421], [-97.9649893, 34.5453175], [-97.9651959, 34.5453125]]]}, "properties": {"osm_id": 1245370228, "building": "yes", "name": "", "height": null, "height_m": null, "levels": null, "tract_id": "40137000200", "tract_name": "2", "tags": {"building": "yes"}}}, {"type": "Feature", "geometry": {"type": "Polygon", "coordinates": [[[-97.9633981, 34.5443889], [-97.9634017, 34.5445611], [-97.9634902, 34.5445599], [-97.9634899, 34.5445444], [-97.9635757, 34.5445432], [-97.9635724, 34.5443864], [-97.9633981, 34.5443889]]]}, "properties": {"osm_id": 1245370229, "building": "yes", "name": "", "height": null, "height_m": null, "levels": null, "tract_id": "40137000200", "tract_name": "2", "tags": {"building": "yes", "source": "microsoft/BuildingFootprints"}}}, {"type": "Feature", "geometry": {"type": "Polygon", "coordinates": [[[-97.9637596, 34.5455831], [-97.9637601, 34.5455639], [-97.9637857, 34.5455643], [-97.9637869, 34.5455153], [-97.9636328, 34.5455128], [-97.963629, 34.5456718], [-97.9638232, 34.545675], [-97.9638254, 34.5455842], [-97.9637596, 34.5455831]]]}, "properties": {"osm_id": 1245370230, "building": "yes", "name": "", "height": null, "height_m": null, "levels": null, "tract_id": "40137000200", "tract_name": "2", "tags": {"building": "yes", "source": "microsoft/BuildingFootprints"}}}, {"type": "Feature", "geometry": {"type": "Polygon", "coordinates": [[[-97.9606125, 34.5439397], [-97.9606091, 34.5440457], [-97.9605931, 34.5440453], [-97.9605907, 34.5441193], [-97.9607623, 34.544123], [-97.9607646, 34.544049], [-97.9607351, 34.5440484], [-97.9607385, 34.5439424], [-97.9606125, 34.5439397]]]}, "properties": {"osm_id": 1245370231, "building": "yes", "name": "", "height": null, "height_m": null, "levels": null, "tract_id": "40137000200", "tract_name": "2", "tags": {"building": "yes", "source": "microsoft/BuildingFootprints"}}}, {"type": "Feature", "geometry": {"type": "Polygon", "coordinates": [[[-97.9599862, 34.5448245], [-97.9600703, 34.5448273], [-97.9600789, 34.5446508], [-97.9599423, 34.5446463], [-97.9599401, 34.5446915], [-97.9599926, 34.5446933], [-97.9599862, 34.5448245]]]}, "properties": {"osm_id": 1245370232, "building": "yes", "name": "", "height": null, "height_m": null, "levels": null, "tract_id": "40137000200", "tract_name": "2", "tags": {"building": "yes", "source": "microsoft/BuildingFootprints"}}}, {"type": "Feature", "geometry": {"type": "Polygon", "coordinates": [[[-97.9629728, 34.545885], [-97.9627596, 34.5459385], [-97.9628015, 34.5460517], [-97.9629835, 34.546006], [-97.9629598, 34.5459419], [-97.962991, 34.5459341], [-97.9629728, 34.545885]]]}, "properties": {"osm_id": 1245370233, "building": "yes", "name": "", "height": null, "height_m": null, "levels": null, "tract_id": "40137000200", "tract_name": "2", "tags": {"building": "yes", "source": "microsoft/BuildingFootprints"}}}, {"type": "Feature", "geometry": {"type": "Polygon", "coordinates": [[[-97.9620667, 34.5442717], [-97.9620659, 34.5443027], [-97.962023, 34.5443019], [-97.9620197, 34.5444309], [-97.9620741, 34.5444318], [-97.9620739, 34.5444391], [-97.9620966, 34.5444395], [-97.9620963, 34.5444488], [-97.9621801, 34.5444503], [-97.9621847, 34.5442738], [-97.9620667, 34.5442717]]]}, "properties": {"osm_id": 1245370234, "building": "yes", "name": "", "height": null, "height_m": null, "levels": null, "tract_id": "40137000200", "tract_name": "2", "tags": {"building": "yes", "source": "microsoft/BuildingFootprints"}}}, {"type": "Feature", "geometry": {"type": "Polygon", "coordinates": [[[-97.9624311, 34.543959], [-97.9624307, 34.543982], [-97.9623744, 34.5439813], [-97.9623712, 34.5441393], [-97.9624945, 34.544141], [-97.9624982, 34.5439599], [-97.9624311, 34.543959]]]}, "properties": {"osm_id": 1245370235, "building": "yes", "name": "", "height": null, "height_m": null, "levels": null, "tract_id": "40137000200", "tract_name": "2", "tags": {"building": "yes", "source": "microsoft/BuildingFootprints"}}}, {"type": "Feature", "geometry": {"type": "Polygon", "coordinates": [[[-97.9639155, 34.5449509], [-97.9638511, 34.5449512], [-97.963851, 34.5449313], [-97.9638939, 34.5449311], [-97.9638935, 34.544886], [-97.9637096, 34.5448871], [-97.9637108, 34.5450404], [-97.9639162, 34.5450392], [-97.9639155, 34.5449509]]]}, "properties": {"osm_id": 1245370236, "building": "yes", "name": "", "height": null, "height_m": null, "levels": null, "tract_id": "40137000200", "tract_name": "2", "tags": {"building": "yes", "source": "microsoft/BuildingFootprints"}}}, {"type": "Feature", "geometry": {"type": "Polygon", "coordinates": [[[-97.9638734, 34.546886], [-97.9641054, 34.5468873], [-97.9641059, 34.5468232], [-97.9640589, 34.546823], [-97.9640594, 34.5467691], [-97.9638743, 34.5467681], [-97.9638734, 34.546886]]]}, "properties": {"osm_id": 1245370237, "building": "yes", "name": "", "height": null, "height_m": null, "levels": null, "tract_id": "40137000200", "tract_name": "2", "tags": {"building": "yes", "source": "microsoft/BuildingFootprints"}}}, {"type": "Feature", "geometry": {"type": "Polygon", "coordinates": [[[-97.9611736, 34.5441815], [-97.9611757, 34.5443339], [-97.9613372, 34.5443324], [-97.9613362, 34.5442647], [-97.9613097, 34.544265], [-97.9613096, 34.5442577], [-97.9613282, 34.5442575], [-97.9613272, 34.5441801], [-97.9611736, 34.5441815]]]}, "properties": {"osm_id": 1245370238, "building": "yes", "name": "", "height": null, "height_m": null, "levels": null, "tract_id": "40137000200", "tract_name": "2", "tags": {"building": "yes", "source": "microsoft/BuildingFootprints"}}}, {"type": "Feature", "geometry": {"type": "Polygon", "coordinates": [[[-97.9598528, 34.5448063], [-97.9597981, 34.5448051], [-97.9597962, 34.5448625], [-97.9598509, 34.5448637], [-97.9598528, 34.5448063]]]}, "properties": {"osm_id": 1245370239, "building": "yes", "name": "", "height": null, "height_m": null, "levels": null, "tract_id": "40137000200", "tract_name": "2", "tags": {"building": "yes", "source": "microsoft/BuildingFootprints"}}}, {"type": "Feature", "geometry": {"type": "Polygon", "coordinates": [[[-97.9584627, 34.5445515], [-97.9584332, 34.5445513], [-97.9584324, 34.5446385], [-97.9585826, 34.5446395], [-97.9585833, 34.5445644], [-97.9586262, 34.5445646], [-97.9586276, 34.5444122], [-97.958464, 34.5444112], [-97.9584627, 34.5445515]]]}, "properties": {"osm_id": 1245370240, "building": "yes", "name": "", "height": null, "height_m": null, "levels": null, "tract_id": "40137000200", "tract_name": "2", "tags": {"building": "yes", "source": "microsoft/BuildingFootprints"}}}, {"type": "Feature", "geometry": {"type": "Polygon", "coordinates": [[[-97.9584228, 34.5438819], [-97.9585442, 34.543935], [-97.9585708, 34.5438936], [-97.9585918, 34.5439027], [-97.9586695, 34.543782], [-97.9586255, 34.5437628], [-97.9586433, 34.5437352], [-97.9585282, 34.5436849], [-97.9584582, 34.5437936], [-97.9584749, 34.5438009], [-97.9584228, 34.5438819]]]}, "properties": {"osm_id": 1245370241, "building": "yes", "name": "", "height": null, "height_m": null, "levels": null, "tract_id": "40137000200", "tract_name": "2", "tags": {"building": "yes", "source": "microsoft/BuildingFootprints"}}}, {"type": "Feature", "geometry": {"type": "Polygon", "coordinates": [[[-97.9603923, 34.5438119], [-97.960572, 34.5438104], [-97.9605716, 34.5437773], [-97.9606199, 34.5437769], [-97.9606203, 34.5438101], [-97.960689, 34.5438095], [-97.9606878, 34.5437079], [-97.9606191, 34.5437084], [-97.9606185, 34.5436576], [-97.9605621, 34.5436581], [-97.9605624, 34.5436769], [-97.9604551, 34.5436778], [-97.9604555, 34.5437098], [-97.9603911, 34.5437103], [-97.9603923, 34.5438119]]]}, "properties": {"osm_id": 1245370242, "building": "yes", "name": "", "height": null, "height_m": null, "levels": null, "tract_id": "40137000200", "tract_name": "2", "tags": {"building": "yes", "source": "microsoft/BuildingFootprints"}}}, {"type": "Feature", "geometry": {"type": "Polygon", "coordinates": [[[-97.959912, 34.5438291], [-97.9599136, 34.5438987], [-97.9600567, 34.5438965], [-97.9600515, 34.5436602], [-97.9599405, 34.5436619], [-97.9599414, 34.5437037], [-97.959904, 34.5437043], [-97.9599038, 34.5436923], [-97.9598108, 34.5436937], [-97.9598114, 34.5437191], [-97.9597497, 34.54372], [-97.9597522, 34.5438315], [-97.959912, 34.5438291]]]}, "properties": {"osm_id": 1245370243, "building": "yes", "name": "", "height": null, "height_m": null, "levels": null, "tract_id": "40137000200", "tract_name": "2", "tags": {"building": "yes", "source": "microsoft/BuildingFootprints"}}}, {"type": "Feature", "geometry": {"type": "Polygon", "coordinates": [[[-97.9637485, 34.5450793], [-97.9637413, 34.5452359], [-97.9639005, 34.5452409], [-97.9639076, 34.5450842], [-97.9637485, 34.5450793]]]}, "properties": {"osm_id": 1245370244, "building": "yes", "name": "", "height": null, "height_m": null, "levels": null, "tract_id": "40137000200", "tract_name": "2", "tags": {"building": "yes", "source": "microsoft/BuildingFootprints"}}}, {"type": "Feature", "geometry": {"type": "Polygon", "coordinates": [[[-97.9619665, 34.5450081], [-97.9621784, 34.5450102], [-97.9621793, 34.5449518], [-97.9621111, 34.5449511], [-97.9621117, 34.5449145], [-97.961968, 34.5449131], [-97.9619665, 34.5450081]]]}, "properties": {"osm_id": 1245370245, "building": "yes", "name": "", "height": null, "height_m": null, "levels": null, "tract_id": "40137000200", "tract_name": "2", "tags": {"building": "yes", "source": "microsoft/BuildingFootprints"}}}, {"type": "Feature", "geometry": {"type": "Polygon", "coordinates": [[[-97.9611585, 34.5451697], [-97.9613194, 34.5451726], [-97.9613212, 34.5451076], [-97.9612837, 34.5451069], [-97.961284, 34.5450965], [-97.9613509, 34.5450977], [-97.9613527, 34.5450341], [-97.9611623, 34.5450305], [-97.9611585, 34.5451697]]]}, "properties": {"osm_id": 1245370246, "building": "yes", "name": "", "height": null, "height_m": null, "levels": null, "tract_id": "40137000200", "tract_name": "2", "tags": {"building": "yes", "source": "microsoft/BuildingFootprints"}}}, {"type": "Feature", "geometry": {"type": "Polygon", "coordinates": [[[-97.9628989, 34.5465516], [-97.9628968, 34.5466699], [-97.9631369, 34.5466728], [-97.9631382, 34.5466], [-97.9630899, 34.5465994], [-97.9630907, 34.5465539], [-97.9628989, 34.5465516]]]}, "properties": {"osm_id": 1245370247, "building": "yes", "name": "", "height": null, "height_m": null, "levels": null, "tract_id": "40137000200", "tract_name": "2", "tags": {"building": "yes", "source": "microsoft/BuildingFootprints"}}}, {"type": "Feature", "geometry": {"type": "Polygon", "coordinates": [[[-97.9624193, 34.5447939], [-97.962422, 34.5448895], [-97.9626123, 34.5448859], [-97.9626097, 34.5447903], [-97.9624193, 34.5447939]]]}, "properties": {"osm_id": 1245370248, "building": "yes", "name": "", "height": null, "height_m": null, "levels": null, "tract_id": "40137000200", "tract_name": "2", "tags": {"building": "yes", "source": "microsoft/BuildingFootprints"}}}, {"type": "Feature", "geometry": {"type": "Polygon", "coordinates": [[[-97.9645182, 34.5450532], [-97.9647059, 34.5450572], [-97.964708, 34.5449902], [-97.9646597, 34.5449892], [-97.9646625, 34.5448994], [-97.9645231, 34.5448965], [-97.9645182, 34.5450532]]]}, "properties": {"osm_id": 1245370249, "building": "yes", "name": "", "height": null, "height_m": null, "levels": null, "tract_id": "40137000200", "tract_name": "2", "tags": {"building": "yes", "source": "microsoft/BuildingFootprints"}}}, {"type": "Feature", "geometry": {"type": "Polygon", "coordinates": [[[-97.9648384, 34.544451], [-97.9643639, 34.5444601], [-97.9643676, 34.5445884], [-97.964416, 34.5445875], [-97.9644163, 34.5445996], [-97.9644935, 34.5445981], [-97.9644931, 34.544586], [-97.9645391, 34.5445851], [-97.9645396, 34.5446003], [-97.9646146, 34.5445989], [-97.9646141, 34.544579], [-97.9646811, 34.5445777], [-97.9646817, 34.5445998], [-97.9647836, 34.5445978], [-97.9647826, 34.5445647], [-97.9648416, 34.5445636], [-97.9648384, 34.544451]]]}, "properties": {"osm_id": 1245370250, "building": "yes", "name": "", "height": null, "height_m": null, "levels": null, "tract_id": "40137000200", "tract_name": "2", "tags": {"building": "yes", "source": "microsoft/BuildingFootprints"}}}, {"type": "Feature", "geometry": {"type": "Polygon", "coordinates": [[[-97.9613353, 34.5441336], [-97.9613372, 34.5440557], [-97.9613127, 34.5440553], [-97.9613134, 34.5440295], [-97.9613411, 34.54403], [-97.9613425, 34.5439736], [-97.9611822, 34.5439709], [-97.9611783, 34.5441309], [-97.9613353, 34.5441336]]]}, "properties": {"osm_id": 1245370251, "building": "yes", "name": "", "height": null, "height_m": null, "levels": null, "tract_id": "40137000200", "tract_name": "2", "tags": {"building": "yes", "source": "microsoft/BuildingFootprints"}}}, {"type": "Feature", "geometry": {"type": "Polygon", "coordinates": [[[-97.9618082, 34.5447847], [-97.9615733, 34.544786], [-97.9615742, 34.5448908], [-97.961809, 34.5448895], [-97.9618082, 34.5447847]]]}, "properties": {"osm_id": 1245370252, "building": "yes", "name": "", "height": null, "height_m": null, "levels": null, "tract_id": "40137000200", "tract_name": "2", "tags": {"building": "yes", "source": "microsoft/BuildingFootprints"}}}, {"type": "Feature", "geometry": {"type": "Polygon", "coordinates": [[[-97.9646881, 34.5452992], [-97.9645605, 34.5452982], [-97.9645595, 34.5453813], [-97.9645139, 34.5453809], [-97.964513, 34.5454613], [-97.9646861, 34.5454627], [-97.9646881, 34.5452992]]]}, "properties": {"osm_id": 1245370253, "building": "yes", "name": "", "height": null, "height_m": null, "levels": null, "tract_id": "40137000200", "tract_name": "2", "tags": {"building": "yes", "source": "microsoft/BuildingFootprints"}}}, {"type": "Feature", "geometry": {"type": "Polygon", "coordinates": [[[-97.9644007, 34.5442566], [-97.9645509, 34.5442584], [-97.9645532, 34.54412], [-97.9645988, 34.5441206], [-97.9646, 34.5440543], [-97.9643881, 34.5440518], [-97.964387, 34.5441181], [-97.9643602, 34.5441178], [-97.9643585, 34.5442164], [-97.9644014, 34.5442169], [-97.9644007, 34.5442566]]]}, "properties": {"osm_id": 1245370254, "building": "yes", "name": "", "height": null, "height_m": null, "levels": null, "tract_id": "40137000200", "tract_name": "2", "tags": {"building": "yes", "source": "microsoft/BuildingFootprints"}}}, {"type": "Feature", "geometry": {"type": "Polygon", "coordinates": [[[-97.9637639, 34.5457998], [-97.9636205, 34.5457975], [-97.9636158, 34.5460029], [-97.9637096, 34.5460044], [-97.9637106, 34.5459624], [-97.9637601, 34.5459632], [-97.9637639, 34.5457998]]]}, "properties": {"osm_id": 1245370255, "building": "yes", "name": "", "height": null, "height_m": null, "levels": null, "tract_id": "40137000200", "tract_name": "2", "tags": {"building": "yes", "source": "microsoft/BuildingFootprints"}}}, {"type": "Feature", "geometry": {"type": "Polygon", "coordinates": [[[-97.962932, 34.5443998], [-97.962739, 34.5443957], [-97.9627344, 34.5445379], [-97.9628202, 34.5445397], [-97.9628212, 34.5445088], [-97.9628668, 34.5445098], [-97.962866, 34.5445341], [-97.9629276, 34.5445354], [-97.962932, 34.5443998]]]}, "properties": {"osm_id": 1245370256, "building": "yes", "name": "", "height": null, "height_m": null, "levels": null, "tract_id": "40137000200", "tract_name": "2", "tags": {"building": "yes", "source": "microsoft/BuildingFootprints"}}}, {"type": "Feature", "geometry": {"type": "Polygon", "coordinates": [[[-97.9597006, 34.5442679], [-97.9597014, 34.5443099], [-97.9597711, 34.544309], [-97.9597704, 34.5442671], [-97.9597006, 34.5442679]]]}, "properties": {"osm_id": 1245370257, "building": "yes", "name": "", "height": null, "height_m": null, "levels": null, "tract_id": "40137000200", "tract_name": "2", "tags": {"building": "yes", "source": "microsoft/BuildingFootprints"}}}, {"type": "Feature", "geometry": {"type": "Polygon", "coordinates": [[[-97.9604097, 34.5453472], [-97.9605101, 34.5453475], [-97.96051, 34.5453718], [-97.9605598, 34.5453719], [-97.96056, 34.5453233], [-97.9606109, 34.5453235], [-97.960611, 34.5452903], [-97.9605559, 34.5452902], [-97.9605561, 34.5452283], [-97.9604933, 34.5452282], [-97.9604935, 34.5451641], [-97.9604104, 34.5451639], [-97.9604097, 34.5453472]]]}, "properties": {"osm_id": 1245370258, "building": "yes", "name": "", "height": null, "height_m": null, "levels": null, "tract_id": "40137000200", "tract_name": "2", "tags": {"building": "yes", "source": "microsoft/BuildingFootprints"}}}, {"type": "Feature", "geometry": {"type": "Polygon", "coordinates": [[[-97.9651608, 34.5451112], [-97.9649651, 34.5451146], [-97.9649668, 34.5451808], [-97.965015, 34.54518], [-97.9650169, 34.5452507], [-97.9651616, 34.5452482], [-97.9651601, 34.5451885], [-97.9651976, 34.5451879], [-97.9651964, 34.5451415], [-97.9651616, 34.5451421], [-97.9651608, 34.5451112]]]}, "properties": {"osm_id": 1245370259, "building": "yes", "name": "", "height": null, "height_m": null, "levels": null, "tract_id": "40137000200", "tract_name": "2", "tags": {"building": "yes", "source": "microsoft/BuildingFootprints"}}}, {"type": "Feature", "geometry": {"type": "Polygon", "coordinates": [[[-97.9646276, 34.5462135], [-97.9643944, 34.5462096], [-97.9643927, 34.5462781], [-97.9643578, 34.5462775], [-97.9643564, 34.5463327], [-97.9646246, 34.5463372], [-97.9646276, 34.5462135]]]}, "properties": {"osm_id": 1245370260, "building": "yes", "name": "", "height": null, "height_m": null, "levels": null, "tract_id": "40137000200", "tract_name": "2", "tags": {"building": "yes", "source": "microsoft/BuildingFootprints"}}}, {"type": "Feature", "geometry": {"type": "Polygon", "coordinates": [[[-97.9618863, 34.5450384], [-97.9617083, 34.5450414], [-97.9617091, 34.5450727], [-97.9616831, 34.5450732], [-97.9616847, 34.5451368], [-97.9618886, 34.5451333], [-97.9618863, 34.5450384]]]}, "properties": {"osm_id": 1245370261, "building": "yes", "name": "", "height": null, "height_m": null, "levels": null, "tract_id": "40137000200", "tract_name": "2", "tags": {"building": "yes", "source": "microsoft/BuildingFootprints"}}}, {"type": "Feature", "geometry": {"type": "Polygon", "coordinates": [[[-97.962261, 34.5435948], [-97.9623779, 34.5435931], [-97.962379, 34.5436416], [-97.9624648, 34.5436404], [-97.9624618, 34.5435034], [-97.9622591, 34.5435064], [-97.962261, 34.5435948]]]}, "properties": {"osm_id": 1245370262, "building": "yes", "name": "", "height": null, "height_m": null, "levels": null, "tract_id": "40137000200", "tract_name": "2", "tags": {"building": "yes", "source": "microsoft/BuildingFootprints"}}}, {"type": "Feature", "geometry": {"type": "Polygon", "coordinates": [[[-97.9638297, 34.5463348], [-97.9640815, 34.5463422], [-97.9640846, 34.5462716], [-97.9640364, 34.5462701], [-97.9640381, 34.5462304], [-97.9638345, 34.5462244], [-97.9638297, 34.5463348]]]}, "properties": {"osm_id": 1245370263, "building": "yes", "name": "", "height": null, "height_m": null, "levels": null, "tract_id": "40137000200", "tract_name": "2", "tags": {"building": "yes", "source": "microsoft/BuildingFootprints"}}}, {"type": "Feature", "geometry": {"type": "Polygon", "coordinates": [[[-97.9600307, 34.5439422], [-97.9600282, 34.5439974], [-97.9601317, 34.5440006], [-97.9601341, 34.5439454], [-97.9600307, 34.5439422]]]}, "properties": {"osm_id": 1245370264, "building": "yes", "name": "", "height": null, "height_m": null, "levels": null, "tract_id": "40137000200", "tract_name": "2", "tags": {"building": "yes", "source": "microsoft/BuildingFootprints"}}}, {"type": "Feature", "geometry": {"type": "Polygon", "coordinates": [[[-97.96434, 34.5465391], [-97.9643375, 34.5466031], [-97.9646108, 34.5466105], [-97.9646154, 34.5464957], [-97.964393, 34.5464897], [-97.964391, 34.5465404], [-97.96434, 34.5465391]]]}, "properties": {"osm_id": 1245370265, "building": "yes", "name": "", "height": null, "height_m": null, "levels": null, "tract_id": "40137000200", "tract_name": "2", "tags": {"building": "yes", "source": "microsoft/BuildingFootprints"}}}, {"type": "Feature", "geometry": {"type": "Polygon", "coordinates": [[[-97.9598749, 34.5442492], [-97.9599194, 34.5442484], [-97.9599201, 34.5442782], [-97.9600365, 34.5442764], [-97.9600323, 34.544103], [-97.9599133, 34.5441049], [-97.9599151, 34.54418], [-97.9598733, 34.5441807], [-97.9598749, 34.5442492]]]}, "properties": {"osm_id": 1245370266, "building": "yes", "name": "", "height": null, "height_m": null, "levels": null, "tract_id": "40137000200", "tract_name": "2", "tags": {"building": "yes", "source": "microsoft/BuildingFootprints"}}}, {"type": "Feature", "geometry": {"type": "Polygon", "coordinates": [[[-97.9641605, 34.5453042], [-97.9641574, 34.5454632], [-97.9643236, 34.5454655], [-97.9643245, 34.5454227], [-97.964354, 34.5454231], [-97.9643553, 34.5453576], [-97.9643285, 34.5453573], [-97.9643295, 34.5453065], [-97.9641605, 34.5453042]]]}, "properties": {"osm_id": 1245370267, "building": "yes", "name": "", "height": null, "height_m": null, "levels": null, "tract_id": "40137000200", "tract_name": "2", "tags": {"building": "yes", "source": "microsoft/BuildingFootprints"}}}, {"type": "Feature", "geometry": {"type": "Polygon", "coordinates": [[[-97.9651123, 34.5444391], [-97.9649004, 34.5444375], [-97.9648983, 34.5446252], [-97.9650029, 34.5446261], [-97.9650037, 34.5445554], [-97.9651109, 34.5445562], [-97.9651123, 34.5444391]]]}, "properties": {"osm_id": 1245370268, "building": "yes", "name": "", "height": null, "height_m": null, "levels": null, "tract_id": "40137000200", "tract_name": "2", "tags": {"building": "yes", "source": "microsoft/BuildingFootprints"}}}, {"type": "Feature", "geometry": {"type": "Polygon", "coordinates": [[[-97.9617859, 34.545012], [-97.9617888, 34.5449126], [-97.9616002, 34.5449089], [-97.9615992, 34.5449433], [-97.9615852, 34.544943], [-97.9615833, 34.5450079], [-97.9617859, 34.545012]]]}, "properties": {"osm_id": 1245370269, "building": "yes", "name": "", "height": null, "height_m": null, "levels": null, "tract_id": "40137000200", "tract_name": "2", "tags": {"building": "yes", "source": "microsoft/BuildingFootprints"}}}, {"type": "Feature", "geometry": {"type": "Polygon", "coordinates": [[[-97.9654001, 34.5453704], [-97.9653999, 34.5455538], [-97.9660678, 34.5455544], [-97.9660677, 34.5455994], [-97.9661348, 34.5455995], [-97.9661348, 34.5455456], [-97.9661992, 34.5455456], [-97.9661994, 34.5453711], [-97.9654001, 34.5453704]]]}, "properties": {"osm_id": 1245370270, "building": "yes", "name": "", "height": null, "height_m": null, "levels": null, "tract_id": "40137000200", "tract_name": "2", "tags": {"building": "yes", "source": "microsoft/BuildingFootprints"}}}, {"type": "Feature", "geometry": {"type": "Polygon", "coordinates": [[[-97.9617275, 34.5453629], [-97.9618727, 34.5453593], [-97.9618701, 34.5452865], [-97.9619034, 34.5452856], [-97.9619011, 34.5452216], [-97.9618651, 34.5452225], [-97.9618633, 34.545174], [-97.9617707, 34.5451762], [-97.9617729, 34.5452381], [-97.961738, 34.5452389], [-97.9617393, 34.5452738], [-97.9617243, 34.5452742], [-97.9617275, 34.5453629]]]}, "properties": {"osm_id": 1245370271, "building": "yes", "name": "", "height": null, "height_m": null, "levels": null, "tract_id": "40137000200", "tract_name": "2", "tags": {"building": "yes", "source": "microsoft/BuildingFootprints"}}}, {"type": "Feature", "geometry": {"type": "Polygon", "coordinates": [[[-97.9640662, 34.5459815], [-97.9642539, 34.5459847], [-97.9642575, 34.5458367], [-97.9640698, 34.5458335], [-97.9640662, 34.5459815]]]}, "properties": {"osm_id": 1245370272, "building": "yes", "name": "", "height": null, "height_m": null, "levels": null, "tract_id": "40137000200", "tract_name": "2", "tags": {"building": "yes", "source": "microsoft/BuildingFootprints"}}}, {"type": "Feature", "geometry": {"type": "Polygon", "coordinates": [[[-97.9646348, 34.5437553], [-97.96449, 34.5437528], [-97.9644886, 34.5438089], [-97.9643921, 34.5438072], [-97.9643894, 34.5439168], [-97.9646307, 34.5439209], [-97.9646348, 34.5437553]]]}, "properties": {"osm_id": 1245370273, "building": "yes", "name": "", "height": null, "height_m": null, "levels": null, "tract_id": "40137000200", "tract_name": "2", "tags": {"building": "yes", "source": "microsoft/BuildingFootprints"}}}, {"type": "Feature", "geometry": {"type": "Polygon", "coordinates": [[[-97.9619002, 34.5438709], [-97.9619021, 34.5440454], [-97.9620442, 34.5440444], [-97.9620423, 34.5438698], [-97.9619002, 34.5438709]]]}, "properties": {"osm_id": 1245370274, "building": "yes", "name": "", "height": null, "height_m": null, "levels": null, "tract_id": "40137000200", "tract_name": "2", "tags": {"building": "yes", "source": "microsoft/BuildingFootprints"}}}, {"type": "Feature", "geometry": {"type": "Polygon", "coordinates": [[[-97.9621816, 34.5453216], [-97.9621509, 34.5453221], [-97.96215, 34.5452868], [-97.9619608, 34.5452902], [-97.9619632, 34.5453817], [-97.9621831, 34.5453778], [-97.9621816, 34.5453216]]]}, "properties": {"osm_id": 1245370275, "building": "yes", "name": "", "height": null, "height_m": null, "levels": null, "tract_id": "40137000200", "tract_name": "2", "tags": {"building": "yes", "source": "microsoft/BuildingFootprints"}}}, {"type": "Feature", "geometry": {"type": "Polygon", "coordinates": [[[-97.958605, 34.5453969], [-97.9587069, 34.5453951], [-97.9587045, 34.5453068], [-97.9586027, 34.5453086], [-97.958605, 34.5453969]]]}, "properties": {"osm_id": 1245370276, "building": "yes", "name": "", "height": null, "height_m": null, "levels": null, "tract_id": "40137000200", "tract_name": "2", "tags": {"building": "yes", "source": "microsoft/BuildingFootprints"}}}, {"type": "Feature", "geometry": {"type": "Polygon", "coordinates": [[[-97.9588044, 34.5441019], [-97.9587009, 34.5440996], [-97.958699, 34.5441593], [-97.9588025, 34.5441615], [-97.9588044, 34.5441019]]]}, "properties": {"osm_id": 1245370277, "building": "yes", "name": "", "height": null, "height_m": null, "levels": null, "tract_id": "40137000200", "tract_name": "2", "tags": {"building": "yes", "source": "microsoft/BuildingFootprints"}}}, {"type": "Feature", "geometry": {"type": "Polygon", "coordinates": [[[-97.9634717, 34.5459559], [-97.9635951, 34.5459577], [-97.9635967, 34.5458804], [-97.9634734, 34.5458786], [-97.9634717, 34.5459559]]]}, "properties": {"osm_id": 1245370278, "building": "yes", "name": "", "height": null, "height_m": null, "levels": null, "tract_id": "40137000200", "tract_name": "2", "tags": {"building": "yes", "source": "microsoft/BuildingFootprints"}}}, {"type": "Feature", "geometry": {"type": "Polygon", "coordinates": [[[-97.9645192, 34.5455221], [-97.9645262, 34.5456489], [-97.9646576, 34.545644], [-97.9646506, 34.5455171], [-97.9645192, 34.5455221]]]}, "properties": {"osm_id": 1245370279, "building": "yes", "name": "", "height": null, "height_m": null, "levels": null, "tract_id": "40137000200", "tract_name": "2", "tags": {"building": "yes", "source": "microsoft/BuildingFootprints"}}}, {"type": "Feature", "geometry": {"type": "Polygon", "coordinates": [[[-97.9600069, 34.5450606], [-97.9600062, 34.5450981], [-97.9600572, 34.5450988], [-97.9600584, 34.5450303], [-97.9600879, 34.5450306], [-97.9600885, 34.5449953], [-97.9600644, 34.544995], [-97.9600656, 34.5449287], [-97.9599755, 34.5449277], [-97.9599732, 34.5450602], [-97.9600069, 34.5450606]]]}, "properties": {"osm_id": 1245370280, "building": "yes", "name": "", "height": null, "height_m": null, "levels": null, "tract_id": "40137000200", "tract_name": "2", "tags": {"building": "yes", "source": "microsoft/BuildingFootprints"}}}, {"type": "Feature", "geometry": {"type": "Polygon", "coordinates": [[[-97.965189, 34.545509], [-97.9650228, 34.5455113], [-97.9650257, 34.5456585], [-97.9651303, 34.545657], [-97.9651307, 34.5456777], [-97.9651924, 34.5456769], [-97.965189, 34.545509]]]}, "properties": {"osm_id": 1245370281, "building": "yes", "name": "", "height": null, "height_m": null, "levels": null, "tract_id": "40137000200", "tract_name": "2", "tags": {"building": "yes", "source": "microsoft/BuildingFootprints"}}}, {"type": "Feature", "geometry": {"type": "Polygon", "coordinates": [[[-97.9585101, 34.5439929], [-97.9583815, 34.5439959], [-97.9583904, 34.5442531], [-97.9585217, 34.5442501], [-97.9585198, 34.5441949], [-97.958575, 34.5441936], [-97.9585714, 34.5440898], [-97.9585135, 34.5440912], [-97.9585101, 34.5439929]]]}, "properties": {"osm_id": 1245370282, "building": "yes", "name": "", "height": null, "height_m": null, "levels": null, "tract_id": "40137000200", "tract_name": "2", "tags": {"building": "yes", "source": "microsoft/BuildingFootprints"}}}, {"type": "Feature", "geometry": {"type": "Polygon", "coordinates": [[[-97.9638455, 34.5464733], [-97.9640869, 34.5464767], [-97.9640884, 34.5464016], [-97.9640455, 34.546401], [-97.9640464, 34.5463568], [-97.963848, 34.546354], [-97.9638455, 34.5464733]]]}, "properties": {"osm_id": 1245370283, "building": "yes", "name": "", "height": null, "height_m": null, "levels": null, "tract_id": "40137000200", "tract_name": "2", "tags": {"building": "yes", "source": "microsoft/BuildingFootprints"}}}, {"type": "Feature", "geometry": {"type": "Polygon", "coordinates": [[[-97.9643988, 34.5467628], [-97.9643989, 34.5468217], [-97.9643573, 34.5468217], [-97.9643574, 34.5468822], [-97.9645922, 34.5468819], [-97.9645919, 34.5467626], [-97.9643988, 34.5467628]]]}, "properties": {"osm_id": 1245370284, "building": "yes", "name": "", "height": null, "height_m": null, "levels": null, "tract_id": "40137000200", "tract_name": "2", "tags": {"building": "yes", "source": "microsoft/BuildingFootprints"}}}, {"type": "Feature", "geometry": {"type": "Polygon", "coordinates": [[[-97.9618498, 34.544241], [-97.9618452, 34.5443722], [-97.9618946, 34.5443733], [-97.9618937, 34.5443989], [-97.9620035, 34.5444015], [-97.962009, 34.5442447], [-97.9618498, 34.544241]]]}, "properties": {"osm_id": 1245370285, "building": "yes", "name": "", "height": null, "height_m": null, "levels": null, "tract_id": "40137000200", "tract_name": "2", "tags": {"building": "yes", "source": "microsoft/BuildingFootprints"}}}, {"type": "Feature", "geometry": {"type": "Polygon", "coordinates": [[[-97.9634579, 34.5464899], [-97.963457, 34.5465363], [-97.9634087, 34.5465356], [-97.9634072, 34.5466076], [-97.9636579, 34.5466112], [-97.9636605, 34.5464928], [-97.9634579, 34.5464899]]]}, "properties": {"osm_id": 1245370286, "building": "yes", "name": "", "height": null, "height_m": null, "levels": null, "tract_id": "40137000200", "tract_name": "2", "tags": {"building": "yes", "source": "microsoft/BuildingFootprints"}}}, {"type": "Feature", "geometry": {"type": "Polygon", "coordinates": [[[-97.9636821, 34.5454641], [-97.9638846, 34.5454877], [-97.9638995, 34.5454011], [-97.9638416, 34.5453943], [-97.9638528, 34.5453294], [-97.9637082, 34.5453125], [-97.9636821, 34.5454641]]]}, "properties": {"osm_id": 1245370287, "building": "yes", "name": "", "height": null, "height_m": null, "levels": null, "tract_id": "40137000200", "tract_name": "2", "tags": {"building": "yes", "source": "microsoft/BuildingFootprints"}}}, {"type": "Feature", "geometry": {"type": "Polygon", "coordinates": [[[-97.9615784, 34.5440207], [-97.9617895, 34.54402], [-97.9617889, 34.5439043], [-97.9616328, 34.5439048], [-97.9616329, 34.5439237], [-97.9615779, 34.5439239], [-97.9615784, 34.5440207]]]}, "properties": {"osm_id": 1245370288, "building": "yes", "name": "", "height": null, "height_m": null, "levels": null, "tract_id": "40137000200", "tract_name": "2", "tags": {"building": "yes", "source": "microsoft/BuildingFootprints"}}}, {"type": "Feature", "geometry": {"type": "Polygon", "coordinates": [[[-97.960516, 34.5456213], [-97.960512, 34.5454777], [-97.9604423, 34.5454791], [-97.9604429, 34.5455034], [-97.9604039, 34.5455041], [-97.9604055, 34.5455593], [-97.9603894, 34.5455596], [-97.9603912, 34.5456237], [-97.960516, 34.5456213]]]}, "properties": {"osm_id": 1245370289, "building": "yes", "name": "", "height": null, "height_m": null, "levels": null, "tract_id": "40137000200", "tract_name": "2", "tags": {"building": "yes", "source": "microsoft/BuildingFootprints"}}}, {"type": "Feature", "geometry": {"type": "Polygon", "coordinates": [[[-97.9636454, 34.5463571], [-97.9634121, 34.5463536], [-97.9634106, 34.5464198], [-97.9634616, 34.5464206], [-97.9634604, 34.5464714], [-97.9636428, 34.5464742], [-97.9636454, 34.5463571]]]}, "properties": {"osm_id": 1245370290, "building": "yes", "name": "", "height": null, "height_m": null, "levels": null, "tract_id": "40137000200", "tract_name": "2", "tags": {"building": "yes", "source": "microsoft/BuildingFootprints"}}}, {"type": "Feature", "geometry": {"type": "Polygon", "coordinates": [[[-97.9607661, 34.545414], [-97.9609108, 34.545417], [-97.9609137, 34.5453265], [-97.9607689, 34.5453235], [-97.9607661, 34.545414]]]}, "properties": {"osm_id": 1245370291, "building": "yes", "name": "", "height": null, "height_m": null, "levels": null, "tract_id": "40137000200", "tract_name": "2", "tags": {"building": "yes", "source": "microsoft/BuildingFootprints"}}}, {"type": "Feature", "geometry": {"type": "Polygon", "coordinates": [[[-97.9645832, 34.5466274], [-97.9643901, 34.5466251], [-97.964389, 34.5466848], [-97.9643488, 34.5466843], [-97.9643478, 34.5467439], [-97.9645811, 34.5467467], [-97.9645832, 34.5466274]]]}, "properties": {"osm_id": 1245370292, "building": "yes", "name": "", "height": null, "height_m": null, "levels": null, "tract_id": "40137000200", "tract_name": "2", "tags": {"building": "yes", "source": "microsoft/BuildingFootprints"}}}, {"type": "Feature", "geometry": {"type": "Polygon", "coordinates": [[[-97.9620056, 34.5436486], [-97.9621032, 34.5436486], [-97.9621032, 34.5436773], [-97.9621917, 34.5436774], [-97.9621918, 34.5435041], [-97.9620871, 34.5435041], [-97.9620871, 34.5435183], [-97.9620056, 34.5435183], [-97.9620056, 34.5436486]]]}, "properties": {"osm_id": 1245370293, "building": "yes", "name": "", "height": null, "height_m": null, "levels": null, "tract_id": "40137000200", "tract_name": "2", "tags": {"building": "yes", "source": "microsoft/BuildingFootprints"}}}, {"type": "Feature", "geometry": {"type": "Polygon", "coordinates": [[[-97.9643588, 34.5456729], [-97.9643606, 34.5455219], [-97.9642747, 34.5455212], [-97.9642745, 34.5455441], [-97.9641365, 34.545543], [-97.9641357, 34.5456062], [-97.9640967, 34.5456059], [-97.9640959, 34.5456708], [-97.9643588, 34.5456729]]]}, "properties": {"osm_id": 1245370294, "building": "yes", "name": "", "height": null, "height_m": null, "levels": null, "tract_id": "40137000200", "tract_name": "2", "tags": {"building": "yes", "source": "microsoft/BuildingFootprints"}}}, {"type": "Feature", "geometry": {"type": "Polygon", "coordinates": [[[-97.9603621, 34.544281], [-97.960364, 34.544345], [-97.9604579, 34.5443431], [-97.9604559, 34.544279], [-97.9603621, 34.544281]]]}, "properties": {"osm_id": 1245370295, "building": "yes", "name": "", "height": null, "height_m": null, "levels": null, "tract_id": "40137000200", "tract_name": "2", "tags": {"building": "yes", "source": "microsoft/BuildingFootprints"}}}, {"type": "Feature", "geometry": {"type": "Polygon", "coordinates": [[[-97.9651712, 34.5449509], [-97.9651513, 34.5449505], [-97.9651523, 34.544921], [-97.9649648, 34.5449165], [-97.9649626, 34.5449769], [-97.9650334, 34.5449786], [-97.9650306, 34.5450595], [-97.9651524, 34.5450624], [-97.9651534, 34.5450343], [-97.9651683, 34.5450347], [-97.9651712, 34.5449509]]]}, "properties": {"osm_id": 1245370296, "building": "yes", "name": "", "height": null, "height_m": null, "levels": null, "tract_id": "40137000200", "tract_name": "2", "tags": {"building": "yes", "source": "microsoft/BuildingFootprints"}}}, {"type": "Feature", "geometry": {"type": "Polygon", "coordinates": [[[-97.9625752, 34.5443716], [-97.9625737, 34.5444003], [-97.9624827, 34.5443972], [-97.9624756, 34.5445361], [-97.9625452, 34.5445385], [-97.9625467, 34.5445083], [-97.9625829, 34.5445095], [-97.9625819, 34.5445287], [-97.9626716, 34.5445319], [-97.9626796, 34.5443753], [-97.9625752, 34.5443716]]]}, "properties": {"osm_id": 1245370297, "building": "yes", "name": "", "height": null, "height_m": null, "levels": null, "tract_id": "40137000200", "tract_name": "2", "tags": {"building": "yes", "source": "microsoft/BuildingFootprints"}}}, {"type": "Feature", "geometry": {"type": "Polygon", "coordinates": [[[-97.9636624, 34.5467642], [-97.9634506, 34.5467683], [-97.9634519, 34.5468146], [-97.963409, 34.5468155], [-97.963411, 34.5468852], [-97.9636656, 34.5468804], [-97.9636624, 34.5467642]]]}, "properties": {"osm_id": 1245370298, "building": "yes", "name": "", "height": null, "height_m": null, "levels": null, "tract_id": "40137000200", "tract_name": "2", "tags": {"building": "yes", "source": "microsoft/BuildingFootprints"}}}, {"type": "Feature", "geometry": {"type": "Polygon", "coordinates": [[[-97.9633563, 34.5449526], [-97.9635653, 34.5449581], [-97.9635696, 34.5448477], [-97.9633606, 34.5448423], [-97.9633563, 34.5449526]]]}, "properties": {"osm_id": 1245370299, "building": "yes", "name": "", "height": null, "height_m": null, "levels": null, "tract_id": "40137000200", "tract_name": "2", "tags": {"building": "yes", "source": "microsoft/BuildingFootprints"}}}, {"type": "Feature", "geometry": {"type": "Polygon", "coordinates": [[[-97.9631343, 34.5468356], [-97.9628635, 34.54683], [-97.9628617, 34.5468896], [-97.9628939, 34.5468902], [-97.9628922, 34.5469444], [-97.9629806, 34.5469462], [-97.9629804, 34.5469539], [-97.9631306, 34.546957], [-97.9631343, 34.5468356]]]}, "properties": {"osm_id": 1245370300, "building": "yes", "name": "", "height": null, "height_m": null, "levels": null, "tract_id": "40137000200", "tract_name": "2", "tags": {"building": "yes", "source": "microsoft/BuildingFootprints"}}}, {"type": "Feature", "geometry": {"type": "Polygon", "coordinates": [[[-97.9627728, 34.5450384], [-97.9626646, 34.5450348], [-97.962668, 34.5449642], [-97.9625594, 34.5449606], [-97.9625568, 34.5450145], [-97.9626183, 34.5450165], [-97.9626171, 34.545043], [-97.9625608, 34.5450411], [-97.9625591, 34.5450764], [-97.9625323, 34.5450755], [-97.9625295, 34.5451329], [-97.9627679, 34.5451408], [-97.9627728, 34.5450384]]]}, "properties": {"osm_id": 1245370301, "building": "yes", "name": "", "height": null, "height_m": null, "levels": null, "tract_id": "40137000200", "tract_name": "2", "tags": {"building": "yes", "source": "microsoft/BuildingFootprints"}}}, {"type": "Feature", "geometry": {"type": "Polygon", "coordinates": [[[-97.9595035, 34.5436748], [-97.9592943, 34.5436748], [-97.9592943, 34.5437212], [-97.9592246, 34.5437212], [-97.9592246, 34.5438317], [-97.9593755, 34.5438317], [-97.9593755, 34.5438157], [-97.9593922, 34.5438157], [-97.9593922, 34.5437952], [-97.9594432, 34.5437952], [-97.9594432, 34.543803], [-97.9595035, 34.543803], [-97.9595035, 34.5436748]]]}, "properties": {"osm_id": 1245370302, "building": "yes", "name": "", "height": null, "height_m": null, "levels": null, "tract_id": "40137000200", "tract_name": "2", "tags": {"building": "yes", "source": "microsoft/BuildingFootprints"}}}, {"type": "Feature", "geometry": {"type": "Polygon", "coordinates": [[[-97.9607596, 34.5442041], [-97.9605504, 34.5442067], [-97.9605539, 34.5443966], [-97.9607577, 34.5443941], [-97.9607563, 34.5443212], [-97.9607215, 34.5443217], [-97.9607206, 34.5442742], [-97.9607609, 34.5442737], [-97.9607596, 34.5442041]]]}, "properties": {"osm_id": 1245370303, "building": "yes", "name": "", "height": null, "height_m": null, "levels": null, "tract_id": "40137000200", "tract_name": "2", "tags": {"building": "yes", "source": "microsoft/BuildingFootprints"}}}, {"type": "Feature", "geometry": {"type": "Polygon", "coordinates": [[[-97.9584287, 34.5451299], [-97.9585655, 34.5451321], [-97.9585666, 34.5450846], [-97.9586309, 34.5450857], [-97.9586325, 34.5450194], [-97.9584314, 34.5450162], [-97.9584287, 34.5451299]]]}, "properties": {"osm_id": 1245370304, "building": "yes", "name": "", "height": null, "height_m": null, "levels": null, "tract_id": "40137000200", "tract_name": "2", "tags": {"building": "yes", "source": "microsoft/BuildingFootprints"}}}, {"type": "Feature", "geometry": {"type": "Polygon", "coordinates": [[[-97.9603528, 34.544127], [-97.9604574, 34.5441287], [-97.9604591, 34.5440569], [-97.9603545, 34.5440552], [-97.9603528, 34.544127]]]}, "properties": {"osm_id": 1245370305, "building": "yes", "name": "", "height": null, "height_m": null, "levels": null, "tract_id": "40137000200", "tract_name": "2", "tags": {"building": "yes", "source": "microsoft/BuildingFootprints"}}}, {"type": "Feature", "geometry": {"type": "Polygon", "coordinates": [[[-97.9625361, 34.5453824], [-97.9627843, 34.5453783], [-97.9627819, 34.5452833], [-97.9625659, 34.5452869], [-97.9625669, 34.5453267], [-97.9625347, 34.5453272], [-97.9625361, 34.5453824]]]}, "properties": {"osm_id": 1245370306, "building": "yes", "name": "", "height": null, "height_m": null, "levels": null, "tract_id": "40137000200", "tract_name": "2", "tags": {"building": "yes", "source": "microsoft/BuildingFootprints"}}}, {"type": "Feature", "geometry": {"type": "Polygon", "coordinates": [[[-97.9634181, 34.546226], [-97.9634165, 34.5463329], [-97.9636954, 34.5463358], [-97.963697, 34.5462289], [-97.9634181, 34.546226]]]}, "properties": {"osm_id": 1245370307, "building": "yes", "name": "", "height": null, "height_m": null, "levels": null, "tract_id": "40137000200", "tract_name": "2", "tags": {"building": "yes", "source": "microsoft/BuildingFootprints"}}}, {"type": "Feature", "geometry": {"type": "Polygon", "coordinates": [[[-97.9647065, 34.545185], [-97.9646383, 34.5451835], [-97.9646388, 34.5451661], [-97.9646668, 34.5451667], [-97.9646682, 34.5451215], [-97.9645074, 34.5451182], [-97.9645025, 34.5452757], [-97.9647036, 34.54528], [-97.9647065, 34.545185]]]}, "properties": {"osm_id": 1245370308, "building": "yes", "name": "", "height": null, "height_m": null, "levels": null, "tract_id": "40137000200", "tract_name": "2", "tags": {"building": "yes", "source": "microsoft/BuildingFootprints"}}}, {"type": "Feature", "geometry": {"type": "Polygon", "coordinates": [[[-97.9629, 34.5466921], [-97.9628972, 34.5468079], [-97.9631399, 34.5468118], [-97.9631417, 34.5467358], [-97.963092, 34.546735], [-97.963093, 34.5466953], [-97.9629, 34.5466921]]]}, "properties": {"osm_id": 1245370309, "building": "yes", "name": "", "height": null, "height_m": null, "levels": null, "tract_id": "40137000200", "tract_name": "2", "tags": {"building": "yes", "source": "microsoft/BuildingFootprints"}}}, {"type": "Feature", "geometry": {"type": "Polygon", "coordinates": [[[-97.9632694, 34.5456631], [-97.9634514, 34.5456693], [-97.9634555, 34.5455899], [-97.9634891, 34.5455911], [-97.9634925, 34.5455227], [-97.9633104, 34.5455165], [-97.9633068, 34.545588], [-97.9632732, 34.5455868], [-97.9632694, 34.5456631]]]}, "properties": {"osm_id": 1245370310, "building": "yes", "name": "", "height": null, "height_m": null, "levels": null, "tract_id": "40137000200", "tract_name": "2", "tags": {"building": "yes", "source": "microsoft/BuildingFootprints"}}}, {"type": "Feature", "geometry": {"type": "Polygon", "coordinates": [[[-97.9636343, 34.5444129], [-97.9636315, 34.5445167], [-97.9636798, 34.5445176], [-97.9636787, 34.5445604], [-97.9638315, 34.5445631], [-97.9638328, 34.5445137], [-97.963865, 34.5445142], [-97.9638637, 34.5445628], [-97.9639441, 34.5445642], [-97.9639446, 34.5445455], [-97.9639824, 34.5445462], [-97.9639821, 34.5445561], [-97.9641106, 34.5445584], [-97.9641143, 34.5444157], [-97.963991, 34.5444135], [-97.9639908, 34.5444193], [-97.9636343, 34.5444129]]]}, "properties": {"osm_id": 1245370311, "building": "yes", "name": "", "height": null, "height_m": null, "levels": null, "tract_id": "40137000200", "tract_name": "2", "tags": {"building": "yes", "source": "microsoft/BuildingFootprints"}}}, {"type": "Feature", "geometry": {"type": "Polygon", "coordinates": [[[-97.9629707, 34.5455875], [-97.9629188, 34.5455832], [-97.9629307, 34.5454848], [-97.962798, 34.5454738], [-97.9627782, 34.5456366], [-97.9629629, 34.5456518], [-97.9629707, 34.5455875]]]}, "properties": {"osm_id": 1245370312, "building": "yes", "name": "", "height": null, "height_m": null, "levels": null, "tract_id": "40137000200", "tract_name": "2", "tags": {"building": "yes", "source": "microsoft/BuildingFootprints"}}}, {"type": "Feature", "geometry": {"type": "Polygon", "coordinates": [[[-97.9621897, 34.5447828], [-97.961959, 34.5447852], [-97.9619606, 34.5448922], [-97.9621913, 34.5448898], [-97.9621897, 34.5447828]]]}, "properties": {"osm_id": 1245370313, "building": "yes", "name": "", "height": null, "height_m": null, "levels": null, "tract_id": "40137000200", "tract_name": "2", "tags": {"building": "yes", "source": "microsoft/BuildingFootprints"}}}, {"type": "Feature", "geometry": {"type": "Polygon", "coordinates": [[[-97.9644038, 34.546901], [-97.9644048, 34.5469592], [-97.9643592, 34.5469598], [-97.9643603, 34.5470216], [-97.9646083, 34.5470186], [-97.9646062, 34.5468985], [-97.9644038, 34.546901]]]}, "properties": {"osm_id": 1245370314, "building": "yes", "name": "", "height": null, "height_m": null, "levels": null, "tract_id": "40137000200", "tract_name": "2", "tags": {"building": "yes", "source": "microsoft/BuildingFootprints"}}}, {"type": "Feature", "geometry": {"type": "Polygon", "coordinates": [[[-97.9645881, 34.5463492], [-97.9643384, 34.5463532], [-97.9643396, 34.5464033], [-97.9644125, 34.5464021], [-97.9644141, 34.5464682], [-97.9645908, 34.5464653], [-97.9645881, 34.5463492]]]}, "properties": {"osm_id": 1245370315, "building": "yes", "name": "", "height": null, "height_m": null, "levels": null, "tract_id": "40137000200", "tract_name": "2", "tags": {"building": "yes", "source": "microsoft/BuildingFootprints"}}}, {"type": "Feature", "geometry": {"type": "Polygon", "coordinates": [[[-97.9611852, 34.5449946], [-97.9613418, 34.5449975], [-97.9613462, 34.5448375], [-97.9611895, 34.5448346], [-97.9611852, 34.5449946]]]}, "properties": {"osm_id": 1245370316, "building": "yes", "name": "", "height": null, "height_m": null, "levels": null, "tract_id": "40137000200", "tract_name": "2", "tags": {"building": "yes", "source": "microsoft/BuildingFootprints"}}}, {"type": "Feature", "geometry": {"type": "Polygon", "coordinates": [[[-97.9619499, 34.5452059], [-97.9620545, 34.5452073], [-97.9620561, 34.5451323], [-97.9619515, 34.5451308], [-97.9619499, 34.5452059]]]}, "properties": {"osm_id": 1245370317, "building": "yes", "name": "", "height": null, "height_m": null, "levels": null, "tract_id": "40137000200", "tract_name": "2", "tags": {"building": "yes", "source": "microsoft/BuildingFootprints"}}}, {"type": "Feature", "geometry": {"type": "Polygon", "coordinates": [[[-97.9611818, 34.5448117], [-97.9613373, 34.5448147], [-97.9613422, 34.5446402], [-97.9611519, 34.5446366], [-97.9611496, 34.5447173], [-97.9611845, 34.544718], [-97.9611818, 34.5448117]]]}, "properties": {"osm_id": 1245370318, "building": "yes", "name": "", "height": null, "height_m": null, "levels": null, "tract_id": "40137000200", "tract_name": "2", "tags": {"building": "yes", "source": "microsoft/BuildingFootprints"}}}, {"type": "Feature", "geometry": {"type": "Polygon", "coordinates": [[[-97.9616029, 34.5446635], [-97.961603, 34.5446918], [-97.9615709, 34.5446919], [-97.9615711, 34.5447591], [-97.9617913, 34.5447585], [-97.961791, 34.544663], [-97.9616029, 34.5446635]]]}, "properties": {"osm_id": 1245370319, "building": "yes", "name": "", "height": null, "height_m": null, "levels": null, "tract_id": "40137000200", "tract_name": "2", "tags": {"building": "yes", "source": "microsoft/BuildingFootprints"}}}, {"type": "Feature", "geometry": {"type": "Polygon", "coordinates": [[[-97.9632138, 34.5445444], [-97.9633773, 34.5445478], [-97.9633813, 34.5444162], [-97.9632178, 34.5444128], [-97.9632138, 34.5445444]]]}, "properties": {"osm_id": 1245370320, "building": "yes", "name": "", "height": null, "height_m": null, "levels": null, "tract_id": "40137000200", "tract_name": "2", "tags": {"building": "yes", "source": "microsoft/BuildingFootprints"}}}, {"type": "Feature", "geometry": {"type": "Polygon", "coordinates": [[[-97.9611577, 34.5452194], [-97.9611599, 34.5453011], [-97.9611159, 34.5453019], [-97.9611172, 34.5453527], [-97.9613061, 34.5453492], [-97.9613025, 34.5452168], [-97.9611577, 34.5452194]]]}, "properties": {"osm_id": 1245370321, "building": "yes", "name": "", "height": null, "height_m": null, "levels": null, "tract_id": "40137000200", "tract_name": "2", "tags": {"building": "yes", "source": "microsoft/BuildingFootprints"}}}, {"type": "Feature", "geometry": {"type": "Polygon", "coordinates": [[[-97.9617721, 34.5442044], [-97.961594, 34.5442069], [-97.9615953, 34.5442709], [-97.9615723, 34.5442713], [-97.9615738, 34.5443432], [-97.9617749, 34.5443404], [-97.9617721, 34.5442044]]]}, "properties": {"osm_id": 1245370322, "building": "yes", "name": "", "height": null, "height_m": null, "levels": null, "tract_id": "40137000200", "tract_name": "2", "tags": {"building": "yes", "source": "microsoft/BuildingFootprints"}}}, {"type": "Feature", "geometry": {"type": "Polygon", "coordinates": [[[-97.9611758, 34.5437766], [-97.9611799, 34.5439202], [-97.9613342, 34.5439172], [-97.9613301, 34.5437736], [-97.9611758, 34.5437766]]]}, "properties": {"osm_id": 1245370323, "building": "yes", "name": "", "height": null, "height_m": null, "levels": null, "tract_id": "40137000200", "tract_name": "2", "tags": {"building": "yes", "source": "microsoft/BuildingFootprints"}}}, {"type": "Feature", "geometry": {"type": "Polygon", "coordinates": [[[-97.9619231, 34.5436467], [-97.9619247, 34.5435275], [-97.9617584, 34.5435259], [-97.9617564, 34.5436739], [-97.9618395, 34.5436747], [-97.9618399, 34.543646], [-97.9619231, 34.5436467]]]}, "properties": {"osm_id": 1245370324, "building": "yes", "name": "", "height": null, "height_m": null, "levels": null, "tract_id": "40137000200", "tract_name": "2", "tags": {"building": "yes", "source": "microsoft/BuildingFootprints"}}}, {"type": "Feature", "geometry": {"type": "Polygon", "coordinates": [[[-97.9644675, 34.5460355], [-97.9644645, 34.5461238], [-97.9644055, 34.5461224], [-97.9644031, 34.546193], [-97.9646469, 34.5461988], [-97.9646505, 34.5460972], [-97.9646237, 34.5460966], [-97.9646257, 34.5460392], [-97.9644675, 34.5460355]]]}, "properties": {"osm_id": 1245370325, "building": "yes", "name": "", "height": null, "height_m": null, "levels": null, "tract_id": "40137000200", "tract_name": "2", "tags": {"building": "yes", "source": "microsoft/BuildingFootprints"}}}, {"type": "Feature", "geometry": {"type": "Polygon", "coordinates": [[[-97.9643283, 34.5448867], [-97.9641528, 34.5448853], [-97.964152, 34.5449516], [-97.9642082, 34.544952], [-97.964208, 34.5449674], [-97.9641959, 34.5449673], [-97.964195, 34.5450425], [-97.9643371, 34.5450437], [-97.9643376, 34.5450017], [-97.9643805, 34.545002], [-97.9643811, 34.5449526], [-97.9643275, 34.5449522], [-97.9643283, 34.5448867]]]}, "properties": {"osm_id": 1245370326, "building": "yes", "name": "", "height": null, "height_m": null, "levels": null, "tract_id": "40137000200", "tract_name": "2", "tags": {"building": "yes", "source": "microsoft/BuildingFootprints"}}}, {"type": "Feature", "geometry": {"type": "Polygon", "coordinates": [[[-97.9614821, 34.543547], [-97.961484, 34.5436707], [-97.9616047, 34.5436694], [-97.9616048, 34.5436761], [-97.9616799, 34.5436753], [-97.9616779, 34.543545], [-97.9614821, 34.543547]]]}, "properties": {"osm_id": 1245370327, "building": "yes", "name": "", "height": null, "height_m": null, "levels": null, "tract_id": "40137000200", "tract_name": "2", "tags": {"building": "yes", "source": "microsoft/BuildingFootprints"}}}, {"type": "Feature", "geometry": {"type": "Polygon", "coordinates": [[[-97.9653649, 34.5450198], [-97.9653675, 34.5452031], [-97.9657256, 34.5451996], [-97.9657229, 34.5450163], [-97.9653649, 34.5450198]]]}, "properties": {"osm_id": 1245370328, "building": "yes", "name": "", "height": null, "height_m": null, "levels": null, "tract_id": "40137000200", "tract_name": "2", "tags": {"building": "yes", "source": "microsoft/BuildingFootprints"}}}, {"type": "Feature", "geometry": {"type": "Polygon", "coordinates": [[[-97.9638499, 34.5466337], [-97.9638531, 34.5467521], [-97.9640917, 34.5467478], [-97.9640899, 34.5466793], [-97.9640563, 34.5466799], [-97.964055, 34.54663], [-97.9638499, 34.5466337]]]}, "properties": {"osm_id": 1245370329, "building": "yes", "name": "", "height": null, "height_m": null, "levels": null, "tract_id": "40137000200", "tract_name": "2", "tags": {"building": "yes", "source": "microsoft/BuildingFootprints"}}}, {"type": "Feature", "geometry": {"type": "Polygon", "coordinates": [[[-97.9609476, 34.5451595], [-97.9608605, 34.5451561], [-97.9608556, 34.545241], [-97.9609427, 34.5452444], [-97.9609476, 34.5451595]]]}, "properties": {"osm_id": 1245370330, "building": "yes", "name": "", "height": null, "height_m": null, "levels": null, "tract_id": "40137000200", "tract_name": "2", "tags": {"building": "yes", "source": "microsoft/BuildingFootprints"}}}, {"type": "Feature", "geometry": {"type": "Polygon", "coordinates": [[[-97.9630197, 34.5443785], [-97.9630219, 34.5445088], [-97.9631292, 34.5445076], [-97.9631298, 34.5445464], [-97.9631904, 34.5445458], [-97.9631876, 34.5443766], [-97.9630197, 34.5443785]]]}, "properties": {"osm_id": 1245370331, "building": "yes", "name": "", "height": null, "height_m": null, "levels": null, "tract_id": "40137000200", "tract_name": "2", "tags": {"building": "yes", "source": "microsoft/BuildingFootprints"}}}, {"type": "Feature", "geometry": {"type": "Polygon", "coordinates": [[[-97.9641027, 34.546909], [-97.9638507, 34.5469051], [-97.963848, 34.5470213], [-97.9640505, 34.5470245], [-97.9640514, 34.5469856], [-97.964101, 34.5469863], [-97.9641027, 34.546909]]]}, "properties": {"osm_id": 1245370332, "building": "yes", "name": "", "height": null, "height_m": null, "levels": null, "tract_id": "40137000200", "tract_name": "2", "tags": {"building": "yes", "source": "microsoft/BuildingFootprints"}}}, {"type": "Feature", "geometry": {"type": "Polygon", "coordinates": [[[-97.9643438, 34.5450937], [-97.9641979, 34.5450906], [-97.9641951, 34.5451789], [-97.9641549, 34.5451781], [-97.9641527, 34.5452473], [-97.9643388, 34.5452513], [-97.9643438, 34.5450937]]]}, "properties": {"osm_id": 1245370333, "building": "yes", "name": "", "height": null, "height_m": null, "levels": null, "tract_id": "40137000200", "tract_name": "2", "tags": {"building": "yes", "source": "microsoft/BuildingFootprints"}}}, {"type": "Feature", "geometry": {"type": "Polygon", "coordinates": [[[-97.958466, 34.5456036], [-97.9586337, 34.5456249], [-97.958642, 34.5455807], [-97.9586982, 34.5455878], [-97.95872, 34.5454713], [-97.9585524, 34.54545], [-97.9585327, 34.5455547], [-97.9584766, 34.5455475], [-97.958466, 34.5456036]]]}, "properties": {"osm_id": 1245370334, "building": "yes", "name": "", "height": null, "height_m": null, "levels": null, "tract_id": "40137000200", "tract_name": "2", "tags": {"building": "yes", "source": "microsoft/BuildingFootprints"}}}, {"type": "Feature", "geometry": {"type": "Polygon", "coordinates": [[[-97.9603431, 34.5447254], [-97.9603422, 34.5447883], [-97.9604468, 34.5447894], [-97.9604477, 34.5447265], [-97.9603431, 34.5447254]]]}, "properties": {"osm_id": 1245370335, "building": "yes", "name": "", "height": null, "height_m": null, "levels": null, "tract_id": "40137000200", "tract_name": "2", "tags": {"building": "yes", "source": "microsoft/BuildingFootprints"}}}, {"type": "Feature", "geometry": {"type": "Polygon", "coordinates": [[[-97.9636574, 34.5469011], [-97.963451, 34.5469048], [-97.9634521, 34.546949], [-97.9634039, 34.5469498], [-97.9634058, 34.5470227], [-97.9636605, 34.5470181], [-97.9636574, 34.5469011]]]}, "properties": {"osm_id": 1245370336, "building": "yes", "name": "", "height": null, "height_m": null, "levels": null, "tract_id": "40137000200", "tract_name": "2", "tags": {"building": "yes", "source": "microsoft/BuildingFootprints"}}}, {"type": "Feature", "geometry": {"type": "Polygon", "coordinates": [[[-97.9633258, 34.5453727], [-97.9633103, 34.5454387], [-97.9634869, 34.5454668], [-97.9634941, 34.5454363], [-97.9635129, 34.5454393], [-97.9635392, 34.5453271], [-97.9633981, 34.5453047], [-97.9633801, 34.5453813], [-97.9633258, 34.5453727]]]}, "properties": {"osm_id": 1245370337, "building": "yes", "name": "", "height": null, "height_m": null, "levels": null, "tract_id": "40137000200", "tract_name": "2", "tags": {"building": "yes", "source": "microsoft/BuildingFootprints"}}}, {"type": "Feature", "geometry": {"type": "Polygon", "coordinates": [[[-97.963674, 34.5466309], [-97.9634622, 34.5466275], [-97.9634609, 34.5466827], [-97.9634112, 34.5466819], [-97.9634098, 34.5467424], [-97.9636712, 34.5467466], [-97.963674, 34.5466309]]]}, "properties": {"osm_id": 1245370338, "building": "yes", "name": "", "height": null, "height_m": null, "levels": null, "tract_id": "40137000200", "tract_name": "2", "tags": {"building": "yes", "source": "microsoft/BuildingFootprints"}}}, {"type": "Feature", "geometry": {"type": "Polygon", "coordinates": [[[-97.9629141, 34.5464222], [-97.9629164, 34.5464808], [-97.9628857, 34.5464817], [-97.962888, 34.546539], [-97.9631318, 34.5465324], [-97.9631271, 34.5464163], [-97.9629141, 34.5464222]]]}, "properties": {"osm_id": 1245370339, "building": "yes", "name": "", "height": null, "height_m": null, "levels": null, "tract_id": "40137000200", "tract_name": "2", "tags": {"building": "yes", "source": "microsoft/BuildingFootprints"}}}, {"type": "Feature", "geometry": {"type": "Polygon", "coordinates": [[[-97.9600252, 34.544534], [-97.9600284, 34.5443905], [-97.9599238, 34.5443889], [-97.9599224, 34.544453], [-97.9598849, 34.5444524], [-97.9598834, 34.5445168], [-97.9599237, 34.5445174], [-97.9599233, 34.5445325], [-97.9600252, 34.544534]]]}, "properties": {"osm_id": 1245370340, "building": "yes", "name": "", "height": null, "height_m": null, "levels": null, "tract_id": "40137000200", "tract_name": "2", "tags": {"building": "yes", "source": "microsoft/BuildingFootprints"}}}, {"type": "Feature", "geometry": {"type": "Polygon", "coordinates": [[[-97.9638399, 34.5466097], [-97.9640906, 34.5466132], [-97.9640921, 34.5465359], [-97.9640385, 34.5465351], [-97.9640393, 34.5464976], [-97.9638423, 34.5464948], [-97.9638399, 34.5466097]]]}, "properties": {"osm_id": 1245370341, "building": "yes", "name": "", "height": null, "height_m": null, "levels": null, "tract_id": "40137000200", "tract_name": "2", "tags": {"building": "yes", "source": "microsoft/BuildingFootprints"}}}, {"type": "Feature", "geometry": {"type": "Polygon", "coordinates": [[[-97.9606051, 34.5447595], [-97.960758, 34.5447585], [-97.9607571, 34.5446679], [-97.9607396, 34.544668], [-97.9607395, 34.5446497], [-97.9607515, 34.5446496], [-97.9607511, 34.5446043], [-97.960739, 34.5446044], [-97.9607385, 34.5445546], [-97.9607147, 34.5445548], [-97.9607146, 34.54454], [-97.9605789, 34.5445409], [-97.9605793, 34.5445851], [-97.9605551, 34.5445853], [-97.960556, 34.5446759], [-97.9606043, 34.5446755], [-97.9606051, 34.5447595]]]}, "properties": {"osm_id": 1245370342, "building": "yes", "name": "", "height": null, "height_m": null, "levels": null, "tract_id": "40137000200", "tract_name": "2", "tags": {"building": "yes", "source": "microsoft/BuildingFootprints"}}}, {"type": "Feature", "geometry": {"type": "Polygon", "coordinates": [[[-97.9620939, 34.5439689], [-97.9620896, 34.5441345], [-97.9622011, 34.5441365], [-97.9622055, 34.5439708], [-97.9620939, 34.5439689]]]}, "properties": {"osm_id": 1245370343, "building": "yes", "name": "", "height": null, "height_m": null, "levels": null, "tract_id": "40137000200", "tract_name": "2", "tags": {"building": "yes", "source": "microsoft/BuildingFootprints"}}}, {"type": "Feature", "geometry": {"type": "Polygon", "coordinates": [[[-97.9594855, 34.5443635], [-97.959264, 34.5443643], [-97.9592644, 34.5444328], [-97.9594859, 34.5444319], [-97.9594855, 34.5443635]]]}, "properties": {"osm_id": 1245370344, "building": "yes", "name": "", "height": null, "height_m": null, "levels": null, "tract_id": "40137000200", "tract_name": "2", "tags": {"building": "yes", "source": "microsoft/BuildingFootprints"}}}, {"type": "Feature", "geometry": {"type": "Polygon", "coordinates": [[[-97.9634008, 34.5450795], [-97.9634026, 34.5451515], [-97.9633689, 34.5451521], [-97.9633707, 34.5452227], [-97.963553, 34.5452197], [-97.9635511, 34.5451432], [-97.963574, 34.5451429], [-97.9635724, 34.5450766], [-97.9634008, 34.5450795]]]}, "properties": {"osm_id": 1245370345, "building": "yes", "name": "", "height": null, "height_m": null, "levels": null, "tract_id": "40137000200", "tract_name": "2", "tags": {"building": "yes", "source": "microsoft/BuildingFootprints"}}}, {"type": "Feature", "geometry": {"type": "Polygon", "coordinates": [[[-97.9637065, 34.5295826], [-97.9636141, 34.5296917], [-97.963765, 34.5297793], [-97.9636988, 34.5298555], [-97.9635494, 34.5297704], [-97.9633553, 34.5299913], [-97.9631473, 34.529858], [-97.9635216, 34.5294392], [-97.9637065, 34.5295826]]]}, "properties": {"osm_id": 1248319365, "building": "yes", "name": "Fairfield Inn", "height": null, "height_m": null, "levels": null, "tract_id": "40137000200", "tract_name": "2", "tags": {"addr:city": "Duncan", "addr:housenumber": "1450", "addr:postcode": "73533", "addr:state": "OK", "addr:street": "West Apollo Drive", "air_conditioning": "yes", "branch": "Duncan", "brand": "Fairfield Inn", "brand:wikidata": "Q5430314", "building": "yes", "fax": "+1 580-736-7541", "internet_access": "yes", "internet_access:fee": "customers", "name": "Fairfield Inn", "official_name": "Fairfield by Marriott", "phone": "+1 580-736-7540", "ref": "LAWDU", "tourism": "hotel", "website": "https://www.marriott.com/en-us/hotels/lawdu-fairfield-inn-and-suites-duncan/overview/"}}}, {"type": "Feature", "geometry": {"type": "Polygon", "coordinates": [[[-97.9664803, 34.533104], [-97.9664815, 34.5331721], [-97.9663804, 34.5331733], [-97.9663806, 34.5331864], [-97.9663356, 34.533187], [-97.9663354, 34.5331738], [-97.9662738, 34.5331745], [-97.966274, 34.5331866], [-97.9662515, 34.5331869], [-97.9662513, 34.5331748], [-97.9662158, 34.5331752], [-97.9662152, 34.5331437], [-97.966187, 34.5331441], [-97.9661861, 34.5330904], [-97.966247, 34.5330897], [-97.9662473, 34.5331067], [-97.9664803, 34.533104]]]}, "properties": {"osm_id": 1380151847, "building": "commercial", "name": "", "height": null, "height_m": null, "levels": null, "tract_id": "40137000200", "tract_name": "2", "tags": {"building": "commercial"}}}]}