{"type": "FeatureCollection", "features": [{"type": "Feature", "geometry": {"type": "Polygon", "coordinates": [[[-94.9834163, 35.8764979], [-94.9832521, 35.8764979], [-94.9832521, 35.8763698], [-94.9833874, 35.8763698], [-94.9833874, 35.8764359], [-94.9834163, 35.8764359], [-94.9834163, 35.8764979]]]}, "properties": {"osm_id": 203922676, "building": "yes", "name": "", "height": null, "height_m": null, "levels": null, "tract_id": "40021977802", "tract_name": "9778.02", "tags": {"addr:city": "Tahlequah", "addr:country": "US", "addr:housenumber": "3963", "addr:postcode": "74464", "addr:street": "Rosewood Place", "building": "yes"}}}, {"type": "Feature", "geometry": {"type": "Polygon", "coordinates": [[[-94.9817862, 35.8762729], [-94.9817647, 35.8763968], [-94.9814925, 35.8763479], [-94.9814375, 35.876563], [-94.9817781, 35.876625], [-94.9817473, 35.8767217], [-94.9813584, 35.8766011], [-94.9812551, 35.8767988], [-94.9814348, 35.8768619], [-94.9813852, 35.8769412], [-94.9813664, 35.8769314], [-94.9812202, 35.8770825], [-94.9813262, 35.8773193], [-94.981361, 35.8773117], [-94.9813805, 35.877359], [-94.981414, 35.8773492], [-94.9814066, 35.8773297], [-94.9814274, 35.8773242], [-94.9814221, 35.8773096], [-94.9814489, 35.8773003], [-94.9814884, 35.8773221], [-94.9815381, 35.8772737], [-94.9820007, 35.8775454], [-94.9821536, 35.8773737], [-94.9816373, 35.8770727], [-94.9817218, 35.8769488], [-94.9822569, 35.8771444], [-94.9823575, 35.8769575], [-94.9818867, 35.8767869], [-94.9819404, 35.8766391], [-94.9824514, 35.8767249], [-94.9825023, 35.8765228], [-94.981982, 35.876437], [-94.9819954, 35.876274], [-94.9817862, 35.8762729]]]}, "properties": {"osm_id": 523542629, "building": "school", "name": "Heritage Elementary School", "height": null, "height_m": null, "levels": null, "tract_id": "40021977802", "tract_name": "9778.02", "tags": {"addr:city": "Tahlequah \u13d3\u13b5\u13c6", "addr:housenumber": "333", "addr:postcode": "74464", "addr:state": "OK", "addr:street": "Southridge Road", "building": "school", "name": "Heritage Elementary School"}}}, {"type": "Feature", "geometry": {"type": "Polygon", "coordinates": [[[-94.9799891, 35.8773465], [-94.9800803, 35.8772422], [-94.9801719, 35.8772948], [-94.9801594, 35.877309], [-94.9801775, 35.8773194], [-94.9801185, 35.8773869], [-94.9801004, 35.8773765], [-94.9800807, 35.8773991], [-94.9799891, 35.8773465]]]}, "properties": {"osm_id": 523545814, "building": "apartments", "name": "", "height": null, "height_m": null, "levels": null, "tract_id": "40021977802", "tract_name": "9778.02", "tags": {"addr:city": "Tahlequah \u13d3\u13b5\u13c6", "addr:postcode": "74464", "addr:state": "OK", "addr:street": "Southridge Circle", "building": "apartments"}}}, {"type": "Feature", "geometry": {"type": "Polygon", "coordinates": [[[-94.9788796, 35.8754217], [-94.9788773, 35.8753364], [-94.9788605, 35.8753367], [-94.9788582, 35.8752509], [-94.9788749, 35.8752506], [-94.9788726, 35.8751653], [-94.9791032, 35.8751612], [-94.9791055, 35.8752459], [-94.9791297, 35.8752455], [-94.979132, 35.8753324], [-94.9791079, 35.8753328], [-94.9791102, 35.8754176], [-94.9788796, 35.8754217]]]}, "properties": {"osm_id": 523545816, "building": "apartments", "name": "", "height": null, "height_m": null, "levels": null, "tract_id": "40021977802", "tract_name": "9778.02", "tags": {"addr:city": "Tahlequah \u13d3\u13b5\u13c6", "addr:housenumber": "3511", "addr:postcode": "74464", "addr:state": "OK", "addr:street": "Southridge Place", "building": "apartments"}}}, {"type": "Feature", "geometry": {"type": "Polygon", "coordinates": [[[-94.9805189, 35.8747749], [-94.980518, 35.8746896], [-94.9805013, 35.8746897], [-94.9805004, 35.8746039], [-94.9805172, 35.8746038], [-94.9805163, 35.8745185], [-94.980747, 35.874517], [-94.9807478, 35.8746017], [-94.980772, 35.8746015], [-94.9807728, 35.8746885], [-94.9807487, 35.8746886], [-94.9807496, 35.8747734], [-94.9805189, 35.8747749]]]}, "properties": {"osm_id": 523545818, "building": "apartments", "name": "", "height": null, "height_m": null, "levels": null, "tract_id": "40021977802", "tract_name": "9778.02", "tags": {"addr:city": "Tahlequah \u13d3\u13b5\u13c6", "addr:housenumber": "3802", "addr:postcode": "74464", "addr:state": "OK", "addr:street": "Southridge Circle", "building": "apartments"}}}, {"type": "Feature", "geometry": {"type": "Polygon", "coordinates": [[[-94.9802192, 35.8747732], [-94.9802179, 35.8746879], [-94.9802011, 35.8746881], [-94.9801998, 35.8746022], [-94.9802165, 35.8746021], [-94.9802152, 35.8745168], [-94.9804458, 35.8745144], [-94.9804472, 35.8745991], [-94.9804713, 35.8745989], [-94.9804727, 35.8746858], [-94.9804485, 35.874686], [-94.9804499, 35.8747708], [-94.9802192, 35.8747732]]]}, "properties": {"osm_id": 523545820, "building": "apartments", "name": "", "height": null, "height_m": null, "levels": null, "tract_id": "40021977802", "tract_name": "9778.02", "tags": {"addr:city": "Tahlequah \u13d3\u13b5\u13c6", "addr:housenumber": "3810", "addr:postcode": "74464", "addr:state": "OK", "addr:street": "Southridge Circle", "building": "apartments"}}}, {"type": "Feature", "geometry": {"type": "Polygon", "coordinates": [[[-94.9802939, 35.8772196], [-94.980207, 35.8771714], [-94.9801976, 35.8771826], [-94.9801101, 35.8771341], [-94.9801196, 35.8771229], [-94.9800327, 35.8770748], [-94.980163, 35.8769205], [-94.9802493, 35.8769684], [-94.980263, 35.8769522], [-94.9803515, 35.8770013], [-94.9803379, 35.8770175], [-94.9804242, 35.8770654], [-94.9802939, 35.8772196]]]}, "properties": {"osm_id": 523545823, "building": "apartments", "name": "", "height": null, "height_m": null, "levels": null, "tract_id": "40021977802", "tract_name": "9778.02", "tags": {"addr:city": "Tahlequah \u13d3\u13b5\u13c6", "addr:housenumber": "3749", "addr:postcode": "74464", "addr:state": "OK", "addr:street": "Southridge Circle", "building": "apartments"}}}, {"type": "Feature", "geometry": {"type": "Polygon", "coordinates": [[[-94.9805027, 35.8753902], [-94.9803974, 35.8753902], [-94.9803974, 35.8754038], [-94.9802915, 35.8754038], [-94.9802915, 35.8753902], [-94.9801862, 35.8753902], [-94.9801862, 35.8752033], [-94.9802908, 35.8752033], [-94.9802908, 35.8751838], [-94.9803981, 35.8751838], [-94.9803981, 35.8752033], [-94.9805027, 35.8752033], [-94.9805027, 35.8753902]]]}, "properties": {"osm_id": 523545825, "building": "apartments", "name": "", "height": null, "height_m": null, "levels": null, "tract_id": "40021977802", "tract_name": "9778.02", "tags": {"addr:city": "Tahlequah \u13d3\u13b5\u13c6", "addr:housenumber": "3795", "addr:postcode": "74464", "addr:state": "OK", "addr:street": "Southridge Circle", "building": "apartments"}}}, {"type": "Feature", "geometry": {"type": "Polygon", "coordinates": [[[-94.9804907, 35.8756369], [-94.9803854, 35.8756369], [-94.9803854, 35.8756505], [-94.9802794, 35.8756505], [-94.9802794, 35.8756369], [-94.9801742, 35.8756369], [-94.9801742, 35.87545], [-94.9802788, 35.87545], [-94.9802788, 35.8754304], [-94.980386, 35.8754304], [-94.980386, 35.87545], [-94.9804907, 35.87545], [-94.9804907, 35.8756369]]]}, "properties": {"osm_id": 523545828, "building": "apartments", "name": "", "height": null, "height_m": null, "levels": null, "tract_id": "40021977802", "tract_name": "9778.02", "tags": {"addr:city": "Tahlequah \u13d3\u13b5\u13c6", "addr:housenumber": "3789", "addr:postcode": "74464", "addr:state": "OK", "addr:street": "Southridge Circle", "building": "apartments"}}}, {"type": "Feature", "geometry": {"type": "Polygon", "coordinates": [[[-94.980496, 35.8758847], [-94.9803907, 35.8758847], [-94.9803907, 35.8758983], [-94.9802848, 35.8758983], [-94.9802848, 35.8758847], [-94.9801795, 35.8758847], [-94.9801795, 35.8756978], [-94.9802841, 35.8756978], [-94.9802841, 35.8756782], [-94.9803914, 35.8756782], [-94.9803914, 35.8756978], [-94.980496, 35.8756978], [-94.980496, 35.8758847]]]}, "properties": {"osm_id": 523545829, "building": "apartments", "name": "", "height": null, "height_m": null, "levels": null, "tract_id": "40021977802", "tract_name": "9778.02", "tags": {"addr:city": "Tahlequah \u13d3\u13b5\u13c6", "addr:housenumber": "3781", "addr:postcode": "74464", "addr:state": "OK", "addr:street": "Southridge Circle", "building": "apartments"}}}, {"type": "Feature", "geometry": {"type": "Polygon", "coordinates": [[[-94.980496, 35.8761303], [-94.9803907, 35.8761303], [-94.9803907, 35.8761438], [-94.9802848, 35.8761438], [-94.9802848, 35.8761303], [-94.9801795, 35.8761303], [-94.9801795, 35.8759434], [-94.9802841, 35.8759434], [-94.9802841, 35.8759238], [-94.9803914, 35.8759238], [-94.9803914, 35.8759434], [-94.980496, 35.8759434], [-94.980496, 35.8761303]]]}, "properties": {"osm_id": 523545830, "building": "apartments", "name": "", "height": null, "height_m": null, "levels": null, "tract_id": "40021977802", "tract_name": "9778.02", "tags": {"addr:city": "Tahlequah \u13d3\u13b5\u13c6", "addr:housenumber": "3775", "addr:postcode": "74464", "addr:state": "OK", "addr:street": "Southridge Circle", "building": "apartments"}}}, {"type": "Feature", "geometry": {"type": "Polygon", "coordinates": [[[-94.9804974, 35.8763791], [-94.9803921, 35.8763791], [-94.9803921, 35.8763927], [-94.9802861, 35.8763927], [-94.9802861, 35.8763791], [-94.9801809, 35.8763791], [-94.9801809, 35.8761922], [-94.9802855, 35.8761922], [-94.9802855, 35.8761726], [-94.9803928, 35.8761726], [-94.9803928, 35.8761922], [-94.9804974, 35.8761922], [-94.9804974, 35.8763791]]]}, "properties": {"osm_id": 523545831, "building": "apartments", "name": "", "height": null, "height_m": null, "levels": null, "tract_id": "40021977802", "tract_name": "9778.02", "tags": {"addr:city": "Tahlequah \u13d3\u13b5\u13c6", "addr:housenumber": "3769", "addr:postcode": "74464", "addr:state": "OK", "addr:street": "Southridge Circle", "building": "apartments"}}}, {"type": "Feature", "geometry": {"type": "Polygon", "coordinates": [[[-94.980496, 35.8766236], [-94.9803907, 35.8766236], [-94.9803907, 35.8766372], [-94.9802848, 35.8766372], [-94.9802848, 35.8766236], [-94.9801795, 35.8766236], [-94.9801795, 35.8764367], [-94.9802841, 35.8764367], [-94.9802841, 35.8764171], [-94.9803914, 35.8764171], [-94.9803914, 35.8764367], [-94.980496, 35.8764367], [-94.980496, 35.8766236]]]}, "properties": {"osm_id": 523545832, "building": "apartments", "name": "", "height": null, "height_m": null, "levels": null, "tract_id": "40021977802", "tract_name": "9778.02", "tags": {"addr:city": "Tahlequah \u13d3\u13b5\u13c6", "addr:housenumber": "3763", "addr:postcode": "74464", "addr:state": "OK", "addr:street": "Southridge Circle", "building": "apartments"}}}, {"type": "Feature", "geometry": {"type": "Polygon", "coordinates": [[[-94.9804974, 35.8768703], [-94.9803921, 35.8768703], [-94.9803921, 35.8768839], [-94.9802861, 35.8768839], [-94.9802861, 35.8768703], [-94.9801809, 35.8768703], [-94.9801809, 35.8766834], [-94.9802855, 35.8766834], [-94.9802855, 35.8766638], [-94.9803928, 35.8766638], [-94.9803928, 35.8766834], [-94.9804974, 35.8766834], [-94.9804974, 35.8768703]]]}, "properties": {"osm_id": 523545833, "building": "apartments", "name": "", "height": null, "height_m": null, "levels": null, "tract_id": "40021977802", "tract_name": "9778.02", "tags": {"addr:city": "Tahlequah \u13d3\u13b5\u13c6", "addr:housenumber": "3757", "addr:postcode": "74464", "addr:state": "OK", "addr:street": "Southridge Circle", "building": "apartments"}}}, {"type": "Feature", "geometry": {"type": "Polygon", "coordinates": [[[-94.9798577, 35.8773593], [-94.9797524, 35.8773593], [-94.9797524, 35.8773729], [-94.9796464, 35.8773729], [-94.9796464, 35.8773593], [-94.9795412, 35.8773593], [-94.9795412, 35.8771724], [-94.9796458, 35.8771724], [-94.9796458, 35.8771528], [-94.979753, 35.8771528], [-94.979753, 35.8771724], [-94.9798577, 35.8771724], [-94.9798577, 35.8773593]]]}, "properties": {"osm_id": 523545834, "building": "apartments", "name": "", "height": null, "height_m": null, "levels": null, "tract_id": "40021977802", "tract_name": "9778.02", "tags": {"addr:city": "Tahlequah \u13d3\u13b5\u13c6", "addr:housenumber": "3873", "addr:postcode": "74464", "addr:state": "OK", "addr:street": "Southridge Circle", "building": "apartments"}}}, {"type": "Feature", "geometry": {"type": "Polygon", "coordinates": [[[-94.9798536, 35.8771104], [-94.9797484, 35.8771104], [-94.9797484, 35.877124], [-94.9796424, 35.877124], [-94.9796424, 35.8771104], [-94.9795371, 35.8771104], [-94.9795371, 35.8769235], [-94.9796417, 35.8769235], [-94.9796417, 35.876904], [-94.979749, 35.876904], [-94.979749, 35.8769235], [-94.9798536, 35.8769235], [-94.9798536, 35.8771104]]]}, "properties": {"osm_id": 523545835, "building": "apartments", "name": "", "height": null, "height_m": null, "levels": null, "tract_id": "40021977802", "tract_name": "9778.02", "tags": {"addr:city": "Tahlequah \u13d3\u13b5\u13c6", "addr:housenumber": "3865", "addr:postcode": "74464", "addr:state": "OK", "addr:street": "Southridge Circle", "building": "apartments"}}}, {"type": "Feature", "geometry": {"type": "Polygon", "coordinates": [[[-94.9798563, 35.8768725], [-94.979751, 35.8768725], [-94.979751, 35.876886], [-94.9796451, 35.876886], [-94.9796451, 35.8768725], [-94.9795398, 35.8768725], [-94.9795398, 35.8766856], [-94.9796444, 35.8766856], [-94.9796444, 35.876666], [-94.9797517, 35.876666], [-94.9797517, 35.8766856], [-94.9798563, 35.8766856], [-94.9798563, 35.8768725]]]}, "properties": {"osm_id": 523545836, "building": "apartments", "name": "", "height": null, "height_m": null, "levels": null, "tract_id": "40021977802", "tract_name": "9778.02", "tags": {"addr:city": "Tahlequah \u13d3\u13b5\u13c6", "addr:housenumber": "3857", "addr:postcode": "74464", "addr:state": "OK", "addr:street": "Southridge Circle", "building": "apartments"}}}, {"type": "Feature", "geometry": {"type": "Polygon", "coordinates": [[[-94.9798577, 35.8766204], [-94.9797524, 35.8766204], [-94.9797524, 35.8766339], [-94.9796464, 35.8766339], [-94.9796464, 35.8766204], [-94.9795412, 35.8766204], [-94.9795412, 35.8764334], [-94.9796458, 35.8764334], [-94.9796458, 35.8764139], [-94.979753, 35.8764139], [-94.979753, 35.8764334], [-94.9798577, 35.8764334], [-94.9798577, 35.8766204]]]}, "properties": {"osm_id": 523545837, "building": "apartments", "name": "", "height": null, "height_m": null, "levels": null, "tract_id": "40021977802", "tract_name": "9778.02", "tags": {"addr:city": "Tahlequah \u13d3\u13b5\u13c6", "addr:housenumber": "3851", "addr:postcode": "74464", "addr:state": "OK", "addr:street": "Southridge Circle", "building": "apartments"}}}, {"type": "Feature", "geometry": {"type": "Polygon", "coordinates": [[[-94.9798536, 35.8763715], [-94.9797484, 35.8763715], [-94.9797484, 35.8763851], [-94.9796424, 35.8763851], [-94.9796424, 35.8763715], [-94.9795371, 35.8763715], [-94.9795371, 35.8761846], [-94.9796417, 35.8761846], [-94.9796417, 35.876165], [-94.979749, 35.876165], [-94.979749, 35.8761846], [-94.9798536, 35.8761846], [-94.9798536, 35.8763715]]]}, "properties": {"osm_id": 523545838, "building": "apartments", "name": "", "height": null, "height_m": null, "levels": null, "tract_id": "40021977802", "tract_name": "9778.02", "tags": {"addr:city": "Tahlequah \u13d3\u13b5\u13c6", "addr:housenumber": "3845", "addr:postcode": "74464", "addr:state": "OK", "addr:street": "Southridge Circle", "building": "apartments"}}}, {"type": "Feature", "geometry": {"type": "Polygon", "coordinates": [[[-94.979859, 35.8761259], [-94.9797537, 35.8761259], [-94.9797537, 35.8761395], [-94.9796478, 35.8761395], [-94.9796478, 35.8761259], [-94.9795425, 35.8761259], [-94.9795425, 35.875939], [-94.9796471, 35.875939], [-94.9796471, 35.8759194], [-94.9797544, 35.8759194], [-94.9797544, 35.875939], [-94.979859, 35.875939], [-94.979859, 35.8761259]]]}, "properties": {"osm_id": 523545839, "building": "apartments", "name": "", "height": null, "height_m": null, "levels": null, "tract_id": "40021977802", "tract_name": "9778.02", "tags": {"addr:city": "Tahlequah \u13d3\u13b5\u13c6", "addr:housenumber": "3837", "addr:postcode": "74464", "addr:state": "OK", "addr:street": "Southridge Circle", "building": "apartments"}}}, {"type": "Feature", "geometry": {"type": "Polygon", "coordinates": [[[-94.979859, 35.8758901], [-94.9797537, 35.8758901], [-94.9797537, 35.8759037], [-94.9796478, 35.8759037], [-94.9796478, 35.8758901], [-94.9795425, 35.8758901], [-94.9795425, 35.8757032], [-94.9796471, 35.8757032], [-94.9796471, 35.8756836], [-94.9797544, 35.8756836], [-94.9797544, 35.8757032], [-94.979859, 35.8757032], [-94.979859, 35.8758901]]]}, "properties": {"osm_id": 523545840, "building": "apartments", "name": "", "height": null, "height_m": null, "levels": null, "tract_id": "40021977802", "tract_name": "9778.02", "tags": {"addr:city": "Tahlequah \u13d3\u13b5\u13c6", "addr:housenumber": "3829", "addr:postcode": "74464", "addr:state": "OK", "addr:street": "Southridge Circle", "building": "apartments"}}}, {"type": "Feature", "geometry": {"type": "Polygon", "coordinates": [[[-94.979855, 35.8756413], [-94.9797497, 35.8756413], [-94.9797497, 35.8756548], [-94.9796437, 35.8756548], [-94.9796437, 35.8756413], [-94.9795385, 35.8756413], [-94.9795385, 35.8754543], [-94.9796431, 35.8754543], [-94.9796431, 35.8754348], [-94.9797504, 35.8754348], [-94.9797504, 35.8754543], [-94.979855, 35.8754543], [-94.979855, 35.8756413]]]}, "properties": {"osm_id": 523545841, "building": "apartments", "name": "", "height": null, "height_m": null, "levels": null, "tract_id": "40021977802", "tract_name": "9778.02", "tags": {"addr:city": "Tahlequah \u13d3\u13b5\u13c6", "addr:housenumber": "3821", "addr:postcode": "74464", "addr:state": "OK", "addr:street": "Southridge Circle", "building": "apartments"}}}, {"type": "Feature", "geometry": {"type": "Polygon", "coordinates": [[[-94.979855, 35.8753924], [-94.9797497, 35.8753924], [-94.9797497, 35.875406], [-94.9796437, 35.875406], [-94.9796437, 35.8753924], [-94.9795385, 35.8753924], [-94.9795385, 35.8752055], [-94.9796431, 35.8752055], [-94.9796431, 35.8751859], [-94.9797504, 35.8751859], [-94.9797504, 35.8752055], [-94.979855, 35.8752055], [-94.979855, 35.8753924]]]}, "properties": {"osm_id": 523545842, "building": "apartments", "name": "", "height": null, "height_m": null, "levels": null, "tract_id": "40021977802", "tract_name": "9778.02", "tags": {"addr:city": "Tahlequah \u13d3\u13b5\u13c6", "addr:housenumber": "3815", "addr:postcode": "74464", "addr:state": "OK", "addr:street": "Southridge Circle", "building": "apartments"}}}, {"type": "Feature", "geometry": {"type": "Polygon", "coordinates": [[[-94.9787875, 35.8754457], [-94.9786822, 35.8754457], [-94.9786822, 35.8754592], [-94.9785762, 35.8754592], [-94.9785762, 35.8754457], [-94.978471, 35.8754457], [-94.978471, 35.8752587], [-94.9785756, 35.8752587], [-94.9785756, 35.8752392], [-94.9786828, 35.8752392], [-94.9786828, 35.8752587], [-94.9787875, 35.8752587], [-94.9787875, 35.8754457]]]}, "properties": {"osm_id": 523545843, "building": "apartments", "name": "", "height": null, "height_m": null, "levels": null, "tract_id": "40021977802", "tract_name": "9778.02", "tags": {"addr:city": "Tahlequah \u13d3\u13b5\u13c6", "addr:housenumber": "3497", "addr:postcode": "74464", "addr:state": "OK", "addr:street": "Southridge Place", "building": "apartments"}}}, {"type": "Feature", "geometry": {"type": "Polygon", "coordinates": [[[-94.9787875, 35.8757108], [-94.9786822, 35.8757108], [-94.9786822, 35.8757244], [-94.9785762, 35.8757244], [-94.9785762, 35.8757108], [-94.978471, 35.8757108], [-94.978471, 35.8755239], [-94.9785756, 35.8755239], [-94.9785756, 35.8755043], [-94.9786828, 35.8755043], [-94.9786828, 35.8755239], [-94.9787875, 35.8755239], [-94.9787875, 35.8757108]]]}, "properties": {"osm_id": 523545844, "building": "apartments", "name": "", "height": null, "height_m": null, "levels": null, "tract_id": "40021977802", "tract_name": "9778.02", "tags": {"addr:city": "Tahlequah \u13d3\u13b5\u13c6", "addr:housenumber": "3489", "addr:postcode": "74464", "addr:state": "OK", "addr:street": "Southridge Place", "building": "apartments"}}}, {"type": "Feature", "geometry": {"type": "Polygon", "coordinates": [[[-94.9787861, 35.875977], [-94.9786808, 35.875977], [-94.9786808, 35.8759906], [-94.9785749, 35.8759906], [-94.9785749, 35.875977], [-94.9784696, 35.875977], [-94.9784696, 35.8757901], [-94.9785742, 35.8757901], [-94.9785742, 35.8757706], [-94.9786815, 35.8757706], [-94.9786815, 35.8757901], [-94.9787861, 35.8757901], [-94.9787861, 35.875977]]]}, "properties": {"osm_id": 523545845, "building": "apartments", "name": "", "height": null, "height_m": null, "levels": null, "tract_id": "40021977802", "tract_name": "9778.02", "tags": {"addr:city": "Tahlequah \u13d3\u13b5\u13c6", "addr:housenumber": "3483", "addr:postcode": "74464", "addr:state": "OK", "addr:street": "Southridge Place", "building": "apartments"}}}, {"type": "Feature", "geometry": {"type": "Polygon", "coordinates": [[[-94.9787861, 35.8762368], [-94.9786808, 35.8762368], [-94.9786808, 35.8762503], [-94.9785749, 35.8762503], [-94.9785749, 35.8762368], [-94.9784696, 35.8762368], [-94.9784696, 35.8760498], [-94.9785742, 35.8760498], [-94.9785742, 35.8760303], [-94.9786815, 35.8760303], [-94.9786815, 35.8760498], [-94.9787861, 35.8760498], [-94.9787861, 35.8762368]]]}, "properties": {"osm_id": 523545846, "building": "apartments", "name": "", "height": null, "height_m": null, "levels": null, "tract_id": "40021977802", "tract_name": "9778.02", "tags": {"addr:city": "Tahlequah \u13d3\u13b5\u13c6", "addr:housenumber": "3475", "addr:postcode": "74464", "addr:state": "OK", "addr:street": "Southridge Place", "building": "apartments"}}}, {"type": "Feature", "geometry": {"type": "Polygon", "coordinates": [[[-94.9787875, 35.8765008], [-94.9786822, 35.8765008], [-94.9786822, 35.8765144], [-94.9785762, 35.8765144], [-94.9785762, 35.8765008], [-94.978471, 35.8765008], [-94.978471, 35.8763139], [-94.9785756, 35.8763139], [-94.9785756, 35.8762943], [-94.9786828, 35.8762943], [-94.9786828, 35.8763139], [-94.9787875, 35.8763139], [-94.9787875, 35.8765008]]]}, "properties": {"osm_id": 523545847, "building": "apartments", "name": "", "height": null, "height_m": null, "levels": null, "tract_id": "40021977802", "tract_name": "9778.02", "tags": {"addr:city": "Tahlequah \u13d3\u13b5\u13c6", "addr:housenumber": "3469", "addr:postcode": "74464", "addr:state": "OK", "addr:street": "Southridge Place", "building": "apartments"}}}, {"type": "Feature", "geometry": {"type": "Polygon", "coordinates": [[[-94.9787834, 35.8767575], [-94.9786782, 35.8767575], [-94.9786782, 35.8767711], [-94.9785722, 35.8767711], [-94.9785722, 35.8767575], [-94.9784669, 35.8767575], [-94.9784669, 35.8765706], [-94.9785715, 35.8765706], [-94.9785715, 35.8765511], [-94.9786788, 35.8765511], [-94.9786788, 35.8765706], [-94.9787834, 35.8765706], [-94.9787834, 35.8767575]]]}, "properties": {"osm_id": 523545848, "building": "apartments", "name": "", "height": null, "height_m": null, "levels": null, "tract_id": "40021977802", "tract_name": "9778.02", "tags": {"addr:city": "Tahlequah \u13d3\u13b5\u13c6", "addr:housenumber": "3463", "addr:postcode": "74464", "addr:state": "OK", "addr:street": "Southridge Place", "building": "apartments"}}}, {"type": "Feature", "geometry": {"type": "Polygon", "coordinates": [[[-94.9785139, 35.8768412], [-94.9787311, 35.8768412], [-94.9787311, 35.8769879], [-94.9786721, 35.8769879], [-94.9786721, 35.8770053], [-94.9785715, 35.8770053], [-94.9785715, 35.8769879], [-94.9785139, 35.8769879], [-94.9785139, 35.8768412]]]}, "properties": {"osm_id": 523545850, "building": "apartments", "name": "", "height": null, "height_m": null, "levels": null, "tract_id": "40021977802", "tract_name": "9778.02", "tags": {"addr:city": "Tahlequah \u13d3\u13b5\u13c6", "addr:postcode": "74464", "addr:state": "OK", "addr:street": "Southridge Circle", "building": "apartments"}}}, {"type": "Feature", "geometry": {"type": "Polygon", "coordinates": [[[-94.9801722, 35.8896321], [-94.9801722, 35.8894279], [-94.9802205, 35.8894322], [-94.9802205, 35.8893366], [-94.9804167, 35.8893428], [-94.9804941, 35.8893453], [-94.9805102, 35.8881414], [-94.9806664, 35.888144], [-94.980773, 35.8881458], [-94.980773, 35.8880284], [-94.979448, 35.8879937], [-94.9794587, 35.888224], [-94.9793783, 35.888224], [-94.9793783, 35.8883109], [-94.9792817, 35.8883153], [-94.9792799, 35.8883938], [-94.9792682, 35.8889045], [-94.9792656, 35.8890193], [-94.9793568, 35.889028], [-94.9793568, 35.8890932], [-94.9794266, 35.8890976], [-94.9794105, 35.8894061], [-94.9794641, 35.8894061], [-94.9794426, 35.8896191], [-94.9796626, 35.8896191], [-94.9796733, 35.8894192], [-94.9799791, 35.8894235], [-94.9799737, 35.8896191], [-94.9801722, 35.8896321]]]}, "properties": {"osm_id": 556006044, "building": "retail", "name": "Walmart Supercenter", "height": null, "height_m": null, "levels": null, "tract_id": "40021977802", "tract_name": "9778.02", "tags": {"addr:city": "Tahlequah", "addr:country": "US", "addr:housenumber": "2020", "addr:postcode": "74464", "addr:state": "OK", "addr:street": "South Muskogee Avenue", "brand": "Walmart", "brand:wikidata": "Q483551", "building": "retail", "name": "Walmart Supercenter", "opening_hours": "24/7", "operator": "Walmart", "operator:wikidata": "Q483551", "payment:app:walmart": "yes", "payment:apple_pay": "no", "payment:google_pay": "no", "payment:samsung_pay": "no", "phone": "+1 918-456-8804", "ref": "10", "ref:walmart": "10", "sensory_friendly:accommodation": "dimmed_light;static_screens;no_pa", "sensory_friendly:conditional": "yes @ 08:00-10:00", "shop": "supermarket", "website": "https://www.walmart.com/store/10-tahlequah-ok"}}}, {"type": "Feature", "geometry": {"type": "Polygon", "coordinates": [[[-94.9832025, 35.889783], [-94.9832023, 35.8900216], [-94.9826799, 35.8900212], [-94.9826801, 35.8897345], [-94.9829094, 35.8897346], [-94.9829093, 35.8897828], [-94.9832025, 35.889783]]]}, "properties": {"osm_id": 659934319, "building": "retail", "name": "", "height": null, "height_m": null, "levels": null, "tract_id": "40021977802", "tract_name": "9778.02", "tags": {"building": "retail"}}}, {"type": "Feature", "geometry": {"type": "Polygon", "coordinates": [[[-94.9838452, 35.8900134], [-94.9838417, 35.8897877], [-94.9835026, 35.8897912], [-94.9835017, 35.8897326], [-94.9833383, 35.8897343], [-94.9833427, 35.8900185], [-94.9838452, 35.8900134]]]}, "properties": {"osm_id": 659934321, "building": "retail", "name": "", "height": null, "height_m": null, "levels": null, "tract_id": "40021977802", "tract_name": "9778.02", "tags": {"building": "retail"}}}, {"type": "Feature", "geometry": {"type": "Polygon", "coordinates": [[[-94.9844443, 35.8897881], [-94.9844441, 35.8896992], [-94.9842874, 35.8896994], [-94.9842873, 35.8896622], [-94.984059, 35.8896625], [-94.9840597, 35.8900192], [-94.9848173, 35.8900182], [-94.9848168, 35.8897876], [-94.9844443, 35.8897881]]]}, "properties": {"osm_id": 659934322, "building": "retail", "name": "", "height": null, "height_m": null, "levels": null, "tract_id": "40021977802", "tract_name": "9778.02", "tags": {"building": "retail"}}}, {"type": "Feature", "geometry": {"type": "Polygon", "coordinates": [[[-94.9813463, 35.8896936], [-94.9814818, 35.8896941], [-94.9814816, 35.8897305], [-94.9816379, 35.889731], [-94.9816381, 35.8896936], [-94.9817828, 35.8896941], [-94.9817854, 35.8892193], [-94.9813489, 35.8892177], [-94.9813463, 35.8896936]]]}, "properties": {"osm_id": 659934373, "building": "retail", "name": "Tractor Supply Company", "height": null, "height_m": null, "levels": null, "tract_id": "40021977802", "tract_name": "9778.02", "tags": {"addr:city": "Tahlequah", "addr:housenumber": "401", "addr:postcode": "74464", "addr:state": "OK", "addr:street": "Daisy Drive", "brand": "Tractor Supply Company", "brand:wikidata": "Q15109925", "building": "retail", "name": "Tractor Supply Company", "opening_hours": "Mo-Sa 08:00-21:00; Su 09:00-19:00", "phone": "+1 918-458-0451", "ref": "1173", "shop": "country_store"}}}, {"type": "Feature", "geometry": {"type": "Polygon", "coordinates": [[[-95.0771354, 35.914537], [-95.0771322, 35.9144072], [-95.0770086, 35.9144093], [-95.0770095, 35.9144467], [-95.0768686, 35.914449], [-95.0768703, 35.9145199], [-95.0769506, 35.9145186], [-95.0769509, 35.9145314], [-95.0770211, 35.9145302], [-95.0770213, 35.9145389], [-95.0771354, 35.914537]]]}, "properties": {"osm_id": 916524229, "building": "house", "name": "", "height": null, "height_m": null, "levels": null, "tract_id": "40021977802", "tract_name": "9778.02", "tags": {"building": "house"}}}, {"type": "Feature", "geometry": {"type": "Polygon", "coordinates": [[[-95.0734025, 35.9137696], [-95.0734013, 35.9136776], [-95.0733262, 35.9136782], [-95.0733256, 35.9136314], [-95.0731921, 35.9136325], [-95.0731925, 35.9136618], [-95.0731123, 35.9136625], [-95.0731137, 35.9137719], [-95.0731894, 35.9137713], [-95.0731897, 35.9137905], [-95.0732445, 35.91379], [-95.0732442, 35.913771], [-95.0734025, 35.9137696]]]}, "properties": {"osm_id": 916524230, "building": "house", "name": "", "height": null, "height_m": null, "levels": null, "tract_id": "40021977802", "tract_name": "9778.02", "tags": {"building": "house"}}}, {"type": "Feature", "geometry": {"type": "Polygon", "coordinates": [[[-95.0604612, 35.9159179], [-95.0604626, 35.9157986], [-95.0603788, 35.915798], [-95.0603789, 35.9157859], [-95.060313, 35.9157854], [-95.0603128, 35.9158028], [-95.0602409, 35.9158022], [-95.0602396, 35.9159089], [-95.0603224, 35.9159096], [-95.060322, 35.9159408], [-95.0603837, 35.9159413], [-95.060384, 35.9159173], [-95.0604612, 35.9159179]]]}, "properties": {"osm_id": 916524231, "building": "house", "name": "", "height": null, "height_m": null, "levels": null, "tract_id": "40021977802", "tract_name": "9778.02", "tags": {"building": "house"}}}, {"type": "Feature", "geometry": {"type": "Polygon", "coordinates": [[[-95.0202152, 35.9195446], [-95.0202164, 35.9193908], [-95.0201477, 35.9193905], [-95.0201, 35.9193902], [-95.0200993, 35.9194808], [-95.020065, 35.9194806], [-95.0200646, 35.9195439], [-95.0201498, 35.9195443], [-95.0202152, 35.9195446]]]}, "properties": {"osm_id": 916524625, "building": "house", "name": "", "height": null, "height_m": null, "levels": null, "tract_id": "40021977802", "tract_name": "9778.02", "tags": {"building": "house"}}}, {"type": "Feature", "geometry": {"type": "Polygon", "coordinates": [[[-94.9718755, 35.8779884], [-94.971023, 35.8779881], [-94.9710231, 35.8777367], [-94.9711789, 35.8777367], [-94.971179, 35.8775989], [-94.9712784, 35.8775989], [-94.9712785, 35.8773954], [-94.9713913, 35.8773955], [-94.9713916, 35.8769663], [-94.9713453, 35.8769662], [-94.9713454, 35.8768287], [-94.9712592, 35.8768286], [-94.9712593, 35.8766133], [-94.9718672, 35.8766135], [-94.971867, 35.8771909], [-94.9722017, 35.8771909], [-94.9722016, 35.8774314], [-94.9718757, 35.8774313], [-94.9718755, 35.8779884]]]}, "properties": {"osm_id": 967595543, "building": "commercial", "name": "Cherokee Casino", "height": null, "height_m": null, "levels": null, "tract_id": "40021977802", "tract_name": "9778.02", "tags": {"addr:city": "Tahlequah \u13d3\u13b5\u13c6", "addr:housenumber": "3307", "addr:postcode": "74464", "addr:state": "OK", "addr:street": "Seven Clans Avenue", "amenity": "casino", "branch": "Tahlequah", "building": "commercial", "gambling": "slot_machines", "layer": "1", "name": "Cherokee Casino", "operator": "Chreokee Nation"}}}, {"type": "Feature", "geometry": {"type": "Polygon", "coordinates": [[[-94.970539, 35.8771974], [-94.9703986, 35.8771979], [-94.9703973, 35.8769238], [-94.9705377, 35.8769234], [-94.970539, 35.8771974]]]}, "properties": {"osm_id": 967595544, "building": "commercial", "name": "", "height": null, "height_m": null, "levels": null, "tract_id": "40021977802", "tract_name": "9778.02", "tags": {"building": "commercial"}}}, {"type": "Feature", "geometry": {"type": "Polygon", "coordinates": [[[-95.0110477, 35.9013016], [-95.0109862, 35.9013009], [-95.0109875, 35.9012291], [-95.0110491, 35.9012299], [-95.0110477, 35.9013016]]]}, "properties": {"osm_id": 1109465586, "building": "service", "name": "", "height": null, "height_m": null, "levels": null, "tract_id": "40021977802", "tract_name": "9778.02", "tags": {"building": "service"}}}, {"type": "Feature", "geometry": {"type": "Polygon", "coordinates": [[[-95.0112154, 35.9010854], [-95.0112161, 35.9010474], [-95.0112462, 35.9010478], [-95.0112455, 35.9010858], [-95.0112154, 35.9010854]]]}, "properties": {"osm_id": 1109465587, "building": "service", "name": "", "height": null, "height_m": null, "levels": null, "tract_id": "40021977802", "tract_name": "9778.02", "tags": {"building": "service"}}}, {"type": "Feature", "geometry": {"type": "Polygon", "coordinates": [[[-94.9696559, 35.8739642], [-94.9696239, 35.873991], [-94.9695816, 35.8739579], [-94.9696136, 35.8739311], [-94.9696559, 35.8739642]]]}, "properties": {"osm_id": 1151666216, "building": "service", "name": "", "height": null, "height_m": null, "levels": null, "tract_id": "40021977802", "tract_name": "9778.02", "tags": {"building": "service"}}}, {"type": "Feature", "geometry": {"type": "Polygon", "coordinates": [[[-94.9740207, 35.8770105], [-94.9737342, 35.8770102], [-94.9737356, 35.876179], [-94.9740223, 35.8761793], [-94.9740207, 35.8770105]]]}, "properties": {"osm_id": 1158536961, "building": "retail", "name": "Cherokee Springs Plaza", "height": null, "height_m": null, "levels": null, "tract_id": "40021977802", "tract_name": "9778.02", "tags": {"building": "retail", "name": "Cherokee Springs Plaza"}}}, {"type": "Feature", "geometry": {"type": "Polygon", "coordinates": [[[-94.9744794, 35.8754042], [-94.9738371, 35.8754063], [-94.9738364, 35.8752734], [-94.9744787, 35.8752713], [-94.9744794, 35.8754042]]]}, "properties": {"osm_id": 1158536962, "building": "yes", "name": "Tru", "height": null, "height_m": null, "levels": null, "tract_id": "40021977802", "tract_name": "9778.02", "tags": {"addr:city": "Tahlequah \u13d3\u13b5\u13c6", "addr:housenumber": "3457", "addr:postcode": "74464", "addr:state": "OK", "addr:street": "Cherokee Springs Road", "brand": "Tru", "brand:wikidata": "Q24907770", "building": "yes", "email": "XNAOK_TRU @hilton.com", "internet_access": "wlan", "internet_access:fee": "no", "name": "Tru", "official_name": "Tru by Hilton", "phone": "+1-918-871-4791", "tourism": "hotel", "website": "https://www.hilton.com/en/hotels/xnaokru-tru-tahlequah/"}}}, {"type": "Feature", "geometry": {"type": "Polygon", "coordinates": [[[-94.9751229, 35.8744586], [-94.9746502, 35.8744599], [-94.9746498, 35.8743661], [-94.9747126, 35.8743659], [-94.9747125, 35.874339], [-94.9749475, 35.8743382], [-94.9749471, 35.8742499], [-94.9745757, 35.8742512], [-94.974574, 35.8739424], [-94.9748968, 35.8739412], [-94.9748969, 35.8739641], [-94.9749484, 35.8739639], [-94.9749483, 35.8739485], [-94.975025, 35.8739483], [-94.9750251, 35.873961], [-94.9750534, 35.8739609], [-94.9750533, 35.8739048], [-94.9751481, 35.8739046], [-94.9751482, 35.8739645], [-94.9751655, 35.8739645], [-94.9751661, 35.8742551], [-94.9751395, 35.8742552], [-94.9751398, 35.8743741], [-94.9751226, 35.8743741], [-94.9751229, 35.8744586]]]}, "properties": {"osm_id": 1158536963, "building": "yes", "name": "Stuteville Ford", "height": null, "height_m": null, "levels": null, "tract_id": "40021977802", "tract_name": "9778.02", "tags": {"addr:city": "Tahlequah \u13d3\u13b5\u13c6", "addr:housenumber": "145", "addr:postcode": "74464", "addr:state": "OK", "addr:street": "George Guess Road", "brand": "Ford", "brand:wikidata": "Q44294", "building": "yes", "name": "Stuteville Ford", "opening_hours": "Mo-Fr 08:00-18:00, Sa 08:00-17:00", "phone": "+1-539-234-6376", "second_hand": "yes", "service:vehicle:car_parts": "yes", "service:vehicle:car_repair": "yes", "service:vehicle:new_car_sales": "yes", "service:vehicle:used_car_sales": "yes", "shop": "car", "website": "https://www.stuteville.net/"}}}, {"type": "Feature", "geometry": {"type": "Polygon", "coordinates": [[[-94.9770946, 35.8789261], [-94.9770944, 35.8789016], [-94.9770419, 35.8789018], [-94.9770412, 35.8787754], [-94.9770839, 35.8787753], [-94.9770837, 35.8787347], [-94.977717, 35.8787322], [-94.9777181, 35.8789238], [-94.9770946, 35.8789261]]]}, "properties": {"osm_id": 1206829805, "building": "hotel", "name": "Tahlequah Inn", "height": null, "height_m": null, "levels": null, "tract_id": "40021977802", "tract_name": "9778.02", "tags": {"addr:housenumber": "3296", "addr:street": "South Muskogee Avenue", "building": "hotel", "name": "Tahlequah Inn", "tourism": "motel"}}}, {"type": "Feature", "geometry": {"type": "Polygon", "coordinates": [[[-94.9754602, 35.881316], [-94.9754586, 35.881479], [-94.9754938, 35.8814792], [-94.9754917, 35.8816965], [-94.9754565, 35.8816963], [-94.9754548, 35.8818725], [-94.9747682, 35.8818682], [-94.9747735, 35.8813116], [-94.9754602, 35.881316]]]}, "properties": {"osm_id": 1232061529, "building": "yes", "name": "Mean's Furniture", "height": null, "height_m": null, "levels": null, "tract_id": "40021977802", "tract_name": "9778.02", "tags": {"addr:city": "Tahlequah", "addr:housenumber": "3227", "addr:state": "OK", "addr:street": "South Muskogee Avenue", "building": "yes", "contact:facebook": "meansfurniture", "email": "meansfurniture@sbcglobal.net", "name": "Mean's Furniture", "phone": "+1 918 431 1375", "shop": "furniture"}}}, {"type": "Feature", "geometry": {"type": "Polygon", "coordinates": [[[-94.9755179, 35.882439], [-94.9756629, 35.8824418], [-94.9756562, 35.8826725], [-94.9754406, 35.8826684], [-94.9754403, 35.8826812], [-94.9750393, 35.8826736], [-94.9750484, 35.8823563], [-94.9749796, 35.882355], [-94.9749814, 35.8822919], [-94.9754513, 35.8823009], [-94.9755218, 35.8823022], [-94.9755179, 35.882439]]]}, "properties": {"osm_id": 1239932525, "building": "commercial", "name": "", "height": null, "height_m": null, "levels": null, "tract_id": "40021977802", "tract_name": "9778.02", "tags": {"building": "commercial"}}}, {"type": "Feature", "geometry": {"type": "Polygon", "coordinates": [[[-94.975322, 35.8834511], [-94.9753234, 35.8829633], [-94.9755641, 35.8829637], [-94.9755633, 35.8832589], [-94.9754916, 35.8832588], [-94.9754911, 35.8834514], [-94.975322, 35.8834511]]]}, "properties": {"osm_id": 1239932526, "building": "commercial", "name": "", "height": null, "height_m": null, "levels": null, "tract_id": "40021977802", "tract_name": "9778.02", "tags": {"building": "commercial"}}}, {"type": "Feature", "geometry": {"type": "Polygon", "coordinates": [[[-94.9755522, 35.8764577], [-94.975553, 35.876223], [-94.9752907, 35.8762224], [-94.9752898, 35.8764571], [-94.9755522, 35.8764577]]]}, "properties": {"osm_id": 1424245521, "building": "yes", "name": "Buffalo Wild Wings", "height": null, "height_m": null, "levels": null, "tract_id": "40021977802", "tract_name": "9778.02", "tags": {"addr:city": "Tahlequah \u13d3\u13b5\u13c6", "addr:housenumber": "3388", "addr:postcode": "74464", "addr:state": "OK", "addr:street": "Cherokee Springs Road", "amenity": "restaurant", "brand": "Buffalo Wild Wings", "brand:wikidata": "Q509255", "building": "yes", "cuisine": "wings", "name": "Buffalo Wild Wings", "opening_hours": "Sa-Su 11:00-23:00", "phone": "+1-918-414-9464", "short_name": "BW3", "website": "https://www.buffalowildwings.com/locations/us/ok/tahlequah/3388-cherokee-springs/sports-bar-1464/"}}}, {"type": "Feature", "geometry": {"type": "Polygon", "coordinates": [[[-94.9755769, 35.8715223], [-94.975574, 35.8713738], [-94.97553, 35.8713744], [-94.975529, 35.871322], [-94.9753448, 35.8713244], [-94.9753459, 35.8713824], [-94.9751816, 35.8713844], [-94.9751836, 35.8714862], [-94.9753484, 35.8714841], [-94.9753496, 35.871546], [-94.975526, 35.8715438], [-94.9755256, 35.871523], [-94.9755769, 35.8715223]]]}, "properties": {"osm_id": 1424245523, "building": "yes", "name": "Muskogee Federal Credit Union", "height": null, "height_m": null, "levels": null, "tract_id": "40021977802", "tract_name": "9778.02", "tags": {"addr:city": "Tahlequah", "addr:housenumber": "4595", "addr:postcode": "74464", "addr:state": "OK", "addr:street": "South Muskogee Avenue", "amenity": "bank", "atm": "yes", "building": "yes", "drive_through": "yes", "name": "Muskogee Federal Credit Union", "opening_hours": "Mo-Fr 09:00-16:30", "opening_hours:drive_through": "Mo-Fr 07:15-18:00, Sa 09:00-12:00"}}}, {"type": "Feature", "geometry": {"type": "Polygon", "coordinates": [[[-94.9753703, 35.8781767], [-94.9751268, 35.8781793], [-94.9751253, 35.8780866], [-94.9752093, 35.8780857], [-94.9752088, 35.8780607], [-94.9752637, 35.8780601], [-94.9752642, 35.878091], [-94.9753689, 35.8780898], [-94.9753703, 35.8781767]]]}, "properties": {"osm_id": 1424245527, "building": "yes", "name": "Starbucks", "height": null, "height_m": null, "levels": null, "tract_id": "40021977802", "tract_name": "9778.02", "tags": {"addr:city": "Tahlequah", "addr:housenumber": "3286", "addr:postcode": "74464", "addr:state": "OK", "addr:street": "Cherokee Springs Road", "amenity": "cafe", "branch": "Hwy 62 & Cherokee Springs Tahl", "brand": "Starbucks", "brand:wikidata": "Q37158", "building": "yes", "cuisine": "coffee_shop", "internet_access": "wlan", "internet_access:fee": "no", "name": "Starbucks", "official_name": "Starbucks Coffee", "opening_hours": "Su-Sa 05:00-22:00", "phone": "+1-918-727-7211", "takeaway": "yes"}}}, {"type": "Feature", "geometry": {"type": "Polygon", "coordinates": [[[-94.9753388, 35.8802764], [-94.9744759, 35.8802845], [-94.9744736, 35.8801206], [-94.9746106, 35.8801193], [-94.9746098, 35.8800636], [-94.9753357, 35.8800569], [-94.9753388, 35.8802764]]]}, "properties": {"osm_id": 1424245528, "building": "yes", "name": "Baker's Furniture", "height": null, "height_m": null, "levels": null, "tract_id": "40021977802", "tract_name": "9778.02", "tags": {"addr:city": "Tahlequah", "addr:housenumber": "3231", "addr:postcode": "74464", "addr:state": "OK", "addr:street": "South Muskogee Avenue", "building": "yes", "name": "Baker's Furniture", "opening_hours": "Mo-Fr 09:00-17:00, Sa 09:00-15:00", "phone": "+1-918-456-0555", "shop": "furniture", "website": "https://bakersfurnitureok.com/"}}}, {"type": "Feature", "geometry": {"type": "Polygon", "coordinates": [[[-94.9774427, 35.8771113], [-94.9774427, 35.87683], [-94.9772982, 35.8768251], [-94.9772937, 35.8771113], [-94.9774427, 35.8771113]]]}, "properties": {"osm_id": 1424247987, "building": "yes", "name": "Casey's General Store", "height": null, "height_m": null, "levels": null, "tract_id": "40021977802", "tract_name": "9778.02", "tags": {"addr:city": "Tahlequah \u13d3\u13b5\u13c6", "addr:housenumber": "3882", "addr:postcode": "74464", "addr:state": "OK", "addr:street": "South Muskogee Avenue", "brand": "Casey's General Store", "brand:wikidata": "Q2940968", "building": "yes", "name": "Casey's General Store", "opening_hours": "Mo-Su 04:00-00:00", "phone": "+1-918-458-3067", "shop": "convenience", "website": "https://www.caseys.com/general-store/ok-tahlequah/3382-s-muskogee-ave/3411"}}}, {"type": "Feature", "geometry": {"type": "Polygon", "coordinates": [[[-94.9772129, 35.8752713], [-94.9772112, 35.8751952], [-94.9770165, 35.8751966], [-94.9770165, 35.8752755], [-94.9772129, 35.8752713]]]}, "properties": {"osm_id": 1424250540, "building": "yes", "name": "Tropical Smoothie Cafe", "height": null, "height_m": null, "levels": null, "tract_id": "40021977802", "tract_name": "9778.02", "tags": {"addr:city": "Tahlequah \u13d3\u13b5\u13c6", "addr:housenumber": "3478", "addr:postcode": "74464", "addr:state": "OK", "addr:street": "South Muskogee Avenue", "amenity": "fast_food", "brand": "Tropical Smoothie Cafe", "brand:wikidata": "Q7845817", "building": "yes", "cuisine": "juice", "drive_through": "yes", "name": "Tropical Smoothie Cafe", "opening_hours": "Mo-Fr 07:00-21:00, Sa-Su 08:00-21:00", "phone": "+1-918-708-1391", "takeaway": "yes", "website": "https://locations.tropicalsmoothiecafe.com/ok/tahlequah/3478-s.-muskogee-ave."}}}, {"type": "Feature", "geometry": {"type": "Polygon", "coordinates": [[[-94.9771597, 35.875891], [-94.9771608, 35.8758473], [-94.9769429, 35.8758437], [-94.9769433, 35.875829], [-94.9768721, 35.8758278], [-94.9768703, 35.8759005], [-94.976956, 35.8759019], [-94.9769563, 35.8758876], [-94.9771597, 35.875891]]]}, "properties": {"osm_id": 1424250541, "building": "yes", "name": "", "height": null, "height_m": null, "levels": null, "tract_id": "40021977802", "tract_name": "9778.02", "tags": {"addr:city": "Tahlequah \u13d3\u13b5\u13c6", "addr:housenumber": "3430", "addr:postcode": "74464", "addr:state": "OK", "addr:street": "South Muskogee Avenue", "building": "yes"}}}, {"type": "Feature", "geometry": {"type": "Polygon", "coordinates": [[[-94.9773895, 35.8753649], [-94.976955, 35.8753649], [-94.976955, 35.8754707], [-94.9773001, 35.8754707], [-94.9773001, 35.8754251], [-94.9773895, 35.8754251], [-94.9773895, 35.8753649]]]}, "properties": {"osm_id": 1424250542, "building": "yes", "name": "", "height": null, "height_m": null, "levels": null, "tract_id": "40021977802", "tract_name": "9778.02", "tags": {"addr:city": "Tahlequah \u13d3\u13b5\u13c6", "addr:housenumber": "3452", "addr:postcode": "74464", "addr:state": "OK", "addr:street": "South Muskogee Avenue", "amenity": "car_wash", "building": "yes"}}}, {"type": "Feature", "geometry": {"type": "Polygon", "coordinates": [[[-94.9703376, 35.8835969], [-94.9701953, 35.8836391], [-94.9701527, 35.883545], [-94.9701076, 35.8834951], [-94.9700128, 35.883474], [-94.9699891, 35.8835297], [-94.969854, 35.8834912], [-94.969899, 35.8833395], [-94.9700294, 35.8833587], [-94.9700389, 35.8833894], [-94.9701669, 35.8834086], [-94.9702356, 35.883399], [-94.9703044, 35.8834451], [-94.9702949, 35.8835066], [-94.9703376, 35.8835969]]]}, "properties": {"osm_id": 1426920885, "building": "yes", "name": "", "height": null, "height_m": null, "levels": null, "tract_id": "40021977802", "tract_name": "9778.02", "tags": {"building": "yes", "golf": "clubhouse"}}}, {"type": "Feature", "geometry": {"type": "Polygon", "coordinates": [[[-94.969247, 35.8836603], [-94.9689886, 35.8836737], [-94.9689863, 35.8835604], [-94.9692399, 35.8835431], [-94.969247, 35.8836603]]]}, "properties": {"osm_id": 1426920886, "building": "yes", "name": "", "height": null, "height_m": null, "levels": null, "tract_id": "40021977802", "tract_name": "9778.02", "tags": {"building": "yes"}}}, {"type": "Feature", "geometry": {"type": "Polygon", "coordinates": [[[-94.9688156, 35.8836488], [-94.9686022, 35.8836622], [-94.9685974, 35.8835834], [-94.9688037, 35.8835796], [-94.9688156, 35.8836488]]]}, "properties": {"osm_id": 1426920887, "building": "yes", "name": "", "height": null, "height_m": null, "levels": null, "tract_id": "40021977802", "tract_name": "9778.02", "tags": {"building": "yes"}}}, {"type": "Feature", "geometry": {"type": "Polygon", "coordinates": [[[-94.9684173, 35.8836891], [-94.9682134, 35.8836949], [-94.9682063, 35.883618], [-94.9684102, 35.8836046], [-94.9684173, 35.8836891]]]}, "properties": {"osm_id": 1426920888, "building": "yes", "name": "", "height": null, "height_m": null, "levels": null, "tract_id": "40021977802", "tract_name": "9778.02", "tags": {"building": "yes"}}}, {"type": "Feature", "geometry": {"type": "Polygon", "coordinates": [[[-94.9678838, 35.8835758], [-94.9676444, 35.8835815], [-94.9676468, 35.8835008], [-94.9678744, 35.8834932], [-94.9678838, 35.8835758]]]}, "properties": {"osm_id": 1426920889, "building": "yes", "name": "", "height": null, "height_m": null, "levels": null, "tract_id": "40021977802", "tract_name": "9778.02", "tags": {"building": "yes"}}}, {"type": "Feature", "geometry": {"type": "Polygon", "coordinates": [[[-94.973428, 35.880975], [-94.9733632, 35.8809818], [-94.9733562, 35.8809419], [-94.9734168, 35.8809339], [-94.973428, 35.880975]]]}, "properties": {"osm_id": 1426920914, "building": "yes", "name": "", "height": null, "height_m": null, "levels": null, "tract_id": "40021977802", "tract_name": "9778.02", "tags": {"building": "yes"}}}, {"type": "Feature", "geometry": {"type": "Polygon", "coordinates": [[[-94.9604564, 35.8791615], [-94.9602881, 35.8791615], [-94.9602881, 35.8791039], [-94.9602573, 35.8791039], [-94.9602526, 35.8789214], [-94.9602952, 35.8789214], [-94.9602976, 35.8788753], [-94.9604375, 35.8788695], [-94.9604327, 35.8789252], [-94.9604754, 35.878931], [-94.9604802, 35.8789944], [-94.9604517, 35.8789982], [-94.9604564, 35.8791615]]]}, "properties": {"osm_id": 1426924307, "building": "yes", "name": "", "height": null, "height_m": null, "levels": null, "tract_id": "40021977802", "tract_name": "9778.02", "tags": {"building": "yes"}}}]}