{"type": "FeatureCollection", "features": [{"type": "Feature", "geometry": {"type": "Polygon", "coordinates": [[[-95.8746221, 36.0758615], [-95.8741546, 36.0758513], [-95.8741508, 36.075966], [-95.8739069, 36.0759606], [-95.8739155, 36.0757035], [-95.8746269, 36.075719], [-95.8746221, 36.0758615]]]}, "properties": {"osm_id": 98968842, "building": "church", "name": "Woodland Hills Church of Christ", "height": null, "height_m": null, "levels": null, "tract_id": "40143006907", "tract_name": "69.07", "tags": {"amenity": "place_of_worship", "building": "church", "ele": "214", "gnis:feature_id": "1790027", "name": "Woodland Hills Church of Christ", "religion": "christian"}}}, {"type": "Feature", "geometry": {"type": "Polygon", "coordinates": [[[-95.8720015, 36.0887119], [-95.8717193, 36.0887119], [-95.8717193, 36.0882765], [-95.8720015, 36.0882765], [-95.8720015, 36.0887119]]]}, "properties": {"osm_id": 232195394, "building": "commercial", "name": "", "height": null, "height_m": null, "levels": null, "tract_id": "40143006907", "tract_name": "69.07", "tags": {"addr:city": "Tulsa", "addr:country": "US", "addr:housenumber": "9410", "addr:postcode": "74145", "addr:state": "OK", "addr:street": "East 51st Street South", "building": "commercial"}}}, {"type": "Feature", "geometry": {"type": "Polygon", "coordinates": [[[-95.8720043, 36.0887886], [-95.871723, 36.0887895], [-95.8717221, 36.0893369], [-95.8716332, 36.0893368], [-95.871637, 36.0896347], [-95.8720072, 36.0896339], [-95.8720043, 36.0887886]]]}, "properties": {"osm_id": 232195395, "building": "commercial", "name": "", "height": null, "height_m": null, "levels": null, "tract_id": "40143006907", "tract_name": "69.07", "tags": {"addr:city": "Tulsa", "addr:country": "US", "addr:housenumber": "9410", "addr:postcode": "74145", "addr:state": "OK", "addr:street": "East 51st Street South", "building": "commercial"}}}, {"type": "Feature", "geometry": {"type": "Polygon", "coordinates": [[[-95.8804056, 36.078551], [-95.8803391, 36.0785512], [-95.8803391, 36.0785418], [-95.8803259, 36.0785418], [-95.8803261, 36.0785785], [-95.880285, 36.0785786], [-95.8802849, 36.078542], [-95.8802703, 36.078542], [-95.8802704, 36.0785514], [-95.88015, 36.0785519], [-95.8801499, 36.0785413], [-95.8801358, 36.0785413], [-95.880136, 36.0785799], [-95.8800973, 36.07858], [-95.8800971, 36.0785414], [-95.8800809, 36.0785415], [-95.8800809, 36.0785521], [-95.8800167, 36.0785523], [-95.8800157, 36.0783703], [-95.880082, 36.0783701], [-95.8800821, 36.0783815], [-95.8800968, 36.0783814], [-95.8800966, 36.078345], [-95.8801287, 36.0783449], [-95.8801289, 36.0783813], [-95.8801476, 36.0783812], [-95.8801475, 36.0783699], [-95.8802703, 36.0783695], [-95.8802703, 36.0783808], [-95.8802874, 36.0783807], [-95.8802872, 36.0783435], [-95.8803196, 36.0783434], [-95.8803198, 36.0783806], [-95.8803409, 36.0783805], [-95.8803408, 36.0783692], [-95.8804047, 36.078369], [-95.8804056, 36.078551]]]}, "properties": {"osm_id": 235398647, "building": "apartments", "name": "", "height": null, "height_m": null, "levels": null, "tract_id": "40143006907", "tract_name": "69.07", "tags": {"addr:city": "Tulsa", "addr:country": "US", "addr:housenumber": "8659", "addr:postcode": "74133", "addr:state": "OK", "addr:street": "East 61st Street", "building": "apartments"}}}, {"type": "Feature", "geometry": {"type": "Polygon", "coordinates": [[[-95.8834369, 36.0760596], [-95.8832107, 36.0760582], [-95.883105, 36.076145], [-95.8831083, 36.076891], [-95.8830043, 36.0769658], [-95.8831133, 36.0770565], [-95.8834419, 36.0770499], [-95.8835426, 36.0769711], [-95.8835459, 36.0765601], [-95.8836434, 36.0764773], [-95.8836434, 36.0763959], [-95.8835426, 36.0763065], [-95.8835492, 36.0761436], [-95.8834369, 36.0760596]]]}, "properties": {"osm_id": 310613426, "building": "yes", "name": "", "height": null, "height_m": null, "levels": null, "tract_id": "40143006907", "tract_name": "69.07", "tags": {"building": "yes"}}}, {"type": "Feature", "geometry": {"type": "Polygon", "coordinates": [[[-95.8830118, 36.0758912], [-95.8830118, 36.0760594], [-95.8827047, 36.0763117], [-95.8817799, 36.076313], [-95.8817799, 36.0762436], [-95.8816511, 36.0762463], [-95.881519, 36.0761475], [-95.8815207, 36.0760741], [-95.8814645, 36.0760714], [-95.8814662, 36.0759006], [-95.8813836, 36.0759019], [-95.8813803, 36.0757337], [-95.8817424, 36.0757309], [-95.8818972, 36.0757297], [-95.8818972, 36.0758125], [-95.8819962, 36.0758926], [-95.8824041, 36.0758899], [-95.8824157, 36.0761261], [-95.8824916, 36.0761221], [-95.8829094, 36.0757978], [-95.8830118, 36.0758912]]]}, "properties": {"osm_id": 310613427, "building": "yes", "name": "", "height": null, "height_m": null, "levels": null, "tract_id": "40143006907", "tract_name": "69.07", "tags": {"building": "yes"}}}, {"type": "Feature", "geometry": {"type": "Polygon", "coordinates": [[[-95.8843848, 36.0768003], [-95.8843881, 36.0769658], [-95.8844921, 36.0770499], [-95.8847052, 36.0770499], [-95.8848042, 36.0769658], [-95.8849116, 36.0769698], [-95.8849099, 36.0768016], [-95.8849496, 36.0768016], [-95.8849479, 36.0767215], [-95.8852138, 36.0767232], [-95.8853178, 36.0766375], [-95.8853164, 36.076476], [-95.8853399, 36.0764757], [-95.8853415, 36.0765495], [-95.8854179, 36.0765484], [-95.8854163, 36.0764747], [-95.8855129, 36.0764733], [-95.8855122, 36.076559], [-95.8858243, 36.0765558], [-95.8859266, 36.0764719], [-95.8859244, 36.0762192], [-95.8857174, 36.0762224], [-95.8856084, 36.0763038], [-95.8854136, 36.0763011], [-95.8848951, 36.0763025], [-95.8847894, 36.0763879], [-95.8846969, 36.0763879], [-95.8845945, 36.076468], [-95.8845929, 36.0767963], [-95.8843848, 36.0768003]]]}, "properties": {"osm_id": 310613428, "building": "yes", "name": "", "height": null, "height_m": null, "levels": null, "tract_id": "40143006907", "tract_name": "69.07", "tags": {"building": "yes"}}}, {"type": "Feature", "geometry": {"type": "Polygon", "coordinates": [[[-95.8840479, 36.076795], [-95.8840529, 36.0769725], [-95.8839505, 36.0770512], [-95.8837441, 36.0770525], [-95.8836401, 36.0769671], [-95.8836401, 36.0768817], [-95.883749, 36.076803], [-95.8840479, 36.076795]]]}, "properties": {"osm_id": 310613429, "building": "yes", "name": "", "height": null, "height_m": null, "levels": null, "tract_id": "40143006907", "tract_name": "69.07", "tags": {"building": "yes"}}}, {"type": "Feature", "geometry": {"type": "Polygon", "coordinates": [[[-95.8695561, 36.0865705], [-95.8689309, 36.086574], [-95.8689278, 36.0862057], [-95.8691292, 36.0862046], [-95.8691301, 36.0863016], [-95.8695538, 36.0862993], [-95.8695561, 36.0865705]]]}, "properties": {"osm_id": 331550277, "building": "commercial", "name": "", "height": 5.0, "height_m": 5.0, "levels": 1, "tract_id": "40143006907", "tract_name": "69.07", "tags": {"addr:city": "Tulsa", "addr:country": "US", "addr:housenumber": "5412", "addr:postcode": "74146", "addr:state": "OK", "addr:street": "South Mingo Road East", "building": "commercial", "building:levels": "1", "height": "5"}}}, {"type": "Feature", "geometry": {"type": "Polygon", "coordinates": [[[-95.8695594, 36.0860799], [-95.8691211, 36.0860789], [-95.8691209, 36.0861352], [-95.86893, 36.0861347], [-95.868931, 36.0858473], [-95.8691189, 36.0858477], [-95.8691187, 36.0858977], [-95.8695601, 36.0858987], [-95.8695594, 36.0860799]]]}, "properties": {"osm_id": 331550278, "building": "commercial", "name": "", "height": null, "height_m": null, "levels": null, "tract_id": "40143006907", "tract_name": "69.07", "tags": {"addr:city": "Tulsa", "addr:country": "US", "addr:housenumber": "5424", "addr:postcode": "74145", "addr:state": "OK", "addr:street": "South Mingo Road East", "building": "commercial", "source": "INCOG"}}}, {"type": "Feature", "geometry": {"type": "Polygon", "coordinates": [[[-95.8695388, 36.0856643], [-95.8695404, 36.0854029], [-95.868928, 36.0854005], [-95.8689257, 36.0857719], [-95.8691283, 36.0857727], [-95.869129, 36.0856627], [-95.8695388, 36.0856643]]]}, "properties": {"osm_id": 331550279, "building": "commercial", "name": "", "height": null, "height_m": null, "levels": null, "tract_id": "40143006907", "tract_name": "69.07", "tags": {"addr:city": "Tulsa", "addr:country": "US", "addr:housenumber": "5436", "addr:postcode": "74145", "addr:state": "OK", "addr:street": "South Mingo Road East", "building": "commercial", "source": "INCOG"}}}, {"type": "Feature", "geometry": {"type": "Polygon", "coordinates": [[[-95.868966, 36.0871836], [-95.8689635, 36.0869561], [-95.869244, 36.086954], [-95.8692465, 36.0871815], [-95.868966, 36.0871836]]]}, "properties": {"osm_id": 331550867, "building": "commercial", "name": "", "height": null, "height_m": null, "levels": null, "tract_id": "40143006907", "tract_name": "69.07", "tags": {"addr:city": "Tulsa", "addr:country": "US", "addr:housenumber": "5330", "addr:postcode": "74146", "addr:state": "OK", "addr:street": "South Mingo Road East", "building": "commercial", "source": "INCOG"}}}, {"type": "Feature", "geometry": {"type": "Polygon", "coordinates": [[[-95.8695099, 36.0873909], [-95.8695001, 36.0869392], [-95.8693039, 36.086942], [-95.8693137, 36.0873937], [-95.8695099, 36.0873909]]]}, "properties": {"osm_id": 331550869, "building": "commercial", "name": "", "height": null, "height_m": null, "levels": null, "tract_id": "40143006907", "tract_name": "69.07", "tags": {"building": "commercial"}}}, {"type": "Feature", "geometry": {"type": "Polygon", "coordinates": [[[-95.8717265, 36.0858401], [-95.8712154, 36.0858382], [-95.8712128, 36.0862804], [-95.8709578, 36.0862794], [-95.8709587, 36.086127], [-95.870848, 36.0861266], [-95.870845, 36.086637], [-95.8709753, 36.0866375], [-95.8709757, 36.0865608], [-95.8712174, 36.0865618], [-95.8712176, 36.0865159], [-95.8718667, 36.0865183], [-95.8718683, 36.086248], [-95.8717241, 36.0862475], [-95.8717265, 36.0858401]]]}, "properties": {"osm_id": 331550870, "building": "industrial", "name": "", "height": null, "height_m": null, "levels": null, "tract_id": "40143006907", "tract_name": "69.07", "tags": {"addr:city": "Tulsa", "addr:country": "US", "addr:housenumber": "5415", "addr:postcode": "74145", "addr:state": "OK", "addr:street": "South 94th Avenue East", "building": "industrial"}}}, {"type": "Feature", "geometry": {"type": "Polygon", "coordinates": [[[-95.8706496, 36.0866251], [-95.870644, 36.0861255], [-95.8705259, 36.0861263], [-95.8705316, 36.0866259], [-95.8706496, 36.0866251]]]}, "properties": {"osm_id": 331550871, "building": "industrial", "name": "", "height": null, "height_m": null, "levels": null, "tract_id": "40143006907", "tract_name": "69.07", "tags": {"building": "industrial"}}}, {"type": "Feature", "geometry": {"type": "Polygon", "coordinates": [[[-95.8702074, 36.0865669], [-95.8702016, 36.0863518], [-95.8704716, 36.086347], [-95.8704736, 36.0864222], [-95.8704056, 36.0864234], [-95.8704094, 36.0865634], [-95.8702074, 36.0865669]]]}, "properties": {"osm_id": 331550872, "building": "industrial", "name": "", "height": null, "height_m": null, "levels": null, "tract_id": "40143006907", "tract_name": "69.07", "tags": {"building": "industrial"}}}, {"type": "Feature", "geometry": {"type": "Polygon", "coordinates": [[[-95.8701667, 36.0866271], [-95.8701613, 36.0863096], [-95.8699615, 36.0863118], [-95.8699668, 36.0866293], [-95.8701667, 36.0866271]]]}, "properties": {"osm_id": 331550874, "building": "industrial", "name": "", "height": null, "height_m": null, "levels": null, "tract_id": "40143006907", "tract_name": "69.07", "tags": {"building": "industrial"}}}, {"type": "Feature", "geometry": {"type": "Polygon", "coordinates": [[[-95.8729105, 36.087487], [-95.8717212, 36.0874854], [-95.8717222, 36.0869924], [-95.8729115, 36.086994], [-95.8729105, 36.087487]]]}, "properties": {"osm_id": 331551589, "building": "industrial", "name": "", "height": null, "height_m": null, "levels": null, "tract_id": "40143006907", "tract_name": "69.07", "tags": {"building": "industrial"}}}, {"type": "Feature", "geometry": {"type": "Polygon", "coordinates": [[[-95.8715128, 36.0874959], [-95.8715102, 36.0869995], [-95.8713047, 36.0870002], [-95.8713074, 36.0874966], [-95.8715128, 36.0874959]]]}, "properties": {"osm_id": 331551591, "building": "yes", "name": "Air Comfort Solutions", "height": null, "height_m": null, "levels": null, "tract_id": "40143006907", "tract_name": "69.07", "tags": {"addr:city": "Tulsa", "addr:housenumber": "9421", "addr:postcode": "74146", "addr:state": "OK", "addr:street": "East 54th Street", "building": "yes", "craft": "hvac", "name": "Air Comfort Solutions", "opening_hours": "24/7", "phone": "+1 918 743 2300", "website": "https://tulsa.aircomfortsolutions.net/"}}}, {"type": "Feature", "geometry": {"type": "Polygon", "coordinates": [[[-95.8711673, 36.0873782], [-95.8709106, 36.0873811], [-95.8709044, 36.0870237], [-95.8710168, 36.0870224], [-95.8710159, 36.0869695], [-95.8711602, 36.0869678], [-95.8711673, 36.0873782]]]}, "properties": {"osm_id": 331551593, "building": "commercial", "name": "", "height": null, "height_m": null, "levels": null, "tract_id": "40143006907", "tract_name": "69.07", "tags": {"building": "commercial"}}}, {"type": "Feature", "geometry": {"type": "Polygon", "coordinates": [[[-95.870764, 36.0873809], [-95.8705046, 36.087383], [-95.8704995, 36.0869754], [-95.8706562, 36.0869741], [-95.870657, 36.0870382], [-95.8707597, 36.0870374], [-95.870764, 36.0873809]]]}, "properties": {"osm_id": 331551595, "building": "commercial", "name": "", "height": null, "height_m": null, "levels": null, "tract_id": "40143006907", "tract_name": "69.07", "tags": {"building": "commercial"}}}, {"type": "Feature", "geometry": {"type": "Polygon", "coordinates": [[[-95.870489, 36.0874972], [-95.8703273, 36.0874989], [-95.8703185, 36.0869387], [-95.8704803, 36.086937], [-95.870489, 36.0874972]]]}, "properties": {"osm_id": 331551597, "building": "industrial", "name": "American Rental and Sales Inc", "height": null, "height_m": null, "levels": null, "tract_id": "40143006907", "tract_name": "69.07", "tags": {"addr:city": "Tulsa", "addr:housenumber": "9517", "addr:postcode": "74145", "addr:state": "OK", "addr:street": "East 54th Street", "building": "industrial", "name": "American Rental and Sales Inc", "opening_hours": "Mo-Fr 07:30-17:00", "operator": "Michael Garbee", "payment:american_express": "yes", "payment:cash": "yes", "payment:cheque": "yes", "payment:discover_card": "yes", "payment:mastercard": "yes", "payment:visa": "yes", "phone": "+1-918-665-0262", "shop": "plant_hire", "website": "https://americanrentaltulsa.com"}}}, {"type": "Feature", "geometry": {"type": "Polygon", "coordinates": [[[-95.8840298, 36.0786432], [-95.8838465, 36.078641], [-95.8838492, 36.078233], [-95.8840351, 36.078234], [-95.8840298, 36.0786432]]]}, "properties": {"osm_id": 765687227, "building": "yes", "name": "", "height": null, "height_m": null, "levels": null, "tract_id": "40143006907", "tract_name": "69.07", "tags": {"building": "yes"}}}, {"type": "Feature", "geometry": {"type": "Polygon", "coordinates": [[[-95.8843246, 36.0788002], [-95.8842855, 36.0788004], [-95.8842856, 36.0788098], [-95.8842296, 36.07881], [-95.8842295, 36.0787952], [-95.8841678, 36.0787955], [-95.8841679, 36.0788095], [-95.8841205, 36.0788097], [-95.8841205, 36.0787985], [-95.8840453, 36.0787989], [-95.8840499, 36.0788091], [-95.8840011, 36.0788094], [-95.8840009, 36.0787937], [-95.8839372, 36.078794], [-95.8839373, 36.0788089], [-95.8838882, 36.0788092], [-95.8838881, 36.0787902], [-95.8838485, 36.0787904], [-95.8838478, 36.0786914], [-95.8843238, 36.0786892], [-95.8843246, 36.0788002]]]}, "properties": {"osm_id": 765687228, "building": "yes", "name": "", "height": null, "height_m": null, "levels": null, "tract_id": "40143006907", "tract_name": "69.07", "tags": {"building": "yes"}}}, {"type": "Feature", "geometry": {"type": "Polygon", "coordinates": [[[-95.8844433, 36.0786879], [-95.884268, 36.07861], [-95.884296, 36.0785688], [-95.8843171, 36.0785781], [-95.8843616, 36.0785126], [-95.8843503, 36.0785076], [-95.8844125, 36.0784162], [-95.8844348, 36.0784261], [-95.884481, 36.0783583], [-95.8844608, 36.0783493], [-95.8844846, 36.0783145], [-95.884638, 36.0783827], [-95.884608, 36.0784268], [-95.8845968, 36.0784218], [-95.8845537, 36.078485], [-95.8845706, 36.0784925], [-95.8845053, 36.0785884], [-95.8844936, 36.0785832], [-95.8844609, 36.0786311], [-95.8844771, 36.0786383], [-95.8844433, 36.0786879]]]}, "properties": {"osm_id": 765687229, "building": "yes", "name": "", "height": null, "height_m": null, "levels": null, "tract_id": "40143006907", "tract_name": "69.07", "tags": {"building": "yes"}}}, {"type": "Feature", "geometry": {"type": "Polygon", "coordinates": [[[-95.8843745, 36.0783491], [-95.8844093, 36.0783742], [-95.8843585, 36.0784202], [-95.8839329, 36.0781131], [-95.8839965, 36.0780555], [-95.8840065, 36.0780627], [-95.8840204, 36.0780502], [-95.884012, 36.0780441], [-95.8840481, 36.0780115], [-95.8840592, 36.0780195], [-95.8840725, 36.0780075], [-95.8844506, 36.0782802], [-95.8843745, 36.0783491]]]}, "properties": {"osm_id": 765687230, "building": "yes", "name": "", "height": null, "height_m": null, "levels": null, "tract_id": "40143006907", "tract_name": "69.07", "tags": {"building": "yes"}}}, {"type": "Feature", "geometry": {"type": "Polygon", "coordinates": [[[-95.8838651, 36.0781509], [-95.8838183, 36.0781515], [-95.8838184, 36.0781599], [-95.8836762, 36.0781617], [-95.8836759, 36.0781498], [-95.8835749, 36.0781511], [-95.8835751, 36.0781635], [-95.8834452, 36.0781652], [-95.8834449, 36.0781551], [-95.8833876, 36.0781559], [-95.8833871, 36.0781305], [-95.8833786, 36.0781306], [-95.883378, 36.0781], [-95.8833904, 36.0780999], [-95.8833893, 36.0780425], [-95.883446, 36.0780418], [-95.8834457, 36.0780307], [-95.8838108, 36.078026], [-95.883811, 36.078036], [-95.8838602, 36.0780354], [-95.8838605, 36.0780556], [-95.8838745, 36.0780554], [-95.8838751, 36.078083], [-95.8838638, 36.0780831], [-95.8838651, 36.0781509]]]}, "properties": {"osm_id": 765687231, "building": "yes", "name": "", "height": null, "height_m": null, "levels": null, "tract_id": "40143006907", "tract_name": "69.07", "tags": {"building": "yes"}}}, {"type": "Feature", "geometry": {"type": "Polygon", "coordinates": [[[-95.8849273, 36.0789548], [-95.884761, 36.078958], [-95.8847606, 36.0789444], [-95.8847484, 36.0789447], [-95.8847465, 36.07888], [-95.8847276, 36.0788804], [-95.8847242, 36.078766], [-95.8847473, 36.0787655], [-95.8847456, 36.0787075], [-95.8847723, 36.078707], [-95.8847719, 36.078692], [-95.8849191, 36.0786892], [-95.8849196, 36.0787069], [-95.8849331, 36.0787067], [-95.8849347, 36.0787619], [-95.8849565, 36.0787615], [-95.8849601, 36.078884], [-95.8849447, 36.0788842], [-95.8849464, 36.0789426], [-95.884927, 36.078943], [-95.8849273, 36.0789548]]]}, "properties": {"osm_id": 765687232, "building": "yes", "name": "", "height": null, "height_m": null, "levels": null, "tract_id": "40143006907", "tract_name": "69.07", "tags": {"building": "yes"}}}, {"type": "Feature", "geometry": {"type": "Polygon", "coordinates": [[[-95.8847954, 36.077897], [-95.8847775, 36.0779086], [-95.8847861, 36.0779173], [-95.8847345, 36.0779506], [-95.8847458, 36.0779621], [-95.8846278, 36.0780384], [-95.8846212, 36.0780245], [-95.884557, 36.0780649], [-95.8845516, 36.0780593], [-95.8845387, 36.0780674], [-95.8844352, 36.0779601], [-95.8844476, 36.0779522], [-95.8844386, 36.077943], [-95.8844928, 36.0779086], [-95.8844816, 36.0778971], [-95.8846051, 36.0778184], [-95.8846171, 36.0778307], [-95.8846718, 36.0777957], [-95.8846809, 36.0778049], [-95.8846955, 36.0777955], [-95.8847954, 36.077897]]]}, "properties": {"osm_id": 765687233, "building": "yes", "name": "", "height": null, "height_m": null, "levels": null, "tract_id": "40143006907", "tract_name": "69.07", "tags": {"building": "yes"}}}, {"type": "Feature", "geometry": {"type": "Polygon", "coordinates": [[[-95.8850842, 36.0782579], [-95.8850246, 36.0782393], [-95.8850288, 36.0782305], [-95.8849421, 36.078203], [-95.8849362, 36.078215], [-95.8848295, 36.0781807], [-95.8848339, 36.0781718], [-95.8847502, 36.0781445], [-95.8847417, 36.0781614], [-95.8846717, 36.0781384], [-95.8847476, 36.0779878], [-95.8848155, 36.0780102], [-95.8848085, 36.0780242], [-95.8848712, 36.0780449], [-95.8848844, 36.0780342], [-95.8849965, 36.0780688], [-95.8849892, 36.0780842], [-95.8850732, 36.0781103], [-95.8850818, 36.0780922], [-95.8851527, 36.0781143], [-95.8850842, 36.0782579]]]}, "properties": {"osm_id": 765687234, "building": "yes", "name": "", "height": null, "height_m": null, "levels": null, "tract_id": "40143006907", "tract_name": "69.07", "tags": {"building": "yes"}}}, {"type": "Feature", "geometry": {"type": "Polygon", "coordinates": [[[-95.8851872, 36.0786196], [-95.8851686, 36.0786199], [-95.8851689, 36.0786342], [-95.8850952, 36.0786353], [-95.8850957, 36.0786582], [-95.8849727, 36.07866], [-95.8849724, 36.0786469], [-95.8848821, 36.0786482], [-95.8848817, 36.0786329], [-95.8848696, 36.078633], [-95.8848665, 36.0785027], [-95.8849643, 36.0785011], [-95.8849638, 36.078481], [-95.8850967, 36.078479], [-95.8850972, 36.0785], [-95.8851686, 36.0784989], [-95.8851689, 36.0785112], [-95.8851854, 36.0785109], [-95.8851866, 36.0785636], [-95.8852027, 36.0785633], [-95.8852029, 36.0785728], [-95.8851861, 36.078573], [-95.8851872, 36.0786196]]]}, "properties": {"osm_id": 765687235, "building": "yes", "name": "", "height": null, "height_m": null, "levels": null, "tract_id": "40143006907", "tract_name": "69.07", "tags": {"building": "yes"}}}, {"type": "Feature", "geometry": {"type": "Polygon", "coordinates": [[[-95.8863262, 36.0887233], [-95.8862582, 36.0887243], [-95.8862551, 36.0885265], [-95.886325, 36.0885257], [-95.8863262, 36.0887233]]]}, "properties": {"osm_id": 990384617, "building": "yes", "name": "", "height": null, "height_m": null, "levels": null, "tract_id": "40143006907", "tract_name": "69.07", "tags": {"building": "yes"}}}, {"type": "Feature", "geometry": {"type": "Polygon", "coordinates": [[[-95.8696818, 36.0759807], [-95.869283, 36.0759907], [-95.8692695, 36.0756428], [-95.8696684, 36.0756327], [-95.8696818, 36.0759807]]]}, "properties": {"osm_id": 1089355296, "building": "yes", "name": "Volunteers of America State Headquarters", "height": null, "height_m": null, "levels": null, "tract_id": "40143006907", "tract_name": "69.07", "tags": {"addr:city": "Tulsa", "addr:country": "US", "addr:housenumber": "9605", "addr:state": "OK", "addr:street": "East 61st Street", "amenity": "social_facility", "building": "yes", "name": "Volunteers of America State Headquarters", "social_facility": "outreach"}}}, {"type": "Feature", "geometry": {"type": "Polygon", "coordinates": [[[-95.8714857, 36.0834411], [-95.8714815, 36.0829734], [-95.8711469, 36.0829754], [-95.8711511, 36.0834431], [-95.8714857, 36.0834411]]]}, "properties": {"osm_id": 1158701791, "building": "yes", "name": "", "height": null, "height_m": null, "levels": null, "tract_id": "40143006907", "tract_name": "69.07", "tags": {"building": "yes"}}}, {"type": "Feature", "geometry": {"type": "Polygon", "coordinates": [[[-95.8708716, 36.0832864], [-95.8705478, 36.0832836], [-95.8705504, 36.0830909], [-95.8705531, 36.0828879], [-95.8708769, 36.0828907], [-95.8708716, 36.0832864]]]}, "properties": {"osm_id": 1158701792, "building": "yes", "name": "", "height": null, "height_m": null, "levels": null, "tract_id": "40143006907", "tract_name": "69.07", "tags": {"building": "yes"}}}, {"type": "Feature", "geometry": {"type": "Polygon", "coordinates": [[[-95.8703316, 36.0834457], [-95.8699733, 36.083445], [-95.8699751, 36.0828544], [-95.8702009, 36.0828549], [-95.8702008, 36.0828979], [-95.8702909, 36.0828981], [-95.8702905, 36.0830226], [-95.8703329, 36.0830227], [-95.8703316, 36.0834457]]]}, "properties": {"osm_id": 1158701793, "building": "yes", "name": "", "height": null, "height_m": null, "levels": null, "tract_id": "40143006907", "tract_name": "69.07", "tags": {"building": "yes"}}}, {"type": "Feature", "geometry": {"type": "Polygon", "coordinates": [[[-95.8695603, 36.0833341], [-95.869562, 36.0827784], [-95.8699599, 36.0827792], [-95.869959, 36.0831013], [-95.8699415, 36.0831012], [-95.8699412, 36.0831833], [-95.8697391, 36.0831829], [-95.8697386, 36.0833344], [-95.8695603, 36.0833341]]]}, "properties": {"osm_id": 1158701795, "building": "yes", "name": "", "height": null, "height_m": null, "levels": null, "tract_id": "40143006907", "tract_name": "69.07", "tags": {"building": "yes"}}}, {"type": "Feature", "geometry": {"type": "Polygon", "coordinates": [[[-95.8694686, 36.0834447], [-95.869005, 36.0834481], [-95.8689975, 36.0827748], [-95.8693763, 36.082772], [-95.8693785, 36.0829728], [-95.869301, 36.083027], [-95.869301, 36.0831061], [-95.869368, 36.0831679], [-95.8694606, 36.0831733], [-95.8694686, 36.0834447]]]}, "properties": {"osm_id": 1158701796, "building": "yes", "name": "", "height": null, "height_m": null, "levels": null, "tract_id": "40143006907", "tract_name": "69.07", "tags": {"addr:city": "Tulsa", "addr:country": "US", "addr:housenumber": "5556", "addr:postcode": "74146", "addr:state": "OK", "addr:street": "South Mingo Road East", "building": "yes", "source": "INCOG"}}}, {"type": "Feature", "geometry": {"type": "Polygon", "coordinates": [[[-95.8860037, 36.0758528], [-95.8859347, 36.0758528], [-95.8859347, 36.0757552], [-95.8860037, 36.0757552], [-95.8860037, 36.0758528]]]}, "properties": {"osm_id": 1290140579, "building": "yes", "name": "Scooter's Coffee", "height": null, "height_m": null, "levels": null, "tract_id": "40143006907", "tract_name": "69.07", "tags": {"amenity": "cafe", "brand": "Scooter's Coffee", "brand:wikidata": "Q117280308", "building": "yes", "cuisine": "coffee_shop", "name": "Scooter's Coffee", "takeaway": "yes"}}}, {"type": "Feature", "geometry": {"type": "Polygon", "coordinates": [[[-95.8772262, 36.0760685], [-95.8770069, 36.076069], [-95.8770064, 36.0759248], [-95.8772257, 36.0759243], [-95.8772262, 36.0760685]]]}, "properties": {"osm_id": 1294626424, "building": "yes", "name": "Union Public Schools Enrollment Center", "height": null, "height_m": null, "levels": null, "tract_id": "40143006907", "tract_name": "69.07", "tags": {"addr:city": "Tulsa", "addr:country": "US", "addr:housenumber": "6011", "addr:postcode": "74145", "addr:state": "OK", "addr:street": "South 89th Avenue East", "building": "yes", "name": "Union Public Schools Enrollment Center", "office": "educational_institution"}}}, {"type": "Feature", "geometry": {"type": "Polygon", "coordinates": [[[-95.8765966, 36.0759422], [-95.876315, 36.0759439], [-95.8763136, 36.0757851], [-95.8763592, 36.0757848], [-95.8764303, 36.0757844], [-95.8765242, 36.0757838], [-95.8765952, 36.0757834], [-95.8765966, 36.0759422]]]}, "properties": {"osm_id": 1294626425, "building": "yes", "name": "", "height": null, "height_m": null, "levels": null, "tract_id": "40143006907", "tract_name": "69.07", "tags": {"building": "yes"}}}, {"type": "Feature", "geometry": {"type": "Polygon", "coordinates": [[[-95.8733028, 36.0759102], [-95.8730433, 36.075914], [-95.8730386, 36.075702], [-95.8732981, 36.0756982], [-95.8733028, 36.0759102]]]}, "properties": {"osm_id": 1294626426, "building": "yes", "name": "Legacy", "height": null, "height_m": null, "levels": null, "tract_id": "40143006907", "tract_name": "69.07", "tags": {"amenity": "childcare", "building": "yes", "name": "Legacy", "shop": "yes"}}}, {"type": "Feature", "geometry": {"type": "Polygon", "coordinates": [[[-95.8702867, 36.0755796], [-95.8702878, 36.0757234], [-95.8701966, 36.0757238], [-95.8701968, 36.0757524], [-95.8699648, 36.0757536], [-95.8699635, 36.0755813], [-95.8702867, 36.0755796]]]}, "properties": {"osm_id": 1294626427, "building": "yes", "name": "VCA Animal Hospital", "height": null, "height_m": null, "levels": null, "tract_id": "40143006907", "tract_name": "69.07", "tags": {"amenity": "veterinary", "brand": "VCA Animal Hospitals", "brand:wikidata": "Q7906620", "building": "yes", "name": "VCA Animal Hospital"}}}, {"type": "Feature", "geometry": {"type": "Polygon", "coordinates": [[[-95.868931, 36.0813456], [-95.8689305, 36.0811817], [-95.8690875, 36.0811813], [-95.8690878, 36.081272], [-95.8691572, 36.0812719], [-95.8691574, 36.0813451], [-95.868931, 36.0813456]]]}, "properties": {"osm_id": 1315326527, "building": "detached", "name": "Thai Taste", "height": null, "height_m": null, "levels": null, "tract_id": "40143006907", "tract_name": "69.07", "tags": {"addr:city": "Tulsa", "addr:country": "US", "addr:housenumber": "5646", "addr:postcode": "74146", "addr:state": "OK", "addr:street": "South Mingo Road East", "amenity": "restaurant", "building": "detached", "check_date": "2024-07-23", "cuisine": "thai", "name": "Thai Taste", "phone": "+1 479 459 4165"}}}, {"type": "Feature", "geometry": {"type": "Polygon", "coordinates": [[[-95.8783066, 36.0786081], [-95.8784809, 36.0786051], [-95.8784791, 36.078538], [-95.8784094, 36.0785392], [-95.8784076, 36.0784712], [-95.8783031, 36.078473], [-95.8783066, 36.0786081]]]}, "properties": {"osm_id": 1318282022, "building": "detached", "name": "", "height": null, "height_m": null, "levels": null, "tract_id": "40143006907", "tract_name": "69.07", "tags": {"addr:city": "Tulsa", "addr:country": "US", "addr:housenumber": "8716", "addr:postcode": "74145", "addr:state": "OK", "addr:street": "East 58th Street South", "building": "detached", "source": "INCOG;microsoft/BuildingFootprints"}}}, {"type": "Feature", "geometry": {"type": "Polygon", "coordinates": [[[-95.8757904, 36.079012], [-95.8758776, 36.0790106], [-95.8758783, 36.0790409], [-95.8759588, 36.0790396], [-95.8759546, 36.0788663], [-95.8758795, 36.0788675], [-95.8758805, 36.0789074], [-95.8757879, 36.0789088], [-95.8757904, 36.079012]]]}, "properties": {"osm_id": 1318282023, "building": "detached", "name": "", "height": null, "height_m": null, "levels": null, "tract_id": "40143006907", "tract_name": "69.07", "tags": {"addr:city": "Tulsa", "addr:country": "US", "addr:housenumber": "8926", "addr:postcode": "74145", "addr:state": "OK", "addr:street": "East 58th Street South", "building": "detached", "source": "INCOG;microsoft/BuildingFootprints"}}}, {"type": "Feature", "geometry": {"type": "Polygon", "coordinates": [[[-95.8755487, 36.079339], [-95.8754657, 36.0793423], [-95.8754698, 36.0794093], [-95.8753988, 36.0794122], [-95.8754054, 36.0795194], [-95.8755593, 36.0795133], [-95.8755487, 36.079339]]]}, "properties": {"osm_id": 1318282024, "building": "detached", "name": "", "height": null, "height_m": null, "levels": null, "tract_id": "40143006907", "tract_name": "69.07", "tags": {"addr:city": "Tulsa", "addr:country": "US", "addr:housenumber": "8935", "addr:postcode": "74145", "addr:state": "OK", "addr:street": "East 58th Street South", "building": "detached", "source": "INCOG;microsoft/BuildingFootprints"}}}, {"type": "Feature", "geometry": {"type": "Polygon", "coordinates": [[[-95.8752435, 36.0793756], [-95.8752526, 36.0794154], [-95.8751993, 36.0794233], [-95.8752294, 36.0795554], [-95.8753657, 36.0795351], [-95.8753265, 36.0793632], [-95.8752435, 36.0793756]]]}, "properties": {"osm_id": 1318282025, "building": "detached", "name": "", "height": null, "height_m": null, "levels": null, "tract_id": "40143006907", "tract_name": "69.07", "tags": {"addr:city": "Tulsa", "addr:country": "US", "addr:housenumber": "8941", "addr:postcode": "74145", "addr:state": "OK", "addr:street": "East 58th Street South", "building": "detached", "source": "INCOG;microsoft/BuildingFootprints"}}}, {"type": "Feature", "geometry": {"type": "Polygon", "coordinates": [[[-95.875119, 36.0793874], [-95.8750404, 36.0794045], [-95.8750609, 36.0794661], [-95.8749898, 36.0794815], [-95.8750237, 36.0795833], [-95.8751735, 36.0795506], [-95.875119, 36.0793874]]]}, "properties": {"osm_id": 1318282026, "building": "detached", "name": "", "height": null, "height_m": null, "levels": null, "tract_id": "40143006907", "tract_name": "69.07", "tags": {"addr:city": "Tulsa", "addr:country": "US", "addr:housenumber": "8945", "addr:postcode": "74145", "addr:state": "OK", "addr:street": "East 58th Street South", "building": "detached", "source": "INCOG;microsoft/BuildingFootprints"}}}, {"type": "Feature", "geometry": {"type": "Polygon", "coordinates": [[[-95.8753578, 36.0789036], [-95.8753559, 36.0790055], [-95.8754336, 36.0790065], [-95.8754329, 36.0790433], [-95.8755387, 36.0790446], [-95.8755414, 36.0789059], [-95.8753578, 36.0789036]]]}, "properties": {"osm_id": 1318282027, "building": "detached", "name": "", "height": null, "height_m": null, "levels": null, "tract_id": "40143006907", "tract_name": "69.07", "tags": {"addr:city": "Tulsa", "addr:country": "US", "addr:housenumber": "8936", "addr:postcode": "74145", "addr:state": "OK", "addr:street": "East 58th Street South", "building": "detached", "source": "INCOG;microsoft/BuildingFootprints"}}}, {"type": "Feature", "geometry": {"type": "Polygon", "coordinates": [[[-95.8764198, 36.079338], [-95.876424, 36.0794398], [-95.8766047, 36.0794349], [-95.8766006, 36.0793332], [-95.8764198, 36.079338]]]}, "properties": {"osm_id": 1318282028, "building": "detached", "name": "", "height": null, "height_m": null, "levels": null, "tract_id": "40143006907", "tract_name": "69.07", "tags": {"addr:city": "Tulsa", "addr:country": "US", "addr:housenumber": "8909", "addr:postcode": "74145", "addr:state": "OK", "addr:street": "East 58th Street South", "building": "detached", "source": "INCOG;microsoft/BuildingFootprints"}}}, {"type": "Feature", "geometry": {"type": "Polygon", "coordinates": [[[-95.8770638, 36.0789532], [-95.877191, 36.0789585], [-95.8772004, 36.0788101], [-95.8770733, 36.0788048], [-95.8770638, 36.0789532]]]}, "properties": {"osm_id": 1318282029, "building": "detached", "name": "", "height": null, "height_m": null, "levels": null, "tract_id": "40143006907", "tract_name": "69.07", "tags": {"addr:city": "Tulsa", "addr:country": "US", "addr:housenumber": "8814", "addr:postcode": "74145", "addr:state": "OK", "addr:street": "East 58th Street South", "building": "detached", "source": "INCOG;microsoft/BuildingFootprints"}}}, {"type": "Feature", "geometry": {"type": "Polygon", "coordinates": [[[-95.8732653, 36.0795631], [-95.8731017, 36.0796046], [-95.8731412, 36.0797063], [-95.8733048, 36.0796649], [-95.8732653, 36.0795631]]]}, "properties": {"osm_id": 1318282030, "building": "detached", "name": "", "height": null, "height_m": null, "levels": null, "tract_id": "40143006907", "tract_name": "69.07", "tags": {"addr:city": "Tulsa", "addr:country": "US", "addr:housenumber": "9212", "addr:postcode": "74145", "addr:state": "OK", "addr:street": "East 58th Street South", "building": "detached", "source": "INCOG;microsoft/BuildingFootprints"}}}, {"type": "Feature", "geometry": {"type": "Polygon", "coordinates": [[[-95.8766354, 36.0793236], [-95.8766329, 36.0794168], [-95.8767067, 36.0794181], [-95.876705, 36.0794818], [-95.8767894, 36.0794832], [-95.8767936, 36.0793264], [-95.8766354, 36.0793236]]]}, "properties": {"osm_id": 1318282031, "building": "detached", "name": "", "height": null, "height_m": null, "levels": null, "tract_id": "40143006907", "tract_name": "69.07", "tags": {"addr:city": "Tulsa", "addr:country": "US", "addr:housenumber": "8905", "addr:postcode": "74145", "addr:state": "OK", "addr:street": "East 58th Street South", "building": "detached", "source": "INCOG;microsoft/BuildingFootprints"}}}, {"type": "Feature", "geometry": {"type": "Polygon", "coordinates": [[[-95.8719872, 36.0799675], [-95.8718731, 36.0800062], [-95.8719134, 36.0800836], [-95.871959, 36.0800681], [-95.8719714, 36.0800921], [-95.8720239, 36.0800743], [-95.8720411, 36.0801075], [-95.8721118, 36.0800835], [-95.8720295, 36.079925], [-95.8719747, 36.0799436], [-95.8719872, 36.0799675]]]}, "properties": {"osm_id": 1318282032, "building": "detached", "name": "", "height": null, "height_m": null, "levels": null, "tract_id": "40143006907", "tract_name": "69.07", "tags": {"addr:city": "Tulsa", "addr:country": "US", "addr:housenumber": "9244", "addr:postcode": "74145", "addr:state": "OK", "addr:street": "East 58th Street South", "building": "detached", "source": "INCOG;microsoft/BuildingFootprints"}}}, {"type": "Feature", "geometry": {"type": "Polygon", "coordinates": [[[-95.8771262, 36.0793144], [-95.8771731, 36.0794653], [-95.8772481, 36.07945], [-95.877225, 36.0793759], [-95.8772901, 36.0793627], [-95.8772663, 36.0792859], [-95.8771262, 36.0793144]]]}, "properties": {"osm_id": 1318282033, "building": "detached", "name": "", "height": null, "height_m": null, "levels": null, "tract_id": "40143006907", "tract_name": "69.07", "tags": {"addr:city": "Tulsa", "addr:country": "US", "addr:housenumber": "8815", "addr:postcode": "74145", "addr:state": "OK", "addr:street": "East 58th Street South", "building": "detached", "source": "microsoft/BuildingFootprints;INCOG"}}}, {"type": "Feature", "geometry": {"type": "Polygon", "coordinates": [[[-95.8759935, 36.0790117], [-95.8760579, 36.0790108], [-95.8760586, 36.0790411], [-95.8761646, 36.0790396], [-95.8761616, 36.0789052], [-95.8759912, 36.0789077], [-95.8759935, 36.0790117]]]}, "properties": {"osm_id": 1318282034, "building": "detached", "name": "", "height": null, "height_m": null, "levels": null, "tract_id": "40143006907", "tract_name": "69.07", "tags": {"addr:city": "Tulsa", "addr:country": "US", "addr:housenumber": "8922", "addr:postcode": "74145", "addr:state": "OK", "addr:street": "East 58th Street South", "building": "detached", "source": "INCOG;microsoft/BuildingFootprints"}}}, {"type": "Feature", "geometry": {"type": "Polygon", "coordinates": [[[-95.877705, 36.0785489], [-95.8777908, 36.0785481], [-95.8777916, 36.0786066], [-95.8778706, 36.0786059], [-95.8778686, 36.0784664], [-95.8778177, 36.0784669], [-95.8778167, 36.0783997], [-95.8777416, 36.0784004], [-95.8777425, 36.0784662], [-95.8777038, 36.0784666], [-95.877705, 36.0785489]]]}, "properties": {"osm_id": 1318282035, "building": "detached", "name": "", "height": null, "height_m": null, "levels": null, "tract_id": "40143006907", "tract_name": "69.07", "tags": {"addr:city": "Tulsa", "addr:country": "US", "addr:housenumber": "8806", "addr:postcode": "74145", "addr:state": "OK", "addr:street": "East 58th Street South", "building": "detached", "source": "INCOG;microsoft/BuildingFootprints"}}}, {"type": "Feature", "geometry": {"type": "Polygon", "coordinates": [[[-95.8729016, 36.079653], [-95.8729657, 36.0797792], [-95.8730988, 36.079735], [-95.8730348, 36.0796089], [-95.8729016, 36.079653]]]}, "properties": {"osm_id": 1318282036, "building": "detached", "name": "", "height": null, "height_m": null, "levels": null, "tract_id": "40143006907", "tract_name": "69.07", "tags": {"addr:city": "Tulsa", "addr:country": "US", "addr:housenumber": "9218", "addr:postcode": "74145", "addr:state": "OK", "addr:street": "East 58th Street South", "building": "detached", "source": "INCOG;microsoft/BuildingFootprints"}}}, {"type": "Feature", "geometry": {"type": "Polygon", "coordinates": [[[-95.8786827, 36.0785354], [-95.8786076, 36.0785369], [-95.878606, 36.0784849], [-95.8785068, 36.078487], [-95.8785106, 36.0786083], [-95.8786848, 36.0786047], [-95.8786827, 36.0785354]]]}, "properties": {"osm_id": 1318282037, "building": "detached", "name": "", "height": null, "height_m": null, "levels": null, "tract_id": "40143006907", "tract_name": "69.07", "tags": {"addr:city": "Tulsa", "addr:country": "US", "addr:housenumber": "8710", "addr:postcode": "74145", "addr:state": "OK", "addr:street": "East 58th Street South", "building": "detached", "source": "INCOG;microsoft/BuildingFootprints"}}}, {"type": "Feature", "geometry": {"type": "Polygon", "coordinates": [[[-95.8721978, 36.0799363], [-95.8720914, 36.0799694], [-95.8721358, 36.0800629], [-95.8723041, 36.0800106], [-95.8722435, 36.0798831], [-95.8721816, 36.0799023], [-95.8721978, 36.0799363]]]}, "properties": {"osm_id": 1318282038, "building": "detached", "name": "", "height": null, "height_m": null, "levels": null, "tract_id": "40143006907", "tract_name": "69.07", "tags": {"addr:city": "Tulsa", "addr:country": "US", "addr:housenumber": "9238", "addr:postcode": "74145", "addr:state": "OK", "addr:street": "East 58th Street South", "building": "detached", "source": "INCOG;microsoft/BuildingFootprints"}}}, {"type": "Feature", "geometry": {"type": "Polygon", "coordinates": [[[-95.8705388, 36.0806944], [-95.8707238, 36.080696], [-95.8707253, 36.0805865], [-95.8705402, 36.0805849], [-95.8705388, 36.0806944]]]}, "properties": {"osm_id": 1318282039, "building": "detached", "name": "", "height": null, "height_m": null, "levels": null, "tract_id": "40143006907", "tract_name": "69.07", "tags": {"addr:city": "Tulsa", "addr:country": "US", "addr:housenumber": "9279", "addr:postcode": "74145", "addr:state": "OK", "addr:street": "East 58th Street South", "building": "detached", "source": "INCOG;microsoft/BuildingFootprints"}}}, {"type": "Feature", "geometry": {"type": "Polygon", "coordinates": [[[-95.8734536, 36.0801457], [-95.8733477, 36.0799637], [-95.8732499, 36.0800009], [-95.8732852, 36.0800615], [-95.8732511, 36.0800745], [-95.8732886, 36.0801389], [-95.8733318, 36.0801224], [-95.8733649, 36.0801794], [-95.8734536, 36.0801457]]]}, "properties": {"osm_id": 1318282040, "building": "detached", "name": "", "height": null, "height_m": null, "levels": null, "tract_id": "40143006907", "tract_name": "69.07", "tags": {"addr:city": "Tulsa", "addr:country": "US", "addr:housenumber": "9215", "addr:postcode": "74145", "addr:state": "OK", "addr:street": "East 58th Street South", "building": "detached", "source": "INCOG;microsoft/BuildingFootprints"}}}, {"type": "Feature", "geometry": {"type": "Polygon", "coordinates": [[[-95.8727573, 36.0801851], [-95.8726822, 36.0802107], [-95.8726971, 36.0802393], [-95.8726175, 36.0802665], [-95.8726641, 36.0803557], [-95.8728189, 36.0803028], [-95.8727573, 36.0801851]]]}, "properties": {"osm_id": 1318282041, "building": "detached", "name": "", "height": null, "height_m": null, "levels": null, "tract_id": "40143006907", "tract_name": "69.07", "tags": {"addr:city": "Tulsa", "addr:country": "US", "addr:housenumber": "9231", "addr:postcode": "74145", "addr:state": "OK", "addr:street": "East 58th Street South", "building": "detached", "source": "INCOG;microsoft/BuildingFootprints"}}}, {"type": "Feature", "geometry": {"type": "Polygon", "coordinates": [[[-95.8781034, 36.0785938], [-95.8781858, 36.0785941], [-95.8781858, 36.0786015], [-95.8782803, 36.0786018], [-95.8782808, 36.0785021], [-95.8781038, 36.0785015], [-95.8781034, 36.0785938]]]}, "properties": {"osm_id": 1318282042, "building": "detached", "name": "", "height": null, "height_m": null, "levels": null, "tract_id": "40143006907", "tract_name": "69.07", "tags": {"addr:city": "Tulsa", "addr:country": "US", "addr:housenumber": "8722", "addr:postcode": "74145", "addr:state": "OK", "addr:street": "East 58th Street South", "building": "detached", "source": "microsoft/BuildingFootprints;INCOG"}}}, {"type": "Feature", "geometry": {"type": "Polygon", "coordinates": [[[-95.876283, 36.0790047], [-95.8762817, 36.0790342], [-95.8763594, 36.0790364], [-95.8763666, 36.0788697], [-95.8763104, 36.0788681], [-95.8763088, 36.0789049], [-95.8761989, 36.0789018], [-95.8761946, 36.0790022], [-95.876283, 36.0790047]]]}, "properties": {"osm_id": 1318282043, "building": "detached", "name": "", "height": null, "height_m": null, "levels": null, "tract_id": "40143006907", "tract_name": "69.07", "tags": {"addr:city": "Tulsa", "addr:country": "US", "addr:housenumber": "8918", "addr:postcode": "74145", "addr:state": "OK", "addr:street": "East 58th Street South", "building": "detached", "source": "INCOG;microsoft/BuildingFootprints"}}}, {"type": "Feature", "geometry": {"type": "Polygon", "coordinates": [[[-95.8705828, 36.080269], [-95.8706887, 36.0802702], [-95.870691, 36.0801477], [-95.870585, 36.0801464], [-95.8705828, 36.080269]]]}, "properties": {"osm_id": 1318282044, "building": "detached", "name": "", "height": null, "height_m": null, "levels": null, "tract_id": "40143006907", "tract_name": "69.07", "tags": {"addr:city": "Tulsa", "addr:country": "US", "addr:housenumber": "9278", "addr:postcode": "74145", "addr:state": "OK", "addr:street": "East 58th Street South", "building": "detached", "source": "INCOG;microsoft/BuildingFootprints"}}}, {"type": "Feature", "geometry": {"type": "Polygon", "coordinates": [[[-95.8725411, 36.080262], [-95.8724624, 36.0802887], [-95.8724777, 36.0803182], [-95.8723967, 36.0803456], [-95.8724436, 36.080436], [-95.8726033, 36.0803818], [-95.8725411, 36.080262]]]}, "properties": {"osm_id": 1318282045, "building": "detached", "name": "", "height": null, "height_m": null, "levels": null, "tract_id": "40143006907", "tract_name": "69.07", "tags": {"addr:city": "Tulsa", "addr:country": "US", "addr:housenumber": "9235", "addr:postcode": "74145", "addr:state": "OK", "addr:street": "East 58th Street South", "building": "detached", "source": "INCOG;microsoft/BuildingFootprints"}}}, {"type": "Feature", "geometry": {"type": "Polygon", "coordinates": [[[-95.8712305, 36.0801864], [-95.871246, 36.0802743], [-95.8714316, 36.0802528], [-95.8714161, 36.080165], [-95.8712305, 36.0801864]]]}, "properties": {"osm_id": 1318282046, "building": "detached", "name": "", "height": null, "height_m": null, "levels": null, "tract_id": "40143006907", "tract_name": "69.07", "tags": {"addr:city": "Tulsa", "addr:country": "US", "addr:housenumber": "9262", "addr:postcode": "74145", "addr:state": "OK", "addr:street": "East 58th Street South", "building": "detached", "source": "INCOG;microsoft/BuildingFootprints"}}}, {"type": "Feature", "geometry": {"type": "Polygon", "coordinates": [[[-95.8749757, 36.0796014], [-95.8749084, 36.0794283], [-95.8748181, 36.0794512], [-95.8748366, 36.0794987], [-95.8747965, 36.0795089], [-95.8748453, 36.0796345], [-95.8749757, 36.0796014]]]}, "properties": {"osm_id": 1318282047, "building": "detached", "name": "", "height": null, "height_m": null, "levels": null, "tract_id": "40143006907", "tract_name": "69.07", "tags": {"addr:city": "Tulsa", "addr:country": "US", "addr:housenumber": "8949", "addr:postcode": "74145", "addr:state": "OK", "addr:street": "East 58th Street South", "building": "detached", "source": "INCOG;microsoft/BuildingFootprints"}}}, {"type": "Feature", "geometry": {"type": "Polygon", "coordinates": [[[-95.8710142, 36.0801546], [-95.8710201, 36.0802508], [-95.8711152, 36.0802469], [-95.8711169, 36.0802751], [-95.8711919, 36.0802721], [-95.8711821, 36.0801131], [-95.8711018, 36.0801163], [-95.8711039, 36.0801509], [-95.8710142, 36.0801546]]]}, "properties": {"osm_id": 1318282048, "building": "detached", "name": "", "height": null, "height_m": null, "levels": null, "tract_id": "40143006907", "tract_name": "69.07", "tags": {"addr:city": "Tulsa", "addr:country": "US", "addr:housenumber": "9268", "addr:postcode": "74145", "addr:state": "OK", "addr:street": "East 58th Street South", "building": "detached", "source": "INCOG;microsoft/BuildingFootprints"}}}, {"type": "Feature", "geometry": {"type": "Polygon", "coordinates": [[[-95.8739175, 36.079878], [-95.8739316, 36.0799033], [-95.8740164, 36.0798725], [-95.8739464, 36.0797461], [-95.87378, 36.0798064], [-95.873836, 36.0799075], [-95.8739175, 36.079878]]]}, "properties": {"osm_id": 1318282049, "building": "detached", "name": "", "height": null, "height_m": null, "levels": null, "tract_id": "40143006907", "tract_name": "69.07", "tags": {"addr:city": "Tulsa", "addr:country": "US", "addr:housenumber": "9123", "addr:postcode": "74145", "addr:state": "OK", "addr:street": "East 58th Street South", "building": "detached", "source": "INCOG;microsoft/BuildingFootprints"}}}, {"type": "Feature", "geometry": {"type": "Polygon", "coordinates": [[[-95.8721656, 36.08053], [-95.8721225, 36.0804171], [-95.8720338, 36.0804393], [-95.8720418, 36.0804602], [-95.872018, 36.0804662], [-95.8720081, 36.0804402], [-95.8719173, 36.0804628], [-95.8719691, 36.0805984], [-95.8720303, 36.0805832], [-95.8720235, 36.0805654], [-95.8721656, 36.08053]]]}, "properties": {"osm_id": 1318282050, "building": "detached", "name": "", "height": null, "height_m": null, "levels": null, "tract_id": "40143006907", "tract_name": "69.07", "tags": {"addr:city": "Tulsa", "addr:country": "US", "addr:housenumber": "9247", "addr:postcode": "74145", "addr:state": "OK", "addr:street": "East 58th Street South", "building": "detached", "source": "INCOG;microsoft/BuildingFootprints"}}}, {"type": "Feature", "geometry": {"type": "Polygon", "coordinates": [[[-95.871317, 36.0805624], [-95.8713267, 36.0806213], [-95.8712314, 36.0806315], [-95.8712462, 36.0807213], [-95.8714421, 36.0807003], [-95.8714176, 36.0805516], [-95.871317, 36.0805624]]]}, "properties": {"osm_id": 1318282051, "building": "detached", "name": "", "height": null, "height_m": null, "levels": null, "tract_id": "40143006907", "tract_name": "69.07", "tags": {"addr:city": "Tulsa", "addr:country": "US", "addr:housenumber": "9263", "addr:postcode": "74145", "addr:state": "OK", "addr:street": "East 58th Street South", "building": "detached", "source": "INCOG;microsoft/BuildingFootprints"}}}, {"type": "Feature", "geometry": {"type": "Polygon", "coordinates": [[[-95.8724232, 36.0799396], [-95.8724379, 36.0799683], [-95.8725077, 36.0799448], [-95.8724345, 36.0798025], [-95.8723659, 36.0798256], [-95.8723792, 36.0798514], [-95.87229, 36.0798814], [-95.8723351, 36.0799692], [-95.8724232, 36.0799396]]]}, "properties": {"osm_id": 1318282052, "building": "detached", "name": "", "height": null, "height_m": null, "levels": null, "tract_id": "40143006907", "tract_name": "69.07", "tags": {"addr:city": "Tulsa", "addr:country": "US", "addr:housenumber": "9232", "addr:postcode": "74145", "addr:state": "OK", "addr:street": "East 58th Street South", "building": "detached", "source": "INCOG;microsoft/BuildingFootprints"}}}, {"type": "Feature", "geometry": {"type": "Polygon", "coordinates": [[[-95.8707854, 36.0801722], [-95.870787, 36.0802589], [-95.870897, 36.0802575], [-95.8708975, 36.0802835], [-95.8709752, 36.0802826], [-95.8709731, 36.0801699], [-95.8707854, 36.0801722]]]}, "properties": {"osm_id": 1318282053, "building": "detached", "name": "", "height": null, "height_m": null, "levels": null, "tract_id": "40143006907", "tract_name": "69.07", "tags": {"addr:city": "Tulsa", "addr:country": "US", "addr:housenumber": "9274", "addr:postcode": "74145", "addr:state": "OK", "addr:street": "East 58th Street South", "building": "detached", "source": "INCOG;microsoft/BuildingFootprints"}}}, {"type": "Feature", "geometry": {"type": "Polygon", "coordinates": [[[-95.8765633, 36.0789036], [-95.8763958, 36.0789017], [-95.8763939, 36.0790044], [-95.8764583, 36.0790051], [-95.8764577, 36.0790346], [-95.8765609, 36.0790358], [-95.8765633, 36.0789036]]]}, "properties": {"osm_id": 1318282054, "building": "detached", "name": "", "height": null, "height_m": null, "levels": null, "tract_id": "40143006907", "tract_name": "69.07", "tags": {"addr:city": "Tulsa", "addr:country": "US", "addr:housenumber": "8912", "addr:postcode": "74145", "addr:state": "OK", "addr:street": "East 58th Street South", "building": "detached", "source": "INCOG;microsoft/BuildingFootprints"}}}, {"type": "Feature", "geometry": {"type": "Polygon", "coordinates": [[[-95.8729202, 36.0798003], [-95.8728696, 36.0797025], [-95.8727007, 36.0797597], [-95.8727513, 36.0798574], [-95.8729202, 36.0798003]]]}, "properties": {"osm_id": 1318282055, "building": "detached", "name": "", "height": null, "height_m": null, "levels": null, "tract_id": "40143006907", "tract_name": "69.07", "tags": {"addr:city": "Tulsa", "addr:country": "US", "addr:housenumber": "9222", "addr:postcode": "74145", "addr:state": "OK", "addr:street": "East 58th Street South", "building": "detached", "source": "INCOG;microsoft/BuildingFootprints"}}}, {"type": "Feature", "geometry": {"type": "Polygon", "coordinates": [[[-95.8730009, 36.080137], [-95.8729184, 36.0801645], [-95.8729023, 36.0801331], [-95.8728405, 36.0801537], [-95.8728585, 36.0801889], [-95.872815, 36.0802035], [-95.8728505, 36.0802728], [-95.8728791, 36.0802633], [-95.8729071, 36.0803179], [-95.8730067, 36.0802846], [-95.8729764, 36.0802254], [-95.8730359, 36.0802054], [-95.8730009, 36.080137]]]}, "properties": {"osm_id": 1318282056, "building": "detached", "name": "", "height": null, "height_m": null, "levels": null, "tract_id": "40143006907", "tract_name": "69.07", "tags": {"addr:city": "Tulsa", "addr:country": "US", "addr:housenumber": "9225", "addr:postcode": "74145", "addr:state": "OK", "addr:street": "East 58th Street South", "building": "detached", "source": "INCOG;microsoft/BuildingFootprints"}}}, {"type": "Feature", "geometry": {"type": "Polygon", "coordinates": [[[-95.8742087, 36.0798078], [-95.8741415, 36.0796816], [-95.8740668, 36.0797076], [-95.8740824, 36.0797368], [-95.8739873, 36.0797699], [-95.8740389, 36.0798668], [-95.8742087, 36.0798078]]]}, "properties": {"osm_id": 1318282057, "building": "detached", "name": "", "height": null, "height_m": null, "levels": null, "tract_id": "40143006907", "tract_name": "69.07", "tags": {"addr:city": "Tulsa", "addr:country": "US", "addr:housenumber": "9117", "addr:postcode": "74145", "addr:state": "OK", "addr:street": "East 58th Street South", "building": "detached", "source": "INCOG;microsoft/BuildingFootprints"}}}, {"type": "Feature", "geometry": {"type": "Polygon", "coordinates": [[[-95.8757717, 36.0794457], [-95.8757697, 36.0793317], [-95.8755873, 36.0793339], [-95.8755894, 36.0794478], [-95.8757717, 36.0794457]]]}, "properties": {"osm_id": 1318282058, "building": "detached", "name": "", "height": null, "height_m": null, "levels": null, "tract_id": "40143006907", "tract_name": "69.07", "tags": {"addr:city": "Tulsa", "addr:country": "US", "addr:housenumber": "8931", "addr:postcode": "74145", "addr:state": "OK", "addr:street": "East 58th Street South", "building": "detached", "source": "INCOG;microsoft/BuildingFootprints"}}}, {"type": "Feature", "geometry": {"type": "Polygon", "coordinates": [[[-95.8702568, 36.0805873], [-95.8701803, 36.0805871], [-95.8701802, 36.0806196], [-95.8700876, 36.0806193], [-95.8700872, 36.0807169], [-95.8701757, 36.0807171], [-95.8701756, 36.0807475], [-95.8702561, 36.0807477], [-95.8702568, 36.0805873]]]}, "properties": {"osm_id": 1318282059, "building": "detached", "name": "", "height": null, "height_m": null, "levels": null, "tract_id": "40143006907", "tract_name": "69.07", "tags": {"addr:city": "Tulsa", "addr:country": "US", "addr:housenumber": "9407", "addr:postcode": "74145", "addr:state": "OK", "addr:street": "East 58th Street South", "building": "detached", "source": "INCOG;microsoft/BuildingFootprints"}}}, {"type": "Feature", "geometry": {"type": "Polygon", "coordinates": [[[-95.8718884, 36.0801567], [-95.8718339, 36.0800024], [-95.8717644, 36.0800184], [-95.871774, 36.0800454], [-95.8716686, 36.0800698], [-95.8717058, 36.080175], [-95.8718013, 36.080153], [-95.8718091, 36.080175], [-95.8718884, 36.0801567]]]}, "properties": {"osm_id": 1318282060, "building": "detached", "name": "", "height": null, "height_m": null, "levels": null, "tract_id": "40143006907", "tract_name": "69.07", "tags": {"addr:city": "Tulsa", "addr:country": "US", "addr:housenumber": "9248", "addr:postcode": "74145", "addr:state": "OK", "addr:street": "East 58th Street South", "building": "detached", "source": "INCOG;microsoft/BuildingFootprints"}}}, {"type": "Feature", "geometry": {"type": "Polygon", "coordinates": [[[-95.8709922, 36.0806089], [-95.8710037, 36.0807093], [-95.8712012, 36.0806945], [-95.8711873, 36.0805726], [-95.8711059, 36.0805787], [-95.8711084, 36.0806002], [-95.8709922, 36.0806089]]]}, "properties": {"osm_id": 1318282061, "building": "detached", "name": "", "height": null, "height_m": null, "levels": null, "tract_id": "40143006907", "tract_name": "69.07", "tags": {"addr:city": "Tulsa", "addr:country": "US", "addr:housenumber": "9267", "addr:postcode": "74145", "addr:state": "OK", "addr:street": "East 58th Street South", "building": "detached", "source": "INCOG;microsoft/BuildingFootprints"}}}, {"type": "Feature", "geometry": {"type": "Polygon", "coordinates": [[[-95.878719, 36.0786243], [-95.878809, 36.0786234], [-95.8788095, 36.0786625], [-95.87889, 36.0786617], [-95.8788883, 36.0785425], [-95.8787179, 36.0785441], [-95.878719, 36.0786243]]]}, "properties": {"osm_id": 1318282062, "building": "detached", "name": "", "height": null, "height_m": null, "levels": null, "tract_id": "40143006907", "tract_name": "69.07", "tags": {"addr:city": "Tulsa", "addr:country": "US", "addr:housenumber": "8706", "addr:postcode": "74145", "addr:state": "OK", "addr:street": "East 58th Street South", "building": "detached", "source": "microsoft/BuildingFootprints;INCOG"}}}, {"type": "Feature", "geometry": {"type": "Polygon", "coordinates": [[[-95.8763143, 36.0793656], [-95.8762124, 36.0793643], [-95.8762103, 36.0794705], [-95.876331, 36.079472], [-95.8763303, 36.0795089], [-95.876392, 36.0795096], [-95.8763953, 36.0793341], [-95.8763149, 36.0793331], [-95.8763143, 36.0793656]]]}, "properties": {"osm_id": 1318282063, "building": "detached", "name": "", "height": null, "height_m": null, "levels": null, "tract_id": "40143006907", "tract_name": "69.07", "tags": {"addr:city": "Tulsa", "addr:country": "US", "addr:housenumber": "8917", "addr:postcode": "74145", "addr:state": "OK", "addr:street": "East 58th Street South", "building": "detached", "source": "INCOG;microsoft/BuildingFootprints"}}}, {"type": "Feature", "geometry": {"type": "Polygon", "coordinates": [[[-95.8759788, 36.0793647], [-95.8758729, 36.0793659], [-95.8758724, 36.0793334], [-95.8757946, 36.0793343], [-95.875797, 36.079473], [-95.8759806, 36.0794709], [-95.8759788, 36.0793647]]]}, "properties": {"osm_id": 1318282064, "building": "detached", "name": "", "height": null, "height_m": null, "levels": null, "tract_id": "40143006907", "tract_name": "69.07", "tags": {"addr:city": "Tulsa", "addr:country": "US", "addr:housenumber": "8925", "addr:postcode": "74145", "addr:state": "OK", "addr:street": "East 58th Street South", "building": "detached", "source": "INCOG;microsoft/BuildingFootprints"}}}, {"type": "Feature", "geometry": {"type": "Polygon", "coordinates": [[[-95.8721617, 36.0804236], [-95.8721935, 36.080497], [-95.8723774, 36.0804449], [-95.8723331, 36.0803426], [-95.8721921, 36.0803825], [-95.8722047, 36.0804114], [-95.8721617, 36.0804236]]]}, "properties": {"osm_id": 1318282065, "building": "detached", "name": "", "height": null, "height_m": null, "levels": null, "tract_id": "40143006907", "tract_name": "69.07", "tags": {"addr:city": "Tulsa", "addr:country": "US", "addr:housenumber": "9241", "addr:postcode": "74145", "addr:state": "OK", "addr:street": "East 58th Street South", "building": "detached", "source": "INCOG;microsoft/BuildingFootprints"}}}, {"type": "Feature", "geometry": {"type": "Polygon", "coordinates": [[[-95.8741836, 36.0797048], [-95.874236, 36.0797959], [-95.8744016, 36.0797337], [-95.8743299, 36.0796091], [-95.874254, 36.0796376], [-95.8742733, 36.0796711], [-95.8741836, 36.0797048]]]}, "properties": {"osm_id": 1318282066, "building": "detached", "name": "", "height": null, "height_m": null, "levels": null, "tract_id": "40143006907", "tract_name": "69.07", "tags": {"addr:city": "Tulsa", "addr:country": "US", "addr:housenumber": "9111", "addr:postcode": "74145", "addr:state": "OK", "addr:street": "East 58th Street South", "building": "detached", "source": "INCOG;microsoft/BuildingFootprints"}}}, {"type": "Feature", "geometry": {"type": "Polygon", "coordinates": [[[-95.8750908, 36.078922], [-95.8750318, 36.0789226], [-95.8750322, 36.078953], [-95.8749089, 36.0789542], [-95.8749105, 36.0790561], [-95.874987, 36.0790553], [-95.8749876, 36.0790921], [-95.8750934, 36.0790911], [-95.8750908, 36.078922]]]}, "properties": {"osm_id": 1318282067, "building": "detached", "name": "", "height": null, "height_m": null, "levels": null, "tract_id": "40143006907", "tract_name": "69.07", "tags": {"addr:city": "Tulsa", "addr:country": "US", "addr:housenumber": "8946", "addr:postcode": "74145", "addr:state": "OK", "addr:street": "East 58th Street South", "building": "detached", "source": "INCOG;microsoft/BuildingFootprints"}}}, {"type": "Feature", "geometry": {"type": "Polygon", "coordinates": [[[-95.872493, 36.0798206], [-95.8725483, 36.0799302], [-95.8726161, 36.0799079], [-95.8725917, 36.0798596], [-95.8726182, 36.0798508], [-95.8726412, 36.0798964], [-95.8727125, 36.0798729], [-95.8726332, 36.0797158], [-95.8725148, 36.0797549], [-95.8725401, 36.079805], [-95.872493, 36.0798206]]]}, "properties": {"osm_id": 1318282068, "building": "detached", "name": "", "height": null, "height_m": null, "levels": null, "tract_id": "40143006907", "tract_name": "69.07", "tags": {"addr:city": "Tulsa", "addr:country": "US", "addr:housenumber": "9228", "addr:postcode": "74145", "addr:state": "OK", "addr:street": "East 58th Street South", "building": "detached", "source": "INCOG;microsoft/BuildingFootprints"}}}, {"type": "Feature", "geometry": {"type": "Polygon", "coordinates": [[[-95.8703087, 36.0806096], [-95.87031, 36.0807062], [-95.8704977, 36.0807045], [-95.8704961, 36.0805841], [-95.870417, 36.0805848], [-95.8704173, 36.0806086], [-95.8703087, 36.0806096]]]}, "properties": {"osm_id": 1318282069, "building": "detached", "name": "", "height": null, "height_m": null, "levels": null, "tract_id": "40143006907", "tract_name": "69.07", "tags": {"addr:city": "Tulsa", "addr:country": "US", "addr:housenumber": "9401", "addr:postcode": "74145", "addr:state": "OK", "addr:street": "East 58th Street South", "building": "detached", "source": "INCOG;microsoft/BuildingFootprints"}}}, {"type": "Feature", "geometry": {"type": "Polygon", "coordinates": [[[-95.8744423, 36.0796036], [-95.8743739, 36.0796292], [-95.8744245, 36.0797174], [-95.8745812, 36.0796587], [-95.8745157, 36.0795445], [-95.8744274, 36.0795776], [-95.8744423, 36.0796036]]]}, "properties": {"osm_id": 1318282070, "building": "detached", "name": "", "height": null, "height_m": null, "levels": null, "tract_id": "40143006907", "tract_name": "69.07", "tags": {"addr:city": "Tulsa", "addr:country": "US", "addr:housenumber": "9107", "addr:postcode": "74145", "addr:state": "OK", "addr:street": "East 58th Street South", "building": "detached", "source": "INCOG;microsoft/BuildingFootprints"}}}, {"type": "Feature", "geometry": {"type": "Polygon", "coordinates": [[[-95.8760059, 36.0794902], [-95.8761868, 36.0794921], [-95.8761894, 36.0793339], [-95.8760929, 36.0793329], [-95.8760919, 36.0793892], [-95.8760075, 36.0793883], [-95.8760059, 36.0794902]]]}, "properties": {"osm_id": 1318282071, "building": "detached", "name": "", "height": null, "height_m": null, "levels": null, "tract_id": "40143006907", "tract_name": "69.07", "tags": {"addr:city": "Tulsa", "addr:country": "US", "addr:housenumber": "8921", "addr:postcode": "74145", "addr:state": "OK", "addr:street": "East 58th Street South", "building": "detached", "source": "INCOG;microsoft/BuildingFootprints"}}}, {"type": "Feature", "geometry": {"type": "Polygon", "coordinates": [[[-95.8769737, 36.078896], [-95.8767968, 36.0788982], [-95.8767987, 36.0789993], [-95.8768726, 36.0789983], [-95.8768733, 36.079036], [-95.8769764, 36.0790347], [-95.8769737, 36.078896]]]}, "properties": {"osm_id": 1318282072, "building": "detached", "name": "", "height": null, "height_m": null, "levels": null, "tract_id": "40143006907", "tract_name": "69.07", "tags": {"addr:city": "Tulsa", "addr:country": "US", "addr:housenumber": "8902", "addr:postcode": "74145", "addr:state": "OK", "addr:street": "East 58th Street South", "building": "detached", "source": "INCOG;microsoft/BuildingFootprints"}}}, {"type": "Feature", "geometry": {"type": "Polygon", "coordinates": [[[-95.8736652, 36.0800257], [-95.8737502, 36.0799976], [-95.8737662, 36.0800292], [-95.873849, 36.0800019], [-95.8737574, 36.0798207], [-95.8736598, 36.0798529], [-95.8736879, 36.0799086], [-95.8736178, 36.0799318], [-95.8736652, 36.0800257]]]}, "properties": {"osm_id": 1318282073, "building": "detached", "name": "", "height": null, "height_m": null, "levels": null, "tract_id": "40143006907", "tract_name": "69.07", "tags": {"addr:city": "Tulsa", "addr:country": "US", "addr:housenumber": "9203", "addr:postcode": "74145", "addr:state": "OK", "addr:street": "East 58th Street South", "building": "detached", "source": "INCOG;microsoft/BuildingFootprints"}}}, {"type": "Feature", "geometry": {"type": "Polygon", "coordinates": [[[-95.8735569, 36.0798916], [-95.8734689, 36.0799212], [-95.8735012, 36.079984], [-95.8734395, 36.0800048], [-95.87348, 36.0800834], [-95.8736297, 36.080033], [-95.8735569, 36.0798916]]]}, "properties": {"osm_id": 1318282074, "building": "detached", "name": "", "height": null, "height_m": null, "levels": null, "tract_id": "40143006907", "tract_name": "69.07", "tags": {"addr:city": "Tulsa", "addr:country": "US", "addr:housenumber": "9209", "addr:postcode": "74145", "addr:state": "OK", "addr:street": "East 58th Street South", "building": "detached", "source": "INCOG;microsoft/BuildingFootprints"}}}, {"type": "Feature", "geometry": {"type": "Polygon", "coordinates": [[[-95.8715729, 36.0805307], [-95.8714696, 36.0805497], [-95.8715113, 36.0806981], [-95.8716669, 36.0806696], [-95.8716446, 36.0805902], [-95.8715923, 36.0805998], [-95.8715729, 36.0805307]]]}, "properties": {"osm_id": 1318282075, "building": "detached", "name": "", "height": null, "height_m": null, "levels": null, "tract_id": "40143006907", "tract_name": "69.07", "tags": {"addr:city": "Tulsa", "addr:country": "US", "addr:housenumber": "9257", "addr:postcode": "74145", "addr:state": "OK", "addr:street": "East 58th Street South", "building": "detached", "source": "INCOG;microsoft/BuildingFootprints"}}}, {"type": "Feature", "geometry": {"type": "Polygon", "coordinates": [[[-95.8741245, 36.0792637], [-95.8741764, 36.0793628], [-95.874358, 36.0793008], [-95.8743061, 36.0792016], [-95.8741245, 36.0792637]]]}, "properties": {"osm_id": 1318282076, "building": "detached", "name": "", "height": null, "height_m": null, "levels": null, "tract_id": "40143006907", "tract_name": "69.07", "tags": {"addr:city": "Tulsa", "addr:country": "US", "addr:housenumber": "9108", "addr:postcode": "74145", "addr:state": "OK", "addr:street": "East 58th Street South", "building": "detached", "source": "INCOG;microsoft/BuildingFootprints"}}}, {"type": "Feature", "geometry": {"type": "Polygon", "coordinates": [[[-95.8707654, 36.0806482], [-95.8707671, 36.0807349], [-95.8709012, 36.0807331], [-95.8709018, 36.0807634], [-95.8709554, 36.0807627], [-95.8709518, 36.0805829], [-95.870866, 36.080584], [-95.8708673, 36.0806468], [-95.8707654, 36.0806482]]]}, "properties": {"osm_id": 1318282077, "building": "detached", "name": "", "height": null, "height_m": null, "levels": null, "tract_id": "40143006907", "tract_name": "69.07", "tags": {"addr:city": "Tulsa", "addr:country": "US", "addr:housenumber": "9273", "addr:postcode": "74145", "addr:state": "OK", "addr:street": "East 58th Street South", "building": "detached", "source": "INCOG;microsoft/BuildingFootprints"}}}, {"type": "Feature", "geometry": {"type": "Polygon", "coordinates": [[[-95.8766116, 36.0789507], [-95.8766095, 36.0790331], [-95.8767743, 36.0790358], [-95.8767781, 36.0788841], [-95.876687, 36.0788826], [-95.8766852, 36.0789519], [-95.8766116, 36.0789507]]]}, "properties": {"osm_id": 1318282078, "building": "detached", "name": "", "height": null, "height_m": null, "levels": null, "tract_id": "40143006907", "tract_name": "69.07", "tags": {"addr:city": "Tulsa", "addr:country": "US", "addr:housenumber": "8906", "addr:postcode": "74145", "addr:state": "OK", "addr:street": "East 58th Street South", "building": "detached", "source": "microsoft/BuildingFootprints;INCOG"}}}, {"type": "Feature", "geometry": {"type": "Polygon", "coordinates": [[[-95.87339, 36.0794304], [-95.8732671, 36.0794723], [-95.8733306, 36.0795937], [-95.8733852, 36.0795751], [-95.8734063, 36.0796155], [-95.8734746, 36.0795922], [-95.87339, 36.0794304]]]}, "properties": {"osm_id": 1318282079, "building": "detached", "name": "", "height": null, "height_m": null, "levels": null, "tract_id": "40143006907", "tract_name": "69.07", "tags": {"addr:city": "Tulsa", "addr:country": "US", "addr:housenumber": "9206", "addr:postcode": "74145", "addr:state": "OK", "addr:street": "East 58th Street South", "building": "detached", "source": "INCOG;microsoft/BuildingFootprints"}}}, {"type": "Feature", "geometry": {"type": "Polygon", "coordinates": [[[-95.8751303, 36.0790254], [-95.8752349, 36.0790248], [-95.8752352, 36.0790573], [-95.875313, 36.0790569], [-95.8753118, 36.0789203], [-95.8751294, 36.0789213], [-95.8751303, 36.0790254]]]}, "properties": {"osm_id": 1318282080, "building": "detached", "name": "", "height": null, "height_m": null, "levels": null, "tract_id": "40143006907", "tract_name": "69.07", "tags": {"addr:city": "Tulsa", "addr:country": "US", "addr:housenumber": "8942", "addr:postcode": "74145", "addr:state": "OK", "addr:street": "East 58th Street South", "building": "detached", "source": "INCOG;microsoft/BuildingFootprints"}}}, {"type": "Feature", "geometry": {"type": "Polygon", "coordinates": [[[-95.8717299, 36.0806211], [-95.8718236, 36.0805987], [-95.8718295, 36.0806146], [-95.8719158, 36.0805939], [-95.8718712, 36.0804724], [-95.8717997, 36.0804895], [-95.8718077, 36.0805114], [-95.8716992, 36.0805374], [-95.8717299, 36.0806211]]]}, "properties": {"osm_id": 1318282081, "building": "detached", "name": "", "height": null, "height_m": null, "levels": null, "tract_id": "40143006907", "tract_name": "69.07", "tags": {"addr:city": "Tulsa", "addr:country": "US", "addr:housenumber": "9253", "addr:postcode": "74145", "addr:state": "OK", "addr:street": "East 58th Street South", "building": "detached", "source": "INCOG;microsoft/BuildingFootprints"}}}, {"type": "Feature", "geometry": {"type": "Polygon", "coordinates": [[[-95.8755653, 36.0790333], [-95.8757557, 36.0790353], [-95.8757571, 36.0789464], [-95.8755667, 36.0789444], [-95.8755653, 36.0790333]]]}, "properties": {"osm_id": 1318282082, "building": "detached", "name": "", "height": null, "height_m": null, "levels": null, "tract_id": "40143006907", "tract_name": "69.07", "tags": {"addr:city": "Tulsa", "addr:country": "US", "addr:housenumber": "8932", "addr:postcode": "74145", "addr:state": "OK", "addr:street": "East 58th Street South", "building": "detached", "source": "microsoft/BuildingFootprints;INCOG"}}}, {"type": "Feature", "geometry": {"type": "Polygon", "coordinates": [[[-95.8746391, 36.0795015], [-95.874652, 36.0795337], [-95.8745815, 36.0795521], [-95.87462, 36.0796483], [-95.8747827, 36.0796058], [-95.8747314, 36.0794774], [-95.8746391, 36.0795015]]]}, "properties": {"osm_id": 1318282083, "building": "detached", "name": "", "height": null, "height_m": null, "levels": null, "tract_id": "40143006907", "tract_name": "69.07", "tags": {"addr:city": "Tulsa", "addr:country": "US", "addr:housenumber": "9101", "addr:postcode": "74145", "addr:state": "OK", "addr:street": "East 58th Street South", "building": "detached", "source": "INCOG;microsoft/BuildingFootprints"}}}, {"type": "Feature", "geometry": {"type": "Polygon", "coordinates": [[[-95.87146, 36.0801089], [-95.8714903, 36.0802114], [-95.8715538, 36.0801991], [-95.8715623, 36.0802278], [-95.8716688, 36.0802072], [-95.87163, 36.080076], [-95.87146, 36.0801089]]]}, "properties": {"osm_id": 1318282084, "building": "detached", "name": "", "height": null, "height_m": null, "levels": null, "tract_id": "40143006907", "tract_name": "69.07", "tags": {"addr:city": "Tulsa", "addr:country": "US", "addr:housenumber": "9256", "addr:postcode": "74145", "addr:state": "OK", "addr:street": "East 58th Street South", "building": "detached", "source": "INCOG;microsoft/BuildingFootprints"}}}, {"type": "Feature", "geometry": {"type": "Polygon", "coordinates": [[[-95.8790869, 36.0785325], [-95.8789823, 36.0785337], [-95.8789856, 36.0787266], [-95.8790648, 36.0787257], [-95.8790633, 36.0786355], [-95.8790886, 36.0786352], [-95.8790869, 36.0785325]]]}, "properties": {"osm_id": 1318282085, "building": "detached", "name": "", "height": null, "height_m": null, "levels": null, "tract_id": "40143006907", "tract_name": "69.07", "tags": {"addr:city": "Tulsa", "addr:country": "US", "addr:housenumber": "8702", "addr:postcode": "74145", "addr:state": "OK", "addr:street": "East 58th Street South", "building": "detached", "source": "INCOG;microsoft/BuildingFootprints"}}}, {"type": "Feature", "geometry": {"type": "Polygon", "coordinates": [[[-95.8792948, 36.0813078], [-95.8792167, 36.0813545], [-95.8792962, 36.0814414], [-95.8793743, 36.0813947], [-95.8792948, 36.0813078]]]}, "properties": {"osm_id": 1318282086, "building": "yes", "name": "", "height": null, "height_m": null, "levels": null, "tract_id": "40143006907", "tract_name": "69.07", "tags": {"building": "yes", "source": "microsoft/BuildingFootprints"}}}, {"type": "Feature", "geometry": {"type": "Polygon", "coordinates": [[[-95.8795928, 36.0801748], [-95.8795102, 36.0800845], [-95.8793758, 36.0801648], [-95.8794583, 36.0802551], [-95.8795928, 36.0801748]]]}, "properties": {"osm_id": 1318282087, "building": "yes", "name": "", "height": null, "height_m": null, "levels": null, "tract_id": "40143006907", "tract_name": "69.07", "tags": {"addr:city": "Tulsa", "addr:country": "US", "addr:housenumber": "8533", "addr:postcode": "74145", "addr:state": "OK", "addr:street": "East 58th Street South", "building": "yes", "source": "INCOG;microsoft/BuildingFootprints"}}}, {"type": "Feature", "geometry": {"type": "Polygon", "coordinates": [[[-95.8779037, 36.0786095], [-95.8779922, 36.0786084], [-95.877991, 36.078552], [-95.8780742, 36.0785509], [-95.8780727, 36.0784751], [-95.8780351, 36.0784756], [-95.8780346, 36.0784496], [-95.8779676, 36.0784504], [-95.8779681, 36.0784764], [-95.877901, 36.0784773], [-95.8779037, 36.0786095]]]}, "properties": {"osm_id": 1318282088, "building": "detached", "name": "", "height": null, "height_m": null, "levels": null, "tract_id": "40143006907", "tract_name": "69.07", "tags": {"addr:city": "Tulsa", "addr:country": "US", "addr:housenumber": "8802", "addr:postcode": "74145", "addr:state": "OK", "addr:street": "East 58th Street South", "building": "detached", "source": "INCOG;microsoft/BuildingFootprints"}}}, {"type": "Feature", "geometry": {"type": "Polygon", "coordinates": [[[-95.8855757, 36.0888295], [-95.8856474, 36.0887703], [-95.88564, 36.0887644], [-95.8857238, 36.0886953], [-95.8857559, 36.0887208], [-95.8858532, 36.0886405], [-95.8858166, 36.0886115], [-95.8858731, 36.0885649], [-95.8857735, 36.088486], [-95.8857136, 36.0885354], [-95.8856698, 36.0885008], [-95.88556, 36.0885914], [-95.8856159, 36.0886357], [-95.8854764, 36.0887509], [-95.8855757, 36.0888295]]]}, "properties": {"osm_id": 1422329834, "building": "commercial", "name": "", "height": null, "height_m": null, "levels": null, "tract_id": "40143006907", "tract_name": "69.07", "tags": {"addr:city": "Tulsa", "addr:country": "US", "addr:housenumber": "5111", "addr:postcode": "74145", "addr:state": "OK", "addr:street": "South Memorial Drive East", "building": "commercial", "shop": "funeral_directors"}}}, {"type": "Feature", "geometry": {"type": "Polygon", "coordinates": [[[-95.8859032, 36.0892783], [-95.8859771, 36.0893362], [-95.8858079, 36.0894772], [-95.8857933, 36.0894658], [-95.8857513, 36.0895009], [-95.8856919, 36.0894544], [-95.8859032, 36.0892783]]]}, "properties": {"osm_id": 1433684129, "building": "yes", "name": "", "height": null, "height_m": null, "levels": null, "tract_id": "40143006907", "tract_name": "69.07", "tags": {"building": "yes"}}}]}