{"type": "FeatureCollection", "features": [{"type": "Feature", "geometry": {"type": "Polygon", "coordinates": [[[-95.3407045, 35.740288], [-95.3410019, 35.7402858], [-95.3410577, 35.7402387], [-95.3410724, 35.7402028], [-95.3410728, 35.7401669], [-95.3412782, 35.7401658], [-95.3412758, 35.740308], [-95.3412324, 35.7403092], [-95.3412317, 35.7403235], [-95.3411469, 35.7403242], [-95.3410159, 35.7404114], [-95.340703, 35.7404113], [-95.3407045, 35.740288]]]}, "properties": {"osm_id": 1055477201, "building": "yes", "name": "Casey's General Store", "height": null, "height_m": null, "levels": null, "tract_id": "40101000902", "tract_name": "9.02", "tags": {"addr:city": "Muskogee", "addr:housenumber": "2315", "addr:postcode": "74403", "addr:state": "OK", "addr:street": "Chandler Road", "amenity": "fuel", "brand": "Casey's General Store", "brand:wikidata": "Q2940968", "building": "yes", "check_date": "2025-08-16", "layer": "1", "name": "Casey's General Store", "opening_hours": "24/7", "payment:apple_pay": "yes", "payment:cash": "yes", "payment:contactless": "yes", "payment:credit_cards": "yes", "payment:debit_cards": "yes"}}}, {"type": "Feature", "geometry": {"type": "Polygon", "coordinates": [[[-95.3417542, 35.7314065], [-95.3412499, 35.7314087], [-95.3412499, 35.7311256], [-95.3417515, 35.7311278], [-95.3417569, 35.731265], [-95.3418105, 35.7312671], [-95.3418078, 35.7313412], [-95.3417569, 35.7313433], [-95.3417542, 35.7314065]]]}, "properties": {"osm_id": 1171263063, "building": "yes", "name": "Green Country Lanes", "height": null, "height_m": null, "levels": null, "tract_id": "40101000902", "tract_name": "9.02", "tags": {"addr:city": "Muskogee", "addr:housenumber": "811", "addr:postcode": "74403", "addr:state": "OK", "addr:street": "South York Street", "building": "yes", "check_date": "2025-08-15", "internet_access": "no", "leisure": "bowling_alley", "name": "Green Country Lanes", "payment:cash": "yes", "payment:credit_cards": "yes", "payment:debit_cards": "yes", "phone": "+1 (918) 687-1285", "rental": "shoes", "wheelchair": "yes"}}}, {"type": "Feature", "geometry": {"type": "Polygon", "coordinates": [[[-95.34081, 35.7306488], [-95.3408074, 35.730553], [-95.3405472, 35.730553], [-95.3405499, 35.7306444], [-95.34081, 35.7306488]]]}, "properties": {"osm_id": 1171263064, "building": "yes", "name": "Chow's Express", "height": null, "height_m": null, "levels": null, "tract_id": "40101000902", "tract_name": "9.02", "tags": {"addr:city": "Muskogee", "addr:housenumber": "815", "addr:postcode": "74403", "addr:state": "OK", "addr:street": "South York Street", "amenity": "restaurant", "building": "yes", "check_date": "2025-08-15", "cuisine": "chinese", "internet_access": "no", "name": "Chow's Express", "payment:cash": "yes", "payment:credit_cards": "yes", "payment:debit_cards": "yes", "phone": "+1-918-683-8880"}}}, {"type": "Feature", "geometry": {"type": "Polygon", "coordinates": [[[-95.3419768, 35.7323972], [-95.3419741, 35.7322222], [-95.3414267, 35.7322245], [-95.3414285, 35.7322737], [-95.3413593, 35.7322709], [-95.341352, 35.7320851], [-95.3413071, 35.7320842], [-95.3413054, 35.7319989], [-95.34181, 35.7320026], [-95.3418051, 35.7318376], [-95.3411031, 35.731833], [-95.3410986, 35.7319935], [-95.341185, 35.7319947], [-95.3411873, 35.7320849], [-95.3411521, 35.7320834], [-95.3411543, 35.7324198], [-95.341362, 35.7324208], [-95.3413602, 35.7323244], [-95.3414262, 35.7323246], [-95.3414296, 35.7323972], [-95.3419768, 35.7323972]]]}, "properties": {"osm_id": 1171263065, "building": "apartments", "name": "", "height": null, "height_m": 9.0, "levels": 3, "tract_id": "40101000902", "tract_name": "9.02", "tags": {"addr:city": "Muskogee", "addr:housenumber": "715", "addr:postcode": "74403", "addr:state": "OK", "addr:street": "South York Street", "building": "apartments", "building:levels": "3"}}}, {"type": "Feature", "geometry": {"type": "Polygon", "coordinates": [[[-95.3421472, 35.7329522], [-95.3421441, 35.7326746], [-95.3420455, 35.7326759], [-95.3420501, 35.7327446], [-95.341645, 35.7327446], [-95.3416496, 35.7328872], [-95.3420486, 35.7328847], [-95.3420517, 35.7329522], [-95.3421472, 35.7329522]]]}, "properties": {"osm_id": 1171263067, "building": "apartments", "name": "", "height": null, "height_m": null, "levels": null, "tract_id": "40101000902", "tract_name": "9.02", "tags": {"addr:city": "Muskogee", "addr:housenumber": "2315", "addr:postcode": "74403", "addr:state": "OK", "addr:street": "East Augusta Avenue", "building": "apartments"}}}, {"type": "Feature", "geometry": {"type": "Polygon", "coordinates": [[[-95.3408797, 35.7331707], [-95.3408777, 35.7330866], [-95.3407059, 35.7330849], [-95.3407059, 35.7331707], [-95.3408797, 35.7331707]]]}, "properties": {"osm_id": 1171263070, "building": "yes", "name": "Boomarang Diner", "height": null, "height_m": null, "levels": null, "tract_id": "40101000902", "tract_name": "9.02", "tags": {"addr:city": "Muskogee", "addr:housenumber": "701", "addr:postcode": "74403", "addr:state": "OK", "addr:street": "South York Street", "amenity": "restaurant", "building": "yes", "cuisine": "american", "name": "Boomarang Diner", "phone": "+1-918-686-6868", "website": "https://www.boomarangdiner.com/"}}}, {"type": "Feature", "geometry": {"type": "Polygon", "coordinates": [[[-95.3411984, 35.7413134], [-95.3411964, 35.7409389], [-95.3411069, 35.7409372], [-95.3411069, 35.7409224], [-95.3408325, 35.7409191], [-95.3407878, 35.7409587], [-95.3407879, 35.74098], [-95.3407969, 35.7409806], [-95.340798, 35.74117], [-95.3408186, 35.7411704], [-95.3408173, 35.7413093], [-95.3411984, 35.7413134]]]}, "properties": {"osm_id": 1171450088, "building": "yes", "name": "Walgreens", "height": null, "height_m": null, "levels": null, "tract_id": "40101000902", "tract_name": "9.02", "tags": {"addr:city": "Muskogee", "addr:housenumber": "2330", "addr:postcode": "74403", "addr:state": "OK", "addr:street": "Chandler Road", "brand": "Walgreens", "brand:wikidata": "Q1591889", "building": "yes", "drive_through": "yes", "name": "Walgreens", "shop": "chemist", "website": "https://www.walgreens.com/locator/walgreens-2330+chandler+rd-muskogee-ok-74403/id=5529"}}}, {"type": "Feature", "geometry": {"type": "Polygon", "coordinates": [[[-95.3412213, 35.7419642], [-95.3412189, 35.7417321], [-95.3409714, 35.7417302], [-95.3409773, 35.7419633], [-95.3412213, 35.7419642]]]}, "properties": {"osm_id": 1171450089, "building": "yes", "name": "O'Reilly Auto Parts", "height": null, "height_m": null, "levels": null, "tract_id": "40101000902", "tract_name": "9.02", "tags": {"addr:city": "Muskogee", "addr:housenumber": "301", "addr:postcode": "74403", "addr:state": "OK", "addr:street": "North York Street", "brand": "O'Reilly Auto Parts", "brand:wikidata": "Q7071951", "building": "yes", "name": "O'Reilly Auto Parts", "shop": "car_parts", "website": "https://locations.oreillyauto.com/ok/muskogee/autoparts-3903.html"}}}, {"type": "Feature", "geometry": {"type": "Polygon", "coordinates": [[[-95.3407857, 35.7422415], [-95.3407816, 35.7421632], [-95.3406576, 35.7421607], [-95.3406587, 35.7422391], [-95.3407857, 35.7422415]]]}, "properties": {"osm_id": 1171450090, "building": "yes", "name": "Chet's East", "height": null, "height_m": null, "levels": null, "tract_id": "40101000902", "tract_name": "9.02", "tags": {"addr:city": "Muskogee", "addr:housenumber": "321", "addr:postcode": "74403", "addr:state": "OK", "addr:street": "North York Street", "amenity": "fast_food", "building": "yes", "cuisine": "hot_dog", "name": "Chet's East"}}}, {"type": "Feature", "geometry": {"type": "Polygon", "coordinates": [[[-95.3409636, 35.7427464], [-95.3409636, 35.7426639], [-95.340929, 35.7426639], [-95.340929, 35.7426474], [-95.3409514, 35.7426458], [-95.3409504, 35.7425814], [-95.3405967, 35.7425773], [-95.3405926, 35.7427052], [-95.3405469, 35.7427513], [-95.3405865, 35.7427835], [-95.3406211, 35.7427555], [-95.3407227, 35.7427571], [-95.3407217, 35.7427431], [-95.3408853, 35.7427431], [-95.3408863, 35.742772], [-95.340929, 35.7427736], [-95.3409636, 35.7427464]]]}, "properties": {"osm_id": 1171450091, "building": "yes", "name": "Las Cazuelas", "height": null, "height_m": null, "levels": null, "tract_id": "40101000902", "tract_name": "9.02", "tags": {"addr:city": "Muskogee", "addr:housenumber": "401", "addr:postcode": "74403", "addr:state": "OK", "addr:street": "North York Street", "amenity": "restaurant", "building": "yes", "cuisine": "mexican", "name": "Las Cazuelas"}}}, {"type": "Feature", "geometry": {"type": "Polygon", "coordinates": [[[-95.3408355, 35.743192], [-95.3408345, 35.7429445], [-95.3406485, 35.7429445], [-95.3406521, 35.7431612], [-95.3406526, 35.7431903], [-95.3408355, 35.743192]]]}, "properties": {"osm_id": 1171450092, "building": "retail", "name": "Time Square", "height": null, "height_m": null, "levels": null, "tract_id": "40101000902", "tract_name": "9.02", "tags": {"addr:city": "Muskogee", "addr:housenumber": "407", "addr:postcode": "74403", "addr:state": "OK", "addr:street": "North York Street", "building": "retail", "name": "Time Square"}}}, {"type": "Feature", "geometry": {"type": "Polygon", "coordinates": [[[-95.3408799, 35.7399386], [-95.3408799, 35.7398236], [-95.3406734, 35.7398223], [-95.340675, 35.7398486], [-95.3406573, 35.7398493], [-95.3406577, 35.7399064], [-95.3406772, 35.7399068], [-95.3406759, 35.7399369], [-95.3408799, 35.7399386]]]}, "properties": {"osm_id": 1171450094, "building": "yes", "name": "Senor Lopez Mexican Grill", "height": null, "height_m": null, "levels": null, "tract_id": "40101000902", "tract_name": "9.02", "tags": {"addr:city": "Muskogee", "addr:housenumber": "201", "addr:postcode": "74403", "addr:state": "OK", "addr:street": "North York Street", "amenity": "restaurant", "building": "yes", "check_date": "2025-08-16", "cuisine": "mexican", "name": "Senor Lopez Mexican Grill", "payment:apple_pay": "yes", "payment:cash": "yes", "payment:contactless": "yes", "payment:credit_cards": "yes", "payment:debit_cards": "yes"}}}, {"type": "Feature", "geometry": {"type": "Polygon", "coordinates": [[[-95.3407568, 35.7367864], [-95.3407538, 35.7365701], [-95.3406043, 35.7365701], [-95.3406089, 35.7367864], [-95.3407568, 35.7367864]]]}, "properties": {"osm_id": 1171450095, "building": "yes", "name": "Leisure Way Laundry", "height": null, "height_m": null, "levels": null, "tract_id": "40101000902", "tract_name": "9.02", "tags": {"addr:city": "Muskogee", "addr:housenumber": "301", "addr:postcode": "74403", "addr:state": "OK", "addr:street": "South York Street", "building": "yes", "name": "Leisure Way Laundry", "self_service": "yes", "shop": "laundry"}}}, {"type": "Feature", "geometry": {"type": "Polygon", "coordinates": [[[-95.3410823, 35.735004], [-95.3410803, 35.734575], [-95.3408018, 35.7345717], [-95.3408059, 35.7350024], [-95.3410823, 35.735004]]]}, "properties": {"osm_id": 1171450096, "building": "yes", "name": "Dollar General Market", "height": null, "height_m": null, "levels": null, "tract_id": "40101000902", "tract_name": "9.02", "tags": {"addr:city": "Muskogee", "addr:housenumber": "501", "addr:postcode": "74403", "addr:state": "OK", "addr:street": "South York Street", "brand": "Dollar General Market", "brand:wikidata": "Q145168", "building": "yes", "name": "Dollar General Market", "shop": "supermarket", "website": "https://www.dollargeneral.com/store-directory/ok/muskogee/3325"}}}, {"type": "Feature", "geometry": {"type": "Polygon", "coordinates": [[[-95.3408352, 35.7444798], [-95.3406316, 35.7444798], [-95.3406316, 35.7446061], [-95.3406741, 35.7446076], [-95.3406741, 35.7446966], [-95.3407856, 35.7446952], [-95.3407874, 35.7446076], [-95.3408369, 35.744609], [-95.3408352, 35.7444798]]]}, "properties": {"osm_id": 1171450101, "building": "yes", "name": "Communication Federal Credit Union", "height": null, "height_m": null, "levels": null, "tract_id": "40101000902", "tract_name": "9.02", "tags": {"addr:city": "Muskogee", "addr:housenumber": "601", "addr:postcode": "74403", "addr:state": "OK", "addr:street": "North York Street", "amenity": "bank", "atm": "yes", "building": "yes", "drive_through": "yes", "name": "Communication Federal Credit Union"}}}, {"type": "Feature", "geometry": {"type": "Polygon", "coordinates": [[[-95.3441112, 35.7549144], [-95.3441129, 35.7547378], [-95.3438493, 35.7547363], [-95.3438475, 35.7549115], [-95.3441112, 35.7549144]]]}, "properties": {"osm_id": 1171583735, "building": "yes", "name": "My Place Bar-B-Q East", "height": null, "height_m": null, "levels": null, "tract_id": "40101000902", "tract_name": "9.02", "tags": {"addr:city": "Muskogee", "addr:housenumber": "2021", "addr:postcode": "74403", "addr:state": "OK", "addr:street": "Gibson Street", "air_conditioning": "yes", "amenity": "restaurant", "bar": "no", "brewery": "no", "building": "yes", "check_date": "2025-08-15", "cuisine": "barbecue", "delivery": "yes", "name": "My Place Bar-B-Q East", "outdoor_seating": "no", "payment:cash": "yes", "payment:credit_cards": "yes", "payment:debit_cards": "yes", "phone": "+1-918-683-2021", "takeaway": "yes", "toilets": "yes"}}}, {"type": "Feature", "geometry": {"type": "Polygon", "coordinates": [[[-95.3433343, 35.7549647], [-95.3433538, 35.754946], [-95.3433626, 35.7547564], [-95.3433414, 35.7547148], [-95.3427132, 35.754709], [-95.342699, 35.7548124], [-95.3427026, 35.7548929], [-95.342722, 35.7549647], [-95.3428194, 35.7549675], [-95.3428176, 35.7550221], [-95.3432264, 35.7550279], [-95.3432264, 35.7549661], [-95.3433343, 35.7549647]]]}, "properties": {"osm_id": 1171583736, "building": "commercial", "name": "Muskogee Skate Center", "height": null, "height_m": null, "levels": null, "tract_id": "40101000902", "tract_name": "9.02", "tags": {"access": "yes", "addr:city": "Muskogee", "addr:housenumber": "2105", "addr:postcode": "74403", "addr:state": "OK", "addr:street": "Gibson Street", "building": "commercial", "check_date": "2025-08-15", "fee": "yes", "leisure": "sports_centre", "name": "Muskogee Skate Center", "payment:cash": "yes", "payment:credit_cards": "yes", "sport": "roller_skating"}}}, {"type": "Feature", "geometry": {"type": "Polygon", "coordinates": [[[-95.3409296, 35.754626], [-95.3409261, 35.7544997], [-95.3406872, 35.7544997], [-95.3406854, 35.7546246], [-95.3409296, 35.754626]]]}, "properties": {"osm_id": 1171583739, "building": "yes", "name": "Pizza Inn", "height": null, "height_m": null, "levels": null, "tract_id": "40101000902", "tract_name": "9.02", "tags": {"addr:city": "Muskogee", "addr:housenumber": "1107", "addr:postcode": "74403", "addr:state": "OK", "addr:street": "North York Street", "air_conditioning": "yes", "amenity": "fast_food", "brand": "Pizza Inn", "brand:wikidata": "Q4118850", "building": "yes", "check_date": "2025-08-15", "cuisine": "pizza", "delivery": "yes", "drive_through": "no", "name": "Pizza Inn", "opening_hours": "Mo-Th,Su 11:00-21:00; Fr-Sa 11:00-22:00", "payment:cash": "yes", "payment:credit_cards": "yes", "payment:debit_cards": "yes", "phone": "+1 (918) 682-3407", "takeaway": "yes", "website": "https://pizzainn.com"}}}, {"type": "Feature", "geometry": {"type": "Polygon", "coordinates": [[[-95.3409248, 35.7508612], [-95.340933, 35.7505906], [-95.3405894, 35.7505857], [-95.3405894, 35.7506962], [-95.3407866, 35.7506978], [-95.3407825, 35.7508612], [-95.3409248, 35.7508612]]]}, "properties": {"osm_id": 1171583741, "building": "retail", "name": "", "height": null, "height_m": null, "levels": null, "tract_id": "40101000902", "tract_name": "9.02", "tags": {"addr:city": "Muskogee", "addr:housenumber": "821", "addr:postcode": "74403", "addr:state": "OK", "addr:street": "North York Street", "building": "retail"}}}, {"type": "Feature", "geometry": {"type": "Polygon", "coordinates": [[[-95.3408171, 35.7495645], [-95.3408151, 35.7494342], [-95.3405244, 35.7494342], [-95.3405305, 35.7495678], [-95.3408171, 35.7495645]]]}, "properties": {"osm_id": 1171583743, "building": "yes", "name": "Stop N Go", "height": null, "height_m": null, "levels": null, "tract_id": "40101000902", "tract_name": "9.02", "tags": {"building": "yes", "name": "Stop N Go", "shop": "convenience"}}}, {"type": "Feature", "geometry": {"type": "Polygon", "coordinates": [[[-95.3408376, 35.7480998], [-95.3408376, 35.7478905], [-95.3408546, 35.747891], [-95.3408542, 35.7478673], [-95.3405979, 35.7478659], [-95.3405988, 35.7480248], [-95.3406112, 35.748026], [-95.340662, 35.7481473], [-95.3408376, 35.7480998]]]}, "properties": {"osm_id": 1171583747, "building": "yes", "name": "Arvest Bank", "height": null, "height_m": null, "levels": null, "tract_id": "40101000902", "tract_name": "9.02", "tags": {"addr:city": "Muskogee", "addr:housenumber": "735", "addr:postcode": "74403", "addr:state": "OK", "addr:street": "North York Street", "amenity": "bank", "atm": "no", "brand": "Arvest Bank", "brand:wikidata": "Q4802393", "building": "yes", "drive_through": "no", "name": "Arvest Bank"}}}, {"type": "Feature", "geometry": {"type": "Polygon", "coordinates": [[[-95.3416365, 35.7477986], [-95.3416371, 35.7477122], [-95.3416065, 35.7477121], [-95.3416066, 35.7477007], [-95.341346, 35.7476997], [-95.3413454, 35.7478064], [-95.3416077, 35.7478074], [-95.3416078, 35.7477984], [-95.3416365, 35.7477986]]]}, "properties": {"osm_id": 1171583748, "building": "yes", "name": "Arvest Bank", "height": null, "height_m": null, "levels": null, "tract_id": "40101000902", "tract_name": "9.02", "tags": {"amenity": "bank", "atm": "yes", "brand": "Arvest Bank", "brand:wikidata": "Q4802393", "building": "yes", "drive_through": "yes", "layer": "1", "name": "Arvest Bank"}}}, {"type": "Feature", "geometry": {"type": "Polygon", "coordinates": [[[-95.3408787, 35.7462515], [-95.3408786, 35.7462349], [-95.340927, 35.7462346], [-95.3409259, 35.7460881], [-95.3408743, 35.7460883], [-95.3408723, 35.7458149], [-95.3408331, 35.7458151], [-95.3408329, 35.7457894], [-95.3405685, 35.7457907], [-95.3405695, 35.745917], [-95.3406033, 35.7459168], [-95.3406055, 35.7461949], [-95.3405879, 35.746195], [-95.3405883, 35.7462529], [-95.3408787, 35.7462515]]]}, "properties": {"osm_id": 1171583749, "building": "yes", "name": "Shoppers Saver Foods", "height": null, "height_m": null, "levels": null, "tract_id": "40101000902", "tract_name": "9.02", "tags": {"addr:city": "Muskogee", "addr:housenumber": "615", "addr:postcode": "74403", "addr:state": "OK", "addr:street": "North York Street", "building": "yes", "name": "Shoppers Saver Foods", "opening_hours": "07:00-21:00", "phone": "+1 918 682 1194", "ref": "545", "shop": "supermarket"}}}, {"type": "Feature", "geometry": {"type": "Polygon", "coordinates": [[[-95.340844, 35.7466672], [-95.3405898, 35.746666], [-95.3405775, 35.7465347], [-95.3405821, 35.7464384], [-95.3407054, 35.7464371], [-95.3407069, 35.7465122], [-95.340844, 35.7465134], [-95.340844, 35.7466672]]]}, "properties": {"osm_id": 1171583750, "building": "yes", "name": "Archer Cleaners", "height": null, "height_m": null, "levels": null, "tract_id": "40101000902", "tract_name": "9.02", "tags": {"addr:city": "Muskogee", "addr:housenumber": "625", "addr:postcode": "74403", "addr:state": "OK", "addr:street": "North York Street", "building": "yes", "name": "Archer Cleaners", "shop": "dry_cleaning"}}}, {"type": "Feature", "geometry": {"type": "Polygon", "coordinates": [[[-95.3408458, 35.7336374], [-95.3408411, 35.7334592], [-95.3407255, 35.733463], [-95.3407279, 35.7336525], [-95.3407839, 35.7336506], [-95.3407851, 35.7336374], [-95.3408458, 35.7336374]]]}, "properties": {"osm_id": 1171583755, "building": "yes", "name": "H-B One Stop", "height": null, "height_m": null, "levels": null, "tract_id": "40101000902", "tract_name": "9.02", "tags": {"addr:city": "Muskogee", "addr:housenumber": "625", "addr:postcode": "74403", "addr:state": "OK", "addr:street": "South York Street", "building": "yes", "name": "H-B One Stop", "shop": "convenience"}}}, {"type": "Feature", "geometry": {"type": "Polygon", "coordinates": [[[-95.3413448, 35.7277558], [-95.3413448, 35.7275495], [-95.3409464, 35.7275495], [-95.3409484, 35.7277558], [-95.3413448, 35.7277558]]]}, "properties": {"osm_id": 1171583761, "building": "yes", "name": "Family Dollar", "height": null, "height_m": null, "levels": null, "tract_id": "40101000902", "tract_name": "9.02", "tags": {"addr:city": "Muskogee", "addr:housenumber": "1329", "addr:postcode": "74403", "addr:state": "OK", "addr:street": "South York Street", "brand": "Family Dollar", "brand:wikidata": "Q5433101", "building": "yes", "name": "Family Dollar", "shop": "variety_store"}}}, {"type": "Feature", "geometry": {"type": "Polygon", "coordinates": [[[-95.340983, 35.7268102], [-95.340983, 35.7267409], [-95.340548, 35.7267409], [-95.340548, 35.7268102], [-95.3406059, 35.7268102], [-95.3406059, 35.7268333], [-95.3406522, 35.726834], [-95.3406522, 35.726809], [-95.340983, 35.7268102]]]}, "properties": {"osm_id": 1171583762, "building": "yes", "name": "OTTO Car Wash", "height": null, "height_m": null, "levels": null, "tract_id": "40101000902", "tract_name": "9.02", "tags": {"addr:city": "Muskogee", "addr:housenumber": "2311", "addr:postcode": "74403", "addr:state": "OK", "addr:street": "Nebraska Avenue", "amenity": "car_wash", "building": "yes", "name": "OTTO Car Wash"}}}, {"type": "Feature", "geometry": {"type": "Polygon", "coordinates": [[[-95.3459262, 35.7454233], [-95.345914, 35.7453301], [-95.3459577, 35.7453309], [-95.3459506, 35.74526], [-95.3462199, 35.7452583], [-95.3462189, 35.7452311], [-95.3463328, 35.7452311], [-95.3463338, 35.7452616], [-95.3465523, 35.7452525], [-95.3465523, 35.7452707], [-95.3466682, 35.7452699], [-95.3466834, 35.7450595], [-95.3466621, 35.7450587], [-95.3466692, 35.7448945], [-95.3466905, 35.7448953], [-95.3466905, 35.7448351], [-95.3464405, 35.7448326], [-95.3464415, 35.744916], [-95.346159, 35.744916], [-95.3461569, 35.744685], [-95.3464446, 35.7446842], [-95.3464456, 35.7447716], [-95.3466895, 35.7447724], [-95.3466905, 35.7447097], [-95.3466671, 35.7447106], [-95.3466692, 35.74452], [-95.3461823, 35.7445126], [-95.3461895, 35.7443088], [-95.3462393, 35.7443088], [-95.3462362, 35.7441942], [-95.346161, 35.7441925], [-95.346162, 35.7442313], [-95.3459852, 35.7442321], [-95.3459852, 35.7440803], [-95.3459699, 35.7440803], [-95.3459669, 35.7440168], [-95.3459831, 35.7440152], [-95.3459831, 35.7438683], [-95.346159, 35.7438691], [-95.34616, 35.743903], [-95.3465015, 35.743903], [-95.3465025, 35.7439277], [-95.3466275, 35.7439219], [-95.3466306, 35.743969], [-95.3466143, 35.7439698], [-95.3466153, 35.7440011], [-95.3466387, 35.7440003], [-95.3466458, 35.7440168], [-95.3466793, 35.7440143], [-95.3466824, 35.7439962], [-95.3467515, 35.7439945], [-95.3467535, 35.7440143], [-95.3467932, 35.7440127], [-95.3467952, 35.7441422], [-95.3468643, 35.7441414], [-95.3468684, 35.7436571], [-95.3469395, 35.743658], [-95.3469395, 35.7435689], [-95.3470889, 35.7435714], [-95.34709, 35.7436085], [-95.3471987, 35.7436093], [-95.3471977, 35.7441925], [-95.34709, 35.7441925], [-95.34709, 35.7442065], [-95.3469416, 35.7442057], [-95.3469426, 35.74419], [-95.3468694, 35.74419], [-95.3468653, 35.7445489], [-95.3469558, 35.7445522], [-95.3469527, 35.7447469], [-95.3470076, 35.7447469], [-95.3470107, 35.7448599], [-95.3469507, 35.7448599], [-95.3469538, 35.7450603], [-95.3468592, 35.7450603], [-95.3468603, 35.7454134], [-95.3467454, 35.7454142], [-95.3467485, 35.7454819], [-95.346659, 35.7454827], [-95.3466611, 35.7454117], [-95.3465167, 35.7454126], [-95.3465167, 35.7454373], [-95.3462921, 35.7454324], [-95.3462901, 35.7454233], [-95.3459262, 35.7454233]]]}, "properties": {"osm_id": 1171640424, "building": "school", "name": "Muskogee 8th and 9th Grade Center", "height": null, "height_m": 6.0, "levels": 2, "tract_id": "40101000902", "tract_name": "9.02", "tags": {"addr:city": "Muskogee", "addr:housenumber": "402", "addr:postcode": "74403", "addr:state": "OK", "addr:street": "North S Street", "amenity": "school", "building": "school", "building:levels": "2", "gnis:feature_id": "1097258", "grades": "8-9", "name": "Muskogee 8th and 9th Grade Center", "old_name": "Alice Robertson Junior High School"}}}, {"type": "Feature", "geometry": {"type": "Polygon", "coordinates": [[[-95.343687, 35.7430999], [-95.343683, 35.7426247], [-95.3437765, 35.7426231], [-95.3437765, 35.7425769], [-95.3439655, 35.7425769], [-95.3439716, 35.7424449], [-95.3442399, 35.7424432], [-95.344244, 35.7427155], [-95.3439696, 35.7427171], [-95.3439676, 35.7426247], [-95.3439228, 35.7426231], [-95.3439269, 35.7430045], [-95.3439584, 35.7430037], [-95.3439574, 35.7429913], [-95.3441211, 35.7429913], [-95.3441211, 35.7431258], [-95.3439594, 35.7431241], [-95.3439584, 35.743035], [-95.343929, 35.7430359], [-95.3439279, 35.7431043], [-95.343687, 35.7430999]]]}, "properties": {"osm_id": 1171640425, "building": "school", "name": "Saint Joseph School", "height": null, "height_m": null, "levels": null, "tract_id": "40101000902", "tract_name": "9.02", "tags": {"addr:city": "Muskogee", "addr:housenumber": "323", "addr:postcode": "74403", "addr:state": "OK", "addr:street": "North Virginia Street", "amenity": "school", "building": "school", "building:levels": "K-6", "denomination": "catholic", "gnis:feature_id": "1097616", "grades": "K-8", "name": "Saint Joseph School", "operator": "Saint Joseph Church", "operator:type": "private", "phone": "+1-918-683-1291", "religion": "christian", "website": "https://stjoseph74403.com/"}}}, {"type": "Feature", "geometry": {"type": "Polygon", "coordinates": [[[-95.342181, 35.7409699], [-95.3419183, 35.7409718], [-95.3418997, 35.7407766], [-95.3421098, 35.7407766], [-95.3421121, 35.7408751], [-95.3421799, 35.7408751], [-95.342181, 35.7409699]]]}, "properties": {"osm_id": 1171640446, "building": "yes", "name": "McCall Dental Studio", "height": null, "height_m": null, "levels": null, "tract_id": "40101000902", "tract_name": "9.02", "tags": {"addr:city": "Muskogee", "addr:housenumber": "2214", "addr:postcode": "74403", "addr:state": "OK", "addr:street": "Chandler Road", "amenity": "dentist", "building": "yes", "healthcare": "dentist", "name": "McCall Dental Studio"}}}, {"type": "Feature", "geometry": {"type": "Polygon", "coordinates": [[[-95.3420549, 35.7402858], [-95.3420519, 35.7401917], [-95.3422399, 35.7401958], [-95.3422948, 35.7402239], [-95.3424838, 35.7402239], [-95.3424838, 35.7402899], [-95.3422358, 35.7402866], [-95.3420549, 35.7402858]]]}, "properties": {"osm_id": 1171640448, "building": "yes", "name": "Firstar Bank", "height": null, "height_m": null, "levels": null, "tract_id": "40101000902", "tract_name": "9.02", "tags": {"addr:city": "Muskogee", "addr:housenumber": "2215", "addr:postcode": "74403", "addr:state": "OK", "addr:street": "Chandler Road", "amenity": "bank", "building": "yes", "name": "Firstar Bank"}}}, {"type": "Feature", "geometry": {"type": "Polygon", "coordinates": [[[-95.3432014, 35.7403509], [-95.3432034, 35.7402123], [-95.3427288, 35.7402123], [-95.3427308, 35.7403501], [-95.3432014, 35.7403509]]]}, "properties": {"osm_id": 1171640449, "building": "retail", "name": "", "height": null, "height_m": null, "levels": null, "tract_id": "40101000902", "tract_name": "9.02", "tags": {"building": "retail"}}}, {"type": "Feature", "geometry": {"type": "Polygon", "coordinates": [[[-95.3441368, 35.7403332], [-95.3441383, 35.7402032], [-95.3437625, 35.7402032], [-95.3437609, 35.740332], [-95.3441368, 35.7403332]]]}, "properties": {"osm_id": 1171640450, "building": "yes", "name": "Jackson Hewitt", "height": null, "height_m": null, "levels": null, "tract_id": "40101000902", "tract_name": "9.02", "tags": {"addr:city": "Muskogee", "addr:housenumber": "2117", "addr:postcode": "74403", "addr:state": "OK", "addr:street": "Chandler Road", "brand": "Jackson Hewitt", "brand:wikidata": "Q6117132", "building": "yes", "name": "Jackson Hewitt", "office": "tax_advisor", "official_name": "Jackson Hewitt Tax Service"}}}, {"type": "Feature", "geometry": {"type": "Polygon", "coordinates": [[[-95.3408153, 35.7582398], [-95.3408139, 35.7579416], [-95.3406235, 35.7579373], [-95.3406262, 35.758242], [-95.3408153, 35.7582398]]]}, "properties": {"osm_id": 1171730513, "building": "yes", "name": "Sandy's Pools & Spas", "height": null, "height_m": null, "levels": null, "tract_id": "40101000902", "tract_name": "9.02", "tags": {"addr:city": "Muskogee", "addr:housenumber": "1309", "addr:postcode": "74403", "addr:state": "OK", "addr:street": "North York Street", "building": "yes", "name": "Sandy's Pools & Spas", "shop": "swimming_pool"}}}, {"type": "Feature", "geometry": {"type": "Polygon", "coordinates": [[[-95.340775, 35.7578437], [-95.3407737, 35.7577283], [-95.3405377, 35.757725], [-95.3405377, 35.7578437], [-95.340775, 35.7578437]]]}, "properties": {"osm_id": 1171730514, "building": "yes", "name": "Animal Care Center", "height": null, "height_m": null, "levels": null, "tract_id": "40101000902", "tract_name": "9.02", "tags": {"addr:city": "Muskogee", "addr:housenumber": "1301", "addr:postcode": "74403", "addr:state": "OK", "addr:street": "North York Street", "amenity": "veterinary", "building": "yes", "name": "Animal Care Center"}}}, {"type": "Feature", "geometry": {"type": "Polygon", "coordinates": [[[-95.3408877, 35.7585804], [-95.3408863, 35.7583954], [-95.3407442, 35.7583933], [-95.3407469, 35.7585794], [-95.3408877, 35.7585804]]]}, "properties": {"osm_id": 1171730515, "building": "yes", "name": "Muskogee Shipman Cremation & Funeral Home", "height": null, "height_m": null, "levels": null, "tract_id": "40101000902", "tract_name": "9.02", "tags": {"addr:city": "Muskogee", "addr:housenumber": "1325", "addr:postcode": "74403", "addr:state": "OK", "addr:street": "North York Street", "building": "yes", "name": "Muskogee Shipman Cremation & Funeral Home", "shop": "funeral_directors"}}}, {"type": "Feature", "geometry": {"type": "Polygon", "coordinates": [[[-95.340609, 35.7574362], [-95.3405426, 35.7574362], [-95.3405258, 35.7574233], [-95.3405223, 35.7572976], [-95.3406532, 35.7572984], [-95.3406559, 35.7573443], [-95.3406161, 35.7573436], [-95.340617, 35.7573623], [-95.3406072, 35.7573623], [-95.340609, 35.7574362]]]}, "properties": {"osm_id": 1171730516, "building": "yes", "name": "Yorktown Alley", "height": null, "height_m": null, "levels": null, "tract_id": "40101000902", "tract_name": "9.02", "tags": {"addr:city": "Muskogee", "addr:housenumber": "1227", "addr:postcode": "74403", "addr:state": "OK", "addr:street": "North York Street", "amenity": "bar", "building": "yes", "min_age": "21", "name": "Yorktown Alley"}}}, {"type": "Feature", "geometry": {"type": "Polygon", "coordinates": [[[-95.3406134, 35.7568345], [-95.3406143, 35.7567491], [-95.3406117, 35.7566615], [-95.3405179, 35.7566622], [-95.3405205, 35.7567555], [-95.3405161, 35.7568331], [-95.3406134, 35.7568345]]]}, "properties": {"osm_id": 1171730517, "building": "yes", "name": "Ritz", "height": null, "height_m": null, "levels": null, "tract_id": "40101000902", "tract_name": "9.02", "tags": {"addr:city": "Muskogee", "addr:housenumber": "1209", "addr:postcode": "74403", "addr:state": "OK", "addr:street": "North York Street", "building": "yes", "name": "Ritz", "shop": "hairdresser"}}}, {"type": "Feature", "geometry": {"type": "Polygon", "coordinates": [[[-95.340824, 35.7566507], [-95.3408196, 35.7564116], [-95.3406683, 35.7564109], [-95.3406709, 35.7566493], [-95.340824, 35.7566507]]]}, "properties": {"osm_id": 1171730518, "building": "yes", "name": "H&R Block", "height": null, "height_m": null, "levels": null, "tract_id": "40101000902", "tract_name": "9.02", "tags": {"addr:city": "Muskogee", "addr:housenumber": "1201", "addr:postcode": "74403", "addr:state": "OK", "addr:street": "North York Street", "brand": "H&R Block", "brand:wikidata": "Q5627799", "building": "yes", "name": "H&R Block", "office": "tax_advisor"}}}, {"type": "Feature", "geometry": {"type": "Polygon", "coordinates": [[[-95.3408165, 35.7558143], [-95.340817, 35.7556817], [-95.3406068, 35.7556811], [-95.3406063, 35.7558138], [-95.3408165, 35.7558143]]]}, "properties": {"osm_id": 1171730519, "building": "yes", "name": "Muskogee Eye Center", "height": null, "height_m": null, "levels": null, "tract_id": "40101000902", "tract_name": "9.02", "tags": {"addr:city": "Muskogee", "addr:housenumber": "1157", "addr:postcode": "74403", "addr:state": "OK", "addr:street": "North York Street", "building": "yes", "name": "Muskogee Eye Center", "shop": "optician"}}}, {"type": "Feature", "geometry": {"type": "Polygon", "coordinates": [[[-95.3407975, 35.7550213], [-95.3408029, 35.7547318], [-95.3406366, 35.7547307], [-95.3406325, 35.7550213], [-95.3407975, 35.7550213]]]}, "properties": {"osm_id": 1171730526, "building": "retail", "name": "", "height": null, "height_m": null, "levels": null, "tract_id": "40101000902", "tract_name": "9.02", "tags": {"building": "retail"}}}, {"type": "Feature", "geometry": {"type": "Polygon", "coordinates": [[[-95.340781, 35.7514513], [-95.3406439, 35.7514501], [-95.3406423, 35.7511788], [-95.3407871, 35.75118], [-95.340781, 35.7514513]]]}, "properties": {"osm_id": 1171730527, "building": "retail", "name": "", "height": null, "height_m": null, "levels": null, "tract_id": "40101000902", "tract_name": "9.02", "tags": {"addr:city": "Muskogee", "addr:housenumber": "903", "addr:postcode": "74403", "addr:state": "OK", "addr:street": "North York Street", "building": "retail"}}}, {"type": "Feature", "geometry": {"type": "Polygon", "coordinates": [[[-95.3411732, 35.7303749], [-95.3411717, 35.7299284], [-95.3409868, 35.7299297], [-95.340993, 35.7303761], [-95.3411732, 35.7303749]]]}, "properties": {"osm_id": 1171753519, "building": "apartments", "name": "", "height": null, "height_m": null, "levels": null, "tract_id": "40101000902", "tract_name": "9.02", "tags": {"addr:city": "Muskogee", "addr:housenumber": "827", "addr:postcode": "74403", "addr:state": "OK", "addr:street": "South York Street", "building": "apartments"}}}, {"type": "Feature", "geometry": {"type": "Polygon", "coordinates": [[[-95.3408343, 35.7303561], [-95.3408312, 35.7299547], [-95.340654, 35.7299509], [-95.340654, 35.7303548], [-95.3408343, 35.7303561]]]}, "properties": {"osm_id": 1171753520, "building": "apartments", "name": "", "height": null, "height_m": null, "levels": null, "tract_id": "40101000902", "tract_name": "9.02", "tags": {"addr:city": "Muskogee", "addr:housenumber": "827", "addr:postcode": "74403", "addr:state": "OK", "addr:street": "South York Street", "building": "apartments"}}}, {"type": "Feature", "geometry": {"type": "Polygon", "coordinates": [[[-95.3424853, 35.7323902], [-95.3424866, 35.7322514], [-95.342201, 35.7322497], [-95.3421997, 35.7323884], [-95.3424853, 35.7323902]]]}, "properties": {"osm_id": 1171753536, "building": "apartments", "name": "", "height": null, "height_m": null, "levels": null, "tract_id": "40101000902", "tract_name": "9.02", "tags": {"addr:city": "Muskogee", "addr:housenumber": "2305", "addr:postcode": "74403", "addr:state": "OK", "addr:street": "East Augusta Avenue", "building": "apartments"}}}, {"type": "Feature", "geometry": {"type": "Polygon", "coordinates": [[[-95.3424841, 35.7320502], [-95.3424849, 35.7319193], [-95.3421869, 35.7319181], [-95.342186, 35.7320489], [-95.3424841, 35.7320502]]]}, "properties": {"osm_id": 1171753537, "building": "apartments", "name": "", "height": null, "height_m": null, "levels": null, "tract_id": "40101000902", "tract_name": "9.02", "tags": {"addr:city": "Muskogee", "addr:housenumber": "2305", "addr:postcode": "74403", "addr:state": "OK", "addr:street": "East Augusta Avenue", "building": "apartments"}}}, {"type": "Feature", "geometry": {"type": "Polygon", "coordinates": [[[-95.3424858, 35.7317155], [-95.3424867, 35.7315846], [-95.3421887, 35.7315834], [-95.3421878, 35.7317142], [-95.3424858, 35.7317155]]]}, "properties": {"osm_id": 1171753538, "building": "apartments", "name": "", "height": null, "height_m": null, "levels": null, "tract_id": "40101000902", "tract_name": "9.02", "tags": {"addr:city": "Muskogee", "addr:housenumber": "2305", "addr:postcode": "74403", "addr:state": "OK", "addr:street": "East Augusta Avenue", "building": "apartments"}}}, {"type": "Feature", "geometry": {"type": "Polygon", "coordinates": [[[-95.3406661, 35.7394283], [-95.3405074, 35.7394291], [-95.340506, 35.7392301], [-95.3406647, 35.7392294], [-95.3406661, 35.7394283]]]}, "properties": {"osm_id": 1175049370, "building": "yes", "name": "SPARK Services", "height": null, "height_m": null, "levels": null, "tract_id": "40101000902", "tract_name": "9.02", "tags": {"addr:city": "Muskogee", "addr:housenumber": "105", "addr:postcode": "74403", "addr:state": "OK", "addr:street": "North York Street", "building": "yes", "craft": "electronics_repair", "name": "SPARK Services"}}}, {"type": "Feature", "geometry": {"type": "Polygon", "coordinates": [[[-95.3407142, 35.7383484], [-95.3405094, 35.7383498], [-95.340508, 35.7382148], [-95.3407128, 35.7382134], [-95.3407142, 35.7383484]]]}, "properties": {"osm_id": 1175049371, "building": "yes", "name": "Bombshell Salon", "height": null, "height_m": null, "levels": null, "tract_id": "40101000902", "tract_name": "9.02", "tags": {"addr:city": "Muskogee", "addr:housenumber": "2315", "addr:postcode": "74403", "addr:state": "OK", "addr:street": "East Okmulgee Avenue", "building": "yes", "check_date": "2025-08-16", "disused:shop": "hairdresser", "name": "Bombshell Salon"}}}, {"type": "Feature", "geometry": {"type": "Polygon", "coordinates": [[[-95.3411141, 35.7384577], [-95.3411131, 35.7383235], [-95.3409806, 35.7383242], [-95.3409817, 35.7384552], [-95.3410066, 35.7384551], [-95.3410067, 35.7384658], [-95.341037, 35.7384656], [-95.3410369, 35.7384581], [-95.3411141, 35.7384577]]]}, "properties": {"osm_id": 1175049372, "building": "yes", "name": "Windmill Dentistry", "height": null, "height_m": null, "levels": null, "tract_id": "40101000902", "tract_name": "9.02", "tags": {"addr:city": "Muskogee", "addr:housenumber": "2313", "addr:postcode": "74403", "addr:state": "OK", "addr:street": "East Okmulgee Avenue", "amenity": "dentist", "building": "yes", "healthcare": "dentist", "name": "Windmill Dentistry"}}}, {"type": "Feature", "geometry": {"type": "Polygon", "coordinates": [[[-95.3407688, 35.7380854], [-95.3407678, 35.7380062], [-95.3406041, 35.7380037], [-95.3406051, 35.7380846], [-95.3407688, 35.7380854]]]}, "properties": {"osm_id": 1175049373, "building": "yes", "name": "", "height": null, "height_m": null, "levels": null, "tract_id": "40101000902", "tract_name": "9.02", "tags": {"building": "yes"}}}, {"type": "Feature", "geometry": {"type": "Polygon", "coordinates": [[[-95.3409036, 35.7379795], [-95.3407256, 35.7379786], [-95.3407265, 35.737869], [-95.3406972, 35.7378688], [-95.3406977, 35.7378042], [-95.3407243, 35.7378043], [-95.3407253, 35.7376921], [-95.3409095, 35.7376932], [-95.3409086, 35.7377995], [-95.3409348, 35.7377997], [-95.3409342, 35.7378715], [-95.3409045, 35.7378714], [-95.3409036, 35.7379795]]]}, "properties": {"osm_id": 1175049374, "building": "yes", "name": "Enhabit Home Health", "height": null, "height_m": null, "levels": null, "tract_id": "40101000902", "tract_name": "9.02", "tags": {"addr:city": "Muskogee", "addr:housenumber": "111", "addr:postcode": "74403", "addr:state": "OK", "addr:street": "South York Street", "building": "yes", "name": "Enhabit Home Health"}}}, {"type": "Feature", "geometry": {"type": "Polygon", "coordinates": [[[-95.3409873, 35.7374419], [-95.3409855, 35.7372194], [-95.3405794, 35.7372215], [-95.3405807, 35.7373911], [-95.3407822, 35.7373901], [-95.3407826, 35.7374429], [-95.3409873, 35.7374419]]]}, "properties": {"osm_id": 1175049375, "building": "yes", "name": "", "height": null, "height_m": null, "levels": null, "tract_id": "40101000902", "tract_name": "9.02", "tags": {"addr:city": "Muskogee", "addr:housenumber": "201", "addr:postcode": "74403", "addr:state": "OK", "addr:street": "North York Street", "building": "yes"}}}, {"type": "Feature", "geometry": {"type": "Polygon", "coordinates": [[[-95.3412111, 35.7368098], [-95.3412093, 35.7365502], [-95.3410397, 35.7365509], [-95.3410414, 35.7368106], [-95.3412111, 35.7368098]]]}, "properties": {"osm_id": 1175049377, "building": "yes", "name": "", "height": null, "height_m": null, "levels": null, "tract_id": "40101000902", "tract_name": "9.02", "tags": {"addr:city": "Muskogee", "addr:housenumber": "2311", "addr:postcode": "74403", "addr:state": "OK", "addr:street": "East Monta Avenue", "building": "yes"}}}, {"type": "Feature", "geometry": {"type": "Polygon", "coordinates": [[[-95.340742, 35.7364109], [-95.3405629, 35.7364132], [-95.3405644, 35.7364663], [-95.3407017, 35.7364657], [-95.3407017, 35.7364601], [-95.3407431, 35.7364599], [-95.340742, 35.7364109]]]}, "properties": {"osm_id": 1175049378, "building": "yes", "name": "Shelter Insurance", "height": null, "height_m": null, "levels": null, "tract_id": "40101000902", "tract_name": "9.02", "tags": {"addr:city": "Muskogee", "addr:housenumber": "309", "addr:postcode": "74403", "addr:state": "OK", "addr:street": "South York Street", "building": "yes", "name": "Shelter Insurance", "office": "insurance"}}}, {"type": "Feature", "geometry": {"type": "Polygon", "coordinates": [[[-95.340742, 35.7364109], [-95.3407419, 35.7363369], [-95.3405611, 35.7363384], [-95.3405629, 35.7364132], [-95.340742, 35.7364109]]]}, "properties": {"osm_id": 1175049379, "building": "yes", "name": "", "height": null, "height_m": null, "levels": null, "tract_id": "40101000902", "tract_name": "9.02", "tags": {"addr:city": "Muskogee", "addr:housenumber": "311", "addr:postcode": "74403", "addr:state": "OK", "addr:street": "South York Street", "building": "yes"}}}, {"type": "Feature", "geometry": {"type": "Polygon", "coordinates": [[[-95.3407419, 35.7363369], [-95.3407408, 35.7362437], [-95.34056, 35.736245], [-95.3405611, 35.7363384], [-95.3407419, 35.7363369]]]}, "properties": {"osm_id": 1175049380, "building": "yes", "name": "A Second Peek", "height": null, "height_m": null, "levels": null, "tract_id": "40101000902", "tract_name": "9.02", "tags": {"addr:city": "Muskogee", "addr:housenumber": "313", "addr:postcode": "74403", "addr:state": "OK", "addr:street": "South York Street", "building": "yes", "name": "A Second Peek", "second_hand": "only", "shop": "clothes"}}}, {"type": "Feature", "geometry": {"type": "Polygon", "coordinates": [[[-95.341146, 35.7358968], [-95.3411419, 35.7357137], [-95.3410057, 35.7357153], [-95.3410098, 35.7358985], [-95.341146, 35.7358968]]]}, "properties": {"osm_id": 1175049381, "building": "yes", "name": "Cammie's Salon", "height": null, "height_m": null, "levels": null, "tract_id": "40101000902", "tract_name": "9.02", "tags": {"addr:city": "Muskogee", "addr:housenumber": "401", "addr:postcode": "74403", "addr:state": "OK", "addr:street": "South York Street", "building": "yes", "name": "Cammie's Salon", "shop": "hairdresser"}}}, {"type": "Feature", "geometry": {"type": "Polygon", "coordinates": [[[-95.3405744, 35.7355446], [-95.3405737, 35.7354171], [-95.3406981, 35.7354167], [-95.3406987, 35.7355442], [-95.3405744, 35.7355446]]]}, "properties": {"osm_id": 1175049382, "building": "yes", "name": "", "height": null, "height_m": null, "levels": null, "tract_id": "40101000902", "tract_name": "9.02", "tags": {"addr:city": "Muskogee", "addr:housenumber": "415", "addr:postcode": "74403", "addr:state": "OK", "addr:street": "South York Street", "building": "yes"}}}, {"type": "Feature", "geometry": {"type": "Polygon", "coordinates": [[[-95.340809, 35.7341115], [-95.3408114, 35.7338244], [-95.340655, 35.7338235], [-95.3406525, 35.7341107], [-95.340809, 35.7341115]]]}, "properties": {"osm_id": 1175049383, "building": "yes", "name": "", "height": null, "height_m": null, "levels": null, "tract_id": "40101000902", "tract_name": "9.02", "tags": {"building": "yes"}}}, {"type": "Feature", "geometry": {"type": "Polygon", "coordinates": [[[-95.340899, 35.7327914], [-95.340899, 35.732616], [-95.340676, 35.732616], [-95.3406771, 35.732671], [-95.3406573, 35.732671], [-95.340655, 35.7327923], [-95.340899, 35.7327914]]]}, "properties": {"osm_id": 1175049385, "building": "yes", "name": "", "height": null, "height_m": null, "levels": null, "tract_id": "40101000902", "tract_name": "9.02", "tags": {"building": "yes"}}}, {"type": "Feature", "geometry": {"type": "Polygon", "coordinates": [[[-95.340887, 35.731708], [-95.340887, 35.7315222], [-95.3407258, 35.7315185], [-95.3407235, 35.731708], [-95.340887, 35.731708]]]}, "properties": {"osm_id": 1175049386, "building": "yes", "name": "Oil Express", "height": null, "height_m": null, "levels": null, "tract_id": "40101000902", "tract_name": "9.02", "tags": {"addr:city": "Muskogee", "addr:housenumber": "721", "addr:postcode": "74403", "addr:state": "OK", "addr:street": "South York Street", "building": "yes", "name": "Oil Express", "shop": "car_repair"}}}, {"type": "Feature", "geometry": {"type": "Polygon", "coordinates": [[[-95.3419745, 35.7316848], [-95.3419743, 35.7316234], [-95.3413032, 35.7316251], [-95.3413034, 35.7316865], [-95.3419745, 35.7316848]]]}, "properties": {"osm_id": 1175049387, "building": "yes", "name": "", "height": null, "height_m": null, "levels": null, "tract_id": "40101000902", "tract_name": "9.02", "tags": {"building": "yes", "shop": "storage_rental"}}}, {"type": "Feature", "geometry": {"type": "Polygon", "coordinates": [[[-95.3419763, 35.731572], [-95.3419759, 35.7315133], [-95.3413342, 35.7315157], [-95.3413346, 35.7315745], [-95.3419763, 35.731572]]]}, "properties": {"osm_id": 1175049388, "building": "yes", "name": "", "height": null, "height_m": null, "levels": null, "tract_id": "40101000902", "tract_name": "9.02", "tags": {"building": "yes", "shop": "storage_rental"}}}, {"type": "Feature", "geometry": {"type": "Polygon", "coordinates": [[[-95.3412372, 35.7316688], [-95.3412372, 35.7315305], [-95.3411286, 35.7315294], [-95.3411286, 35.7316677], [-95.3412372, 35.7316688]]]}, "properties": {"osm_id": 1175049389, "building": "yes", "name": "", "height": null, "height_m": null, "levels": null, "tract_id": "40101000902", "tract_name": "9.02", "tags": {"building": "yes", "shop": "storage_rental"}}}, {"type": "Feature", "geometry": {"type": "Polygon", "coordinates": [[[-95.3424468, 35.7307409], [-95.3424472, 35.7306803], [-95.3414366, 35.7306762], [-95.3414363, 35.7307369], [-95.3424468, 35.7307409]]]}, "properties": {"osm_id": 1175049390, "building": "yes", "name": "", "height": null, "height_m": null, "levels": null, "tract_id": "40101000902", "tract_name": "9.02", "tags": {"building": "yes", "shop": "storage_rental"}}}, {"type": "Feature", "geometry": {"type": "Polygon", "coordinates": [[[-95.3424487, 35.7305898], [-95.342449, 35.7305287], [-95.3414501, 35.7305246], [-95.3414498, 35.7305858], [-95.3424487, 35.7305898]]]}, "properties": {"osm_id": 1175049391, "building": "yes", "name": "", "height": null, "height_m": null, "levels": null, "tract_id": "40101000902", "tract_name": "9.02", "tags": {"building": "yes", "shop": "storage_rental"}}}, {"type": "Feature", "geometry": {"type": "Polygon", "coordinates": [[[-95.3424484, 35.730442], [-95.3424487, 35.730354], [-95.3415521, 35.7303522], [-95.3415518, 35.7304404], [-95.3424484, 35.730442]]]}, "properties": {"osm_id": 1175049392, "building": "yes", "name": "", "height": null, "height_m": null, "levels": null, "tract_id": "40101000902", "tract_name": "9.02", "tags": {"building": "yes", "shop": "storage_rental"}}}, {"type": "Feature", "geometry": {"type": "Polygon", "coordinates": [[[-95.3424456, 35.7302747], [-95.3424455, 35.7301902], [-95.3415536, 35.7301908], [-95.3415536, 35.7302751], [-95.3424456, 35.7302747]]]}, "properties": {"osm_id": 1175049393, "building": "yes", "name": "", "height": null, "height_m": null, "levels": null, "tract_id": "40101000902", "tract_name": "9.02", "tags": {"building": "yes", "shop": "storage_rental"}}}, {"type": "Feature", "geometry": {"type": "Polygon", "coordinates": [[[-95.342445, 35.7301203], [-95.3424454, 35.7300327], [-95.3415496, 35.73003], [-95.3415491, 35.7301175], [-95.342445, 35.7301203]]]}, "properties": {"osm_id": 1175049394, "building": "yes", "name": "", "height": null, "height_m": null, "levels": null, "tract_id": "40101000902", "tract_name": "9.02", "tags": {"building": "yes", "shop": "storage_rental"}}}, {"type": "Feature", "geometry": {"type": "Polygon", "coordinates": [[[-95.3424092, 35.7299612], [-95.3424095, 35.7298768], [-95.3415445, 35.7298746], [-95.3415442, 35.7299589], [-95.3424092, 35.7299612]]]}, "properties": {"osm_id": 1175049395, "building": "yes", "name": "", "height": null, "height_m": null, "levels": null, "tract_id": "40101000902", "tract_name": "9.02", "tags": {"building": "yes", "shop": "storage_rental"}}}, {"type": "Feature", "geometry": {"type": "Polygon", "coordinates": [[[-95.3415392, 35.7295779], [-95.341539, 35.7294928], [-95.3414411, 35.729493], [-95.3414404, 35.7292527], [-95.3412103, 35.7292531], [-95.3412104, 35.7292804], [-95.3409498, 35.7292809], [-95.3409501, 35.7293868], [-95.3407361, 35.7293873], [-95.340736, 35.729369], [-95.3406438, 35.7293692], [-95.3406443, 35.729559], [-95.3407383, 35.7295589], [-95.3407382, 35.7295415], [-95.3409488, 35.7295412], [-95.340949, 35.7296095], [-95.3412321, 35.7296091], [-95.341232, 35.7296025], [-95.341444, 35.7296021], [-95.3414439, 35.7295781], [-95.3415392, 35.7295779]]]}, "properties": {"osm_id": 1175049396, "building": "church", "name": "", "height": null, "height_m": null, "levels": null, "tract_id": "40101000902", "tract_name": "9.02", "tags": {"addr:city": "Muskogee", "addr:housenumber": "1125", "addr:postcode": "74403", "addr:state": "OK", "addr:street": "South York Street", "building": "church"}}}, {"type": "Feature", "geometry": {"type": "Polygon", "coordinates": [[[-95.3428434, 35.7282963], [-95.342845, 35.7281862], [-95.3416002, 35.7281837], [-95.3416002, 35.7282963], [-95.3428434, 35.7282963]]]}, "properties": {"osm_id": 1175049397, "building": "yes", "name": "", "height": null, "height_m": null, "levels": null, "tract_id": "40101000902", "tract_name": "9.02", "tags": {"building": "yes", "shop": "storage_rental"}}}, {"type": "Feature", "geometry": {"type": "Polygon", "coordinates": [[[-95.3428432, 35.7281181], [-95.3428432, 35.7280393], [-95.3416, 35.7280356], [-95.3416, 35.7281169], [-95.3428432, 35.7281181]]]}, "properties": {"osm_id": 1175049398, "building": "yes", "name": "", "height": null, "height_m": null, "levels": null, "tract_id": "40101000902", "tract_name": "9.02", "tags": {"building": "yes", "shop": "storage_rental"}}}, {"type": "Feature", "geometry": {"type": "Polygon", "coordinates": [[[-95.3426783, 35.7279718], [-95.3426783, 35.7278605], [-95.3416, 35.727858], [-95.3416046, 35.7279693], [-95.3426783, 35.7279718]]]}, "properties": {"osm_id": 1175049399, "building": "yes", "name": "", "height": null, "height_m": null, "levels": null, "tract_id": "40101000902", "tract_name": "9.02", "tags": {"building": "yes", "shop": "storage_rental"}}}, {"type": "Feature", "geometry": {"type": "Polygon", "coordinates": [[[-95.3426783, 35.7277954], [-95.3426783, 35.7277142], [-95.3416015, 35.7277129], [-95.3416, 35.7277929], [-95.3426783, 35.7277954]]]}, "properties": {"osm_id": 1175049400, "building": "yes", "name": "", "height": null, "height_m": null, "levels": null, "tract_id": "40101000902", "tract_name": "9.02", "tags": {"building": "yes", "shop": "storage_rental"}}}, {"type": "Feature", "geometry": {"type": "Polygon", "coordinates": [[[-95.3409546, 35.7272996], [-95.3409569, 35.7271516], [-95.3407809, 35.7271499], [-95.3407802, 35.727195], [-95.3407082, 35.7271943], [-95.3407072, 35.727264], [-95.3407443, 35.7272644], [-95.3407438, 35.7272975], [-95.3409546, 35.7272996]]]}, "properties": {"osm_id": 1175049406, "building": "yes", "name": "", "height": null, "height_m": null, "levels": null, "tract_id": "40101000902", "tract_name": "9.02", "tags": {"addr:city": "Muskogee", "addr:housenumber": "1311", "addr:postcode": "74403", "addr:state": "OK", "addr:street": "South York Street", "building": "yes"}}}, {"type": "Feature", "geometry": {"type": "Polygon", "coordinates": [[[-95.340681, 35.7436172], [-95.3406837, 35.7435261], [-95.340631, 35.7435251], [-95.3406318, 35.7434987], [-95.3405887, 35.7434979], [-95.3405883, 35.7435108], [-95.3405593, 35.7435103], [-95.3405589, 35.7435231], [-95.3405098, 35.7435222], [-95.3405088, 35.7435581], [-95.3404973, 35.7435579], [-95.3404952, 35.7436319], [-95.3406013, 35.743634], [-95.3406019, 35.7436157], [-95.340681, 35.7436172]]]}, "properties": {"osm_id": 1175114945, "building": "yes", "name": "Cuddles and Crayons Child Care Center", "height": null, "height_m": null, "levels": null, "tract_id": "40101000902", "tract_name": "9.02", "tags": {"addr:housenumber": "501", "addr:street": "North York Street", "amenity": "childcare", "building": "yes", "name": "Cuddles and Crayons Child Care Center"}}}, {"type": "Feature", "geometry": {"type": "Polygon", "coordinates": [[[-95.3407864, 35.7440567], [-95.3407876, 35.7439333], [-95.3406858, 35.7439327], [-95.3406857, 35.7439485], [-95.3406572, 35.7439484], [-95.3406568, 35.7439901], [-95.3406806, 35.7439902], [-95.34068, 35.744056], [-95.3407864, 35.7440567]]]}, "properties": {"osm_id": 1175114946, "building": "yes", "name": "State Farm", "height": null, "height_m": null, "levels": null, "tract_id": "40101000902", "tract_name": "9.02", "tags": {"addr:city": "Muskogee", "addr:housenumber": "505", "addr:postcode": "74403", "addr:state": "OK", "addr:street": "North York Street", "brand": "State Farm", "brand:wikidata": "Q2007336", "building": "yes", "name": "State Farm", "office": "insurance"}}}, {"type": "Feature", "geometry": {"type": "Polygon", "coordinates": [[[-95.3408344, 35.7449911], [-95.3408331, 35.7448009], [-95.340654, 35.7448016], [-95.3406544, 35.7448616], [-95.3406331, 35.7448616], [-95.3406335, 35.7449289], [-95.340654, 35.7449289], [-95.3406544, 35.7449919], [-95.3408344, 35.7449911]]]}, "properties": {"osm_id": 1175114947, "building": "yes", "name": "Sophisticuts", "height": null, "height_m": null, "levels": null, "tract_id": "40101000902", "tract_name": "9.02", "tags": {"addr:city": "Muskogee", "addr:housenumber": "607", "addr:postcode": "74403", "addr:state": "OK", "addr:street": "North York Street", "building": "yes", "name": "Sophisticuts", "shop": "hairdresser"}}}, {"type": "Feature", "geometry": {"type": "Polygon", "coordinates": [[[-95.3405391, 35.7473755], [-95.3405394, 35.7473247], [-95.340657, 35.7473251], [-95.340657, 35.7473324], [-95.3407163, 35.7473327], [-95.3407161, 35.7473713], [-95.3406532, 35.7473711], [-95.3406532, 35.7473759], [-95.3405391, 35.7473755]]]}, "properties": {"osm_id": 1175114959, "building": "yes", "name": "Frank-n-Swine", "height": null, "height_m": null, "levels": null, "tract_id": "40101000902", "tract_name": "9.02", "tags": {"addr:city": "Muskogee", "addr:housenumber": "715", "addr:postcode": "74403", "addr:state": "OK", "addr:street": "North York Street", "amenity": "fast_food", "building": "yes", "cuisine": "hot_dog", "name": "Frank-n-Swine"}}}, {"type": "Feature", "geometry": {"type": "Polygon", "coordinates": [[[-95.340814, 35.747187], [-95.3408134, 35.7471052], [-95.3407508, 35.7471058], [-95.3405403, 35.7471069], [-95.3405414, 35.7471883], [-95.3407338, 35.7471874], [-95.340814, 35.747187]]]}, "properties": {"osm_id": 1175114960, "building": "yes", "name": "Dragonfly Dojo", "height": null, "height_m": null, "levels": null, "tract_id": "40101000902", "tract_name": "9.02", "tags": {"addr:city": "Muskogee", "addr:housenumber": "709", "addr:postcode": "74403", "addr:state": "OK", "addr:street": "North York Street", "amenity": "dojo", "building": "yes", "name": "Dragonfly Dojo"}}}, {"type": "Feature", "geometry": {"type": "Polygon", "coordinates": [[[-95.3405403, 35.7471069], [-95.3405406, 35.7470234], [-95.3407154, 35.7470233], [-95.3407502, 35.7470231], [-95.3407508, 35.7471058], [-95.3405403, 35.7471069]]]}, "properties": {"osm_id": 1175114961, "building": "yes", "name": "Southern Charm Boutique", "height": null, "height_m": null, "levels": null, "tract_id": "40101000902", "tract_name": "9.02", "tags": {"addr:city": "Muskogee", "addr:housenumber": "705", "addr:postcode": "74403", "addr:state": "OK", "addr:street": "North York Street", "building": "yes", "name": "Southern Charm Boutique", "shop": "clothes"}}}, {"type": "Feature", "geometry": {"type": "Polygon", "coordinates": [[[-95.3405406, 35.7470234], [-95.3405413, 35.7469576], [-95.3407143, 35.7469574], [-95.3407154, 35.7470233], [-95.3405406, 35.7470234]]]}, "properties": {"osm_id": 1175114962, "building": "yes", "name": "Awakening Massage", "height": null, "height_m": null, "levels": null, "tract_id": "40101000902", "tract_name": "9.02", "tags": {"addr:city": "Muskogee", "addr:housenumber": "703", "addr:postcode": "74403", "addr:state": "OK", "addr:street": "North York Street", "building": "yes", "name": "Awakening Massage", "shop": "massage"}}}, {"type": "Feature", "geometry": {"type": "Polygon", "coordinates": [[[-95.3405413, 35.7469576], [-95.3405412, 35.7468809], [-95.3407142, 35.7468806], [-95.3407143, 35.7469574], [-95.3405413, 35.7469576]]]}, "properties": {"osm_id": 1175114963, "building": "yes", "name": "Town & Country Pup", "height": null, "height_m": null, "levels": null, "tract_id": "40101000902", "tract_name": "9.02", "tags": {"addr:city": "Muskogee", "addr:housenumber": "701", "addr:postcode": "74403", "addr:state": "OK", "addr:street": "North York Street", "building": "yes", "name": "Town & Country Pup", "shop": "pet_grooming"}}}, {"type": "Feature", "geometry": {"type": "Polygon", "coordinates": [[[-95.340814, 35.747187], [-95.3408154, 35.7472744], [-95.340734, 35.7472746], [-95.3407338, 35.7471874], [-95.340814, 35.747187]]]}, "properties": {"osm_id": 1175114964, "building": "yes", "name": "", "height": null, "height_m": null, "levels": null, "tract_id": "40101000902", "tract_name": "9.02", "tags": {"addr:city": "Muskogee", "addr:postcode": "74403", "addr:state": "OK", "addr:street": "North York Street", "building": "yes"}}}, {"type": "Feature", "geometry": {"type": "Polygon", "coordinates": [[[-95.3408542, 35.7478673], [-95.3408525, 35.7476508], [-95.3405967, 35.7476476], [-95.3405979, 35.7478659], [-95.3408542, 35.7478673]]]}, "properties": {"osm_id": 1175114965, "building": "commercial", "name": "", "height": null, "height_m": null, "levels": null, "tract_id": "40101000902", "tract_name": "9.02", "tags": {"building": "commercial"}}}, {"type": "Feature", "geometry": {"type": "Polygon", "coordinates": [[[-95.341132, 35.7487296], [-95.341132, 35.748493], [-95.3409851, 35.748493], [-95.3409851, 35.7487296], [-95.341132, 35.7487296]]]}, "properties": {"osm_id": 1175114967, "building": "apartments", "name": "", "height": null, "height_m": null, "levels": null, "tract_id": "40101000902", "tract_name": "9.02", "tags": {"building": "apartments"}}}, {"type": "Feature", "geometry": {"type": "Polygon", "coordinates": [[[-95.3409367, 35.7488168], [-95.3409351, 35.7485584], [-95.340792, 35.748559], [-95.3407935, 35.7488174], [-95.3409367, 35.7488168]]]}, "properties": {"osm_id": 1175114968, "building": "apartments", "name": "", "height": null, "height_m": null, "levels": null, "tract_id": "40101000902", "tract_name": "9.02", "tags": {"building": "apartments"}}}, {"type": "Feature", "geometry": {"type": "Polygon", "coordinates": [[[-95.3411351, 35.7489706], [-95.3411366, 35.7488331], [-95.3409777, 35.7488319], [-95.3409775, 35.7488487], [-95.340794, 35.7488474], [-95.3407927, 35.7489681], [-95.3411351, 35.7489706]]]}, "properties": {"osm_id": 1175114969, "building": "apartments", "name": "", "height": null, "height_m": null, "levels": null, "tract_id": "40101000902", "tract_name": "9.02", "tags": {"building": "apartments"}}}, {"type": "Feature", "geometry": {"type": "Polygon", "coordinates": [[[-95.3407775, 35.7488618], [-95.3407775, 35.7487469], [-95.3406522, 35.7487469], [-95.3406552, 35.7488618], [-95.3407775, 35.7488618]]]}, "properties": {"osm_id": 1175114971, "building": "yes", "name": "Juice Express Cafe", "height": null, "height_m": null, "levels": null, "tract_id": "40101000902", "tract_name": "9.02", "tags": {"addr:city": "Muskogee", "addr:housenumber": "805", "addr:postcode": "74403", "addr:state": "OK", "addr:street": "North York Street", "air_conditioning": "yes", "amenity": "fast_food", "building": "yes", "check_date": "2025-08-15", "cuisine": "juice;chicken;sandwich", "name": "Juice Express Cafe", "opening_hours": "Mo-Sa 10:30-21:00", "outdoor_seating": "no", "payment:cash": "yes", "payment:credit_cards": "yes", "payment:debit_cards": "yes", "phone": "+1 918 686 8588", "takeaway": "yes", "website": "https://juiceexpresscafe.com/"}}}, {"type": "Feature", "geometry": {"type": "Polygon", "coordinates": [[[-95.341243, 35.7493757], [-95.3412417, 35.7492693], [-95.3411235, 35.7492682], [-95.3411222, 35.7493757], [-95.341243, 35.7493757]]]}, "properties": {"osm_id": 1175114972, "building": "yes", "name": "Studio III & Day Spa", "height": null, "height_m": null, "levels": null, "tract_id": "40101000902", "tract_name": "9.02", "tags": {"addr:city": "Muskogee", "addr:housenumber": "1824", "addr:postcode": "74403", "addr:state": "OK", "addr:street": "Houston Street", "building": "yes", "name": "Studio III & Day Spa", "shop": "hairdresser"}}}, {"type": "Feature", "geometry": {"type": "Polygon", "coordinates": [[[-95.3407905, 35.7499138], [-95.3407875, 35.7497117], [-95.3405027, 35.7497092], [-95.3404997, 35.749915], [-95.3407905, 35.7499138]]]}, "properties": {"osm_id": 1175114973, "building": "commercial", "name": "", "height": null, "height_m": null, "levels": null, "tract_id": "40101000902", "tract_name": "9.02", "tags": {"building": "commercial"}}}, {"type": "Feature", "geometry": {"type": "Polygon", "coordinates": [[[-95.3407969, 35.7521853], [-95.3407988, 35.7520795], [-95.340787, 35.7520788], [-95.340657, 35.7520791], [-95.3406567, 35.7521836], [-95.3407969, 35.7521853]]]}, "properties": {"osm_id": 1175114974, "building": "retail", "name": "Johnny D's Medical Dispensary", "height": null, "height_m": null, "levels": null, "tract_id": "40101000902", "tract_name": "9.02", "tags": {"addr:city": "Muskogee", "addr:housenumber": "911", "addr:postcode": "74403", "addr:state": "OK", "addr:street": "North York Street", "building": "retail", "name": "Johnny D's Medical Dispensary", "shop": "cannabis"}}}, {"type": "Feature", "geometry": {"type": "Polygon", "coordinates": [[[-95.340657, 35.7520791], [-95.3406566, 35.751977], [-95.3407866, 35.7519769], [-95.340787, 35.7520788], [-95.340657, 35.7520791]]]}, "properties": {"osm_id": 1175114975, "building": "retail", "name": "", "height": null, "height_m": null, "levels": null, "tract_id": "40101000902", "tract_name": "9.02", "tags": {"addr:city": "Muskogee", "addr:housenumber": "909", "addr:postcode": "74403", "addr:state": "OK", "addr:street": "North York Street", "building": "retail"}}}, {"type": "Feature", "geometry": {"type": "Polygon", "coordinates": [[[-95.3408853, 35.7519768], [-95.3407866, 35.7519769], [-95.3406566, 35.751977], [-95.340631, 35.751977], [-95.3406304, 35.7518224], [-95.340885, 35.751824], [-95.3408853, 35.7519768]]]}, "properties": {"osm_id": 1175114976, "building": "retail", "name": "", "height": null, "height_m": null, "levels": null, "tract_id": "40101000902", "tract_name": "9.02", "tags": {"addr:city": "Muskogee", "addr:housenumber": "907", "addr:postcode": "74403", "addr:state": "OK", "addr:street": "North York Street", "building": "retail"}}}, {"type": "Feature", "geometry": {"type": "Polygon", "coordinates": [[[-95.3406304, 35.7518224], [-95.3406312, 35.7517299], [-95.3407333, 35.7517305], [-95.3407335, 35.7517107], [-95.3409047, 35.7517118], [-95.3409036, 35.7518241], [-95.340885, 35.751824], [-95.3406304, 35.7518224]]]}, "properties": {"osm_id": 1175114977, "building": "retail", "name": "Nearly New & Fancy Too", "height": null, "height_m": null, "levels": null, "tract_id": "40101000902", "tract_name": "9.02", "tags": {"addr:city": "Muskogee", "addr:housenumber": "905", "addr:postcode": "74403", "addr:state": "OK", "addr:street": "North York Street", "building": "retail", "name": "Nearly New & Fancy Too", "second_hand": "only", "shop": "clothes"}}}, {"type": "Feature", "geometry": {"type": "Polygon", "coordinates": [[[-95.3409268, 35.7530681], [-95.3409265, 35.7528416], [-95.3407485, 35.7528418], [-95.3407488, 35.7530683], [-95.3409268, 35.7530681]]]}, "properties": {"osm_id": 1175114978, "building": "yes", "name": "Tangelo Orthodontics", "height": null, "height_m": null, "levels": null, "tract_id": "40101000902", "tract_name": "9.02", "tags": {"addr:city": "Muskogee", "addr:housenumber": "1015", "addr:postcode": "74403", "addr:state": "OK", "addr:street": "North York Street", "amenity": "dentist", "building": "yes", "healthcare": "dentist", "healthcare:speciality": "orthodontics", "name": "Tangelo Orthodontics"}}}, {"type": "Feature", "geometry": {"type": "Polygon", "coordinates": [[[-95.3413814, 35.7601333], [-95.3413838, 35.759796], [-95.3409588, 35.7597979], [-95.3409565, 35.7601295], [-95.3413814, 35.7601333]]]}, "properties": {"osm_id": 1249562091, "building": "yes", "name": "Hughes Lumber", "height": null, "height_m": null, "levels": null, "tract_id": "40101000902", "tract_name": "9.02", "tags": {"addr:city": "Muskogee", "addr:housenumber": "1425", "addr:postcode": "74403", "addr:state": "OK", "addr:street": "North York Street", "building": "yes", "name": "Hughes Lumber", "phone": "+1 918-683-2987", "shop": "hardware"}}}, {"type": "Feature", "geometry": {"type": "Polygon", "coordinates": [[[-95.341298, 35.7627016], [-95.3411228, 35.7625773], [-95.3409876, 35.7627038], [-95.3408331, 35.762593], [-95.3406854, 35.7627374], [-95.3408386, 35.7628449], [-95.3406758, 35.7630016], [-95.3408482, 35.7631236], [-95.341298, 35.7627016]]]}, "properties": {"osm_id": 1424618273, "building": "commercial", "name": "York Plaza", "height": null, "height_m": null, "levels": null, "tract_id": "40101000902", "tract_name": "9.02", "tags": {"addr:city": "Muskogee", "addr:postcode": "74403", "addr:state": "OK", "addr:street": "North York Street", "building": "commercial", "name": "York Plaza"}}}, {"type": "Feature", "geometry": {"type": "Polygon", "coordinates": [[[-95.3465824, 35.7485672], [-95.3465804, 35.7483509], [-95.3465497, 35.748351], [-95.3465484, 35.7482071], [-95.3463652, 35.7482081], [-95.3463666, 35.7483738], [-95.3463344, 35.748374], [-95.3463207, 35.7483908], [-95.3463223, 35.7484189], [-95.3462362, 35.7484221], [-95.3462353, 35.7484061], [-95.3462266, 35.7484064], [-95.3462256, 35.7483883], [-95.3462122, 35.748375], [-95.3460392, 35.748376], [-95.3460409, 35.7485704], [-95.3465824, 35.7485672]]]}, "properties": {"osm_id": 1424691229, "building": "yes", "name": "Presbyterian Church of Muskogee", "height": null, "height_m": null, "levels": null, "tract_id": "40101000902", "tract_name": "9.02", "tags": {"addr:city": "Muskogee", "addr:housenumber": "2000", "addr:postcode": "74403", "addr:state": "OK", "addr:street": "Haskell Boulevard", "amenity": "place_of_worship", "building": "yes", "denomination": "presbyterian", "ele": "181", "gnis:feature_id": "1798860", "name": "Presbyterian Church of Muskogee", "old_name": "Bethany Presbyterian Church", "religion": "christian"}}}, {"type": "Feature", "geometry": {"type": "Polygon", "coordinates": [[[-95.3452439, 35.743849], [-95.3452424, 35.7436312], [-95.3448376, 35.7436329], [-95.344839, 35.7438509], [-95.3449798, 35.7438503], [-95.3449799, 35.7438732], [-95.3450973, 35.7438727], [-95.3450971, 35.7438496], [-95.3452439, 35.743849]]]}, "properties": {"osm_id": 1427543313, "building": "school", "name": "", "height": null, "height_m": null, "levels": null, "tract_id": "40101000902", "tract_name": "9.02", "tags": {"building": "school"}}}, {"type": "Feature", "geometry": {"type": "Polygon", "coordinates": [[[-95.3456691, 35.7452363], [-95.3455335, 35.7452378], [-95.3455318, 35.7444152], [-95.3456656, 35.7444138], [-95.3456691, 35.7452363]]]}, "properties": {"osm_id": 1427543314, "building": "grandstand", "name": "", "height": null, "height_m": null, "levels": null, "tract_id": "40101000902", "tract_name": "9.02", "tags": {"building": "grandstand"}}}, {"type": "Feature", "geometry": {"type": "Polygon", "coordinates": [[[-95.3446088, 35.7450727], [-95.3444228, 35.7450699], [-95.3444349, 35.7445718], [-95.3446105, 35.744569], [-95.3446088, 35.7450727]]]}, "properties": {"osm_id": 1427543315, "building": "grandstand", "name": "", "height": null, "height_m": null, "levels": null, "tract_id": "40101000902", "tract_name": "9.02", "tags": {"building": "grandstand"}}}, {"type": "Feature", "geometry": {"type": "Polygon", "coordinates": [[[-95.345747, 35.7454835], [-95.345639, 35.7454843], [-95.34564, 35.7455552], [-95.345547, 35.7455559], [-95.345548, 35.7455933], [-95.3453978, 35.7455948], [-95.3453978, 35.7456062], [-95.3453161, 35.745607], [-95.3453152, 35.7457113], [-95.3454072, 35.7457121], [-95.3454081, 35.7456687], [-95.3455508, 35.7456694], [-95.3455489, 35.7457376], [-95.3455686, 35.7457376], [-95.3455696, 35.7456687], [-95.3456287, 35.7457136], [-95.3457019, 35.7456565], [-95.3456531, 35.7456131], [-95.345746, 35.7456138], [-95.345747, 35.7454835]]]}, "properties": {"osm_id": 1427543317, "building": "school", "name": "", "height": null, "height_m": null, "levels": null, "tract_id": "40101000902", "tract_name": "9.02", "tags": {"building": "school"}}}, {"type": "Feature", "geometry": {"type": "Polygon", "coordinates": [[[-95.3456948, 35.74547], [-95.3455552, 35.7454705], [-95.3455541, 35.7453817], [-95.345696, 35.7453803], [-95.3456948, 35.74547]]]}, "properties": {"osm_id": 1427543318, "building": "school", "name": "", "height": null, "height_m": null, "levels": null, "tract_id": "40101000902", "tract_name": "9.02", "tags": {"building": "school"}}}, {"type": "Feature", "geometry": {"type": "Polygon", "coordinates": [[[-95.3497599, 35.7385129], [-95.3493157, 35.7383457], [-95.3491338, 35.7386619], [-95.3495893, 35.7388343], [-95.3497599, 35.7385129]]]}, "properties": {"osm_id": 1427590722, "building": "church", "name": "Calvary Baptist Church", "height": null, "height_m": null, "levels": null, "tract_id": "40101000902", "tract_name": "9.02", "tags": {"addr:city": "Muskogee", "addr:housenumber": "220", "addr:postcode": "74403", "addr:state": "OK", "addr:street": "South R Street", "amenity": "place_of_worship", "area": "yes", "building": "church", "denomination": "southern_baptist", "ele": "178", "gnis:feature_id": "1798863", "name": "Calvary Baptist Church", "religion": "christian"}}}, {"type": "Feature", "geometry": {"type": "Polygon", "coordinates": [[[-95.347628, 35.7385172], [-95.347359, 35.7384153], [-95.3473617, 35.7382742], [-95.3474638, 35.7382697], [-95.3474597, 35.7382485], [-95.3472707, 35.7382529], [-95.3472334, 35.7379114], [-95.3474459, 35.7379035], [-95.347439, 35.7378263], [-95.3475438, 35.7378218], [-95.3475507, 35.7378879], [-95.3476087, 35.7378845], [-95.3476183, 35.7380682], [-95.3475908, 35.7380682], [-95.3476087, 35.738113], [-95.3476046, 35.7382272], [-95.3476418, 35.7382272], [-95.3476363, 35.7382989], [-95.3475894, 35.7383795], [-95.3476749, 35.7384086], [-95.347628, 35.7385172]]]}, "properties": {"osm_id": 1427590723, "building": "church", "name": "Central Assembly of God Church", "height": null, "height_m": null, "levels": null, "tract_id": "40101000902", "tract_name": "9.02", "tags": {"addr:city": "Muskogee", "addr:housenumber": "1801", "addr:postcode": "74403", "addr:state": "OK", "addr:street": "Baltimore Street", "amenity": "place_of_worship", "area": "yes", "building": "church", "denomination": "pentecostal", "ele": "178", "gnis:feature_id": "1798862", "name": "Central Assembly of God Church", "religion": "christian"}}}, {"type": "Feature", "geometry": {"type": "Polygon", "coordinates": [[[-95.3476146, 35.7377376], [-95.3474078, 35.7377447], [-95.3474024, 35.7376414], [-95.3474366, 35.7376402], [-95.3474274, 35.7374642], [-95.3476, 35.7374582], [-95.3476146, 35.7377376]]]}, "properties": {"osm_id": 1427590724, "building": "church", "name": "", "height": null, "height_m": null, "levels": null, "tract_id": "40101000902", "tract_name": "9.02", "tags": {"building": "church"}}}, {"type": "Feature", "geometry": {"type": "Polygon", "coordinates": [[[-95.3536955, 35.7264438], [-95.3536913, 35.7262628], [-95.3535327, 35.7262651], [-95.3535333, 35.7262932], [-95.3533795, 35.7262955], [-95.3533819, 35.7264041], [-95.3535139, 35.7264022], [-95.3535149, 35.7264456], [-95.3535885, 35.7264445], [-95.3535888, 35.7264602], [-95.3536451, 35.7264594], [-95.3536448, 35.7264446], [-95.3536955, 35.7264438]]]}, "properties": {"osm_id": 1427784556, "building": "yes", "name": "God's Powerhouse Christian Center", "height": null, "height_m": null, "levels": null, "tract_id": "40101000902", "tract_name": "9.02", "tags": {"addr:city": "Muskogee", "addr:housenumber": "1616", "addr:postcode": "74403", "addr:state": "OK", "addr:street": "East Hancock Street", "amenity": "place_of_worship", "building": "yes", "name": "God's Powerhouse Christian Center", "religion": "christian"}}}, {"type": "Feature", "geometry": {"type": "Polygon", "coordinates": [[[-95.3490853, 35.7304479], [-95.3489879, 35.7305401], [-95.3486919, 35.7303442], [-95.3486716, 35.7305237], [-95.3485094, 35.7305072], [-95.3485276, 35.7304018], [-95.3485074, 35.7303986], [-95.3484648, 35.7304414], [-95.3484648, 35.7304743], [-95.3484181, 35.7305171], [-95.3482904, 35.7304381], [-95.348331, 35.7304002], [-95.348331, 35.7303837], [-95.3483147, 35.7303739], [-95.3483026, 35.7303558], [-95.3482417, 35.7302257], [-95.3484161, 35.7301961], [-95.3484384, 35.7301582], [-95.3481647, 35.7299821], [-95.348264, 35.72988], [-95.348554, 35.7300825], [-95.3485824, 35.7299031], [-95.3487345, 35.729913], [-95.3487203, 35.7300562], [-95.3488075, 35.7299821], [-95.3488825, 35.7300265], [-95.3487933, 35.7301072], [-95.3489656, 35.7300693], [-95.3490062, 35.7301961], [-95.3487973, 35.7302455], [-95.3490853, 35.7304479]]]}, "properties": {"osm_id": 1427984140, "building": "yes", "name": "Pleasant Valley Health Care", "height": null, "height_m": null, "levels": null, "tract_id": "40101000902", "tract_name": "9.02", "tags": {"addr:city": "Muskogee", "addr:housenumber": "1120", "addr:postcode": "74403", "addr:state": "OK", "addr:street": "Illinois Street", "amenity": "social_facility", "building": "yes", "name": "Pleasant Valley Health Care", "social_facility": "nursing_home", "social_facility:for": "senior", "wheelchair": "yes"}}}, {"type": "Feature", "geometry": {"type": "Polygon", "coordinates": [[[-95.3489562, 35.7314906], [-95.3484451, 35.7314895], [-95.3484454, 35.7313788], [-95.3485656, 35.731379], [-95.3485658, 35.7312937], [-95.3486414, 35.7312939], [-95.3486411, 35.7313813], [-95.348755, 35.7313815], [-95.3487553, 35.7312961], [-95.348827, 35.7312962], [-95.3488268, 35.7313819], [-95.3489566, 35.7313822], [-95.3489562, 35.7314906]]]}, "properties": {"osm_id": 1427984141, "building": "apartments", "name": "", "height": null, "height_m": null, "levels": null, "tract_id": "40101000902", "tract_name": "9.02", "tags": {"addr:city": "Muskogee", "addr:housenumber": "1017", "addr:postcode": "74403", "addr:state": "OK", "addr:street": "Indiana Street", "building": "apartments", "building:flats": "6"}}}, {"type": "Feature", "geometry": {"type": "Polygon", "coordinates": [[[-95.3484241, 35.7314863], [-95.347913, 35.7314852], [-95.3479133, 35.7313745], [-95.3480335, 35.7313747], [-95.3480337, 35.7312894], [-95.3481093, 35.7312896], [-95.3481091, 35.731377], [-95.3482229, 35.7313772], [-95.3482232, 35.7312918], [-95.348295, 35.7312919], [-95.3482947, 35.7313776], [-95.3484245, 35.7313778], [-95.3484241, 35.7314863]]]}, "properties": {"osm_id": 1427984142, "building": "apartments", "name": "", "height": null, "height_m": null, "levels": null, "tract_id": "40101000902", "tract_name": "9.02", "tags": {"addr:city": "Muskogee", "addr:housenumber": "909", "addr:postcode": "74403", "addr:state": "OK", "addr:street": "Indiana Street", "building": "apartments", "building:flats": "6"}}}, {"type": "Feature", "geometry": {"type": "Polygon", "coordinates": [[[-95.3479124, 35.7309264], [-95.3484236, 35.7309272], [-95.3484234, 35.7310379], [-95.3483032, 35.7310377], [-95.348303, 35.731123], [-95.3482275, 35.7311229], [-95.3482276, 35.7310355], [-95.3481138, 35.7310354], [-95.3481136, 35.7311208], [-95.3480418, 35.7311207], [-95.348042, 35.731035], [-95.3479122, 35.7310349], [-95.3479124, 35.7309264]]]}, "properties": {"osm_id": 1427984143, "building": "apartments", "name": "", "height": null, "height_m": null, "levels": null, "tract_id": "40101000902", "tract_name": "9.02", "tags": {"addr:city": "Muskogee", "addr:housenumber": "1007", "addr:postcode": "74403", "addr:state": "OK", "addr:street": "Indiana Street", "building": "apartments", "building:flats": "6"}}}, {"type": "Feature", "geometry": {"type": "Polygon", "coordinates": [[[-95.3488777, 35.7310956], [-95.3488689, 35.7306808], [-95.3490053, 35.7306788], [-95.3490074, 35.7307764], [-95.3491124, 35.7307749], [-95.3491137, 35.7308362], [-95.349006, 35.7308378], [-95.349008, 35.7309302], [-95.3491133, 35.7309287], [-95.3491145, 35.7309869], [-95.349009, 35.7309884], [-95.3490112, 35.7310938], [-95.3488777, 35.7310956]]]}, "properties": {"osm_id": 1427984144, "building": "apartments", "name": "", "height": null, "height_m": null, "levels": null, "tract_id": "40101000902", "tract_name": "9.02", "tags": {"addr:city": "Muskogee", "addr:housenumber": "1116", "addr:postcode": "74403", "addr:state": "OK", "addr:street": "Illinois Street", "building": "apartments", "building:flats": "6"}}}, {"type": "Feature", "geometry": {"type": "Polygon", "coordinates": [[[-95.3481639, 35.7302937], [-95.3481619, 35.7307087], [-95.3480255, 35.7307083], [-95.348026, 35.7306107], [-95.3479209, 35.7306104], [-95.3479212, 35.7305491], [-95.3480289, 35.7305494], [-95.3480293, 35.7304569], [-95.347924, 35.7304566], [-95.3479243, 35.7303984], [-95.3480298, 35.7303987], [-95.3480303, 35.7302933], [-95.3481639, 35.7302937]]]}, "properties": {"osm_id": 1427984145, "building": "apartments", "name": "", "height": null, "height_m": null, "levels": null, "tract_id": "40101000902", "tract_name": "9.02", "tags": {"addr:city": "Muskogee", "addr:housenumber": "1011", "addr:postcode": "74403", "addr:state": "OK", "addr:street": "Indiana Street", "building": "apartments", "building:flats": "6"}}}, {"type": "Feature", "geometry": {"type": "Polygon", "coordinates": [[[-95.348742, 35.7310364], [-95.3487414, 35.7309469], [-95.3484634, 35.7309481], [-95.3484639, 35.7310326], [-95.348614, 35.731032], [-95.3486147, 35.7311434], [-95.348695, 35.7311431], [-95.3486943, 35.7310366], [-95.348742, 35.7310364]]]}, "properties": {"osm_id": 1427984146, "building": "apartments", "name": "", "height": null, "height_m": null, "levels": null, "tract_id": "40101000902", "tract_name": "9.02", "tags": {"addr:city": "Muskogee", "addr:housenumber": "1005", "addr:postcode": "74403", "addr:state": "OK", "addr:street": "Indiana Street", "building": "apartments", "building:flats": "4"}}}, {"type": "Feature", "geometry": {"type": "Polygon", "coordinates": [[[-95.3480921, 35.7298809], [-95.3480893, 35.7302467], [-95.3480022, 35.7302462], [-95.3480026, 35.7301929], [-95.3479694, 35.7301927], [-95.3479697, 35.7301565], [-95.3478525, 35.7301558], [-95.347853, 35.7300942], [-95.347976, 35.7300949], [-95.3479765, 35.7300317], [-95.3478501, 35.730031], [-95.3478505, 35.7299848], [-95.3479563, 35.7299853], [-95.3479571, 35.7298802], [-95.3480921, 35.7298809]]]}, "properties": {"osm_id": 1427984147, "building": "apartments", "name": "", "height": null, "height_m": null, "levels": null, "tract_id": "40101000902", "tract_name": "9.02", "tags": {"addr:city": "Muskogee", "addr:housenumber": "1021", "addr:postcode": "74403", "addr:state": "OK", "addr:street": "Indiana Street", "building": "apartments", "building:flats": "6"}}}, {"type": "Feature", "geometry": {"type": "Polygon", "coordinates": [[[-95.3490658, 35.7295935], [-95.3490674, 35.7293649], [-95.3489485, 35.7293643], [-95.3489486, 35.729351], [-95.3486845, 35.7293498], [-95.3486828, 35.72959], [-95.3487743, 35.7295905], [-95.3487753, 35.7294465], [-95.3489638, 35.7294474], [-95.3489628, 35.729593], [-95.3490658, 35.7295935]]]}, "properties": {"osm_id": 1427984148, "building": "apartments", "name": "", "height": null, "height_m": null, "levels": null, "tract_id": "40101000902", "tract_name": "9.02", "tags": {"addr:city": "Muskogee", "addr:housenumber": "1801", "addr:postcode": "74403", "addr:state": "OK", "addr:street": "Georgia Avenue", "building": "apartments", "building:flats": "10"}}}, {"type": "Feature", "geometry": {"type": "Polygon", "coordinates": [[[-95.3486311, 35.7295895], [-95.3485156, 35.7295907], [-95.348512, 35.7293595], [-95.3486275, 35.7293583], [-95.3486311, 35.7295895]]]}, "properties": {"osm_id": 1427984149, "building": "apartments", "name": "", "height": null, "height_m": null, "levels": null, "tract_id": "40101000902", "tract_name": "9.02", "tags": {"addr:city": "Muskogee", "addr:housenumber": "1805", "addr:postcode": "74403", "addr:state": "OK", "addr:street": "Georgia Avenue", "building": "apartments"}}}, {"type": "Feature", "geometry": {"type": "Polygon", "coordinates": [[[-95.3484728, 35.729591], [-95.3484694, 35.7293565], [-95.3481792, 35.7293593], [-95.3481806, 35.7294543], [-95.3482298, 35.7294538], [-95.3482322, 35.7296116], [-95.3483024, 35.7296109], [-95.3483001, 35.7294575], [-95.3483497, 35.729457], [-95.3483517, 35.7295922], [-95.3484728, 35.729591]]]}, "properties": {"osm_id": 1427984150, "building": "apartments", "name": "", "height": null, "height_m": null, "levels": null, "tract_id": "40101000902", "tract_name": "9.02", "tags": {"addr:city": "Muskogee", "addr:housenumber": "1821", "addr:postcode": "74403", "addr:state": "OK", "addr:street": "Georgia Avenue", "building": "apartments"}}}, {"type": "Feature", "geometry": {"type": "Polygon", "coordinates": [[[-95.348435, 35.7292204], [-95.3479238, 35.7292193], [-95.3479241, 35.7291086], [-95.3480443, 35.7291089], [-95.3480446, 35.7290236], [-95.3481201, 35.7290237], [-95.3481199, 35.7291111], [-95.3482338, 35.7291114], [-95.348234, 35.7290259], [-95.3483058, 35.729026], [-95.3483055, 35.7291117], [-95.3484353, 35.729112], [-95.348435, 35.7292204]]]}, "properties": {"osm_id": 1427984151, "building": "apartments", "name": "", "height": null, "height_m": null, "levels": null, "tract_id": "40101000902", "tract_name": "9.02", "tags": {"addr:city": "Muskogee", "addr:housenumber": "1131", "addr:postcode": "74403", "addr:state": "OK", "addr:street": "Indiana Street", "building": "apartments", "building:flats": "6"}}}, {"type": "Feature", "geometry": {"type": "Polygon", "coordinates": [[[-95.3413609, 35.7328833], [-95.3412753, 35.7328232], [-95.3411999, 35.7328968], [-95.3412893, 35.7329559], [-95.3413609, 35.7328833]]]}, "properties": {"osm_id": 1427987462, "building": "apartments", "name": "", "height": null, "height_m": null, "levels": null, "tract_id": "40101000902", "tract_name": "9.02", "tags": {"building": "apartments"}}}, {"type": "Feature", "geometry": {"type": "Polygon", "coordinates": [[[-95.3496474, 35.742529], [-95.3497231, 35.7423139], [-95.3490253, 35.7421239], [-95.3489756, 35.7422487], [-95.3492263, 35.7423063], [-95.3489746, 35.7424962], [-95.349014, 35.7425326], [-95.3489833, 35.7425539], [-95.3490486, 35.7426097], [-95.3493261, 35.7424073], [-95.3494005, 35.7426704], [-95.3491837, 35.7430801], [-95.3491432, 35.7430668], [-95.3491399, 35.7430099], [-95.3490983, 35.7430108], [-95.3490961, 35.7429485], [-95.3490195, 35.7429503], [-95.3490205, 35.7430134], [-95.3489866, 35.7430143], [-95.3489921, 35.743145], [-95.3490348, 35.7431601], [-95.3489965, 35.7432338], [-95.3490687, 35.7432605], [-95.349106, 35.7431903], [-95.3492615, 35.7432436], [-95.3495648, 35.7426846], [-95.3494783, 35.7423744], [-95.349567, 35.7423975], [-95.3495319, 35.7424997], [-95.3496474, 35.742529]]]}, "properties": {"osm_id": 1428103178, "building": "yes", "name": "Broadway Manor Healthcare Center", "height": null, "height_m": null, "levels": null, "tract_id": "40101000902", "tract_name": "9.02", "tags": {"addr:city": "Muskogee", "addr:housenumber": "1622", "addr:postcode": "74403", "addr:state": "OK", "addr:street": "East Broadway Avenue", "amenity": "social_facility", "building": "yes", "layer": "1", "name": "Broadway Manor Healthcare Center", "social_facility": "nursing_home", "social_facility:for": "senior", "wheelchair": "yes"}}}, {"type": "Feature", "geometry": {"type": "Polygon", "coordinates": [[[-95.3432441, 35.7391657], [-95.3429312, 35.7391615], [-95.3429294, 35.7387947], [-95.3430546, 35.7387947], [-95.3430563, 35.7388102], [-95.3431593, 35.738831], [-95.3432414, 35.7388305], [-95.3432449, 35.7390354], [-95.3432876, 35.739036], [-95.343289, 35.7390947], [-95.3432428, 35.7390942], [-95.3432441, 35.7391657]]]}, "properties": {"osm_id": 1428103190, "building": "yes", "name": "Harvest Ministries Church", "height": null, "height_m": null, "levels": null, "tract_id": "40101000902", "tract_name": "9.02", "tags": {"amenity": "place_of_worship", "building": "yes", "ele": "181", "gnis:feature_id": "1799038", "name": "Harvest Ministries Church", "old_name": "Muskogee Baptist Temple", "religion": "christian"}}}, {"type": "Feature", "geometry": {"type": "Polygon", "coordinates": [[[-95.343143, 35.7541409], [-95.3427536, 35.7541423], [-95.3427588, 35.7538066], [-95.343143, 35.7538009], [-95.343143, 35.7541409]]]}, "properties": {"osm_id": 1430422759, "building": "yes", "name": "Eastside Church of Christ", "height": null, "height_m": null, "levels": null, "tract_id": "40101000902", "tract_name": "9.02", "tags": {"addr:city": "Muskogee", "addr:housenumber": "2141", "addr:postcode": "74403", "addr:state": "OK", "addr:street": "Kingston Street", "amenity": "place_of_worship", "area": "yes", "building": "yes", "denomination": "church_of_christ", "ele": "187", "gnis:feature_id": "1798875", "name": "Eastside Church of Christ", "religion": "christian"}}}, {"type": "Feature", "geometry": {"type": "Polygon", "coordinates": [[[-95.3415176, 35.7609746], [-95.3415198, 35.7608351], [-95.3412696, 35.7608326], [-95.3412694, 35.7608465], [-95.3411596, 35.7608453], [-95.3411605, 35.760791], [-95.3410008, 35.7607893], [-95.3410001, 35.760838], [-95.3409573, 35.7608376], [-95.3409576, 35.760816], [-95.340686, 35.7608131], [-95.340683, 35.7609979], [-95.3408534, 35.7609998], [-95.340854, 35.7609594], [-95.3411732, 35.7609628], [-95.3411725, 35.7610027], [-95.3412315, 35.7610033], [-95.3412322, 35.7609601], [-95.3412611, 35.7609604], [-95.3412609, 35.7609719], [-95.3415176, 35.7609746]]]}, "properties": {"osm_id": 1430422775, "building": "commercial", "name": "Muskogee Marble & Granite", "height": null, "height_m": null, "levels": null, "tract_id": "40101000902", "tract_name": "9.02", "tags": {"addr:city": "Muskogee", "addr:housenumber": "1611", "addr:postcode": "74403", "addr:state": "OK", "addr:street": "North York Street", "building": "commercial", "name": "Muskogee Marble & Granite"}}}, {"type": "Feature", "geometry": {"type": "Polygon", "coordinates": [[[-95.3409821, 35.7615289], [-95.3409817, 35.7616409], [-95.3405768, 35.7616401], [-95.3405771, 35.7615282], [-95.3409821, 35.7615289]]]}, "properties": {"osm_id": 1430422776, "building": "commercial", "name": "Roy's Auto & Boat Upholstery", "height": null, "height_m": null, "levels": null, "tract_id": "40101000902", "tract_name": "9.02", "tags": {"addr:city": "Muskogee", "addr:housenumber": "1631", "addr:postcode": "74403", "addr:state": "OK", "addr:street": "North York Street", "building": "commercial", "craft": "upholsterer", "name": "Roy's Auto & Boat Upholstery", "phone": "+1-918-687-0036"}}}, {"type": "Feature", "geometry": {"type": "Polygon", "coordinates": [[[-95.3416949, 35.7616609], [-95.3416959, 35.7615444], [-95.3412892, 35.7615421], [-95.3412878, 35.7616581], [-95.3416949, 35.7616609]]]}, "properties": {"osm_id": 1430422777, "building": "commercial", "name": "", "height": null, "height_m": null, "levels": null, "tract_id": "40101000902", "tract_name": "9.02", "tags": {"addr:city": "Muskogee", "addr:housenumber": "1615", "addr:postcode": "74403", "addr:state": "OK", "addr:street": "North York Street", "building": "commercial"}}}, {"type": "Feature", "geometry": {"type": "Polygon", "coordinates": [[[-95.3419621, 35.7621161], [-95.3419683, 35.7617714], [-95.3418291, 35.7617698], [-95.3418228, 35.7621144], [-95.3419621, 35.7621161]]]}, "properties": {"osm_id": 1430422778, "building": "commercial", "name": "", "height": null, "height_m": null, "levels": null, "tract_id": "40101000902", "tract_name": "9.02", "tags": {"addr:city": "Muskogee", "addr:housenumber": "1617", "addr:postcode": "74403", "addr:state": "OK", "addr:street": "North York Street", "building": "commercial"}}}, {"type": "Feature", "geometry": {"type": "Polygon", "coordinates": [[[-95.3415248, 35.762066], [-95.3415261, 35.761897], [-95.3412374, 35.761896], [-95.3412335, 35.7620639], [-95.3415248, 35.762066]]]}, "properties": {"osm_id": 1430422779, "building": "commercial", "name": "", "height": null, "height_m": null, "levels": null, "tract_id": "40101000902", "tract_name": "9.02", "tags": {"addr:city": "Muskogee", "addr:postcode": "74403", "addr:state": "OK", "addr:street": "North York Street", "building": "commercial"}}}, {"type": "Feature", "geometry": {"type": "Polygon", "coordinates": [[[-95.340918, 35.7620535], [-95.3409167, 35.7618856], [-95.3406459, 35.7618804], [-95.3406447, 35.7620525], [-95.340918, 35.7620535]]]}, "properties": {"osm_id": 1430422780, "building": "commercial", "name": "", "height": null, "height_m": null, "levels": null, "tract_id": "40101000902", "tract_name": "9.02", "tags": {"addr:city": "Muskogee", "addr:postcode": "74403", "addr:state": "OK", "addr:street": "North York Street", "building": "commercial"}}}, {"type": "Feature", "geometry": {"type": "Polygon", "coordinates": [[[-95.3415041, 35.762384], [-95.3415083, 35.7622192], [-95.3413135, 35.7622159], [-95.3413093, 35.7623807], [-95.3415041, 35.762384]]]}, "properties": {"osm_id": 1430422781, "building": "commercial", "name": "", "height": null, "height_m": null, "levels": null, "tract_id": "40101000902", "tract_name": "9.02", "tags": {"addr:city": "Muskogee", "addr:housenumber": "1625", "addr:postcode": "74403", "addr:state": "OK", "addr:street": "North York Street", "building": "commercial"}}}, {"type": "Feature", "geometry": {"type": "Polygon", "coordinates": [[[-95.3410314, 35.7622729], [-95.3408519, 35.7622696], [-95.3408484, 35.7623916], [-95.3409184, 35.762393], [-95.3409195, 35.7623556], [-95.3410289, 35.7623577], [-95.3410314, 35.7622729]]]}, "properties": {"osm_id": 1430422782, "building": "commercial", "name": "", "height": null, "height_m": null, "levels": null, "tract_id": "40101000902", "tract_name": "9.02", "tags": {"addr:city": "Muskogee", "addr:housenumber": "1627", "addr:postcode": "74403", "addr:state": "OK", "addr:street": "North York Street", "building": "commercial"}}}, {"type": "Feature", "geometry": {"type": "Polygon", "coordinates": [[[-95.3421064, 35.7623881], [-95.3419039, 35.7623855], [-95.3419061, 35.7622755], [-95.341974, 35.7622763], [-95.3419746, 35.7622474], [-95.3420445, 35.7622483], [-95.342044, 35.7622754], [-95.3421086, 35.7622762], [-95.3421064, 35.7623881]]]}, "properties": {"osm_id": 1430422783, "building": "commercial", "name": "", "height": null, "height_m": null, "levels": null, "tract_id": "40101000902", "tract_name": "9.02", "tags": {"addr:city": "Muskogee", "addr:housenumber": "1619", "addr:postcode": "74403", "addr:state": "OK", "addr:street": "North York Street", "building": "commercial"}}}]}