{"type": "FeatureCollection", "features": [{"type": "Feature", "geometry": {"type": "Polygon", "coordinates": [[[-97.1426679, 34.1919302], [-97.142667, 34.191828], [-97.1423565, 34.19183], [-97.1423573, 34.1919238], [-97.1424545, 34.1919231], [-97.1424548, 34.1919485], [-97.1425207, 34.1919481], [-97.1425206, 34.1919311], [-97.1426679, 34.1919302]]]}, "properties": {"osm_id": 865237531, "building": "yes", "name": "Carl's Jr.", "height": null, "height_m": null, "levels": null, "tract_id": "40019892601", "tract_name": "8926.01", "tags": {"addr:city": "Ardmore", "addr:housenumber": "1608", "addr:postcode": "73401", "addr:state": "OK", "addr:street": "North Commerce Street", "amenity": "fast_food", "brand": "Carl's Jr.", "brand:wikidata": "Q1043486", "building": "yes", "cuisine": "burger", "name": "Carl's Jr.", "phone": "+1 580-223-8822", "ref": "1101647", "takeaway": "yes", "website": "https://locations.carlsjr.com/ok/ardmore/1608-n-commerce"}}}, {"type": "Feature", "geometry": {"type": "Polygon", "coordinates": [[[-97.1425905, 34.1915114], [-97.1425907, 34.1914872], [-97.1426984, 34.191488], [-97.1426995, 34.191381], [-97.1425845, 34.1913802], [-97.1425846, 34.1913646], [-97.1425396, 34.1913643], [-97.1425394, 34.1913782], [-97.1424536, 34.1913777], [-97.1424531, 34.1914259], [-97.1424172, 34.1914257], [-97.1424165, 34.1914922], [-97.1424457, 34.1914924], [-97.1424455, 34.1915104], [-97.1425905, 34.1915114]]]}, "properties": {"osm_id": 865237532, "building": "yes", "name": "Pizza Hut", "height": null, "height_m": null, "levels": null, "tract_id": "40019892601", "tract_name": "8926.01", "tags": {"addr:city": "Ardmore", "addr:housenumber": "1606", "addr:postcode": "73401", "addr:state": "OK", "addr:street": "North Commerce Street", "amenity": "restaurant", "brand": "Pizza Hut", "brand:wikidata": "Q191615", "building": "yes", "cuisine": "pizza", "name": "Pizza Hut", "phone": "+1 580-226-2502", "website": "https://locations.pizzahut.com/ok/ardmore/1606-n-commerce"}}}, {"type": "Feature", "geometry": {"type": "Polygon", "coordinates": [[[-97.1428409, 34.192602], [-97.1429145, 34.1925324], [-97.1427427, 34.1924671], [-97.1426691, 34.1925338], [-97.1428409, 34.192602]]]}, "properties": {"osm_id": 865237533, "building": "roof", "name": "Conoco", "height": null, "height_m": null, "levels": null, "tract_id": "40019892601", "tract_name": "8926.01", "tags": {"amenity": "fuel", "brand": "Conoco", "brand:wikidata": "Q109341187", "building": "roof", "name": "Conoco"}}}, {"type": "Feature", "geometry": {"type": "Polygon", "coordinates": [[[-97.1428637, 34.1923859], [-97.1428658, 34.1922536], [-97.1427585, 34.1922525], [-97.1427252, 34.1922917], [-97.1427237, 34.1923844], [-97.1428637, 34.1923859]]]}, "properties": {"osm_id": 865237534, "building": "yes", "name": "Kang's Food Mart", "height": null, "height_m": null, "levels": null, "tract_id": "40019892601", "tract_name": "8926.01", "tags": {"addr:city": "Ardmore", "addr:housenumber": "1620", "addr:postcode": "73401", "addr:state": "OK", "addr:street": "North Commerce Street", "building": "yes", "name": "Kang's Food Mart", "shop": "convenience"}}}, {"type": "Feature", "geometry": {"type": "Polygon", "coordinates": [[[-97.1426187, 34.190132], [-97.1426185, 34.1900538], [-97.1424967, 34.190054], [-97.1424935, 34.1900628], [-97.1423922, 34.1900629], [-97.1423922, 34.1900443], [-97.1422995, 34.1900444], [-97.1422996, 34.1900952], [-97.1423255, 34.1900952], [-97.1423255, 34.1901287], [-97.1423797, 34.1901286], [-97.1423798, 34.1901455], [-97.1424081, 34.1901454], [-97.142408, 34.1901306], [-97.1424672, 34.1901305], [-97.1424673, 34.1901446], [-97.1425144, 34.1901445], [-97.1425144, 34.1901321], [-97.1426187, 34.190132]]]}, "properties": {"osm_id": 865237549, "building": "yes", "name": "Wendy's", "height": null, "height_m": null, "levels": null, "tract_id": "40019892601", "tract_name": "8926.01", "tags": {"addr:city": "Ardmore", "addr:housenumber": "1045", "addr:postcode": "73401", "addr:state": "OK", "addr:street": "15th Avenue Northwest", "amenity": "fast_food", "brand": "Wendy's", "brand:wikidata": "Q550258", "building": "yes", "cuisine": "burger", "name": "Wendy's", "opening_hours": "Mo-Sa 06:30-22:00; Su 08:00-22:00", "opening_hours:drive_through": "Mo-Sa 06:00-01:00; Su 07:30-01:00", "phone": "+1 580-226-2106", "takeaway": "yes", "website": "https://locations.wendys.com/united-states/ok/ardmore/1045-15th-ave-nw"}}}, {"type": "Feature", "geometry": {"type": "Polygon", "coordinates": [[[-97.1426254, 34.2014008], [-97.1426261, 34.2013531], [-97.1424903, 34.2013516], [-97.1424908, 34.2013221], [-97.142628, 34.2013236], [-97.1426288, 34.2012768], [-97.1421363, 34.2012715], [-97.1421357, 34.2013098], [-97.1421631, 34.2013101], [-97.1421621, 34.2013744], [-97.14234, 34.2013762], [-97.1423396, 34.2013978], [-97.1426254, 34.2014008]]]}, "properties": {"osm_id": 865432371, "building": "yes", "name": "Sonic", "height": null, "height_m": null, "levels": null, "tract_id": "40019892601", "tract_name": "8926.01", "tags": {"addr:city": "Ardmore", "addr:housenumber": "2504", "addr:postcode": "73401", "addr:state": "OK", "addr:street": "North Commerce Street", "amenity": "fast_food", "brand": "Sonic", "brand:wikidata": "Q7561808", "building": "yes", "cuisine": "burger", "drive_in": "yes", "name": "Sonic", "opening_hours": "Mo-Sa 06:00-22:00; Su 07:00-22:00", "takeaway": "yes", "website": "https://locations.sonicdrivein.com/ok/ardmore/2504-north-commerce.html"}}}, {"type": "Feature", "geometry": {"type": "Polygon", "coordinates": [[[-97.1414498, 34.2015063], [-97.1414506, 34.2014066], [-97.1414943, 34.2014069], [-97.1414953, 34.2012832], [-97.1414462, 34.201283], [-97.1414469, 34.2011931], [-97.1407789, 34.2011894], [-97.1407764, 34.2015025], [-97.1414498, 34.2015063]]]}, "properties": {"osm_id": 865464311, "building": "yes", "name": "Tractor Supply Company", "height": null, "height_m": null, "levels": null, "tract_id": "40019892601", "tract_name": "8926.01", "tags": {"addr:city": "Ardmore", "addr:housenumber": "2520", "addr:postcode": "73401", "addr:state": "OK", "addr:street": "North Commerce Street", "brand": "Tractor Supply Company", "brand:wikidata": "Q15109925", "building": "yes", "name": "Tractor Supply Company", "opening_hours": "Mo-Sa 08:00-21:00; Su 09:00-19:00", "phone": "+1 580-223-3003", "ref": "711", "shop": "country_store"}}}, {"type": "Feature", "geometry": {"type": "Polygon", "coordinates": [[[-97.1425564, 34.2008778], [-97.1425569, 34.2007799], [-97.1425338, 34.2007798], [-97.1425345, 34.2006463], [-97.1421506, 34.200645], [-97.1421494, 34.2008783], [-97.1423088, 34.2008789], [-97.1423086, 34.2009162], [-97.1423544, 34.2009164], [-97.1423546, 34.2008771], [-97.1425564, 34.2008778]]]}, "properties": {"osm_id": 865464312, "building": "yes", "name": "Southwest Collision Center", "height": null, "height_m": null, "levels": null, "tract_id": "40019892601", "tract_name": "8926.01", "tags": {"addr:city": "Ardmore", "addr:housenumber": "2416", "addr:postcode": "73401", "addr:state": "OK", "addr:street": "North Commerce Street", "building": "yes", "name": "Southwest Collision Center", "shop": "car_repair"}}}, {"type": "Feature", "geometry": {"type": "Polygon", "coordinates": [[[-97.1420615, 34.1993599], [-97.1420632, 34.1992752], [-97.1421482, 34.1992764], [-97.1421499, 34.19919], [-97.142081, 34.199189], [-97.1420813, 34.1991765], [-97.1420308, 34.1991758], [-97.1420305, 34.1991903], [-97.1419689, 34.1991895], [-97.1419655, 34.1993586], [-97.1420615, 34.1993599]]]}, "properties": {"osm_id": 865464313, "building": "yes", "name": "State Farm", "height": null, "height_m": null, "levels": null, "tract_id": "40019892601", "tract_name": "8926.01", "tags": {"addr:city": "Ardmore", "addr:housenumber": "1017", "addr:postcode": "73401", "addr:state": "OK", "addr:street": "Cottonwood Northwest", "brand": "State Farm", "brand:wikidata": "Q2007336", "building": "yes", "name": "State Farm", "office": "insurance"}}}, {"type": "Feature", "geometry": {"type": "Polygon", "coordinates": [[[-97.1385046, 34.1920887], [-97.1385029, 34.1919152], [-97.1384804, 34.1919154], [-97.1384794, 34.1918186], [-97.1383031, 34.1918199], [-97.1383029, 34.1917965], [-97.1382414, 34.1917969], [-97.1381875, 34.1918407], [-97.1381879, 34.191895], [-97.1382166, 34.1918948], [-97.1382185, 34.1921312], [-97.1384548, 34.1921299], [-97.1385046, 34.1920887]]]}, "properties": {"osm_id": 1303983950, "building": "yes", "name": "Northwest Baptist Church", "height": null, "height_m": null, "levels": null, "tract_id": "40019892601", "tract_name": "8926.01", "tags": {"amenity": "place_of_worship", "building": "yes", "denomination": "baptist", "ele": "278", "gnis:feature_id": "1778653", "name": "Northwest Baptist Church", "religion": "christian"}}}, {"type": "Feature", "geometry": {"type": "Polygon", "coordinates": [[[-97.1394588, 34.1892966], [-97.1394589, 34.1892851], [-97.1393369, 34.1892847], [-97.1393371, 34.1892374], [-97.1388176, 34.1892358], [-97.1388165, 34.1894898], [-97.1386873, 34.1894894], [-97.1386871, 34.1895242], [-97.1386495, 34.1895241], [-97.1386492, 34.1895897], [-97.1386887, 34.1895899], [-97.1386882, 34.189706], [-97.1387396, 34.1897061], [-97.1387395, 34.1897228], [-97.138797, 34.189723], [-97.1387969, 34.1897409], [-97.139714, 34.1897435], [-97.1397159, 34.1892973], [-97.1394588, 34.1892966]]]}, "properties": {"osm_id": 1303983951, "building": "yes", "name": "Ardmore Family YMCA", "height": null, "height_m": null, "levels": null, "tract_id": "40019892601", "tract_name": "8926.01", "tags": {"addr:city": "Ardmore", "addr:housenumber": "920", "addr:postcode": "73401", "addr:state": "OK", "addr:street": "15th Avenue Northwest", "amenity": "community_centre", "building": "yes", "name": "Ardmore Family YMCA", "operator": "YMCA", "operator:type": "private_non_profit", "operator:wikidata": "Q54834579", "phone": "+1-580-223-3990", "website": "https://ardmorefamilyymca.org", "wheelchair": "yes"}}}, {"type": "Feature", "geometry": {"type": "Polygon", "coordinates": [[[-97.1416607, 34.199979], [-97.1417958, 34.1998748], [-97.1417794, 34.1998521], [-97.1418633, 34.1997978], [-97.1417739, 34.1996997], [-97.1416899, 34.1997631], [-97.1416297, 34.1997072], [-97.141626, 34.1996921], [-97.1418962, 34.1996589], [-97.1418469, 34.1995019], [-97.1415567, 34.1995396], [-97.141564, 34.1995713], [-97.1415147, 34.1995728], [-97.1414982, 34.1995215], [-97.1418159, 34.1994762], [-97.1418104, 34.1994641], [-97.141825, 34.1994596], [-97.1418159, 34.1994128], [-97.1415019, 34.1994596], [-97.1415092, 34.1995019], [-97.1414435, 34.1995094], [-97.1414435, 34.1994928], [-97.1413595, 34.1994958], [-97.1413632, 34.199526], [-97.141334, 34.1995275], [-97.141323, 34.1994868], [-97.1408484, 34.1995532], [-97.1408559, 34.1995966], [-97.1408638, 34.1995959], [-97.1408658, 34.1996067], [-97.1413378, 34.1995451], [-97.1413443, 34.1995945], [-97.1412787, 34.1996019], [-97.1412678, 34.1995823], [-97.1408156, 34.1996504], [-97.1408551, 34.1998017], [-97.1409242, 34.1997983], [-97.1409333, 34.1998316], [-97.1408632, 34.1998414], [-97.1408714, 34.1998772], [-97.1409428, 34.1998729], [-97.1409469, 34.1998839], [-97.1411015, 34.1998665], [-97.1410815, 34.1997742], [-97.1412759, 34.1997474], [-97.1412169, 34.199892], [-97.1414067, 34.1999503], [-97.1414742, 34.1997979], [-97.1414901, 34.1998368], [-97.1415232, 34.1998644], [-97.1415325, 34.1998562], [-97.1416607, 34.199979]]]}, "properties": {"osm_id": 1379433966, "building": "yes", "name": "", "height": null, "height_m": null, "levels": null, "tract_id": "40019892601", "tract_name": "8926.01", "tags": {"building": "yes"}}}, {"type": "Feature", "geometry": {"type": "Polygon", "coordinates": [[[-97.1421928, 34.1929991], [-97.1428158, 34.1929974], [-97.142848, 34.1930218], [-97.1428486, 34.1931976], [-97.1426536, 34.1931981], [-97.1426534, 34.1931317], [-97.1421933, 34.1931329], [-97.1421928, 34.1929991]]]}, "properties": {"osm_id": 1395942183, "building": "yes", "name": "", "height": null, "height_m": null, "levels": null, "tract_id": "40019892601", "tract_name": "8926.01", "tags": {"building": "yes"}}}]}