{"type": "FeatureCollection", "features": [{"type": "Feature", "geometry": {"type": "Polygon", "coordinates": [[[-97.0681545, 36.7013672], [-97.0681493, 36.7015073], [-97.0675885, 36.701494], [-97.0675937, 36.7013539], [-97.0681545, 36.7013672]]]}, "properties": {"osm_id": 256241708, "building": "yes", "name": "Econo Lodge", "height": null, "height_m": null, "levels": null, "tract_id": "40071000400", "tract_name": "4", "tags": {"brand": "Econo Lodge", "brand:wikidata": "Q5333330", "building": "yes", "name": "Econo Lodge", "tourism": "motel"}}}, {"type": "Feature", "geometry": {"type": "Polygon", "coordinates": [[[-97.0784088, 36.7039226], [-97.0783448, 36.7039215], [-97.0783378, 36.704003], [-97.0782237, 36.7040008], [-97.0782251, 36.704032], [-97.0780524, 36.7040298], [-97.0780496, 36.7039807], [-97.077973, 36.7039807], [-97.077973, 36.704032], [-97.0778965, 36.7040298], [-97.0778965, 36.7040387], [-97.0777809, 36.7040365], [-97.0777809, 36.7040142], [-97.0777099, 36.7040119], [-97.0777099, 36.7039717], [-97.0776333, 36.7039706], [-97.0776333, 36.7038166], [-97.0777141, 36.7038188], [-97.0777149, 36.7037781], [-97.0777999, 36.7037775], [-97.0778006, 36.7037958], [-97.0778975, 36.7037964], [-97.0778983, 36.7037832], [-97.077984, 36.7037838], [-97.0779848, 36.7038267], [-97.0781785, 36.7038286], [-97.0781794, 36.703791], [-97.0782831, 36.7037935], [-97.0782823, 36.7038379], [-97.0784096, 36.7038379], [-97.0784088, 36.7039226]]]}, "properties": {"osm_id": 258216860, "building": "yes", "name": "Ponca City Library", "height": null, "height_m": null, "levels": null, "tract_id": "40071000400", "tract_name": "4", "tags": {"addr:city": "Ponca City", "addr:country": "US", "addr:housenumber": "515", "addr:postcode": "74602", "addr:state": "OK", "addr:street": "East Grand Avenue", "amenity": "library", "building": "yes", "contact:fax": "+1-580-767-0377", "internet_access": "wlan", "name": "Ponca City Library", "source": "Bing"}}}, {"type": "Feature", "geometry": {"type": "Polygon", "coordinates": [[[-97.0785241, 36.7031349], [-97.0781983, 36.7031285], [-97.0781983, 36.7030922], [-97.078119, 36.7030922], [-97.0781204, 36.7030581], [-97.0779812, 36.7030567], [-97.077982, 36.7030869], [-97.0779187, 36.7030895], [-97.0779187, 36.7031209], [-97.0775711, 36.7031134], [-97.0775727, 36.7029471], [-97.0778455, 36.7029569], [-97.0778471, 36.7029187], [-97.0779391, 36.7029206], [-97.0779445, 36.7027674], [-97.0781756, 36.7027726], [-97.0781829, 36.7025971], [-97.0784897, 36.7026058], [-97.078511, 36.7026256], [-97.0785069, 36.7026785], [-97.0784962, 36.7028882], [-97.0785224, 36.7028882], [-97.0785216, 36.7029819], [-97.0785281, 36.7029819], [-97.0785241, 36.7031349]]]}, "properties": {"osm_id": 258216861, "building": "yes", "name": "City Hall, City of Ponca City", "height": null, "height_m": null, "levels": null, "tract_id": "40071000400", "tract_name": "4", "tags": {"addr:city": "Ponca City", "addr:country": "US", "addr:housenumber": "516", "addr:postcode": "74601", "addr:state": "OK", "addr:street": "East Grand Avenue", "amenity": "townhall", "building": "yes", "name": "City Hall, City of Ponca City", "source": "Bing"}}}, {"type": "Feature", "geometry": {"type": "Polygon", "coordinates": [[[-97.0771684, 36.7032504], [-97.0769646, 36.7032472], [-97.0769726, 36.7030429], [-97.0768385, 36.7030354], [-97.0768291, 36.7032891], [-97.0765944, 36.7032859], [-97.0766078, 36.7030279], [-97.0764724, 36.7030214], [-97.0764603, 36.7032311], [-97.0762565, 36.7032246], [-97.076282, 36.7025451], [-97.0765046, 36.7025526], [-97.0764965, 36.7028042], [-97.0765757, 36.7028085], [-97.076577, 36.7025537], [-97.0769646, 36.7025548], [-97.0769632, 36.7026429], [-97.0771979, 36.7026537], [-97.0771859, 36.7028827], [-97.0771684, 36.7032504]]]}, "properties": {"osm_id": 269963218, "building": "school", "name": "Ponca City Junior High School", "height": null, "height_m": null, "levels": null, "tract_id": "40071000400", "tract_name": "4", "tags": {"building": "school", "name": "Ponca City Junior High School"}}}, {"type": "Feature", "geometry": {"type": "Polygon", "coordinates": [[[-97.0785417, 36.702373], [-97.0781072, 36.7023634], [-97.0781179, 36.7020483], [-97.0781394, 36.7020515], [-97.078138, 36.7018591], [-97.0781273, 36.7018559], [-97.0781354, 36.7015602], [-97.0782869, 36.7015666], [-97.0782869, 36.7016064], [-97.0785618, 36.7016128], [-97.0785618, 36.7016473], [-97.0786088, 36.7016462], [-97.0786061, 36.7017612], [-97.0785618, 36.7017623], [-97.0785592, 36.701844], [-97.0785364, 36.7018429], [-97.0785283, 36.7020257], [-97.0785444, 36.7020279], [-97.0785417, 36.702058], [-97.0785605, 36.7020569], [-97.0785578, 36.7021483], [-97.0785967, 36.7021462], [-97.0785927, 36.7022849], [-97.0785484, 36.702287], [-97.0785417, 36.702373]]]}, "properties": {"osm_id": 269963219, "building": "yes", "name": "First Baptist Church", "height": null, "height_m": null, "levels": null, "tract_id": "40071000400", "tract_name": "4", "tags": {"amenity": "place_of_worship", "building": "yes", "name": "First Baptist Church", "religion": "christian"}}}, {"type": "Feature", "geometry": {"type": "Polygon", "coordinates": [[[-97.0756885, 36.6980649], [-97.07519, 36.6980515], [-97.0752195, 36.697344], [-97.075718, 36.6973573], [-97.0756885, 36.6980649]]]}, "properties": {"osm_id": 433397159, "building": "yes", "name": "", "height": null, "height_m": null, "levels": null, "tract_id": "40071000400", "tract_name": "4", "tags": {"building": "yes"}}}, {"type": "Feature", "geometry": {"type": "Polygon", "coordinates": [[[-97.0807448, 36.6856175], [-97.0808459, 36.6854996], [-97.0811812, 36.6856846], [-97.0810801, 36.6858025], [-97.0807448, 36.6856175]]]}, "properties": {"osm_id": 481188012, "building": "yes", "name": "", "height": null, "height_m": null, "levels": null, "tract_id": "40071000400", "tract_name": "4", "tags": {"building": "yes"}}}, {"type": "Feature", "geometry": {"type": "Polygon", "coordinates": [[[-97.073075, 36.6949165], [-97.0730616, 36.6950886], [-97.0729194, 36.6950815], [-97.0729328, 36.6949094], [-97.073075, 36.6949165]]]}, "properties": {"osm_id": 671074157, "building": "yes", "name": "", "height": null, "height_m": null, "levels": null, "tract_id": "40071000400", "tract_name": "4", "tags": {"building": "yes"}}}, {"type": "Feature", "geometry": {"type": "Polygon", "coordinates": [[[-97.0735444, 36.6954015], [-97.0733754, 36.6954037], [-97.0733735, 36.6953041], [-97.0735424, 36.695302], [-97.0735444, 36.6954015]]]}, "properties": {"osm_id": 671074158, "building": "yes", "name": "", "height": null, "height_m": null, "levels": null, "tract_id": "40071000400", "tract_name": "4", "tags": {"building": "yes"}}}, {"type": "Feature", "geometry": {"type": "Polygon", "coordinates": [[[-97.0733044, 36.6953198], [-97.073299, 36.6954843], [-97.073158, 36.6954814], [-97.0731634, 36.6953168], [-97.0733044, 36.6953198]]]}, "properties": {"osm_id": 671074159, "building": "yes", "name": "", "height": null, "height_m": null, "levels": null, "tract_id": "40071000400", "tract_name": "4", "tags": {"building": "yes"}}}, {"type": "Feature", "geometry": {"type": "Polygon", "coordinates": [[[-97.0708944, 36.6956252], [-97.0705296, 36.6956166], [-97.0705352, 36.6954642], [-97.0709, 36.6954728], [-97.0708944, 36.6956252]]]}, "properties": {"osm_id": 671074160, "building": "yes", "name": "", "height": null, "height_m": null, "levels": null, "tract_id": "40071000400", "tract_name": "4", "tags": {"building": "yes"}}}, {"type": "Feature", "geometry": {"type": "Polygon", "coordinates": [[[-97.0647468, 36.694467], [-97.0646328, 36.694466], [-97.0646342, 36.6943716], [-97.0647482, 36.6943727], [-97.0647468, 36.694467]]]}, "properties": {"osm_id": 671074161, "building": "yes", "name": "", "height": null, "height_m": null, "levels": null, "tract_id": "40071000400", "tract_name": "4", "tags": {"building": "yes"}}}, {"type": "Feature", "geometry": {"type": "Polygon", "coordinates": [[[-97.064103, 36.6928201], [-97.0641641, 36.6928197], [-97.0641647, 36.6928799], [-97.0641037, 36.6928804], [-97.064103, 36.6928201]]]}, "properties": {"osm_id": 671074164, "building": "yes", "name": "", "height": null, "height_m": null, "levels": null, "tract_id": "40071000400", "tract_name": "4", "tags": {"building": "yes"}}}, {"type": "Feature", "geometry": {"type": "Polygon", "coordinates": [[[-97.0639488, 36.6927325], [-97.0638764, 36.6927056], [-97.0639, 36.6926647], [-97.0639724, 36.6926916], [-97.0639488, 36.6927325]]]}, "properties": {"osm_id": 671074165, "building": "yes", "name": "", "height": null, "height_m": null, "levels": null, "tract_id": "40071000400", "tract_name": "4", "tags": {"building": "yes"}}}, {"type": "Feature", "geometry": {"type": "Polygon", "coordinates": [[[-97.0638067, 36.6928723], [-97.0636632, 36.6929874], [-97.0635974, 36.6929347], [-97.0637409, 36.6928196], [-97.0638067, 36.6928723]]]}, "properties": {"osm_id": 671074166, "building": "yes", "name": "", "height": null, "height_m": null, "levels": null, "tract_id": "40071000400", "tract_name": "4", "tags": {"building": "yes"}}}, {"type": "Feature", "geometry": {"type": "Polygon", "coordinates": [[[-97.0679332, 36.6947735], [-97.0679332, 36.6950251], [-97.0677871, 36.6950251], [-97.0677871, 36.6947735], [-97.0679332, 36.6947735]]]}, "properties": {"osm_id": 671074168, "building": "yes", "name": "", "height": null, "height_m": null, "levels": null, "tract_id": "40071000400", "tract_name": "4", "tags": {"building": "yes"}}}, {"type": "Feature", "geometry": {"type": "Polygon", "coordinates": [[[-97.0835732, 36.7069443], [-97.0835598, 36.7071045], [-97.0834335, 36.7070977], [-97.0834469, 36.7069375], [-97.0835732, 36.7069443]]]}, "properties": {"osm_id": 671074211, "building": "yes", "name": "", "height": null, "height_m": null, "levels": null, "tract_id": "40071000400", "tract_name": "4", "tags": {"building": "yes"}}}, {"type": "Feature", "geometry": {"type": "Polygon", "coordinates": [[[-97.0833921, 36.7071518], [-97.0833787, 36.7074185], [-97.0831418, 36.7074108], [-97.0831552, 36.7071442], [-97.0833921, 36.7071518]]]}, "properties": {"osm_id": 671074212, "building": "yes", "name": "", "height": null, "height_m": null, "levels": null, "tract_id": "40071000400", "tract_name": "4", "tags": {"building": "yes"}}}, {"type": "Feature", "geometry": {"type": "Polygon", "coordinates": [[[-97.0846286, 36.7072604], [-97.0844677, 36.707254], [-97.084477, 36.7071043], [-97.084638, 36.7071107], [-97.0846286, 36.7072604]]]}, "properties": {"osm_id": 671074213, "building": "yes", "name": "", "height": null, "height_m": null, "levels": null, "tract_id": "40071000400", "tract_name": "4", "tags": {"building": "yes"}}}, {"type": "Feature", "geometry": {"type": "Polygon", "coordinates": [[[-97.0836054, 36.7055509], [-97.0832594, 36.7055369], [-97.0832766, 36.7052624], [-97.0836226, 36.7052764], [-97.0836054, 36.7055509]]]}, "properties": {"osm_id": 671074215, "building": "yes", "name": "", "height": null, "height_m": null, "levels": null, "tract_id": "40071000400", "tract_name": "4", "tags": {"building": "yes"}}}, {"type": "Feature", "geometry": {"type": "Polygon", "coordinates": [[[-97.0789576, 36.7037193], [-97.0791171, 36.7037171], [-97.0791027, 36.7040903], [-97.0789491, 36.7040899], [-97.0789576, 36.7037193]]]}, "properties": {"osm_id": 671074216, "building": "yes", "name": "", "height": null, "height_m": null, "levels": null, "tract_id": "40071000400", "tract_name": "4", "tags": {"building": "yes"}}}, {"type": "Feature", "geometry": {"type": "Polygon", "coordinates": [[[-97.0835598, 36.6974952], [-97.083545, 36.6976758], [-97.0834413, 36.6976704], [-97.083456, 36.6974897], [-97.0835598, 36.6974952]]]}, "properties": {"osm_id": 671074217, "building": "yes", "name": "", "height": null, "height_m": null, "levels": null, "tract_id": "40071000400", "tract_name": "4", "tags": {"building": "yes"}}}, {"type": "Feature", "geometry": {"type": "Polygon", "coordinates": [[[-97.0833747, 36.6975102], [-97.08336, 36.6977425], [-97.0832046, 36.6977361], [-97.0832193, 36.6975039], [-97.0833747, 36.6975102]]]}, "properties": {"osm_id": 671074218, "building": "yes", "name": "", "height": null, "height_m": null, "levels": null, "tract_id": "40071000400", "tract_name": "4", "tags": {"building": "yes"}}}, {"type": "Feature", "geometry": {"type": "Polygon", "coordinates": [[[-97.0846414, 36.6987052], [-97.0841705, 36.6986942], [-97.0842027, 36.6978074], [-97.0846737, 36.6978184], [-97.0846414, 36.6987052]]]}, "properties": {"osm_id": 671074219, "building": "yes", "name": "", "height": null, "height_m": null, "levels": null, "tract_id": "40071000400", "tract_name": "4", "tags": {"building": "yes"}}}, {"type": "Feature", "geometry": {"type": "Polygon", "coordinates": [[[-97.0839407, 36.6970059], [-97.0836081, 36.6969984], [-97.0836121, 36.6968834], [-97.0839447, 36.6968909], [-97.0839407, 36.6970059]]]}, "properties": {"osm_id": 671074220, "building": "yes", "name": "", "height": null, "height_m": null, "levels": null, "tract_id": "40071000400", "tract_name": "4", "tags": {"building": "yes"}}}, {"type": "Feature", "geometry": {"type": "Polygon", "coordinates": [[[-97.0846944, 36.6969113], [-97.084229, 36.6969059], [-97.0842351, 36.6965683], [-97.0847004, 36.6965736], [-97.0846944, 36.6969113]]]}, "properties": {"osm_id": 671074221, "building": "yes", "name": "", "height": null, "height_m": null, "levels": null, "tract_id": "40071000400", "tract_name": "4", "tags": {"building": "yes"}}}, {"type": "Feature", "geometry": {"type": "Polygon", "coordinates": [[[-97.084826, 36.7036008], [-97.0844684, 36.70359], [-97.0844771, 36.7034043], [-97.0841403, 36.7033942], [-97.0841472, 36.7032454], [-97.0844984, 36.703256], [-97.0845026, 36.7031671], [-97.0848459, 36.7031775], [-97.084826, 36.7036008]]]}, "properties": {"osm_id": 671074225, "building": "yes", "name": "", "height": null, "height_m": null, "levels": null, "tract_id": "40071000400", "tract_name": "4", "tags": {"building": "yes"}}}, {"type": "Feature", "geometry": {"type": "Polygon", "coordinates": [[[-97.0865867, 36.7014801], [-97.0861226, 36.7014726], [-97.0861264, 36.7013225], [-97.0865904, 36.70133], [-97.0865867, 36.7014801]]]}, "properties": {"osm_id": 671074226, "building": "yes", "name": "", "height": null, "height_m": null, "levels": null, "tract_id": "40071000400", "tract_name": "4", "tags": {"building": "yes"}}}, {"type": "Feature", "geometry": {"type": "Polygon", "coordinates": [[[-97.0865893, 36.7017317], [-97.08612, 36.7017263], [-97.0861224, 36.7015906], [-97.0865918, 36.7015959], [-97.0865893, 36.7017317]]]}, "properties": {"osm_id": 671074227, "building": "yes", "name": "", "height": null, "height_m": null, "levels": null, "tract_id": "40071000400", "tract_name": "4", "tags": {"building": "yes"}}}, {"type": "Feature", "geometry": {"type": "Polygon", "coordinates": [[[-97.0712447, 36.7020706], [-97.0710899, 36.7020706], [-97.071097, 36.7018873], [-97.0712375, 36.7018816], [-97.0712447, 36.7020706]]]}, "properties": {"osm_id": 732001253, "building": "house", "name": "", "height": null, "height_m": null, "levels": null, "tract_id": "40071000400", "tract_name": "4", "tags": {"addr:city": "Ponca City", "addr:housenumber": "1020", "addr:postcode": "74601", "addr:state": "OK", "addr:street": "East Central Avenue", "building": "house"}}}, {"type": "Feature", "geometry": {"type": "Polygon", "coordinates": [[[-97.0752665, 36.7000508], [-97.0752696, 36.6999358], [-97.0751984, 36.6999345], [-97.0751999, 36.6998765], [-97.075272, 36.6998778], [-97.0752751, 36.6997602], [-97.0750589, 36.6997564], [-97.0750512, 36.7000471], [-97.0752665, 36.7000508]]]}, "properties": {"osm_id": 732001254, "building": "office", "name": "", "height": null, "height_m": null, "levels": null, "tract_id": "40071000400", "tract_name": "4", "tags": {"building": "office", "office": "religion"}}}, {"type": "Feature", "geometry": {"type": "Polygon", "coordinates": [[[-97.0760253, 36.6995399], [-97.0758652, 36.6996662], [-97.0758967, 36.6996936], [-97.0758854, 36.6997021], [-97.0758128, 36.6997621], [-97.0757556, 36.6997039], [-97.0756948, 36.6997458], [-97.0756282, 36.6996889], [-97.0756876, 36.6996437], [-97.0756585, 36.6996225], [-97.0757042, 36.6995879], [-97.0759066, 36.6994399], [-97.0759251, 36.6994421], [-97.0759412, 36.6994557], [-97.0759467, 36.6994515], [-97.0760131, 36.6995074], [-97.0760077, 36.6995116], [-97.0760216, 36.6995233], [-97.0760253, 36.6995399]]]}, "properties": {"osm_id": 732001255, "building": "church", "name": "", "height": null, "height_m": null, "levels": null, "tract_id": "40071000400", "tract_name": "4", "tags": {"addr:city": "Ponca City", "addr:housenumber": "707", "addr:postcode": "74601", "addr:state": "OK", "addr:street": "East Ponca Avenue", "building": "church"}}}, {"type": "Feature", "geometry": {"type": "Polygon", "coordinates": [[[-97.0757042, 36.6995879], [-97.0757102, 36.6994177], [-97.0755731, 36.6994146], [-97.0755711, 36.699471], [-97.0755053, 36.6994695], [-97.0754991, 36.6996388], [-97.0755649, 36.6996404], [-97.0756282, 36.6996889], [-97.0756876, 36.6996437], [-97.0756585, 36.6996225], [-97.0757042, 36.6995879]]]}, "properties": {"osm_id": 732001256, "building": "house", "name": "", "height": null, "height_m": null, "levels": null, "tract_id": "40071000400", "tract_name": "4", "tags": {"building": "house"}}}, {"type": "Feature", "geometry": {"type": "Polygon", "coordinates": [[[-97.0759424, 36.7001756], [-97.0759461, 36.7000948], [-97.0759301, 36.7000943], [-97.0759354, 36.6999795], [-97.0759507, 36.6999799], [-97.0759545, 36.6998975], [-97.0758766, 36.6998952], [-97.0758854, 36.6997021], [-97.0758128, 36.6997621], [-97.0758068, 36.6998932], [-97.0757411, 36.6998912], [-97.0757283, 36.7001693], [-97.0759424, 36.7001756]]]}, "properties": {"osm_id": 732001257, "building": "school", "name": "", "height": null, "height_m": null, "levels": null, "tract_id": "40071000400", "tract_name": "4", "tags": {"building": "school"}}}, {"type": "Feature", "geometry": {"type": "Polygon", "coordinates": [[[-97.0800259, 36.6950636], [-97.0801036, 36.6950075], [-97.0800515, 36.6949611], [-97.0799738, 36.6950172], [-97.0800259, 36.6950636]]]}, "properties": {"osm_id": 867169656, "building": "roof", "name": "Valero", "height": null, "height_m": null, "levels": null, "tract_id": "40071000400", "tract_name": "4", "tags": {"amenity": "fuel", "brand": "Valero", "brand:wikidata": "Q1283291", "building": "roof", "name": "Valero", "website": "https://locations.valero.com/en-us/LocationDetails/Index/400-E-SOUTH-AVE/0000008298"}}}, {"type": "Feature", "geometry": {"type": "Polygon", "coordinates": [[[-97.0808007, 36.6955742], [-97.080796, 36.6954613], [-97.0807165, 36.6954635], [-97.080716, 36.6954502], [-97.0806663, 36.6954515], [-97.0806669, 36.6954647], [-97.0805903, 36.6954668], [-97.080595, 36.6955798], [-97.0808007, 36.6955742]]]}, "properties": {"osm_id": 867169657, "building": "yes", "name": "Spin City Laundromat", "height": null, "height_m": null, "levels": null, "tract_id": "40071000400", "tract_name": "4", "tags": {"addr:city": "Ponca City", "addr:housenumber": "315", "addr:postcode": "74601", "addr:state": "OK", "addr:street": "East South Avenue", "building": "yes", "name": "Spin City Laundromat", "self_service": "yes", "shop": "laundry"}}}, {"type": "Feature", "geometry": {"type": "Polygon", "coordinates": [[[-97.0801059, 36.6954233], [-97.0801059, 36.6952913], [-97.0798037, 36.6952913], [-97.0798037, 36.6954234], [-97.0801059, 36.6954233]]]}, "properties": {"osm_id": 867169658, "building": "retail", "name": "I-Deal Pawn & Trading Co", "height": null, "height_m": null, "levels": null, "tract_id": "40071000400", "tract_name": "4", "tags": {"addr:city": "Ponca City", "addr:housenumber": "821", "addr:postcode": "74601", "addr:state": "OK", "addr:street": "South 4th Street", "building": "retail", "name": "I-Deal Pawn & Trading Co", "shop": "pawnbroker"}}}, {"type": "Feature", "geometry": {"type": "Polygon", "coordinates": [[[-97.079949, 36.6949252], [-97.0799494, 36.6948281], [-97.0796829, 36.6948274], [-97.0796825, 36.6949245], [-97.079949, 36.6949252]]]}, "properties": {"osm_id": 867169659, "building": "retail", "name": "Valero", "height": null, "height_m": null, "levels": null, "tract_id": "40071000400", "tract_name": "4", "tags": {"brand": "Valero", "brand:wikidata": "Q1283291", "building": "retail", "name": "Valero", "shop": "convenience"}}}, {"type": "Feature", "geometry": {"type": "Polygon", "coordinates": [[[-97.082108, 36.7011396], [-97.0821116, 36.7010333], [-97.0821983, 36.7010352], [-97.0822046, 36.7008469], [-97.082012, 36.7008428], [-97.0820202, 36.7005992], [-97.081875, 36.7005961], [-97.0818669, 36.7008403], [-97.081719, 36.7008371], [-97.0817127, 36.7010256], [-97.0817931, 36.7010274], [-97.0817918, 36.7010668], [-97.0818518, 36.7010681], [-97.0818491, 36.701149], [-97.081979, 36.7011518], [-97.0819795, 36.7011369], [-97.082108, 36.7011396]]]}, "properties": {"osm_id": 867169662, "building": "yes", "name": "Ponca City Police Department", "height": null, "height_m": null, "levels": null, "tract_id": "40071000400", "tract_name": "4", "tags": {"addr:city": "Ponca City", "addr:housenumber": "200", "addr:postcode": "74601", "addr:state": "OK", "addr:street": "East Oklahoma Avenue", "amenity": "police", "building": "yes", "name": "Ponca City Police Department"}}}, {"type": "Feature", "geometry": {"type": "Polygon", "coordinates": [[[-97.083225, 36.7014344], [-97.083229, 36.7012715], [-97.082744, 36.7012638], [-97.08274, 36.7014268], [-97.083225, 36.7014344]]]}, "properties": {"osm_id": 867169663, "building": "yes", "name": "NAPA Auto Parts", "height": null, "height_m": null, "levels": null, "tract_id": "40071000400", "tract_name": "4", "tags": {"addr:city": "Ponca City", "addr:housenumber": "300", "addr:postcode": "74601", "addr:state": "OK", "addr:street": "South 2nd Street", "brand": "NAPA Auto Parts", "brand:wikidata": "Q6970842", "building": "yes", "name": "NAPA Auto Parts", "shop": "car_parts"}}}, {"type": "Feature", "geometry": {"type": "Polygon", "coordinates": [[[-97.0677468, 36.6977571], [-97.0677565, 36.6973577], [-97.0677066, 36.6973569], [-97.0677049, 36.6974262], [-97.067613, 36.6974248], [-97.0676148, 36.6973498], [-97.0675583, 36.6973489], [-97.0675492, 36.6977271], [-97.0676809, 36.6977292], [-97.0676803, 36.697756], [-97.0677468, 36.6977571]]]}, "properties": {"osm_id": 867172831, "building": "retail", "name": "Sonic", "height": null, "height_m": null, "levels": null, "tract_id": "40071000400", "tract_name": "4", "tags": {"addr:city": "Ponca City", "addr:housenumber": "608", "addr:postcode": "74601", "addr:state": "OK", "addr:street": "South 14th Street", "amenity": "fast_food", "brand": "Sonic", "brand:wikidata": "Q7561808", "building": "retail", "cuisine": "burger", "drive_in": "yes", "name": "Sonic", "opening_hours": "Mo-Th 07:00-22:00; Fr-Sa 07:00-23:00; Su 08:00-22:00", "phone": "+1 580-765-9244", "takeaway": "yes", "website": "https://locations.sonicdrivein.com/ok/poncacity/608-south-14th-street.html"}}}, {"type": "Feature", "geometry": {"type": "Polygon", "coordinates": [[[-97.0677691, 36.6989001], [-97.067778, 36.6986192], [-97.0676404, 36.6986164], [-97.0676314, 36.6988973], [-97.0677691, 36.6989001]]]}, "properties": {"osm_id": 867172832, "building": "yes", "name": "Domino's", "height": null, "height_m": null, "levels": null, "tract_id": "40071000400", "tract_name": "4", "tags": {"addr:city": "Ponca City", "addr:housenumber": "506", "addr:postcode": "74601", "addr:state": "OK", "addr:street": "South 14th Street", "amenity": "fast_food", "brand": "Domino's", "brand:wikidata": "Q839466", "building": "yes", "cuisine": "pizza", "name": "Domino's", "opening_hours": "Mo-Th 10:30-24:00; Fr-Sa 10:30-01:00; Su 10:30-24:00", "phone": "+1 580-765-5305", "ref": "6461", "takeaway": "yes", "website": "https://pizza.dominos.com/oklahoma/ponca-city/506-s-14th-st"}}}, {"type": "Feature", "geometry": {"type": "Polygon", "coordinates": [[[-97.0854501, 36.6958315], [-97.0855249, 36.695634], [-97.0855358, 36.6953193], [-97.0849246, 36.6953057], [-97.0849105, 36.695712], [-97.0853714, 36.6957223], [-97.0853677, 36.6958297], [-97.0854501, 36.6958315]]]}, "properties": {"osm_id": 867182708, "building": "yes", "name": "", "height": null, "height_m": null, "levels": null, "tract_id": "40071000400", "tract_name": "4", "tags": {"building": "yes"}}}, {"type": "Feature", "geometry": {"type": "Polygon", "coordinates": [[[-97.0847768, 36.6961016], [-97.0847976, 36.695667], [-97.0845056, 36.695658], [-97.084496, 36.6958563], [-97.0843155, 36.6958507], [-97.0843042, 36.696087], [-97.0847768, 36.6961016]]]}, "properties": {"osm_id": 867182709, "building": "yes", "name": "", "height": null, "height_m": null, "levels": null, "tract_id": "40071000400", "tract_name": "4", "tags": {"building": "yes"}}}, {"type": "Feature", "geometry": {"type": "Polygon", "coordinates": [[[-97.0808809, 36.6949231], [-97.0808927, 36.6946152], [-97.0806432, 36.6946072], [-97.0806304, 36.6949175], [-97.0808809, 36.6949231]]]}, "properties": {"osm_id": 867182710, "building": "yes", "name": "Homeland", "height": null, "height_m": null, "levels": null, "tract_id": "40071000400", "tract_name": "4", "tags": {"addr:city": "Ponca City", "addr:housenumber": "904", "addr:postcode": "74601", "addr:state": "OK", "addr:street": "South 4th Street", "building": "yes", "name": "Homeland", "shop": "supermarket"}}}, {"type": "Feature", "geometry": {"type": "Polygon", "coordinates": [[[-97.0808927, 36.6946152], [-97.0809029, 36.6944105], [-97.0806534, 36.6944025], [-97.0806432, 36.6946072], [-97.0808927, 36.6946152]]]}, "properties": {"osm_id": 867182711, "building": "yes", "name": "Auto 2 Go", "height": null, "height_m": null, "levels": null, "tract_id": "40071000400", "tract_name": "4", "tags": {"addr:city": "Ponca City", "addr:housenumber": "910", "addr:postcode": "74601", "addr:state": "OK", "addr:street": "South 4th Street", "building": "yes", "name": "Auto 2 Go", "second_hand": "only", "shop": "car"}}}, {"type": "Feature", "geometry": {"type": "Polygon", "coordinates": [[[-97.0814419, 36.7028224], [-97.0814465, 36.702682], [-97.0818503, 36.7026904], [-97.0818458, 36.7028308], [-97.0814419, 36.7028224]]]}, "properties": {"osm_id": 920730644, "building": "yes", "name": "Rose Stone Inn", "height": null, "height_m": null, "levels": null, "tract_id": "40071000400", "tract_name": "4", "tags": {"building": "yes", "name": "Rose Stone Inn", "tourism": "hotel"}}}, {"type": "Feature", "geometry": {"type": "Polygon", "coordinates": [[[-97.0822738, 36.7030325], [-97.0822879, 36.7027147], [-97.0823918, 36.7027177], [-97.0823777, 36.7030354], [-97.0822738, 36.7030325]]]}, "properties": {"osm_id": 920730645, "building": "roof", "name": "", "height": null, "height_m": null, "levels": null, "tract_id": "40071000400", "tract_name": "4", "tags": {"building": "roof"}}}, {"type": "Feature", "geometry": {"type": "Polygon", "coordinates": [[[-97.0814045, 36.7034993], [-97.0814172, 36.7031311], [-97.0815842, 36.7031348], [-97.0815834, 36.7031572], [-97.0815715, 36.7035029], [-97.0814045, 36.7034993]]]}, "properties": {"osm_id": 920730648, "building": "yes", "name": "", "height": null, "height_m": null, "levels": null, "tract_id": "40071000400", "tract_name": "4", "tags": {"building": "yes", "shop": "yes"}}}, {"type": "Feature", "geometry": {"type": "Polygon", "coordinates": [[[-97.0817116, 36.7031599], [-97.0817045, 36.7033702], [-97.0818784, 36.703374], [-97.0818742, 36.703499], [-97.0817481, 36.7034963], [-97.0817478, 36.7035067], [-97.0815715, 36.7035029], [-97.0815834, 36.7031572], [-97.0817116, 36.7031599]]]}, "properties": {"osm_id": 920730649, "building": "yes", "name": "", "height": null, "height_m": null, "levels": null, "tract_id": "40071000400", "tract_name": "4", "tags": {"building": "yes", "shop": "yes"}}}, {"type": "Feature", "geometry": {"type": "Polygon", "coordinates": [[[-97.0818784, 36.703374], [-97.0818848, 36.7031289], [-97.0819795, 36.7031307], [-97.0819684, 36.7035166], [-97.0818738, 36.7035148], [-97.0818742, 36.703499], [-97.0818784, 36.703374]]]}, "properties": {"osm_id": 920730650, "building": "yes", "name": "", "height": null, "height_m": null, "levels": null, "tract_id": "40071000400", "tract_name": "4", "tags": {"building": "yes", "shop": "yes"}}}, {"type": "Feature", "geometry": {"type": "Polygon", "coordinates": [[[-97.0819684, 36.7035166], [-97.0821349, 36.7035197], [-97.0821459, 36.7031337], [-97.0819795, 36.7031307], [-97.0819684, 36.7035166]]]}, "properties": {"osm_id": 920730651, "building": "yes", "name": "", "height": null, "height_m": null, "levels": null, "tract_id": "40071000400", "tract_name": "4", "tags": {"building": "yes", "shop": "yes"}}}, {"type": "Feature", "geometry": {"type": "Polygon", "coordinates": [[[-97.0821349, 36.7035197], [-97.0822206, 36.7035215], [-97.0822265, 36.7033297], [-97.0822318, 36.7031353], [-97.0821459, 36.7031337], [-97.0821349, 36.7035197]]]}, "properties": {"osm_id": 920730652, "building": "yes", "name": "", "height": null, "height_m": null, "levels": null, "tract_id": "40071000400", "tract_name": "4", "tags": {"building": "yes", "shop": "yes"}}}, {"type": "Feature", "geometry": {"type": "Polygon", "coordinates": [[[-97.0822206, 36.7035215], [-97.0823129, 36.7035233], [-97.0823192, 36.7033315], [-97.0822265, 36.7033297], [-97.0822206, 36.7035215]]]}, "properties": {"osm_id": 920730653, "building": "yes", "name": "", "height": null, "height_m": null, "levels": null, "tract_id": "40071000400", "tract_name": "4", "tags": {"building": "yes", "shop": "yes"}}}, {"type": "Feature", "geometry": {"type": "Polygon", "coordinates": [[[-97.0823129, 36.7035233], [-97.0824002, 36.7035252], [-97.0824129, 36.7031406], [-97.0823255, 36.7031387], [-97.0823192, 36.7033315], [-97.0823129, 36.7035233]]]}, "properties": {"osm_id": 920730654, "building": "yes", "name": "", "height": null, "height_m": null, "levels": null, "tract_id": "40071000400", "tract_name": "4", "tags": {"building": "yes", "shop": "yes"}}}, {"type": "Feature", "geometry": {"type": "Polygon", "coordinates": [[[-97.0827256, 36.7030264], [-97.0827371, 36.7027141], [-97.0832498, 36.7027262], [-97.0832383, 36.7030386], [-97.0827256, 36.7030264]]]}, "properties": {"osm_id": 920730657, "building": "yes", "name": "", "height": null, "height_m": null, "levels": null, "tract_id": "40071000400", "tract_name": "4", "tags": {"building": "yes"}}}, {"type": "Feature", "geometry": {"type": "Polygon", "coordinates": [[[-97.0826874, 36.7035402], [-97.0827022, 36.7031425], [-97.082959, 36.7031486], [-97.082952, 36.703339], [-97.0829447, 36.7035362], [-97.0829443, 36.7035463], [-97.0826874, 36.7035402]]]}, "properties": {"osm_id": 920730658, "building": "yes", "name": "", "height": null, "height_m": null, "levels": null, "tract_id": "40071000400", "tract_name": "4", "tags": {"building": "yes"}}}, {"type": "Feature", "geometry": {"type": "Polygon", "coordinates": [[[-97.082952, 36.703339], [-97.083302, 36.7033442], [-97.0832974, 36.7035415], [-97.0829447, 36.7035362], [-97.082952, 36.703339]]]}, "properties": {"osm_id": 920730659, "building": "yes", "name": "", "height": null, "height_m": null, "levels": null, "tract_id": "40071000400", "tract_name": "4", "tags": {"building": "yes"}}}, {"type": "Feature", "geometry": {"type": "Polygon", "coordinates": [[[-97.083307, 36.7031878], [-97.0834001, 36.7031897], [-97.0833894, 36.7035423], [-97.0832974, 36.7035415], [-97.083302, 36.7033442], [-97.083307, 36.7031878]]]}, "properties": {"osm_id": 920730660, "building": "yes", "name": "", "height": null, "height_m": null, "levels": null, "tract_id": "40071000400", "tract_name": "4", "tags": {"building": "yes"}}}, {"type": "Feature", "geometry": {"type": "Polygon", "coordinates": [[[-97.0833894, 36.7035423], [-97.0836403, 36.703548], [-97.08365, 36.7032819], [-97.083653, 36.703177], [-97.0834001, 36.7031721], [-97.0834001, 36.7031897], [-97.0833894, 36.7035423]]]}, "properties": {"osm_id": 920730661, "building": "yes", "name": "", "height": null, "height_m": null, "levels": null, "tract_id": "40071000400", "tract_name": "4", "tags": {"building": "yes"}}}, {"type": "Feature", "geometry": {"type": "Polygon", "coordinates": [[[-97.0836403, 36.703548], [-97.0837183, 36.7035498], [-97.083728, 36.7032837], [-97.08365, 36.7032819], [-97.0836403, 36.703548]]]}, "properties": {"osm_id": 920730662, "building": "yes", "name": "", "height": null, "height_m": null, "levels": null, "tract_id": "40071000400", "tract_name": "4", "tags": {"building": "yes"}}}, {"type": "Feature", "geometry": {"type": "Polygon", "coordinates": [[[-97.0801039, 36.7034709], [-97.0801164, 36.7030868], [-97.0802837, 36.7030903], [-97.0802711, 36.7034744], [-97.0801039, 36.7034709]]]}, "properties": {"osm_id": 920730667, "building": "yes", "name": "Aesthetic State of Mind", "height": null, "height_m": null, "levels": null, "tract_id": "40071000400", "tract_name": "4", "tags": {"addr:city": "Ponca City", "addr:country": "US", "addr:housenumber": "104", "addr:state": "OK", "addr:street": "South 4th Street", "building": "yes", "email": "info@asom.us", "name": "Aesthetic State of Mind", "opening_hours": "Mo-Fr 09:00-17:00", "phone": "+1-580-382-4034", "shop": "yes", "website": "https://www.asom.us/"}}}, {"type": "Feature", "geometry": {"type": "Polygon", "coordinates": [[[-97.0802711, 36.7034744], [-97.0804378, 36.7034778], [-97.0804506, 36.7030939], [-97.0802837, 36.7030903], [-97.0802711, 36.7034744]]]}, "properties": {"osm_id": 920730668, "building": "yes", "name": "", "height": null, "height_m": null, "levels": null, "tract_id": "40071000400", "tract_name": "4", "tags": {"building": "yes", "shop": "yes"}}}, {"type": "Feature", "geometry": {"type": "Polygon", "coordinates": [[[-97.0804378, 36.7034778], [-97.0806104, 36.7034815], [-97.0806212, 36.703098], [-97.0804506, 36.7030939], [-97.0804378, 36.7034778]]]}, "properties": {"osm_id": 920730669, "building": "yes", "name": "", "height": null, "height_m": null, "levels": null, "tract_id": "40071000400", "tract_name": "4", "tags": {"building": "yes", "shop": "yes"}}}, {"type": "Feature", "geometry": {"type": "Polygon", "coordinates": [[[-97.0806104, 36.7034815], [-97.0807823, 36.7034843], [-97.0807958, 36.703101], [-97.0806212, 36.703098], [-97.0806104, 36.7034815]]]}, "properties": {"osm_id": 920730670, "building": "yes", "name": "", "height": null, "height_m": null, "levels": null, "tract_id": "40071000400", "tract_name": "4", "tags": {"building": "yes", "shop": "yes"}}}, {"type": "Feature", "geometry": {"type": "Polygon", "coordinates": [[[-97.0807823, 36.7034843], [-97.0810236, 36.7034891], [-97.0810365, 36.7031078], [-97.0807958, 36.703101], [-97.0807823, 36.7034843]]]}, "properties": {"osm_id": 920730671, "building": "yes", "name": "", "height": null, "height_m": null, "levels": null, "tract_id": "40071000400", "tract_name": "4", "tags": {"building": "yes", "shop": "yes"}}}, {"type": "Feature", "geometry": {"type": "Polygon", "coordinates": [[[-97.0810236, 36.7034891], [-97.081107, 36.7034907], [-97.0811216, 36.7031088], [-97.0810365, 36.7031078], [-97.0810236, 36.7034891]]]}, "properties": {"osm_id": 920730672, "building": "yes", "name": "", "height": null, "height_m": null, "levels": null, "tract_id": "40071000400", "tract_name": "4", "tags": {"building": "yes", "shop": "yes"}}}, {"type": "Feature", "geometry": {"type": "Polygon", "coordinates": [[[-97.0761361, 36.6827773], [-97.076163, 36.6828333], [-97.0761482, 36.6828892], [-97.07612, 36.682929], [-97.0760744, 36.682958], [-97.0760168, 36.6829763], [-97.0760262, 36.6830032], [-97.0759779, 36.6830086], [-97.0759229, 36.6830021], [-97.0758746, 36.682986], [-97.0758344, 36.6829591], [-97.0758035, 36.6829182], [-97.0757901, 36.6828903], [-97.0757499, 36.6828957], [-97.0757432, 36.6828526], [-97.0757472, 36.6828096], [-97.075762, 36.6827623], [-97.0757861, 36.6827268], [-97.0758076, 36.6827053], [-97.0758532, 36.6827451], [-97.0758894, 36.6827171], [-97.0759537, 36.6826999], [-97.0760221, 36.6826945], [-97.0760597, 36.682701], [-97.0760691, 36.6827408], [-97.0761361, 36.6827773]]]}, "properties": {"osm_id": 963690268, "building": "yes", "name": "Standing Bear Museum", "height": null, "height_m": null, "levels": null, "tract_id": "40071000400", "tract_name": "4", "tags": {"building": "yes", "name": "Standing Bear Museum", "tourism": "museum"}}}, {"type": "Feature", "geometry": {"type": "Polygon", "coordinates": [[[-97.0821288, 36.7017091], [-97.0819907, 36.701707], [-97.0819923, 36.7016424], [-97.0821304, 36.7016445], [-97.0821288, 36.7017091]]]}, "properties": {"osm_id": 1004368915, "building": "yes", "name": "", "height": null, "height_m": null, "levels": null, "tract_id": "40071000400", "tract_name": "4", "tags": {"building": "yes"}}}, {"type": "Feature", "geometry": {"type": "Polygon", "coordinates": [[[-97.0824721, 36.7016414], [-97.0824689, 36.7017069], [-97.0821336, 36.7016961], [-97.0821369, 36.7016306], [-97.0824721, 36.7016414]]]}, "properties": {"osm_id": 1004368916, "building": "yes", "name": "", "height": null, "height_m": null, "levels": null, "tract_id": "40071000400", "tract_name": "4", "tags": {"building": "yes"}}}, {"type": "Feature", "geometry": {"type": "Polygon", "coordinates": [[[-97.0824721, 36.7017919], [-97.0821959, 36.7017823], [-97.0821994, 36.7017177], [-97.0824757, 36.7017274], [-97.0824721, 36.7017919]]]}, "properties": {"osm_id": 1004368917, "building": "yes", "name": "", "height": null, "height_m": null, "levels": null, "tract_id": "40071000400", "tract_name": "4", "tags": {"building": "yes"}}}, {"type": "Feature", "geometry": {"type": "Polygon", "coordinates": [[[-97.0824675, 36.7019358], [-97.0824611, 36.7020734], [-97.0821163, 36.7020632], [-97.0821227, 36.7019255], [-97.0824675, 36.7019358]]]}, "properties": {"osm_id": 1004368918, "building": "yes", "name": "", "height": null, "height_m": null, "levels": null, "tract_id": "40071000400", "tract_name": "4", "tags": {"building": "yes"}}}, {"type": "Feature", "geometry": {"type": "Polygon", "coordinates": [[[-97.0824549, 36.7022071], [-97.0819736, 36.7021928], [-97.0819798, 36.7020591], [-97.0821163, 36.7020632], [-97.0824611, 36.7020734], [-97.0824549, 36.7022071]]]}, "properties": {"osm_id": 1004368919, "building": "yes", "name": "", "height": null, "height_m": null, "levels": null, "tract_id": "40071000400", "tract_name": "4", "tags": {"building": "yes"}}}, {"type": "Feature", "geometry": {"type": "Polygon", "coordinates": [[[-97.0824574, 36.7023898], [-97.0824547, 36.7024781], [-97.0819585, 36.7024685], [-97.0819612, 36.7023801], [-97.0824574, 36.7023898]]]}, "properties": {"osm_id": 1004368920, "building": "yes", "name": "", "height": null, "height_m": null, "levels": null, "tract_id": "40071000400", "tract_name": "4", "tags": {"building": "yes"}}}, {"type": "Feature", "geometry": {"type": "Polygon", "coordinates": [[[-97.0829425, 36.706297], [-97.0829569, 36.705908], [-97.0826268, 36.7059001], [-97.0826125, 36.7062892], [-97.0829425, 36.706297]]]}, "properties": {"osm_id": 1058701194, "building": "yes", "name": "", "height": null, "height_m": null, "levels": null, "tract_id": "40071000400", "tract_name": "4", "tags": {"addr:city": "Ponca City", "addr:housenumber": "115", "addr:postcode": "74601", "addr:state": "OK", "addr:street": "East Chestnut Avenue", "building": "yes", "roof:shape": "flat", "telecom": "exchange"}}}, {"type": "Feature", "geometry": {"type": "Polygon", "coordinates": [[[-97.0755896, 36.6999995], [-97.0755306, 36.6999984], [-97.0755319, 36.699951], [-97.0755909, 36.6999521], [-97.0755896, 36.6999995]]]}, "properties": {"osm_id": 1155678382, "building": "yes", "name": "", "height": null, "height_m": null, "levels": null, "tract_id": "40071000400", "tract_name": "4", "tags": {"building": "yes"}}}, {"type": "Feature", "geometry": {"type": "Polygon", "coordinates": [[[-97.081686, 36.7042799], [-97.0816886, 36.7042127], [-97.0813469, 36.7042042], [-97.0813443, 36.7042714], [-97.081686, 36.7042799]]]}, "properties": {"osm_id": 1156835934, "building": "yes", "name": "", "height": null, "height_m": null, "levels": null, "tract_id": "40071000400", "tract_name": "4", "tags": {"building": "yes", "shop": "yes"}}}, {"type": "Feature", "geometry": {"type": "Polygon", "coordinates": [[[-97.0816836, 36.7043399], [-97.081686, 36.7042799], [-97.0813443, 36.7042714], [-97.081342, 36.7043314], [-97.0816836, 36.7043399]]]}, "properties": {"osm_id": 1156835935, "building": "yes", "name": "", "height": null, "height_m": null, "levels": null, "tract_id": "40071000400", "tract_name": "4", "tags": {"building": "yes", "shop": "yes"}}}, {"type": "Feature", "geometry": {"type": "Polygon", "coordinates": [[[-97.0817121, 36.7044129], [-97.0817149, 36.7043407], [-97.0816836, 36.7043399], [-97.081342, 36.7043314], [-97.0813392, 36.7044036], [-97.0817121, 36.7044129]]]}, "properties": {"osm_id": 1156835936, "building": "yes", "name": "", "height": null, "height_m": null, "levels": null, "tract_id": "40071000400", "tract_name": "4", "tags": {"building": "yes", "shop": "yes"}}}, {"type": "Feature", "geometry": {"type": "Polygon", "coordinates": [[[-97.0817097, 36.7044746], [-97.0817121, 36.7044129], [-97.0813392, 36.7044036], [-97.0813368, 36.7044653], [-97.0817097, 36.7044746]]]}, "properties": {"osm_id": 1156835937, "building": "yes", "name": "", "height": null, "height_m": null, "levels": null, "tract_id": "40071000400", "tract_name": "4", "tags": {"building": "yes", "shop": "yes"}}}, {"type": "Feature", "geometry": {"type": "Polygon", "coordinates": [[[-97.0817049, 36.7045994], [-97.0813319, 36.7045901], [-97.0813368, 36.7044653], [-97.0817097, 36.7044746], [-97.0817049, 36.7045994]]]}, "properties": {"osm_id": 1156835938, "building": "yes", "name": "", "height": null, "height_m": null, "levels": null, "tract_id": "40071000400", "tract_name": "4", "tags": {"building": "yes", "shop": "yes"}}}, {"type": "Feature", "geometry": {"type": "Polygon", "coordinates": [[[-97.0822904, 36.7037875], [-97.0823796, 36.7037913], [-97.0824004, 36.7038112], [-97.0823769, 36.7041821], [-97.0822079, 36.7041754], [-97.0822125, 36.7040607], [-97.0822777, 36.7040617], [-97.0822904, 36.7037875]]]}, "properties": {"osm_id": 1156835957, "building": "commercial", "name": "", "height": null, "height_m": null, "levels": null, "tract_id": "40071000400", "tract_name": "4", "tags": {"building": "commercial", "shop": "yes"}}}, {"type": "Feature", "geometry": {"type": "Polygon", "coordinates": [[[-97.0822234, 36.703787], [-97.0822904, 36.7037875], [-97.0822777, 36.7040617], [-97.0822125, 36.7040607], [-97.0822234, 36.703787]]]}, "properties": {"osm_id": 1156835958, "building": "commercial", "name": "", "height": null, "height_m": null, "levels": null, "tract_id": "40071000400", "tract_name": "4", "tags": {"building": "commercial", "shop": "yes"}}}, {"type": "Feature", "geometry": {"type": "Polygon", "coordinates": [[[-97.0821422, 36.7037849], [-97.0822234, 36.703787], [-97.0822125, 36.7040607], [-97.0822079, 36.7041754], [-97.0821267, 36.7041733], [-97.0821422, 36.7037849]]]}, "properties": {"osm_id": 1156835959, "building": "commercial", "name": "", "height": null, "height_m": null, "levels": null, "tract_id": "40071000400", "tract_name": "4", "tags": {"building": "commercial", "shop": "yes"}}}, {"type": "Feature", "geometry": {"type": "Polygon", "coordinates": [[[-97.0820389, 36.704171], [-97.0821267, 36.7041733], [-97.0821422, 36.7037849], [-97.0820545, 36.7037827], [-97.0820389, 36.704171]]]}, "properties": {"osm_id": 1156835960, "building": "commercial", "name": "", "height": null, "height_m": null, "levels": null, "tract_id": "40071000400", "tract_name": "4", "tags": {"building": "commercial", "shop": "yes"}}}, {"type": "Feature", "geometry": {"type": "Polygon", "coordinates": [[[-97.081966, 36.7037804], [-97.0820545, 36.7037827], [-97.0820389, 36.704171], [-97.0819504, 36.7041687], [-97.0819525, 36.7041163], [-97.081966, 36.7037804]]]}, "properties": {"osm_id": 1156835961, "building": "commercial", "name": "", "height": null, "height_m": null, "levels": null, "tract_id": "40071000400", "tract_name": "4", "tags": {"building": "commercial", "shop": "yes"}}}, {"type": "Feature", "geometry": {"type": "Polygon", "coordinates": [[[-97.0818799, 36.703779], [-97.081966, 36.7037804], [-97.0819525, 36.7041163], [-97.0818661, 36.704114], [-97.0818799, 36.703779]]]}, "properties": {"osm_id": 1156835962, "building": "commercial", "name": "", "height": null, "height_m": null, "levels": null, "tract_id": "40071000400", "tract_name": "4", "tags": {"building": "commercial", "shop": "yes"}}}, {"type": "Feature", "geometry": {"type": "Polygon", "coordinates": [[[-97.0817823, 36.7041639], [-97.0818644, 36.704166], [-97.0818661, 36.704114], [-97.0818799, 36.703779], [-97.0817974, 36.7037769], [-97.0817823, 36.7041639]]]}, "properties": {"osm_id": 1156835963, "building": "commercial", "name": "", "height": null, "height_m": null, "levels": null, "tract_id": "40071000400", "tract_name": "4", "tags": {"building": "commercial", "shop": "yes"}}}, {"type": "Feature", "geometry": {"type": "Polygon", "coordinates": [[[-97.0816988, 36.7041465], [-97.0817133, 36.7037748], [-97.0817974, 36.7037769], [-97.0817823, 36.7041639], [-97.0816982, 36.7041618], [-97.0816988, 36.7041465]]]}, "properties": {"osm_id": 1156835964, "building": "commercial", "name": "", "height": null, "height_m": null, "levels": null, "tract_id": "40071000400", "tract_name": "4", "tags": {"building": "commercial", "shop": "yes"}}}, {"type": "Feature", "geometry": {"type": "Polygon", "coordinates": [[[-97.0816228, 36.7037726], [-97.0817133, 36.7037748], [-97.0816988, 36.7041465], [-97.081608, 36.7041442], [-97.0816082, 36.704139], [-97.0816228, 36.7037726]]]}, "properties": {"osm_id": 1156835965, "building": "commercial", "name": "", "height": null, "height_m": null, "levels": null, "tract_id": "40071000400", "tract_name": "4", "tags": {"building": "commercial", "shop": "yes"}}}, {"type": "Feature", "geometry": {"type": "Polygon", "coordinates": [[[-97.0815179, 36.7041366], [-97.0816082, 36.704139], [-97.0816228, 36.7037726], [-97.0815325, 36.7037703], [-97.0815179, 36.7041366]]]}, "properties": {"osm_id": 1156835972, "building": "commercial", "name": "", "height": null, "height_m": null, "levels": null, "tract_id": "40071000400", "tract_name": "4", "tags": {"building": "commercial", "shop": "yes"}}}, {"type": "Feature", "geometry": {"type": "Polygon", "coordinates": [[[-97.0813615, 36.7041445], [-97.0813766, 36.7037663], [-97.0815325, 36.7037703], [-97.0815179, 36.7041366], [-97.0815174, 36.7041485], [-97.0813615, 36.7041445]]]}, "properties": {"osm_id": 1156835974, "building": "commercial", "name": "", "height": null, "height_m": null, "levels": null, "tract_id": "40071000400", "tract_name": "4", "tags": {"building": "commercial", "shop": "yes"}}}, {"type": "Feature", "geometry": {"type": "Polygon", "coordinates": [[[-97.0812639, 36.7064188], [-97.0812811, 36.7059847], [-97.0817383, 36.7059963], [-97.0817282, 36.7062529], [-97.0815793, 36.7062491], [-97.0815723, 36.7064266], [-97.0812639, 36.7064188]]]}, "properties": {"osm_id": 1162932421, "building": "yes", "name": "", "height": null, "height_m": null, "levels": null, "tract_id": "40071000400", "tract_name": "4", "tags": {"building": "yes"}}}, {"type": "Feature", "geometry": {"type": "Polygon", "coordinates": [[[-97.0800676, 36.7054504], [-97.080084, 36.7049407], [-97.0801733, 36.7049426], [-97.0802237, 36.7049014], [-97.0802257, 36.7048341], [-97.0804824, 36.704839], [-97.0804777, 36.7049988], [-97.0803156, 36.7049957], [-97.0802791, 36.7050203], [-97.080265, 36.7054545], [-97.0800676, 36.7054504]]]}, "properties": {"osm_id": 1162932422, "building": "yes", "name": "", "height": null, "height_m": null, "levels": null, "tract_id": "40071000400", "tract_name": "4", "tags": {"building": "yes"}}}, {"type": "Feature", "geometry": {"type": "Polygon", "coordinates": [[[-97.0809388, 36.7059986], [-97.0809423, 36.7058652], [-97.0808834, 36.7058642], [-97.080883, 36.7058809], [-97.0807117, 36.705878], [-97.0807113, 36.7058917], [-97.0806813, 36.7058912], [-97.0806788, 36.7059843], [-97.0807092, 36.7059848], [-97.080709, 36.7059947], [-97.0809388, 36.7059986]]]}, "properties": {"osm_id": 1162932423, "building": "church", "name": "Pioneer Bible Church", "height": null, "height_m": null, "levels": null, "tract_id": "40071000400", "tract_name": "4", "tags": {"amenity": "place_of_worship", "building": "church", "ele": "308", "gnis:feature_id": "1809818", "name": "Pioneer Bible Church", "religion": "christian"}}}, {"type": "Feature", "geometry": {"type": "Polygon", "coordinates": [[[-97.0826822, 36.703798], [-97.0836822, 36.7038302], [-97.0836634, 36.7042052], [-97.0835302, 36.7042009], [-97.0835312, 36.7041803], [-97.0833356, 36.7041741], [-97.0833367, 36.704151], [-97.0831414, 36.7041447], [-97.0831431, 36.70411], [-97.0830673, 36.7041076], [-97.0830659, 36.7041348], [-97.0829886, 36.7041323], [-97.0829855, 36.704193], [-97.0826629, 36.7041826], [-97.0826822, 36.703798]]]}, "properties": {"osm_id": 1354926704, "building": "yes", "name": "", "height": null, "height_m": null, "levels": null, "tract_id": "40071000400", "tract_name": "4", "tags": {"building": "yes"}}}, {"type": "Feature", "geometry": {"type": "Polygon", "coordinates": [[[-97.0826456, 36.7042396], [-97.082628, 36.7046171], [-97.0831022, 36.7046313], [-97.0831198, 36.7042539], [-97.0826456, 36.7042396]]]}, "properties": {"osm_id": 1354926705, "building": "yes", "name": "", "height": null, "height_m": null, "levels": null, "tract_id": "40071000400", "tract_name": "4", "tags": {"building": "yes"}}}, {"type": "Feature", "geometry": {"type": "Polygon", "coordinates": [[[-97.0839798, 36.7038387], [-97.0849271, 36.7038644], [-97.0849108, 36.7042516], [-97.0842716, 36.7042342], [-97.0842744, 36.7041681], [-97.0839663, 36.7041597], [-97.0839798, 36.7038387]]]}, "properties": {"osm_id": 1354926706, "building": "yes", "name": "", "height": null, "height_m": null, "levels": null, "tract_id": "40071000400", "tract_name": "4", "tags": {"building": "yes"}}}, {"type": "Feature", "geometry": {"type": "Polygon", "coordinates": [[[-97.0802246, 36.7037234], [-97.0810964, 36.7037529], [-97.0810755, 36.7041505], [-97.0808489, 36.7041428], [-97.0808511, 36.704102], [-97.080674, 36.704096], [-97.0806755, 36.7040687], [-97.0804813, 36.7040621], [-97.0804785, 36.7041161], [-97.0803675, 36.7041123], [-97.0803686, 36.7040904], [-97.0803041, 36.7040883], [-97.0803118, 36.7039423], [-97.0802133, 36.703939], [-97.0802246, 36.7037234]]]}, "properties": {"osm_id": 1354926707, "building": "yes", "name": "", "height": null, "height_m": null, "levels": null, "tract_id": "40071000400", "tract_name": "4", "tags": {"building": "yes"}}}, {"type": "Feature", "geometry": {"type": "Polygon", "coordinates": [[[-97.0806111, 36.7041768], [-97.0810802, 36.7041911], [-97.0810617, 36.7045836], [-97.0805712, 36.7045687], [-97.0805769, 36.7044473], [-97.0806956, 36.7044509], [-97.0807018, 36.7043203], [-97.0806045, 36.7043174], [-97.0806111, 36.7041768]]]}, "properties": {"osm_id": 1354926708, "building": "yes", "name": "", "height": null, "height_m": null, "levels": null, "tract_id": "40071000400", "tract_name": "4", "tags": {"building": "yes"}}}, {"type": "Feature", "geometry": {"type": "Polygon", "coordinates": [[[-97.0823295, 36.7055312], [-97.0823358, 36.7050176], [-97.081865, 36.7050139], [-97.0818645, 36.7050606], [-97.0820314, 36.7050619], [-97.0820298, 36.7051922], [-97.081825, 36.7051907], [-97.081821, 36.7055273], [-97.0823295, 36.7055312]]]}, "properties": {"osm_id": 1354926709, "building": "yes", "name": "", "height": null, "height_m": null, "levels": null, "tract_id": "40071000400", "tract_name": "4", "tags": {"building": "yes"}}}, {"type": "Feature", "geometry": {"type": "Polygon", "coordinates": [[[-97.0819039, 36.7022003], [-97.0819015, 36.7024717], [-97.0814855, 36.7024693], [-97.0814104, 36.7023962], [-97.0814121, 36.7021975], [-97.0819039, 36.7022003]]]}, "properties": {"osm_id": 1354926710, "building": "yes", "name": "", "height": null, "height_m": null, "levels": null, "tract_id": "40071000400", "tract_name": "4", "tags": {"building": "yes"}}}, {"type": "Feature", "geometry": {"type": "Polygon", "coordinates": [[[-97.0789491, 36.7040899], [-97.0787515, 36.704087], [-97.0787599, 36.7037163], [-97.0789576, 36.7037193], [-97.0789491, 36.7040899]]]}, "properties": {"osm_id": 1354926711, "building": "yes", "name": "", "height": null, "height_m": null, "levels": null, "tract_id": "40071000400", "tract_name": "4", "tags": {"building": "yes"}}}, {"type": "Feature", "geometry": {"type": "Polygon", "coordinates": [[[-97.0791027, 36.7040903], [-97.079773, 36.704107], [-97.0797873, 36.7037337], [-97.0791171, 36.7037171], [-97.0791027, 36.7040903]]]}, "properties": {"osm_id": 1354926712, "building": "yes", "name": "", "height": null, "height_m": null, "levels": null, "tract_id": "40071000400", "tract_name": "4", "tags": {"building": "yes"}}}, {"type": "Feature", "geometry": {"type": "Polygon", "coordinates": [[[-97.0800672, 36.7041832], [-97.0800578, 36.7044261], [-97.0805187, 36.7044375], [-97.0805239, 36.7043042], [-97.0803893, 36.7043008], [-97.0803936, 36.7041914], [-97.0800672, 36.7041832]]]}, "properties": {"osm_id": 1354926713, "building": "yes", "name": "", "height": null, "height_m": null, "levels": null, "tract_id": "40071000400", "tract_name": "4", "tags": {"building": "yes"}}}, {"type": "Feature", "geometry": {"type": "Polygon", "coordinates": [[[-97.079315, 36.7041666], [-97.0797726, 36.7041775], [-97.079763, 36.7044368], [-97.0793054, 36.704426], [-97.079315, 36.7041666]]]}, "properties": {"osm_id": 1354926714, "building": "yes", "name": "", "height": null, "height_m": null, "levels": null, "tract_id": "40071000400", "tract_name": "4", "tags": {"building": "yes"}}}, {"type": "Feature", "geometry": {"type": "Polygon", "coordinates": [[[-97.0818629, 36.7048281], [-97.0818607, 36.7049017], [-97.0823199, 36.7049106], [-97.0823221, 36.7048368], [-97.0818629, 36.7048281]]]}, "properties": {"osm_id": 1354926715, "building": "yes", "name": "", "height": null, "height_m": null, "levels": null, "tract_id": "40071000400", "tract_name": "4", "tags": {"building": "yes"}}}, {"type": "Feature", "geometry": {"type": "Polygon", "coordinates": [[[-97.083933, 36.7042643], [-97.0839137, 36.7046545], [-97.0842447, 36.704665], [-97.0842639, 36.7042748], [-97.083933, 36.7042643]]]}, "properties": {"osm_id": 1354926716, "building": "yes", "name": "", "height": null, "height_m": null, "levels": null, "tract_id": "40071000400", "tract_name": "4", "tags": {"building": "yes"}}}, {"type": "Feature", "geometry": {"type": "Polygon", "coordinates": [[[-97.0831794, 36.7048486], [-97.0836155, 36.7048587], [-97.0836065, 36.705109], [-97.0831704, 36.7050989], [-97.0831794, 36.7048486]]]}, "properties": {"osm_id": 1354926717, "building": "yes", "name": "", "height": null, "height_m": null, "levels": null, "tract_id": "40071000400", "tract_name": "4", "tags": {"building": "yes"}}}, {"type": "Feature", "geometry": {"type": "Polygon", "coordinates": [[[-97.0811575, 36.7024446], [-97.081158, 36.7023157], [-97.0806948, 36.7023146], [-97.0806943, 36.7024433], [-97.0811575, 36.7024446]]]}, "properties": {"osm_id": 1354926718, "building": "yes", "name": "", "height": null, "height_m": null, "levels": null, "tract_id": "40071000400", "tract_name": "4", "tags": {"building": "yes"}}}, {"type": "Feature", "geometry": {"type": "Polygon", "coordinates": [[[-97.0827097, 36.7022438], [-97.0827202, 36.7018778], [-97.0830031, 36.7018831], [-97.0830089, 36.701682], [-97.0832211, 36.7016859], [-97.0832048, 36.7022529], [-97.0827097, 36.7022438]]]}, "properties": {"osm_id": 1354926719, "building": "yes", "name": "", "height": null, "height_m": null, "levels": null, "tract_id": "40071000400", "tract_name": "4", "tags": {"building": "yes"}}}, {"type": "Feature", "geometry": {"type": "Polygon", "coordinates": [[[-97.0833019, 36.7016951], [-97.0832847, 36.7020843], [-97.083477, 36.7020897], [-97.0834727, 36.7021873], [-97.0833813, 36.7021847], [-97.0833787, 36.7022428], [-97.0834666, 36.7022453], [-97.0834592, 36.7024134], [-97.0832491, 36.7024075], [-97.0832442, 36.7025178], [-97.0837506, 36.7025322], [-97.0837808, 36.7018488], [-97.0834252, 36.7018387], [-97.0834314, 36.7016988], [-97.0833019, 36.7016951]]]}, "properties": {"osm_id": 1354926720, "building": "yes", "name": "", "height": null, "height_m": null, "levels": null, "tract_id": "40071000400", "tract_name": "4", "tags": {"building": "yes"}}}, {"type": "Feature", "geometry": {"type": "Polygon", "coordinates": [[[-97.0839789, 36.7031174], [-97.0839948, 36.7027316], [-97.0845011, 36.7027451], [-97.0844852, 36.7031308], [-97.0839789, 36.7031174]]]}, "properties": {"osm_id": 1354926721, "building": "yes", "name": "", "height": null, "height_m": null, "levels": null, "tract_id": "40071000400", "tract_name": "4", "tags": {"building": "yes"}}}, {"type": "Feature", "geometry": {"type": "Polygon", "coordinates": [[[-97.0831642, 36.704253], [-97.0836586, 36.7042651], [-97.0836541, 36.7043833], [-97.0835461, 36.7043807], [-97.0835416, 36.7044994], [-97.0833635, 36.7044951], [-97.0833686, 36.70436], [-97.0831604, 36.704355], [-97.0831642, 36.704253]]]}, "properties": {"osm_id": 1354926722, "building": "yes", "name": "", "height": null, "height_m": null, "levels": null, "tract_id": "40071000400", "tract_name": "4", "tags": {"building": "yes"}}}, {"type": "Feature", "geometry": {"type": "Polygon", "coordinates": [[[-97.0805164, 36.7010283], [-97.0811306, 36.7010333], [-97.0811271, 36.7013091], [-97.0809258, 36.7013075], [-97.0809253, 36.7013432], [-97.080734, 36.7013416], [-97.0807344, 36.7013053], [-97.0805129, 36.7013035], [-97.0805164, 36.7010283]]]}, "properties": {"osm_id": 1392687028, "building": "yes", "name": "", "height": null, "height_m": null, "levels": null, "tract_id": "40071000400", "tract_name": "4", "tags": {"building": "yes"}}}, {"type": "Feature", "geometry": {"type": "Polygon", "coordinates": [[[-97.0790277, 36.7045321], [-97.0787242, 36.7045235], [-97.0787408, 36.7041481], [-97.0789034, 36.7041527], [-97.0788957, 36.7043277], [-97.078939, 36.7043289], [-97.0789369, 36.7043761], [-97.0790344, 36.7043789], [-97.0790277, 36.7045321]]]}, "properties": {"osm_id": 1392687029, "building": "yes", "name": "", "height": null, "height_m": null, "levels": null, "tract_id": "40071000400", "tract_name": "4", "tags": {"building": "yes"}}}, {"type": "Feature", "geometry": {"type": "Polygon", "coordinates": [[[-97.0776125, 36.7018864], [-97.0780232, 36.7018977], [-97.0780121, 36.7021595], [-97.077957, 36.702158], [-97.0779485, 36.7023584], [-97.0777837, 36.7023539], [-97.0777849, 36.7023258], [-97.0775941, 36.7023206], [-97.0776125, 36.7018864]]]}, "properties": {"osm_id": 1392687030, "building": "yes", "name": "", "height": null, "height_m": null, "levels": null, "tract_id": "40071000400", "tract_name": "4", "tags": {"building": "yes"}}}, {"type": "Feature", "geometry": {"type": "Polygon", "coordinates": [[[-97.0788945, 36.7019664], [-97.0796029, 36.7019888], [-97.0796162, 36.7017167], [-97.0789079, 36.7016944], [-97.0788945, 36.7019664]]]}, "properties": {"osm_id": 1392687031, "building": "yes", "name": "", "height": null, "height_m": null, "levels": null, "tract_id": "40071000400", "tract_name": "4", "tags": {"building": "yes"}}}, {"type": "Feature", "geometry": {"type": "Polygon", "coordinates": [[[-97.0813346, 36.7048205], [-97.0818015, 36.7048303], [-97.0817978, 36.704945], [-97.0813309, 36.7049352], [-97.0813346, 36.7048205]]]}, "properties": {"osm_id": 1392687032, "building": "yes", "name": "", "height": null, "height_m": null, "levels": null, "tract_id": "40071000400", "tract_name": "4", "tags": {"building": "yes"}}}, {"type": "Feature", "geometry": {"type": "Polygon", "coordinates": [[[-97.0861099, 36.7038714], [-97.0865571, 36.703884], [-97.0865409, 36.7042529], [-97.0862961, 36.704246], [-97.086298, 36.7042024], [-97.0860957, 36.7041966], [-97.0861099, 36.7038714]]]}, "properties": {"osm_id": 1392687033, "building": "yes", "name": "", "height": null, "height_m": null, "levels": null, "tract_id": "40071000400", "tract_name": "4", "tags": {"building": "yes"}}}, {"type": "Feature", "geometry": {"type": "Polygon", "coordinates": [[[-97.0861281, 36.7036184], [-97.0864344, 36.7036296], [-97.0864559, 36.7032478], [-97.0863191, 36.7032428], [-97.0863076, 36.7034444], [-97.0861383, 36.7034383], [-97.0861281, 36.7036184]]]}, "properties": {"osm_id": 1392687034, "building": "yes", "name": "", "height": null, "height_m": null, "levels": null, "tract_id": "40071000400", "tract_name": "4", "tags": {"building": "yes"}}}, {"type": "Feature", "geometry": {"type": "Polygon", "coordinates": [[[-97.0855648, 36.7032028], [-97.0858754, 36.7032079], [-97.0858655, 36.7036004], [-97.0855548, 36.7035953], [-97.0855648, 36.7032028]]]}, "properties": {"osm_id": 1392687035, "building": "yes", "name": "", "height": null, "height_m": null, "levels": null, "tract_id": "40071000400", "tract_name": "4", "tags": {"building": "yes"}}}, {"type": "Feature", "geometry": {"type": "Polygon", "coordinates": [[[-97.0826216, 36.7048554], [-97.0828264, 36.704858], [-97.0828234, 36.7050098], [-97.0826186, 36.7050073], [-97.0826216, 36.7048554]]]}, "properties": {"osm_id": 1392687036, "building": "yes", "name": "", "height": null, "height_m": null, "levels": null, "tract_id": "40071000400", "tract_name": "4", "tags": {"building": "yes"}}}]}