{"type": "FeatureCollection", "features": [{"type": "Feature", "geometry": {"type": "Polygon", "coordinates": [[[-95.3588904, 35.7410284], [-95.358744, 35.7410633], [-95.3587023, 35.7409684], [-95.3588515, 35.7409281], [-95.3588904, 35.7410284]]]}, "properties": {"osm_id": 224697945, "building": "public", "name": "Spaulding Park Scout House", "height": null, "height_m": null, "levels": null, "tract_id": "40101000700", "tract_name": "7", "tags": {"amenity": "community_centre", "building": "public", "name": "Spaulding Park Scout House"}}}, {"type": "Feature", "geometry": {"type": "Polygon", "coordinates": [[[-95.3426919, 35.7750075], [-95.3420259, 35.775009], [-95.3420255, 35.7748855], [-95.3420615, 35.7748854], [-95.3420612, 35.7747779], [-95.3421743, 35.7747777], [-95.3421739, 35.7746595], [-95.3425342, 35.7746587], [-95.3425346, 35.7747769], [-95.3426586, 35.7747766], [-95.3426589, 35.7748841], [-95.3426915, 35.774884], [-95.3426919, 35.7750075]]]}, "properties": {"osm_id": 258559788, "building": "yes", "name": "", "height": null, "height_m": null, "levels": null, "tract_id": "40101000700", "tract_name": "7", "tags": {"addr:city": "Muskogee", "addr:country": "US", "addr:housenumber": "2348", "addr:postcode": "74401", "addr:street": "East Shawnee Bypass", "building": "yes"}}}, {"type": "Feature", "geometry": {"type": "Polygon", "coordinates": [[[-95.3580923, 35.7444882], [-95.3581284, 35.7444969], [-95.3581387, 35.744469], [-95.3585175, 35.7445609], [-95.358508, 35.7445869], [-95.358668, 35.7446257], [-95.3586864, 35.7446532], [-95.3587407, 35.7446324], [-95.3589924, 35.7446935], [-95.3590205, 35.7447342], [-95.3590546, 35.7447195], [-95.3592279, 35.7447615], [-95.3590224, 35.7453197], [-95.3587225, 35.7452469], [-95.3587418, 35.7451943], [-95.3580701, 35.7450314], [-95.3579069, 35.7449918], [-95.3580923, 35.7444882]]]}, "properties": {"osm_id": 310626118, "building": "yes", "name": "", "height": null, "height_m": null, "levels": null, "tract_id": "40101000700", "tract_name": "7", "tags": {"addr:city": "Muskogee", "addr:country": "US", "addr:housenumber": "700", "addr:postcode": "74403", "addr:state": "OK", "addr:street": "East Okmulgee Avenue", "building": "yes", "government": "yes", "office": "government"}}}, {"type": "Feature", "geometry": {"type": "Polygon", "coordinates": [[[-95.3568323, 35.7459508], [-95.3567576, 35.7460755], [-95.3565458, 35.7459973], [-95.3566163, 35.7458682], [-95.3568323, 35.7459508]]]}, "properties": {"osm_id": 328270241, "building": "commercial", "name": "", "height": null, "height_m": null, "levels": null, "tract_id": "40101000700", "tract_name": "7", "tags": {"addr:city": "Muskogee", "addr:country": "US", "addr:housenumber": "817", "addr:postcode": "74403", "addr:state": "OK", "addr:street": "Callahan Street", "building": "commercial"}}}, {"type": "Feature", "geometry": {"type": "Polygon", "coordinates": [[[-95.3476128, 35.7718413], [-95.3474531, 35.7718371], [-95.3474442, 35.7720615], [-95.3476039, 35.7720656], [-95.3476128, 35.7718413]]]}, "properties": {"osm_id": 428712339, "building": "retail", "name": "", "height": null, "height_m": null, "levels": null, "tract_id": "40101000700", "tract_name": "7", "tags": {"addr:city": "Muskogee", "addr:housenumber": "2212", "addr:postcode": "74403", "addr:state": "OK", "addr:street": "East Shawnee Road", "building": "retail", "shop": "vacant"}}}, {"type": "Feature", "geometry": {"type": "Polygon", "coordinates": [[[-95.3453307, 35.7722804], [-95.3453315, 35.7723194], [-95.3453432, 35.7728667], [-95.3448662, 35.7728683], [-95.3448664, 35.7729008], [-95.3449073, 35.7729007], [-95.3449056, 35.773076], [-95.3446601, 35.7730778], [-95.3446604, 35.773143], [-95.3448416, 35.7731425], [-95.3448437, 35.7736371], [-95.3440574, 35.7736393], [-95.3440569, 35.7735277], [-95.3440174, 35.7735278], [-95.3440171, 35.7734731], [-95.3440503, 35.773473], [-95.3440489, 35.7731459], [-95.344113, 35.7731457], [-95.3441126, 35.7730676], [-95.344252, 35.7730672], [-95.3442508, 35.7728698], [-95.3442393, 35.7722887], [-95.3453307, 35.7722804]]]}, "properties": {"osm_id": 428712340, "building": "yes", "name": "", "height": null, "height_m": null, "levels": null, "tract_id": "40101000700", "tract_name": "7", "tags": {"building": "yes"}}}, {"type": "Feature", "geometry": {"type": "Polygon", "coordinates": [[[-95.3542511, 35.7407634], [-95.3541693, 35.7407351], [-95.3541862, 35.7407029], [-95.354268, 35.7407313], [-95.3542511, 35.7407634]]]}, "properties": {"osm_id": 1082612995, "building": "yes", "name": "", "height": null, "height_m": null, "levels": null, "tract_id": "40101000700", "tract_name": "7", "tags": {"building": "yes"}}}, {"type": "Feature", "geometry": {"type": "Polygon", "coordinates": [[[-95.3545301, 35.7409457], [-95.3545596, 35.7408891], [-95.3545963, 35.7409017], [-95.3545668, 35.7409583], [-95.3545301, 35.7409457]]]}, "properties": {"osm_id": 1082612996, "building": "yes", "name": "", "height": null, "height_m": null, "levels": null, "tract_id": "40101000700", "tract_name": "7", "tags": {"building": "yes"}}}, {"type": "Feature", "geometry": {"type": "Polygon", "coordinates": [[[-95.354421, 35.7410341], [-95.3544584, 35.7410487], [-95.3545201, 35.7409442], [-95.3544828, 35.7409296], [-95.354421, 35.7410341]]]}, "properties": {"osm_id": 1082612997, "building": "yes", "name": "", "height": null, "height_m": null, "levels": null, "tract_id": "40101000700", "tract_name": "7", "tags": {"building": "yes"}}}, {"type": "Feature", "geometry": {"type": "Polygon", "coordinates": [[[-95.3536381, 35.7407176], [-95.3537366, 35.7407531], [-95.353808, 35.7406227], [-95.3537095, 35.7405872], [-95.3536381, 35.7407176]]]}, "properties": {"osm_id": 1082612998, "building": "yes", "name": "", "height": null, "height_m": null, "levels": null, "tract_id": "40101000700", "tract_name": "7", "tags": {"building": "yes", "source": "microsoft/BuildingFootprints"}}}, {"type": "Feature", "geometry": {"type": "Polygon", "coordinates": [[[-95.353949, 35.739331], [-95.3540039, 35.7393514], [-95.3540497, 35.7392702], [-95.3539148, 35.7392201], [-95.3538499, 35.7393353], [-95.3539299, 35.739365], [-95.353949, 35.739331]]]}, "properties": {"osm_id": 1082612999, "building": "yes", "name": "", "height": null, "height_m": null, "levels": null, "tract_id": "40101000700", "tract_name": "7", "tags": {"building": "yes", "source": "microsoft/BuildingFootprints"}}}, {"type": "Feature", "geometry": {"type": "Polygon", "coordinates": [[[-95.3558095, 35.7403325], [-95.3556678, 35.7402788], [-95.3556486, 35.7403098], [-95.3557903, 35.7403648], [-95.3558095, 35.7403325]]]}, "properties": {"osm_id": 1082613000, "building": "yes", "name": "", "height": null, "height_m": null, "levels": null, "tract_id": "40101000700", "tract_name": "7", "tags": {"building": "yes", "source": "microsoft/BuildingFootprints"}}}, {"type": "Feature", "geometry": {"type": "Polygon", "coordinates": [[[-95.3531133, 35.740529], [-95.3531932, 35.7405576], [-95.3532711, 35.740414], [-95.3531912, 35.7403855], [-95.3531133, 35.740529]]]}, "properties": {"osm_id": 1082613001, "building": "yes", "name": "", "height": null, "height_m": null, "levels": null, "tract_id": "40101000700", "tract_name": "7", "tags": {"building": "yes", "source": "microsoft/BuildingFootprints"}}}, {"type": "Feature", "geometry": {"type": "Polygon", "coordinates": [[[-95.3555976, 35.7404278], [-95.3556229, 35.7404377], [-95.3556117, 35.7404565], [-95.3556574, 35.7404744], [-95.3556686, 35.7404556], [-95.3556993, 35.7404676], [-95.3557455, 35.74039], [-95.3556902, 35.7403683], [-95.355706, 35.7403417], [-95.3556596, 35.7403235], [-95.3555976, 35.7404278]]]}, "properties": {"osm_id": 1082613002, "building": "yes", "name": "", "height": null, "height_m": null, "levels": null, "tract_id": "40101000700", "tract_name": "7", "tags": {"building": "yes", "source": "microsoft/BuildingFootprints"}}}, {"type": "Feature", "geometry": {"type": "Polygon", "coordinates": [[[-95.3547896, 35.7400565], [-95.3548066, 35.7400275], [-95.3547266, 35.7399985], [-95.3546626, 35.7401115], [-95.3547966, 35.7401605], [-95.3548436, 35.7400765], [-95.3547896, 35.7400565]]]}, "properties": {"osm_id": 1082613003, "building": "yes", "name": "", "height": null, "height_m": null, "levels": null, "tract_id": "40101000700", "tract_name": "7", "tags": {"building": "yes", "source": "microsoft/BuildingFootprints"}}}, {"type": "Feature", "geometry": {"type": "Polygon", "coordinates": [[[-95.353581, 35.7401237], [-95.3534394, 35.7400727], [-95.3533859, 35.7401707], [-95.3535274, 35.7402217], [-95.353581, 35.7401237]]]}, "properties": {"osm_id": 1082613004, "building": "yes", "name": "", "height": null, "height_m": null, "levels": null, "tract_id": "40101000700", "tract_name": "7", "tags": {"building": "yes", "source": "microsoft/BuildingFootprints"}}}, {"type": "Feature", "geometry": {"type": "Polygon", "coordinates": [[[-95.354423, 35.7404969], [-95.3545409, 35.7405415], [-95.3546003, 35.740438], [-95.3544824, 35.7403934], [-95.354423, 35.7404969]]]}, "properties": {"osm_id": 1082613005, "building": "yes", "name": "", "height": null, "height_m": null, "levels": null, "tract_id": "40101000700", "tract_name": "7", "tags": {"building": "yes", "source": "microsoft/BuildingFootprints"}}}, {"type": "Feature", "geometry": {"type": "Polygon", "coordinates": [[[-95.3534499, 35.7405196], [-95.3534335, 35.7405488], [-95.353411, 35.7405406], [-95.3533681, 35.7406173], [-95.3534572, 35.7406501], [-95.3535164, 35.7405441], [-95.3534499, 35.7405196]]]}, "properties": {"osm_id": 1082613006, "building": "yes", "name": "", "height": null, "height_m": null, "levels": null, "tract_id": "40101000700", "tract_name": "7", "tags": {"building": "yes", "source": "microsoft/BuildingFootprints"}}}, {"type": "Feature", "geometry": {"type": "Polygon", "coordinates": [[[-95.3556776, 35.7397053], [-95.3555591, 35.739658], [-95.3554901, 35.7397717], [-95.3556086, 35.739819], [-95.3556776, 35.7397053]]]}, "properties": {"osm_id": 1082613007, "building": "yes", "name": "", "height": null, "height_m": null, "levels": null, "tract_id": "40101000700", "tract_name": "7", "tags": {"building": "yes", "source": "microsoft/BuildingFootprints"}}}, {"type": "Feature", "geometry": {"type": "Polygon", "coordinates": [[[-95.3552789, 35.7408531], [-95.3552539, 35.7408981], [-95.3553719, 35.7409431], [-95.3554209, 35.7408561], [-95.3553339, 35.7408241], [-95.3553099, 35.7408651], [-95.3552789, 35.7408531]]]}, "properties": {"osm_id": 1082613008, "building": "yes", "name": "", "height": null, "height_m": null, "levels": null, "tract_id": "40101000700", "tract_name": "7", "tags": {"building": "yes", "source": "microsoft/BuildingFootprints"}}}, {"type": "Feature", "geometry": {"type": "Polygon", "coordinates": [[[-95.3536342, 35.7397217], [-95.3535722, 35.7398377], [-95.3537032, 35.7398837], [-95.3537492, 35.7397977], [-95.3536962, 35.7397787], [-95.3537122, 35.7397487], [-95.3536342, 35.7397217]]]}, "properties": {"osm_id": 1082613009, "building": "yes", "name": "", "height": null, "height_m": null, "levels": null, "tract_id": "40101000700", "tract_name": "7", "tags": {"building": "yes", "source": "microsoft/BuildingFootprints"}}}, {"type": "Feature", "geometry": {"type": "Polygon", "coordinates": [[[-95.3549694, 35.7395759], [-95.3551102, 35.739627], [-95.3551641, 35.73953], [-95.3550242, 35.7394779], [-95.3549694, 35.7395759]]]}, "properties": {"osm_id": 1082613010, "building": "yes", "name": "", "height": null, "height_m": null, "levels": null, "tract_id": "40101000700", "tract_name": "7", "tags": {"building": "yes", "source": "microsoft/BuildingFootprints"}}}, {"type": "Feature", "geometry": {"type": "Polygon", "coordinates": [[[-95.3545508, 35.7392966], [-95.3544907, 35.7393942], [-95.3546319, 35.7394509], [-95.3546736, 35.7393831], [-95.3546674, 35.7393806], [-95.3546858, 35.7393508], [-95.3545508, 35.7392966]]]}, "properties": {"osm_id": 1082613011, "building": "yes", "name": "", "height": null, "height_m": null, "levels": null, "tract_id": "40101000700", "tract_name": "7", "tags": {"building": "yes", "source": "microsoft/BuildingFootprints"}}}, {"type": "Feature", "geometry": {"type": "Polygon", "coordinates": [[[-95.3538195, 35.7393982], [-95.3537635, 35.7394982], [-95.3539065, 35.7395502], [-95.3539625, 35.7394512], [-95.3538195, 35.7393982]]]}, "properties": {"osm_id": 1082613012, "building": "yes", "name": "", "height": null, "height_m": null, "levels": null, "tract_id": "40101000700", "tract_name": "7", "tags": {"building": "yes", "source": "microsoft/BuildingFootprints"}}}, {"type": "Feature", "geometry": {"type": "Polygon", "coordinates": [[[-95.3546208, 35.7394871], [-95.354536, 35.739456], [-95.3545188, 35.7394869], [-95.3544647, 35.739467], [-95.354419, 35.739549], [-95.3545579, 35.7396], [-95.3546208, 35.7394871]]]}, "properties": {"osm_id": 1082613013, "building": "yes", "name": "", "height": null, "height_m": null, "levels": null, "tract_id": "40101000700", "tract_name": "7", "tags": {"building": "yes", "source": "microsoft/BuildingFootprints"}}}, {"type": "Feature", "geometry": {"type": "Polygon", "coordinates": [[[-95.3533615, 35.7404886], [-95.353329, 35.7404767], [-95.3533413, 35.7404544], [-95.3533104, 35.7404431], [-95.3532338, 35.7405812], [-95.3533138, 35.7406105], [-95.35336, 35.7405274], [-95.3533434, 35.7405213], [-95.3533615, 35.7404886]]]}, "properties": {"osm_id": 1082613014, "building": "yes", "name": "", "height": null, "height_m": null, "levels": null, "tract_id": "40101000700", "tract_name": "7", "tags": {"building": "yes", "source": "microsoft/BuildingFootprints"}}}, {"type": "Feature", "geometry": {"type": "Polygon", "coordinates": [[[-95.3548867, 35.7411994], [-95.3549112, 35.7412092], [-95.3549, 35.7412276], [-95.3549414, 35.7412442], [-95.3549526, 35.7412258], [-95.3549728, 35.741234], [-95.3550228, 35.7411519], [-95.3549931, 35.74114], [-95.3550113, 35.7411103], [-95.3549548, 35.7410876], [-95.3548867, 35.7411994]]]}, "properties": {"osm_id": 1082613015, "building": "yes", "name": "", "height": null, "height_m": null, "levels": null, "tract_id": "40101000700", "tract_name": "7", "tags": {"building": "yes", "source": "microsoft/BuildingFootprints"}}}, {"type": "Feature", "geometry": {"type": "Polygon", "coordinates": [[[-95.3540025, 35.7390759], [-95.3539426, 35.7391734], [-95.3540825, 35.73923], [-95.3541424, 35.7391325], [-95.3540025, 35.7390759]]]}, "properties": {"osm_id": 1082613016, "building": "yes", "name": "", "height": null, "height_m": null, "levels": null, "tract_id": "40101000700", "tract_name": "7", "tags": {"building": "yes", "source": "microsoft/BuildingFootprints"}}}, {"type": "Feature", "geometry": {"type": "Polygon", "coordinates": [[[-95.3537219, 35.7395649], [-95.3536706, 35.739666], [-95.3538123, 35.7397134], [-95.3538636, 35.7396123], [-95.3537219, 35.7395649]]]}, "properties": {"osm_id": 1082613017, "building": "yes", "name": "", "height": null, "height_m": null, "levels": null, "tract_id": "40101000700", "tract_name": "7", "tags": {"building": "yes", "source": "microsoft/BuildingFootprints"}}}, {"type": "Feature", "geometry": {"type": "Polygon", "coordinates": [[[-95.3558728, 35.7398452], [-95.35591, 35.7398581], [-95.3558823, 35.7399111], [-95.3559861, 35.7399469], [-95.356044, 35.7398364], [-95.3559029, 35.7397877], [-95.3558728, 35.7398452]]]}, "properties": {"osm_id": 1082613018, "building": "yes", "name": "", "height": null, "height_m": null, "levels": null, "tract_id": "40101000700", "tract_name": "7", "tags": {"building": "yes", "source": "microsoft/BuildingFootprints"}}}, {"type": "Feature", "geometry": {"type": "Polygon", "coordinates": [[[-95.353502, 35.7406757], [-95.353589, 35.7407068], [-95.3536579, 35.7405797], [-95.3535917, 35.740556], [-95.3535775, 35.7405821], [-95.3535568, 35.7405747], [-95.353502, 35.7406757]]]}, "properties": {"osm_id": 1082613019, "building": "yes", "name": "", "height": null, "height_m": null, "levels": null, "tract_id": "40101000700", "tract_name": "7", "tags": {"building": "yes", "source": "microsoft/BuildingFootprints"}}}, {"type": "Feature", "geometry": {"type": "Polygon", "coordinates": [[[-95.3540586, 35.7405202], [-95.3539676, 35.7404843], [-95.3539305, 35.7405463], [-95.3540215, 35.7405822], [-95.3540586, 35.7405202]]]}, "properties": {"osm_id": 1082613020, "building": "yes", "name": "", "height": null, "height_m": null, "levels": null, "tract_id": "40101000700", "tract_name": "7", "tags": {"building": "yes", "source": "microsoft/BuildingFootprints"}}}, {"type": "Feature", "geometry": {"type": "Polygon", "coordinates": [[[-95.3542223, 35.7398808], [-95.3543622, 35.7399328], [-95.3544181, 35.7398338], [-95.3542782, 35.7397817], [-95.3542223, 35.7398808]]]}, "properties": {"osm_id": 1082613021, "building": "yes", "name": "", "height": null, "height_m": null, "levels": null, "tract_id": "40101000700", "tract_name": "7", "tags": {"building": "yes", "source": "microsoft/BuildingFootprints"}}}, {"type": "Feature", "geometry": {"type": "Polygon", "coordinates": [[[-95.3555115, 35.7396414], [-95.3554401, 35.7396153], [-95.3554063, 35.7396763], [-95.3553932, 35.7396715], [-95.3553385, 35.7397704], [-95.3554432, 35.7398085], [-95.3555094, 35.7396889], [-95.3554893, 35.7396816], [-95.3555115, 35.7396414]]]}, "properties": {"osm_id": 1082613022, "building": "yes", "name": "", "height": null, "height_m": null, "levels": null, "tract_id": "40101000700", "tract_name": "7", "tags": {"building": "yes", "source": "microsoft/BuildingFootprints"}}}, {"type": "Feature", "geometry": {"type": "Polygon", "coordinates": [[[-95.355184, 35.741197], [-95.35509, 35.741162], [-95.35505, 35.741232], [-95.355144, 35.741267], [-95.355184, 35.741197]]]}, "properties": {"osm_id": 1082613023, "building": "yes", "name": "", "height": null, "height_m": null, "levels": null, "tract_id": "40101000700", "tract_name": "7", "tags": {"building": "yes", "source": "microsoft/BuildingFootprints"}}}, {"type": "Feature", "geometry": {"type": "Polygon", "coordinates": [[[-95.3534619, 35.740022], [-95.3535387, 35.7400547], [-95.3535664, 35.7400125], [-95.3536315, 35.7400413], [-95.3536824, 35.7399616], [-95.3535404, 35.7399012], [-95.3534619, 35.740022]]]}, "properties": {"osm_id": 1082613024, "building": "yes", "name": "", "height": null, "height_m": null, "levels": null, "tract_id": "40101000700", "tract_name": "7", "tags": {"building": "yes", "source": "microsoft/BuildingFootprints"}}}, {"type": "Feature", "geometry": {"type": "Polygon", "coordinates": [[[-95.3540151, 35.7399837], [-95.3541447, 35.7400316], [-95.354158, 35.7400078], [-95.3541709, 35.7400126], [-95.3542122, 35.7399388], [-95.3540697, 35.7398863], [-95.3540151, 35.7399837]]]}, "properties": {"osm_id": 1082613025, "building": "yes", "name": "", "height": null, "height_m": null, "levels": null, "tract_id": "40101000700", "tract_name": "7", "tags": {"building": "yes", "source": "microsoft/BuildingFootprints"}}}, {"type": "Feature", "geometry": {"type": "Polygon", "coordinates": [[[-95.3543268, 35.7409979], [-95.3543452, 35.7410051], [-95.3543362, 35.7410203], [-95.3543952, 35.7410433], [-95.3544044, 35.7410277], [-95.354421, 35.7410341], [-95.3544828, 35.7409296], [-95.3543888, 35.740893], [-95.3543268, 35.7409979]]]}, "properties": {"osm_id": 1082613026, "building": "yes", "name": "", "height": null, "height_m": null, "levels": null, "tract_id": "40101000700", "tract_name": "7", "tags": {"building": "yes", "source": "microsoft/BuildingFootprints"}}}, {"type": "Feature", "geometry": {"type": "Polygon", "coordinates": [[[-95.3542282, 35.7404778], [-95.3543482, 35.7405228], [-95.3544132, 35.7404098], [-95.354334, 35.7403801], [-95.354326, 35.740394], [-95.3542852, 35.7403787], [-95.3542282, 35.7404778]]]}, "properties": {"osm_id": 1082613027, "building": "yes", "name": "", "height": null, "height_m": null, "levels": null, "tract_id": "40101000700", "tract_name": "7", "tags": {"building": "yes", "source": "microsoft/BuildingFootprints"}}}, {"type": "Feature", "geometry": {"type": "Polygon", "coordinates": [[[-95.3545055, 35.7410748], [-95.3545957, 35.7411084], [-95.3546623, 35.7409906], [-95.354572, 35.740957], [-95.3545055, 35.7410748]]]}, "properties": {"osm_id": 1082613028, "building": "yes", "name": "", "height": null, "height_m": null, "levels": null, "tract_id": "40101000700", "tract_name": "7", "tags": {"building": "yes", "source": "microsoft/BuildingFootprints"}}}, {"type": "Feature", "geometry": {"type": "Polygon", "coordinates": [[[-95.3547628, 35.7404866], [-95.3546428, 35.7404426], [-95.3545798, 35.7405566], [-95.3546998, 35.7405996], [-95.3547628, 35.7404866]]]}, "properties": {"osm_id": 1082613029, "building": "yes", "name": "", "height": null, "height_m": null, "levels": null, "tract_id": "40101000700", "tract_name": "7", "tags": {"building": "yes", "source": "microsoft/BuildingFootprints"}}}, {"type": "Feature", "geometry": {"type": "Polygon", "coordinates": [[[-95.35424, 35.740809], [-95.354158, 35.740941], [-95.354245, 35.740977], [-95.354327, 35.740845], [-95.35424, 35.740809]]]}, "properties": {"osm_id": 1082613030, "building": "yes", "name": "", "height": null, "height_m": null, "levels": null, "tract_id": "40101000700", "tract_name": "7", "tags": {"building": "yes", "source": "microsoft/BuildingFootprints"}}}, {"type": "Feature", "geometry": {"type": "Polygon", "coordinates": [[[-95.3550686, 35.7397044], [-95.3549179, 35.7396521], [-95.3548827, 35.7397198], [-95.3548921, 35.7397231], [-95.3548753, 35.7397554], [-95.3550166, 35.7398044], [-95.3550686, 35.7397044]]]}, "properties": {"osm_id": 1082613031, "building": "yes", "name": "", "height": null, "height_m": null, "levels": null, "tract_id": "40101000700", "tract_name": "7", "tags": {"building": "yes", "source": "microsoft/BuildingFootprints"}}}, {"type": "Feature", "geometry": {"type": "Polygon", "coordinates": [[[-95.3558532, 35.7397641], [-95.3557911, 35.7397389], [-95.3557845, 35.7397496], [-95.3557306, 35.7397277], [-95.3556652, 35.7398331], [-95.3557812, 35.7398801], [-95.3558532, 35.7397641]]]}, "properties": {"osm_id": 1082613032, "building": "yes", "name": "", "height": null, "height_m": null, "levels": null, "tract_id": "40101000700", "tract_name": "7", "tags": {"building": "yes", "source": "microsoft/BuildingFootprints"}}}, {"type": "Feature", "geometry": {"type": "Polygon", "coordinates": [[[-95.3543813, 35.7395938], [-95.3543262, 35.739692], [-95.3544707, 35.7397454], [-95.3545258, 35.7396472], [-95.3543813, 35.7395938]]]}, "properties": {"osm_id": 1082613033, "building": "yes", "name": "", "height": null, "height_m": null, "levels": null, "tract_id": "40101000700", "tract_name": "7", "tags": {"building": "yes", "source": "microsoft/BuildingFootprints"}}}, {"type": "Feature", "geometry": {"type": "Polygon", "coordinates": [[[-95.3547335, 35.7411491], [-95.3547746, 35.7411644], [-95.3547659, 35.7411797], [-95.3548155, 35.7411983], [-95.3548721, 35.7410987], [-95.3548537, 35.7410918], [-95.3548729, 35.741058], [-95.3548173, 35.7410371], [-95.3547978, 35.7410714], [-95.3547812, 35.7410652], [-95.3547335, 35.7411491]]]}, "properties": {"osm_id": 1082613034, "building": "yes", "name": "", "height": null, "height_m": null, "levels": null, "tract_id": "40101000700", "tract_name": "7", "tags": {"building": "yes", "source": "microsoft/BuildingFootprints"}}}, {"type": "Feature", "geometry": {"type": "Polygon", "coordinates": [[[-95.3542125, 35.7403454], [-95.3541949, 35.7403162], [-95.3542138, 35.7403087], [-95.3541882, 35.7402663], [-95.3541692, 35.7402739], [-95.3541435, 35.7402314], [-95.3540655, 35.7402624], [-95.3540855, 35.7402954], [-95.3540345, 35.7403154], [-95.3540835, 35.7403964], [-95.3542125, 35.7403454]]]}, "properties": {"osm_id": 1082613035, "building": "yes", "name": "", "height": null, "height_m": null, "levels": null, "tract_id": "40101000700", "tract_name": "7", "tags": {"building": "yes", "source": "microsoft/BuildingFootprints"}}}, {"type": "Feature", "geometry": {"type": "Polygon", "coordinates": [[[-95.3541148, 35.7400741], [-95.3540258, 35.7400691], [-95.3540228, 35.7401021], [-95.3539628, 35.7400991], [-95.3539558, 35.7401911], [-95.3541048, 35.7401991], [-95.3541148, 35.7400741]]]}, "properties": {"osm_id": 1082613036, "building": "yes", "name": "", "height": null, "height_m": null, "levels": null, "tract_id": "40101000700", "tract_name": "7", "tags": {"building": "yes", "source": "microsoft/BuildingFootprints"}}}, {"type": "Feature", "geometry": {"type": "Polygon", "coordinates": [[[-95.3537599, 35.7407847], [-95.3538649, 35.7408252], [-95.3539659, 35.7406527], [-95.3538609, 35.7406122], [-95.3537599, 35.7407847]]]}, "properties": {"osm_id": 1082613037, "building": "yes", "name": "", "height": null, "height_m": null, "levels": null, "tract_id": "40101000700", "tract_name": "7", "tags": {"building": "yes", "source": "microsoft/BuildingFootprints"}}}, {"type": "Feature", "geometry": {"type": "Polygon", "coordinates": [[[-95.3548852, 35.7398824], [-95.3549102, 35.7398354], [-95.3548272, 35.7398064], [-95.3547592, 35.7399344], [-95.3549062, 35.7399854], [-95.3549492, 35.7399054], [-95.3548852, 35.7398824]]]}, "properties": {"osm_id": 1082613038, "building": "yes", "name": "", "height": null, "height_m": null, "levels": null, "tract_id": "40101000700", "tract_name": "7", "tags": {"building": "yes", "source": "microsoft/BuildingFootprints"}}}, {"type": "Feature", "geometry": {"type": "Polygon", "coordinates": [[[-95.3560485, 35.7460584], [-95.3557326, 35.745933], [-95.3552773, 35.7467677], [-95.3553586, 35.7469723], [-95.3554968, 35.7469393], [-95.3556635, 35.7472957], [-95.3564644, 35.7475926], [-95.3564761, 35.7475637], [-95.3565888, 35.7475942], [-95.3566076, 35.7475517], [-95.3567564, 35.7475942], [-95.35679, 35.7474962], [-95.3565338, 35.7474189], [-95.3565754, 35.7473297], [-95.3565861, 35.7473068], [-95.3564319, 35.747247], [-95.3563112, 35.7471969], [-95.3562025, 35.7471392], [-95.3560912, 35.7470598], [-95.3560108, 35.7469792], [-95.3559357, 35.7468725], [-95.3558834, 35.7467572], [-95.3558539, 35.7466102], [-95.3558592, 35.7464764], [-95.3558914, 35.7463523], [-95.3559397, 35.7462467], [-95.356, 35.7461444], [-95.3560485, 35.7460584]]]}, "properties": {"osm_id": 1171276836, "building": "retail", "name": "Lakeland Shopping Center", "height": null, "height_m": null, "levels": null, "tract_id": "40101000700", "tract_name": "7", "tags": {"building": "retail", "name": "Lakeland Shopping Center"}}}, {"type": "Feature", "geometry": {"type": "Polygon", "coordinates": [[[-95.3477279, 35.7716969], [-95.3477315, 35.771585], [-95.3474908, 35.7715806], [-95.3474916, 35.7715911], [-95.3474624, 35.7715906], [-95.3474612, 35.7716782], [-95.3474863, 35.7716782], [-95.3474869, 35.771691], [-95.3476042, 35.771692], [-95.3476042, 35.7717028], [-95.3476556, 35.7717028], [-95.3476573, 35.7716929], [-95.3477279, 35.7716969]]]}, "properties": {"osm_id": 1171276850, "building": "yes", "name": "Mazzio's", "height": null, "height_m": null, "levels": null, "tract_id": "40101000700", "tract_name": "7", "tags": {"addr:city": "Muskogee", "addr:housenumber": "2200", "addr:postcode": "74403", "addr:state": "OK", "addr:street": "East Shawnee Bypass", "amenity": "restaurant", "brand": "Mazzio's", "brand:wikidata": "Q3853292", "building": "yes", "check_date": "2025-08-07", "cuisine": "pizza", "name": "Mazzio's", "payment:cash": "yes", "payment:credit_cards": "yes", "payment:debit_cards": "yes"}}}, {"type": "Feature", "geometry": {"type": "Polygon", "coordinates": [[[-95.3426492, 35.7725161], [-95.3426572, 35.7727526], [-95.3427404, 35.7727501], [-95.3427435, 35.7730175], [-95.3426572, 35.77302], [-95.3426572, 35.773155], [-95.3419825, 35.7731575], [-95.3419609, 35.7723251], [-95.3420687, 35.7723276], [-95.3420626, 35.7722526], [-95.3426141, 35.7722501], [-95.3426152, 35.7722943], [-95.3426524, 35.7722943], [-95.3426492, 35.7725161]]]}, "properties": {"osm_id": 1171276851, "building": "yes", "name": "Dunham's Sports", "height": null, "height_m": null, "levels": null, "tract_id": "40101000700", "tract_name": "7", "tags": {"addr:postcode": "74403", "brand": "Dunham's Sports", "brand:wikidata": "Q5315238", "building": "yes", "check_date": "2025-08-07", "name": "Dunham's Sports", "payment:cash": "yes", "payment:credit_cards": "yes", "payment:debit_cards": "yes", "shop": "sports"}}}, {"type": "Feature", "geometry": {"type": "Polygon", "coordinates": [[[-95.3453432, 35.7728667], [-95.3457449, 35.7728656], [-95.3457342, 35.7723194], [-95.3453315, 35.7723194], [-95.3453432, 35.7728667]]]}, "properties": {"osm_id": 1171583726, "building": "yes", "name": "Bealls Outlet", "height": null, "height_m": null, "levels": null, "tract_id": "40101000700", "tract_name": "7", "tags": {"addr:city": "Muskogee", "addr:housenumber": "2230", "addr:postcode": "74403", "addr:state": "OK", "addr:street": "East Shawnee Bypass", "building": "yes", "name": "Bealls Outlet", "phone": "+1-918-687-0261", "shop": "department_store"}}}, {"type": "Feature", "geometry": {"type": "Polygon", "coordinates": [[[-95.3457449, 35.7728656], [-95.3464288, 35.7728667], [-95.3464128, 35.7723133], [-95.3457775, 35.7723153], [-95.3457773, 35.7723196], [-95.3457342, 35.7723194], [-95.3457449, 35.7728656]]]}, "properties": {"osm_id": 1171583727, "building": "yes", "name": "Hobby Lobby", "height": null, "height_m": null, "levels": null, "tract_id": "40101000700", "tract_name": "7", "tags": {"addr:city": "Muskogee", "addr:housenumber": "2224", "addr:postcode": "74403", "addr:state": "OK", "addr:street": "East Shawnee Bypass", "brand": "Hobby Lobby", "brand:wikidata": "Q5874938", "building": "yes", "name": "Hobby Lobby", "shop": "craft"}}}, {"type": "Feature", "geometry": {"type": "Polygon", "coordinates": [[[-95.3464288, 35.7728667], [-95.3467583, 35.7728667], [-95.346765, 35.7723835], [-95.3469085, 35.7723846], [-95.3469098, 35.7722747], [-95.3467744, 35.7722758], [-95.3467744, 35.7723106], [-95.3464128, 35.7723133], [-95.3464288, 35.7728667]]]}, "properties": {"osm_id": 1171583728, "building": "yes", "name": "", "height": null, "height_m": null, "levels": null, "tract_id": "40101000700", "tract_name": "7", "tags": {"building": "yes"}}}, {"type": "Feature", "geometry": {"type": "Polygon", "coordinates": [[[-95.3569999, 35.7445439], [-95.3565788, 35.7443831], [-95.3568707, 35.7438689], [-95.3569751, 35.7439105], [-95.3569451, 35.743968], [-95.3570937, 35.7440269], [-95.3571185, 35.7439838], [-95.3572017, 35.7440154], [-95.357184, 35.7440556], [-95.3572618, 35.7440829], [-95.3569999, 35.7445439]]]}, "properties": {"osm_id": 1171640451, "building": "yes", "name": "", "height": null, "height_m": null, "levels": null, "tract_id": "40101000700", "tract_name": "7", "tags": {"addr:city": "Muskogee", "addr:housenumber": "121", "addr:postcode": "74403", "addr:state": "OK", "addr:street": "East Side Boulevard", "building": "yes", "office": "government"}}}, {"type": "Feature", "geometry": {"type": "Polygon", "coordinates": [[[-95.3581758, 35.7458207], [-95.3579192, 35.7457719], [-95.3580218, 35.7453941], [-95.3582766, 35.7454415], [-95.3581758, 35.7458207]]]}, "properties": {"osm_id": 1171640452, "building": "yes", "name": "Dollar General", "height": null, "height_m": null, "levels": null, "tract_id": "40101000700", "tract_name": "7", "tags": {"addr:city": "Muskogee", "addr:housenumber": "207", "addr:postcode": "74403", "addr:state": "OK", "addr:street": "East Side Boulevard", "brand": "Dollar General", "brand:wikidata": "Q145168", "building": "yes", "name": "Dollar General", "shop": "variety_store", "website": "https://www.dollargeneral.com/store-directory/ok/muskogee/6857"}}}, {"type": "Feature", "geometry": {"type": "Polygon", "coordinates": [[[-95.3576322, 35.7475295], [-95.3573703, 35.7474764], [-95.3574481, 35.7472064], [-95.3577118, 35.7472595], [-95.3576322, 35.7475295]]]}, "properties": {"osm_id": 1171652513, "building": "retail", "name": "", "height": null, "height_m": null, "levels": null, "tract_id": "40101000700", "tract_name": "7", "tags": {"building": "retail"}}}, {"type": "Feature", "geometry": {"type": "Polygon", "coordinates": [[[-95.3580302, 35.7460529], [-95.3578706, 35.7460141], [-95.3579397, 35.7458227], [-95.3581003, 35.7458615], [-95.3580302, 35.7460529]]]}, "properties": {"osm_id": 1171652514, "building": "yes", "name": "La Antigua Mexican Grill", "height": null, "height_m": null, "levels": null, "tract_id": "40101000700", "tract_name": "7", "tags": {"addr:city": "Muskogee", "addr:housenumber": "217", "addr:postcode": "74403", "addr:state": "OK", "addr:street": "East Side Boulevard", "amenity": "restaurant", "building": "yes", "cuisine": "mexican", "name": "La Antigua Mexican Grill"}}}, {"type": "Feature", "geometry": {"type": "Polygon", "coordinates": [[[-95.3442393, 35.7722887], [-95.3442508, 35.7728698], [-95.3437384, 35.7728765], [-95.3437267, 35.7722954], [-95.3442393, 35.7722887]]]}, "properties": {"osm_id": 1171730529, "building": "retail", "name": "", "height": null, "height_m": null, "levels": null, "tract_id": "40101000700", "tract_name": "7", "tags": {"addr:city": "Muskogee", "addr:housenumber": "2300", "addr:postcode": "74403", "addr:state": "OK", "addr:street": "East Shawnee Bypass", "building": "retail", "opening_hours": "Mo-We 10:00-21:00; Th-Sa 09:00-21:00; Su 10:00-21:00"}}}, {"type": "Feature", "geometry": {"type": "Polygon", "coordinates": [[[-95.3437384, 35.7728765], [-95.3437267, 35.7722954], [-95.3433597, 35.772298], [-95.3433731, 35.7728791], [-95.3437384, 35.7728765]]]}, "properties": {"osm_id": 1171730530, "building": "yes", "name": "Harbor Freight Tools", "height": null, "height_m": null, "levels": null, "tract_id": "40101000700", "tract_name": "7", "tags": {"addr:city": "Muskogee", "addr:housenumber": "2312", "addr:postcode": "74403", "addr:state": "OK", "addr:street": "East Shawnee Bypass", "brand": "Harbor Freight Tools", "brand:wikidata": "Q5654601", "building": "yes", "name": "Harbor Freight Tools", "opening_hours": "Mo-Sa 08:00-20:00; Su 09:00-18:00", "phone": "+1 918-686-0250", "shop": "hardware", "website": "https://www.harborfreight.com/storelocator/2312-e-shawnee-rd-muskogee-74403?number=590"}}}, {"type": "Feature", "geometry": {"type": "Polygon", "coordinates": [[[-95.3433597, 35.772298], [-95.3430858, 35.7722984], [-95.3430811, 35.7726236], [-95.3430834, 35.7728834], [-95.3433731, 35.7728791], [-95.3433597, 35.772298]]]}, "properties": {"osm_id": 1171730531, "building": "yes", "name": "The Salvation Army", "height": null, "height_m": null, "levels": null, "tract_id": "40101000700", "tract_name": "7", "tags": {"addr:city": "Muskogee", "addr:housenumber": "2328", "addr:postcode": "74403", "addr:state": "OK", "addr:street": "East Shawnee Bypass", "brand": "The Salvation Army", "brand:wikidata": "Q188307", "building": "yes", "name": "The Salvation Army", "shop": "charity"}}}, {"type": "Feature", "geometry": {"type": "Polygon", "coordinates": [[[-95.3430858, 35.7722984], [-95.3426524, 35.7722943], [-95.3426492, 35.7725161], [-95.342817, 35.7725176], [-95.3428144, 35.7727014], [-95.3430195, 35.7727033], [-95.3430207, 35.772623], [-95.3430811, 35.7726236], [-95.3430858, 35.7722984]]]}, "properties": {"osm_id": 1171730532, "building": "retail", "name": "", "height": null, "height_m": null, "levels": null, "tract_id": "40101000700", "tract_name": "7", "tags": {"building": "retail"}}}, {"type": "Feature", "geometry": {"type": "Polygon", "coordinates": [[[-95.3411132, 35.7747034], [-95.340682, 35.7747047], [-95.3406844, 35.7752261], [-95.3408565, 35.7752256], [-95.3408563, 35.7751925], [-95.3411155, 35.7751917], [-95.3411132, 35.7747034]]]}, "properties": {"osm_id": 1171742310, "building": "farm_auxiliary", "name": "George Green, LLC", "height": null, "height_m": null, "levels": null, "tract_id": "40101000700", "tract_name": "7", "tags": {"addr:city": "Muskogee", "addr:housenumber": "2105", "addr:postcode": "74403", "addr:state": "OK", "addr:street": "North York Street", "building": "farm_auxiliary", "crop": "cannabis_medicinal", "name": "George Green, LLC"}}}, {"type": "Feature", "geometry": {"type": "Polygon", "coordinates": [[[-95.3518493, 35.7549302], [-95.3519182, 35.7548052], [-95.3518971, 35.7547654], [-95.3520641, 35.7544707], [-95.3515025, 35.7542556], [-95.3513029, 35.7546166], [-95.3511102, 35.7545465], [-95.3509748, 35.7547786], [-95.351269, 35.7548857], [-95.3512947, 35.7548393], [-95.3514873, 35.7549084], [-95.3515095, 35.7548677], [-95.3515913, 35.7548952], [-95.3516286, 35.7548355], [-95.3516753, 35.7548516], [-95.3516683, 35.7548677], [-95.3516695, 35.7548885], [-95.3516847, 35.7549009], [-95.3516963, 35.7549037], [-95.3517185, 35.7548971], [-95.3517314, 35.7548857], [-95.3518493, 35.7549302]]]}, "properties": {"osm_id": 1171742314, "building": "school", "name": "Irving Elementary School", "height": null, "height_m": null, "levels": null, "tract_id": "40101000700", "tract_name": "7", "tags": {"addr:city": "Muskogee", "addr:housenumber": "1100", "addr:postcode": "74403", "addr:state": "OK", "addr:street": "North J Street", "amenity": "school", "building": "school", "ele": "182", "gnis:feature_id": "1094133", "grades": "K-5", "name": "Irving Elementary School", "operator": "Muskogee Public Schools"}}}, {"type": "Feature", "geometry": {"type": "Polygon", "coordinates": [[[-95.3501515, 35.7376207], [-95.350244, 35.7374563], [-95.3501018, 35.7373997], [-95.3500777, 35.7370922], [-95.3498511, 35.7370941], [-95.3498571, 35.7373748], [-95.3497662, 35.7375402], [-95.349713, 35.7375222], [-95.3496271, 35.7376838], [-95.3499067, 35.7377764], [-95.3499266, 35.7377457], [-95.349976, 35.737763], [-95.3500371, 35.7376506], [-95.3499005, 35.7376063], [-95.3499062, 35.737595], [-95.3498529, 35.737575], [-95.3498734, 35.7375398], [-95.349918, 35.737534], [-95.3501515, 35.7376207]]]}, "properties": {"osm_id": 1171742315, "building": "school", "name": "Whittier School", "height": null, "height_m": null, "levels": null, "tract_id": "40101000700", "tract_name": "7", "tags": {"addr:city": "Muskogee", "addr:housenumber": "1705", "addr:postcode": "74403", "addr:state": "OK", "addr:street": "East Cincinnati Avenue", "amenity": "school", "building": "school", "ele": "178", "gnis:feature_id": "1099744", "name": "Whittier School"}}}, {"type": "Feature", "geometry": {"type": "Polygon", "coordinates": [[[-95.3575597, 35.743157], [-95.35745, 35.7431149], [-95.3574428, 35.7431264], [-95.3573829, 35.7431033], [-95.3574347, 35.7430093], [-95.3575018, 35.7430324], [-95.3575394, 35.7429598], [-95.3575516, 35.7429656], [-95.357579, 35.7429095], [-95.3577203, 35.7429598], [-95.3576624, 35.743067], [-95.3576776, 35.7430712], [-95.3576573, 35.7431141], [-95.357638, 35.7431075], [-95.3576329, 35.7431174], [-95.3576207, 35.7431248], [-95.3576116, 35.7431256], [-95.3576014, 35.7431248], [-95.3575983, 35.7431314], [-95.357576, 35.743124], [-95.3575597, 35.743157]]]}, "properties": {"osm_id": 1173412110, "building": "yes", "name": "Muskogee Parks & Recreation", "height": null, "height_m": null, "levels": null, "tract_id": "40101000700", "tract_name": "7", "tags": {"addr:city": "Muskogee", "addr:housenumber": "837", "addr:postcode": "74403", "addr:state": "OK", "addr:street": "East Okmulgee Avenue", "building": "yes", "government": "yes", "name": "Muskogee Parks & Recreation", "office": "government"}}}, {"type": "Feature", "geometry": {"type": "Polygon", "coordinates": [[[-95.3594007, 35.7426653], [-95.3593631, 35.742582], [-95.3593154, 35.7425954], [-95.3592604, 35.7426109], [-95.359295, 35.7426975], [-95.3593499, 35.7426808], [-95.3594007, 35.7426653]]]}, "properties": {"osm_id": 1173412111, "building": "yes", "name": "", "height": null, "height_m": null, "levels": null, "tract_id": "40101000700", "tract_name": "7", "tags": {"amenity": "shelter", "building": "yes"}}}, {"type": "Feature", "geometry": {"type": "Polygon", "coordinates": [[[-95.3590096, 35.7416669], [-95.3589924, 35.7416719], [-95.3589721, 35.7416778], [-95.3589359, 35.7416653], [-95.3589225, 35.7416315], [-95.3589366, 35.7416054], [-95.3589754, 35.7415951], [-95.3590103, 35.7416087], [-95.3590237, 35.7416397], [-95.3590096, 35.7416669]]]}, "properties": {"osm_id": 1173412112, "building": "yes", "name": "", "height": null, "height_m": null, "levels": null, "tract_id": "40101000700", "tract_name": "7", "tags": {"amenity": "shelter", "building": "yes", "shelter_type": "gazebo"}}}, {"type": "Feature", "geometry": {"type": "Polygon", "coordinates": [[[-95.3622953, 35.7447053], [-95.3622349, 35.7448114], [-95.3620458, 35.7447396], [-95.3621062, 35.7446323], [-95.3622953, 35.7447053]]]}, "properties": {"osm_id": 1230462970, "building": "yes", "name": "Domino's", "height": null, "height_m": null, "levels": null, "tract_id": "40101000700", "tract_name": "7", "tags": {"addr:city": "Muskogee", "addr:housenumber": "603", "addr:postcode": "74403", "addr:state": "OK", "addr:street": "East Okmulgee Avenue", "amenity": "fast_food", "brand": "Domino's", "brand:wikidata": "Q839466", "building": "yes", "cuisine": "pizza", "name": "Domino's", "opening_hours": "Mo-Th 10:30-24:00; Fr-Sa 10:30-01:00; Su 10:30-24:00", "phone": "+1 918-682-5888", "ref": "6480", "takeaway": "yes", "website": "https://pizza.dominos.com/oklahoma/muskogee/603-e-okmulgee"}}}, {"type": "Feature", "geometry": {"type": "Polygon", "coordinates": [[[-95.3628796, 35.7450719], [-95.3628248, 35.7451677], [-95.3627159, 35.745125], [-95.3627677, 35.7450295], [-95.3628796, 35.7450719]]]}, "properties": {"osm_id": 1230463068, "building": "yes", "name": "", "height": null, "height_m": null, "levels": null, "tract_id": "40101000700", "tract_name": "7", "tags": {"addr:city": "Muskogee", "addr:housenumber": "419", "addr:postcode": "74401", "addr:state": "OK", "addr:street": "East Okmulgee Avenue", "building": "yes", "takeaway": "yes"}}}, {"type": "Feature", "geometry": {"type": "Polygon", "coordinates": [[[-95.3448981, 35.7684346], [-95.3440972, 35.767624], [-95.3439041, 35.767748], [-95.3438639, 35.7677023], [-95.3431594, 35.7681562], [-95.34399, 35.7690081], [-95.3448981, 35.7684346]]]}, "properties": {"osm_id": 1249562094, "building": "yes", "name": "BP Freight", "height": null, "height_m": null, "levels": null, "tract_id": "40101000700", "tract_name": "7", "tags": {"addr:city": "Muskogee", "addr:housenumber": "2111", "addr:postcode": "74403", "addr:state": "OK", "addr:street": "Old Shawnee Road", "building": "yes", "man_made": "works", "name": "BP Freight"}}}, {"type": "Feature", "geometry": {"type": "Polygon", "coordinates": [[[-95.3651355, 35.7433943], [-95.3654312, 35.7435021], [-95.365534, 35.7433164], [-95.365454, 35.7432872], [-95.3655353, 35.7431405], [-95.365416, 35.743097], [-95.3653348, 35.7432437], [-95.3652384, 35.7432085], [-95.3651355, 35.7433943]]]}, "properties": {"osm_id": 1313633237, "building": "yes", "name": "", "height": null, "height_m": null, "levels": null, "tract_id": "40101000700", "tract_name": "7", "tags": {"building": "yes", "shop": "yes", "source": "microsoft/BuildingFootprints"}}}, {"type": "Feature", "geometry": {"type": "Polygon", "coordinates": [[[-95.3643319, 35.742883], [-95.3643064, 35.7429306], [-95.3642583, 35.7429137], [-95.3642837, 35.742866], [-95.3643319, 35.742883]]]}, "properties": {"osm_id": 1408647988, "building": "yes", "name": "", "height": null, "height_m": null, "levels": null, "tract_id": "40101000700", "tract_name": "7", "tags": {"building": "yes"}}}, {"type": "Feature", "geometry": {"type": "Polygon", "coordinates": [[[-95.3644304, 35.7429655], [-95.3643842, 35.7430433], [-95.3643129, 35.7430154], [-95.3643592, 35.7429376], [-95.3644304, 35.7429655]]]}, "properties": {"osm_id": 1408647989, "building": "yes", "name": "", "height": null, "height_m": null, "levels": null, "tract_id": "40101000700", "tract_name": "7", "tags": {"building": "yes"}}}, {"type": "Feature", "geometry": {"type": "Polygon", "coordinates": [[[-95.3643976, 35.743151], [-95.3643713, 35.7431985], [-95.3643056, 35.7431745], [-95.3643319, 35.7431271], [-95.3643976, 35.743151]]]}, "properties": {"osm_id": 1408647990, "building": "yes", "name": "", "height": null, "height_m": null, "levels": null, "tract_id": "40101000700", "tract_name": "7", "tags": {"building": "yes"}}}, {"type": "Feature", "geometry": {"type": "Polygon", "coordinates": [[[-95.3642008, 35.7430757], [-95.3641371, 35.7432041], [-95.3640377, 35.7431717], [-95.3641014, 35.7430432], [-95.3642008, 35.7430757]]]}, "properties": {"osm_id": 1408647991, "building": "yes", "name": "", "height": null, "height_m": null, "levels": null, "tract_id": "40101000700", "tract_name": "7", "tags": {"building": "yes"}}}, {"type": "Feature", "geometry": {"type": "Polygon", "coordinates": [[[-95.3642504, 35.7432506], [-95.3641577, 35.7432177], [-95.3642264, 35.7430903], [-95.3643191, 35.7431233], [-95.3642504, 35.7432506]]]}, "properties": {"osm_id": 1408647992, "building": "yes", "name": "", "height": null, "height_m": null, "levels": null, "tract_id": "40101000700", "tract_name": "7", "tags": {"building": "yes"}}}, {"type": "Feature", "geometry": {"type": "Polygon", "coordinates": [[[-95.3636246, 35.7532647], [-95.3634364, 35.7531881], [-95.3635467, 35.7530097], [-95.3637349, 35.7530863], [-95.3636246, 35.7532647]]]}, "properties": {"osm_id": 1424488182, "building": "yes", "name": "Harrison Tire", "height": null, "height_m": null, "levels": null, "tract_id": "40101000700", "tract_name": "7", "tags": {"addr:city": "Muskogee", "addr:housenumber": "16", "addr:postcode": "74403", "addr:state": "OK", "addr:street": "East Martin Luther King Street", "building": "yes", "name": "Harrison Tire", "shop": "tyres"}}}, {"type": "Feature", "geometry": {"type": "Polygon", "coordinates": [[[-95.3610938, 35.7449288], [-95.3608314, 35.7448269], [-95.3607075, 35.7450516], [-95.3605739, 35.7450072], [-95.3604838, 35.745177], [-95.3605675, 35.7452031], [-95.360516, 35.7452972], [-95.3604468, 35.7452737], [-95.3603036, 35.7455702], [-95.3606029, 35.7456629], [-95.3605707, 35.7457243], [-95.3606464, 35.7457478], [-95.3607172, 35.7455924], [-95.3610246, 35.7456891], [-95.3610835, 35.74555], [-95.3610572, 35.7455416], [-95.3610452, 35.7455638], [-95.3610315, 35.7455589], [-95.3610665, 35.7454869], [-95.3611038, 35.7455007], [-95.3611903, 35.7453536], [-95.3611312, 35.745331], [-95.3609052, 35.7452478], [-95.3610938, 35.7449288]]]}, "properties": {"osm_id": 1424618270, "building": "yes", "name": "First United Methodist Church", "height": null, "height_m": null, "levels": null, "tract_id": "40101000700", "tract_name": "7", "tags": {"addr:city": "Muskogee", "addr:housenumber": "600", "addr:postcode": "74403", "addr:state": "OK", "addr:street": "East Okmulgee Avenue", "amenity": "place_of_worship", "building": "yes", "denomination": "methodist", "ele": "181", "gnis:feature_id": "1798889", "name": "First United Methodist Church", "religion": "christian", "service_times": "Su 09:30"}}}, {"type": "Feature", "geometry": {"type": "Polygon", "coordinates": [[[-95.3408476, 35.7653084], [-95.340842, 35.7649779], [-95.3406711, 35.7649733], [-95.3406762, 35.7651671], [-95.3406631, 35.7651671], [-95.3406651, 35.7653094], [-95.3408476, 35.7653084]]]}, "properties": {"osm_id": 1424618272, "building": "yes", "name": "Sherwin-Williams", "height": null, "height_m": null, "levels": null, "tract_id": "40101000700", "tract_name": "7", "tags": {"addr:city": "Muskogee", "addr:housenumber": "1821", "addr:postcode": "74403", "addr:state": "OK", "addr:street": "North York Street", "brand": "Sherwin-Williams", "brand:wikidata": "Q48881", "building": "yes", "name": "Sherwin-Williams", "opening_hours": "Mo-Fr 07:00-18:00, Sa 08:00-17:00, Su 10:00-16:00", "phone": "+1-918-682-6684", "ref": "707233", "shop": "paint", "website": "https://www.sherwin-williams.com/store-locator/paint-store/muskogee/ok/707233"}}}, {"type": "Feature", "geometry": {"type": "Polygon", "coordinates": [[[-95.3406457, 35.7656828], [-95.3406367, 35.765509], [-95.3408027, 35.7655034], [-95.3408117, 35.7656771], [-95.3406457, 35.7656828]]]}, "properties": {"osm_id": 1424621752, "building": "commercial", "name": "", "height": null, "height_m": null, "levels": null, "tract_id": "40101000700", "tract_name": "7", "tags": {"addr:city": "Muskogee", "addr:housenumber": "1829", "addr:postcode": "74403", "addr:state": "OK", "addr:street": "North York Street", "building": "commercial"}}}, {"type": "Feature", "geometry": {"type": "Polygon", "coordinates": [[[-95.3409215, 35.7660002], [-95.3406495, 35.7659992], [-95.3406459, 35.7659023], [-95.3409238, 35.7659042], [-95.3409215, 35.7660002]]]}, "properties": {"osm_id": 1424621753, "building": "yes", "name": "Salon Secrets", "height": null, "height_m": null, "levels": null, "tract_id": "40101000700", "tract_name": "7", "tags": {"addr:city": "Muskogee", "addr:housenumber": "1837", "addr:postcode": "74403", "addr:state": "OK", "addr:street": "North York Street", "beauty": "nails", "building": "yes", "name": "Salon Secrets", "shop": "beauty"}}}, {"type": "Feature", "geometry": {"type": "Polygon", "coordinates": [[[-95.3409212, 35.766285], [-95.3407332, 35.7662873], [-95.340732, 35.7662197], [-95.34092, 35.7662173], [-95.3409212, 35.766285]]]}, "properties": {"osm_id": 1424621754, "building": "yes", "name": "", "height": null, "height_m": null, "levels": null, "tract_id": "40101000700", "tract_name": "7", "tags": {"building": "yes", "shop": "vacant"}}}, {"type": "Feature", "geometry": {"type": "Polygon", "coordinates": [[[-95.3409477, 35.7665993], [-95.3408195, 35.7666021], [-95.3408124, 35.7663934], [-95.3409406, 35.7663905], [-95.3409477, 35.7665993]]]}, "properties": {"osm_id": 1424621755, "building": "yes", "name": "", "height": null, "height_m": null, "levels": null, "tract_id": "40101000700", "tract_name": "7", "tags": {"addr:city": "Muskogee", "addr:housenumber": "1915", "addr:postcode": "74403", "addr:state": "OK", "addr:street": "North York Street", "building": "yes", "shop": "vacant"}}}, {"type": "Feature", "geometry": {"type": "Polygon", "coordinates": [[[-95.3408755, 35.7667296], [-95.3406573, 35.7667289], [-95.3406576, 35.7666632], [-95.3408758, 35.7666639], [-95.3408755, 35.7667296]]]}, "properties": {"osm_id": 1424621756, "building": "yes", "name": "", "height": null, "height_m": null, "levels": null, "tract_id": "40101000700", "tract_name": "7", "tags": {"addr:city": "Muskogee", "addr:housenumber": "1917", "addr:postcode": "74403", "addr:state": "OK", "addr:street": "North York Street", "building": "yes", "shop": "vacant"}}}, {"type": "Feature", "geometry": {"type": "Polygon", "coordinates": [[[-95.3408209, 35.7674934], [-95.3406495, 35.7674915], [-95.3406471, 35.7677919], [-95.3408198, 35.7677938], [-95.3408209, 35.7674934]]]}, "properties": {"osm_id": 1424621757, "building": "yes", "name": "York Street Tire", "height": null, "height_m": null, "levels": null, "tract_id": "40101000700", "tract_name": "7", "tags": {"addr:city": "Muskogee", "addr:housenumber": "2001", "addr:postcode": "74403", "addr:state": "OK", "addr:street": "North York Street", "building": "yes", "name": "York Street Tire", "shop": "tyres"}}}, {"type": "Feature", "geometry": {"type": "Polygon", "coordinates": [[[-95.34072, 35.7679496], [-95.3405606, 35.7679467], [-95.3405583, 35.7680314], [-95.3406099, 35.7680324], [-95.3406093, 35.7680526], [-95.3407171, 35.7680546], [-95.34072, 35.7679496]]]}, "properties": {"osm_id": 1424621760, "building": "yes", "name": "", "height": null, "height_m": null, "levels": null, "tract_id": "40101000700", "tract_name": "7", "tags": {"addr:city": "Muskogee", "addr:housenumber": "2013", "addr:postcode": "74403", "addr:state": "OK", "addr:street": "North York Street", "building": "yes", "shop": "vacant"}}}, {"type": "Feature", "geometry": {"type": "Polygon", "coordinates": [[[-95.3408604, 35.7680775], [-95.340684, 35.7680748], [-95.3406803, 35.7682377], [-95.3408566, 35.7682404], [-95.3408604, 35.7680775]]]}, "properties": {"osm_id": 1424621761, "building": "yes", "name": "Mike's Outdoors", "height": null, "height_m": null, "levels": null, "tract_id": "40101000700", "tract_name": "7", "tags": {"addr:city": "Muskogee", "addr:housenumber": "2015", "addr:postcode": "74403", "addr:state": "OK", "addr:street": "North York Street", "building": "yes", "contact:facebook": "https://www.facebook.com/MikesOutdoors/", "name": "Mike's Outdoors", "opening_hours": "Mo-Sa 08:00-18:00, Su 08:00-16:00", "phone": "+1-918-687-3146", "shop": "outdoor"}}}, {"type": "Feature", "geometry": {"type": "Polygon", "coordinates": [[[-95.340789, 35.7687891], [-95.3406407, 35.7687884], [-95.3406419, 35.7686115], [-95.3407902, 35.7686122], [-95.340789, 35.7687891]]]}, "properties": {"osm_id": 1424621763, "building": "yes", "name": "Muskogee Lock & Key", "height": null, "height_m": null, "levels": null, "tract_id": "40101000700", "tract_name": "7", "tags": {"addr:city": "Muskogee", "addr:housenumber": "2019", "addr:postcode": "74403", "addr:state": "OK", "addr:street": "North York Street", "building": "yes", "name": "Muskogee Lock & Key", "opening_hours": "Mo-Fr 08:00-17:30", "phone": "+1-918-682-4477", "shop": "locksmith", "website": "https://www.muskogeelockandkey.com/"}}}, {"type": "Feature", "geometry": {"type": "Polygon", "coordinates": [[[-95.3408507, 35.7691473], [-95.3408519, 35.7690262], [-95.3406204, 35.7690247], [-95.3406192, 35.7691452], [-95.3406885, 35.7691457], [-95.3406882, 35.7691756], [-95.3407593, 35.7691761], [-95.3407596, 35.7691467], [-95.3408507, 35.7691473]]]}, "properties": {"osm_id": 1424621764, "building": "yes", "name": "Century 21", "height": null, "height_m": null, "levels": null, "tract_id": "40101000700", "tract_name": "7", "tags": {"addr:city": "Muskogee", "addr:housenumber": "2023", "addr:postcode": "74403", "addr:state": "OK", "addr:street": "North York Street", "branch": "First Choice Realty", "brand": "Century 21", "brand:wikidata": "Q1054480", "building": "yes", "name": "Century 21", "office": "estate_agent", "phone": "+1-918-682-5200", "website": "https://century21firstchoicerealty.com/directory/offices/clinkenbeard-agency"}}}, {"type": "Feature", "geometry": {"type": "Polygon", "coordinates": [[[-95.352793, 35.7619629], [-95.3536242, 35.7619581], [-95.3536252, 35.7620691], [-95.3536785, 35.7620688], [-95.3536795, 35.7621738], [-95.353297, 35.7621761], [-95.3532977, 35.762259], [-95.3532184, 35.7622595], [-95.353218, 35.7622203], [-95.3529975, 35.7622216], [-95.352996, 35.7620566], [-95.3527939, 35.7620577], [-95.352793, 35.7619629]]]}, "properties": {"osm_id": 1424666328, "building": "yes", "name": "Ash Street Baptist Church", "height": null, "height_m": null, "levels": null, "tract_id": "40101000700", "tract_name": "7", "tags": {"addr:city": "Muskogee", "addr:housenumber": "1521", "addr:postcode": "74403", "addr:state": "OK", "addr:street": "Ash Street", "amenity": "place_of_worship", "building": "yes", "denomination": "baptist", "ele": "180", "email": "ashstreetchurch@gmail.com", "gnis:feature_id": "1798856", "name": "Ash Street Baptist Church", "phone": "+1-918-577-6172", "religion": "christian", "website": "http://www.ashstreetchurch.com/"}}}, {"type": "Feature", "geometry": {"type": "Polygon", "coordinates": [[[-95.3497746, 35.7372033], [-95.349773, 35.7370844], [-95.3495396, 35.7370883], [-95.3495412, 35.7370635], [-95.3493127, 35.7370622], [-95.3493111, 35.7372464], [-95.349509, 35.7372451], [-95.349509, 35.7372046], [-95.3497746, 35.7372033]]]}, "properties": {"osm_id": 1427590720, "building": "school", "name": "", "height": null, "height_m": null, "levels": null, "tract_id": "40101000700", "tract_name": "7", "tags": {"building": "school"}}}, {"type": "Feature", "geometry": {"type": "Polygon", "coordinates": [[[-95.354589, 35.7554142], [-95.3546018, 35.7553862], [-95.3545749, 35.7553624], [-95.3545315, 35.7553676], [-95.3545226, 35.7553987], [-95.3545507, 35.7554215], [-95.354589, 35.7554142]]]}, "properties": {"osm_id": 1427784561, "building": "yes", "name": "", "height": null, "height_m": null, "levels": null, "tract_id": "40101000700", "tract_name": "7", "tags": {"amenity": "shelter", "building": "yes", "shelter_type": "gazebo"}}}, {"type": "Feature", "geometry": {"type": "Polygon", "coordinates": [[[-95.3515476, 35.742608], [-95.3516, 35.7425219], [-95.3514403, 35.7424597], [-95.3514774, 35.7423892], [-95.3515489, 35.742412], [-95.3516204, 35.7422845], [-95.3515285, 35.7422461], [-95.3514569, 35.7423706], [-95.3514148, 35.7423581], [-95.3513164, 35.7425188], [-95.3515476, 35.742608]]]}, "properties": {"osm_id": 1428103181, "building": "yes", "name": "Iglesia de Dios Pentecostal Mi Leon de Jud\u00e1", "height": null, "height_m": null, "levels": null, "tract_id": "40101000700", "tract_name": "7", "tags": {"addr:city": "Muskogee", "addr:housenumber": "1501", "addr:postcode": "74403", "addr:state": "OK", "addr:street": "East Broadway Avenue", "amenity": "place_of_worship", "building": "yes", "denomination": "pentecostal", "name": "Iglesia de Dios Pentecostal Mi Leon de Jud\u00e1", "name:en": "Pentecostal Church of God, My Lion of Judah", "name:es": "Iglesia de Dios Pentecostal Mi Leon de Jud\u00e1", "religion": "christian"}}}, {"type": "Feature", "geometry": {"type": "Polygon", "coordinates": [[[-95.3545545, 35.7420697], [-95.3546558, 35.7418864], [-95.354217, 35.7417266], [-95.3541152, 35.7419106], [-95.354256, 35.7419619], [-95.3542342, 35.7420011], [-95.3543146, 35.7420304], [-95.3543367, 35.7419904], [-95.3545545, 35.7420697]]]}, "properties": {"osm_id": 1428103182, "building": "yes", "name": "Lighthouse Assembly of God Church", "height": null, "height_m": null, "levels": null, "tract_id": "40101000700", "tract_name": "7", "tags": {"amenity": "place_of_worship", "area": "yes", "building": "yes", "denomination": "pentecostal", "ele": "175", "gnis:feature_id": "1799034", "name": "Lighthouse Assembly of God Church", "religion": "christian", "wheelchair": "limited"}}}, {"type": "Feature", "geometry": {"type": "Polygon", "coordinates": [[[-95.3511744, 35.7408834], [-95.3512882, 35.7406846], [-95.3511931, 35.7406488], [-95.3511518, 35.7407213], [-95.3510927, 35.7408247], [-95.3510754, 35.7408182], [-95.3510623, 35.7408412], [-95.3511744, 35.7408834]]]}, "properties": {"osm_id": 1428103183, "building": "retail", "name": "", "height": null, "height_m": null, "levels": null, "tract_id": "40101000700", "tract_name": "7", "tags": {"addr:city": "Muskogee", "addr:housenumber": "1601", "addr:postcode": "74403", "addr:state": "OK", "addr:street": "East Okmulgee Avenue", "building": "retail"}}}, {"type": "Feature", "geometry": {"type": "Polygon", "coordinates": [[[-95.3510623, 35.7408412], [-95.3510174, 35.7408247], [-95.3510747, 35.7407226], [-95.3510895, 35.7406978], [-95.3511518, 35.7407213], [-95.3510927, 35.7408247], [-95.3510754, 35.7408182], [-95.3510623, 35.7408412]]]}, "properties": {"osm_id": 1428103184, "building": "retail", "name": "", "height": null, "height_m": null, "levels": null, "tract_id": "40101000700", "tract_name": "7", "tags": {"addr:city": "Muskogee", "addr:housenumber": "1603", "addr:postcode": "74403", "addr:state": "OK", "addr:street": "East Okmulgee Avenue", "building": "retail"}}}, {"type": "Feature", "geometry": {"type": "Polygon", "coordinates": [[[-95.3510174, 35.7408247], [-95.3509371, 35.7407928], [-95.350992, 35.7406921], [-95.3510747, 35.7407226], [-95.3510174, 35.7408247]]]}, "properties": {"osm_id": 1428103185, "building": "retail", "name": "", "height": null, "height_m": null, "levels": null, "tract_id": "40101000700", "tract_name": "7", "tags": {"addr:city": "Muskogee", "addr:housenumber": "1605", "addr:postcode": "74403", "addr:state": "OK", "addr:street": "East Okmulgee Avenue", "building": "retail"}}}, {"type": "Feature", "geometry": {"type": "Polygon", "coordinates": [[[-95.3509371, 35.7407928], [-95.3508723, 35.7407709], [-95.3509183, 35.7406835], [-95.3509543, 35.7406176], [-95.3510198, 35.7406411], [-95.350992, 35.7406921], [-95.3509371, 35.7407928]]]}, "properties": {"osm_id": 1428103186, "building": "retail", "name": "", "height": null, "height_m": null, "levels": null, "tract_id": "40101000700", "tract_name": "7", "tags": {"addr:city": "Muskogee", "addr:housenumber": "1607", "addr:postcode": "74403", "addr:state": "OK", "addr:street": "East Okmulgee Avenue", "building": "retail"}}}, {"type": "Feature", "geometry": {"type": "Polygon", "coordinates": [[[-95.3508723, 35.7407709], [-95.3507667, 35.7407342], [-95.3508127, 35.7406469], [-95.3509183, 35.7406835], [-95.3508723, 35.7407709]]]}, "properties": {"osm_id": 1428103187, "building": "retail", "name": "", "height": null, "height_m": null, "levels": null, "tract_id": "40101000700", "tract_name": "7", "tags": {"addr:city": "Muskogee", "addr:postcode": "74403", "addr:state": "OK", "addr:street": "East Okmulgee Avenue", "building": "retail"}}}, {"type": "Feature", "geometry": {"type": "Polygon", "coordinates": [[[-95.3507667, 35.7407342], [-95.3507054, 35.7407101], [-95.3507744, 35.7405812], [-95.3508336, 35.7406025], [-95.3508127, 35.7406469], [-95.3507667, 35.7407342]]]}, "properties": {"osm_id": 1428103188, "building": "retail", "name": "", "height": null, "height_m": null, "levels": null, "tract_id": "40101000700", "tract_name": "7", "tags": {"addr:city": "Muskogee", "addr:housenumber": "1613", "addr:postcode": "74403", "addr:state": "OK", "addr:street": "East Okmulgee Avenue", "building": "retail"}}}, {"type": "Feature", "geometry": {"type": "Polygon", "coordinates": [[[-95.3505633, 35.7406371], [-95.3506768, 35.7404371], [-95.3504185, 35.7403406], [-95.3503396, 35.7404796], [-95.3503796, 35.7404946], [-95.3503705, 35.7405106], [-95.3503784, 35.7405136], [-95.3503674, 35.7405331], [-95.35042, 35.7405528], [-95.3504056, 35.7405782], [-95.3505633, 35.7406371]]]}, "properties": {"osm_id": 1428103189, "building": "retail", "name": "", "height": null, "height_m": null, "levels": null, "tract_id": "40101000700", "tract_name": "7", "tags": {"building": "retail"}}}, {"type": "Feature", "geometry": {"type": "Polygon", "coordinates": [[[-95.357581, 35.7465416], [-95.357423, 35.7465011], [-95.3573731, 35.7466565], [-95.3574714, 35.7466831], [-95.3574603, 35.7467164], [-95.3575191, 35.7467333], [-95.3575318, 35.7467013], [-95.357581, 35.7465416]]]}, "properties": {"osm_id": 1430217872, "building": "yes", "name": "", "height": null, "height_m": null, "levels": null, "tract_id": "40101000700", "tract_name": "7", "tags": {"building": "yes", "shop": "vacant"}}}, {"type": "Feature", "geometry": {"type": "Polygon", "coordinates": [[[-95.3578045, 35.7467605], [-95.3576607, 35.7467224], [-95.3576935, 35.7466372], [-95.3577717, 35.7466577], [-95.3577747, 35.7466499], [-95.3578417, 35.7466668], [-95.3578045, 35.7467605]]]}, "properties": {"osm_id": 1430217873, "building": "yes", "name": "State Farm", "height": null, "height_m": null, "levels": null, "tract_id": "40101000700", "tract_name": "7", "tags": {"addr:city": "Muskogee", "addr:housenumber": "730", "addr:postcode": "74403", "addr:state": "OK", "addr:street": "Callahan Street", "brand": "State Farm", "brand:wikidata": "Q2007336", "building": "yes", "name": "State Farm", "office": "insurance"}}}, {"type": "Feature", "geometry": {"type": "Polygon", "coordinates": [[[-95.3578334, 35.7463584], [-95.3578629, 35.7462745], [-95.3577247, 35.7462371], [-95.3576943, 35.746326], [-95.3577265, 35.746333], [-95.357723, 35.7463464], [-95.357796, 35.7463648], [-95.3578021, 35.7463521], [-95.3578334, 35.7463584]]]}, "properties": {"osm_id": 1430217874, "building": "yes", "name": "", "height": null, "height_m": null, "levels": null, "tract_id": "40101000700", "tract_name": "7", "tags": {"building": "yes", "shop": "vacant"}}}, {"type": "Feature", "geometry": {"type": "Polygon", "coordinates": [[[-95.3580254, 35.7463747], [-95.3580732, 35.7462569], [-95.3579481, 35.7462223], [-95.3578977, 35.7463408], [-95.3580254, 35.7463747]]]}, "properties": {"osm_id": 1430217875, "building": "yes", "name": "Taqueria La Morena", "height": null, "height_m": null, "levels": null, "tract_id": "40101000700", "tract_name": "7", "tags": {"addr:city": "Muskogee", "addr:housenumber": "731", "addr:postcode": "74403", "addr:state": "OK", "addr:street": "Callahan Street", "amenity": "fast_food", "building": "yes", "cuisine": "mexican", "name": "Taqueria La Morena"}}}, {"type": "Feature", "geometry": {"type": "Polygon", "coordinates": [[[-95.3573861, 35.7452755], [-95.3573687, 35.7452692], [-95.3572466, 35.7452245], [-95.357201, 35.7452078], [-95.3572731, 35.7450745], [-95.3573827, 35.7451126], [-95.3574113, 35.7451838], [-95.3573861, 35.7452755]]]}, "properties": {"osm_id": 1430217876, "building": "yes", "name": "", "height": null, "height_m": null, "levels": null, "tract_id": "40101000700", "tract_name": "7", "tags": {"building": "yes"}}}, {"type": "Feature", "geometry": {"type": "Polygon", "coordinates": [[[-95.3573687, 35.7452692], [-95.3573157, 35.7453687], [-95.3571932, 35.7453256], [-95.3572466, 35.7452245], [-95.3573687, 35.7452692]]]}, "properties": {"osm_id": 1430217877, "building": "yes", "name": "Jose's Mexican Grill", "height": null, "height_m": null, "levels": null, "tract_id": "40101000700", "tract_name": "7", "tags": {"addr:city": "Muskogee", "addr:housenumber": "208", "addr:postcode": "74403", "addr:state": "OK", "addr:street": "East Side Boulevard", "amenity": "fast_food", "building": "yes", "cuisine": "mexican", "name": "Jose's Mexican Grill"}}}, {"type": "Feature", "geometry": {"type": "Polygon", "coordinates": [[[-95.3573305, 35.7455295], [-95.357108, 35.7454406], [-95.3571584, 35.745351], [-95.3573835, 35.745442], [-95.3573305, 35.7455295]]]}, "properties": {"osm_id": 1430217878, "building": "yes", "name": "Ardmore Finance", "height": null, "height_m": null, "levels": null, "tract_id": "40101000700", "tract_name": "7", "tags": {"addr:city": "Muskogee", "addr:housenumber": "210", "addr:postcode": "74403", "addr:state": "OK", "addr:street": "East Side Boulevard", "building": "yes", "name": "Ardmore Finance", "office": "financial", "opening_hours": "Mo-Fr 09:00-17:30, Sa 08:00-12:00", "phone": "+1-918-687-1200", "website": "https://www.moneywhenuneedit.com/muskogee-ok-ardmore-finance"}}}, {"type": "Feature", "geometry": {"type": "Polygon", "coordinates": [[[-95.357141, 35.7462151], [-95.3567977, 35.7460889], [-95.3568638, 35.7459661], [-95.3571784, 35.7460839], [-95.357141, 35.7462151]]]}, "properties": {"osm_id": 1430217879, "building": "yes", "name": "Abarrotes San Francisco", "height": null, "height_m": null, "levels": null, "tract_id": "40101000700", "tract_name": "7", "tags": {"building": "yes", "name": "Abarrotes San Francisco", "shop": "bakery"}}}, {"type": "Feature", "geometry": {"type": "Polygon", "coordinates": [[[-95.3571645, 35.7460628], [-95.3571897, 35.7460162], [-95.3571819, 35.746012], [-95.3571958, 35.7459866], [-95.3569942, 35.7459111], [-95.3569498, 35.7459824], [-95.3571645, 35.7460628]]]}, "properties": {"osm_id": 1430217880, "building": "yes", "name": "", "height": null, "height_m": null, "levels": null, "tract_id": "40101000700", "tract_name": "7", "tags": {"building": "yes"}}}, {"type": "Feature", "geometry": {"type": "Polygon", "coordinates": [[[-95.3571833, 35.7477753], [-95.3570582, 35.7477507], [-95.3570816, 35.7476646], [-95.3572076, 35.74769], [-95.3571833, 35.7477753]]]}, "properties": {"osm_id": 1430217881, "building": "yes", "name": "Pupuseria El Amigo", "height": null, "height_m": null, "levels": null, "tract_id": "40101000700", "tract_name": "7", "tags": {"addr:city": "Muskogee", "addr:housenumber": "339", "addr:postcode": "74403", "addr:state": "OK", "addr:street": "East Side Boulevard", "building": "yes", "name": "Pupuseria El Amigo"}}}, {"type": "Feature", "geometry": {"type": "Polygon", "coordinates": [[[-95.3565196, 35.7483205], [-95.3565926, 35.7481942], [-95.3562861, 35.7480776], [-95.3562131, 35.748204], [-95.3565196, 35.7483205]]]}, "properties": {"osm_id": 1430225825, "building": "yes", "name": "", "height": null, "height_m": null, "levels": null, "tract_id": "40101000700", "tract_name": "7", "tags": {"building": "yes"}}}, {"type": "Feature", "geometry": {"type": "Polygon", "coordinates": [[[-95.3564744, 35.7486036], [-95.3562177, 35.7485067], [-95.3562816, 35.7483848], [-95.3563234, 35.7484019], [-95.3565063, 35.7484769], [-95.3564578, 35.7485614], [-95.3564815, 35.7485892], [-95.3564744, 35.7486036]]]}, "properties": {"osm_id": 1430225826, "building": "yes", "name": "", "height": null, "height_m": null, "levels": null, "tract_id": "40101000700", "tract_name": "7", "tags": {"building": "yes"}}}, {"type": "Feature", "geometry": {"type": "Polygon", "coordinates": [[[-95.3565112, 35.7484717], [-95.3565459, 35.748356], [-95.3563904, 35.7482975], [-95.3563234, 35.7484019], [-95.3565112, 35.7484717]]]}, "properties": {"osm_id": 1430225827, "building": "yes", "name": "", "height": null, "height_m": null, "levels": null, "tract_id": "40101000700", "tract_name": "7", "tags": {"addr:city": "Muskogee", "addr:housenumber": "414", "addr:postcode": "74403", "addr:state": "OK", "addr:street": "East Side Boulevard", "building": "yes"}}}, {"type": "Feature", "geometry": {"type": "Polygon", "coordinates": [[[-95.3561808, 35.7491333], [-95.356007, 35.7491016], [-95.3560436, 35.7489643], [-95.3561406, 35.7489816], [-95.3561134, 35.7490738], [-95.3561903, 35.749091], [-95.3561808, 35.7491333]]]}, "properties": {"osm_id": 1430225828, "building": "yes", "name": "Eastside Gas & Lube", "height": null, "height_m": null, "levels": null, "tract_id": "40101000700", "tract_name": "7", "tags": {"building": "yes", "name": "Eastside Gas & Lube", "shop": "car_repair"}}}, {"type": "Feature", "geometry": {"type": "Polygon", "coordinates": [[[-95.3560555, 35.7495921], [-95.3557692, 35.7494798], [-95.3558532, 35.7493348], [-95.3561394, 35.7494452], [-95.3560555, 35.7495921]]]}, "properties": {"osm_id": 1430225829, "building": "yes", "name": "", "height": null, "height_m": null, "levels": null, "tract_id": "40101000700", "tract_name": "7", "tags": {"building": "yes"}}}, {"type": "Feature", "geometry": {"type": "Polygon", "coordinates": [[[-95.3567406, 35.7498585], [-95.3565475, 35.7497857], [-95.3565889, 35.7497006], [-95.3566523, 35.7497253], [-95.3566496, 35.7497331], [-95.3567779, 35.7497824], [-95.3567406, 35.7498585]]]}, "properties": {"osm_id": 1430225830, "building": "yes", "name": "", "height": null, "height_m": null, "levels": null, "tract_id": "40101000700", "tract_name": "7", "tags": {"building": "yes"}}}, {"type": "Feature", "geometry": {"type": "Polygon", "coordinates": [[[-95.3566991, 35.7503178], [-95.3564798, 35.7502601], [-95.3565402, 35.7501091], [-95.3567615, 35.7501673], [-95.3567259, 35.7502564], [-95.3567418, 35.7502606], [-95.3567232, 35.7503071], [-95.3567053, 35.7503024], [-95.3566991, 35.7503178]]]}, "properties": {"osm_id": 1430225831, "building": "yes", "name": "", "height": null, "height_m": null, "levels": null, "tract_id": "40101000700", "tract_name": "7", "tags": {"building": "yes"}}}, {"type": "Feature", "geometry": {"type": "Polygon", "coordinates": [[[-95.3558474, 35.7504895], [-95.3555356, 35.7503865], [-95.3555287, 35.7503999], [-95.3553935, 35.7503495], [-95.3555715, 35.7499464], [-95.3557578, 35.7499968], [-95.3557398, 35.7500438], [-95.355715, 35.7500382], [-95.3557095, 35.7500595], [-95.3558157, 35.7500909], [-95.3557674, 35.7502118], [-95.3556308, 35.7501715], [-95.3556239, 35.7502028], [-95.3556253, 35.7502252], [-95.3558709, 35.7503003], [-95.3558709, 35.7503115], [-95.3559137, 35.7503271], [-95.3558474, 35.7504895]]]}, "properties": {"osm_id": 1430225832, "building": "yes", "name": "Central Baptist Church", "height": null, "height_m": null, "levels": null, "tract_id": "40101000700", "tract_name": "7", "tags": {"amenity": "place_of_worship", "building": "yes", "denomination": "baptist", "ele": "180", "gnis:feature_id": "1798869", "name": "Central Baptist Church", "religion": "christian"}}}, {"type": "Feature", "geometry": {"type": "Polygon", "coordinates": [[[-95.3557398, 35.7510113], [-95.3558074, 35.7508847], [-95.3552942, 35.7506899], [-95.3552321, 35.7508064], [-95.3552735, 35.750822], [-95.3552625, 35.7508343], [-95.3557398, 35.7510113]]]}, "properties": {"osm_id": 1430225833, "building": "yes", "name": "", "height": null, "height_m": null, "levels": null, "tract_id": "40101000700", "tract_name": "7", "tags": {"building": "yes"}}}, {"type": "Feature", "geometry": {"type": "Polygon", "coordinates": [[[-95.355689, 35.7514326], [-95.3557209, 35.751303], [-95.3556996, 35.7512953], [-95.3557114, 35.7512637], [-95.3556949, 35.751232], [-95.3553117, 35.7510928], [-95.3553342, 35.7510468], [-95.3552703, 35.7510189], [-95.3551012, 35.7513059], [-95.3551745, 35.7513376], [-95.3552194, 35.7512752], [-95.3556499, 35.7514336], [-95.3556559, 35.751424], [-95.355689, 35.7514326]]]}, "properties": {"osm_id": 1430225834, "building": "yes", "name": "", "height": null, "height_m": null, "levels": null, "tract_id": "40101000700", "tract_name": "7", "tags": {"building": "yes"}}}, {"type": "Feature", "geometry": {"type": "Polygon", "coordinates": [[[-95.3553696, 35.7523224], [-95.3554347, 35.7520747], [-95.3554442, 35.7520776], [-95.3555009, 35.7518914], [-95.3554016, 35.7518693], [-95.3553945, 35.7518914], [-95.3552466, 35.751853], [-95.3552041, 35.7519298], [-95.3551851, 35.7519999], [-95.3552549, 35.7520162], [-95.3551556, 35.7522475], [-95.3553696, 35.7523224]]]}, "properties": {"osm_id": 1430225835, "building": "yes", "name": "", "height": null, "height_m": null, "levels": null, "tract_id": "40101000700", "tract_name": "7", "tags": {"building": "yes"}}}, {"type": "Feature", "geometry": {"type": "Polygon", "coordinates": [[[-95.3559858, 35.7525009], [-95.3560213, 35.7524068], [-95.3557765, 35.7523358], [-95.3557446, 35.7524356], [-95.3559858, 35.7525009]]]}, "properties": {"osm_id": 1430225836, "building": "yes", "name": "", "height": null, "height_m": null, "levels": null, "tract_id": "40101000700", "tract_name": "7", "tags": {"building": "yes"}}}, {"type": "Feature", "geometry": {"type": "Polygon", "coordinates": [[[-95.3552289, 35.7528877], [-95.3552644, 35.7527764], [-95.3551366, 35.7527457], [-95.3551012, 35.7528608], [-95.3552289, 35.7528877]]]}, "properties": {"osm_id": 1430225837, "building": "yes", "name": "", "height": null, "height_m": null, "levels": null, "tract_id": "40101000700", "tract_name": "7", "tags": {"building": "yes"}}}, {"type": "Feature", "geometry": {"type": "Polygon", "coordinates": [[[-95.3549001, 35.7533004], [-95.3549249, 35.7531948], [-95.3548493, 35.7531824], [-95.3548197, 35.7532851], [-95.3547972, 35.7532793], [-95.3547795, 35.7533321], [-95.3548705, 35.7533494], [-95.3548847, 35.7532995], [-95.3549001, 35.7533004]]]}, "properties": {"osm_id": 1430225838, "building": "yes", "name": "", "height": null, "height_m": null, "levels": null, "tract_id": "40101000700", "tract_name": "7", "tags": {"building": "yes"}}}, {"type": "Feature", "geometry": {"type": "Polygon", "coordinates": [[[-95.3549013, 35.7541057], [-95.3549202, 35.7540251], [-95.3546778, 35.7539809], [-95.3546541, 35.7540587], [-95.3549013, 35.7541057]]]}, "properties": {"osm_id": 1430225839, "building": "yes", "name": "", "height": null, "height_m": null, "levels": null, "tract_id": "40101000700", "tract_name": "7", "tags": {"building": "yes"}}}, {"type": "Feature", "geometry": {"type": "Polygon", "coordinates": [[[-95.3546269, 35.7545808], [-95.3546884, 35.754457], [-95.3543206, 35.7543178], [-95.3542567, 35.7544455], [-95.3546269, 35.7545808]]]}, "properties": {"osm_id": 1430225840, "building": "yes", "name": "", "height": null, "height_m": null, "levels": null, "tract_id": "40101000700", "tract_name": "7", "tags": {"building": "yes"}}}, {"type": "Feature", "geometry": {"type": "Polygon", "coordinates": [[[-95.3544383, 35.7549605], [-95.3542843, 35.754929], [-95.3543964, 35.7545679], [-95.3545503, 35.7545993], [-95.3544383, 35.7549605]]]}, "properties": {"osm_id": 1430225841, "building": "yes", "name": "", "height": null, "height_m": null, "levels": null, "tract_id": "40101000700", "tract_name": "7", "tags": {"building": "yes"}}}, {"type": "Feature", "geometry": {"type": "Polygon", "coordinates": [[[-95.3577634, 35.7439629], [-95.3577989, 35.7438554], [-95.357832, 35.7438122], [-95.3578568, 35.7437767], [-95.357858, 35.7437383], [-95.3578628, 35.7436836], [-95.3576262, 35.7436269], [-95.3576404, 35.7435914], [-95.3575257, 35.743553], [-95.3575281, 35.7435463], [-95.3572986, 35.7434599], [-95.3572359, 35.7435741], [-95.3573353, 35.7436096], [-95.3572951, 35.7436874], [-95.3571851, 35.7436471], [-95.3571248, 35.7437556], [-95.3574524, 35.7438832], [-95.3574488, 35.7438919], [-95.357463, 35.7438947], [-95.3574524, 35.7439274], [-95.357515, 35.7439418], [-95.3575257, 35.7439082], [-95.3577634, 35.7439629]]]}, "properties": {"osm_id": 1430225851, "building": "yes", "name": "", "height": null, "height_m": null, "levels": null, "tract_id": "40101000700", "tract_name": "7", "tags": {"addr:city": "Muskogee", "addr:housenumber": "820", "addr:postcode": "74403", "addr:state": "OK", "addr:street": "East Okmulgee Avenue", "amenity": "place_of_worship", "building": "yes", "religion": "christian"}}}, {"type": "Feature", "geometry": {"type": "Polygon", "coordinates": [[[-95.3569904, 35.7456156], [-95.3568773, 35.7455801], [-95.3569266, 35.7454765], [-95.3570397, 35.745512], [-95.3569904, 35.7456156]]]}, "properties": {"osm_id": 1430225852, "building": "yes", "name": "Jose's Auto Sales", "height": null, "height_m": null, "levels": null, "tract_id": "40101000700", "tract_name": "7", "tags": {"addr:city": "Muskogee", "addr:housenumber": "216", "addr:postcode": "74403", "addr:state": "OK", "addr:street": "East Side Boulevard", "building": "yes", "name": "Jose's Auto Sales", "shop": "car"}}}, {"type": "Feature", "geometry": {"type": "Polygon", "coordinates": [[[-95.3572642, 35.7458095], [-95.3572989, 35.7457485], [-95.3570831, 35.7456677], [-95.3570484, 35.7457287], [-95.3572642, 35.7458095]]]}, "properties": {"osm_id": 1430225853, "building": "commercial", "name": "Coffman Surveying", "height": null, "height_m": null, "levels": null, "tract_id": "40101000700", "tract_name": "7", "tags": {"addr:city": "Muskogee", "addr:housenumber": "218", "addr:postcode": "74403", "addr:state": "OK", "addr:street": "East Side Boulevard", "building": "commercial", "name": "Coffman Surveying", "office": "surveyor"}}}, {"type": "Feature", "geometry": {"type": "Polygon", "coordinates": [[[-95.3572642, 35.7458095], [-95.3570484, 35.7457287], [-95.3569773, 35.7457044], [-95.3569417, 35.7457718], [-95.3572355, 35.7458742], [-95.3572642, 35.7458095]]]}, "properties": {"osm_id": 1430225854, "building": "commercial", "name": "", "height": null, "height_m": null, "levels": null, "tract_id": "40101000700", "tract_name": "7", "tags": {"building": "commercial"}}}, {"type": "Feature", "geometry": {"type": "Polygon", "coordinates": [[[-95.3565625, 35.7459196], [-95.3564818, 35.7458899], [-95.3565487, 35.7457824], [-95.356628, 35.7458132], [-95.3565625, 35.7459196]]]}, "properties": {"osm_id": 1430225855, "building": "house", "name": "", "height": null, "height_m": null, "levels": null, "tract_id": "40101000700", "tract_name": "7", "tags": {"addr:city": "Muskogee", "addr:housenumber": "819", "addr:postcode": "74403", "addr:state": "OK", "addr:street": "Callahan Street", "building": "house"}}}, {"type": "Feature", "geometry": {"type": "Polygon", "coordinates": [[[-95.3563859, 35.7459269], [-95.3564976, 35.7457298], [-95.3563797, 35.7456844], [-95.3562576, 35.7458865], [-95.3563162, 35.7458989], [-95.3563859, 35.7459269]]]}, "properties": {"osm_id": 1430225856, "building": "yes", "name": "Lakeland Florist", "height": null, "height_m": null, "levels": null, "tract_id": "40101000700", "tract_name": "7", "tags": {"addr:city": "Muskogee", "addr:housenumber": "821", "addr:postcode": "74403", "addr:state": "OK", "addr:street": "Callahan Street", "building": "yes", "name": "Lakeland Florist", "shop": "florist"}}}, {"type": "Feature", "geometry": {"type": "Polygon", "coordinates": [[[-95.3571298, 35.7482674], [-95.3571727, 35.748117], [-95.3569963, 35.7480839], [-95.3569786, 35.7481459], [-95.3570559, 35.7481605], [-95.3570307, 35.7482488], [-95.3571298, 35.7482674]]]}, "properties": {"osm_id": 1430225857, "building": "yes", "name": "", "height": null, "height_m": null, "levels": null, "tract_id": "40101000700", "tract_name": "7", "tags": {"building": "yes"}}}, {"type": "Feature", "geometry": {"type": "Polygon", "coordinates": [[[-95.341337, 35.7720729], [-95.3413219, 35.7719023], [-95.3409315, 35.7719023], [-95.340924, 35.7720729], [-95.341337, 35.7720729]]]}, "properties": {"osm_id": 1430428822, "building": "yes", "name": "QuikTrip", "height": null, "height_m": null, "levels": null, "tract_id": "40101000700", "tract_name": "7", "tags": {"addr:city": "Muskogee", "addr:housenumber": "2360", "addr:postcode": "74403", "addr:state": "OK", "addr:street": "East Shawnee Road", "brand": "QuikTrip", "brand:wikidata": "Q7271953", "building": "yes", "name": "QuikTrip", "shop": "convenience", "short_name": "QT"}}}, {"type": "Feature", "geometry": {"type": "Polygon", "coordinates": [[[-95.3616569, 35.746698], [-95.3617184, 35.7465665], [-95.3615823, 35.7465243], [-95.3615871, 35.7465118], [-95.3613896, 35.7464533], [-95.3613836, 35.7464648], [-95.3611672, 35.7464024], [-95.3611045, 35.7465349], [-95.3613245, 35.7465982], [-95.3613174, 35.7466107], [-95.3613612, 35.7466251], [-95.3613695, 35.7466136], [-95.3614877, 35.7466472], [-95.3614818, 35.7466606], [-95.3615173, 35.7466721], [-95.3615232, 35.7466568], [-95.3616569, 35.746698]]]}, "properties": {"osm_id": 1433433246, "building": "yes", "name": "First Lutheran Church", "height": null, "height_m": null, "levels": null, "tract_id": "40101000700", "tract_name": "7", "tags": {"addr:city": "Muskogee", "addr:housenumber": "428", "addr:postcode": "74403", "addr:state": "OK", "addr:street": "East Broadway Avenue", "amenity": "place_of_worship", "building": "yes", "denomination": "lutheran", "ele": "183", "gnis:feature_id": "1798888", "name": "First Lutheran Church", "religion": "christian"}}}]}