{"type": "FeatureCollection", "features": [{"type": "Feature", "geometry": {"type": "Polygon", "coordinates": [[[-95.3410339, 35.7245735], [-95.3408014, 35.724574], [-95.3407976, 35.7234791], [-95.3410301, 35.7234785], [-95.3410339, 35.7245735]]]}, "properties": {"osm_id": 194214726, "building": "retail", "name": "South York Plaza", "height": null, "height_m": null, "levels": null, "tract_id": "40101000901", "tract_name": "9.01", "tags": {"building": "retail", "name": "South York Plaza"}}}, {"type": "Feature", "geometry": {"type": "Polygon", "coordinates": [[[-95.3666072, 35.6979622], [-95.3663571, 35.6979636], [-95.3663556, 35.6977845], [-95.3666058, 35.6977831], [-95.3666072, 35.6979622]]]}, "properties": {"osm_id": 194215587, "building": "office", "name": "Hilldale Independent School District", "height": null, "height_m": null, "levels": null, "tract_id": "40101000901", "tract_name": "9.01", "tags": {"addr:city": "Muskogee", "addr:country": "US", "addr:housenumber": "500", "addr:postcode": "74403", "addr:state": "OK", "addr:street": "East Smith Ferry Road", "building": "office", "name": "Hilldale Independent School District"}}}, {"type": "Feature", "geometry": {"type": "Polygon", "coordinates": [[[-95.3754357, 35.697132], [-95.3755867, 35.697132], [-95.3755867, 35.6973176], [-95.3754357, 35.6973176], [-95.3754357, 35.697132]]]}, "properties": {"osm_id": 202903909, "building": "commercial", "name": "Hilldale Food Mart", "height": null, "height_m": null, "levels": null, "tract_id": "40101000901", "tract_name": "9.01", "tags": {"building": "commercial", "name": "Hilldale Food Mart", "shop": "convenience"}}}, {"type": "Feature", "geometry": {"type": "Polygon", "coordinates": [[[-95.3757349, 35.6972844], [-95.3758182, 35.6972844], [-95.3758182, 35.6973646], [-95.3757349, 35.6973646], [-95.3757349, 35.6972844]]]}, "properties": {"osm_id": 202903910, "building": "roof", "name": "", "height": null, "height_m": null, "levels": null, "tract_id": "40101000901", "tract_name": "9.01", "tags": {"amenity": "fuel", "brand": "Shell", "building": "roof"}}}, {"type": "Feature", "geometry": {"type": "Polygon", "coordinates": [[[-95.3714592, 35.6984622], [-95.3714566, 35.6981029], [-95.3712031, 35.698104], [-95.3712057, 35.6984633], [-95.3714592, 35.6984622]]]}, "properties": {"osm_id": 233958681, "building": "yes", "name": "", "height": null, "height_m": null, "levels": null, "tract_id": "40101000901", "tract_name": "9.01", "tags": {"building": "yes"}}}, {"type": "Feature", "geometry": {"type": "Polygon", "coordinates": [[[-95.3688125, 35.6994388], [-95.3688159, 35.699164], [-95.3685768, 35.699162], [-95.3685735, 35.6994368], [-95.3688125, 35.6994388]]]}, "properties": {"osm_id": 233958682, "building": "yes", "name": "", "height": null, "height_m": null, "levels": null, "tract_id": "40101000901", "tract_name": "9.01", "tags": {"building": "yes"}}}, {"type": "Feature", "geometry": {"type": "Polygon", "coordinates": [[[-95.3706559, 35.7002899], [-95.3707805, 35.7002908], [-95.3707797, 35.7003578], [-95.3707427, 35.7003575], [-95.3707425, 35.7003783], [-95.3707939, 35.7003787], [-95.3707925, 35.700505], [-95.3706535, 35.700504], [-95.3706559, 35.7002899]]]}, "properties": {"osm_id": 258559784, "building": "house", "name": "", "height": null, "height_m": null, "levels": null, "tract_id": "40101000901", "tract_name": "9.01", "tags": {"addr:city": "Muskogee", "addr:country": "US", "addr:housenumber": "4004", "addr:postcode": "74403", "addr:street": "Sheffield Avenue", "building": "house"}}}, {"type": "Feature", "geometry": {"type": "Polygon", "coordinates": [[[-95.3690067, 35.6975176], [-95.3691718, 35.6975172], [-95.3691726, 35.6977272], [-95.3692486, 35.697727], [-95.3692487, 35.6977465], [-95.3693026, 35.6977463], [-95.3693025, 35.6977267], [-95.3693782, 35.6977265], [-95.3693773, 35.6975169], [-95.369764, 35.6975159], [-95.3697652, 35.6978114], [-95.3696189, 35.6978118], [-95.3696197, 35.6980117], [-95.3695456, 35.6980119], [-95.3695459, 35.6980776], [-95.3694755, 35.6980778], [-95.3694761, 35.6982226], [-95.3696543, 35.6982221], [-95.3696545, 35.6982803], [-95.3699971, 35.6982793], [-95.3699969, 35.6982183], [-95.3700211, 35.6982182], [-95.3700212, 35.6982506], [-95.3701151, 35.6982504], [-95.3701136, 35.6978996], [-95.3702688, 35.6978991], [-95.3702677, 35.6976477], [-95.3701424, 35.6976481], [-95.3701418, 35.697514], [-95.3704378, 35.6975132], [-95.3704384, 35.6976718], [-95.3706074, 35.6976713], [-95.370606, 35.6973259], [-95.3704411, 35.6973263], [-95.370441, 35.6973103], [-95.3700964, 35.6973113], [-95.3700967, 35.6973782], [-95.3697495, 35.6973791], [-95.3697492, 35.6973051], [-95.3690058, 35.6973071], [-95.369006, 35.6973599], [-95.3690067, 35.6975176]]]}, "properties": {"osm_id": 344530960, "building": "school", "name": "Hilldale High School", "height": null, "height_m": null, "levels": null, "tract_id": "40101000901", "tract_name": "9.01", "tags": {"addr:city": "Muskogee", "addr:country": "US", "addr:housenumber": "300", "addr:postcode": "74403", "addr:state": "OK", "addr:street": "East Smith Ferry Road", "building": "school", "name": "Hilldale High School"}}}, {"type": "Feature", "geometry": {"type": "Polygon", "coordinates": [[[-95.3671451, 35.6975228], [-95.3671442, 35.6973121], [-95.3675727, 35.6973109], [-95.3675729, 35.6973617], [-95.3677296, 35.6973613], [-95.3677294, 35.6973104], [-95.3680723, 35.6973095], [-95.3680723, 35.6973292], [-95.3683223, 35.6973285], [-95.3683223, 35.6973348], [-95.3683541, 35.6973347], [-95.3683541, 35.6973284], [-95.368464, 35.6973281], [-95.3684639, 35.6973107], [-95.3686409, 35.6973102], [-95.3686891, 35.6973506], [-95.368782, 35.6973504], [-95.3687818, 35.6973098], [-95.3689514, 35.6973093], [-95.3689516, 35.6973601], [-95.369006, 35.6973599], [-95.3690067, 35.6975176], [-95.3690075, 35.6977083], [-95.3689308, 35.6977085], [-95.3689309, 35.6977264], [-95.3688792, 35.6977265], [-95.3688791, 35.6977087], [-95.368802, 35.6977089], [-95.3688014, 35.6975659], [-95.368664, 35.6975663], [-95.3686648, 35.697766], [-95.3684938, 35.6977665], [-95.368493, 35.6975691], [-95.3684692, 35.6975692], [-95.3684694, 35.6976084], [-95.3683532, 35.6976087], [-95.3683529, 35.6975378], [-95.3683188, 35.6975379], [-95.3683191, 35.6976088], [-95.3682726, 35.6976089], [-95.3682738, 35.6978817], [-95.3681924, 35.697882], [-95.3681925, 35.6979094], [-95.3681424, 35.6979096], [-95.3681423, 35.6978821], [-95.3680667, 35.6978823], [-95.3680651, 35.6975203], [-95.3677395, 35.6975212], [-95.3677396, 35.6975396], [-95.3678201, 35.6975394], [-95.3678206, 35.6976667], [-95.3677402, 35.6976669], [-95.3677416, 35.6979887], [-95.3675656, 35.6979892], [-95.367565, 35.6978517], [-95.3674613, 35.697852], [-95.3674599, 35.6975219], [-95.3671451, 35.6975228]]]}, "properties": {"osm_id": 344530963, "building": "school", "name": "Hilldale Middle School", "height": null, "height_m": null, "levels": null, "tract_id": "40101000901", "tract_name": "9.01", "tags": {"addr:city": "Muskogee", "addr:country": "US", "addr:housenumber": "400", "addr:postcode": "74403", "addr:state": "OK", "addr:street": "East Smith Ferry Road", "building": "school", "name": "Hilldale Middle School"}}}, {"type": "Feature", "geometry": {"type": "Polygon", "coordinates": [[[-95.3385719, 35.7047577], [-95.3385696, 35.7049043], [-95.3383098, 35.7049016], [-95.338312, 35.7047551], [-95.3385719, 35.7047577]]]}, "properties": {"osm_id": 851918399, "building": "yes", "name": "", "height": null, "height_m": null, "levels": null, "tract_id": "40101000901", "tract_name": "9.01", "tags": {"building": "yes"}}}, {"type": "Feature", "geometry": {"type": "Polygon", "coordinates": [[[-95.3390197, 35.7051687], [-95.3388304, 35.7051326], [-95.3388486, 35.7050693], [-95.3387636, 35.7050531], [-95.3387979, 35.7049346], [-95.3388841, 35.704951], [-95.3388932, 35.7049193], [-95.3389934, 35.7049384], [-95.3389803, 35.7049838], [-95.3390683, 35.7050006], [-95.3390197, 35.7051687]]]}, "properties": {"osm_id": 851918400, "building": "yes", "name": "", "height": null, "height_m": null, "levels": null, "tract_id": "40101000901", "tract_name": "9.01", "tags": {"building": "yes"}}}, {"type": "Feature", "geometry": {"type": "Polygon", "coordinates": [[[-95.3389769, 35.7024544], [-95.3389757, 35.7023378], [-95.338854, 35.7023386], [-95.3388552, 35.7024552], [-95.3389769, 35.7024544]]]}, "properties": {"osm_id": 851918401, "building": "yes", "name": "", "height": null, "height_m": null, "levels": null, "tract_id": "40101000901", "tract_name": "9.01", "tags": {"building": "yes"}}}, {"type": "Feature", "geometry": {"type": "Polygon", "coordinates": [[[-95.3387887, 35.7023899], [-95.3387887, 35.7023237], [-95.3383766, 35.7023236], [-95.3383766, 35.7023899], [-95.3387887, 35.7023899]]]}, "properties": {"osm_id": 851918402, "building": "yes", "name": "", "height": null, "height_m": null, "levels": null, "tract_id": "40101000901", "tract_name": "9.01", "tags": {"building": "yes"}}}, {"type": "Feature", "geometry": {"type": "Polygon", "coordinates": [[[-95.3393971, 35.7020857], [-95.3393973, 35.7021725], [-95.3392239, 35.7021728], [-95.3392239, 35.7021888], [-95.339098, 35.7021891], [-95.3390976, 35.702065], [-95.3392097, 35.7020648], [-95.3392097, 35.702086], [-95.3393971, 35.7020857]]]}, "properties": {"osm_id": 851918403, "building": "yes", "name": "", "height": null, "height_m": null, "levels": null, "tract_id": "40101000901", "tract_name": "9.01", "tags": {"building": "yes"}}}, {"type": "Feature", "geometry": {"type": "Polygon", "coordinates": [[[-95.338598, 35.7109213], [-95.3387282, 35.7109188], [-95.3387241, 35.7107759], [-95.3385938, 35.7107785], [-95.338598, 35.7109213]]]}, "properties": {"osm_id": 851918405, "building": "yes", "name": "", "height": null, "height_m": null, "levels": null, "tract_id": "40101000901", "tract_name": "9.01", "tags": {"building": "yes"}}}, {"type": "Feature", "geometry": {"type": "Polygon", "coordinates": [[[-95.3388025, 35.7109253], [-95.3387469, 35.710926], [-95.3387451, 35.7108283], [-95.3388007, 35.7108276], [-95.3388025, 35.7109253]]]}, "properties": {"osm_id": 851918406, "building": "yes", "name": "", "height": null, "height_m": null, "levels": null, "tract_id": "40101000901", "tract_name": "9.01", "tags": {"building": "yes"}}}, {"type": "Feature", "geometry": {"type": "Polygon", "coordinates": [[[-95.3388053, 35.7107959], [-95.3387981, 35.7107085], [-95.3387017, 35.7107138], [-95.3387047, 35.7107503], [-95.3387259, 35.7107546], [-95.3387297, 35.7108], [-95.3388053, 35.7107959]]]}, "properties": {"osm_id": 851918407, "building": "yes", "name": "", "height": null, "height_m": null, "levels": null, "tract_id": "40101000901", "tract_name": "9.01", "tags": {"building": "yes"}}}, {"type": "Feature", "geometry": {"type": "Polygon", "coordinates": [[[-95.3252501, 35.7186297], [-95.3251948, 35.7185877], [-95.3251792, 35.7186012], [-95.3250812, 35.7185268], [-95.325096, 35.718514], [-95.3250245, 35.7184598], [-95.3251067, 35.7183883], [-95.325191, 35.7184522], [-95.3252101, 35.7184355], [-95.3253508, 35.7185422], [-95.3252501, 35.7186297]]]}, "properties": {"osm_id": 851921229, "building": "yes", "name": "", "height": null, "height_m": null, "levels": null, "tract_id": "40101000901", "tract_name": "9.01", "tags": {"building": "yes"}}}, {"type": "Feature", "geometry": {"type": "Polygon", "coordinates": [[[-95.3255993, 35.718695], [-95.3255322, 35.7187111], [-95.3255456, 35.7187479], [-95.3256128, 35.7187318], [-95.3255993, 35.718695]]]}, "properties": {"osm_id": 851921230, "building": "yes", "name": "", "height": null, "height_m": null, "levels": null, "tract_id": "40101000901", "tract_name": "9.01", "tags": {"building": "yes"}}}, {"type": "Feature", "geometry": {"type": "Polygon", "coordinates": [[[-95.3255785, 35.7186284], [-95.3255513, 35.718568], [-95.3255026, 35.7185825], [-95.3255298, 35.7186429], [-95.3255785, 35.7186284]]]}, "properties": {"osm_id": 851921231, "building": "yes", "name": "", "height": null, "height_m": null, "levels": null, "tract_id": "40101000901", "tract_name": "9.01", "tags": {"building": "yes"}}}, {"type": "Feature", "geometry": {"type": "Polygon", "coordinates": [[[-95.3271656, 35.7178792], [-95.3271628, 35.7177716], [-95.3270169, 35.717774], [-95.3270197, 35.7178816], [-95.3271656, 35.7178792]]]}, "properties": {"osm_id": 851921232, "building": "yes", "name": "", "height": null, "height_m": null, "levels": null, "tract_id": "40101000901", "tract_name": "9.01", "tags": {"building": "yes"}}}, {"type": "Feature", "geometry": {"type": "Polygon", "coordinates": [[[-95.3284113, 35.7193432], [-95.3284132, 35.719254], [-95.3283419, 35.719253], [-95.3283422, 35.719239], [-95.3282762, 35.7192381], [-95.3282758, 35.7192558], [-95.3282135, 35.719255], [-95.3282117, 35.7193404], [-95.3284113, 35.7193432]]]}, "properties": {"osm_id": 851921233, "building": "yes", "name": "", "height": null, "height_m": null, "levels": null, "tract_id": "40101000901", "tract_name": "9.01", "tags": {"building": "yes"}}}, {"type": "Feature", "geometry": {"type": "Polygon", "coordinates": [[[-95.3242994, 35.7192368], [-95.3243074, 35.7191606], [-95.3241075, 35.7191468], [-95.3240996, 35.719223], [-95.3242994, 35.7192368]]]}, "properties": {"osm_id": 851921235, "building": "yes", "name": "", "height": null, "height_m": null, "levels": null, "tract_id": "40101000901", "tract_name": "9.01", "tags": {"building": "yes"}}}, {"type": "Feature", "geometry": {"type": "Polygon", "coordinates": [[[-95.3238297, 35.7189868], [-95.3238313, 35.7188934], [-95.3236794, 35.7188916], [-95.3236778, 35.7189851], [-95.3238297, 35.7189868]]]}, "properties": {"osm_id": 851921236, "building": "yes", "name": "", "height": null, "height_m": null, "levels": null, "tract_id": "40101000901", "tract_name": "9.01", "tags": {"building": "yes"}}}, {"type": "Feature", "geometry": {"type": "Polygon", "coordinates": [[[-95.3235557, 35.7191438], [-95.3234733, 35.7191438], [-95.3234733, 35.7190854], [-95.3235557, 35.7190854], [-95.3235557, 35.7191438]]]}, "properties": {"osm_id": 851921237, "building": "yes", "name": "", "height": null, "height_m": null, "levels": null, "tract_id": "40101000901", "tract_name": "9.01", "tags": {"building": "yes"}}}, {"type": "Feature", "geometry": {"type": "Polygon", "coordinates": [[[-95.3233753, 35.7189755], [-95.3233742, 35.7188728], [-95.3231534, 35.7188743], [-95.3231544, 35.7189771], [-95.3233753, 35.7189755]]]}, "properties": {"osm_id": 851921238, "building": "yes", "name": "", "height": null, "height_m": null, "levels": null, "tract_id": "40101000901", "tract_name": "9.01", "tags": {"building": "yes"}}}, {"type": "Feature", "geometry": {"type": "Polygon", "coordinates": [[[-95.3275805, 35.7203944], [-95.3274392, 35.7202831], [-95.3273508, 35.7203571], [-95.327492, 35.7204684], [-95.3275805, 35.7203944]]]}, "properties": {"osm_id": 851926198, "building": "yes", "name": "", "height": null, "height_m": null, "levels": null, "tract_id": "40101000901", "tract_name": "9.01", "tags": {"building": "yes"}}}, {"type": "Feature", "geometry": {"type": "Polygon", "coordinates": [[[-95.3278449, 35.7203657], [-95.3278444, 35.7202141], [-95.3277683, 35.7202143], [-95.3277688, 35.7203659], [-95.3278449, 35.7203657]]]}, "properties": {"osm_id": 851926199, "building": "yes", "name": "", "height": null, "height_m": null, "levels": null, "tract_id": "40101000901", "tract_name": "9.01", "tags": {"building": "yes"}}}, {"type": "Feature", "geometry": {"type": "Polygon", "coordinates": [[[-95.3281888, 35.7204192], [-95.3281884, 35.7203809], [-95.3281562, 35.7203811], [-95.3281553, 35.7203029], [-95.3281871, 35.7203026], [-95.3281868, 35.7202708], [-95.3282489, 35.7202703], [-95.3282487, 35.7202532], [-95.3283308, 35.7202526], [-95.3283312, 35.7202863], [-95.328355, 35.7202861], [-95.3283552, 35.7203053], [-95.3284254, 35.7203048], [-95.3284266, 35.7204182], [-95.3283492, 35.7204187], [-95.3283494, 35.7204381], [-95.3282493, 35.7204388], [-95.3282491, 35.7204187], [-95.3281888, 35.7204192]]]}, "properties": {"osm_id": 851926200, "building": "yes", "name": "", "height": null, "height_m": null, "levels": null, "tract_id": "40101000901", "tract_name": "9.01", "tags": {"building": "yes"}}}, {"type": "Feature", "geometry": {"type": "Polygon", "coordinates": [[[-95.3281515, 35.7211368], [-95.328151, 35.7210236], [-95.3279938, 35.7210241], [-95.327994, 35.7210691], [-95.3279327, 35.7210693], [-95.327933, 35.721134], [-95.3280394, 35.7211336], [-95.3280395, 35.7211668], [-95.3280856, 35.7211666], [-95.3280855, 35.721137], [-95.3281515, 35.7211368]]]}, "properties": {"osm_id": 851926202, "building": "yes", "name": "", "height": null, "height_m": null, "levels": null, "tract_id": "40101000901", "tract_name": "9.01", "tags": {"building": "yes"}}}, {"type": "Feature", "geometry": {"type": "Polygon", "coordinates": [[[-95.3279471, 35.721485], [-95.3279471, 35.7213357], [-95.3278326, 35.7213357], [-95.3278326, 35.721485], [-95.3279471, 35.721485]]]}, "properties": {"osm_id": 851926203, "building": "yes", "name": "", "height": null, "height_m": null, "levels": null, "tract_id": "40101000901", "tract_name": "9.01", "tags": {"building": "yes"}}}, {"type": "Feature", "geometry": {"type": "Polygon", "coordinates": [[[-95.3279148, 35.7215626], [-95.3279163, 35.721503], [-95.3278399, 35.7215017], [-95.3278383, 35.7215613], [-95.3279148, 35.7215626]]]}, "properties": {"osm_id": 851926204, "building": "yes", "name": "", "height": null, "height_m": null, "levels": null, "tract_id": "40101000901", "tract_name": "9.01", "tags": {"building": "yes"}}}, {"type": "Feature", "geometry": {"type": "Polygon", "coordinates": [[[-95.3269975, 35.7218315], [-95.3268992, 35.7219301], [-95.3267202, 35.7218124], [-95.3268185, 35.7217138], [-95.3269975, 35.7218315]]]}, "properties": {"osm_id": 851926205, "building": "yes", "name": "", "height": null, "height_m": null, "levels": null, "tract_id": "40101000901", "tract_name": "9.01", "tags": {"building": "yes"}}}, {"type": "Feature", "geometry": {"type": "Polygon", "coordinates": [[[-95.3263624, 35.7209028], [-95.3262114, 35.7209031], [-95.3262119, 35.7211218], [-95.3264078, 35.7211215], [-95.3264077, 35.7210731], [-95.3263651, 35.7210732], [-95.3263648, 35.7209798], [-95.3263972, 35.7209797], [-95.326397, 35.7209274], [-95.3263625, 35.7209274], [-95.3263624, 35.7209028]]]}, "properties": {"osm_id": 851926206, "building": "yes", "name": "", "height": null, "height_m": null, "levels": null, "tract_id": "40101000901", "tract_name": "9.01", "tags": {"building": "yes"}}}, {"type": "Feature", "geometry": {"type": "Polygon", "coordinates": [[[-95.3263785, 35.7208725], [-95.3263752, 35.7206983], [-95.3260248, 35.7207028], [-95.3260282, 35.720877], [-95.3263785, 35.7208725]]]}, "properties": {"osm_id": 851926207, "building": "yes", "name": "", "height": null, "height_m": null, "levels": null, "tract_id": "40101000901", "tract_name": "9.01", "tags": {"building": "yes"}}}, {"type": "Feature", "geometry": {"type": "Polygon", "coordinates": [[[-95.32504, 35.7202421], [-95.32504, 35.720181], [-95.3249492, 35.720181], [-95.3249492, 35.7202421], [-95.32504, 35.7202421]]]}, "properties": {"osm_id": 851926208, "building": "yes", "name": "", "height": null, "height_m": null, "levels": null, "tract_id": "40101000901", "tract_name": "9.01", "tags": {"building": "yes"}}}, {"type": "Feature", "geometry": {"type": "Polygon", "coordinates": [[[-95.3249911, 35.7202566], [-95.3248899, 35.7202571], [-95.3248905, 35.7203256], [-95.3249917, 35.720325], [-95.3249911, 35.7202566]]]}, "properties": {"osm_id": 851926209, "building": "yes", "name": "", "height": null, "height_m": null, "levels": null, "tract_id": "40101000901", "tract_name": "9.01", "tags": {"building": "yes"}}}, {"type": "Feature", "geometry": {"type": "Polygon", "coordinates": [[[-95.3248829, 35.720505], [-95.3248759, 35.7203381], [-95.3247577, 35.7203414], [-95.3247605, 35.7204068], [-95.3247249, 35.7204078], [-95.3247282, 35.720487], [-95.3247791, 35.7204856], [-95.32478, 35.7205079], [-95.3248829, 35.720505]]]}, "properties": {"osm_id": 851926210, "building": "yes", "name": "", "height": null, "height_m": null, "levels": null, "tract_id": "40101000901", "tract_name": "9.01", "tags": {"building": "yes"}}}, {"type": "Feature", "geometry": {"type": "Polygon", "coordinates": [[[-95.3252934, 35.7211099], [-95.3252905, 35.7210061], [-95.325144, 35.7210088], [-95.3251469, 35.7211126], [-95.3252934, 35.7211099]]]}, "properties": {"osm_id": 851926211, "building": "yes", "name": "", "height": null, "height_m": null, "levels": null, "tract_id": "40101000901", "tract_name": "9.01", "tags": {"building": "yes"}}}, {"type": "Feature", "geometry": {"type": "Polygon", "coordinates": [[[-95.3248979, 35.7214541], [-95.3248979, 35.721499], [-95.325081, 35.721499], [-95.325081, 35.7212807], [-95.3248979, 35.7212807], [-95.3248979, 35.7213736], [-95.3248693, 35.7213736], [-95.3248693, 35.7214541], [-95.3248979, 35.7214541]]]}, "properties": {"osm_id": 851926212, "building": "yes", "name": "", "height": null, "height_m": null, "levels": null, "tract_id": "40101000901", "tract_name": "9.01", "tags": {"building": "yes"}}}, {"type": "Feature", "geometry": {"type": "Polygon", "coordinates": [[[-95.3239568, 35.7224123], [-95.3239549, 35.7223209], [-95.3238513, 35.7223223], [-95.3238532, 35.7224137], [-95.3239568, 35.7224123]]]}, "properties": {"osm_id": 851926213, "building": "yes", "name": "", "height": null, "height_m": null, "levels": null, "tract_id": "40101000901", "tract_name": "9.01", "tags": {"building": "yes"}}}, {"type": "Feature", "geometry": {"type": "Polygon", "coordinates": [[[-95.3237069, 35.7222698], [-95.323708, 35.7223698], [-95.3234293, 35.7223719], [-95.3234282, 35.7222718], [-95.3237069, 35.7222698]]]}, "properties": {"osm_id": 851926214, "building": "yes", "name": "", "height": null, "height_m": null, "levels": null, "tract_id": "40101000901", "tract_name": "9.01", "tags": {"building": "yes"}}}, {"type": "Feature", "geometry": {"type": "Polygon", "coordinates": [[[-95.3262207, 35.722404], [-95.3260717, 35.7223977], [-95.326068, 35.7224554], [-95.326217, 35.7224617], [-95.3262207, 35.722404]]]}, "properties": {"osm_id": 851926215, "building": "yes", "name": "", "height": null, "height_m": null, "levels": null, "tract_id": "40101000901", "tract_name": "9.01", "tags": {"building": "yes"}}}, {"type": "Feature", "geometry": {"type": "Polygon", "coordinates": [[[-95.3234297, 35.7022319], [-95.3234443, 35.7020086], [-95.3232979, 35.7020023], [-95.3232833, 35.7022256], [-95.3234297, 35.7022319]]]}, "properties": {"osm_id": 883425917, "building": "yes", "name": "", "height": null, "height_m": null, "levels": null, "tract_id": "40101000901", "tract_name": "9.01", "tags": {"building": "yes"}}}, {"type": "Feature", "geometry": {"type": "Polygon", "coordinates": [[[-95.3230751, 35.7023777], [-95.3229057, 35.7023781], [-95.3229054, 35.7022976], [-95.3230748, 35.7022972], [-95.3230751, 35.7023777]]]}, "properties": {"osm_id": 883425918, "building": "yes", "name": "", "height": null, "height_m": null, "levels": null, "tract_id": "40101000901", "tract_name": "9.01", "tags": {"building": "yes"}}}, {"type": "Feature", "geometry": {"type": "Polygon", "coordinates": [[[-95.3229766, 35.7032275], [-95.3229701, 35.7030058], [-95.3230656, 35.703004], [-95.3230686, 35.7031056], [-95.3231022, 35.703105], [-95.3231044, 35.7031797], [-95.3230651, 35.7031804], [-95.3230664, 35.7032258], [-95.3229766, 35.7032275]]]}, "properties": {"osm_id": 883425921, "building": "yes", "name": "", "height": null, "height_m": null, "levels": null, "tract_id": "40101000901", "tract_name": "9.01", "tags": {"building": "yes"}}}, {"type": "Feature", "geometry": {"type": "Polygon", "coordinates": [[[-95.3569449, 35.7145678], [-95.3563501, 35.7150762], [-95.3565849, 35.7152669], [-95.3565797, 35.7154067], [-95.3565223, 35.7154914], [-95.3565484, 35.7156566], [-95.3567362, 35.7157498], [-95.3564857, 35.7159404], [-95.356684, 35.7160845], [-95.3569293, 35.7158727], [-95.3569032, 35.7158345], [-95.3571119, 35.7156524], [-95.3571693, 35.715682], [-95.3571693, 35.715932], [-95.3573415, 35.7159362], [-95.3573415, 35.7157202], [-95.3575397, 35.7155126], [-95.357331, 35.7153346], [-95.3573728, 35.7149068], [-95.3569449, 35.7145678]]]}, "properties": {"osm_id": 1057392657, "building": "church", "name": "Muskogee First Assembly of God Church", "height": null, "height_m": null, "levels": null, "tract_id": "40101000901", "tract_name": "9.01", "tags": {"addr:city": "Muskogee", "addr:housenumber": "3100", "addr:postcode": "74403", "addr:state": "OK", "addr:street": "Gulick Street", "amenity": "place_of_worship", "building": "church", "denomination": "assemblies_of_god", "ele": "174", "gnis:feature_id": "1798883", "name": "Muskogee First Assembly of God Church", "phone": "+1-918-682-9000", "religion": "christian"}}}, {"type": "Feature", "geometry": {"type": "Polygon", "coordinates": [[[-95.34087, 35.725725], [-95.340866, 35.7253504], [-95.3406444, 35.7253487], [-95.3406444, 35.7257217], [-95.34087, 35.725725]]]}, "properties": {"osm_id": 1171583763, "building": "commercial", "name": "", "height": null, "height_m": null, "levels": null, "tract_id": "40101000901", "tract_name": "9.01", "tags": {"building": "commercial"}}}, {"type": "Feature", "geometry": {"type": "Polygon", "coordinates": [[[-95.3667286, 35.710839], [-95.3667578, 35.7107698], [-95.3667426, 35.7107631], [-95.3667858, 35.7106598], [-95.3666072, 35.7106039], [-95.3665827, 35.710657], [-95.3665546, 35.7106465], [-95.3665056, 35.7107518], [-95.3665453, 35.7107641], [-95.3665418, 35.7107793], [-95.3667286, 35.710839]]]}, "properties": {"osm_id": 1173132986, "building": "yes", "name": "Muskogee Fire Department", "height": null, "height_m": null, "levels": null, "tract_id": "40101000901", "tract_name": "9.01", "tags": {"addr:city": "Muskogee", "addr:housenumber": "513", "addr:postcode": "74403", "addr:state": "OK", "addr:street": "East Peak Boulevard", "amenity": "fire_station", "building": "yes", "name": "Muskogee Fire Department"}}}, {"type": "Feature", "geometry": {"type": "Polygon", "coordinates": [[[-95.3637371, 35.7013478], [-95.3634454, 35.7013478], [-95.3634454, 35.7011836], [-95.3637381, 35.7011828], [-95.3637371, 35.7013478]]]}, "properties": {"osm_id": 1173502132, "building": "yes", "name": "", "height": null, "height_m": null, "levels": null, "tract_id": "40101000901", "tract_name": "9.01", "tags": {"addr:city": "Muskogee", "addr:housenumber": "700", "addr:postcode": "74403", "addr:state": "OK", "addr:street": "East Smith Ferry Road", "building": "yes", "golf": "clubhouse"}}}, {"type": "Feature", "geometry": {"type": "Polygon", "coordinates": [[[-95.3640706, 35.7014984], [-95.3639772, 35.7012794], [-95.3641465, 35.701233], [-95.3642212, 35.7014112], [-95.3643041, 35.7013866], [-95.3643148, 35.7014092], [-95.3642286, 35.7014356], [-95.3642361, 35.7014541], [-95.3640706, 35.7014984]]]}, "properties": {"osm_id": 1173504402, "building": "yes", "name": "", "height": null, "height_m": null, "levels": null, "tract_id": "40101000901", "tract_name": "9.01", "tags": {"building": "yes"}}}, {"type": "Feature", "geometry": {"type": "Polygon", "coordinates": [[[-95.3398516, 35.7257338], [-95.3397213, 35.7257341], [-95.3397208, 35.7256201], [-95.3398566, 35.7256197], [-95.3398565, 35.7255927], [-95.3399737, 35.7255923], [-95.3399741, 35.7256857], [-95.3398607, 35.725686], [-95.3398606, 35.7256804], [-95.3398513, 35.7256804], [-95.3398516, 35.7257338]]]}, "properties": {"osm_id": 1175049407, "building": "yes", "name": "", "height": null, "height_m": null, "levels": null, "tract_id": "40101000901", "tract_name": "9.01", "tags": {"addr:city": "Muskogee", "addr:housenumber": "2401", "addr:postcode": "74403", "addr:state": "OK", "addr:street": "East Hancock Road", "building": "yes"}}}, {"type": "Feature", "geometry": {"type": "Polygon", "coordinates": [[[-95.3382368, 35.7257584], [-95.3382435, 35.72552], [-95.3383719, 35.7255224], [-95.3383734, 35.725471], [-95.3382452, 35.7254686], [-95.3382499, 35.7252979], [-95.3381581, 35.7252962], [-95.3381604, 35.7252163], [-95.3382535, 35.7252181], [-95.3382616, 35.7249337], [-95.338178, 35.7249321], [-95.3381788, 35.7249023], [-95.3380834, 35.7249005], [-95.3380825, 35.7249333], [-95.3380089, 35.7249318], [-95.3380006, 35.7252134], [-95.3380547, 35.7252145], [-95.3380525, 35.7252923], [-95.337846, 35.7252883], [-95.337843, 35.7253914], [-95.3377908, 35.7253904], [-95.3377931, 35.7253125], [-95.3377166, 35.725311], [-95.3377037, 35.7257492], [-95.3378694, 35.7257524], [-95.3378684, 35.7257858], [-95.3379114, 35.7257866], [-95.3379104, 35.7258213], [-95.3380452, 35.7258239], [-95.3380462, 35.7257888], [-95.3380885, 35.7257896], [-95.3380895, 35.7257557], [-95.3382368, 35.7257584]]]}, "properties": {"osm_id": 1422531338, "building": "yes", "name": "Southeast Baptist Church", "height": null, "height_m": null, "levels": null, "tract_id": "40101000901", "tract_name": "9.01", "tags": {"addr:city": "Muskogee", "addr:housenumber": "2511", "addr:postcode": "74403", "addr:state": "OK", "addr:street": "East Hancock Street", "amenity": "place_of_worship", "building": "yes", "denomination": "baptist", "ele": "171", "gnis:feature_id": "1799045", "layer": "1", "name": "Southeast Baptist Church", "religion": "christian"}}}, {"type": "Feature", "geometry": {"type": "Polygon", "coordinates": [[[-95.3416234, 35.7187232], [-95.3416186, 35.7183129], [-95.3416169, 35.7181629], [-95.3410705, 35.7181702], [-95.3410818, 35.718728], [-95.3416234, 35.7187232]]]}, "properties": {"osm_id": 1424666330, "building": "yes", "name": "Roughneck Supply", "height": null, "height_m": null, "levels": null, "tract_id": "40101000901", "tract_name": "9.01", "tags": {"addr:city": "Muskogee", "addr:housenumber": "2711", "addr:postcode": "74403", "addr:state": "OK", "addr:street": "South York Street", "building": "yes", "name": "Roughneck Supply", "shop": "wholesale"}}}, {"type": "Feature", "geometry": {"type": "Polygon", "coordinates": [[[-95.3424419, 35.7181592], [-95.3416169, 35.7181629], [-95.3416186, 35.7183129], [-95.3417065, 35.7183109], [-95.3416921, 35.71872], [-95.3424467, 35.7187162], [-95.3424419, 35.7181592]]]}, "properties": {"osm_id": 1424666331, "building": "warehouse", "name": "", "height": null, "height_m": null, "levels": null, "tract_id": "40101000901", "tract_name": "9.01", "tags": {"addr:city": "Muskogee", "addr:housenumber": "2420", "addr:postcode": "74403", "addr:state": "OK", "addr:street": "East 28th Street South", "building": "warehouse", "phone": "+1-918-686-6171"}}}, {"type": "Feature", "geometry": {"type": "Polygon", "coordinates": [[[-95.3416614, 35.717147], [-95.3415934, 35.7171109], [-95.3415706, 35.7171392], [-95.341533, 35.7171193], [-95.341512, 35.7171454], [-95.3414891, 35.7171333], [-95.3414383, 35.7171964], [-95.3414965, 35.7172273], [-95.3414886, 35.717237], [-95.341522, 35.7172548], [-95.341527, 35.7172486], [-95.3415674, 35.7172701], [-95.3415934, 35.7172379], [-95.3416112, 35.7172473], [-95.3416681, 35.7171767], [-95.3416467, 35.7171653], [-95.3416614, 35.717147]]]}, "properties": {"osm_id": 1424666332, "building": "yes", "name": "Hilldale Springs Townhomes", "height": null, "height_m": null, "levels": null, "tract_id": "40101000901", "tract_name": "9.01", "tags": {"addr:city": "Muskogee", "addr:housenumber": "2400", "addr:postcode": "74401", "addr:state": "OK", "addr:street": "Hilldale Springs Drive", "building": "yes", "name": "Hilldale Springs Townhomes", "office": "property_management", "phone": "+1-918-686-8004", "website": "https://www.muskogeecountycaf.com/multi-family-housing"}}}, {"type": "Feature", "geometry": {"type": "Polygon", "coordinates": [[[-95.3414515, 35.7176231], [-95.3414476, 35.7175256], [-95.3416865, 35.7175266], [-95.3416904, 35.7176241], [-95.3414515, 35.7176231]]]}, "properties": {"osm_id": 1424666333, "building": "apartments", "name": "", "height": null, "height_m": null, "levels": null, "tract_id": "40101000901", "tract_name": "9.01", "tags": {"addr:city": "Muskogee", "addr:housenumber": "2400", "addr:postcode": "74403", "addr:state": "OK", "addr:street": "Hilldale Springs Circle", "building": "apartments"}}}, {"type": "Feature", "geometry": {"type": "Polygon", "coordinates": [[[-95.3418602, 35.7176215], [-95.3418564, 35.717524], [-95.3420953, 35.7175251], [-95.3420991, 35.7176226], [-95.3418602, 35.7176215]]]}, "properties": {"osm_id": 1424666334, "building": "apartments", "name": "", "height": null, "height_m": null, "levels": null, "tract_id": "40101000901", "tract_name": "9.01", "tags": {"addr:city": "Muskogee", "addr:housenumber": "2410", "addr:postcode": "74403", "addr:state": "OK", "addr:street": "Hilldale Springs Circle", "building": "apartments"}}}, {"type": "Feature", "geometry": {"type": "Polygon", "coordinates": [[[-95.3423176, 35.7176651], [-95.3423137, 35.7175676], [-95.3425526, 35.7175686], [-95.3425564, 35.7176661], [-95.3423176, 35.7176651]]]}, "properties": {"osm_id": 1424666335, "building": "apartments", "name": "", "height": null, "height_m": null, "levels": null, "tract_id": "40101000901", "tract_name": "9.01", "tags": {"addr:city": "Muskogee", "addr:housenumber": "2420", "addr:postcode": "74403", "addr:state": "OK", "addr:street": "Hilldale Springs Circle", "building": "apartments"}}}, {"type": "Feature", "geometry": {"type": "Polygon", "coordinates": [[[-95.3418181, 35.7173166], [-95.3418143, 35.7172191], [-95.3420531, 35.7172202], [-95.342057, 35.7173176], [-95.3418181, 35.7173166]]]}, "properties": {"osm_id": 1424666336, "building": "apartments", "name": "", "height": null, "height_m": null, "levels": null, "tract_id": "40101000901", "tract_name": "9.01", "tags": {"addr:city": "Muskogee", "addr:housenumber": "2411", "addr:postcode": "74403", "addr:state": "OK", "addr:street": "Hilldale Springs Circle", "building": "apartments"}}}, {"type": "Feature", "geometry": {"type": "Polygon", "coordinates": [[[-95.3418986, 35.7170625], [-95.3418947, 35.716965], [-95.3421336, 35.7169661], [-95.3421374, 35.7170635], [-95.3418986, 35.7170625]]]}, "properties": {"osm_id": 1424666337, "building": "apartments", "name": "", "height": null, "height_m": null, "levels": null, "tract_id": "40101000901", "tract_name": "9.01", "tags": {"addr:city": "Muskogee", "addr:housenumber": "2471", "addr:postcode": "74403", "addr:state": "OK", "addr:street": "Hilldale Springs Circle", "building": "apartments"}}}, {"type": "Feature", "geometry": {"type": "Polygon", "coordinates": [[[-95.3418296, 35.7167659], [-95.3418258, 35.7166684], [-95.3420646, 35.7166694], [-95.3420685, 35.7167669], [-95.3418296, 35.7167659]]]}, "properties": {"osm_id": 1424666338, "building": "apartments", "name": "", "height": null, "height_m": null, "levels": null, "tract_id": "40101000901", "tract_name": "9.01", "tags": {"addr:city": "Muskogee", "addr:housenumber": "2470", "addr:postcode": "74403", "addr:state": "OK", "addr:street": "Hilldale Springs Circle", "building": "apartments"}}}, {"type": "Feature", "geometry": {"type": "Polygon", "coordinates": [[[-95.3423444, 35.7167628], [-95.3423405, 35.7166653], [-95.3425794, 35.7166663], [-95.3425832, 35.7167638], [-95.3423444, 35.7167628]]]}, "properties": {"osm_id": 1424666339, "building": "apartments", "name": "", "height": null, "height_m": null, "levels": null, "tract_id": "40101000901", "tract_name": "9.01", "tags": {"addr:city": "Muskogee", "addr:housenumber": "2460", "addr:postcode": "74403", "addr:state": "OK", "addr:street": "Hilldale Springs Circle", "building": "apartments"}}}, {"type": "Feature", "geometry": {"type": "Polygon", "coordinates": [[[-95.3429866, 35.7168925], [-95.3428665, 35.7168944], [-95.342862, 35.7167005], [-95.3429821, 35.7166986], [-95.3429866, 35.7168925]]]}, "properties": {"osm_id": 1424666340, "building": "apartments", "name": "", "height": null, "height_m": null, "levels": null, "tract_id": "40101000901", "tract_name": "9.01", "tags": {"addr:city": "Muskogee", "addr:housenumber": "2450", "addr:postcode": "74403", "addr:state": "OK", "addr:street": "Hilldale Springs Circle", "building": "apartments"}}}, {"type": "Feature", "geometry": {"type": "Polygon", "coordinates": [[[-95.342984, 35.7172327], [-95.342864, 35.7172345], [-95.3428595, 35.7170406], [-95.3429796, 35.7170388], [-95.342984, 35.7172327]]]}, "properties": {"osm_id": 1424666341, "building": "apartments", "name": "", "height": null, "height_m": null, "levels": null, "tract_id": "40101000901", "tract_name": "9.01", "tags": {"addr:city": "Muskogee", "addr:housenumber": "2440", "addr:postcode": "74403", "addr:state": "OK", "addr:street": "Hilldale Springs Circle", "building": "apartments"}}}, {"type": "Feature", "geometry": {"type": "Polygon", "coordinates": [[[-95.3425944, 35.7172576], [-95.3424744, 35.7172594], [-95.3424699, 35.7170655], [-95.34259, 35.7170637], [-95.3425944, 35.7172576]]]}, "properties": {"osm_id": 1424666342, "building": "apartments", "name": "", "height": null, "height_m": null, "levels": null, "tract_id": "40101000901", "tract_name": "9.01", "tags": {"addr:city": "Muskogee", "addr:housenumber": "2441", "addr:postcode": "74403", "addr:state": "OK", "addr:street": "Hilldale Springs Circle", "building": "apartments"}}}, {"type": "Feature", "geometry": {"type": "Polygon", "coordinates": [[[-95.342861, 35.7175789], [-95.3427579, 35.7175289], [-95.3428803, 35.7173624], [-95.3429834, 35.7174123], [-95.342861, 35.7175789]]]}, "properties": {"osm_id": 1424666343, "building": "apartments", "name": "", "height": null, "height_m": null, "levels": null, "tract_id": "40101000901", "tract_name": "9.01", "tags": {"addr:city": "Muskogee", "addr:housenumber": "2430", "addr:postcode": "74403", "addr:state": "OK", "addr:street": "Hilldale Springs Circle", "building": "apartments"}}}, {"type": "Feature", "geometry": {"type": "Polygon", "coordinates": [[[-95.3673403, 35.7122324], [-95.3673423, 35.7118965], [-95.3669915, 35.7118949], [-95.3669915, 35.7120496], [-95.3669185, 35.7120496], [-95.3669206, 35.7121056], [-95.3669915, 35.7121056], [-95.3669936, 35.712234], [-95.3673403, 35.7122324]]]}, "properties": {"osm_id": 1424666355, "building": "yes", "name": "Eastside Community Church", "height": null, "height_m": null, "levels": null, "tract_id": "40101000901", "tract_name": "9.01", "tags": {"addr:city": "Muskogee", "addr:housenumber": "500", "addr:postcode": "74403", "addr:state": "OK", "addr:street": "East Peak Boulevard", "amenity": "place_of_worship", "building": "yes", "ele": "177", "gnis:feature_id": "1798878", "name": "Eastside Community Church", "religion": "christian"}}}, {"type": "Feature", "geometry": {"type": "Polygon", "coordinates": [[[-95.337959, 35.7165483], [-95.3378016, 35.7166003], [-95.3378384, 35.7166737], [-95.3377421, 35.7167055], [-95.3377042, 35.7166299], [-95.3375748, 35.7166727], [-95.3374174, 35.7163588], [-95.337551, 35.7163146], [-95.3375097, 35.7162323], [-95.3376005, 35.7162023], [-95.3376459, 35.7162929], [-95.3378047, 35.7162404], [-95.337959, 35.7165483]]]}, "properties": {"osm_id": 1427784549, "building": "church", "name": "Muskogee Church of the Nazarene", "height": null, "height_m": null, "levels": null, "tract_id": "40101000901", "tract_name": "9.01", "tags": {"addr:city": "Muskogee", "addr:housenumber": "2700", "addr:postcode": "74403", "addr:state": "OK", "addr:street": "East Peak Boulevard", "amenity": "place_of_worship", "building": "church", "denomination": "nazarene", "email": "Musknaz@gmail.com", "layer": "1", "name": "Muskogee Church of the Nazarene", "phone": "+1-918-682-2592", "religion": "christian", "service_times": "Su 10:30-11:45", "website": "https://www.muskogee.church/"}}}, {"type": "Feature", "geometry": {"type": "Polygon", "coordinates": [[[-95.3743456, 35.7129882], [-95.3741958, 35.7129109], [-95.3741039, 35.7130283], [-95.3742537, 35.7131056], [-95.3743456, 35.7129882]]]}, "properties": {"osm_id": 1433115301, "building": "yes", "name": "7 Express", "height": null, "height_m": null, "levels": null, "tract_id": "40101000901", "tract_name": "9.01", "tags": {"addr:city": "Muskogee", "addr:housenumber": "3225", "addr:postcode": "74403", "addr:state": "OK", "addr:street": "South Cherokee Drive", "building": "yes", "name": "7 Express", "shop": "convenience"}}}, {"type": "Feature", "geometry": {"type": "Polygon", "coordinates": [[[-95.3754525, 35.7120624], [-95.3753934, 35.7119628], [-95.3754153, 35.7119557], [-95.3753989, 35.7119281], [-95.3750923, 35.7120428], [-95.3751076, 35.7120695], [-95.3751229, 35.7120651], [-95.3751799, 35.7121629], [-95.3754525, 35.7120624]]]}, "properties": {"osm_id": 1433115303, "building": "yes", "name": "Casey's General Store", "height": null, "height_m": null, "levels": null, "tract_id": "40101000901", "tract_name": "9.01", "tags": {"addr:city": "Muskogee", "addr:housenumber": "76", "addr:postcode": "74403", "addr:state": "OK", "addr:street": "East Peak Boulevard", "brand": "Casey's General Store", "brand:wikidata": "Q2940968", "building": "yes", "name": "Casey's General Store", "shop": "convenience"}}}, {"type": "Feature", "geometry": {"type": "Polygon", "coordinates": [[[-95.3758572, 35.7122445], [-95.3758537, 35.7119565], [-95.3755599, 35.7119509], [-95.3755599, 35.712243], [-95.3758572, 35.7122445]]]}, "properties": {"osm_id": 1433115305, "building": "retail", "name": "", "height": null, "height_m": null, "levels": null, "tract_id": "40101000901", "tract_name": "9.01", "tags": {"building": "retail"}}}, {"type": "Feature", "geometry": {"type": "Polygon", "coordinates": [[[-95.376727, 35.7120642], [-95.3767263, 35.7119599], [-95.3765928, 35.7119605], [-95.3765929, 35.7119736], [-95.376368, 35.7119746], [-95.3763685, 35.7120492], [-95.3765942, 35.7120481], [-95.3765943, 35.7120648], [-95.376727, 35.7120642]]]}, "properties": {"osm_id": 1433115306, "building": "yes", "name": "", "height": null, "height_m": null, "levels": null, "tract_id": "40101000901", "tract_name": "9.01", "tags": {"addr:city": "Muskogee", "addr:housenumber": "40", "addr:postcode": "74403", "addr:state": "OK", "addr:street": "East Peak Boulevard", "amenity": "car_wash", "building": "yes"}}}, {"type": "Feature", "geometry": {"type": "Polygon", "coordinates": [[[-95.3742878, 35.7121059], [-95.3743787, 35.7120152], [-95.3743327, 35.7119797], [-95.3742889, 35.711977], [-95.3742067, 35.7120579], [-95.3742878, 35.7121059]]]}, "properties": {"osm_id": 1433115308, "building": "yes", "name": "Boomarang Diner", "height": null, "height_m": null, "levels": null, "tract_id": "40101000901", "tract_name": "9.01", "tags": {"addr:city": "Muskogee", "addr:housenumber": "3244", "addr:postcode": "74403", "addr:state": "OK", "addr:street": "South Cherokee Drive", "amenity": "restaurant", "building": "yes", "cuisine": "american", "name": "Boomarang Diner"}}}, {"type": "Feature", "geometry": {"type": "Polygon", "coordinates": [[[-95.3757881, 35.7133183], [-95.3758326, 35.7132646], [-95.3744455, 35.712518], [-95.3744072, 35.7125646], [-95.3757881, 35.7133183]]]}, "properties": {"osm_id": 1433115309, "building": "yes", "name": "", "height": null, "height_m": null, "levels": null, "tract_id": "40101000901", "tract_name": "9.01", "tags": {"building": "yes", "shop": "storage_rental"}}}, {"type": "Feature", "geometry": {"type": "Polygon", "coordinates": [[[-95.3758421, 35.7132018], [-95.3759087, 35.7131198], [-95.3745245, 35.7123785], [-95.3744578, 35.7124607], [-95.3758421, 35.7132018]]]}, "properties": {"osm_id": 1433115310, "building": "yes", "name": "", "height": null, "height_m": null, "levels": null, "tract_id": "40101000901", "tract_name": "9.01", "tags": {"building": "yes", "shop": "storage_rental"}}}, {"type": "Feature", "geometry": {"type": "Polygon", "coordinates": [[[-95.3759178, 35.7130572], [-95.3759891, 35.712964], [-95.3751425, 35.7125067], [-95.3750695, 35.7126027], [-95.3759178, 35.7130572]]]}, "properties": {"osm_id": 1433115311, "building": "yes", "name": "", "height": null, "height_m": null, "levels": null, "tract_id": "40101000901", "tract_name": "9.01", "tags": {"building": "yes", "shop": "storage_rental"}}}]}