{"type": "FeatureCollection", "features": [{"type": "Feature", "geometry": {"type": "Polygon", "coordinates": [[[-95.9767896, 36.0153], [-95.9766652, 36.0153], [-95.9766652, 36.0149694], [-95.9767896, 36.0149694], [-95.9767896, 36.0153]]]}, "properties": {"osm_id": 144184080, "building": "retail", "name": "QuikTrip", "height": null, "height_m": null, "levels": null, "tract_id": "40143006703", "tract_name": "67.03", "tags": {"addr:city": "Jenks", "addr:housenumber": "712", "addr:postcode": "74037", "addr:state": "OK", "addr:street": "South Elm Street", "amenity": "fuel", "brand": "QuikTrip", "brand:wikidata": "Q7271953", "building": "retail", "name": "QuikTrip", "opening_hours": "24/7", "short_name": "QT"}}}, {"type": "Feature", "geometry": {"type": "Polygon", "coordinates": [[[-95.9764486, 36.0153046], [-95.9762546, 36.0153031], [-95.9762584, 36.0149816], [-95.9764523, 36.0149831], [-95.9764486, 36.0153046]]]}, "properties": {"osm_id": 144184081, "building": "retail", "name": "QuikTrip", "height": null, "height_m": null, "levels": null, "tract_id": "40143006703", "tract_name": "67.03", "tags": {"addr:city": "Jenks", "addr:housenumber": "712", "addr:postcode": "74037", "addr:state": "OK", "addr:street": "South Elm Street", "amenity": "fuel", "brand": "QuikTrip", "brand:wikidata": "Q7271953", "building": "retail", "fuel:e10": "yes", "name": "QuikTrip", "shop": "convenience", "short_name": "QT"}}}, {"type": "Feature", "geometry": {"type": "Polygon", "coordinates": [[[-95.9665888, 36.0321662], [-95.9664385, 36.0321691], [-95.9664361, 36.032087], [-95.9665865, 36.0320841], [-95.9665888, 36.0321662]]]}, "properties": {"osm_id": 180143822, "building": "yes", "name": "", "height": null, "height_m": null, "levels": null, "tract_id": "40143006703", "tract_name": "67.03", "tags": {"addr:city": "Jenks", "addr:housenumber": "353", "addr:postcode": "74037", "addr:state": "OK", "addr:street": "East K Place", "building": "yes"}}}, {"type": "Feature", "geometry": {"type": "Polygon", "coordinates": [[[-95.9764757, 36.0180851], [-95.9763117, 36.0180846], [-95.9763131, 36.0177662], [-95.9764771, 36.0177667], [-95.9764757, 36.0180851]]]}, "properties": {"osm_id": 196802787, "building": "roof", "name": "Kum & Go", "height": null, "height_m": null, "levels": null, "tract_id": "40143006703", "tract_name": "67.03", "tags": {"addr:city": "Jenks", "addr:country": "US", "addr:housenumber": "510", "addr:postcode": "74037", "addr:state": "OK", "addr:street": "South Elm Street", "amenity": "fuel", "brand": "Kum & Go", "brand:wikidata": "Q6443340", "building": "roof", "fuel:diesel": "yes", "fuel:e10": "yes", "layer": "1", "name": "Kum & Go", "opening_hours": "24/7", "website": "https://www.kumandgo.com/store-locator?details=0875"}}}, {"type": "Feature", "geometry": {"type": "Polygon", "coordinates": [[[-95.9768675, 36.0180736], [-95.9767132, 36.0180722], [-95.9767173, 36.0177803], [-95.9768715, 36.0177817], [-95.9768675, 36.0180736]]]}, "properties": {"osm_id": 196802788, "building": "yes", "name": "Kum & Go", "height": null, "height_m": null, "levels": null, "tract_id": "40143006703", "tract_name": "67.03", "tags": {"addr:city": "Jenks", "addr:country": "US", "addr:housenumber": "510", "addr:postcode": "74037", "addr:state": "OK", "addr:street": "South Elm Street", "brand": "Kum & Go", "brand:wikidata": "Q6443340", "building": "yes", "name": "Kum & Go", "opening_hours": "24/7", "shop": "convenience", "website": "https://www.kumandgo.com/store-locator?details=0875"}}}, {"type": "Feature", "geometry": {"type": "Polygon", "coordinates": [[[-95.9831027, 36.0244275], [-95.9832548, 36.0244269], [-95.9832548, 36.0244119], [-95.9833441, 36.0244116], [-95.9833452, 36.0245847], [-95.9832561, 36.0245851], [-95.9832558, 36.0245309], [-95.9832235, 36.024531], [-95.9832233, 36.0245123], [-95.9831033, 36.0245128], [-95.9831027, 36.0244275]]]}, "properties": {"osm_id": 233051863, "building": "house", "name": "Protos, Incorporated", "height": null, "height_m": null, "levels": null, "tract_id": "40143006703", "tract_name": "67.03", "tags": {"addr:city": "Jenks", "addr:country": "US", "addr:housenumber": "1022", "addr:postcode": "74037", "addr:state": "OK", "addr:street": "West Main Street South", "building": "house", "name": "Protos, Incorporated"}}}, {"type": "Feature", "geometry": {"type": "Polygon", "coordinates": [[[-95.9721543, 36.022294], [-95.9722595, 36.022295], [-95.9722577, 36.0224167], [-95.972251, 36.0224167], [-95.9722507, 36.0224375], [-95.9721601, 36.0224366], [-95.9721604, 36.0224158], [-95.9721525, 36.0224157], [-95.9721543, 36.022294]]]}, "properties": {"osm_id": 235399785, "building": "house", "name": "Brian D Wiggs Signature Homes", "height": null, "height_m": null, "levels": null, "tract_id": "40143006703", "tract_name": "67.03", "tags": {"addr:city": "Jenks", "addr:country": "US", "addr:housenumber": "302", "addr:postcode": "74037", "addr:state": "OK", "addr:street": "West Main Street", "building": "house", "name": "Brian D Wiggs Signature Homes"}}}, {"type": "Feature", "geometry": {"type": "Polygon", "coordinates": [[[-95.9722129, 36.0222549], [-95.9722138, 36.0221995], [-95.9722818, 36.0222002], [-95.972281, 36.0222556], [-95.9722129, 36.0222549]]]}, "properties": {"osm_id": 235399786, "building": "garage", "name": "", "height": null, "height_m": null, "levels": null, "tract_id": "40143006703", "tract_name": "67.03", "tags": {"addr:city": "Jenks", "addr:country": "US", "addr:housenumber": "302", "addr:postcode": "74037", "addr:state": "OK", "addr:street": "West Main Street", "building": "garage"}}}, {"type": "Feature", "geometry": {"type": "Polygon", "coordinates": [[[-95.9713819, 36.0271692], [-95.9709038, 36.0275701], [-95.9708736, 36.0275575], [-95.9708307, 36.0275922], [-95.9708307, 36.027692], [-95.9708461, 36.0276991], [-95.9710935, 36.0278937], [-95.9714898, 36.0275798], [-95.9715227, 36.0275683], [-95.9717151, 36.0274193], [-95.971412, 36.0271677], [-95.9713819, 36.0271692]]]}, "properties": {"osm_id": 238977397, "building": "yes", "name": "Preforming Arts Center", "height": null, "height_m": null, "levels": null, "tract_id": "40143006703", "tract_name": "67.03", "tags": {"building": "yes", "name": "Preforming Arts Center"}}}, {"type": "Feature", "geometry": {"type": "Polygon", "coordinates": [[[-95.9718177, 36.0275358], [-95.9718204, 36.0274946], [-95.9717151, 36.0274193], [-95.9715227, 36.0275683], [-95.9714898, 36.0275798], [-95.9710935, 36.0278937], [-95.9708461, 36.0276991], [-95.9707902, 36.0277031], [-95.9707285, 36.0277074], [-95.9707019, 36.0277093], [-95.9706986, 36.027736], [-95.9706644, 36.0277354], [-95.9703103, 36.0274555], [-95.9699804, 36.0277115], [-95.970313, 36.0279805], [-95.9702721, 36.0280158], [-95.9699073, 36.0277317], [-95.9698332, 36.0277915], [-95.9697792, 36.0278351], [-95.9697846, 36.0278785], [-95.9700636, 36.0280998], [-95.9700931, 36.0280759], [-95.9701138, 36.0281004], [-95.9701467, 36.0280673], [-95.9702755, 36.0280673], [-95.9703801, 36.0279827], [-95.9710581, 36.0279838], [-95.9711573, 36.0279788], [-95.9711787, 36.027966], [-95.9712055, 36.0279833], [-95.9714676, 36.0277593], [-95.9715536, 36.0276858], [-95.9715844, 36.0276594], [-95.9716809, 36.0276616], [-95.9718177, 36.0275358]]]}, "properties": {"osm_id": 238977398, "building": "yes", "name": "Building 5", "height": null, "height_m": null, "levels": null, "tract_id": "40143006703", "tract_name": "67.03", "tags": {"building": "yes", "name": "Building 5"}}}, {"type": "Feature", "geometry": {"type": "Polygon", "coordinates": [[[-95.9720452, 36.028153], [-95.9717324, 36.0281586], [-95.9715536, 36.0276858], [-95.9715844, 36.0276594], [-95.9716076, 36.0277117], [-95.9716275, 36.0277563], [-95.9720564, 36.0276074], [-95.9720263, 36.0275299], [-95.9722147, 36.0274772], [-95.9723611, 36.027854], [-95.9724381, 36.0278277], [-95.9725533, 36.0281447], [-95.9720452, 36.028153]]]}, "properties": {"osm_id": 238977400, "building": "yes", "name": "Music Building", "height": null, "height_m": null, "levels": null, "tract_id": "40143006703", "tract_name": "67.03", "tags": {"building": "yes", "name": "Music Building"}}}, {"type": "Feature", "geometry": {"type": "Polygon", "coordinates": [[[-95.9673203, 36.0261905], [-95.9675899, 36.0261927], [-95.9675885, 36.0262163], [-95.9677154, 36.0262149], [-95.9677134, 36.0261898], [-95.9679527, 36.0261865], [-95.9679606, 36.0259794], [-95.967319, 36.0259822], [-95.9673203, 36.0261905]]]}, "properties": {"osm_id": 238977401, "building": "yes", "name": "Sharp Center", "height": null, "height_m": null, "levels": null, "tract_id": "40143006703", "tract_name": "67.03", "tags": {"building": "yes", "name": "Sharp Center"}}}, {"type": "Feature", "geometry": {"type": "Polygon", "coordinates": [[[-95.9712491, 36.0262082], [-95.9706885, 36.0263991], [-95.9708019, 36.0266193], [-95.970701, 36.0266434], [-95.9707321, 36.0267092], [-95.9708323, 36.0266781], [-95.970997, 36.0269978], [-95.9710157, 36.0270195], [-95.9707931, 36.0272148], [-95.9710211, 36.0274013], [-95.9712813, 36.0271844], [-95.9713879, 36.0270874], [-95.9712592, 36.026992], [-95.9712276, 36.0269718], [-95.9712545, 36.0269176], [-95.9715837, 36.0268076], [-95.9712491, 36.0262082]]]}, "properties": {"osm_id": 238977402, "building": "yes", "name": "Jenks Trojan Aquatic Center", "height": null, "height_m": null, "levels": null, "tract_id": "40143006703", "tract_name": "67.03", "tags": {"building": "yes", "leisure": "sports_centre", "name": "Jenks Trojan Aquatic Center", "sport": "swimming"}}}, {"type": "Feature", "geometry": {"type": "Polygon", "coordinates": [[[-95.9676603, 36.0277636], [-95.9674377, 36.0277614], [-95.9674457, 36.0273558], [-95.9669978, 36.0273492], [-95.9670052, 36.0270592], [-95.9671212, 36.0270621], [-95.9674189, 36.0270694], [-95.9674162, 36.0269935], [-95.9671802, 36.0269913], [-95.9671839, 36.0268814], [-95.9671901, 36.026697], [-95.9671936, 36.0265944], [-95.9675711, 36.0266189], [-95.9675691, 36.0266508], [-95.9676176, 36.0266548], [-95.9676543, 36.0266579], [-95.967716, 36.0266731], [-95.9677857, 36.0266991], [-95.9678641, 36.0267462], [-95.9679064, 36.0267989], [-95.9678259, 36.0268488], [-95.9678722, 36.0269241], [-95.9677274, 36.0269588], [-95.9677274, 36.0270043], [-95.9677113, 36.0270022], [-95.9677113, 36.0270738], [-95.9680593, 36.0270744], [-95.9680465, 36.0273688], [-95.9676683, 36.0273666], [-95.9676603, 36.0277636]]]}, "properties": {"osm_id": 238977403, "building": "yes", "name": "Jenks Freshman Academy", "height": null, "height_m": null, "levels": null, "tract_id": "40143006703", "tract_name": "67.03", "tags": {"amenity": "school", "building": "yes", "name": "Jenks Freshman Academy"}}}, {"type": "Feature", "geometry": {"type": "Polygon", "coordinates": [[[-95.9685776, 36.0271692], [-95.9685508, 36.0271432], [-95.9681994, 36.0271345], [-95.9681672, 36.0271692], [-95.9681648, 36.0274237], [-95.9681646, 36.0274404], [-95.9681243, 36.0274816], [-95.9680975, 36.0274729], [-95.9680941, 36.0275712], [-95.9680465, 36.0276074], [-95.9680439, 36.0277289], [-95.9680915, 36.0277816], [-95.9681646, 36.0277831], [-95.9681672, 36.027885], [-95.9685588, 36.0278894], [-95.9685582, 36.0277924], [-95.9686252, 36.0277924], [-95.9686795, 36.0277462], [-95.9686849, 36.0276161], [-95.968636, 36.0275798], [-95.9686366, 36.0274881], [-95.9686071, 36.0274816], [-95.9685696, 36.0274512], [-95.9685701, 36.0274323], [-95.9685776, 36.0271692]]]}, "properties": {"osm_id": 238977404, "building": "yes", "name": "Physical Education Gym", "height": null, "height_m": null, "levels": null, "tract_id": "40143006703", "tract_name": "67.03", "tags": {"alt_name": "PEG", "building": "yes", "leisure": "sports_centre", "name": "Physical Education Gym"}}}, {"type": "Feature", "geometry": {"type": "Polygon", "coordinates": [[[-95.9701494, 36.026961], [-95.9704605, 36.0267028], [-95.9705785, 36.0267961], [-95.9706771, 36.0267143], [-95.9707321, 36.0267092], [-95.9708323, 36.0266781], [-95.970997, 36.0269978], [-95.9710157, 36.0270195], [-95.9707931, 36.0272148], [-95.9710211, 36.0274013], [-95.9709406, 36.0274707], [-95.9708971, 36.0274388], [-95.9707261, 36.0275814], [-95.9705269, 36.0274215], [-95.9701655, 36.027141], [-95.9702694, 36.0270614], [-95.9701494, 36.026961]]]}, "properties": {"osm_id": 238977407, "building": "yes", "name": "Trojan Activity Center", "height": null, "height_m": null, "levels": null, "tract_id": "40143006703", "tract_name": "67.03", "tags": {"alt_name": "Frank Harold Gymnasium", "building": "yes", "leisure": "sports_centre", "name": "Trojan Activity Center"}}}, {"type": "Feature", "geometry": {"type": "Polygon", "coordinates": [[[-95.9711606, 36.0280215], [-95.9711573, 36.0279788], [-95.9710581, 36.0279838], [-95.9710614, 36.0280265], [-95.9711606, 36.0280215]]]}, "properties": {"osm_id": 238977411, "building": "roof", "name": "", "height": null, "height_m": null, "levels": null, "tract_id": "40143006703", "tract_name": "67.03", "tags": {"building": "roof"}}}, {"type": "Feature", "geometry": {"type": "Polygon", "coordinates": [[[-95.9681605, 36.0263113], [-95.9681567, 36.02617], [-95.9679837, 36.0261731], [-95.9679842, 36.0261909], [-95.9679875, 36.0263144], [-95.9681605, 36.0263113]]]}, "properties": {"osm_id": 238982334, "building": "yes", "name": "Information Technology", "height": null, "height_m": null, "levels": null, "tract_id": "40143006703", "tract_name": "67.03", "tags": {"building": "yes", "name": "Information Technology"}}}, {"type": "Feature", "geometry": {"type": "Polygon", "coordinates": [[[-95.9679934, 36.0240391], [-95.9679923, 36.023743], [-95.9672902, 36.0237448], [-95.9672913, 36.0240409], [-95.9679934, 36.0240391]]]}, "properties": {"osm_id": 238982335, "building": "yes", "name": "Jenks Public Schools Education Service Center", "height": null, "height_m": null, "levels": null, "tract_id": "40143006703", "tract_name": "67.03", "tags": {"building": "yes", "name": "Jenks Public Schools Education Service Center"}}}, {"type": "Feature", "geometry": {"type": "Polygon", "coordinates": [[[-95.966907, 36.0248625], [-95.9669063, 36.0247638], [-95.9671982, 36.0247626], [-95.9671988, 36.0248613], [-95.9670354, 36.024862], [-95.966907, 36.0248625]]]}, "properties": {"osm_id": 238982336, "building": "yes", "name": "Jenks Public Schools Campus Police", "height": null, "height_m": null, "levels": null, "tract_id": "40143006703", "tract_name": "67.03", "tags": {"amenity": "police", "building": "yes", "name": "Jenks Public Schools Campus Police"}}}, {"type": "Feature", "geometry": {"type": "Polygon", "coordinates": [[[-95.9690899, 36.0259132], [-95.9689317, 36.0259132], [-95.9687493, 36.0259132], [-95.9687527, 36.0264872], [-95.9687841, 36.0264881], [-95.9687849, 36.0265241], [-95.9687224, 36.026525], [-95.9687197, 36.0266265], [-95.9687707, 36.0266226], [-95.9687707, 36.0266638], [-95.9687385, 36.0266638], [-95.9687385, 36.0268872], [-95.9690845, 36.0268872], [-95.9690845, 36.0266269], [-95.9691435, 36.0266291], [-95.9691418, 36.0265294], [-95.9690818, 36.0265293], [-95.9690899, 36.0259132]]]}, "properties": {"osm_id": 238982337, "building": "yes", "name": "Dr. Kirby A. Lehman Center for the Study of Math and Science", "height": null, "height_m": null, "levels": null, "tract_id": "40143006703", "tract_name": "67.03", "tags": {"alt_name": "Math and Science Center", "building": "yes", "name": "Dr. Kirby A. Lehman Center for the Study of Math and Science"}}}, {"type": "Feature", "geometry": {"type": "Polygon", "coordinates": [[[-95.9693097, 36.0257201], [-95.9690953, 36.025718], [-95.9691033, 36.0253232], [-95.9690604, 36.0253601], [-95.9687814, 36.0253557], [-95.9687385, 36.0253189], [-95.9687366, 36.0256933], [-95.9685239, 36.025692], [-95.9685266, 36.0251345], [-95.9693232, 36.0251453], [-95.9693097, 36.0257201]]]}, "properties": {"osm_id": 238982338, "building": "yes", "name": "Jenks Alternative Center", "height": null, "height_m": null, "levels": null, "tract_id": "40143006703", "tract_name": "67.03", "tags": {"amenity": "school", "building": "yes", "name": "Jenks Alternative Center"}}}, {"type": "Feature", "geometry": {"type": "Polygon", "coordinates": [[[-95.9699994, 36.0253814], [-95.9700262, 36.0253729], [-95.9700941, 36.0255123], [-95.969858, 36.0255875], [-95.9698934, 36.0256601], [-95.9699357, 36.025747], [-95.9702118, 36.0256591], [-95.9702553, 36.0257485], [-95.9699333, 36.0258511], [-95.9699789, 36.0259448], [-95.9700731, 36.0261382], [-95.9700054, 36.0261598], [-95.9701585, 36.0264742], [-95.9705399, 36.0263527], [-95.970391, 36.026047], [-95.9704909, 36.0260152], [-95.9704351, 36.0259007], [-95.9704794, 36.0258866], [-95.9706569, 36.0258301], [-95.9706731, 36.0258634], [-95.9706926, 36.0258572], [-95.9707352, 36.0258437], [-95.9707495, 36.025873], [-95.9707952, 36.0258584], [-95.9708205, 36.0259104], [-95.9707544, 36.0259315], [-95.9708432, 36.0261137], [-95.9713032, 36.0259671], [-95.971215, 36.025786], [-95.9708841, 36.0258914], [-95.9708564, 36.0258347], [-95.9711844, 36.0257302], [-95.9710938, 36.0255442], [-95.9707886, 36.0256415], [-95.9708007, 36.0256663], [-95.9707339, 36.0256875], [-95.970649, 36.0255132], [-95.9710177, 36.0253957], [-95.9709396, 36.0252353], [-95.9704499, 36.0253913], [-95.9703917, 36.025272], [-95.9708858, 36.0251146], [-95.9708282, 36.0249964], [-95.9707424, 36.0250237], [-95.970717, 36.0249714], [-95.9702845, 36.0251092], [-95.9702662, 36.0250715], [-95.9701099, 36.0251213], [-95.9701205, 36.025143], [-95.9699151, 36.0252084], [-95.9699994, 36.0253814]]]}, "properties": {"osm_id": 238982621, "building": "yes", "name": "Building 6", "height": null, "height_m": null, "levels": null, "tract_id": "40143006703", "tract_name": "67.03", "tags": {"building": "yes", "name": "Building 6"}}}, {"type": "Feature", "geometry": {"type": "Polygon", "coordinates": [[[-95.9664426, 36.0240238], [-95.9660544, 36.0240294], [-95.9660483, 36.0237288], [-95.9664399, 36.023731], [-95.9664426, 36.0240238]]]}, "properties": {"osm_id": 238983682, "building": "yes", "name": "Rock Gym", "height": null, "height_m": null, "levels": null, "tract_id": "40143006703", "tract_name": "67.03", "tags": {"building": "yes", "name": "Rock Gym"}}}, {"type": "Feature", "geometry": {"type": "Polygon", "coordinates": [[[-95.9698527, 36.0272817], [-95.9698892, 36.0272191], [-95.9699151, 36.0271566], [-95.9699298, 36.0270877], [-95.9699191, 36.0270166], [-95.9698999, 36.026952], [-95.9698869, 36.026928], [-95.9697949, 36.0269364], [-95.9697733, 36.0268586], [-95.969739, 36.0267974], [-95.969653, 36.0267737], [-95.9696509, 36.0267527], [-95.9696049, 36.0267499], [-95.969503, 36.0267437], [-95.9695095, 36.0267766], [-95.9694364, 36.026787], [-95.9693935, 36.0268583], [-95.9693678, 36.0269367], [-95.9693552, 36.026935], [-95.9692755, 36.0269241], [-95.9692606, 36.0269987], [-95.9692478, 36.0270734], [-95.9692455, 36.0271515], [-95.9693163, 36.0271375], [-95.9693505, 36.0272404], [-95.9694022, 36.0273243], [-95.969621, 36.0273199], [-95.9696164, 36.0272825], [-95.9698527, 36.0272817]]]}, "properties": {"osm_id": 239020709, "building": "yes", "name": "Cafeteria", "height": null, "height_m": null, "levels": null, "tract_id": "40143006703", "tract_name": "67.03", "tags": {"building": "yes", "name": "Cafeteria"}}}, {"type": "Feature", "geometry": {"type": "Polygon", "coordinates": [[[-95.9704794, 36.0258866], [-95.9706644, 36.0262733], [-95.9708361, 36.0262126], [-95.9706731, 36.0258634], [-95.9706569, 36.0258301], [-95.9704794, 36.0258866]]]}, "properties": {"osm_id": 239524973, "building": "yes", "name": "Student Union", "height": null, "height_m": null, "levels": null, "tract_id": "40143006703", "tract_name": "67.03", "tags": {"building": "yes", "name": "Student Union"}}}, {"type": "Feature", "geometry": {"type": "Polygon", "coordinates": [[[-95.9690315, 36.0255591], [-95.9688063, 36.0255587], [-95.9688059, 36.0256896], [-95.9690311, 36.02569], [-95.9690315, 36.0255591]]]}, "properties": {"osm_id": 239525096, "building": "yes", "name": "Old medical services building", "height": null, "height_m": null, "levels": null, "tract_id": "40143006703", "tract_name": "67.03", "tags": {"building": "yes", "name": "Old medical services building"}}}, {"type": "Feature", "geometry": {"type": "Polygon", "coordinates": [[[-95.9662888, 36.0253839], [-95.9662828, 36.0248633], [-95.9663196, 36.024863], [-95.9663471, 36.0246885], [-95.9662052, 36.0246865], [-95.9662011, 36.0247082], [-95.9660147, 36.0246973], [-95.9657988, 36.0247049], [-95.9657988, 36.024746], [-95.9656673, 36.0247469], [-95.9656747, 36.0253885], [-95.9662888, 36.0253839]]]}, "properties": {"osm_id": 240212768, "building": "yes", "name": "Jenks Frank Harrold Fieldhouse", "height": null, "height_m": null, "levels": null, "tract_id": "40143006703", "tract_name": "67.03", "tags": {"building": "yes", "leisure": "stadium", "name": "Jenks Frank Harrold Fieldhouse"}}}, {"type": "Feature", "geometry": {"type": "Polygon", "coordinates": [[[-95.9661026, 36.0307524], [-95.9661021, 36.0307181], [-95.9662733, 36.0307162], [-95.9662738, 36.0307506], [-95.9661026, 36.0307524]]]}, "properties": {"osm_id": 240215817, "building": "roof", "name": "", "height": null, "height_m": null, "levels": null, "tract_id": "40143006703", "tract_name": "67.03", "tags": {"building": "roof"}}}, {"type": "Feature", "geometry": {"type": "Polygon", "coordinates": [[[-95.9666565, 36.0298602], [-95.9666586, 36.0297876], [-95.9665205, 36.0297849], [-95.9665184, 36.0298575], [-95.9666565, 36.0298602]]]}, "properties": {"osm_id": 240215819, "building": "yes", "name": "", "height": null, "height_m": null, "levels": null, "tract_id": "40143006703", "tract_name": "67.03", "tags": {"building": "yes"}}}, {"type": "Feature", "geometry": {"type": "Polygon", "coordinates": [[[-95.9665898, 36.0305254], [-95.9665898, 36.0304018], [-95.9665278, 36.0303998], [-95.9665282, 36.0305261], [-95.9665898, 36.0305254]]]}, "properties": {"osm_id": 240215820, "building": "roof", "name": "", "height": null, "height_m": null, "levels": null, "tract_id": "40143006703", "tract_name": "67.03", "tags": {"building": "roof"}}}, {"type": "Feature", "geometry": {"type": "Polygon", "coordinates": [[[-95.965697, 36.030828], [-95.9656349, 36.0308782], [-95.9655648, 36.0308215], [-95.9656269, 36.0307713], [-95.965697, 36.030828]]]}, "properties": {"osm_id": 240215822, "building": "roof", "name": "", "height": null, "height_m": null, "levels": null, "tract_id": "40143006703", "tract_name": "67.03", "tags": {"building": "roof", "layer": "1"}}}, {"type": "Feature", "geometry": {"type": "Polygon", "coordinates": [[[-95.9659146, 36.0296143], [-95.9659163, 36.0294949], [-95.9652311, 36.0294887], [-95.9652295, 36.0296081], [-95.9659146, 36.0296143]]]}, "properties": {"osm_id": 240215824, "building": "yes", "name": "", "height": null, "height_m": null, "levels": null, "tract_id": "40143006703", "tract_name": "67.03", "tags": {"building": "yes"}}}, {"type": "Feature", "geometry": {"type": "Polygon", "coordinates": [[[-95.9652204, 36.0300252], [-95.9648786, 36.0300233], [-95.9648542, 36.0300231], [-95.9648512, 36.0303682], [-95.9652174, 36.0303703], [-95.9652204, 36.0300252]]]}, "properties": {"osm_id": 240215831, "building": "yes", "name": "", "height": null, "height_m": null, "levels": null, "tract_id": "40143006703", "tract_name": "67.03", "tags": {"building": "yes"}}}, {"type": "Feature", "geometry": {"type": "Polygon", "coordinates": [[[-95.9681641, 36.0247027], [-95.9681345, 36.0247279], [-95.9681108, 36.0247098], [-95.9681403, 36.0246846], [-95.9681641, 36.0247027]]]}, "properties": {"osm_id": 241995479, "building": "hut", "name": "", "height": null, "height_m": null, "levels": null, "tract_id": "40143006703", "tract_name": "67.03", "tags": {"building": "hut"}}}, {"type": "Feature", "geometry": {"type": "Polygon", "coordinates": [[[-95.9683141, 36.0250223], [-95.9683117, 36.0249775], [-95.9682455, 36.0249798], [-95.9682479, 36.0250246], [-95.9683141, 36.0250223]]]}, "properties": {"osm_id": 241995501, "building": "hut", "name": "", "height": null, "height_m": null, "levels": null, "tract_id": "40143006703", "tract_name": "67.03", "tags": {"building": "hut"}}}, {"type": "Feature", "geometry": {"type": "Polygon", "coordinates": [[[-95.9671167, 36.0250259], [-95.9670481, 36.0250255], [-95.9670476, 36.0250845], [-95.9671161, 36.0250849], [-95.9671167, 36.0250259]]]}, "properties": {"osm_id": 241995606, "building": "hut", "name": "", "height": null, "height_m": null, "levels": null, "tract_id": "40143006703", "tract_name": "67.03", "tags": {"building": "hut"}}}, {"type": "Feature", "geometry": {"type": "Polygon", "coordinates": [[[-95.9716972, 36.0310934], [-95.9716967, 36.031011], [-95.9715371, 36.0310116], [-95.9715374, 36.0310334], [-95.9715374, 36.0310801], [-95.9715376, 36.031094], [-95.9716972, 36.0310934]]]}, "properties": {"osm_id": 242278512, "building": "yes", "name": "", "height": null, "height_m": null, "levels": null, "tract_id": "40143006703", "tract_name": "67.03", "tags": {"building": "yes", "club": "sports"}}}, {"type": "Feature", "geometry": {"type": "Polygon", "coordinates": [[[-95.9666593, 36.0259842], [-95.9666539, 36.025636], [-95.9659003, 36.0256436], [-95.9659056, 36.0259918], [-95.9666593, 36.0259842]]]}, "properties": {"osm_id": 242278514, "building": "yes", "name": "Jenks Early Childhood Center", "height": null, "height_m": null, "levels": null, "tract_id": "40143006703", "tract_name": "67.03", "tags": {"addr:city": "Jenks", "addr:housenumber": "341", "addr:state": "OK", "addr:street": "East C Street", "building": "yes", "name": "Jenks Early Childhood Center"}}}, {"type": "Feature", "geometry": {"type": "Polygon", "coordinates": [[[-95.9715374, 36.0310801], [-95.9714985, 36.0310801], [-95.9714984, 36.0310335], [-95.9715374, 36.0310334], [-95.9715374, 36.0310801]]]}, "properties": {"osm_id": 242278515, "building": "roof", "name": "", "height": null, "height_m": null, "levels": null, "tract_id": "40143006703", "tract_name": "67.03", "tags": {"building": "roof"}}}, {"type": "Feature", "geometry": {"type": "Polygon", "coordinates": [[[-95.9690394, 36.0226881], [-95.968964, 36.0226875], [-95.9689619, 36.0228498], [-95.9689616, 36.0228765], [-95.9690145, 36.022877], [-95.9690146, 36.0228697], [-95.9690371, 36.0228698], [-95.9690394, 36.0226881]]]}, "properties": {"osm_id": 242352807, "building": "yes", "name": "Sip Coffee", "height": null, "height_m": null, "levels": null, "tract_id": "40143006703", "tract_name": "67.03", "tags": {"addr:housenumber": "107", "addr:postcode": "74037", "addr:state": "OK", "addr:street": "East Main Street", "building": "yes", "cuisine": "coffee_shop", "name": "Sip Coffee"}}}, {"type": "Feature", "geometry": {"type": "Polygon", "coordinates": [[[-95.9669548, 36.0234102], [-95.9669606, 36.0231013], [-95.966096, 36.0230907], [-95.9660902, 36.0233995], [-95.9669548, 36.0234102]]]}, "properties": {"osm_id": 242354146, "building": "warehouse", "name": "River City Trading Post", "height": null, "height_m": null, "levels": null, "tract_id": "40143006703", "tract_name": "67.03", "tags": {"building": "warehouse", "name": "River City Trading Post", "shop": "mall"}}}, {"type": "Feature", "geometry": {"type": "Polygon", "coordinates": [[[-95.9658985, 36.0233994], [-95.965696, 36.0233999], [-95.9656938, 36.0227371], [-95.9658963, 36.0227367], [-95.9658985, 36.0233994]]]}, "properties": {"osm_id": 242354400, "building": "yes", "name": "", "height": null, "height_m": null, "levels": null, "tract_id": "40143006703", "tract_name": "67.03", "tags": {"building": "yes", "shop": "mall"}}}, {"type": "Feature", "geometry": {"type": "Polygon", "coordinates": [[[-95.9692026, 36.0230208], [-95.9691203, 36.0230202], [-95.9691211, 36.0229617], [-95.9691246, 36.0226889], [-95.9692068, 36.0226895], [-95.9692026, 36.0230208]]]}, "properties": {"osm_id": 242356567, "building": "yes", "name": "", "height": null, "height_m": null, "levels": null, "tract_id": "40143006703", "tract_name": "67.03", "tags": {"building": "yes"}}}, {"type": "Feature", "geometry": {"type": "Polygon", "coordinates": [[[-95.9692892, 36.0230441], [-95.9692023, 36.0230434], [-95.9692026, 36.0230208], [-95.9692068, 36.0226895], [-95.9692938, 36.0226903], [-95.9692907, 36.0229304], [-95.9692892, 36.0230441]]]}, "properties": {"osm_id": 242356568, "building": "yes", "name": "", "height": null, "height_m": null, "levels": null, "tract_id": "40143006703", "tract_name": "67.03", "tags": {"building": "yes"}}}, {"type": "Feature", "geometry": {"type": "Polygon", "coordinates": [[[-95.9691211, 36.0229617], [-95.9690359, 36.022961], [-95.9690371, 36.0228698], [-95.9690394, 36.0226881], [-95.9691246, 36.0226889], [-95.9691211, 36.0229617]]]}, "properties": {"osm_id": 242356570, "building": "yes", "name": "City Cycles", "height": null, "height_m": null, "levels": null, "tract_id": "40143006703", "tract_name": "67.03", "tags": {"addr:city": "Jenks", "addr:housenumber": "109", "addr:postcode": "74037", "addr:state": "OK", "addr:street": "East Main Street", "building": "yes", "name": "City Cycles", "opening_hours": "Mo-Sa 08:00-20:00; Su 11:00-15:00", "phone": "+1-989-423-5452", "shop": "bicycle", "website": "https://city-cycles.com/"}}}, {"type": "Feature", "geometry": {"type": "Polygon", "coordinates": [[[-95.9693795, 36.0229311], [-95.9692907, 36.0229304], [-95.9692938, 36.0226903], [-95.9693825, 36.022691], [-95.9693795, 36.0229311]]]}, "properties": {"osm_id": 242356571, "building": "yes", "name": "Got Wood Axe Throwing Co.", "height": null, "height_m": null, "levels": null, "tract_id": "40143006703", "tract_name": "67.03", "tags": {"building": "yes", "name": "Got Wood Axe Throwing Co."}}}, {"type": "Feature", "geometry": {"type": "Polygon", "coordinates": [[[-95.9688719, 36.0228491], [-95.9689619, 36.0228498], [-95.968964, 36.0226875], [-95.968874, 36.0226867], [-95.9688719, 36.0228491]]]}, "properties": {"osm_id": 242356573, "building": "yes", "name": "", "height": null, "height_m": null, "levels": null, "tract_id": "40143006703", "tract_name": "67.03", "tags": {"building": "yes"}}}, {"type": "Feature", "geometry": {"type": "Polygon", "coordinates": [[[-95.9694613, 36.023002], [-95.9693768, 36.023001], [-95.9693795, 36.0229311], [-95.9693825, 36.022691], [-95.9694666, 36.0226908], [-95.9694613, 36.023002]]]}, "properties": {"osm_id": 242356574, "building": "yes", "name": "", "height": null, "height_m": null, "levels": null, "tract_id": "40143006703", "tract_name": "67.03", "tags": {"building": "yes"}}}, {"type": "Feature", "geometry": {"type": "Polygon", "coordinates": [[[-95.9685421, 36.0226923], [-95.9684686, 36.0226916], [-95.9684649, 36.0229426], [-95.9684992, 36.0229429], [-95.9686931, 36.0229448], [-95.9686936, 36.0229047], [-95.9685389, 36.0229032], [-95.9685421, 36.0226923]]]}, "properties": {"osm_id": 242356793, "building": "yes", "name": "", "height": null, "height_m": null, "levels": null, "tract_id": "40143006703", "tract_name": "67.03", "tags": {"building": "yes"}}}, {"type": "Feature", "geometry": {"type": "Polygon", "coordinates": [[[-95.9684992, 36.0229429], [-95.9684952, 36.0230558], [-95.9684636, 36.0230563], [-95.9684649, 36.0229426], [-95.9684992, 36.0229429]]]}, "properties": {"osm_id": 242356794, "building": "garage", "name": "", "height": null, "height_m": null, "levels": null, "tract_id": "40143006703", "tract_name": "67.03", "tags": {"building": "garage"}}}, {"type": "Feature", "geometry": {"type": "Polygon", "coordinates": [[[-95.9687837, 36.0228484], [-95.9687164, 36.0228477], [-95.9687189, 36.0226937], [-95.9685421, 36.0226923], [-95.9685389, 36.0229032], [-95.9686936, 36.0229047], [-95.9687827, 36.0229056], [-95.9687837, 36.0228484]]]}, "properties": {"osm_id": 242356795, "building": "yes", "name": "", "height": null, "height_m": null, "levels": null, "tract_id": "40143006703", "tract_name": "67.03", "tags": {"building": "yes"}}}, {"type": "Feature", "geometry": {"type": "Polygon", "coordinates": [[[-95.9688699, 36.0224684], [-95.9687936, 36.0224685], [-95.9687961, 36.0223026], [-95.9688753, 36.0223035], [-95.9688699, 36.0224684]]]}, "properties": {"osm_id": 242357623, "building": "yes", "name": "", "height": null, "height_m": null, "levels": null, "tract_id": "40143006703", "tract_name": "67.03", "tags": {"building": "yes"}}}, {"type": "Feature", "geometry": {"type": "Polygon", "coordinates": [[[-95.9694598, 36.0224714], [-95.9692893, 36.0224698], [-95.9692932, 36.0221967], [-95.969294, 36.0221378], [-95.9694645, 36.0221394], [-95.9694598, 36.0224714]]]}, "properties": {"osm_id": 242357624, "building": "yes", "name": "", "height": null, "height_m": null, "levels": null, "tract_id": "40143006703", "tract_name": "67.03", "tags": {"building": "yes"}}}, {"type": "Feature", "geometry": {"type": "Polygon", "coordinates": [[[-95.968702, 36.0224676], [-95.9685414, 36.0224652], [-95.9685474, 36.0223188], [-95.9685964, 36.0223187], [-95.9685964, 36.0223014], [-95.9685635, 36.0223003], [-95.9685642, 36.0222222], [-95.9686621, 36.0222222], [-95.9686654, 36.0221919], [-95.9687063, 36.0221918], [-95.9687045, 36.0223017], [-95.968702, 36.0224676]]]}, "properties": {"osm_id": 242357625, "building": "yes", "name": "", "height": null, "height_m": null, "levels": null, "tract_id": "40143006703", "tract_name": "67.03", "tags": {"amenity": "restaurant", "building": "yes"}}}, {"type": "Feature", "geometry": {"type": "Polygon", "coordinates": [[[-95.9690466, 36.0224703], [-95.9689506, 36.0224693], [-95.9689531, 36.0223035], [-95.9689548, 36.0221921], [-95.9690508, 36.0221931], [-95.9690466, 36.0224703]]]}, "properties": {"osm_id": 242357626, "building": "yes", "name": "", "height": null, "height_m": null, "levels": null, "tract_id": "40143006703", "tract_name": "67.03", "tags": {"building": "yes"}}}, {"type": "Feature", "geometry": {"type": "Polygon", "coordinates": [[[-95.9687936, 36.0224685], [-95.968702, 36.0224676], [-95.9687045, 36.0223017], [-95.9687961, 36.0223026], [-95.9687936, 36.0224685]]]}, "properties": {"osm_id": 242357627, "building": "yes", "name": "Smitty's 118 Tavern", "height": null, "height_m": null, "levels": null, "tract_id": "40143006703", "tract_name": "67.03", "tags": {"addr:city": "Jenks", "addr:country": "US", "addr:housenumber": "118", "addr:postcode": "74037", "addr:state": "OK", "addr:street": "East Main Street", "amenity": "pub", "building": "yes", "name": "Smitty's 118 Tavern"}}}, {"type": "Feature", "geometry": {"type": "Polygon", "coordinates": [[[-95.9692893, 36.0224698], [-95.9691845, 36.02247], [-95.9691905, 36.0221952], [-95.9692932, 36.0221967], [-95.9692893, 36.0224698]]]}, "properties": {"osm_id": 242357628, "building": "yes", "name": "", "height": null, "height_m": null, "levels": null, "tract_id": "40143006703", "tract_name": "67.03", "tags": {"building": "yes"}}}, {"type": "Feature", "geometry": {"type": "Polygon", "coordinates": [[[-95.9689506, 36.0224693], [-95.9688699, 36.0224684], [-95.9688753, 36.0223035], [-95.9689531, 36.0223035], [-95.9689506, 36.0224693]]]}, "properties": {"osm_id": 242357629, "building": "yes", "name": "", "height": null, "height_m": null, "levels": null, "tract_id": "40143006703", "tract_name": "67.03", "tags": {"building": "yes"}}}, {"type": "Feature", "geometry": {"type": "Polygon", "coordinates": [[[-95.9691845, 36.02247], [-95.9690466, 36.0224703], [-95.9690508, 36.0221931], [-95.9691905, 36.0221952], [-95.9691845, 36.02247]]]}, "properties": {"osm_id": 242357630, "building": "yes", "name": "", "height": null, "height_m": null, "levels": null, "tract_id": "40143006703", "tract_name": "67.03", "tags": {"building": "yes"}}}, {"type": "Feature", "geometry": {"type": "Polygon", "coordinates": [[[-95.9682488, 36.0224451], [-95.9682532, 36.0222134], [-95.9681555, 36.0222122], [-95.9681548, 36.0222476], [-95.9679049, 36.0222444], [-95.9679028, 36.0223271], [-95.9679024, 36.0223997], [-95.9679011, 36.0224407], [-95.9682488, 36.0224451]]]}, "properties": {"osm_id": 242422522, "building": "yes", "name": "Banc First", "height": null, "height_m": null, "levels": null, "tract_id": "40143006703", "tract_name": "67.03", "tags": {"addr:city": "Jenks", "addr:housenumber": "200", "addr:postcode": "74037", "addr:state": "OK", "addr:street": "East Main Street", "amenity": "bank", "atm": "yes", "building": "yes", "name": "Banc First"}}}, {"type": "Feature", "geometry": {"type": "Polygon", "coordinates": [[[-95.9679028, 36.0223271], [-95.9677396, 36.0223265], [-95.9677392, 36.0223991], [-95.9679024, 36.0223997], [-95.9679028, 36.0223271]]]}, "properties": {"osm_id": 242422523, "building": "roof", "name": "", "height": null, "height_m": null, "levels": null, "tract_id": "40143006703", "tract_name": "67.03", "tags": {"building": "roof"}}}, {"type": "Feature", "geometry": {"type": "Polygon", "coordinates": [[[-95.9674751, 36.0222189], [-95.9673508, 36.0222191], [-95.9673514, 36.0224449], [-95.9674757, 36.0224447], [-95.9674751, 36.0222189]]]}, "properties": {"osm_id": 242422614, "building": "commercial", "name": "KFC", "height": null, "height_m": null, "levels": null, "tract_id": "40143006703", "tract_name": "67.03", "tags": {"addr:city": "Jenks", "addr:country": "US", "addr:housenumber": "212", "addr:postcode": "74037", "addr:state": "OK", "addr:street": "East Main Street", "alt_name": "Kentucky Fried Chicken", "amenity": "fast_food", "brand": "KFC", "brand:wikidata": "Q524757", "building": "commercial", "cuisine": "chicken", "name": "KFC", "takeaway": "yes", "website": "https://locations.kfc.com/ok/jenks/212-e-main-street"}}}, {"type": "Feature", "geometry": {"type": "Polygon", "coordinates": [[[-95.9679051, 36.0230199], [-95.9679905, 36.0230207], [-95.967988, 36.0226876], [-95.9679129, 36.0226875], [-95.9679096, 36.0228489], [-95.9679051, 36.0230199]]]}, "properties": {"osm_id": 242896644, "building": "yes", "name": "", "height": null, "height_m": null, "levels": null, "tract_id": "40143006703", "tract_name": "67.03", "tags": {"building": "yes"}}}, {"type": "Feature", "geometry": {"type": "Polygon", "coordinates": [[[-95.9673983, 36.0229607], [-95.9672849, 36.0229584], [-95.9672846, 36.0229207], [-95.9672717, 36.0229211], [-95.9672719, 36.0228457], [-95.9672608, 36.0228463], [-95.9672624, 36.0227424], [-95.9673355, 36.0227448], [-95.9673355, 36.0227255], [-95.9673688, 36.0227256], [-95.9673968, 36.0227257], [-95.9673983, 36.0229607]]]}, "properties": {"osm_id": 242896646, "building": "yes", "name": "", "height": null, "height_m": null, "levels": null, "tract_id": "40143006703", "tract_name": "67.03", "tags": {"building": "yes"}}}, {"type": "Feature", "geometry": {"type": "Polygon", "coordinates": [[[-95.9682414, 36.0226847], [-95.9681541, 36.022685], [-95.968159, 36.022855], [-95.9682426, 36.0228544], [-95.9682414, 36.0226847]]]}, "properties": {"osm_id": 242896647, "building": "yes", "name": "", "height": null, "height_m": null, "levels": null, "tract_id": "40143006703", "tract_name": "67.03", "tags": {"building": "yes"}}}, {"type": "Feature", "geometry": {"type": "Polygon", "coordinates": [[[-95.9678262, 36.0228878], [-95.9678265, 36.0228534], [-95.9678275, 36.0226878], [-95.9679129, 36.0226875], [-95.9679096, 36.0228489], [-95.9678749, 36.0228493], [-95.9678743, 36.0228866], [-95.9678262, 36.0228878]]]}, "properties": {"osm_id": 242896648, "building": "yes", "name": "", "height": null, "height_m": null, "levels": null, "tract_id": "40143006703", "tract_name": "67.03", "tags": {"building": "yes"}}}, {"type": "Feature", "geometry": {"type": "Polygon", "coordinates": [[[-95.967406, 36.0228368], [-95.967474, 36.022837], [-95.9674744, 36.0226857], [-95.9674064, 36.0226856], [-95.967406, 36.0228368]]]}, "properties": {"osm_id": 242896649, "building": "yes", "name": "", "height": null, "height_m": null, "levels": null, "tract_id": "40143006703", "tract_name": "67.03", "tags": {"building": "yes"}}}, {"type": "Feature", "geometry": {"type": "Polygon", "coordinates": [[[-95.9679905, 36.0230207], [-95.9680737, 36.02302], [-95.9680751, 36.0226859], [-95.967988, 36.0226876], [-95.9679905, 36.0230207]]]}, "properties": {"osm_id": 242896650, "building": "yes", "name": "", "height": null, "height_m": null, "levels": null, "tract_id": "40143006703", "tract_name": "67.03", "tags": {"building": "yes"}}}, {"type": "Feature", "geometry": {"type": "Polygon", "coordinates": [[[-95.9677436, 36.0228531], [-95.9677427, 36.0226875], [-95.9676568, 36.0226882], [-95.9676569, 36.0228824], [-95.9676567, 36.022905], [-95.9676755, 36.022905], [-95.9677433, 36.0229053], [-95.9677436, 36.0228531]]]}, "properties": {"osm_id": 242896651, "building": "yes", "name": "", "height": null, "height_m": null, "levels": null, "tract_id": "40143006703", "tract_name": "67.03", "tags": {"building": "yes"}}}, {"type": "Feature", "geometry": {"type": "Polygon", "coordinates": [[[-95.967482, 36.0228644], [-95.9675665, 36.0228648], [-95.9675677, 36.0226871], [-95.9674833, 36.0226867], [-95.9674822, 36.0228366], [-95.967482, 36.0228644]]]}, "properties": {"osm_id": 242896652, "building": "yes", "name": "", "height": null, "height_m": null, "levels": null, "tract_id": "40143006703", "tract_name": "67.03", "tags": {"building": "yes"}}}, {"type": "Feature", "geometry": {"type": "Polygon", "coordinates": [[[-95.9675722, 36.0230653], [-95.9674845, 36.0230644], [-95.9674863, 36.0229531], [-95.9675175, 36.0229535], [-95.9675179, 36.0229318], [-95.9675601, 36.0229323], [-95.9675598, 36.0229513], [-95.9675741, 36.0229515], [-95.9675722, 36.0230653]]]}, "properties": {"osm_id": 242896653, "building": "yes", "name": "", "height": null, "height_m": null, "levels": null, "tract_id": "40143006703", "tract_name": "67.03", "tags": {"building": "yes"}}}, {"type": "Feature", "geometry": {"type": "Polygon", "coordinates": [[[-95.9680737, 36.02302], [-95.9681585, 36.0230184], [-95.968159, 36.022855], [-95.9681541, 36.022685], [-95.9680751, 36.0226859], [-95.9680737, 36.02302]]]}, "properties": {"osm_id": 242896654, "building": "yes", "name": "Maggie's Music Box", "height": null, "height_m": null, "levels": null, "tract_id": "40143006703", "tract_name": "67.03", "tags": {"addr:city": "Jenks", "addr:housenumber": "201", "addr:postcode": "74037", "addr:state": "OK", "addr:street": "East Main Street", "building": "yes", "name": "Maggie's Music Box"}}}, {"type": "Feature", "geometry": {"type": "Polygon", "coordinates": [[[-95.9675666, 36.0228825], [-95.9675665, 36.0228648], [-95.9675677, 36.0226871], [-95.9676568, 36.0226882], [-95.9676569, 36.0228824], [-95.9675666, 36.0228825]]]}, "properties": {"osm_id": 242896655, "building": "yes", "name": "", "height": null, "height_m": null, "levels": null, "tract_id": "40143006703", "tract_name": "67.03", "tags": {"building": "yes"}}}, {"type": "Feature", "geometry": {"type": "Polygon", "coordinates": [[[-95.9696737, 36.0220959], [-95.9698597, 36.022097], [-95.9698587, 36.0222065], [-95.9699485, 36.022207], [-95.9699478, 36.0222838], [-95.969973, 36.022284], [-95.9699723, 36.022375], [-95.9700092, 36.0223752], [-95.9700083, 36.0224777], [-95.9697525, 36.0224763], [-95.9697547, 36.0222062], [-95.9696728, 36.0222057], [-95.9696737, 36.0220959]]]}, "properties": {"osm_id": 242897211, "building": "yes", "name": "", "height": null, "height_m": null, "levels": null, "tract_id": "40143006703", "tract_name": "67.03", "tags": {"building": "yes"}}}, {"type": "Feature", "geometry": {"type": "Polygon", "coordinates": [[[-95.9752232, 36.0195985], [-95.9752215, 36.0191115], [-95.9753386, 36.0191112], [-95.9753385, 36.0190953], [-95.9753931, 36.0190952], [-95.9753931, 36.0190864], [-95.9754618, 36.0190862], [-95.9754621, 36.0191395], [-95.9754451, 36.0191396], [-95.9754454, 36.019207], [-95.9754606, 36.0192069], [-95.975461, 36.0192623], [-95.9754451, 36.0192624], [-95.9754456, 36.0193253], [-95.9754589, 36.0193253], [-95.9754593, 36.0193831], [-95.9754452, 36.0193831], [-95.9754457, 36.0194484], [-95.9754586, 36.0194484], [-95.975459, 36.0195021], [-95.9754436, 36.0195021], [-95.9754441, 36.0195669], [-95.9754547, 36.0195668], [-95.9754551, 36.0196187], [-95.9753937, 36.019619], [-95.9753937, 36.01961], [-95.9753401, 36.0196102], [-95.97534, 36.0195982], [-95.9752232, 36.0195985]]]}, "properties": {"osm_id": 248891612, "building": "yes", "name": "", "height": null, "height_m": null, "levels": null, "tract_id": "40143006703", "tract_name": "67.03", "tags": {"addr:city": "Jenks", "addr:country": "US", "addr:housenumber": "329", "addr:postcode": "74037", "addr:state": "OK", "addr:street": "South Elm Street", "building": "yes"}}}, {"type": "Feature", "geometry": {"type": "Polygon", "coordinates": [[[-95.9764078, 36.0222363], [-95.9761809, 36.0222372], [-95.9761801, 36.02211], [-95.9764071, 36.0221091], [-95.9764078, 36.0222363]]]}, "properties": {"osm_id": 248891652, "building": "retail", "name": "Salad and Go", "height": null, "height_m": null, "levels": null, "tract_id": "40143006703", "tract_name": "67.03", "tags": {"addr:city": "Jenks", "addr:country": "US", "addr:housenumber": "604", "addr:postcode": "74037", "addr:state": "OK", "addr:street": "West Main Street", "building": "retail", "food": "salad", "name": "Salad and Go", "payment:cash": "yes", "payment:credit_cards": "yes", "payment:debit_cards": "yes", "phone": "+19185288901", "shop": "convenience"}}}, {"type": "Feature", "geometry": {"type": "Polygon", "coordinates": [[[-95.9574621, 36.0232616], [-95.9571858, 36.0231097], [-95.9570007, 36.0233418], [-95.957167, 36.0234503], [-95.9572287, 36.0234568], [-95.9572824, 36.0234177], [-95.9572931, 36.0234047], [-95.9573199, 36.0234199], [-95.9574621, 36.0232616]]]}, "properties": {"osm_id": 257133289, "building": "yes", "name": "Waterfront Grill", "height": null, "height_m": null, "levels": null, "tract_id": "40143006703", "tract_name": "67.03", "tags": {"amenity": "restaurant", "building": "yes", "name": "Waterfront Grill"}}}, {"type": "Feature", "geometry": {"type": "Polygon", "coordinates": [[[-95.9571385, 36.0207389], [-95.9568647, 36.0207363], [-95.9568656, 36.0206843], [-95.9567576, 36.0206831], [-95.9567702, 36.0204498], [-95.9569979, 36.020457], [-95.9569855, 36.0203016], [-95.9568093, 36.0203059], [-95.9568058, 36.020139], [-95.9568218, 36.0200555], [-95.9567453, 36.0199735], [-95.9567723, 36.0198145], [-95.9567074, 36.0196037], [-95.956762, 36.0195927], [-95.9565508, 36.0195472], [-95.9565349, 36.0191871], [-95.9567435, 36.019182], [-95.9567809, 36.019015], [-95.9568627, 36.0190093], [-95.9569036, 36.0189359], [-95.9569001, 36.0186596], [-95.9569846, 36.0186173], [-95.9571741, 36.0186322], [-95.9573289, 36.0186884], [-95.9574018, 36.0187747], [-95.957416, 36.0189114], [-95.9573983, 36.0189589], [-95.9573319, 36.019035], [-95.9573751, 36.0190596], [-95.9573763, 36.0191863], [-95.9571221, 36.0191878], [-95.9571228, 36.0192654], [-95.9571217, 36.019353], [-95.9571824, 36.0193535], [-95.9571812, 36.0194482], [-95.9570922, 36.0194741], [-95.9570904, 36.0197072], [-95.9571367, 36.019713], [-95.9571426, 36.0198286], [-95.9571602, 36.0198545], [-95.9573774, 36.019861], [-95.9573841, 36.0198209], [-95.9574359, 36.0198193], [-95.9574386, 36.0198936], [-95.9574411, 36.0199607], [-95.9573894, 36.019962], [-95.9573751, 36.0199217], [-95.9571797, 36.0199204], [-95.9571794, 36.0199519], [-95.9571403, 36.0199979], [-95.9572253, 36.0199986], [-95.9572244, 36.0200809], [-95.957267, 36.0200812], [-95.9572657, 36.0201872], [-95.9571383, 36.0201863], [-95.9571375, 36.0202548], [-95.9571746, 36.0202551], [-95.9571732, 36.0203756], [-95.957235, 36.0203761], [-95.9572325, 36.0205929], [-95.9571402, 36.0205922], [-95.9571385, 36.0207389]]]}, "properties": {"osm_id": 257133894, "building": "yes", "name": "Oklahoma Aquarium", "height": null, "height_m": null, "levels": null, "tract_id": "40143006703", "tract_name": "67.03", "tags": {"addr:city": "Jenks", "addr:housenumber": "300", "addr:postcode": "74037", "addr:state": "OK", "addr:street": "Aquarium Drive", "building": "yes", "contact:pobox": "PO BOX 910, Jenks, OK 74037", "name": "Oklahoma Aquarium", "opening_hours": "We-Mo 10:00-18:00; Tu 10:00-21:00; Dec 24 10:00-16:00; Dec 25 off", "phone": "9182963474", "tourism": "aquarium", "website": "https://www.okaquarium.org"}}}, {"type": "Feature", "geometry": {"type": "Polygon", "coordinates": [[[-95.9569755, 36.0225872], [-95.9569129, 36.0223754], [-95.9569621, 36.0223659], [-95.9569395, 36.0222905], [-95.9569781, 36.022281], [-95.9569337, 36.0221233], [-95.9573498, 36.0220483], [-95.9574098, 36.0222657], [-95.9575014, 36.0222492], [-95.9575195, 36.0223147], [-95.9574308, 36.0223307], [-95.9574758, 36.0224933], [-95.9569755, 36.0225872]]]}, "properties": {"osm_id": 257136118, "building": "yes", "name": "Holiday Inn Express Hotel & Suites", "height": null, "height_m": null, "levels": null, "tract_id": "40143006703", "tract_name": "67.03", "tags": {"brand": "Holiday Inn Express", "brand:wikidata": "Q5880423", "building": "yes", "name": "Holiday Inn Express Hotel & Suites", "tourism": "hotel"}}}, {"type": "Feature", "geometry": {"type": "Polygon", "coordinates": [[[-95.9794953, 36.0184644], [-95.9792252, 36.0184646], [-95.9792253, 36.0186083], [-95.9786443, 36.0186087], [-95.9786442, 36.0185249], [-95.9785601, 36.018525], [-95.97856, 36.0184146], [-95.978587, 36.0184146], [-95.9785868, 36.0183134], [-95.9785584, 36.0183135], [-95.978558, 36.0179742], [-95.9786388, 36.0179741], [-95.9786387, 36.0179025], [-95.9785404, 36.0179026], [-95.9785403, 36.0177893], [-95.9786877, 36.0177892], [-95.9786876, 36.0176671], [-95.9787238, 36.0176671], [-95.9787238, 36.017638], [-95.9787991, 36.0176379], [-95.9787991, 36.0176663], [-95.9794925, 36.0176658], [-95.9794929, 36.0180124], [-95.9795772, 36.0180123], [-95.9795774, 36.0181594], [-95.979495, 36.0181594], [-95.9794953, 36.0184644]]]}, "properties": {"osm_id": 319463638, "building": "retail", "name": "Reasor's", "height": null, "height_m": null, "levels": null, "tract_id": "40143006703", "tract_name": "67.03", "tags": {"addr:city": "Jenks", "addr:housenumber": "446", "addr:postcode": "74037", "addr:state": "OK", "addr:street": "South Elm Street", "building": "retail", "name": "Reasor's", "opening_hours": "07:00-23:00", "phone": "+1 918 299 3378", "shop": "supermarket", "website": "https://www.reasors.com/locations/store.php?store=20"}}}, {"type": "Feature", "geometry": {"type": "Polygon", "coordinates": [[[-95.9767626, 36.0217313], [-95.9764287, 36.0217351], [-95.976375, 36.0216803], [-95.976368, 36.0213725], [-95.9767556, 36.0213725], [-95.9767626, 36.0217313]]]}, "properties": {"osm_id": 319473043, "building": "yes", "name": "Walgreens", "height": null, "height_m": null, "levels": null, "tract_id": "40143006703", "tract_name": "67.03", "tags": {"addr:city": "Jenks", "addr:housenumber": "210", "addr:postcode": "74037", "addr:state": "OK", "addr:street": "South Elm Street", "amenity": "pharmacy", "brand": "Walgreens", "brand:wikidata": "Q1591889", "building": "yes", "healthcare": "pharmacy", "name": "Walgreens", "opening_hours": "Mo-Fr 07:00-22:00; Sa 08:00-22:00; Su 09:00-21:00", "phone": "+1 918 298 2691", "website": "https://www.walgreens.com/locator/walgreens-210+s+elm+st-jenks-ok-74037/id=9595"}}}, {"type": "Feature", "geometry": {"type": "Polygon", "coordinates": [[[-95.9765922, 36.0231911], [-95.9764731, 36.0231949], [-95.9764778, 36.0230721], [-95.9764497, 36.0230721], [-95.9764497, 36.0229324], [-95.9765968, 36.0229286], [-95.9765922, 36.0231911]]]}, "properties": {"osm_id": 319473044, "building": "retail", "name": "McDonald's", "height": null, "height_m": null, "levels": null, "tract_id": "40143006703", "tract_name": "67.03", "tags": {"addr:city": "Jenks", "addr:housenumber": "605", "addr:postcode": "74037", "addr:state": "OK", "addr:street": "West Main Street", "amenity": "fast_food", "brand": "McDonald's", "brand:wikidata": "Q38076", "building": "retail", "cuisine": "burger", "drive_through": "yes", "internet_access": "wlan", "name": "McDonald's", "note": "Website was http://www.mcoklahoma.com/17449 but now returns an error.", "opening_hours": "05:00-24:00", "phone": "+1 918-982-0955", "takeaway": "yes", "website": "https://www.mcdonalds.com/us/en-us/location/17449.html"}}}, {"type": "Feature", "geometry": {"type": "Polygon", "coordinates": [[[-95.9756327, 36.0229532], [-95.975523, 36.0229494], [-95.9755253, 36.0228342], [-95.9756351, 36.0228361], [-95.9756327, 36.0229532]]]}, "properties": {"osm_id": 319473045, "building": "yes", "name": "Taco Bell", "height": null, "height_m": null, "levels": null, "tract_id": "40143006703", "tract_name": "67.03", "tags": {"addr:city": "Jenks", "addr:housenumber": "555", "addr:postcode": "74037", "addr:state": "OK", "addr:street": "West Main Street", "amenity": "fast_food", "brand": "Taco Bell", "brand:wikidata": "Q752941", "building": "yes", "cuisine": "tex-mex", "name": "Taco Bell", "opening_hours": "Mo-Th 08:00-03:00; Fr-Sa 08:00-04:00; Su 08:00-03:00", "phone": "+1 918-298-6779", "takeaway": "yes", "website": "https://locations.tacobell.com/ok/jenks/555-west-main-st.html"}}}, {"type": "Feature", "geometry": {"type": "Polygon", "coordinates": [[[-95.9753608, 36.0224205], [-95.9753638, 36.0222341], [-95.9754769, 36.0222353], [-95.9754739, 36.0224217], [-95.9753608, 36.0224205]]]}, "properties": {"osm_id": 380475419, "building": "commercial", "name": "Arby's", "height": null, "height_m": null, "levels": null, "tract_id": "40143006703", "tract_name": "67.03", "tags": {"addr:city": "Jenks", "addr:housenumber": "520", "addr:postcode": "74037", "addr:state": "OK", "addr:street": "West Main Street", "amenity": "fast_food", "brand": "Arby's", "brand:wikidata": "Q630866", "building": "commercial", "check_date": "2024-06-21", "cuisine": "sandwich", "name": "Arby's", "opening_hours": "09:30-23:00", "phone": "+1 918-299-3720", "takeaway": "yes", "website": "https://www.arbys.com/locations/us/ok/jenks/520-w-main-st/store-800/"}}}, {"type": "Feature", "geometry": {"type": "Polygon", "coordinates": [[[-95.9824834, 36.0244515], [-95.9824849, 36.0241738], [-95.9826448, 36.0241743], [-95.9826433, 36.0244521], [-95.9824834, 36.0244515]]]}, "properties": {"osm_id": 429508504, "building": "yes", "name": "O'Reilly Auto Parts", "height": null, "height_m": null, "levels": null, "tract_id": "40143006703", "tract_name": "67.03", "tags": {"addr:city": "Jenks", "addr:housenumber": "1005", "addr:state": "OK", "addr:street": "West Main Street South", "brand": "O'Reilly Auto Parts", "brand:wikidata": "Q7071951", "building": "yes", "name": "O'Reilly Auto Parts", "opening_hours": "Mo-Fr 07:30-21:00; Sa 07:30-20:00; Su 09:00-19:00", "shop": "car_parts"}}}, {"type": "Feature", "geometry": {"type": "Polygon", "coordinates": [[[-95.9824953, 36.0240228], [-95.9821773, 36.0240156], [-95.9821812, 36.0239057], [-95.9824992, 36.023913], [-95.9824953, 36.0240228]]]}, "properties": {"osm_id": 429508862, "building": "yes", "name": "", "height": null, "height_m": null, "levels": null, "tract_id": "40143006703", "tract_name": "67.03", "tags": {"building": "yes"}}}, {"type": "Feature", "geometry": {"type": "Polygon", "coordinates": [[[-95.9822415, 36.0244105], [-95.9821131, 36.0244105], [-95.9821131, 36.0241472], [-95.9822415, 36.0241472], [-95.9822415, 36.0244105]]]}, "properties": {"osm_id": 429508864, "building": "yes", "name": "", "height": null, "height_m": null, "levels": null, "tract_id": "40143006703", "tract_name": "67.03", "tags": {"building": "yes"}}}, {"type": "Feature", "geometry": {"type": "Polygon", "coordinates": [[[-95.9696972, 36.0228503], [-95.9697001, 36.0230194], [-95.9698463, 36.0230178], [-95.9698424, 36.0229486], [-95.9698433, 36.0228487], [-95.9696972, 36.0228503]]]}, "properties": {"osm_id": 430458228, "building": "retail", "name": "Georges Pub", "height": null, "height_m": null, "levels": null, "tract_id": "40143006703", "tract_name": "67.03", "tags": {"amenity": "pub", "building": "retail", "name": "Georges Pub"}}}, {"type": "Feature", "geometry": {"type": "Polygon", "coordinates": [[[-95.9698441, 36.0227705], [-95.9698448, 36.0226948], [-95.9701394, 36.0226966], [-95.970138, 36.0228428], [-95.9701678, 36.022843], [-95.9701669, 36.0229349], [-95.9700984, 36.0229345], [-95.9700983, 36.0229461], [-95.9700081, 36.0229455], [-95.9700082, 36.0229346], [-95.9699723, 36.0229344], [-95.9699724, 36.0229145], [-95.9699358, 36.0229143], [-95.9699355, 36.0229491], [-95.9698424, 36.0229486], [-95.9698433, 36.0228487], [-95.9698441, 36.0227705]]]}, "properties": {"osm_id": 430458229, "building": "retail", "name": "", "height": null, "height_m": null, "levels": null, "tract_id": "40143006703", "tract_name": "67.03", "tags": {"building": "retail"}}}, {"type": "Feature", "geometry": {"type": "Polygon", "coordinates": [[[-95.9696775, 36.0227723], [-95.9696782, 36.0228521], [-95.9696972, 36.0228503], [-95.9698433, 36.0228487], [-95.9698441, 36.0227705], [-95.9696775, 36.0227723]]]}, "properties": {"osm_id": 430458230, "building": "retail", "name": "", "height": null, "height_m": null, "levels": null, "tract_id": "40143006703", "tract_name": "67.03", "tags": {"building": "retail"}}}, {"type": "Feature", "geometry": {"type": "Polygon", "coordinates": [[[-95.975167, 36.018208], [-95.9751205, 36.0181713], [-95.9750921, 36.0181948], [-95.975051, 36.0181623], [-95.9750794, 36.0181388], [-95.9750747, 36.0178043], [-95.9753946, 36.0178013], [-95.9754321, 36.0178309], [-95.9754374, 36.0182055], [-95.975167, 36.018208]]]}, "properties": {"osm_id": 430667465, "building": "yes", "name": "CVS Pharmacy", "height": null, "height_m": null, "levels": null, "tract_id": "40143006703", "tract_name": "67.03", "tags": {"building": "yes", "name": "CVS Pharmacy"}}}, {"type": "Feature", "geometry": {"type": "Polygon", "coordinates": [[[-95.9742661, 36.0291175], [-95.973959, 36.0291154], [-95.9739603, 36.0290024], [-95.9742674, 36.0290045], [-95.9742661, 36.0291175]]]}, "properties": {"osm_id": 484581483, "building": "garage", "name": "C & D Auto and Diesel", "height": null, "height_m": null, "levels": null, "tract_id": "40143006703", "tract_name": "67.03", "tags": {"addr:city": "Jenks", "addr:country": "US", "addr:housenumber": "424", "addr:postcode": "74037", "addr:state": "OK", "addr:street": "West G Street", "building": "garage", "name": "C & D Auto and Diesel", "opening_hours": "Mo-Th 07:00-17:30; Fr 07:00-12:00,13:30-17:00", "phone": "+1-918-299-2924", "service:vehicle:car_repair": "yes", "service:vehicle:diagnostics": "yes", "shop": "car_repair", "website": "http://cdautoanddiesel.com/"}}}, {"type": "Feature", "geometry": {"type": "Polygon", "coordinates": [[[-95.9597505, 36.0232509], [-95.9596795, 36.0232505], [-95.9596794, 36.0232554], [-95.9596473, 36.0232552], [-95.959647, 36.0232816], [-95.95959, 36.0232813], [-95.9595903, 36.0232549], [-95.959552, 36.0232546], [-95.959552, 36.0232497], [-95.959487, 36.0232493], [-95.9594884, 36.023098], [-95.9595326, 36.0230983], [-95.9595328, 36.0230771], [-95.9596045, 36.0230775], [-95.9596043, 36.0230987], [-95.9596224, 36.0230988], [-95.9596227, 36.0230685], [-95.9596232, 36.0230216], [-95.9596237, 36.0229651], [-95.9596103, 36.022965], [-95.95957, 36.0229648], [-95.9595171, 36.0229644], [-95.9594947, 36.0229643], [-95.9594953, 36.0229032], [-95.9595157, 36.0229033], [-95.95957, 36.0229036], [-95.9596116, 36.0229039], [-95.9596498, 36.0229041], [-95.9596874, 36.0229043], [-95.9597276, 36.0229046], [-95.9597523, 36.0229047], [-95.9597518, 36.022966], [-95.9597243, 36.0229658], [-95.9596988, 36.0229656], [-95.9596983, 36.0230221], [-95.9596979, 36.023069], [-95.9596976, 36.0230993], [-95.959752, 36.0230996], [-95.9597505, 36.0232509]]]}, "properties": {"osm_id": 485706332, "building": "yes", "name": "Tulsa Teacher's Credit Union", "height": null, "height_m": null, "levels": null, "tract_id": "40143006703", "tract_name": "67.03", "tags": {"addr:city": "Jenks", "addr:country": "US", "addr:housenumber": "105", "addr:state": "OK", "addr:street": "South Riverfront Drive", "amenity": "bank", "building": "yes", "name": "Tulsa Teacher's Credit Union"}}}, {"type": "Feature", "geometry": {"type": "Polygon", "coordinates": [[[-95.9749372, 36.0241884], [-95.9754521, 36.0241906], [-95.9754514, 36.0243121], [-95.9754254, 36.024312], [-95.9754246, 36.0244402], [-95.9752537, 36.0244395], [-95.9752536, 36.0244566], [-95.9751101, 36.024456], [-95.9751102, 36.0244389], [-95.9750087, 36.0244385], [-95.9750097, 36.0242744], [-95.9749366, 36.0242741], [-95.9749372, 36.0241884]]]}, "properties": {"osm_id": 493736251, "building": "yes", "name": "Jenks City Hall", "height": null, "height_m": null, "levels": null, "tract_id": "40143006703", "tract_name": "67.03", "tags": {"addr:city": "Jenks", "addr:housenumber": "211", "addr:state": "OK", "addr:street": "North Elm Street", "amenity": "townhall", "building": "yes", "name": "Jenks City Hall", "operator": "City of Jenks", "townhall:type": "city"}}}, {"type": "Feature", "geometry": {"type": "Polygon", "coordinates": [[[-95.9585092, 36.0261327], [-95.9586338, 36.0261992], [-95.9586648, 36.026149], [-95.9586769, 36.026068], [-95.9586476, 36.0260052], [-95.9586044, 36.0259564], [-95.9585216, 36.0259229], [-95.9584784, 36.0259221], [-95.9584474, 36.0259215], [-95.9583853, 36.025934], [-95.9584274, 36.0260385], [-95.9585092, 36.0261327]]]}, "properties": {"osm_id": 504913619, "building": "yes", "name": "", "height": null, "height_m": null, "levels": null, "tract_id": "40143006703", "tract_name": "67.03", "tags": {"amenity": "theatre", "building": "yes"}}}, {"type": "Feature", "geometry": {"type": "Polygon", "coordinates": [[[-95.9588756, 36.0259754], [-95.9587493, 36.0260272], [-95.9588096, 36.0261156], [-95.9588549, 36.0262086], [-95.9588925, 36.0263381], [-95.9588888, 36.0264539], [-95.9588831, 36.0265499], [-95.9591959, 36.0265956], [-95.9591997, 36.0264829], [-95.9592016, 36.0263823], [-95.9591545, 36.0263762], [-95.9591356, 36.026239], [-95.959096, 36.0261141], [-95.959145, 36.0261019], [-95.9590395, 36.0259023], [-95.9589434, 36.0259449], [-95.9588756, 36.0259754]]]}, "properties": {"osm_id": 504913622, "building": "retail", "name": "", "height": null, "height_m": null, "levels": null, "tract_id": "40143006703", "tract_name": "67.03", "tags": {"addr:city": "Jenks", "addr:country": "US", "addr:housenumber": "400", "addr:state": "OK", "addr:street": "Riverwalk Terrace", "building": "retail"}}}, {"type": "Feature", "geometry": {"type": "Polygon", "coordinates": [[[-95.9596425, 36.0276562], [-95.9594592, 36.0276928], [-95.9593372, 36.0277172], [-95.9591959, 36.0272859], [-95.9590226, 36.0267587], [-95.9591512, 36.0267328], [-95.9593335, 36.0266962], [-95.9593843, 36.0268562], [-95.9593297, 36.0268684], [-95.9594691, 36.0272859], [-95.9595407, 36.0275069], [-95.9595878, 36.0274978], [-95.9596425, 36.0276562]]]}, "properties": {"osm_id": 504913623, "building": "retail", "name": "", "height": null, "height_m": null, "levels": null, "tract_id": "40143006703", "tract_name": "67.03", "tags": {"addr:city": "Jenks", "addr:country": "US", "addr:housenumber": "500", "addr:state": "OK", "addr:street": "Riverwalk Terrace", "building": "retail"}}}, {"type": "Feature", "geometry": {"type": "Polygon", "coordinates": [[[-95.9609831, 36.0297073], [-95.9610842, 36.029776], [-95.9611163, 36.0297375], [-95.9611304, 36.0297071], [-95.9611371, 36.0296626], [-95.9611324, 36.0296274], [-95.9611143, 36.0295873], [-95.9610794, 36.0295428], [-95.9610332, 36.0295168], [-95.9609494, 36.0294951], [-95.9609064, 36.0294956], [-95.9608612, 36.0295005], [-95.9609013, 36.0296034], [-95.9608863, 36.0296128], [-95.9609688, 36.0297158], [-95.9609831, 36.0297073]]]}, "properties": {"osm_id": 531564581, "building": "yes", "name": "", "height": null, "height_m": null, "levels": null, "tract_id": "40143006703", "tract_name": "67.03", "tags": {"amenity": "theatre", "building": "yes"}}}, {"type": "Feature", "geometry": {"type": "Polygon", "coordinates": [[[-95.9611586, 36.0228871], [-95.9602734, 36.0225443], [-95.9604582, 36.0222322], [-95.9613433, 36.022575], [-95.9612055, 36.0228078], [-95.9611586, 36.0228871]]]}, "properties": {"osm_id": 531586498, "building": "yes", "name": "", "height": null, "height_m": null, "levels": null, "tract_id": "40143006703", "tract_name": "67.03", "tags": {"amenity": "parking", "building": "yes", "parking": "multi-storey"}}}, {"type": "Feature", "geometry": {"type": "Polygon", "coordinates": [[[-95.9609467, 36.0228914], [-95.9608445, 36.0230667], [-95.9604234, 36.0229061], [-95.9605256, 36.0227309], [-95.9609467, 36.0228914]]]}, "properties": {"osm_id": 531586499, "building": "yes", "name": "First Oklahoma Bank", "height": null, "height_m": null, "levels": null, "tract_id": "40143006703", "tract_name": "67.03", "tags": {"amenity": "bank", "building": "yes", "name": "First Oklahoma Bank"}}}, {"type": "Feature", "geometry": {"type": "Polygon", "coordinates": [[[-95.9587795, 36.0257666], [-95.9587154, 36.0258124], [-95.9587569, 36.0258459], [-95.9588191, 36.0259068], [-95.9588756, 36.0259754], [-95.9589434, 36.0259449], [-95.958902, 36.025887], [-95.958966, 36.0258535], [-95.9589001, 36.0257788], [-95.9588398, 36.0258154], [-95.9587795, 36.0257666]]]}, "properties": {"osm_id": 543423819, "building": "roof", "name": "", "height": null, "height_m": null, "levels": null, "tract_id": "40143006703", "tract_name": "67.03", "tags": {"building": "roof", "layer": "1"}}}, {"type": "Feature", "geometry": {"type": "Polygon", "coordinates": [[[-95.9587795, 36.0257666], [-95.9588737, 36.0257072], [-95.9587776, 36.025631], [-95.958674, 36.025564], [-95.9586476, 36.025596], [-95.9585534, 36.0255503], [-95.9583593, 36.0254649], [-95.958365, 36.0254299], [-95.9581162, 36.0253689], [-95.9581134, 36.025383], [-95.9580635, 36.0256341], [-95.9582368, 36.0256661], [-95.9583593, 36.0257118], [-95.958495, 36.0257788], [-95.9585666, 36.0258261], [-95.9586344, 36.0258748], [-95.9587154, 36.0258124], [-95.9587795, 36.0257666]]]}, "properties": {"osm_id": 543423820, "building": "retail", "name": "", "height": null, "height_m": null, "levels": null, "tract_id": "40143006703", "tract_name": "67.03", "tags": {"addr:city": "Jenks", "addr:country": "US", "addr:housenumber": "300", "addr:state": "OK", "addr:street": "Riverwalk Terrace", "building": "retail"}}}, {"type": "Feature", "geometry": {"type": "Polygon", "coordinates": [[[-95.9624675, 36.0228599], [-95.9630656, 36.0228578], [-95.9630666, 36.0230268], [-95.9624684, 36.0230289], [-95.9624675, 36.0228599]]]}, "properties": {"osm_id": 545367187, "building": "yes", "name": "", "height": null, "height_m": null, "levels": null, "tract_id": "40143006703", "tract_name": "67.03", "tags": {"building": "yes"}}}, {"type": "Feature", "geometry": {"type": "Polygon", "coordinates": [[[-95.9751825, 36.0353618], [-95.9750483, 36.0353626], [-95.9750469, 36.0351961], [-95.9751812, 36.0351954], [-95.9751825, 36.0353618]]]}, "properties": {"osm_id": 606525104, "building": "yes", "name": "", "height": null, "height_m": null, "levels": null, "tract_id": "40143006703", "tract_name": "67.03", "tags": {"building": "yes"}}}, {"type": "Feature", "geometry": {"type": "Polygon", "coordinates": [[[-95.9756278, 36.0356915], [-95.9752885, 36.035691], [-95.9752887, 36.0355782], [-95.9755433, 36.0355786], [-95.9755434, 36.035538], [-95.9756281, 36.0355382], [-95.9756278, 36.0356915]]]}, "properties": {"osm_id": 606525105, "building": "yes", "name": "", "height": null, "height_m": null, "levels": null, "tract_id": "40143006703", "tract_name": "67.03", "tags": {"building": "yes"}}}, {"type": "Feature", "geometry": {"type": "Polygon", "coordinates": [[[-95.9756291, 36.0351965], [-95.9756285, 36.0354204], [-95.9755701, 36.0354203], [-95.9755703, 36.0353349], [-95.9754241, 36.0353347], [-95.9754237, 36.0355046], [-95.9752234, 36.0355043], [-95.9752235, 36.0354696], [-95.9752885, 36.0354698], [-95.9752891, 36.0351959], [-95.9756291, 36.0351965]]]}, "properties": {"osm_id": 606525106, "building": "yes", "name": "Jenks Collision Center", "height": null, "height_m": null, "levels": null, "tract_id": "40143006703", "tract_name": "67.03", "tags": {"addr:city": "Jenks", "addr:country": "US", "addr:housenumber": "1607", "addr:state": "OK", "addr:street": "North Elm Street", "building": "yes", "name": "Jenks Collision Center", "opening_hours": "Mo-Su 08:00-17:00", "shop": "car_repair"}}}, {"type": "Feature", "geometry": {"type": "Polygon", "coordinates": [[[-95.9750491, 36.0223653], [-95.9749306, 36.022363], [-95.9749357, 36.022188], [-95.9748602, 36.0221865], [-95.9748611, 36.022155], [-95.9750551, 36.0221587], [-95.9750491, 36.0223653]]]}, "properties": {"osm_id": 616412438, "building": "retail", "name": "Mazzio's", "height": null, "height_m": null, "levels": null, "tract_id": "40143006703", "tract_name": "67.03", "tags": {"amenity": "restaurant", "building": "retail", "cuisine": "italian", "name": "Mazzio's"}}}, {"type": "Feature", "geometry": {"type": "Polygon", "coordinates": [[[-95.9617957, 36.0300082], [-95.9617039, 36.030045], [-95.9617258, 36.0300807], [-95.961682, 36.0300983], [-95.9616701, 36.0300788], [-95.961578, 36.0301157], [-95.9616247, 36.0301919], [-95.9616726, 36.0301727], [-95.9617127, 36.0302381], [-95.9616676, 36.0302562], [-95.9618242, 36.0305118], [-95.9619147, 36.0304755], [-95.9618892, 36.0304339], [-95.9619633, 36.0304042], [-95.9620077, 36.0304768], [-95.9620871, 36.030445], [-95.9620811, 36.0304351], [-95.9621404, 36.0304113], [-95.9621561, 36.0304371], [-95.9622487, 36.0304], [-95.962202, 36.0303237], [-95.9621835, 36.0303311], [-95.9620649, 36.0301375], [-95.9620808, 36.0301311], [-95.9620349, 36.0300561], [-95.9619484, 36.0300908], [-95.9619194, 36.0300436], [-95.9618375, 36.0300764], [-95.9617957, 36.0300082]]]}, "properties": {"osm_id": 628445227, "building": "retail", "name": "", "height": null, "height_m": null, "levels": null, "tract_id": "40143006703", "tract_name": "67.03", "tags": {"building": "retail"}}}, {"type": "Feature", "geometry": {"type": "Polygon", "coordinates": [[[-95.9614361, 36.0298652], [-95.9613922, 36.0298033], [-95.961347, 36.0298242], [-95.961297, 36.0297536], [-95.9613851, 36.0297128], [-95.9613972, 36.02973], [-95.9616924, 36.0295932], [-95.9616777, 36.0295723], [-95.9617682, 36.0295304], [-95.9618203, 36.0296038], [-95.9617654, 36.0296292], [-95.9617906, 36.0296648], [-95.9618675, 36.0296292], [-95.9619195, 36.0297025], [-95.9618244, 36.0297466], [-95.9618037, 36.0297175], [-95.9617243, 36.0297543], [-95.9617882, 36.0298445], [-95.9618184, 36.0298305], [-95.9618688, 36.0299015], [-95.9617831, 36.0299413], [-95.9617645, 36.0299151], [-95.9615329, 36.0300225], [-95.9615513, 36.0300485], [-95.9614605, 36.0300906], [-95.9614217, 36.0300357], [-95.961412, 36.0300402], [-95.9613719, 36.0299836], [-95.9614002, 36.0299705], [-95.961353, 36.0299038], [-95.9614361, 36.0298652]]]}, "properties": {"osm_id": 628445228, "building": "retail", "name": "", "height": null, "height_m": null, "levels": null, "tract_id": "40143006703", "tract_name": "67.03", "tags": {"building": "retail"}}}, {"type": "Feature", "geometry": {"type": "Polygon", "coordinates": [[[-95.9606731, 36.0277532], [-95.9605926, 36.027769], [-95.9605973, 36.0277798], [-95.9604404, 36.0278189], [-95.9603298, 36.0278557], [-95.9602406, 36.027891], [-95.9601367, 36.0279414], [-95.9600354, 36.0279978], [-95.9599643, 36.028045], [-95.9598121, 36.0281659], [-95.9597994, 36.0281594], [-95.9597652, 36.0281898], [-95.9596981, 36.0281394], [-95.9598014, 36.028051], [-95.9598936, 36.0279924], [-95.9596646, 36.0277654], [-95.9597005, 36.0277587], [-95.9596927, 36.0277494], [-95.9599355, 36.027705], [-95.9599683, 36.0277386], [-95.9601346, 36.0276589], [-95.9601427, 36.0276697], [-95.9602352, 36.0276323], [-95.9602802, 36.0277044], [-95.9603713, 36.0276654], [-95.9604069, 36.027737], [-95.9605296, 36.0277061], [-95.9606557, 36.0276811], [-95.9606731, 36.0277532]]]}, "properties": {"osm_id": 628445262, "building": "yes", "name": "Flying Tee", "height": null, "height_m": null, "levels": null, "tract_id": "40143006703", "tract_name": "67.03", "tags": {"amenity": "bar", "building": "yes", "name": "Flying Tee"}}}, {"type": "Feature", "geometry": {"type": "Polygon", "coordinates": [[[-95.9788846, 36.0208327], [-95.9788641, 36.0208183], [-95.9788565, 36.0208255], [-95.978693, 36.0207113], [-95.9786993, 36.0207053], [-95.9786695, 36.0206845], [-95.9786632, 36.0206904], [-95.9785015, 36.0205776], [-95.9785091, 36.0205704], [-95.978489, 36.0205564], [-95.9786, 36.0204524], [-95.9786179, 36.0204649], [-95.9786259, 36.0204574], [-95.9787882, 36.0205708], [-95.978779, 36.0205794], [-95.9788094, 36.0206006], [-95.9788186, 36.020592], [-95.9789803, 36.020705], [-95.9789723, 36.0207124], [-95.9789956, 36.0207287], [-95.9788846, 36.0208327]]]}, "properties": {"osm_id": 680237168, "building": "yes", "name": "", "height": null, "height_m": null, "levels": null, "tract_id": "40143006703", "tract_name": "67.03", "tags": {"building": "yes"}}}, {"type": "Feature", "geometry": {"type": "Polygon", "coordinates": [[[-95.9787666, 36.0200023], [-95.9788532, 36.0200325], [-95.9787264, 36.0202706], [-95.9786399, 36.0202404], [-95.9787666, 36.0200023]]]}, "properties": {"osm_id": 680237169, "building": "yes", "name": "", "height": null, "height_m": null, "levels": null, "tract_id": "40143006703", "tract_name": "67.03", "tags": {"building": "yes"}}}, {"type": "Feature", "geometry": {"type": "Polygon", "coordinates": [[[-95.978949, 36.0196487], [-95.9790394, 36.0196805], [-95.9789114, 36.0199191], [-95.9788209, 36.0198874], [-95.978949, 36.0196487]]]}, "properties": {"osm_id": 680237170, "building": "yes", "name": "", "height": null, "height_m": null, "levels": null, "tract_id": "40143006703", "tract_name": "67.03", "tags": {"building": "yes"}}}, {"type": "Feature", "geometry": {"type": "Polygon", "coordinates": [[[-95.9791441, 36.0192767], [-95.9792327, 36.0193076], [-95.979106, 36.0195452], [-95.9790174, 36.0195142], [-95.9791441, 36.0192767]]]}, "properties": {"osm_id": 680237171, "building": "yes", "name": "", "height": null, "height_m": null, "levels": null, "tract_id": "40143006703", "tract_name": "67.03", "tags": {"building": "yes"}}}, {"type": "Feature", "geometry": {"type": "Polygon", "coordinates": [[[-95.9793279, 36.0189231], [-95.9794172, 36.0189532], [-95.9792939, 36.0191929], [-95.9792045, 36.0191628], [-95.9793279, 36.0189231]]]}, "properties": {"osm_id": 680237172, "building": "yes", "name": "", "height": null, "height_m": null, "levels": null, "tract_id": "40143006703", "tract_name": "67.03", "tags": {"building": "yes"}}}, {"type": "Feature", "geometry": {"type": "Polygon", "coordinates": [[[-95.9805208, 36.0188802], [-95.9802076, 36.0188954], [-95.9802019, 36.0188176], [-95.980515, 36.0188024], [-95.9805208, 36.0188802]]]}, "properties": {"osm_id": 680237191, "building": "yes", "name": "", "height": null, "height_m": null, "levels": null, "tract_id": "40143006703", "tract_name": "67.03", "tags": {"building": "yes"}}}, {"type": "Feature", "geometry": {"type": "Polygon", "coordinates": [[[-95.976425, 36.0183162], [-95.9765223, 36.0183159], [-95.9765223, 36.0183113], [-95.9766231, 36.0183111], [-95.9766232, 36.0183509], [-95.976645, 36.0183508], [-95.9766767, 36.0183508], [-95.9767279, 36.0183506], [-95.9767806, 36.0183505], [-95.9768245, 36.0183504], [-95.9768306, 36.0183504], [-95.976831, 36.0184599], [-95.9768251, 36.0184599], [-95.9767803, 36.01846], [-95.9767286, 36.0184601], [-95.9766784, 36.0184602], [-95.9766445, 36.0184603], [-95.9766052, 36.0184604], [-95.9766054, 36.0185232], [-95.9765223, 36.0185234], [-95.9765223, 36.0185166], [-95.9764257, 36.0185168], [-95.9764255, 36.0184615], [-95.9763929, 36.0184616], [-95.9763928, 36.0184225], [-95.9764379, 36.0184224], [-95.9764377, 36.0183736], [-95.9763936, 36.0183737], [-95.9763935, 36.0183482], [-95.9764251, 36.0183482], [-95.976425, 36.0183162]]]}, "properties": {"osm_id": 680237201, "building": "retail", "name": "Arvest Bank", "height": null, "height_m": null, "levels": null, "tract_id": "40143006703", "tract_name": "67.03", "tags": {"amenity": "bank", "atm": "yes", "brand": "Arvest Bank", "brand:wikidata": "Q4802393", "building": "retail", "name": "Arvest Bank"}}}, {"type": "Feature", "geometry": {"type": "Polygon", "coordinates": [[[-95.9766148, 36.0197263], [-95.9764545, 36.0198791], [-95.9761716, 36.0196849], [-95.9763318, 36.0195321], [-95.9766148, 36.0197263]]]}, "properties": {"osm_id": 680237214, "building": "yes", "name": "", "height": null, "height_m": null, "levels": null, "tract_id": "40143006703", "tract_name": "67.03", "tags": {"building": "yes"}}}, {"type": "Feature", "geometry": {"type": "Polygon", "coordinates": [[[-95.979073, 36.0209525], [-95.979169, 36.0208628], [-95.9791774, 36.0208687], [-95.979194, 36.0208532], [-95.9794327, 36.0210203], [-95.9794161, 36.0210358], [-95.9794259, 36.0210426], [-95.9794425, 36.0210272], [-95.9796822, 36.0211949], [-95.9796656, 36.0212104], [-95.9796766, 36.0212181], [-95.9795807, 36.0213078], [-95.9795706, 36.0213008], [-95.979556, 36.0213144], [-95.9793154, 36.021146], [-95.9793306, 36.0211318], [-95.9793234, 36.0211268], [-95.9793082, 36.021141], [-95.9790682, 36.020973], [-95.9790828, 36.0209594], [-95.979073, 36.0209525]]]}, "properties": {"osm_id": 680237243, "building": "yes", "name": "", "height": null, "height_m": null, "levels": null, "tract_id": "40143006703", "tract_name": "67.03", "tags": {"building": "yes"}}}, {"type": "Feature", "geometry": {"type": "Polygon", "coordinates": [[[-95.9799843, 36.0190527], [-95.979985, 36.0191178], [-95.9799508, 36.0191181], [-95.9799515, 36.0191851], [-95.9797684, 36.0191863], [-95.9797681, 36.0191577], [-95.9796615, 36.0191585], [-95.9796609, 36.0191021], [-95.9796677, 36.019102], [-95.9796672, 36.0190549], [-95.9797691, 36.0190542], [-95.979769, 36.0190446], [-95.9798261, 36.0190442], [-95.9798258, 36.0190187], [-95.9798989, 36.0190182], [-95.9798992, 36.0190437], [-95.9799494, 36.0190433], [-95.9799495, 36.0190529], [-95.9799843, 36.0190527]]]}, "properties": {"osm_id": 680239976, "building": "yes", "name": "", "height": null, "height_m": null, "levels": null, "tract_id": "40143006703", "tract_name": "67.03", "tags": {"building": "yes"}}}, {"type": "Feature", "geometry": {"type": "Polygon", "coordinates": [[[-95.9805241, 36.0190451], [-95.9805243, 36.0190535], [-95.9805408, 36.0190533], [-95.9805432, 36.0191922], [-95.9805266, 36.0191923], [-95.9805268, 36.0192012], [-95.9805181, 36.0192013], [-95.9805182, 36.0192099], [-95.9800468, 36.019215], [-95.9800467, 36.0192065], [-95.9800346, 36.0192067], [-95.9800344, 36.019198], [-95.9800195, 36.0191982], [-95.980017, 36.0190507], [-95.980044, 36.0190504], [-95.9800438, 36.019041], [-95.9805126, 36.0190359], [-95.9805127, 36.0190452], [-95.9805241, 36.0190451]]]}, "properties": {"osm_id": 680239977, "building": "yes", "name": "", "height": null, "height_m": null, "levels": null, "tract_id": "40143006703", "tract_name": "67.03", "tags": {"building": "yes"}}}, {"type": "Feature", "geometry": {"type": "Polygon", "coordinates": [[[-95.9807253, 36.0191866], [-95.9808487, 36.0189518], [-95.9809373, 36.0189823], [-95.9808139, 36.0192171], [-95.9807253, 36.0191866]]]}, "properties": {"osm_id": 680239978, "building": "yes", "name": "", "height": null, "height_m": null, "levels": null, "tract_id": "40143006703", "tract_name": "67.03", "tags": {"building": "yes"}}}, {"type": "Feature", "geometry": {"type": "Polygon", "coordinates": [[[-95.9805194, 36.019582], [-95.9806428, 36.0193445], [-95.980729, 36.0193738], [-95.9806056, 36.0196113], [-95.9805194, 36.019582]]]}, "properties": {"osm_id": 680239979, "building": "yes", "name": "", "height": null, "height_m": null, "levels": null, "tract_id": "40143006703", "tract_name": "67.03", "tags": {"building": "yes"}}}, {"type": "Feature", "geometry": {"type": "Polygon", "coordinates": [[[-95.9802894, 36.0200213], [-95.9804101, 36.0197854], [-95.9804969, 36.0198145], [-95.9803762, 36.0200504], [-95.9802894, 36.0200213]]]}, "properties": {"osm_id": 680239980, "building": "yes", "name": "", "height": null, "height_m": null, "levels": null, "tract_id": "40143006703", "tract_name": "67.03", "tags": {"building": "yes"}}}, {"type": "Feature", "geometry": {"type": "Polygon", "coordinates": [[[-95.9800333, 36.0205008], [-95.980154, 36.0202681], [-95.9802453, 36.0202991], [-95.9801246, 36.0205318], [-95.9800333, 36.0205008]]]}, "properties": {"osm_id": 680239981, "building": "yes", "name": "", "height": null, "height_m": null, "levels": null, "tract_id": "40143006703", "tract_name": "67.03", "tags": {"building": "yes"}}}, {"type": "Feature", "geometry": {"type": "Polygon", "coordinates": [[[-95.9797952, 36.0209341], [-95.9799287, 36.0207031], [-95.9800157, 36.0207359], [-95.9798823, 36.020967], [-95.9797952, 36.0209341]]]}, "properties": {"osm_id": 680239982, "building": "yes", "name": "", "height": null, "height_m": null, "levels": null, "tract_id": "40143006703", "tract_name": "67.03", "tags": {"building": "yes"}}}, {"type": "Feature", "geometry": {"type": "Polygon", "coordinates": [[[-95.980443, 36.019287], [-95.9804368, 36.0192987], [-95.9804598, 36.0193066], [-95.9802063, 36.0197876], [-95.9801832, 36.0197797], [-95.9801788, 36.0197881], [-95.9800424, 36.0197411], [-95.9800489, 36.0197287], [-95.9800368, 36.0197245], [-95.9802891, 36.0192461], [-95.9803028, 36.0192508], [-95.9803082, 36.0192405], [-95.980443, 36.019287]]]}, "properties": {"osm_id": 680239994, "building": "yes", "name": "", "height": null, "height_m": null, "levels": null, "tract_id": "40143006703", "tract_name": "67.03", "tags": {"building": "yes"}}}, {"type": "Feature", "geometry": {"type": "Polygon", "coordinates": [[[-95.9795505, 36.0196411], [-95.9796472, 36.0195504], [-95.9796544, 36.0195554], [-95.9796696, 36.0195411], [-95.9801625, 36.0198846], [-95.9801473, 36.0198989], [-95.9801561, 36.0199051], [-95.9800594, 36.0199958], [-95.9800508, 36.0199898], [-95.9800356, 36.0200041], [-95.9795431, 36.0196609], [-95.9795584, 36.0196466], [-95.9795505, 36.0196411]]]}, "properties": {"osm_id": 680240254, "building": "yes", "name": "", "height": null, "height_m": null, "levels": null, "tract_id": "40143006703", "tract_name": "67.03", "tags": {"building": "yes"}}}, {"type": "Feature", "geometry": {"type": "Polygon", "coordinates": [[[-95.9795371, 36.0191411], [-95.979692, 36.0191952], [-95.9794828, 36.0195873], [-95.9793279, 36.0195332], [-95.9795371, 36.0191411]]]}, "properties": {"osm_id": 680240256, "building": "yes", "name": "", "height": null, "height_m": null, "levels": null, "tract_id": "40143006703", "tract_name": "67.03", "tags": {"building": "yes"}}}, {"type": "Feature", "geometry": {"type": "Polygon", "coordinates": [[[-95.9795069, 36.0205409], [-95.979493, 36.0205555], [-95.9795046, 36.0205627], [-95.979414, 36.0206575], [-95.9794025, 36.0206503], [-95.9793914, 36.0206619], [-95.9788791, 36.0203419], [-95.9788921, 36.0203283], [-95.9788828, 36.0203225], [-95.9789719, 36.0202291], [-95.9789812, 36.0202349], [-95.9789946, 36.0202209], [-95.9795069, 36.0205409]]]}, "properties": {"osm_id": 680240422, "building": "yes", "name": "", "height": null, "height_m": null, "levels": null, "tract_id": "40143006703", "tract_name": "67.03", "tags": {"building": "yes"}}}, {"type": "Feature", "geometry": {"type": "Polygon", "coordinates": [[[-95.9798442, 36.0204395], [-95.9796383, 36.0208289], [-95.9794865, 36.0207764], [-95.9796924, 36.020387], [-95.9798442, 36.0204395]]]}, "properties": {"osm_id": 680240423, "building": "yes", "name": "", "height": null, "height_m": null, "levels": null, "tract_id": "40143006703", "tract_name": "67.03", "tags": {"building": "yes"}}}, {"type": "Feature", "geometry": {"type": "Polygon", "coordinates": [[[-95.9792522, 36.0200291], [-95.9791515, 36.0202203], [-95.9789973, 36.0201672], [-95.9790983, 36.0199752], [-95.9792522, 36.0200291]]]}, "properties": {"osm_id": 680240424, "building": "yes", "name": "", "height": null, "height_m": null, "levels": null, "tract_id": "40143006703", "tract_name": "67.03", "tags": {"building": "yes"}}}, {"type": "Feature", "geometry": {"type": "Polygon", "coordinates": [[[-95.9790983, 36.0199752], [-95.9792045, 36.0197735], [-95.9793587, 36.0198266], [-95.9792522, 36.0200291], [-95.9790983, 36.0199752]]]}, "properties": {"osm_id": 680240425, "building": "yes", "name": "", "height": null, "height_m": null, "levels": null, "tract_id": "40143006703", "tract_name": "67.03", "tags": {"building": "yes"}}}, {"type": "Feature", "geometry": {"type": "Polygon", "coordinates": [[[-95.9799669, 36.0202513], [-95.9799533, 36.0202669], [-95.9799639, 36.0202729], [-95.9798794, 36.0203698], [-95.9798688, 36.0203638], [-95.9798556, 36.020379], [-95.9793259, 36.0200769], [-95.9793385, 36.0200623], [-95.9793286, 36.0200567], [-95.9794142, 36.0199586], [-95.979424, 36.0199642], [-95.9794372, 36.0199492], [-95.9799669, 36.0202513]]]}, "properties": {"osm_id": 680240426, "building": "yes", "name": "", "height": null, "height_m": null, "levels": null, "tract_id": "40143006703", "tract_name": "67.03", "tags": {"building": "yes"}}}, {"type": "Feature", "geometry": {"type": "Polygon", "coordinates": [[[-95.9615837, 36.0239159], [-95.9614685, 36.0237894], [-95.9614209, 36.0238177], [-95.9613951, 36.0237894], [-95.961333, 36.0238264], [-95.9613456, 36.0238402], [-95.9610778, 36.0239998], [-95.9609762, 36.0239842], [-95.9609627, 36.0240684], [-95.9606422, 36.0242595], [-95.9606246, 36.0242401], [-95.9605632, 36.0242767], [-95.9607093, 36.024437], [-95.9615837, 36.0239159]]]}, "properties": {"osm_id": 692095141, "building": "retail", "name": "", "height": null, "height_m": null, "levels": null, "tract_id": "40143006703", "tract_name": "67.03", "tags": {"building": "retail"}}}, {"type": "Feature", "geometry": {"type": "Polygon", "coordinates": [[[-95.9832855, 36.0220502], [-95.9832349, 36.0219661], [-95.9831503, 36.0219993], [-95.9832009, 36.0220835], [-95.9832855, 36.0220502]]]}, "properties": {"osm_id": 717276820, "building": "yes", "name": "", "height": null, "height_m": null, "levels": null, "tract_id": "40143006703", "tract_name": "67.03", "tags": {"building": "yes"}}}, {"type": "Feature", "geometry": {"type": "Polygon", "coordinates": [[[-95.9831165, 36.023177], [-95.9830814, 36.0232106], [-95.9830538, 36.0231918], [-95.9830695, 36.0231767], [-95.9830889, 36.0231581], [-95.9831165, 36.023177]]]}, "properties": {"osm_id": 717276822, "building": "yes", "name": "", "height": null, "height_m": null, "levels": null, "tract_id": "40143006703", "tract_name": "67.03", "tags": {"building": "yes"}}}, {"type": "Feature", "geometry": {"type": "Polygon", "coordinates": [[[-95.984744, 36.0190836], [-95.9847448, 36.0189674], [-95.984614, 36.0189668], [-95.9846132, 36.0190831], [-95.984744, 36.0190836]]]}, "properties": {"osm_id": 717276832, "building": "yes", "name": "", "height": null, "height_m": null, "levels": null, "tract_id": "40143006703", "tract_name": "67.03", "tags": {"building": "yes"}}}, {"type": "Feature", "geometry": {"type": "Polygon", "coordinates": [[[-95.9842409, 36.0202098], [-95.9842434, 36.0201701], [-95.9841752, 36.0201674], [-95.9841728, 36.0202071], [-95.9842409, 36.0202098]]]}, "properties": {"osm_id": 717276837, "building": "yes", "name": "", "height": null, "height_m": null, "levels": null, "tract_id": "40143006703", "tract_name": "67.03", "tags": {"building": "yes"}}}, {"type": "Feature", "geometry": {"type": "Polygon", "coordinates": [[[-95.9819403, 36.0185347], [-95.9819393, 36.0184981], [-95.9819384, 36.018464], [-95.9818129, 36.0184661], [-95.9818148, 36.0185369], [-95.9819403, 36.0185347]]]}, "properties": {"osm_id": 717276840, "building": "yes", "name": "", "height": null, "height_m": null, "levels": null, "tract_id": "40143006703", "tract_name": "67.03", "tags": {"building": "yes"}}}, {"type": "Feature", "geometry": {"type": "Polygon", "coordinates": [[[-95.9818803, 36.0184475], [-95.9818794, 36.0184155], [-95.9818246, 36.0184164], [-95.9818254, 36.0184485], [-95.9818803, 36.0184475]]]}, "properties": {"osm_id": 717276841, "building": "yes", "name": "", "height": null, "height_m": null, "levels": null, "tract_id": "40143006703", "tract_name": "67.03", "tags": {"building": "yes"}}}, {"type": "Feature", "geometry": {"type": "Polygon", "coordinates": [[[-95.9824677, 36.0216584], [-95.9824677, 36.021583], [-95.9824033, 36.021583], [-95.9824035, 36.0216586], [-95.9824677, 36.0216584]]]}, "properties": {"osm_id": 717295675, "building": "yes", "name": "", "height": null, "height_m": null, "levels": null, "tract_id": "40143006703", "tract_name": "67.03", "tags": {"amenity": "toilets", "building": "yes"}}}, {"type": "Feature", "geometry": {"type": "Polygon", "coordinates": [[[-95.9824035, 36.0216586], [-95.9822702, 36.0216588], [-95.9822701, 36.0215831], [-95.9824033, 36.021583], [-95.9824035, 36.0216586]]]}, "properties": {"osm_id": 717295676, "building": "yes", "name": "", "height": null, "height_m": null, "levels": null, "tract_id": "40143006703", "tract_name": "67.03", "tags": {"building": "yes"}}}, {"type": "Feature", "geometry": {"type": "Polygon", "coordinates": [[[-95.9824553, 36.0213251], [-95.982455, 36.0212527], [-95.9824414, 36.0212528], [-95.9822833, 36.0212532], [-95.9822836, 36.0213256], [-95.9824553, 36.0213251]]]}, "properties": {"osm_id": 717295677, "building": "yes", "name": "", "height": null, "height_m": null, "levels": null, "tract_id": "40143006703", "tract_name": "67.03", "tags": {"building": "yes"}}}, {"type": "Feature", "geometry": {"type": "Polygon", "coordinates": [[[-95.9756625, 36.0234877], [-95.9748091, 36.0234853], [-95.974809, 36.0235113], [-95.9746501, 36.0235108], [-95.9746501, 36.0234933], [-95.9745941, 36.0234931], [-95.9745968, 36.0227952], [-95.9747912, 36.0227957], [-95.9747891, 36.0233115], [-95.9756632, 36.0233138], [-95.9756625, 36.0234877]]]}, "properties": {"osm_id": 727771620, "building": "yes", "name": "", "height": null, "height_m": null, "levels": null, "tract_id": "40143006703", "tract_name": "67.03", "tags": {"building": "yes"}}}, {"type": "Feature", "geometry": {"type": "Polygon", "coordinates": [[[-95.9733087, 36.0185468], [-95.9732292, 36.0184832], [-95.9730836, 36.0186021], [-95.9731202, 36.0186314], [-95.9731631, 36.0186657], [-95.9733087, 36.0185468]]]}, "properties": {"osm_id": 837454606, "building": "yes", "name": "", "height": null, "height_m": null, "levels": null, "tract_id": "40143006703", "tract_name": "67.03", "tags": {"building": "yes"}}}, {"type": "Feature", "geometry": {"type": "Polygon", "coordinates": [[[-95.9725247, 36.0198923], [-95.9725258, 36.0198046], [-95.9723137, 36.0198029], [-95.9723131, 36.0198497], [-95.9723126, 36.0198906], [-95.9725247, 36.0198923]]]}, "properties": {"osm_id": 837454615, "building": "yes", "name": "", "height": null, "height_m": null, "levels": null, "tract_id": "40143006703", "tract_name": "67.03", "tags": {"amenity": "shelter", "building": "yes"}}}, {"type": "Feature", "geometry": {"type": "Polygon", "coordinates": [[[-95.9732336, 36.0197164], [-95.973193, 36.0197481], [-95.9731737, 36.0197632], [-95.9731068, 36.0197073], [-95.9731289, 36.0196899], [-95.9731666, 36.0196604], [-95.9732336, 36.0197164]]]}, "properties": {"osm_id": 837454620, "building": "yes", "name": "", "height": null, "height_m": null, "levels": null, "tract_id": "40143006703", "tract_name": "67.03", "tags": {"building": "yes"}}}, {"type": "Feature", "geometry": {"type": "Polygon", "coordinates": [[[-95.973695, 36.0193669], [-95.9736584, 36.019337], [-95.9736181, 36.0193693], [-95.9736547, 36.0193992], [-95.973695, 36.0193669]]]}, "properties": {"osm_id": 837454623, "building": "yes", "name": "", "height": null, "height_m": null, "levels": null, "tract_id": "40143006703", "tract_name": "67.03", "tags": {"amenity": "shelter", "building": "yes"}}}, {"type": "Feature", "geometry": {"type": "Polygon", "coordinates": [[[-95.9726875, 36.0195537], [-95.9726885, 36.0195236], [-95.9726522, 36.0195228], [-95.9726512, 36.0195529], [-95.9726875, 36.0195537]]]}, "properties": {"osm_id": 837454624, "building": "yes", "name": "", "height": null, "height_m": null, "levels": null, "tract_id": "40143006703", "tract_name": "67.03", "tags": {"amenity": "shelter", "building": "yes"}}}, {"type": "Feature", "geometry": {"type": "Polygon", "coordinates": [[[-95.9727853, 36.0192289], [-95.9727616, 36.0192522], [-95.9727315, 36.0192323], [-95.9727551, 36.0192089], [-95.9727853, 36.0192289]]]}, "properties": {"osm_id": 837454625, "building": "yes", "name": "", "height": null, "height_m": null, "levels": null, "tract_id": "40143006703", "tract_name": "67.03", "tags": {"amenity": "shelter", "building": "yes"}}}, {"type": "Feature", "geometry": {"type": "Polygon", "coordinates": [[[-95.9755634, 36.0202728], [-95.9753096, 36.0202731], [-95.9753094, 36.0201939], [-95.9755633, 36.0201937], [-95.9755634, 36.0202728]]]}, "properties": {"osm_id": 843189873, "building": "yes", "name": "", "height": null, "height_m": null, "levels": null, "tract_id": "40143006703", "tract_name": "67.03", "tags": {"building": "yes"}}}, {"type": "Feature", "geometry": {"type": "Polygon", "coordinates": [[[-95.9747479, 36.0202381], [-95.9746983, 36.0202377], [-95.9746987, 36.0202105], [-95.9747483, 36.0202109], [-95.9747479, 36.0202381]]]}, "properties": {"osm_id": 843189874, "building": "yes", "name": "", "height": null, "height_m": null, "levels": null, "tract_id": "40143006703", "tract_name": "67.03", "tags": {"building": "yes"}}}, {"type": "Feature", "geometry": {"type": "Polygon", "coordinates": [[[-95.9743284, 36.020181], [-95.9742098, 36.0201843], [-95.9742082, 36.0201463], [-95.9743268, 36.020143], [-95.9743284, 36.020181]]]}, "properties": {"osm_id": 843189875, "building": "yes", "name": "", "height": null, "height_m": null, "levels": null, "tract_id": "40143006703", "tract_name": "67.03", "tags": {"building": "yes"}}}, {"type": "Feature", "geometry": {"type": "Polygon", "coordinates": [[[-95.973738, 36.0201648], [-95.9738243, 36.0201635], [-95.9738261, 36.0202412], [-95.9737398, 36.0202425], [-95.973738, 36.0201648]]]}, "properties": {"osm_id": 843189876, "building": "yes", "name": "", "height": null, "height_m": null, "levels": null, "tract_id": "40143006703", "tract_name": "67.03", "tags": {"building": "yes"}}}, {"type": "Feature", "geometry": {"type": "Polygon", "coordinates": [[[-95.973988, 36.0202691], [-95.9739429, 36.0202694], [-95.9739424, 36.0202219], [-95.9739875, 36.0202216], [-95.973988, 36.0202691]]]}, "properties": {"osm_id": 843189877, "building": "yes", "name": "", "height": null, "height_m": null, "levels": null, "tract_id": "40143006703", "tract_name": "67.03", "tags": {"building": "yes"}}}, {"type": "Feature", "geometry": {"type": "Polygon", "coordinates": [[[-95.974004, 36.0203312], [-95.9740035, 36.0202185], [-95.974038, 36.0202184], [-95.9740379, 36.0202036], [-95.9740834, 36.0202035], [-95.9740837, 36.0202761], [-95.9741587, 36.0202759], [-95.9741589, 36.0203291], [-95.9742107, 36.0203289], [-95.974211, 36.0203883], [-95.9741585, 36.0203884], [-95.9741588, 36.020449], [-95.974063, 36.0204492], [-95.9740623, 36.0202791], [-95.9740422, 36.0202791], [-95.9740424, 36.0203311], [-95.974004, 36.0203312]]]}, "properties": {"osm_id": 843189878, "building": "yes", "name": "", "height": null, "height_m": null, "levels": null, "tract_id": "40143006703", "tract_name": "67.03", "tags": {"building": "yes"}}}, {"type": "Feature", "geometry": {"type": "Polygon", "coordinates": [[[-95.9714381, 36.023072], [-95.9714408, 36.022937], [-95.9715199, 36.022938], [-95.9715172, 36.023073], [-95.9714381, 36.023072]]]}, "properties": {"osm_id": 912219175, "building": "yes", "name": "Goodwill Donation Center", "height": null, "height_m": null, "levels": null, "tract_id": "40143006703", "tract_name": "67.03", "tags": {"addr:housenumber": "211", "building": "yes", "name": "Goodwill Donation Center", "opening_hours": "Mo-Sa 09:00-18:00; Su 12:00-18:00", "shop": "charity"}}}, {"type": "Feature", "geometry": {"type": "Polygon", "coordinates": [[[-95.9726053, 36.0229733], [-95.9726051, 36.0229114], [-95.9726224, 36.0229114], [-95.9728351, 36.0229109], [-95.9728353, 36.0229728], [-95.9726053, 36.0229733]]]}, "properties": {"osm_id": 912219179, "building": "retail", "name": "Sonic", "height": null, "height_m": null, "levels": null, "tract_id": "40143006703", "tract_name": "67.03", "tags": {"addr:city": "Jenks", "addr:housenumber": "321", "addr:postcode": "74037", "addr:state": "OK", "addr:street": "West Main Street", "amenity": "fast_food", "brand": "Sonic", "brand:wikidata": "Q7561808", "building": "retail", "cuisine": "burger", "drive_in": "yes", "name": "Sonic", "opening_hours": "Mo-Sa 06:00-23:00; Su 07:00-23:00", "phone": "+1 918-299-9186", "takeaway": "yes", "website": "https://locations.sonicdrivein.com/ok/jenks/321-west-main-street.html"}}}, {"type": "Feature", "geometry": {"type": "Polygon", "coordinates": [[[-95.9729239, 36.0228669], [-95.9729241, 36.022906], [-95.9729395, 36.022906], [-95.9729397, 36.022985], [-95.9728354, 36.0229853], [-95.9728353, 36.0229728], [-95.9728351, 36.0229109], [-95.9726224, 36.0229114], [-95.9726222, 36.0228676], [-95.9729239, 36.0228669]]]}, "properties": {"osm_id": 912219180, "building": "roof", "name": "", "height": null, "height_m": null, "levels": null, "tract_id": "40143006703", "tract_name": "67.03", "tags": {"building": "roof"}}}, {"type": "Feature", "geometry": {"type": "Polygon", "coordinates": [[[-95.9729429, 36.0227753], [-95.9726009, 36.0227732], [-95.9726013, 36.0227325], [-95.9729433, 36.0227347], [-95.9729429, 36.0227753]]]}, "properties": {"osm_id": 912219181, "building": "roof", "name": "", "height": null, "height_m": null, "levels": null, "tract_id": "40143006703", "tract_name": "67.03", "tags": {"building": "roof"}}}, {"type": "Feature", "geometry": {"type": "Polygon", "coordinates": [[[-95.9769152, 36.0208099], [-95.9766429, 36.0208076], [-95.976647, 36.0204834], [-95.9766049, 36.0204831], [-95.9766062, 36.0203832], [-95.9769206, 36.0203858], [-95.9769152, 36.0208099]]]}, "properties": {"osm_id": 967636566, "building": "yes", "name": "Ascension Saint John Clinic", "height": null, "height_m": null, "levels": null, "tract_id": "40143006703", "tract_name": "67.03", "tags": {"amenity": "clinic", "building": "yes", "name": "Ascension Saint John Clinic"}}}, {"type": "Feature", "geometry": {"type": "Polygon", "coordinates": [[[-95.9598952, 36.0212676], [-95.959887, 36.0212675], [-95.9598871, 36.021262], [-95.9598434, 36.0212617], [-95.9598433, 36.0212675], [-95.9597477, 36.0212668], [-95.9597477, 36.0212631], [-95.9597047, 36.0212628], [-95.9597046, 36.0212677], [-95.9596519, 36.0212673], [-95.959652, 36.0212629], [-95.9596091, 36.0212626], [-95.9596091, 36.021268], [-95.9595902, 36.0212679], [-95.9595913, 36.0211508], [-95.9598963, 36.0211527], [-95.9598952, 36.0212676]]]}, "properties": {"osm_id": 976814956, "building": "yes", "name": "", "height": null, "height_m": null, "levels": null, "tract_id": "40143006703", "tract_name": "67.03", "tags": {"building": "yes"}}}, {"type": "Feature", "geometry": {"type": "Polygon", "coordinates": [[[-95.9598919, 36.0207722], [-95.9597432, 36.0207714], [-95.9597453, 36.0205239], [-95.9598916, 36.0205247], [-95.9598915, 36.0205376], [-95.9598869, 36.0205376], [-95.9598866, 36.020572], [-95.9598911, 36.0205721], [-95.9598907, 36.0206152], [-95.9598843, 36.0206151], [-95.959884, 36.0206503], [-95.9598914, 36.0206503], [-95.9598907, 36.0207315], [-95.9598865, 36.0207314], [-95.9598862, 36.0207625], [-95.959892, 36.0207626], [-95.9598919, 36.0207722]]]}, "properties": {"osm_id": 976814958, "building": "yes", "name": "", "height": null, "height_m": null, "levels": null, "tract_id": "40143006703", "tract_name": "67.03", "tags": {"building": "yes"}}}, {"type": "Feature", "geometry": {"type": "Polygon", "coordinates": [[[-95.9600051, 36.0202596], [-95.9598943, 36.02026], [-95.9598941, 36.020223], [-95.959821, 36.0202233], [-95.9598208, 36.0201881], [-95.9598146, 36.0201881], [-95.9598144, 36.0201513], [-95.9598216, 36.0201512], [-95.9598215, 36.0201387], [-95.9598148, 36.0201387], [-95.9598145, 36.0201017], [-95.9598223, 36.0201016], [-95.959822, 36.0200652], [-95.9598994, 36.0200648], [-95.9598991, 36.0200299], [-95.9600056, 36.0200294], [-95.960006, 36.020085], [-95.9600121, 36.020085], [-95.9600124, 36.0201178], [-95.9600041, 36.0201178], [-95.9600045, 36.0201735], [-95.9600115, 36.0201735], [-95.9600117, 36.020206], [-95.9600048, 36.020206], [-95.9600051, 36.0202596]]]}, "properties": {"osm_id": 976814959, "building": "yes", "name": "", "height": null, "height_m": null, "levels": null, "tract_id": "40143006703", "tract_name": "67.03", "tags": {"building": "yes"}}}, {"type": "Feature", "geometry": {"type": "Polygon", "coordinates": [[[-95.9604928, 36.0206941], [-95.9603956, 36.0207428], [-95.9603028, 36.0206216], [-95.9604089, 36.0205685], [-95.9604617, 36.0206376], [-95.9604529, 36.020642], [-95.9604928, 36.0206941]]]}, "properties": {"osm_id": 976814960, "building": "yes", "name": "", "height": null, "height_m": null, "levels": null, "tract_id": "40143006703", "tract_name": "67.03", "tags": {"building": "yes"}}}, {"type": "Feature", "geometry": {"type": "Polygon", "coordinates": [[[-95.9617122, 36.0258622], [-95.9615946, 36.0258617], [-95.9615938, 36.0259974], [-95.9617084, 36.0259978], [-95.9617087, 36.0259533], [-95.9617194, 36.0259533], [-95.9617196, 36.0259227], [-95.9617119, 36.0259227], [-95.9617122, 36.0258622]]]}, "properties": {"osm_id": 978924586, "building": "yes", "name": "", "height": null, "height_m": null, "levels": null, "tract_id": "40143006703", "tract_name": "67.03", "tags": {"building": "yes"}}}, {"type": "Feature", "geometry": {"type": "Polygon", "coordinates": [[[-95.9622348, 36.0258633], [-95.9620622, 36.0258637], [-95.9620636, 36.0259267], [-95.9620452, 36.0259271], [-95.9620457, 36.0260003], [-95.9621725, 36.0260018], [-95.9621739, 36.0259358], [-95.9622321, 36.0259351], [-95.9622348, 36.0258633]]]}, "properties": {"osm_id": 978924587, "building": "yes", "name": "", "height": null, "height_m": null, "levels": null, "tract_id": "40143006703", "tract_name": "67.03", "tags": {"building": "yes"}}}, {"type": "Feature", "geometry": {"type": "Polygon", "coordinates": [[[-95.9622077, 36.0258335], [-95.9620475, 36.0258336], [-95.9620474, 36.0257659], [-95.9620858, 36.0257659], [-95.9620858, 36.0256848], [-95.962207, 36.0256848], [-95.9622071, 36.0257568], [-95.9622493, 36.0257568], [-95.9622494, 36.0258125], [-95.9622077, 36.0258126], [-95.9622077, 36.0258335]]]}, "properties": {"osm_id": 978924588, "building": "yes", "name": "", "height": null, "height_m": null, "levels": null, "tract_id": "40143006703", "tract_name": "67.03", "tags": {"building": "yes"}}}, {"type": "Feature", "geometry": {"type": "Polygon", "coordinates": [[[-95.9625966, 36.0258252], [-95.9624327, 36.0258265], [-95.9624315, 36.0257225], [-95.9625176, 36.0257219], [-95.9625174, 36.0257024], [-95.9625951, 36.0257018], [-95.9625966, 36.0258252]]]}, "properties": {"osm_id": 978924589, "building": "yes", "name": "", "height": null, "height_m": null, "levels": null, "tract_id": "40143006703", "tract_name": "67.03", "tags": {"building": "yes"}}}, {"type": "Feature", "geometry": {"type": "Polygon", "coordinates": [[[-95.9617121, 36.025824], [-95.9615497, 36.0258253], [-95.9615478, 36.0256745], [-95.9616745, 36.0256735], [-95.9616755, 36.0257537], [-95.9617112, 36.0257534], [-95.9617121, 36.025824]]]}, "properties": {"osm_id": 978924590, "building": "house", "name": "", "height": null, "height_m": null, "levels": null, "tract_id": "40143006703", "tract_name": "67.03", "tags": {"building": "house"}}}, {"type": "Feature", "geometry": {"type": "Polygon", "coordinates": [[[-95.9617086, 36.0263621], [-95.9616068, 36.0263623], [-95.9616065, 36.0262166], [-95.9617108, 36.0262164], [-95.9617109, 36.0262611], [-95.961721, 36.0262611], [-95.9617212, 36.0263197], [-95.9617085, 36.0263197], [-95.9617086, 36.0263621]]]}, "properties": {"osm_id": 978924591, "building": "yes", "name": "", "height": null, "height_m": null, "levels": null, "tract_id": "40143006703", "tract_name": "67.03", "tags": {"building": "yes"}}}, {"type": "Feature", "geometry": {"type": "Polygon", "coordinates": [[[-95.9617099, 36.0261828], [-95.9615795, 36.0261833], [-95.9615788, 36.0260397], [-95.9616871, 36.0260394], [-95.9616874, 36.0261053], [-95.9617038, 36.0261052], [-95.9617039, 36.0261203], [-95.9617095, 36.0261203], [-95.9617099, 36.0261828]]]}, "properties": {"osm_id": 978924592, "building": "yes", "name": "", "height": null, "height_m": null, "levels": null, "tract_id": "40143006703", "tract_name": "67.03", "tags": {"building": "yes"}}}, {"type": "Feature", "geometry": {"type": "Polygon", "coordinates": [[[-95.9626318, 36.0263571], [-95.9624159, 36.0262596], [-95.9624779, 36.0261698], [-95.9625554, 36.0262048], [-95.9625748, 36.0261767], [-95.9626769, 36.0262228], [-95.9626367, 36.026281], [-95.9626731, 36.0262974], [-95.9626318, 36.0263571]]]}, "properties": {"osm_id": 978924593, "building": "yes", "name": "", "height": null, "height_m": null, "levels": null, "tract_id": "40143006703", "tract_name": "67.03", "tags": {"building": "yes"}}}, {"type": "Feature", "geometry": {"type": "Polygon", "coordinates": [[[-95.9622501, 36.0261747], [-95.9622502, 36.0260374], [-95.962085, 36.0260373], [-95.9620848, 36.0261212], [-95.9620467, 36.0261212], [-95.9620467, 36.0261745], [-95.9622501, 36.0261747]]]}, "properties": {"osm_id": 978924594, "building": "yes", "name": "", "height": null, "height_m": null, "levels": null, "tract_id": "40143006703", "tract_name": "67.03", "tags": {"building": "yes"}}}, {"type": "Feature", "geometry": {"type": "Polygon", "coordinates": [[[-95.9614964, 36.025663], [-95.9615045, 36.0255827], [-95.9613557, 36.0255729], [-95.9613395, 36.0257333], [-95.9614311, 36.0257393], [-95.9614392, 36.0256592], [-95.9614964, 36.025663]]]}, "properties": {"osm_id": 978924595, "building": "house", "name": "", "height": null, "height_m": null, "levels": null, "tract_id": "40143006703", "tract_name": "67.03", "tags": {"building": "house"}}}, {"type": "Feature", "geometry": {"type": "Polygon", "coordinates": [[[-95.96131, 36.0257044], [-95.9613146, 36.0255667], [-95.9611715, 36.0255635], [-95.9611682, 36.0256591], [-95.9612194, 36.0256603], [-95.961218, 36.0257023], [-95.96131, 36.0257044]]]}, "properties": {"osm_id": 978924596, "building": "house", "name": "", "height": null, "height_m": null, "levels": null, "tract_id": "40143006703", "tract_name": "67.03", "tags": {"building": "house"}}}, {"type": "Feature", "geometry": {"type": "Polygon", "coordinates": [[[-95.9805546, 36.0300309], [-95.9805166, 36.0300346], [-95.9805199, 36.0300569], [-95.9803867, 36.0300698], [-95.9803871, 36.0300731], [-95.9803244, 36.0300798], [-95.9803142, 36.0300079], [-95.9803573, 36.0300043], [-95.9803516, 36.0299655], [-95.9803652, 36.0299649], [-95.9803589, 36.0299272], [-95.9804981, 36.0299124], [-95.9805067, 36.0299797], [-95.9805465, 36.0299759], [-95.9805546, 36.0300309]]]}, "properties": {"osm_id": 982799205, "building": "house", "name": "", "height": null, "height_m": null, "levels": null, "tract_id": "40143006703", "tract_name": "67.03", "tags": {"building": "house"}}}, {"type": "Feature", "geometry": {"type": "Polygon", "coordinates": [[[-95.9802393, 36.030525], [-95.9801319, 36.0305761], [-95.9800744, 36.0304987], [-95.9800453, 36.0305125], [-95.9800196, 36.0304728], [-95.9800459, 36.0304605], [-95.9800287, 36.0304385], [-95.9801658, 36.030371], [-95.9802238, 36.0304534], [-95.9801966, 36.0304663], [-95.9802393, 36.030525]]]}, "properties": {"osm_id": 982799206, "building": "house", "name": "", "height": null, "height_m": null, "levels": null, "tract_id": "40143006703", "tract_name": "67.03", "tags": {"building": "house"}}}, {"type": "Feature", "geometry": {"type": "Polygon", "coordinates": [[[-95.9627035, 36.0223825], [-95.9625658, 36.022383], [-95.9625642, 36.0220615], [-95.9627018, 36.0220601], [-95.9627035, 36.0223825]]]}, "properties": {"osm_id": 986087740, "building": "yes", "name": "", "height": null, "height_m": null, "levels": null, "tract_id": "40143006703", "tract_name": "67.03", "tags": {"building": "yes"}}}, {"type": "Feature", "geometry": {"type": "Polygon", "coordinates": [[[-95.9626214, 36.0218321], [-95.9625307, 36.0218302], [-95.9625364, 36.0216845], [-95.9626166, 36.0216864], [-95.9626195, 36.0217061], [-95.9626252, 36.0217073], [-95.9626252, 36.021711], [-95.9626606, 36.0217118], [-95.9626602, 36.0218008], [-95.9626221, 36.0217998], [-95.9626214, 36.0218321]]]}, "properties": {"osm_id": 986087741, "building": "yes", "name": "", "height": null, "height_m": null, "levels": null, "tract_id": "40143006703", "tract_name": "67.03", "tags": {"building": "yes"}}}, {"type": "Feature", "geometry": {"type": "Polygon", "coordinates": [[[-95.9619981, 36.0214244], [-95.9619984, 36.0214149], [-95.9620036, 36.0214125], [-95.9620065, 36.0213354], [-95.9619097, 36.0213331], [-95.9619064, 36.0214222], [-95.9619981, 36.0214244]]]}, "properties": {"osm_id": 986087742, "building": "yes", "name": "", "height": null, "height_m": null, "levels": null, "tract_id": "40143006703", "tract_name": "67.03", "tags": {"building": "yes"}}}, {"type": "Feature", "geometry": {"type": "Polygon", "coordinates": [[[-95.9621631, 36.022352], [-95.9620239, 36.0223536], [-95.9620239, 36.0222937], [-95.9619534, 36.022268], [-95.9619491, 36.0222775], [-95.9616204, 36.0221486], [-95.961631, 36.0221286], [-95.9616088, 36.0221195], [-95.9615968, 36.0221339], [-95.9615795, 36.0221432], [-95.9615573, 36.0221471], [-95.9615321, 36.0221434], [-95.9615123, 36.022135], [-95.961502, 36.0221218], [-95.9614962, 36.0221076], [-95.9614964, 36.0220936], [-95.961502, 36.0220798], [-95.9615126, 36.0220685], [-95.9615258, 36.0220593], [-95.9615357, 36.0220545], [-95.9615482, 36.0220535], [-95.9615643, 36.0220543], [-95.9615812, 36.0220578], [-95.9615915, 36.0220399], [-95.9615843, 36.0220375], [-95.9615819, 36.0220424], [-95.961539, 36.0220258], [-95.9615585, 36.0219916], [-95.9615689, 36.0219955], [-95.9616146, 36.0219219], [-95.9616533, 36.0219385], [-95.9616553, 36.0219322], [-95.9618064, 36.0219332], [-95.9618069, 36.0218448], [-95.9620369, 36.021845], [-95.9620379, 36.0218542], [-95.962086, 36.0218548], [-95.9620848, 36.0218365], [-95.9621575, 36.0218369], [-95.9621573, 36.0218952], [-95.9621394, 36.0218947], [-95.9621379, 36.0219325], [-95.9621471, 36.0219325], [-95.9621449, 36.0221603], [-95.9621503, 36.0221611], [-95.9621511, 36.0221646], [-95.9621629, 36.0221642], [-95.962163, 36.0222333], [-95.9621631, 36.022352]]]}, "properties": {"osm_id": 986087743, "building": "yes", "name": "", "height": null, "height_m": null, "levels": null, "tract_id": "40143006703", "tract_name": "67.03", "tags": {"building": "yes"}}}, {"type": "Feature", "geometry": {"type": "Polygon", "coordinates": [[[-95.9637755, 36.030945], [-95.963766, 36.030945], [-95.963766, 36.0309515], [-95.9636701, 36.0309516], [-95.96367, 36.0309216], [-95.9636467, 36.0309217], [-95.9636467, 36.0309375], [-95.9636082, 36.0309375], [-95.9636082, 36.0309514], [-95.9635996, 36.0309514], [-95.9635996, 36.0309575], [-95.963548, 36.0309576], [-95.963548, 36.030951], [-95.9634684, 36.0309511], [-95.9634665, 36.0309569], [-95.9634171, 36.0309569], [-95.9634171, 36.0309503], [-95.963408, 36.0309503], [-95.963408, 36.0309351], [-95.9633368, 36.0309351], [-95.9633368, 36.0309502], [-95.9633277, 36.0309502], [-95.9633277, 36.0309572], [-95.9632764, 36.0309572], [-95.9632764, 36.0309505], [-95.9631974, 36.0309506], [-95.9631974, 36.0309566], [-95.9631446, 36.0309567], [-95.9631446, 36.0309509], [-95.9631353, 36.0309509], [-95.9631352, 36.030936], [-95.9631049, 36.0309361], [-95.963105, 36.0309608], [-95.9630446, 36.030961], [-95.9630445, 36.0309428], [-95.9630033, 36.030943], [-95.9630032, 36.0309205], [-95.9629876, 36.0309205], [-95.9629878, 36.0309511], [-95.9629441, 36.0309513], [-95.9629441, 36.0309569], [-95.9628907, 36.0309572], [-95.9628906, 36.0309498], [-95.9628823, 36.0309498], [-95.9628821, 36.0309332], [-95.9628439, 36.0309334], [-95.9628437, 36.030916], [-95.9627972, 36.0308403], [-95.9627718, 36.0308505], [-95.9627504, 36.0308158], [-95.9627585, 36.0308126], [-95.9627217, 36.0307527], [-95.9627142, 36.0307539], [-95.9626947, 36.0307211], [-95.9626993, 36.0307165], [-95.9626939, 36.0307077], [-95.9627104, 36.0307011], [-95.9626984, 36.0306814], [-95.9626895, 36.0306849], [-95.9626749, 36.0306609], [-95.9626506, 36.0306706], [-95.9626099, 36.030604], [-95.9626457, 36.0305897], [-95.9626374, 36.0305761], [-95.9626438, 36.0305735], [-95.9626392, 36.030566], [-95.962683, 36.0305485], [-95.9626869, 36.0305549], [-95.9627621, 36.0305249], [-95.9627582, 36.0305185], [-95.9628, 36.0305018], [-95.9628036, 36.0305078], [-95.9628125, 36.0305043], [-95.9628204, 36.0305173], [-95.9628552, 36.0305035], [-95.9628941, 36.0305675], [-95.9628433, 36.0305878], [-95.9628556, 36.030608], [-95.9628916, 36.0305936], [-95.9629102, 36.0306242], [-95.9629187, 36.0306208], [-95.962941, 36.0306574], [-95.9629332, 36.0306605], [-95.9629379, 36.0306681], [-95.9629195, 36.0306754], [-95.9629342, 36.0306995], [-95.9629602, 36.0306892], [-95.9629825, 36.0307259], [-95.9629793, 36.0307272], [-95.9629821, 36.0307319], [-95.9629662, 36.0307382], [-95.9629824, 36.0307648], [-95.9630433, 36.0307649], [-95.9630433, 36.0307485], [-95.9630523, 36.0307486], [-95.9630523, 36.0307439], [-95.9631056, 36.0307439], [-95.9631056, 36.0307708], [-95.9631384, 36.0307708], [-95.9631383, 36.0307549], [-95.9631445, 36.0307549], [-95.9631445, 36.030747], [-95.9631976, 36.0307468], [-95.9631977, 36.030756], [-95.9632812, 36.0307557], [-95.9632811, 36.0307495], [-95.9633261, 36.0307493], [-95.9633261, 36.0307587], [-95.963336, 36.0307587], [-95.9633361, 36.0307722], [-95.9634133, 36.0307719], [-95.9634132, 36.0307577], [-95.9634206, 36.0307577], [-95.9634205, 36.0307501], [-95.963466, 36.0307499], [-95.9634661, 36.0307578], [-95.9635487, 36.0307574], [-95.9635504, 36.0307519], [-95.963595, 36.0307516], [-95.9635951, 36.0307614], [-95.9636025, 36.0307614], [-95.9636027, 36.0307774], [-95.9636455, 36.0307771], [-95.9636453, 36.0307611], [-95.9636751, 36.0307609], [-95.9636749, 36.0307361], [-95.9637611, 36.0307356], [-95.9637613, 36.0307595], [-95.9637711, 36.0307595], [-95.9637714, 36.0307991], [-95.9637625, 36.0307991], [-95.9637627, 36.0308313], [-95.9637729, 36.0308312], [-95.9637731, 36.0308688], [-95.9637607, 36.0308688], [-95.9637608, 36.030902], [-95.9637754, 36.030902], [-95.9637755, 36.030945]]]}, "properties": {"osm_id": 986207063, "building": "yes", "name": "", "height": null, "height_m": null, "levels": null, "tract_id": "40143006703", "tract_name": "67.03", "tags": {"building": "yes"}}}, {"type": "Feature", "geometry": {"type": "Polygon", "coordinates": [[[-95.9644779, 36.0316529], [-95.9644281, 36.0316005], [-95.9644704, 36.0315743], [-95.9644504, 36.0315533], [-95.9644188, 36.0315729], [-95.9643958, 36.0315486], [-95.9643878, 36.0315535], [-95.9643595, 36.0315237], [-95.9643562, 36.0315121], [-95.964372, 36.0315019], [-95.9643514, 36.031481], [-95.9643274, 36.0314964], [-95.9642976, 36.0314661], [-95.9643025, 36.031463], [-95.9642945, 36.0314549], [-95.9643064, 36.0314473], [-95.9642714, 36.0314117], [-95.9642378, 36.0314121], [-95.9642381, 36.0314308], [-95.9642296, 36.0314309], [-95.9642297, 36.0314359], [-95.9641751, 36.0314365], [-95.9641749, 36.0314268], [-95.9641326, 36.0314272], [-95.9641323, 36.0314105], [-95.9640981, 36.0314108], [-95.9640984, 36.031426], [-95.9640924, 36.031426], [-95.9640925, 36.031432], [-95.9640411, 36.0314325], [-95.9640409, 36.0314248], [-95.9640002, 36.0314252], [-95.9640001, 36.031416], [-95.9639687, 36.0314163], [-95.9639689, 36.0314255], [-95.963928, 36.0314259], [-95.9639282, 36.031434], [-95.963874, 36.0314345], [-95.9638739, 36.0314267], [-95.9638663, 36.0314268], [-95.9638661, 36.0314109], [-95.9638338, 36.0314112], [-95.963834, 36.0314267], [-95.9637919, 36.0314271], [-95.963792, 36.0314321], [-95.9637396, 36.0314326], [-95.9637395, 36.0314252], [-95.9637329, 36.0314252], [-95.9637327, 36.0314095], [-95.9636979, 36.0314099], [-95.9636981, 36.0314259], [-95.9636567, 36.0314264], [-95.9636568, 36.031433], [-95.9636035, 36.0314336], [-95.9636033, 36.0314255], [-95.9635963, 36.0314256], [-95.963596, 36.0314088], [-95.9635167, 36.0314097], [-95.9634887, 36.0314308], [-95.9634882, 36.0314656], [-95.9634963, 36.0314656], [-95.9634959, 36.0314958], [-95.9635134, 36.031496], [-95.9635133, 36.0315023], [-95.963517, 36.0315023], [-95.9635166, 36.0315445], [-95.9634704, 36.0315441], [-95.9634703, 36.0315554], [-95.9635185, 36.0315557], [-95.9635176, 36.0316403], [-95.963479, 36.0316401], [-95.9634789, 36.0316535], [-95.9634681, 36.0316535], [-95.9634681, 36.0316565], [-95.9634156, 36.0316565], [-95.9634156, 36.0316382], [-95.9633856, 36.0316382], [-95.9633856, 36.0316498], [-95.9633753, 36.0316498], [-95.9633753, 36.0316534], [-95.9633263, 36.0316535], [-95.9633262, 36.0316355], [-95.9632913, 36.0316356], [-95.9632914, 36.031649], [-95.9632833, 36.031649], [-95.9632833, 36.0316531], [-95.9632358, 36.0316532], [-95.9632353, 36.0315549], [-95.9632628, 36.0315548], [-95.9632627, 36.0315264], [-95.963278, 36.0315264], [-95.9632779, 36.0314986], [-95.963255, 36.0314986], [-95.9632549, 36.0314581], [-95.9632904, 36.031458], [-95.9632903, 36.0314269], [-95.9632658, 36.031427], [-95.9632658, 36.0314199], [-95.96326, 36.0314199], [-95.9632599, 36.0313817], [-95.9632683, 36.0313817], [-95.9632682, 36.0313494], [-95.9633054, 36.0313492], [-95.9633052, 36.0313156], [-95.9632699, 36.0313157], [-95.9632696, 36.0312679], [-95.963251, 36.031268], [-95.9632506, 36.0312071], [-95.9633283, 36.0312068], [-95.9633284, 36.0312237], [-95.9633583, 36.0312236], [-95.9633583, 36.0312294], [-95.9633675, 36.0312294], [-95.9633676, 36.0312452], [-95.9634419, 36.0312448], [-95.9634418, 36.03123], [-95.9634523, 36.0312299], [-95.9634522, 36.031224], [-95.9634972, 36.0312237], [-95.9634973, 36.0312314], [-95.9635821, 36.0312309], [-95.963582, 36.0312243], [-95.9636306, 36.031224], [-95.9636307, 36.0312331], [-95.9636392, 36.031233], [-95.9636394, 36.0312467], [-95.9636743, 36.0312465], [-95.9636743, 36.0312416], [-95.9637099, 36.0312414], [-95.9637099, 36.0312503], [-95.9637489, 36.0312501], [-95.9637487, 36.0312325], [-95.9637547, 36.0312325], [-95.9637547, 36.0312275], [-95.9637984, 36.0312274], [-95.9637985, 36.0312366], [-95.9638889, 36.0312365], [-95.9638889, 36.031228], [-95.963928, 36.0312279], [-95.963928, 36.0312372], [-95.963939, 36.0312372], [-95.9639389, 36.0312496], [-95.9640153, 36.0312496], [-95.9640153, 36.0312356], [-95.9640242, 36.0312296], [-95.9640668, 36.0312289], [-95.9640671, 36.0312385], [-95.9641602, 36.0312369], [-95.96416, 36.03123], [-95.9642002, 36.0312294], [-95.9642003, 36.0312349], [-95.9642115, 36.0312347], [-95.9642119, 36.0312489], [-95.9642849, 36.0312478], [-95.9642847, 36.0312373], [-95.9643025, 36.0312264], [-95.9643422, 36.0312256], [-95.9643425, 36.0312368], [-95.9643846, 36.031236], [-95.9643852, 36.0312571], [-95.9644415, 36.0313161], [-95.9644601, 36.0313045], [-95.9644646, 36.0313093], [-95.9644719, 36.0313047], [-95.964503, 36.0313372], [-95.9644948, 36.0313423], [-95.9645456, 36.0313955], [-95.9645537, 36.0313928], [-95.9645797, 36.0314193], [-95.9645708, 36.0314249], [-95.9645764, 36.0314306], [-95.9645614, 36.0314402], [-95.9645844, 36.0314636], [-95.9645951, 36.0314567], [-95.9646133, 36.0314753], [-95.9646362, 36.0314606], [-95.9646932, 36.031519], [-95.9646621, 36.0315389], [-95.9646748, 36.031552], [-95.9646669, 36.0315571], [-95.9646723, 36.0315626], [-95.9646361, 36.0315856], [-95.9646303, 36.0315797], [-95.9645644, 36.0316213], [-95.9645695, 36.0316266], [-95.9645317, 36.0316504], [-95.9645258, 36.0316443], [-95.9645211, 36.0316472], [-95.9645084, 36.031634], [-95.9644779, 36.0316529]]]}, "properties": {"osm_id": 986207064, "building": "yes", "name": "", "height": null, "height_m": null, "levels": null, "tract_id": "40143006703", "tract_name": "67.03", "tags": {"building": "yes"}}}, {"type": "Feature", "geometry": {"type": "Polygon", "coordinates": [[[-95.9629517, 36.0315882], [-95.9629106, 36.0315882], [-95.9629106, 36.0316043], [-95.9629014, 36.0316043], [-95.9629014, 36.0316101], [-95.962857, 36.0316101], [-95.962857, 36.0316035], [-95.9627683, 36.0316035], [-95.9627683, 36.0316109], [-95.9627229, 36.0316109], [-95.9627229, 36.0316038], [-95.9627172, 36.0316038], [-95.9627173, 36.0315883], [-95.9626768, 36.0315882], [-95.9626768, 36.0316027], [-95.9626357, 36.0316027], [-95.9626357, 36.0316101], [-95.962587, 36.03161], [-95.962587, 36.0316052], [-95.9625763, 36.0316052], [-95.9625763, 36.0315905], [-95.9625407, 36.0315905], [-95.9625407, 36.0316042], [-95.9624999, 36.0316042], [-95.9624999, 36.0316105], [-95.9624527, 36.0316105], [-95.9624527, 36.0316005], [-95.9624416, 36.0316005], [-95.9624416, 36.0315879], [-95.9624066, 36.0315879], [-95.9624066, 36.0316016], [-95.9623622, 36.0316017], [-95.9623622, 36.0316092], [-95.9623138, 36.0316092], [-95.9623138, 36.0316026], [-95.9623066, 36.0316026], [-95.9623066, 36.0315863], [-95.9622682, 36.0315864], [-95.9622682, 36.0315704], [-95.9622377, 36.0315705], [-95.9622378, 36.0316071], [-95.9621498, 36.0316072], [-95.9621497, 36.0315786], [-95.9621271, 36.0315786], [-95.962127, 36.0315706], [-95.9621197, 36.0315706], [-95.9621195, 36.0315275], [-95.9621329, 36.0315274], [-95.9621325, 36.0314658], [-95.9621237, 36.0314659], [-95.9621233, 36.0314247], [-95.9621353, 36.0314246], [-95.9621353, 36.0314179], [-95.9621545, 36.0314178], [-95.9621542, 36.0313868], [-95.9622387, 36.0313863], [-95.962239, 36.0314193], [-95.9622703, 36.0314191], [-95.9622704, 36.0314287], [-95.9623103, 36.0314285], [-95.9623101, 36.0314106], [-95.9623188, 36.0314105], [-95.9623188, 36.0314035], [-95.962363, 36.0314033], [-95.962363, 36.0314114], [-95.9624504, 36.0314112], [-95.9624504, 36.0314046], [-95.962495, 36.0314045], [-95.962495, 36.0314122], [-95.9625047, 36.0314122], [-95.9625047, 36.0314255], [-95.9625415, 36.0314255], [-95.9625416, 36.0314031], [-95.9625859, 36.0314032], [-95.962589, 36.031407], [-95.9625974, 36.0314069], [-95.9625976, 36.0314196], [-95.9626335, 36.0314193], [-95.9626337, 36.031426], [-95.9626788, 36.0314255], [-95.9627087, 36.0314042], [-95.9627096, 36.0313677], [-95.9626998, 36.0313675], [-95.9627004, 36.0313419], [-95.9626791, 36.0313416], [-95.9626792, 36.0313346], [-95.9626727, 36.0313345], [-95.9626736, 36.031287], [-95.962736, 36.0312877], [-95.9627365, 36.0312627], [-95.9628471, 36.031264], [-95.9628469, 36.0312758], [-95.9629103, 36.0312765], [-95.9629098, 36.0313083], [-95.9629284, 36.0313085], [-95.9629283, 36.0313155], [-95.9629358, 36.0313155], [-95.9629355, 36.0313536], [-95.962926, 36.0313536], [-95.9629255, 36.0314224], [-95.9629353, 36.0314224], [-95.9629351, 36.031461], [-95.962926, 36.031461], [-95.9629259, 36.0314691], [-95.962909, 36.0314691], [-95.9629089, 36.0315021], [-95.9628901, 36.0315021], [-95.9628901, 36.0315148], [-95.9629516, 36.0315148], [-95.9629517, 36.0315882]]]}, "properties": {"osm_id": 986207065, "building": "yes", "name": "", "height": null, "height_m": null, "levels": null, "tract_id": "40143006703", "tract_name": "67.03", "tags": {"building": "yes"}}}, {"type": "Feature", "geometry": {"type": "Polygon", "coordinates": [[[-95.9665558, 36.0224304], [-95.966352, 36.0224304], [-95.966352, 36.0222634], [-95.9663916, 36.0222634], [-95.9663916, 36.0222308], [-95.9664533, 36.0222308], [-95.9664533, 36.0222634], [-95.9665558, 36.0222634], [-95.9665558, 36.0224304]]]}, "properties": {"osm_id": 1005483068, "building": "yes", "name": "Mike's Treasures", "height": null, "height_m": null, "levels": null, "tract_id": "40143006703", "tract_name": "67.03", "tags": {"addr:housenumber": "316", "addr:street": "East Main Street", "building": "yes", "name": "Mike's Treasures", "shop": "antiques"}}}, {"type": "Feature", "geometry": {"type": "Polygon", "coordinates": [[[-95.9669897, 36.0221788], [-95.9669904, 36.0224277], [-95.9668174, 36.022428], [-95.966817, 36.0222574], [-95.966753, 36.0222575], [-95.9667532, 36.0223158], [-95.9666243, 36.022316], [-95.9666242, 36.0222782], [-95.9665942, 36.0222782], [-95.9665936, 36.0220756], [-95.9668439, 36.0220751], [-95.9668442, 36.022179], [-95.9669897, 36.0221788]]]}, "properties": {"osm_id": 1005483069, "building": "yes", "name": "First Christian Church", "height": null, "height_m": null, "levels": null, "tract_id": "40143006703", "tract_name": "67.03", "tags": {"addr:city": "Jenks", "addr:state": "OK", "amenity": "place_of_worship", "building": "yes", "ele": "188", "gnis:feature_id": "1798397", "name": "First Christian Church", "religion": "christian"}}}, {"type": "Feature", "geometry": {"type": "Polygon", "coordinates": [[[-95.9713932, 36.0233334], [-95.9712339, 36.0233321], [-95.9711491, 36.0231447], [-95.9713922, 36.0231433], [-95.9713932, 36.0233334]]]}, "properties": {"osm_id": 1005483070, "building": "yes", "name": "", "height": null, "height_m": null, "levels": null, "tract_id": "40143006703", "tract_name": "67.03", "tags": {"building": "yes"}}}, {"type": "Feature", "geometry": {"type": "Polygon", "coordinates": [[[-95.9712929, 36.0230856], [-95.9711226, 36.0230864], [-95.9709493, 36.0227027], [-95.971246, 36.0227035], [-95.971246, 36.022722], [-95.9712982, 36.0227214], [-95.9712929, 36.0230856]]]}, "properties": {"osm_id": 1005483071, "building": "yes", "name": "", "height": null, "height_m": null, "levels": null, "tract_id": "40143006703", "tract_name": "67.03", "tags": {"building": "yes"}}}, {"type": "Feature", "geometry": {"type": "Polygon", "coordinates": [[[-95.9718351, 36.0230595], [-95.9716674, 36.0230588], [-95.9716688, 36.0228657], [-95.9718364, 36.0228664], [-95.9718351, 36.0230595]]]}, "properties": {"osm_id": 1005483072, "building": "yes", "name": "", "height": null, "height_m": null, "levels": null, "tract_id": "40143006703", "tract_name": "67.03", "tags": {"building": "yes"}}}, {"type": "Feature", "geometry": {"type": "Polygon", "coordinates": [[[-95.9722582, 36.0228936], [-95.9721294, 36.0228922], [-95.9721321, 36.0227214], [-95.9722609, 36.0227227], [-95.9722582, 36.0228936]]]}, "properties": {"osm_id": 1005483073, "building": "yes", "name": "Insight Eyecare", "height": null, "height_m": null, "levels": null, "tract_id": "40143006703", "tract_name": "67.03", "tags": {"building": "yes", "healthcare": "optometrist", "name": "Insight Eyecare", "shop": "optician"}}}, {"type": "Feature", "geometry": {"type": "Polygon", "coordinates": [[[-95.9726398, 36.022169], [-95.9726418, 36.0223301], [-95.9726183, 36.0223303], [-95.9726186, 36.0223516], [-95.9725898, 36.0223519], [-95.9725895, 36.0223305], [-95.972551, 36.0223308], [-95.9725505, 36.0222901], [-95.9725683, 36.0222899], [-95.9725668, 36.0221696], [-95.9726398, 36.022169]]]}, "properties": {"osm_id": 1005483074, "building": "yes", "name": "", "height": null, "height_m": null, "levels": null, "tract_id": "40143006703", "tract_name": "67.03", "tags": {"building": "yes", "shop": "cannabis"}}}, {"type": "Feature", "geometry": {"type": "Polygon", "coordinates": [[[-95.9728919, 36.0221289], [-95.973067, 36.0221295], [-95.9730661, 36.0222824], [-95.9730489, 36.0222824], [-95.9730487, 36.0223227], [-95.9729945, 36.0223225], [-95.9729944, 36.0223378], [-95.9729651, 36.0223377], [-95.9729649, 36.0223705], [-95.9728906, 36.0223702], [-95.9728919, 36.0221289]]]}, "properties": {"osm_id": 1005483075, "building": "yes", "name": "State Farm", "height": null, "height_m": null, "levels": null, "tract_id": "40143006703", "tract_name": "67.03", "tags": {"brand": "State Farm", "brand:wikidata": "Q2007336", "building": "yes", "name": "State Farm", "office": "insurance", "phone": "+1 918 299 8855"}}}, {"type": "Feature", "geometry": {"type": "Polygon", "coordinates": [[[-95.9665791, 36.0242882], [-95.966578, 36.0239068], [-95.9665577, 36.0239068], [-95.9665567, 36.0238636], [-95.9668102, 36.023864], [-95.9668113, 36.0239063], [-95.9667914, 36.0239072], [-95.9667909, 36.0240153], [-95.9668123, 36.0240149], [-95.9668113, 36.0240592], [-95.9667899, 36.0240609], [-95.9667874, 36.0242056], [-95.9666527, 36.0242051], [-95.9666517, 36.024289], [-95.9665791, 36.0242882]]]}, "properties": {"osm_id": 1040665750, "building": "yes", "name": "United States Postal Service", "height": null, "height_m": null, "levels": null, "tract_id": "40143006703", "tract_name": "67.03", "tags": {"amenity": "post_office", "brand": "United States Postal Service", "brand:wikidata": "Q668687", "building": "yes", "name": "United States Postal Service", "opening_hours": "Mo-Fr 08:00-17:00; Sa 10:00-12:00", "operator": "United States Postal Service", "operator:short": "USPS", "operator:type": "public", "operator:website": "https://www.usps.com", "operator:wikidata": "Q668687", "operator:wikipedia": "en:United States Postal Service", "short_name": "USPS"}}}, {"type": "Feature", "geometry": {"type": "Polygon", "coordinates": [[[-95.9682675, 36.0231293], [-95.968161, 36.0231296], [-95.9681611, 36.0231521], [-95.9681769, 36.0231521], [-95.968177, 36.0231828], [-95.9682508, 36.0231825], [-95.9682507, 36.0231537], [-95.9682676, 36.0231536], [-95.9682675, 36.0231293]]]}, "properties": {"osm_id": 1042973619, "building": "yes", "name": "", "height": null, "height_m": null, "levels": null, "tract_id": "40143006703", "tract_name": "67.03", "tags": {"building": "yes"}}}, {"type": "Feature", "geometry": {"type": "Polygon", "coordinates": [[[-95.9677436, 36.0228531], [-95.9678063, 36.0228533], [-95.9678265, 36.0228534], [-95.9678275, 36.0226878], [-95.9677427, 36.0226875], [-95.9677436, 36.0228531]]]}, "properties": {"osm_id": 1042973620, "building": "yes", "name": "", "height": null, "height_m": null, "levels": null, "tract_id": "40143006703", "tract_name": "67.03", "tags": {"building": "yes"}}}, {"type": "Feature", "geometry": {"type": "Polygon", "coordinates": [[[-95.9673862, 36.0230649], [-95.9672776, 36.0230645], [-95.967278, 36.022997], [-95.9673866, 36.0229974], [-95.9673862, 36.0230649]]]}, "properties": {"osm_id": 1042973622, "building": "yes", "name": "", "height": null, "height_m": null, "levels": null, "tract_id": "40143006703", "tract_name": "67.03", "tags": {"building": "yes"}}}, {"type": "Feature", "geometry": {"type": "Polygon", "coordinates": [[[-95.9674928, 36.0234236], [-95.9674951, 36.0232947], [-95.9674234, 36.0232939], [-95.9674211, 36.0234227], [-95.9674928, 36.0234236]]]}, "properties": {"osm_id": 1042981045, "building": "yes", "name": "", "height": null, "height_m": null, "levels": null, "tract_id": "40143006703", "tract_name": "67.03", "tags": {"building": "yes"}}}, {"type": "Feature", "geometry": {"type": "Polygon", "coordinates": [[[-95.9673865, 36.0235007], [-95.9673885, 36.023333], [-95.9672967, 36.0233323], [-95.9672947, 36.0235], [-95.9673865, 36.0235007]]]}, "properties": {"osm_id": 1042981046, "building": "yes", "name": "", "height": null, "height_m": null, "levels": null, "tract_id": "40143006703", "tract_name": "67.03", "tags": {"building": "yes"}}}, {"type": "Feature", "geometry": {"type": "Polygon", "coordinates": [[[-95.9694672, 36.021973], [-95.9690031, 36.021973], [-95.9690031, 36.0218328], [-95.9694676, 36.0218313], [-95.9694672, 36.021973]]]}, "properties": {"osm_id": 1043087475, "building": "yes", "name": "", "height": null, "height_m": null, "levels": null, "tract_id": "40143006703", "tract_name": "67.03", "tags": {"building": "yes"}}}, {"type": "Feature", "geometry": {"type": "Polygon", "coordinates": [[[-95.9687903, 36.0216554], [-95.9684643, 36.021654], [-95.9684619, 36.0220048], [-95.9687171, 36.0220059], [-95.9687169, 36.0220283], [-95.9687877, 36.0220286], [-95.9687903, 36.0216554]]]}, "properties": {"osm_id": 1043087476, "building": "yes", "name": "", "height": null, "height_m": null, "levels": null, "tract_id": "40143006703", "tract_name": "67.03", "tags": {"addr:city": "Jenks", "addr:housenumber": "122", "addr:postcode": "74037", "addr:state": "OK", "addr:street": "South 2nd Street", "building": "yes", "telecom": "exchange"}}}, {"type": "Feature", "geometry": {"type": "Polygon", "coordinates": [[[-95.9767631, 36.022416], [-95.9767655, 36.0219351], [-95.9769726, 36.0219358], [-95.9769711, 36.0222521], [-95.9769308, 36.022252], [-95.97693, 36.0224166], [-95.9767631, 36.022416]]]}, "properties": {"osm_id": 1154262326, "building": "retail", "name": "", "height": null, "height_m": null, "levels": null, "tract_id": "40143006703", "tract_name": "67.03", "tags": {"building": "retail"}}}, {"type": "Feature", "geometry": {"type": "Polygon", "coordinates": [[[-95.979172, 36.0228469], [-95.979179, 36.0218612], [-95.9786816, 36.0218588], [-95.9786743, 36.0228445], [-95.979172, 36.0228469]]]}, "properties": {"osm_id": 1154262327, "building": "retail", "name": "", "height": null, "height_m": null, "levels": null, "tract_id": "40143006703", "tract_name": "67.03", "tags": {"building": "retail"}}}, {"type": "Feature", "geometry": {"type": "Polygon", "coordinates": [[[-95.9671173, 36.0249626], [-95.9670488, 36.0249622], [-95.9670483, 36.0250212], [-95.9671168, 36.0250216], [-95.9671173, 36.0249626]]]}, "properties": {"osm_id": 1227192818, "building": "hut", "name": "", "height": null, "height_m": null, "levels": null, "tract_id": "40143006703", "tract_name": "67.03", "tags": {"building": "hut"}}}, {"type": "Feature", "geometry": {"type": "Polygon", "coordinates": [[[-95.9688464, 36.0293379], [-95.9687324, 36.0293409], [-95.9687374, 36.0294989], [-95.9687964, 36.0294979], [-95.9687954, 36.0294669], [-95.9689364, 36.0294639], [-95.9689344, 36.0293769], [-95.9688484, 36.0293789], [-95.9688464, 36.0293379]]]}, "properties": {"osm_id": 1243090892, "building": "detached", "name": "", "height": null, "height_m": null, "levels": null, "tract_id": "40143006703", "tract_name": "67.03", "tags": {"building": "detached"}}}, {"type": "Feature", "geometry": {"type": "Polygon", "coordinates": [[[-95.968456, 36.029476], [-95.968451, 36.029332], [-95.96833, 36.029335], [-95.968331, 36.029371], [-95.968275, 36.029372], [-95.96828, 36.029515], [-95.968425, 36.029512], [-95.968424, 36.029477], [-95.968456, 36.029476]]]}, "properties": {"osm_id": 1243090893, "building": "detached", "name": "", "height": null, "height_m": null, "levels": null, "tract_id": "40143006703", "tract_name": "67.03", "tags": {"building": "detached"}}}, {"type": "Feature", "geometry": {"type": "Polygon", "coordinates": [[[-95.9687467, 36.028865], [-95.9687427, 36.029066], [-95.9688587, 36.029068], [-95.9688627, 36.028866], [-95.9687467, 36.028865]]]}, "properties": {"osm_id": 1243090894, "building": "detached", "name": "", "height": null, "height_m": null, "levels": null, "tract_id": "40143006703", "tract_name": "67.03", "tags": {"building": "detached"}}}, {"type": "Feature", "geometry": {"type": "Polygon", "coordinates": [[[-95.9684757, 36.0289331], [-95.9684497, 36.0289331], [-95.9684487, 36.0288961], [-95.9683607, 36.0288981], [-95.9683617, 36.0289351], [-95.9682577, 36.0289371], [-95.9682607, 36.0290431], [-95.9683857, 36.0290411], [-95.9683867, 36.0290711], [-95.9684787, 36.0290691], [-95.9684757, 36.0289331]]]}, "properties": {"osm_id": 1243090895, "building": "detached", "name": "", "height": null, "height_m": null, "levels": null, "tract_id": "40143006703", "tract_name": "67.03", "tags": {"building": "detached"}}}, {"type": "Feature", "geometry": {"type": "Polygon", "coordinates": [[[-95.9742366, 36.0224228], [-95.9742377, 36.0222108], [-95.9739583, 36.0222099], [-95.9739595, 36.0224228], [-95.9742366, 36.0224228]]]}, "properties": {"osm_id": 1329644794, "building": "yes", "name": "Roy's Chicken", "height": null, "height_m": 3.0, "levels": 1, "tract_id": "40143006703", "tract_name": "67.03", "tags": {"amenity": "restaurant", "building": "yes", "building:levels": "1", "name": "Roy's Chicken"}}}, {"type": "Feature", "geometry": {"type": "Polygon", "coordinates": [[[-95.9736937, 36.0223367], [-95.9736949, 36.0221685], [-95.973462, 36.0221674], [-95.9734607, 36.0223356], [-95.9736937, 36.0223367]]]}, "properties": {"osm_id": 1329646395, "building": "yes", "name": "Coney I-Lander", "height": null, "height_m": null, "levels": null, "tract_id": "40143006703", "tract_name": "67.03", "tags": {"addr:city": "Jenks", "addr:housenumber": "404", "addr:postcode": "74037", "addr:state": "OK", "addr:street": "West Main Street", "amenity": "restaurant", "building": "yes", "cuisine": "hot_dog", "diet:meat": "yes", "name": "Coney I-Lander", "outdoor_seating": "yes", "phone": "+19182993591", "takeaway": "yes"}}}, {"type": "Feature", "geometry": {"type": "Polygon", "coordinates": [[[-95.9735919, 36.0238616], [-95.9735862, 36.0237162], [-95.9733749, 36.0237201], [-95.9733653, 36.0238678], [-95.9734036, 36.0238663], [-95.9734016, 36.0239351], [-95.9734858, 36.0239343], [-95.9734877, 36.0238601], [-95.9735919, 36.0238616]]]}, "properties": {"osm_id": 1329647190, "building": "yes", "name": "Mojo's Mercantile & Coffee House", "height": null, "height_m": null, "levels": null, "tract_id": "40143006703", "tract_name": "67.03", "tags": {"addr:city": "Jenks", "addr:housenumber": "407", "addr:postcode": "74037", "addr:state": "OK", "addr:street": "West A Street", "amenity": "cafe", "building": "yes", "cuisine": "coffee_shop", "name": "Mojo's Mercantile & Coffee House", "phone": "+19186004658"}}}, {"type": "Feature", "geometry": {"type": "Polygon", "coordinates": [[[-95.9624861, 36.025401], [-95.9624861, 36.0252253], [-95.9623682, 36.0252253], [-95.9623716, 36.0254051], [-95.9624861, 36.025401]]]}, "properties": {"osm_id": 1329663075, "building": "house", "name": "", "height": null, "height_m": null, "levels": null, "tract_id": "40143006703", "tract_name": "67.03", "tags": {"building": "house"}}}, {"type": "Feature", "geometry": {"type": "Polygon", "coordinates": [[[-95.9623143, 36.0254105], [-95.9623127, 36.0252839], [-95.9622807, 36.0252825], [-95.9622807, 36.0252335], [-95.9622117, 36.0252321], [-95.9622117, 36.0252839], [-95.9621241, 36.0252825], [-95.9621241, 36.0253996], [-95.9623143, 36.0254105]]]}, "properties": {"osm_id": 1329663076, "building": "house", "name": "", "height": null, "height_m": null, "levels": null, "tract_id": "40143006703", "tract_name": "67.03", "tags": {"building": "house"}}}, {"type": "Feature", "geometry": {"type": "Polygon", "coordinates": [[[-95.9620972, 36.0252866], [-95.9619221, 36.0252567], [-95.9619002, 36.0253601], [-95.9620736, 36.0253914], [-95.9620972, 36.0252866]]]}, "properties": {"osm_id": 1329663077, "building": "house", "name": "", "height": null, "height_m": null, "levels": null, "tract_id": "40143006703", "tract_name": "67.03", "tags": {"building": "house"}}}, {"type": "Feature", "geometry": {"type": "Polygon", "coordinates": [[[-95.9618783, 36.0253438], [-95.9617773, 36.0253302], [-95.9617824, 36.0253138], [-95.9617066, 36.0253016], [-95.9617302, 36.0252104], [-95.9619019, 36.0252349], [-95.9618783, 36.0253438]]]}, "properties": {"osm_id": 1329663078, "building": "house", "name": "", "height": null, "height_m": null, "levels": null, "tract_id": "40143006703", "tract_name": "67.03", "tags": {"building": "house"}}}, {"type": "Feature", "geometry": {"type": "Polygon", "coordinates": [[[-95.9616746, 36.0253206], [-95.9615921, 36.0253057], [-95.9615959, 36.0252937], [-95.9615466, 36.0252865], [-95.9615502, 36.0252745], [-95.9615063, 36.0252675], [-95.9615484, 36.0251409], [-95.9616443, 36.0251627], [-95.9616292, 36.0252226], [-95.9616965, 36.0252349], [-95.9616746, 36.0253206]]]}, "properties": {"osm_id": 1329663079, "building": "house", "name": "", "height": null, "height_m": null, "levels": null, "tract_id": "40143006703", "tract_name": "67.03", "tags": {"building": "house"}}}, {"type": "Feature", "geometry": {"type": "Polygon", "coordinates": [[[-95.9614722, 36.0252843], [-95.9613007, 36.0252843], [-95.9613014, 36.0251345], [-95.9614117, 36.025138], [-95.9614066, 36.0252015], [-95.9614715, 36.0252056], [-95.9614722, 36.0252843]]]}, "properties": {"osm_id": 1329663080, "building": "house", "name": "", "height": null, "height_m": null, "levels": null, "tract_id": "40143006703", "tract_name": "67.03", "tags": {"building": "house"}}}, {"type": "Feature", "geometry": {"type": "Polygon", "coordinates": [[[-95.9610302, 36.0251579], [-95.9608884, 36.0251579], [-95.960891, 36.0250087], [-95.9610163, 36.0250129], [-95.9610302, 36.0251579]]]}, "properties": {"osm_id": 1329663081, "building": "house", "name": "", "height": null, "height_m": null, "levels": null, "tract_id": "40143006703", "tract_name": "67.03", "tags": {"building": "house"}}}, {"type": "Feature", "geometry": {"type": "Polygon", "coordinates": [[[-95.9610338, 36.0253365], [-95.9610376, 36.0252544], [-95.9610071, 36.0252473], [-95.9610147, 36.0251908], [-95.9608866, 36.0251908], [-95.9608904, 36.0252657], [-95.9608067, 36.0252647], [-95.9608079, 36.0253396], [-95.9610338, 36.0253365]]]}, "properties": {"osm_id": 1329663082, "building": "house", "name": "", "height": null, "height_m": null, "levels": null, "tract_id": "40143006703", "tract_name": "67.03", "tags": {"building": "house"}}}, {"type": "Feature", "geometry": {"type": "Polygon", "coordinates": [[[-95.9610274, 36.0255274], [-95.9608371, 36.0255264], [-95.9608397, 36.0253776], [-95.9609373, 36.0253786], [-95.9609424, 36.0254473], [-95.9610274, 36.0254453], [-95.9610274, 36.0255274]]]}, "properties": {"osm_id": 1329663083, "building": "house", "name": "", "height": null, "height_m": null, "levels": null, "tract_id": "40143006703", "tract_name": "67.03", "tags": {"building": "house"}}}, {"type": "Feature", "geometry": {"type": "Polygon", "coordinates": [[[-95.9748682, 36.0378464], [-95.9756874, 36.0378511], [-95.9756903, 36.0375179], [-95.9748711, 36.0375133], [-95.9748682, 36.0378464]]]}, "properties": {"osm_id": 1341429140, "building": "yes", "name": "", "height": null, "height_m": null, "levels": null, "tract_id": "40143006703", "tract_name": "67.03", "tags": {"building": "yes", "source": "microsoft/BuildingFootprints"}}}, {"type": "Feature", "geometry": {"type": "Polygon", "coordinates": [[[-95.9749252, 36.037435], [-95.9756253, 36.0374379], [-95.9756264, 36.0372687], [-95.9755244, 36.0372683], [-95.9755253, 36.037136], [-95.9750559, 36.0371341], [-95.9750553, 36.0372208], [-95.9754282, 36.0372224], [-95.9754279, 36.0372679], [-95.9749263, 36.0372659], [-95.9749252, 36.037435]]]}, "properties": {"osm_id": 1341429141, "building": "yes", "name": "", "height": null, "height_m": null, "levels": null, "tract_id": "40143006703", "tract_name": "67.03", "tags": {"building": "yes", "source": "microsoft/BuildingFootprints"}}}, {"type": "Feature", "geometry": {"type": "Polygon", "coordinates": [[[-95.9751592, 36.0366849], [-95.9751599, 36.0369734], [-95.9755288, 36.0369728], [-95.9755286, 36.0368839], [-95.9755647, 36.0368838], [-95.9755647, 36.0368535], [-95.9755298, 36.0368535], [-95.9755296, 36.0367689], [-95.9753821, 36.0367692], [-95.9753819, 36.0366846], [-95.9751592, 36.0366849]]]}, "properties": {"osm_id": 1341429142, "building": "yes", "name": "", "height": null, "height_m": null, "levels": null, "tract_id": "40143006703", "tract_name": "67.03", "tags": {"building": "yes", "source": "microsoft/BuildingFootprints"}}}, {"type": "Feature", "geometry": {"type": "Polygon", "coordinates": [[[-95.9747945, 36.0379103], [-95.974797, 36.0383658], [-95.9748935, 36.0383654], [-95.974894, 36.0384283], [-95.9748941, 36.0384704], [-95.9750363, 36.0384699], [-95.9750353, 36.0384297], [-95.9750357, 36.0383658], [-95.9751376, 36.0383654], [-95.9751351, 36.0379091], [-95.9747945, 36.0379103]]]}, "properties": {"osm_id": 1341429143, "building": "yes", "name": "", "height": null, "height_m": null, "levels": null, "tract_id": "40143006703", "tract_name": "67.03", "tags": {"building": "yes", "source": "microsoft/BuildingFootprints"}}}, {"type": "Feature", "geometry": {"type": "Polygon", "coordinates": [[[-95.9753815, 36.0389744], [-95.9753827, 36.0388334], [-95.9750436, 36.0388316], [-95.9750425, 36.0389726], [-95.9753815, 36.0389744]]]}, "properties": {"osm_id": 1341429144, "building": "yes", "name": "", "height": null, "height_m": null, "levels": null, "tract_id": "40143006703", "tract_name": "67.03", "tags": {"building": "yes", "source": "microsoft/BuildingFootprints"}}}, {"type": "Feature", "geometry": {"type": "Polygon", "coordinates": [[[-95.9641411, 36.0149804], [-95.96387, 36.0150304], [-95.9636347, 36.0142951], [-95.9637025, 36.0142096], [-95.9639517, 36.0141677], [-95.9641671, 36.0148788], [-95.9641152, 36.0148885], [-95.9641411, 36.0149804]]]}, "properties": {"osm_id": 1356485267, "building": "retail", "name": "", "height": null, "height_m": null, "levels": null, "tract_id": "40143006703", "tract_name": "67.03", "tags": {"building": "retail"}}}, {"type": "Feature", "geometry": {"type": "Polygon", "coordinates": [[[-95.9637095, 36.0153051], [-95.962242, 36.015502], [-95.9621961, 36.0152977], [-95.9622719, 36.0152197], [-95.9635809, 36.0150581], [-95.9636865, 36.0151194], [-95.9637095, 36.0153051]]]}, "properties": {"osm_id": 1356485268, "building": "retail", "name": "", "height": null, "height_m": null, "levels": null, "tract_id": "40143006703", "tract_name": "67.03", "tags": {"building": "retail"}}}, {"type": "Feature", "geometry": {"type": "Polygon", "coordinates": [[[-95.9636704, 36.0148686], [-95.9635901, 36.0149596], [-95.9623477, 36.0151138], [-95.9622443, 36.0150525], [-95.9621754, 36.0146754], [-95.9622466, 36.01459], [-95.9634936, 36.0144377], [-95.9635924, 36.0144971], [-95.9636704, 36.0148686]]]}, "properties": {"osm_id": 1356485269, "building": "retail", "name": "", "height": null, "height_m": null, "levels": null, "tract_id": "40143006703", "tract_name": "67.03", "tags": {"building": "retail"}}}, {"type": "Feature", "geometry": {"type": "Polygon", "coordinates": [[[-95.9618633, 36.0150747], [-95.9617417, 36.0151247], [-95.9603282, 36.0147892], [-95.9605036, 36.0142974], [-95.9619271, 36.0146231], [-95.9619889, 36.014707], [-95.9618633, 36.0150747]]]}, "properties": {"osm_id": 1356485270, "building": "retail", "name": "", "height": null, "height_m": null, "levels": null, "tract_id": "40143006703", "tract_name": "67.03", "tags": {"building": "retail"}}}, {"type": "Feature", "geometry": {"type": "Polygon", "coordinates": [[[-95.9617615, 36.0155204], [-95.9607666, 36.0152833], [-95.9608424, 36.0150995], [-95.960972, 36.0150479], [-95.9617814, 36.0152301], [-95.9618432, 36.015343], [-95.9617615, 36.0155204]]]}, "properties": {"osm_id": 1356485271, "building": "retail", "name": "", "height": null, "height_m": null, "levels": null, "tract_id": "40143006703", "tract_name": "67.03", "tags": {"building": "retail"}}}, {"type": "Feature", "geometry": {"type": "Polygon", "coordinates": [[[-95.9616757, 36.01419], [-95.9606291, 36.0139497], [-95.9605373, 36.0142109], [-95.9615681, 36.0144528], [-95.9616737, 36.0144044], [-95.9616757, 36.01419]]]}, "properties": {"osm_id": 1356485272, "building": "retail", "name": "", "height": null, "height_m": null, "levels": null, "tract_id": "40143006703", "tract_name": "67.03", "tags": {"building": "retail"}}}, {"type": "Feature", "geometry": {"type": "Polygon", "coordinates": [[[-95.9634985, 36.0140839], [-95.9635343, 36.0142726], [-95.9634646, 36.0143596], [-95.9623441, 36.0144887], [-95.9623262, 36.0143661], [-95.9618278, 36.0144322], [-95.9617839, 36.0142193], [-95.9622185, 36.014171], [-95.9622086, 36.0141258], [-95.9624737, 36.0140936], [-95.9624976, 36.0141968], [-95.9634985, 36.0140839]]]}, "properties": {"osm_id": 1356485273, "building": "retail", "name": "", "height": null, "height_m": null, "levels": null, "tract_id": "40143006703", "tract_name": "67.03", "tags": {"building": "retail"}}}, {"type": "Feature", "geometry": {"type": "Polygon", "coordinates": [[[-95.9567785, 36.0212104], [-95.956778, 36.020869], [-95.9564819, 36.0208693], [-95.9564825, 36.0212107], [-95.9567785, 36.0212104]]]}, "properties": {"osm_id": 1420045944, "building": "yes", "name": "", "height": null, "height_m": null, "levels": null, "tract_id": "40143006703", "tract_name": "67.03", "tags": {"building": "yes"}}}, {"type": "Feature", "geometry": {"type": "Polygon", "coordinates": [[[-95.9621157, 36.0234284], [-95.9617409, 36.0234265], [-95.9617413, 36.0233768], [-95.9616972, 36.0233765], [-95.9616991, 36.0231381], [-95.9618594, 36.0231389], [-95.961859, 36.0231867], [-95.9619868, 36.0231874], [-95.9619875, 36.0231025], [-95.9621183, 36.0231032], [-95.9621157, 36.0234284]]]}, "properties": {"osm_id": 1420045945, "building": "yes", "name": "Utica Park Clinic", "height": null, "height_m": null, "levels": null, "tract_id": "40143006703", "tract_name": "67.03", "tags": {"amenity": "clinic", "building": "yes", "healthcare": "clinic", "name": "Utica Park Clinic"}}}, {"type": "Feature", "geometry": {"type": "Polygon", "coordinates": [[[-95.974685, 36.0224337], [-95.9745643, 36.0224333], [-95.9745649, 36.0222939], [-95.9746856, 36.0222943], [-95.974685, 36.0224337]]]}, "properties": {"osm_id": 1429780219, "building": "detached", "name": "", "height": null, "height_m": null, "levels": null, "tract_id": "40143006703", "tract_name": "67.03", "tags": {"building": "detached"}}}]}