{"type": "FeatureCollection", "features": [{"type": "Feature", "geometry": {"type": "Polygon", "coordinates": [[[-97.1894501, 35.6660965], [-97.189448, 35.6662026], [-97.1892946, 35.6662006], [-97.1892967, 35.6660945], [-97.1894501, 35.6660965]]]}, "properties": {"osm_id": 545382107, "building": "roof", "name": "", "height": null, "height_m": null, "levels": null, "tract_id": "40109109202", "tract_name": "1092.02", "tags": {"amenity": "fuel", "building": "roof"}}}, {"type": "Feature", "geometry": {"type": "Polygon", "coordinates": [[[-97.1899463, 35.6661569], [-97.1896096, 35.6661562], [-97.1896106, 35.665831], [-97.1899474, 35.6658318], [-97.1899463, 35.6661569]]]}, "properties": {"osm_id": 545382108, "building": "yes", "name": "Dollar General", "height": null, "height_m": null, "levels": null, "tract_id": "40109109202", "tract_name": "1092.02", "tags": {"brand": "Dollar General", "brand:wikidata": "Q145168", "building": "yes", "name": "Dollar General", "shop": "variety_store", "website": "https://www.dollargeneral.com/store-directory/ok/luther/10009", "wheelchair": "yes"}}}, {"type": "Feature", "geometry": {"type": "Polygon", "coordinates": [[[-97.1904627, 35.6660766], [-97.1904656, 35.6660151], [-97.1902887, 35.6660097], [-97.1902859, 35.6660712], [-97.1904627, 35.6660766]]]}, "properties": {"osm_id": 735383880, "building": "retail", "name": "Brew 66", "height": null, "height_m": null, "levels": null, "tract_id": "40109109202", "tract_name": "1092.02", "tags": {"addr:city": "Luther", "addr:housenumber": "416", "addr:postcode": "73054", "addr:state": "OK", "addr:street": "North Dogwood Street", "amenity": "cafe", "building": "retail", "cuisine": "coffee_shop", "internet_access": "yes", "internet_access:fee": "no", "name": "Brew 66", "outdoor_seating": "yes", "phone": "+1-405-328-0238"}}}, {"type": "Feature", "geometry": {"type": "Polygon", "coordinates": [[[-97.1993177, 35.6671063], [-97.199319, 35.667035], [-97.1991939, 35.6670335], [-97.1991926, 35.6671048], [-97.1993177, 35.6671063]]]}, "properties": {"osm_id": 737176445, "building": "roof", "name": "", "height": null, "height_m": null, "levels": null, "tract_id": "40109109202", "tract_name": "1092.02", "tags": {"building": "roof"}}}, {"type": "Feature", "geometry": {"type": "Polygon", "coordinates": [[[-97.1994739, 35.6674294], [-97.1994722, 35.6672805], [-97.1992721, 35.6672821], [-97.1992712, 35.6672095], [-97.199169, 35.6672103], [-97.1991708, 35.6672836], [-97.1991725, 35.6674311], [-97.1993626, 35.6674296], [-97.1994739, 35.6674294]]]}, "properties": {"osm_id": 737176446, "building": "retail", "name": "", "height": null, "height_m": null, "levels": null, "tract_id": "40109109202", "tract_name": "1092.02", "tags": {"amenity": "fuel", "building": "retail", "self_service": "yes"}}}, {"type": "Feature", "geometry": {"type": "Polygon", "coordinates": [[[-97.1991708, 35.6672836], [-97.1990308, 35.6672847], [-97.1990325, 35.6674362], [-97.1990773, 35.6674359], [-97.1990777, 35.667475], [-97.1992041, 35.667474], [-97.1992046, 35.6675202], [-97.1993636, 35.667519], [-97.1993626, 35.6674296], [-97.1991725, 35.6674311], [-97.1991708, 35.6672836]]]}, "properties": {"osm_id": 737176447, "building": "retail", "name": "The Chicken Shack", "height": null, "height_m": null, "levels": null, "tract_id": "40109109202", "tract_name": "1092.02", "tags": {"addr:city": "Luther", "addr:housenumber": "18725", "addr:postcode": "73054", "addr:state": "OK", "addr:street": "East Danforth Road", "air_conditioning": "yes", "amenity": "restaurant", "building": "retail", "cuisine": "fried_chicken", "name": "The Chicken Shack", "outdoor_seating": "yes", "phone": "+1-405-277-5020", "website": "https://www.thebackyardattheshack.com/"}}}, {"type": "Feature", "geometry": {"type": "Polygon", "coordinates": [[[-97.2738841, 35.6603166], [-97.273872, 35.6602444], [-97.2738075, 35.6602515], [-97.2738197, 35.6603237], [-97.2738841, 35.6603166]]]}, "properties": {"osm_id": 737179649, "building": "ruins", "name": "Historic Route 66 petrol station", "height": null, "height_m": null, "levels": null, "tract_id": "40109109202", "tract_name": "1092.02", "tags": {"building": "ruins", "mapillary": "145291157561571", "name": "Historic Route 66 petrol station"}}}, {"type": "Feature", "geometry": {"type": "Polygon", "coordinates": [[[-97.2256943, 35.6845156], [-97.2254997, 35.6845697], [-97.2252341, 35.6839385], [-97.2254285, 35.6838845], [-97.2256943, 35.6845156]]]}, "properties": {"osm_id": 910640474, "building": "industrial", "name": "", "height": null, "height_m": null, "levels": null, "tract_id": "40109109202", "tract_name": "1092.02", "tags": {"building": "industrial", "industrial": "cooling"}}}, {"type": "Feature", "geometry": {"type": "Polygon", "coordinates": [[[-97.2246961, 35.6849254], [-97.2245015, 35.6849794], [-97.2242359, 35.6843483], [-97.2244303, 35.6842943], [-97.2246961, 35.6849254]]]}, "properties": {"osm_id": 910640475, "building": "industrial", "name": "", "height": null, "height_m": null, "levels": null, "tract_id": "40109109202", "tract_name": "1092.02", "tags": {"building": "industrial", "industrial": "cooling"}}}, {"type": "Feature", "geometry": {"type": "Polygon", "coordinates": [[[-97.2243111, 35.6856854], [-97.2241165, 35.6857394], [-97.2238508, 35.6851082], [-97.2240453, 35.6850542], [-97.2243111, 35.6856854]]]}, "properties": {"osm_id": 910640476, "building": "industrial", "name": "", "height": null, "height_m": null, "levels": null, "tract_id": "40109109202", "tract_name": "1092.02", "tags": {"building": "industrial", "industrial": "cooling"}}}, {"type": "Feature", "geometry": {"type": "Polygon", "coordinates": [[[-97.2239337, 35.6864524], [-97.2237392, 35.6865064], [-97.2234735, 35.6858752], [-97.223668, 35.6858212], [-97.2239337, 35.6864524]]]}, "properties": {"osm_id": 910640477, "building": "industrial", "name": "", "height": null, "height_m": null, "levels": null, "tract_id": "40109109202", "tract_name": "1092.02", "tags": {"building": "industrial", "industrial": "cooling"}}}, {"type": "Feature", "geometry": {"type": "Polygon", "coordinates": [[[-97.1690551, 35.7108679], [-97.1689557, 35.7108949], [-97.1689117, 35.7107879], [-97.169011, 35.7107609], [-97.1690551, 35.7108679]]]}, "properties": {"osm_id": 981179944, "building": "yes", "name": "", "height": null, "height_m": null, "levels": null, "tract_id": "40109109202", "tract_name": "1092.02", "tags": {"building": "yes"}}}, {"type": "Feature", "geometry": {"type": "Polygon", "coordinates": [[[-97.1696116, 35.7110766], [-97.1696146, 35.710991], [-97.1693568, 35.7109848], [-97.1693537, 35.7110705], [-97.1696116, 35.7110766]]]}, "properties": {"osm_id": 981179945, "building": "yes", "name": "", "height": null, "height_m": null, "levels": null, "tract_id": "40109109202", "tract_name": "1092.02", "tags": {"building": "yes"}}}, {"type": "Feature", "geometry": {"type": "Polygon", "coordinates": [[[-97.1426224, 35.6992976], [-97.142502, 35.6993835], [-97.1423657, 35.6992575], [-97.142486, 35.6991716], [-97.1426224, 35.6992976]]]}, "properties": {"osm_id": 982373881, "building": "yes", "name": "", "height": null, "height_m": null, "levels": null, "tract_id": "40109109202", "tract_name": "1092.02", "tags": {"building": "yes"}}}, {"type": "Feature", "geometry": {"type": "Polygon", "coordinates": [[[-97.1421091, 35.6991504], [-97.1420844, 35.6991012], [-97.1418333, 35.699184], [-97.141858, 35.6992333], [-97.1421091, 35.6991504]]]}, "properties": {"osm_id": 982373882, "building": "yes", "name": "", "height": null, "height_m": null, "levels": null, "tract_id": "40109109202", "tract_name": "1092.02", "tags": {"building": "yes"}}}, {"type": "Feature", "geometry": {"type": "Polygon", "coordinates": [[[-97.2000235, 35.6673032], [-97.1998789, 35.6672986], [-97.1998836, 35.6672021], [-97.2000281, 35.6672067], [-97.2000235, 35.6673032]]]}, "properties": {"osm_id": 985421714, "building": "yes", "name": "", "height": null, "height_m": null, "levels": null, "tract_id": "40109109202", "tract_name": "1092.02", "tags": {"building": "yes"}}}, {"type": "Feature", "geometry": {"type": "Polygon", "coordinates": [[[-97.1963378, 35.6744217], [-97.1963342, 35.6743531], [-97.1961245, 35.6743604], [-97.1961308, 35.6744809], [-97.1962652, 35.6744762], [-97.1962625, 35.6744243], [-97.1963378, 35.6744217]]]}, "properties": {"osm_id": 985421823, "building": "yes", "name": "", "height": null, "height_m": null, "levels": null, "tract_id": "40109109202", "tract_name": "1092.02", "tags": {"building": "yes"}}}, {"type": "Feature", "geometry": {"type": "Polygon", "coordinates": [[[-97.1967505, 35.6736948], [-97.1967552, 35.6735706], [-97.196605, 35.6735669], [-97.1966003, 35.673691], [-97.1967505, 35.6736948]]]}, "properties": {"osm_id": 985421824, "building": "yes", "name": "", "height": null, "height_m": null, "levels": null, "tract_id": "40109109202", "tract_name": "1092.02", "tags": {"building": "yes"}}}, {"type": "Feature", "geometry": {"type": "Polygon", "coordinates": [[[-97.1956591, 35.6733014], [-97.1955279, 35.6733184], [-97.195501, 35.6731807], [-97.1954474, 35.6731876], [-97.1954281, 35.6730886], [-97.1956128, 35.6730647], [-97.1956591, 35.6733014]]]}, "properties": {"osm_id": 985421825, "building": "yes", "name": "", "height": null, "height_m": null, "levels": null, "tract_id": "40109109202", "tract_name": "1092.02", "tags": {"building": "yes"}}}, {"type": "Feature", "geometry": {"type": "Polygon", "coordinates": [[[-97.196608, 35.6733413], [-97.196469, 35.6733353], [-97.196475, 35.6732421], [-97.196614, 35.673248], [-97.196608, 35.6733413]]]}, "properties": {"osm_id": 985421826, "building": "yes", "name": "", "height": null, "height_m": null, "levels": null, "tract_id": "40109109202", "tract_name": "1092.02", "tags": {"building": "yes"}}}, {"type": "Feature", "geometry": {"type": "Polygon", "coordinates": [[[-97.1929423, 35.6627031], [-97.1929449, 35.6625936], [-97.1928778, 35.6625926], [-97.1928763, 35.6626574], [-97.1928127, 35.6626564], [-97.1928116, 35.662701], [-97.1929423, 35.6627031]]]}, "properties": {"osm_id": 1065310412, "building": "yes", "name": "", "height": null, "height_m": null, "levels": null, "tract_id": "40109109202", "tract_name": "1092.02", "tags": {"addr:city": "Luther", "addr:housenumber": "114", "addr:postcode": "73054", "addr:state": "OK", "addr:street": "North Birch Street", "building": "yes"}}}, {"type": "Feature", "geometry": {"type": "Polygon", "coordinates": [[[-97.292912, 35.6617729], [-97.2927701, 35.6620238], [-97.292924, 35.6620812], [-97.2929428, 35.6620481], [-97.2930347, 35.6620824], [-97.2930729, 35.6620148], [-97.2929943, 35.6619854], [-97.2930792, 35.6618354], [-97.292912, 35.6617729]]]}, "properties": {"osm_id": 1148083444, "building": "yes", "name": "", "height": null, "height_m": null, "levels": null, "tract_id": "40109109202", "tract_name": "1092.02", "tags": {"building": "yes", "source": "microsoft/BuildingFootprints"}}}, {"type": "Feature", "geometry": {"type": "Polygon", "coordinates": [[[-97.2924382, 35.6618999], [-97.2924738, 35.6619886], [-97.2925793, 35.6619606], [-97.2925437, 35.661872], [-97.2924382, 35.6618999]]]}, "properties": {"osm_id": 1148083445, "building": "yes", "name": "", "height": null, "height_m": null, "levels": null, "tract_id": "40109109202", "tract_name": "1092.02", "tags": {"building": "yes", "source": "microsoft/BuildingFootprints"}}}, {"type": "Feature", "geometry": {"type": "Polygon", "coordinates": [[[-97.2924514, 35.6623344], [-97.2923389, 35.6622666], [-97.2922844, 35.6623263], [-97.2923969, 35.662394], [-97.2924514, 35.6623344]]]}, "properties": {"osm_id": 1148083446, "building": "yes", "name": "", "height": null, "height_m": null, "levels": null, "tract_id": "40109109202", "tract_name": "1092.02", "tags": {"building": "yes", "source": "microsoft/BuildingFootprints"}}}, {"type": "Feature", "geometry": {"type": "Polygon", "coordinates": [[[-97.2925002, 35.6623303], [-97.2925693, 35.6624688], [-97.2927018, 35.6624252], [-97.2926327, 35.6622867], [-97.2925002, 35.6623303]]]}, "properties": {"osm_id": 1148083447, "building": "yes", "name": "", "height": null, "height_m": null, "levels": null, "tract_id": "40109109202", "tract_name": "1092.02", "tags": {"building": "yes", "source": "microsoft/BuildingFootprints"}}}, {"type": "Feature", "geometry": {"type": "Polygon", "coordinates": [[[-97.295485, 35.6631238], [-97.2954807, 35.6629321], [-97.2953654, 35.6629338], [-97.2953697, 35.6631255], [-97.295485, 35.6631238]]]}, "properties": {"osm_id": 1148083448, "building": "yes", "name": "", "height": null, "height_m": null, "levels": null, "tract_id": "40109109202", "tract_name": "1092.02", "tags": {"building": "yes", "source": "microsoft/BuildingFootprints"}}}, {"type": "Feature", "geometry": {"type": "Polygon", "coordinates": [[[-97.2954545, 35.6622026], [-97.2954444, 35.6624006], [-97.2956372, 35.6624071], [-97.2956473, 35.6622091], [-97.2954545, 35.6622026]]]}, "properties": {"osm_id": 1148083449, "building": "yes", "name": "", "height": null, "height_m": null, "levels": null, "tract_id": "40109109202", "tract_name": "1092.02", "tags": {"building": "yes", "source": "microsoft/BuildingFootprints"}}}, {"type": "Feature", "geometry": {"type": "Polygon", "coordinates": [[[-97.2955685, 35.6625422], [-97.2955661, 35.6626817], [-97.2956734, 35.6626829], [-97.2956757, 35.6625434], [-97.2955685, 35.6625422]]]}, "properties": {"osm_id": 1148083450, "building": "yes", "name": "", "height": null, "height_m": null, "levels": null, "tract_id": "40109109202", "tract_name": "1092.02", "tags": {"building": "yes", "source": "microsoft/BuildingFootprints"}}}, {"type": "Feature", "geometry": {"type": "Polygon", "coordinates": [[[-97.2955212, 35.6620129], [-97.2956163, 35.6620153], [-97.2956226, 35.6618498], [-97.2955274, 35.6618474], [-97.2955212, 35.6620129]]]}, "properties": {"osm_id": 1148083451, "building": "yes", "name": "", "height": null, "height_m": null, "levels": null, "tract_id": "40109109202", "tract_name": "1092.02", "tags": {"building": "yes", "source": "microsoft/BuildingFootprints"}}}, {"type": "Feature", "geometry": {"type": "Polygon", "coordinates": [[[-97.2968619, 35.6619089], [-97.2966195, 35.6619456], [-97.2966408, 35.6620383], [-97.2968054, 35.6620133], [-97.2968141, 35.6620512], [-97.2968919, 35.6620394], [-97.2968619, 35.6619089]]]}, "properties": {"osm_id": 1148083452, "building": "yes", "name": "", "height": null, "height_m": null, "levels": null, "tract_id": "40109109202", "tract_name": "1092.02", "tags": {"building": "yes", "source": "microsoft/BuildingFootprints"}}}, {"type": "Feature", "geometry": {"type": "Polygon", "coordinates": [[[-97.2975667, 35.6629842], [-97.2977473, 35.662978], [-97.2977405, 35.6628453], [-97.2975599, 35.6628515], [-97.2975667, 35.6629842]]]}, "properties": {"osm_id": 1148083453, "building": "yes", "name": "", "height": null, "height_m": null, "levels": null, "tract_id": "40109109202", "tract_name": "1092.02", "tags": {"building": "yes", "source": "microsoft/BuildingFootprints"}}}, {"type": "Feature", "geometry": {"type": "Polygon", "coordinates": [[[-97.2972802, 35.6630742], [-97.297274, 35.6629087], [-97.297171, 35.6629113], [-97.2971771, 35.6630767], [-97.2972802, 35.6630742]]]}, "properties": {"osm_id": 1148083454, "building": "yes", "name": "", "height": null, "height_m": null, "levels": null, "tract_id": "40109109202", "tract_name": "1092.02", "tags": {"building": "yes", "source": "microsoft/BuildingFootprints"}}}, {"type": "Feature", "geometry": {"type": "Polygon", "coordinates": [[[-97.2938197, 35.6660562], [-97.2935368, 35.6660472], [-97.293535, 35.6660842], [-97.2934671, 35.666082], [-97.293462, 35.6661878], [-97.2937191, 35.666196], [-97.2937204, 35.6661686], [-97.2938141, 35.6661716], [-97.2938197, 35.6660562]]]}, "properties": {"osm_id": 1148083455, "building": "yes", "name": "", "height": null, "height_m": null, "levels": null, "tract_id": "40109109202", "tract_name": "1092.02", "tags": {"building": "yes", "source": "microsoft/BuildingFootprints"}}}, {"type": "Feature", "geometry": {"type": "Polygon", "coordinates": [[[-97.2952058, 35.6665667], [-97.2952116, 35.6666514], [-97.2951795, 35.6666528], [-97.2951862, 35.6667506], [-97.2952878, 35.666746], [-97.2952853, 35.6667091], [-97.2953949, 35.6667042], [-97.2953896, 35.666626], [-97.295435, 35.6666239], [-97.2954319, 35.6665783], [-97.2952849, 35.6665849], [-97.2952834, 35.6665632], [-97.2952058, 35.6665667]]]}, "properties": {"osm_id": 1148083456, "building": "yes", "name": "", "height": null, "height_m": null, "levels": null, "tract_id": "40109109202", "tract_name": "1092.02", "tags": {"building": "yes", "source": "microsoft/BuildingFootprints"}}}, {"type": "Feature", "geometry": {"type": "Polygon", "coordinates": [[[-97.2959366, 35.6664832], [-97.295868, 35.6665445], [-97.2960766, 35.6666985], [-97.2961452, 35.6666372], [-97.2959366, 35.6664832]]]}, "properties": {"osm_id": 1148083457, "building": "yes", "name": "", "height": null, "height_m": null, "levels": null, "tract_id": "40109109202", "tract_name": "1092.02", "tags": {"building": "yes", "source": "microsoft/BuildingFootprints"}}}, {"type": "Feature", "geometry": {"type": "Polygon", "coordinates": [[[-97.2946735, 35.6673994], [-97.2947888, 35.6673989], [-97.2947887, 35.6673815], [-97.2948665, 35.6673811], [-97.294867, 35.6674574], [-97.2949582, 35.667457], [-97.2949574, 35.6673372], [-97.2949735, 35.6673371], [-97.294973, 35.6672565], [-97.2948577, 35.667257], [-97.2948578, 35.6672657], [-97.2948068, 35.6672659], [-97.2948065, 35.6672223], [-97.2946724, 35.6672229], [-97.2946735, 35.6673994]]]}, "properties": {"osm_id": 1148083458, "building": "yes", "name": "", "height": null, "height_m": null, "levels": null, "tract_id": "40109109202", "tract_name": "1092.02", "tags": {"building": "yes", "source": "microsoft/BuildingFootprints"}}}, {"type": "Feature", "geometry": {"type": "Polygon", "coordinates": [[[-97.2944815, 35.6677105], [-97.2944406, 35.6677246], [-97.29443, 35.6677042], [-97.2943617, 35.6677277], [-97.2943772, 35.6677573], [-97.2943476, 35.6677675], [-97.2943868, 35.6678425], [-97.2945255, 35.6677947], [-97.2944815, 35.6677105]]]}, "properties": {"osm_id": 1148083459, "building": "yes", "name": "", "height": null, "height_m": null, "levels": null, "tract_id": "40109109202", "tract_name": "1092.02", "tags": {"building": "yes", "source": "microsoft/BuildingFootprints"}}}, {"type": "Feature", "geometry": {"type": "Polygon", "coordinates": [[[-97.2975106, 35.6690021], [-97.2976419, 35.6689997], [-97.2976391, 35.6688952], [-97.2975078, 35.6688975], [-97.2975106, 35.6690021]]]}, "properties": {"osm_id": 1148083460, "building": "yes", "name": "", "height": null, "height_m": null, "levels": null, "tract_id": "40109109202", "tract_name": "1092.02", "tags": {"building": "yes", "source": "microsoft/BuildingFootprints"}}}, {"type": "Feature", "geometry": {"type": "Polygon", "coordinates": [[[-97.2963467, 35.6699602], [-97.2963514, 35.6700341], [-97.296421, 35.6700312], [-97.2964264, 35.6701159], [-97.2965642, 35.6701101], [-97.2965559, 35.6699797], [-97.2964676, 35.6699834], [-97.2964658, 35.6699552], [-97.2963467, 35.6699602]]]}, "properties": {"osm_id": 1148083461, "building": "yes", "name": "", "height": null, "height_m": null, "levels": null, "tract_id": "40109109202", "tract_name": "1092.02", "tags": {"building": "yes", "source": "microsoft/BuildingFootprints"}}}, {"type": "Feature", "geometry": {"type": "Polygon", "coordinates": [[[-97.2959279, 35.6699071], [-97.2957889, 35.66989], [-97.2957635, 35.6700264], [-97.2959025, 35.6700435], [-97.2959279, 35.6699071]]]}, "properties": {"osm_id": 1148083462, "building": "yes", "name": "", "height": null, "height_m": null, "levels": null, "tract_id": "40109109202", "tract_name": "1092.02", "tags": {"building": "yes", "source": "microsoft/BuildingFootprints"}}}, {"type": "Feature", "geometry": {"type": "Polygon", "coordinates": [[[-97.2985526, 35.6709889], [-97.2985165, 35.6709904], [-97.2985224, 35.6710851], [-97.2986147, 35.6710812], [-97.2986121, 35.6710388], [-97.298695, 35.6710353], [-97.2986899, 35.6709539], [-97.2987086, 35.6709531], [-97.2987009, 35.6708314], [-97.2985431, 35.670838], [-97.2985526, 35.6709889]]]}, "properties": {"osm_id": 1148083463, "building": "yes", "name": "", "height": null, "height_m": null, "levels": null, "tract_id": "40109109202", "tract_name": "1092.02", "tags": {"building": "yes", "source": "microsoft/BuildingFootprints"}}}, {"type": "Feature", "geometry": {"type": "Polygon", "coordinates": [[[-97.193781, 35.666078], [-97.194142, 35.666087], [-97.194147, 35.665945], [-97.193786, 35.665937], [-97.193781, 35.666078]]]}, "properties": {"osm_id": 1148083464, "building": "yes", "name": "Sonic", "height": null, "height_m": null, "levels": null, "tract_id": "40109109202", "tract_name": "1092.02", "tags": {"addr:city": "Luther", "addr:housenumber": "400", "addr:postcode": "73054", "addr:state": "OK", "addr:street": "North Ash Street", "amenity": "fast_food", "brand": "Sonic", "brand:wikidata": "Q7561808", "building": "yes", "cuisine": "burger", "drive_in": "yes", "drive_through": "yes", "name": "Sonic", "opening_hours": "Mo-Sa 06:00-22:00; Su 07:00-22:00", "phone": "+1 405-277-3957", "source": "microsoft/BuildingFootprints", "takeaway": "yes", "website": "https://locations.sonicdrivein.com/ok/luther/400-north-ash.html"}}}, {"type": "Feature", "geometry": {"type": "Polygon", "coordinates": [[[-97.1938065, 35.6662136], [-97.1940336, 35.6662303], [-97.1940375, 35.6661954], [-97.1938104, 35.6661787], [-97.1938065, 35.6662136]]]}, "properties": {"osm_id": 1148083465, "building": "yes", "name": "", "height": null, "height_m": null, "levels": null, "tract_id": "40109109202", "tract_name": "1092.02", "tags": {"building": "yes", "source": "microsoft/BuildingFootprints"}}}, {"type": "Feature", "geometry": {"type": "Polygon", "coordinates": [[[-97.193719, 35.665773], [-97.194156, 35.665774], [-97.194157, 35.665577], [-97.19372, 35.665576], [-97.193719, 35.665773]]]}, "properties": {"osm_id": 1148083466, "building": "yes", "name": "", "height": null, "height_m": null, "levels": null, "tract_id": "40109109202", "tract_name": "1092.02", "tags": {"building": "yes", "source": "microsoft/BuildingFootprints"}}}, {"type": "Feature", "geometry": {"type": "Polygon", "coordinates": [[[-97.191266, 35.666362], [-97.191006, 35.66635], [-97.191003, 35.666394], [-97.191263, 35.666405], [-97.191266, 35.666362]]]}, "properties": {"osm_id": 1148083467, "building": "yes", "name": "", "height": null, "height_m": null, "levels": null, "tract_id": "40109109202", "tract_name": "1092.02", "tags": {"building": "yes", "source": "microsoft/BuildingFootprints"}}}, {"type": "Feature", "geometry": {"type": "Polygon", "coordinates": [[[-97.190957, 35.666222], [-97.191048, 35.666222], [-97.191048, 35.666146], [-97.190957, 35.666146], [-97.190957, 35.666222]]]}, "properties": {"osm_id": 1148083468, "building": "yes", "name": "", "height": null, "height_m": null, "levels": null, "tract_id": "40109109202", "tract_name": "1092.02", "tags": {"building": "yes", "source": "microsoft/BuildingFootprints"}}}, {"type": "Feature", "geometry": {"type": "Polygon", "coordinates": [[[-97.190935, 35.665972], [-97.190935, 35.666072], [-97.191064, 35.666072], [-97.191064, 35.665972], [-97.190935, 35.665972]]]}, "properties": {"osm_id": 1148083469, "building": "yes", "name": "", "height": null, "height_m": null, "levels": null, "tract_id": "40109109202", "tract_name": "1092.02", "tags": {"building": "yes", "source": "microsoft/BuildingFootprints"}}}, {"type": "Feature", "geometry": {"type": "Polygon", "coordinates": [[[-97.190187, 35.666268], [-97.190187, 35.666349], [-97.190266, 35.666349], [-97.190266, 35.666268], [-97.190187, 35.666268]]]}, "properties": {"osm_id": 1148083470, "building": "yes", "name": "", "height": null, "height_m": null, "levels": null, "tract_id": "40109109202", "tract_name": "1092.02", "tags": {"building": "yes", "source": "microsoft/BuildingFootprints"}}}, {"type": "Feature", "geometry": {"type": "Polygon", "coordinates": [[[-97.190219, 35.666575], [-97.190326, 35.666575], [-97.190326, 35.666497], [-97.190219, 35.666497], [-97.190219, 35.666575]]]}, "properties": {"osm_id": 1148083471, "building": "yes", "name": "", "height": null, "height_m": null, "levels": null, "tract_id": "40109109202", "tract_name": "1092.02", "tags": {"building": "yes", "source": "microsoft/BuildingFootprints"}}}, {"type": "Feature", "geometry": {"type": "Polygon", "coordinates": [[[-97.190443, 35.665487], [-97.190439, 35.665517], [-97.190321, 35.665509], [-97.190314, 35.665573], [-97.190494, 35.665585], [-97.190496, 35.665566], [-97.190552, 35.66557], [-97.19056, 35.665495], [-97.190443, 35.665487]]]}, "properties": {"osm_id": 1148083472, "building": "yes", "name": "", "height": null, "height_m": null, "levels": null, "tract_id": "40109109202", "tract_name": "1092.02", "tags": {"building": "yes", "source": "microsoft/BuildingFootprints"}}}, {"type": "Feature", "geometry": {"type": "Polygon", "coordinates": [[[-97.190957, 35.66558], [-97.191069, 35.66558], [-97.191069, 35.66544], [-97.190957, 35.66544], [-97.190957, 35.66558]]]}, "properties": {"osm_id": 1148083473, "building": "yes", "name": "", "height": null, "height_m": null, "levels": null, "tract_id": "40109109202", "tract_name": "1092.02", "tags": {"building": "yes", "source": "microsoft/BuildingFootprints"}}}, {"type": "Feature", "geometry": {"type": "Polygon", "coordinates": [[[-97.190399, 35.665126], [-97.190579, 35.665126], [-97.190579, 35.66503], [-97.190399, 35.66503], [-97.190399, 35.665126]]]}, "properties": {"osm_id": 1148083474, "building": "yes", "name": "", "height": null, "height_m": null, "levels": null, "tract_id": "40109109202", "tract_name": "1092.02", "tags": {"building": "yes", "source": "microsoft/BuildingFootprints"}}}, {"type": "Feature", "geometry": {"type": "Polygon", "coordinates": [[[-97.189943, 35.664969], [-97.189943, 35.665061], [-97.190088, 35.665061], [-97.190088, 35.664969], [-97.189943, 35.664969]]]}, "properties": {"osm_id": 1148083475, "building": "yes", "name": "", "height": null, "height_m": null, "levels": null, "tract_id": "40109109202", "tract_name": "1092.02", "tags": {"building": "yes", "source": "microsoft/BuildingFootprints"}}}, {"type": "Feature", "geometry": {"type": "Polygon", "coordinates": [[[-97.189586, 35.665067], [-97.189701, 35.665067], [-97.189701, 35.664978], [-97.189586, 35.664978], [-97.189586, 35.665067]]]}, "properties": {"osm_id": 1148083476, "building": "yes", "name": "", "height": null, "height_m": null, "levels": null, "tract_id": "40109109202", "tract_name": "1092.02", "tags": {"building": "yes", "source": "microsoft/BuildingFootprints"}}}, {"type": "Feature", "geometry": {"type": "Polygon", "coordinates": [[[-97.190968, 35.665063], [-97.191185, 35.665063], [-97.191185, 35.66498], [-97.190968, 35.66498], [-97.190968, 35.665063]]]}, "properties": {"osm_id": 1148083477, "building": "yes", "name": "", "height": null, "height_m": null, "levels": null, "tract_id": "40109109202", "tract_name": "1092.02", "tags": {"building": "yes", "source": "microsoft/BuildingFootprints"}}}, {"type": "Feature", "geometry": {"type": "Polygon", "coordinates": [[[-97.191391, 35.665024], [-97.191311, 35.665024], [-97.191311, 35.6652], [-97.191391, 35.6652], [-97.191391, 35.665024]]]}, "properties": {"osm_id": 1148083478, "building": "yes", "name": "", "height": null, "height_m": null, "levels": null, "tract_id": "40109109202", "tract_name": "1092.02", "tags": {"building": "yes", "source": "microsoft/BuildingFootprints"}}}, {"type": "Feature", "geometry": {"type": "Polygon", "coordinates": [[[-97.19134, 35.665468], [-97.191252, 35.665468], [-97.191252, 35.665586], [-97.19134, 35.665586], [-97.19134, 35.665468]]]}, "properties": {"osm_id": 1148083479, "building": "yes", "name": "", "height": null, "height_m": null, "levels": null, "tract_id": "40109109202", "tract_name": "1092.02", "tags": {"building": "yes", "source": "microsoft/BuildingFootprints"}}}, {"type": "Feature", "geometry": {"type": "Polygon", "coordinates": [[[-97.191485, 35.665562], [-97.191619, 35.665562], [-97.191619, 35.665475], [-97.191485, 35.665475], [-97.191485, 35.665562]]]}, "properties": {"osm_id": 1148083480, "building": "yes", "name": "", "height": null, "height_m": null, "levels": null, "tract_id": "40109109202", "tract_name": "1092.02", "tags": {"building": "yes", "source": "microsoft/BuildingFootprints"}}}, {"type": "Feature", "geometry": {"type": "Polygon", "coordinates": [[[-97.191692, 35.665], [-97.191692, 35.665144], [-97.191812, 35.665144], [-97.191812, 35.665], [-97.191692, 35.665]]]}, "properties": {"osm_id": 1148083481, "building": "yes", "name": "", "height": null, "height_m": null, "levels": null, "tract_id": "40109109202", "tract_name": "1092.02", "tags": {"building": "yes", "source": "microsoft/BuildingFootprints"}}}, {"type": "Feature", "geometry": {"type": "Polygon", "coordinates": [[[-97.191831, 35.66479], [-97.19171, 35.664792], [-97.191712, 35.664916], [-97.191833, 35.664915], [-97.191831, 35.66479]]]}, "properties": {"osm_id": 1148083482, "building": "yes", "name": "", "height": null, "height_m": null, "levels": null, "tract_id": "40109109202", "tract_name": "1092.02", "tags": {"building": "yes", "source": "microsoft/BuildingFootprints"}}}, {"type": "Feature", "geometry": {"type": "Polygon", "coordinates": [[[-97.191748, 35.664616], [-97.191748, 35.664677], [-97.19171, 35.664677], [-97.19171, 35.664756], [-97.191845, 35.664756], [-97.191845, 35.664616], [-97.191748, 35.664616]]]}, "properties": {"osm_id": 1148083483, "building": "yes", "name": "", "height": null, "height_m": null, "levels": null, "tract_id": "40109109202", "tract_name": "1092.02", "tags": {"building": "yes", "source": "microsoft/BuildingFootprints"}}}, {"type": "Feature", "geometry": {"type": "Polygon", "coordinates": [[[-97.192236, 35.664446], [-97.192236, 35.664568], [-97.192338, 35.664568], [-97.192338, 35.664446], [-97.192236, 35.664446]]]}, "properties": {"osm_id": 1148083484, "building": "yes", "name": "", "height": null, "height_m": null, "levels": null, "tract_id": "40109109202", "tract_name": "1092.02", "tags": {"building": "yes", "source": "microsoft/BuildingFootprints"}}}, {"type": "Feature", "geometry": {"type": "Polygon", "coordinates": [[[-97.191775, 35.664433], [-97.191527, 35.664433], [-97.191527, 35.66454], [-97.191708, 35.66454], [-97.191708, 35.664496], [-97.191775, 35.664496], [-97.191775, 35.664433]]]}, "properties": {"osm_id": 1148083485, "building": "yes", "name": "", "height": null, "height_m": null, "levels": null, "tract_id": "40109109202", "tract_name": "1092.02", "tags": {"building": "yes", "source": "microsoft/BuildingFootprints"}}}, {"type": "Feature", "geometry": {"type": "Polygon", "coordinates": [[[-97.190978, 35.664673], [-97.190978, 35.664756], [-97.191177, 35.664756], [-97.191177, 35.664673], [-97.190978, 35.664673]]]}, "properties": {"osm_id": 1148083486, "building": "yes", "name": "", "height": null, "height_m": null, "levels": null, "tract_id": "40109109202", "tract_name": "1092.02", "tags": {"building": "yes", "source": "microsoft/BuildingFootprints"}}}, {"type": "Feature", "geometry": {"type": "Polygon", "coordinates": [[[-97.190989, 35.664887], [-97.191102, 35.664887], [-97.191102, 35.664786], [-97.190989, 35.664786], [-97.190989, 35.664887]]]}, "properties": {"osm_id": 1148083487, "building": "yes", "name": "", "height": null, "height_m": null, "levels": null, "tract_id": "40109109202", "tract_name": "1092.02", "tags": {"building": "yes", "source": "microsoft/BuildingFootprints"}}}, {"type": "Feature", "geometry": {"type": "Polygon", "coordinates": [[[-97.190992, 35.664379], [-97.190992, 35.664571], [-97.191088, 35.664571], [-97.191088, 35.664379], [-97.190992, 35.664379]]]}, "properties": {"osm_id": 1148083488, "building": "yes", "name": "", "height": null, "height_m": null, "levels": null, "tract_id": "40109109202", "tract_name": "1092.02", "tags": {"building": "yes", "source": "microsoft/BuildingFootprints"}}}, {"type": "Feature", "geometry": {"type": "Polygon", "coordinates": [[[-97.190616, 35.66461], [-97.190616, 35.664536], [-97.190485, 35.664536], [-97.190485, 35.66461], [-97.190616, 35.66461]]]}, "properties": {"osm_id": 1148083489, "building": "yes", "name": "", "height": null, "height_m": null, "levels": null, "tract_id": "40109109202", "tract_name": "1092.02", "tags": {"building": "yes", "source": "microsoft/BuildingFootprints"}}}, {"type": "Feature", "geometry": {"type": "Polygon", "coordinates": [[[-97.190472, 35.664677], [-97.190472, 35.664747], [-97.190587, 35.664747], [-97.190587, 35.664677], [-97.190472, 35.664677]]]}, "properties": {"osm_id": 1148083490, "building": "yes", "name": "", "height": null, "height_m": null, "levels": null, "tract_id": "40109109202", "tract_name": "1092.02", "tags": {"building": "yes", "source": "microsoft/BuildingFootprints"}}}, {"type": "Feature", "geometry": {"type": "Polygon", "coordinates": [[[-97.190469, 35.664956], [-97.190576, 35.664956], [-97.190576, 35.664836], [-97.190469, 35.664836], [-97.190469, 35.664956]]]}, "properties": {"osm_id": 1148083491, "building": "yes", "name": "", "height": null, "height_m": null, "levels": null, "tract_id": "40109109202", "tract_name": "1092.02", "tags": {"building": "yes", "source": "microsoft/BuildingFootprints"}}}, {"type": "Feature", "geometry": {"type": "Polygon", "coordinates": [[[-97.189752, 35.664573], [-97.189948, 35.664573], [-97.189948, 35.664403], [-97.189852, 35.664403], [-97.189852, 35.664477], [-97.189752, 35.664477], [-97.189752, 35.664573]]]}, "properties": {"osm_id": 1148083492, "building": "yes", "name": "", "height": null, "height_m": null, "levels": null, "tract_id": "40109109202", "tract_name": "1092.02", "tags": {"building": "yes", "source": "microsoft/BuildingFootprints"}}}, {"type": "Feature", "geometry": {"type": "Polygon", "coordinates": [[[-97.189997, 35.664255], [-97.189997, 35.664021], [-97.189836, 35.664021], [-97.189836, 35.66416], [-97.189852, 35.66416], [-97.189852, 35.664204], [-97.189897, 35.664204], [-97.189897, 35.664255], [-97.189997, 35.664255]]]}, "properties": {"osm_id": 1148083493, "building": "yes", "name": "", "height": null, "height_m": null, "levels": null, "tract_id": "40109109202", "tract_name": "1092.02", "tags": {"building": "yes", "source": "microsoft/BuildingFootprints"}}}, {"type": "Feature", "geometry": {"type": "Polygon", "coordinates": [[[-97.189543, 35.664638], [-97.189543, 35.664555], [-97.189272, 35.664555], [-97.189272, 35.664638], [-97.189543, 35.664638]]]}, "properties": {"osm_id": 1148083680, "building": "yes", "name": "", "height": null, "height_m": null, "levels": null, "tract_id": "40109109202", "tract_name": "1092.02", "tags": {"building": "yes", "source": "microsoft/BuildingFootprints"}}}, {"type": "Feature", "geometry": {"type": "Polygon", "coordinates": [[[-97.189393, 35.66408], [-97.18928, 35.66408], [-97.18928, 35.664305], [-97.189393, 35.664305], [-97.189393, 35.66408]]]}, "properties": {"osm_id": 1148083681, "building": "yes", "name": "", "height": null, "height_m": null, "levels": null, "tract_id": "40109109202", "tract_name": "1092.02", "tags": {"building": "yes", "source": "microsoft/BuildingFootprints"}}}, {"type": "Feature", "geometry": {"type": "Polygon", "coordinates": [[[-97.189213, 35.665061], [-97.189428, 35.665061], [-97.189428, 35.664967], [-97.189213, 35.664967], [-97.189213, 35.665061]]]}, "properties": {"osm_id": 1148083682, "building": "yes", "name": "", "height": null, "height_m": null, "levels": null, "tract_id": "40109109202", "tract_name": "1092.02", "tags": {"building": "yes", "source": "microsoft/BuildingFootprints"}}}, {"type": "Feature", "geometry": {"type": "Polygon", "coordinates": [[[-97.18909, 35.665], [-97.189036, 35.665], [-97.189036, 35.664943], [-97.188937, 35.664943], [-97.188937, 35.66508], [-97.18909, 35.66508], [-97.18909, 35.665]]]}, "properties": {"osm_id": 1148083683, "building": "yes", "name": "", "height": null, "height_m": null, "levels": null, "tract_id": "40109109202", "tract_name": "1092.02", "tags": {"building": "yes", "source": "microsoft/BuildingFootprints"}}}, {"type": "Feature", "geometry": {"type": "Polygon", "coordinates": [[[-97.188717, 35.665072], [-97.188787, 35.665072], [-97.188787, 35.664956], [-97.188607, 35.664956], [-97.188607, 35.665039], [-97.188717, 35.665039], [-97.188717, 35.665072]]]}, "properties": {"osm_id": 1148083684, "building": "yes", "name": "", "height": null, "height_m": null, "levels": null, "tract_id": "40109109202", "tract_name": "1092.02", "tags": {"building": "yes", "source": "microsoft/BuildingFootprints"}}}, {"type": "Feature", "geometry": {"type": "Polygon", "coordinates": [[[-97.188604, 35.664634], [-97.188838, 35.664634], [-97.188838, 35.664549], [-97.188604, 35.664549], [-97.188604, 35.664634]]]}, "properties": {"osm_id": 1148083685, "building": "yes", "name": "", "height": null, "height_m": null, "levels": null, "tract_id": "40109109202", "tract_name": "1092.02", "tags": {"building": "yes", "source": "microsoft/BuildingFootprints"}}}, {"type": "Feature", "geometry": {"type": "Polygon", "coordinates": [[[-97.189149, 35.664553], [-97.18905, 35.664553], [-97.18905, 35.664588], [-97.188948, 35.664588], [-97.188948, 35.664666], [-97.189149, 35.664666], [-97.189149, 35.664553]]]}, "properties": {"osm_id": 1148083686, "building": "yes", "name": "", "height": null, "height_m": null, "levels": null, "tract_id": "40109109202", "tract_name": "1092.02", "tags": {"building": "yes", "source": "microsoft/BuildingFootprints"}}}, {"type": "Feature", "geometry": {"type": "Polygon", "coordinates": [[[-97.188754, 35.664092], [-97.188621, 35.664091], [-97.188619, 35.66422], [-97.188598, 35.66422], [-97.188597, 35.664291], [-97.188752, 35.664292], [-97.188754, 35.664092]]]}, "properties": {"osm_id": 1148083687, "building": "yes", "name": "", "height": null, "height_m": null, "levels": null, "tract_id": "40109109202", "tract_name": "1092.02", "tags": {"building": "yes", "source": "microsoft/BuildingFootprints"}}}, {"type": "Feature", "geometry": {"type": "Polygon", "coordinates": [[[-97.188052, 35.665], [-97.188052, 35.664887], [-97.18798, 35.664887], [-97.18798, 35.665], [-97.188052, 35.665]]]}, "properties": {"osm_id": 1148083688, "building": "yes", "name": "", "height": null, "height_m": null, "levels": null, "tract_id": "40109109202", "tract_name": "1092.02", "tags": {"building": "yes", "source": "microsoft/BuildingFootprints"}}}, {"type": "Feature", "geometry": {"type": "Polygon", "coordinates": [[[-97.188252, 35.663989], [-97.188113, 35.663988], [-97.188111, 35.664214], [-97.188251, 35.664214], [-97.188252, 35.663989]]]}, "properties": {"osm_id": 1148083689, "building": "yes", "name": "", "height": null, "height_m": null, "levels": null, "tract_id": "40109109202", "tract_name": "1092.02", "tags": {"building": "yes", "source": "microsoft/BuildingFootprints"}}}, {"type": "Feature", "geometry": {"type": "Polygon", "coordinates": [[[-97.188623, 35.664024], [-97.188749, 35.664024], [-97.188749, 35.663795], [-97.188623, 35.663795], [-97.188623, 35.664024]]]}, "properties": {"osm_id": 1148083690, "building": "yes", "name": "", "height": null, "height_m": null, "levels": null, "tract_id": "40109109202", "tract_name": "1092.02", "tags": {"building": "yes", "source": "microsoft/BuildingFootprints"}}}, {"type": "Feature", "geometry": {"type": "Polygon", "coordinates": [[[-97.188807, 35.663334], [-97.188727, 35.663332], [-97.188724, 35.663447], [-97.188667, 35.663446], [-97.188662, 35.663657], [-97.188777, 35.663659], [-97.188779, 35.663592], [-97.188835, 35.663593], [-97.188839, 35.663428], [-97.188805, 35.663427], [-97.188807, 35.663334]]]}, "properties": {"osm_id": 1148083691, "building": "yes", "name": "", "height": null, "height_m": null, "levels": null, "tract_id": "40109109202", "tract_name": "1092.02", "tags": {"building": "yes", "source": "microsoft/BuildingFootprints"}}}, {"type": "Feature", "geometry": {"type": "Polygon", "coordinates": [[[-97.188254, 35.663656], [-97.188255, 35.663327], [-97.188044, 35.663327], [-97.188043, 35.663529], [-97.188041, 35.663529], [-97.18804, 35.663656], [-97.188254, 35.663656]]]}, "properties": {"osm_id": 1148083692, "building": "yes", "name": "", "height": null, "height_m": null, "levels": null, "tract_id": "40109109202", "tract_name": "1092.02", "tags": {"building": "yes", "source": "microsoft/BuildingFootprints"}}}, {"type": "Feature", "geometry": {"type": "Polygon", "coordinates": [[[-97.189443, 35.66368], [-97.189301, 35.663679], [-97.1893, 35.663921], [-97.189415, 35.663922], [-97.189416, 35.66383], [-97.189443, 35.66383], [-97.189443, 35.66368]]]}, "properties": {"osm_id": 1148083693, "building": "yes", "name": "", "height": null, "height_m": null, "levels": null, "tract_id": "40109109202", "tract_name": "1092.02", "tags": {"building": "yes", "source": "microsoft/BuildingFootprints"}}}, {"type": "Feature", "geometry": {"type": "Polygon", "coordinates": [[[-97.189903, 35.663745], [-97.189793, 35.663745], [-97.189793, 35.663954], [-97.189903, 35.663954], [-97.189903, 35.663745]]]}, "properties": {"osm_id": 1148083694, "building": "yes", "name": "", "height": null, "height_m": null, "levels": null, "tract_id": "40109109202", "tract_name": "1092.02", "tags": {"building": "yes", "source": "microsoft/BuildingFootprints"}}}, {"type": "Feature", "geometry": {"type": "Polygon", "coordinates": [[[-97.189455, 35.663281], [-97.189278, 35.663281], [-97.189278, 35.663464], [-97.189455, 35.663464], [-97.189455, 35.663281]]]}, "properties": {"osm_id": 1148083695, "building": "yes", "name": "", "height": null, "height_m": null, "levels": null, "tract_id": "40109109202", "tract_name": "1092.02", "tags": {"building": "yes", "source": "microsoft/BuildingFootprints"}}}, {"type": "Feature", "geometry": {"type": "Polygon", "coordinates": [[[-97.188869, 35.662933], [-97.18887, 35.66278], [-97.188672, 35.662779], [-97.188671, 35.662942], [-97.188655, 35.662942], [-97.188654, 35.663025], [-97.188824, 35.663026], [-97.188825, 35.662933], [-97.188869, 35.662933]]]}, "properties": {"osm_id": 1148083696, "building": "yes", "name": "", "height": null, "height_m": null, "levels": null, "tract_id": "40109109202", "tract_name": "1092.02", "tags": {"building": "yes", "source": "microsoft/BuildingFootprints"}}}, {"type": "Feature", "geometry": {"type": "Polygon", "coordinates": [[[-97.189302, 35.662917], [-97.189302, 35.662882], [-97.18916, 35.662882], [-97.18916, 35.663013], [-97.189366, 35.663013], [-97.189367, 35.662917], [-97.189302, 35.662917]]]}, "properties": {"osm_id": 1148083697, "building": "yes", "name": "", "height": null, "height_m": null, "levels": null, "tract_id": "40109109202", "tract_name": "1092.02", "tags": {"building": "yes", "source": "microsoft/BuildingFootprints"}}}, {"type": "Feature", "geometry": {"type": "Polygon", "coordinates": [[[-97.189778, 35.662898], [-97.189777, 35.662988], [-97.190032, 35.662989], [-97.190033, 35.662899], [-97.189778, 35.662898]]]}, "properties": {"osm_id": 1148083698, "building": "yes", "name": "", "height": null, "height_m": null, "levels": null, "tract_id": "40109109202", "tract_name": "1092.02", "tags": {"building": "yes", "source": "microsoft/BuildingFootprints"}}}, {"type": "Feature", "geometry": {"type": "Polygon", "coordinates": [[[-97.19064, 35.662723], [-97.19047, 35.662723], [-97.19047, 35.662792], [-97.19064, 35.662792], [-97.19064, 35.662723]]]}, "properties": {"osm_id": 1148083699, "building": "yes", "name": "", "height": null, "height_m": null, "levels": null, "tract_id": "40109109202", "tract_name": "1092.02", "tags": {"building": "yes", "source": "microsoft/BuildingFootprints"}}}, {"type": "Feature", "geometry": {"type": "Polygon", "coordinates": [[[-97.190474, 35.662904], [-97.190474, 35.662988], [-97.190643, 35.662988], [-97.190643, 35.662904], [-97.190474, 35.662904]]]}, "properties": {"osm_id": 1148083700, "building": "yes", "name": "", "height": null, "height_m": null, "levels": null, "tract_id": "40109109202", "tract_name": "1092.02", "tags": {"building": "yes", "source": "microsoft/BuildingFootprints"}}}, {"type": "Feature", "geometry": {"type": "Polygon", "coordinates": [[[-97.191153, 35.662973], [-97.191027, 35.662973], [-97.191027, 35.663052], [-97.191153, 35.663052], [-97.191153, 35.662973]]]}, "properties": {"osm_id": 1148083701, "building": "yes", "name": "", "height": null, "height_m": null, "levels": null, "tract_id": "40109109202", "tract_name": "1092.02", "tags": {"building": "yes", "source": "microsoft/BuildingFootprints"}}}, {"type": "Feature", "geometry": {"type": "Polygon", "coordinates": [[[-97.191358, 35.66237], [-97.191018, 35.66237], [-97.191017, 35.662415], [-97.190956, 35.662415], [-97.190955, 35.662472], [-97.19102, 35.662472], [-97.19102, 35.662509], [-97.191116, 35.662509], [-97.191116, 35.662565], [-97.191223, 35.662565], [-97.191222, 35.66281], [-97.191375, 35.662811], [-97.191376, 35.662581], [-97.191328, 35.662581], [-97.191328, 35.662512], [-97.191358, 35.662512], [-97.191358, 35.66237]]]}, "properties": {"osm_id": 1148083702, "building": "yes", "name": "", "height": null, "height_m": null, "levels": null, "tract_id": "40109109202", "tract_name": "1092.02", "tags": {"building": "yes", "source": "microsoft/BuildingFootprints"}}}, {"type": "Feature", "geometry": {"type": "Polygon", "coordinates": [[[-97.190576, 35.66337], [-97.190458, 35.66337], [-97.190458, 35.663546], [-97.190576, 35.663546], [-97.190576, 35.66337]]]}, "properties": {"osm_id": 1148083703, "building": "yes", "name": "", "height": null, "height_m": null, "levels": null, "tract_id": "40109109202", "tract_name": "1092.02", "tags": {"building": "yes", "source": "microsoft/BuildingFootprints"}}}, {"type": "Feature", "geometry": {"type": "Polygon", "coordinates": [[[-97.190982, 35.663696], [-97.191147, 35.663697], [-97.191148, 35.663599], [-97.190983, 35.663598], [-97.190982, 35.663696]]]}, "properties": {"osm_id": 1148083704, "building": "yes", "name": "", "height": null, "height_m": null, "levels": null, "tract_id": "40109109202", "tract_name": "1092.02", "tags": {"building": "yes", "source": "microsoft/BuildingFootprints"}}}, {"type": "Feature", "geometry": {"type": "Polygon", "coordinates": [[[-97.190455, 35.663751], [-97.190549, 35.663751], [-97.190549, 35.663695], [-97.190592, 35.663695], [-97.190592, 35.663616], [-97.190455, 35.663616], [-97.190455, 35.663751]]]}, "properties": {"osm_id": 1148083705, "building": "yes", "name": "", "height": null, "height_m": null, "levels": null, "tract_id": "40109109202", "tract_name": "1092.02", "tags": {"building": "yes", "source": "microsoft/BuildingFootprints"}}}, {"type": "Feature", "geometry": {"type": "Polygon", "coordinates": [[[-97.190487, 35.663795], [-97.190487, 35.663932], [-97.190595, 35.663932], [-97.190595, 35.663795], [-97.190487, 35.663795]]]}, "properties": {"osm_id": 1148083706, "building": "yes", "name": "", "height": null, "height_m": null, "levels": null, "tract_id": "40109109202", "tract_name": "1092.02", "tags": {"building": "yes", "source": "microsoft/BuildingFootprints"}}}, {"type": "Feature", "geometry": {"type": "Polygon", "coordinates": [[[-97.190442, 35.663989], [-97.190442, 35.664106], [-97.190579, 35.664106], [-97.190579, 35.664046], [-97.190541, 35.664046], [-97.190541, 35.663989], [-97.190442, 35.663989]]]}, "properties": {"osm_id": 1148083707, "building": "yes", "name": "", "height": null, "height_m": null, "levels": null, "tract_id": "40109109202", "tract_name": "1092.02", "tags": {"building": "yes", "source": "microsoft/BuildingFootprints"}}}, {"type": "Feature", "geometry": {"type": "Polygon", "coordinates": [[[-97.191705, 35.663492], [-97.191842, 35.663492], [-97.191842, 35.663365], [-97.191705, 35.663365], [-97.191705, 35.663492]]]}, "properties": {"osm_id": 1148083708, "building": "yes", "name": "", "height": null, "height_m": null, "levels": null, "tract_id": "40109109202", "tract_name": "1092.02", "tags": {"building": "yes", "source": "microsoft/BuildingFootprints"}}}, {"type": "Feature", "geometry": {"type": "Polygon", "coordinates": [[[-97.191772, 35.663967], [-97.191885, 35.663967], [-97.191885, 35.663812], [-97.191772, 35.663812], [-97.191772, 35.663967]]]}, "properties": {"osm_id": 1148083709, "building": "yes", "name": "", "height": null, "height_m": null, "levels": null, "tract_id": "40109109202", "tract_name": "1092.02", "tags": {"building": "yes", "source": "microsoft/BuildingFootprints"}}}, {"type": "Feature", "geometry": {"type": "Polygon", "coordinates": [[[-97.192499, 35.663788], [-97.192499, 35.663616], [-97.192397, 35.663616], [-97.192397, 35.663788], [-97.192499, 35.663788]]]}, "properties": {"osm_id": 1148083710, "building": "yes", "name": "", "height": null, "height_m": null, "levels": null, "tract_id": "40109109202", "tract_name": "1092.02", "tags": {"building": "yes", "source": "microsoft/BuildingFootprints"}}}, {"type": "Feature", "geometry": {"type": "Polygon", "coordinates": [[[-97.192314, 35.66347], [-97.192459, 35.66347], [-97.192459, 35.663398], [-97.192314, 35.663398], [-97.192314, 35.66347]]]}, "properties": {"osm_id": 1148083711, "building": "yes", "name": "", "height": null, "height_m": null, "levels": null, "tract_id": "40109109202", "tract_name": "1092.02", "tags": {"building": "yes", "source": "microsoft/BuildingFootprints"}}}, {"type": "Feature", "geometry": {"type": "Polygon", "coordinates": [[[-97.192537, 35.662969], [-97.192295, 35.662969], [-97.192295, 35.66308], [-97.192537, 35.66308], [-97.192537, 35.662969]]]}, "properties": {"osm_id": 1148083712, "building": "yes", "name": "", "height": null, "height_m": null, "levels": null, "tract_id": "40109109202", "tract_name": "1092.02", "tags": {"building": "yes", "source": "microsoft/BuildingFootprints"}}}, {"type": "Feature", "geometry": {"type": "Polygon", "coordinates": [[[-97.192346, 35.66274], [-97.192346, 35.66284], [-97.192593, 35.66284], [-97.192593, 35.66274], [-97.192346, 35.66274]]]}, "properties": {"osm_id": 1148083713, "building": "yes", "name": "", "height": null, "height_m": null, "levels": null, "tract_id": "40109109202", "tract_name": "1092.02", "tags": {"building": "yes", "source": "microsoft/BuildingFootprints"}}}, {"type": "Feature", "geometry": {"type": "Polygon", "coordinates": [[[-97.193221, 35.663095], [-97.1932217, 35.6630095], [-97.1929449, 35.663008], [-97.1929443, 35.6630936], [-97.193221, 35.663095]]]}, "properties": {"osm_id": 1148083714, "building": "yes", "name": "", "height": null, "height_m": null, "levels": null, "tract_id": "40109109202", "tract_name": "1092.02", "tags": {"building": "yes", "source": "microsoft/BuildingFootprints"}}}, {"type": "Feature", "geometry": {"type": "Polygon", "coordinates": [[[-97.193062, 35.662884], [-97.193062, 35.662965], [-97.193218, 35.662965], [-97.193218, 35.662884], [-97.193062, 35.662884]]]}, "properties": {"osm_id": 1148083715, "building": "yes", "name": "", "height": null, "height_m": null, "levels": null, "tract_id": "40109109202", "tract_name": "1092.02", "tags": {"building": "yes", "source": "microsoft/BuildingFootprints"}}}, {"type": "Feature", "geometry": {"type": "Polygon", "coordinates": [[[-97.191654, 35.663004], [-97.191731, 35.663082], [-97.19185, 35.663005], [-97.191828, 35.662982], [-97.191898, 35.662937], [-97.191843, 35.662881], [-97.191654, 35.663004]]]}, "properties": {"osm_id": 1148083716, "building": "yes", "name": "", "height": null, "height_m": null, "levels": null, "tract_id": "40109109202", "tract_name": "1092.02", "tags": {"building": "yes", "source": "microsoft/BuildingFootprints"}}}, {"type": "Feature", "geometry": {"type": "Polygon", "coordinates": [[[-97.191683, 35.662749], [-97.191683, 35.662825], [-97.191776, 35.662826], [-97.191776, 35.662864], [-97.191886, 35.662864], [-97.191887, 35.662813], [-97.191842, 35.662813], [-97.191843, 35.66275], [-97.191683, 35.662749]]]}, "properties": {"osm_id": 1148083717, "building": "yes", "name": "", "height": null, "height_m": null, "levels": null, "tract_id": "40109109202", "tract_name": "1092.02", "tags": {"building": "yes", "source": "microsoft/BuildingFootprints"}}}, {"type": "Feature", "geometry": {"type": "Polygon", "coordinates": [[[-97.191834, 35.662677], [-97.191941, 35.662677], [-97.191941, 35.662537], [-97.191834, 35.662537], [-97.191834, 35.662677]]]}, "properties": {"osm_id": 1148083718, "building": "yes", "name": "", "height": null, "height_m": null, "levels": null, "tract_id": "40109109202", "tract_name": "1092.02", "tags": {"building": "yes", "source": "microsoft/BuildingFootprints"}}}, {"type": "Feature", "geometry": {"type": "Polygon", "coordinates": [[[-97.193099, 35.662476], [-97.193162, 35.662476], [-97.193163, 35.662376], [-97.192922, 35.662375], [-97.192921, 35.662516], [-97.193099, 35.662516], [-97.193099, 35.662476]]]}, "properties": {"osm_id": 1148083719, "building": "yes", "name": "", "height": null, "height_m": null, "levels": null, "tract_id": "40109109202", "tract_name": "1092.02", "tags": {"building": "yes", "source": "microsoft/BuildingFootprints"}}}, {"type": "Feature", "geometry": {"type": "Polygon", "coordinates": [[[-97.193937, 35.662315], [-97.193599, 35.662315], [-97.193599, 35.662418], [-97.193937, 35.662418], [-97.193937, 35.662315]]]}, "properties": {"osm_id": 1148083720, "building": "yes", "name": "", "height": null, "height_m": null, "levels": null, "tract_id": "40109109202", "tract_name": "1092.02", "tags": {"building": "yes", "source": "microsoft/BuildingFootprints"}}}, {"type": "Feature", "geometry": {"type": "Polygon", "coordinates": [[[-97.194257, 35.66232], [-97.194064, 35.662319], [-97.194061, 35.662593], [-97.194254, 35.662594], [-97.194257, 35.66232]]]}, "properties": {"osm_id": 1148083721, "building": "yes", "name": "", "height": null, "height_m": null, "levels": null, "tract_id": "40109109202", "tract_name": "1092.02", "tags": {"building": "yes", "source": "microsoft/BuildingFootprints"}}}, {"type": "Feature", "geometry": {"type": "Polygon", "coordinates": [[[-97.193733, 35.662537], [-97.193575, 35.662537], [-97.193575, 35.662631], [-97.193733, 35.662631], [-97.193733, 35.662537]]]}, "properties": {"osm_id": 1148083722, "building": "yes", "name": "", "height": null, "height_m": null, "levels": null, "tract_id": "40109109202", "tract_name": "1092.02", "tags": {"building": "yes", "source": "microsoft/BuildingFootprints"}}}, {"type": "Feature", "geometry": {"type": "Polygon", "coordinates": [[[-97.194363, 35.662725], [-97.194291, 35.662725], [-97.194291, 35.662851], [-97.194363, 35.662851], [-97.194363, 35.662725]]]}, "properties": {"osm_id": 1148083723, "building": "yes", "name": "", "height": null, "height_m": null, "levels": null, "tract_id": "40109109202", "tract_name": "1092.02", "tags": {"building": "yes", "source": "microsoft/BuildingFootprints"}}}, {"type": "Feature", "geometry": {"type": "Polygon", "coordinates": [[[-97.193709, 35.663566], [-97.193709, 35.663427], [-97.193567, 35.663427], [-97.193567, 35.663566], [-97.193709, 35.663566]]]}, "properties": {"osm_id": 1148083724, "building": "yes", "name": "", "height": null, "height_m": null, "levels": null, "tract_id": "40109109202", "tract_name": "1092.02", "tags": {"building": "yes", "source": "microsoft/BuildingFootprints"}}}, {"type": "Feature", "geometry": {"type": "Polygon", "coordinates": [[[-97.194055, 35.663518], [-97.194149, 35.663518], [-97.194149, 35.663405], [-97.194055, 35.663405], [-97.194055, 35.663518]]]}, "properties": {"osm_id": 1148083725, "building": "yes", "name": "DJ's BBQ", "height": null, "height_m": null, "levels": null, "tract_id": "40109109202", "tract_name": "1092.02", "tags": {"amenity": "fast_food", "building": "yes", "name": "DJ's BBQ", "source": "microsoft/BuildingFootprints"}}}, {"type": "Feature", "geometry": {"type": "Polygon", "coordinates": [[[-97.193564, 35.663812], [-97.193663, 35.663812], [-97.193663, 35.663671], [-97.193564, 35.663671], [-97.193564, 35.663812]]]}, "properties": {"osm_id": 1148083726, "building": "yes", "name": "", "height": null, "height_m": null, "levels": null, "tract_id": "40109109202", "tract_name": "1092.02", "tags": {"building": "yes", "source": "microsoft/BuildingFootprints"}}}, {"type": "Feature", "geometry": {"type": "Polygon", "coordinates": [[[-97.192898, 35.664004], [-97.192908, 35.664083], [-97.193163, 35.664061], [-97.193152, 35.663982], [-97.192898, 35.664004]]]}, "properties": {"osm_id": 1148083727, "building": "yes", "name": "", "height": null, "height_m": null, "levels": null, "tract_id": "40109109202", "tract_name": "1092.02", "tags": {"building": "yes", "source": "microsoft/BuildingFootprints"}}}, {"type": "Feature", "geometry": {"type": "Polygon", "coordinates": [[[-97.192946, 35.664476], [-97.192861, 35.664407], [-97.192671, 35.664562], [-97.192755, 35.66463], [-97.192946, 35.664476]]]}, "properties": {"osm_id": 1148083728, "building": "yes", "name": "", "height": null, "height_m": null, "levels": null, "tract_id": "40109109202", "tract_name": "1092.02", "tags": {"building": "yes", "source": "microsoft/BuildingFootprints"}}}, {"type": "Feature", "geometry": {"type": "Polygon", "coordinates": [[[-97.194466, 35.66412], [-97.194292, 35.664117], [-97.194291, 35.664172], [-97.194242, 35.664172], [-97.19424, 35.664248], [-97.194344, 35.66425], [-97.19434, 35.664419], [-97.194459, 35.664421], [-97.194466, 35.66412]]]}, "properties": {"osm_id": 1148083729, "building": "yes", "name": "", "height": null, "height_m": null, "levels": null, "tract_id": "40109109202", "tract_name": "1092.02", "tags": {"building": "yes", "source": "microsoft/BuildingFootprints"}}}, {"type": "Feature", "geometry": {"type": "Polygon", "coordinates": [[[-97.194018, 35.664586], [-97.193852, 35.664454], [-97.193766, 35.664525], [-97.193932, 35.664657], [-97.194018, 35.664586]]]}, "properties": {"osm_id": 1148084792, "building": "yes", "name": "", "height": null, "height_m": null, "levels": null, "tract_id": "40109109202", "tract_name": "1092.02", "tags": {"building": "yes", "source": "microsoft/BuildingFootprints"}}}, {"type": "Feature", "geometry": {"type": "Polygon", "coordinates": [[[-97.194059, 35.664582], [-97.194058, 35.664625], [-97.194004, 35.664624], [-97.194003, 35.664679], [-97.194056, 35.66468], [-97.194055, 35.664723], [-97.194428, 35.664729], [-97.194431, 35.664588], [-97.194059, 35.664582]]]}, "properties": {"osm_id": 1148084793, "building": "yes", "name": "", "height": null, "height_m": null, "levels": null, "tract_id": "40109109202", "tract_name": "1092.02", "tags": {"building": "yes", "source": "microsoft/BuildingFootprints"}}}, {"type": "Feature", "geometry": {"type": "Polygon", "coordinates": [[[-97.192563, 35.663984], [-97.192563, 35.664041], [-97.192467, 35.664041], [-97.192467, 35.664115], [-97.192644, 35.664115], [-97.192644, 35.663984], [-97.192563, 35.663984]]]}, "properties": {"osm_id": 1148084794, "building": "yes", "name": "", "height": null, "height_m": null, "levels": null, "tract_id": "40109109202", "tract_name": "1092.02", "tags": {"building": "yes", "source": "microsoft/BuildingFootprints"}}}, {"type": "Feature", "geometry": {"type": "Polygon", "coordinates": [[[-97.19237, 35.663956], [-97.192274, 35.663956], [-97.192274, 35.664093], [-97.19237, 35.664093], [-97.19237, 35.663956]]]}, "properties": {"osm_id": 1148084795, "building": "yes", "name": "", "height": null, "height_m": null, "levels": null, "tract_id": "40109109202", "tract_name": "1092.02", "tags": {"building": "yes", "source": "microsoft/BuildingFootprints"}}}, {"type": "Feature", "geometry": {"type": "Polygon", "coordinates": [[[-97.191735, 35.664058], [-97.191735, 35.664154], [-97.191869, 35.664154], [-97.191869, 35.664058], [-97.191735, 35.664058]]]}, "properties": {"osm_id": 1148084796, "building": "yes", "name": "", "height": null, "height_m": null, "levels": null, "tract_id": "40109109202", "tract_name": "1092.02", "tags": {"building": "yes", "source": "microsoft/BuildingFootprints"}}}, {"type": "Feature", "geometry": {"type": "Polygon", "coordinates": [[[-97.1886395, 35.6661204], [-97.1886437, 35.6662353], [-97.1886721, 35.6662346], [-97.1886772, 35.6663762], [-97.1886473, 35.6663769], [-97.1886521, 35.6665112], [-97.1885622, 35.6665134], [-97.1885613, 35.6664865], [-97.1884436, 35.6664893], [-97.1884416, 35.6664347], [-97.1883117, 35.6664378], [-97.1883087, 35.6663559], [-97.188433, 35.6663529], [-97.1884247, 35.6661256], [-97.1886395, 35.6661204]]]}, "properties": {"osm_id": 1148084797, "building": "yes", "name": "", "height": null, "height_m": null, "levels": null, "tract_id": "40109109202", "tract_name": "1092.02", "tags": {"building": "yes"}}}, {"type": "Feature", "geometry": {"type": "Polygon", "coordinates": [[[-97.187186, 35.666508], [-97.187186, 35.666547], [-97.187336, 35.666547], [-97.187336, 35.666508], [-97.187186, 35.666508]]]}, "properties": {"osm_id": 1148084798, "building": "yes", "name": "", "height": null, "height_m": null, "levels": null, "tract_id": "40109109202", "tract_name": "1092.02", "tags": {"building": "yes", "source": "microsoft/BuildingFootprints"}}}, {"type": "Feature", "geometry": {"type": "Polygon", "coordinates": [[[-97.184729, 35.667161], [-97.184906, 35.667161], [-97.184906, 35.667071], [-97.184729, 35.667071], [-97.184729, 35.667161]]]}, "properties": {"osm_id": 1148084799, "building": "yes", "name": "", "height": null, "height_m": null, "levels": null, "tract_id": "40109109202", "tract_name": "1092.02", "tags": {"building": "yes", "source": "microsoft/BuildingFootprints"}}}, {"type": "Feature", "geometry": {"type": "Polygon", "coordinates": [[[-97.184424, 35.667505], [-97.184566, 35.667505], [-97.184567, 35.667283], [-97.184424, 35.667283], [-97.184424, 35.667505]]]}, "properties": {"osm_id": 1148084800, "building": "yes", "name": "", "height": null, "height_m": null, "levels": null, "tract_id": "40109109202", "tract_name": "1092.02", "tags": {"building": "yes", "source": "microsoft/BuildingFootprints"}}}, {"type": "Feature", "geometry": {"type": "Polygon", "coordinates": [[[-97.183949, 35.667457], [-97.18417, 35.667459], [-97.184171, 35.667346], [-97.18395, 35.667344], [-97.183949, 35.667457]]]}, "properties": {"osm_id": 1148084801, "building": "yes", "name": "", "height": null, "height_m": null, "levels": null, "tract_id": "40109109202", "tract_name": "1092.02", "tags": {"building": "yes", "source": "microsoft/BuildingFootprints"}}}, {"type": "Feature", "geometry": {"type": "Polygon", "coordinates": [[[-97.183977, 35.666939], [-97.183975, 35.667065], [-97.184156, 35.667067], [-97.184154, 35.667185], [-97.184276, 35.667186], [-97.184278, 35.667047], [-97.184114, 35.667045], [-97.184116, 35.66694], [-97.183977, 35.666939]]]}, "properties": {"osm_id": 1148084802, "building": "yes", "name": "", "height": null, "height_m": null, "levels": null, "tract_id": "40109109202", "tract_name": "1092.02", "tags": {"building": "yes", "source": "microsoft/BuildingFootprints"}}}, {"type": "Feature", "geometry": {"type": "Polygon", "coordinates": [[[-97.183664, 35.667671], [-97.183803, 35.667671], [-97.183803, 35.667532], [-97.183664, 35.667532], [-97.183664, 35.667671]]]}, "properties": {"osm_id": 1148084803, "building": "yes", "name": "", "height": null, "height_m": null, "levels": null, "tract_id": "40109109202", "tract_name": "1092.02", "tags": {"building": "yes", "source": "microsoft/BuildingFootprints"}}}, {"type": "Feature", "geometry": {"type": "Polygon", "coordinates": [[[-97.182097, 35.667223], [-97.182097, 35.667294], [-97.182164, 35.667294], [-97.182164, 35.667223], [-97.182097, 35.667223]]]}, "properties": {"osm_id": 1148084804, "building": "yes", "name": "", "height": null, "height_m": null, "levels": null, "tract_id": "40109109202", "tract_name": "1092.02", "tags": {"building": "yes", "source": "microsoft/BuildingFootprints"}}}, {"type": "Feature", "geometry": {"type": "Polygon", "coordinates": [[[-97.183428, 35.665989], [-97.183428, 35.6661], [-97.183554, 35.666101], [-97.183554, 35.665989], [-97.183428, 35.665989]]]}, "properties": {"osm_id": 1148084805, "building": "yes", "name": "", "height": null, "height_m": null, "levels": null, "tract_id": "40109109202", "tract_name": "1092.02", "tags": {"building": "yes", "source": "microsoft/BuildingFootprints"}}}, {"type": "Feature", "geometry": {"type": "Polygon", "coordinates": [[[-97.184007, 35.666255], [-97.184007, 35.666041], [-97.183913, 35.666041], [-97.183913, 35.666255], [-97.184007, 35.666255]]]}, "properties": {"osm_id": 1148084806, "building": "yes", "name": "", "height": null, "height_m": null, "levels": null, "tract_id": "40109109202", "tract_name": "1092.02", "tags": {"building": "yes", "source": "microsoft/BuildingFootprints"}}}, {"type": "Feature", "geometry": {"type": "Polygon", "coordinates": [[[-97.182471, 35.665632], [-97.182715, 35.665726], [-97.182766, 35.665639], [-97.182764, 35.665638], [-97.182792, 35.665589], [-97.18255, 35.665495], [-97.182471, 35.665632]]]}, "properties": {"osm_id": 1148084807, "building": "yes", "name": "", "height": null, "height_m": null, "levels": null, "tract_id": "40109109202", "tract_name": "1092.02", "tags": {"building": "yes", "source": "microsoft/BuildingFootprints"}}}, {"type": "Feature", "geometry": {"type": "Polygon", "coordinates": [[[-97.187774, 35.660482], [-97.187663, 35.660378], [-97.187512, 35.660483], [-97.187623, 35.660588], [-97.187774, 35.660482]]]}, "properties": {"osm_id": 1148084808, "building": "yes", "name": "", "height": null, "height_m": null, "levels": null, "tract_id": "40109109202", "tract_name": "1092.02", "tags": {"building": "yes", "source": "microsoft/BuildingFootprints"}}}, {"type": "Feature", "geometry": {"type": "Polygon", "coordinates": [[[-97.19008, 35.661644], [-97.190211, 35.661644], [-97.190211, 35.661589], [-97.19008, 35.661589], [-97.19008, 35.661644]]]}, "properties": {"osm_id": 1148084809, "building": "yes", "name": "", "height": null, "height_m": null, "levels": null, "tract_id": "40109109202", "tract_name": "1092.02", "tags": {"building": "yes", "source": "microsoft/BuildingFootprints"}}}, {"type": "Feature", "geometry": {"type": "Polygon", "coordinates": [[[-97.190412, 35.661461], [-97.190597, 35.661461], [-97.190597, 35.661378], [-97.190412, 35.661378], [-97.190412, 35.661461]]]}, "properties": {"osm_id": 1148084810, "building": "yes", "name": "", "height": null, "height_m": null, "levels": null, "tract_id": "40109109202", "tract_name": "1092.02", "tags": {"building": "yes", "source": "microsoft/BuildingFootprints"}}}, {"type": "Feature", "geometry": {"type": "Polygon", "coordinates": [[[-97.190396, 35.661877], [-97.190396, 35.661988], [-97.190501, 35.661988], [-97.190501, 35.66203], [-97.1906, 35.66203], [-97.1906, 35.661877], [-97.190396, 35.661877]]]}, "properties": {"osm_id": 1148084811, "building": "yes", "name": "", "height": null, "height_m": null, "levels": null, "tract_id": "40109109202", "tract_name": "1092.02", "tags": {"building": "yes", "source": "microsoft/BuildingFootprints"}}}, {"type": "Feature", "geometry": {"type": "Polygon", "coordinates": [[[-97.191235, 35.661729], [-97.191052, 35.661728], [-97.191051, 35.661901], [-97.191193, 35.661902], [-97.191193, 35.661866], [-97.191233, 35.661866], [-97.191235, 35.661729]]]}, "properties": {"osm_id": 1148084812, "building": "yes", "name": "", "height": null, "height_m": null, "levels": null, "tract_id": "40109109202", "tract_name": "1092.02", "tags": {"building": "yes", "source": "microsoft/BuildingFootprints"}}}, {"type": "Feature", "geometry": {"type": "Polygon", "coordinates": [[[-97.191102, 35.661511], [-97.191063, 35.66151], [-97.191061, 35.661589], [-97.191215, 35.661592], [-97.191218, 35.66148], [-97.191245, 35.66148], [-97.191248, 35.661349], [-97.191106, 35.661347], [-97.191102, 35.661511]]]}, "properties": {"osm_id": 1148084813, "building": "yes", "name": "", "height": null, "height_m": null, "levels": null, "tract_id": "40109109202", "tract_name": "1092.02", "tags": {"building": "yes", "source": "microsoft/BuildingFootprints"}}}, {"type": "Feature", "geometry": {"type": "Polygon", "coordinates": [[[-97.191724, 35.661387], [-97.19155, 35.661387], [-97.19155, 35.661635], [-97.191724, 35.661635], [-97.191724, 35.661387]]]}, "properties": {"osm_id": 1148084814, "building": "yes", "name": "", "height": null, "height_m": null, "levels": null, "tract_id": "40109109202", "tract_name": "1092.02", "tags": {"building": "yes", "source": "microsoft/BuildingFootprints"}}}, {"type": "Feature", "geometry": {"type": "Polygon", "coordinates": [[[-97.191527, 35.66205], [-97.191666, 35.66205], [-97.191669, 35.661774], [-97.191529, 35.661773], [-97.191527, 35.66205]]]}, "properties": {"osm_id": 1148084815, "building": "yes", "name": "", "height": null, "height_m": null, "levels": null, "tract_id": "40109109202", "tract_name": "1092.02", "tags": {"building": "yes", "source": "microsoft/BuildingFootprints"}}}, {"type": "Feature", "geometry": {"type": "Polygon", "coordinates": [[[-97.191695, 35.66177], [-97.191688, 35.662019], [-97.191972, 35.662024], [-97.191977, 35.661844], [-97.191862, 35.661842], [-97.191864, 35.661774], [-97.191695, 35.66177]]]}, "properties": {"osm_id": 1148084816, "building": "yes", "name": "", "height": null, "height_m": null, "levels": null, "tract_id": "40109109202", "tract_name": "1092.02", "tags": {"building": "yes", "source": "microsoft/BuildingFootprints"}}}, {"type": "Feature", "geometry": {"type": "Polygon", "coordinates": [[[-97.190375, 35.66231], [-97.190392, 35.662363], [-97.190329, 35.662376], [-97.190348, 35.662435], [-97.190418, 35.662421], [-97.19044, 35.662488], [-97.190543, 35.662466], [-97.190485, 35.662287], [-97.190375, 35.66231]]]}, "properties": {"osm_id": 1148084817, "building": "yes", "name": "", "height": null, "height_m": null, "levels": null, "tract_id": "40109109202", "tract_name": "1092.02", "tags": {"building": "yes", "source": "microsoft/BuildingFootprints"}}}, {"type": "Feature", "geometry": {"type": "Polygon", "coordinates": [[[-97.189913, 35.662415], [-97.190109, 35.662415], [-97.190109, 35.662333], [-97.189913, 35.662333], [-97.189913, 35.662415]]]}, "properties": {"osm_id": 1148084818, "building": "yes", "name": "", "height": null, "height_m": null, "levels": null, "tract_id": "40109109202", "tract_name": "1092.02", "tags": {"building": "yes", "source": "microsoft/BuildingFootprints"}}}, {"type": "Feature", "geometry": {"type": "Polygon", "coordinates": [[[-97.189675, 35.662446], [-97.189742, 35.662446], [-97.189742, 35.662376], [-97.18972, 35.662376], [-97.18972, 35.662322], [-97.189602, 35.662322], [-97.189602, 35.662415], [-97.189675, 35.662415], [-97.189675, 35.662446]]]}, "properties": {"osm_id": 1148084819, "building": "yes", "name": "", "height": null, "height_m": null, "levels": null, "tract_id": "40109109202", "tract_name": "1092.02", "tags": {"building": "yes", "source": "microsoft/BuildingFootprints"}}}, {"type": "Feature", "geometry": {"type": "Polygon", "coordinates": [[[-97.189305, 35.662328], [-97.189305, 35.66242], [-97.189457, 35.66242], [-97.189457, 35.662328], [-97.189305, 35.662328]]]}, "properties": {"osm_id": 1148084820, "building": "yes", "name": "", "height": null, "height_m": null, "levels": null, "tract_id": "40109109202", "tract_name": "1092.02", "tags": {"building": "yes", "source": "microsoft/BuildingFootprints"}}}, {"type": "Feature", "geometry": {"type": "Polygon", "coordinates": [[[-97.189154, 35.662309], [-97.188961, 35.662309], [-97.188961, 35.662398], [-97.189154, 35.662398], [-97.189154, 35.662309]]]}, "properties": {"osm_id": 1148084821, "building": "yes", "name": "", "height": null, "height_m": null, "levels": null, "tract_id": "40109109202", "tract_name": "1092.02", "tags": {"building": "yes", "source": "microsoft/BuildingFootprints"}}}, {"type": "Feature", "geometry": {"type": "Polygon", "coordinates": [[[-97.188663, 35.662542], [-97.188811, 35.662572], [-97.188866, 35.662391], [-97.188744, 35.662366], [-97.188721, 35.662444], [-97.188694, 35.662438], [-97.188663, 35.662542]]]}, "properties": {"osm_id": 1148084822, "building": "yes", "name": "", "height": null, "height_m": null, "levels": null, "tract_id": "40109109202", "tract_name": "1092.02", "tags": {"building": "yes", "source": "microsoft/BuildingFootprints"}}}, {"type": "Feature", "geometry": {"type": "Polygon", "coordinates": [[[-97.187974, 35.662875], [-97.188151, 35.662857], [-97.188124, 35.662679], [-97.187992, 35.662692], [-97.188003, 35.662765], [-97.187958, 35.66277], [-97.187974, 35.662875]]]}, "properties": {"osm_id": 1148084823, "building": "yes", "name": "", "height": null, "height_m": null, "levels": null, "tract_id": "40109109202", "tract_name": "1092.02", "tags": {"building": "yes", "source": "microsoft/BuildingFootprints"}}}, {"type": "Feature", "geometry": {"type": "Polygon", "coordinates": [[[-97.192445, 35.661437], [-97.192445, 35.661295], [-97.192314, 35.661295], [-97.192314, 35.661437], [-97.192445, 35.661437]]]}, "properties": {"osm_id": 1148084824, "building": "yes", "name": "", "height": null, "height_m": null, "levels": null, "tract_id": "40109109202", "tract_name": "1092.02", "tags": {"building": "yes", "source": "microsoft/BuildingFootprints"}}}, {"type": "Feature", "geometry": {"type": "Polygon", "coordinates": [[[-97.192937, 35.662057], [-97.192938, 35.661973], [-97.193006, 35.661973], [-97.193007, 35.661914], [-97.192831, 35.661912], [-97.19283, 35.662056], [-97.192937, 35.662057]]]}, "properties": {"osm_id": 1148084825, "building": "yes", "name": "", "height": null, "height_m": null, "levels": null, "tract_id": "40109109202", "tract_name": "1092.02", "tags": {"building": "yes", "source": "microsoft/BuildingFootprints"}}}, {"type": "Feature", "geometry": {"type": "Polygon", "coordinates": [[[-97.192312, 35.662031], [-97.192382, 35.662032], [-97.192382, 35.662005], [-97.192519, 35.662006], [-97.192521, 35.66192], [-97.192314, 35.661918], [-97.192312, 35.662031]]]}, "properties": {"osm_id": 1148084826, "building": "yes", "name": "", "height": null, "height_m": null, "levels": null, "tract_id": "40109109202", "tract_name": "1092.02", "tags": {"building": "yes", "source": "microsoft/BuildingFootprints"}}}, {"type": "Feature", "geometry": {"type": "Polygon", "coordinates": [[[-97.193178, 35.661343], [-97.19307, 35.661343], [-97.19307, 35.661443], [-97.193178, 35.661443], [-97.193178, 35.661343]]]}, "properties": {"osm_id": 1148084827, "building": "yes", "name": "", "height": null, "height_m": null, "levels": null, "tract_id": "40109109202", "tract_name": "1092.02", "tags": {"building": "yes", "source": "microsoft/BuildingFootprints"}}}, {"type": "Feature", "geometry": {"type": "Polygon", "coordinates": [[[-97.193559, 35.661844], [-97.193709, 35.661844], [-97.193709, 35.661714], [-97.193628, 35.661714], [-97.193628, 35.661688], [-97.193559, 35.661688], [-97.193559, 35.661844]]]}, "properties": {"osm_id": 1148084828, "building": "yes", "name": "", "height": null, "height_m": null, "levels": null, "tract_id": "40109109202", "tract_name": "1092.02", "tags": {"building": "yes", "source": "microsoft/BuildingFootprints"}}}, {"type": "Feature", "geometry": {"type": "Polygon", "coordinates": [[[-97.193545, 35.661518], [-97.193717, 35.661518], [-97.193717, 35.661426], [-97.193663, 35.661426], [-97.193663, 35.661284], [-97.193545, 35.661284], [-97.193545, 35.661518]]]}, "properties": {"osm_id": 1148084829, "building": "yes", "name": "", "height": null, "height_m": null, "levels": null, "tract_id": "40109109202", "tract_name": "1092.02", "tags": {"building": "yes", "source": "microsoft/BuildingFootprints"}}}, {"type": "Feature", "geometry": {"type": "Polygon", "coordinates": [[[-97.193846, 35.66143], [-97.19399, 35.66143], [-97.19399, 35.661328], [-97.193846, 35.661328], [-97.193846, 35.66143]]]}, "properties": {"osm_id": 1148084830, "building": "yes", "name": "", "height": null, "height_m": null, "levels": null, "tract_id": "40109109202", "tract_name": "1092.02", "tags": {"building": "yes", "source": "microsoft/BuildingFootprints"}}}, {"type": "Feature", "geometry": {"type": "Polygon", "coordinates": [[[-97.194326, 35.661528], [-97.194326, 35.661603], [-97.194457, 35.661603], [-97.194457, 35.661528], [-97.194326, 35.661528]]]}, "properties": {"osm_id": 1148084831, "building": "yes", "name": "", "height": null, "height_m": null, "levels": null, "tract_id": "40109109202", "tract_name": "1092.02", "tags": {"building": "yes", "source": "microsoft/BuildingFootprints"}}}, {"type": "Feature", "geometry": {"type": "Polygon", "coordinates": [[[-97.1945414, 35.6619873], [-97.1941027, 35.6619826], [-97.1941006, 35.6621115], [-97.1945393, 35.6621161], [-97.1945414, 35.6619873]]]}, "properties": {"osm_id": 1148084832, "building": "yes", "name": "", "height": null, "height_m": null, "levels": null, "tract_id": "40109109202", "tract_name": "1092.02", "tags": {"building": "yes", "source": "microsoft/BuildingFootprints"}}}, {"type": "Feature", "geometry": {"type": "Polygon", "coordinates": [[[-97.194953, 35.661716], [-97.194795, 35.661716], [-97.194795, 35.661796], [-97.194953, 35.661796], [-97.194953, 35.661716]]]}, "properties": {"osm_id": 1148084833, "building": "yes", "name": "", "height": null, "height_m": null, "levels": null, "tract_id": "40109109202", "tract_name": "1092.02", "tags": {"building": "yes", "source": "microsoft/BuildingFootprints"}}}, {"type": "Feature", "geometry": {"type": "Polygon", "coordinates": [[[-97.1948, 35.661677], [-97.19494, 35.661677], [-97.19494, 35.661583], [-97.1948, 35.661583], [-97.1948, 35.661677]]]}, "properties": {"osm_id": 1148084834, "building": "yes", "name": "", "height": null, "height_m": null, "levels": null, "tract_id": "40109109202", "tract_name": "1092.02", "tags": {"building": "yes", "source": "microsoft/BuildingFootprints"}}}, {"type": "Feature", "geometry": {"type": "Polygon", "coordinates": [[[-97.19524, 35.661792], [-97.195155, 35.661791], [-97.195153, 35.66192], [-97.194996, 35.661918], [-97.194995, 35.662005], [-97.194963, 35.662005], [-97.194961, 35.662116], [-97.195234, 35.662119], [-97.19524, 35.661792]]]}, "properties": {"osm_id": 1148084835, "building": "yes", "name": "", "height": null, "height_m": null, "levels": null, "tract_id": "40109109202", "tract_name": "1092.02", "tags": {"building": "yes", "source": "microsoft/BuildingFootprints"}}}, {"type": "Feature", "geometry": {"type": "Polygon", "coordinates": [[[-97.195608, 35.662333], [-97.19546, 35.662333], [-97.19546, 35.662474], [-97.195608, 35.662474], [-97.195608, 35.662333]]]}, "properties": {"osm_id": 1148084836, "building": "yes", "name": "", "height": null, "height_m": null, "levels": null, "tract_id": "40109109202", "tract_name": "1092.02", "tags": {"building": "yes", "source": "microsoft/BuildingFootprints"}}}, {"type": "Feature", "geometry": {"type": "Polygon", "coordinates": [[[-97.195227, 35.662324], [-97.195061, 35.662324], [-97.195061, 35.662537], [-97.195227, 35.662537], [-97.195227, 35.662324]]]}, "properties": {"osm_id": 1148084837, "building": "retail", "name": "", "height": null, "height_m": 3.0, "levels": 1, "tract_id": "40109109202", "tract_name": "1092.02", "tags": {"addr:housenumber": "111", "addr:street": "East 1st Street", "building": "retail", "building:levels": "1", "roof:levels": "0", "roof:shape": "flat", "source": "microsoft/BuildingFootprints"}}}, {"type": "Feature", "geometry": {"type": "Polygon", "coordinates": [[[-97.1960494, 35.662059], [-97.1963377, 35.662057], [-97.1963371, 35.6619946], [-97.1963813, 35.6619943], [-97.1963791, 35.6617851], [-97.1960466, 35.6617874], [-97.1960494, 35.662059]]]}, "properties": {"osm_id": 1148084838, "building": "yes", "name": "", "height": null, "height_m": null, "levels": null, "tract_id": "40109109202", "tract_name": "1092.02", "tags": {"building": "yes", "source": "microsoft/BuildingFootprints"}}}, {"type": "Feature", "geometry": {"type": "Polygon", "coordinates": [[[-97.195792, 35.661435], [-97.195607, 35.66143], [-97.195602, 35.661572], [-97.195437, 35.661568], [-97.19543, 35.661769], [-97.195398, 35.661768], [-97.195396, 35.661844], [-97.195507, 35.661846], [-97.195504, 35.66191], [-97.195412, 35.661908], [-97.19541, 35.661977], [-97.195301, 35.661974], [-97.195296, 35.662106], [-97.195733, 35.662116], [-97.195735, 35.662057], [-97.195702, 35.662057], [-97.195704, 35.661987], [-97.195773, 35.661989], [-97.195792, 35.661435]]]}, "properties": {"osm_id": 1148084839, "building": "yes", "name": "", "height": null, "height_m": null, "levels": null, "tract_id": "40109109202", "tract_name": "1092.02", "tags": {"building": "yes", "source": "microsoft/BuildingFootprints"}}}, {"type": "Feature", "geometry": {"type": "Polygon", "coordinates": [[[-97.1960469, 35.6615784], [-97.1963446, 35.6615806], [-97.1963453, 35.661516], [-97.1964123, 35.6615165], [-97.1964132, 35.6614416], [-97.1960484, 35.661439], [-97.1960469, 35.6615784]]]}, "properties": {"osm_id": 1148084840, "building": "yes", "name": "", "height": null, "height_m": null, "levels": null, "tract_id": "40109109202", "tract_name": "1092.02", "tags": {"building": "yes", "source": "microsoft/BuildingFootprints"}}}, {"type": "Feature", "geometry": {"type": "Polygon", "coordinates": [[[-97.19579, 35.661293], [-97.195613, 35.661293], [-97.195613, 35.661387], [-97.19579, 35.661387], [-97.19579, 35.661293]]]}, "properties": {"osm_id": 1148084841, "building": "yes", "name": "", "height": null, "height_m": null, "levels": null, "tract_id": "40109109202", "tract_name": "1092.02", "tags": {"building": "yes", "source": "microsoft/BuildingFootprints"}}}, {"type": "Feature", "geometry": {"type": "Polygon", "coordinates": [[[-97.195007, 35.6613], [-97.194873, 35.6613], [-97.194873, 35.661522], [-97.195007, 35.661522], [-97.195007, 35.6613]]]}, "properties": {"osm_id": 1148084842, "building": "yes", "name": "", "height": null, "height_m": null, "levels": null, "tract_id": "40109109202", "tract_name": "1092.02", "tags": {"building": "yes", "source": "microsoft/BuildingFootprints"}}}, {"type": "Feature", "geometry": {"type": "Polygon", "coordinates": [[[-97.1960489, 35.6613759], [-97.1961481, 35.6613755], [-97.1961476, 35.6613], [-97.1960483, 35.6613005], [-97.1960489, 35.6613759]]]}, "properties": {"osm_id": 1148085164, "building": "yes", "name": "", "height": null, "height_m": null, "levels": null, "tract_id": "40109109202", "tract_name": "1092.02", "tags": {"building": "yes", "source": "microsoft/BuildingFootprints"}}}, {"type": "Feature", "geometry": {"type": "Polygon", "coordinates": [[[-97.196352, 35.6609449], [-97.1961643, 35.6609416], [-97.196163, 35.6609895], [-97.1961416, 35.6609892], [-97.1961404, 35.6610349], [-97.1963495, 35.6610385], [-97.196352, 35.6609449]]]}, "properties": {"osm_id": 1148085165, "building": "yes", "name": "", "height": null, "height_m": null, "levels": null, "tract_id": "40109109202", "tract_name": "1092.02", "tags": {"building": "yes", "source": "microsoft/BuildingFootprints"}}}, {"type": "Feature", "geometry": {"type": "Polygon", "coordinates": [[[-97.194892, 35.660992], [-97.195069, 35.660992], [-97.195069, 35.660896], [-97.194892, 35.660896], [-97.194892, 35.660992]]]}, "properties": {"osm_id": 1148085166, "building": "yes", "name": "", "height": null, "height_m": null, "levels": null, "tract_id": "40109109202", "tract_name": "1092.02", "tags": {"building": "yes", "source": "microsoft/BuildingFootprints"}}}, {"type": "Feature", "geometry": {"type": "Polygon", "coordinates": [[[-97.195082, 35.661317], [-97.195082, 35.661374], [-97.195219, 35.661374], [-97.195219, 35.661317], [-97.195082, 35.661317]]]}, "properties": {"osm_id": 1148085167, "building": "yes", "name": "", "height": null, "height_m": null, "levels": null, "tract_id": "40109109202", "tract_name": "1092.02", "tags": {"building": "yes", "source": "microsoft/BuildingFootprints"}}}, {"type": "Feature", "geometry": {"type": "Polygon", "coordinates": [[[-97.1969746, 35.6623961], [-97.1969683, 35.6625747], [-97.1970675, 35.662577], [-97.1970738, 35.6623984], [-97.1969746, 35.6623961]]]}, "properties": {"osm_id": 1148085168, "building": "yes", "name": "", "height": null, "height_m": null, "levels": null, "tract_id": "40109109202", "tract_name": "1092.02", "tags": {"building": "yes", "source": "microsoft/BuildingFootprints"}}}, {"type": "Feature", "geometry": {"type": "Polygon", "coordinates": [[[-97.1968384, 35.6624859], [-97.1968373, 35.6625142], [-97.1968989, 35.6625159], [-97.1969018, 35.6624462], [-97.1968723, 35.6624454], [-97.1968746, 35.6623902], [-97.1967634, 35.6623872], [-97.1967595, 35.6624838], [-97.1968384, 35.6624859]]]}, "properties": {"osm_id": 1148085169, "building": "yes", "name": "", "height": null, "height_m": null, "levels": null, "tract_id": "40109109202", "tract_name": "1092.02", "tags": {"building": "yes", "source": "microsoft/BuildingFootprints"}}}, {"type": "Feature", "geometry": {"type": "Polygon", "coordinates": [[[-97.195715, 35.660494], [-97.195578, 35.660495], [-97.19558, 35.6606], [-97.195716, 35.660599], [-97.195715, 35.660494]]]}, "properties": {"osm_id": 1148085170, "building": "yes", "name": "", "height": null, "height_m": null, "levels": null, "tract_id": "40109109202", "tract_name": "1092.02", "tags": {"building": "yes", "source": "microsoft/BuildingFootprints"}}}, {"type": "Feature", "geometry": {"type": "Polygon", "coordinates": [[[-97.196828, 35.6603218], [-97.1968267, 35.6603676], [-97.1970546, 35.6603719], [-97.1970559, 35.6603262], [-97.196828, 35.6603218]]]}, "properties": {"osm_id": 1148085171, "building": "yes", "name": "", "height": null, "height_m": null, "levels": null, "tract_id": "40109109202", "tract_name": "1092.02", "tags": {"building": "yes", "source": "microsoft/BuildingFootprints"}}}, {"type": "Feature", "geometry": {"type": "Polygon", "coordinates": [[[-97.1969641, 35.6604928], [-97.1969656, 35.6604375], [-97.1969105, 35.6604365], [-97.1969048, 35.66065], [-97.1969652, 35.660651], [-97.1969695, 35.6604929], [-97.1969641, 35.6604928]]]}, "properties": {"osm_id": 1148085172, "building": "yes", "name": "", "height": null, "height_m": null, "levels": null, "tract_id": "40109109202", "tract_name": "1092.02", "tags": {"building": "yes", "source": "microsoft/BuildingFootprints"}}}, {"type": "Feature", "geometry": {"type": "Polygon", "coordinates": [[[-97.195648, 35.659639], [-97.195753, 35.659639], [-97.195753, 35.659482], [-97.195648, 35.659482], [-97.195648, 35.659639]]]}, "properties": {"osm_id": 1148085173, "building": "yes", "name": "", "height": null, "height_m": null, "levels": null, "tract_id": "40109109202", "tract_name": "1092.02", "tags": {"building": "yes", "source": "microsoft/BuildingFootprints"}}}, {"type": "Feature", "geometry": {"type": "Polygon", "coordinates": [[[-97.195808, 35.659074], [-97.195647, 35.659073], [-97.195647, 35.659036], [-97.195559, 35.659036], [-97.195558, 35.659071], [-97.195483, 35.65907], [-97.195483, 35.659164], [-97.195807, 35.659165], [-97.195808, 35.659074]]]}, "properties": {"osm_id": 1148085174, "building": "yes", "name": "", "height": null, "height_m": null, "levels": null, "tract_id": "40109109202", "tract_name": "1092.02", "tags": {"building": "yes", "source": "microsoft/BuildingFootprints"}}}, {"type": "Feature", "geometry": {"type": "Polygon", "coordinates": [[[-97.195597, 35.659279], [-97.195795, 35.659279], [-97.195795, 35.659218], [-97.195597, 35.659218], [-97.195597, 35.659279]]]}, "properties": {"osm_id": 1148085175, "building": "yes", "name": "", "height": null, "height_m": null, "levels": null, "tract_id": "40109109202", "tract_name": "1092.02", "tags": {"building": "yes", "source": "microsoft/BuildingFootprints"}}}, {"type": "Feature", "geometry": {"type": "Polygon", "coordinates": [[[-97.1961552, 35.6592235], [-97.1963133, 35.659227], [-97.1963158, 35.6591507], [-97.1961577, 35.6591473], [-97.1961552, 35.6592235]]]}, "properties": {"osm_id": 1148085176, "building": "yes", "name": "", "height": null, "height_m": null, "levels": null, "tract_id": "40109109202", "tract_name": "1092.02", "tags": {"building": "yes", "source": "microsoft/BuildingFootprints"}}}, {"type": "Feature", "geometry": {"type": "Polygon", "coordinates": [[[-97.194961, 35.659506], [-97.19487, 35.659506], [-97.19487, 35.659611], [-97.194961, 35.659611], [-97.194961, 35.659506]]]}, "properties": {"osm_id": 1148085177, "building": "yes", "name": "", "height": null, "height_m": null, "levels": null, "tract_id": "40109109202", "tract_name": "1092.02", "tags": {"building": "yes", "source": "microsoft/BuildingFootprints"}}}, {"type": "Feature", "geometry": {"type": "Polygon", "coordinates": [[[-97.194257, 35.659686], [-97.194257, 35.659791], [-97.194465, 35.659791], [-97.194464, 35.659686], [-97.194257, 35.659686]]]}, "properties": {"osm_id": 1148085178, "building": "yes", "name": "", "height": null, "height_m": null, "levels": null, "tract_id": "40109109202", "tract_name": "1092.02", "tags": {"building": "yes", "source": "microsoft/BuildingFootprints"}}}, {"type": "Feature", "geometry": {"type": "Polygon", "coordinates": [[[-97.194124, 35.659785], [-97.194224, 35.659785], [-97.194224, 35.659641], [-97.194124, 35.659641], [-97.194124, 35.659785]]]}, "properties": {"osm_id": 1148085179, "building": "yes", "name": "", "height": null, "height_m": null, "levels": null, "tract_id": "40109109202", "tract_name": "1092.02", "tags": {"building": "yes", "source": "microsoft/BuildingFootprints"}}}, {"type": "Feature", "geometry": {"type": "Polygon", "coordinates": [[[-97.194111, 35.660025], [-97.1942, 35.660025], [-97.1942, 35.659906], [-97.194111, 35.659906], [-97.194111, 35.660025]]]}, "properties": {"osm_id": 1148085180, "building": "yes", "name": "", "height": null, "height_m": null, "levels": null, "tract_id": "40109109202", "tract_name": "1092.02", "tags": {"building": "yes", "source": "microsoft/BuildingFootprints"}}}, {"type": "Feature", "geometry": {"type": "Polygon", "coordinates": [[[-97.194149, 35.659306], [-97.194425, 35.659306], [-97.194425, 35.659188], [-97.194149, 35.659188], [-97.194149, 35.659306]]]}, "properties": {"osm_id": 1148085181, "building": "yes", "name": "", "height": null, "height_m": null, "levels": null, "tract_id": "40109109202", "tract_name": "1092.02", "tags": {"building": "yes", "source": "microsoft/BuildingFootprints"}}}, {"type": "Feature", "geometry": {"type": "Polygon", "coordinates": [[[-97.194886, 35.659258], [-97.195036, 35.659258], [-97.195036, 35.659179], [-97.194886, 35.659179], [-97.194886, 35.659258]]]}, "properties": {"osm_id": 1148085182, "building": "yes", "name": "", "height": null, "height_m": null, "levels": null, "tract_id": "40109109202", "tract_name": "1092.02", "tags": {"building": "yes", "source": "microsoft/BuildingFootprints"}}}, {"type": "Feature", "geometry": {"type": "Polygon", "coordinates": [[[-97.194932, 35.659123], [-97.194932, 35.65909], [-97.194983, 35.65909], [-97.194983, 35.659051], [-97.194822, 35.659051], [-97.194822, 35.659123], [-97.194932, 35.659123]]]}, "properties": {"osm_id": 1148085183, "building": "yes", "name": "", "height": null, "height_m": null, "levels": null, "tract_id": "40109109202", "tract_name": "1092.02", "tags": {"building": "yes", "source": "microsoft/BuildingFootprints"}}}, {"type": "Feature", "geometry": {"type": "Polygon", "coordinates": [[[-97.194999, 35.659774], [-97.194867, 35.659774], [-97.194867, 35.659881], [-97.194999, 35.659881], [-97.194999, 35.659774]]]}, "properties": {"osm_id": 1148085184, "building": "yes", "name": "", "height": null, "height_m": null, "levels": null, "tract_id": "40109109202", "tract_name": "1092.02", "tags": {"building": "yes", "source": "microsoft/BuildingFootprints"}}}, {"type": "Feature", "geometry": {"type": "Polygon", "coordinates": [[[-97.194849, 35.659994], [-97.195023, 35.659994], [-97.195023, 35.659909], [-97.194849, 35.659909], [-97.194849, 35.659994]]]}, "properties": {"osm_id": 1148085185, "building": "yes", "name": "", "height": null, "height_m": null, "levels": null, "tract_id": "40109109202", "tract_name": "1092.02", "tags": {"building": "yes", "source": "microsoft/BuildingFootprints"}}}, {"type": "Feature", "geometry": {"type": "Polygon", "coordinates": [[[-97.194358, 35.659907], [-97.194358, 35.65999], [-97.194495, 35.65999], [-97.194495, 35.659907], [-97.194358, 35.659907]]]}, "properties": {"osm_id": 1148085186, "building": "yes", "name": "", "height": null, "height_m": null, "levels": null, "tract_id": "40109109202", "tract_name": "1092.02", "tags": {"building": "yes", "source": "microsoft/BuildingFootprints"}}}, {"type": "Feature", "geometry": {"type": "Polygon", "coordinates": [[[-97.193604, 35.659737], [-97.193604, 35.659848], [-97.193875, 35.659848], [-97.193875, 35.659737], [-97.193604, 35.659737]]]}, "properties": {"osm_id": 1148085187, "building": "yes", "name": "", "height": null, "height_m": null, "levels": null, "tract_id": "40109109202", "tract_name": "1092.02", "tags": {"building": "yes", "source": "microsoft/BuildingFootprints"}}}, {"type": "Feature", "geometry": {"type": "Polygon", "coordinates": [[[-97.193091, 35.659633], [-97.193252, 35.659631], [-97.193249, 35.659474], [-97.19314, 35.659476], [-97.193141, 35.659541], [-97.193089, 35.659542], [-97.193091, 35.659633]]]}, "properties": {"osm_id": 1148085188, "building": "yes", "name": "", "height": null, "height_m": null, "levels": null, "tract_id": "40109109202", "tract_name": "1092.02", "tags": {"building": "yes", "source": "microsoft/BuildingFootprints"}}}, {"type": "Feature", "geometry": {"type": "Polygon", "coordinates": [[[-97.193116, 35.659861], [-97.193116, 35.659944], [-97.193247, 35.659944], [-97.193247, 35.659822], [-97.193164, 35.659822], [-97.193164, 35.659861], [-97.193116, 35.659861]]]}, "properties": {"osm_id": 1148085189, "building": "yes", "name": "", "height": null, "height_m": null, "levels": null, "tract_id": "40109109202", "tract_name": "1092.02", "tags": {"building": "yes", "source": "microsoft/BuildingFootprints"}}}, {"type": "Feature", "geometry": {"type": "Polygon", "coordinates": [[[-97.192376, 35.659502], [-97.192376, 35.65963], [-97.192475, 35.65963], [-97.192475, 35.659502], [-97.192376, 35.659502]]]}, "properties": {"osm_id": 1148085190, "building": "yes", "name": "", "height": null, "height_m": null, "levels": null, "tract_id": "40109109202", "tract_name": "1092.02", "tags": {"building": "yes", "source": "microsoft/BuildingFootprints"}}}, {"type": "Feature", "geometry": {"type": "Polygon", "coordinates": [[[-97.192461, 35.659853], [-97.192378, 35.659853], [-97.192378, 35.65982], [-97.192325, 35.65982], [-97.192325, 35.659957], [-97.192461, 35.659957], [-97.192461, 35.659853]]]}, "properties": {"osm_id": 1148085191, "building": "yes", "name": "", "height": null, "height_m": null, "levels": null, "tract_id": "40109109202", "tract_name": "1092.02", "tags": {"building": "yes", "source": "microsoft/BuildingFootprints"}}}, {"type": "Feature", "geometry": {"type": "Polygon", "coordinates": [[[-97.19236, 35.659227], [-97.192531, 35.659227], [-97.192531, 35.659133], [-97.19236, 35.659133], [-97.19236, 35.659227]]]}, "properties": {"osm_id": 1148085192, "building": "yes", "name": "", "height": null, "height_m": null, "levels": null, "tract_id": "40109109202", "tract_name": "1092.02", "tags": {"building": "yes", "source": "microsoft/BuildingFootprints"}}}, {"type": "Feature", "geometry": {"type": "Polygon", "coordinates": [[[-97.19189, 35.658968], [-97.19189, 35.65907], [-97.192024, 35.65907], [-97.192024, 35.658968], [-97.19189, 35.658968]]]}, "properties": {"osm_id": 1148085193, "building": "yes", "name": "", "height": null, "height_m": null, "levels": null, "tract_id": "40109109202", "tract_name": "1092.02", "tags": {"building": "yes", "source": "microsoft/BuildingFootprints"}}}, {"type": "Feature", "geometry": {"type": "Polygon", "coordinates": [[[-97.191698, 35.65946], [-97.191697, 35.659567], [-97.191799, 35.659568], [-97.191799, 35.659537], [-97.19203, 35.659538], [-97.19203, 35.659462], [-97.191698, 35.65946]]]}, "properties": {"osm_id": 1148085194, "building": "yes", "name": "", "height": null, "height_m": null, "levels": null, "tract_id": "40109109202", "tract_name": "1092.02", "tags": {"building": "yes", "source": "microsoft/BuildingFootprints"}}}, {"type": "Feature", "geometry": {"type": "Polygon", "coordinates": [[[-97.19174, 35.659917], [-97.192017, 35.659926], [-97.192022, 35.65981], [-97.191745, 35.659802], [-97.19174, 35.659917]]]}, "properties": {"osm_id": 1148085195, "building": "yes", "name": "", "height": null, "height_m": null, "levels": null, "tract_id": "40109109202", "tract_name": "1092.02", "tags": {"building": "yes", "source": "microsoft/BuildingFootprints"}}}, {"type": "Feature", "geometry": {"type": "Polygon", "coordinates": [[[-97.192963, 35.659014], [-97.192963, 35.659116], [-97.193065, 35.659116], [-97.193065, 35.659014], [-97.192963, 35.659014]]]}, "properties": {"osm_id": 1148085196, "building": "yes", "name": "", "height": null, "height_m": null, "levels": null, "tract_id": "40109109202", "tract_name": "1092.02", "tags": {"building": "yes", "source": "microsoft/BuildingFootprints"}}}, {"type": "Feature", "geometry": {"type": "Polygon", "coordinates": [[[-97.193065, 35.6589], [-97.193065, 35.658977], [-97.193239, 35.658977], [-97.193239, 35.6589], [-97.193065, 35.6589]]]}, "properties": {"osm_id": 1148085197, "building": "yes", "name": "", "height": null, "height_m": null, "levels": null, "tract_id": "40109109202", "tract_name": "1092.02", "tags": {"building": "yes", "source": "microsoft/BuildingFootprints"}}}, {"type": "Feature", "geometry": {"type": "Polygon", "coordinates": [[[-97.193119, 35.658674], [-97.193119, 35.658807], [-97.193247, 35.658807], [-97.193247, 35.658628], [-97.193156, 35.658628], [-97.193156, 35.658674], [-97.193119, 35.658674]]]}, "properties": {"osm_id": 1148085198, "building": "yes", "name": "", "height": null, "height_m": null, "levels": null, "tract_id": "40109109202", "tract_name": "1092.02", "tags": {"building": "yes", "source": "microsoft/BuildingFootprints"}}}, {"type": "Feature", "geometry": {"type": "Polygon", "coordinates": [[[-97.193722, 35.658708], [-97.193722, 35.658523], [-97.193623, 35.658523], [-97.193623, 35.65865], [-97.193575, 35.65865], [-97.193575, 35.658708], [-97.193722, 35.658708]]]}, "properties": {"osm_id": 1148085199, "building": "yes", "name": "", "height": null, "height_m": null, "levels": null, "tract_id": "40109109202", "tract_name": "1092.02", "tags": {"building": "yes", "source": "microsoft/BuildingFootprints"}}}, {"type": "Feature", "geometry": {"type": "Polygon", "coordinates": [[[-97.192387, 35.658638], [-97.192537, 35.658636], [-97.192536, 35.658569], [-97.192557, 35.658568], [-97.192556, 35.658531], [-97.192516, 35.658532], [-97.192515, 35.658486], [-97.192385, 35.658488], [-97.192387, 35.658638]]]}, "properties": {"osm_id": 1148085200, "building": "yes", "name": "", "height": null, "height_m": null, "levels": null, "tract_id": "40109109202", "tract_name": "1092.02", "tags": {"building": "yes", "source": "microsoft/BuildingFootprints"}}}, {"type": "Feature", "geometry": {"type": "Polygon", "coordinates": [[[-97.19252, 35.658883], [-97.19252, 35.65878], [-97.1924, 35.65878], [-97.1924, 35.658883], [-97.19252, 35.658883]]]}, "properties": {"osm_id": 1148085201, "building": "yes", "name": "", "height": null, "height_m": null, "levels": null, "tract_id": "40109109202", "tract_name": "1092.02", "tags": {"building": "yes", "source": "microsoft/BuildingFootprints"}}}, {"type": "Feature", "geometry": {"type": "Polygon", "coordinates": [[[-97.193204, 35.658194], [-97.193108, 35.658194], [-97.193108, 35.65826], [-97.193204, 35.65826], [-97.193204, 35.658194]]]}, "properties": {"osm_id": 1148085202, "building": "yes", "name": "", "height": null, "height_m": null, "levels": null, "tract_id": "40109109202", "tract_name": "1092.02", "tags": {"building": "yes", "source": "microsoft/BuildingFootprints"}}}, {"type": "Feature", "geometry": {"type": "Polygon", "coordinates": [[[-97.194146, 35.65817], [-97.194339, 35.65817], [-97.194339, 35.657937], [-97.194192, 35.657937], [-97.194192, 35.657898], [-97.194146, 35.657898], [-97.194146, 35.65817]]]}, "properties": {"osm_id": 1148085203, "building": "yes", "name": "", "height": null, "height_m": null, "levels": null, "tract_id": "40109109202", "tract_name": "1092.02", "tags": {"building": "yes", "source": "microsoft/BuildingFootprints"}}}, {"type": "Feature", "geometry": {"type": "Polygon", "coordinates": [[[-97.193046, 35.65788], [-97.193234, 35.65788], [-97.193234, 35.657806], [-97.193164, 35.657806], [-97.193164, 35.657767], [-97.193092, 35.657767], [-97.193092, 35.657813], [-97.193046, 35.657813], [-97.193046, 35.65788]]]}, "properties": {"osm_id": 1148085204, "building": "yes", "name": "", "height": null, "height_m": null, "levels": null, "tract_id": "40109109202", "tract_name": "1092.02", "tags": {"building": "yes", "source": "microsoft/BuildingFootprints"}}}, {"type": "Feature", "geometry": {"type": "Polygon", "coordinates": [[[-97.195187, 35.65857], [-97.195188, 35.658482], [-97.194906, 35.658479], [-97.194904, 35.658568], [-97.195187, 35.65857]]]}, "properties": {"osm_id": 1148085205, "building": "yes", "name": "", "height": null, "height_m": null, "levels": null, "tract_id": "40109109202", "tract_name": "1092.02", "tags": {"building": "yes", "source": "microsoft/BuildingFootprints"}}}, {"type": "Feature", "geometry": {"type": "Polygon", "coordinates": [[[-97.195685, 35.658805], [-97.195684, 35.658864], [-97.195793, 35.658864], [-97.195794, 35.65876], [-97.195645, 35.658759], [-97.195645, 35.658805], [-97.195685, 35.658805]]]}, "properties": {"osm_id": 1148085206, "building": "yes", "name": "", "height": null, "height_m": null, "levels": null, "tract_id": "40109109202", "tract_name": "1092.02", "tags": {"building": "yes", "source": "microsoft/BuildingFootprints"}}}, {"type": "Feature", "geometry": {"type": "Polygon", "coordinates": [[[-97.1961297, 35.658936], [-97.1963575, 35.6589418], [-97.1963581, 35.6589266], [-97.1964278, 35.6589283], [-97.1964294, 35.6588848], [-97.196468, 35.6588858], [-97.196472, 35.6587842], [-97.1961359, 35.6587757], [-97.1961297, 35.658936]]]}, "properties": {"osm_id": 1148085207, "building": "yes", "name": "", "height": null, "height_m": null, "levels": null, "tract_id": "40109109202", "tract_name": "1092.02", "tags": {"building": "yes", "source": "microsoft/BuildingFootprints"}}}, {"type": "Feature", "geometry": {"type": "Polygon", "coordinates": [[[-97.1968826, 35.6587071], [-97.196881, 35.6588457], [-97.1968434, 35.6588454], [-97.196842, 35.6589574], [-97.1969799, 35.6589585], [-97.1969829, 35.6587079], [-97.1968826, 35.6587071]]]}, "properties": {"osm_id": 1148085208, "building": "yes", "name": "", "height": null, "height_m": null, "levels": null, "tract_id": "40109109202", "tract_name": "1092.02", "tags": {"building": "yes", "source": "microsoft/BuildingFootprints"}}}, {"type": "Feature", "geometry": {"type": "Polygon", "coordinates": [[[-97.194945, 35.659024], [-97.195034, 35.659024], [-97.195034, 35.658946], [-97.194983, 35.658946], [-97.194983, 35.658874], [-97.194867, 35.658874], [-97.194867, 35.658981], [-97.194945, 35.658981], [-97.194945, 35.659024]]]}, "properties": {"osm_id": 1148085209, "building": "yes", "name": "", "height": null, "height_m": null, "levels": null, "tract_id": "40109109202", "tract_name": "1092.02", "tags": {"building": "yes", "source": "microsoft/BuildingFootprints"}}}, {"type": "Feature", "geometry": {"type": "Polygon", "coordinates": [[[-97.194231, 35.657349], [-97.194331, 35.657348], [-97.194329, 35.657157], [-97.194226, 35.657157], [-97.194227, 35.657197], [-97.194171, 35.657197], [-97.194172, 35.657288], [-97.194231, 35.657288], [-97.194231, 35.657349]]]}, "properties": {"osm_id": 1148085492, "building": "yes", "name": "", "height": null, "height_m": null, "levels": null, "tract_id": "40109109202", "tract_name": "1092.02", "tags": {"building": "yes", "source": "microsoft/BuildingFootprints"}}}, {"type": "Feature", "geometry": {"type": "Polygon", "coordinates": [[[-97.193859, 35.657176], [-97.193859, 35.657087], [-97.19369, 35.657087], [-97.19369, 35.657176], [-97.193859, 35.657176]]]}, "properties": {"osm_id": 1148085493, "building": "yes", "name": "", "height": null, "height_m": null, "levels": null, "tract_id": "40109109202", "tract_name": "1092.02", "tags": {"building": "yes", "source": "microsoft/BuildingFootprints"}}}, {"type": "Feature", "geometry": {"type": "Polygon", "coordinates": [[[-97.193086, 35.656618], [-97.193086, 35.656588], [-97.193022, 35.656588], [-97.193022, 35.656693], [-97.193151, 35.656693], [-97.193151, 35.656727], [-97.193207, 35.656727], [-97.193207, 35.656618], [-97.193086, 35.656618]]]}, "properties": {"osm_id": 1148085494, "building": "yes", "name": "", "height": null, "height_m": null, "levels": null, "tract_id": "40109109202", "tract_name": "1092.02", "tags": {"building": "yes", "source": "microsoft/BuildingFootprints"}}}, {"type": "Feature", "geometry": {"type": "Polygon", "coordinates": [[[-97.192987, 35.656743], [-97.192915, 35.656743], [-97.192915, 35.656795], [-97.192907, 35.656795], [-97.192907, 35.656889], [-97.192987, 35.656889], [-97.192987, 35.656743]]]}, "properties": {"osm_id": 1148085495, "building": "yes", "name": "", "height": null, "height_m": null, "levels": null, "tract_id": "40109109202", "tract_name": "1092.02", "tags": {"building": "yes", "source": "microsoft/BuildingFootprints"}}}, {"type": "Feature", "geometry": {"type": "Polygon", "coordinates": [[[-97.192512, 35.656867], [-97.192512, 35.656684], [-97.192413, 35.656684], [-97.192413, 35.656867], [-97.192512, 35.656867]]]}, "properties": {"osm_id": 1148085496, "building": "yes", "name": "", "height": null, "height_m": null, "levels": null, "tract_id": "40109109202", "tract_name": "1092.02", "tags": {"building": "yes", "source": "microsoft/BuildingFootprints"}}}, {"type": "Feature", "geometry": {"type": "Polygon", "coordinates": [[[-97.192478, 35.657795], [-97.192343, 35.657795], [-97.192343, 35.657863], [-97.192478, 35.657863], [-97.192478, 35.657795]]]}, "properties": {"osm_id": 1148085497, "building": "yes", "name": "", "height": null, "height_m": null, "levels": null, "tract_id": "40109109202", "tract_name": "1092.02", "tags": {"building": "yes", "source": "microsoft/BuildingFootprints"}}}, {"type": "Feature", "geometry": {"type": "Polygon", "coordinates": [[[-97.191783, 35.657789], [-97.191938, 35.657789], [-97.191938, 35.657706], [-97.191783, 35.657706], [-97.191783, 35.657789]]]}, "properties": {"osm_id": 1148085498, "building": "yes", "name": "", "height": null, "height_m": null, "levels": null, "tract_id": "40109109202", "tract_name": "1092.02", "tags": {"building": "yes", "source": "microsoft/BuildingFootprints"}}}, {"type": "Feature", "geometry": {"type": "Polygon", "coordinates": [[[-97.191953, 35.657855], [-97.191846, 35.657854], [-97.191845, 35.657941], [-97.191815, 35.657941], [-97.191814, 35.658015], [-97.192015, 35.658017], [-97.192016, 35.657977], [-97.191951, 35.657977], [-97.191953, 35.657855]]]}, "properties": {"osm_id": 1148085499, "building": "yes", "name": "", "height": null, "height_m": null, "levels": null, "tract_id": "40109109202", "tract_name": "1092.02", "tags": {"building": "yes", "source": "microsoft/BuildingFootprints"}}}, {"type": "Feature", "geometry": {"type": "Polygon", "coordinates": [[[-97.191864, 35.657623], [-97.191864, 35.657651], [-97.191971, 35.657652], [-97.191971, 35.657597], [-97.192014, 35.657597], [-97.192014, 35.65753], [-97.191797, 35.657529], [-97.191797, 35.657623], [-97.191864, 35.657623]]]}, "properties": {"osm_id": 1148085500, "building": "yes", "name": "", "height": null, "height_m": null, "levels": null, "tract_id": "40109109202", "tract_name": "1092.02", "tags": {"building": "yes", "source": "microsoft/BuildingFootprints"}}}, {"type": "Feature", "geometry": {"type": "Polygon", "coordinates": [[[-97.191982, 35.657212], [-97.191826, 35.657208], [-97.191822, 35.657306], [-97.191981, 35.65731], [-97.191983, 35.657246], [-97.19205, 35.657248], [-97.192053, 35.657182], [-97.191983, 35.65718], [-97.191982, 35.657212]]]}, "properties": {"osm_id": 1148085501, "building": "yes", "name": "", "height": null, "height_m": null, "levels": null, "tract_id": "40109109202", "tract_name": "1092.02", "tags": {"building": "yes", "source": "microsoft/BuildingFootprints"}}}, {"type": "Feature", "geometry": {"type": "Polygon", "coordinates": [[[-97.191056, 35.657795], [-97.191198, 35.657795], [-97.191198, 35.657667], [-97.191056, 35.657667], [-97.191056, 35.657795]]]}, "properties": {"osm_id": 1148085502, "building": "yes", "name": "", "height": null, "height_m": null, "levels": null, "tract_id": "40109109202", "tract_name": "1092.02", "tags": {"building": "yes", "source": "microsoft/BuildingFootprints"}}}, {"type": "Feature", "geometry": {"type": "Polygon", "coordinates": [[[-97.191233, 35.657497], [-97.191061, 35.657497], [-97.191061, 35.657586], [-97.191233, 35.657586], [-97.191233, 35.657497]]]}, "properties": {"osm_id": 1148085503, "building": "yes", "name": "", "height": null, "height_m": null, "levels": null, "tract_id": "40109109202", "tract_name": "1092.02", "tags": {"building": "yes", "source": "microsoft/BuildingFootprints"}}}, {"type": "Feature", "geometry": {"type": "Polygon", "coordinates": [[[-97.191367, 35.657145], [-97.191166, 35.657141], [-97.191163, 35.657244], [-97.191241, 35.657246], [-97.191239, 35.6573], [-97.191362, 35.657303], [-97.191367, 35.657145]]]}, "properties": {"osm_id": 1148085504, "building": "yes", "name": "", "height": null, "height_m": null, "levels": null, "tract_id": "40109109202", "tract_name": "1092.02", "tags": {"building": "yes", "source": "microsoft/BuildingFootprints"}}}, {"type": "Feature", "geometry": {"type": "Polygon", "coordinates": [[[-97.190412, 35.657148], [-97.190412, 35.657264], [-97.190627, 35.657264], [-97.190627, 35.657148], [-97.190412, 35.657148]]]}, "properties": {"osm_id": 1148085505, "building": "yes", "name": "", "height": null, "height_m": null, "levels": null, "tract_id": "40109109202", "tract_name": "1092.02", "tags": {"building": "yes", "source": "microsoft/BuildingFootprints"}}}, {"type": "Feature", "geometry": {"type": "Polygon", "coordinates": [[[-97.191214, 35.657882], [-97.191091, 35.657882], [-97.191091, 35.658015], [-97.191214, 35.658015], [-97.191214, 35.657882]]]}, "properties": {"osm_id": 1148085506, "building": "yes", "name": "", "height": null, "height_m": null, "levels": null, "tract_id": "40109109202", "tract_name": "1092.02", "tags": {"building": "yes", "source": "microsoft/BuildingFootprints"}}}, {"type": "Feature", "geometry": {"type": "Polygon", "coordinates": [[[-97.191206, 35.658096], [-97.191096, 35.658096], [-97.191096, 35.658231], [-97.191206, 35.658231], [-97.191206, 35.658096]]]}, "properties": {"osm_id": 1148085507, "building": "yes", "name": "", "height": null, "height_m": null, "levels": null, "tract_id": "40109109202", "tract_name": "1092.02", "tags": {"building": "yes", "source": "microsoft/BuildingFootprints"}}}, {"type": "Feature", "geometry": {"type": "Polygon", "coordinates": [[[-97.190471, 35.658238], [-97.190613, 35.658238], [-97.190613, 35.658166], [-97.190672, 35.658166], [-97.190672, 35.658059], [-97.190581, 35.658059], [-97.190581, 35.658094], [-97.190477, 35.658094], [-97.190477, 35.658151], [-97.190431, 35.658151], [-97.190431, 35.658198], [-97.190471, 35.658198], [-97.190471, 35.658238]]]}, "properties": {"osm_id": 1148085508, "building": "yes", "name": "", "height": null, "height_m": null, "levels": null, "tract_id": "40109109202", "tract_name": "1092.02", "tags": {"building": "yes", "source": "microsoft/BuildingFootprints"}}}, {"type": "Feature", "geometry": {"type": "Polygon", "coordinates": [[[-97.191096, 35.658682], [-97.191249, 35.658682], [-97.191249, 35.658493], [-97.191096, 35.658493], [-97.191096, 35.658682]]]}, "properties": {"osm_id": 1148085509, "building": "yes", "name": "", "height": null, "height_m": null, "levels": null, "tract_id": "40109109202", "tract_name": "1092.02", "tags": {"building": "yes", "source": "microsoft/BuildingFootprints"}}}, {"type": "Feature", "geometry": {"type": "Polygon", "coordinates": [[[-97.190493, 35.659052], [-97.190493, 35.65911], [-97.190563, 35.659109], [-97.190564, 35.65921], [-97.190686, 35.659209], [-97.190684, 35.659054], [-97.190662, 35.659054], [-97.190661, 35.659011], [-97.190578, 35.659011], [-97.190578, 35.659052], [-97.190493, 35.659052]]]}, "properties": {"osm_id": 1148085510, "building": "yes", "name": "", "height": null, "height_m": null, "levels": null, "tract_id": "40109109202", "tract_name": "1092.02", "tags": {"building": "yes", "source": "microsoft/BuildingFootprints"}}}, {"type": "Feature", "geometry": {"type": "Polygon", "coordinates": [[[-97.191129, 35.659611], [-97.191297, 35.659613], [-97.191298, 35.659563], [-97.191349, 35.659564], [-97.191351, 35.659462], [-97.191131, 35.659459], [-97.191129, 35.659611]]]}, "properties": {"osm_id": 1148085511, "building": "yes", "name": "", "height": null, "height_m": null, "levels": null, "tract_id": "40109109202", "tract_name": "1092.02", "tags": {"building": "yes", "source": "microsoft/BuildingFootprints"}}}, {"type": "Feature", "geometry": {"type": "Polygon", "coordinates": [[[-97.190503, 35.659578], [-97.190503, 35.659626], [-97.190477, 35.659626], [-97.190477, 35.659685], [-97.190544, 35.659685], [-97.190544, 35.659654], [-97.190616, 35.659654], [-97.190616, 35.659578], [-97.190503, 35.659578]]]}, "properties": {"osm_id": 1148085512, "building": "yes", "name": "", "height": null, "height_m": null, "levels": null, "tract_id": "40109109202", "tract_name": "1092.02", "tags": {"building": "yes", "source": "microsoft/BuildingFootprints"}}}, {"type": "Feature", "geometry": {"type": "Polygon", "coordinates": [[[-97.190538, 35.65987], [-97.190538, 35.659959], [-97.190705, 35.659959], [-97.190705, 35.65987], [-97.190538, 35.65987]]]}, "properties": {"osm_id": 1148085513, "building": "yes", "name": "", "height": null, "height_m": null, "levels": null, "tract_id": "40109109202", "tract_name": "1092.02", "tags": {"building": "yes", "source": "microsoft/BuildingFootprints"}}}, {"type": "Feature", "geometry": {"type": "Polygon", "coordinates": [[[-97.191756, 35.660214], [-97.191579, 35.660214], [-97.191579, 35.66038], [-97.191756, 35.66038], [-97.191756, 35.660214]]]}, "properties": {"osm_id": 1148085514, "building": "yes", "name": "", "height": null, "height_m": null, "levels": null, "tract_id": "40109109202", "tract_name": "1092.02", "tags": {"building": "yes", "source": "microsoft/BuildingFootprints"}}}, {"type": "Feature", "geometry": {"type": "Polygon", "coordinates": [[[-97.19111, 35.660376], [-97.191225, 35.660376], [-97.191225, 35.660214], [-97.19111, 35.660214], [-97.19111, 35.660376]]]}, "properties": {"osm_id": 1148085515, "building": "yes", "name": "", "height": null, "height_m": null, "levels": null, "tract_id": "40109109202", "tract_name": "1092.02", "tags": {"building": "yes", "source": "microsoft/BuildingFootprints"}}}, {"type": "Feature", "geometry": {"type": "Polygon", "coordinates": [[[-97.190426, 35.660574], [-97.190643, 35.660574], [-97.190643, 35.660482], [-97.190426, 35.660482], [-97.190426, 35.660574]]]}, "properties": {"osm_id": 1148085516, "building": "yes", "name": "", "height": null, "height_m": null, "levels": null, "tract_id": "40109109202", "tract_name": "1092.02", "tags": {"building": "yes", "source": "microsoft/BuildingFootprints"}}}, {"type": "Feature", "geometry": {"type": "Polygon", "coordinates": [[[-97.190444, 35.660668], [-97.190302, 35.660668], [-97.190302, 35.660757], [-97.190444, 35.660757], [-97.190444, 35.660668]]]}, "properties": {"osm_id": 1148085517, "building": "yes", "name": "", "height": null, "height_m": null, "levels": null, "tract_id": "40109109202", "tract_name": "1092.02", "tags": {"building": "yes", "source": "microsoft/BuildingFootprints"}}}, {"type": "Feature", "geometry": {"type": "Polygon", "coordinates": [[[-97.191287, 35.660834], [-97.191158, 35.660836], [-97.191161, 35.660993], [-97.19129, 35.660991], [-97.191287, 35.660834]]]}, "properties": {"osm_id": 1148085518, "building": "yes", "name": "", "height": null, "height_m": null, "levels": null, "tract_id": "40109109202", "tract_name": "1092.02", "tags": {"building": "yes", "source": "microsoft/BuildingFootprints"}}}, {"type": "Feature", "geometry": {"type": "Polygon", "coordinates": [[[-97.192215, 35.6609], [-97.192217, 35.660709], [-97.191686, 35.660705], [-97.191684, 35.660896], [-97.192215, 35.6609]]]}, "properties": {"osm_id": 1148085519, "building": "yes", "name": "", "height": null, "height_m": null, "levels": null, "tract_id": "40109109202", "tract_name": "1092.02", "tags": {"building": "yes", "source": "microsoft/BuildingFootprints"}}}, {"type": "Feature", "geometry": {"type": "Polygon", "coordinates": [[[-97.191838, 35.660347], [-97.191834, 35.660539], [-97.191885, 35.660539], [-97.191882, 35.660684], [-97.191967, 35.660685], [-97.19197, 35.660538], [-97.192218, 35.660541], [-97.192221, 35.660352], [-97.191838, 35.660347]]]}, "properties": {"osm_id": 1148085520, "building": "yes", "name": "", "height": null, "height_m": null, "levels": null, "tract_id": "40109109202", "tract_name": "1092.02", "tags": {"building": "yes", "source": "microsoft/BuildingFootprints"}}}, {"type": "Feature", "geometry": {"type": "Polygon", "coordinates": [[[-97.192488, 35.660242], [-97.192306, 35.66024], [-97.192296, 35.661007], [-97.192479, 35.661009], [-97.192488, 35.660242]]]}, "properties": {"osm_id": 1148085521, "building": "yes", "name": "", "height": null, "height_m": null, "levels": null, "tract_id": "40109109202", "tract_name": "1092.02", "tags": {"building": "yes", "source": "microsoft/BuildingFootprints"}}}, {"type": "Feature", "geometry": {"type": "Polygon", "coordinates": [[[-97.19274, 35.660336], [-97.192966, 35.660336], [-97.192966, 35.660391], [-97.193014, 35.660391], [-97.193014, 35.660251], [-97.19274, 35.660251], [-97.19274, 35.660336]]]}, "properties": {"osm_id": 1148085522, "building": "yes", "name": "", "height": null, "height_m": null, "levels": null, "tract_id": "40109109202", "tract_name": "1092.02", "tags": {"building": "yes", "source": "microsoft/BuildingFootprints"}}}, {"type": "Feature", "geometry": {"type": "Polygon", "coordinates": [[[-97.193004, 35.660486], [-97.193002, 35.66058], [-97.192788, 35.660576], [-97.192781, 35.660864], [-97.193261, 35.660871], [-97.19327, 35.66049], [-97.193004, 35.660486]]]}, "properties": {"osm_id": 1148085523, "building": "yes", "name": "", "height": null, "height_m": null, "levels": null, "tract_id": "40109109202", "tract_name": "1092.02", "tags": {"building": "yes", "source": "microsoft/BuildingFootprints"}}}, {"type": "Feature", "geometry": {"type": "Polygon", "coordinates": [[[-97.193663, 35.660936], [-97.193663, 35.660918], [-97.193572, 35.660918], [-97.193572, 35.661016], [-97.193786, 35.661017], [-97.193786, 35.661038], [-97.193878, 35.661038], [-97.193878, 35.660904], [-97.193838, 35.660904], [-97.193837, 35.660936], [-97.193663, 35.660936]]]}, "properties": {"osm_id": 1148085524, "building": "yes", "name": "", "height": null, "height_m": null, "levels": null, "tract_id": "40109109202", "tract_name": "1092.02", "tags": {"building": "yes", "source": "microsoft/BuildingFootprints"}}}, {"type": "Feature", "geometry": {"type": "Polygon", "coordinates": [[[-97.193588, 35.660711], [-97.193752, 35.660711], [-97.193752, 35.660622], [-97.193588, 35.660622], [-97.193588, 35.660711]]]}, "properties": {"osm_id": 1148085525, "building": "yes", "name": "", "height": null, "height_m": null, "levels": null, "tract_id": "40109109202", "tract_name": "1092.02", "tags": {"building": "yes", "source": "microsoft/BuildingFootprints"}}}, {"type": "Feature", "geometry": {"type": "Polygon", "coordinates": [[[-97.193609, 35.66023], [-97.193608, 35.66032], [-97.193937, 35.660322], [-97.193938, 35.660233], [-97.193609, 35.66023]]]}, "properties": {"osm_id": 1148085526, "building": "yes", "name": "", "height": null, "height_m": null, "levels": null, "tract_id": "40109109202", "tract_name": "1092.02", "tags": {"building": "yes", "source": "microsoft/BuildingFootprints"}}}, {"type": "Feature", "geometry": {"type": "Polygon", "coordinates": [[[-97.194366, 35.660232], [-97.194366, 35.660424], [-97.194473, 35.660424], [-97.194473, 35.660232], [-97.194366, 35.660232]]]}, "properties": {"osm_id": 1148085527, "building": "yes", "name": "", "height": null, "height_m": null, "levels": null, "tract_id": "40109109202", "tract_name": "1092.02", "tags": {"building": "yes", "source": "microsoft/BuildingFootprints"}}}, {"type": "Feature", "geometry": {"type": "Polygon", "coordinates": [[[-97.19435, 35.660524], [-97.194519, 35.660524], [-97.194519, 35.660448], [-97.19435, 35.660448], [-97.19435, 35.660524]]]}, "properties": {"osm_id": 1148085528, "building": "yes", "name": "", "height": null, "height_m": null, "levels": null, "tract_id": "40109109202", "tract_name": "1092.02", "tags": {"building": "yes", "source": "microsoft/BuildingFootprints"}}}, {"type": "Feature", "geometry": {"type": "Polygon", "coordinates": [[[-97.194358, 35.660589], [-97.194358, 35.660655], [-97.194304, 35.660655], [-97.194304, 35.660687], [-97.194473, 35.660687], [-97.194473, 35.660644], [-97.194508, 35.660644], [-97.194508, 35.660589], [-97.194358, 35.660589]]]}, "properties": {"osm_id": 1148085529, "building": "yes", "name": "", "height": null, "height_m": null, "levels": null, "tract_id": "40109109202", "tract_name": "1092.02", "tags": {"building": "yes", "source": "microsoft/BuildingFootprints"}}}, {"type": "Feature", "geometry": {"type": "Polygon", "coordinates": [[[-97.194318, 35.660864], [-97.194497, 35.660864], [-97.194497, 35.660785], [-97.194363, 35.660785], [-97.194363, 35.660742], [-97.194318, 35.660742], [-97.194318, 35.660864]]]}, "properties": {"osm_id": 1148085530, "building": "yes", "name": "", "height": null, "height_m": null, "levels": null, "tract_id": "40109109202", "tract_name": "1092.02", "tags": {"building": "yes", "source": "microsoft/BuildingFootprints"}}}, {"type": "Feature", "geometry": {"type": "Polygon", "coordinates": [[[-97.194964, 35.660753], [-97.194892, 35.660753], [-97.194892, 35.660831], [-97.195042, 35.660831], [-97.195042, 35.660724], [-97.194964, 35.660724], [-97.194964, 35.660753]]]}, "properties": {"osm_id": 1148085531, "building": "yes", "name": "", "height": null, "height_m": null, "levels": null, "tract_id": "40109109202", "tract_name": "1092.02", "tags": {"building": "yes", "source": "microsoft/BuildingFootprints"}}}, {"type": "Feature", "geometry": {"type": "Polygon", "coordinates": [[[-97.195069, 35.660513], [-97.194857, 35.660513], [-97.194857, 35.660613], [-97.195007, 35.660613], [-97.195007, 35.660565], [-97.195069, 35.660565], [-97.195069, 35.660513]]]}, "properties": {"osm_id": 1148085532, "building": "yes", "name": "", "height": null, "height_m": null, "levels": null, "tract_id": "40109109202", "tract_name": "1092.02", "tags": {"building": "yes", "source": "microsoft/BuildingFootprints"}}}, {"type": "Feature", "geometry": {"type": "Polygon", "coordinates": [[[-97.194905, 35.660352], [-97.195074, 35.660352], [-97.195074, 35.66026], [-97.194905, 35.66026], [-97.194905, 35.660352]]]}, "properties": {"osm_id": 1148085533, "building": "yes", "name": "", "height": null, "height_m": null, "levels": null, "tract_id": "40109109202", "tract_name": "1092.02", "tags": {"building": "yes", "source": "microsoft/BuildingFootprints"}}}, {"type": "Feature", "geometry": {"type": "Polygon", "coordinates": [[[-97.191442, 35.655212], [-97.191448, 35.654746], [-97.191198, 35.654744], [-97.191196, 35.654917], [-97.191167, 35.654917], [-97.191165, 35.655042], [-97.191198, 35.655042], [-97.191196, 35.65521], [-97.191442, 35.655212]]]}, "properties": {"osm_id": 1148085534, "building": "yes", "name": "", "height": null, "height_m": null, "levels": null, "tract_id": "40109109202", "tract_name": "1092.02", "tags": {"building": "yes", "source": "microsoft/BuildingFootprints"}}}, {"type": "Feature", "geometry": {"type": "Polygon", "coordinates": [[[-97.191863, 35.654801], [-97.191586, 35.6548], [-97.191584, 35.655212], [-97.19186, 35.655213], [-97.191863, 35.654801]]]}, "properties": {"osm_id": 1148085535, "building": "yes", "name": "", "height": null, "height_m": null, "levels": null, "tract_id": "40109109202", "tract_name": "1092.02", "tags": {"building": "yes", "source": "microsoft/BuildingFootprints"}}}, {"type": "Feature", "geometry": {"type": "Polygon", "coordinates": [[[-97.191676, 35.65385], [-97.191434, 35.65385], [-97.191434, 35.65392], [-97.191338, 35.653919], [-97.191338, 35.65383], [-97.191118, 35.65383], [-97.191117, 35.654327], [-97.191339, 35.654327], [-97.19134, 35.65402], [-97.191433, 35.65402], [-97.191432, 35.654314], [-97.191675, 35.654314], [-97.191676, 35.65385]]]}, "properties": {"osm_id": 1148085536, "building": "yes", "name": "", "height": null, "height_m": null, "levels": null, "tract_id": "40109109202", "tract_name": "1092.02", "tags": {"building": "yes", "source": "microsoft/BuildingFootprints"}}}, {"type": "Feature", "geometry": {"type": "Polygon", "coordinates": [[[-97.191409, 35.654568], [-97.191406, 35.654422], [-97.191068, 35.654427], [-97.191071, 35.654573], [-97.191409, 35.654568]]]}, "properties": {"osm_id": 1148085537, "building": "yes", "name": "", "height": null, "height_m": null, "levels": null, "tract_id": "40109109202", "tract_name": "1092.02", "tags": {"building": "yes", "source": "microsoft/BuildingFootprints"}}}, {"type": "Feature", "geometry": {"type": "Polygon", "coordinates": [[[-97.190581, 35.654746], [-97.190581, 35.65489], [-97.190691, 35.65489], [-97.190691, 35.654746], [-97.190581, 35.654746]]]}, "properties": {"osm_id": 1148085538, "building": "yes", "name": "", "height": null, "height_m": null, "levels": null, "tract_id": "40109109202", "tract_name": "1092.02", "tags": {"building": "yes", "source": "microsoft/BuildingFootprints"}}}, {"type": "Feature", "geometry": {"type": "Polygon", "coordinates": [[[-97.190554, 35.655049], [-97.190689, 35.655049], [-97.190689, 35.654916], [-97.190554, 35.654916], [-97.190554, 35.655049]]]}, "properties": {"osm_id": 1148085539, "building": "yes", "name": "", "height": null, "height_m": null, "levels": null, "tract_id": "40109109202", "tract_name": "1092.02", "tags": {"building": "yes", "source": "microsoft/BuildingFootprints"}}}, {"type": "Feature", "geometry": {"type": "Polygon", "coordinates": [[[-97.190693, 35.65508], [-97.190581, 35.65508], [-97.19058, 35.655219], [-97.190693, 35.65522], [-97.190693, 35.65508]]]}, "properties": {"osm_id": 1148085540, "building": "yes", "name": "", "height": null, "height_m": null, "levels": null, "tract_id": "40109109202", "tract_name": "1092.02", "tags": {"building": "yes", "source": "microsoft/BuildingFootprints"}}}, {"type": "Feature", "geometry": {"type": "Polygon", "coordinates": [[[-97.190681, 35.655376], [-97.190681, 35.655241], [-97.190549, 35.655241], [-97.190549, 35.655376], [-97.190681, 35.655376]]]}, "properties": {"osm_id": 1148085541, "building": "yes", "name": "", "height": null, "height_m": null, "levels": null, "tract_id": "40109109202", "tract_name": "1092.02", "tags": {"building": "yes", "source": "microsoft/BuildingFootprints"}}}, {"type": "Feature", "geometry": {"type": "Polygon", "coordinates": [[[-97.190503, 35.656102], [-97.19063, 35.656102], [-97.19063, 35.655954], [-97.190597, 35.655954], [-97.190597, 35.655897], [-97.190503, 35.655897], [-97.190503, 35.656102]]]}, "properties": {"osm_id": 1148088597, "building": "yes", "name": "", "height": null, "height_m": null, "levels": null, "tract_id": "40109109202", "tract_name": "1092.02", "tags": {"building": "yes", "source": "microsoft/BuildingFootprints"}}}, {"type": "Feature", "geometry": {"type": "Polygon", "coordinates": [[[-97.191193, 35.656237], [-97.191316, 35.656237], [-97.191316, 35.656028], [-97.191193, 35.656028], [-97.191193, 35.656237]]]}, "properties": {"osm_id": 1148088598, "building": "yes", "name": "", "height": null, "height_m": null, "levels": null, "tract_id": "40109109202", "tract_name": "1092.02", "tags": {"building": "yes", "source": "microsoft/BuildingFootprints"}}}, {"type": "Feature", "geometry": {"type": "Polygon", "coordinates": [[[-97.191812, 35.655819], [-97.191952, 35.655819], [-97.191952, 35.655629], [-97.191812, 35.655629], [-97.191812, 35.655819]]]}, "properties": {"osm_id": 1148088599, "building": "yes", "name": "", "height": null, "height_m": null, "levels": null, "tract_id": "40109109202", "tract_name": "1092.02", "tags": {"building": "yes", "source": "microsoft/BuildingFootprints"}}}, {"type": "Feature", "geometry": {"type": "Polygon", "coordinates": [[[-97.190455, 35.655782], [-97.190375, 35.655782], [-97.190375, 35.655873], [-97.190455, 35.655873], [-97.190455, 35.655782]]]}, "properties": {"osm_id": 1148088600, "building": "yes", "name": "", "height": null, "height_m": null, "levels": null, "tract_id": "40109109202", "tract_name": "1092.02", "tags": {"building": "yes", "source": "microsoft/BuildingFootprints"}}}, {"type": "Feature", "geometry": {"type": "Polygon", "coordinates": [[[-97.190611, 35.656767], [-97.190437, 35.656767], [-97.190437, 35.656841], [-97.190611, 35.656841], [-97.190611, 35.656767]]]}, "properties": {"osm_id": 1148088601, "building": "yes", "name": "", "height": null, "height_m": null, "levels": null, "tract_id": "40109109202", "tract_name": "1092.02", "tags": {"building": "yes", "source": "microsoft/BuildingFootprints"}}}, {"type": "Feature", "geometry": {"type": "Polygon", "coordinates": [[[-97.19314, 35.655618], [-97.192939, 35.655618], [-97.192939, 35.655697], [-97.19314, 35.655697], [-97.19314, 35.655618]]]}, "properties": {"osm_id": 1148088602, "building": "yes", "name": "", "height": null, "height_m": null, "levels": null, "tract_id": "40109109202", "tract_name": "1092.02", "tags": {"building": "yes", "source": "microsoft/BuildingFootprints"}}}, {"type": "Feature", "geometry": {"type": "Polygon", "coordinates": [[[-97.193854, 35.65586], [-97.194004, 35.655861], [-97.194008, 35.655611], [-97.193895, 35.65561], [-97.193893, 35.655758], [-97.193856, 35.655758], [-97.193854, 35.65586]]]}, "properties": {"osm_id": 1148088603, "building": "yes", "name": "", "height": null, "height_m": null, "levels": null, "tract_id": "40109109202", "tract_name": "1092.02", "tags": {"building": "yes", "source": "microsoft/BuildingFootprints"}}}, {"type": "Feature", "geometry": {"type": "Polygon", "coordinates": [[[-97.193718, 35.656129], [-97.193669, 35.656193], [-97.193768, 35.656243], [-97.193742, 35.656277], [-97.193791, 35.656301], [-97.193812, 35.656273], [-97.193861, 35.656297], [-97.193914, 35.656228], [-97.193718, 35.656129]]]}, "properties": {"osm_id": 1148088604, "building": "yes", "name": "", "height": null, "height_m": null, "levels": null, "tract_id": "40109109202", "tract_name": "1092.02", "tags": {"building": "yes", "source": "microsoft/BuildingFootprints"}}}, {"type": "Feature", "geometry": {"type": "Polygon", "coordinates": [[[-97.194213, 35.656369], [-97.194476, 35.656373], [-97.194478, 35.656295], [-97.194215, 35.65629], [-97.194213, 35.656369]]]}, "properties": {"osm_id": 1148088605, "building": "yes", "name": "", "height": null, "height_m": null, "levels": null, "tract_id": "40109109202", "tract_name": "1092.02", "tags": {"building": "yes", "source": "microsoft/BuildingFootprints"}}}, {"type": "Feature", "geometry": {"type": "Polygon", "coordinates": [[[-97.194206, 35.65534], [-97.194201, 35.655427], [-97.194381, 35.655434], [-97.194385, 35.655347], [-97.194206, 35.65534]]]}, "properties": {"osm_id": 1148088606, "building": "yes", "name": "", "height": null, "height_m": null, "levels": null, "tract_id": "40109109202", "tract_name": "1092.02", "tags": {"building": "yes", "source": "microsoft/BuildingFootprints"}}}, {"type": "Feature", "geometry": {"type": "Polygon", "coordinates": [[[-97.193824, 35.655324], [-97.193824, 35.655193], [-97.193618, 35.655193], [-97.193618, 35.655324], [-97.193824, 35.655324]]]}, "properties": {"osm_id": 1148088607, "building": "yes", "name": "", "height": null, "height_m": null, "levels": null, "tract_id": "40109109202", "tract_name": "1092.02", "tags": {"building": "yes", "source": "microsoft/BuildingFootprints"}}}, {"type": "Feature", "geometry": {"type": "Polygon", "coordinates": [[[-97.1964068, 35.6544622], [-97.196383, 35.6540752], [-97.1965287, 35.6540693], [-97.196509, 35.6537489], [-97.1963391, 35.6537558], [-97.1963354, 35.6536949], [-97.1961936, 35.6537007], [-97.1961958, 35.6537363], [-97.1960406, 35.6537426], [-97.196055, 35.6539766], [-97.1961258, 35.6539737], [-97.1961565, 35.6544723], [-97.1964068, 35.6544622]]]}, "properties": {"osm_id": 1148088608, "building": "yes", "name": "", "height": null, "height_m": null, "levels": null, "tract_id": "40109109202", "tract_name": "1092.02", "tags": {"building": "yes", "source": "microsoft/BuildingFootprints"}}}, {"type": "Feature", "geometry": {"type": "Polygon", "coordinates": [[[-97.1966973, 35.6548623], [-97.1969144, 35.6548569], [-97.1969056, 35.6546247], [-97.1966885, 35.6546302], [-97.1966973, 35.6548623]]]}, "properties": {"osm_id": 1148088609, "building": "yes", "name": "", "height": null, "height_m": null, "levels": null, "tract_id": "40109109202", "tract_name": "1092.02", "tags": {"building": "yes", "source": "microsoft/BuildingFootprints"}}}, {"type": "Feature", "geometry": {"type": "Polygon", "coordinates": [[[-97.1968944, 35.6537116], [-97.1967524, 35.6537091], [-97.1967479, 35.6538768], [-97.1968899, 35.6538793], [-97.1968944, 35.6537116]]]}, "properties": {"osm_id": 1148088610, "building": "yes", "name": "", "height": null, "height_m": null, "levels": null, "tract_id": "40109109202", "tract_name": "1092.02", "tags": {"building": "yes", "source": "microsoft/BuildingFootprints"}}}, {"type": "Feature", "geometry": {"type": "Polygon", "coordinates": [[[-97.195319, 35.652804], [-97.195032, 35.653033], [-97.195513, 35.653431], [-97.195753, 35.653239], [-97.195737, 35.653226], [-97.195784, 35.653189], [-97.195319, 35.652804]]]}, "properties": {"osm_id": 1148088611, "building": "school", "name": "", "height": null, "height_m": 6.0, "levels": 2, "tract_id": "40109109202", "tract_name": "1092.02", "tags": {"addr:housenumber": "18955", "addr:street": "Northeast 178th Street", "building": "school", "building:levels": "2", "roof:levels": "1", "roof:shape": "many", "source": "microsoft/BuildingFootprints"}}}, {"type": "Feature", "geometry": {"type": "Polygon", "coordinates": [[[-97.1973178, 35.6526124], [-97.1977442, 35.6526161], [-97.1977453, 35.6525341], [-97.1977802, 35.6525344], [-97.1977807, 35.6524965], [-97.1977458, 35.6524962], [-97.1977464, 35.6524526], [-97.1973253, 35.652449], [-97.1973247, 35.6524978], [-97.1972898, 35.6524975], [-97.1972894, 35.6525315], [-97.1973189, 35.6525318], [-97.1973178, 35.6526124]]]}, "properties": {"osm_id": 1148088612, "building": "yes", "name": "", "height": null, "height_m": null, "levels": null, "tract_id": "40109109202", "tract_name": "1092.02", "tags": {"building": "yes", "source": "microsoft/BuildingFootprints"}}}, {"type": "Feature", "geometry": {"type": "Polygon", "coordinates": [[[-97.19577, 35.652057], [-97.195871, 35.652059], [-97.195877, 35.651899], [-97.195777, 35.651896], [-97.19577, 35.652057]]]}, "properties": {"osm_id": 1148088613, "building": "yes", "name": "", "height": null, "height_m": null, "levels": null, "tract_id": "40109109202", "tract_name": "1092.02", "tags": {"building": "yes", "source": "microsoft/BuildingFootprints"}}}, {"type": "Feature", "geometry": {"type": "Polygon", "coordinates": [[[-97.1415404, 35.6664143], [-97.1415417, 35.6662977], [-97.1414613, 35.6662945], [-97.1414626, 35.6663195], [-97.1414492, 35.6663195], [-97.1414492, 35.6664165], [-97.1415404, 35.6664143]]]}, "properties": {"osm_id": 1194039143, "building": "yes", "name": "Threatt Filling Station", "height": null, "height_m": null, "levels": null, "tract_id": "40109109202", "tract_name": "1092.02", "tags": {"building": "yes", "description": "During the Jim Crow era, the Threatt Filling Station provided a place where black travelers, limited by laws restricting travel and accommodations, could stop, shop, and park for the night or just rest while traveling.", "name": "Threatt Filling Station", "website": "https://www.nps.gov/places/threatt-filling-station.htm", "wikidata": "Q55757522", "wikimedia_commons": "File:ThreattFillingStationLutherOK.JPG", "wikipedia": "en:Threatt Filling Station"}}}, {"type": "Feature", "geometry": {"type": "Polygon", "coordinates": [[[-97.1951432, 35.7192533], [-97.1951417, 35.7193585], [-97.1951107, 35.7193582], [-97.1951097, 35.71943], [-97.1951383, 35.7194303], [-97.1951367, 35.7195463], [-97.1952427, 35.7195473], [-97.1952468, 35.7192542], [-97.1951432, 35.7192533]]]}, "properties": {"osm_id": 1256756189, "building": "house", "name": "", "height": null, "height_m": null, "levels": null, "tract_id": "40109109202", "tract_name": "1092.02", "tags": {"building": "house"}}}, {"type": "Feature", "geometry": {"type": "Polygon", "coordinates": [[[-97.2004117, 35.7201413], [-97.2002902, 35.7203029], [-97.2003811, 35.720348], [-97.2003351, 35.7204093], [-97.2004218, 35.7204522], [-97.2005893, 35.7202293], [-97.2004117, 35.7201413]]]}, "properties": {"osm_id": 1256756190, "building": "house", "name": "", "height": null, "height_m": null, "levels": null, "tract_id": "40109109202", "tract_name": "1092.02", "tags": {"building": "house"}}}, {"type": "Feature", "geometry": {"type": "Polygon", "coordinates": [[[-97.200732, 35.7203002], [-97.2007048, 35.7203379], [-97.2007949, 35.7203807], [-97.2008221, 35.7203429], [-97.200732, 35.7203002]]]}, "properties": {"osm_id": 1256756191, "building": "shed", "name": "", "height": null, "height_m": null, "levels": null, "tract_id": "40109109202", "tract_name": "1092.02", "tags": {"building": "shed"}}}, {"type": "Feature", "geometry": {"type": "Polygon", "coordinates": [[[-97.1954107, 35.7214903], [-97.1954125, 35.7214299], [-97.1954501, 35.7214306], [-97.1954525, 35.7213527], [-97.1953983, 35.7213517], [-97.1954006, 35.7212737], [-97.1952897, 35.7212715], [-97.1952882, 35.7213218], [-97.195258, 35.7213212], [-97.1952537, 35.7214632], [-97.1953367, 35.7214649], [-97.195336, 35.7214888], [-97.1954107, 35.7214903]]]}, "properties": {"osm_id": 1256756193, "building": "house", "name": "", "height": null, "height_m": null, "levels": null, "tract_id": "40109109202", "tract_name": "1092.02", "tags": {"building": "house"}}}, {"type": "Feature", "geometry": {"type": "Polygon", "coordinates": [[[-97.1950869, 35.6683813], [-97.1950874, 35.6682612], [-97.195386, 35.6682621], [-97.1953855, 35.6683823], [-97.1950869, 35.6683813]]]}, "properties": {"osm_id": 1256759130, "building": "house", "name": "", "height": null, "height_m": null, "levels": null, "tract_id": "40109109202", "tract_name": "1092.02", "tags": {"building": "house"}}}, {"type": "Feature", "geometry": {"type": "Polygon", "coordinates": [[[-97.1885749, 35.6771873], [-97.1884426, 35.6773473], [-97.1885521, 35.6774071], [-97.1885615, 35.6773957], [-97.1886729, 35.6774564], [-97.1887648, 35.6773452], [-97.1887168, 35.677319], [-97.1887334, 35.6772988], [-97.1886545, 35.6772557], [-97.1886688, 35.6772385], [-97.1885749, 35.6771873]]]}, "properties": {"osm_id": 1256759132, "building": "house", "name": "", "height": null, "height_m": null, "levels": null, "tract_id": "40109109202", "tract_name": "1092.02", "tags": {"building": "house"}}}, {"type": "Feature", "geometry": {"type": "Polygon", "coordinates": [[[-97.188974, 35.6805066], [-97.1889572, 35.6804592], [-97.1889709, 35.680456], [-97.1889491, 35.6803941], [-97.1889356, 35.6803972], [-97.1889089, 35.6803215], [-97.1890193, 35.6802958], [-97.1890846, 35.6804808], [-97.188974, 35.6805066]]]}, "properties": {"osm_id": 1256759134, "building": "house", "name": "", "height": null, "height_m": null, "levels": null, "tract_id": "40109109202", "tract_name": "1092.02", "tags": {"building": "house"}}}, {"type": "Feature", "geometry": {"type": "Polygon", "coordinates": [[[-97.1882289, 35.6768286], [-97.1880375, 35.6767091], [-97.188119, 35.676623], [-97.1881269, 35.6766279], [-97.1882045, 35.676546], [-97.1883362, 35.6766284], [-97.1883059, 35.6766604], [-97.1883334, 35.6766776], [-97.188256, 35.6767594], [-97.1882801, 35.6767745], [-97.1882289, 35.6768286]]]}, "properties": {"osm_id": 1256759135, "building": "house", "name": "", "height": null, "height_m": null, "levels": null, "tract_id": "40109109202", "tract_name": "1092.02", "tags": {"building": "house"}}}, {"type": "Feature", "geometry": {"type": "Polygon", "coordinates": [[[-97.188957, 35.6767089], [-97.188854, 35.6768525], [-97.1890453, 35.676943], [-97.1890686, 35.6769113], [-97.1891215, 35.6769344], [-97.1892006, 35.6768241], [-97.188957, 35.6767089]]]}, "properties": {"osm_id": 1256759136, "building": "house", "name": "", "height": null, "height_m": null, "levels": null, "tract_id": "40109109202", "tract_name": "1092.02", "tags": {"building": "house"}}}, {"type": "Feature", "geometry": {"type": "Polygon", "coordinates": [[[-97.1895011, 35.6773489], [-97.189266, 35.6773721], [-97.1892524, 35.677281], [-97.189279, 35.6772784], [-97.1892672, 35.6772], [-97.1892962, 35.6771971], [-97.1892898, 35.6771542], [-97.1894522, 35.6771382], [-97.1894681, 35.6772444], [-97.1894852, 35.6772427], [-97.1895011, 35.6773489]]]}, "properties": {"osm_id": 1256759137, "building": "house", "name": "", "height": null, "height_m": null, "levels": null, "tract_id": "40109109202", "tract_name": "1092.02", "tags": {"building": "house"}}}, {"type": "Feature", "geometry": {"type": "Polygon", "coordinates": [[[-97.1882919, 35.6775358], [-97.1881315, 35.6777146], [-97.1882786, 35.6778017], [-97.1883137, 35.6777626], [-97.1883324, 35.6777737], [-97.188392, 35.6777074], [-97.188416, 35.6777216], [-97.1884818, 35.6776482], [-97.1882919, 35.6775358]]]}, "properties": {"osm_id": 1256759138, "building": "house", "name": "", "height": null, "height_m": null, "levels": null, "tract_id": "40109109202", "tract_name": "1092.02", "tags": {"building": "house"}}}, {"type": "Feature", "geometry": {"type": "Polygon", "coordinates": [[[-97.1890012, 35.6779698], [-97.1891602, 35.6777787], [-97.1890152, 35.6776991], [-97.1889865, 35.6777335], [-97.188947, 35.6777119], [-97.1889201, 35.6777442], [-97.188933, 35.6777513], [-97.1888593, 35.67784], [-97.1888415, 35.6778303], [-97.1888118, 35.6778659], [-97.1890012, 35.6779698]]]}, "properties": {"osm_id": 1256759139, "building": "house", "name": "", "height": null, "height_m": null, "levels": null, "tract_id": "40109109202", "tract_name": "1092.02", "tags": {"building": "house"}}}, {"type": "Feature", "geometry": {"type": "Polygon", "coordinates": [[[-97.1873975, 35.6791123], [-97.1872399, 35.6792891], [-97.1871625, 35.6792436], [-97.1873201, 35.6790668], [-97.1873975, 35.6791123]]]}, "properties": {"osm_id": 1256759140, "building": "house", "name": "", "height": null, "height_m": null, "levels": null, "tract_id": "40109109202", "tract_name": "1092.02", "tags": {"building": "house"}}}, {"type": "Feature", "geometry": {"type": "Polygon", "coordinates": [[[-97.1876194, 35.678189], [-97.1875656, 35.6782891], [-97.1876431, 35.6783166], [-97.1876969, 35.6782165], [-97.1876194, 35.678189]]]}, "properties": {"osm_id": 1256759141, "building": "yes", "name": "", "height": null, "height_m": null, "levels": null, "tract_id": "40109109202", "tract_name": "1092.02", "tags": {"building": "yes"}}}, {"type": "Feature", "geometry": {"type": "Polygon", "coordinates": [[[-97.1880829, 35.6778384], [-97.1879318, 35.6780206], [-97.1880717, 35.6780973], [-97.188106, 35.678056], [-97.1881277, 35.6780679], [-97.1881822, 35.6780022], [-97.1882091, 35.6780169], [-97.1882715, 35.6779417], [-97.1880829, 35.6778384]]]}, "properties": {"osm_id": 1256759142, "building": "house", "name": "", "height": null, "height_m": null, "levels": null, "tract_id": "40109109202", "tract_name": "1092.02", "tags": {"building": "house"}}}, {"type": "Feature", "geometry": {"type": "Polygon", "coordinates": [[[-97.1886314, 35.6784685], [-97.188702, 35.6783765], [-97.1886932, 35.6783721], [-97.188773, 35.6782683], [-97.1886285, 35.6781951], [-97.1885992, 35.6782332], [-97.188576, 35.6782214], [-97.1884813, 35.6783446], [-97.188466, 35.6783368], [-97.1884396, 35.6783713], [-97.1886314, 35.6784685]]]}, "properties": {"osm_id": 1256759143, "building": "house", "name": "", "height": null, "height_m": null, "levels": null, "tract_id": "40109109202", "tract_name": "1092.02", "tags": {"building": "house"}}}, {"type": "Feature", "geometry": {"type": "Polygon", "coordinates": [[[-97.187434, 35.6784365], [-97.1872248, 35.6784514], [-97.187216, 35.6783697], [-97.187226, 35.678369], [-97.1872235, 35.6783459], [-97.1873309, 35.6783382], [-97.1873337, 35.6783635], [-97.1874254, 35.678357], [-97.187434, 35.6784365]]]}, "properties": {"osm_id": 1256759144, "building": "house", "name": "", "height": null, "height_m": null, "levels": null, "tract_id": "40109109202", "tract_name": "1092.02", "tags": {"building": "house"}}}, {"type": "Feature", "geometry": {"type": "Polygon", "coordinates": [[[-97.1489882, 35.7023883], [-97.1485819, 35.702336], [-97.1486203, 35.702139], [-97.1490267, 35.7021913], [-97.1489882, 35.7023883]]]}, "properties": {"osm_id": 1347024824, "building": "yes", "name": "", "height": null, "height_m": null, "levels": null, "tract_id": "40109109202", "tract_name": "1092.02", "tags": {"amenity": "place_of_worship", "building": "yes", "religion": "christian"}}}, {"type": "Feature", "geometry": {"type": "Polygon", "coordinates": [[[-97.1895989, 35.6675629], [-97.1901172, 35.6675664], [-97.1901148, 35.6678041], [-97.1896865, 35.6678012], [-97.1896861, 35.6678387], [-97.1899108, 35.6678402], [-97.1899092, 35.6679933], [-97.1898148, 35.6679927], [-97.1898145, 35.6680193], [-97.1895943, 35.6680178], [-97.1895989, 35.6675629]]]}, "properties": {"osm_id": 1364382503, "building": "yes", "name": "", "height": null, "height_m": null, "levels": null, "tract_id": "40109109202", "tract_name": "1092.02", "tags": {"building": "yes"}}}, {"type": "Feature", "geometry": {"type": "Polygon", "coordinates": [[[-97.1576445, 35.6816103], [-97.1577142, 35.6815831], [-97.1577247, 35.6816008], [-97.157885, 35.6815383], [-97.1578659, 35.681506], [-97.1578995, 35.6814928], [-97.1578443, 35.6813994], [-97.1576482, 35.681476], [-97.1576701, 35.6815131], [-97.1576026, 35.6815395], [-97.1576445, 35.6816103]]]}, "properties": {"osm_id": 1426264409, "building": "detached", "name": "", "height": null, "height_m": null, "levels": null, "tract_id": "40109109202", "tract_name": "1092.02", "tags": {"building": "detached"}}}, {"type": "Feature", "geometry": {"type": "Polygon", "coordinates": [[[-97.1584806, 35.6796968], [-97.1584135, 35.6796972], [-97.1584109, 35.6794489], [-97.1584779, 35.6794484], [-97.1584806, 35.6796968]]]}, "properties": {"osm_id": 1426269374, "building": "yes", "name": "", "height": null, "height_m": null, "levels": null, "tract_id": "40109109202", "tract_name": "1092.02", "tags": {"building": "yes"}}}, {"type": "Feature", "geometry": {"type": "Polygon", "coordinates": [[[-97.1579861, 35.6805466], [-97.1580357, 35.6805479], [-97.1580381, 35.6804914], [-97.157892, 35.6804874], [-97.1578884, 35.6805744], [-97.1579848, 35.680577], [-97.1579861, 35.6805466]]]}, "properties": {"osm_id": 1426269375, "building": "yes", "name": "", "height": null, "height_m": null, "levels": null, "tract_id": "40109109202", "tract_name": "1092.02", "tags": {"building": "yes"}}}, {"type": "Feature", "geometry": {"type": "Polygon", "coordinates": [[[-97.1581587, 35.6752156], [-97.1580955, 35.6752254], [-97.1580907, 35.6752051], [-97.1580302, 35.6752145], [-97.1580564, 35.6753264], [-97.1582276, 35.6752999], [-97.1582124, 35.675235], [-97.158165, 35.6752424], [-97.1581587, 35.6752156]]]}, "properties": {"osm_id": 1426269376, "building": "yes", "name": "", "height": null, "height_m": null, "levels": null, "tract_id": "40109109202", "tract_name": "1092.02", "tags": {"building": "yes"}}}, {"type": "Feature", "geometry": {"type": "Polygon", "coordinates": [[[-97.158186, 35.6806289], [-97.158387, 35.680633], [-97.1583897, 35.6805481], [-97.158249, 35.6805452], [-97.1582516, 35.6804647], [-97.1581912, 35.6804634], [-97.158186, 35.6806289]]]}, "properties": {"osm_id": 1426269377, "building": "yes", "name": "", "height": null, "height_m": null, "levels": null, "tract_id": "40109109202", "tract_name": "1092.02", "tags": {"building": "yes"}}}, {"type": "Feature", "geometry": {"type": "Polygon", "coordinates": [[[-97.1595796, 35.6797321], [-97.1594804, 35.6797291], [-97.1594764, 35.6798205], [-97.1595755, 35.6798234], [-97.1595796, 35.6797321]]]}, "properties": {"osm_id": 1426269378, "building": "yes", "name": "", "height": null, "height_m": null, "levels": null, "tract_id": "40109109202", "tract_name": "1092.02", "tags": {"building": "yes"}}}, {"type": "Feature", "geometry": {"type": "Polygon", "coordinates": [[[-97.1595233, 35.6769181], [-97.1596003, 35.6769101], [-97.1595633, 35.6766946], [-97.1594889, 35.6767025], [-97.1595233, 35.6769181]]]}, "properties": {"osm_id": 1426269379, "building": "yes", "name": "", "height": null, "height_m": null, "levels": null, "tract_id": "40109109202", "tract_name": "1092.02", "tags": {"building": "yes"}}}, {"type": "Feature", "geometry": {"type": "Polygon", "coordinates": [[[-97.1602987, 35.6800832], [-97.1602998, 35.6801299], [-97.1604339, 35.6801277], [-97.1604327, 35.680081], [-97.1602987, 35.6800832]]]}, "properties": {"osm_id": 1426269380, "building": "yes", "name": "", "height": null, "height_m": null, "levels": null, "tract_id": "40109109202", "tract_name": "1092.02", "tags": {"building": "yes"}}}, {"type": "Feature", "geometry": {"type": "Polygon", "coordinates": [[[-97.1583547, 35.675367], [-97.1584609, 35.6753695], [-97.1584626, 35.6753216], [-97.158485, 35.6753221], [-97.1584878, 35.6752459], [-97.1583591, 35.6752429], [-97.1583547, 35.675367]]]}, "properties": {"osm_id": 1426269381, "building": "yes", "name": "", "height": null, "height_m": null, "levels": null, "tract_id": "40109109202", "tract_name": "1092.02", "tags": {"building": "yes"}}}, {"type": "Feature", "geometry": {"type": "Polygon", "coordinates": [[[-97.1596915, 35.6776773], [-97.1596681, 35.6775628], [-97.1595611, 35.6775772], [-97.1595845, 35.6776917], [-97.1596915, 35.6776773]]]}, "properties": {"osm_id": 1426269382, "building": "yes", "name": "", "height": null, "height_m": null, "levels": null, "tract_id": "40109109202", "tract_name": "1092.02", "tags": {"building": "yes"}}}, {"type": "Feature", "geometry": {"type": "Polygon", "coordinates": [[[-97.1584004, 35.677365], [-97.15868, 35.677438], [-97.1586995, 35.6773886], [-97.1586144, 35.6773664], [-97.1586254, 35.6773387], [-97.1585427, 35.6773172], [-97.1585357, 35.6773349], [-97.1584238, 35.6773057], [-97.1584004, 35.677365]]]}, "properties": {"osm_id": 1426269383, "building": "yes", "name": "", "height": null, "height_m": null, "levels": null, "tract_id": "40109109202", "tract_name": "1092.02", "tags": {"building": "yes"}}}, {"type": "Feature", "geometry": {"type": "Polygon", "coordinates": [[[-97.1583346, 35.6767997], [-97.1584299, 35.6768311], [-97.1584687, 35.6767535], [-97.1583733, 35.6767221], [-97.1583346, 35.6767997]]]}, "properties": {"osm_id": 1426269384, "building": "yes", "name": "", "height": null, "height_m": null, "levels": null, "tract_id": "40109109202", "tract_name": "1092.02", "tags": {"building": "yes"}}}, {"type": "Feature", "geometry": {"type": "Polygon", "coordinates": [[[-97.1582514, 35.6772046], [-97.1580832, 35.6771455], [-97.158031, 35.6772437], [-97.1581992, 35.6773028], [-97.1582514, 35.6772046]]]}, "properties": {"osm_id": 1426269385, "building": "yes", "name": "", "height": null, "height_m": null, "levels": null, "tract_id": "40109109202", "tract_name": "1092.02", "tags": {"building": "yes"}}}, {"type": "Feature", "geometry": {"type": "Polygon", "coordinates": [[[-97.1585026, 35.6765381], [-97.1584254, 35.6765322], [-97.1584095, 35.6766674], [-97.1584877, 35.6766735], [-97.1584945, 35.6766155], [-97.1585183, 35.6766173], [-97.1585241, 35.676568], [-97.1584994, 35.6765661], [-97.1585026, 35.6765381]]]}, "properties": {"osm_id": 1426269386, "building": "yes", "name": "", "height": null, "height_m": null, "levels": null, "tract_id": "40109109202", "tract_name": "1092.02", "tags": {"building": "yes"}}}, {"type": "Feature", "geometry": {"type": "Polygon", "coordinates": [[[-97.1596786, 35.679572], [-97.1595072, 35.6795662], [-97.1595027, 35.6796544], [-97.159674, 35.6796602], [-97.1596786, 35.679572]]]}, "properties": {"osm_id": 1426269387, "building": "yes", "name": "", "height": null, "height_m": null, "levels": null, "tract_id": "40109109202", "tract_name": "1092.02", "tags": {"building": "yes"}}}, {"type": "Feature", "geometry": {"type": "Polygon", "coordinates": [[[-97.15948, 35.6806097], [-97.1594777, 35.6806674], [-97.1595366, 35.680669], [-97.1595389, 35.6806112], [-97.15948, 35.6806097]]]}, "properties": {"osm_id": 1426269388, "building": "yes", "name": "", "height": null, "height_m": null, "levels": null, "tract_id": "40109109202", "tract_name": "1092.02", "tags": {"building": "yes"}}}, {"type": "Feature", "geometry": {"type": "Polygon", "coordinates": [[[-97.1603377, 35.6744274], [-97.160324, 35.6744841], [-97.1602852, 35.6744779], [-97.1602552, 35.6746016], [-97.1603791, 35.6746215], [-97.1604229, 35.6744411], [-97.1603377, 35.6744274]]]}, "properties": {"osm_id": 1426269389, "building": "detached", "name": "", "height": null, "height_m": null, "levels": null, "tract_id": "40109109202", "tract_name": "1092.02", "tags": {"building": "detached"}}}, {"type": "Feature", "geometry": {"type": "Polygon", "coordinates": [[[-97.1595681, 35.6807166], [-97.1597167, 35.6807121], [-97.1597105, 35.6805781], [-97.1595619, 35.6805826], [-97.1595681, 35.6807166]]]}, "properties": {"osm_id": 1426269390, "building": "yes", "name": "", "height": null, "height_m": null, "levels": null, "tract_id": "40109109202", "tract_name": "1092.02", "tags": {"building": "yes"}}}, {"type": "Feature", "geometry": {"type": "Polygon", "coordinates": [[[-97.1597506, 35.6782569], [-97.1596527, 35.6782542], [-97.1596438, 35.6784675], [-97.1597417, 35.6784702], [-97.1597506, 35.6782569]]]}, "properties": {"osm_id": 1426269391, "building": "yes", "name": "", "height": null, "height_m": null, "levels": null, "tract_id": "40109109202", "tract_name": "1092.02", "tags": {"building": "yes"}}}, {"type": "Feature", "geometry": {"type": "Polygon", "coordinates": [[[-97.1582355, 35.6709469], [-97.1582316, 35.6710525], [-97.1584178, 35.671057], [-97.1584208, 35.6709775], [-97.1583672, 35.6709762], [-97.1583709, 35.6708761], [-97.1581859, 35.6708716], [-97.1581832, 35.6709456], [-97.1582355, 35.6709469]]]}, "properties": {"osm_id": 1426270906, "building": "detached", "name": "", "height": null, "height_m": null, "levels": null, "tract_id": "40109109202", "tract_name": "1092.02", "tags": {"building": "detached"}}}, {"type": "Feature", "geometry": {"type": "Polygon", "coordinates": [[[-97.1600962, 35.6677617], [-97.1600561, 35.6677962], [-97.1601056, 35.6678342], [-97.1601458, 35.6677997], [-97.1600962, 35.6677617]]]}, "properties": {"osm_id": 1426270907, "building": "yes", "name": "", "height": null, "height_m": null, "levels": null, "tract_id": "40109109202", "tract_name": "1092.02", "tags": {"building": "yes"}}}, {"type": "Feature", "geometry": {"type": "Polygon", "coordinates": [[[-97.1583662, 35.6694249], [-97.1584622, 35.6694574], [-97.1585136, 35.6693571], [-97.1584176, 35.6693247], [-97.1583662, 35.6694249]]]}, "properties": {"osm_id": 1426270908, "building": "yes", "name": "", "height": null, "height_m": null, "levels": null, "tract_id": "40109109202", "tract_name": "1092.02", "tags": {"building": "yes"}}}, {"type": "Feature", "geometry": {"type": "Polygon", "coordinates": [[[-97.1584496, 35.6704968], [-97.1582419, 35.670492], [-97.1582399, 35.6705512], [-97.1583015, 35.6705527], [-97.1583003, 35.6705875], [-97.1583726, 35.6705892], [-97.1583738, 35.6705565], [-97.1584475, 35.6705582], [-97.1584496, 35.6704968]]]}, "properties": {"osm_id": 1426270909, "building": "yes", "name": "", "height": null, "height_m": null, "levels": null, "tract_id": "40109109202", "tract_name": "1092.02", "tags": {"building": "yes"}}}, {"type": "Feature", "geometry": {"type": "Polygon", "coordinates": [[[-97.1600726, 35.670801], [-97.1600692, 35.6709033], [-97.1601657, 35.6709055], [-97.1601691, 35.6708032], [-97.1600726, 35.670801]]]}, "properties": {"osm_id": 1426270910, "building": "yes", "name": "", "height": null, "height_m": null, "levels": null, "tract_id": "40109109202", "tract_name": "1092.02", "tags": {"building": "yes"}}}, {"type": "Feature", "geometry": {"type": "Polygon", "coordinates": [[[-97.1584381, 35.6690773], [-97.1582838, 35.6690786], [-97.1582849, 35.6691636], [-97.1583186, 35.6691633], [-97.1583193, 35.6692243], [-97.1583622, 35.6692239], [-97.1583628, 35.6692707], [-97.1584406, 35.6692701], [-97.1584381, 35.6690773]]]}, "properties": {"osm_id": 1426270911, "building": "yes", "name": "", "height": null, "height_m": null, "levels": null, "tract_id": "40109109202", "tract_name": "1092.02", "tags": {"building": "yes"}}}, {"type": "Feature", "geometry": {"type": "Polygon", "coordinates": [[[-97.1601753, 35.6703938], [-97.1600747, 35.6703952], [-97.1600773, 35.6705237], [-97.1601779, 35.6705224], [-97.1601753, 35.6703938]]]}, "properties": {"osm_id": 1426270912, "building": "yes", "name": "", "height": null, "height_m": null, "levels": null, "tract_id": "40109109202", "tract_name": "1092.02", "tags": {"building": "yes"}}}, {"type": "Feature", "geometry": {"type": "Polygon", "coordinates": [[[-97.1601329, 35.6728196], [-97.1599586, 35.6728417], [-97.1599915, 35.6730128], [-97.1601658, 35.6729907], [-97.1601329, 35.6728196]]]}, "properties": {"osm_id": 1426270913, "building": "yes", "name": "", "height": null, "height_m": null, "levels": null, "tract_id": "40109109202", "tract_name": "1092.02", "tags": {"building": "yes"}}}, {"type": "Feature", "geometry": {"type": "Polygon", "coordinates": [[[-97.1601993, 35.6680361], [-97.1602521, 35.6680537], [-97.1603418, 35.6678767], [-97.1602891, 35.6678591], [-97.1601993, 35.6680361]]]}, "properties": {"osm_id": 1426270914, "building": "yes", "name": "", "height": null, "height_m": null, "levels": null, "tract_id": "40109109202", "tract_name": "1092.02", "tags": {"building": "yes"}}}, {"type": "Feature", "geometry": {"type": "Polygon", "coordinates": [[[-97.1582753, 35.6712597], [-97.1580956, 35.6712469], [-97.1580832, 35.6713618], [-97.158263, 35.6713746], [-97.1582753, 35.6712597]]]}, "properties": {"osm_id": 1426270915, "building": "yes", "name": "", "height": null, "height_m": null, "levels": null, "tract_id": "40109109202", "tract_name": "1092.02", "tags": {"building": "yes"}}}, {"type": "Feature", "geometry": {"type": "Polygon", "coordinates": [[[-97.1597366, 35.6559973], [-97.1597317, 35.655809], [-97.1595762, 35.6558117], [-97.1595782, 35.6558889], [-97.1596093, 35.6558884], [-97.1596122, 35.6559995], [-97.1597366, 35.6559973]]]}, "properties": {"osm_id": 1426276070, "building": "yes", "name": "", "height": null, "height_m": null, "levels": null, "tract_id": "40109109202", "tract_name": "1092.02", "tags": {"building": "yes"}}}, {"type": "Feature", "geometry": {"type": "Polygon", "coordinates": [[[-97.1603181, 35.6566199], [-97.1603196, 35.6567047], [-97.1604878, 35.6567027], [-97.1604866, 35.6566352], [-97.1604272, 35.6566359], [-97.1604269, 35.6566187], [-97.1603181, 35.6566199]]]}, "properties": {"osm_id": 1426276071, "building": "yes", "name": "", "height": null, "height_m": null, "levels": null, "tract_id": "40109109202", "tract_name": "1092.02", "tags": {"building": "yes"}}}, {"type": "Feature", "geometry": {"type": "Polygon", "coordinates": [[[-97.158243, 35.6532095], [-97.1583435, 35.6532213], [-97.1583544, 35.6531602], [-97.158394, 35.6531648], [-97.1584131, 35.6530574], [-97.158273, 35.653041], [-97.158243, 35.6532095]]]}, "properties": {"osm_id": 1426276072, "building": "yes", "name": "", "height": null, "height_m": null, "levels": null, "tract_id": "40109109202", "tract_name": "1092.02", "tags": {"building": "yes"}}}]}