{"type": "FeatureCollection", "features": [{"type": "Feature", "geometry": {"type": "Polygon", "coordinates": [[[-97.654348, 34.3831688], [-97.6541004, 34.3830728], [-97.6541701, 34.3829504], [-97.6544177, 34.3830464], [-97.654348, 34.3831688]]]}, "properties": {"osm_id": 185326830, "building": "yes", "name": "", "height": null, "height_m": null, "levels": null, "tract_id": "40137001000", "tract_name": "10", "tags": {"building": "yes"}}}, {"type": "Feature", "geometry": {"type": "Polygon", "coordinates": [[[-97.6497738, 34.4236961], [-97.6496385, 34.4236963], [-97.6496379, 34.4234699], [-97.6497732, 34.4234696], [-97.6497738, 34.4236961]]]}, "properties": {"osm_id": 1026611927, "building": "yes", "name": "Crossed Arrows Alpaca Farm & Fiber Mill", "height": null, "height_m": null, "levels": null, "tract_id": "40137001000", "tract_name": "10", "tags": {"addr:city": "Duncan", "addr:housenumber": "178740", "addr:postcode": "73533", "addr:state": "OK", "addr:street": "North 3000 Road", "building": "yes", "name": "Crossed Arrows Alpaca Farm & Fiber Mill"}}}, {"type": "Feature", "geometry": {"type": "Polygon", "coordinates": [[[-97.7179634, 34.4474353], [-97.7179634, 34.4473523], [-97.717844, 34.4473446], [-97.7178387, 34.4473081], [-97.7177032, 34.4473114], [-97.7177019, 34.4473435], [-97.7176053, 34.4473457], [-97.717608, 34.44738], [-97.7176616, 34.4473789], [-97.7177032, 34.4474275], [-97.7177005, 34.4474718], [-97.7178816, 34.4474707], [-97.7178816, 34.4474364], [-97.7179634, 34.4474353]]]}, "properties": {"osm_id": 1026628710, "building": "yes", "name": "Twisted Oaks Barn", "height": null, "height_m": null, "levels": null, "tract_id": "40137001000", "tract_name": "10", "tags": {"addr:city": "Duncan", "addr:housenumber": "296115", "addr:postcode": "73533", "addr:state": "OK", "addr:street": "Hwy 7", "amenity": "events_venue", "building": "yes", "name": "Twisted Oaks Barn", "website": "http://twistedoaksbarn.com/"}}}, {"type": "Feature", "geometry": {"type": "Polygon", "coordinates": [[[-97.6651255, 34.4497533], [-97.6652412, 34.4495524], [-97.6655513, 34.4496737], [-97.6654357, 34.4498747], [-97.6651255, 34.4497533]]]}, "properties": {"osm_id": 1230403006, "building": "yes", "name": "Family Dollar", "height": null, "height_m": null, "levels": null, "tract_id": "40137001000", "tract_name": "10", "tags": {"addr:housenumber": "1119", "addr:street": "East Main Street", "brand": "Family Dollar", "brand:wikidata": "Q5433101", "building": "yes", "name": "Family Dollar", "shop": "variety_store"}}}]}