{"type": "FeatureCollection", "features": [{"type": "Feature", "geometry": {"type": "Polygon", "coordinates": [[[-95.8695502, 35.9879203], [-95.8694118, 35.9878517], [-95.8694256, 35.9878388], [-95.8693832, 35.9878075], [-95.8694937, 35.987707], [-95.8693784, 35.9876242], [-95.8693118, 35.9876838], [-95.8693393, 35.9877046], [-95.8692958, 35.9877434], [-95.8692895, 35.9877386], [-95.8692936, 35.9877347], [-95.8691891, 35.9876585], [-95.8691058, 35.9877293], [-95.8693497, 35.9879098], [-95.8694673, 35.9879682], [-95.869474, 35.987958], [-95.8695093, 35.9879748], [-95.8695502, 35.9879203]]]}, "properties": {"osm_id": 739838605, "building": "yes", "name": "", "height": null, "height_m": null, "levels": null, "tract_id": "40143007656", "tract_name": "76.56", "tags": {"building": "yes"}}}, {"type": "Feature", "geometry": {"type": "Polygon", "coordinates": [[[-95.898296, 35.9796476], [-95.8981598, 35.9795817], [-95.8981788, 35.979556], [-95.8981669, 35.9795502], [-95.8981981, 35.979508], [-95.8981896, 35.9795038], [-95.8982298, 35.9794495], [-95.8982459, 35.9794573], [-95.8982526, 35.9794482], [-95.8984338, 35.979536], [-95.8984178, 35.9795577], [-95.8984323, 35.9795647], [-95.8983906, 35.9796211], [-95.8983354, 35.9795944], [-95.898296, 35.9796476]]]}, "properties": {"osm_id": 840997947, "building": "yes", "name": "", "height": null, "height_m": null, "levels": null, "tract_id": "40143007656", "tract_name": "76.56", "tags": {"building": "yes"}}}, {"type": "Feature", "geometry": {"type": "Polygon", "coordinates": [[[-95.8981736, 35.97981], [-95.8979884, 35.9797231], [-95.8980718, 35.9796067], [-95.8982433, 35.9796872], [-95.8982197, 35.9797202], [-95.8982165, 35.9797187], [-95.8982023, 35.9797385], [-95.8981992, 35.979737], [-95.8981853, 35.9797564], [-95.8982053, 35.9797658], [-95.8981736, 35.97981]]]}, "properties": {"osm_id": 840997948, "building": "yes", "name": "", "height": null, "height_m": null, "levels": null, "tract_id": "40143007656", "tract_name": "76.56", "tags": {"building": "yes"}}}, {"type": "Feature", "geometry": {"type": "Polygon", "coordinates": [[[-95.8980357, 35.9799707], [-95.8978479, 35.9798806], [-95.897924, 35.9797768], [-95.8980544, 35.9798394], [-95.8980701, 35.9798181], [-95.8981399, 35.9798516], [-95.898123, 35.9798747], [-95.8981287, 35.9798775], [-95.8980982, 35.9799191], [-95.89809, 35.9799152], [-95.8980683, 35.9799449], [-95.8980581, 35.97994], [-95.8980357, 35.9799707]]]}, "properties": {"osm_id": 840997949, "building": "yes", "name": "", "height": null, "height_m": null, "levels": null, "tract_id": "40143007656", "tract_name": "76.56", "tags": {"building": "yes"}}}, {"type": "Feature", "geometry": {"type": "Polygon", "coordinates": [[[-95.8978881, 35.9801048], [-95.8977273, 35.980026], [-95.8978173, 35.9799057], [-95.8980234, 35.9800067], [-95.8980008, 35.9800369], [-95.8980093, 35.9800411], [-95.8979743, 35.9800877], [-95.8979206, 35.9800614], [-95.8978881, 35.9801048]]]}, "properties": {"osm_id": 840997950, "building": "yes", "name": "", "height": null, "height_m": null, "levels": null, "tract_id": "40143007656", "tract_name": "76.56", "tags": {"building": "yes"}}}, {"type": "Feature", "geometry": {"type": "Polygon", "coordinates": [[[-95.897783, 35.9802419], [-95.8976321, 35.980171], [-95.8976793, 35.9801052], [-95.8976741, 35.9801028], [-95.8977119, 35.9800501], [-95.8979267, 35.9801511], [-95.8978859, 35.980208], [-95.8978783, 35.9802044], [-95.8978611, 35.9802283], [-95.8978286, 35.9802131], [-95.8978177, 35.9802282], [-95.8977991, 35.9802194], [-95.897783, 35.9802419]]]}, "properties": {"osm_id": 840997951, "building": "yes", "name": "", "height": null, "height_m": null, "levels": null, "tract_id": "40143007656", "tract_name": "76.56", "tags": {"building": "yes"}}}, {"type": "Feature", "geometry": {"type": "Polygon", "coordinates": [[[-95.8977224, 35.9803989], [-95.8975786, 35.9803306], [-95.8976031, 35.9802968], [-95.8975834, 35.9802874], [-95.8976087, 35.9802526], [-95.8976284, 35.980262], [-95.8976586, 35.9802203], [-95.8978213, 35.9802976], [-95.8977816, 35.9803523], [-95.8977757, 35.9803495], [-95.8977688, 35.9803589], [-95.8977558, 35.9803528], [-95.8977224, 35.9803989]]]}, "properties": {"osm_id": 840997952, "building": "yes", "name": "", "height": null, "height_m": null, "levels": null, "tract_id": "40143007656", "tract_name": "76.56", "tags": {"building": "yes"}}}, {"type": "Feature", "geometry": {"type": "Polygon", "coordinates": [[[-95.8903833, 35.97811], [-95.8903727, 35.9778818], [-95.889018, 35.9778818], [-95.8890109, 35.97811], [-95.8903833, 35.97811]]]}, "properties": {"osm_id": 978649484, "building": "industrial", "name": "", "height": null, "height_m": null, "levels": null, "tract_id": "40143007656", "tract_name": "76.56", "tags": {"addr:city": "Bixby", "addr:country": "US", "addr:postcode": "74008", "addr:state": "OK", "addr:street": "South Memorial Drive East", "building": "industrial"}}}, {"type": "Feature", "geometry": {"type": "Polygon", "coordinates": [[[-95.8903744, 35.9776996], [-95.8903691, 35.9775417], [-95.8890198, 35.9775389], [-95.8890198, 35.9777053], [-95.8903744, 35.9776996]]]}, "properties": {"osm_id": 978649485, "building": "industrial", "name": "", "height": null, "height_m": null, "levels": null, "tract_id": "40143007656", "tract_name": "76.56", "tags": {"addr:city": "Bixby", "addr:country": "US", "addr:postcode": "74008", "addr:state": "OK", "addr:street": "South Memorial Drive East", "building": "industrial"}}}, {"type": "Feature", "geometry": {"type": "Polygon", "coordinates": [[[-95.8918603, 35.978153], [-95.8918568, 35.9779378], [-95.8905748, 35.9779349], [-95.8905784, 35.9781545], [-95.8918603, 35.978153]]]}, "properties": {"osm_id": 978649486, "building": "industrial", "name": "", "height": null, "height_m": null, "levels": null, "tract_id": "40143007656", "tract_name": "76.56", "tags": {"addr:city": "Bixby", "addr:country": "US", "addr:postcode": "74008", "addr:state": "OK", "addr:street": "South Memorial Drive East", "building": "industrial"}}}, {"type": "Feature", "geometry": {"type": "Polygon", "coordinates": [[[-95.8918621, 35.9777484], [-95.891855, 35.9775331], [-95.8905695, 35.9775288], [-95.8905695, 35.9777498], [-95.8918621, 35.9777484]]]}, "properties": {"osm_id": 978649487, "building": "industrial", "name": "", "height": null, "height_m": null, "levels": null, "tract_id": "40143007656", "tract_name": "76.56", "tags": {"addr:city": "Bixby", "addr:country": "US", "addr:postcode": "74008", "addr:state": "OK", "addr:street": "South Memorial Drive East", "building": "industrial"}}}, {"type": "Feature", "geometry": {"type": "Polygon", "coordinates": [[[-95.8861188, 35.9876015], [-95.8855665, 35.9875997], [-95.8855679, 35.9873222], [-95.8857753, 35.9873228], [-95.885775, 35.9873905], [-95.8858563, 35.9873907], [-95.8858561, 35.9874308], [-95.8861196, 35.9874317], [-95.8861188, 35.9876015]]]}, "properties": {"osm_id": 988227876, "building": "warehouse", "name": "Floorhaus Design Center", "height": null, "height_m": null, "levels": null, "tract_id": "40143007656", "tract_name": "76.56", "tags": {"addr:city": "Bixby", "addr:country": "US", "addr:housenumber": "12105", "addr:postcode": "74008", "addr:state": "OK", "addr:street": "South Memorial Drive East", "building": "warehouse", "name": "Floorhaus Design Center", "shop": "flooring", "source": "INCOG"}}}, {"type": "Feature", "geometry": {"type": "Polygon", "coordinates": [[[-95.8860684, 35.9872214], [-95.8857079, 35.9872207], [-95.8857078, 35.9872483], [-95.8853656, 35.9872475], [-95.8853661, 35.9870792], [-95.8853739, 35.9870792], [-95.885374, 35.9870182], [-95.8854303, 35.9870183], [-95.8854301, 35.9870792], [-95.8856922, 35.9870796], [-95.8856923, 35.9870628], [-95.8857129, 35.9870629], [-95.885714, 35.9866658], [-95.8860722, 35.9866664], [-95.8860718, 35.9868024], [-95.8860986, 35.9868024], [-95.8860984, 35.9868777], [-95.8860696, 35.9868777], [-95.8860684, 35.9872214]]]}, "properties": {"osm_id": 988227877, "building": "retail", "name": "North Carolina Furniture Mart", "height": null, "height_m": null, "levels": null, "tract_id": "40143007656", "tract_name": "76.56", "tags": {"addr:city": "Bixby", "addr:country": "US", "addr:housenumber": "12109", "addr:postcode": "74008", "addr:state": "OK", "addr:street": "South Memorial Drive East", "building": "retail", "name": "North Carolina Furniture Mart", "shop": "furniture", "source": "INCOG"}}}, {"type": "Feature", "geometry": {"type": "Polygon", "coordinates": [[[-95.8862245, 35.9865873], [-95.8858145, 35.9865848], [-95.8858149, 35.9865408], [-95.8862249, 35.9865433], [-95.8862245, 35.9865873]]]}, "properties": {"osm_id": 988227878, "building": "yes", "name": "", "height": null, "height_m": null, "levels": null, "tract_id": "40143007656", "tract_name": "76.56", "tags": {"building": "yes"}}}, {"type": "Feature", "geometry": {"type": "Polygon", "coordinates": [[[-95.8862225, 35.9865014], [-95.8861531, 35.986501], [-95.8861559, 35.9861725], [-95.8862251, 35.9861728], [-95.8862225, 35.9865014]]]}, "properties": {"osm_id": 988227879, "building": "yes", "name": "", "height": null, "height_m": null, "levels": null, "tract_id": "40143007656", "tract_name": "76.56", "tags": {"building": "yes"}}}, {"type": "Feature", "geometry": {"type": "Polygon", "coordinates": [[[-95.8860734, 35.9864886], [-95.8859342, 35.9864877], [-95.8859372, 35.9861715], [-95.8860764, 35.9861724], [-95.8860734, 35.9864886]]]}, "properties": {"osm_id": 988227880, "building": "yes", "name": "", "height": null, "height_m": null, "levels": null, "tract_id": "40143007656", "tract_name": "76.56", "tags": {"building": "yes"}}}, {"type": "Feature", "geometry": {"type": "Polygon", "coordinates": [[[-95.8858704, 35.9865028], [-95.8858161, 35.9865026], [-95.8858184, 35.9861457], [-95.8858728, 35.986146], [-95.8858704, 35.9865028]]]}, "properties": {"osm_id": 988227881, "building": "yes", "name": "", "height": null, "height_m": null, "levels": null, "tract_id": "40143007656", "tract_name": "76.56", "tags": {"building": "yes"}}}, {"type": "Feature", "geometry": {"type": "Polygon", "coordinates": [[[-95.8870391, 35.9878811], [-95.8870387, 35.9879863], [-95.8868274, 35.9879858], [-95.8868279, 35.9878805], [-95.8870391, 35.9878811]]]}, "properties": {"osm_id": 1079155157, "building": "yes", "name": "Pizza Hut", "height": null, "height_m": null, "levels": null, "tract_id": "40143007656", "tract_name": "76.56", "tags": {"addr:city": "Bixby", "addr:country": "US", "addr:housenumber": "12102", "addr:postcode": "74008", "addr:state": "OK", "addr:street": "South Memorial Drive East", "amenity": "restaurant", "brand": "Pizza Hut", "brand:wikidata": "Q191615", "building": "yes", "cuisine": "pizza", "name": "Pizza Hut", "phone": "+1 918-369-2071", "website": "https://locations.pizzahut.com/ok/bixby/12102-s-memorial-dr"}}}, {"type": "Feature", "geometry": {"type": "Polygon", "coordinates": [[[-95.8860715, 35.9879825], [-95.8857784, 35.9879825], [-95.8857784, 35.9878849], [-95.8860715, 35.9878849], [-95.8860715, 35.9879825]]]}, "properties": {"osm_id": 1079155158, "building": "yes", "name": "McDonald's", "height": null, "height_m": null, "levels": null, "tract_id": "40143007656", "tract_name": "76.56", "tags": {"addr:city": "Bixby", "addr:country": "US", "addr:housenumber": "12101", "addr:postcode": "74008", "addr:state": "OK", "addr:street": "South Memorial Drive East", "amenity": "fast_food", "brand": "McDonald's", "brand:wikidata": "Q38076", "building": "yes", "cuisine": "burger", "drive_through": "yes", "internet_access": "wlan", "name": "McDonald's", "opening_hours": "Mo-Fr 05:00-23:00; Sa-Su 05:30-23:00", "phone": "+1 918-369-4411", "source": "INCOG", "takeaway": "yes", "website": "https://www.mcdonalds.com/us/en-us/location/18380.html"}}}, {"type": "Feature", "geometry": {"type": "Polygon", "coordinates": [[[-95.8871019, 35.9753951], [-95.8871, 35.9751905], [-95.886993, 35.9751911], [-95.8869949, 35.9753957], [-95.8871019, 35.9753951]]]}, "properties": {"osm_id": 1211757561, "building": "garages", "name": "Bixby Motorcycle Club", "height": null, "height_m": null, "levels": null, "tract_id": "40143007656", "tract_name": "76.56", "tags": {"addr:city": "Bixby", "addr:country": "US", "addr:housenumber": "12950", "addr:postcode": "74008", "addr:state": "OK", "addr:street": "South Memorial Drive East", "building": "garages", "name": "Bixby Motorcycle Club", "shop": "tyres", "source": "INCOG"}}}, {"type": "Feature", "geometry": {"type": "Polygon", "coordinates": [[[-95.8870838, 35.9748151], [-95.887086, 35.9746726], [-95.8869915, 35.9746716], [-95.8869906, 35.9747354], [-95.8869585, 35.974735], [-95.8869573, 35.9748138], [-95.8870838, 35.9748151]]]}, "properties": {"osm_id": 1211757562, "building": "detached", "name": "Dental Arts of Bixby", "height": null, "height_m": null, "levels": null, "tract_id": "40143007656", "tract_name": "76.56", "tags": {"addr:city": "Bixby", "addr:country": "US", "addr:housenumber": "13000", "addr:postcode": "74008", "addr:state": "OK", "addr:street": "South Memorial Drive East", "amenity": "dentist", "building": "detached", "healthcare": "dentist", "name": "Dental Arts of Bixby", "opening_hours": "Mo-Fr 08:00-17:00", "operator": "Doctor Soren Michaelsen", "phone": "+1 918 369 1202", "source": "INCOG", "website": "https://www.dentalartsofok.com/family-dentist-bixby-ok"}}}, {"type": "Feature", "geometry": {"type": "Polygon", "coordinates": [[[-95.8888496, 35.9775888], [-95.8876587, 35.9775853], [-95.8876579, 35.9777532], [-95.8888488, 35.9777567], [-95.8888496, 35.9775888]]]}, "properties": {"osm_id": 1235026386, "building": "industrial", "name": "", "height": null, "height_m": null, "levels": null, "tract_id": "40143007656", "tract_name": "76.56", "tags": {"addr:city": "Bixby", "addr:country": "US", "addr:postcode": "74008", "addr:state": "OK", "addr:street": "South Memorial Drive East", "building": "industrial", "source": "microsoft/BuildingFootprints"}}}, {"type": "Feature", "geometry": {"type": "Polygon", "coordinates": [[[-95.8876601, 35.978112], [-95.8888832, 35.9781151], [-95.8888839, 35.9779444], [-95.8876608, 35.9779414], [-95.8876601, 35.978112]]]}, "properties": {"osm_id": 1235026387, "building": "industrial", "name": "", "height": null, "height_m": null, "levels": null, "tract_id": "40143007656", "tract_name": "76.56", "tags": {"addr:city": "Bixby", "addr:country": "US", "addr:postcode": "74008", "addr:state": "OK", "addr:street": "South Memorial Drive East", "building": "industrial", "source": "microsoft/BuildingFootprints"}}}, {"type": "Feature", "geometry": {"type": "Polygon", "coordinates": [[[-95.8872097, 35.9781575], [-95.887426, 35.9781583], [-95.8874295, 35.9775332], [-95.8872132, 35.9775324], [-95.8872097, 35.9781575]]]}, "properties": {"osm_id": 1235026388, "building": "industrial", "name": "", "height": null, "height_m": null, "levels": null, "tract_id": "40143007656", "tract_name": "76.56", "tags": {"addr:city": "Bixby", "addr:country": "US", "addr:postcode": "74008", "addr:state": "OK", "addr:street": "South Memorial Drive East", "building": "industrial", "source": "microsoft/BuildingFootprints"}}}, {"type": "Feature", "geometry": {"type": "Polygon", "coordinates": [[[-95.892078, 35.977755], [-95.893352, 35.9777593], [-95.8933532, 35.9775368], [-95.8920791, 35.9775324], [-95.892078, 35.977755]]]}, "properties": {"osm_id": 1235026389, "building": "industrial", "name": "", "height": null, "height_m": null, "levels": null, "tract_id": "40143007656", "tract_name": "76.56", "tags": {"addr:city": "Bixby", "addr:country": "US", "addr:postcode": "74008", "addr:state": "OK", "addr:street": "South Memorial Drive East", "building": "industrial", "source": "microsoft/BuildingFootprints"}}}, {"type": "Feature", "geometry": {"type": "Polygon", "coordinates": [[[-95.8920793, 35.9779384], [-95.8920812, 35.978161], [-95.8933525, 35.9781539], [-95.8933506, 35.9779314], [-95.8920793, 35.9779384]]]}, "properties": {"osm_id": 1235026390, "building": "industrial", "name": "", "height": null, "height_m": null, "levels": null, "tract_id": "40143007656", "tract_name": "76.56", "tags": {"addr:city": "Bixby", "addr:country": "US", "addr:postcode": "74008", "addr:state": "OK", "addr:street": "South Memorial Drive East", "building": "industrial", "source": "microsoft/BuildingFootprints"}}}, {"type": "Feature", "geometry": {"type": "Polygon", "coordinates": [[[-95.8935646, 35.9777582], [-95.893992, 35.9777532], [-95.893988, 35.9775286], [-95.8935606, 35.9775336], [-95.8935646, 35.9777582]]]}, "properties": {"osm_id": 1235026391, "building": "industrial", "name": "", "height": null, "height_m": null, "levels": null, "tract_id": "40143007656", "tract_name": "76.56", "tags": {"addr:city": "Bixby", "addr:country": "US", "addr:postcode": "74008", "addr:state": "OK", "addr:street": "South Memorial Drive East", "building": "industrial", "source": "microsoft/BuildingFootprints"}}}, {"type": "Feature", "geometry": {"type": "Polygon", "coordinates": [[[-95.893564, 35.9781585], [-95.8939904, 35.9781575], [-95.8939896, 35.977935], [-95.8935631, 35.9779361], [-95.893564, 35.9781585]]]}, "properties": {"osm_id": 1235026392, "building": "industrial", "name": "", "height": null, "height_m": null, "levels": null, "tract_id": "40143007656", "tract_name": "76.56", "tags": {"addr:city": "Bixby", "addr:country": "US", "addr:housenumber": "12810", "addr:postcode": "74008", "addr:state": "OK", "addr:street": "South Memorial Drive East", "building": "industrial", "source": "microsoft/BuildingFootprints"}}}, {"type": "Feature", "geometry": {"type": "Polygon", "coordinates": [[[-95.8946368, 35.977527], [-95.8942121, 35.9775314], [-95.8942157, 35.9777571], [-95.8946404, 35.9777527], [-95.8946368, 35.977527]]]}, "properties": {"osm_id": 1235026393, "building": "industrial", "name": "", "height": null, "height_m": null, "levels": null, "tract_id": "40143007656", "tract_name": "76.56", "tags": {"addr:city": "Bixby", "addr:country": "US", "addr:postcode": "74008", "addr:state": "OK", "addr:street": "South Memorial Drive East", "building": "industrial", "source": "microsoft/BuildingFootprints"}}}, {"type": "Feature", "geometry": {"type": "Polygon", "coordinates": [[[-95.8942193, 35.9781575], [-95.8946431, 35.9781531], [-95.8946395, 35.9779296], [-95.8942158, 35.977934], [-95.8942193, 35.9781575]]]}, "properties": {"osm_id": 1235026394, "building": "industrial", "name": "", "height": null, "height_m": null, "levels": null, "tract_id": "40143007656", "tract_name": "76.56", "tags": {"addr:city": "Bixby", "addr:country": "US", "addr:postcode": "74008", "addr:state": "OK", "addr:street": "South Memorial Drive East", "building": "industrial", "source": "microsoft/BuildingFootprints"}}}, {"type": "Feature", "geometry": {"type": "Polygon", "coordinates": [[[-95.8948515, 35.978155], [-95.8952806, 35.9781511], [-95.8952774, 35.9779275], [-95.8948483, 35.9779315], [-95.8948515, 35.978155]]]}, "properties": {"osm_id": 1235026395, "building": "industrial", "name": "", "height": null, "height_m": null, "levels": null, "tract_id": "40143007656", "tract_name": "76.56", "tags": {"addr:city": "Bixby", "addr:country": "US", "addr:postcode": "74008", "addr:state": "OK", "addr:street": "South Memorial Drive East", "building": "industrial", "source": "microsoft/BuildingFootprints"}}}, {"type": "Feature", "geometry": {"type": "Polygon", "coordinates": [[[-95.8952765, 35.9775272], [-95.8948474, 35.9775294], [-95.8948492, 35.977753], [-95.8952783, 35.9777508], [-95.8952765, 35.9775272]]]}, "properties": {"osm_id": 1235026396, "building": "industrial", "name": "", "height": null, "height_m": null, "levels": null, "tract_id": "40143007656", "tract_name": "76.56", "tags": {"addr:city": "Bixby", "addr:country": "US", "addr:postcode": "74008", "addr:state": "OK", "addr:street": "South Memorial Drive East", "building": "industrial", "source": "microsoft/BuildingFootprints"}}}, {"type": "Feature", "geometry": {"type": "Polygon", "coordinates": [[[-95.8906206, 35.9793725], [-95.8903872, 35.9793713], [-95.890387, 35.979403], [-95.8903162, 35.9794026], [-95.8903165, 35.9793666], [-95.8900858, 35.9793654], [-95.8900855, 35.9794001], [-95.8900399, 35.9793999], [-95.890039, 35.9795193], [-95.8900792, 35.9795195], [-95.8900789, 35.9795577], [-95.8903107, 35.9795589], [-95.8903109, 35.979525], [-95.8903834, 35.9795254], [-95.8903831, 35.9795636], [-95.8906164, 35.9795648], [-95.8906167, 35.9795266], [-95.8906612, 35.9795268], [-95.8906621, 35.9794131], [-95.8906203, 35.9794129], [-95.8906206, 35.9793725]]]}, "properties": {"osm_id": 1235026397, "building": "yes", "name": "", "height": null, "height_m": null, "levels": null, "tract_id": "40143007656", "tract_name": "76.56", "tags": {"building": "yes", "source": "microsoft/BuildingFootprints"}}}, {"type": "Feature", "geometry": {"type": "Polygon", "coordinates": [[[-95.8893851, 35.9793659], [-95.8893858, 35.9794115], [-95.8893493, 35.9794119], [-95.8893511, 35.9795182], [-95.8893913, 35.9795178], [-95.889392, 35.9795612], [-95.8895717, 35.9795593], [-95.889571, 35.9795202], [-95.8897051, 35.9795188], [-95.8897057, 35.9795535], [-95.8898854, 35.9795516], [-95.8898847, 35.9795082], [-95.8899265, 35.9795077], [-95.8899246, 35.9793927], [-95.8898801, 35.9793932], [-95.8898795, 35.979355], [-95.8896961, 35.9793569], [-95.8896967, 35.979396], [-95.8895664, 35.9793974], [-95.8895658, 35.979364], [-95.8893851, 35.9793659]]]}, "properties": {"osm_id": 1235026398, "building": "yes", "name": "", "height": null, "height_m": null, "levels": null, "tract_id": "40143007656", "tract_name": "76.56", "tags": {"building": "yes", "source": "microsoft/BuildingFootprints"}}}, {"type": "Feature", "geometry": {"type": "Polygon", "coordinates": [[[-95.8892207, 35.9796057], [-95.8892127, 35.9795633], [-95.889252, 35.9795584], [-95.8892303, 35.9794439], [-95.8891842, 35.9794496], [-95.8891774, 35.9794135], [-95.8889483, 35.9794419], [-95.888956, 35.9794822], [-95.8888852, 35.979491], [-95.8888796, 35.9794613], [-95.8886527, 35.9794894], [-95.8886888, 35.9796803], [-95.888922, 35.9796514], [-95.8889148, 35.9796132], [-95.8889845, 35.9796046], [-95.8889901, 35.9796343], [-95.8892207, 35.9796057]]]}, "properties": {"osm_id": 1235026399, "building": "yes", "name": "", "height": null, "height_m": null, "levels": null, "tract_id": "40143007656", "tract_name": "76.56", "tags": {"building": "yes", "source": "microsoft/BuildingFootprints"}}}, {"type": "Feature", "geometry": {"type": "Polygon", "coordinates": [[[-95.8878857, 35.9801073], [-95.8878837, 35.9797318], [-95.8875779, 35.9797328], [-95.8875784, 35.9798131], [-95.8874604, 35.9798136], [-95.8874606, 35.9798613], [-95.8874901, 35.9798612], [-95.8874914, 35.9801086], [-95.8878857, 35.9801073]]]}, "properties": {"osm_id": 1235026400, "building": "yes", "name": "River Trail Animal Hospital", "height": null, "height_m": null, "levels": null, "tract_id": "40143007656", "tract_name": "76.56", "tags": {"addr:city": "Bixby", "addr:country": "US", "addr:housenumber": "12630", "addr:postcode": "74008", "addr:state": "OK", "addr:street": "South Memorial Drive East", "amenity": "veterinary", "building": "yes", "name": "River Trail Animal Hospital", "source": "microsoft/BuildingFootprints;INCOG"}}}, {"type": "Feature", "geometry": {"type": "Polygon", "coordinates": [[[-95.8878884, 35.9805098], [-95.8878909, 35.9803079], [-95.8878587, 35.9803077], [-95.887859, 35.9802773], [-95.8878, 35.9802768], [-95.8878004, 35.9802486], [-95.8875912, 35.9802469], [-95.8875905, 35.9803077], [-95.8874644, 35.9803067], [-95.8874649, 35.9802698], [-95.8874112, 35.9802694], [-95.8874108, 35.9803062], [-95.8873169, 35.9803055], [-95.887316, 35.9803793], [-95.8872972, 35.9803791], [-95.8872966, 35.9804312], [-95.887318, 35.9804314], [-95.8873171, 35.9805039], [-95.887411, 35.9805046], [-95.8874105, 35.9805493], [-95.8874856, 35.9805499], [-95.8874861, 35.9805087], [-95.887596, 35.9805096], [-95.8875955, 35.9805495], [-95.887684, 35.9805502], [-95.8876845, 35.9805081], [-95.8878884, 35.9805098]]]}, "properties": {"osm_id": 1235026401, "building": "yes", "name": "The Galley", "height": null, "height_m": null, "levels": null, "tract_id": "40143007656", "tract_name": "76.56", "tags": {"building": "yes", "name": "The Galley", "shop": "kitchen", "source": "microsoft/BuildingFootprints"}}}, {"type": "Feature", "geometry": {"type": "Polygon", "coordinates": [[[-95.8877025, 35.980608], [-95.8873324, 35.9806084], [-95.8873325, 35.9807104], [-95.8872106, 35.9807105], [-95.8872107, 35.9807604], [-95.8873299, 35.9807603], [-95.8873301, 35.9808645], [-95.8877029, 35.9808642], [-95.8877025, 35.980608]]]}, "properties": {"osm_id": 1235026402, "building": "yes", "name": "Utica Park Clinic", "height": null, "height_m": null, "levels": null, "tract_id": "40143007656", "tract_name": "76.56", "tags": {"addr:city": "Bixby", "addr:country": "US", "addr:postcode": "74008", "addr:state": "OK", "amenity": "clinic", "building": "yes", "healthcare": "clinic", "name": "Utica Park Clinic", "source": "microsoft/BuildingFootprints;INCOG"}}}, {"type": "Feature", "geometry": {"type": "Polygon", "coordinates": [[[-95.8877271, 35.9812629], [-95.8877279, 35.9810538], [-95.8873083, 35.9810526], [-95.8873075, 35.9812597], [-95.8874764, 35.9812601], [-95.8874763, 35.9812875], [-95.8875553, 35.9812877], [-95.8875554, 35.9812625], [-95.8877271, 35.9812629]]]}, "properties": {"osm_id": 1235026403, "building": "retail", "name": "", "height": null, "height_m": null, "levels": null, "tract_id": "40143007656", "tract_name": "76.56", "tags": {"addr:city": "Bixby", "addr:country": "US", "addr:housenumber": "12606", "addr:postcode": "74008", "addr:state": "OK", "addr:street": "South Memorial Drive East", "amenity": "childcare", "building": "retail", "source": "microsoft/BuildingFootprints;INCOG"}}}, {"type": "Feature", "geometry": {"type": "Polygon", "coordinates": [[[-95.8855536, 35.9811771], [-95.8855544, 35.9810524], [-95.8853076, 35.9810514], [-95.8853066, 35.9812065], [-95.8852852, 35.9812064], [-95.8852845, 35.9813171], [-95.8852148, 35.9813168], [-95.8852144, 35.9813711], [-95.8853941, 35.9813718], [-95.8853944, 35.9813305], [-95.8862259, 35.9813339], [-95.8862268, 35.9811733], [-95.8861464, 35.981173], [-95.8861472, 35.9810319], [-95.8859112, 35.9810309], [-95.8859103, 35.9811785], [-95.8855536, 35.9811771]]]}, "properties": {"osm_id": 1235026404, "building": "yes", "name": "", "height": null, "height_m": null, "levels": null, "tract_id": "40143007656", "tract_name": "76.56", "tags": {"building": "yes", "source": "microsoft/BuildingFootprints"}}}, {"type": "Feature", "geometry": {"type": "Polygon", "coordinates": [[[-95.8861095, 35.9819846], [-95.8861061, 35.9818739], [-95.885822, 35.9818796], [-95.8858253, 35.9819903], [-95.8861095, 35.9819846]]]}, "properties": {"osm_id": 1235026405, "building": "yes", "name": "Mazzio's", "height": null, "height_m": null, "levels": null, "tract_id": "40143007656", "tract_name": "76.56", "tags": {"addr:city": "Bixby", "addr:country": "US", "addr:housenumber": "12505", "addr:postcode": "74008", "addr:state": "OK", "addr:street": "South Memorial Drive East", "amenity": "restaurant", "brand": "Mazzio's", "brand:wikidata": "Q3853292", "building": "yes", "cuisine": "pizza", "name": "Mazzio's", "source": "microsoft/BuildingFootprints;INCOG"}}}, {"type": "Feature", "geometry": {"type": "Polygon", "coordinates": [[[-95.8848246, 35.9811785], [-95.8849801, 35.9811804], [-95.8849779, 35.9813029], [-95.885128, 35.9813047], [-95.8851322, 35.9810746], [-95.8848265, 35.981071], [-95.8848246, 35.9811785]]]}, "properties": {"osm_id": 1235026406, "building": "yes", "name": "", "height": null, "height_m": null, "levels": null, "tract_id": "40143007656", "tract_name": "76.56", "tags": {"building": "yes", "source": "microsoft/BuildingFootprints"}}}, {"type": "Feature", "geometry": {"type": "Polygon", "coordinates": [[[-95.8886287, 35.9799956], [-95.8885055, 35.9800107], [-95.8885126, 35.9800489], [-95.8884456, 35.9800571], [-95.8884674, 35.9801738], [-95.8885424, 35.9801646], [-95.8885486, 35.9801978], [-95.8886744, 35.9801824], [-95.888667, 35.9801428], [-95.8888165, 35.9801245], [-95.8888219, 35.9801534], [-95.8889477, 35.980138], [-95.8889403, 35.9800984], [-95.889007, 35.9800902], [-95.8889859, 35.9799778], [-95.8889099, 35.9799871], [-95.8889031, 35.9799511], [-95.8887799, 35.9799662], [-95.8887869, 35.9800036], [-95.8886626, 35.9800189], [-95.8886635, 35.9800239], [-95.8886347, 35.9800274], [-95.8886287, 35.9799956]]]}, "properties": {"osm_id": 1235026407, "building": "yes", "name": "", "height": null, "height_m": null, "levels": null, "tract_id": "40143007656", "tract_name": "76.56", "tags": {"building": "yes", "source": "microsoft/BuildingFootprints"}}}, {"type": "Feature", "geometry": {"type": "Polygon", "coordinates": [[[-95.8884033, 35.980184], [-95.8883417, 35.9801855], [-95.8883471, 35.9803365], [-95.8884088, 35.9803351], [-95.8884033, 35.980184]]]}, "properties": {"osm_id": 1235026408, "building": "yes", "name": "", "height": null, "height_m": null, "levels": null, "tract_id": "40143007656", "tract_name": "76.56", "tags": {"building": "yes", "source": "microsoft/BuildingFootprints"}}}, {"type": "Feature", "geometry": {"type": "Polygon", "coordinates": [[[-95.8882637, 35.9805352], [-95.8882562, 35.980298], [-95.8881784, 35.9802996], [-95.888186, 35.9805368], [-95.8882637, 35.9805352]]]}, "properties": {"osm_id": 1235026409, "building": "yes", "name": "", "height": null, "height_m": null, "levels": null, "tract_id": "40143007656", "tract_name": "76.56", "tags": {"building": "yes", "source": "microsoft/BuildingFootprints"}}}, {"type": "Feature", "geometry": {"type": "Polygon", "coordinates": [[[-95.8882451, 35.980797], [-95.8881673, 35.9807982], [-95.8881733, 35.9810369], [-95.8882511, 35.9810356], [-95.8882451, 35.980797]]]}, "properties": {"osm_id": 1235026410, "building": "yes", "name": "", "height": null, "height_m": null, "levels": null, "tract_id": "40143007656", "tract_name": "76.56", "tags": {"building": "yes", "source": "microsoft/BuildingFootprints"}}}, {"type": "Feature", "geometry": {"type": "Polygon", "coordinates": [[[-95.8884723, 35.980745], [-95.8885274, 35.9807461], [-95.8885264, 35.9807765], [-95.8886498, 35.9807789], [-95.8886507, 35.9807486], [-95.8887043, 35.9807497], [-95.888707, 35.9806629], [-95.8886626, 35.980662], [-95.8886651, 35.9805817], [-95.8887068, 35.9805826], [-95.88871, 35.9804771], [-95.8886645, 35.9804761], [-95.888667, 35.9803929], [-95.8887099, 35.9803938], [-95.8887126, 35.9803078], [-95.8886563, 35.9803067], [-95.888657, 35.980282], [-95.8885337, 35.9802796], [-95.8885329, 35.9803078], [-95.8884793, 35.9803067], [-95.8884767, 35.9803913], [-95.8885222, 35.9803922], [-95.8885196, 35.9804768], [-95.8884752, 35.9804759], [-95.8884721, 35.9805778], [-95.8885191, 35.9805788], [-95.8885166, 35.9806612], [-95.8884749, 35.9806604], [-95.8884723, 35.980745]]]}, "properties": {"osm_id": 1235026411, "building": "yes", "name": "", "height": null, "height_m": null, "levels": null, "tract_id": "40143007656", "tract_name": "76.56", "tags": {"building": "yes", "source": "microsoft/BuildingFootprints"}}}, {"type": "Feature", "geometry": {"type": "Polygon", "coordinates": [[[-95.888588, 35.9809603], [-95.8886651, 35.9809662], [-95.8886621, 35.980992], [-95.8888056, 35.9810031], [-95.8888104, 35.9809622], [-95.8888663, 35.9809665], [-95.8888741, 35.9808998], [-95.8889698, 35.9809072], [-95.8889801, 35.980819], [-95.8890333, 35.9808231], [-95.8890381, 35.9807822], [-95.8889823, 35.9807779], [-95.8889882, 35.9807271], [-95.8888846, 35.9807191], [-95.8888667, 35.980871], [-95.888678, 35.9808565], [-95.8886795, 35.9808436], [-95.8886024, 35.9808377], [-95.888588, 35.9809603]]]}, "properties": {"osm_id": 1235026412, "building": "yes", "name": "", "height": null, "height_m": null, "levels": null, "tract_id": "40143007656", "tract_name": "76.56", "tags": {"building": "yes", "source": "microsoft/BuildingFootprints"}}}, {"type": "Feature", "geometry": {"type": "Polygon", "coordinates": [[[-95.8891386, 35.9807512], [-95.8891339, 35.9809386], [-95.8892411, 35.9809404], [-95.889242, 35.9809035], [-95.8893427, 35.9809052], [-95.8893419, 35.9809391], [-95.8894706, 35.9809412], [-95.8894715, 35.9809052], [-95.8895733, 35.9809068], [-95.8895725, 35.9809394], [-95.8896783, 35.9809411], [-95.8896794, 35.9808978], [-95.889713, 35.9808983], [-95.8897155, 35.980802], [-95.8896765, 35.9808014], [-95.8896777, 35.9807523], [-95.8895693, 35.9807505], [-95.8895683, 35.9807887], [-95.8894703, 35.9807871], [-95.8894712, 35.9807524], [-95.8893452, 35.9807503], [-95.8893443, 35.980785], [-95.8892397, 35.9807833], [-95.8892405, 35.9807529], [-95.8891386, 35.9807512]]]}, "properties": {"osm_id": 1235026413, "building": "yes", "name": "", "height": null, "height_m": null, "levels": null, "tract_id": "40143007656", "tract_name": "76.56", "tags": {"building": "yes", "source": "microsoft/BuildingFootprints"}}}, {"type": "Feature", "geometry": {"type": "Polygon", "coordinates": [[[-95.8900871, 35.9803299], [-95.8900786, 35.9802862], [-95.8901168, 35.9802814], [-95.8900946, 35.980167], [-95.8900501, 35.9801726], [-95.8900435, 35.9801387], [-95.8898158, 35.9801677], [-95.8898232, 35.9802058], [-95.889751, 35.9802149], [-95.8897455, 35.9801866], [-95.8895151, 35.9802158], [-95.8895229, 35.9802561], [-95.8894851, 35.9802609], [-95.8895024, 35.9803499], [-95.8895469, 35.9803442], [-95.8895585, 35.9804043], [-95.8897863, 35.9803754], [-95.8897792, 35.9803386], [-95.889851, 35.9803295], [-95.8898567, 35.9803591], [-95.8900871, 35.9803299]]]}, "properties": {"osm_id": 1235026414, "building": "yes", "name": "", "height": null, "height_m": null, "levels": null, "tract_id": "40143007656", "tract_name": "76.56", "tags": {"building": "yes", "source": "microsoft/BuildingFootprints"}}}, {"type": "Feature", "geometry": {"type": "Polygon", "coordinates": [[[-95.8900628, 35.9809244], [-95.8900641, 35.9807768], [-95.89002, 35.9807765], [-95.890021, 35.9806702], [-95.8900624, 35.9806704], [-95.8900637, 35.9805229], [-95.8900154, 35.9805226], [-95.8900157, 35.9804878], [-95.8898709, 35.980487], [-95.8898706, 35.9805217], [-95.8898238, 35.9805215], [-95.8898225, 35.980669], [-95.8898666, 35.9806693], [-95.8898656, 35.9807756], [-95.8898227, 35.9807754], [-95.8898214, 35.980923], [-95.8898697, 35.9809233], [-95.8898694, 35.9809602], [-95.8900142, 35.980961], [-95.8900145, 35.9809241], [-95.8900628, 35.9809244]]]}, "properties": {"osm_id": 1235026415, "building": "yes", "name": "", "height": null, "height_m": null, "levels": null, "tract_id": "40143007656", "tract_name": "76.56", "tags": {"building": "yes", "source": "microsoft/BuildingFootprints"}}}, {"type": "Feature", "geometry": {"type": "Polygon", "coordinates": [[[-95.8903939, 35.9810528], [-95.8906863, 35.9810514], [-95.8906858, 35.9809841], [-95.8903934, 35.9809856], [-95.8903939, 35.9810528]]]}, "properties": {"osm_id": 1235026416, "building": "yes", "name": "", "height": null, "height_m": null, "levels": null, "tract_id": "40143007656", "tract_name": "76.56", "tags": {"building": "yes", "source": "microsoft/BuildingFootprints"}}}, {"type": "Feature", "geometry": {"type": "Polygon", "coordinates": [[[-95.8893174, 35.9812237], [-95.889312, 35.9814124], [-95.889418, 35.9814144], [-95.889419, 35.9813784], [-95.8895221, 35.9813803], [-95.8895211, 35.981415], [-95.8896486, 35.9814174], [-95.8896497, 35.9813784], [-95.8897501, 35.9813803], [-95.8897492, 35.981412], [-95.8898511, 35.9814139], [-95.8898525, 35.9813662], [-95.8898873, 35.9813668], [-95.88989, 35.9812744], [-95.8898551, 35.9812738], [-95.8898564, 35.9812282], [-95.8897453, 35.9812261], [-95.8897442, 35.9812621], [-95.8896451, 35.9812603], [-95.889646, 35.9812264], [-95.8895213, 35.981224], [-95.8895202, 35.9812601], [-95.8894171, 35.9812581], [-95.8894181, 35.9812256], [-95.8893174, 35.9812237]]]}, "properties": {"osm_id": 1235026417, "building": "yes", "name": "", "height": null, "height_m": null, "levels": null, "tract_id": "40143007656", "tract_name": "76.56", "tags": {"building": "yes", "source": "microsoft/BuildingFootprints"}}}, {"type": "Feature", "geometry": {"type": "Polygon", "coordinates": [[[-95.8892316, 35.9798173], [-95.8892393, 35.979881], [-95.8895305, 35.9798582], [-95.8895228, 35.9797945], [-95.8892316, 35.9798173]]]}, "properties": {"osm_id": 1235026418, "building": "yes", "name": "", "height": null, "height_m": null, "levels": null, "tract_id": "40143007656", "tract_name": "76.56", "tags": {"building": "yes", "source": "microsoft/BuildingFootprints"}}}, {"type": "Feature", "geometry": {"type": "Polygon", "coordinates": [[[-95.8881739, 35.9798336], [-95.8882517, 35.9798326], [-95.8882471, 35.9795996], [-95.8881693, 35.9796006], [-95.8881739, 35.9798336]]]}, "properties": {"osm_id": 1235026419, "building": "yes", "name": "", "height": null, "height_m": null, "levels": null, "tract_id": "40143007656", "tract_name": "76.56", "tags": {"building": "yes", "source": "microsoft/BuildingFootprints"}}}, {"type": "Feature", "geometry": {"type": "Polygon", "coordinates": [[[-95.8891698, 35.9803109], [-95.8890178, 35.98033], [-95.8890123, 35.9803011], [-95.8888342, 35.9803235], [-95.8888405, 35.9803566], [-95.8887882, 35.9803632], [-95.8888141, 35.9804988], [-95.8888729, 35.9804915], [-95.8888774, 35.9805148], [-95.8890581, 35.9804921], [-95.8890501, 35.9804505], [-95.8891994, 35.9804317], [-95.8892055, 35.9804635], [-95.8893836, 35.9804412], [-95.889377, 35.9804065], [-95.889432, 35.9803996], [-95.8894064, 35.9802661], [-95.8893435, 35.9802739], [-95.8893386, 35.9802485], [-95.889162, 35.9802707], [-95.8891698, 35.9803109]]]}, "properties": {"osm_id": 1235026420, "building": "yes", "name": "", "height": null, "height_m": null, "levels": null, "tract_id": "40143007656", "tract_name": "76.56", "tags": {"building": "yes", "source": "microsoft/BuildingFootprints"}}}, {"type": "Feature", "geometry": {"type": "Polygon", "coordinates": [[[-95.8901165, 35.9812292], [-95.8901156, 35.9814158], [-95.8902202, 35.9814161], [-95.8902204, 35.9813814], [-95.8903223, 35.9813817], [-95.8903221, 35.9814186], [-95.8904509, 35.981419], [-95.8904511, 35.9813808], [-95.8905544, 35.9813811], [-95.8905543, 35.9814159], [-95.8906562, 35.9814162], [-95.8906564, 35.9813719], [-95.8906925, 35.981372], [-95.890693, 35.9812743], [-95.8906568, 35.9812742], [-95.8906571, 35.9812295], [-95.8905537, 35.9812292], [-95.8905535, 35.9812652], [-95.8904516, 35.9812649], [-95.8904518, 35.9812289], [-95.8903245, 35.9812285], [-95.8903243, 35.9812624], [-95.8902209, 35.981262], [-95.8902211, 35.9812295], [-95.8901165, 35.9812292]]]}, "properties": {"osm_id": 1235026421, "building": "yes", "name": "", "height": null, "height_m": null, "levels": null, "tract_id": "40143007656", "tract_name": "76.56", "tags": {"building": "yes", "source": "microsoft/BuildingFootprints"}}}, {"type": "Feature", "geometry": {"type": "Polygon", "coordinates": [[[-95.8910507, 35.9813006], [-95.8908132, 35.9813024], [-95.8908148, 35.9814336], [-95.8910522, 35.9814317], [-95.8910507, 35.9813006]]]}, "properties": {"osm_id": 1235026422, "building": "yes", "name": "", "height": null, "height_m": null, "levels": null, "tract_id": "40143007656", "tract_name": "76.56", "tags": {"building": "yes", "source": "microsoft/BuildingFootprints"}}}, {"type": "Feature", "geometry": {"type": "Polygon", "coordinates": [[[-95.8908095, 35.9812814], [-95.8910374, 35.9812836], [-95.8910394, 35.9811525], [-95.8908114, 35.9811502], [-95.8908095, 35.9812814]]]}, "properties": {"osm_id": 1235026423, "building": "yes", "name": "", "height": null, "height_m": null, "levels": null, "tract_id": "40143007656", "tract_name": "76.56", "tags": {"building": "yes", "source": "microsoft/BuildingFootprints"}}}, {"type": "Feature", "geometry": {"type": "Polygon", "coordinates": [[[-95.8910504, 35.9811277], [-95.8910493, 35.9810669], [-95.8910251, 35.9810672], [-95.8910238, 35.9809965], [-95.8908078, 35.9809992], [-95.8908103, 35.9811306], [-95.8910504, 35.9811277]]]}, "properties": {"osm_id": 1235026424, "building": "yes", "name": "", "height": null, "height_m": null, "levels": null, "tract_id": "40143007656", "tract_name": "76.56", "tags": {"building": "yes", "source": "microsoft/BuildingFootprints"}}}, {"type": "Feature", "geometry": {"type": "Polygon", "coordinates": [[[-95.8908084, 35.9809755], [-95.8910524, 35.9809784], [-95.8910547, 35.9808504], [-95.8908107, 35.9808475], [-95.8908084, 35.9809755]]]}, "properties": {"osm_id": 1235026425, "building": "yes", "name": "", "height": null, "height_m": null, "levels": null, "tract_id": "40143007656", "tract_name": "76.56", "tags": {"building": "yes", "source": "microsoft/BuildingFootprints"}}}, {"type": "Feature", "geometry": {"type": "Polygon", "coordinates": [[[-95.8908179, 35.9808217], [-95.891047, 35.9808252], [-95.8910498, 35.9807046], [-95.8908207, 35.9807011], [-95.8908179, 35.9808217]]]}, "properties": {"osm_id": 1235026426, "building": "yes", "name": "", "height": null, "height_m": null, "levels": null, "tract_id": "40143007656", "tract_name": "76.56", "tags": {"building": "yes", "source": "microsoft/BuildingFootprints"}}}, {"type": "Feature", "geometry": {"type": "Polygon", "coordinates": [[[-95.8910553, 35.9805494], [-95.8908113, 35.9805461], [-95.8908095, 35.9806307], [-95.890831, 35.980631], [-95.89083, 35.9806765], [-95.8910526, 35.9806795], [-95.8910553, 35.9805494]]]}, "properties": {"osm_id": 1235026427, "building": "yes", "name": "", "height": null, "height_m": null, "levels": null, "tract_id": "40143007656", "tract_name": "76.56", "tags": {"building": "yes", "source": "microsoft/BuildingFootprints"}}}, {"type": "Feature", "geometry": {"type": "Polygon", "coordinates": [[[-95.8908142, 35.9805276], [-95.8910422, 35.98053], [-95.8910443, 35.9803976], [-95.8908163, 35.9803952], [-95.8908142, 35.9805276]]]}, "properties": {"osm_id": 1235026428, "building": "yes", "name": "", "height": null, "height_m": null, "levels": null, "tract_id": "40143007656", "tract_name": "76.56", "tags": {"building": "yes", "source": "microsoft/BuildingFootprints"}}}, {"type": "Feature", "geometry": {"type": "Polygon", "coordinates": [[[-95.8910574, 35.9802475], [-95.8908118, 35.9802453], [-95.89081, 35.9803755], [-95.8910556, 35.9803777], [-95.8910574, 35.9802475]]]}, "properties": {"osm_id": 1235026429, "building": "yes", "name": "", "height": null, "height_m": null, "levels": null, "tract_id": "40143007656", "tract_name": "76.56", "tags": {"building": "yes", "source": "microsoft/BuildingFootprints"}}}, {"type": "Feature", "geometry": {"type": "Polygon", "coordinates": [[[-95.8908113, 35.9802234], [-95.8910538, 35.9802206], [-95.8910517, 35.9800991], [-95.8908092, 35.9801019], [-95.8908113, 35.9802234]]]}, "properties": {"osm_id": 1235026430, "building": "yes", "name": "", "height": null, "height_m": null, "levels": null, "tract_id": "40143007656", "tract_name": "76.56", "tags": {"building": "yes", "source": "microsoft/BuildingFootprints"}}}, {"type": "Feature", "geometry": {"type": "Polygon", "coordinates": [[[-95.8908117, 35.9800732], [-95.8910584, 35.9800749], [-95.8910598, 35.9799438], [-95.8908131, 35.9799421], [-95.8908117, 35.9800732]]]}, "properties": {"osm_id": 1235026431, "building": "yes", "name": "", "height": null, "height_m": null, "levels": null, "tract_id": "40143007656", "tract_name": "76.56", "tags": {"building": "yes", "source": "microsoft/BuildingFootprints"}}}, {"type": "Feature", "geometry": {"type": "Polygon", "coordinates": [[[-95.8910589, 35.9798587], [-95.8910332, 35.9798584], [-95.8910342, 35.9797933], [-95.8908159, 35.9797912], [-95.8908139, 35.9799214], [-95.891058, 35.9799238], [-95.8910589, 35.9798587]]]}, "properties": {"osm_id": 1235026432, "building": "yes", "name": "", "height": null, "height_m": null, "levels": null, "tract_id": "40143007656", "tract_name": "76.56", "tags": {"building": "yes", "source": "microsoft/BuildingFootprints"}}}, {"type": "Feature", "geometry": {"type": "Polygon", "coordinates": [[[-95.8908227, 35.9796121], [-95.8908203, 35.9797684], [-95.8910015, 35.9797702], [-95.8910026, 35.9797008], [-95.8909823, 35.9797006], [-95.8909836, 35.9796138], [-95.8908227, 35.9796121]]]}, "properties": {"osm_id": 1235026433, "building": "yes", "name": "", "height": null, "height_m": null, "levels": null, "tract_id": "40143007656", "tract_name": "76.56", "tags": {"building": "yes", "source": "microsoft/BuildingFootprints"}}}, {"type": "Feature", "geometry": {"type": "Polygon", "coordinates": [[[-95.8903863, 35.9798028], [-95.8906786, 35.9798042], [-95.8906791, 35.9797412], [-95.8903867, 35.9797398], [-95.8903863, 35.9798028]]]}, "properties": {"osm_id": 1235026434, "building": "yes", "name": "", "height": null, "height_m": null, "levels": null, "tract_id": "40143007656", "tract_name": "76.56", "tags": {"building": "yes", "source": "microsoft/BuildingFootprints"}}}, {"type": "Feature", "geometry": {"type": "Polygon", "coordinates": [[[-95.8911258, 35.9794862], [-95.8909948, 35.9793615], [-95.8908641, 35.9794515], [-95.8910242, 35.9796039], [-95.8911098, 35.979545], [-95.8910807, 35.9795173], [-95.8911258, 35.9794862]]]}, "properties": {"osm_id": 1235026435, "building": "yes", "name": "", "height": null, "height_m": null, "levels": null, "tract_id": "40143007656", "tract_name": "76.56", "tags": {"building": "yes", "source": "microsoft/BuildingFootprints"}}}, {"type": "Feature", "geometry": {"type": "Polygon", "coordinates": [[[-95.8946599, 35.9871485], [-95.8946845, 35.9861911], [-95.8946441, 35.9861013], [-95.894534, 35.9860995], [-95.8945335, 35.9861201], [-95.8944557, 35.9861188], [-95.8944437, 35.9865852], [-95.8939058, 35.9865761], [-95.8938197, 35.986385], [-95.8936303, 35.9864409], [-95.8936955, 35.9865856], [-95.8932477, 35.9865781], [-95.893232, 35.9871887], [-95.8934393, 35.9871922], [-95.893449, 35.9868183], [-95.8934328, 35.9867824], [-95.8934337, 35.9867494], [-95.8936675, 35.9867533], [-95.8937723, 35.9867224], [-95.8937674, 35.9869167], [-95.8938719, 35.9869185], [-95.893876, 35.9867579], [-95.8944551, 35.9867677], [-95.8944493, 35.9869955], [-95.894267, 35.9869924], [-95.8942633, 35.9871345], [-95.8943422, 35.9871358], [-95.8943515, 35.9871566], [-95.8945416, 35.9871598], [-95.8945476, 35.9871729], [-95.8945757, 35.9871734], [-95.8946599, 35.9871485]]]}, "properties": {"osm_id": 1235070880, "building": "yes", "name": "", "height": null, "height_m": null, "levels": null, "tract_id": "40143007656", "tract_name": "76.56", "tags": {"building": "yes", "source": "microsoft/BuildingFootprints"}}}, {"type": "Feature", "geometry": {"type": "Polygon", "coordinates": [[[-95.8912202, 35.9852944], [-95.8912208, 35.9854736], [-95.8916285, 35.9854727], [-95.8916286, 35.9855161], [-95.8923888, 35.9855145], [-95.892388, 35.9852919], [-95.8912202, 35.9852944]]]}, "properties": {"osm_id": 1235070881, "building": "yes", "name": "", "height": null, "height_m": null, "levels": null, "tract_id": "40143007656", "tract_name": "76.56", "tags": {"building": "yes", "source": "microsoft/BuildingFootprints"}}}, {"type": "Feature", "geometry": {"type": "Polygon", "coordinates": [[[-95.8900642, 35.9879893], [-95.8902305, 35.9879868], [-95.8902253, 35.9877525], [-95.890059, 35.9877549], [-95.8900642, 35.9879893]]]}, "properties": {"osm_id": 1235070882, "building": "yes", "name": "", "height": null, "height_m": null, "levels": null, "tract_id": "40143007656", "tract_name": "76.56", "tags": {"building": "yes", "source": "microsoft/BuildingFootprints"}}}, {"type": "Feature", "geometry": {"type": "Polygon", "coordinates": [[[-95.8907522, 35.9879914], [-95.8909452, 35.9879944], [-95.8909511, 35.9877484], [-95.890758, 35.9877454], [-95.8907522, 35.9879914]]]}, "properties": {"osm_id": 1235070883, "building": "yes", "name": "", "height": null, "height_m": null, "levels": null, "tract_id": "40143007656", "tract_name": "76.56", "tags": {"building": "yes", "source": "microsoft/BuildingFootprints"}}}, {"type": "Feature", "geometry": {"type": "Polygon", "coordinates": [[[-95.9002268, 35.9879664], [-95.9002276, 35.9877885], [-95.9000023, 35.9877879], [-95.9000015, 35.9879658], [-95.9002268, 35.9879664]]]}, "properties": {"osm_id": 1235072203, "building": "yes", "name": "", "height": null, "height_m": null, "levels": null, "tract_id": "40143007656", "tract_name": "76.56", "tags": {"building": "yes", "source": "microsoft/BuildingFootprints"}}}, {"type": "Feature", "geometry": {"type": "Polygon", "coordinates": [[[-95.9033359, 35.9879353], [-95.9033323, 35.9877921], [-95.9030696, 35.9877964], [-95.9030732, 35.9879396], [-95.9033359, 35.9879353]]]}, "properties": {"osm_id": 1235072204, "building": "yes", "name": "", "height": null, "height_m": null, "levels": null, "tract_id": "40143007656", "tract_name": "76.56", "tags": {"building": "yes", "source": "microsoft/BuildingFootprints"}}}, {"type": "Feature", "geometry": {"type": "Polygon", "coordinates": [[[-95.9034464, 35.9876118], [-95.9035939, 35.9876105], [-95.9035937, 35.9875975], [-95.9036956, 35.9875966], [-95.9036949, 35.9875424], [-95.9037244, 35.9875421], [-95.9037235, 35.9874695], [-95.9036179, 35.9874704], [-95.9036172, 35.9874183], [-95.9034439, 35.9874198], [-95.9034464, 35.9876118]]]}, "properties": {"osm_id": 1235072205, "building": "yes", "name": "", "height": null, "height_m": null, "levels": null, "tract_id": "40143007656", "tract_name": "76.56", "tags": {"building": "yes", "source": "microsoft/BuildingFootprints"}}}, {"type": "Feature", "geometry": {"type": "Polygon", "coordinates": [[[-95.9032092, 35.9876341], [-95.9033926, 35.9876331], [-95.9033908, 35.9874248], [-95.903254, 35.9874255], [-95.9032544, 35.9874721], [-95.9031676, 35.9874725], [-95.9031683, 35.9875507], [-95.9032085, 35.9875505], [-95.9032092, 35.9876341]]]}, "properties": {"osm_id": 1235072206, "building": "yes", "name": "", "height": null, "height_m": null, "levels": null, "tract_id": "40143007656", "tract_name": "76.56", "tags": {"building": "yes", "source": "microsoft/BuildingFootprints"}}}, {"type": "Feature", "geometry": {"type": "Polygon", "coordinates": [[[-95.9028447, 35.9876435], [-95.9030586, 35.9876532], [-95.9030712, 35.9874715], [-95.9029803, 35.9874673], [-95.902979, 35.9874856], [-95.9029175, 35.9874828], [-95.9029221, 35.987417], [-95.9028232, 35.9874125], [-95.9028167, 35.9875055], [-95.9028541, 35.9875072], [-95.9028447, 35.9876435]]]}, "properties": {"osm_id": 1235072207, "building": "yes", "name": "", "height": null, "height_m": null, "levels": null, "tract_id": "40143007656", "tract_name": "76.56", "tags": {"building": "yes", "source": "microsoft/BuildingFootprints"}}}, {"type": "Feature", "geometry": {"type": "Polygon", "coordinates": [[[-95.9024596, 35.9874768], [-95.9024426, 35.9874766], [-95.9023668, 35.9875063], [-95.9022912, 35.9873796], [-95.9021998, 35.9874153], [-95.9022576, 35.9875121], [-95.9022202, 35.9875267], [-95.9022195, 35.9875766], [-95.9022669, 35.987577], [-95.9022903, 35.9876163], [-95.9022896, 35.9876684], [-95.9023745, 35.9876692], [-95.9023862, 35.9876888], [-95.9024566, 35.9876895], [-95.9024596, 35.9874768]]]}, "properties": {"osm_id": 1235072208, "building": "yes", "name": "", "height": null, "height_m": null, "levels": null, "tract_id": "40143007656", "tract_name": "76.56", "tags": {"building": "yes", "source": "microsoft/BuildingFootprints"}}}, {"type": "Feature", "geometry": {"type": "Polygon", "coordinates": [[[-95.9027817, 35.9874801], [-95.9026102, 35.9874757], [-95.9026082, 35.9875287], [-95.9025234, 35.9875266], [-95.9025205, 35.9876025], [-95.9025811, 35.987604], [-95.9025783, 35.9876768], [-95.9027739, 35.9876817], [-95.9027817, 35.9874801]]]}, "properties": {"osm_id": 1235072209, "building": "yes", "name": "", "height": null, "height_m": null, "levels": null, "tract_id": "40143007656", "tract_name": "76.56", "tags": {"building": "yes", "source": "microsoft/BuildingFootprints"}}}, {"type": "Feature", "geometry": {"type": "Polygon", "coordinates": [[[-95.9011522, 35.9876708], [-95.9013319, 35.9876692], [-95.9013313, 35.9876258], [-95.9013796, 35.9876254], [-95.9013788, 35.9875668], [-95.901411, 35.9875666], [-95.9014098, 35.9874711], [-95.9011496, 35.9874733], [-95.9011522, 35.9876708]]]}, "properties": {"osm_id": 1235072210, "building": "yes", "name": "", "height": null, "height_m": null, "levels": null, "tract_id": "40143007656", "tract_name": "76.56", "tags": {"building": "yes", "source": "microsoft/BuildingFootprints"}}}, {"type": "Feature", "geometry": {"type": "Polygon", "coordinates": [[[-95.9008471, 35.9876079], [-95.9009098, 35.9876086], [-95.9009093, 35.9876411], [-95.9010155, 35.9876422], [-95.9010166, 35.987578], [-95.9010648, 35.9875785], [-95.9010663, 35.9874887], [-95.9010968, 35.987489], [-95.9010978, 35.9874269], [-95.9008994, 35.9874248], [-95.9008986, 35.9874704], [-95.9008494, 35.9874699], [-95.9008471, 35.9876079]]]}, "properties": {"osm_id": 1235072211, "building": "yes", "name": "", "height": null, "height_m": null, "levels": null, "tract_id": "40143007656", "tract_name": "76.56", "tags": {"building": "yes", "source": "microsoft/BuildingFootprints"}}}, {"type": "Feature", "geometry": {"type": "Polygon", "coordinates": [[[-95.9007921, 35.9876243], [-95.9007872, 35.9874291], [-95.9006843, 35.9874308], [-95.9006838, 35.9874112], [-95.9005561, 35.9874134], [-95.9005616, 35.9876281], [-95.9007921, 35.9876243]]]}, "properties": {"osm_id": 1235072212, "building": "yes", "name": "", "height": null, "height_m": null, "levels": null, "tract_id": "40143007656", "tract_name": "76.56", "tags": {"building": "yes", "source": "microsoft/BuildingFootprints"}}}, {"type": "Feature", "geometry": {"type": "Polygon", "coordinates": [[[-95.9038286, 35.9871633], [-95.9040754, 35.9871614], [-95.9040736, 35.9870052], [-95.9039932, 35.9870058], [-95.9039926, 35.9869581], [-95.9039014, 35.9869587], [-95.9039022, 35.9870238], [-95.9038271, 35.9870244], [-95.9038286, 35.9871633]]]}, "properties": {"osm_id": 1235072213, "building": "yes", "name": "", "height": null, "height_m": null, "levels": null, "tract_id": "40143007656", "tract_name": "76.56", "tags": {"building": "yes", "source": "microsoft/BuildingFootprints"}}}, {"type": "Feature", "geometry": {"type": "Polygon", "coordinates": [[[-95.9035869, 35.9870049], [-95.9035386, 35.9870048], [-95.9035387, 35.9869754], [-95.9034743, 35.9869752], [-95.9034741, 35.9870263], [-95.9033802, 35.987026], [-95.9033804, 35.9869901], [-95.9033231, 35.98699], [-95.9033222, 35.9871995], [-95.9034868, 35.9871999], [-95.903487, 35.9871674], [-95.9035862, 35.9871677], [-95.9035869, 35.9870049]]]}, "properties": {"osm_id": 1235072214, "building": "yes", "name": "", "height": null, "height_m": null, "levels": null, "tract_id": "40143007656", "tract_name": "76.56", "tags": {"building": "yes", "source": "microsoft/BuildingFootprints"}}}, {"type": "Feature", "geometry": {"type": "Polygon", "coordinates": [[[-95.9029095, 35.9869781], [-95.9028398, 35.9869792], [-95.9028408, 35.9870204], [-95.9027898, 35.9870212], [-95.9027884, 35.9869614], [-95.9026901, 35.986963], [-95.9026956, 35.987192], [-95.9027563, 35.987191], [-95.902756, 35.9871759], [-95.9029142, 35.9871734], [-95.9029095, 35.9869781]]]}, "properties": {"osm_id": 1235072215, "building": "yes", "name": "", "height": null, "height_m": null, "levels": null, "tract_id": "40143007656", "tract_name": "76.56", "tags": {"building": "yes", "source": "microsoft/BuildingFootprints"}}}, {"type": "Feature", "geometry": {"type": "Polygon", "coordinates": [[[-95.901927, 35.9870006], [-95.9019287, 35.9872272], [-95.9020011, 35.9872269], [-95.902001, 35.9872095], [-95.9020653, 35.9872092], [-95.9020655, 35.9872287], [-95.9021298, 35.9872284], [-95.9021282, 35.9869996], [-95.901927, 35.9870006]]]}, "properties": {"osm_id": 1235072216, "building": "yes", "name": "", "height": null, "height_m": null, "levels": null, "tract_id": "40143007656", "tract_name": "76.56", "tags": {"building": "yes", "source": "microsoft/BuildingFootprints"}}}, {"type": "Feature", "geometry": {"type": "Polygon", "coordinates": [[[-95.9016266, 35.9872044], [-95.9018304, 35.987202], [-95.9018267, 35.9869937], [-95.9016675, 35.9869955], [-95.9016685, 35.9870519], [-95.9015891, 35.9870529], [-95.9015903, 35.9871245], [-95.9016252, 35.9871241], [-95.9016266, 35.9872044]]]}, "properties": {"osm_id": 1235072217, "building": "yes", "name": "", "height": null, "height_m": null, "levels": null, "tract_id": "40143007656", "tract_name": "76.56", "tags": {"building": "yes", "source": "microsoft/BuildingFootprints"}}}, {"type": "Feature", "geometry": {"type": "Polygon", "coordinates": [[[-95.9005721, 35.9871424], [-95.9006203, 35.9871731], [-95.9006276, 35.9871735], [-95.900679, 35.9872062], [-95.9007868, 35.9872111], [-95.9008418, 35.9871546], [-95.9008433, 35.9871325], [-95.9007925, 35.9871302], [-95.900796, 35.9870804], [-95.9008319, 35.9870821], [-95.9008542, 35.9870592], [-95.9009063, 35.9870616], [-95.9009124, 35.9869729], [-95.9008447, 35.9869698], [-95.9008126, 35.9870027], [-95.9007582, 35.986968], [-95.9007271, 35.9869666], [-95.900702, 35.9869924], [-95.900643, 35.9869897], [-95.9006075, 35.9870261], [-95.9006555, 35.9870567], [-95.9005721, 35.9871424]]]}, "properties": {"osm_id": 1235072218, "building": "yes", "name": "", "height": null, "height_m": null, "levels": null, "tract_id": "40143007656", "tract_name": "76.56", "tags": {"building": "yes", "source": "microsoft/BuildingFootprints"}}}, {"type": "Feature", "geometry": {"type": "Polygon", "coordinates": [[[-95.9000307, 35.9871917], [-95.9000304, 35.9872807], [-95.9000894, 35.9872808], [-95.9000889, 35.9874045], [-95.9003025, 35.9874051], [-95.9003031, 35.9872618], [-95.9002799, 35.9872618], [-95.9002802, 35.9871923], [-95.9000307, 35.9871917]]]}, "properties": {"osm_id": 1235072219, "building": "yes", "name": "", "height": null, "height_m": null, "levels": null, "tract_id": "40143007656", "tract_name": "76.56", "tags": {"building": "yes", "source": "microsoft/BuildingFootprints"}}}, {"type": "Feature", "geometry": {"type": "Polygon", "coordinates": [[[-95.9002145, 35.9868475], [-95.9001325, 35.9868451], [-95.9001358, 35.9867693], [-95.9000331, 35.9867663], [-95.9000247, 35.9869534], [-95.9000712, 35.9869548], [-95.9000652, 35.9870906], [-95.9002597, 35.9870963], [-95.9002625, 35.9870356], [-95.900241, 35.9870349], [-95.9002434, 35.9869816], [-95.9002086, 35.9869805], [-95.9002145, 35.9868475]]]}, "properties": {"osm_id": 1235072220, "building": "yes", "name": "", "height": null, "height_m": null, "levels": null, "tract_id": "40143007656", "tract_name": "76.56", "tags": {"building": "yes", "source": "microsoft/BuildingFootprints"}}}, {"type": "Feature", "geometry": {"type": "Polygon", "coordinates": [[[-95.9002201, 35.986728], [-95.9004105, 35.986687], [-95.9003566, 35.9865228], [-95.9001662, 35.9865638], [-95.9002201, 35.986728]]]}, "properties": {"osm_id": 1235072221, "building": "yes", "name": "", "height": null, "height_m": null, "levels": null, "tract_id": "40143007656", "tract_name": "76.56", "tags": {"building": "yes", "source": "microsoft/BuildingFootprints"}}}, {"type": "Feature", "geometry": {"type": "Polygon", "coordinates": [[[-95.9010384, 35.986773], [-95.9010375, 35.9868989], [-95.9010178, 35.9868988], [-95.9010174, 35.9869574], [-95.9013258, 35.9869588], [-95.901327, 35.9867852], [-95.9012287, 35.9867847], [-95.9012291, 35.986737], [-95.9010886, 35.9867363], [-95.9010884, 35.9867732], [-95.9010384, 35.986773]]]}, "properties": {"osm_id": 1235072222, "building": "yes", "name": "", "height": null, "height_m": null, "levels": null, "tract_id": "40143007656", "tract_name": "76.56", "tags": {"building": "yes", "source": "microsoft/BuildingFootprints"}}}, {"type": "Feature", "geometry": {"type": "Polygon", "coordinates": [[[-95.9010487, 35.9866912], [-95.9013008, 35.9866894], [-95.9012997, 35.9865895], [-95.9013184, 35.9865894], [-95.9013174, 35.9865004], [-95.9010466, 35.9865024], [-95.9010487, 35.9866912]]]}, "properties": {"osm_id": 1235072223, "building": "yes", "name": "", "height": null, "height_m": null, "levels": null, "tract_id": "40143007656", "tract_name": "76.56", "tags": {"building": "yes", "source": "microsoft/BuildingFootprints"}}}, {"type": "Feature", "geometry": {"type": "Polygon", "coordinates": [[[-95.9018172, 35.9865453], [-95.9016741, 35.9865434], [-95.901674, 35.9865486], [-95.9015829, 35.9865474], [-95.9015782, 35.9867743], [-95.9016801, 35.9867757], [-95.9016805, 35.9867549], [-95.901845, 35.9867571], [-95.9018477, 35.9866304], [-95.9018155, 35.98663], [-95.9018172, 35.9865453]]]}, "properties": {"osm_id": 1235072224, "building": "yes", "name": "", "height": null, "height_m": null, "levels": null, "tract_id": "40143007656", "tract_name": "76.56", "tags": {"building": "yes", "source": "microsoft/BuildingFootprints"}}}, {"type": "Feature", "geometry": {"type": "Polygon", "coordinates": [[[-95.9018959, 35.9867461], [-95.9020102, 35.9867439], [-95.9020111, 35.9867733], [-95.90213, 35.986771], [-95.9021243, 35.9865789], [-95.9018911, 35.9865834], [-95.9018959, 35.9867461]]]}, "properties": {"osm_id": 1235072225, "building": "yes", "name": "", "height": null, "height_m": null, "levels": null, "tract_id": "40143007656", "tract_name": "76.56", "tags": {"building": "yes", "source": "microsoft/BuildingFootprints"}}}, {"type": "Feature", "geometry": {"type": "Polygon", "coordinates": [[[-95.9026932, 35.9865127], [-95.9025361, 35.9865094], [-95.90253, 35.9867003], [-95.9027327, 35.9867045], [-95.902738, 35.9865375], [-95.9026925, 35.9865366], [-95.9026932, 35.9865127]]]}, "properties": {"osm_id": 1235072226, "building": "yes", "name": "", "height": null, "height_m": null, "levels": null, "tract_id": "40143007656", "tract_name": "76.56", "tags": {"building": "yes", "source": "microsoft/BuildingFootprints"}}}, {"type": "Feature", "geometry": {"type": "Polygon", "coordinates": [[[-95.9002292, 35.9848057], [-95.9001097, 35.9848078], [-95.900109, 35.984784], [-95.9000194, 35.9847856], [-95.9000242, 35.9849591], [-95.9000644, 35.9849584], [-95.9000659, 35.9850105], [-95.9001099, 35.9850097], [-95.9001108, 35.985043], [-95.9002395, 35.9850407], [-95.9002385, 35.9850038], [-95.9003205, 35.9850023], [-95.900317, 35.9848779], [-95.9002312, 35.9848794], [-95.9002292, 35.9848057]]]}, "properties": {"osm_id": 1235072227, "building": "yes", "name": "", "height": null, "height_m": null, "levels": null, "tract_id": "40143007656", "tract_name": "76.56", "tags": {"building": "yes", "source": "microsoft/BuildingFootprints"}}}, {"type": "Feature", "geometry": {"type": "Polygon", "coordinates": [[[-95.9000366, 35.9850786], [-95.9000365, 35.9852508], [-95.9000757, 35.9852508], [-95.9000756, 35.9853138], [-95.900294, 35.9853138], [-95.900294, 35.9852313], [-95.9002726, 35.9852313], [-95.9002726, 35.9851966], [-95.9003209, 35.9851966], [-95.9003209, 35.9851315], [-95.9002002, 35.9851315], [-95.9002002, 35.9850786], [-95.9000366, 35.9850786]]]}, "properties": {"osm_id": 1235072228, "building": "yes", "name": "", "height": null, "height_m": null, "levels": null, "tract_id": "40143007656", "tract_name": "76.56", "tags": {"building": "yes", "source": "microsoft/BuildingFootprints"}}}, {"type": "Feature", "geometry": {"type": "Polygon", "coordinates": [[[-95.9000654, 35.985337], [-95.9000687, 35.9855627], [-95.9002645, 35.9855608], [-95.9002639, 35.9855182], [-95.9003712, 35.9855172], [-95.9003685, 35.9853341], [-95.9000654, 35.985337]]]}, "properties": {"osm_id": 1235072229, "building": "yes", "name": "", "height": null, "height_m": null, "levels": null, "tract_id": "40143007656", "tract_name": "76.56", "tags": {"building": "yes", "source": "microsoft/BuildingFootprints"}}}, {"type": "Feature", "geometry": {"type": "Polygon", "coordinates": [[[-95.9000337, 35.9861302], [-95.9001249, 35.9861302], [-95.9001249, 35.9860651], [-95.9002134, 35.9860651], [-95.9002134, 35.986013], [-95.9002778, 35.986013], [-95.9002778, 35.9859044], [-95.9002483, 35.9859044], [-95.9002483, 35.985861], [-95.9000632, 35.985861], [-95.9000632, 35.9859088], [-95.9000337, 35.9859088], [-95.9000337, 35.9861302]]]}, "properties": {"osm_id": 1235072230, "building": "yes", "name": "", "height": null, "height_m": null, "levels": null, "tract_id": "40143007656", "tract_name": "76.56", "tags": {"building": "yes", "source": "microsoft/BuildingFootprints"}}}, {"type": "Feature", "geometry": {"type": "Polygon", "coordinates": [[[-95.900385, 35.9857526], [-95.9003834, 35.9855942], [-95.9000814, 35.9855962], [-95.9000834, 35.9858032], [-95.9002782, 35.9858019], [-95.9002777, 35.9857533], [-95.900385, 35.9857526]]]}, "properties": {"osm_id": 1235072231, "building": "yes", "name": "", "height": null, "height_m": null, "levels": null, "tract_id": "40143007656", "tract_name": "76.56", "tags": {"building": "yes", "source": "microsoft/BuildingFootprints"}}}, {"type": "Feature", "geometry": {"type": "Polygon", "coordinates": [[[-95.9041668, 35.986141], [-95.9040671, 35.9860873], [-95.9040127, 35.9861536], [-95.9039673, 35.9861292], [-95.9039463, 35.9861548], [-95.9038979, 35.9861287], [-95.9038621, 35.9861724], [-95.9038695, 35.9861764], [-95.9038398, 35.9862125], [-95.9038863, 35.9862375], [-95.9038418, 35.9862917], [-95.9039404, 35.9863447], [-95.9039849, 35.9862906], [-95.9040258, 35.9863126], [-95.9041668, 35.986141]]]}, "properties": {"osm_id": 1235072402, "building": "yes", "name": "", "height": null, "height_m": null, "levels": null, "tract_id": "40143007656", "tract_name": "76.56", "tags": {"building": "yes", "source": "microsoft/BuildingFootprints"}}}, {"type": "Feature", "geometry": {"type": "Polygon", "coordinates": [[[-95.9031516, 35.9863112], [-95.9033607, 35.9863151], [-95.90336, 35.986338], [-95.9034324, 35.9863393], [-95.9034392, 35.9860986], [-95.9033615, 35.9860971], [-95.9033605, 35.9861306], [-95.9033026, 35.9861296], [-95.9033033, 35.9861047], [-95.9031575, 35.986102], [-95.9031516, 35.9863112]]]}, "properties": {"osm_id": 1235072403, "building": "yes", "name": "", "height": null, "height_m": null, "levels": null, "tract_id": "40143007656", "tract_name": "76.56", "tags": {"building": "yes", "source": "microsoft/BuildingFootprints"}}}, {"type": "Feature", "geometry": {"type": "Polygon", "coordinates": [[[-95.9028527, 35.9863203], [-95.9029359, 35.9863205], [-95.902936, 35.9863009], [-95.9030862, 35.9863013], [-95.9030868, 35.9861038], [-95.9029796, 35.9861035], [-95.9029795, 35.9861079], [-95.9028535, 35.9861076], [-95.9028527, 35.9863203]]]}, "properties": {"osm_id": 1235072404, "building": "yes", "name": "", "height": null, "height_m": null, "levels": null, "tract_id": "40143007656", "tract_name": "76.56", "tags": {"building": "yes", "source": "microsoft/BuildingFootprints"}}}, {"type": "Feature", "geometry": {"type": "Polygon", "coordinates": [[[-95.9025168, 35.9862698], [-95.902675, 35.9862723], [-95.9026742, 35.986306], [-95.9027627, 35.9863074], [-95.9027636, 35.9862684], [-95.9028038, 35.986269], [-95.9028075, 35.9861159], [-95.902645, 35.9861133], [-95.9026451, 35.9861068], [-95.9025208, 35.9861049], [-95.9025168, 35.9862698]]]}, "properties": {"osm_id": 1235072405, "building": "yes", "name": "", "height": null, "height_m": null, "levels": null, "tract_id": "40143007656", "tract_name": "76.56", "tags": {"building": "yes", "source": "microsoft/BuildingFootprints"}}}, {"type": "Feature", "geometry": {"type": "Polygon", "coordinates": [[[-95.9024525, 35.9861632], [-95.9024053, 35.9861626], [-95.9024065, 35.9860997], [-95.9023116, 35.9860985], [-95.9023111, 35.9861245], [-95.9021942, 35.986123], [-95.9021907, 35.9863], [-95.9023355, 35.9863019], [-95.9023349, 35.9863332], [-95.9024492, 35.9863346], [-95.9024525, 35.9861632]]]}, "properties": {"osm_id": 1235072406, "building": "yes", "name": "", "height": null, "height_m": null, "levels": null, "tract_id": "40143007656", "tract_name": "76.56", "tags": {"building": "yes", "source": "microsoft/BuildingFootprints"}}}, {"type": "Feature", "geometry": {"type": "Polygon", "coordinates": [[[-95.9018391, 35.9861099], [-95.9016299, 35.9861093], [-95.9016298, 35.9861388], [-95.9015815, 35.9861387], [-95.9015806, 35.9863458], [-95.9016788, 35.986346], [-95.901679, 35.9863126], [-95.9018382, 35.986313], [-95.9018391, 35.9861099]]]}, "properties": {"osm_id": 1235072407, "building": "yes", "name": "", "height": null, "height_m": null, "levels": null, "tract_id": "40143007656", "tract_name": "76.56", "tags": {"building": "yes", "source": "microsoft/BuildingFootprints"}}}, {"type": "Feature", "geometry": {"type": "Polygon", "coordinates": [[[-95.901316, 35.986108], [-95.9010864, 35.9861092], [-95.9010883, 35.986348], [-95.9012697, 35.986347], [-95.9012697, 35.9863527], [-95.9013663, 35.9863522], [-95.901365, 35.9861946], [-95.9013167, 35.9861948], [-95.901316, 35.986108]]]}, "properties": {"osm_id": 1235072408, "building": "yes", "name": "", "height": null, "height_m": null, "levels": null, "tract_id": "40143007656", "tract_name": "76.56", "tags": {"building": "yes", "source": "microsoft/BuildingFootprints"}}}, {"type": "Feature", "geometry": {"type": "Polygon", "coordinates": [[[-95.9007403, 35.9861365], [-95.9006544, 35.9861366], [-95.9006547, 35.9862156], [-95.9004632, 35.986216], [-95.9004634, 35.9862876], [-95.9004161, 35.9862877], [-95.9004165, 35.9863954], [-95.900741, 35.9863948], [-95.9007403, 35.9861365]]]}, "properties": {"osm_id": 1235072409, "building": "yes", "name": "", "height": null, "height_m": null, "levels": null, "tract_id": "40143007656", "tract_name": "76.56", "tags": {"building": "yes", "source": "microsoft/BuildingFootprints"}}}, {"type": "Feature", "geometry": {"type": "Polygon", "coordinates": [[[-95.9003008, 35.9862141], [-95.9001895, 35.9861395], [-95.9000472, 35.9862785], [-95.9001633, 35.9863563], [-95.9001449, 35.9863743], [-95.900191, 35.9864052], [-95.9002147, 35.9863821], [-95.9002576, 35.9864109], [-95.900313, 35.9863568], [-95.9002923, 35.986343], [-95.9004478, 35.9861911], [-95.9003746, 35.9861421], [-95.9003008, 35.9862141]]]}, "properties": {"osm_id": 1235072410, "building": "yes", "name": "", "height": null, "height_m": null, "levels": null, "tract_id": "40143007656", "tract_name": "76.56", "tags": {"building": "yes", "source": "microsoft/BuildingFootprints"}}}, {"type": "Feature", "geometry": {"type": "Polygon", "coordinates": [[[-95.9010591, 35.9858534], [-95.9010628, 35.9857471], [-95.9009744, 35.9857451], [-95.9009767, 35.985677], [-95.9008802, 35.9856748], [-95.9008779, 35.9857429], [-95.9007492, 35.98574], [-95.9007502, 35.9857109], [-95.9006591, 35.9857088], [-95.9006536, 35.985868], [-95.9008535, 35.9858726], [-95.9008532, 35.9858812], [-95.9008998, 35.9858823], [-95.9009007, 35.9858563], [-95.9009747, 35.985858], [-95.900975, 35.9858514], [-95.9010591, 35.9858534]]]}, "properties": {"osm_id": 1235072411, "building": "yes", "name": "", "height": null, "height_m": null, "levels": null, "tract_id": "40143007656", "tract_name": "76.56", "tags": {"building": "yes", "source": "microsoft/BuildingFootprints"}}}, {"type": "Feature", "geometry": {"type": "Polygon", "coordinates": [[[-95.9008648, 35.9853286], [-95.9008657, 35.9851493], [-95.900627, 35.9851485], [-95.9006259, 35.9853481], [-95.9006324, 35.9853482], [-95.9006319, 35.9854428], [-95.9007327, 35.9854432], [-95.9007333, 35.9853281], [-95.9008648, 35.9853286]]]}, "properties": {"osm_id": 1235072412, "building": "yes", "name": "", "height": null, "height_m": null, "levels": null, "tract_id": "40143007656", "tract_name": "76.56", "tags": {"building": "yes", "source": "microsoft/BuildingFootprints"}}}, {"type": "Feature", "geometry": {"type": "Polygon", "coordinates": [[[-95.9017649, 35.9851505], [-95.9017032, 35.9851509], [-95.9017036, 35.9851878], [-95.9016296, 35.9851883], [-95.9016293, 35.9851566], [-95.9015059, 35.9851575], [-95.901508, 35.9853615], [-95.9017038, 35.9853601], [-95.9017041, 35.985384], [-95.9017673, 35.9853836], [-95.9017649, 35.9851505]]]}, "properties": {"osm_id": 1235072413, "building": "yes", "name": "", "height": null, "height_m": null, "levels": null, "tract_id": "40143007656", "tract_name": "76.56", "tags": {"building": "yes", "source": "microsoft/BuildingFootprints"}}}, {"type": "Feature", "geometry": {"type": "Polygon", "coordinates": [[[-95.9024411, 35.9856743], [-95.9024452, 35.9858708], [-95.9026973, 35.9858674], [-95.9026932, 35.9856709], [-95.9024411, 35.9856743]]]}, "properties": {"osm_id": 1235072414, "building": "yes", "name": "", "height": null, "height_m": null, "levels": null, "tract_id": "40143007656", "tract_name": "76.56", "tags": {"building": "yes", "source": "microsoft/BuildingFootprints"}}}, {"type": "Feature", "geometry": {"type": "Polygon", "coordinates": [[[-95.9029885, 35.9855629], [-95.9029, 35.9855634], [-95.9029006, 35.9856437], [-95.902839, 35.985644], [-95.9028385, 35.9855832], [-95.90275, 35.9855837], [-95.9027513, 35.9857595], [-95.9028935, 35.9857587], [-95.9028944, 35.9858781], [-95.902991, 35.9858776], [-95.9029885, 35.9855629]]]}, "properties": {"osm_id": 1235072415, "building": "yes", "name": "", "height": null, "height_m": null, "levels": null, "tract_id": "40143007656", "tract_name": "76.56", "tags": {"building": "yes", "source": "microsoft/BuildingFootprints"}}}, {"type": "Feature", "geometry": {"type": "Polygon", "coordinates": [[[-95.9035396, 35.9858745], [-95.9035398, 35.9858029], [-95.9035682, 35.9858029], [-95.9035686, 35.9856684], [-95.9033309, 35.9856679], [-95.9033304, 35.9858741], [-95.9035396, 35.9858745]]]}, "properties": {"osm_id": 1235072416, "building": "yes", "name": "", "height": null, "height_m": null, "levels": null, "tract_id": "40143007656", "tract_name": "76.56", "tags": {"building": "yes", "source": "microsoft/BuildingFootprints"}}}, {"type": "Feature", "geometry": {"type": "Polygon", "coordinates": [[[-95.9033619, 35.9852134], [-95.9033612, 35.9854065], [-95.9035678, 35.985407], [-95.9035683, 35.9852573], [-95.9035415, 35.9852572], [-95.9035418, 35.9851617], [-95.9034533, 35.9851615], [-95.9034531, 35.9852136], [-95.9033619, 35.9852134]]]}, "properties": {"osm_id": 1235072417, "building": "yes", "name": "", "height": null, "height_m": null, "levels": null, "tract_id": "40143007656", "tract_name": "76.56", "tags": {"building": "yes", "source": "microsoft/BuildingFootprints"}}}, {"type": "Feature", "geometry": {"type": "Polygon", "coordinates": [[[-95.887203, 35.9763727], [-95.887203, 35.9763643], [-95.8872472, 35.9763643], [-95.8872471, 35.9764745], [-95.8872033, 35.9764745], [-95.8872032, 35.9764968], [-95.8869853, 35.9764967], [-95.8869854, 35.9764379], [-95.8869635, 35.9764379], [-95.8869635, 35.9763966], [-95.8869854, 35.9763966], [-95.8869854, 35.9763725], [-95.887203, 35.9763727]]]}, "properties": {"osm_id": 1368007319, "building": "retail", "name": "RibCrib", "height": null, "height_m": null, "levels": null, "tract_id": "40143007656", "tract_name": "76.56", "tags": {"addr:city": "Bixby", "addr:country": "US", "addr:housenumber": "12850", "addr:postcode": "74008", "addr:state": "OK", "addr:street": "South Memorial Drive East", "amenity": "restaurant", "brand": "RibCrib", "brand:wikidata": "Q7322197", "building": "retail", "cuisine": "barbecue", "name": "RibCrib"}}}, {"type": "Feature", "geometry": {"type": "Polygon", "coordinates": [[[-95.8873353, 35.9875537], [-95.8870562, 35.987551], [-95.8870588, 35.9873768], [-95.8873379, 35.9873795], [-95.8873353, 35.9875537]]]}, "properties": {"osm_id": 1418124955, "building": "office", "name": "Dental Care of Bixby", "height": null, "height_m": null, "levels": null, "tract_id": "40143007656", "tract_name": "76.56", "tags": {"addr:city": "Bixby", "addr:country": "US", "addr:housenumber": "12106", "addr:postcode": "74008", "addr:state": "OK", "addr:street": "South Memorial Drive East", "amenity": "dentist", "building": "office", "healthcare": "dentist", "name": "Dental Care of Bixby"}}}, {"type": "Feature", "geometry": {"type": "Polygon", "coordinates": [[[-95.8861198, 35.9857077], [-95.8858328, 35.9857061], [-95.8858308, 35.9855738], [-95.8861218, 35.9855738], [-95.8861198, 35.9857077]]]}, "properties": {"osm_id": 1418124956, "building": "office", "name": "Tangelo Orthodontics", "height": null, "height_m": null, "levels": null, "tract_id": "40143007656", "tract_name": "76.56", "tags": {"addr:city": "Bixby", "addr:housenumber": "12265", "addr:state": "OK", "addr:street": "South Memorial Drive East", "amenity": "dentist", "building": "office", "healthcare": "dentist", "healthcare:speciality": "orthodontics", "name": "Tangelo Orthodontics"}}}, {"type": "Feature", "geometry": {"type": "Polygon", "coordinates": [[[-95.887267, 35.9853061], [-95.8872696, 35.9851852], [-95.8871239, 35.9851831], [-95.8871212, 35.985304], [-95.887267, 35.9853061]]]}, "properties": {"osm_id": 1418124957, "building": "industrial", "name": "Easton Sod Farms", "height": null, "height_m": null, "levels": null, "tract_id": "40143007656", "tract_name": "76.56", "tags": {"addr:city": "Bixby", "addr:country": "US", "addr:housenumber": "12300", "addr:postcode": "74008", "addr:state": "OK", "addr:street": "South Memorial Drive East", "building": "industrial", "name": "Easton Sod Farms", "shop": "garden_centre"}}}, {"type": "Feature", "geometry": {"type": "Polygon", "coordinates": [[[-95.8847529, 35.9845061], [-95.8845307, 35.9845071], [-95.8845293, 35.9843102], [-95.8847515, 35.9843092], [-95.8847529, 35.9845061]]]}, "properties": {"osm_id": 1418124958, "building": "office", "name": "Store Local", "height": null, "height_m": null, "levels": null, "tract_id": "40143007656", "tract_name": "76.56", "tags": {"addr:city": "Bixby", "addr:country": "US", "addr:housenumber": "12345", "addr:postcode": "74008", "addr:state": "OK", "addr:street": "South Memorial Drive East", "building": "office", "name": "Store Local", "shop": "storage_rental"}}}, {"type": "Feature", "geometry": {"type": "Polygon", "coordinates": [[[-95.8856625, 35.9845392], [-95.8860399, 35.9845371], [-95.8860318, 35.9835996], [-95.8858545, 35.9836006], [-95.885861, 35.9843716], [-95.885661, 35.9843727], [-95.8856625, 35.9845392]]]}, "properties": {"osm_id": 1418124959, "building": "retail", "name": "Boardwalk", "height": null, "height_m": null, "levels": null, "tract_id": "40143007656", "tract_name": "76.56", "tags": {"addr:city": "Bixby", "addr:country": "US", "addr:housenumber": "12345", "addr:postcode": "74008", "addr:state": "OK", "addr:street": "South Memorial Drive East", "building": "retail", "name": "Boardwalk", "shop": "mall"}}}, {"type": "Feature", "geometry": {"type": "Polygon", "coordinates": [[[-95.8869446, 35.9759035], [-95.8869467, 35.975485], [-95.8871707, 35.9754857], [-95.8871708, 35.9754611], [-95.8872509, 35.9754613], [-95.8872499, 35.9756772], [-95.8871658, 35.9756769], [-95.8871657, 35.9756961], [-95.8871384, 35.975696], [-95.8871374, 35.9759041], [-95.8869446, 35.9759035]]]}, "properties": {"osm_id": 1418140456, "building": "retail", "name": "Village Square Center", "height": null, "height_m": null, "levels": null, "tract_id": "40143007656", "tract_name": "76.56", "tags": {"building": "retail", "name": "Village Square Center", "shop": "mall"}}}, {"type": "Feature", "geometry": {"type": "Polygon", "coordinates": [[[-95.8862525, 35.9753058], [-95.8859283, 35.9753057], [-95.8859283, 35.9754477], [-95.8862525, 35.9754477], [-95.8862525, 35.9753058]]]}, "properties": {"osm_id": 1418140457, "building": "barn", "name": "Dotson's Produce", "height": null, "height_m": null, "levels": null, "tract_id": "40143007656", "tract_name": "76.56", "tags": {"addr:city": "Bixby", "addr:country": "US", "addr:housenumber": "13001", "addr:postcode": "74008", "addr:state": "OK", "addr:street": "South Memorial Drive East", "building": "barn", "name": "Dotson's Produce", "shop": "farm", "source": "INCOG"}}}, {"type": "Feature", "geometry": {"type": "Polygon", "coordinates": [[[-95.888004, 35.974314], [-95.8875967, 35.9743149], [-95.8875961, 35.9741353], [-95.8877812, 35.9741349], [-95.8877811, 35.974122], [-95.8878384, 35.9741219], [-95.8878377, 35.9739269], [-95.8880027, 35.9739265], [-95.888004, 35.974314]]]}, "properties": {"osm_id": 1431720816, "building": "yes", "name": "Providence Baptist Church", "height": null, "height_m": null, "levels": null, "tract_id": "40143007656", "tract_name": "76.56", "tags": {"addr:city": "Bixby", "addr:housenumber": "8017", "addr:postcode": "74037", "addr:state": "OK", "addr:street": "East 131st Street South", "amenity": "place_of_worship", "building": "yes", "denomination": "baptist", "ele": "184", "gnis:feature_id": "1097982", "name": "Providence Baptist Church", "religion": "christian", "service_times": "Su 10:30", "website": "https://www.pbcbixby.org/"}}}, {"type": "Feature", "geometry": {"type": "Polygon", "coordinates": [[[-95.8870786, 35.985529], [-95.8871698, 35.985529], [-95.8871698, 35.9854248], [-95.8870786, 35.9854248], [-95.8870786, 35.985529]]]}, "properties": {"osm_id": 1431731218, "building": "yes", "name": "", "height": null, "height_m": null, "levels": null, "tract_id": "40143007656", "tract_name": "76.56", "tags": {"building": "yes"}}}, {"type": "Feature", "geometry": {"type": "Polygon", "coordinates": [[[-95.8875012, 35.9851263], [-95.8875033, 35.9852934], [-95.8877378, 35.9852914], [-95.8877356, 35.9851243], [-95.8875012, 35.9851263]]]}, "properties": {"osm_id": 1431731219, "building": "yes", "name": "", "height": null, "height_m": null, "levels": null, "tract_id": "40143007656", "tract_name": "76.56", "tags": {"building": "yes"}}}, {"type": "Feature", "geometry": {"type": "Polygon", "coordinates": [[[-95.8872369, 35.9771114], [-95.8870748, 35.9771101], [-95.8870768, 35.9769386], [-95.8872389, 35.9769399], [-95.8872369, 35.9771114]]]}, "properties": {"osm_id": 1433632607, "building": "detached", "name": "Stumpff & Cooke Insurance", "height": null, "height_m": null, "levels": null, "tract_id": "40143007656", "tract_name": "76.56", "tags": {"addr:city": "Bixby", "addr:country": "US", "addr:housenumber": "12844", "addr:postcode": "74008", "addr:state": "OK", "addr:street": "South Memorial Drive East", "building": "detached", "name": "Stumpff & Cooke Insurance", "office": "insurance"}}}]}