{"type": "FeatureCollection", "features": [{"type": "Feature", "geometry": {"type": "Polygon", "coordinates": [[[-97.9032503, 36.3902199], [-97.9018236, 36.3902253], [-97.901825, 36.3904608], [-97.9032516, 36.3904554], [-97.9032503, 36.3902199]]]}, "properties": {"osm_id": 190936626, "building": "yes", "name": "", "height": null, "height_m": null, "levels": null, "tract_id": "40047000601", "tract_name": "6.01", "tags": {"building": "yes", "shop": "mall", "source": "Bing"}}}, {"type": "Feature", "geometry": {"type": "Polygon", "coordinates": [[[-97.9010917, 36.3905497], [-97.9008731, 36.3905486], [-97.9008744, 36.3903842], [-97.901093, 36.3903853], [-97.9010917, 36.3905497]]]}, "properties": {"osm_id": 663079292, "building": "yes", "name": "", "height": null, "height_m": null, "levels": null, "tract_id": "40047000601", "tract_name": "6.01", "tags": {"building": "yes"}}}, {"type": "Feature", "geometry": {"type": "Polygon", "coordinates": [[[-97.9007202, 36.3905562], [-97.900511, 36.390554], [-97.900514, 36.3903689], [-97.9007232, 36.390371], [-97.9007202, 36.3905562]]]}, "properties": {"osm_id": 663079293, "building": "yes", "name": "", "height": null, "height_m": null, "levels": null, "tract_id": "40047000601", "tract_name": "6.01", "tags": {"building": "yes"}}}, {"type": "Feature", "geometry": {"type": "Polygon", "coordinates": [[[-97.9000054, 36.3903446], [-97.8998606, 36.3903435], [-97.899862, 36.3902236], [-97.9000068, 36.3902247], [-97.9000054, 36.3903446]]]}, "properties": {"osm_id": 663079294, "building": "yes", "name": "", "height": null, "height_m": null, "levels": null, "tract_id": "40047000601", "tract_name": "6.01", "tags": {"building": "yes"}}}, {"type": "Feature", "geometry": {"type": "Polygon", "coordinates": [[[-97.8996983, 36.3901405], [-97.8996983, 36.3904277], [-97.8995588, 36.3904277], [-97.8995588, 36.3901405], [-97.8996983, 36.3901405]]]}, "properties": {"osm_id": 663079295, "building": "yes", "name": "", "height": null, "height_m": null, "levels": null, "tract_id": "40047000601", "tract_name": "6.01", "tags": {"building": "yes"}}}, {"type": "Feature", "geometry": {"type": "Polygon", "coordinates": [[[-97.8983572, 36.3901567], [-97.8983572, 36.3904666], [-97.8982741, 36.3904666], [-97.8982741, 36.3901567], [-97.8983572, 36.3901567]]]}, "properties": {"osm_id": 663079296, "building": "yes", "name": "", "height": null, "height_m": null, "levels": null, "tract_id": "40047000601", "tract_name": "6.01", "tags": {"building": "yes"}}}, {"type": "Feature", "geometry": {"type": "Polygon", "coordinates": [[[-97.8987716, 36.3902528], [-97.8984142, 36.3902528], [-97.8984142, 36.3900391], [-97.8987716, 36.3900391], [-97.8987716, 36.3902528]]]}, "properties": {"osm_id": 663079297, "building": "yes", "name": "", "height": null, "height_m": null, "levels": null, "tract_id": "40047000601", "tract_name": "6.01", "tags": {"building": "yes"}}}, {"type": "Feature", "geometry": {"type": "Polygon", "coordinates": [[[-97.8823444, 36.3900855], [-97.882209, 36.3900822], [-97.8822123, 36.3899911], [-97.8823478, 36.3899943], [-97.8823444, 36.3900855]]]}, "properties": {"osm_id": 663079301, "building": "yes", "name": "", "height": null, "height_m": null, "levels": null, "tract_id": "40047000601", "tract_name": "6.01", "tags": {"building": "yes"}}}, {"type": "Feature", "geometry": {"type": "Polygon", "coordinates": [[[-97.8820735, 36.3900887], [-97.8817275, 36.3900833], [-97.881732, 36.3898987], [-97.882078, 36.3899041], [-97.8820735, 36.3900887]]]}, "properties": {"osm_id": 663079302, "building": "yes", "name": "", "height": null, "height_m": null, "levels": null, "tract_id": "40047000601", "tract_name": "6.01", "tags": {"building": "yes"}}}, {"type": "Feature", "geometry": {"type": "Polygon", "coordinates": [[[-97.8897023, 36.3890233], [-97.8899895, 36.3890231], [-97.8899895, 36.3890863], [-97.8898263, 36.3890864], [-97.8898264, 36.3892015], [-97.8897024, 36.3892016], [-97.8897023, 36.3890233]]]}, "properties": {"osm_id": 663079305, "building": "yes", "name": "", "height": null, "height_m": null, "levels": null, "tract_id": "40047000601", "tract_name": "6.01", "tags": {"building": "yes"}}}, {"type": "Feature", "geometry": {"type": "Polygon", "coordinates": [[[-97.8899039, 36.3883379], [-97.8899046, 36.3885397], [-97.8897618, 36.3885401], [-97.8897611, 36.3883382], [-97.8899039, 36.3883379]]]}, "properties": {"osm_id": 663079317, "building": "yes", "name": "", "height": null, "height_m": null, "levels": null, "tract_id": "40047000601", "tract_name": "6.01", "tags": {"building": "yes"}}}, {"type": "Feature", "geometry": {"type": "Polygon", "coordinates": [[[-97.8892508, 36.3901586], [-97.8896545, 36.3901555], [-97.8896561, 36.3902889], [-97.8896716, 36.3902888], [-97.8896745, 36.3905128], [-97.8896253, 36.3905546], [-97.8893501, 36.3905566], [-97.8893499, 36.3905399], [-97.8892554, 36.3905406], [-97.8892508, 36.3901586]]]}, "properties": {"osm_id": 663079320, "building": "yes", "name": "Walgreens", "height": null, "height_m": null, "levels": null, "tract_id": "40047000601", "tract_name": "6.01", "tags": {"addr:city": "Enid", "addr:country": "US", "addr:housenumber": "929", "addr:postcode": "73701", "addr:state": "OK", "addr:street": "West Owen K Garriott Road", "brand": "Walgreens", "brand:wikidata": "Q1591889", "building": "yes", "name": "Walgreens", "post_office": "post_partner", "post_office:brand": "FedEx OnSite", "post_office:service_provider": "FedEx", "post_office:website": "https://local.fedex.com/en-us/ok/enid/bikpe", "shop": "chemist", "website": "https://www.walgreens.com/locator/walgreens-929+w+owen+k+garriott+rd-enid-ok-73701/id=5531"}}}, {"type": "Feature", "geometry": {"type": "Polygon", "coordinates": [[[-97.8941722, 36.3852156], [-97.8936688, 36.3852179], [-97.893668, 36.3851027], [-97.8936026, 36.385103], [-97.8935983, 36.3845085], [-97.8942407, 36.3845055], [-97.8942409, 36.3845366], [-97.894266, 36.3845365], [-97.8942659, 36.3845164], [-97.8944358, 36.3845157], [-97.8944375, 36.3847782], [-97.8942584, 36.384779], [-97.8942573, 36.3846003], [-97.8942359, 36.3846004], [-97.8942365, 36.38468], [-97.8941392, 36.3846794], [-97.8939674, 36.3846801], [-97.8937298, 36.3846823], [-97.8937316, 36.3849376], [-97.8941702, 36.3849356], [-97.8941722, 36.3852156]]]}, "properties": {"osm_id": 944291291, "building": "school", "name": "Taft Elementary School", "height": null, "height_m": null, "levels": null, "tract_id": "40047000601", "tract_name": "6.01", "tags": {"addr:city": "Enid", "addr:housenumber": "1002", "addr:state": "OK", "addr:street": "Sequoyah Drive", "building": "school", "ele": "382", "gnis:feature_id": "1098719", "name": "Taft Elementary School", "website": "https://tes.enidpublicschools.org/"}}}, {"type": "Feature", "geometry": {"type": "Polygon", "coordinates": [[[-97.8823243, 36.3903333], [-97.8816626, 36.3903273], [-97.8816582, 36.3906425], [-97.8816869, 36.3906704], [-97.882489, 36.3906771], [-97.8825214, 36.3906504], [-97.8825786, 36.3906953], [-97.8826333, 36.3906502], [-97.8826113, 36.3906329], [-97.8826264, 36.3906204], [-97.8826296, 36.3903898], [-97.8823235, 36.3903871], [-97.8823243, 36.3903333]]]}, "properties": {"osm_id": 944301510, "building": "yes", "name": "Enid Police Department", "height": null, "height_m": null, "levels": null, "tract_id": "40047000601", "tract_name": "6.01", "tags": {"addr:city": "Enid", "addr:housenumber": "301", "addr:postcode": "73701", "addr:state": "OK", "addr:street": "West Owen K Garriott Road", "amenity": "police", "building": "yes", "emergency": "psap", "name": "Enid Police Department"}}}, {"type": "Feature", "geometry": {"type": "Polygon", "coordinates": [[[-97.883006, 36.390259], [-97.8830049, 36.3903338], [-97.882995, 36.3903337], [-97.8829945, 36.390369], [-97.883011, 36.3903692], [-97.8830092, 36.3904902], [-97.8834653, 36.3904944], [-97.8834656, 36.3904745], [-97.8835542, 36.3904753], [-97.883554, 36.3904935], [-97.8836881, 36.3904947], [-97.8836901, 36.3903433], [-97.8836371, 36.3903428], [-97.8836381, 36.3902665], [-97.8832709, 36.3902632], [-97.8832716, 36.3902117], [-97.8831847, 36.3902109], [-97.883184, 36.3902606], [-97.883006, 36.390259]]]}, "properties": {"osm_id": 944301511, "building": "yes", "name": "Dr. Martin Luther King, Jr. Municipal Complex", "height": null, "height_m": null, "levels": null, "tract_id": "40047000601", "tract_name": "6.01", "tags": {"building": "yes", "government": "administrative", "name": "Dr. Martin Luther King, Jr. Municipal Complex", "office": "government"}}}, {"type": "Feature", "geometry": {"type": "Polygon", "coordinates": [[[-97.8930383, 36.3856514], [-97.8930349, 36.3855387], [-97.893204, 36.3855354], [-97.8932047, 36.3855574], [-97.8932587, 36.3855563], [-97.8932603, 36.385612], [-97.8932026, 36.3856131], [-97.893203, 36.3856272], [-97.8930824, 36.3856296], [-97.893083, 36.3856505], [-97.8930383, 36.3856514]]]}, "properties": {"osm_id": 944332758, "building": "house", "name": "", "height": null, "height_m": null, "levels": null, "tract_id": "40047000601", "tract_name": "6.01", "tags": {"building": "house"}}}, {"type": "Feature", "geometry": {"type": "Polygon", "coordinates": [[[-97.8930158, 36.3856652], [-97.8930039, 36.3855573], [-97.8928761, 36.3855665], [-97.8928752, 36.3855586], [-97.8928103, 36.3855633], [-97.8928249, 36.3856942], [-97.8929541, 36.3856849], [-97.8929525, 36.3856697], [-97.8930158, 36.3856652]]]}, "properties": {"osm_id": 944332759, "building": "house", "name": "", "height": null, "height_m": null, "levels": null, "tract_id": "40047000601", "tract_name": "6.01", "tags": {"building": "house"}}}, {"type": "Feature", "geometry": {"type": "Polygon", "coordinates": [[[-97.8927984, 36.3856752], [-97.89277, 36.3855708], [-97.8925756, 36.385605], [-97.8925931, 36.3856697], [-97.8927313, 36.3856454], [-97.8927421, 36.3856851], [-97.8927984, 36.3856752]]]}, "properties": {"osm_id": 944332760, "building": "house", "name": "", "height": null, "height_m": null, "levels": null, "tract_id": "40047000601", "tract_name": "6.01", "tags": {"building": "house"}}}, {"type": "Feature", "geometry": {"type": "Polygon", "coordinates": [[[-97.8907568, 36.3861085], [-97.8907537, 36.3860042], [-97.8909101, 36.3860012], [-97.8909132, 36.3861055], [-97.8907568, 36.3861085]]]}, "properties": {"osm_id": 944332761, "building": "house", "name": "", "height": null, "height_m": null, "levels": null, "tract_id": "40047000601", "tract_name": "6.01", "tags": {"building": "house"}}}, {"type": "Feature", "geometry": {"type": "Polygon", "coordinates": [[[-97.8909523, 36.3861878], [-97.8909459, 36.3860466], [-97.8910298, 36.3860441], [-97.891027, 36.3859827], [-97.8911118, 36.3859802], [-97.8911192, 36.3861411], [-97.8910183, 36.3861441], [-97.8910202, 36.3861858], [-97.8909523, 36.3861878]]]}, "properties": {"osm_id": 944332762, "building": "house", "name": "", "height": null, "height_m": null, "levels": null, "tract_id": "40047000601", "tract_name": "6.01", "tags": {"building": "house"}}}, {"type": "Feature", "geometry": {"type": "Polygon", "coordinates": [[[-97.8906886, 36.3861234], [-97.8906846, 36.385981], [-97.8905582, 36.3859833], [-97.8905622, 36.3861257], [-97.8906886, 36.3861234]]]}, "properties": {"osm_id": 944332763, "building": "house", "name": "", "height": null, "height_m": null, "levels": null, "tract_id": "40047000601", "tract_name": "6.01", "tags": {"building": "house"}}}, {"type": "Feature", "geometry": {"type": "Polygon", "coordinates": [[[-97.8943862, 36.3865706], [-97.8943861, 36.3864922], [-97.8945827, 36.3864921], [-97.8945827, 36.3865674], [-97.8945199, 36.3865674], [-97.8945199, 36.3866031], [-97.8944505, 36.3866031], [-97.8944504, 36.3865706], [-97.8943862, 36.3865706]]]}, "properties": {"osm_id": 944333028, "building": "house", "name": "", "height": null, "height_m": null, "levels": null, "tract_id": "40047000601", "tract_name": "6.01", "tags": {"building": "house"}}}, {"type": "Feature", "geometry": {"type": "Polygon", "coordinates": [[[-97.8952632, 36.3867223], [-97.8952807, 36.3866572], [-97.8950598, 36.3866188], [-97.895053, 36.3866443], [-97.8949904, 36.3866334], [-97.8949727, 36.3866994], [-97.8951987, 36.3867386], [-97.8952058, 36.3867124], [-97.8952632, 36.3867223]]]}, "properties": {"osm_id": 944333029, "building": "house", "name": "", "height": null, "height_m": null, "levels": null, "tract_id": "40047000601", "tract_name": "6.01", "tags": {"building": "house"}}}, {"type": "Feature", "geometry": {"type": "Polygon", "coordinates": [[[-97.8946774, 36.3866448], [-97.8946977, 36.3865579], [-97.8948692, 36.386584], [-97.8948341, 36.3867339], [-97.8947735, 36.3867247], [-97.8947882, 36.3866617], [-97.8946774, 36.3866448]]]}, "properties": {"osm_id": 944333030, "building": "house", "name": "", "height": null, "height_m": null, "levels": null, "tract_id": "40047000601", "tract_name": "6.01", "tags": {"building": "house"}}}, {"type": "Feature", "geometry": {"type": "Polygon", "coordinates": [[[-97.894118, 36.3865716], [-97.8941174, 36.3864939], [-97.8943204, 36.3864928], [-97.8943211, 36.3865705], [-97.894118, 36.3865716]]]}, "properties": {"osm_id": 944333031, "building": "house", "name": "", "height": null, "height_m": null, "levels": null, "tract_id": "40047000601", "tract_name": "6.01", "tags": {"building": "house"}}}, {"type": "Feature", "geometry": {"type": "Polygon", "coordinates": [[[-97.8925913, 36.3871766], [-97.8925294, 36.3870371], [-97.8924436, 36.3870618], [-97.8924728, 36.3871275], [-97.8923792, 36.3871544], [-97.892412, 36.3872282], [-97.8925913, 36.3871766]]]}, "properties": {"osm_id": 944333107, "building": "house", "name": "", "height": null, "height_m": null, "levels": null, "tract_id": "40047000601", "tract_name": "6.01", "tags": {"building": "house"}}}, {"type": "Feature", "geometry": {"type": "Polygon", "coordinates": [[[-97.892625, 36.3871648], [-97.8925766, 36.3870284], [-97.8926378, 36.3870143], [-97.8926614, 36.3870807], [-97.8927589, 36.3870583], [-97.8927837, 36.3871282], [-97.892625, 36.3871648]]]}, "properties": {"osm_id": 944333108, "building": "house", "name": "", "height": null, "height_m": null, "levels": null, "tract_id": "40047000601", "tract_name": "6.01", "tags": {"building": "house"}}}, {"type": "Feature", "geometry": {"type": "Polygon", "coordinates": [[[-97.8887528, 36.3875702], [-97.888756, 36.3874429], [-97.8888593, 36.3874446], [-97.8888561, 36.3875719], [-97.8887528, 36.3875702]]]}, "properties": {"osm_id": 944333405, "building": "house", "name": "", "height": null, "height_m": null, "levels": null, "tract_id": "40047000601", "tract_name": "6.01", "tags": {"building": "house"}}}, {"type": "Feature", "geometry": {"type": "Polygon", "coordinates": [[[-97.8880274, 36.3875703], [-97.8880269, 36.3874644], [-97.8878974, 36.3874648], [-97.8878978, 36.3875709], [-97.8879574, 36.3875707], [-97.8879574, 36.3875897], [-97.8879985, 36.3875895], [-97.8879984, 36.3875704], [-97.8880274, 36.3875703]]]}, "properties": {"osm_id": 944333406, "building": "house", "name": "", "height": null, "height_m": null, "levels": null, "tract_id": "40047000601", "tract_name": "6.01", "tags": {"building": "house"}}}, {"type": "Feature", "geometry": {"type": "Polygon", "coordinates": [[[-97.8885371, 36.3875565], [-97.8885366, 36.3874506], [-97.8884071, 36.387451], [-97.8884075, 36.3875571], [-97.888467, 36.3875569], [-97.8884671, 36.3875758], [-97.8885082, 36.3875757], [-97.8885081, 36.3875566], [-97.8885371, 36.3875565]]]}, "properties": {"osm_id": 944333408, "building": "house", "name": "", "height": null, "height_m": null, "levels": null, "tract_id": "40047000601", "tract_name": "6.01", "tags": {"building": "house"}}}, {"type": "Feature", "geometry": {"type": "Polygon", "coordinates": [[[-97.8887009, 36.3875659], [-97.8887005, 36.38746], [-97.8885709, 36.3874604], [-97.8885714, 36.3875665], [-97.8886309, 36.3875663], [-97.888631, 36.3875852], [-97.888672, 36.3875851], [-97.8886719, 36.387566], [-97.8887009, 36.3875659]]]}, "properties": {"osm_id": 944333409, "building": "house", "name": "", "height": null, "height_m": null, "levels": null, "tract_id": "40047000601", "tract_name": "6.01", "tags": {"building": "house"}}}, {"type": "Feature", "geometry": {"type": "Polygon", "coordinates": [[[-97.887636, 36.3886001], [-97.8876311, 36.3883855], [-97.8875538, 36.3883866], [-97.8875567, 36.3885153], [-97.8874875, 36.3885163], [-97.8874894, 36.3886022], [-97.887636, 36.3886001]]]}, "properties": {"osm_id": 944333588, "building": "house", "name": "", "height": null, "height_m": null, "levels": null, "tract_id": "40047000601", "tract_name": "6.01", "tags": {"building": "house"}}}, {"type": "Feature", "geometry": {"type": "Polygon", "coordinates": [[[-97.8874117, 36.3885983], [-97.8874113, 36.3885071], [-97.8872516, 36.3885075], [-97.887252, 36.3885987], [-97.8874117, 36.3885983]]]}, "properties": {"osm_id": 944333589, "building": "house", "name": "", "height": null, "height_m": null, "levels": null, "tract_id": "40047000601", "tract_name": "6.01", "tags": {"building": "house"}}}, {"type": "Feature", "geometry": {"type": "Polygon", "coordinates": [[[-97.9063198, 36.384124], [-97.9062044, 36.3842908], [-97.9062616, 36.3843164], [-97.906226, 36.384368], [-97.9062526, 36.38438], [-97.9062621, 36.3843662], [-97.9063326, 36.3843978], [-97.9065068, 36.3841456], [-97.9065735, 36.3841754], [-97.9065265, 36.3842435], [-97.9067354, 36.384337], [-97.9067705, 36.3842862], [-97.906835, 36.3843151], [-97.9068542, 36.3842872], [-97.9067989, 36.3842625], [-97.9068391, 36.3842042], [-97.9066141, 36.3841034], [-97.9065948, 36.3841313], [-97.9065612, 36.3841162], [-97.9066419, 36.3839994], [-97.9065746, 36.3839692], [-97.9065967, 36.3839372], [-97.9065602, 36.3839208], [-97.9065292, 36.3839657], [-97.9064627, 36.3839359], [-97.9063851, 36.3840481], [-97.9063479, 36.3840315], [-97.9063849, 36.3839781], [-97.906241, 36.3839136], [-97.9062032, 36.3839682], [-97.9061364, 36.3839383], [-97.9061214, 36.38396], [-97.9061432, 36.3839698], [-97.9061036, 36.3840271], [-97.9063198, 36.384124]]]}, "properties": {"osm_id": 944738553, "building": "apartments", "name": "Meadows Point Apartments", "height": null, "height_m": null, "levels": null, "tract_id": "40047000601", "tract_name": "6.01", "tags": {"addr:city": "Enid", "addr:housenumber": "1225", "addr:state": "OK", "addr:street": "South Cleveland Street", "building": "apartments", "building:flats": "99", "name": "Meadows Point Apartments"}}}, {"type": "Feature", "geometry": {"type": "Polygon", "coordinates": [[[-97.9074803, 36.3847009], [-97.90748, 36.3845676], [-97.9074404, 36.3845677], [-97.9074404, 36.3845432], [-97.9072277, 36.3845435], [-97.9072276, 36.3844951], [-97.9071915, 36.3844951], [-97.9071914, 36.3844598], [-97.9069666, 36.3844601], [-97.9069672, 36.3846909], [-97.9070787, 36.3846907], [-97.9070789, 36.3847712], [-97.9072184, 36.384771], [-97.9072183, 36.3847191], [-97.9074497, 36.3847187], [-97.9074497, 36.3847009], [-97.9074803, 36.3847009]]]}, "properties": {"osm_id": 944738554, "building": "yes", "name": "Christian Church of the Covonent", "height": null, "height_m": null, "levels": null, "tract_id": "40047000601", "tract_name": "6.01", "tags": {"addr:city": "Enid", "addr:housenumber": "1205", "addr:state": "OK", "addr:street": "South Cleveland Street", "amenity": "place_of_worship", "building": "yes", "name": "Christian Church of the Covonent", "phone": "+1-580-237-0894", "religion": "christian", "website": "https://www.enidcovenant.org/"}}}, {"type": "Feature", "geometry": {"type": "Polygon", "coordinates": [[[-97.9074319, 36.3901799], [-97.907428, 36.3900414], [-97.9070822, 36.3900426], [-97.9070819, 36.3901793], [-97.9074319, 36.3901799]]]}, "properties": {"osm_id": 1043245456, "building": "yes", "name": "Jiffy Trip", "height": null, "height_m": null, "levels": null, "tract_id": "40047000601", "tract_name": "6.01", "tags": {"addr:city": "Enid", "addr:housenumber": "5314", "addr:postcode": "73703", "addr:state": "OK", "addr:street": "West Owen K Garriott Road", "amenity": "fuel", "building": "yes", "name": "Jiffy Trip", "self_service": "yes"}}}, {"type": "Feature", "geometry": {"type": "Polygon", "coordinates": [[[-97.9054135, 36.3904592], [-97.9057016, 36.3904561], [-97.9057003, 36.3901081], [-97.9054124, 36.3901163], [-97.9054135, 36.3904592]]]}, "properties": {"osm_id": 1043245457, "building": "yes", "name": "Hideaway Pizza", "height": null, "height_m": null, "levels": null, "tract_id": "40047000601", "tract_name": "6.01", "tags": {"addr:city": "Enid", "addr:housenumber": "2201", "addr:postcode": "73703", "addr:state": "OK", "addr:street": "West Owen K Garriott Road", "amenity": "restaurant", "building": "yes", "cuisine": "pizza", "name": "Hideaway Pizza", "opening_hours": "Mo-Su 11:00-21:30", "phone": "580 308-7777", "website": "https://www.hideawaypizza.com/locations/enid"}}}, {"type": "Feature", "geometry": {"type": "Polygon", "coordinates": [[[-97.9074259, 36.3892403], [-97.9070667, 36.3892356], [-97.9070682, 36.388966], [-97.9074243, 36.3889509], [-97.9074259, 36.3892403]]]}, "properties": {"osm_id": 1043245458, "building": "yes", "name": "Colton's Steak House & Grill", "height": null, "height_m": null, "levels": null, "tract_id": "40047000601", "tract_name": "6.01", "tags": {"addr:city": "Enid", "addr:housenumber": "707", "addr:postcode": "73703", "addr:state": "OK", "addr:street": "South Cleveland Street", "amenity": "restaurant", "building": "yes", "cuisine": "steak_house", "name": "Colton's Steak House & Grill", "opening_hours": "Su-Th 10:45-21:30; Fr,Sa 10:45-22:00", "phone": "(580) 701-4000", "website": "https://www.coltonssteakhouse.com/store_detail.php?id=39"}}}, {"type": "Feature", "geometry": {"type": "Polygon", "coordinates": [[[-97.9067261, 36.3904206], [-97.906727, 36.3901337], [-97.9064413, 36.3901323], [-97.9064458, 36.3904239], [-97.9067261, 36.3904206]]]}, "properties": {"osm_id": 1178207177, "building": "yes", "name": "Great Plains Bank", "height": null, "height_m": null, "levels": null, "tract_id": "40047000601", "tract_name": "6.01", "tags": {"amenity": "bank", "building": "yes", "name": "Great Plains Bank"}}}, {"type": "Feature", "geometry": {"type": "Polygon", "coordinates": [[[-97.8903902, 36.3896168], [-97.8903976, 36.389405], [-97.8905157, 36.3894077], [-97.8905111, 36.389537], [-97.8905504, 36.3895379], [-97.8905476, 36.3896203], [-97.8903902, 36.3896168]]]}, "properties": {"osm_id": 1196136065, "building": "yes", "name": "Midgley Museum", "height": null, "height_m": null, "levels": null, "tract_id": "40047000601", "tract_name": "6.01", "tags": {"addr:city": "Enid", "addr:housenumber": "1001", "addr:postcode": "73703", "addr:state": "OK", "addr:street": "Sequoyah Drive", "building": "yes", "name": "Midgley Museum", "tourism": "museum"}}}, {"type": "Feature", "geometry": {"type": "Polygon", "coordinates": [[[-97.8813675, 36.3905639], [-97.8813051, 36.3904776], [-97.8810407, 36.3906016], [-97.8811023, 36.3906868], [-97.881203, 36.3906396], [-97.8812999, 36.3906369], [-97.8812981, 36.3905964], [-97.8813675, 36.3905639]]]}, "properties": {"osm_id": 1282263522, "building": "yes", "name": "", "height": null, "height_m": null, "levels": null, "tract_id": "40047000601", "tract_name": "6.01", "tags": {"building": "yes"}}}, {"type": "Feature", "geometry": {"type": "Polygon", "coordinates": [[[-97.8869964, 36.3900059], [-97.8869935, 36.3899609], [-97.8870229, 36.3899348], [-97.8870565, 36.3899177], [-97.887094, 36.3899175], [-97.8870961, 36.389865], [-97.8871282, 36.3898642], [-97.8871813, 36.3898172], [-97.8871777, 36.3897324], [-97.8873559, 36.3897305], [-97.8873629, 36.3899083], [-97.8874471, 36.3899111], [-97.8874456, 36.3898833], [-97.8876659, 36.3898861], [-97.8876677, 36.3897474], [-97.888185, 36.3897416], [-97.8881864, 36.3898967], [-97.8879313, 36.3900802], [-97.8881262, 36.3902401], [-97.8879978, 36.3903244], [-97.8878087, 36.3901651], [-97.8876366, 36.3901587], [-97.8876383, 36.3903394], [-97.8872045, 36.3903329], [-97.8872041, 36.3903061], [-97.8869781, 36.3903045], [-97.8869828, 36.3905045], [-97.8871794, 36.3905037], [-97.8871779, 36.390465], [-97.8872101, 36.3904648], [-97.8872099, 36.3903874], [-97.8876679, 36.3903947], [-97.8876695, 36.3905111], [-97.8874683, 36.3905111], [-97.8874632, 36.3905539], [-97.8875087, 36.390556], [-97.8875084, 36.3905816], [-97.8875977, 36.390583], [-97.8875963, 36.3907103], [-97.8873544, 36.3907092], [-97.8873516, 36.3907568], [-97.886651, 36.3907547], [-97.8866314, 36.3900366], [-97.8867496, 36.3900389], [-97.8867496, 36.3900072], [-97.8869964, 36.3900059]]]}, "properties": {"osm_id": 1301001792, "building": "hospital", "name": "", "height": null, "height_m": 15.0, "levels": 5, "tract_id": "40047000601", "tract_name": "6.01", "tags": {"building": "hospital", "building:levels": "5"}}}, {"type": "Feature", "geometry": {"type": "Polygon", "coordinates": [[[-97.8900308, 36.3895388], [-97.8900737, 36.389636], [-97.8900147, 36.3897526], [-97.8891349, 36.3897332], [-97.8891323, 36.3889235], [-97.8896204, 36.388917], [-97.8896231, 36.3892063], [-97.8892637, 36.3892106], [-97.8892664, 36.3893553], [-97.8896741, 36.3893618], [-97.8896714, 36.3894849], [-97.8892556, 36.3894913], [-97.8892744, 36.3896209], [-97.8898645, 36.3896274], [-97.8898752, 36.3895367], [-97.8900308, 36.3895388]]]}, "properties": {"osm_id": 1392686972, "building": "yes", "name": "", "height": null, "height_m": null, "levels": null, "tract_id": "40047000601", "tract_name": "6.01", "tags": {"building": "yes"}}}, {"type": "Feature", "geometry": {"type": "Polygon", "coordinates": [[[-97.8971658, 36.3903532], [-97.8973161, 36.3903498], [-97.8973239, 36.3905733], [-97.8971737, 36.3905767], [-97.8971658, 36.3903532]]]}, "properties": {"osm_id": 1392686974, "building": "yes", "name": "", "height": null, "height_m": null, "levels": null, "tract_id": "40047000601", "tract_name": "6.01", "tags": {"building": "yes"}}}, {"type": "Feature", "geometry": {"type": "Polygon", "coordinates": [[[-97.8966257, 36.3903787], [-97.8966314, 36.3905535], [-97.8965428, 36.3905554], [-97.8965371, 36.3903806], [-97.8966257, 36.3903787]]]}, "properties": {"osm_id": 1392686975, "building": "yes", "name": "", "height": null, "height_m": null, "levels": null, "tract_id": "40047000601", "tract_name": "6.01", "tags": {"building": "yes"}}}, {"type": "Feature", "geometry": {"type": "Polygon", "coordinates": [[[-97.9044155, 36.3902687], [-97.9051462, 36.3902669], [-97.9051468, 36.3904343], [-97.9044161, 36.3904359], [-97.9044155, 36.3902687]]]}, "properties": {"osm_id": 1392686976, "building": "yes", "name": "", "height": null, "height_m": null, "levels": null, "tract_id": "40047000601", "tract_name": "6.01", "tags": {"building": "yes"}}}, {"type": "Feature", "geometry": {"type": "Polygon", "coordinates": [[[-97.9041406, 36.3901985], [-97.9042759, 36.3901969], [-97.9042806, 36.3904537], [-97.9041453, 36.3904553], [-97.9041406, 36.3901985]]]}, "properties": {"osm_id": 1392686977, "building": "yes", "name": "", "height": null, "height_m": null, "levels": null, "tract_id": "40047000601", "tract_name": "6.01", "tags": {"building": "yes"}}}]}