{"type": "FeatureCollection", "features": [{"type": "Feature", "geometry": {"type": "Polygon", "coordinates": [[[-95.9234121, 36.0729243], [-95.9227469, 36.072933], [-95.9225154, 36.0731292], [-95.9225124, 36.0732543], [-95.9232082, 36.0732538], [-95.9234067, 36.073083], [-95.9234121, 36.0729243]]]}, "properties": {"osm_id": 90526826, "building": "office", "name": "Warren Place #1", "height": null, "height_m": 60.0, "levels": 20, "tract_id": "40143007613", "tract_name": "76.13", "tags": {"addr:city": "Tulsa", "addr:country": "US", "addr:housenumber": "6100", "addr:postcode": "74136", "addr:state": "OK", "addr:street": "South Yale Avenue East", "building": "office", "building:colour": "grey", "building:levels": "20", "name": "Warren Place #1", "roof:levels": "1", "roof:shape": "flat"}}}, {"type": "Feature", "geometry": {"type": "Polygon", "coordinates": [[[-95.9258475, 36.0740863], [-95.9247853, 36.074095], [-95.9247961, 36.0742251], [-95.9250536, 36.0744072], [-95.9256544, 36.0743985], [-95.9258513, 36.0742173], [-95.9258475, 36.0740863]]]}, "properties": {"osm_id": 90526827, "building": "yes", "name": "", "height": null, "height_m": null, "levels": null, "tract_id": "40143007613", "tract_name": "76.13", "tags": {"addr:city": "Tulsa", "addr:country": "US", "addr:housename": "2 Warren Place", "addr:housenumber": "6120", "addr:postcode": "74136", "addr:state": "OK", "addr:street": "South Yale Avenue East", "building": "yes"}}}, {"type": "Feature", "geometry": {"type": "Polygon", "coordinates": [[[-95.9233491, 36.0717455], [-95.9232332, 36.0717446], [-95.9232358, 36.0715169], [-95.9230305, 36.0715153], [-95.9230327, 36.071324], [-95.9232336, 36.0713255], [-95.923237, 36.0710299], [-95.923353, 36.0710308], [-95.9233496, 36.0713226], [-95.9234895, 36.0713237], [-95.9234901, 36.0712719], [-95.923635, 36.071273], [-95.9236345, 36.0713219], [-95.9236434, 36.071322], [-95.9236427, 36.0713854], [-95.9238473, 36.0713869], [-95.9238682, 36.0713871], [-95.9239107, 36.0713874], [-95.9239099, 36.0714576], [-95.9238474, 36.0714571], [-95.9238457, 36.0716065], [-95.9236383, 36.071605], [-95.9236393, 36.0715152], [-95.9233518, 36.0715131], [-95.9233491, 36.0717455]]]}, "properties": {"osm_id": 96783715, "building": "hospital", "name": "", "height": null, "height_m": null, "levels": null, "tract_id": "40143007613", "tract_name": "76.13", "tags": {"addr:city": "Tulsa", "addr:country": "US", "addr:housenumber": "6160", "addr:postcode": "74136", "addr:state": "OK", "addr:street": "South Yale Avenue East", "amenity": "doctors", "building": "hospital"}}}, {"type": "Feature", "geometry": {"type": "Polygon", "coordinates": [[[-95.9275729, 36.069374], [-95.9274129, 36.069374], [-95.9274129, 36.069325], [-95.9274834, 36.069325], [-95.9274834, 36.069268], [-95.9274129, 36.069268], [-95.9274129, 36.0692177], [-95.9275774, 36.0692177], [-95.9275774, 36.0692625], [-95.9276105, 36.0692625], [-95.9276105, 36.0693269], [-95.9275729, 36.0693269], [-95.9275729, 36.069374]]]}, "properties": {"osm_id": 235399380, "building": "detached", "name": "", "height": null, "height_m": null, "levels": null, "tract_id": "40143007613", "tract_name": "76.13", "tags": {"addr:city": "Tulsa", "addr:country": "US", "addr:housenumber": "6428", "addr:postcode": "74136", "addr:state": "OK", "addr:street": "South Sandusky Avenue", "building": "detached"}}}, {"type": "Feature", "geometry": {"type": "Polygon", "coordinates": [[[-95.9229946, 36.0617114], [-95.922615, 36.0617158], [-95.9226097, 36.0614135], [-95.9229893, 36.0614091], [-95.9229946, 36.0617114]]]}, "properties": {"osm_id": 242892542, "building": "commercial", "name": "Advance Imaging of Tulsa", "height": null, "height_m": 12.0, "levels": 4, "tract_id": "40143007613", "tract_name": "76.13", "tags": {"addr:city": "Tulsa", "addr:country": "US", "addr:housenumber": "7050", "addr:postcode": "74136", "addr:state": "OK", "addr:street": "South Yale Avenue East", "addr:unit": "101", "building": "commercial", "building:colour": "#eecfaf", "building:levels": "4", "name": "Advance Imaging of Tulsa", "roof:levels": "0", "roof:shape": "flat", "website": "http://aitulsa.com"}}}, {"type": "Feature", "geometry": {"type": "Polygon", "coordinates": [[[-95.9241415, 36.0694092], [-95.9232767, 36.0694092], [-95.9232767, 36.0687161], [-95.9241415, 36.0687161], [-95.9241415, 36.0694092]]]}, "properties": {"osm_id": 242898575, "building": "office", "name": "", "height": null, "height_m": null, "levels": null, "tract_id": "40143007613", "tract_name": "76.13", "tags": {"addr:city": "Tulsa", "addr:country": "US", "addr:housenumber": "6502", "addr:postcode": "74136", "addr:state": "OK", "addr:street": "South Yale Avenue East", "building": "office"}}}, {"type": "Feature", "geometry": {"type": "Polygon", "coordinates": [[[-95.9240071, 36.0620462], [-95.9236303, 36.0620462], [-95.9236303, 36.0617351], [-95.9240071, 36.0617351], [-95.9240071, 36.0620462]]]}, "properties": {"osm_id": 478319636, "building": "office", "name": "", "height": null, "height_m": null, "levels": null, "tract_id": "40143007613", "tract_name": "76.13", "tags": {"addr:city": "Tulsa", "addr:country": "US", "addr:housenumber": "7030", "addr:postcode": "74136", "addr:state": "OK", "addr:street": "South Yale Avenue East", "building": "office", "roof:shape": "flat"}}}, {"type": "Feature", "geometry": {"type": "Polygon", "coordinates": [[[-95.9238066, 36.0625639], [-95.9232581, 36.062566], [-95.9232568, 36.062359], [-95.9238053, 36.0623568], [-95.9238066, 36.0625639]]]}, "properties": {"osm_id": 478319637, "building": "office", "name": "", "height": null, "height_m": null, "levels": null, "tract_id": "40143007613", "tract_name": "76.13", "tags": {"addr:city": "Tulsa", "addr:housenumber": "7010", "addr:postcode": "70136", "addr:state": "OK", "addr:street": "South Yale Avenue East", "building": "office"}}}, {"type": "Feature", "geometry": {"type": "Polygon", "coordinates": [[[-95.9244571, 36.0625612], [-95.9239086, 36.0625633], [-95.9239073, 36.0623562], [-95.9244558, 36.0623541], [-95.9244571, 36.0625612]]]}, "properties": {"osm_id": 478319638, "building": "office", "name": "", "height": null, "height_m": null, "levels": null, "tract_id": "40143007613", "tract_name": "76.13", "tags": {"addr:city": "Tulsa", "addr:housenumber": "7020", "addr:postcode": "74136", "addr:state": "OK", "addr:street": "South Yale Avenue East", "building": "office"}}}, {"type": "Feature", "geometry": {"type": "Polygon", "coordinates": [[[-95.9258626, 36.0623628], [-95.9254683, 36.0623638], [-95.9254669, 36.0620408], [-95.9258612, 36.0620397], [-95.9258626, 36.0623628]]]}, "properties": {"osm_id": 478319639, "building": "office", "name": "Bank of Oklahoma Mortgage Tower", "height": null, "height_m": null, "levels": null, "tract_id": "40143007613", "tract_name": "76.13", "tags": {"addr:city": "Tulsa", "addr:country": "US", "addr:housenumber": "7060", "addr:postcode": "74136", "addr:state": "OK", "addr:street": "South Yale Avenue East", "building": "office", "name": "Bank of Oklahoma Mortgage Tower"}}}, {"type": "Feature", "geometry": {"type": "Polygon", "coordinates": [[[-95.9290677, 36.0676831], [-95.9290667, 36.067621], [-95.9290392, 36.0676213], [-95.9290382, 36.0675616], [-95.9290145, 36.0675619], [-95.9290133, 36.0674977], [-95.9289878, 36.067498], [-95.9289866, 36.0674338], [-95.9289638, 36.0674341], [-95.9289626, 36.0673717], [-95.928935, 36.067372], [-95.9289338, 36.0673118], [-95.9289034, 36.0673122], [-95.928902, 36.0672468], [-95.92888, 36.0672471], [-95.9288787, 36.0671877], [-95.928856, 36.067188], [-95.9288546, 36.0671239], [-95.928827, 36.0671243], [-95.9288257, 36.067065], [-95.9287951, 36.0670654], [-95.9287938, 36.0670046], [-95.9286095, 36.0670072], [-95.9286109, 36.0670723], [-95.9286347, 36.067072], [-95.9286361, 36.0671367], [-95.9286608, 36.0671364], [-95.928662, 36.0671982], [-95.9286884, 36.0671979], [-95.9286896, 36.0672589], [-95.9287201, 36.0672586], [-95.9287211, 36.067318], [-95.9287469, 36.0673178], [-95.9287479, 36.06738], [-95.9287743, 36.0673797], [-95.9287753, 36.067441], [-95.9287994, 36.0674408], [-95.9288003, 36.0675052], [-95.9288297, 36.0675049], [-95.9288306, 36.0675673], [-95.9288559, 36.0675671], [-95.9288567, 36.0676266], [-95.9288867, 36.0676263], [-95.9288875, 36.0676866], [-95.9289041, 36.0676865], [-95.9289043, 36.0676987], [-95.9289512, 36.0676983], [-95.928951, 36.0676843], [-95.9290677, 36.0676831]]]}, "properties": {"osm_id": 500817164, "building": "apartments", "name": "", "height": null, "height_m": 6.0, "levels": 2, "tract_id": "40143007613", "tract_name": "76.13", "tags": {"building": "apartments", "building:levels": "2"}}}, {"type": "Feature", "geometry": {"type": "Polygon", "coordinates": [[[-95.9366056, 36.0700037], [-95.9365996, 36.0697369], [-95.9363901, 36.06974], [-95.9363918, 36.0698114], [-95.9364583, 36.0698104], [-95.9364605, 36.0699064], [-95.9364101, 36.0699071], [-95.9364116, 36.0699708], [-95.9364638, 36.0699701], [-95.9364646, 36.0700058], [-95.9366056, 36.0700037]]]}, "properties": {"osm_id": 627278347, "building": "yes", "name": "", "height": null, "height_m": null, "levels": null, "tract_id": "40143007613", "tract_name": "76.13", "tags": {"building": "yes"}}}, {"type": "Feature", "geometry": {"type": "Polygon", "coordinates": [[[-95.9366222, 36.0704336], [-95.9367306, 36.0703192], [-95.9365384, 36.0702003], [-95.9364557, 36.0702877], [-95.9365198, 36.0703274], [-95.9364942, 36.0703544], [-95.9366222, 36.0704336]]]}, "properties": {"osm_id": 627278348, "building": "yes", "name": "", "height": null, "height_m": null, "levels": null, "tract_id": "40143007613", "tract_name": "76.13", "tags": {"building": "yes"}}}, {"type": "Feature", "geometry": {"type": "Polygon", "coordinates": [[[-95.9373744, 36.0702742], [-95.937253, 36.070364], [-95.9372739, 36.0703824], [-95.9372134, 36.0704272], [-95.9371931, 36.0704093], [-95.9371385, 36.0704497], [-95.9369915, 36.070457], [-95.9369856, 36.0703799], [-95.9370767, 36.0703202], [-95.9370365, 36.0702801], [-95.937106, 36.0702346], [-95.9371433, 36.0702718], [-95.9372074, 36.0702298], [-95.9372072, 36.0701976], [-95.9373739, 36.070197], [-95.9373744, 36.0702742]]]}, "properties": {"osm_id": 627278349, "building": "yes", "name": "", "height": null, "height_m": null, "levels": null, "tract_id": "40143007613", "tract_name": "76.13", "tags": {"building": "yes"}}}, {"type": "Feature", "geometry": {"type": "Polygon", "coordinates": [[[-95.9377832, 36.0699714], [-95.9377806, 36.0696927], [-95.9376148, 36.0696937], [-95.9376154, 36.0697604], [-95.937666, 36.0697601], [-95.9376667, 36.0698424], [-95.9376192, 36.0698426], [-95.9376197, 36.0698919], [-95.9376973, 36.0698914], [-95.937698, 36.069972], [-95.9377832, 36.0699714]]]}, "properties": {"osm_id": 627278350, "building": "yes", "name": "", "height": null, "height_m": null, "levels": null, "tract_id": "40143007613", "tract_name": "76.13", "tags": {"building": "yes"}}}, {"type": "Feature", "geometry": {"type": "Polygon", "coordinates": [[[-95.9389809, 36.0695711], [-95.9388179, 36.0695736], [-95.9388121, 36.0693325], [-95.9390209, 36.0693293], [-95.9390226, 36.0693992], [-95.9389985, 36.0693996], [-95.939001, 36.0695025], [-95.9389792, 36.0695029], [-95.9389809, 36.0695711]]]}, "properties": {"osm_id": 627278351, "building": "yes", "name": "", "height": null, "height_m": null, "levels": null, "tract_id": "40143007613", "tract_name": "76.13", "tags": {"building": "yes"}}}, {"type": "Feature", "geometry": {"type": "Polygon", "coordinates": [[[-95.9389123, 36.0699829], [-95.9388231, 36.0699705], [-95.9388317, 36.0699298], [-95.9388093, 36.0699267], [-95.9388177, 36.0698873], [-95.9387981, 36.0698845], [-95.9388081, 36.0698375], [-95.938721, 36.0698254], [-95.9387414, 36.0697297], [-95.9389995, 36.0697655], [-95.9389689, 36.0699096], [-95.9389477, 36.0699066], [-95.9389399, 36.0699433], [-95.9389213, 36.0699407], [-95.9389123, 36.0699829]]]}, "properties": {"osm_id": 627278352, "building": "yes", "name": "", "height": null, "height_m": null, "levels": null, "tract_id": "40143007613", "tract_name": "76.13", "tags": {"building": "yes"}}}, {"type": "Feature", "geometry": {"type": "Polygon", "coordinates": [[[-95.9371376, 36.0707947], [-95.9370779, 36.0707951], [-95.9370777, 36.0707693], [-95.9370062, 36.0707697], [-95.9370063, 36.0707817], [-95.9368898, 36.0707824], [-95.9368897, 36.0707696], [-95.9367988, 36.0707702], [-95.9367982, 36.0706976], [-95.9368865, 36.0706971], [-95.9368858, 36.0706086], [-95.9370182, 36.0706078], [-95.9370187, 36.070671], [-95.9370659, 36.0706707], [-95.9370648, 36.0705401], [-95.9371574, 36.0705396], [-95.9371588, 36.0706907], [-95.9372191, 36.0706903], [-95.9372196, 36.0707484], [-95.9371372, 36.0707489], [-95.9371376, 36.0707947]]]}, "properties": {"osm_id": 627278353, "building": "yes", "name": "", "height": null, "height_m": null, "levels": null, "tract_id": "40143007613", "tract_name": "76.13", "tags": {"building": "yes"}}}, {"type": "Feature", "geometry": {"type": "Polygon", "coordinates": [[[-95.937752, 36.0707339], [-95.9377506, 36.0706354], [-95.9376545, 36.0706363], [-95.9376547, 36.0706527], [-95.9376242, 36.0706529], [-95.9376239, 36.0706364], [-95.9373259, 36.0706391], [-95.9373275, 36.070752], [-95.9374561, 36.0707508], [-95.9374563, 36.070765], [-95.9375735, 36.0707639], [-95.9375733, 36.0707488], [-95.9376837, 36.0707477], [-95.9376835, 36.0707345], [-95.937752, 36.0707339]]]}, "properties": {"osm_id": 627278354, "building": "yes", "name": "", "height": null, "height_m": null, "levels": null, "tract_id": "40143007613", "tract_name": "76.13", "tags": {"building": "yes"}}}, {"type": "Feature", "geometry": {"type": "Polygon", "coordinates": [[[-95.9392387, 36.0707644], [-95.9392352, 36.0706047], [-95.9390399, 36.0706075], [-95.9389113, 36.0706689], [-95.9389983, 36.070788], [-95.9390669, 36.0707793], [-95.9390923, 36.0707463], [-95.9391252, 36.0707459], [-95.9391257, 36.070766], [-95.9392387, 36.0707644]]]}, "properties": {"osm_id": 627278355, "building": "yes", "name": "", "height": null, "height_m": null, "levels": null, "tract_id": "40143007613", "tract_name": "76.13", "tags": {"building": "yes"}}}, {"type": "Feature", "geometry": {"type": "Polygon", "coordinates": [[[-95.9396228, 36.0695026], [-95.9396231, 36.0693839], [-95.9396547, 36.069384], [-95.9396549, 36.0693012], [-95.9396235, 36.0693012], [-95.9396238, 36.069165], [-95.9395014, 36.0691648], [-95.9395011, 36.0693117], [-95.9394145, 36.0693116], [-95.9394143, 36.0693842], [-95.9395066, 36.0693844], [-95.9395063, 36.0695025], [-95.9396228, 36.0695026]]]}, "properties": {"osm_id": 627278356, "building": "yes", "name": "", "height": null, "height_m": null, "levels": null, "tract_id": "40143007613", "tract_name": "76.13", "tags": {"building": "yes"}}}, {"type": "Feature", "geometry": {"type": "Polygon", "coordinates": [[[-95.9370473, 36.0633586], [-95.9370462, 36.0631483], [-95.9369149, 36.0631488], [-95.9369152, 36.0632063], [-95.9368646, 36.0632065], [-95.9368652, 36.0633096], [-95.9369178, 36.0633094], [-95.9369181, 36.063359], [-95.9370473, 36.0633586]]]}, "properties": {"osm_id": 629843986, "building": "yes", "name": "", "height": null, "height_m": null, "levels": null, "tract_id": "40143007613", "tract_name": "76.13", "tags": {"building": "yes"}}}, {"type": "Feature", "geometry": {"type": "Polygon", "coordinates": [[[-95.9365579, 36.0633533], [-95.9365577, 36.0633058], [-95.9365998, 36.0633057], [-95.9365994, 36.0632231], [-95.9365537, 36.0632233], [-95.9365534, 36.0631656], [-95.9364317, 36.063166], [-95.9364324, 36.0633139], [-95.9364501, 36.0633138], [-95.9364503, 36.0633536], [-95.9365579, 36.0633533]]]}, "properties": {"osm_id": 629843987, "building": "yes", "name": "", "height": null, "height_m": null, "levels": null, "tract_id": "40143007613", "tract_name": "76.13", "tags": {"building": "yes"}}}, {"type": "Feature", "geometry": {"type": "Polygon", "coordinates": [[[-95.9365432, 36.0638989], [-95.9364151, 36.0638994], [-95.9364137, 36.0636646], [-95.9365907, 36.0636639], [-95.9365912, 36.063752], [-95.9365644, 36.0637521], [-95.9365649, 36.0638292], [-95.9365428, 36.0638293], [-95.9365432, 36.0638989]]]}, "properties": {"osm_id": 629843988, "building": "yes", "name": "", "height": null, "height_m": null, "levels": null, "tract_id": "40143007613", "tract_name": "76.13", "tags": {"building": "yes"}}}, {"type": "Feature", "geometry": {"type": "Polygon", "coordinates": [[[-95.9360032, 36.0636234], [-95.9357968, 36.0636258], [-95.9357955, 36.0635516], [-95.9358894, 36.0635505], [-95.935889, 36.0635263], [-95.9358686, 36.0635265], [-95.9358666, 36.0634164], [-95.936, 36.0634148], [-95.9360013, 36.0634878], [-95.9359922, 36.063488], [-95.9359933, 36.0635521], [-95.9360019, 36.063552], [-95.9360032, 36.0636234]]]}, "properties": {"osm_id": 629843989, "building": "yes", "name": "", "height": null, "height_m": null, "levels": null, "tract_id": "40143007613", "tract_name": "76.13", "tags": {"building": "yes"}}}, {"type": "Feature", "geometry": {"type": "Polygon", "coordinates": [[[-95.9352538, 36.0633466], [-95.9352506, 36.0632364], [-95.9350203, 36.0632406], [-95.9350234, 36.0633509], [-95.9352538, 36.0633466]]]}, "properties": {"osm_id": 629843990, "building": "yes", "name": "", "height": null, "height_m": null, "levels": null, "tract_id": "40143007613", "tract_name": "76.13", "tags": {"building": "yes"}}}, {"type": "Feature", "geometry": {"type": "Polygon", "coordinates": [[[-95.9349413, 36.0637963], [-95.9350935, 36.0635893], [-95.934978, 36.0635338], [-95.9348258, 36.0637408], [-95.9349413, 36.0637963]]]}, "properties": {"osm_id": 629843991, "building": "yes", "name": "", "height": null, "height_m": null, "levels": null, "tract_id": "40143007613", "tract_name": "76.13", "tags": {"building": "yes"}}}, {"type": "Feature", "geometry": {"type": "Polygon", "coordinates": [[[-95.9342865, 36.0639273], [-95.93444, 36.0639065], [-95.934406, 36.0637426], [-95.9342525, 36.0637634], [-95.9342865, 36.0639273]]]}, "properties": {"osm_id": 629843992, "building": "yes", "name": "", "height": null, "height_m": null, "levels": null, "tract_id": "40143007613", "tract_name": "76.13", "tags": {"building": "yes"}}}, {"type": "Feature", "geometry": {"type": "Polygon", "coordinates": [[[-95.9332759, 36.0636513], [-95.9332873, 36.0635097], [-95.9330611, 36.0634978], [-95.9330498, 36.0636394], [-95.9332759, 36.0636513]]]}, "properties": {"osm_id": 629843993, "building": "yes", "name": "", "height": null, "height_m": null, "levels": null, "tract_id": "40143007613", "tract_name": "76.13", "tags": {"building": "yes"}}}, {"type": "Feature", "geometry": {"type": "Polygon", "coordinates": [[[-95.933015, 36.0636327], [-95.9330036, 36.0634953], [-95.9327931, 36.0635068], [-95.9328045, 36.0636442], [-95.933015, 36.0636327]]]}, "properties": {"osm_id": 629843994, "building": "yes", "name": "", "height": null, "height_m": null, "levels": null, "tract_id": "40143007613", "tract_name": "76.13", "tags": {"building": "yes"}}}, {"type": "Feature", "geometry": {"type": "Polygon", "coordinates": [[[-95.9326317, 36.0637189], [-95.9326184, 36.0636735], [-95.9326777, 36.0636621], [-95.9326731, 36.0636465], [-95.932772, 36.0636275], [-95.9327391, 36.0635153], [-95.9325183, 36.0635576], [-95.9325691, 36.0637309], [-95.9326317, 36.0637189]]]}, "properties": {"osm_id": 629843995, "building": "yes", "name": "", "height": null, "height_m": null, "levels": null, "tract_id": "40143007613", "tract_name": "76.13", "tags": {"building": "yes"}}}, {"type": "Feature", "geometry": {"type": "Polygon", "coordinates": [[[-95.9325267, 36.0637234], [-95.9324894, 36.0635999], [-95.9323788, 36.0636217], [-95.9323682, 36.0635866], [-95.9322676, 36.0636064], [-95.9323154, 36.0637651], [-95.9325267, 36.0637234]]]}, "properties": {"osm_id": 629843996, "building": "detached", "name": "", "height": null, "height_m": null, "levels": null, "tract_id": "40143007613", "tract_name": "76.13", "tags": {"building": "detached"}}}, {"type": "Feature", "geometry": {"type": "Polygon", "coordinates": [[[-95.932201, 36.0637812], [-95.9321886, 36.0636813], [-95.9322087, 36.0636796], [-95.9322017, 36.0636233], [-95.9321237, 36.0636296], [-95.932129, 36.0636732], [-95.9320006, 36.0636836], [-95.9320146, 36.0637963], [-95.932201, 36.0637812]]]}, "properties": {"osm_id": 629843997, "building": "detached", "name": "", "height": null, "height_m": null, "levels": null, "tract_id": "40143007613", "tract_name": "76.13", "tags": {"building": "detached"}}}, {"type": "Feature", "geometry": {"type": "Polygon", "coordinates": [[[-95.9346463, 36.0646008], [-95.9346479, 36.0644257], [-95.9344868, 36.0644247], [-95.9344851, 36.0645998], [-95.9346463, 36.0646008]]]}, "properties": {"osm_id": 629843998, "building": "yes", "name": "", "height": null, "height_m": null, "levels": null, "tract_id": "40143007613", "tract_name": "76.13", "tags": {"building": "yes"}}}, {"type": "Feature", "geometry": {"type": "Polygon", "coordinates": [[[-95.9346511, 36.0643962], [-95.9346494, 36.0642273], [-95.9344971, 36.0642283], [-95.9344988, 36.0643972], [-95.9346511, 36.0643962]]]}, "properties": {"osm_id": 629843999, "building": "yes", "name": "", "height": null, "height_m": null, "levels": null, "tract_id": "40143007613", "tract_name": "76.13", "tags": {"building": "yes"}}}, {"type": "Feature", "geometry": {"type": "Polygon", "coordinates": [[[-95.9345611, 36.0648441], [-95.9346184, 36.0646762], [-95.9344555, 36.0646399], [-95.9343983, 36.0648078], [-95.9345611, 36.0648441]]]}, "properties": {"osm_id": 629844000, "building": "yes", "name": "", "height": null, "height_m": null, "levels": null, "tract_id": "40143007613", "tract_name": "76.13", "tags": {"building": "yes"}}}, {"type": "Feature", "geometry": {"type": "Polygon", "coordinates": [[[-95.9346836, 36.0631841], [-95.9346834, 36.0631442], [-95.9346983, 36.0631442], [-95.9346979, 36.0630553], [-95.9346863, 36.0630554], [-95.9346861, 36.0630101], [-95.9345704, 36.0630104], [-95.9345706, 36.0630443], [-95.9345177, 36.0630444], [-95.9345179, 36.0631075], [-95.9344504, 36.0631077], [-95.9344507, 36.0631848], [-95.9346836, 36.0631841]]]}, "properties": {"osm_id": 629844001, "building": "yes", "name": "", "height": null, "height_m": null, "levels": null, "tract_id": "40143007613", "tract_name": "76.13", "tags": {"building": "yes"}}}, {"type": "Feature", "geometry": {"type": "Polygon", "coordinates": [[[-95.9346843, 36.0629425], [-95.9346766, 36.0627214], [-95.934529, 36.0627247], [-95.9345314, 36.0627945], [-95.9345615, 36.0627938], [-95.9345668, 36.0629453], [-95.9346843, 36.0629425]]]}, "properties": {"osm_id": 629844002, "building": "yes", "name": "", "height": null, "height_m": null, "levels": null, "tract_id": "40143007613", "tract_name": "76.13", "tags": {"building": "yes"}}}, {"type": "Feature", "geometry": {"type": "Polygon", "coordinates": [[[-95.9235527, 36.0749284], [-95.9235088, 36.0749288], [-95.9233743, 36.0749297], [-95.9232398, 36.0749307], [-95.9231506, 36.0749314], [-95.9229951, 36.0749325], [-95.9229392, 36.0749329], [-95.9229008, 36.0749332], [-95.9228983, 36.0747068], [-95.9235502, 36.074702], [-95.9235527, 36.0749284]]]}, "properties": {"osm_id": 790398291, "building": "retail", "name": "", "height": null, "height_m": 3.0, "levels": 1, "tract_id": "40143007613", "tract_name": "76.13", "tags": {"building": "retail", "building:colour": "beige", "building:levels": "1", "roof:levels": "0", "roof:shape": "flat"}}}, {"type": "Feature", "geometry": {"type": "Polygon", "coordinates": [[[-95.9237627, 36.0749269], [-95.9237618, 36.0748177], [-95.9237641, 36.0748177], [-95.9237639, 36.0747874], [-95.9237607, 36.0747875], [-95.9237604, 36.074743], [-95.92364, 36.0747436], [-95.9236408, 36.0748445], [-95.9236107, 36.0748446], [-95.9236109, 36.0748756], [-95.923623, 36.0748756], [-95.9236231, 36.0748819], [-95.92364, 36.0748818], [-95.9236404, 36.0749275], [-95.9237627, 36.0749269]]]}, "properties": {"osm_id": 790398292, "building": "retail", "name": "Starbucks", "height": null, "height_m": null, "levels": null, "tract_id": "40143007613", "tract_name": "76.13", "tags": {"amenity": "cafe", "brand": "Starbucks", "brand:wikidata": "Q37158", "building": "retail", "cuisine": "coffee_shop", "drive_through": "yes", "name": "Starbucks", "official_name": "Starbucks Coffee", "outdoor_seating": "no", "takeaway": "yes"}}}, {"type": "Feature", "geometry": {"type": "Polygon", "coordinates": [[[-95.9238178, 36.0745462], [-95.9238175, 36.0745117], [-95.9238166, 36.0744164], [-95.9238264, 36.0744164], [-95.9238255, 36.0743062], [-95.9238143, 36.0743063], [-95.9238137, 36.0742426], [-95.9235761, 36.0742439], [-95.9235787, 36.0745476], [-95.9238178, 36.0745462]]]}, "properties": {"osm_id": 790398293, "building": "yes", "name": "", "height": null, "height_m": null, "levels": null, "tract_id": "40143007613", "tract_name": "76.13", "tags": {"building": "yes"}}}, {"type": "Feature", "geometry": {"type": "Polygon", "coordinates": [[[-95.9231735, 36.0746385], [-95.9229116, 36.0746399], [-95.9229113, 36.0745974], [-95.9229097, 36.0744007], [-95.9229086, 36.0742634], [-95.9229077, 36.0741521], [-95.9231697, 36.0741507], [-95.9231735, 36.0746385]]]}, "properties": {"osm_id": 790398294, "building": "retail", "name": "", "height": null, "height_m": 3.0, "levels": 1, "tract_id": "40143007613", "tract_name": "76.13", "tags": {"building": "retail", "building:colour": "beige", "building:levels": "1", "roof:levels": "0", "roof:shape": "flat"}}}, {"type": "Feature", "geometry": {"type": "Polygon", "coordinates": [[[-95.9244282, 36.0736269], [-95.9244651, 36.0736265], [-95.9244651, 36.0736162], [-95.9245236, 36.0736159], [-95.9245241, 36.0736073], [-95.9245436, 36.0736073], [-95.924544, 36.0735953], [-95.9245805, 36.073596], [-95.9245796, 36.0735456], [-95.9246424, 36.0735446], [-95.924642, 36.0733487], [-95.9246417, 36.0731727], [-95.9246415, 36.0731634], [-95.9246405, 36.0731596], [-95.9246381, 36.0731542], [-95.9246353, 36.0731494], [-95.9246312, 36.0731442], [-95.924625, 36.073139], [-95.9246201, 36.0731355], [-95.9242944, 36.0728735], [-95.924288, 36.0728701], [-95.9242829, 36.0728672], [-95.9242757, 36.0728649], [-95.9242701, 36.0728633], [-95.9242626, 36.0728621], [-95.9242559, 36.0728618], [-95.9240071, 36.0728631], [-95.924005, 36.0728644], [-95.9240036, 36.0728663], [-95.9240038, 36.0728705], [-95.9240036, 36.0729166], [-95.9239165, 36.0729174], [-95.9239144, 36.0729174], [-95.9239123, 36.072918], [-95.9239111, 36.0729194], [-95.9239108, 36.0729213], [-95.9239108, 36.0729446], [-95.9239037, 36.0729447], [-95.9239009, 36.0729449], [-95.9238987, 36.0729465], [-95.9238981, 36.0729634], [-95.923884, 36.0729639], [-95.9238844, 36.0730055], [-95.923884, 36.0730066], [-95.9238829, 36.0730073], [-95.9238812, 36.0730075], [-95.9238793, 36.0730072], [-95.9238773, 36.0730077], [-95.9238767, 36.0730081], [-95.9238774, 36.0730405], [-95.9241593, 36.0730401], [-95.9241656, 36.0730399], [-95.924174, 36.0730404], [-95.92418, 36.0730413], [-95.9241859, 36.073043], [-95.9241925, 36.0730457], [-95.924197, 36.0730473], [-95.9242072, 36.0730537], [-95.9244159, 36.0732225], [-95.9244221, 36.0732315], [-95.9244243, 36.0732372], [-95.9244248, 36.0732425], [-95.9244282, 36.0736269]]]}, "properties": {"osm_id": 790398296, "building": "yes", "name": "DoubleTree by Hilton Tulsa - Warren Place", "height": null, "height_m": null, "levels": null, "tract_id": "40143007613", "tract_name": "76.13", "tags": {"addr:city": "Tulsa", "addr:country": "US", "addr:housenumber": "6110", "addr:postcode": "74136-1904", "addr:state": "OK", "addr:street": "South Yale Avenue East", "branch": "Hotel Tulsa - Warren Place", "brand": "DoubleTree", "brand:wikidata": "Q2504643", "building": "yes", "email": "TULSY_DT_Hotel@hilton.com", "internet_access": "wlan", "internet_access:fee": "no", "name": "DoubleTree by Hilton Tulsa - Warren Place", "official_name": "DoubleTree by Hilton Tulsa - Warren Place", "phone": "+1 918 495 1000", "ref": "TULSYDT", "rooms": "367", "tourism": "hotel", "website": "https://www.hilton.com/en/hotels/tulsydt-doubletree-tulsa-warren-place/"}}}, {"type": "Feature", "geometry": {"type": "Polygon", "coordinates": [[[-95.926995, 36.0731543], [-95.9270848, 36.07306], [-95.9270147, 36.0730164], [-95.9270464, 36.0729831], [-95.9269741, 36.0729382], [-95.9269432, 36.0729707], [-95.9268581, 36.0729178], [-95.926769, 36.0730114], [-95.9268183, 36.0730421], [-95.9267932, 36.0730685], [-95.9268401, 36.0730977], [-95.9268589, 36.0730779], [-95.926917, 36.0731141], [-95.9269219, 36.0731089], [-95.926995, 36.0731543]]]}, "properties": {"osm_id": 790398297, "building": "detached", "name": "", "height": null, "height_m": null, "levels": null, "tract_id": "40143007613", "tract_name": "76.13", "tags": {"building": "detached"}}}, {"type": "Feature", "geometry": {"type": "Polygon", "coordinates": [[[-95.9279373, 36.0676378], [-95.9280053, 36.067638], [-95.9280055, 36.06759], [-95.9280293, 36.06759], [-95.9280292, 36.0676227], [-95.9281895, 36.0676231], [-95.9281897, 36.0675652], [-95.9282873, 36.0675655], [-95.9282876, 36.067483], [-95.9282767, 36.067483], [-95.9282768, 36.0674695], [-95.9280347, 36.0674688], [-95.9280349, 36.067417], [-95.9279056, 36.0674167], [-95.9279054, 36.067467], [-95.9277837, 36.0674667], [-95.9277833, 36.0675578], [-95.9277251, 36.0675577], [-95.9277249, 36.0676223], [-95.9279129, 36.0676228], [-95.927913, 36.0675904], [-95.9279375, 36.0675905], [-95.9279373, 36.0676378]]]}, "properties": {"osm_id": 990631419, "building": "yes", "name": "", "height": null, "height_m": null, "levels": null, "tract_id": "40143007613", "tract_name": "76.13", "tags": {"building": "yes"}}}, {"type": "Feature", "geometry": {"type": "Polygon", "coordinates": [[[-95.9275099, 36.0674891], [-95.92776, 36.0674901], [-95.9277589, 36.0674134], [-95.927511, 36.0674138], [-95.9275099, 36.0674891]]]}, "properties": {"osm_id": 990631420, "building": "yes", "name": "", "height": null, "height_m": null, "levels": null, "tract_id": "40143007613", "tract_name": "76.13", "tags": {"building": "yes"}}}, {"type": "Feature", "geometry": {"type": "Polygon", "coordinates": [[[-95.9278978, 36.0672798], [-95.9277947, 36.0672785], [-95.9277953, 36.0672454], [-95.9278985, 36.0672467], [-95.9278978, 36.0672798]]]}, "properties": {"osm_id": 990631421, "building": "yes", "name": "", "height": null, "height_m": null, "levels": null, "tract_id": "40143007613", "tract_name": "76.13", "tags": {"building": "yes"}}}, {"type": "Feature", "geometry": {"type": "Polygon", "coordinates": [[[-95.9288782, 36.0751731], [-95.9288929, 36.0749314], [-95.928791, 36.0749314], [-95.928783, 36.075003], [-95.9286234, 36.0749878], [-95.9285054, 36.0749412], [-95.9283806, 36.0748285], [-95.9282009, 36.0745726], [-95.9282666, 36.074539], [-95.9282197, 36.0744675], [-95.9279689, 36.07459], [-95.9281982, 36.0749108], [-95.9283498, 36.075055], [-95.9284437, 36.0751092], [-95.9285577, 36.0751504], [-95.9286462, 36.0751666], [-95.9288782, 36.0751731]]]}, "properties": {"osm_id": 1017359459, "building": "parking", "name": "", "height": null, "height_m": null, "levels": null, "tract_id": "40143007613", "tract_name": "76.13", "tags": {"amenity": "parking", "building": "parking", "parking": "multi-storey"}}}, {"type": "Feature", "geometry": {"type": "Polygon", "coordinates": [[[-95.9275403, 36.0614064], [-95.927438, 36.061256], [-95.9275955, 36.061186], [-95.9276483, 36.0612636], [-95.9276548, 36.0612607], [-95.927675, 36.0612903], [-95.9276849, 36.0612859], [-95.9276995, 36.0613073], [-95.9276868, 36.0613129], [-95.9277023, 36.0613357], [-95.9276252, 36.06137], [-95.9276132, 36.0613524], [-95.9275927, 36.0613615], [-95.9275977, 36.0613689], [-95.9275832, 36.0613753], [-95.9275895, 36.0613846], [-95.9275403, 36.0614064]]]}, "properties": {"osm_id": 1236490222, "building": "detached", "name": "", "height": null, "height_m": null, "levels": null, "tract_id": "40143007613", "tract_name": "76.13", "tags": {"building": "detached"}}}, {"type": "Feature", "geometry": {"type": "Polygon", "coordinates": [[[-95.9273791, 36.0615261], [-95.9274075, 36.0614812], [-95.9273951, 36.0614761], [-95.9274305, 36.0614203], [-95.9273491, 36.0613866], [-95.9273665, 36.0613593], [-95.9273238, 36.0613416], [-95.9273664, 36.0612744], [-95.9273154, 36.0612533], [-95.92728, 36.0613091], [-95.9272616, 36.0613014], [-95.9272458, 36.0613263], [-95.9272753, 36.0613386], [-95.9272027, 36.061453], [-95.9273791, 36.0615261]]]}, "properties": {"osm_id": 1236490223, "building": "detached", "name": "", "height": null, "height_m": null, "levels": null, "tract_id": "40143007613", "tract_name": "76.13", "tags": {"building": "detached"}}}, {"type": "Feature", "geometry": {"type": "Polygon", "coordinates": [[[-95.9272558, 36.0615251], [-95.9272456, 36.0615414], [-95.9272562, 36.0615457], [-95.9272461, 36.061562], [-95.9272348, 36.0615574], [-95.9272195, 36.061582], [-95.9272323, 36.0615872], [-95.9272138, 36.061617], [-95.9272462, 36.0616301], [-95.9271897, 36.061721], [-95.9269593, 36.0616274], [-95.9270698, 36.0614496], [-95.9272558, 36.0615251]]]}, "properties": {"osm_id": 1236490224, "building": "detached", "name": "", "height": null, "height_m": null, "levels": null, "tract_id": "40143007613", "tract_name": "76.13", "tags": {"building": "detached"}}}, {"type": "Feature", "geometry": {"type": "Polygon", "coordinates": [[[-95.9235095, 36.061634], [-95.9235087, 36.0615068], [-95.9234437, 36.0615071], [-95.9234425, 36.0613255], [-95.9236632, 36.0613245], [-95.9236652, 36.0616333], [-95.9235095, 36.061634]]]}, "properties": {"osm_id": 1236490225, "building": "yes", "name": "", "height": null, "height_m": null, "levels": null, "tract_id": "40143007613", "tract_name": "76.13", "tags": {"addr:city": "Tulsa", "addr:country": "US", "addr:housenumber": "7040", "addr:postcode": "74136", "addr:state": "OK", "addr:street": "South Yale Avenue East", "building": "yes"}}}, {"type": "Feature", "geometry": {"type": "Polygon", "coordinates": [[[-95.9283304, 36.0614378], [-95.9284097, 36.0614657], [-95.9284786, 36.0613378], [-95.9282508, 36.0612575], [-95.9281869, 36.0613762], [-95.9282667, 36.0614043], [-95.9282432, 36.0614478], [-95.928312, 36.0614721], [-95.9283304, 36.0614378]]]}, "properties": {"osm_id": 1236490230, "building": "detached", "name": "", "height": null, "height_m": null, "levels": null, "tract_id": "40143007613", "tract_name": "76.13", "tags": {"building": "detached", "layer": "1"}}}, {"type": "Feature", "geometry": {"type": "Polygon", "coordinates": [[[-95.9278463, 36.0617306], [-95.9278618, 36.0617491], [-95.927877, 36.0617514], [-95.9279039, 36.0617349], [-95.9279068, 36.0617151], [-95.927974, 36.061678], [-95.9278959, 36.0615856], [-95.9277332, 36.0616754], [-95.927801, 36.0617556], [-95.9278463, 36.0617306]]]}, "properties": {"osm_id": 1236490231, "building": "detached", "name": "", "height": null, "height_m": null, "levels": null, "tract_id": "40143007613", "tract_name": "76.13", "tags": {"building": "detached"}}}, {"type": "Feature", "geometry": {"type": "Polygon", "coordinates": [[[-95.9276731, 36.061914], [-95.9275979, 36.0618861], [-95.9276125, 36.0618605], [-95.9275331, 36.061831], [-95.9275716, 36.0617633], [-95.9276274, 36.061784], [-95.9276306, 36.0617785], [-95.9275967, 36.0617659], [-95.9276268, 36.0617129], [-95.9277123, 36.0617447], [-95.9277089, 36.0617506], [-95.9278037, 36.0617858], [-95.9277262, 36.061922], [-95.9276786, 36.0619043], [-95.9276731, 36.061914]]]}, "properties": {"osm_id": 1236490232, "building": "detached", "name": "", "height": null, "height_m": null, "levels": null, "tract_id": "40143007613", "tract_name": "76.13", "tags": {"building": "detached"}}}, {"type": "Feature", "geometry": {"type": "Polygon", "coordinates": [[[-95.9286651, 36.0616073], [-95.928726, 36.0614782], [-95.928652, 36.0614553], [-95.9286643, 36.0614293], [-95.9285905, 36.0614066], [-95.9285745, 36.0614404], [-95.9285079, 36.0614199], [-95.9284507, 36.0615411], [-95.9286651, 36.0616073]]]}, "properties": {"osm_id": 1236490233, "building": "detached", "name": "", "height": null, "height_m": null, "levels": null, "tract_id": "40143007613", "tract_name": "76.13", "tags": {"building": "detached"}}}, {"type": "Feature", "geometry": {"type": "Polygon", "coordinates": [[[-95.9288778, 36.0616677], [-95.9289018, 36.061614], [-95.9290024, 36.0616434], [-95.9290503, 36.0615367], [-95.9290162, 36.0615268], [-95.9290237, 36.0615102], [-95.9289235, 36.0614809], [-95.9289125, 36.0615056], [-95.928788, 36.0614692], [-95.9287451, 36.0615649], [-95.9288256, 36.0615885], [-95.9288003, 36.061645], [-95.9288778, 36.0616677]]]}, "properties": {"osm_id": 1236490234, "building": "detached", "name": "", "height": null, "height_m": null, "levels": null, "tract_id": "40143007613", "tract_name": "76.13", "tags": {"building": "detached"}}}, {"type": "Feature", "geometry": {"type": "Polygon", "coordinates": [[[-95.9281068, 36.0619314], [-95.9281941, 36.0619671], [-95.9282602, 36.0618614], [-95.9281895, 36.0618325], [-95.928194, 36.0618253], [-95.9281655, 36.0618136], [-95.9281709, 36.0618093], [-95.9280994, 36.0617802], [-95.9280672, 36.0618319], [-95.9280515, 36.0618255], [-95.9280212, 36.0618741], [-95.9280331, 36.0618789], [-95.9280077, 36.0619195], [-95.9280555, 36.061939], [-95.9280602, 36.0619314], [-95.9280974, 36.0619465], [-95.9281068, 36.0619314]]]}, "properties": {"osm_id": 1236490235, "building": "detached", "name": "", "height": null, "height_m": null, "levels": null, "tract_id": "40143007613", "tract_name": "76.13", "tags": {"building": "detached"}}}, {"type": "Feature", "geometry": {"type": "Polygon", "coordinates": [[[-95.9271731, 36.0621115], [-95.9269003, 36.0621125], [-95.9268994, 36.0619674], [-95.9271673, 36.0619663], [-95.9271675, 36.0620029], [-95.9271576, 36.062003], [-95.9271576, 36.0620105], [-95.9271446, 36.0620106], [-95.9271447, 36.0620202], [-95.9271726, 36.0620201], [-95.9271731, 36.0621115]]]}, "properties": {"osm_id": 1236490236, "building": "detached", "name": "", "height": null, "height_m": null, "levels": null, "tract_id": "40143007613", "tract_name": "76.13", "tags": {"building": "detached"}}}, {"type": "Feature", "geometry": {"type": "Polygon", "coordinates": [[[-95.9271836, 36.0622936], [-95.9269064, 36.0622968], [-95.9269035, 36.0621339], [-95.9271085, 36.0621315], [-95.9271093, 36.0621787], [-95.9270955, 36.0621789], [-95.9270958, 36.0621954], [-95.9271169, 36.0621952], [-95.9271175, 36.0622277], [-95.9271824, 36.062227], [-95.9271836, 36.0622936]]]}, "properties": {"osm_id": 1236490237, "building": "detached", "name": "", "height": null, "height_m": null, "levels": null, "tract_id": "40143007613", "tract_name": "76.13", "tags": {"building": "detached"}}}, {"type": "Feature", "geometry": {"type": "Polygon", "coordinates": [[[-95.9275213, 36.0621273], [-95.9277643, 36.0621267], [-95.9277641, 36.0620686], [-95.9277216, 36.0620687], [-95.9277214, 36.0620061], [-95.9276942, 36.0620061], [-95.9276941, 36.0619659], [-95.9276276, 36.0619661], [-95.9276275, 36.0619568], [-95.9275782, 36.0619569], [-95.9275782, 36.0619744], [-95.9275598, 36.0619745], [-95.92756, 36.0620332], [-95.9275893, 36.0620331], [-95.9275895, 36.062067], [-95.9275211, 36.0620671], [-95.9275213, 36.0621273]]]}, "properties": {"osm_id": 1236490238, "building": "detached", "name": "", "height": null, "height_m": null, "levels": null, "tract_id": "40143007613", "tract_name": "76.13", "tags": {"building": "detached"}}}, {"type": "Feature", "geometry": {"type": "Polygon", "coordinates": [[[-95.9285046, 36.0620447], [-95.9282956, 36.061986], [-95.9283516, 36.0618557], [-95.9284437, 36.0618815], [-95.9284346, 36.0619028], [-95.9284618, 36.0619105], [-95.928459, 36.0619171], [-95.9284875, 36.0619251], [-95.9284851, 36.0619306], [-95.9284993, 36.0619346], [-95.9285022, 36.0619278], [-95.9285492, 36.061941], [-95.9285046, 36.0620447]]]}, "properties": {"osm_id": 1236490239, "building": "detached", "name": "", "height": null, "height_m": null, "levels": null, "tract_id": "40143007613", "tract_name": "76.13", "tags": {"building": "detached"}}}, {"type": "Feature", "geometry": {"type": "Polygon", "coordinates": [[[-95.9286602, 36.0620882], [-95.9287496, 36.0621153], [-95.9288024, 36.062001], [-95.9287375, 36.0619814], [-95.9287348, 36.0619873], [-95.9287068, 36.0619787], [-95.9287172, 36.0619566], [-95.9286407, 36.0619331], [-95.9286108, 36.0619967], [-95.9286009, 36.0619937], [-95.9285829, 36.0620318], [-95.9285894, 36.0620338], [-95.9285811, 36.0620512], [-95.9285858, 36.0620626], [-95.9285712, 36.0620942], [-95.9286469, 36.062117], [-95.9286602, 36.0620882]]]}, "properties": {"osm_id": 1236490240, "building": "detached", "name": "", "height": null, "height_m": null, "levels": null, "tract_id": "40143007613", "tract_name": "76.13", "tags": {"building": "detached"}}}, {"type": "Feature", "geometry": {"type": "Polygon", "coordinates": [[[-95.9288101, 36.0621535], [-95.9290335, 36.0622242], [-95.9291044, 36.0620745], [-95.9289932, 36.0620426], [-95.9289837, 36.0620573], [-95.9289684, 36.0620525], [-95.928976, 36.0620367], [-95.9289675, 36.062034], [-95.9289708, 36.0620273], [-95.9289011, 36.0620053], [-95.9288971, 36.0620137], [-95.9288803, 36.0620084], [-95.9288101, 36.0621535]]]}, "properties": {"osm_id": 1236490241, "building": "detached", "name": "", "height": null, "height_m": null, "levels": null, "tract_id": "40143007613", "tract_name": "76.13", "tags": {"building": "detached"}}}, {"type": "Feature", "geometry": {"type": "Polygon", "coordinates": [[[-95.9291589, 36.0617327], [-95.9291865, 36.0617417], [-95.9291897, 36.0617355], [-95.9292583, 36.0617581], [-95.9293188, 36.061638], [-95.9291565, 36.0615846], [-95.9291536, 36.0615902], [-95.9290995, 36.0615724], [-95.9290493, 36.0616722], [-95.9290855, 36.0616841], [-95.9290807, 36.0616938], [-95.929097, 36.0616991], [-95.9290827, 36.0617275], [-95.9291503, 36.0617497], [-95.9291589, 36.0617327]]]}, "properties": {"osm_id": 1236490242, "building": "detached", "name": "", "height": null, "height_m": null, "levels": null, "tract_id": "40143007613", "tract_name": "76.13", "tags": {"building": "detached"}}}, {"type": "Feature", "geometry": {"type": "Polygon", "coordinates": [[[-95.929452, 36.0618361], [-95.9294697, 36.0618063], [-95.9295695, 36.0618448], [-95.9296424, 36.0617212], [-95.9295419, 36.0616824], [-95.9295361, 36.0616923], [-95.9295146, 36.061684], [-95.9295269, 36.0616631], [-95.9294534, 36.0616347], [-95.9294448, 36.0616492], [-95.9293984, 36.0616313], [-95.9293276, 36.0617512], [-95.9294004, 36.0617793], [-95.9293827, 36.0618094], [-95.929452, 36.0618361]]]}, "properties": {"osm_id": 1236490243, "building": "detached", "name": "", "height": null, "height_m": null, "levels": null, "tract_id": "40143007613", "tract_name": "76.13", "tags": {"building": "detached"}}}, {"type": "Feature", "geometry": {"type": "Polygon", "coordinates": [[[-95.9298408, 36.0619966], [-95.9299518, 36.0618682], [-95.9299171, 36.0618486], [-95.9299237, 36.061841], [-95.929894, 36.0618241], [-95.9299055, 36.0618109], [-95.9298378, 36.0617723], [-95.929824, 36.0617881], [-95.9298191, 36.0617853], [-95.9297958, 36.0618118], [-95.9297883, 36.061804], [-95.9297966, 36.0617943], [-95.9297197, 36.0617512], [-95.92962, 36.0618672], [-95.9296993, 36.0619117], [-95.9297409, 36.0618632], [-95.9297661, 36.0618774], [-95.9297515, 36.0618944], [-95.9297823, 36.0619117], [-95.9297522, 36.0619466], [-95.9298408, 36.0619966]]]}, "properties": {"osm_id": 1236490244, "building": "detached", "name": "", "height": null, "height_m": null, "levels": null, "tract_id": "40143007613", "tract_name": "76.13", "tags": {"building": "detached"}}}, {"type": "Feature", "geometry": {"type": "Polygon", "coordinates": [[[-95.9291702, 36.0623477], [-95.9292103, 36.0622647], [-95.9292308, 36.0622712], [-95.9292584, 36.062214], [-95.9292691, 36.0622174], [-95.9292824, 36.0621898], [-95.9292949, 36.0621938], [-95.929316, 36.0621502], [-95.9292862, 36.0621408], [-95.9292903, 36.0621324], [-95.9291944, 36.0621021], [-95.9291706, 36.0621514], [-95.9291585, 36.0621476], [-95.9291168, 36.0622338], [-95.9291313, 36.0622384], [-95.9290906, 36.0623226], [-95.9291702, 36.0623477]]]}, "properties": {"osm_id": 1236490245, "building": "detached", "name": "", "height": null, "height_m": null, "levels": null, "tract_id": "40143007613", "tract_name": "76.13", "tags": {"building": "detached"}}}, {"type": "Feature", "geometry": {"type": "Polygon", "coordinates": [[[-95.9300317, 36.0619443], [-95.9301895, 36.0620463], [-95.9300881, 36.0621487], [-95.9300275, 36.0621095], [-95.9300346, 36.0621023], [-95.9300134, 36.0620886], [-95.9300055, 36.0620966], [-95.9299755, 36.0620772], [-95.9299821, 36.0620705], [-95.9299763, 36.0620639], [-95.9299669, 36.0620734], [-95.929905, 36.0620333], [-95.9299153, 36.0620229], [-95.9298707, 36.0619941], [-95.930023, 36.0618402], [-95.9300911, 36.0618842], [-95.9300317, 36.0619443]]]}, "properties": {"osm_id": 1236490246, "building": "detached", "name": "", "height": null, "height_m": null, "levels": null, "tract_id": "40143007613", "tract_name": "76.13", "tags": {"building": "detached"}}}, {"type": "Feature", "geometry": {"type": "Polygon", "coordinates": [[[-95.9300596, 36.0618564], [-95.9300278, 36.0618355], [-95.9300657, 36.0617979], [-95.9300975, 36.0618188], [-95.9300596, 36.0618564]]]}, "properties": {"osm_id": 1236490247, "building": "shed", "name": "", "height": null, "height_m": null, "levels": null, "tract_id": "40143007613", "tract_name": "76.13", "tags": {"building": "shed"}}}, {"type": "Feature", "geometry": {"type": "Polygon", "coordinates": [[[-95.9296236, 36.0622691], [-95.9298104, 36.0623636], [-95.9297646, 36.0624227], [-95.9297584, 36.0624195], [-95.9297082, 36.0624843], [-95.9296011, 36.0624301], [-95.9296083, 36.0624208], [-95.9296003, 36.0624167], [-95.9296201, 36.062391], [-95.929626, 36.062394], [-95.9296454, 36.062369], [-95.9295742, 36.062333], [-95.9296236, 36.0622691]]]}, "properties": {"osm_id": 1236490248, "building": "detached", "name": "", "height": null, "height_m": null, "levels": null, "tract_id": "40143007613", "tract_name": "76.13", "tags": {"building": "detached"}}}, {"type": "Feature", "geometry": {"type": "Polygon", "coordinates": [[[-95.9294395, 36.0627157], [-95.9293843, 36.0626366], [-95.9292818, 36.0626835], [-95.9292557, 36.0626461], [-95.9291706, 36.062685], [-95.9292475, 36.062795], [-95.929303, 36.0627697], [-95.9293074, 36.062776], [-95.9294395, 36.0627157]]]}, "properties": {"osm_id": 1236490249, "building": "detached", "name": "", "height": null, "height_m": null, "levels": null, "tract_id": "40143007613", "tract_name": "76.13", "tags": {"building": "detached"}}}, {"type": "Feature", "geometry": {"type": "Polygon", "coordinates": [[[-95.9296353, 36.0625948], [-95.9296224, 36.0625828], [-95.9296297, 36.0625777], [-95.9296249, 36.0625733], [-95.9296182, 36.062578], [-95.9296, 36.0625614], [-95.9296178, 36.0625486], [-95.9295865, 36.0625203], [-95.9296009, 36.0625099], [-95.9295488, 36.0624628], [-95.9294252, 36.0625524], [-95.9294152, 36.0625491], [-95.9293896, 36.0625675], [-95.9293884, 36.0625746], [-95.92938, 36.0625803], [-95.9294529, 36.0626498], [-95.9294605, 36.0626446], [-95.9294867, 36.0626694], [-95.9295227, 36.0626446], [-95.9295422, 36.0626631], [-95.9295493, 36.0626582], [-95.9295771, 36.0626843], [-95.9296262, 36.0626502], [-95.9295963, 36.062622], [-95.9296353, 36.0625948]]]}, "properties": {"osm_id": 1236490250, "building": "detached", "name": "", "height": null, "height_m": null, "levels": null, "tract_id": "40143007613", "tract_name": "76.13", "tags": {"building": "detached"}}}, {"type": "Feature", "geometry": {"type": "Polygon", "coordinates": [[[-95.9282891, 36.0622733], [-95.928345, 36.0622701], [-95.9284922, 36.0623243], [-95.9285393, 36.0622408], [-95.9284901, 36.0622227], [-95.9284988, 36.0622074], [-95.9284043, 36.0621726], [-95.9283912, 36.0621957], [-95.92838, 36.0621916], [-95.9282825, 36.0621972], [-95.9282891, 36.0622733]]]}, "properties": {"osm_id": 1236490251, "building": "detached", "name": "", "height": null, "height_m": null, "levels": null, "tract_id": "40143007613", "tract_name": "76.13", "tags": {"building": "detached"}}}, {"type": "Feature", "geometry": {"type": "Polygon", "coordinates": [[[-95.9280502, 36.0623852], [-95.9279012, 36.0622634], [-95.9279952, 36.0621883], [-95.9279796, 36.0621756], [-95.928037, 36.0621297], [-95.9281535, 36.0622249], [-95.9281207, 36.0622511], [-95.928143, 36.0622693], [-95.9281056, 36.0622992], [-95.9280857, 36.0622829], [-95.9280654, 36.0622992], [-95.928111, 36.0623365], [-95.9280502, 36.0623852]]]}, "properties": {"osm_id": 1236490252, "building": "detached", "name": "", "height": null, "height_m": null, "levels": null, "tract_id": "40143007613", "tract_name": "76.13", "tags": {"building": "detached"}}}, {"type": "Feature", "geometry": {"type": "Polygon", "coordinates": [[[-95.9290182, 36.0624052], [-95.9289541, 36.0622922], [-95.9289065, 36.0622792], [-95.9288134, 36.0623137], [-95.9287957, 36.0622825], [-95.9287107, 36.062314], [-95.9287982, 36.0624682], [-95.9289216, 36.0624225], [-95.9289302, 36.0624378], [-95.9290182, 36.0624052]]]}, "properties": {"osm_id": 1236490253, "building": "detached", "name": "", "height": null, "height_m": null, "levels": null, "tract_id": "40143007613", "tract_name": "76.13", "tags": {"building": "detached"}}}, {"type": "Feature", "geometry": {"type": "Polygon", "coordinates": [[[-95.9287752, 36.062463], [-95.928713, 36.0623614], [-95.9285342, 36.0624329], [-95.9286153, 36.0625654], [-95.928698, 36.0625323], [-95.9286791, 36.0625014], [-95.9287752, 36.062463]]]}, "properties": {"osm_id": 1236490254, "building": "detached", "name": "", "height": null, "height_m": null, "levels": null, "tract_id": "40143007613", "tract_name": "76.13", "tags": {"building": "detached"}}}, {"type": "Feature", "geometry": {"type": "Polygon", "coordinates": [[[-95.9276983, 36.062315], [-95.9276977, 36.0622933], [-95.9277083, 36.0622931], [-95.9277072, 36.0622477], [-95.927732, 36.0622473], [-95.9277297, 36.0621574], [-95.9275553, 36.0621603], [-95.9275569, 36.0622223], [-95.9275379, 36.0622226], [-95.9275391, 36.0622692], [-95.9275466, 36.0622691], [-95.9275471, 36.0622854], [-95.9275372, 36.0622856], [-95.9275385, 36.0623321], [-95.9276625, 36.06233], [-95.9276621, 36.0623156], [-95.9276983, 36.062315]]]}, "properties": {"osm_id": 1236490256, "building": "detached", "name": "", "height": null, "height_m": null, "levels": null, "tract_id": "40143007613", "tract_name": "76.13", "tags": {"building": "detached"}}}, {"type": "Feature", "geometry": {"type": "Polygon", "coordinates": [[[-95.9278828, 36.0625566], [-95.9280259, 36.0625652], [-95.9280388, 36.0624249], [-95.927924, 36.062418], [-95.9279215, 36.0624446], [-95.9278795, 36.0624421], [-95.9278755, 36.0624859], [-95.9278893, 36.0624868], [-95.9278828, 36.0625566]]]}, "properties": {"osm_id": 1236490257, "building": "detached", "name": "", "height": null, "height_m": null, "levels": null, "tract_id": "40143007613", "tract_name": "76.13", "tags": {"building": "detached"}}}, {"type": "Feature", "geometry": {"type": "Polygon", "coordinates": [[[-95.9271474, 36.062333], [-95.9271488, 36.0623721], [-95.9271279, 36.0623726], [-95.9271304, 36.0624415], [-95.9271788, 36.0624403], [-95.9271811, 36.0625004], [-95.9269412, 36.0625062], [-95.926935, 36.0623382], [-95.9271474, 36.062333]]]}, "properties": {"osm_id": 1236490258, "building": "detached", "name": "", "height": null, "height_m": null, "levels": null, "tract_id": "40143007613", "tract_name": "76.13", "tags": {"building": "detached"}}}, {"type": "Feature", "geometry": {"type": "Polygon", "coordinates": [[[-95.9271664, 36.0626864], [-95.926996, 36.062691], [-95.926989, 36.0625201], [-95.927106, 36.0625169], [-95.9271104, 36.0626238], [-95.9271637, 36.0626223], [-95.9271664, 36.0626864]]]}, "properties": {"osm_id": 1236490259, "building": "detached", "name": "", "height": null, "height_m": null, "levels": null, "tract_id": "40143007613", "tract_name": "76.13", "tags": {"building": "detached"}}}, {"type": "Feature", "geometry": {"type": "Polygon", "coordinates": [[[-95.9271843, 36.0627194], [-95.927013, 36.0627187], [-95.9270121, 36.062866], [-95.9271834, 36.0628667], [-95.9271843, 36.0627194]]]}, "properties": {"osm_id": 1236490260, "building": "detached", "name": "", "height": null, "height_m": null, "levels": null, "tract_id": "40143007613", "tract_name": "76.13", "tags": {"building": "detached"}}}, {"type": "Feature", "geometry": {"type": "Polygon", "coordinates": [[[-95.9268997, 36.0629722], [-95.9270731, 36.0629741], [-95.9270733, 36.0628726], [-95.9267135, 36.0628639], [-95.9267075, 36.0630261], [-95.9267363, 36.0630268], [-95.9267356, 36.0630459], [-95.9267502, 36.0630462], [-95.9267478, 36.0631113], [-95.9269061, 36.0631151], [-95.9268997, 36.0629722]]]}, "properties": {"osm_id": 1236490261, "building": "detached", "name": "", "height": null, "height_m": null, "levels": null, "tract_id": "40143007613", "tract_name": "76.13", "tags": {"building": "detached"}}}, {"type": "Feature", "geometry": {"type": "Polygon", "coordinates": [[[-95.9269711, 36.0633329], [-95.9269424, 36.0633073], [-95.9270048, 36.0632614], [-95.9268568, 36.0631299], [-95.9267133, 36.0632355], [-95.9268647, 36.06337], [-95.9269003, 36.0633438], [-95.9269256, 36.0633663], [-95.9269711, 36.0633329]]]}, "properties": {"osm_id": 1236490262, "building": "detached", "name": "", "height": null, "height_m": null, "levels": null, "tract_id": "40143007613", "tract_name": "76.13", "tags": {"building": "detached"}}}, {"type": "Feature", "geometry": {"type": "Polygon", "coordinates": [[[-95.9275202, 36.0623621], [-95.9277024, 36.0623599], [-95.9277029, 36.0623845], [-95.9277417, 36.062384], [-95.9277432, 36.0624672], [-95.9277609, 36.0624708], [-95.927762, 36.0625332], [-95.9275363, 36.0625358], [-95.9275354, 36.0624853], [-95.9275591, 36.0624851], [-95.9275579, 36.0624194], [-95.9275213, 36.0624198], [-95.9275202, 36.0623621]]]}, "properties": {"osm_id": 1236490263, "building": "detached", "name": "", "height": null, "height_m": null, "levels": null, "tract_id": "40143007613", "tract_name": "76.13", "tags": {"building": "detached"}}}, {"type": "Feature", "geometry": {"type": "Polygon", "coordinates": [[[-95.9276818, 36.0627777], [-95.9275099, 36.0627743], [-95.9275074, 36.0628552], [-95.9274884, 36.0628549], [-95.9274866, 36.0629144], [-95.9276735, 36.0629181], [-95.9276759, 36.0628378], [-95.9277303, 36.0628388], [-95.9277317, 36.0627928], [-95.9276814, 36.0627918], [-95.9276818, 36.0627777]]]}, "properties": {"osm_id": 1236490264, "building": "detached", "name": "", "height": null, "height_m": null, "levels": null, "tract_id": "40143007613", "tract_name": "76.13", "tags": {"building": "detached"}}}, {"type": "Feature", "geometry": {"type": "Polygon", "coordinates": [[[-95.927573, 36.0627406], [-95.9275723, 36.0626905], [-95.9275258, 36.0626909], [-95.927525, 36.0626306], [-95.9275514, 36.0626303], [-95.9275506, 36.0625697], [-95.9276449, 36.0625688], [-95.9276454, 36.0626062], [-95.9276689, 36.062606], [-95.9276707, 36.0627397], [-95.927573, 36.0627406]]]}, "properties": {"osm_id": 1236490265, "building": "detached", "name": "", "height": null, "height_m": null, "levels": null, "tract_id": "40143007613", "tract_name": "76.13", "tags": {"building": "detached"}}}, {"type": "Feature", "geometry": {"type": "Polygon", "coordinates": [[[-95.9279528, 36.0628133], [-95.9279193, 36.0627378], [-95.9279563, 36.0627271], [-95.9279436, 36.0626986], [-95.9280042, 36.062681], [-95.9279977, 36.0626664], [-95.9280567, 36.0626493], [-95.9280659, 36.0626699], [-95.9280814, 36.0626654], [-95.9280949, 36.0626958], [-95.9281186, 36.0626889], [-95.9281275, 36.062709], [-95.9281519, 36.0627019], [-95.928172, 36.0627471], [-95.928075, 36.0627752], [-95.9280814, 36.0627896], [-95.9280345, 36.0628032], [-95.9280292, 36.0627912], [-95.9279528, 36.0628133]]]}, "properties": {"osm_id": 1236490266, "building": "detached", "name": "", "height": null, "height_m": null, "levels": null, "tract_id": "40143007613", "tract_name": "76.13", "tags": {"building": "detached"}}}, {"type": "Feature", "geometry": {"type": "Polygon", "coordinates": [[[-95.9272229, 36.0634609], [-95.9271266, 36.0634521], [-95.9271321, 36.0634128], [-95.9271224, 36.0634119], [-95.9271212, 36.0634202], [-95.9270892, 36.0634173], [-95.9270881, 36.0634255], [-95.9270215, 36.0634195], [-95.9270348, 36.0633236], [-95.9272263, 36.0633409], [-95.9272162, 36.0634138], [-95.9272292, 36.063415], [-95.9272229, 36.0634609]]]}, "properties": {"osm_id": 1236490267, "building": "detached", "name": "", "height": null, "height_m": null, "levels": null, "tract_id": "40143007613", "tract_name": "76.13", "tags": {"building": "detached"}}}, {"type": "Feature", "geometry": {"type": "Polygon", "coordinates": [[[-95.9274411, 36.0634197], [-95.927388, 36.0632859], [-95.9274531, 36.063269], [-95.9274574, 36.0632797], [-95.9274831, 36.063273], [-95.927485, 36.0632778], [-95.9275048, 36.0632727], [-95.9274977, 36.0632547], [-95.9276053, 36.0632269], [-95.9276479, 36.0633344], [-95.9275091, 36.0633703], [-95.9275205, 36.0633991], [-95.9274411, 36.0634197]]]}, "properties": {"osm_id": 1236490268, "building": "detached", "name": "", "height": null, "height_m": null, "levels": null, "tract_id": "40143007613", "tract_name": "76.13", "tags": {"building": "detached"}}}, {"type": "Feature", "geometry": {"type": "Polygon", "coordinates": [[[-95.9277748, 36.0633369], [-95.9278843, 36.0633009], [-95.9278564, 36.0632454], [-95.9279393, 36.0632181], [-95.9279083, 36.0631566], [-95.9278338, 36.0631811], [-95.9278291, 36.0631717], [-95.9278065, 36.0631791], [-95.927801, 36.0631681], [-95.9277314, 36.063191], [-95.927739, 36.063206], [-95.9276593, 36.0632322], [-95.9277055, 36.063324], [-95.9277594, 36.0633063], [-95.9277748, 36.0633369]]]}, "properties": {"osm_id": 1236490269, "building": "detached", "name": "", "height": null, "height_m": null, "levels": null, "tract_id": "40143007613", "tract_name": "76.13", "tags": {"building": "detached"}}}, {"type": "Feature", "geometry": {"type": "Polygon", "coordinates": [[[-95.9279559, 36.0631431], [-95.9280101, 36.0632401], [-95.9282357, 36.0631579], [-95.9281816, 36.0630608], [-95.9279559, 36.0631431]]]}, "properties": {"osm_id": 1236490270, "building": "detached", "name": "", "height": null, "height_m": null, "levels": null, "tract_id": "40143007613", "tract_name": "76.13", "tags": {"building": "detached"}}}, {"type": "Feature", "geometry": {"type": "Polygon", "coordinates": [[[-95.9282866, 36.0631515], [-95.928482, 36.0630766], [-95.928427, 36.0629829], [-95.9282316, 36.0630578], [-95.9282866, 36.0631515]]]}, "properties": {"osm_id": 1236490271, "building": "detached", "name": "", "height": null, "height_m": null, "levels": null, "tract_id": "40143007613", "tract_name": "76.13", "tags": {"building": "detached"}}}, {"type": "Feature", "geometry": {"type": "Polygon", "coordinates": [[[-95.9291163, 36.062901], [-95.9290907, 36.0628612], [-95.9292071, 36.0628121], [-95.9291303, 36.062693], [-95.928923, 36.0627803], [-95.9290254, 36.0629393], [-95.9291163, 36.062901]]]}, "properties": {"osm_id": 1236490272, "building": "detached", "name": "", "height": null, "height_m": null, "levels": null, "tract_id": "40143007613", "tract_name": "76.13", "tags": {"building": "detached"}}}, {"type": "Feature", "geometry": {"type": "Polygon", "coordinates": [[[-95.9287986, 36.0628343], [-95.9287899, 36.0628198], [-95.9287078, 36.0628521], [-95.9287959, 36.0629987], [-95.928875, 36.0629676], [-95.9288459, 36.0629191], [-95.9289471, 36.0628793], [-95.9288968, 36.0627957], [-95.9287986, 36.0628343]]]}, "properties": {"osm_id": 1236490273, "building": "detached", "name": "", "height": null, "height_m": null, "levels": null, "tract_id": "40143007613", "tract_name": "76.13", "tags": {"building": "detached"}}}, {"type": "Feature", "geometry": {"type": "Polygon", "coordinates": [[[-95.9286761, 36.0628729], [-95.9287549, 36.0629964], [-95.9286379, 36.0630451], [-95.9286611, 36.0630816], [-95.9285818, 36.0631147], [-95.9284798, 36.0629546], [-95.9286761, 36.0628729]]]}, "properties": {"osm_id": 1236490274, "building": "detached", "name": "", "height": null, "height_m": null, "levels": null, "tract_id": "40143007613", "tract_name": "76.13", "tags": {"building": "detached"}}}, {"type": "Feature", "geometry": {"type": "Polygon", "coordinates": [[[-95.9270857, 36.0619085], [-95.9270854, 36.0618489], [-95.9271832, 36.0618486], [-95.9271827, 36.0617664], [-95.9269701, 36.0617671], [-95.9269709, 36.0619089], [-95.9270857, 36.0619085]]]}, "properties": {"osm_id": 1236490275, "building": "yes", "name": "", "height": null, "height_m": null, "levels": null, "tract_id": "40143007613", "tract_name": "76.13", "tags": {"building": "yes"}}}, {"type": "Feature", "geometry": {"type": "Polygon", "coordinates": [[[-95.9268462, 36.0685359], [-95.9269169, 36.0684586], [-95.9269412, 36.0684732], [-95.9270154, 36.0683922], [-95.9269893, 36.0683766], [-95.9270636, 36.0682955], [-95.9270034, 36.0682595], [-95.9269573, 36.068232], [-95.9268978, 36.068297], [-95.9269098, 36.0683042], [-95.9268899, 36.068326], [-95.9267772, 36.0682586], [-95.926711, 36.0683309], [-95.9268345, 36.0684048], [-95.926761, 36.068485], [-95.9268462, 36.0685359]]]}, "properties": {"osm_id": 1395032902, "building": "detached", "name": "", "height": null, "height_m": null, "levels": null, "tract_id": "40143007613", "tract_name": "76.13", "tags": {"building": "detached"}}}]}