{"type": "FeatureCollection", "features": [{"type": "Feature", "geometry": {"type": "Polygon", "coordinates": [[[-95.4319242, 36.5358604], [-95.4318566, 36.5358226], [-95.4320135, 36.5356415], [-95.4320811, 36.5356794], [-95.4319242, 36.5358604]]]}, "properties": {"osm_id": 457397148, "building": "commercial", "name": "", "height": null, "height_m": null, "levels": null, "tract_id": "40131050701", "tract_name": "507.01", "tags": {"building": "commercial"}}}, {"type": "Feature", "geometry": {"type": "Polygon", "coordinates": [[[-95.420376, 36.5396429], [-95.4205477, 36.5395631], [-95.4204672, 36.5394382], [-95.4202902, 36.5395265], [-95.420376, 36.5396429]]]}, "properties": {"osm_id": 702950175, "building": "house", "name": "", "height": null, "height_m": null, "levels": null, "tract_id": "40131050701", "tract_name": "507.01", "tags": {"building": "house"}}}, {"type": "Feature", "geometry": {"type": "Polygon", "coordinates": [[[-95.4205182, 36.5390847], [-95.4206443, 36.5390826], [-95.4206443, 36.538921], [-95.4205075, 36.5389231], [-95.4205182, 36.5390847]]]}, "properties": {"osm_id": 702950177, "building": "abandoned", "name": "", "height": null, "height_m": null, "levels": null, "tract_id": "40131050701", "tract_name": "507.01", "tags": {"building": "abandoned"}}}, {"type": "Feature", "geometry": {"type": "Polygon", "coordinates": [[[-95.4205906, 36.5395782], [-95.420604, 36.5394899], [-95.4209044, 36.5395308], [-95.4208973, 36.5395629], [-95.4208857, 36.5396149], [-95.4205906, 36.5395782]]]}, "properties": {"osm_id": 702950178, "building": "yes", "name": "Chelsea Motor Inn", "height": null, "height_m": null, "levels": null, "tract_id": "40131050701", "tract_name": "507.01", "tags": {"building": "yes", "name": "Chelsea Motor Inn", "tourism": "motel"}}}, {"type": "Feature", "geometry": {"type": "Polygon", "coordinates": [[[-95.42095, 36.5395588], [-95.4210761, 36.5395631], [-95.4210707, 36.5396838], [-95.420942, 36.5396817], [-95.42095, 36.5395588]]]}, "properties": {"osm_id": 702950181, "building": "house", "name": "", "height": null, "height_m": null, "levels": null, "tract_id": "40131050701", "tract_name": "507.01", "tags": {"building": "house"}}}, {"type": "Feature", "geometry": {"type": "Polygon", "coordinates": [[[-95.4210707, 36.5398131], [-95.4210707, 36.5397291], [-95.4212048, 36.5397291], [-95.4212075, 36.5398153], [-95.4210707, 36.5398131]]]}, "properties": {"osm_id": 702950184, "building": "garage", "name": "", "height": null, "height_m": null, "levels": null, "tract_id": "40131050701", "tract_name": "507.01", "tags": {"building": "garage"}}}, {"type": "Feature", "geometry": {"type": "Polygon", "coordinates": [[[-95.4213845, 36.5390395], [-95.4215643, 36.5390416], [-95.4215643, 36.5389511], [-95.4215052, 36.538949], [-95.4215026, 36.5388822], [-95.4213845, 36.53888], [-95.4213845, 36.5390395]]]}, "properties": {"osm_id": 702950185, "building": "yes", "name": "", "height": null, "height_m": null, "levels": null, "tract_id": "40131050701", "tract_name": "507.01", "tags": {"building": "yes"}}}, {"type": "Feature", "geometry": {"type": "Polygon", "coordinates": [[[-95.4214006, 36.5396752], [-95.4214006, 36.539533], [-95.4215777, 36.5395351], [-95.4215857, 36.5396838], [-95.4214006, 36.5396752]]]}, "properties": {"osm_id": 702950186, "building": "commercial", "name": "", "height": null, "height_m": null, "levels": null, "tract_id": "40131050701", "tract_name": "507.01", "tags": {"building": "commercial"}}}, {"type": "Feature", "geometry": {"type": "Polygon", "coordinates": [[[-95.4216125, 36.5390481], [-95.4217118, 36.5390459], [-95.4217118, 36.5390158], [-95.4217493, 36.5390158], [-95.4217466, 36.538936], [-95.421701, 36.5389317], [-95.421701, 36.5388369], [-95.4216045, 36.5388369], [-95.4216125, 36.5390481]]]}, "properties": {"osm_id": 702950189, "building": "yes", "name": "", "height": null, "height_m": null, "levels": null, "tract_id": "40131050701", "tract_name": "507.01", "tags": {"building": "yes"}}}, {"type": "Feature", "geometry": {"type": "Polygon", "coordinates": [[[-95.4216286, 36.5397442], [-95.421803, 36.5397377], [-95.421803, 36.5398282], [-95.4216313, 36.5398411], [-95.4216286, 36.5397442]]]}, "properties": {"osm_id": 702950191, "building": "garage", "name": "", "height": null, "height_m": null, "levels": null, "tract_id": "40131050701", "tract_name": "507.01", "tags": {"building": "garage"}}}, {"type": "Feature", "geometry": {"type": "Polygon", "coordinates": [[[-95.4222214, 36.5390675], [-95.4223421, 36.5390675], [-95.4223448, 36.5388757], [-95.422216, 36.5388757], [-95.4222205, 36.539037], [-95.4222214, 36.5390675]]]}, "properties": {"osm_id": 702950193, "building": "commercial", "name": "", "height": null, "height_m": null, "levels": null, "tract_id": "40131050701", "tract_name": "507.01", "tags": {"building": "commercial"}}}, {"type": "Feature", "geometry": {"type": "Polygon", "coordinates": [[[-95.4221544, 36.539562], [-95.4223073, 36.539562], [-95.4223046, 36.5394694], [-95.4221544, 36.5394694], [-95.4221544, 36.539562]]]}, "properties": {"osm_id": 702950196, "building": "commercial", "name": "The Little Green Shop", "height": null, "height_m": null, "levels": null, "tract_id": "40131050701", "tract_name": "507.01", "tags": {"building": "commercial", "name": "The Little Green Shop"}}}, {"type": "Feature", "geometry": {"type": "Polygon", "coordinates": [[[-95.4228387, 36.539593], [-95.4228379, 36.5394475], [-95.4229532, 36.5394471], [-95.422954, 36.5395926], [-95.4228387, 36.539593]]]}, "properties": {"osm_id": 702950200, "building": "yes", "name": "Subway", "height": null, "height_m": null, "levels": null, "tract_id": "40131050701", "tract_name": "507.01", "tags": {"addr:city": "Chelsea", "addr:postcode": "74016", "addr:state": "OK", "addr:street": "Walnut Street", "amenity": "fast_food", "brand": "Subway", "brand:facebook": "https://www.facebook.com/subway", "brand:website": "https://www.subway.com/en-us", "brand:wikidata": "Q244457", "building": "yes", "check_date": "2020-03-03", "cuisine": "sandwich", "name": "Subway", "takeaway": "yes"}}}, {"type": "Feature", "geometry": {"type": "Polygon", "coordinates": [[[-95.4226108, 36.5387055], [-95.4226125, 36.5384006], [-95.423173, 36.5384025], [-95.4231714, 36.5387075], [-95.4229009, 36.5387065], [-95.4226108, 36.5387055]]]}, "properties": {"osm_id": 702950203, "building": "supermarket", "name": "Harps", "height": null, "height_m": null, "levels": null, "tract_id": "40131050701", "tract_name": "507.01", "tags": {"addr:city": "Chelsea", "addr:postcode": "74016", "addr:state": "OK", "addr:street": "Walnut Street", "brand": "Harps", "brand:website": "https://www.harpsfood.com/", "brand:wikidata": "Q16994839", "building": "supermarket", "facebook": "https://www.facebook.com/HarpsChelsea", "name": "Harps", "shop": "supermarket"}}}, {"type": "Feature", "geometry": {"type": "Polygon", "coordinates": [[[-95.4233772, 36.5385764], [-95.4235897, 36.5388441], [-95.4236701, 36.5388118], [-95.4237476, 36.5389133], [-95.4238309, 36.5388787], [-95.4237505, 36.5387749], [-95.4238223, 36.5387402], [-95.4236155, 36.538468], [-95.4233772, 36.5385764]]]}, "properties": {"osm_id": 702955312, "building": "commercial", "name": "", "height": null, "height_m": null, "levels": null, "tract_id": "40131050701", "tract_name": "507.01", "tags": {"building": "commercial"}}}, {"type": "Feature", "geometry": {"type": "Polygon", "coordinates": [[[-95.4234515, 36.5394872], [-95.4235635, 36.5394919], [-95.4235692, 36.5393327], [-95.4234486, 36.5393303], [-95.4234515, 36.5394872]]]}, "properties": {"osm_id": 702955314, "building": "house", "name": "", "height": null, "height_m": null, "levels": null, "tract_id": "40131050701", "tract_name": "507.01", "tags": {"building": "house"}}}, {"type": "Feature", "geometry": {"type": "Polygon", "coordinates": [[[-95.4236787, 36.539504], [-95.4236816, 36.5395986], [-95.4238912, 36.5395917], [-95.4238912, 36.539504], [-95.4236787, 36.539504]]]}, "properties": {"osm_id": 702955315, "building": "garage", "name": "", "height": null, "height_m": null, "levels": null, "tract_id": "40131050701", "tract_name": "507.01", "tags": {"building": "garage"}}}, {"type": "Feature", "geometry": {"type": "Polygon", "coordinates": [[[-95.4240406, 36.5394255], [-95.4240406, 36.5393332], [-95.4242531, 36.5393286], [-95.4242559, 36.5394209], [-95.4240406, 36.5394255]]]}, "properties": {"osm_id": 702955317, "building": "house", "name": "", "height": null, "height_m": null, "levels": null, "tract_id": "40131050701", "tract_name": "507.01", "tags": {"building": "house"}}}, {"type": "Feature", "geometry": {"type": "Polygon", "coordinates": [[[-95.4242904, 36.5395247], [-95.4242789, 36.5393355], [-95.4243651, 36.5393355], [-95.4243766, 36.5395201], [-95.4242904, 36.5395247]]]}, "properties": {"osm_id": 702955319, "building": "garage", "name": "", "height": null, "height_m": null, "levels": null, "tract_id": "40131050701", "tract_name": "507.01", "tags": {"building": "garage"}}}, {"type": "Feature", "geometry": {"type": "Polygon", "coordinates": [[[-95.4260135, 36.5377435], [-95.4261456, 36.5377365], [-95.4261427, 36.5376143], [-95.4260106, 36.5376143], [-95.4260135, 36.5377435]]]}, "properties": {"osm_id": 702955320, "building": "house", "name": "", "height": null, "height_m": null, "levels": null, "tract_id": "40131050701", "tract_name": "507.01", "tags": {"building": "house"}}}, {"type": "Feature", "geometry": {"type": "Polygon", "coordinates": [[[-95.4262174, 36.5376419], [-95.4262949, 36.5376419], [-95.4263035, 36.5374297], [-95.4262202, 36.5374297], [-95.4262174, 36.5376419]]]}, "properties": {"osm_id": 702955321, "building": "yes", "name": "old Chelsea Motel", "height": null, "height_m": null, "levels": null, "tract_id": "40131050701", "tract_name": "507.01", "tags": {"building": "yes", "name": "old Chelsea Motel"}}}, {"type": "Feature", "geometry": {"type": "Polygon", "coordinates": [[[-95.4267504, 36.5368062], [-95.4268957, 36.5368816], [-95.4270601, 36.5366772], [-95.4270733, 36.536684], [-95.4271066, 36.5367013], [-95.4271397, 36.5367185], [-95.4273404, 36.5368226], [-95.4272721, 36.5369076], [-95.4271766, 36.5368581], [-95.4270823, 36.5369754], [-95.4271546, 36.5370129], [-95.42703, 36.5371679], [-95.4267974, 36.5370472], [-95.4267511, 36.5370232], [-95.4267055, 36.5369995], [-95.4266275, 36.536959], [-95.4267504, 36.5368062]]]}, "properties": {"osm_id": 702955323, "building": "church", "name": "United Pentecostal Church", "height": null, "height_m": null, "levels": null, "tract_id": "40131050701", "tract_name": "507.01", "tags": {"addr:city": "Chelsea", "addr:postcode": "74016", "addr:state": "OK", "addr:street": "Walnut Street", "amenity": "place_of_worship", "building": "church", "denomination": "pentecostal", "ele": "219", "gnis:feature_id": "1782654", "name": "United Pentecostal Church", "religion": "christian"}}}, {"type": "Feature", "geometry": {"type": "Polygon", "coordinates": [[[-95.4278118, 36.5355307], [-95.4279338, 36.535592], [-95.4280786, 36.5354062], [-95.4279567, 36.5353448], [-95.4278118, 36.5355307]]]}, "properties": {"osm_id": 702955329, "building": "yes", "name": "", "height": null, "height_m": 3.0, "levels": 1, "tract_id": "40131050701", "tract_name": "507.01", "tags": {"building": "yes", "building:levels": "1"}}}, {"type": "Feature", "geometry": {"type": "Polygon", "coordinates": [[[-95.4280431, 36.5357297], [-95.4281044, 36.5357631], [-95.4283528, 36.5354686], [-95.4282915, 36.5354352], [-95.4280431, 36.5357297]]]}, "properties": {"osm_id": 702955330, "building": "roof", "name": "", "height": null, "height_m": null, "levels": null, "tract_id": "40131050701", "tract_name": "507.01", "tags": {"amenity": "fuel", "building": "roof"}}}, {"type": "Feature", "geometry": {"type": "Polygon", "coordinates": [[[-95.428932, 36.5343089], [-95.4290267, 36.5343603], [-95.429084, 36.5343915], [-95.4291193, 36.5344106], [-95.4292164, 36.5342952], [-95.4293086, 36.5341856], [-95.4291212, 36.5340839], [-95.428932, 36.5343089]]]}, "properties": {"osm_id": 702955333, "building": "yes", "name": "Lakeside State Bank", "height": null, "height_m": 6.0, "levels": 2, "tract_id": "40131050701", "tract_name": "507.01", "tags": {"addr:city": "Chelsea", "addr:postcode": "74016", "addr:state": "OK", "addr:street": "Walnut Street", "amenity": "bank", "building": "yes", "building:levels": "2", "name": "Lakeside State Bank", "website": "https://www.lakesidebankok.com/"}}}, {"type": "Feature", "geometry": {"type": "Polygon", "coordinates": [[[-95.4295878, 36.533835], [-95.429639, 36.533773], [-95.4296903, 36.5337111], [-95.4294895, 36.5336039], [-95.429387, 36.5337277], [-95.4295878, 36.533835]]]}, "properties": {"osm_id": 702955337, "building": "yes", "name": "Chelsea Family Pharmacy", "height": null, "height_m": null, "levels": null, "tract_id": "40131050701", "tract_name": "507.01", "tags": {"addr:city": "Chelsea", "addr:postcode": "74016", "addr:state": "OK", "addr:street": "Walnut Street", "building": "yes", "building:levels": "2.5", "facebook": "https://www.facebook.com/ChelseaFP", "name": "Chelsea Family Pharmacy", "shop": "chemist", "website": "https://www.chelseafamilypharmacy.com/"}}}, {"type": "Feature", "geometry": {"type": "Polygon", "coordinates": [[[-95.4299113, 36.5333325], [-95.4300144, 36.5333832], [-95.430161, 36.5331911], [-95.4300579, 36.5331403], [-95.4299113, 36.5333325]]]}, "properties": {"osm_id": 702955342, "building": "yes", "name": "", "height": null, "height_m": null, "levels": null, "tract_id": "40131050701", "tract_name": "507.01", "tags": {"amenity": "car_wash", "building": "yes"}}}, {"type": "Feature", "geometry": {"type": "Polygon", "coordinates": [[[-95.4305226, 36.5330191], [-95.4304433, 36.532978], [-95.430465, 36.5329509], [-95.4303891, 36.5329116], [-95.4304397, 36.5328485], [-95.4305128, 36.5328863], [-95.4306381, 36.5327301], [-95.4307202, 36.5327727], [-95.4305226, 36.5330191]]]}, "properties": {"osm_id": 702955344, "building": "roof", "name": "Phillips 66", "height": null, "height_m": null, "levels": null, "tract_id": "40131050701", "tract_name": "507.01", "tags": {"amenity": "fuel", "brand": "Phillips 66", "brand:wikidata": "Q1656230", "building": "roof", "name": "Phillips 66", "website": "https://www.phillips66gas.com/station/P66-CHELSEA-COUNTRY-MART-0000901178/"}}}, {"type": "Feature", "geometry": {"type": "Polygon", "coordinates": [[[-95.4302441, 36.5328984], [-95.4300886, 36.5328186], [-95.430257, 36.5326068], [-95.4302726, 36.5326149], [-95.430288, 36.5325955], [-95.4303259, 36.532615], [-95.4303405, 36.5325967], [-95.4304134, 36.5326341], [-95.4303848, 36.53267], [-95.4304138, 36.5326849], [-95.4302441, 36.5328984]]]}, "properties": {"osm_id": 702955345, "building": "yes", "name": "", "height": null, "height_m": 3.0, "levels": 1, "tract_id": "40131050701", "tract_name": "507.01", "tags": {"building": "yes", "building:levels": "1"}}}, {"type": "Feature", "geometry": {"type": "Polygon", "coordinates": [[[-95.4304897, 36.5324805], [-95.4306307, 36.532555], [-95.4307198, 36.5324462], [-95.4308248, 36.5325017], [-95.4309194, 36.5323862], [-95.4306734, 36.5322561], [-95.4304897, 36.5324805]]]}, "properties": {"osm_id": 702955347, "building": "yes", "name": "", "height": null, "height_m": null, "levels": null, "tract_id": "40131050701", "tract_name": "507.01", "tags": {"building": "yes"}}}, {"type": "Feature", "geometry": {"type": "Polygon", "coordinates": [[[-95.4311173, 36.5318235], [-95.4312013, 36.5317255], [-95.4313675, 36.5318175], [-95.4312835, 36.5319155], [-95.4311173, 36.5318235]]]}, "properties": {"osm_id": 702955350, "building": "commercial", "name": "", "height": null, "height_m": null, "levels": null, "tract_id": "40131050701", "tract_name": "507.01", "tags": {"building": "commercial"}}}, {"type": "Feature", "geometry": {"type": "Polygon", "coordinates": [[[-95.4315873, 36.5315785], [-95.4314896, 36.5315254], [-95.4315471, 36.5314608], [-95.4313575, 36.5313523], [-95.4314466, 36.5312508], [-95.4315959, 36.5313385], [-95.4316447, 36.5312808], [-95.4317797, 36.5313523], [-95.4315873, 36.5315785]]]}, "properties": {"osm_id": 702955353, "building": "yes", "name": "", "height": null, "height_m": null, "levels": null, "tract_id": "40131050701", "tract_name": "507.01", "tags": {"building": "yes", "shop": "funeral_directors"}}}, {"type": "Feature", "geometry": {"type": "Polygon", "coordinates": [[[-95.4324894, 36.530461], [-95.4325497, 36.5303756], [-95.4324434, 36.5303249], [-95.4323802, 36.5304033], [-95.4324894, 36.530461]]]}, "properties": {"osm_id": 702955355, "building": "commercial", "name": "", "height": null, "height_m": null, "levels": null, "tract_id": "40131050701", "tract_name": "507.01", "tags": {"building": "commercial"}}}, {"type": "Feature", "geometry": {"type": "Polygon", "coordinates": [[[-95.4331512, 36.5295799], [-95.4329984, 36.529498], [-95.4331673, 36.5292976], [-95.4333202, 36.529373], [-95.4331512, 36.5295799]]]}, "properties": {"osm_id": 702955357, "building": "commercial", "name": "", "height": null, "height_m": null, "levels": null, "tract_id": "40131050701", "tract_name": "507.01", "tags": {"addr:city": "Chelsea", "addr:housenumber": "1100", "addr:postcode": "74016", "addr:state": "OK", "addr:street": "Walnut Street", "building": "commercial"}}}, {"type": "Feature", "geometry": {"type": "Polygon", "coordinates": [[[-95.4332612, 36.5293192], [-95.4331378, 36.5292545], [-95.4334704, 36.528845], [-95.4336179, 36.5289161], [-95.4332612, 36.5293192]]]}, "properties": {"osm_id": 702955361, "building": "commercial", "name": "", "height": null, "height_m": null, "levels": null, "tract_id": "40131050701", "tract_name": "507.01", "tags": {"building": "commercial"}}}, {"type": "Feature", "geometry": {"type": "Polygon", "coordinates": [[[-95.4338392, 36.528762], [-95.4339036, 36.528678], [-95.4338016, 36.5286284], [-95.4337373, 36.5287125], [-95.4338392, 36.528762]]]}, "properties": {"osm_id": 702955362, "building": "yes", "name": "Prarie Rose Grill", "height": null, "height_m": null, "levels": null, "tract_id": "40131050701", "tract_name": "507.01", "tags": {"amenity": "restaurant", "building": "yes", "name": "Prarie Rose Grill"}}}, {"type": "Feature", "geometry": {"type": "Polygon", "coordinates": [[[-95.4360277, 36.5256012], [-95.4361935, 36.5254047], [-95.4363496, 36.5252196], [-95.4361404, 36.5250968], [-95.4358078, 36.5254697], [-95.4360277, 36.5256012]]]}, "properties": {"osm_id": 704924184, "building": "yes", "name": "Dollar General", "height": null, "height_m": null, "levels": null, "tract_id": "40131050701", "tract_name": "507.01", "tags": {"addr:city": "Chelsea", "addr:postcode": "74016", "addr:state": "OK", "addr:street": "Admiral Joe 'Jocko' Clark Trailways", "brand": "Dollar General", "brand:wikidata": "Q145168", "building": "yes", "name": "Dollar General", "shop": "variety_store", "website": "https://www.dollargeneral.com/store-directory/ok/chelsea/6155"}}}, {"type": "Feature", "geometry": {"type": "Polygon", "coordinates": [[[-95.436009, 36.5248985], [-95.4360063, 36.5247908], [-95.4362691, 36.5247908], [-95.4362638, 36.5248985], [-95.436009, 36.5248985]]]}, "properties": {"osm_id": 704924187, "building": "yes", "name": "", "height": null, "height_m": null, "levels": null, "tract_id": "40131050701", "tract_name": "507.01", "tags": {"building": "yes"}}}, {"type": "Feature", "geometry": {"type": "Polygon", "coordinates": [[[-95.4267519, 36.5371039], [-95.42666, 36.5370563], [-95.4267055, 36.5369995], [-95.4267511, 36.5370232], [-95.4267974, 36.5370472], [-95.4267519, 36.5371039]]]}, "properties": {"osm_id": 942249012, "building": "roof", "name": "", "height": null, "height_m": null, "levels": null, "tract_id": "40131050701", "tract_name": "507.01", "tags": {"building": "roof", "layer": "1"}}}, {"type": "Feature", "geometry": {"type": "Polygon", "coordinates": [[[-95.4270733, 36.536684], [-95.4271066, 36.5367013], [-95.4271397, 36.5367185], [-95.4271843, 36.536663], [-95.4271179, 36.5366286], [-95.4270733, 36.536684]]]}, "properties": {"osm_id": 942249013, "building": "roof", "name": "", "height": null, "height_m": null, "levels": null, "tract_id": "40131050701", "tract_name": "507.01", "tags": {"building": "roof", "layer": "1"}}}, {"type": "Feature", "geometry": {"type": "Polygon", "coordinates": [[[-95.4290267, 36.5343603], [-95.429084, 36.5343915], [-95.4290478, 36.5345023], [-95.4289933, 36.5344769], [-95.4290267, 36.5343603]]]}, "properties": {"osm_id": 942249027, "building": "roof", "name": "", "height": null, "height_m": null, "levels": null, "tract_id": "40131050701", "tract_name": "507.01", "tags": {"building": "roof", "layer": "1"}}}, {"type": "Feature", "geometry": {"type": "Polygon", "coordinates": [[[-95.4320713, 36.535318], [-95.4321342, 36.535245], [-95.4319411, 36.5351376], [-95.4318782, 36.5352105], [-95.4320713, 36.535318]]]}, "properties": {"osm_id": 1062225636, "building": "yes", "name": "", "height": null, "height_m": null, "levels": null, "tract_id": "40131050701", "tract_name": "507.01", "tags": {"addr:city": "Chelsea", "addr:housenumber": "244", "addr:postcode": "74016", "addr:state": "OK", "addr:street": "West 6th Street", "building": "yes"}}}]}