{"type": "FeatureCollection", "features": [{"type": "Feature", "geometry": {"type": "Polygon", "coordinates": [[[-97.1759291, 34.3170619], [-97.1756482, 34.317062], [-97.1756482, 34.3168897], [-97.1758038, 34.3168897], [-97.1758038, 34.316848], [-97.1759106, 34.316848], [-97.1759106, 34.3168913], [-97.1759291, 34.3168913], [-97.1759291, 34.3170619]]]}, "properties": {"osm_id": 800707913, "building": "yes", "name": "", "height": null, "height_m": null, "levels": null, "tract_id": "40019892100", "tract_name": "8921", "tags": {"building": "yes"}}}, {"type": "Feature", "geometry": {"type": "Polygon", "coordinates": [[[-97.1757309, 34.3168658], [-97.17565, 34.3168653], [-97.1756508, 34.316757], [-97.1757318, 34.3167574], [-97.1757309, 34.3168658]]]}, "properties": {"osm_id": 800707914, "building": "yes", "name": "", "height": null, "height_m": null, "levels": null, "tract_id": "40019892100", "tract_name": "8921", "tags": {"building": "yes"}}}, {"type": "Feature", "geometry": {"type": "Polygon", "coordinates": [[[-97.1756057, 34.3171921], [-97.1754038, 34.3171923], [-97.1754037, 34.3170586], [-97.1756056, 34.3170585], [-97.1756057, 34.3171921]]]}, "properties": {"osm_id": 800707915, "building": "yes", "name": "", "height": null, "height_m": null, "levels": null, "tract_id": "40019892100", "tract_name": "8921", "tags": {"building": "yes"}}}, {"type": "Feature", "geometry": {"type": "Polygon", "coordinates": [[[-97.1778356, 34.3170364], [-97.1776931, 34.3170363], [-97.1776932, 34.3169088], [-97.1778357, 34.3169089], [-97.1778356, 34.3170364]]]}, "properties": {"osm_id": 800707916, "building": "yes", "name": "", "height": null, "height_m": null, "levels": null, "tract_id": "40019892100", "tract_name": "8921", "tags": {"building": "yes"}}}, {"type": "Feature", "geometry": {"type": "Polygon", "coordinates": [[[-97.1777964, 34.3171953], [-97.1776997, 34.3171956], [-97.1776991, 34.3170814], [-97.1777963, 34.317081], [-97.1777965, 34.3171182], [-97.1778468, 34.317118], [-97.177847, 34.3171556], [-97.1777962, 34.3171558], [-97.1777964, 34.3171953]]]}, "properties": {"osm_id": 800707917, "building": "yes", "name": "", "height": null, "height_m": null, "levels": null, "tract_id": "40019892100", "tract_name": "8921", "tags": {"building": "yes"}}}, {"type": "Feature", "geometry": {"type": "Polygon", "coordinates": [[[-97.1777803, 34.3175327], [-97.1777795, 34.317357], [-97.1776926, 34.3173573], [-97.1776928, 34.317403], [-97.1774947, 34.3174036], [-97.1774951, 34.3175034], [-97.1776962, 34.3175028], [-97.1776963, 34.3175329], [-97.1777803, 34.3175327]]]}, "properties": {"osm_id": 800707918, "building": "yes", "name": "", "height": null, "height_m": null, "levels": null, "tract_id": "40019892100", "tract_name": "8921", "tags": {"building": "yes"}}}, {"type": "Feature", "geometry": {"type": "Polygon", "coordinates": [[[-97.1775867, 34.3173854], [-97.1775093, 34.317386], [-97.1775085, 34.3173122], [-97.1775859, 34.3173116], [-97.1775867, 34.3173854]]]}, "properties": {"osm_id": 800707919, "building": "yes", "name": "", "height": null, "height_m": null, "levels": null, "tract_id": "40019892100", "tract_name": "8921", "tags": {"building": "yes"}}}, {"type": "Feature", "geometry": {"type": "Polygon", "coordinates": [[[-97.041521, 34.2823557], [-97.041792, 34.2823449], [-97.0417679, 34.2819323], [-97.0414968, 34.2819431], [-97.041521, 34.2823557]]]}, "properties": {"osm_id": 1026630463, "building": "yes", "name": "Gene Autry Oklahoma Museum", "height": null, "height_m": null, "levels": null, "tract_id": "40019892100", "tract_name": "8921", "tags": {"addr:city": "Gene Autry", "addr:housenumber": "47", "addr:postcode": "73436", "addr:state": "OK", "addr:street": "Prairie Street", "building": "yes", "check_date:opening_hours": "2023-07-24", "contact:facebook": "https://www.facebook.com/GeneAutryOKMuseum/", "fee": "no", "name": "Gene Autry Oklahoma Museum", "opening_hours": "Th-Sa 10:00-16:00", "tourism": "museum", "website": "https://geneautryoklamuseum.org/"}}}, {"type": "Feature", "geometry": {"type": "Polygon", "coordinates": [[[-97.2831783, 34.3324768], [-97.2831756, 34.3323527], [-97.2830723, 34.3323527], [-97.2830723, 34.3324779], [-97.2831783, 34.3324768]]]}, "properties": {"osm_id": 1105694421, "building": "service", "name": "Woodford Volunteer Fire Department", "height": null, "height_m": null, "levels": null, "tract_id": "40019892100", "tract_name": "8921", "tags": {"addr:city": "Ardmore", "addr:housenumber": "5483", "addr:postcode": "73401", "addr:state": "OK", "addr:street": "Woodford Road", "amenity": "fire_station", "building": "service", "name": "Woodford Volunteer Fire Department", "operator": "Woodford Volunteer Fire Department"}}}, {"type": "Feature", "geometry": {"type": "Polygon", "coordinates": [[[-97.2830442, 34.3323262], [-97.2830442, 34.3321578], [-97.2828805, 34.3321534], [-97.2828805, 34.3322387], [-97.2827826, 34.3322376], [-97.2827813, 34.3323239], [-97.2830442, 34.3323262]]]}, "properties": {"osm_id": 1105694422, "building": "service", "name": "Woodford Volunteer Fire Department", "height": null, "height_m": null, "levels": null, "tract_id": "40019892100", "tract_name": "8921", "tags": {"addr:city": "Ardmore", "addr:housenumber": "5483", "addr:postcode": "73401", "addr:state": "OK", "addr:street": "Woodford Road", "amenity": "fire_station", "building": "service", "name": "Woodford Volunteer Fire Department", "operator": "Woodford Volunteer Fire Department"}}}, {"type": "Feature", "geometry": {"type": "Polygon", "coordinates": [[[-97.135588, 34.3127174], [-97.1356242, 34.3124792], [-97.1353493, 34.312457], [-97.1353547, 34.3124271], [-97.1353895, 34.3124305], [-97.1354298, 34.3122111], [-97.135293, 34.3121989], [-97.1352568, 34.3124161], [-97.1353037, 34.3124216], [-97.1352863, 34.312539], [-97.1352342, 34.3125342], [-97.1352111, 34.3126804], [-97.135588, 34.3127174]]]}, "properties": {"osm_id": 1108922195, "building": "yes", "name": "Springer Missionary Baptist Church", "height": null, "height_m": 3.0, "levels": 1, "tract_id": "40019892100", "tract_name": "8921", "tags": {"addr:city": "Springer", "addr:housenumber": "95", "addr:postcode": "73458", "addr:state": "OK", "addr:street": "Story Street", "amenity": "place_of_worship", "building": "yes", "building:levels": "1", "denomination": "baptist", "name": "Springer Missionary Baptist Church", "religion": "christian"}}}, {"type": "Feature", "geometry": {"type": "Polygon", "coordinates": [[[-97.1397672, 34.3142807], [-97.1397716, 34.3142529], [-97.1398571, 34.3142605], [-97.1398652, 34.3142133], [-97.139779, 34.3142062], [-97.1397833, 34.3141788], [-97.1396693, 34.3141699], [-97.1396559, 34.3142707], [-97.1397672, 34.3142807]]]}, "properties": {"osm_id": 1109893065, "building": "yes", "name": "Springer City Hall", "height": null, "height_m": 3.0, "levels": 1, "tract_id": "40019892100", "tract_name": "8921", "tags": {"addr:city": "Springer", "addr:housenumber": "551", "addr:postcode": "73458", "addr:state": "OK", "addr:street": "Main Street", "amenity": "townhall", "building": "yes", "building:levels": "1", "name": "Springer City Hall", "townhall:type": "city"}}}, {"type": "Feature", "geometry": {"type": "Polygon", "coordinates": [[[-97.1398168, 34.3141699], [-97.1398423, 34.3140082], [-97.1397149, 34.3139949], [-97.1396894, 34.3141589], [-97.1398168, 34.3141699]]]}, "properties": {"osm_id": 1109893066, "building": "yes", "name": "Springer Community Center and Storm Shelter", "height": null, "height_m": null, "levels": null, "tract_id": "40019892100", "tract_name": "8921", "tags": {"amenity": "community_centre", "building": "yes", "name": "Springer Community Center and Storm Shelter", "operator": "Town of Springer", "operator:type": "public"}}}, {"type": "Feature", "geometry": {"type": "Polygon", "coordinates": [[[-97.1400019, 34.3135042], [-97.1397122, 34.3134809], [-97.1396819, 34.3137226], [-97.1396347, 34.3137186], [-97.1396117, 34.3138919], [-97.1396982, 34.3138982], [-97.1397123, 34.3137828], [-97.1397967, 34.3137889], [-97.1398249, 34.3135607], [-97.1399925, 34.3135751], [-97.1400019, 34.3135042]]]}, "properties": {"osm_id": 1109893067, "building": "yes", "name": "Springer Fire Department", "height": null, "height_m": null, "levels": null, "tract_id": "40019892100", "tract_name": "8921", "tags": {"amenity": "fire_station", "building": "yes", "name": "Springer Fire Department"}}}, {"type": "Feature", "geometry": {"type": "Polygon", "coordinates": [[[-97.1413256, 34.3149918], [-97.1413269, 34.314664], [-97.1410775, 34.3146617], [-97.1410668, 34.3149896], [-97.1413256, 34.3149918]]]}, "properties": {"osm_id": 1109893068, "building": "church", "name": "First Southern Baptist Church", "height": null, "height_m": null, "levels": null, "tract_id": "40019892100", "tract_name": "8921", "tags": {"amenity": "place_of_worship", "building": "church", "denomination": "southern_baptist", "name": "First Southern Baptist Church", "religion": "christian"}}}, {"type": "Feature", "geometry": {"type": "Polygon", "coordinates": [[[-97.1435035, 34.3121107], [-97.1432581, 34.3121096], [-97.1432568, 34.312032], [-97.1434687, 34.3120311], [-97.14347, 34.3120719], [-97.1435035, 34.3120719], [-97.1435035, 34.3121107]]]}, "properties": {"osm_id": 1109893070, "building": "yes", "name": "Springer Post Office", "height": null, "height_m": null, "levels": null, "tract_id": "40019892100", "tract_name": "8921", "tags": {"addr:city": "Springer", "addr:postcode": "73458", "addr:state": "OK", "addr:street": "US Highway 77", "amenity": "post_office", "building": "yes", "name": "Springer Post Office", "operator": "United States Postal Service", "operator:short": "USPS", "operator:type": "public", "operator:website": "https://www.usps.com", "operator:wikidata": "Q668687", "operator:wikipedia": "en:United States Postal Service"}}}, {"type": "Feature", "geometry": {"type": "Polygon", "coordinates": [[[-97.1436153, 34.3159816], [-97.1436153, 34.3158686], [-97.143508, 34.3158708], [-97.1435134, 34.3159816], [-97.1436153, 34.3159816]]]}, "properties": {"osm_id": 1109893071, "building": "yes", "name": "Chickasaw Telephone Company", "height": null, "height_m": 3.0, "levels": 1, "tract_id": "40019892100", "tract_name": "8921", "tags": {"building": "yes", "building:levels": "1", "name": "Chickasaw Telephone Company"}}}, {"type": "Feature", "geometry": {"type": "Polygon", "coordinates": [[[-97.1427677, 34.31288], [-97.1424029, 34.3128822], [-97.1423976, 34.3128069], [-97.1427704, 34.3128113], [-97.1427677, 34.31288]]]}, "properties": {"osm_id": 1109893072, "building": "school", "name": "Administration Building", "height": null, "height_m": null, "levels": null, "tract_id": "40019892100", "tract_name": "8921", "tags": {"building": "school", "name": "Administration Building"}}}, {"type": "Feature", "geometry": {"type": "Polygon", "coordinates": [[[-97.1427087, 34.312592], [-97.1427033, 34.3122087], [-97.14225, 34.3122087], [-97.1422554, 34.3123461], [-97.1424673, 34.3123505], [-97.1424727, 34.3125876], [-97.1427087, 34.312592]]]}, "properties": {"osm_id": 1109893073, "building": "school", "name": "Springer High School", "height": null, "height_m": 3.0, "levels": 1, "tract_id": "40019892100", "tract_name": "8921", "tags": {"building": "school", "building:levels": "1", "name": "Springer High School"}}}, {"type": "Feature", "geometry": {"type": "Polygon", "coordinates": [[[-97.1422259, 34.3121334], [-97.1419228, 34.3121312], [-97.1419255, 34.3121866], [-97.1416385, 34.3121866], [-97.1416358, 34.3121689], [-97.1414776, 34.3121689], [-97.1414802, 34.3120692], [-97.1415634, 34.3120692], [-97.1415634, 34.311985], [-97.1422339, 34.311985], [-97.1422259, 34.3121334]]]}, "properties": {"osm_id": 1109893074, "building": "school", "name": "Springer Elementary School", "height": null, "height_m": 3.0, "levels": 1, "tract_id": "40019892100", "tract_name": "8921", "tags": {"building": "school", "building:levels": "1", "name": "Springer Elementary School"}}}, {"type": "Feature", "geometry": {"type": "Polygon", "coordinates": [[[-97.142124, 34.3128689], [-97.1414883, 34.3128614], [-97.1414884, 34.3128788], [-97.141373, 34.3128756], [-97.1413703, 34.3126507], [-97.141491, 34.3126502], [-97.141491, 34.3126725], [-97.1421213, 34.3126762], [-97.142124, 34.3128689]]]}, "properties": {"osm_id": 1109893075, "building": "school", "name": "Springer Junior High School", "height": null, "height_m": 3.0, "levels": 1, "tract_id": "40019892100", "tract_name": "8921", "tags": {"building": "school", "building:levels": "1", "name": "Springer Junior High School"}}}, {"type": "Feature", "geometry": {"type": "Polygon", "coordinates": [[[-97.1434981, 34.313343], [-97.1434928, 34.3131148], [-97.1433131, 34.3131148], [-97.1433131, 34.3133408], [-97.1434981, 34.313343]]]}, "properties": {"osm_id": 1109893076, "building": "yes", "name": "Springer Food Mart", "height": null, "height_m": 3.0, "levels": 1, "tract_id": "40019892100", "tract_name": "8921", "tags": {"building": "yes", "building:levels": "1", "name": "Springer Food Mart", "shop": "convenience"}}}, {"type": "Feature", "geometry": {"type": "Polygon", "coordinates": [[[-97.1432433, 34.3133253], [-97.1432433, 34.3132389], [-97.1431736, 34.3132411], [-97.1431736, 34.3133275], [-97.1432433, 34.3133253]]]}, "properties": {"osm_id": 1109893077, "building": "roof", "name": "Sunoco", "height": null, "height_m": null, "levels": null, "tract_id": "40019892100", "tract_name": "8921", "tags": {"amenity": "fuel", "brand": "Sunoco", "brand:wikidata": "Q1423218", "building": "roof", "check_date": "2024-09-27", "fuel:diesel": "yes", "fuel:gasoline": "yes", "name": "Sunoco", "self_service": "yes", "website": "https://www.sunoco.com/locations/store/16677-hwy-77-springer-ok-0862488400"}}}, {"type": "Feature", "geometry": {"type": "Polygon", "coordinates": [[[-97.3388017, 34.3332289], [-97.3381848, 34.3332179], [-97.3381982, 34.332817], [-97.3384128, 34.3328236], [-97.3384047, 34.3331049], [-97.3388071, 34.333116], [-97.3388017, 34.3332289]]]}, "properties": {"osm_id": 1109911618, "building": "yes", "name": "Milo Baptist Church", "height": null, "height_m": null, "levels": null, "tract_id": "40019892100", "tract_name": "8921", "tags": {"amenity": "place_of_worship", "building": "yes", "denomination": "southern_baptist", "name": "Milo Baptist Church", "religion": "christian"}}}, {"type": "Feature", "geometry": {"type": "Polygon", "coordinates": [[[-97.1311167, 34.3284993], [-97.1311113, 34.3287153], [-97.1309062, 34.3287118], [-97.1309115, 34.3284959], [-97.1311167, 34.3284993]]]}, "properties": {"osm_id": 1134311907, "building": "yes", "name": "", "height": null, "height_m": null, "levels": null, "tract_id": "40019892100", "tract_name": "8921", "tags": {"building": "yes"}}}, {"type": "Feature", "geometry": {"type": "Polygon", "coordinates": [[[-97.1306023, 34.3285742], [-97.1304126, 34.3285695], [-97.1304169, 34.3284507], [-97.1306066, 34.3284554], [-97.1306023, 34.3285742]]]}, "properties": {"osm_id": 1134311908, "building": "yes", "name": "", "height": null, "height_m": null, "levels": null, "tract_id": "40019892100", "tract_name": "8921", "tags": {"building": "yes"}}}, {"type": "Feature", "geometry": {"type": "Polygon", "coordinates": [[[-97.1301035, 34.3289501], [-97.1301086, 34.3288112], [-97.1308483, 34.32883], [-97.1308431, 34.3289689], [-97.1301035, 34.3289501]]]}, "properties": {"osm_id": 1134311909, "building": "yes", "name": "", "height": null, "height_m": null, "levels": null, "tract_id": "40019892100", "tract_name": "8921", "tags": {"building": "yes"}}}, {"type": "Feature", "geometry": {"type": "Polygon", "coordinates": [[[-97.129675, 34.3305371], [-97.1293478, 34.3305316], [-97.1293533, 34.3303076], [-97.1296806, 34.3303131], [-97.129675, 34.3305371]]]}, "properties": {"osm_id": 1134311910, "building": "yes", "name": "", "height": null, "height_m": null, "levels": null, "tract_id": "40019892100", "tract_name": "8921", "tags": {"building": "yes"}}}, {"type": "Feature", "geometry": {"type": "Polygon", "coordinates": [[[-97.1272301, 34.3299156], [-97.1270898, 34.3299156], [-97.1270898, 34.3297778], [-97.1272301, 34.3297778], [-97.1272301, 34.3299156]]]}, "properties": {"osm_id": 1134311911, "building": "yes", "name": "", "height": null, "height_m": null, "levels": null, "tract_id": "40019892100", "tract_name": "8921", "tags": {"building": "yes"}}}, {"type": "Feature", "geometry": {"type": "Polygon", "coordinates": [[[-97.1267809, 34.329032], [-97.12662, 34.329032], [-97.12662, 34.3289733], [-97.1267809, 34.3289733], [-97.1267809, 34.329032]]]}, "properties": {"osm_id": 1134311912, "building": "yes", "name": "", "height": null, "height_m": null, "levels": null, "tract_id": "40019892100", "tract_name": "8921", "tags": {"building": "yes"}}}, {"type": "Feature", "geometry": {"type": "Polygon", "coordinates": [[[-97.1273923, 34.3288811], [-97.1271998, 34.3288788], [-97.1272022, 34.3287401], [-97.1273948, 34.3287424], [-97.1273923, 34.3288811]]]}, "properties": {"osm_id": 1134311913, "building": "yes", "name": "", "height": null, "height_m": null, "levels": null, "tract_id": "40019892100", "tract_name": "8921", "tags": {"building": "yes"}}}, {"type": "Feature", "geometry": {"type": "Polygon", "coordinates": [[[-97.1257598, 34.3283212], [-97.1258442, 34.328323], [-97.1258413, 34.3284131], [-97.1257569, 34.3284113], [-97.1257598, 34.3283212]]]}, "properties": {"osm_id": 1134311914, "building": "yes", "name": "", "height": null, "height_m": null, "levels": null, "tract_id": "40019892100", "tract_name": "8921", "tags": {"building": "yes"}}}, {"type": "Feature", "geometry": {"type": "Polygon", "coordinates": [[[-97.1269566, 34.3280375], [-97.1267769, 34.3280309], [-97.1267829, 34.3279205], [-97.1269626, 34.3279271], [-97.1269566, 34.3280375]]]}, "properties": {"osm_id": 1134311915, "building": "yes", "name": "", "height": null, "height_m": null, "levels": null, "tract_id": "40019892100", "tract_name": "8921", "tags": {"building": "yes"}}}, {"type": "Feature", "geometry": {"type": "Polygon", "coordinates": [[[-97.126506, 34.3279888], [-97.1263987, 34.3279854], [-97.1264022, 34.3279088], [-97.1265095, 34.3279122], [-97.126506, 34.3279888]]]}, "properties": {"osm_id": 1134311916, "building": "yes", "name": "", "height": null, "height_m": null, "levels": null, "tract_id": "40019892100", "tract_name": "8921", "tags": {"building": "yes"}}}, {"type": "Feature", "geometry": {"type": "Polygon", "coordinates": [[[-97.1262592, 34.3280541], [-97.1263775, 34.3280585], [-97.1263654, 34.3282811], [-97.1262471, 34.3282767], [-97.1262592, 34.3280541]]]}, "properties": {"osm_id": 1134311917, "building": "yes", "name": "", "height": null, "height_m": null, "levels": null, "tract_id": "40019892100", "tract_name": "8921", "tags": {"building": "yes"}}}, {"type": "Feature", "geometry": {"type": "Polygon", "coordinates": [[[-97.1266817, 34.3275225], [-97.1263855, 34.3275158], [-97.1263963, 34.3271913], [-97.1266924, 34.327198], [-97.1266817, 34.3275225]]]}, "properties": {"osm_id": 1134311918, "building": "yes", "name": "", "height": null, "height_m": null, "levels": null, "tract_id": "40019892100", "tract_name": "8921", "tags": {"building": "yes"}}}, {"type": "Feature", "geometry": {"type": "Polygon", "coordinates": [[[-97.128228, 34.3028477], [-97.1282414, 34.3023736], [-97.1285813, 34.3023801], [-97.1285679, 34.3028543], [-97.128228, 34.3028477]]]}, "properties": {"osm_id": 1134311924, "building": "yes", "name": "", "height": null, "height_m": null, "levels": null, "tract_id": "40019892100", "tract_name": "8921", "tags": {"building": "yes"}}}, {"type": "Feature", "geometry": {"type": "Polygon", "coordinates": [[[-97.128861, 34.3020634], [-97.1284318, 34.302029], [-97.1284424, 34.301939], [-97.1288715, 34.3019733], [-97.128861, 34.3020634]]]}, "properties": {"osm_id": 1134311925, "building": "yes", "name": "", "height": null, "height_m": null, "levels": null, "tract_id": "40019892100", "tract_name": "8921", "tags": {"building": "yes"}}}, {"type": "Feature", "geometry": {"type": "Polygon", "coordinates": [[[-97.1272764, 34.30676], [-97.127208, 34.3067606], [-97.1272074, 34.3067037], [-97.1272758, 34.3067031], [-97.1272764, 34.30676]]]}, "properties": {"osm_id": 1134311929, "building": "yes", "name": "", "height": null, "height_m": null, "levels": null, "tract_id": "40019892100", "tract_name": "8921", "tags": {"building": "yes"}}}, {"type": "Feature", "geometry": {"type": "Polygon", "coordinates": [[[-97.1278982, 34.3052447], [-97.1278991, 34.3051942], [-97.1279503, 34.3051949], [-97.1279493, 34.3052454], [-97.1278982, 34.3052447]]]}, "properties": {"osm_id": 1134311930, "building": "yes", "name": "", "height": null, "height_m": null, "levels": null, "tract_id": "40019892100", "tract_name": "8921", "tags": {"building": "yes"}}}, {"type": "Feature", "geometry": {"type": "Polygon", "coordinates": [[[-97.1277431, 34.3051127], [-97.1276788, 34.3051133], [-97.1276784, 34.3050806], [-97.1277427, 34.3050801], [-97.1277431, 34.3051127]]]}, "properties": {"osm_id": 1134311931, "building": "yes", "name": "", "height": null, "height_m": null, "levels": null, "tract_id": "40019892100", "tract_name": "8921", "tags": {"building": "yes"}}}, {"type": "Feature", "geometry": {"type": "Polygon", "coordinates": [[[-97.130766, 34.3028023], [-97.130658, 34.3028012], [-97.130659, 34.3027352], [-97.130767, 34.3027363], [-97.130766, 34.3028023]]]}, "properties": {"osm_id": 1134311932, "building": "yes", "name": "", "height": null, "height_m": null, "levels": null, "tract_id": "40019892100", "tract_name": "8921", "tags": {"building": "yes"}}}, {"type": "Feature", "geometry": {"type": "Polygon", "coordinates": [[[-97.1302523, 34.3026256], [-97.1301249, 34.3026206], [-97.1301298, 34.302536], [-97.1302572, 34.302541], [-97.1302523, 34.3026256]]]}, "properties": {"osm_id": 1134311933, "building": "yes", "name": "", "height": null, "height_m": null, "levels": null, "tract_id": "40019892100", "tract_name": "8921", "tags": {"building": "yes"}}}, {"type": "Feature", "geometry": {"type": "Polygon", "coordinates": [[[-97.1302618, 34.3025085], [-97.1301215, 34.302503], [-97.1301296, 34.3023612], [-97.13027, 34.3023667], [-97.1302618, 34.3025085]]]}, "properties": {"osm_id": 1134311934, "building": "yes", "name": "", "height": null, "height_m": null, "levels": null, "tract_id": "40019892100", "tract_name": "8921", "tags": {"building": "yes"}}}, {"type": "Feature", "geometry": {"type": "Polygon", "coordinates": [[[-97.1449663, 34.2952797], [-97.1450256, 34.2952345], [-97.1452456, 34.2954317], [-97.1451862, 34.2954769], [-97.1449663, 34.2952797]]]}, "properties": {"osm_id": 1134311936, "building": "yes", "name": "", "height": null, "height_m": null, "levels": null, "tract_id": "40019892100", "tract_name": "8921", "tags": {"building": "yes"}}}, {"type": "Feature", "geometry": {"type": "Polygon", "coordinates": [[[-97.1437809, 34.2959804], [-97.1436201, 34.2959827], [-97.1436163, 34.2958009], [-97.1437771, 34.2957986], [-97.1437809, 34.2959804]]]}, "properties": {"osm_id": 1134311937, "building": "yes", "name": "", "height": null, "height_m": null, "levels": null, "tract_id": "40019892100", "tract_name": "8921", "tags": {"building": "yes"}}}, {"type": "Feature", "geometry": {"type": "Polygon", "coordinates": [[[-97.1442521, 34.2949972], [-97.1442785, 34.2949308], [-97.1444703, 34.2949829], [-97.1444439, 34.2950492], [-97.1442521, 34.2949972]]]}, "properties": {"osm_id": 1134311938, "building": "yes", "name": "", "height": null, "height_m": null, "levels": null, "tract_id": "40019892100", "tract_name": "8921", "tags": {"building": "yes"}}}, {"type": "Feature", "geometry": {"type": "Polygon", "coordinates": [[[-97.1443271, 34.3019217], [-97.1443261, 34.3020173], [-97.1442452, 34.3020167], [-97.1442462, 34.3019212], [-97.1443271, 34.3019217]]]}, "properties": {"osm_id": 1134311939, "building": "yes", "name": "", "height": null, "height_m": null, "levels": null, "tract_id": "40019892100", "tract_name": "8921", "tags": {"building": "yes"}}}, {"type": "Feature", "geometry": {"type": "Polygon", "coordinates": [[[-97.1437496, 34.3014744], [-97.1438737, 34.3014772], [-97.1438699, 34.3015924], [-97.1437458, 34.3015896], [-97.1437496, 34.3014744]]]}, "properties": {"osm_id": 1134311940, "building": "yes", "name": "", "height": null, "height_m": null, "levels": null, "tract_id": "40019892100", "tract_name": "8921", "tags": {"building": "yes"}}}, {"type": "Feature", "geometry": {"type": "Polygon", "coordinates": [[[-97.1441174, 34.3007373], [-97.144116, 34.3010497], [-97.1438879, 34.301049], [-97.1438893, 34.3007366], [-97.1441174, 34.3007373]]]}, "properties": {"osm_id": 1134311941, "building": "yes", "name": "", "height": null, "height_m": null, "levels": null, "tract_id": "40019892100", "tract_name": "8921", "tags": {"building": "yes"}}}, {"type": "Feature", "geometry": {"type": "Polygon", "coordinates": [[[-97.141521, 34.3021177], [-97.1412098, 34.3023924], [-97.1410747, 34.302288], [-97.1413858, 34.3020132], [-97.141521, 34.3021177]]]}, "properties": {"osm_id": 1134311942, "building": "yes", "name": "", "height": null, "height_m": null, "levels": null, "tract_id": "40019892100", "tract_name": "8921", "tags": {"building": "yes"}}}, {"type": "Feature", "geometry": {"type": "Polygon", "coordinates": [[[-97.1421231, 34.3025298], [-97.1417235, 34.3028677], [-97.1415281, 34.30271], [-97.1419277, 34.3023721], [-97.1421231, 34.3025298]]]}, "properties": {"osm_id": 1134311943, "building": "yes", "name": "", "height": null, "height_m": null, "levels": null, "tract_id": "40019892100", "tract_name": "8921", "tags": {"building": "yes"}}}, {"type": "Feature", "geometry": {"type": "Polygon", "coordinates": [[[-97.1459724, 34.3109042], [-97.1459719, 34.3108084], [-97.1461852, 34.3108076], [-97.1461858, 34.3109034], [-97.1459724, 34.3109042]]]}, "properties": {"osm_id": 1134311948, "building": "yes", "name": "", "height": null, "height_m": null, "levels": null, "tract_id": "40019892100", "tract_name": "8921", "tags": {"building": "yes"}}}, {"type": "Feature", "geometry": {"type": "Polygon", "coordinates": [[[-97.1468492, 34.3109136], [-97.1464133, 34.3109136], [-97.1464133, 34.3107973], [-97.1468492, 34.3107973], [-97.1468492, 34.3109136]]]}, "properties": {"osm_id": 1134311949, "building": "yes", "name": "", "height": null, "height_m": null, "levels": null, "tract_id": "40019892100", "tract_name": "8921", "tags": {"building": "yes"}}}, {"type": "Feature", "geometry": {"type": "Polygon", "coordinates": [[[-97.1408799, 34.3147662], [-97.1406828, 34.3147562], [-97.1406891, 34.3146708], [-97.1408863, 34.3146807], [-97.1408799, 34.3147662]]]}, "properties": {"osm_id": 1134311952, "building": "yes", "name": "", "height": null, "height_m": null, "levels": null, "tract_id": "40019892100", "tract_name": "8921", "tags": {"building": "yes"}}}, {"type": "Feature", "geometry": {"type": "Polygon", "coordinates": [[[-97.2741541, 34.3027772], [-97.2740075, 34.3027764], [-97.2740062, 34.3029475], [-97.2741527, 34.3029483], [-97.2741541, 34.3027772]]]}, "properties": {"osm_id": 1153389778, "building": "house", "name": "", "height": null, "height_m": 6.0, "levels": 2, "tract_id": "40019892100", "tract_name": "8921", "tags": {"addr:city": "Ardmore", "addr:housenumber": "523", "addr:postcode": "73401", "addr:state": "OK", "addr:street": "Hickory Road", "building": "house", "building:levels": "2"}}}, {"type": "Feature", "geometry": {"type": "Polygon", "coordinates": [[[-97.4611122, 34.482362], [-97.4611107, 34.4822333], [-97.4607565, 34.4822361], [-97.4607579, 34.4823648], [-97.4611122, 34.482362]]]}, "properties": {"osm_id": 1173558989, "building": "yes", "name": "", "height": null, "height_m": null, "levels": null, "tract_id": "40019892100", "tract_name": "8921", "tags": {"building": "yes"}}}, {"type": "Feature", "geometry": {"type": "Polygon", "coordinates": [[[-97.4616108, 34.4824544], [-97.461609, 34.4823482], [-97.461382, 34.4823507], [-97.4613838, 34.482457], [-97.4616108, 34.4824544]]]}, "properties": {"osm_id": 1173558990, "building": "yes", "name": "", "height": null, "height_m": null, "levels": null, "tract_id": "40019892100", "tract_name": "8921", "tags": {"building": "yes"}}}, {"type": "Feature", "geometry": {"type": "Polygon", "coordinates": [[[-97.4604622, 34.4829893], [-97.4604566, 34.4829053], [-97.4602043, 34.4829167], [-97.4602099, 34.4830006], [-97.4604622, 34.4829893]]]}, "properties": {"osm_id": 1173558991, "building": "yes", "name": "", "height": null, "height_m": null, "levels": null, "tract_id": "40019892100", "tract_name": "8921", "tags": {"building": "yes"}}}, {"type": "Feature", "geometry": {"type": "Polygon", "coordinates": [[[-97.4621273, 34.481682], [-97.4621338, 34.481572], [-97.4620946, 34.4815705], [-97.4620957, 34.4815519], [-97.4620154, 34.4815487], [-97.462014, 34.4815733], [-97.4618893, 34.4815683], [-97.4618848, 34.4816442], [-97.4620527, 34.4816509], [-97.4620511, 34.4816789], [-97.4621273, 34.481682]]]}, "properties": {"osm_id": 1173558992, "building": "yes", "name": "", "height": null, "height_m": null, "levels": null, "tract_id": "40019892100", "tract_name": "8921", "tags": {"building": "yes"}}}, {"type": "Feature", "geometry": {"type": "Polygon", "coordinates": [[[-97.463455, 34.4810786], [-97.4634237, 34.4809722], [-97.4633258, 34.4809918], [-97.463357, 34.4810981], [-97.463455, 34.4810786]]]}, "properties": {"osm_id": 1173558993, "building": "yes", "name": "", "height": null, "height_m": null, "levels": null, "tract_id": "40019892100", "tract_name": "8921", "tags": {"building": "yes"}}}, {"type": "Feature", "geometry": {"type": "Polygon", "coordinates": [[[-97.4637519, 34.4809261], [-97.4635609, 34.4809008], [-97.4635789, 34.4808082], [-97.4636792, 34.4808215], [-97.4636819, 34.4808396], [-97.4637665, 34.4808508], [-97.4637519, 34.4809261]]]}, "properties": {"osm_id": 1173558994, "building": "yes", "name": "", "height": null, "height_m": null, "levels": null, "tract_id": "40019892100", "tract_name": "8921", "tags": {"building": "yes"}}}, {"type": "Feature", "geometry": {"type": "Polygon", "coordinates": [[[-97.4629186, 34.4817511], [-97.4628175, 34.4817561], [-97.4628106, 34.4816604], [-97.4629117, 34.4816554], [-97.4629186, 34.4817511]]]}, "properties": {"osm_id": 1173558995, "building": "yes", "name": "", "height": null, "height_m": null, "levels": null, "tract_id": "40019892100", "tract_name": "8921", "tags": {"building": "yes"}}}, {"type": "Feature", "geometry": {"type": "Polygon", "coordinates": [[[-97.46291, 34.4818317], [-97.4629074, 34.4817847], [-97.4628417, 34.4817731], [-97.462845, 34.4818341], [-97.46291, 34.4818317]]]}, "properties": {"osm_id": 1173558996, "building": "yes", "name": "", "height": null, "height_m": null, "levels": null, "tract_id": "40019892100", "tract_name": "8921", "tags": {"building": "yes"}}}, {"type": "Feature", "geometry": {"type": "Polygon", "coordinates": [[[-97.4630039, 34.4821951], [-97.4628384, 34.4821958], [-97.462838, 34.4821184], [-97.4630035, 34.4821178], [-97.4630039, 34.4821951]]]}, "properties": {"osm_id": 1173558997, "building": "yes", "name": "", "height": null, "height_m": null, "levels": null, "tract_id": "40019892100", "tract_name": "8921", "tags": {"building": "yes"}}}, {"type": "Feature", "geometry": {"type": "Polygon", "coordinates": [[[-97.462933, 34.4823341], [-97.4628016, 34.4823326], [-97.4628033, 34.4822312], [-97.4629347, 34.4822327], [-97.462933, 34.4823341]]]}, "properties": {"osm_id": 1173558998, "building": "yes", "name": "", "height": null, "height_m": null, "levels": null, "tract_id": "40019892100", "tract_name": "8921", "tags": {"building": "yes"}}}, {"type": "Feature", "geometry": {"type": "Polygon", "coordinates": [[[-97.4623392, 34.4826653], [-97.4623419, 34.4827081], [-97.46207, 34.4827198], [-97.4620616, 34.4825886], [-97.4623682, 34.4825753], [-97.4623744, 34.482673], [-97.4623392, 34.4826653]]]}, "properties": {"osm_id": 1173558999, "building": "yes", "name": "", "height": null, "height_m": null, "levels": null, "tract_id": "40019892100", "tract_name": "8921", "tags": {"building": "yes"}}}, {"type": "Feature", "geometry": {"type": "Polygon", "coordinates": [[[-97.4615315, 34.4830603], [-97.4615315, 34.4829555], [-97.46134, 34.4829554], [-97.46134, 34.4830603], [-97.4615315, 34.4830603]]]}, "properties": {"osm_id": 1173559000, "building": "yes", "name": "", "height": null, "height_m": null, "levels": null, "tract_id": "40019892100", "tract_name": "8921", "tags": {"building": "yes"}}}, {"type": "Feature", "geometry": {"type": "Polygon", "coordinates": [[[-97.4625223, 34.4833692], [-97.4625218, 34.4832668], [-97.4625624, 34.4832667], [-97.4625622, 34.4832306], [-97.4624529, 34.483231], [-97.4624612, 34.4832141], [-97.4623232, 34.4832146], [-97.4623235, 34.4832813], [-97.4623965, 34.483281], [-97.4623969, 34.4833696], [-97.4625223, 34.4833692]]]}, "properties": {"osm_id": 1173559001, "building": "yes", "name": "", "height": null, "height_m": null, "levels": null, "tract_id": "40019892100", "tract_name": "8921", "tags": {"building": "yes"}}}, {"type": "Feature", "geometry": {"type": "Polygon", "coordinates": [[[-97.4622581, 34.4833912], [-97.4622713, 34.4831854], [-97.4621417, 34.4831798], [-97.4621286, 34.4833856], [-97.4622581, 34.4833912]]]}, "properties": {"osm_id": 1173559002, "building": "yes", "name": "", "height": null, "height_m": null, "levels": null, "tract_id": "40019892100", "tract_name": "8921", "tags": {"building": "yes"}}}, {"type": "Feature", "geometry": {"type": "Polygon", "coordinates": [[[-97.4615128, 34.4836689], [-97.4615185, 34.4835967], [-97.4613725, 34.4835888], [-97.4613668, 34.4836611], [-97.4615128, 34.4836689]]]}, "properties": {"osm_id": 1173559003, "building": "yes", "name": "", "height": null, "height_m": null, "levels": null, "tract_id": "40019892100", "tract_name": "8921", "tags": {"building": "yes"}}}, {"type": "Feature", "geometry": {"type": "Polygon", "coordinates": [[[-97.4629327, 34.483339], [-97.4629397, 34.4832242], [-97.4628814, 34.4832218], [-97.462879, 34.4832603], [-97.4628101, 34.4832574], [-97.4628055, 34.4833337], [-97.4629327, 34.483339]]]}, "properties": {"osm_id": 1173559004, "building": "yes", "name": "", "height": null, "height_m": null, "levels": null, "tract_id": "40019892100", "tract_name": "8921", "tags": {"building": "yes"}}}, {"type": "Feature", "geometry": {"type": "Polygon", "coordinates": [[[-97.462486, 34.4840493], [-97.4624874, 34.4839048], [-97.4623754, 34.4839041], [-97.4623751, 34.4839309], [-97.4623231, 34.4839306], [-97.4623226, 34.4839786], [-97.4623837, 34.4839922], [-97.4623831, 34.4840487], [-97.462486, 34.4840493]]]}, "properties": {"osm_id": 1173559005, "building": "yes", "name": "", "height": null, "height_m": null, "levels": null, "tract_id": "40019892100", "tract_name": "8921", "tags": {"building": "yes"}}}, {"type": "Feature", "geometry": {"type": "Polygon", "coordinates": [[[-97.4608709, 34.4841156], [-97.4608745, 34.4839804], [-97.46077, 34.4839786], [-97.4607664, 34.4841137], [-97.4608709, 34.4841156]]]}, "properties": {"osm_id": 1173559006, "building": "yes", "name": "", "height": null, "height_m": null, "levels": null, "tract_id": "40019892100", "tract_name": "8921", "tags": {"building": "yes"}}}, {"type": "Feature", "geometry": {"type": "Polygon", "coordinates": [[[-97.4604435, 34.4839132], [-97.4604312, 34.4837387], [-97.4603503, 34.4837425], [-97.4603245, 34.483789], [-97.4603288, 34.4838509], [-97.4603607, 34.4838494], [-97.4603655, 34.4839169], [-97.4604435, 34.4839132]]]}, "properties": {"osm_id": 1173559007, "building": "yes", "name": "", "height": null, "height_m": null, "levels": null, "tract_id": "40019892100", "tract_name": "8921", "tags": {"building": "yes"}}}, {"type": "Feature", "geometry": {"type": "Polygon", "coordinates": [[[-97.4604612, 34.4833809], [-97.4604568, 34.483231], [-97.4603453, 34.4832332], [-97.4603496, 34.4833831], [-97.4604612, 34.4833809]]]}, "properties": {"osm_id": 1173559008, "building": "yes", "name": "", "height": null, "height_m": null, "levels": null, "tract_id": "40019892100", "tract_name": "8921", "tags": {"building": "yes"}}}, {"type": "Feature", "geometry": {"type": "Polygon", "coordinates": [[[-97.459236, 34.4832146], [-97.4588845, 34.4834273], [-97.4589808, 34.4835354], [-97.4591622, 34.4834256], [-97.4591902, 34.4834405], [-97.4593332, 34.483354], [-97.4592656, 34.4832781], [-97.4592832, 34.4832675], [-97.459236, 34.4832146]]]}, "properties": {"osm_id": 1173559009, "building": "yes", "name": "", "height": null, "height_m": null, "levels": null, "tract_id": "40019892100", "tract_name": "8921", "tags": {"building": "yes"}}}, {"type": "Feature", "geometry": {"type": "Polygon", "coordinates": [[[-97.4592795, 34.4847234], [-97.4590705, 34.4848382], [-97.4589955, 34.4847454], [-97.4590732, 34.4847028], [-97.459089, 34.4847224], [-97.4592204, 34.4846502], [-97.4592795, 34.4847234]]]}, "properties": {"osm_id": 1173559010, "building": "yes", "name": "", "height": null, "height_m": null, "levels": null, "tract_id": "40019892100", "tract_name": "8921", "tags": {"building": "yes"}}}, {"type": "Feature", "geometry": {"type": "Polygon", "coordinates": [[[-97.4636352, 34.4827566], [-97.4635549, 34.4827639], [-97.4635404, 34.4826562], [-97.4636206, 34.4826488], [-97.4636352, 34.4827566]]]}, "properties": {"osm_id": 1173559011, "building": "yes", "name": "", "height": null, "height_m": null, "levels": null, "tract_id": "40019892100", "tract_name": "8921", "tags": {"building": "yes"}}}, {"type": "Feature", "geometry": {"type": "Polygon", "coordinates": [[[-97.4645764, 34.4827198], [-97.4645417, 34.4827188], [-97.46453, 34.4827323], [-97.4644916, 34.4827311], [-97.4644928, 34.482703], [-97.4644274, 34.482701], [-97.4644304, 34.4826352], [-97.46458, 34.4826398], [-97.4645764, 34.4827198]]]}, "properties": {"osm_id": 1173559012, "building": "yes", "name": "", "height": null, "height_m": null, "levels": null, "tract_id": "40019892100", "tract_name": "8921", "tags": {"building": "yes"}}}, {"type": "Feature", "geometry": {"type": "Polygon", "coordinates": [[[-97.4646718, 34.4833153], [-97.464669, 34.4831867], [-97.4645667, 34.4831883], [-97.4645695, 34.4833168], [-97.4646718, 34.4833153]]]}, "properties": {"osm_id": 1173559013, "building": "yes", "name": "", "height": null, "height_m": null, "levels": null, "tract_id": "40019892100", "tract_name": "8921", "tags": {"building": "yes"}}}, {"type": "Feature", "geometry": {"type": "Polygon", "coordinates": [[[-97.4639793, 34.483847], [-97.4640058, 34.483659], [-97.4641521, 34.4836731], [-97.4641447, 34.483725], [-97.4640763, 34.4837184], [-97.4640581, 34.4838471], [-97.4640205, 34.483851], [-97.4639793, 34.483847]]]}, "properties": {"osm_id": 1173559014, "building": "yes", "name": "", "height": null, "height_m": null, "levels": null, "tract_id": "40019892100", "tract_name": "8921", "tags": {"building": "yes"}}}, {"type": "Feature", "geometry": {"type": "Polygon", "coordinates": [[[-97.4651407, 34.4834138], [-97.4650122, 34.4834169], [-97.4650081, 34.4833009], [-97.465115, 34.4832983], [-97.4651139, 34.4832673], [-97.465207, 34.483265], [-97.4652043, 34.4831893], [-97.4652832, 34.4831874], [-97.4652886, 34.4833405], [-97.4651382, 34.4833441], [-97.4651407, 34.4834138]]]}, "properties": {"osm_id": 1173559015, "building": "yes", "name": "", "height": null, "height_m": null, "levels": null, "tract_id": "40019892100", "tract_name": "8921", "tags": {"building": "yes"}}}, {"type": "Feature", "geometry": {"type": "Polygon", "coordinates": [[[-97.4653056, 34.4836515], [-97.4652368, 34.4835927], [-97.4652207, 34.4836055], [-97.465179, 34.4835699], [-97.4651251, 34.4836127], [-97.4651667, 34.4836483], [-97.4650967, 34.4837039], [-97.4651278, 34.4837305], [-97.4651073, 34.4837468], [-97.4651451, 34.4837791], [-97.4653056, 34.4836515]]]}, "properties": {"osm_id": 1173559016, "building": "yes", "name": "", "height": null, "height_m": null, "levels": null, "tract_id": "40019892100", "tract_name": "8921", "tags": {"building": "yes"}}}, {"type": "Feature", "geometry": {"type": "Polygon", "coordinates": [[[-97.4653234, 34.4800418], [-97.4653265, 34.4799129], [-97.4652086, 34.479911], [-97.4652054, 34.4800399], [-97.4653234, 34.4800418]]]}, "properties": {"osm_id": 1173559017, "building": "yes", "name": "", "height": null, "height_m": null, "levels": null, "tract_id": "40019892100", "tract_name": "8921", "tags": {"building": "yes"}}}, {"type": "Feature", "geometry": {"type": "Polygon", "coordinates": [[[-97.4656306, 34.4806944], [-97.4652251, 34.4807017], [-97.4652202, 34.4805171], [-97.4656258, 34.4805097], [-97.4656306, 34.4806944]]]}, "properties": {"osm_id": 1173559018, "building": "yes", "name": "", "height": null, "height_m": null, "levels": null, "tract_id": "40019892100", "tract_name": "8921", "tags": {"building": "yes"}}}, {"type": "Feature", "geometry": {"type": "Polygon", "coordinates": [[[-97.4653228, 34.4813178], [-97.4653134, 34.4808871], [-97.4652254, 34.4808885], [-97.4652349, 34.4813191], [-97.4653228, 34.4813178]]]}, "properties": {"osm_id": 1173559019, "building": "yes", "name": "", "height": null, "height_m": null, "levels": null, "tract_id": "40019892100", "tract_name": "8921", "tags": {"building": "yes"}}}, {"type": "Feature", "geometry": {"type": "Polygon", "coordinates": [[[-97.465452, 34.481701], [-97.4651925, 34.4817058], [-97.46519, 34.481614], [-97.4654496, 34.4816093], [-97.465452, 34.481701]]]}, "properties": {"osm_id": 1173559020, "building": "yes", "name": "", "height": null, "height_m": null, "levels": null, "tract_id": "40019892100", "tract_name": "8921", "tags": {"building": "yes"}}}, {"type": "Feature", "geometry": {"type": "Polygon", "coordinates": [[[-97.4644848, 34.4844529], [-97.4644868, 34.4843769], [-97.4644049, 34.4843755], [-97.4644018, 34.4844947], [-97.4644667, 34.4844959], [-97.4644848, 34.4844529]]]}, "properties": {"osm_id": 1173559021, "building": "yes", "name": "", "height": null, "height_m": null, "levels": null, "tract_id": "40019892100", "tract_name": "8921", "tags": {"building": "yes"}}}, {"type": "Feature", "geometry": {"type": "Polygon", "coordinates": [[[-97.4652894, 34.4844667], [-97.4653054, 34.4843217], [-97.4653939, 34.4843283], [-97.4653779, 34.4844734], [-97.4652894, 34.4844667]]]}, "properties": {"osm_id": 1173559022, "building": "yes", "name": "", "height": null, "height_m": null, "levels": null, "tract_id": "40019892100", "tract_name": "8921", "tags": {"building": "yes"}}}, {"type": "Feature", "geometry": {"type": "Polygon", "coordinates": [[[-97.4657231, 34.4846804], [-97.4654853, 34.4846903], [-97.4654814, 34.4846262], [-97.4657191, 34.4846163], [-97.4657231, 34.4846804]]]}, "properties": {"osm_id": 1173559023, "building": "yes", "name": "", "height": null, "height_m": null, "levels": null, "tract_id": "40019892100", "tract_name": "8921", "tags": {"building": "yes"}}}, {"type": "Feature", "geometry": {"type": "Polygon", "coordinates": [[[-97.4646553, 34.4814133], [-97.4645625, 34.4814122], [-97.4645646, 34.4812981], [-97.4646574, 34.4812992], [-97.4646553, 34.4814133]]]}, "properties": {"osm_id": 1173559024, "building": "yes", "name": "", "height": null, "height_m": null, "levels": null, "tract_id": "40019892100", "tract_name": "8921", "tags": {"building": "yes"}}}, {"type": "Feature", "geometry": {"type": "Polygon", "coordinates": [[[-97.466515, 34.4831639], [-97.4665144, 34.4830759], [-97.4663785, 34.4830765], [-97.4663791, 34.4831645], [-97.466515, 34.4831639]]]}, "properties": {"osm_id": 1173559025, "building": "yes", "name": "", "height": null, "height_m": null, "levels": null, "tract_id": "40019892100", "tract_name": "8921", "tags": {"building": "yes"}}}, {"type": "Feature", "geometry": {"type": "Polygon", "coordinates": [[[-97.4664862, 34.4850465], [-97.4664898, 34.4848777], [-97.4663841, 34.4848762], [-97.4663804, 34.485045], [-97.4664862, 34.4850465]]]}, "properties": {"osm_id": 1173559026, "building": "yes", "name": "", "height": null, "height_m": null, "levels": null, "tract_id": "40019892100", "tract_name": "8921", "tags": {"building": "yes"}}}, {"type": "Feature", "geometry": {"type": "Polygon", "coordinates": [[[-97.4653249, 34.4854595], [-97.4652201, 34.4854662], [-97.4652087, 34.4853446], [-97.4653854, 34.4853333], [-97.4653932, 34.4854168], [-97.4653213, 34.4854214], [-97.4653249, 34.4854595]]]}, "properties": {"osm_id": 1173559027, "building": "yes", "name": "", "height": null, "height_m": null, "levels": null, "tract_id": "40019892100", "tract_name": "8921", "tags": {"building": "yes"}}}, {"type": "Feature", "geometry": {"type": "Polygon", "coordinates": [[[-97.4643221, 34.4801248], [-97.4641641, 34.4801368], [-97.4641741, 34.4802258], [-97.4643321, 34.4802138], [-97.4643221, 34.4801248]]]}, "properties": {"osm_id": 1173769281, "building": "yes", "name": "", "height": null, "height_m": null, "levels": null, "tract_id": "40019892100", "tract_name": "8921", "tags": {"building": "yes", "source": "microsoft/BuildingFootprints"}}}, {"type": "Feature", "geometry": {"type": "Polygon", "coordinates": [[[-97.462512, 34.481601], [-97.462367, 34.481601], [-97.462367, 34.481685], [-97.462512, 34.481685], [-97.462512, 34.481601]]]}, "properties": {"osm_id": 1173769282, "building": "yes", "name": "", "height": null, "height_m": null, "levels": null, "tract_id": "40019892100", "tract_name": "8921", "tags": {"building": "yes", "source": "microsoft/BuildingFootprints"}}}, {"type": "Feature", "geometry": {"type": "Polygon", "coordinates": [[[-97.4646012, 34.4822726], [-97.4646952, 34.4822726], [-97.4646952, 34.4821686], [-97.4646012, 34.4821686], [-97.4646012, 34.4822726]]]}, "properties": {"osm_id": 1173769283, "building": "yes", "name": "", "height": null, "height_m": null, "levels": null, "tract_id": "40019892100", "tract_name": "8921", "tags": {"building": "yes", "source": "microsoft/BuildingFootprints"}}}, {"type": "Feature", "geometry": {"type": "Polygon", "coordinates": [[[-97.4608159, 34.4815702], [-97.4609249, 34.4815352], [-97.4609129, 34.4815102], [-97.4609949, 34.4814842], [-97.4609699, 34.4814302], [-97.4607789, 34.4814912], [-97.4608159, 34.4815702]]]}, "properties": {"osm_id": 1173769284, "building": "yes", "name": "", "height": null, "height_m": null, "levels": null, "tract_id": "40019892100", "tract_name": "8921", "tags": {"building": "yes", "source": "microsoft/BuildingFootprints"}}}, {"type": "Feature", "geometry": {"type": "Polygon", "coordinates": [[[-97.4590922, 34.4821366], [-97.4589302, 34.4822346], [-97.4589892, 34.4823006], [-97.4591512, 34.4822026], [-97.4590922, 34.4821366]]]}, "properties": {"osm_id": 1173769285, "building": "yes", "name": "", "height": null, "height_m": null, "levels": null, "tract_id": "40019892100", "tract_name": "8921", "tags": {"building": "yes", "source": "microsoft/BuildingFootprints"}}}, {"type": "Feature", "geometry": {"type": "Polygon", "coordinates": [[[-97.4589612, 34.482296], [-97.4589152, 34.482258], [-97.4588812, 34.482286], [-97.4589272, 34.482324], [-97.4589612, 34.482296]]]}, "properties": {"osm_id": 1173769286, "building": "yes", "name": "", "height": null, "height_m": null, "levels": null, "tract_id": "40019892100", "tract_name": "8921", "tags": {"building": "yes", "source": "microsoft/BuildingFootprints"}}}, {"type": "Feature", "geometry": {"type": "Polygon", "coordinates": [[[-97.4582949, 34.4820834], [-97.4582589, 34.4820124], [-97.4581049, 34.4820644], [-97.4581419, 34.4821364], [-97.4582949, 34.4820834]]]}, "properties": {"osm_id": 1173769287, "building": "yes", "name": "", "height": null, "height_m": null, "levels": null, "tract_id": "40019892100", "tract_name": "8921", "tags": {"building": "yes", "source": "microsoft/BuildingFootprints"}}}, {"type": "Feature", "geometry": {"type": "Polygon", "coordinates": [[[-97.4582052, 34.4813498], [-97.4581032, 34.4813348], [-97.4580582, 34.4815468], [-97.4581592, 34.4815618], [-97.4582052, 34.4813498]]]}, "properties": {"osm_id": 1173769288, "building": "yes", "name": "", "height": null, "height_m": null, "levels": null, "tract_id": "40019892100", "tract_name": "8921", "tags": {"building": "yes", "source": "microsoft/BuildingFootprints"}}}, {"type": "Feature", "geometry": {"type": "Polygon", "coordinates": [[[-97.4584054, 34.4814946], [-97.4584054, 34.4815766], [-97.4584744, 34.4815766], [-97.4584744, 34.4814946], [-97.4584054, 34.4814946]]]}, "properties": {"osm_id": 1173769289, "building": "yes", "name": "", "height": null, "height_m": null, "levels": null, "tract_id": "40019892100", "tract_name": "8921", "tags": {"building": "yes", "source": "microsoft/BuildingFootprints"}}}, {"type": "Feature", "geometry": {"type": "Polygon", "coordinates": [[[-97.4583825, 34.4838319], [-97.4584355, 34.4839119], [-97.4585425, 34.4838629], [-97.4584895, 34.4837829], [-97.4583825, 34.4838319]]]}, "properties": {"osm_id": 1173769290, "building": "yes", "name": "", "height": null, "height_m": null, "levels": null, "tract_id": "40019892100", "tract_name": "8921", "tags": {"building": "yes", "source": "microsoft/BuildingFootprints"}}}, {"type": "Feature", "geometry": {"type": "Polygon", "coordinates": [[[-97.4569481, 34.4839699], [-97.4569711, 34.4840929], [-97.4571201, 34.4840739], [-97.4571051, 34.4839949], [-97.4570501, 34.4840019], [-97.4570421, 34.4839579], [-97.4569481, 34.4839699]]]}, "properties": {"osm_id": 1173769291, "building": "yes", "name": "", "height": null, "height_m": null, "levels": null, "tract_id": "40019892100", "tract_name": "8921", "tags": {"building": "yes", "source": "microsoft/BuildingFootprints"}}}, {"type": "Feature", "geometry": {"type": "Polygon", "coordinates": [[[-97.4567752, 34.4839555], [-97.4567081, 34.4839638], [-97.4567207, 34.4840309], [-97.456788, 34.4840216], [-97.4567752, 34.4839555]]]}, "properties": {"osm_id": 1173769292, "building": "yes", "name": "", "height": null, "height_m": null, "levels": null, "tract_id": "40019892100", "tract_name": "8921", "tags": {"building": "yes", "source": "microsoft/BuildingFootprints"}}}, {"type": "Feature", "geometry": {"type": "Polygon", "coordinates": [[[-97.4582984, 34.4805892], [-97.4583174, 34.4807722], [-97.4584104, 34.4807662], [-97.4584024, 34.4806872], [-97.4584944, 34.4806802], [-97.4584824, 34.4805682], [-97.4584544, 34.4805702], [-97.4584514, 34.4805352], [-97.4583764, 34.4805402], [-97.4583814, 34.4805832], [-97.4582984, 34.4805892]]]}, "properties": {"osm_id": 1173769293, "building": "yes", "name": "", "height": null, "height_m": null, "levels": null, "tract_id": "40019892100", "tract_name": "8921", "tags": {"building": "yes", "source": "microsoft/BuildingFootprints"}}}, {"type": "Feature", "geometry": {"type": "Polygon", "coordinates": [[[-97.4529601, 34.48176], [-97.4528261, 34.48176], [-97.4528261, 34.481859], [-97.4529601, 34.481859], [-97.4529601, 34.48176]]]}, "properties": {"osm_id": 1173769294, "building": "yes", "name": "", "height": null, "height_m": null, "levels": null, "tract_id": "40019892100", "tract_name": "8921", "tags": {"building": "yes", "source": "microsoft/BuildingFootprints"}}}, {"type": "Feature", "geometry": {"type": "Polygon", "coordinates": [[[-97.453019, 34.483011], [-97.453132, 34.483011], [-97.453132, 34.482899], [-97.453097, 34.482899], [-97.453097, 34.482857], [-97.453004, 34.482857], [-97.453004, 34.482894], [-97.452976, 34.482894], [-97.452976, 34.482976], [-97.453019, 34.482976], [-97.453019, 34.483011]]]}, "properties": {"osm_id": 1173769295, "building": "yes", "name": "", "height": null, "height_m": null, "levels": null, "tract_id": "40019892100", "tract_name": "8921", "tags": {"building": "yes", "source": "microsoft/BuildingFootprints"}}}, {"type": "Feature", "geometry": {"type": "Polygon", "coordinates": [[[-97.4517959, 34.4833168], [-97.4517959, 34.4832588], [-97.4517049, 34.4832588], [-97.4517049, 34.4833168], [-97.4517959, 34.4833168]]]}, "properties": {"osm_id": 1173769296, "building": "yes", "name": "", "height": null, "height_m": null, "levels": null, "tract_id": "40019892100", "tract_name": "8921", "tags": {"building": "yes", "source": "microsoft/BuildingFootprints"}}}, {"type": "Feature", "geometry": {"type": "Polygon", "coordinates": [[[-97.4524242, 34.4837706], [-97.4525002, 34.4838206], [-97.4526152, 34.4837006], [-97.4525392, 34.4836516], [-97.4524242, 34.4837706]]]}, "properties": {"osm_id": 1173769297, "building": "yes", "name": "", "height": null, "height_m": null, "levels": null, "tract_id": "40019892100", "tract_name": "8921", "tags": {"building": "yes", "source": "microsoft/BuildingFootprints"}}}, {"type": "Feature", "geometry": {"type": "Polygon", "coordinates": [[[-97.4522325, 34.4845138], [-97.4522825, 34.4845088], [-97.4522985, 34.4846088], [-97.4523955, 34.4845988], [-97.4523715, 34.4844418], [-97.4522235, 34.4844578], [-97.4522325, 34.4845138]]]}, "properties": {"osm_id": 1173769298, "building": "yes", "name": "", "height": null, "height_m": null, "levels": null, "tract_id": "40019892100", "tract_name": "8921", "tags": {"building": "yes", "source": "microsoft/BuildingFootprints"}}}, {"type": "Feature", "geometry": {"type": "Polygon", "coordinates": [[[-97.4535698, 34.4857666], [-97.4535848, 34.4858476], [-97.4537508, 34.4858266], [-97.4537288, 34.4857106], [-97.4536568, 34.4857196], [-97.4536638, 34.4857546], [-97.4535698, 34.4857666]]]}, "properties": {"osm_id": 1173769299, "building": "yes", "name": "", "height": null, "height_m": null, "levels": null, "tract_id": "40019892100", "tract_name": "8921", "tags": {"building": "yes", "source": "microsoft/BuildingFootprints"}}}, {"type": "Feature", "geometry": {"type": "Polygon", "coordinates": [[[-97.4524174, 34.486127], [-97.4524184, 34.486222], [-97.4525664, 34.486221], [-97.4525654, 34.48619], [-97.4526904, 34.486189], [-97.4526904, 34.486125], [-97.4524174, 34.486127]]]}, "properties": {"osm_id": 1173769300, "building": "yes", "name": "", "height": null, "height_m": null, "levels": null, "tract_id": "40019892100", "tract_name": "8921", "tags": {"building": "yes", "source": "microsoft/BuildingFootprints"}}}, {"type": "Feature", "geometry": {"type": "Polygon", "coordinates": [[[-97.453168, 34.487348], [-97.453208, 34.487339], [-97.453219, 34.487374], [-97.453343, 34.487346], [-97.453305, 34.487231], [-97.453141, 34.487268], [-97.453168, 34.487348]]]}, "properties": {"osm_id": 1173769301, "building": "yes", "name": "", "height": null, "height_m": null, "levels": null, "tract_id": "40019892100", "tract_name": "8921", "tags": {"building": "yes", "source": "microsoft/BuildingFootprints"}}}, {"type": "Feature", "geometry": {"type": "Polygon", "coordinates": [[[-97.4550414, 34.4892282], [-97.4550414, 34.4890562], [-97.4548864, 34.4890562], [-97.4548864, 34.4892282], [-97.4550414, 34.4892282]]]}, "properties": {"osm_id": 1173769302, "building": "yes", "name": "", "height": null, "height_m": null, "levels": null, "tract_id": "40019892100", "tract_name": "8921", "tags": {"building": "yes", "source": "microsoft/BuildingFootprints"}}}, {"type": "Feature", "geometry": {"type": "Polygon", "coordinates": [[[-97.4558059, 34.489143], [-97.4558559, 34.489201], [-97.4558009, 34.489233], [-97.4558899, 34.489336], [-97.4559769, 34.489285], [-97.4559369, 34.489239], [-97.4559799, 34.489214], [-97.4559409, 34.489169], [-97.4560099, 34.489128], [-97.4559499, 34.489058], [-97.4558059, 34.489143]]]}, "properties": {"osm_id": 1173769303, "building": "yes", "name": "", "height": null, "height_m": null, "levels": null, "tract_id": "40019892100", "tract_name": "8921", "tags": {"building": "yes", "source": "microsoft/BuildingFootprints"}}}, {"type": "Feature", "geometry": {"type": "Polygon", "coordinates": [[[-97.4532925, 34.4882108], [-97.4532925, 34.4881268], [-97.4531775, 34.4881268], [-97.4531775, 34.4881958], [-97.4532495, 34.4881958], [-97.4532495, 34.4882108], [-97.4532925, 34.4882108]]]}, "properties": {"osm_id": 1173769304, "building": "yes", "name": "", "height": null, "height_m": null, "levels": null, "tract_id": "40019892100", "tract_name": "8921", "tags": {"building": "yes", "source": "microsoft/BuildingFootprints"}}}, {"type": "Feature", "geometry": {"type": "Polygon", "coordinates": [[[-97.4521975, 34.4881362], [-97.4522091, 34.4881772], [-97.4524071, 34.4881385], [-97.4523954, 34.4880975], [-97.4521975, 34.4881362]]]}, "properties": {"osm_id": 1173769305, "building": "yes", "name": "", "height": null, "height_m": null, "levels": null, "tract_id": "40019892100", "tract_name": "8921", "tags": {"building": "yes", "source": "microsoft/BuildingFootprints"}}}, {"type": "Feature", "geometry": {"type": "Polygon", "coordinates": [[[-97.4504575, 34.4890252], [-97.4504475, 34.4889462], [-97.4503115, 34.4889572], [-97.4503215, 34.4890362], [-97.4504575, 34.4890252]]]}, "properties": {"osm_id": 1173769306, "building": "yes", "name": "", "height": null, "height_m": null, "levels": null, "tract_id": "40019892100", "tract_name": "8921", "tags": {"building": "yes", "source": "microsoft/BuildingFootprints"}}}, {"type": "Feature", "geometry": {"type": "Polygon", "coordinates": [[[-97.4518249, 34.4889812], [-97.4519379, 34.4889682], [-97.4519199, 34.4888632], [-97.4518069, 34.4888762], [-97.4518249, 34.4889812]]]}, "properties": {"osm_id": 1173769307, "building": "yes", "name": "", "height": null, "height_m": null, "levels": null, "tract_id": "40019892100", "tract_name": "8921", "tags": {"building": "yes", "source": "microsoft/BuildingFootprints"}}}, {"type": "Feature", "geometry": {"type": "Polygon", "coordinates": [[[-97.468866, 34.48388], [-97.468771, 34.483959], [-97.468838, 34.484014], [-97.468797, 34.484047], [-97.468855, 34.484095], [-97.468991, 34.483983], [-97.468866, 34.48388]]]}, "properties": {"osm_id": 1173769308, "building": "yes", "name": "", "height": null, "height_m": null, "levels": null, "tract_id": "40019892100", "tract_name": "8921", "tags": {"building": "yes", "source": "microsoft/BuildingFootprints"}}}, {"type": "Feature", "geometry": {"type": "Polygon", "coordinates": [[[-97.4695577, 34.4847758], [-97.4696597, 34.4847758], [-97.4696597, 34.4847008], [-97.4695577, 34.4847008], [-97.4695577, 34.4847758]]]}, "properties": {"osm_id": 1173769309, "building": "yes", "name": "", "height": null, "height_m": null, "levels": null, "tract_id": "40019892100", "tract_name": "8921", "tags": {"building": "yes", "source": "microsoft/BuildingFootprints"}}}, {"type": "Feature", "geometry": {"type": "Polygon", "coordinates": [[[-97.47009, 34.484911], [-97.470176, 34.484912], [-97.470176, 34.484896], [-97.470251, 34.484896], [-97.470252, 34.48479], [-97.470195, 34.48479], [-97.470195, 34.484759], [-97.470091, 34.484759], [-97.47009, 34.484911]]]}, "properties": {"osm_id": 1173769310, "building": "yes", "name": "", "height": null, "height_m": null, "levels": null, "tract_id": "40019892100", "tract_name": "8921", "tags": {"building": "yes", "source": "microsoft/BuildingFootprints"}}}, {"type": "Feature", "geometry": {"type": "Polygon", "coordinates": [[[-97.4760839, 34.4840115], [-97.4760949, 34.4842055], [-97.4765979, 34.4841855], [-97.4765869, 34.4839915], [-97.4760839, 34.4840115]]]}, "properties": {"osm_id": 1173769311, "building": "yes", "name": "", "height": null, "height_m": null, "levels": null, "tract_id": "40019892100", "tract_name": "8921", "tags": {"building": "yes", "source": "microsoft/BuildingFootprints"}}}, {"type": "Feature", "geometry": {"type": "Polygon", "coordinates": [[[-97.4767079, 34.4843415], [-97.4763629, 34.4843545], [-97.4763719, 34.4845215], [-97.4767179, 34.4845095], [-97.4767079, 34.4843415]]]}, "properties": {"osm_id": 1173769312, "building": "yes", "name": "", "height": null, "height_m": null, "levels": null, "tract_id": "40019892100", "tract_name": "8921", "tags": {"building": "yes", "source": "microsoft/BuildingFootprints"}}}, {"type": "Feature", "geometry": {"type": "Polygon", "coordinates": [[[-97.477171, 34.4846555], [-97.477172, 34.4847125], [-97.477407, 34.4847085], [-97.477404, 34.4845845], [-97.477263, 34.4845865], [-97.477265, 34.4846545], [-97.477171, 34.4846555]]]}, "properties": {"osm_id": 1173769313, "building": "yes", "name": "", "height": null, "height_m": null, "levels": null, "tract_id": "40019892100", "tract_name": "8921", "tags": {"building": "yes", "source": "microsoft/BuildingFootprints"}}}, {"type": "Feature", "geometry": {"type": "Polygon", "coordinates": [[[-97.477078, 34.484731], [-97.477, 34.484731], [-97.477, 34.484804], [-97.477078, 34.484804], [-97.477078, 34.484731]]]}, "properties": {"osm_id": 1173769314, "building": "yes", "name": "", "height": null, "height_m": null, "levels": null, "tract_id": "40019892100", "tract_name": "8921", "tags": {"building": "yes", "source": "microsoft/BuildingFootprints"}}}, {"type": "Feature", "geometry": {"type": "Polygon", "coordinates": [[[-97.4781919, 34.4846174], [-97.4781879, 34.4847164], [-97.4782489, 34.4847184], [-97.4782459, 34.4847914], [-97.4784119, 34.4847964], [-97.4784199, 34.4846234], [-97.4781919, 34.4846174]]]}, "properties": {"osm_id": 1173769315, "building": "yes", "name": "", "height": null, "height_m": null, "levels": null, "tract_id": "40019892100", "tract_name": "8921", "tags": {"building": "yes", "source": "microsoft/BuildingFootprints"}}}, {"type": "Feature", "geometry": {"type": "Polygon", "coordinates": [[[-97.4785829, 34.4842904], [-97.4786129, 34.4845634], [-97.4787499, 34.4845534], [-97.4787199, 34.4842804], [-97.4785829, 34.4842904]]]}, "properties": {"osm_id": 1173769316, "building": "yes", "name": "", "height": null, "height_m": null, "levels": null, "tract_id": "40019892100", "tract_name": "8921", "tags": {"building": "yes", "source": "microsoft/BuildingFootprints"}}}, {"type": "Feature", "geometry": {"type": "Polygon", "coordinates": [[[-97.4772889, 34.4838685], [-97.4773289, 34.4842005], [-97.4775489, 34.4841825], [-97.4775099, 34.4838505], [-97.4772889, 34.4838685]]]}, "properties": {"osm_id": 1173769317, "building": "yes", "name": "", "height": null, "height_m": null, "levels": null, "tract_id": "40019892100", "tract_name": "8921", "tags": {"building": "yes", "source": "microsoft/BuildingFootprints"}}}, {"type": "Feature", "geometry": {"type": "Polygon", "coordinates": [[[-97.1751852, 34.3170571], [-97.1751865, 34.3168832], [-97.17498, 34.3168843], [-97.1749787, 34.3170582], [-97.1751852, 34.3170571]]]}, "properties": {"osm_id": 1225835615, "building": "yes", "name": "", "height": null, "height_m": null, "levels": null, "tract_id": "40019892100", "tract_name": "8921", "tags": {"building": "yes"}}}, {"type": "Feature", "geometry": {"type": "Polygon", "coordinates": [[[-97.2741482, 34.3015156], [-97.2741594, 34.3014305], [-97.2740876, 34.3014241], [-97.2740764, 34.3015092], [-97.2741482, 34.3015156]]]}, "properties": {"osm_id": 1227083672, "building": "carport", "name": "", "height": null, "height_m": null, "levels": null, "tract_id": "40019892100", "tract_name": "8921", "tags": {"building": "carport"}}}, {"type": "Feature", "geometry": {"type": "Polygon", "coordinates": [[[-97.2737527, 34.3016759], [-97.2737451, 34.3015607], [-97.2737223, 34.3015617], [-97.2737189, 34.3015091], [-97.273657, 34.3015119], [-97.2735715, 34.3015157], [-97.2735825, 34.3016835], [-97.2737527, 34.3016759]]]}, "properties": {"osm_id": 1227083675, "building": "barn", "name": "", "height": null, "height_m": null, "levels": null, "tract_id": "40019892100", "tract_name": "8921", "tags": {"building": "barn"}}}, {"type": "Feature", "geometry": {"type": "Polygon", "coordinates": [[[-97.2736288, 34.3021456], [-97.2736261, 34.3019756], [-97.2735181, 34.3019767], [-97.2735191, 34.3020418], [-97.2735208, 34.3021468], [-97.2736288, 34.3021456]]]}, "properties": {"osm_id": 1227083678, "building": "barn", "name": "", "height": null, "height_m": null, "levels": null, "tract_id": "40019892100", "tract_name": "8921", "tags": {"building": "barn"}}}, {"type": "Feature", "geometry": {"type": "Polygon", "coordinates": [[[-97.2687829, 34.3036031], [-97.2687829, 34.3035039], [-97.2686709, 34.3035039], [-97.2686709, 34.3036031], [-97.2687829, 34.3036031]]]}, "properties": {"osm_id": 1227083682, "building": "barn", "name": "", "height": null, "height_m": null, "levels": null, "tract_id": "40019892100", "tract_name": "8921", "tags": {"building": "barn"}}}, {"type": "Feature", "geometry": {"type": "Polygon", "coordinates": [[[-97.274124, 34.3010043], [-97.2741252, 34.3010507], [-97.2741184, 34.3010508], [-97.2741196, 34.301097], [-97.2742327, 34.301095], [-97.274233, 34.3011081], [-97.2742582, 34.3011077], [-97.2742578, 34.3010938], [-97.2743195, 34.3010927], [-97.2743184, 34.3010468], [-97.2742086, 34.3010487], [-97.2742074, 34.3010028], [-97.274124, 34.3010043]]]}, "properties": {"osm_id": 1228558111, "building": "static_caravan", "name": "", "height": null, "height_m": null, "levels": null, "tract_id": "40019892100", "tract_name": "8921", "tags": {"addr:city": "Ardmore", "addr:postcode": "73401", "addr:state": "OK", "addr:street": "Hickory Road", "building": "static_caravan"}}}, {"type": "Feature", "geometry": {"type": "Polygon", "coordinates": [[[-97.2741662, 34.3015298], [-97.2740722, 34.3015226], [-97.2740727, 34.3015183], [-97.2740447, 34.3015162], [-97.2740379, 34.3015776], [-97.2741388, 34.3015853], [-97.2741405, 34.3015698], [-97.2741616, 34.3015714], [-97.2741662, 34.3015298]]]}, "properties": {"osm_id": 1228558121, "building": "house", "name": "", "height": null, "height_m": 3.0, "levels": 1, "tract_id": "40019892100", "tract_name": "8921", "tags": {"addr:city": "Ardmore", "addr:housenumber": "517", "addr:postcode": "73401", "addr:state": "OK", "addr:street": "Hickory Road", "building": "house", "building:levels": "1", "house": "bungalow"}}}, {"type": "Feature", "geometry": {"type": "Polygon", "coordinates": [[[-97.0321941, 34.3055885], [-97.0311803, 34.3055841], [-97.0311827, 34.3051988], [-97.0321966, 34.3052032], [-97.0321941, 34.3055885]]]}, "properties": {"osm_id": 1377806259, "building": "yes", "name": "", "height": null, "height_m": null, "levels": null, "tract_id": "40019892100", "tract_name": "8921", "tags": {"building": "yes"}}}, {"type": "Feature", "geometry": {"type": "Polygon", "coordinates": [[[-97.035901, 34.3030449], [-97.0350695, 34.3030449], [-97.0350695, 34.3027613], [-97.035901, 34.3027613], [-97.035901, 34.3030449]]]}, "properties": {"osm_id": 1377806260, "building": "yes", "name": "", "height": null, "height_m": null, "levels": null, "tract_id": "40019892100", "tract_name": "8921", "tags": {"building": "yes"}}}, {"type": "Feature", "geometry": {"type": "Polygon", "coordinates": [[[-97.0368558, 34.303333], [-97.0368558, 34.3045649], [-97.0365501, 34.3045649], [-97.0365501, 34.3051188], [-97.0359063, 34.3051188], [-97.0359063, 34.304689], [-97.0356166, 34.304689], [-97.0356166, 34.3040774], [-97.0352465, 34.3040774], [-97.0352465, 34.30359], [-97.035563, 34.30359], [-97.035563, 34.3034881], [-97.0365125, 34.3034881], [-97.0365125, 34.303333], [-97.0368558, 34.303333]]]}, "properties": {"osm_id": 1377806261, "building": "yes", "name": "", "height": null, "height_m": null, "levels": null, "tract_id": "40019892100", "tract_name": "8921", "tags": {"building": "yes"}}}, {"type": "Feature", "geometry": {"type": "Polygon", "coordinates": [[[-97.0270389, 34.3010663], [-97.0272906, 34.3010722], [-97.0272772, 34.30146], [-97.0270255, 34.3014541], [-97.0270389, 34.3010663]]]}, "properties": {"osm_id": 1377806262, "building": "yes", "name": "", "height": null, "height_m": null, "levels": null, "tract_id": "40019892100", "tract_name": "8921", "tags": {"building": "yes"}}}, {"type": "Feature", "geometry": {"type": "Polygon", "coordinates": [[[-97.0275512, 34.3000271], [-97.0279498, 34.3000299], [-97.0279471, 34.3002958], [-97.0275486, 34.300293], [-97.0275512, 34.3000271]]]}, "properties": {"osm_id": 1377806263, "building": "yes", "name": "", "height": null, "height_m": null, "levels": null, "tract_id": "40019892100", "tract_name": "8921", "tags": {"building": "yes"}}}, {"type": "Feature", "geometry": {"type": "Polygon", "coordinates": [[[-97.0268274, 34.2994473], [-97.026929, 34.2994485], [-97.026932, 34.2992809], [-97.0272344, 34.2992846], [-97.0272277, 34.2996562], [-97.0268238, 34.2996512], [-97.0268274, 34.2994473]]]}, "properties": {"osm_id": 1377806264, "building": "yes", "name": "", "height": null, "height_m": null, "levels": null, "tract_id": "40019892100", "tract_name": "8921", "tags": {"building": "yes"}}}, {"type": "Feature", "geometry": {"type": "Polygon", "coordinates": [[[-97.0270497, 34.2982412], [-97.0273817, 34.2982424], [-97.027379, 34.2987454], [-97.027047, 34.2987442], [-97.0270497, 34.2982412]]]}, "properties": {"osm_id": 1377806266, "building": "yes", "name": "", "height": null, "height_m": null, "levels": null, "tract_id": "40019892100", "tract_name": "8921", "tags": {"building": "yes"}}}, {"type": "Feature", "geometry": {"type": "Polygon", "coordinates": [[[-97.0270604, 34.2974856], [-97.0274698, 34.2974877], [-97.0274671, 34.2978488], [-97.0270577, 34.2978468], [-97.0270604, 34.2974856]]]}, "properties": {"osm_id": 1377806267, "building": "yes", "name": "", "height": null, "height_m": null, "levels": null, "tract_id": "40019892100", "tract_name": "8921", "tags": {"building": "yes"}}}, {"type": "Feature", "geometry": {"type": "Polygon", "coordinates": [[[-97.0284364, 34.2956132], [-97.0284324, 34.2963579], [-97.0272013, 34.2963535], [-97.0272052, 34.2956088], [-97.0284364, 34.2956132]]]}, "properties": {"osm_id": 1377806268, "building": "yes", "name": "", "height": null, "height_m": null, "levels": null, "tract_id": "40019892100", "tract_name": "8921", "tags": {"building": "yes"}}}, {"type": "Feature", "geometry": {"type": "Polygon", "coordinates": [[[-97.0374942, 34.2964109], [-97.0374835, 34.2987065], [-97.0357765, 34.2987011], [-97.0357784, 34.2982988], [-97.0325268, 34.2982885], [-97.0325216, 34.2993902], [-97.0305163, 34.2993838], [-97.0305211, 34.2983608], [-97.0303048, 34.2983601], [-97.0303132, 34.2965616], [-97.0308611, 34.2965634], [-97.0308531, 34.2982881], [-97.0314282, 34.29829], [-97.0314333, 34.2972036], [-97.0357834, 34.2972175], [-97.0357872, 34.2964055], [-97.0374942, 34.2964109]]]}, "properties": {"osm_id": 1377806269, "building": "yes", "name": "", "height": null, "height_m": null, "levels": null, "tract_id": "40019892100", "tract_name": "8921", "tags": {"building": "yes"}}}]}