{"type": "FeatureCollection", "features": [{"type": "Feature", "geometry": {"type": "Polygon", "coordinates": [[[-98.7598553, 36.0810358], [-98.7595191, 36.0810358], [-98.7595191, 36.0808947], [-98.7595191, 36.0808756], [-98.7598553, 36.0808756], [-98.7598553, 36.0810204], [-98.7598553, 36.0810358]]]}, "properties": {"osm_id": 719373660, "building": "industrial", "name": "Crossroads Wind Farm", "height": null, "height_m": 6.0, "levels": 2, "tract_id": "40043959100", "tract_name": "9591", "tags": {"addr:city": "Canton", "addr:housenumber": "64856", "addr:postcode": "73724", "addr:state": "OK", "addr:street": "N2380 Road", "building": "industrial", "building:levels": "2", "name": "Crossroads Wind Farm", "operator": "Oklahoma Gas & Electric"}}}, {"type": "Feature", "geometry": {"type": "Polygon", "coordinates": [[[-98.7827964, 36.0886584], [-98.7825283, 36.0886369], [-98.7825627, 36.0883575], [-98.7828308, 36.088379], [-98.7827964, 36.0886584]]]}, "properties": {"osm_id": 719470821, "building": "barn", "name": "", "height": null, "height_m": null, "levels": null, "tract_id": "40043959100", "tract_name": "9591", "tags": {"building": "barn"}}}, {"type": "Feature", "geometry": {"type": "Polygon", "coordinates": [[[-98.7966817, 36.0889067], [-98.796508, 36.0889024], [-98.7965134, 36.088762], [-98.796687, 36.0887663], [-98.7966817, 36.0889067]]]}, "properties": {"osm_id": 719470822, "building": "barn", "name": "", "height": null, "height_m": null, "levels": null, "tract_id": "40043959100", "tract_name": "9591", "tags": {"building": "barn"}}}, {"type": "Feature", "geometry": {"type": "Polygon", "coordinates": [[[-98.796611, 36.0891383], [-98.7966247, 36.0889878], [-98.7965363, 36.0889826], [-98.7965227, 36.0891331], [-98.796611, 36.0891383]]]}, "properties": {"osm_id": 719470823, "building": "house", "name": "", "height": null, "height_m": null, "levels": null, "tract_id": "40043959100", "tract_name": "9591", "tags": {"building": "house"}}}, {"type": "Feature", "geometry": {"type": "Polygon", "coordinates": [[[-98.7599358, 36.067502], [-98.7599368, 36.0674099], [-98.759869, 36.0674094], [-98.759868, 36.0675016], [-98.7599358, 36.067502]]]}, "properties": {"osm_id": 719918430, "building": "house", "name": "", "height": null, "height_m": 6.0, "levels": 2, "tract_id": "40043959100", "tract_name": "9591", "tags": {"abandoned:building": "yes", "building": "house", "building:levels": "2"}}}, {"type": "Feature", "geometry": {"type": "Polygon", "coordinates": [[[-98.7074508, 36.0579563], [-98.7074508, 36.0578691], [-98.707226, 36.0578691], [-98.707226, 36.0579563], [-98.7074508, 36.0579563]]]}, "properties": {"osm_id": 719918436, "building": "yes", "name": "", "height": null, "height_m": null, "levels": null, "tract_id": "40043959100", "tract_name": "9591", "tags": {"amenity": "bar", "building": "yes"}}}, {"type": "Feature", "geometry": {"type": "Polygon", "coordinates": [[[-98.7074416, 36.0577893], [-98.70744, 36.0577384], [-98.7072059, 36.0577433], [-98.7072076, 36.0577942], [-98.7074416, 36.0577893]]]}, "properties": {"osm_id": 719918437, "building": "static_caravan", "name": "", "height": null, "height_m": null, "levels": null, "tract_id": "40043959100", "tract_name": "9591", "tags": {"building": "static_caravan"}}}, {"type": "Feature", "geometry": {"type": "Polygon", "coordinates": [[[-98.7080554, 36.0579567], [-98.7080604, 36.0578123], [-98.7079062, 36.0578088], [-98.7079013, 36.0579532], [-98.7080554, 36.0579567]]]}, "properties": {"osm_id": 719918438, "building": "barn", "name": "", "height": null, "height_m": null, "levels": null, "tract_id": "40043959100", "tract_name": "9591", "tags": {"building": "barn"}}}, {"type": "Feature", "geometry": {"type": "Polygon", "coordinates": [[[-98.7085639, 36.0578249], [-98.7085639, 36.0577539], [-98.7083744, 36.0577539], [-98.7083744, 36.0578249], [-98.7085639, 36.0578249]]]}, "properties": {"osm_id": 719918439, "building": "house", "name": "", "height": null, "height_m": null, "levels": null, "tract_id": "40043959100", "tract_name": "9591", "tags": {"building": "house"}}}, {"type": "Feature", "geometry": {"type": "Polygon", "coordinates": [[[-98.7088566, 36.0571299], [-98.7088566, 36.0568025], [-98.7087165, 36.0568025], [-98.7087164, 36.0571299], [-98.7088566, 36.0571299]]]}, "properties": {"osm_id": 719918440, "building": "yes", "name": "", "height": null, "height_m": null, "levels": null, "tract_id": "40043959100", "tract_name": "9591", "tags": {"building": "yes", "shop": "storage_rental"}}}, {"type": "Feature", "geometry": {"type": "Polygon", "coordinates": [[[-98.7087169, 36.0566309], [-98.7088647, 36.0566315], [-98.7088639, 36.0567846], [-98.708716, 36.0567841], [-98.7087169, 36.0566309]]]}, "properties": {"osm_id": 719918441, "building": "yes", "name": "", "height": null, "height_m": null, "levels": null, "tract_id": "40043959100", "tract_name": "9591", "tags": {"building": "yes", "shop": "storage_rental"}}}, {"type": "Feature", "geometry": {"type": "Polygon", "coordinates": [[[-98.7083004, 36.0571287], [-98.7081855, 36.0571283], [-98.7081874, 36.0567957], [-98.7083022, 36.0567961], [-98.7083004, 36.0571287]]]}, "properties": {"osm_id": 719918442, "building": "yes", "name": "", "height": null, "height_m": null, "levels": null, "tract_id": "40043959100", "tract_name": "9591", "tags": {"building": "yes", "shop": "storage_rental"}}}, {"type": "Feature", "geometry": {"type": "Polygon", "coordinates": [[[-98.7081897, 36.0566965], [-98.7081889, 36.0567858], [-98.707869, 36.0567841], [-98.7078698, 36.0566947], [-98.7081897, 36.0566965]]]}, "properties": {"osm_id": 719918443, "building": "yes", "name": "", "height": null, "height_m": null, "levels": null, "tract_id": "40043959100", "tract_name": "9591", "tags": {"building": "yes", "shop": "storage_rental"}}}, {"type": "Feature", "geometry": {"type": "Polygon", "coordinates": [[[-98.7115957, 36.0578774], [-98.7116013, 36.0576212], [-98.7114945, 36.0576196], [-98.7114938, 36.0576519], [-98.7114483, 36.0576512], [-98.7114469, 36.0577147], [-98.711497, 36.0577154], [-98.7114935, 36.0578759], [-98.7115957, 36.0578774]]]}, "properties": {"osm_id": 719918444, "building": "house", "name": "", "height": null, "height_m": null, "levels": null, "tract_id": "40043959100", "tract_name": "9591", "tags": {"building": "house"}}}, {"type": "Feature", "geometry": {"type": "Polygon", "coordinates": [[[-98.7047253, 36.0588928], [-98.7047268, 36.0587547], [-98.7043757, 36.0587522], [-98.7043742, 36.0588903], [-98.7047253, 36.0588928]]]}, "properties": {"osm_id": 720321796, "building": "barn", "name": "", "height": null, "height_m": null, "levels": null, "tract_id": "40043959100", "tract_name": "9591", "tags": {"building": "barn"}}}, {"type": "Feature", "geometry": {"type": "Polygon", "coordinates": [[[-98.7048903, 36.0587149], [-98.705009, 36.0587135], [-98.7050087, 36.0586984], [-98.7051819, 36.0586964], [-98.7051802, 36.0585998], [-98.704971, 36.0586022], [-98.7049708, 36.0585937], [-98.7048881, 36.0585947], [-98.7048903, 36.0587149]]]}, "properties": {"osm_id": 720321797, "building": "house", "name": "", "height": null, "height_m": null, "levels": null, "tract_id": "40043959100", "tract_name": "9591", "tags": {"building": "house"}}}, {"type": "Feature", "geometry": {"type": "Polygon", "coordinates": [[[-98.7603391, 36.0749462], [-98.7603385, 36.0747874], [-98.7602741, 36.0747876], [-98.7602747, 36.0749464], [-98.7603391, 36.0749462]]]}, "properties": {"osm_id": 720338413, "building": "industrial", "name": "", "height": null, "height_m": 3.0, "levels": 1, "tract_id": "40043959100", "tract_name": "9591", "tags": {"building": "industrial", "building:levels": "1"}}}, {"type": "Feature", "geometry": {"type": "Polygon", "coordinates": [[[-98.778997, 36.0620924], [-98.7788819, 36.0620043], [-98.7788561, 36.0620264], [-98.7789713, 36.0621144], [-98.778997, 36.0620924]]]}, "properties": {"osm_id": 720338414, "building": "yes", "name": "", "height": null, "height_m": null, "levels": null, "tract_id": "40043959100", "tract_name": "9591", "tags": {"building": "yes"}}}, {"type": "Feature", "geometry": {"type": "Polygon", "coordinates": [[[-98.7789912, 36.0620374], [-98.778905, 36.061983], [-98.7790133, 36.0618708], [-98.7790995, 36.0619252], [-98.7789912, 36.0620374]]]}, "properties": {"osm_id": 720338415, "building": "house", "name": "", "height": null, "height_m": null, "levels": null, "tract_id": "40043959100", "tract_name": "9591", "tags": {"building": "house"}}}, {"type": "Feature", "geometry": {"type": "Polygon", "coordinates": [[[-98.7791463, 36.0618619], [-98.7790385, 36.0618509], [-98.7790511, 36.06177], [-98.7791589, 36.0617809], [-98.7791463, 36.0618619]]]}, "properties": {"osm_id": 720338416, "building": "garage", "name": "", "height": null, "height_m": null, "levels": null, "tract_id": "40043959100", "tract_name": "9591", "tags": {"building": "garage"}}}, {"type": "Feature", "geometry": {"type": "Polygon", "coordinates": [[[-98.7980366, 36.0726526], [-98.798058, 36.0724408], [-98.7979641, 36.0724346], [-98.7979426, 36.0726464], [-98.7980366, 36.0726526]]]}, "properties": {"osm_id": 720338417, "building": "yes", "name": "Covia Office", "height": null, "height_m": null, "levels": null, "tract_id": "40043959100", "tract_name": "9591", "tags": {"building": "yes", "name": "Covia Office", "office": "yes"}}}, {"type": "Feature", "geometry": {"type": "Polygon", "coordinates": [[[-98.8144656, 36.0583462], [-98.8144679, 36.0582432], [-98.8142909, 36.0582407], [-98.8142887, 36.0583437], [-98.8144656, 36.0583462]]]}, "properties": {"osm_id": 720338419, "building": "yes", "name": "Church at the Y", "height": null, "height_m": null, "levels": null, "tract_id": "40043959100", "tract_name": "9591", "tags": {"amenity": "events_venue", "building": "yes", "name": "Church at the Y"}}}, {"type": "Feature", "geometry": {"type": "Polygon", "coordinates": [[[-98.8148095, 36.0583576], [-98.8148101, 36.0583212], [-98.8147717, 36.0583208], [-98.8147731, 36.0582341], [-98.8148986, 36.0582354], [-98.8148967, 36.0583585], [-98.8148095, 36.0583576]]]}, "properties": {"osm_id": 720338420, "building": "house", "name": "", "height": null, "height_m": null, "levels": null, "tract_id": "40043959100", "tract_name": "9591", "tags": {"building": "house"}}}, {"type": "Feature", "geometry": {"type": "Polygon", "coordinates": [[[-98.74031, 36.0440783], [-98.7403109, 36.0439958], [-98.7404173, 36.0439966], [-98.7404164, 36.044079], [-98.74031, 36.0440783]]]}, "properties": {"osm_id": 722350189, "building": "house", "name": "", "height": null, "height_m": 6.0, "levels": 2, "tract_id": "40043959100", "tract_name": "9591", "tags": {"abandoned:building": "house", "building": "house", "building:levels": "2"}}}, {"type": "Feature", "geometry": {"type": "Polygon", "coordinates": [[[-98.7402648, 36.0441171], [-98.7402654, 36.0440789], [-98.7402106, 36.0440784], [-98.74021, 36.0441166], [-98.7402648, 36.0441171]]]}, "properties": {"osm_id": 722350190, "building": "yes", "name": "", "height": null, "height_m": null, "levels": null, "tract_id": "40043959100", "tract_name": "9591", "tags": {"building": "yes"}}}, {"type": "Feature", "geometry": {"type": "Polygon", "coordinates": [[[-98.7436287, 36.0720306], [-98.74355, 36.0720831], [-98.7434059, 36.0719419], [-98.7434846, 36.0718894], [-98.7436287, 36.0720306]]]}, "properties": {"osm_id": 723855425, "building": "static_caravan", "name": "", "height": null, "height_m": 3.0, "levels": 1, "tract_id": "40043959100", "tract_name": "9591", "tags": {"building": "static_caravan", "building:levels": "1"}}}, {"type": "Feature", "geometry": {"type": "Polygon", "coordinates": [[[-98.76003, 36.0817048], [-98.7600289, 36.0816127], [-98.759978, 36.0816131], [-98.7599791, 36.0817052], [-98.76003, 36.0817048]]]}, "properties": {"osm_id": 723855427, "building": "yes", "name": "", "height": null, "height_m": null, "levels": null, "tract_id": "40043959100", "tract_name": "9591", "tags": {"building": "yes"}}}, {"type": "Feature", "geometry": {"type": "Polygon", "coordinates": [[[-98.9241893, 36.1456895], [-98.9241881, 36.1455116], [-98.9239763, 36.1455125], [-98.9239775, 36.1456904], [-98.9241893, 36.1456895]]]}, "properties": {"osm_id": 724481444, "building": "yes", "name": "", "height": null, "height_m": null, "levels": null, "tract_id": "40043959100", "tract_name": "9591", "tags": {"building": "yes", "shop": "convenience"}}}, {"type": "Feature", "geometry": {"type": "Polygon", "coordinates": [[[-98.9241958, 36.145895], [-98.9241962, 36.1458061], [-98.9241146, 36.1458058], [-98.9241142, 36.1458948], [-98.9241958, 36.145895]]]}, "properties": {"osm_id": 724481445, "building": "yes", "name": "", "height": null, "height_m": null, "levels": null, "tract_id": "40043959100", "tract_name": "9591", "tags": {"building": "yes", "shop": "fuel"}}}, {"type": "Feature", "geometry": {"type": "Polygon", "coordinates": [[[-98.9244, 36.1457017], [-98.9243122, 36.1457038], [-98.9243095, 36.1456299], [-98.9243973, 36.1456277], [-98.9244, 36.1457017]]]}, "properties": {"osm_id": 724481446, "building": "yes", "name": "", "height": null, "height_m": null, "levels": null, "tract_id": "40043959100", "tract_name": "9591", "tags": {"building": "yes", "shop": "fuel"}}}, {"type": "Feature", "geometry": {"type": "Polygon", "coordinates": [[[-98.9249833, 36.1430996], [-98.9248046, 36.1431571], [-98.9246678, 36.1428799], [-98.9248466, 36.1428224], [-98.9249833, 36.1430996]]]}, "properties": {"osm_id": 724481447, "building": "commercial", "name": "Domino", "height": null, "height_m": null, "levels": null, "tract_id": "40043959100", "tract_name": "9591", "tags": {"addr:housenumber": "403", "addr:street": "South Main Street", "building": "commercial", "name": "Domino", "ref": "102", "shop": "convenience"}}}, {"type": "Feature", "geometry": {"type": "Polygon", "coordinates": [[[-98.9245279, 36.143028], [-98.9243458, 36.1430787], [-98.9242877, 36.1429428], [-98.9244698, 36.142892], [-98.9245279, 36.143028]]]}, "properties": {"osm_id": 724481448, "building": "roof", "name": "", "height": null, "height_m": null, "levels": null, "tract_id": "40043959100", "tract_name": "9591", "tags": {"building": "roof"}}}, {"type": "Feature", "geometry": {"type": "Polygon", "coordinates": [[[-98.9247759, 36.1428055], [-98.9246927, 36.1428279], [-98.9245583, 36.1426878], [-98.9246426, 36.1426598], [-98.9247759, 36.1428055]]]}, "properties": {"osm_id": 724481449, "building": "roof", "name": "", "height": null, "height_m": null, "levels": null, "tract_id": "40043959100", "tract_name": "9591", "tags": {"building": "roof"}}}, {"type": "Feature", "geometry": {"type": "Polygon", "coordinates": [[[-98.9248988, 36.1447299], [-98.9247745, 36.1447884], [-98.9246824, 36.1446608], [-98.9248067, 36.1446023], [-98.9248988, 36.1447299]]]}, "properties": {"osm_id": 724481451, "building": "roof", "name": "", "height": null, "height_m": null, "levels": null, "tract_id": "40043959100", "tract_name": "9591", "tags": {"building": "roof"}}}, {"type": "Feature", "geometry": {"type": "Polygon", "coordinates": [[[-98.9251719, 36.1448532], [-98.9251749, 36.1446997], [-98.9249787, 36.1446972], [-98.9249757, 36.1448507], [-98.9251719, 36.1448532]]]}, "properties": {"osm_id": 724481452, "building": "yes", "name": "", "height": null, "height_m": null, "levels": null, "tract_id": "40043959100", "tract_name": "9591", "tags": {"building": "yes", "shop": "convenience"}}}, {"type": "Feature", "geometry": {"type": "Polygon", "coordinates": [[[-98.9238374, 36.1478645], [-98.9236027, 36.1478635], [-98.9236035, 36.1477347], [-98.9238382, 36.1477356], [-98.9238374, 36.1478645]]]}, "properties": {"osm_id": 724481453, "building": "yes", "name": "", "height": null, "height_m": null, "levels": null, "tract_id": "40043959100", "tract_name": "9591", "tags": {"amenity": "post_office", "building": "yes"}}}, {"type": "Feature", "geometry": {"type": "Polygon", "coordinates": [[[-98.9231048, 36.1490391], [-98.922811, 36.1490396], [-98.9228107, 36.148905], [-98.9229851, 36.1489047], [-98.9229847, 36.1487499], [-98.9228034, 36.1487502], [-98.9228031, 36.1486346], [-98.9231038, 36.1486341], [-98.9231048, 36.1490391]]]}, "properties": {"osm_id": 724481454, "building": "yes", "name": "", "height": null, "height_m": null, "levels": null, "tract_id": "40043959100", "tract_name": "9591", "tags": {"amenity": "place_of_worship", "building": "yes", "religion": "christian"}}}, {"type": "Feature", "geometry": {"type": "Polygon", "coordinates": [[[-98.9205878, 36.1134839], [-98.9205868, 36.1134524], [-98.9205851, 36.1133753], [-98.9205838, 36.1133337], [-98.9204077, 36.1133367], [-98.9204106, 36.1134463], [-98.9204737, 36.1134452], [-98.9204748, 36.1134858], [-98.9205878, 36.1134839]]]}, "properties": {"osm_id": 780079853, "building": "house", "name": "", "height": null, "height_m": null, "levels": null, "tract_id": "40043959100", "tract_name": "9591", "tags": {"building": "house"}}}, {"type": "Feature", "geometry": {"type": "Polygon", "coordinates": [[[-98.9205868, 36.1134524], [-98.9206316, 36.1134518], [-98.9206696, 36.1134513], [-98.9206679, 36.1133741], [-98.9206299, 36.1133747], [-98.9205851, 36.1133753], [-98.9205868, 36.1134524]]]}, "properties": {"osm_id": 780079854, "building": "roof", "name": "", "height": null, "height_m": null, "levels": null, "tract_id": "40043959100", "tract_name": "9591", "tags": {"building": "roof"}}}, {"type": "Feature", "geometry": {"type": "Polygon", "coordinates": [[[-98.920462, 36.1129691], [-98.9203673, 36.1129694], [-98.9203668, 36.1128765], [-98.9204615, 36.1128762], [-98.920462, 36.1129691]]]}, "properties": {"osm_id": 780079858, "building": "yes", "name": "", "height": null, "height_m": null, "levels": null, "tract_id": "40043959100", "tract_name": "9591", "tags": {"building": "yes"}}}, {"type": "Feature", "geometry": {"type": "Polygon", "coordinates": [[[-98.9213945, 36.1098729], [-98.9213079, 36.1099014], [-98.9212344, 36.1097555], [-98.9213211, 36.109727], [-98.9213945, 36.1098729]]]}, "properties": {"osm_id": 780079859, "building": "yes", "name": "", "height": null, "height_m": null, "levels": null, "tract_id": "40043959100", "tract_name": "9591", "tags": {"building": "yes"}}}, {"type": "Feature", "geometry": {"type": "Polygon", "coordinates": [[[-98.9211543, 36.103897], [-98.9210382, 36.1038982], [-98.9210364, 36.1037868], [-98.9210872, 36.1037863], [-98.9210882, 36.1038505], [-98.9211535, 36.1038498], [-98.9211543, 36.103897]]]}, "properties": {"osm_id": 780079865, "building": "yes", "name": "", "height": null, "height_m": null, "levels": null, "tract_id": "40043959100", "tract_name": "9591", "tags": {"abandoned:building": "house", "building": "yes"}}}, {"type": "Feature", "geometry": {"type": "Polygon", "coordinates": [[[-98.9212758, 36.1034574], [-98.9212749, 36.1033049], [-98.921074, 36.1033056], [-98.9210742, 36.1033406], [-98.9209392, 36.1033411], [-98.9209398, 36.1034586], [-98.9212758, 36.1034574]]]}, "properties": {"osm_id": 780079866, "building": "barn", "name": "", "height": null, "height_m": null, "levels": null, "tract_id": "40043959100", "tract_name": "9591", "tags": {"building": "barn"}}}, {"type": "Feature", "geometry": {"type": "Polygon", "coordinates": [[[-98.7972552, 36.064149], [-98.7970965, 36.0641475], [-98.7970977, 36.0640641], [-98.7972564, 36.0640656], [-98.7972552, 36.064149]]]}, "properties": {"osm_id": 780355104, "building": "house", "name": "", "height": null, "height_m": null, "levels": null, "tract_id": "40043959100", "tract_name": "9591", "tags": {"building": "house"}}}, {"type": "Feature", "geometry": {"type": "Polygon", "coordinates": [[[-98.7616422, 36.0554533], [-98.7615405, 36.0554512], [-98.7615464, 36.0552662], [-98.761648, 36.0552683], [-98.7616422, 36.0554533]]]}, "properties": {"osm_id": 780355106, "building": "house", "name": "", "height": null, "height_m": null, "levels": null, "tract_id": "40043959100", "tract_name": "9591", "tags": {"building": "house"}}}, {"type": "Feature", "geometry": {"type": "Polygon", "coordinates": [[[-98.7603251, 36.049624], [-98.7601992, 36.0496216], [-98.7602023, 36.0495147], [-98.7603282, 36.0495171], [-98.7603251, 36.049624]]]}, "properties": {"osm_id": 780355119, "building": "house", "name": "", "height": null, "height_m": null, "levels": null, "tract_id": "40043959100", "tract_name": "9591", "tags": {"abandoned:building": "house", "building": "house"}}}, {"type": "Feature", "geometry": {"type": "Polygon", "coordinates": [[[-98.7597865, 36.049877], [-98.7597898, 36.0497471], [-98.7596018, 36.049744], [-98.7595985, 36.0498739], [-98.7597865, 36.049877]]]}, "properties": {"osm_id": 780355120, "building": "barn", "name": "", "height": null, "height_m": null, "levels": null, "tract_id": "40043959100", "tract_name": "9591", "tags": {"abandoned:building": "barn", "building": "barn"}}}, {"type": "Feature", "geometry": {"type": "Polygon", "coordinates": [[[-98.7601342, 36.0498129], [-98.7600772, 36.0498122], [-98.7600783, 36.0497563], [-98.7601353, 36.0497571], [-98.7601342, 36.0498129]]]}, "properties": {"osm_id": 780355121, "building": "yes", "name": "", "height": null, "height_m": null, "levels": null, "tract_id": "40043959100", "tract_name": "9591", "tags": {"abandoned:building": "yes", "building": "yes"}}}, {"type": "Feature", "geometry": {"type": "Polygon", "coordinates": [[[-98.76453, 36.0570678], [-98.7644691, 36.0570705], [-98.7644546, 36.0568539], [-98.7645155, 36.0568512], [-98.76453, 36.0570678]]]}, "properties": {"osm_id": 780355122, "building": "house", "name": "", "height": null, "height_m": null, "levels": null, "tract_id": "40043959100", "tract_name": "9591", "tags": {"building": "house"}}}, {"type": "Feature", "geometry": {"type": "Polygon", "coordinates": [[[-98.7654211, 36.056166], [-98.7653397, 36.0561641], [-98.7653427, 36.0560798], [-98.7654241, 36.0560817], [-98.7654211, 36.056166]]]}, "properties": {"osm_id": 780355123, "building": "yes", "name": "", "height": null, "height_m": null, "levels": null, "tract_id": "40043959100", "tract_name": "9591", "tags": {"building": "yes"}}}, {"type": "Feature", "geometry": {"type": "Polygon", "coordinates": [[[-98.7420567, 36.0325733], [-98.7419075, 36.0325746], [-98.7419049, 36.0323867], [-98.7417465, 36.0323881], [-98.7417454, 36.0323093], [-98.7419103, 36.0323079], [-98.7419107, 36.0323403], [-98.7420536, 36.0323391], [-98.7420567, 36.0325733]]]}, "properties": {"osm_id": 780355125, "building": "house", "name": "", "height": null, "height_m": null, "levels": null, "tract_id": "40043959100", "tract_name": "9591", "tags": {"building": "house"}}}, {"type": "Feature", "geometry": {"type": "Polygon", "coordinates": [[[-98.7426879, 36.0305136], [-98.7423052, 36.0305591], [-98.7422722, 36.0303779], [-98.7426549, 36.0303323], [-98.7426879, 36.0305136]]]}, "properties": {"osm_id": 780355126, "building": "barn", "name": "", "height": null, "height_m": null, "levels": null, "tract_id": "40043959100", "tract_name": "9591", "tags": {"building": "barn"}}}, {"type": "Feature", "geometry": {"type": "Polygon", "coordinates": [[[-98.7419145, 36.0304004], [-98.7419151, 36.030276], [-98.7416517, 36.0302752], [-98.7416512, 36.0303996], [-98.7419145, 36.0304004]]]}, "properties": {"osm_id": 780355127, "building": "barn", "name": "", "height": null, "height_m": null, "levels": null, "tract_id": "40043959100", "tract_name": "9591", "tags": {"building": "barn"}}}, {"type": "Feature", "geometry": {"type": "Polygon", "coordinates": [[[-98.7251371, 36.0326001], [-98.7251358, 36.0324604], [-98.7250004, 36.0324612], [-98.7250017, 36.0326009], [-98.7251371, 36.0326001]]]}, "properties": {"osm_id": 780355138, "building": "house", "name": "", "height": null, "height_m": null, "levels": null, "tract_id": "40043959100", "tract_name": "9591", "tags": {"building": "house"}}}, {"type": "Feature", "geometry": {"type": "Polygon", "coordinates": [[[-98.7244943, 36.0324882], [-98.7244126, 36.0324882], [-98.7244103, 36.0324032], [-98.724499, 36.0324013], [-98.7244943, 36.0324882]]]}, "properties": {"osm_id": 780355139, "building": "barn", "name": "", "height": null, "height_m": null, "levels": null, "tract_id": "40043959100", "tract_name": "9591", "tags": {"abandoned:building": "barn", "building": "barn"}}}, {"type": "Feature", "geometry": {"type": "Polygon", "coordinates": [[[-98.7081005, 36.0516025], [-98.7078422, 36.0516025], [-98.7078422, 36.0514623], [-98.7081005, 36.0514623], [-98.7081005, 36.0516025]]]}, "properties": {"osm_id": 780355147, "building": "barn", "name": "", "height": null, "height_m": null, "levels": null, "tract_id": "40043959100", "tract_name": "9591", "tags": {"building": "barn"}}}, {"type": "Feature", "geometry": {"type": "Polygon", "coordinates": [[[-98.7082266, 36.0513875], [-98.7081259, 36.051379], [-98.7081579, 36.0511315], [-98.7082586, 36.05114], [-98.7082266, 36.0513875]]]}, "properties": {"osm_id": 780355148, "building": "house", "name": "", "height": null, "height_m": null, "levels": null, "tract_id": "40043959100", "tract_name": "9591", "tags": {"building": "house"}}}, {"type": "Feature", "geometry": {"type": "Polygon", "coordinates": [[[-98.7455789, 36.1162108], [-98.7454164, 36.1162096], [-98.745419, 36.1159931], [-98.7455208, 36.1159938], [-98.7455196, 36.1160967], [-98.7455802, 36.1160971], [-98.7455789, 36.1162108]]]}, "properties": {"osm_id": 780984066, "building": "yes", "name": "", "height": null, "height_m": null, "levels": null, "tract_id": "40043959100", "tract_name": "9591", "tags": {"building": "yes"}}}, {"type": "Feature", "geometry": {"type": "Polygon", "coordinates": [[[-98.7451462, 36.1166113], [-98.7451479, 36.1164955], [-98.7448462, 36.1164925], [-98.7448444, 36.1166084], [-98.7451462, 36.1166113]]]}, "properties": {"osm_id": 780984067, "building": "barn", "name": "", "height": null, "height_m": null, "levels": null, "tract_id": "40043959100", "tract_name": "9591", "tags": {"building": "barn"}}}, {"type": "Feature", "geometry": {"type": "Polygon", "coordinates": [[[-98.7455496, 36.1167963], [-98.7455463, 36.1166393], [-98.7453425, 36.1166421], [-98.7453458, 36.1167991], [-98.7455496, 36.1167963]]]}, "properties": {"osm_id": 780984068, "building": "yes", "name": "", "height": null, "height_m": null, "levels": null, "tract_id": "40043959100", "tract_name": "9591", "tags": {"building": "yes"}}}, {"type": "Feature", "geometry": {"type": "Polygon", "coordinates": [[[-98.7456198, 36.1169635], [-98.7456171, 36.1168422], [-98.7454616, 36.1168444], [-98.7454642, 36.1169657], [-98.7456198, 36.1169635]]]}, "properties": {"osm_id": 780984069, "building": "yes", "name": "", "height": null, "height_m": null, "levels": null, "tract_id": "40043959100", "tract_name": "9591", "tags": {"building": "yes"}}}, {"type": "Feature", "geometry": {"type": "Polygon", "coordinates": [[[-98.7982357, 36.0731306], [-98.7981073, 36.0731266], [-98.7981131, 36.073003], [-98.7982415, 36.0730069], [-98.7982357, 36.0731306]]]}, "properties": {"osm_id": 780989804, "building": "yes", "name": "", "height": null, "height_m": null, "levels": null, "tract_id": "40043959100", "tract_name": "9591", "tags": {"building": "yes"}}}, {"type": "Feature", "geometry": {"type": "Polygon", "coordinates": [[[-98.7996654, 36.0732051], [-98.7996531, 36.073215], [-98.7996451, 36.0732275], [-98.7996423, 36.0732415], [-98.799645, 36.0732554], [-98.7996529, 36.073268], [-98.7996652, 36.0732779], [-98.7996807, 36.0732844], [-98.799698, 36.0732866], [-98.799717, 36.0732839], [-98.7997338, 36.0732761], [-98.7997463, 36.0732641], [-98.7997529, 36.0732495], [-98.799753, 36.0732338], [-98.7997464, 36.0732191], [-98.799734, 36.0732071], [-98.7997172, 36.0731993], [-98.7996982, 36.0731965], [-98.799681, 36.0731987], [-98.7996654, 36.0732051]]]}, "properties": {"osm_id": 780989811, "building": "yes", "name": "", "height": null, "height_m": null, "levels": null, "tract_id": "40043959100", "tract_name": "9591", "tags": {"building": "yes", "content": "sand", "man_made": "silo"}}}, {"type": "Feature", "geometry": {"type": "Polygon", "coordinates": [[[-98.799666, 36.0730777], [-98.7996537, 36.0730876], [-98.7996457, 36.0731002], [-98.799643, 36.0731141], [-98.7996457, 36.073128], [-98.7996536, 36.0731406], [-98.7996659, 36.0731506], [-98.7996814, 36.073157], [-98.7996986, 36.0731592], [-98.7997177, 36.0731565], [-98.7997344, 36.0731488], [-98.7997469, 36.0731368], [-98.7997536, 36.0731221], [-98.7997536, 36.0731065], [-98.799747, 36.0730917], [-98.7997346, 36.0730797], [-98.7997179, 36.0730719], [-98.7996988, 36.0730692], [-98.7996816, 36.0730713], [-98.799666, 36.0730777]]]}, "properties": {"osm_id": 780989812, "building": "yes", "name": "", "height": null, "height_m": null, "levels": null, "tract_id": "40043959100", "tract_name": "9591", "tags": {"building": "yes", "content": "sand", "man_made": "silo"}}}, {"type": "Feature", "geometry": {"type": "Polygon", "coordinates": [[[-98.7996666, 36.0729404], [-98.7996543, 36.0729503], [-98.7996463, 36.0729629], [-98.7996436, 36.0729768], [-98.7996463, 36.0729907], [-98.7996542, 36.0730033], [-98.7996665, 36.0730133], [-98.799682, 36.0730197], [-98.7996992, 36.0730219], [-98.7997183, 36.0730192], [-98.799735, 36.0730114], [-98.7997475, 36.0729995], [-98.7997542, 36.0729848], [-98.7997542, 36.0729691], [-98.7997476, 36.0729544], [-98.7997352, 36.0729424], [-98.7997185, 36.0729346], [-98.7996994, 36.0729318], [-98.7996822, 36.072934], [-98.7996666, 36.0729404]]]}, "properties": {"osm_id": 780989813, "building": "yes", "name": "", "height": null, "height_m": null, "levels": null, "tract_id": "40043959100", "tract_name": "9591", "tags": {"building": "yes", "content": "sand", "man_made": "silo"}}}, {"type": "Feature", "geometry": {"type": "Polygon", "coordinates": [[[-98.7996708, 36.0728059], [-98.7996584, 36.0728159], [-98.7996505, 36.0728284], [-98.7996477, 36.0728423], [-98.7996504, 36.0728563], [-98.7996583, 36.0728688], [-98.7996706, 36.0728788], [-98.7996861, 36.0728852], [-98.7997033, 36.0728875], [-98.7997224, 36.0728848], [-98.7997392, 36.072877], [-98.7997516, 36.072865], [-98.7997583, 36.0728503], [-98.7997583, 36.0728347], [-98.7997517, 36.07282], [-98.7997393, 36.072808], [-98.7997226, 36.0728001], [-98.7997035, 36.0727974], [-98.7996863, 36.0727996], [-98.7996708, 36.0728059]]]}, "properties": {"osm_id": 780989814, "building": "yes", "name": "", "height": null, "height_m": null, "levels": null, "tract_id": "40043959100", "tract_name": "9591", "tags": {"building": "yes", "content": "sand", "man_made": "silo"}}}, {"type": "Feature", "geometry": {"type": "Polygon", "coordinates": [[[-98.8811756, 36.1074913], [-98.8810415, 36.1074468], [-98.8810607, 36.107409], [-98.8810516, 36.1074059], [-98.8811033, 36.107304], [-98.8811536, 36.1073206], [-98.8811684, 36.1072915], [-98.88111, 36.1072722], [-98.8811495, 36.1071943], [-98.881279, 36.1072372], [-98.8812937, 36.1072083], [-98.8812725, 36.1072013], [-98.8813114, 36.1071246], [-98.8814193, 36.1071603], [-98.8813789, 36.1072399], [-98.8813573, 36.1072327], [-98.8813441, 36.1072588], [-98.8814015, 36.1072778], [-98.8813602, 36.1073591], [-98.8813172, 36.1073448], [-98.8812964, 36.1073858], [-98.8812388, 36.1073667], [-98.8811756, 36.1074913]]]}, "properties": {"osm_id": 1133615373, "building": "yes", "name": "", "height": null, "height_m": null, "levels": null, "tract_id": "40043959100", "tract_name": "9591", "tags": {"building": "yes"}}}, {"type": "Feature", "geometry": {"type": "Polygon", "coordinates": [[[-98.8815384, 36.1066402], [-98.8811981, 36.1066188], [-98.8812276, 36.1063122], [-98.8815679, 36.1063335], [-98.8815384, 36.1066402]]]}, "properties": {"osm_id": 1133615374, "building": "yes", "name": "", "height": null, "height_m": null, "levels": null, "tract_id": "40043959100", "tract_name": "9591", "tags": {"building": "yes"}}}, {"type": "Feature", "geometry": {"type": "Polygon", "coordinates": [[[-98.9257396, 36.145193], [-98.9257397, 36.1450937], [-98.925897, 36.1450937], [-98.925897, 36.144992], [-98.9256411, 36.1449921], [-98.9256412, 36.1451931], [-98.9257396, 36.145193]]]}, "properties": {"osm_id": 1155675859, "building": "yes", "name": "Saint Thomas Apostle Catholic Church", "height": null, "height_m": null, "levels": null, "tract_id": "40043959100", "tract_name": "9591", "tags": {"addr:city": "Seiling", "addr:housenumber": "105", "addr:postcode": "73663", "addr:state": "OK", "addr:street": "West McAlester Street", "amenity": "place_of_worship", "building": "yes", "denomination": "roman_catholic", "diocese": "Oklahoma_City", "ele": "535", "gnis:feature_id": "1809941", "name": "Saint Thomas Apostle Catholic Church", "phone": "+1-580-922-4376", "religion": "christian"}}}, {"type": "Feature", "geometry": {"type": "Polygon", "coordinates": [[[-99.0155174, 36.1449956], [-99.0156207, 36.1449944], [-99.0156233, 36.145144], [-99.01552, 36.1451452], [-99.0155174, 36.1449956]]]}, "properties": {"osm_id": 1287201657, "building": "yes", "name": "", "height": null, "height_m": null, "levels": null, "tract_id": "40043959100", "tract_name": "9591", "tags": {"building": "yes"}}}, {"type": "Feature", "geometry": {"type": "Polygon", "coordinates": [[[-99.0105032, 36.1422426], [-99.0103318, 36.1422378], [-99.0103256, 36.1423828], [-99.010497, 36.1423876], [-99.0105032, 36.1422426]]]}, "properties": {"osm_id": 1287201769, "building": "yes", "name": "", "height": null, "height_m": null, "levels": null, "tract_id": "40043959100", "tract_name": "9591", "tags": {"building": "yes", "source": "microsoft/BuildingFootprints"}}}, {"type": "Feature", "geometry": {"type": "Polygon", "coordinates": [[[-98.9772286, 36.144946], [-98.9773332, 36.1449469], [-98.9773338, 36.1448962], [-98.9772292, 36.1448953], [-98.9772286, 36.144946]]]}, "properties": {"osm_id": 1287201775, "building": "yes", "name": "", "height": null, "height_m": null, "levels": null, "tract_id": "40043959100", "tract_name": "9591", "tags": {"building": "yes", "source": "microsoft/BuildingFootprints"}}}, {"type": "Feature", "geometry": {"type": "Polygon", "coordinates": [[[-99.0490916, 36.1451284], [-99.0489951, 36.1451293], [-99.0489976, 36.1452994], [-99.0490941, 36.1452985], [-99.0490916, 36.1451284]]]}, "properties": {"osm_id": 1287201776, "building": "yes", "name": "", "height": null, "height_m": null, "levels": null, "tract_id": "40043959100", "tract_name": "9591", "tags": {"building": "yes", "source": "microsoft/BuildingFootprints"}}}, {"type": "Feature", "geometry": {"type": "Polygon", "coordinates": [[[-99.0118768, 36.144515], [-99.0118732, 36.1447381], [-99.0120314, 36.1447397], [-99.012035, 36.1445167], [-99.0118768, 36.144515]]]}, "properties": {"osm_id": 1287201779, "building": "yes", "name": "", "height": null, "height_m": null, "levels": null, "tract_id": "40043959100", "tract_name": "9591", "tags": {"building": "yes", "source": "microsoft/BuildingFootprints"}}}, {"type": "Feature", "geometry": {"type": "Polygon", "coordinates": [[[-98.9805954, 36.1437776], [-98.9804828, 36.1437792], [-98.9804859, 36.1439221], [-98.9805648, 36.143921], [-98.9805638, 36.1438712], [-98.9805974, 36.1438707], [-98.9805954, 36.1437776]]]}, "properties": {"osm_id": 1287201781, "building": "yes", "name": "", "height": null, "height_m": null, "levels": null, "tract_id": "40043959100", "tract_name": "9591", "tags": {"building": "yes", "source": "microsoft/BuildingFootprints"}}}, {"type": "Feature", "geometry": {"type": "Polygon", "coordinates": [[[-99.0123097, 36.1447988], [-99.0124865, 36.1448013], [-99.0124922, 36.1445328], [-99.0123153, 36.1445303], [-99.0123097, 36.1447988]]]}, "properties": {"osm_id": 1287201787, "building": "yes", "name": "", "height": null, "height_m": null, "levels": null, "tract_id": "40043959100", "tract_name": "9591", "tags": {"building": "yes", "source": "microsoft/BuildingFootprints"}}}, {"type": "Feature", "geometry": {"type": "Polygon", "coordinates": [[[-99.0129445, 36.1447856], [-99.0130518, 36.1447872], [-99.013054, 36.1446854], [-99.0129468, 36.1446839], [-99.0129445, 36.1447856]]]}, "properties": {"osm_id": 1287201790, "building": "yes", "name": "", "height": null, "height_m": null, "levels": null, "tract_id": "40043959100", "tract_name": "9591", "tags": {"building": "yes", "source": "microsoft/BuildingFootprints"}}}, {"type": "Feature", "geometry": {"type": "Polygon", "coordinates": [[[-98.9931876, 36.1451184], [-98.9930444, 36.1451022], [-98.9930275, 36.1451996], [-98.9931706, 36.1452158], [-98.9931876, 36.1451184]]]}, "properties": {"osm_id": 1287201793, "building": "yes", "name": "", "height": null, "height_m": null, "levels": null, "tract_id": "40043959100", "tract_name": "9591", "tags": {"building": "yes", "source": "microsoft/BuildingFootprints"}}}, {"type": "Feature", "geometry": {"type": "Polygon", "coordinates": [[[-98.9811282, 36.1433692], [-98.9815036, 36.143375], [-98.9815076, 36.1432028], [-98.9811323, 36.1431971], [-98.9811282, 36.1433692]]]}, "properties": {"osm_id": 1287201804, "building": "yes", "name": "", "height": null, "height_m": null, "levels": null, "tract_id": "40043959100", "tract_name": "9591", "tags": {"building": "yes", "source": "microsoft/BuildingFootprints"}}}, {"type": "Feature", "geometry": {"type": "Polygon", "coordinates": [[[-99.0096447, 36.1425862], [-99.0096422, 36.142688], [-99.0097043, 36.142689], [-99.0097045, 36.1426811], [-99.0097495, 36.1426818], [-99.0097493, 36.1426897], [-99.0098406, 36.1426911], [-99.0098431, 36.1425894], [-99.0096447, 36.1425862]]]}, "properties": {"osm_id": 1287201806, "building": "yes", "name": "", "height": null, "height_m": null, "levels": null, "tract_id": "40043959100", "tract_name": "9591", "tags": {"building": "yes", "source": "microsoft/BuildingFootprints"}}}, {"type": "Feature", "geometry": {"type": "Polygon", "coordinates": [[[-98.9935104, 36.1451476], [-98.9933871, 36.1451456], [-98.993383, 36.1453145], [-98.9935064, 36.1453164], [-98.9935104, 36.1451476]]]}, "properties": {"osm_id": 1287201811, "building": "yes", "name": "", "height": null, "height_m": null, "levels": null, "tract_id": "40043959100", "tract_name": "9591", "tags": {"building": "yes", "source": "microsoft/BuildingFootprints"}}}, {"type": "Feature", "geometry": {"type": "Polygon", "coordinates": [[[-99.0520957, 36.1434346], [-99.0520941, 36.1434679], [-99.0521944, 36.143471], [-99.052196, 36.1434378], [-99.0520957, 36.1434346]]]}, "properties": {"osm_id": 1287201817, "building": "yes", "name": "", "height": null, "height_m": null, "levels": null, "tract_id": "40043959100", "tract_name": "9591", "tags": {"building": "yes", "source": "microsoft/BuildingFootprints"}}}, {"type": "Feature", "geometry": {"type": "Polygon", "coordinates": [[[-99.0128217, 36.1446182], [-99.0130201, 36.1446148], [-99.013018, 36.1445325], [-99.0128196, 36.1445359], [-99.0128217, 36.1446182]]]}, "properties": {"osm_id": 1287201819, "building": "yes", "name": "", "height": null, "height_m": null, "levels": null, "tract_id": "40043959100", "tract_name": "9591", "tags": {"building": "yes", "source": "microsoft/BuildingFootprints"}}}, {"type": "Feature", "geometry": {"type": "Polygon", "coordinates": [[[-99.0153603, 36.1449774], [-99.0152155, 36.1449791], [-99.0152172, 36.1450765], [-99.015362, 36.1450749], [-99.0153603, 36.1449774]]]}, "properties": {"osm_id": 1287201821, "building": "yes", "name": "", "height": null, "height_m": null, "levels": null, "tract_id": "40043959100", "tract_name": "9591", "tags": {"building": "yes", "source": "microsoft/BuildingFootprints"}}}, {"type": "Feature", "geometry": {"type": "Polygon", "coordinates": [[[-99.0137649, 36.1459601], [-99.0137692, 36.1461319], [-99.0139017, 36.1461298], [-99.0138974, 36.1459579], [-99.0137649, 36.1459601]]]}, "properties": {"osm_id": 1287201822, "building": "yes", "name": "", "height": null, "height_m": null, "levels": null, "tract_id": "40043959100", "tract_name": "9591", "tags": {"building": "yes", "source": "microsoft/BuildingFootprints"}}}, {"type": "Feature", "geometry": {"type": "Polygon", "coordinates": [[[-99.013767, 36.1458258], [-99.0138233, 36.1458264], [-99.0138252, 36.1457127], [-99.0137689, 36.1457121], [-99.013767, 36.1458258]]]}, "properties": {"osm_id": 1287201824, "building": "yes", "name": "", "height": null, "height_m": null, "levels": null, "tract_id": "40043959100", "tract_name": "9591", "tags": {"building": "yes", "source": "microsoft/BuildingFootprints"}}}, {"type": "Feature", "geometry": {"type": "Polygon", "coordinates": [[[-99.0152708, 36.1446483], [-99.0155497, 36.1446512], [-99.0155511, 36.1445646], [-99.0152722, 36.1445617], [-99.0152708, 36.1446483]]]}, "properties": {"osm_id": 1287201829, "building": "yes", "name": "", "height": null, "height_m": null, "levels": null, "tract_id": "40043959100", "tract_name": "9591", "tags": {"building": "yes", "source": "microsoft/BuildingFootprints"}}}, {"type": "Feature", "geometry": {"type": "Polygon", "coordinates": [[[-98.976839, 36.144904], [-98.976755, 36.144904], [-98.976755, 36.145016], [-98.976839, 36.145016], [-98.976839, 36.144904]]]}, "properties": {"osm_id": 1287201832, "building": "yes", "name": "", "height": null, "height_m": null, "levels": null, "tract_id": "40043959100", "tract_name": "9591", "tags": {"building": "yes", "source": "microsoft/BuildingFootprints"}}}, {"type": "Feature", "geometry": {"type": "Polygon", "coordinates": [[[-99.0093086, 36.1423855], [-99.009515, 36.1423809], [-99.0095098, 36.1422273], [-99.0093035, 36.1422318], [-99.0093086, 36.1423855]]]}, "properties": {"osm_id": 1287201843, "building": "yes", "name": "", "height": null, "height_m": null, "levels": null, "tract_id": "40043959100", "tract_name": "9591", "tags": {"building": "yes", "source": "microsoft/BuildingFootprints"}}}, {"type": "Feature", "geometry": {"type": "Polygon", "coordinates": [[[-98.9888874, 36.1447711], [-98.9887768, 36.144773], [-98.9887782, 36.1448249], [-98.9888887, 36.1448231], [-98.9888874, 36.1447711]]]}, "properties": {"osm_id": 1287201846, "building": "yes", "name": "", "height": null, "height_m": null, "levels": null, "tract_id": "40043959100", "tract_name": "9591", "tags": {"building": "yes", "source": "microsoft/BuildingFootprints"}}}, {"type": "Feature", "geometry": {"type": "Polygon", "coordinates": [[[-98.9190472, 36.1570766], [-98.919428, 36.1570801], [-98.9194402, 36.1561974], [-98.9193409, 36.1561966], [-98.9193406, 36.1562195], [-98.919059, 36.156217], [-98.9190472, 36.1570766]]]}, "properties": {"osm_id": 1287201860, "building": "yes", "name": "", "height": null, "height_m": null, "levels": null, "tract_id": "40043959100", "tract_name": "9591", "tags": {"building": "yes", "source": "microsoft/BuildingFootprints"}}}, {"type": "Feature", "geometry": {"type": "Polygon", "coordinates": [[[-98.9223023, 36.1515186], [-98.9223017, 36.1516499], [-98.9225592, 36.1516507], [-98.9225598, 36.1515164], [-98.9225035, 36.1515162], [-98.9225041, 36.1514001], [-98.9224719, 36.1514], [-98.922472, 36.1513741], [-98.9224103, 36.1513739], [-98.9224102, 36.1514064], [-98.9223726, 36.1514062], [-98.9223721, 36.1515189], [-98.9223023, 36.1515186]]]}, "properties": {"osm_id": 1287201861, "building": "yes", "name": "Baptist Church", "height": null, "height_m": null, "levels": null, "tract_id": "40043959100", "tract_name": "9591", "tags": {"amenity": "place_of_worship", "building": "yes", "denomination": "baptist", "ele": "531", "gnis:feature_id": "1809937", "name": "Baptist Church", "religion": "christian", "source": "microsoft/BuildingFootprints"}}}, {"type": "Feature", "geometry": {"type": "Polygon", "coordinates": [[[-98.9181776, 36.1579073], [-98.9190026, 36.1579323], [-98.919013, 36.1577074], [-98.918188, 36.1576824], [-98.9181776, 36.1579073]]]}, "properties": {"osm_id": 1287201862, "building": "yes", "name": "", "height": null, "height_m": null, "levels": null, "tract_id": "40043959100", "tract_name": "9591", "tags": {"building": "yes", "source": "microsoft/BuildingFootprints"}}}, {"type": "Feature", "geometry": {"type": "Polygon", "coordinates": [[[-98.919678, 36.1579659], [-98.9201619, 36.1579787], [-98.9201711, 36.1577524], [-98.9196872, 36.1577396], [-98.919678, 36.1579659]]]}, "properties": {"osm_id": 1287201863, "building": "yes", "name": "", "height": null, "height_m": null, "levels": null, "tract_id": "40043959100", "tract_name": "9591", "tags": {"building": "yes", "source": "microsoft/BuildingFootprints"}}}, {"type": "Feature", "geometry": {"type": "Polygon", "coordinates": [[[-98.9181437, 36.1585031], [-98.9190421, 36.1585314], [-98.919053, 36.1583056], [-98.9181546, 36.1582773], [-98.9181437, 36.1585031]]]}, "properties": {"osm_id": 1287201864, "building": "yes", "name": "", "height": null, "height_m": null, "levels": null, "tract_id": "40043959100", "tract_name": "9591", "tags": {"building": "yes", "source": "microsoft/BuildingFootprints"}}}, {"type": "Feature", "geometry": {"type": "Polygon", "coordinates": [[[-98.9221427, 36.1515121], [-98.9221384, 36.1516832], [-98.9222779, 36.1516855], [-98.9222822, 36.1515144], [-98.9221427, 36.1515121]]]}, "properties": {"osm_id": 1287201865, "building": "yes", "name": "", "height": null, "height_m": null, "levels": null, "tract_id": "40043959100", "tract_name": "9591", "tags": {"building": "yes", "source": "microsoft/BuildingFootprints"}}}, {"type": "Feature", "geometry": {"type": "Polygon", "coordinates": [[[-98.9190997, 36.1579418], [-98.9193515, 36.1579485], [-98.9193748, 36.157373], [-98.9191229, 36.1573664], [-98.9190997, 36.1579418]]]}, "properties": {"osm_id": 1287201866, "building": "yes", "name": "", "height": null, "height_m": null, "levels": null, "tract_id": "40043959100", "tract_name": "9591", "tags": {"building": "yes", "source": "microsoft/BuildingFootprints"}}}, {"type": "Feature", "geometry": {"type": "Polygon", "coordinates": [[[-98.9176341, 36.1578618], [-98.9173111, 36.1578528], [-98.9172854, 36.1584541], [-98.9176084, 36.1584631], [-98.9176341, 36.1578618]]]}, "properties": {"osm_id": 1287201867, "building": "yes", "name": "", "height": null, "height_m": null, "levels": null, "tract_id": "40043959100", "tract_name": "9591", "tags": {"building": "yes", "source": "microsoft/BuildingFootprints"}}}, {"type": "Feature", "geometry": {"type": "Polygon", "coordinates": [[[-98.9233757, 36.1467656], [-98.9233775, 36.1469151], [-98.9234231, 36.1469147], [-98.9234234, 36.1469429], [-98.9236755, 36.1469409], [-98.9236744, 36.1468469], [-98.9238219, 36.1468457], [-98.9238209, 36.1467622], [-98.9233757, 36.1467656]]]}, "properties": {"osm_id": 1287201868, "building": "yes", "name": "First United Methodist Church", "height": null, "height_m": null, "levels": null, "tract_id": "40043959100", "tract_name": "9591", "tags": {"amenity": "place_of_worship", "building": "yes", "denomination": "methodist", "ele": "535", "gnis:feature_id": "1809939", "name": "First United Methodist Church", "religion": "christian", "source": "microsoft/BuildingFootprints"}}}, {"type": "Feature", "geometry": {"type": "Polygon", "coordinates": [[[-98.9244281, 36.1471996], [-98.9244162, 36.1479652], [-98.9240797, 36.1479618], [-98.9240812, 36.1478638], [-98.9241107, 36.1478641], [-98.9241114, 36.1478182], [-98.9240626, 36.1478177], [-98.9240639, 36.1477364], [-98.9240189, 36.147736], [-98.924021, 36.1476062], [-98.9240638, 36.1476067], [-98.9240649, 36.1475412], [-98.9241756, 36.1475423], [-98.9241776, 36.1474127], [-98.9239544, 36.1474104], [-98.9239577, 36.1471948], [-98.9244281, 36.1471996]]]}, "properties": {"osm_id": 1354788600, "building": "yes", "name": "", "height": null, "height_m": null, "levels": null, "tract_id": "40043959100", "tract_name": "9591", "tags": {"building": "yes"}}}, {"type": "Feature", "geometry": {"type": "Polygon", "coordinates": [[[-98.92467, 36.1471816], [-98.9246807, 36.1480387], [-98.925143, 36.1480349], [-98.9251408, 36.1478645], [-98.9250083, 36.1478656], [-98.9250079, 36.1478317], [-98.9249474, 36.1478322], [-98.9249462, 36.1477444], [-98.9251033, 36.147743], [-98.9251023, 36.1476636], [-98.9248703, 36.1476655], [-98.9248695, 36.1476026], [-98.9249154, 36.1476023], [-98.9249137, 36.1474697], [-98.9250013, 36.147469], [-98.9250007, 36.1474202], [-98.9249016, 36.147421], [-98.9248998, 36.1472799], [-98.9250562, 36.1472787], [-98.925055, 36.1471784], [-98.92467, 36.1471816]]]}, "properties": {"osm_id": 1354788601, "building": "yes", "name": "", "height": null, "height_m": null, "levels": null, "tract_id": "40043959100", "tract_name": "9591", "tags": {"building": "yes"}}}, {"type": "Feature", "geometry": {"type": "Polygon", "coordinates": [[[-98.9203192, 36.1258158], [-98.9203192, 36.1257821], [-98.9202429, 36.1257821], [-98.9202429, 36.1258158], [-98.9203192, 36.1258158]]]}, "properties": {"osm_id": 1366644851, "building": "yes", "name": "", "height": null, "height_m": null, "levels": null, "tract_id": "40043959100", "tract_name": "9591", "tags": {"building": "yes"}}}, {"type": "Feature", "geometry": {"type": "Polygon", "coordinates": [[[-98.7078753, 35.9815485], [-98.7078779, 35.9814535], [-98.7078216, 35.9814525], [-98.707819, 35.9815475], [-98.7078753, 35.9815485]]]}, "properties": {"osm_id": 1366648059, "building": "yes", "name": "", "height": null, "height_m": null, "levels": null, "tract_id": "40043959100", "tract_name": "9591", "tags": {"building": "yes"}}}, {"type": "Feature", "geometry": {"type": "Polygon", "coordinates": [[[-98.9200818, 36.065472], [-98.9200772, 36.0653655], [-98.9200206, 36.0653671], [-98.9200253, 36.0654736], [-98.9200818, 36.065472]]]}, "properties": {"osm_id": 1366660614, "building": "yes", "name": "", "height": null, "height_m": null, "levels": null, "tract_id": "40043959100", "tract_name": "9591", "tags": {"building": "yes"}}}, {"type": "Feature", "geometry": {"type": "Polygon", "coordinates": [[[-98.9200024, 36.065446], [-98.9200017, 36.0654088], [-98.9198928, 36.06541], [-98.9198935, 36.0654472], [-98.9200024, 36.065446]]]}, "properties": {"osm_id": 1366660615, "building": "yes", "name": "", "height": null, "height_m": null, "levels": null, "tract_id": "40043959100", "tract_name": "9591", "tags": {"building": "yes"}}}, {"type": "Feature", "geometry": {"type": "Polygon", "coordinates": [[[-98.9256889, 36.1467394], [-98.9252775, 36.1467408], [-98.9252784, 36.1469073], [-98.9256898, 36.1469059], [-98.9256889, 36.1467394]]]}, "properties": {"osm_id": 1389201240, "building": "yes", "name": "", "height": null, "height_m": null, "levels": null, "tract_id": "40043959100", "tract_name": "9591", "tags": {"building": "yes"}}}, {"type": "Feature", "geometry": {"type": "Polygon", "coordinates": [[[-98.9229519, 36.1446999], [-98.9229559, 36.1449162], [-98.922746, 36.1449187], [-98.922742, 36.1447024], [-98.9229519, 36.1446999]]]}, "properties": {"osm_id": 1389201241, "building": "yes", "name": "", "height": null, "height_m": null, "levels": null, "tract_id": "40043959100", "tract_name": "9591", "tags": {"building": "yes"}}}, {"type": "Feature", "geometry": {"type": "Polygon", "coordinates": [[[-98.9243738, 36.1495002], [-98.9241655, 36.1495002], [-98.9241655, 36.1496127], [-98.9243738, 36.1496127], [-98.9243738, 36.1495002]]]}, "properties": {"osm_id": 1389201242, "building": "yes", "name": "", "height": null, "height_m": null, "levels": null, "tract_id": "40043959100", "tract_name": "9591", "tags": {"building": "yes"}}}, {"type": "Feature", "geometry": {"type": "Polygon", "coordinates": [[[-98.9243276, 36.1492795], [-98.9241909, 36.1492772], [-98.9241885, 36.1493675], [-98.9243252, 36.1493699], [-98.9243276, 36.1492795]]]}, "properties": {"osm_id": 1389201243, "building": "yes", "name": "", "height": null, "height_m": null, "levels": null, "tract_id": "40043959100", "tract_name": "9591", "tags": {"building": "yes"}}}, {"type": "Feature", "geometry": {"type": "Polygon", "coordinates": [[[-98.9249381, 36.1499079], [-98.9247309, 36.1499079], [-98.9247309, 36.1500727], [-98.9249381, 36.1500727], [-98.9249381, 36.1499079]]]}, "properties": {"osm_id": 1389201244, "building": "yes", "name": "", "height": null, "height_m": null, "levels": null, "tract_id": "40043959100", "tract_name": "9591", "tags": {"building": "yes"}}}]}