{"type": "FeatureCollection", "features": [{"type": "Feature", "geometry": {"type": "Polygon", "coordinates": [[[-94.5996264, 35.4080145], [-94.5995907, 35.4077798], [-94.5997574, 35.407763], [-94.5997931, 35.4079977], [-94.5996264, 35.4080145]]]}, "properties": {"osm_id": 1058631159, "building": "yes", "name": "", "height": null, "height_m": null, "levels": null, "tract_id": "40135030403", "tract_name": "304.03", "tags": {"addr:city": "Muldrow", "addr:housenumber": "103", "addr:postcode": "74948", "addr:state": "OK", "addr:street": "3rd Street", "building": "yes", "telecom": "exchange"}}}, {"type": "Feature", "geometry": {"type": "Polygon", "coordinates": [[[-94.5841079, 35.4056789], [-94.5841111, 35.4053066], [-94.5839502, 35.4053066], [-94.5839486, 35.4052562], [-94.5837405, 35.4052575], [-94.5837454, 35.4053079], [-94.5835812, 35.4053039], [-94.5835812, 35.4053304], [-94.5833065, 35.4053317], [-94.5833065, 35.4056815], [-94.5837616, 35.4056815], [-94.5837633, 35.4057385], [-94.5839795, 35.4057319], [-94.5839795, 35.4056829], [-94.5841079, 35.4056789]]]}, "properties": {"osm_id": 1157540305, "building": "retail", "name": "", "height": null, "height_m": null, "levels": null, "tract_id": "40135030403", "tract_name": "304.03", "tags": {"building": "retail"}}}, {"type": "Feature", "geometry": {"type": "Polygon", "coordinates": [[[-94.5986516, 35.4024351], [-94.5985719, 35.4024616], [-94.5985606, 35.4022344], [-94.5986418, 35.4022132], [-94.5986516, 35.4024351]]]}, "properties": {"osm_id": 1157540880, "building": "roof", "name": "", "height": null, "height_m": null, "levels": null, "tract_id": "40135030403", "tract_name": "304.03", "tags": {"amenity": "fuel", "building": "roof", "self_service": "yes"}}}, {"type": "Feature", "geometry": {"type": "Polygon", "coordinates": [[[-94.5988125, 35.4024186], [-94.5989743, 35.4024153], [-94.5989759, 35.4022106], [-94.5988036, 35.4022106], [-94.5988125, 35.4024186]]]}, "properties": {"osm_id": 1157540881, "building": "retail", "name": "Quick Way", "height": null, "height_m": null, "levels": null, "tract_id": "40135030403", "tract_name": "304.03", "tags": {"building": "retail", "name": "Quick Way", "shop": "convenience"}}}, {"type": "Feature", "geometry": {"type": "Polygon", "coordinates": [[[-94.6147291, 35.3998394], [-94.6146965, 35.3995461], [-94.6142894, 35.3995762], [-94.614322, 35.3998695], [-94.6147291, 35.3998394]]]}, "properties": {"osm_id": 1205046018, "building": "yes", "name": "", "height": null, "height_m": null, "levels": null, "tract_id": "40135030403", "tract_name": "304.03", "tags": {"building": "yes"}}}, {"type": "Feature", "geometry": {"type": "Polygon", "coordinates": [[[-94.6142639, 35.3994493], [-94.6142397, 35.3992253], [-94.6141888, 35.3992289], [-94.6141842, 35.3991856], [-94.614083, 35.3991928], [-94.6140882, 35.3992417], [-94.6140355, 35.3992455], [-94.6140591, 35.399464], [-94.6142639, 35.3994493]]]}, "properties": {"osm_id": 1205046019, "building": "yes", "name": "", "height": null, "height_m": null, "levels": null, "tract_id": "40135030403", "tract_name": "304.03", "tags": {"building": "yes"}}}, {"type": "Feature", "geometry": {"type": "Polygon", "coordinates": [[[-94.6135822, 35.3995366], [-94.6135991, 35.399663], [-94.6136269, 35.3996613], [-94.6136339, 35.3997391], [-94.6129414, 35.3997998], [-94.6129514, 35.3998638], [-94.6129156, 35.3998654], [-94.6129345, 35.3999877], [-94.6135792, 35.3999399], [-94.6135713, 35.3998743], [-94.6136031, 35.3998727], [-94.6135991, 35.3998565], [-94.6137709, 35.3998476], [-94.613766, 35.3998217], [-94.6138683, 35.3998144], [-94.6138296, 35.3995188], [-94.6135822, 35.3995366]]]}, "properties": {"osm_id": 1205046021, "building": "school", "name": "", "height": null, "height_m": null, "levels": null, "tract_id": "40135030403", "tract_name": "304.03", "tags": {"building": "school"}}}, {"type": "Feature", "geometry": {"type": "Polygon", "coordinates": [[[-94.6128271, 35.3998777], [-94.6127595, 35.3992299], [-94.6121356, 35.3992736], [-94.6121794, 35.399664], [-94.6124257, 35.3996461], [-94.6124078, 35.399549], [-94.6125429, 35.3995425], [-94.6125906, 35.3998939], [-94.6128271, 35.3998777]]]}, "properties": {"osm_id": 1205046025, "building": "school", "name": "", "height": null, "height_m": null, "levels": null, "tract_id": "40135030403", "tract_name": "304.03", "tags": {"building": "school"}}}, {"type": "Feature", "geometry": {"type": "Polygon", "coordinates": [[[-94.6114263, 35.4000452], [-94.6113876, 35.3997172], [-94.6112952, 35.3997229], [-94.6112713, 35.3995885], [-94.6110776, 35.3996022], [-94.6111263, 35.4000597], [-94.6114263, 35.4000452]]]}, "properties": {"osm_id": 1205046027, "building": "school", "name": "", "height": null, "height_m": null, "levels": null, "tract_id": "40135030403", "tract_name": "304.03", "tags": {"building": "school"}}}, {"type": "Feature", "geometry": {"type": "Polygon", "coordinates": [[[-94.6118257, 35.4006106], [-94.6117065, 35.4004049], [-94.6114273, 35.4005158], [-94.6114611, 35.4005652], [-94.6111581, 35.4006859], [-94.6112475, 35.4008357], [-94.6118257, 35.4006106]]]}, "properties": {"osm_id": 1205046029, "building": "school", "name": "", "height": null, "height_m": null, "levels": null, "tract_id": "40135030403", "tract_name": "304.03", "tags": {"building": "school"}}}, {"type": "Feature", "geometry": {"type": "Polygon", "coordinates": [[[-94.6124557, 35.4004054], [-94.6124437, 35.4003382], [-94.6125024, 35.400335], [-94.6124686, 35.4000232], [-94.6124527, 35.4000241], [-94.6124418, 35.3999479], [-94.6123523, 35.3999544], [-94.6123484, 35.3999309], [-94.6120841, 35.399956], [-94.6120662, 35.3999658], [-94.6120553, 35.3999852], [-94.6120523, 35.4000046], [-94.6120583, 35.4000597], [-94.6120047, 35.4000605], [-94.6120325, 35.4003625], [-94.6121119, 35.4003585], [-94.6121239, 35.4004249], [-94.6124557, 35.4004054]]]}, "properties": {"osm_id": 1205046030, "building": "school", "name": "", "height": null, "height_m": null, "levels": null, "tract_id": "40135030403", "tract_name": "304.03", "tags": {"building": "school"}}}, {"type": "Feature", "geometry": {"type": "Polygon", "coordinates": [[[-94.609849, 35.4002114], [-94.6098459, 35.4000232], [-94.6096349, 35.4000256], [-94.6096355, 35.4000617], [-94.6094122, 35.4000641], [-94.6094147, 35.4002162], [-94.609849, 35.4002114]]]}, "properties": {"osm_id": 1205046042, "building": "yes", "name": "Muldrow Public Library", "height": null, "height_m": null, "levels": null, "tract_id": "40135030403", "tract_name": "304.03", "tags": {"addr:city": "Muldrow", "addr:housenumber": "711", "addr:postcode": "74948", "addr:state": "OK", "addr:street": "West Shawntel Smith Boulevard", "amenity": "library", "building": "yes", "internet_access": "wlan", "name": "Muldrow Public Library", "phone": "918-427-6703", "website": "https://eols.org/muldrow/"}}}, {"type": "Feature", "geometry": {"type": "Polygon", "coordinates": [[[-94.6104798, 35.4000587], [-94.6104738, 35.3999826], [-94.610296, 35.3999948], [-94.610299, 35.4000668], [-94.6104798, 35.4000587]]]}, "properties": {"osm_id": 1205046047, "building": "yes", "name": "", "height": null, "height_m": null, "levels": null, "tract_id": "40135030403", "tract_name": "304.03", "tags": {"building": "yes"}}}, {"type": "Feature", "geometry": {"type": "Polygon", "coordinates": [[[-94.6101061, 35.4003081], [-94.60995, 35.4003084], [-94.609949, 35.4000326], [-94.6100881, 35.4000322], [-94.6100889, 35.4002349], [-94.6101058, 35.4002348], [-94.6101061, 35.4003081]]]}, "properties": {"osm_id": 1205046048, "building": "yes", "name": "", "height": null, "height_m": null, "levels": null, "tract_id": "40135030403", "tract_name": "304.03", "tags": {"building": "yes"}}}, {"type": "Feature", "geometry": {"type": "Polygon", "coordinates": [[[-94.6106924, 35.400429], [-94.610686, 35.4002812], [-94.6105136, 35.4002849], [-94.6105171, 35.4004306], [-94.6106924, 35.400429]]]}, "properties": {"osm_id": 1205046049, "building": "yes", "name": "", "height": null, "height_m": null, "levels": null, "tract_id": "40135030403", "tract_name": "304.03", "tags": {"building": "yes"}}}, {"type": "Feature", "geometry": {"type": "Polygon", "coordinates": [[[-94.6106249, 35.400721], [-94.6106269, 35.4006084], [-94.6099494, 35.4006028], [-94.6099504, 35.4007145], [-94.6106249, 35.400721]]]}, "properties": {"osm_id": 1205046050, "building": "yes", "name": "School Bus Parking", "height": null, "height_m": null, "levels": null, "tract_id": "40135030403", "tract_name": "304.03", "tags": {"building": "yes", "name": "School Bus Parking"}}}, {"type": "Feature", "geometry": {"type": "Polygon", "coordinates": [[[-94.6111146, 35.4004951], [-94.6111007, 35.4003509], [-94.6110441, 35.4003501], [-94.6110411, 35.4003307], [-94.6108156, 35.4003372], [-94.6108206, 35.4004991], [-94.6111146, 35.4004951]]]}, "properties": {"osm_id": 1205046051, "building": "yes", "name": "", "height": null, "height_m": null, "levels": null, "tract_id": "40135030403", "tract_name": "304.03", "tags": {"building": "yes"}}}, {"type": "Feature", "geometry": {"type": "Polygon", "coordinates": [[[-94.5502804, 35.4056664], [-94.5498764, 35.4056647], [-94.5498751, 35.4058672], [-94.5500728, 35.405868], [-94.5500719, 35.4060112], [-94.5503806, 35.4060125], [-94.5503815, 35.4058756], [-94.5504454, 35.4058758], [-94.550446, 35.4057777], [-94.5503686, 35.4057774], [-94.550369, 35.4057205], [-94.55028, 35.4057201], [-94.5502804, 35.4056664]]]}, "properties": {"osm_id": 1215446009, "building": "yes", "name": "", "height": null, "height_m": null, "levels": null, "tract_id": "40135030403", "tract_name": "304.03", "tags": {"building": "yes"}}}, {"type": "Feature", "geometry": {"type": "Polygon", "coordinates": [[[-94.5504902, 35.4056387], [-94.5505761, 35.4056391], [-94.5505733, 35.4059711], [-94.5504875, 35.4059706], [-94.5504902, 35.4056387]]]}, "properties": {"osm_id": 1215446010, "building": "yes", "name": "", "height": null, "height_m": null, "levels": null, "tract_id": "40135030403", "tract_name": "304.03", "tags": {"building": "yes", "shop": "storage_rental"}}}, {"type": "Feature", "geometry": {"type": "Polygon", "coordinates": [[[-94.5506866, 35.4061119], [-94.5507244, 35.4056741], [-94.5506515, 35.4056699], [-94.5506135, 35.4061077], [-94.5506866, 35.4061119]]]}, "properties": {"osm_id": 1215446011, "building": "yes", "name": "", "height": null, "height_m": null, "levels": null, "tract_id": "40135030403", "tract_name": "304.03", "tags": {"building": "yes", "shop": "storage_rental"}}}, {"type": "Feature", "geometry": {"type": "Polygon", "coordinates": [[[-94.5910521, 35.4034873], [-94.5910695, 35.4035491], [-94.5910153, 35.4035593], [-94.5910813, 35.4037934], [-94.5909945, 35.4038097], [-94.5910207, 35.4039028], [-94.5907126, 35.4039604], [-94.5906935, 35.4038925], [-94.5906684, 35.4038972], [-94.590653, 35.4038428], [-94.5906791, 35.4038379], [-94.5906393, 35.4036967], [-94.5907708, 35.403672], [-94.5907904, 35.4037415], [-94.5908665, 35.4037272], [-94.5908115, 35.4035324], [-94.5910521, 35.4034873]]]}, "properties": {"osm_id": 1218645882, "building": "church", "name": "First Baptist Church of Muldrow", "height": null, "height_m": null, "levels": null, "tract_id": "40135030403", "tract_name": "304.03", "tags": {"addr:city": "Muldrow", "addr:housenumber": "605", "addr:postcode": "74948", "addr:state": "OK", "addr:street": "East Shawntel Smith Boulevard", "amenity": "place_of_worship", "building": "church", "denomination": "southern_baptist", "email": "office@muldrowfbc.org", "name": "First Baptist Church of Muldrow", "phone": "918 427 3025", "religion": "christian", "website": "https://www.muldrowfbc.org/"}}}, {"type": "Feature", "geometry": {"type": "Polygon", "coordinates": [[[-94.5907236, 35.40367], [-94.5906967, 35.4035755], [-94.590804, 35.4035545], [-94.5907954, 35.4035266], [-94.5905229, 35.4035685], [-94.5905422, 35.403628], [-94.5906066, 35.4036201], [-94.5906002, 35.4035878], [-94.5906613, 35.4035817], [-94.5906871, 35.403677], [-94.5907236, 35.40367]]]}, "properties": {"osm_id": 1218645883, "building": "roof", "name": "", "height": null, "height_m": null, "levels": null, "tract_id": "40135030403", "tract_name": "304.03", "tags": {"building": "roof", "layer": "1"}}}, {"type": "Feature", "geometry": {"type": "Polygon", "coordinates": [[[-94.5910867, 35.4041527], [-94.5910652, 35.4039524], [-94.5909193, 35.4039568], [-94.5909375, 35.4041606], [-94.5910867, 35.4041527]]]}, "properties": {"osm_id": 1218645884, "building": "church", "name": "Fellowship Hall", "height": null, "height_m": null, "levels": null, "tract_id": "40135030403", "tract_name": "304.03", "tags": {"building": "church", "name": "Fellowship Hall"}}}, {"type": "Feature", "geometry": {"type": "Polygon", "coordinates": [[[-94.5903635, 35.4037799], [-94.5903461, 35.403711], [-94.5901511, 35.4037438], [-94.5901743, 35.4038354], [-94.5903243, 35.4038102], [-94.5903186, 35.4037875], [-94.5903635, 35.4037799]]]}, "properties": {"osm_id": 1218646269, "building": "detached", "name": "", "height": null, "height_m": null, "levels": null, "tract_id": "40135030403", "tract_name": "304.03", "tags": {"building": "detached"}}}, {"type": "Feature", "geometry": {"type": "Polygon", "coordinates": [[[-94.5896038, 35.4038687], [-94.58959, 35.4037797], [-94.5894232, 35.4037968], [-94.589437, 35.4038858], [-94.5896038, 35.4038687]]]}, "properties": {"osm_id": 1218646270, "building": "detached", "name": "", "height": null, "height_m": null, "levels": null, "tract_id": "40135030403", "tract_name": "304.03", "tags": {"building": "detached"}}}, {"type": "Feature", "geometry": {"type": "Polygon", "coordinates": [[[-94.5892789, 35.4040895], [-94.5891233, 35.4040991], [-94.589103, 35.4039269], [-94.5891505, 35.4039251], [-94.5892117, 35.4039228], [-94.589266, 35.4039207], [-94.5892789, 35.4040895]]]}, "properties": {"osm_id": 1218646272, "building": "retail", "name": "Donut Palace", "height": null, "height_m": null, "levels": null, "tract_id": "40135030403", "tract_name": "304.03", "tags": {"amenity": "fast_food", "building": "retail", "cuisine": "donut", "drive_through": "yes", "name": "Donut Palace"}}}, {"type": "Feature", "geometry": {"type": "Polygon", "coordinates": [[[-94.589266, 35.4039207], [-94.5892117, 35.4039228], [-94.5891882, 35.4038079], [-94.5892461, 35.4038009], [-94.589266, 35.4039207]]]}, "properties": {"osm_id": 1218646273, "building": "roof", "name": "", "height": null, "height_m": null, "levels": null, "tract_id": "40135030403", "tract_name": "304.03", "tags": {"building": "roof", "layer": "1"}}}, {"type": "Feature", "geometry": {"type": "Polygon", "coordinates": [[[-94.589103, 35.4039269], [-94.5891505, 35.4039251], [-94.5891496, 35.4038071], [-94.5891034, 35.4038071], [-94.589103, 35.4039269]]]}, "properties": {"osm_id": 1218646274, "building": "roof", "name": "", "height": null, "height_m": null, "levels": null, "tract_id": "40135030403", "tract_name": "304.03", "tags": {"building": "roof", "layer": "1"}}}, {"type": "Feature", "geometry": {"type": "Polygon", "coordinates": [[[-94.588417, 35.4041222], [-94.5884076, 35.4040775], [-94.5884485, 35.4040718], [-94.5884385, 35.4040244], [-94.5883956, 35.4040304], [-94.5883841, 35.4039756], [-94.588273, 35.4039911], [-94.58828, 35.4040246], [-94.5880933, 35.4040506], [-94.5881171, 35.4041641], [-94.588417, 35.4041222]]]}, "properties": {"osm_id": 1218646277, "building": "yes", "name": "", "height": null, "height_m": null, "levels": null, "tract_id": "40135030403", "tract_name": "304.03", "tags": {"addr:housenumber": "713", "addr:street": "East Shawntel Smith Boulevard", "building": "yes"}}}, {"type": "Feature", "geometry": {"type": "Polygon", "coordinates": [[[-94.5918132, 35.4034487], [-94.5918142, 35.403527], [-94.5917495, 35.4035276], [-94.5917498, 35.4035514], [-94.5914903, 35.4035536], [-94.59149, 35.4035285], [-94.5914727, 35.4035286], [-94.5914717, 35.4034489], [-94.5915353, 35.4034483], [-94.5915351, 35.4034335], [-94.591693, 35.4034321], [-94.5916932, 35.4034497], [-94.5918132, 35.4034487]]]}, "properties": {"osm_id": 1218646280, "building": "detached", "name": "", "height": null, "height_m": null, "levels": null, "tract_id": "40135030403", "tract_name": "304.03", "tags": {"addr:housenumber": "513", "addr:street": "East Shawntel Smith Boulevard", "building": "detached"}}}, {"type": "Feature", "geometry": {"type": "Polygon", "coordinates": [[[-94.5880828, 35.4040527], [-94.5880682, 35.4039916], [-94.587994, 35.4040033], [-94.5880086, 35.4040645], [-94.5880828, 35.4040527]]]}, "properties": {"osm_id": 1218647052, "building": "shed", "name": "", "height": null, "height_m": null, "levels": null, "tract_id": "40135030403", "tract_name": "304.03", "tags": {"building": "shed"}}}, {"type": "Feature", "geometry": {"type": "Polygon", "coordinates": [[[-94.5872069, 35.404901], [-94.5872081, 35.4047481], [-94.5872534, 35.4047483], [-94.5872549, 35.4045554], [-94.5872003, 35.4045551], [-94.5872004, 35.4045423], [-94.587165, 35.4045422], [-94.5871601, 35.4045253], [-94.587102, 35.404525], [-94.5871019, 35.4045438], [-94.5870537, 35.4045436], [-94.5870535, 35.4045609], [-94.5869996, 35.4045606], [-94.5869982, 35.4047487], [-94.5870431, 35.4047489], [-94.5870419, 35.4049002], [-94.5872069, 35.404901]]]}, "properties": {"osm_id": 1218647053, "building": "office", "name": "Armstrong Bank", "height": null, "height_m": null, "levels": null, "tract_id": "40135030403", "tract_name": "304.03", "tags": {"amenity": "bank", "atm": "yes", "building": "office", "drive_through": "yes", "name": "Armstrong Bank"}}}, {"type": "Feature", "geometry": {"type": "Polygon", "coordinates": [[[-94.5861105, 35.4052393], [-94.5859519, 35.4052399], [-94.5859486, 35.4045949], [-94.5861152, 35.4045943], [-94.5861165, 35.4048415], [-94.586151, 35.4048414], [-94.5861512, 35.4048775], [-94.5861087, 35.4048776], [-94.5861105, 35.4052393]]]}, "properties": {"osm_id": 1219050097, "building": "retail", "name": "", "height": null, "height_m": null, "levels": null, "tract_id": "40135030403", "tract_name": "304.03", "tags": {"building": "retail"}}}, {"type": "Feature", "geometry": {"type": "Polygon", "coordinates": [[[-94.5856563, 35.4052469], [-94.5856564, 35.4051274], [-94.5853059, 35.4051274], [-94.5853059, 35.4052749], [-94.585416, 35.4052749], [-94.585416, 35.4052469], [-94.5856563, 35.4052469]]]}, "properties": {"osm_id": 1219050098, "building": "yes", "name": "", "height": null, "height_m": null, "levels": null, "tract_id": "40135030403", "tract_name": "304.03", "tags": {"amenity": "restaurant", "building": "yes"}}}, {"type": "Feature", "geometry": {"type": "Polygon", "coordinates": [[[-94.5855302, 35.4046989], [-94.5855147, 35.4046307], [-94.585354, 35.4046549], [-94.5853485, 35.404631], [-94.5852914, 35.4046396], [-94.5852741, 35.4045632], [-94.585224, 35.4045708], [-94.5852622, 35.4047393], [-94.5855302, 35.4046989]]]}, "properties": {"osm_id": 1219050099, "building": "roof", "name": "Trey's Place Car Wash", "height": null, "height_m": null, "levels": null, "tract_id": "40135030403", "tract_name": "304.03", "tags": {"amenity": "car_wash", "automated": "yes", "building": "roof", "name": "Trey's Place Car Wash", "self_service": "yes"}}}, {"type": "Feature", "geometry": {"type": "Polygon", "coordinates": [[[-94.5851878, 35.404783], [-94.5851861, 35.4046713], [-94.5845439, 35.4046779], [-94.5845456, 35.4047894], [-94.5851878, 35.404783]]]}, "properties": {"osm_id": 1219050100, "building": "retail", "name": "", "height": null, "height_m": null, "levels": null, "tract_id": "40135030403", "tract_name": "304.03", "tags": {"addr:housenumber": "2417", "addr:street": "East Shawntel Smith Boulevard", "building": "retail"}}}, {"type": "Feature", "geometry": {"type": "Polygon", "coordinates": [[[-94.5829818, 35.4054118], [-94.5830323, 35.4054117], [-94.5830308, 35.4049687], [-94.5829804, 35.4049688], [-94.5829807, 35.4050661], [-94.5829815, 35.4053381], [-94.5829818, 35.4054118]]]}, "properties": {"osm_id": 1219050109, "building": "roof", "name": "", "height": null, "height_m": null, "levels": null, "tract_id": "40135030403", "tract_name": "304.03", "tags": {"building": "roof", "layer": "1"}}}, {"type": "Feature", "geometry": {"type": "Polygon", "coordinates": [[[-94.582906, 35.4054048], [-94.5828546, 35.4054052], [-94.5828502, 35.4049712], [-94.5829015, 35.4049708], [-94.5829025, 35.4050661], [-94.5829053, 35.4053376], [-94.582906, 35.4054048]]]}, "properties": {"osm_id": 1219050110, "building": "roof", "name": "", "height": null, "height_m": null, "levels": null, "tract_id": "40135030403", "tract_name": "304.03", "tags": {"building": "roof", "layer": "1"}}}, {"type": "Feature", "geometry": {"type": "Polygon", "coordinates": [[[-94.5829815, 35.4053381], [-94.5829053, 35.4053376], [-94.5829025, 35.4050661], [-94.5829807, 35.4050661], [-94.5829815, 35.4053381]]]}, "properties": {"osm_id": 1219050111, "building": "retail", "name": "Sonic", "height": null, "height_m": null, "levels": null, "tract_id": "40135030403", "tract_name": "304.03", "tags": {"addr:city": "Muldrow", "addr:housenumber": "1007", "addr:postcode": "74948", "addr:state": "OK", "addr:street": "East Shawntel Smith Boulevard", "amenity": "fast_food", "brand": "Sonic", "brand:wikidata": "Q7561808", "building": "retail", "cuisine": "burger", "drive_in": "yes", "drive_through": "no", "indoor_seating": "no", "name": "Sonic", "opening_hours": "Mo-Th 06:00-23:00; Fr-Sa 06:00-24:00; Su 07:00-23:00", "outdoor_seating": "veranda", "phone": "+1 918-427-3904", "takeaway": "yes", "website": "https://locations.sonicdrivein.com/ok/muldrow/1007-e.-shawntel-smith-blvd.html"}}}, {"type": "Feature", "geometry": {"type": "Polygon", "coordinates": [[[-94.5981673, 35.4025491], [-94.598163, 35.4024756], [-94.5981262, 35.402477], [-94.5981209, 35.4023864], [-94.5978994, 35.4023949], [-94.5979089, 35.402559], [-94.5981673, 35.4025491]]]}, "properties": {"osm_id": 1219058235, "building": "retail", "name": "Broadway Corner Drug", "height": null, "height_m": null, "levels": null, "tract_id": "40135030403", "tract_name": "304.03", "tags": {"addr:housenumber": "101", "addr:street": "East Shawntel Smith Boulevard", "building": "retail", "name": "Broadway Corner Drug", "shop": "chemist"}}}, {"type": "Feature", "geometry": {"type": "Polygon", "coordinates": [[[-94.5973916, 35.4026119], [-94.5973572, 35.4024789], [-94.5972672, 35.4024944], [-94.597263, 35.402478], [-94.5970814, 35.4025092], [-94.5970864, 35.4025282], [-94.5969131, 35.402558], [-94.5968958, 35.402491], [-94.5966665, 35.4025305], [-94.5966854, 35.4026032], [-94.596508, 35.4026338], [-94.5965404, 35.4027585], [-94.5973916, 35.4026119]]]}, "properties": {"osm_id": 1219058236, "building": "retail", "name": "", "height": null, "height_m": null, "levels": null, "tract_id": "40135030403", "tract_name": "304.03", "tags": {"building": "retail"}}}, {"type": "Feature", "geometry": {"type": "Polygon", "coordinates": [[[-94.5962291, 35.4028088], [-94.5962098, 35.4027315], [-94.5962546, 35.4027241], [-94.5962239, 35.4026012], [-94.5959313, 35.4026497], [-94.5959143, 35.4025817], [-94.5958284, 35.4025959], [-94.5958941, 35.4028596], [-94.5959039, 35.402858], [-94.5959101, 35.4028826], [-94.596114, 35.4028488], [-94.596109, 35.4028287], [-94.5962291, 35.4028088]]]}, "properties": {"osm_id": 1219058237, "building": "industrial", "name": "Ricks Tire & Auto Service", "height": null, "height_m": null, "levels": null, "tract_id": "40135030403", "tract_name": "304.03", "tags": {"building": "industrial", "name": "Ricks Tire & Auto Service", "shop": "tyres"}}}, {"type": "Feature", "geometry": {"type": "Polygon", "coordinates": [[[-94.5988832, 35.402125], [-94.5988687, 35.4020787], [-94.5993038, 35.4019969], [-94.5993328, 35.4021073], [-94.5992482, 35.4021201], [-94.5988832, 35.402125]]]}, "properties": {"osm_id": 1223547046, "building": "industrial", "name": "", "height": null, "height_m": null, "levels": null, "tract_id": "40135030403", "tract_name": "304.03", "tags": {"building": "industrial"}}}, {"type": "Feature", "geometry": {"type": "Polygon", "coordinates": [[[-94.5995307, 35.4020992], [-94.5995038, 35.4019798], [-94.5993928, 35.4019964], [-94.5994196, 35.4021158], [-94.5995307, 35.4020992]]]}, "properties": {"osm_id": 1223547047, "building": "yes", "name": "", "height": null, "height_m": null, "levels": null, "tract_id": "40135030403", "tract_name": "304.03", "tags": {"building": "yes"}}}, {"type": "Feature", "geometry": {"type": "Polygon", "coordinates": [[[-94.5995521, 35.4021274], [-94.5995571, 35.4019648], [-94.5998925, 35.4019716], [-94.5998888, 35.4020927], [-94.5997391, 35.4020896], [-94.5997379, 35.4021312], [-94.5995521, 35.4021274]]]}, "properties": {"osm_id": 1223547048, "building": "industrial", "name": "Randy Mitchell Auto Sales", "height": null, "height_m": null, "levels": null, "tract_id": "40135030403", "tract_name": "304.03", "tags": {"building": "industrial", "name": "Randy Mitchell Auto Sales", "second_hand": "yes", "shop": "car"}}}, {"type": "Feature", "geometry": {"type": "Polygon", "coordinates": [[[-94.6006545, 35.4020852], [-94.6006387, 35.4020129], [-94.6003846, 35.4020498], [-94.6004005, 35.4021222], [-94.6006545, 35.4020852]]]}, "properties": {"osm_id": 1223547049, "building": "yes", "name": "", "height": null, "height_m": null, "levels": null, "tract_id": "40135030403", "tract_name": "304.03", "tags": {"building": "yes"}}}, {"type": "Feature", "geometry": {"type": "Polygon", "coordinates": [[[-94.6006203, 35.401899], [-94.6005929, 35.4018026], [-94.6005615, 35.4018085], [-94.6005545, 35.4017837], [-94.6002701, 35.4018375], [-94.6002931, 35.4019182], [-94.6005556, 35.4018686], [-94.6005671, 35.4019091], [-94.6006203, 35.401899]]]}, "properties": {"osm_id": 1223547050, "building": "yes", "name": "Bulldog Car Wash", "height": null, "height_m": null, "levels": null, "tract_id": "40135030403", "tract_name": "304.03", "tags": {"amenity": "car_wash", "automated": "no", "building": "yes", "name": "Bulldog Car Wash", "self_service": "yes"}}}, {"type": "Feature", "geometry": {"type": "Polygon", "coordinates": [[[-94.6019156, 35.4018833], [-94.6018726, 35.4017516], [-94.6016269, 35.4018049], [-94.6016699, 35.4019366], [-94.6019156, 35.4018833]]]}, "properties": {"osm_id": 1223547051, "building": "yes", "name": "", "height": null, "height_m": null, "levels": null, "tract_id": "40135030403", "tract_name": "304.03", "tags": {"building": "yes"}}}, {"type": "Feature", "geometry": {"type": "Polygon", "coordinates": [[[-94.6061798, 35.400614], [-94.606012, 35.400655], [-94.6060635, 35.4007951], [-94.6061634, 35.4007707], [-94.60617, 35.4007886], [-94.6061866, 35.4007845], [-94.6061934, 35.4008029], [-94.6062446, 35.4007903], [-94.6061798, 35.400614]]]}, "properties": {"osm_id": 1224878913, "building": "yes", "name": "El Toro Mexican Restaurant", "height": null, "height_m": null, "levels": null, "tract_id": "40135030403", "tract_name": "304.03", "tags": {"amenity": "restaurant", "building": "yes", "cuisine": "mexican", "name": "El Toro Mexican Restaurant"}}}, {"type": "Feature", "geometry": {"type": "Polygon", "coordinates": [[[-94.5840383, 35.4087478], [-94.5840323, 35.4084749], [-94.5837296, 35.4084749], [-94.5837276, 35.408751], [-94.5840383, 35.4087478]]]}, "properties": {"osm_id": 1224878918, "building": "yes", "name": "", "height": null, "height_m": null, "levels": null, "tract_id": "40135030403", "tract_name": "304.03", "tags": {"building": "yes"}}}, {"type": "Feature", "geometry": {"type": "Polygon", "coordinates": [[[-94.5720826, 35.4064461], [-94.5716153, 35.4064811], [-94.5715748, 35.4061702], [-94.5717608, 35.4061488], [-94.571756, 35.4060516], [-94.5718537, 35.4060458], [-94.5718657, 35.4061488], [-94.5720493, 35.4061371], [-94.5720826, 35.4064461]]]}, "properties": {"osm_id": 1224878919, "building": "church", "name": "Trinity United Methodist Church of Muldrow & Roland", "height": null, "height_m": null, "levels": null, "tract_id": "40135030403", "tract_name": "304.03", "tags": {"addr:city": "Muldrow", "addr:housenumber": "1601", "addr:postcode": "74948", "addr:state": "OK", "addr:street": "East Shawntel Smith Boulevard", "amenity": "place_of_worship", "building": "church", "denomination": "methodist", "facebook": "https://www.facebook.com/trinityokumc/", "name": "Trinity United Methodist Church of Muldrow & Roland", "phone": "918-427-4151", "religion": "christian"}}}, {"type": "Feature", "geometry": {"type": "Polygon", "coordinates": [[[-94.5572385, 35.4061024], [-94.5572557, 35.4058645], [-94.5571019, 35.4058571], [-94.5570847, 35.406095], [-94.5572385, 35.4061024]]]}, "properties": {"osm_id": 1224878926, "building": "yes", "name": "", "height": null, "height_m": null, "levels": null, "tract_id": "40135030403", "tract_name": "304.03", "tags": {"building": "yes"}}}, {"type": "Feature", "geometry": {"type": "Polygon", "coordinates": [[[-94.557026, 35.4060946], [-94.5570358, 35.4059292], [-94.5568565, 35.4059221], [-94.5568544, 35.4059574], [-94.5567977, 35.4059552], [-94.5567932, 35.4060318], [-94.5568486, 35.406034], [-94.5568454, 35.4060875], [-94.557026, 35.4060946]]]}, "properties": {"osm_id": 1224878928, "building": "yes", "name": "", "height": null, "height_m": null, "levels": null, "tract_id": "40135030403", "tract_name": "304.03", "tags": {"building": "yes"}}}, {"type": "Feature", "geometry": {"type": "Polygon", "coordinates": [[[-94.5564946, 35.4064045], [-94.5564876, 35.4061758], [-94.5563532, 35.4061782], [-94.5563502, 35.4059854], [-94.5560826, 35.4059903], [-94.5560806, 35.4064029], [-94.5564946, 35.4064045]]]}, "properties": {"osm_id": 1224878929, "building": "retail", "name": "", "height": null, "height_m": null, "levels": null, "tract_id": "40135030403", "tract_name": "304.03", "tags": {"building": "retail"}}}, {"type": "Feature", "geometry": {"type": "Polygon", "coordinates": [[[-94.5516063, 35.4059731], [-94.551626, 35.405693], [-94.5514809, 35.4056862], [-94.5514611, 35.4059663], [-94.5516063, 35.4059731]]]}, "properties": {"osm_id": 1224878930, "building": "yes", "name": "", "height": null, "height_m": null, "levels": null, "tract_id": "40135030403", "tract_name": "304.03", "tags": {"building": "yes"}}}, {"type": "Feature", "geometry": {"type": "Polygon", "coordinates": [[[-94.5490798, 35.406516], [-94.5490833, 35.4064134], [-94.5491561, 35.406415], [-94.5491568, 35.4063936], [-94.5492556, 35.4063958], [-94.549255, 35.4064148], [-94.5492922, 35.4064156], [-94.5492886, 35.4065207], [-94.5490798, 35.406516]]]}, "properties": {"osm_id": 1224878944, "building": "detached", "name": "", "height": null, "height_m": null, "levels": null, "tract_id": "40135030403", "tract_name": "304.03", "tags": {"building": "detached"}}}, {"type": "Feature", "geometry": {"type": "Polygon", "coordinates": [[[-94.549322, 35.4065184], [-94.5493248, 35.4064208], [-94.5494821, 35.4064237], [-94.5494793, 35.4065214], [-94.549322, 35.4065184]]]}, "properties": {"osm_id": 1224878945, "building": "garage", "name": "", "height": null, "height_m": null, "levels": null, "tract_id": "40135030403", "tract_name": "304.03", "tags": {"building": "garage"}}}, {"type": "Feature", "geometry": {"type": "Polygon", "coordinates": [[[-94.5496546, 35.4073064], [-94.5502567, 35.4072842], [-94.5502419, 35.4070178], [-94.5499619, 35.4070281], [-94.549949, 35.4067956], [-94.5497475, 35.406803], [-94.5497355, 35.4065872], [-94.5490552, 35.4066124], [-94.5490672, 35.4068274], [-94.5492303, 35.4068214], [-94.5492313, 35.4068396], [-94.5494021, 35.4068333], [-94.549401, 35.4068132], [-94.5495354, 35.4068083], [-94.5495442, 35.4069681], [-94.5498953, 35.4069552], [-94.5498989, 35.4070198], [-94.5496392, 35.4070294], [-94.5496546, 35.4073064]]]}, "properties": {"osm_id": 1224878946, "building": "industrial", "name": "", "height": null, "height_m": null, "levels": null, "tract_id": "40135030403", "tract_name": "304.03", "tags": {"building": "industrial"}}}, {"type": "Feature", "geometry": {"type": "Polygon", "coordinates": [[[-94.5492257, 35.408119], [-94.5492372, 35.4078724], [-94.549334, 35.4078754], [-94.5493225, 35.408122], [-94.5492257, 35.408119]]]}, "properties": {"osm_id": 1224878951, "building": "detached", "name": "", "height": null, "height_m": null, "levels": null, "tract_id": "40135030403", "tract_name": "304.03", "tags": {"building": "detached"}}}, {"type": "Feature", "geometry": {"type": "Polygon", "coordinates": [[[-94.549522, 35.4083654], [-94.5495192, 35.4082809], [-94.5492454, 35.4082869], [-94.5492482, 35.4083714], [-94.549522, 35.4083654]]]}, "properties": {"osm_id": 1224878952, "building": "garage", "name": "", "height": null, "height_m": null, "levels": null, "tract_id": "40135030403", "tract_name": "304.03", "tags": {"building": "garage"}}}, {"type": "Feature", "geometry": {"type": "Polygon", "coordinates": [[[-94.5496141, 35.4074457], [-94.5497529, 35.4074435], [-94.5497588, 35.4076886], [-94.5496199, 35.4076908], [-94.5496141, 35.4074457]]]}, "properties": {"osm_id": 1224878954, "building": "industrial", "name": "Saint Kateri Tekawitha Catholic Church", "height": null, "height_m": null, "levels": null, "tract_id": "40135030403", "tract_name": "304.03", "tags": {"addr:city": "Roland", "addr:housenumber": "110841", "addr:postcode": "74954", "addr:state": "OK", "addr:street": "South 4760 Road", "amenity": "place_of_worship", "building": "industrial", "denomination": "roman_catholic", "diocese": "Diocese of Tulsa", "name": "Saint Kateri Tekawitha Catholic Church", "religion": "christian"}}}, {"type": "Feature", "geometry": {"type": "Polygon", "coordinates": [[[-94.5899697, 35.4053229], [-94.5899746, 35.4051836], [-94.5898476, 35.4051807], [-94.5898532, 35.4050203], [-94.5896634, 35.4050159], [-94.5896577, 35.4051782], [-94.5894087, 35.4051724], [-94.5894039, 35.4053097], [-94.5899697, 35.4053229]]]}, "properties": {"osm_id": 1225750464, "building": "yes", "name": "", "height": null, "height_m": null, "levels": null, "tract_id": "40135030403", "tract_name": "304.03", "tags": {"amenity": "place_of_worship", "building": "yes", "religion": "christian"}}}, {"type": "Feature", "geometry": {"type": "Polygon", "coordinates": [[[-94.5885862, 35.4047401], [-94.5885112, 35.4047373], [-94.5885089, 35.4047663], [-94.5884747, 35.4047684], [-94.5884695, 35.4050027], [-94.5886805, 35.4050025], [-94.5886872, 35.4049161], [-94.5886163, 35.4049159], [-94.588616, 35.4047648], [-94.588585, 35.4047643], [-94.5885862, 35.4047401]]]}, "properties": {"osm_id": 1225750465, "building": "yes", "name": "", "height": null, "height_m": null, "levels": null, "tract_id": "40135030403", "tract_name": "304.03", "tags": {"building": "yes"}}}, {"type": "Feature", "geometry": {"type": "Polygon", "coordinates": [[[-94.5996065, 35.4091945], [-94.5993759, 35.4092206], [-94.5993333, 35.40897], [-94.5995637, 35.4089432], [-94.5996065, 35.4091945]]]}, "properties": {"osm_id": 1227680008, "building": "yes", "name": "Muldrow Police Department", "height": null, "height_m": null, "levels": null, "tract_id": "40135030403", "tract_name": "304.03", "tags": {"addr:city": "Muldrow", "addr:housenumber": "100", "addr:postcode": "74948", "addr:state": "OK", "addr:street": "South Main Street", "amenity": "police", "building": "yes", "facebook": "https://www.facebook.com/Muldrow-Police-Department-233546016846957/", "name": "Muldrow Police Department", "phone": "+1 918-427-3296", "website": "https://www.muldrowpd.us/"}}}, {"type": "Feature", "geometry": {"type": "Polygon", "coordinates": [[[-94.5993025, 35.4089736], [-94.5993333, 35.40897], [-94.5995637, 35.4089432], [-94.5995973, 35.4089392], [-94.599587, 35.4088802], [-94.5994034, 35.4089016], [-94.5993944, 35.408846], [-94.5992884, 35.4088576], [-94.599279, 35.4088585], [-94.5993025, 35.4089736]]]}, "properties": {"osm_id": 1227680009, "building": "yes", "name": "", "height": null, "height_m": null, "levels": null, "tract_id": "40135030403", "tract_name": "304.03", "tags": {"building": "yes"}}}, {"type": "Feature", "geometry": {"type": "Polygon", "coordinates": [[[-94.5992884, 35.4088576], [-94.5992803, 35.4088068], [-94.5994167, 35.4087927], [-94.5994256, 35.4087912], [-94.5994339, 35.4088417], [-94.5993944, 35.408846], [-94.5992884, 35.4088576]]]}, "properties": {"osm_id": 1227680010, "building": "yes", "name": "", "height": null, "height_m": null, "levels": null, "tract_id": "40135030403", "tract_name": "304.03", "tags": {"building": "yes"}}}, {"type": "Feature", "geometry": {"type": "Polygon", "coordinates": [[[-94.5992658, 35.4087142], [-94.5993214, 35.4087084], [-94.5994022, 35.4087], [-94.5994167, 35.4087927], [-94.5992803, 35.4088068], [-94.5992658, 35.4087142]]]}, "properties": {"osm_id": 1227680011, "building": "yes", "name": "", "height": null, "height_m": null, "levels": null, "tract_id": "40135030403", "tract_name": "304.03", "tags": {"building": "yes"}}}, {"type": "Feature", "geometry": {"type": "Polygon", "coordinates": [[[-94.5992658, 35.4087142], [-94.5993214, 35.4087084], [-94.5993126, 35.4086508], [-94.5992568, 35.4086564], [-94.5992658, 35.4087142]]]}, "properties": {"osm_id": 1227680012, "building": "yes", "name": "", "height": null, "height_m": null, "levels": null, "tract_id": "40135030403", "tract_name": "304.03", "tags": {"building": "yes"}}}, {"type": "Feature", "geometry": {"type": "Polygon", "coordinates": [[[-94.5992568, 35.4086564], [-94.5992452, 35.4085767], [-94.5994073, 35.4085574], [-94.5994242, 35.4086376], [-94.5992568, 35.4086564]]]}, "properties": {"osm_id": 1227680013, "building": "yes", "name": "", "height": null, "height_m": null, "levels": null, "tract_id": "40135030403", "tract_name": "304.03", "tags": {"building": "yes"}}}, {"type": "Feature", "geometry": {"type": "Polygon", "coordinates": [[[-94.5992452, 35.4085767], [-94.5992165, 35.4084166], [-94.5993943, 35.4083954], [-94.5993958, 35.4084036], [-94.5994632, 35.4083955], [-94.5994699, 35.4084328], [-94.5993867, 35.4084427], [-94.5994073, 35.4085574], [-94.5992452, 35.4085767]]]}, "properties": {"osm_id": 1227680014, "building": "yes", "name": "", "height": null, "height_m": null, "levels": null, "tract_id": "40135030403", "tract_name": "304.03", "tags": {"building": "yes"}}}, {"type": "Feature", "geometry": {"type": "Polygon", "coordinates": [[[-94.5992773, 35.4081817], [-94.5992574, 35.4080737], [-94.5994736, 35.4080506], [-94.5994942, 35.4081627], [-94.5992773, 35.4081817]]]}, "properties": {"osm_id": 1227680015, "building": "yes", "name": "", "height": null, "height_m": null, "levels": null, "tract_id": "40135030403", "tract_name": "304.03", "tags": {"building": "yes"}}}, {"type": "Feature", "geometry": {"type": "Polygon", "coordinates": [[[-94.5644307, 35.4059799], [-94.5642858, 35.4059791], [-94.5642824, 35.4063995], [-94.5644271, 35.4064003], [-94.5644307, 35.4059799]]]}, "properties": {"osm_id": 1240613507, "building": "retail", "name": "", "height": null, "height_m": null, "levels": null, "tract_id": "40135030403", "tract_name": "304.03", "tags": {"addr:housenumber": "2103", "addr:street": "East Shawntel Smith Boulevard", "building": "retail"}}}, {"type": "Feature", "geometry": {"type": "Polygon", "coordinates": [[[-94.5635809, 35.4058819], [-94.563581, 35.4058585], [-94.5634554, 35.4058582], [-94.5634551, 35.4059728], [-94.5638527, 35.4059736], [-94.563853, 35.4058824], [-94.5635809, 35.4058819]]]}, "properties": {"osm_id": 1240613508, "building": "industrial", "name": "", "height": null, "height_m": null, "levels": null, "tract_id": "40135030403", "tract_name": "304.03", "tags": {"building": "industrial"}}}, {"type": "Feature", "geometry": {"type": "Polygon", "coordinates": [[[-94.575956, 35.4062587], [-94.5759552, 35.4062435], [-94.5760441, 35.4062404], [-94.5760402, 35.4061667], [-94.5759487, 35.4061699], [-94.5759479, 35.4061547], [-94.5757582, 35.4061614], [-94.5757638, 35.4062656], [-94.575956, 35.4062587]]]}, "properties": {"osm_id": 1343618625, "building": "detached", "name": "", "height": null, "height_m": null, "levels": null, "tract_id": "40135030403", "tract_name": "304.03", "tags": {"building": "detached"}}}, {"type": "Feature", "geometry": {"type": "Polygon", "coordinates": [[[-94.5757115, 35.4059751], [-94.5755875, 35.4059722], [-94.5755947, 35.4057694], [-94.5757187, 35.4057723], [-94.5757115, 35.4059751]]]}, "properties": {"osm_id": 1343618626, "building": "garage", "name": "", "height": null, "height_m": null, "levels": null, "tract_id": "40135030403", "tract_name": "304.03", "tags": {"building": "garage"}}}, {"type": "Feature", "geometry": {"type": "Polygon", "coordinates": [[[-94.5493807, 35.4180894], [-94.5492733, 35.4180915], [-94.5492714, 35.4180246], [-94.5492312, 35.4180253], [-94.5492293, 35.4179579], [-94.5492712, 35.4179571], [-94.5492695, 35.4178981], [-94.5494284, 35.4178951], [-94.5494311, 35.4179885], [-94.5493778, 35.4179895], [-94.5493807, 35.4180894]]]}, "properties": {"osm_id": 1347706197, "building": "detached", "name": "", "height": null, "height_m": null, "levels": null, "tract_id": "40135030403", "tract_name": "304.03", "tags": {"building": "detached"}}}, {"type": "Feature", "geometry": {"type": "Polygon", "coordinates": [[[-94.5492215, 35.4180441], [-94.5492165, 35.4179924], [-94.5491436, 35.417997], [-94.5491485, 35.4180487], [-94.5492215, 35.4180441]]]}, "properties": {"osm_id": 1347706198, "building": "yes", "name": "", "height": null, "height_m": null, "levels": null, "tract_id": "40135030403", "tract_name": "304.03", "tags": {"building": "yes"}}}, {"type": "Feature", "geometry": {"type": "Polygon", "coordinates": [[[-94.5497724, 35.4181785], [-94.5497442, 35.4181307], [-94.5496767, 35.4181572], [-94.549705, 35.418205], [-94.5497724, 35.4181785]]]}, "properties": {"osm_id": 1347706199, "building": "yes", "name": "", "height": null, "height_m": null, "levels": null, "tract_id": "40135030403", "tract_name": "304.03", "tags": {"building": "yes"}}}, {"type": "Feature", "geometry": {"type": "Polygon", "coordinates": [[[-94.549361, 35.4175753], [-94.5493457, 35.4175253], [-94.549089, 35.4175775], [-94.5491043, 35.4176275], [-94.549361, 35.4175753]]]}, "properties": {"osm_id": 1347706200, "building": "static_caravan", "name": "", "height": null, "height_m": null, "levels": null, "tract_id": "40135030403", "tract_name": "304.03", "tags": {"building": "static_caravan"}}}, {"type": "Feature", "geometry": {"type": "Polygon", "coordinates": [[[-94.5494629, 35.4160095], [-94.5494597, 35.4159416], [-94.5493735, 35.4159442], [-94.5493766, 35.4160122], [-94.5494629, 35.4160095]]]}, "properties": {"osm_id": 1347706208, "building": "shed", "name": "", "height": null, "height_m": null, "levels": null, "tract_id": "40135030403", "tract_name": "304.03", "tags": {"building": "shed"}}}, {"type": "Feature", "geometry": {"type": "Polygon", "coordinates": [[[-94.5495331, 35.4161135], [-94.5495307, 35.4160316], [-94.5496187, 35.4160298], [-94.5496178, 35.4159984], [-94.5496798, 35.4159972], [-94.5496808, 35.4160299], [-94.5497808, 35.4160279], [-94.5497832, 35.4161085], [-94.5495331, 35.4161135]]]}, "properties": {"osm_id": 1347706209, "building": "detached", "name": "", "height": null, "height_m": null, "levels": null, "tract_id": "40135030403", "tract_name": "304.03", "tags": {"building": "detached"}}}, {"type": "Feature", "geometry": {"type": "Polygon", "coordinates": [[[-94.5493904, 35.416117], [-94.5493922, 35.4160532], [-94.5492578, 35.4160507], [-94.5492536, 35.416205], [-94.5493546, 35.4162068], [-94.549357, 35.4161163], [-94.5493904, 35.416117]]]}, "properties": {"osm_id": 1347706210, "building": "garage", "name": "", "height": null, "height_m": null, "levels": null, "tract_id": "40135030403", "tract_name": "304.03", "tags": {"building": "garage"}}}, {"type": "Feature", "geometry": {"type": "Polygon", "coordinates": [[[-94.5498206, 35.412935], [-94.5498188, 35.4128185], [-94.5496087, 35.4128148], [-94.5496078, 35.4129307], [-94.5498206, 35.412935]]]}, "properties": {"osm_id": 1347706212, "building": "roof", "name": "", "height": null, "height_m": null, "levels": null, "tract_id": "40135030403", "tract_name": "304.03", "tags": {"building": "roof", "layer": "1"}}}, {"type": "Feature", "geometry": {"type": "Polygon", "coordinates": [[[-94.5504903, 35.4116456], [-94.5504824, 35.4115959], [-94.5504131, 35.4116032], [-94.5504057, 35.4115559], [-94.5502457, 35.4115727], [-94.5502522, 35.4116144], [-94.550222, 35.4116175], [-94.5502318, 35.4116796], [-94.5502664, 35.411676], [-94.5502733, 35.4117201], [-94.5502976, 35.4117176], [-94.5503094, 35.4117928], [-94.5504063, 35.4117827], [-94.550393, 35.411698], [-94.5504294, 35.4116942], [-94.5504229, 35.4116526], [-94.5504903, 35.4116456]]]}, "properties": {"osm_id": 1347706213, "building": "house", "name": "", "height": null, "height_m": null, "levels": null, "tract_id": "40135030403", "tract_name": "304.03", "tags": {"addr:housenumber": "110554", "building": "house"}}}, {"type": "Feature", "geometry": {"type": "Polygon", "coordinates": [[[-94.5492211, 35.4105672], [-94.5492301, 35.4104874], [-94.5493888, 35.4104969], [-94.5493785, 35.4105789], [-94.5493257, 35.4105756], [-94.5493204, 35.4106139], [-94.5492332, 35.4106088], [-94.5492386, 35.4105679], [-94.5492211, 35.4105672]]]}, "properties": {"osm_id": 1347706214, "building": "detached", "name": "", "height": null, "height_m": null, "levels": null, "tract_id": "40135030403", "tract_name": "304.03", "tags": {"building": "detached"}}}, {"type": "Feature", "geometry": {"type": "Polygon", "coordinates": [[[-94.5501925, 35.4105417], [-94.5501894, 35.4104455], [-94.5502927, 35.4104455], [-94.5502936, 35.410451], [-94.5503468, 35.4104488], [-94.5503504, 35.4105399], [-94.550294, 35.4105414], [-94.5501925, 35.4105417]]]}, "properties": {"osm_id": 1347706215, "building": "barn", "name": "", "height": null, "height_m": null, "levels": null, "tract_id": "40135030403", "tract_name": "304.03", "tags": {"building": "barn"}}}, {"type": "Feature", "geometry": {"type": "Polygon", "coordinates": [[[-94.5505841, 35.4105628], [-94.5505904, 35.4105031], [-94.5505242, 35.4104984], [-94.5505198, 35.4105585], [-94.5505841, 35.4105628]]]}, "properties": {"osm_id": 1347706216, "building": "yes", "name": "", "height": null, "height_m": null, "levels": null, "tract_id": "40135030403", "tract_name": "304.03", "tags": {"building": "yes"}}}, {"type": "Feature", "geometry": {"type": "Polygon", "coordinates": [[[-94.5818134, 35.4066141], [-94.5818075, 35.4065199], [-94.5817345, 35.406523], [-94.5817328, 35.4064956], [-94.5815938, 35.4065014], [-94.5815954, 35.4065267], [-94.5815515, 35.4065285], [-94.5815524, 35.4065435], [-94.5815244, 35.4065446], [-94.5815312, 35.4066531], [-94.5815608, 35.4066518], [-94.5815618, 35.4066685], [-94.5816242, 35.4066659], [-94.5816235, 35.4066544], [-94.581723, 35.4066502], [-94.5817237, 35.4066611], [-94.5818027, 35.4066578], [-94.5818, 35.4066147], [-94.5818134, 35.4066141]]]}, "properties": {"osm_id": 1372761440, "building": "yes", "name": "", "height": null, "height_m": null, "levels": null, "tract_id": "40135030403", "tract_name": "304.03", "tags": {"building": "yes"}}}, {"type": "Feature", "geometry": {"type": "Polygon", "coordinates": [[[-94.5821335, 35.4066006], [-94.582132, 35.406549], [-94.5820592, 35.4065505], [-94.5820608, 35.4066021], [-94.5821335, 35.4066006]]]}, "properties": {"osm_id": 1372761441, "building": "yes", "name": "", "height": null, "height_m": null, "levels": null, "tract_id": "40135030403", "tract_name": "304.03", "tags": {"building": "yes"}}}, {"type": "Feature", "geometry": {"type": "Polygon", "coordinates": [[[-94.5821225, 35.4071376], [-94.5820257, 35.4071401], [-94.5820207, 35.4070092], [-94.5821175, 35.4070067], [-94.5821225, 35.4071376]]]}, "properties": {"osm_id": 1372761442, "building": "yes", "name": "", "height": null, "height_m": null, "levels": null, "tract_id": "40135030403", "tract_name": "304.03", "tags": {"building": "yes"}}}, {"type": "Feature", "geometry": {"type": "Polygon", "coordinates": [[[-94.5817063, 35.4072061], [-94.5816446, 35.4072052], [-94.5816465, 35.4071175], [-94.5817082, 35.4071184], [-94.5817063, 35.4072061]]]}, "properties": {"osm_id": 1372761443, "building": "yes", "name": "", "height": null, "height_m": null, "levels": null, "tract_id": "40135030403", "tract_name": "304.03", "tags": {"building": "yes"}}}, {"type": "Feature", "geometry": {"type": "Polygon", "coordinates": [[[-94.581636, 35.4072051], [-94.5815786, 35.4072043], [-94.5815804, 35.4071155], [-94.5816377, 35.4071163], [-94.581636, 35.4072051]]]}, "properties": {"osm_id": 1372761444, "building": "yes", "name": "", "height": null, "height_m": null, "levels": null, "tract_id": "40135030403", "tract_name": "304.03", "tags": {"building": "yes"}}}, {"type": "Feature", "geometry": {"type": "Polygon", "coordinates": [[[-94.5815656, 35.4071149], [-94.5815639, 35.4071874], [-94.5814244, 35.4071852], [-94.5814261, 35.4071128], [-94.5815656, 35.4071149]]]}, "properties": {"osm_id": 1372761445, "building": "yes", "name": "", "height": null, "height_m": null, "levels": null, "tract_id": "40135030403", "tract_name": "304.03", "tags": {"building": "yes"}}}, {"type": "Feature", "geometry": {"type": "Polygon", "coordinates": [[[-94.580409, 35.4074269], [-94.5804009, 35.4073263], [-94.5803622, 35.4073284], [-94.5803611, 35.4073141], [-94.5802209, 35.4073216], [-94.5802225, 35.4073407], [-94.5801437, 35.4073449], [-94.5801509, 35.4074339], [-94.5802081, 35.4074308], [-94.5802092, 35.4074446], [-94.5802351, 35.4074432], [-94.5802339, 35.4074286], [-94.580305, 35.4074248], [-94.5803087, 35.4074705], [-94.5803761, 35.4074669], [-94.580373, 35.4074289], [-94.580409, 35.4074269]]]}, "properties": {"osm_id": 1372761446, "building": "yes", "name": "", "height": null, "height_m": null, "levels": null, "tract_id": "40135030403", "tract_name": "304.03", "tags": {"building": "yes"}}}, {"type": "Feature", "geometry": {"type": "Polygon", "coordinates": [[[-94.5794651, 35.4065457], [-94.579393, 35.4065506], [-94.5793907, 35.4065284], [-94.579362, 35.4065303], [-94.5793632, 35.4065421], [-94.5792824, 35.4065476], [-94.5792764, 35.4064889], [-94.5793483, 35.406484], [-94.5793447, 35.4064493], [-94.5793223, 35.4064508], [-94.5793138, 35.4063677], [-94.5793899, 35.4063625], [-94.5793921, 35.4063834], [-94.5794481, 35.4063796], [-94.5794651, 35.4065457]]]}, "properties": {"osm_id": 1372761447, "building": "detached", "name": "", "height": null, "height_m": null, "levels": null, "tract_id": "40135030403", "tract_name": "304.03", "tags": {"building": "detached"}}}, {"type": "Feature", "geometry": {"type": "Polygon", "coordinates": [[[-94.5803535, 35.4061166], [-94.5803453, 35.4060977], [-94.5803364, 35.4061002], [-94.5803086, 35.4060357], [-94.5802777, 35.4060446], [-94.5802587, 35.4060004], [-94.5802842, 35.4059931], [-94.5802631, 35.4059441], [-94.5803381, 35.4059227], [-94.5803567, 35.4059658], [-94.5804403, 35.4059418], [-94.580458, 35.405983], [-94.5804912, 35.4059735], [-94.5805144, 35.4060272], [-94.5805031, 35.4060304], [-94.5805202, 35.4060701], [-94.5804721, 35.4060839], [-94.5804651, 35.4060679], [-94.5803973, 35.4060873], [-94.5804038, 35.4061022], [-94.5803535, 35.4061166]]]}, "properties": {"osm_id": 1372761448, "building": "detached", "name": "", "height": null, "height_m": null, "levels": null, "tract_id": "40135030403", "tract_name": "304.03", "tags": {"building": "detached"}}}, {"type": "Feature", "geometry": {"type": "Polygon", "coordinates": [[[-94.5709141, 35.4058933], [-94.570862, 35.4058918], [-94.5708628, 35.4058733], [-94.5708537, 35.405873], [-94.5708548, 35.4058484], [-94.5707857, 35.4058465], [-94.5707807, 35.4059615], [-94.570911, 35.4059652], [-94.5709141, 35.4058933]]]}, "properties": {"osm_id": 1372761449, "building": "detached", "name": "", "height": null, "height_m": null, "levels": null, "tract_id": "40135030403", "tract_name": "304.03", "tags": {"building": "detached"}}}, {"type": "Feature", "geometry": {"type": "Polygon", "coordinates": [[[-94.5709777, 35.4059679], [-94.5709345, 35.4059668], [-94.5709367, 35.4059066], [-94.5709799, 35.4059076], [-94.5709777, 35.4059679]]]}, "properties": {"osm_id": 1372761450, "building": "carport", "name": "", "height": null, "height_m": null, "levels": null, "tract_id": "40135030403", "tract_name": "304.03", "tags": {"building": "carport"}}}, {"type": "Feature", "geometry": {"type": "Polygon", "coordinates": [[[-94.5709386, 35.4059745], [-94.570936, 35.4060227], [-94.5708463, 35.4060195], [-94.5708489, 35.4059713], [-94.5709386, 35.4059745]]]}, "properties": {"osm_id": 1372761451, "building": "garage", "name": "", "height": null, "height_m": null, "levels": null, "tract_id": "40135030403", "tract_name": "304.03", "tags": {"building": "garage"}}}, {"type": "Feature", "geometry": {"type": "Polygon", "coordinates": [[[-94.5703279, 35.4060487], [-94.5703293, 35.4059332], [-94.5702458, 35.4059326], [-94.5702455, 35.4059586], [-94.5701948, 35.4059582], [-94.5701951, 35.4059295], [-94.5701117, 35.4059288], [-94.5701103, 35.4060452], [-94.5702018, 35.4060459], [-94.5702014, 35.4060791], [-94.5702849, 35.4060798], [-94.5702852, 35.4060484], [-94.5703279, 35.4060487]]]}, "properties": {"osm_id": 1372761452, "building": "detached", "name": "", "height": null, "height_m": null, "levels": null, "tract_id": "40135030403", "tract_name": "304.03", "tags": {"building": "detached"}}}, {"type": "Feature", "geometry": {"type": "Polygon", "coordinates": [[[-94.5704064, 35.4063548], [-94.5704106, 35.4062387], [-94.5702997, 35.406236], [-94.5702955, 35.4063521], [-94.5704064, 35.4063548]]]}, "properties": {"osm_id": 1372761453, "building": "yes", "name": "", "height": null, "height_m": null, "levels": null, "tract_id": "40135030403", "tract_name": "304.03", "tags": {"building": "yes"}}}, {"type": "Feature", "geometry": {"type": "Polygon", "coordinates": [[[-94.5699173, 35.4060876], [-94.5699198, 35.406035], [-94.5699219, 35.4059915], [-94.569922, 35.405989], [-94.5700146, 35.4059919], [-94.5700098, 35.4060906], [-94.5699173, 35.4060876]]]}, "properties": {"osm_id": 1372761454, "building": "yes", "name": "", "height": null, "height_m": null, "levels": null, "tract_id": "40135030403", "tract_name": "304.03", "tags": {"building": "yes"}}}, {"type": "Feature", "geometry": {"type": "Polygon", "coordinates": [[[-94.5698831, 35.405917], [-94.5698113, 35.4059169], [-94.5698113, 35.4059365], [-94.5697768, 35.4059364], [-94.569777, 35.4058564], [-94.569703, 35.4058563], [-94.5697029, 35.4059361], [-94.5696714, 35.405936], [-94.5696715, 35.4059147], [-94.5695975, 35.4059146], [-94.5695972, 35.4060785], [-94.5697068, 35.4060786], [-94.5697068, 35.4060453], [-94.5697123, 35.4060453], [-94.5697123, 35.4060584], [-94.5697864, 35.4060585], [-94.5697865, 35.4060442], [-94.5698639, 35.4060443], [-94.569864, 35.4060373], [-94.5698828, 35.4060373], [-94.5698828, 35.4060353], [-94.5698829, 35.4059915], [-94.5698831, 35.405917]]]}, "properties": {"osm_id": 1372761455, "building": "detached", "name": "", "height": null, "height_m": null, "levels": null, "tract_id": "40135030403", "tract_name": "304.03", "tags": {"addr:housenumber": "1803", "building": "detached", "layer": "1"}}}, {"type": "Feature", "geometry": {"type": "Polygon", "coordinates": [[[-94.5699198, 35.406035], [-94.5698828, 35.4060353], [-94.5698829, 35.4059915], [-94.5699219, 35.4059915], [-94.5699198, 35.406035]]]}, "properties": {"osm_id": 1372761457, "building": "roof", "name": "", "height": null, "height_m": null, "levels": null, "tract_id": "40135030403", "tract_name": "304.03", "tags": {"building": "roof", "layer": "1"}}}, {"type": "Feature", "geometry": {"type": "Polygon", "coordinates": [[[-94.5698572, 35.4064215], [-94.5698942, 35.4064341], [-94.569904, 35.4064148], [-94.5699768, 35.4064395], [-94.56992, 35.4065507], [-94.5698296, 35.40652], [-94.5698507, 35.4064787], [-94.5698314, 35.4064721], [-94.5698572, 35.4064215]]]}, "properties": {"osm_id": 1372761458, "building": "yes", "name": "", "height": null, "height_m": null, "levels": null, "tract_id": "40135030403", "tract_name": "304.03", "tags": {"building": "yes"}}}, {"type": "Feature", "geometry": {"type": "Polygon", "coordinates": [[[-94.5679692, 35.4064367], [-94.5678517, 35.4062801], [-94.5677371, 35.4063372], [-94.5677888, 35.4064062], [-94.5676861, 35.4064574], [-94.5677518, 35.406545], [-94.5679692, 35.4064367]]]}, "properties": {"osm_id": 1372761460, "building": "detached", "name": "", "height": null, "height_m": null, "levels": null, "tract_id": "40135030403", "tract_name": "304.03", "tags": {"building": "detached"}}}, {"type": "Feature", "geometry": {"type": "Polygon", "coordinates": [[[-94.5664693, 35.406333], [-94.5664115, 35.4063294], [-94.5664131, 35.4063127], [-94.5663148, 35.4063066], [-94.566313, 35.4063259], [-94.5662909, 35.4063245], [-94.5662918, 35.4063146], [-94.5662281, 35.4063106], [-94.5662273, 35.4063188], [-94.5661528, 35.4063141], [-94.566145, 35.4063973], [-94.5663016, 35.4064071], [-94.5662999, 35.4064258], [-94.5664596, 35.4064358], [-94.5664693, 35.406333]]]}, "properties": {"osm_id": 1372761461, "building": "detached", "name": "", "height": null, "height_m": null, "levels": null, "tract_id": "40135030403", "tract_name": "304.03", "tags": {"building": "detached"}}}, {"type": "Feature", "geometry": {"type": "Polygon", "coordinates": [[[-94.5587159, 35.4059501], [-94.5587166, 35.405863], [-94.5586041, 35.4058624], [-94.5586042, 35.4058514], [-94.5585057, 35.4058508], [-94.5585056, 35.4058606], [-94.5584314, 35.4058602], [-94.5584307, 35.405948], [-94.5584919, 35.4059483], [-94.5584916, 35.405983], [-94.5585779, 35.4059835], [-94.5585782, 35.4059493], [-94.5587159, 35.4059501]]]}, "properties": {"osm_id": 1372761463, "building": "detached", "name": "", "height": null, "height_m": null, "levels": null, "tract_id": "40135030403", "tract_name": "304.03", "tags": {"building": "detached"}}}, {"type": "Feature", "geometry": {"type": "Polygon", "coordinates": [[[-94.5557633, 35.4064518], [-94.5558206, 35.4064519], [-94.5558212, 35.4062379], [-94.5557639, 35.4062378], [-94.5557633, 35.4064518]]]}, "properties": {"osm_id": 1372761464, "building": "static_caravan", "name": "", "height": null, "height_m": null, "levels": null, "tract_id": "40135030403", "tract_name": "304.03", "tags": {"building": "static_caravan"}}}, {"type": "Feature", "geometry": {"type": "Polygon", "coordinates": [[[-94.5557199, 35.4059402], [-94.5556622, 35.4059368], [-94.5556435, 35.4061482], [-94.5557013, 35.4061516], [-94.5557199, 35.4059402]]]}, "properties": {"osm_id": 1372761465, "building": "static_caravan", "name": "", "height": null, "height_m": null, "levels": null, "tract_id": "40135030403", "tract_name": "304.03", "tags": {"building": "static_caravan"}}}, {"type": "Feature", "geometry": {"type": "Polygon", "coordinates": [[[-94.5557319, 35.405851], [-94.5556823, 35.4058516], [-94.5556797, 35.4057057], [-94.5557293, 35.4057051], [-94.5557319, 35.405851]]]}, "properties": {"osm_id": 1372761466, "building": "static_caravan", "name": "", "height": null, "height_m": null, "levels": null, "tract_id": "40135030403", "tract_name": "304.03", "tags": {"building": "static_caravan"}}}, {"type": "Feature", "geometry": {"type": "Polygon", "coordinates": [[[-94.5542819, 35.4058197], [-94.5542842, 35.4057286], [-94.5541829, 35.405727], [-94.5541826, 35.4057426], [-94.5540808, 35.4057409], [-94.5540812, 35.4057258], [-94.5539733, 35.405724], [-94.5539711, 35.4058134], [-94.5540623, 35.4058149], [-94.554062, 35.40583], [-94.5542158, 35.4058325], [-94.5542162, 35.4058186], [-94.5542819, 35.4058197]]]}, "properties": {"osm_id": 1372761470, "building": "detached", "name": "", "height": null, "height_m": null, "levels": null, "tract_id": "40135030403", "tract_name": "304.03", "tags": {"addr:housenumber": "2710", "building": "detached"}}}, {"type": "Feature", "geometry": {"type": "Polygon", "coordinates": [[[-94.5527938, 35.40652], [-94.5527476, 35.4065215], [-94.5527459, 35.4064862], [-94.5526871, 35.4064881], [-94.5526887, 35.4065216], [-94.55265, 35.4065229], [-94.5526524, 35.406574], [-94.552624, 35.4065749], [-94.5526256, 35.4066084], [-94.552659, 35.4066073], [-94.5526627, 35.4066846], [-94.5527546, 35.4066817], [-94.5527559, 35.4067085], [-94.5528027, 35.406707], [-94.5527938, 35.40652]]]}, "properties": {"osm_id": 1372761471, "building": "yes", "name": "", "height": null, "height_m": null, "levels": null, "tract_id": "40135030403", "tract_name": "304.03", "tags": {"building": "yes"}}}, {"type": "Feature", "geometry": {"type": "Polygon", "coordinates": [[[-94.5522845, 35.4066071], [-94.5523922, 35.4066078], [-94.5523925, 35.4065823], [-94.5524216, 35.4065825], [-94.5524218, 35.4065641], [-94.5524623, 35.4065644], [-94.5524633, 35.4064673], [-94.5523881, 35.4064668], [-94.5523883, 35.4064558], [-94.552286, 35.4064551], [-94.5522845, 35.4066071]]]}, "properties": {"osm_id": 1372761472, "building": "detached", "name": "", "height": null, "height_m": null, "levels": null, "tract_id": "40135030403", "tract_name": "304.03", "tags": {"building": "detached"}}}, {"type": "Feature", "geometry": {"type": "Polygon", "coordinates": [[[-94.5508484, 35.4059755], [-94.5507753, 35.4059705], [-94.550804, 35.4056946], [-94.5508771, 35.4056997], [-94.5508484, 35.4059755]]]}, "properties": {"osm_id": 1372761475, "building": "yes", "name": "", "height": null, "height_m": null, "levels": null, "tract_id": "40135030403", "tract_name": "304.03", "tags": {"building": "yes", "shop": "storage_rental"}}}, {"type": "Feature", "geometry": {"type": "Polygon", "coordinates": [[[-94.5508993, 35.4060352], [-94.5509024, 35.4059467], [-94.5511411, 35.4059523], [-94.551138, 35.4060408], [-94.5508993, 35.4060352]]]}, "properties": {"osm_id": 1372761476, "building": "detached", "name": "", "height": null, "height_m": null, "levels": null, "tract_id": "40135030403", "tract_name": "304.03", "tags": {"building": "detached"}}}, {"type": "Feature", "geometry": {"type": "Polygon", "coordinates": [[[-94.5492967, 35.4087038], [-94.549302, 35.4085591], [-94.5491932, 35.4085565], [-94.5491916, 35.4085994], [-94.5491708, 35.4085989], [-94.5491686, 35.4086596], [-94.5491926, 35.4086602], [-94.5491911, 35.4087012], [-94.5492967, 35.4087038]]]}, "properties": {"osm_id": 1372761831, "building": "detached", "name": "", "height": null, "height_m": null, "levels": null, "tract_id": "40135030403", "tract_name": "304.03", "tags": {"building": "detached"}}}]}