{"type": "FeatureCollection", "features": [{"type": "Feature", "geometry": {"type": "Polygon", "coordinates": [[[-94.7911172, 33.8940945], [-94.7911175, 33.8940647], [-94.7907579, 33.8940622], [-94.7907566, 33.8941941], [-94.7911132, 33.8941966], [-94.7911134, 33.8941785], [-94.7911451, 33.8941788], [-94.7911459, 33.8940947], [-94.7911172, 33.8940945]]]}, "properties": {"osm_id": 593422497, "building": "retail", "name": "", "height": null, "height_m": null, "levels": null, "tract_id": "40089098800", "tract_name": "988", "tags": {"building": "retail"}}}, {"type": "Feature", "geometry": {"type": "Polygon", "coordinates": [[[-94.804287, 33.8976612], [-94.8042833, 33.8984453], [-94.8041286, 33.8984448], [-94.8041287, 33.8984155], [-94.8029074, 33.8984115], [-94.802911, 33.8976568], [-94.804287, 33.8976612]]]}, "properties": {"osm_id": 634007727, "building": "retail", "name": "Walmart Supercenter", "height": null, "height_m": 3.0, "levels": 1, "tract_id": "40089098800", "tract_name": "988", "tags": {"addr:city": "Idabel", "addr:country": "US", "addr:housenumber": "1907", "addr:postcode": "74745", "addr:state": "OK", "addr:street": "Southeast Washington Street", "brand": "Walmart", "brand:wikidata": "Q483551", "building": "retail", "building:levels": "1", "name": "Walmart Supercenter", "opening_hours": "24/7", "operator": "Walmart", "payment:app:walmart": "yes", "payment:apple_pay": "no", "payment:google_pay": "no", "payment:samsung_pay": "no", "phone": "+1 580-286-6696", "ref": "38", "ref:walmart": "38", "sensory_friendly:accommodation": "dimmed_light;static_screens;no_pa", "sensory_friendly:conditional": "yes @ 08:00-10:00", "shop": "supermarket", "website": "https://www.walmart.com/store/38-idabel-ok"}}}, {"type": "Feature", "geometry": {"type": "Polygon", "coordinates": [[[-94.8160578, 33.8803776], [-94.8159828, 33.880318], [-94.8159723, 33.8803271], [-94.8156163, 33.8800441], [-94.8154655, 33.8799242], [-94.8153859, 33.879861], [-94.8155405, 33.879727], [-94.8155965, 33.8796784], [-94.8156761, 33.8797417], [-94.8156201, 33.8797902], [-94.8157708, 33.87991], [-94.8157916, 33.879892], [-94.815962, 33.8797443], [-94.8164843, 33.8801594], [-94.8162932, 33.8803251], [-94.8162187, 33.8803897], [-94.8161275, 33.8803172], [-94.8160578, 33.8803776]]]}, "properties": {"osm_id": 706139948, "building": "yes", "name": "", "height": null, "height_m": null, "levels": null, "tract_id": "40089098800", "tract_name": "988", "tags": {"building": "yes", "source": "bing"}}}, {"type": "Feature", "geometry": {"type": "Polygon", "coordinates": [[[-94.825794, 33.8920023], [-94.8258138, 33.891994], [-94.8258573, 33.8920654], [-94.8258374, 33.8920737], [-94.8258514, 33.8920967], [-94.8256161, 33.8921953], [-94.8256427, 33.892239], [-94.8255829, 33.8922641], [-94.8256963, 33.8924506], [-94.8255188, 33.8925249], [-94.8254054, 33.8923385], [-94.8253205, 33.8923741], [-94.8254442, 33.8925775], [-94.8251675, 33.8926934], [-94.8250172, 33.8924463], [-94.8249533, 33.8923224], [-94.8252236, 33.8922129], [-94.8257754, 33.8919771], [-94.825794, 33.8920023]]]}, "properties": {"osm_id": 706139972, "building": "yes", "name": "First Baptist Church", "height": null, "height_m": null, "levels": null, "tract_id": "40089098800", "tract_name": "988", "tags": {"amenity": "place_of_worship", "building": "yes", "denomination": "baptist", "ele": "146", "gnis:feature_id": "1798382", "name": "First Baptist Church", "religion": "christian", "source": "bing"}}}, {"type": "Feature", "geometry": {"type": "Polygon", "coordinates": [[[-94.828738, 33.8953302], [-94.8288429, 33.8955], [-94.8288287, 33.8955061], [-94.828923, 33.8956586], [-94.8288471, 33.895691], [-94.8287527, 33.8955384], [-94.8287667, 33.8955325], [-94.8286617, 33.8953627], [-94.828738, 33.8953302]]]}, "properties": {"osm_id": 711186958, "building": "yes", "name": "", "height": null, "height_m": null, "levels": null, "tract_id": "40089098800", "tract_name": "988", "tags": {"building": "yes", "source": "bing"}}}, {"type": "Feature", "geometry": {"type": "Polygon", "coordinates": [[[-94.8291859, 33.8950442], [-94.8290583, 33.8950985], [-94.8289887, 33.894986], [-94.8288801, 33.8948104], [-94.8289606, 33.8947761], [-94.8290048, 33.8948475], [-94.8290654, 33.8948217], [-94.829139, 33.8949406], [-94.8291255, 33.8949464], [-94.8291859, 33.8950442]]]}, "properties": {"osm_id": 711186959, "building": "yes", "name": "", "height": null, "height_m": null, "levels": null, "tract_id": "40089098800", "tract_name": "988", "tags": {"building": "yes", "source": "bing"}}}, {"type": "Feature", "geometry": {"type": "Polygon", "coordinates": [[[-94.8290274, 33.8955153], [-94.8290447, 33.8955432], [-94.8290585, 33.8955373], [-94.829099, 33.8956028], [-94.8290852, 33.8956087], [-94.8289941, 33.8956475], [-94.8289536, 33.895582], [-94.8287717, 33.8952878], [-94.8288628, 33.895249], [-94.8288543, 33.8952353], [-94.8290669, 33.8951448], [-94.8292194, 33.8950798], [-94.8294498, 33.8954523], [-94.8292972, 33.8955173], [-94.8291249, 33.8952386], [-94.8289123, 33.8953291], [-94.8289793, 33.8954374], [-94.8290035, 33.8954271], [-94.8290516, 33.8955049], [-94.8290274, 33.8955153]]]}, "properties": {"osm_id": 711186960, "building": "yes", "name": "", "height": null, "height_m": null, "levels": null, "tract_id": "40089098800", "tract_name": "988", "tags": {"building": "yes", "source": "bing"}}}, {"type": "Feature", "geometry": {"type": "Polygon", "coordinates": [[[-94.8282711, 33.8950142], [-94.8283861, 33.8952009], [-94.8282443, 33.895261], [-94.8281293, 33.8950743], [-94.8282711, 33.8950142]]]}, "properties": {"osm_id": 711186961, "building": "yes", "name": "", "height": null, "height_m": null, "levels": null, "tract_id": "40089098800", "tract_name": "988", "tags": {"building": "yes", "source": "bing"}}}, {"type": "Feature", "geometry": {"type": "Polygon", "coordinates": [[[-94.8288225, 33.8957165], [-94.8285618, 33.8958276], [-94.8284698, 33.8956787], [-94.8287304, 33.8955676], [-94.8288225, 33.8957165]]]}, "properties": {"osm_id": 711186962, "building": "yes", "name": "", "height": null, "height_m": null, "levels": null, "tract_id": "40089098800", "tract_name": "988", "tags": {"building": "yes", "source": "bing"}}}, {"type": "Feature", "geometry": {"type": "Polygon", "coordinates": [[[-94.8286441, 33.8954828], [-94.8284135, 33.895581], [-94.8283397, 33.8954616], [-94.8285703, 33.8953634], [-94.8286441, 33.8954828]]]}, "properties": {"osm_id": 711186963, "building": "yes", "name": "", "height": null, "height_m": null, "levels": null, "tract_id": "40089098800", "tract_name": "988", "tags": {"building": "yes", "source": "bing"}}}, {"type": "Feature", "geometry": {"type": "Polygon", "coordinates": [[[-94.8286521, 33.8951187], [-94.8285042, 33.8951818], [-94.8283786, 33.8949785], [-94.8285265, 33.8949155], [-94.8286521, 33.8951187]]]}, "properties": {"osm_id": 711186964, "building": "yes", "name": "", "height": null, "height_m": null, "levels": null, "tract_id": "40089098800", "tract_name": "988", "tags": {"building": "yes", "source": "bing"}}}, {"type": "Feature", "geometry": {"type": "Polygon", "coordinates": [[[-94.8287675, 33.8948015], [-94.8289754, 33.8951377], [-94.8288207, 33.8952035], [-94.8286129, 33.8948674], [-94.8287675, 33.8948015]]]}, "properties": {"osm_id": 711186965, "building": "yes", "name": "", "height": null, "height_m": null, "levels": null, "tract_id": "40089098800", "tract_name": "988", "tags": {"building": "yes", "source": "bing"}}}, {"type": "Feature", "geometry": {"type": "Polygon", "coordinates": [[[-94.8122265, 33.8943673], [-94.8119728, 33.8945154], [-94.8118846, 33.8944112], [-94.8121996, 33.8942273], [-94.8118937, 33.8940478], [-94.8119769, 33.8939502], [-94.8122719, 33.8941232], [-94.8122719, 33.894079], [-94.8123966, 33.894079], [-94.8123966, 33.8941123], [-94.8126892, 33.8939415], [-94.8127775, 33.8940456], [-94.8124926, 33.894212], [-94.8124932, 33.8942531], [-94.8127775, 33.8944199], [-94.8126943, 33.8945176], [-94.8124354, 33.8943657], [-94.8123966, 33.8943858], [-94.8123966, 33.8944775], [-94.8122719, 33.8944775], [-94.8122719, 33.894389], [-94.8122265, 33.8943673]]]}, "properties": {"osm_id": 711186970, "building": "yes", "name": "", "height": null, "height_m": null, "levels": null, "tract_id": "40089098800", "tract_name": "988", "tags": {"building": "yes", "source": "bing"}}}, {"type": "Feature", "geometry": {"type": "Polygon", "coordinates": [[[-94.8093081, 33.8966171], [-94.8093162, 33.8962873], [-94.8092378, 33.8962859], [-94.809241, 33.8961585], [-94.8093165, 33.8961598], [-94.8093218, 33.8959421], [-94.8093853, 33.8959432], [-94.8096058, 33.895947], [-94.8095843, 33.896813], [-94.8093638, 33.8968092], [-94.8093685, 33.8966181], [-94.8093081, 33.8966171]]]}, "properties": {"osm_id": 711226445, "building": "yes", "name": "", "height": null, "height_m": null, "levels": null, "tract_id": "40089098800", "tract_name": "988", "tags": {"building": "yes", "source": "bing"}}}, {"type": "Feature", "geometry": {"type": "Polygon", "coordinates": [[[-94.809359, 33.8958245], [-94.8095759, 33.8958282], [-94.8095736, 33.8959225], [-94.8093567, 33.8959188], [-94.809359, 33.8958245]]]}, "properties": {"osm_id": 711226446, "building": "yes", "name": "", "height": null, "height_m": null, "levels": null, "tract_id": "40089098800", "tract_name": "988", "tags": {"building": "yes", "source": "bing"}}}, {"type": "Feature", "geometry": {"type": "Polygon", "coordinates": [[[-94.810369, 33.8972761], [-94.8096537, 33.8972904], [-94.8096436, 33.8969404], [-94.8116111, 33.8969012], [-94.8116043, 33.8961091], [-94.8118377, 33.8961077], [-94.8118484, 33.89735], [-94.811615, 33.8973514], [-94.8107986, 33.8973677], [-94.8107972, 33.8973193], [-94.8103705, 33.8973278], [-94.810369, 33.8972761]]]}, "properties": {"osm_id": 711226447, "building": "retail", "name": "", "height": null, "height_m": null, "levels": null, "tract_id": "40089098800", "tract_name": "988", "tags": {"building": "retail", "source": "bing"}}}, {"type": "Feature", "geometry": {"type": "Polygon", "coordinates": [[[-94.8162015, 33.8967339], [-94.8162018, 33.896685], [-94.8157308, 33.8966827], [-94.815732, 33.8965137], [-94.816463, 33.896513], [-94.8174392, 33.896512], [-94.8175783, 33.8965118], [-94.8175787, 33.8967487], [-94.8174377, 33.8967489], [-94.8174353, 33.8970805], [-94.8174346, 33.8971761], [-94.8171483, 33.8971747], [-94.817149, 33.8970791], [-94.816459, 33.8970756], [-94.8164614, 33.8967352], [-94.8162015, 33.8967339]]]}, "properties": {"osm_id": 717875624, "building": "yes", "name": "Tractor Supply Company", "height": null, "height_m": null, "levels": null, "tract_id": "40089098800", "tract_name": "988", "tags": {"addr:city": "Idabel", "addr:housenumber": "901", "addr:postcode": "74745", "addr:state": "OK", "addr:street": "Southeast Washington Street", "brand": "Tractor Supply Company", "brand:wikidata": "Q15109925", "building": "yes", "name": "Tractor Supply Company", "opening_hours": "Mo-Sa 08:00-21:00; Su 09:00-19:00", "phone": "+1 580-208-2310", "ref": "1101", "shop": "country_store", "source": "bing"}}}, {"type": "Feature", "geometry": {"type": "Polygon", "coordinates": [[[-94.8100215, 33.8820232], [-94.8092182, 33.8820265], [-94.8092174, 33.8818875], [-94.8100207, 33.8818841], [-94.8100215, 33.8820232]]]}, "properties": {"osm_id": 718102839, "building": "yes", "name": "", "height": null, "height_m": null, "levels": null, "tract_id": "40089098800", "tract_name": "988", "tags": {"building": "yes", "source": "bing"}}}, {"type": "Feature", "geometry": {"type": "Polygon", "coordinates": [[[-94.821564, 33.8935098], [-94.8216569, 33.893509], [-94.8216574, 33.89355], [-94.8215645, 33.8935508], [-94.8215657, 33.893656], [-94.8211593, 33.8936594], [-94.8211593, 33.8936573], [-94.8207825, 33.8936604], [-94.8207802, 33.8934654], [-94.821157, 33.8934623], [-94.8211567, 33.8934411], [-94.8211445, 33.8934412], [-94.8211433, 33.8933409], [-94.8213728, 33.893339], [-94.821374, 33.8934393], [-94.821433, 33.8934388], [-94.8214326, 33.8934032], [-94.8214169, 33.8934033], [-94.8214088, 33.8927365], [-94.8216433, 33.8927345], [-94.8216513, 33.8934013], [-94.8216119, 33.8934017], [-94.8216127, 33.893469], [-94.8215635, 33.8934694], [-94.821564, 33.8935098]]]}, "properties": {"osm_id": 718102840, "building": "yes", "name": "", "height": null, "height_m": null, "levels": null, "tract_id": "40089098800", "tract_name": "988", "tags": {"building": "yes", "source": "bing"}}}, {"type": "Feature", "geometry": {"type": "Polygon", "coordinates": [[[-94.8209234, 33.8929046], [-94.8207757, 33.8929058], [-94.8207732, 33.8926942], [-94.8209208, 33.8926929], [-94.8209234, 33.8929046]]]}, "properties": {"osm_id": 718102841, "building": "yes", "name": "", "height": null, "height_m": null, "levels": null, "tract_id": "40089098800", "tract_name": "988", "tags": {"building": "yes", "source": "bing"}}}, {"type": "Feature", "geometry": {"type": "Polygon", "coordinates": [[[-94.8213686, 33.8928478], [-94.8209573, 33.8928512], [-94.8209555, 33.8927053], [-94.8213668, 33.8927019], [-94.8213686, 33.8928478]]]}, "properties": {"osm_id": 718102842, "building": "yes", "name": "", "height": null, "height_m": null, "levels": null, "tract_id": "40089098800", "tract_name": "988", "tags": {"building": "yes", "source": "bing"}}}, {"type": "Feature", "geometry": {"type": "Polygon", "coordinates": [[[-94.7705478, 33.9212722], [-94.7705479, 33.9209927], [-94.7699876, 33.9209927], [-94.7699876, 33.9210857], [-94.7701188, 33.9210858], [-94.7701188, 33.9212722], [-94.7705478, 33.9212722]]]}, "properties": {"osm_id": 739560562, "building": "yes", "name": "McCurtain Cinema", "height": null, "height_m": null, "levels": null, "tract_id": "40089098800", "tract_name": "988", "tags": {"addr:city": "Idabel", "addr:housenumber": "3300", "addr:postcode": "74745", "addr:state": "OK", "addr:street": "Northeast Lincoln Road", "amenity": "cinema", "building": "yes", "name": "McCurtain Cinema", "screen": "5", "website": "https://www.mccurtaincinema.com/", "wikidata": "Q80837804"}}}, {"type": "Feature", "geometry": {"type": "Polygon", "coordinates": [[[-94.7700797, 33.9213274], [-94.7695657, 33.921329], [-94.7695667, 33.9215474], [-94.7699745, 33.9215462], [-94.7699743, 33.921497], [-94.7700805, 33.9214967], [-94.7700797, 33.9213274]]]}, "properties": {"osm_id": 739560563, "building": "yes", "name": "", "height": null, "height_m": null, "levels": null, "tract_id": "40089098800", "tract_name": "988", "tags": {"building": "yes", "tourism": "museum"}}}, {"type": "Feature", "geometry": {"type": "Polygon", "coordinates": [[[-94.788211, 33.8991161], [-94.7881213, 33.8990798], [-94.7882353, 33.898886], [-94.7881762, 33.898862], [-94.78819, 33.8988385], [-94.7882487, 33.8988623], [-94.7883444, 33.8986999], [-94.7883203, 33.8986976], [-94.7882925, 33.8986573], [-94.7883203, 33.8986442], [-94.7881454, 33.8985733], [-94.7880916, 33.8986648], [-94.7879625, 33.8986125], [-94.7880693, 33.8984309], [-94.7885092, 33.8986091], [-94.788211, 33.8991161]]]}, "properties": {"osm_id": 956580473, "building": "yes", "name": "Super 8 by Wyndham Idabel", "height": null, "height_m": null, "levels": null, "tract_id": "40089098800", "tract_name": "988", "tags": {"addr:city": "Idabel", "addr:housenumber": "401", "addr:postcode": "74745", "addr:state": "OK", "addr:street": "Northeast Lincoln Road", "branch": "Idabel", "brand": "Super 8", "brand:wikidata": "Q5364003", "building": "yes", "name": "Super 8 by Wyndham Idabel", "phone": "+1 580-245-6781", "ref": "19853", "tourism": "motel", "website": "https://www.wyndhamhotels.com/super-8/idabel-oklahoma/super-8-idabel/overview"}}}, {"type": "Feature", "geometry": {"type": "Polygon", "coordinates": [[[-94.7752815, 33.9227102], [-94.7749673, 33.9230837], [-94.775175, 33.9232041], [-94.7754893, 33.9228306], [-94.7752815, 33.9227102]]]}, "properties": {"osm_id": 990515702, "building": "yes", "name": "", "height": null, "height_m": null, "levels": null, "tract_id": "40089098800", "tract_name": "988", "tags": {"building": "yes"}}}, {"type": "Feature", "geometry": {"type": "Polygon", "coordinates": [[[-94.7755393, 33.9227739], [-94.7753363, 33.9226534], [-94.7755408, 33.9224163], [-94.775746, 33.9225382], [-94.7756668, 33.9226279], [-94.7755393, 33.9227739]]]}, "properties": {"osm_id": 990515703, "building": "yes", "name": "", "height": null, "height_m": null, "levels": null, "tract_id": "40089098800", "tract_name": "988", "tags": {"building": "yes"}}}, {"type": "Feature", "geometry": {"type": "Polygon", "coordinates": [[[-94.7756347, 33.9228888], [-94.7755063, 33.9228116], [-94.7755393, 33.9227739], [-94.7756668, 33.9226279], [-94.7757952, 33.9227051], [-94.7756347, 33.9228888]]]}, "properties": {"osm_id": 990515704, "building": "yes", "name": "", "height": null, "height_m": null, "levels": null, "tract_id": "40089098800", "tract_name": "988", "tags": {"building": "yes"}}}, {"type": "Feature", "geometry": {"type": "Polygon", "coordinates": [[[-94.776257, 33.9226306], [-94.7761075, 33.9225104], [-94.7762945, 33.9223502], [-94.7764441, 33.9224703], [-94.776257, 33.9226306]]]}, "properties": {"osm_id": 990515705, "building": "shed", "name": "", "height": null, "height_m": null, "levels": null, "tract_id": "40089098800", "tract_name": "988", "tags": {"building": "shed"}}}, {"type": "Feature", "geometry": {"type": "Polygon", "coordinates": [[[-94.7754449, 33.9232517], [-94.7753493, 33.9231996], [-94.7754211, 33.923109], [-94.7755167, 33.9231612], [-94.7754449, 33.9232517]]]}, "properties": {"osm_id": 990515706, "building": "yes", "name": "", "height": null, "height_m": null, "levels": null, "tract_id": "40089098800", "tract_name": "988", "tags": {"building": "yes"}}}, {"type": "Feature", "geometry": {"type": "Polygon", "coordinates": [[[-94.775504, 33.9231317], [-94.7754065, 33.9230768], [-94.7754821, 33.9229843], [-94.7755796, 33.9230392], [-94.775504, 33.9231317]]]}, "properties": {"osm_id": 990515707, "building": "yes", "name": "", "height": null, "height_m": null, "levels": null, "tract_id": "40089098800", "tract_name": "988", "tags": {"building": "yes"}}}, {"type": "Feature", "geometry": {"type": "Polygon", "coordinates": [[[-94.8186222, 33.8958434], [-94.8186223, 33.8958771], [-94.8186005, 33.8958772], [-94.8185984, 33.8959422], [-94.8186224, 33.8959425], [-94.8186199, 33.8960963], [-94.8186392, 33.8960964], [-94.818639, 33.8961188], [-94.8187727, 33.89612], [-94.8187733, 33.896079], [-94.8187953, 33.8960792], [-94.8187955, 33.8960577], [-94.8187799, 33.8960576], [-94.818781, 33.8959723], [-94.818792, 33.8959724], [-94.8187923, 33.8959481], [-94.8187741, 33.895948], [-94.8187754, 33.8958447], [-94.8186222, 33.8958434]]]}, "properties": {"osm_id": 992784495, "building": "yes", "name": "Braum's", "height": null, "height_m": null, "levels": null, "tract_id": "40089098800", "tract_name": "988", "tags": {"addr:city": "Idabel", "addr:housenumber": "801", "addr:postcode": "74745", "addr:state": "OK", "addr:street": "Southeast Washington Street", "amenity": "fast_food", "brand": "Braum's", "brand:wikidata": "Q4958263", "building": "yes", "cuisine": "ice_cream", "drive_through": "yes", "name": "Braum's", "opening_hours": "Mo-Su 06:00-21:00", "phone": "580.286.5500", "shop": "dairy", "takeaway": "yes", "website": "https://www.braums.com/store/801-se-washington-st-idabel-ok/"}}}, {"type": "Feature", "geometry": {"type": "Polygon", "coordinates": [[[-94.8159152, 33.8957059], [-94.8160269, 33.8957007], [-94.8160275, 33.8959371], [-94.8159158, 33.8959373], [-94.8159152, 33.8957059]]]}, "properties": {"osm_id": 992784506, "building": "yes", "name": "", "height": null, "height_m": null, "levels": null, "tract_id": "40089098800", "tract_name": "988", "tags": {"building": "yes"}}}, {"type": "Feature", "geometry": {"type": "Polygon", "coordinates": [[[-94.7776403, 33.9211151], [-94.777638, 33.9215151], [-94.7778335, 33.9215159], [-94.7778347, 33.9213134], [-94.777948, 33.9213138], [-94.7779474, 33.9214285], [-94.7779384, 33.9214285], [-94.7779381, 33.9214786], [-94.7779463, 33.9214786], [-94.7779461, 33.9215041], [-94.7779755, 33.9215042], [-94.7779755, 33.9215124], [-94.7781214, 33.9215132], [-94.7781214, 33.9215051], [-94.7781546, 33.9215053], [-94.7781561, 33.9213097], [-94.7782843, 33.9213104], [-94.7782831, 33.9214726], [-94.7782691, 33.9214725], [-94.778269, 33.9214903], [-94.7782788, 33.9214903], [-94.7782787, 33.9215116], [-94.7784411, 33.9215119], [-94.7784411, 33.9215209], [-94.7784805, 33.9215209], [-94.7784807, 33.9212465], [-94.7785177, 33.9212466], [-94.7785177, 33.9212217], [-94.7784822, 33.9212217], [-94.7784821, 33.9211289], [-94.778501, 33.9211289], [-94.778501, 33.9210995], [-94.7785716, 33.9210993], [-94.7785703, 33.9205744], [-94.778631, 33.9205743], [-94.7786309, 33.9205404], [-94.7785699, 33.9205405], [-94.7785696, 33.9204472], [-94.7783846, 33.9204475], [-94.7783848, 33.920503], [-94.7782715, 33.9205033], [-94.7781998, 33.9204446], [-94.7780648, 33.9205579], [-94.7782007, 33.9206693], [-94.778269, 33.9206119], [-94.7783837, 33.9206123], [-94.7783817, 33.9210025], [-94.7783288, 33.9210023], [-94.7783286, 33.9210356], [-94.7782865, 33.9210355], [-94.778286, 33.9211137], [-94.7782777, 33.9211136], [-94.7782775, 33.9211585], [-94.7781187, 33.9211579], [-94.778119, 33.9211051], [-94.7779687, 33.9211045], [-94.7779684, 33.9211596], [-94.7778334, 33.9211591], [-94.7778336, 33.9211159], [-94.7776403, 33.9211151]]]}, "properties": {"osm_id": 1013598722, "building": "yes", "name": "Southeastern Oklahoma State University", "height": null, "height_m": null, "levels": null, "tract_id": "40089098800", "tract_name": "988", "tags": {"amenity": "college", "building": "yes", "name": "Southeastern Oklahoma State University", "note": "branch campus of main institution in Durant, Oklahoma", "operator": "Southeastern Oklahoma State University"}}}, {"type": "Feature", "geometry": {"type": "Polygon", "coordinates": [[[-94.7786529, 33.921759], [-94.7785469, 33.9217564], [-94.778552, 33.9216123], [-94.778658, 33.9216149], [-94.7786529, 33.921759]]]}, "properties": {"osm_id": 1013598728, "building": "yes", "name": "", "height": null, "height_m": null, "levels": null, "tract_id": "40089098800", "tract_name": "988", "tags": {"building": "yes"}}}, {"type": "Feature", "geometry": {"type": "Polygon", "coordinates": [[[-94.7787603, 33.9216138], [-94.7787088, 33.921616], [-94.7787064, 33.9215779], [-94.778758, 33.9215757], [-94.7787603, 33.9216138]]]}, "properties": {"osm_id": 1013598729, "building": "yes", "name": "", "height": null, "height_m": null, "levels": null, "tract_id": "40089098800", "tract_name": "988", "tags": {"building": "yes"}}}, {"type": "Feature", "geometry": {"type": "Polygon", "coordinates": [[[-94.779131, 33.9217457], [-94.7789623, 33.9217273], [-94.7789777, 33.9216303], [-94.7791464, 33.9216487], [-94.779131, 33.9217457]]]}, "properties": {"osm_id": 1013598730, "building": "yes", "name": "", "height": null, "height_m": null, "levels": null, "tract_id": "40089098800", "tract_name": "988", "tags": {"building": "yes"}}}, {"type": "Feature", "geometry": {"type": "Polygon", "coordinates": [[[-94.7798067, 33.9210229], [-94.7795709, 33.9210227], [-94.779571, 33.9209611], [-94.7795967, 33.9209611], [-94.779597, 33.920802], [-94.7795646, 33.9208019], [-94.7795646, 33.9208335], [-94.7794471, 33.9208334], [-94.7794473, 33.920736], [-94.7795678, 33.9207362], [-94.7795677, 33.9207677], [-94.7796013, 33.9207678], [-94.7796015, 33.9205796], [-94.7798073, 33.9205798], [-94.7798067, 33.9210229]]]}, "properties": {"osm_id": 1013598731, "building": "yes", "name": "", "height": null, "height_m": null, "levels": null, "tract_id": "40089098800", "tract_name": "988", "tags": {"building": "yes"}}}, {"type": "Feature", "geometry": {"type": "Polygon", "coordinates": [[[-94.7800211, 33.9207739], [-94.779948, 33.9207722], [-94.7799509, 33.9206907], [-94.780024, 33.9206925], [-94.7800211, 33.9207739]]]}, "properties": {"osm_id": 1013598732, "building": "yes", "name": "", "height": null, "height_m": null, "levels": null, "tract_id": "40089098800", "tract_name": "988", "tags": {"building": "yes"}}}, {"type": "Feature", "geometry": {"type": "Polygon", "coordinates": [[[-94.78002, 33.9205589], [-94.7799143, 33.9205587], [-94.7799145, 33.9204779], [-94.7800201, 33.920478], [-94.78002, 33.9205589]]]}, "properties": {"osm_id": 1013598733, "building": "yes", "name": "", "height": null, "height_m": null, "levels": null, "tract_id": "40089098800", "tract_name": "988", "tags": {"building": "yes"}}}, {"type": "Feature", "geometry": {"type": "Polygon", "coordinates": [[[-94.7713624, 33.9203175], [-94.7712842, 33.9203277], [-94.7712777, 33.9203079], [-94.7711847, 33.9203168], [-94.7711591, 33.9204001], [-94.7711443, 33.9203967], [-94.7711336, 33.9204254], [-94.7711493, 33.9204274], [-94.7711188, 33.9205176], [-94.7711073, 33.9205155], [-94.7711015, 33.9205381], [-94.7711089, 33.9205408], [-94.7711032, 33.9205606], [-94.7712579, 33.9206535], [-94.7713435, 33.9205558], [-94.7712768, 33.9205101], [-94.7712958, 33.9204513], [-94.7713805, 33.920437], [-94.7713624, 33.9203175]]]}, "properties": {"osm_id": 1013598734, "building": "yes", "name": "Cielito Lindo Mexican Resaurant", "height": null, "height_m": null, "levels": null, "tract_id": "40089098800", "tract_name": "988", "tags": {"addr:city": "Idabel", "addr:housenumber": "3104", "addr:state": "OK", "addr:street": "Northeast Lincoln Road", "amenity": "restaurant", "building": "yes", "cuisine": "mexican;tex-mex", "name": "Cielito Lindo Mexican Resaurant", "phone": "580-286-1127"}}}, {"type": "Feature", "geometry": {"type": "Polygon", "coordinates": [[[-94.7714445, 33.9202784], [-94.7713065, 33.9202467], [-94.7713894, 33.9199987], [-94.7715273, 33.9200304], [-94.7714445, 33.9202784]]]}, "properties": {"osm_id": 1013598735, "building": "yes", "name": "", "height": null, "height_m": null, "levels": null, "tract_id": "40089098800", "tract_name": "988", "tags": {"building": "yes"}}}, {"type": "Feature", "geometry": {"type": "Polygon", "coordinates": [[[-94.7711634, 33.920904], [-94.7710447, 33.9208431], [-94.7711707, 33.920674], [-94.7712894, 33.920735], [-94.7711634, 33.920904]]]}, "properties": {"osm_id": 1013598736, "building": "yes", "name": "", "height": null, "height_m": null, "levels": null, "tract_id": "40089098800", "tract_name": "988", "tags": {"building": "yes"}}}, {"type": "Feature", "geometry": {"type": "Polygon", "coordinates": [[[-94.8238308, 33.8918316], [-94.8238313, 33.8917681], [-94.8238625, 33.8917683], [-94.8238629, 33.891719], [-94.8238333, 33.8917188], [-94.823834, 33.8916438], [-94.8237139, 33.8916431], [-94.8237134, 33.8917006], [-94.8236844, 33.8917005], [-94.8236839, 33.8917493], [-94.8237163, 33.8917495], [-94.8237161, 33.8917794], [-94.8236892, 33.8917792], [-94.8236888, 33.8918308], [-94.8238308, 33.8918316]]]}, "properties": {"osm_id": 1053676056, "building": "yes", "name": "", "height": null, "height_m": null, "levels": null, "tract_id": "40089098800", "tract_name": "988", "tags": {"addr:city": "Idabel", "addr:housenumber": "401", "addr:postcode": "74745", "addr:state": "OK", "addr:street": "SE Ave E", "building": "yes"}}}, {"type": "Feature", "geometry": {"type": "Polygon", "coordinates": [[[-94.7921477, 33.8886113], [-94.7922453, 33.8886106], [-94.7922457, 33.888652], [-94.7923366, 33.8886513], [-94.7923361, 33.8886113], [-94.7924336, 33.8886105], [-94.7924327, 33.8885187], [-94.7923925, 33.888519], [-94.7923924, 33.8885068], [-94.7923131, 33.8885074], [-94.7923132, 33.8885185], [-94.7922742, 33.8885188], [-94.7922741, 33.8885071], [-94.7921917, 33.8885077], [-94.7921918, 33.8885163], [-94.7921467, 33.8885167], [-94.7921477, 33.8886113]]]}, "properties": {"osm_id": 1053676058, "building": "yes", "name": "", "height": null, "height_m": null, "levels": null, "tract_id": "40089098800", "tract_name": "988", "tags": {"building": "yes"}}}, {"type": "Feature", "geometry": {"type": "Polygon", "coordinates": [[[-94.7632496, 33.9082298], [-94.7632982, 33.9080895], [-94.7631998, 33.908066], [-94.7631512, 33.9082063], [-94.7632496, 33.9082298]]]}, "properties": {"osm_id": 1053678652, "building": "yes", "name": "", "height": null, "height_m": null, "levels": null, "tract_id": "40089098800", "tract_name": "988", "tags": {"addr:city": "Idabel", "addr:housenumber": "969", "addr:postcode": "74745", "addr:state": "OK", "addr:street": "Keystone Rd", "building": "yes"}}}, {"type": "Feature", "geometry": {"type": "Polygon", "coordinates": [[[-94.8035026, 33.8964016], [-94.8032068, 33.8964011], [-94.8032083, 33.8957271], [-94.803504, 33.8957275], [-94.8035026, 33.8964016]]]}, "properties": {"osm_id": 1056341159, "building": "retail", "name": "", "height": null, "height_m": null, "levels": null, "tract_id": "40089098800", "tract_name": "988", "tags": {"building": "retail"}}}, {"type": "Feature", "geometry": {"type": "Polygon", "coordinates": [[[-94.7985907, 33.896036], [-94.798427, 33.896036], [-94.798427, 33.8957356], [-94.7985907, 33.8957356], [-94.7985907, 33.896036]]]}, "properties": {"osm_id": 1056341161, "building": "yes", "name": "Domino's", "height": null, "height_m": null, "levels": null, "tract_id": "40089098800", "tract_name": "988", "tags": {"addr:city": "Idabel", "addr:housenumber": "2019", "addr:postcode": "74745", "addr:state": "OK", "addr:street": "Southeast Washington Street", "amenity": "fast_food", "brand": "Domino's", "brand:wikidata": "Q839466", "building": "yes", "cuisine": "pizza", "name": "Domino's", "opening_hours": "Mo-Th 10:30-24:00; Fr-Sa 10:30-01:00; Su 10:30-24:00", "phone": "+1 580-376-4040", "ref": "6401", "takeaway": "yes", "website": "https://pizza.dominos.com/oklahoma/idabel/2019-se-washington-st"}}}, {"type": "Feature", "geometry": {"type": "Polygon", "coordinates": [[[-94.7980994, 33.8959008], [-94.79796, 33.8959005], [-94.7979604, 33.8957497], [-94.7980998, 33.89575], [-94.7980994, 33.8959008]]]}, "properties": {"osm_id": 1056341162, "building": "yes", "name": "May's Home Care", "height": null, "height_m": null, "levels": null, "tract_id": "40089098800", "tract_name": "988", "tags": {"building": "yes", "health_facility:type": "office", "healthcare": "yes", "name": "May's Home Care"}}}, {"type": "Feature", "geometry": {"type": "Polygon", "coordinates": [[[-94.7982312, 33.8960569], [-94.798093, 33.8960551], [-94.7980955, 33.8959276], [-94.7982337, 33.8959295], [-94.7982312, 33.8960569]]]}, "properties": {"osm_id": 1056341163, "building": "yes", "name": "", "height": null, "height_m": null, "levels": null, "tract_id": "40089098800", "tract_name": "988", "tags": {"building": "yes"}}}, {"type": "Feature", "geometry": {"type": "Polygon", "coordinates": [[[-94.7978694, 33.8959101], [-94.7978225, 33.8959102], [-94.7978226, 33.8959682], [-94.7977806, 33.8959682], [-94.7977805, 33.8959071], [-94.7976999, 33.8959072], [-94.7976996, 33.8957314], [-94.797869, 33.8957311], [-94.7978694, 33.8959101]]]}, "properties": {"osm_id": 1056341164, "building": "yes", "name": "", "height": null, "height_m": null, "levels": null, "tract_id": "40089098800", "tract_name": "988", "tags": {"building": "yes"}}}, {"type": "Feature", "geometry": {"type": "Polygon", "coordinates": [[[-94.7979161, 33.8952198], [-94.7975633, 33.8952168], [-94.7975651, 33.8950776], [-94.7979124, 33.8950795], [-94.7979161, 33.8952198]]]}, "properties": {"osm_id": 1056341165, "building": "yes", "name": "", "height": null, "height_m": null, "levels": null, "tract_id": "40089098800", "tract_name": "988", "tags": {"building": "yes"}}}, {"type": "Feature", "geometry": {"type": "Polygon", "coordinates": [[[-94.7986061, 33.8952026], [-94.7983332, 33.8952001], [-94.7983376, 33.8948573], [-94.7986105, 33.8948597], [-94.7986061, 33.8952026]]]}, "properties": {"osm_id": 1056341166, "building": "yes", "name": "", "height": null, "height_m": null, "levels": null, "tract_id": "40089098800", "tract_name": "988", "tags": {"building": "yes"}}}, {"type": "Feature", "geometry": {"type": "Polygon", "coordinates": [[[-94.7979192, 33.8948428], [-94.7977482, 33.894844], [-94.7977504, 33.8945702], [-94.7979187, 33.8945734], [-94.7979192, 33.8948428]]]}, "properties": {"osm_id": 1056341167, "building": "yes", "name": "", "height": null, "height_m": null, "levels": null, "tract_id": "40089098800", "tract_name": "988", "tags": {"building": "yes"}}}, {"type": "Feature", "geometry": {"type": "Polygon", "coordinates": [[[-94.7985897, 33.8947482], [-94.798337, 33.8947494], [-94.7983351, 33.894499], [-94.7985879, 33.8944977], [-94.7985897, 33.8947482]]]}, "properties": {"osm_id": 1056341168, "building": "yes", "name": "", "height": null, "height_m": null, "levels": null, "tract_id": "40089098800", "tract_name": "988", "tags": {"building": "yes"}}}, {"type": "Feature", "geometry": {"type": "Polygon", "coordinates": [[[-94.7979247, 33.8944055], [-94.7977874, 33.8944063], [-94.7977857, 33.8941865], [-94.7979229, 33.8941858], [-94.7979247, 33.8944055]]]}, "properties": {"osm_id": 1056341169, "building": "yes", "name": "", "height": null, "height_m": null, "levels": null, "tract_id": "40089098800", "tract_name": "988", "tags": {"building": "yes"}}}, {"type": "Feature", "geometry": {"type": "Polygon", "coordinates": [[[-94.8265657, 33.8942293], [-94.8263958, 33.8939536], [-94.8266174, 33.8938594], [-94.8267293, 33.8940409], [-94.8265747, 33.8941066], [-94.8266328, 33.8942008], [-94.8265657, 33.8942293]]]}, "properties": {"osm_id": 1060068081, "building": "yes", "name": "", "height": null, "height_m": null, "levels": null, "tract_id": "40089098800", "tract_name": "988", "tags": {"addr:city": "Idabel", "addr:housenumber": "6", "addr:postcode": "74745", "addr:state": "OK", "addr:street": "Southeast Washington Street", "building": "yes"}}}, {"type": "Feature", "geometry": {"type": "Polygon", "coordinates": [[[-94.8282694, 33.8959262], [-94.8279773, 33.896048], [-94.8279217, 33.8959563], [-94.8279378, 33.8959496], [-94.8282138, 33.8958344], [-94.8282694, 33.8959262]]]}, "properties": {"osm_id": 1077783375, "building": "yes", "name": "", "height": null, "height_m": null, "levels": null, "tract_id": "40089098800", "tract_name": "988", "tags": {"building": "yes"}}}, {"type": "Feature", "geometry": {"type": "Polygon", "coordinates": [[[-94.8282138, 33.8958344], [-94.8279378, 33.8959496], [-94.8278476, 33.8958202], [-94.8281353, 33.8957063], [-94.8282138, 33.8958344]]]}, "properties": {"osm_id": 1077783376, "building": "yes", "name": "", "height": null, "height_m": null, "levels": null, "tract_id": "40089098800", "tract_name": "988", "tags": {"building": "yes"}}}, {"type": "Feature", "geometry": {"type": "Polygon", "coordinates": [[[-94.8281353, 33.8957063], [-94.8278476, 33.8958202], [-94.8278445, 33.8957601], [-94.8281007, 33.8956566], [-94.8281353, 33.8957063]]]}, "properties": {"osm_id": 1077783377, "building": "yes", "name": "", "height": null, "height_m": null, "levels": null, "tract_id": "40089098800", "tract_name": "988", "tags": {"building": "yes"}}}, {"type": "Feature", "geometry": {"type": "Polygon", "coordinates": [[[-94.8281007, 33.8956566], [-94.8278445, 33.8957601], [-94.827806, 33.8956974], [-94.8280646, 33.895588], [-94.8281007, 33.8956566]]]}, "properties": {"osm_id": 1077783378, "building": "yes", "name": "", "height": null, "height_m": null, "levels": null, "tract_id": "40089098800", "tract_name": "988", "tags": {"building": "yes"}}}, {"type": "Feature", "geometry": {"type": "Polygon", "coordinates": [[[-94.8280148, 33.8955385], [-94.8277351, 33.8956607], [-94.8276522, 33.89553], [-94.8278411, 33.8954487], [-94.8279404, 33.8954103], [-94.8280148, 33.8955385]]]}, "properties": {"osm_id": 1077783379, "building": "yes", "name": "", "height": null, "height_m": null, "levels": null, "tract_id": "40089098800", "tract_name": "988", "tags": {"building": "yes"}}}, {"type": "Feature", "geometry": {"type": "Polygon", "coordinates": [[[-94.8279404, 33.8954103], [-94.8278411, 33.8954487], [-94.8278403, 33.8954404], [-94.8277092, 33.8952334], [-94.827813, 33.895183], [-94.8279404, 33.8954103]]]}, "properties": {"osm_id": 1077783380, "building": "yes", "name": "", "height": null, "height_m": null, "levels": null, "tract_id": "40089098800", "tract_name": "988", "tags": {"building": "yes"}}}, {"type": "Feature", "geometry": {"type": "Polygon", "coordinates": [[[-94.8283373, 33.8960851], [-94.8282976, 33.8960762], [-94.8280913, 33.8961644], [-94.8281374, 33.8962383], [-94.828373, 33.8961404], [-94.8283373, 33.8960851]]]}, "properties": {"osm_id": 1077783381, "building": "yes", "name": "", "height": null, "height_m": null, "levels": null, "tract_id": "40089098800", "tract_name": "988", "tags": {"building": "yes"}}}, {"type": "Feature", "geometry": {"type": "Polygon", "coordinates": [[[-94.828373, 33.8961404], [-94.828405, 33.896198], [-94.8281428, 33.8963046], [-94.8281088, 33.8962502], [-94.8281374, 33.8962383], [-94.828373, 33.8961404]]]}, "properties": {"osm_id": 1077783382, "building": "yes", "name": "", "height": null, "height_m": null, "levels": null, "tract_id": "40089098800", "tract_name": "988", "tags": {"building": "yes"}}}, {"type": "Feature", "geometry": {"type": "Polygon", "coordinates": [[[-94.828405, 33.896198], [-94.8281428, 33.8963046], [-94.8281305, 33.8963096], [-94.8281624, 33.8963649], [-94.8284384, 33.8962506], [-94.828405, 33.896198]]]}, "properties": {"osm_id": 1077783383, "building": "yes", "name": "", "height": null, "height_m": null, "levels": null, "tract_id": "40089098800", "tract_name": "988", "tags": {"building": "yes"}}}, {"type": "Feature", "geometry": {"type": "Polygon", "coordinates": [[[-94.8284384, 33.8962506], [-94.8284791, 33.8963182], [-94.8280859, 33.8964813], [-94.8280452, 33.8964137], [-94.8284384, 33.8962506]]]}, "properties": {"osm_id": 1077783384, "building": "yes", "name": "", "height": null, "height_m": null, "levels": null, "tract_id": "40089098800", "tract_name": "988", "tags": {"building": "yes"}}}, {"type": "Feature", "geometry": {"type": "Polygon", "coordinates": [[[-94.828498, 33.8964296], [-94.8284297, 33.8964578], [-94.8284117, 33.8964279], [-94.8283466, 33.8964549], [-94.8283641, 33.896484], [-94.8283366, 33.8964954], [-94.8283236, 33.8964737], [-94.8282776, 33.8964928], [-94.8282899, 33.8965132], [-94.8282448, 33.8965319], [-94.8282302, 33.8965077], [-94.8281706, 33.8965324], [-94.8282493, 33.8966631], [-94.8282021, 33.8966827], [-94.8282146, 33.8966924], [-94.8282064, 33.8966996], [-94.8283218, 33.8968921], [-94.8283386, 33.8968852], [-94.8283467, 33.8968987], [-94.8283836, 33.8968835], [-94.8284513, 33.8969963], [-94.8284858, 33.896982], [-94.8287361, 33.8968786], [-94.8287698, 33.8968647], [-94.828664, 33.8966882], [-94.8286083, 33.8967112], [-94.8285994, 33.8966964], [-94.8286604, 33.8966712], [-94.828629, 33.8966188], [-94.8285612, 33.8966469], [-94.8285442, 33.8966186], [-94.8285981, 33.8965962], [-94.828498, 33.8964296]]]}, "properties": {"osm_id": 1077783385, "building": "yes", "name": "MCCurtain County Courthouse", "height": null, "height_m": null, "levels": null, "tract_id": "40089098800", "tract_name": "988", "tags": {"addr:city": "Idabel", "addr:housenumber": "108", "addr:postbox": "P.O. Box 1378", "addr:postcode": "74745", "addr:state": "OK", "addr:street": "North Central Avenue", "amenity": "courthouse", "building": "yes", "designation": "courthouse, government building", "email": "kathy.gray@oscn.net", "name": "MCCurtain County Courthouse", "phone": "580-286-3693;580-286-4950", "source": "Personal Knowledge"}}}, {"type": "Feature", "geometry": {"type": "Polygon", "coordinates": [[[-94.8284858, 33.896982], [-94.8285262, 33.8970482], [-94.8284568, 33.8970774], [-94.8284822, 33.8971191], [-94.8285171, 33.8971044], [-94.8285516, 33.8971608], [-94.8285465, 33.8971799], [-94.8286258, 33.8973109], [-94.8286932, 33.8972828], [-94.8287088, 33.8973086], [-94.8286814, 33.8973201], [-94.828698, 33.8973475], [-94.8287338, 33.8973325], [-94.8287525, 33.8973634], [-94.8289847, 33.8972663], [-94.828967, 33.8972371], [-94.8290017, 33.8972225], [-94.8288894, 33.8970377], [-94.828857, 33.8970513], [-94.8288406, 33.8970243], [-94.8287949, 33.8970435], [-94.8287857, 33.8970284], [-94.8288276, 33.8970108], [-94.8288131, 33.8969871], [-94.8288306, 33.8969348], [-94.828808, 33.8968979], [-94.8287602, 33.8969181], [-94.8287361, 33.8968786], [-94.8284858, 33.896982]]]}, "properties": {"osm_id": 1077783386, "building": "yes", "name": "McCurtain County Sheriff's Department/Jail", "height": null, "height_m": null, "levels": null, "tract_id": "40089098800", "tract_name": "988", "tags": {"addr:city": "Idabel", "addr:housenumber": "207", "addr:postcode": "74745", "addr:state": "OK", "addr:street": "North Central Avenue", "amenity": "police", "building": "yes", "designation": "law enforcement, penal institution", "name": "McCurtain County Sheriff's Department/Jail", "source": "Personal Knowledge"}}}, {"type": "Feature", "geometry": {"type": "Polygon", "coordinates": [[[-94.8297946, 33.8971483], [-94.8295295, 33.8967085], [-94.829852, 33.8965719], [-94.8301416, 33.8970626], [-94.829946, 33.8971322], [-94.829921, 33.8970961], [-94.8297946, 33.8971483]]]}, "properties": {"osm_id": 1155415109, "building": "yes", "name": "Idabel Post Office", "height": null, "height_m": null, "levels": null, "tract_id": "40089098800", "tract_name": "988", "tags": {"amenity": "post_office", "building": "yes", "name": "Idabel Post Office", "operator": "US Governmenr", "source": "Personal Knowledge"}}}, {"type": "Feature", "geometry": {"type": "Polygon", "coordinates": [[[-94.8271537, 33.8951754], [-94.8269541, 33.8948458], [-94.8271089, 33.8947813], [-94.8273085, 33.8951108], [-94.8271537, 33.8951754]]]}, "properties": {"osm_id": 1155917942, "building": "yes", "name": "", "height": null, "height_m": null, "levels": null, "tract_id": "40089098800", "tract_name": "988", "tags": {"building": "yes"}}}, {"type": "Feature", "geometry": {"type": "Polygon", "coordinates": [[[-94.8274751, 33.8950413], [-94.8273187, 33.894783], [-94.8272614, 33.8946884], [-94.8270948, 33.8947579], [-94.8271089, 33.8947813], [-94.8273085, 33.8951108], [-94.8274751, 33.8950413]]]}, "properties": {"osm_id": 1155917943, "building": "yes", "name": "", "height": null, "height_m": null, "levels": null, "tract_id": "40089098800", "tract_name": "988", "tags": {"building": "yes"}}}, {"type": "Feature", "geometry": {"type": "Polygon", "coordinates": [[[-94.8276792, 33.8949562], [-94.8275228, 33.8946978], [-94.8273951, 33.8947511], [-94.8275515, 33.8950094], [-94.8276792, 33.8949562]]]}, "properties": {"osm_id": 1155917944, "building": "yes", "name": "", "height": null, "height_m": null, "levels": null, "tract_id": "40089098800", "tract_name": "988", "tags": {"building": "yes"}}}, {"type": "Feature", "geometry": {"type": "Polygon", "coordinates": [[[-94.8275515, 33.8950094], [-94.8274751, 33.8950413], [-94.8273187, 33.894783], [-94.8273951, 33.8947511], [-94.8275515, 33.8950094]]]}, "properties": {"osm_id": 1155917945, "building": "yes", "name": "", "height": null, "height_m": null, "levels": null, "tract_id": "40089098800", "tract_name": "988", "tags": {"building": "yes"}}}, {"type": "Feature", "geometry": {"type": "Polygon", "coordinates": [[[-94.8272025, 33.894655], [-94.8271357, 33.8945475], [-94.8273636, 33.8944499], [-94.8274304, 33.8945574], [-94.8272025, 33.894655]]]}, "properties": {"osm_id": 1155917946, "building": "yes", "name": "", "height": null, "height_m": null, "levels": null, "tract_id": "40089098800", "tract_name": "988", "tags": {"building": "yes"}}}, {"type": "Feature", "geometry": {"type": "Polygon", "coordinates": [[[-94.8273636, 33.8944499], [-94.8272894, 33.8943289], [-94.8269958, 33.8944485], [-94.827069, 33.8945723], [-94.8271357, 33.8945475], [-94.8273636, 33.8944499]]]}, "properties": {"osm_id": 1155917947, "building": "yes", "name": "", "height": null, "height_m": null, "levels": null, "tract_id": "40089098800", "tract_name": "988", "tags": {"building": "yes"}}}, {"type": "Feature", "geometry": {"type": "Polygon", "coordinates": [[[-94.8264924, 33.8946655], [-94.826702, 33.8945724], [-94.8266314, 33.894463], [-94.8264219, 33.8945562], [-94.8264924, 33.8946655]]]}, "properties": {"osm_id": 1155917948, "building": "yes", "name": "", "height": null, "height_m": null, "levels": null, "tract_id": "40089098800", "tract_name": "988", "tags": {"building": "yes"}}}, {"type": "Feature", "geometry": {"type": "Polygon", "coordinates": [[[-94.8268476, 33.8948019], [-94.8267272, 33.8945959], [-94.8268409, 33.8945486], [-94.826944, 33.8947238], [-94.8269634, 33.8947552], [-94.8268476, 33.8948019]]]}, "properties": {"osm_id": 1155917949, "building": "yes", "name": "", "height": null, "height_m": null, "levels": null, "tract_id": "40089098800", "tract_name": "988", "tags": {"building": "yes"}}}, {"type": "Feature", "geometry": {"type": "Polygon", "coordinates": [[[-94.8270828, 33.8946676], [-94.8269797, 33.8944923], [-94.8268409, 33.8945486], [-94.826944, 33.8947238], [-94.8270828, 33.8946676]]]}, "properties": {"osm_id": 1155917950, "building": "yes", "name": "", "height": null, "height_m": null, "levels": null, "tract_id": "40089098800", "tract_name": "988", "tags": {"building": "yes"}}}, {"type": "Feature", "geometry": {"type": "Polygon", "coordinates": [[[-94.796441, 33.8841348], [-94.796415, 33.8838581], [-94.7961755, 33.8838735], [-94.7961783, 33.8839037], [-94.796097, 33.8839089], [-94.7961202, 33.8841556], [-94.796441, 33.8841348]]]}, "properties": {"osm_id": 1160213653, "building": "yes", "name": "", "height": null, "height_m": null, "levels": null, "tract_id": "40089098800", "tract_name": "988", "tags": {"building": "yes"}}}, {"type": "Feature", "geometry": {"type": "Polygon", "coordinates": [[[-94.7958308, 33.8841391], [-94.7958318, 33.8840344], [-94.7955042, 33.8840323], [-94.7955032, 33.884137], [-94.7958308, 33.8841391]]]}, "properties": {"osm_id": 1160213654, "building": "yes", "name": "", "height": null, "height_m": null, "levels": null, "tract_id": "40089098800", "tract_name": "988", "tags": {"building": "yes"}}}, {"type": "Feature", "geometry": {"type": "Polygon", "coordinates": [[[-94.7954336, 33.8841016], [-94.7954325, 33.8840425], [-94.7950229, 33.8840476], [-94.7950239, 33.8841066], [-94.7954336, 33.8841016]]]}, "properties": {"osm_id": 1160213655, "building": "yes", "name": "", "height": null, "height_m": null, "levels": null, "tract_id": "40089098800", "tract_name": "988", "tags": {"building": "yes"}}}, {"type": "Feature", "geometry": {"type": "Polygon", "coordinates": [[[-94.7950226, 33.8838399], [-94.7950194, 33.883775], [-94.7954595, 33.8837603], [-94.7954626, 33.8838251], [-94.7950226, 33.8838399]]]}, "properties": {"osm_id": 1160213656, "building": "yes", "name": "", "height": null, "height_m": null, "levels": null, "tract_id": "40089098800", "tract_name": "988", "tags": {"building": "yes"}}}, {"type": "Feature", "geometry": {"type": "Polygon", "coordinates": [[[-94.7950757, 33.8836609], [-94.795071, 33.8835948], [-94.7954922, 33.8835743], [-94.7954969, 33.8836405], [-94.7950757, 33.8836609]]]}, "properties": {"osm_id": 1160213657, "building": "yes", "name": "", "height": null, "height_m": null, "levels": null, "tract_id": "40089098800", "tract_name": "988", "tags": {"building": "yes"}}}, {"type": "Feature", "geometry": {"type": "Polygon", "coordinates": [[[-94.7953528, 33.883145], [-94.7955388, 33.8830227], [-94.7956059, 33.883086], [-94.7954331, 33.8832058], [-94.7953528, 33.883145]]]}, "properties": {"osm_id": 1160213658, "building": "yes", "name": "", "height": null, "height_m": null, "levels": null, "tract_id": "40089098800", "tract_name": "988", "tags": {"building": "yes"}}}, {"type": "Feature", "geometry": {"type": "Polygon", "coordinates": [[[-94.7952522, 33.8832699], [-94.7952664, 33.8832446], [-94.7951963, 33.8832218], [-94.7951821, 33.8832429], [-94.7952522, 33.8832699]]]}, "properties": {"osm_id": 1160213659, "building": "yes", "name": "", "height": null, "height_m": null, "levels": null, "tract_id": "40089098800", "tract_name": "988", "tags": {"building": "yes"}}}, {"type": "Feature", "geometry": {"type": "Polygon", "coordinates": [[[-94.7906539, 33.8833771], [-94.7906632, 33.8831163], [-94.790885, 33.8831111], [-94.7908819, 33.8833848], [-94.7906539, 33.8833771]]]}, "properties": {"osm_id": 1160213662, "building": "yes", "name": "", "height": null, "height_m": null, "levels": null, "tract_id": "40089098800", "tract_name": "988", "tags": {"building": "yes"}}}, {"type": "Feature", "geometry": {"type": "Polygon", "coordinates": [[[-94.7906817, 33.8830446], [-94.7906046, 33.8828119], [-94.7908296, 33.882753], [-94.7908973, 33.8829986], [-94.7906817, 33.8830446]]]}, "properties": {"osm_id": 1160213663, "building": "yes", "name": "", "height": null, "height_m": null, "levels": null, "tract_id": "40089098800", "tract_name": "988", "tags": {"building": "yes"}}}, {"type": "Feature", "geometry": {"type": "Polygon", "coordinates": [[[-94.8285342, 33.8953239], [-94.8284533, 33.8951944], [-94.8282545, 33.8952799], [-94.8283353, 33.8954094], [-94.8285342, 33.8953239]]]}, "properties": {"osm_id": 1163485230, "building": "yes", "name": "", "height": null, "height_m": null, "levels": null, "tract_id": "40089098800", "tract_name": "988", "tags": {"building": "yes"}}}, {"type": "Feature", "geometry": {"type": "Polygon", "coordinates": [[[-94.8088652, 33.8805297], [-94.8084917, 33.8805236], [-94.8084897, 33.8806065], [-94.8088632, 33.8806127], [-94.8088652, 33.8805297]]]}, "properties": {"osm_id": 1163582105, "building": "roof", "name": "Shell", "height": null, "height_m": null, "levels": null, "tract_id": "40089098800", "tract_name": "988", "tags": {"amenity": "fuel", "brand": "Shell", "brand:wikidata": "Q110716465", "building": "roof", "name": "Shell"}}}, {"type": "Feature", "geometry": {"type": "Polygon", "coordinates": [[[-94.8088455, 33.88041], [-94.8086089, 33.8804074], [-94.808611, 33.8802744], [-94.8088477, 33.8802771], [-94.8088455, 33.88041]]]}, "properties": {"osm_id": 1163582106, "building": "retail", "name": "", "height": null, "height_m": null, "levels": null, "tract_id": "40089098800", "tract_name": "988", "tags": {"building": "retail"}}}, {"type": "Feature", "geometry": {"type": "Polygon", "coordinates": [[[-94.8096146, 33.8816297], [-94.8093257, 33.881627], [-94.8093298, 33.8813186], [-94.8096188, 33.8813213], [-94.8096146, 33.8816297]]]}, "properties": {"osm_id": 1163582107, "building": "yes", "name": "", "height": null, "height_m": null, "levels": null, "tract_id": "40089098800", "tract_name": "988", "tags": {"building": "yes"}}}, {"type": "Feature", "geometry": {"type": "Polygon", "coordinates": [[[-94.8098871, 33.8817166], [-94.8098877, 33.8811571], [-94.8100686, 33.8811572], [-94.8100682, 33.8817167], [-94.8098871, 33.8817166]]]}, "properties": {"osm_id": 1163582108, "building": "yes", "name": "", "height": null, "height_m": null, "levels": null, "tract_id": "40089098800", "tract_name": "988", "tags": {"building": "yes"}}}, {"type": "Feature", "geometry": {"type": "Polygon", "coordinates": [[[-94.8293105, 33.8945303], [-94.8291738, 33.8945887], [-94.8289973, 33.8943036], [-94.829134, 33.8942453], [-94.8293105, 33.8945303]]]}, "properties": {"osm_id": 1163582114, "building": "yes", "name": "", "height": null, "height_m": null, "levels": null, "tract_id": "40089098800", "tract_name": "988", "tags": {"building": "yes"}}}, {"type": "Feature", "geometry": {"type": "Polygon", "coordinates": [[[-94.8196171, 33.8802607], [-94.8196416, 33.8802608], [-94.8196497, 33.8799145], [-94.8198532, 33.8799156], [-94.8198625, 33.8799211], [-94.8198666, 33.8799312], [-94.8199216, 33.8799312], [-94.8199216, 33.8799768], [-94.8199863, 33.8799791], [-94.8199836, 33.8802941], [-94.8203185, 33.8802941], [-94.8203199, 33.8804355], [-94.8203413, 33.8804378], [-94.82034, 33.8805208], [-94.8204379, 33.8805213], [-94.8204367, 33.8805802], [-94.8204339, 33.8806582], [-94.8205629, 33.8806661], [-94.8205626, 33.8807005], [-94.8202327, 33.8806961], [-94.8202045, 33.880686], [-94.8201482, 33.8806537], [-94.8200946, 33.8806983], [-94.8200704, 33.8806972], [-94.8200127, 33.8806493], [-94.8199631, 33.8806816], [-94.8199122, 33.8806938], [-94.8196319, 33.8806916], [-94.8196333, 33.8805915], [-94.8196156, 33.8805915], [-94.8196171, 33.8802607]]]}, "properties": {"osm_id": 1180517014, "building": "yes", "name": "", "height": null, "height_m": null, "levels": null, "tract_id": "40089098800", "tract_name": "988", "tags": {"building": "yes"}}}, {"type": "Feature", "geometry": {"type": "Polygon", "coordinates": [[[-94.8136918, 33.8949834], [-94.8136014, 33.8949802], [-94.8136029, 33.8949493], [-94.8135864, 33.8949487], [-94.8135883, 33.8949124], [-94.8136104, 33.8949132], [-94.8136119, 33.8948854], [-94.8136268, 33.894886], [-94.8136273, 33.8948772], [-94.8136407, 33.8948777], [-94.8136402, 33.8948865], [-94.8136967, 33.8948885], [-94.8136918, 33.8949834]]]}, "properties": {"osm_id": 1181782237, "building": "yes", "name": "Punkins Coffee House and Eatery", "height": null, "height_m": null, "levels": null, "tract_id": "40089098800", "tract_name": "988", "tags": {"addr:city": "Idabel", "addr:housenumber": "103", "addr:postcode": "74745", "addr:state": "OK", "addr:street": "Southeast North Avenue", "amenity": "cafe", "building": "yes", "cuisine": "coffee_shop", "drive_through": "yes", "name": "Punkins Coffee House and Eatery", "opening_hours": "Mo-Th 07:00-15:30; Fr 07:00-17:30; Sa 07:00-14:00", "outdoor_seating": "yes", "phone": "(580) 245-6888", "website": "https://shop.joe.coffee/explore/stores/72933be5-7a3d-489a-9b80-e15bc54f9fca"}}}, {"type": "Feature", "geometry": {"type": "Polygon", "coordinates": [[[-94.790603, 33.8914096], [-94.790594, 33.8914546], [-94.7905795, 33.8914526], [-94.7905673, 33.8915136], [-94.7906036, 33.8915187], [-94.7905869, 33.8916016], [-94.7905524, 33.8915968], [-94.7905274, 33.8917207], [-94.7905465, 33.8917234], [-94.7905376, 33.8917671], [-94.7905707, 33.8917718], [-94.7905757, 33.8917475], [-94.7906747, 33.8917614], [-94.7906678, 33.8917954], [-94.7906774, 33.8917968], [-94.7906719, 33.8918232], [-94.7906613, 33.8918216], [-94.7906531, 33.8918607], [-94.7905465, 33.8918453], [-94.7905517, 33.8918205], [-94.7905314, 33.8918175], [-94.7905226, 33.8918593], [-94.7905007, 33.8918561], [-94.7904763, 33.8919727], [-94.7905029, 33.8919766], [-94.7904847, 33.8920635], [-94.7904525, 33.8920589], [-94.7904422, 33.8921088], [-94.7904563, 33.8921108], [-94.7904457, 33.8921624], [-94.790392, 33.8921548], [-94.790394, 33.892145], [-94.7902357, 33.8921229], [-94.7902418, 33.8920929], [-94.7902224, 33.8920902], [-94.7902353, 33.8920258], [-94.7902151, 33.892023], [-94.7902309, 33.8919442], [-94.7902525, 33.8919471], [-94.7902698, 33.8918601], [-94.7902044, 33.8918512], [-94.7902182, 33.8917818], [-94.790273, 33.8917893], [-94.7902898, 33.891704], [-94.7902304, 33.8916959], [-94.7902436, 33.8916294], [-94.7903101, 33.8916385], [-94.7903248, 33.8915639], [-94.7903044, 33.8915611], [-94.79032, 33.8914821], [-94.7903456, 33.8914856], [-94.7903599, 33.8914135], [-94.7903903, 33.8914177], [-94.7903949, 33.8913943], [-94.7905535, 33.891416], [-94.7905561, 33.8914032], [-94.790603, 33.8914096]]]}, "properties": {"osm_id": 1228090781, "building": "yes", "name": "Comfort Inn & Suites", "height": null, "height_m": null, "levels": null, "tract_id": "40089098800", "tract_name": "988", "tags": {"addr:city": "Idabel", "addr:housenumber": "400", "addr:postcode": "74745", "addr:state": "OK", "addr:street": "Southeast Lincoln Road", "branch": "Idabel", "brand": "Comfort Inn & Suites", "brand:wikidata": "Q113152349", "building": "yes", "name": "Comfort Inn & Suites", "phone": "+1 580-245-6546", "ref": "OK120", "tourism": "hotel", "website": "https://www.choicehotels.com/oklahoma/idabel/comfort-suites-hotels"}}}, {"type": "Feature", "geometry": {"type": "Polygon", "coordinates": [[[-94.7965388, 33.8842791], [-94.7965465, 33.8844241], [-94.7964636, 33.8844271], [-94.7964559, 33.8842821], [-94.7965388, 33.8842791]]]}, "properties": {"osm_id": 1349861040, "building": "yes", "name": "", "height": null, "height_m": null, "levels": null, "tract_id": "40089098800", "tract_name": "988", "tags": {"building": "yes"}}}, {"type": "Feature", "geometry": {"type": "Polygon", "coordinates": [[[-94.7954341, 33.883884], [-94.795435, 33.8839532], [-94.795513, 33.8839525], [-94.7955121, 33.8838833], [-94.7954341, 33.883884]]]}, "properties": {"osm_id": 1349861041, "building": "yes", "name": "", "height": null, "height_m": null, "levels": null, "tract_id": "40089098800", "tract_name": "988", "tags": {"building": "yes"}}}, {"type": "Feature", "geometry": {"type": "Polygon", "coordinates": [[[-94.7918821, 33.8777935], [-94.791927, 33.877903], [-94.7920236, 33.8778757], [-94.7919787, 33.8777662], [-94.7918821, 33.8777935]]]}, "properties": {"osm_id": 1349861050, "building": "house", "name": "", "height": null, "height_m": null, "levels": null, "tract_id": "40089098800", "tract_name": "988", "tags": {"building": "house"}}}, {"type": "Feature", "geometry": {"type": "Polygon", "coordinates": [[[-94.7920402, 33.8777506], [-94.7920707, 33.8778605], [-94.792174, 33.8778408], [-94.7921435, 33.8777308], [-94.7920402, 33.8777506]]]}, "properties": {"osm_id": 1349861051, "building": "house", "name": "", "height": null, "height_m": null, "levels": null, "tract_id": "40089098800", "tract_name": "988", "tags": {"building": "house"}}}, {"type": "Feature", "geometry": {"type": "Polygon", "coordinates": [[[-94.7922015, 33.8778385], [-94.7923049, 33.8778387], [-94.7923052, 33.8777252], [-94.7922019, 33.877725], [-94.7922015, 33.8778385]]]}, "properties": {"osm_id": 1349861052, "building": "house", "name": "", "height": null, "height_m": null, "levels": null, "tract_id": "40089098800", "tract_name": "988", "tags": {"building": "house"}}}, {"type": "Feature", "geometry": {"type": "Polygon", "coordinates": [[[-94.7923561, 33.8778384], [-94.7924595, 33.8778387], [-94.7924598, 33.8777252], [-94.7923565, 33.877725], [-94.7923561, 33.8778384]]]}, "properties": {"osm_id": 1349861053, "building": "house", "name": "", "height": null, "height_m": null, "levels": null, "tract_id": "40089098800", "tract_name": "988", "tags": {"building": "house"}}}, {"type": "Feature", "geometry": {"type": "Polygon", "coordinates": [[[-94.792656, 33.8778364], [-94.7927594, 33.8778366], [-94.7927597, 33.8777232], [-94.7926564, 33.8777229], [-94.792656, 33.8778364]]]}, "properties": {"osm_id": 1349861054, "building": "house", "name": "", "height": null, "height_m": null, "levels": null, "tract_id": "40089098800", "tract_name": "988", "tags": {"building": "house"}}}, {"type": "Feature", "geometry": {"type": "Polygon", "coordinates": [[[-94.7928059, 33.8778364], [-94.7929093, 33.8778366], [-94.7929096, 33.8777232], [-94.7928063, 33.8777229], [-94.7928059, 33.8778364]]]}, "properties": {"osm_id": 1349861055, "building": "house", "name": "", "height": null, "height_m": null, "levels": null, "tract_id": "40089098800", "tract_name": "988", "tags": {"building": "house"}}}, {"type": "Feature", "geometry": {"type": "Polygon", "coordinates": [[[-94.7925042, 33.8778364], [-94.7926076, 33.8778366], [-94.7926079, 33.8777232], [-94.7925046, 33.8777229], [-94.7925042, 33.8778364]]]}, "properties": {"osm_id": 1349861056, "building": "house", "name": "", "height": null, "height_m": null, "levels": null, "tract_id": "40089098800", "tract_name": "988", "tags": {"building": "house"}}}, {"type": "Feature", "geometry": {"type": "Polygon", "coordinates": [[[-94.7931949, 33.8776959], [-94.7931942, 33.877772], [-94.793242, 33.8777723], [-94.7932419, 33.8777867], [-94.7933141, 33.8777872], [-94.7933142, 33.877773], [-94.7933652, 33.8777733], [-94.7933659, 33.877697], [-94.7931949, 33.8776959]]]}, "properties": {"osm_id": 1349861057, "building": "house", "name": "", "height": null, "height_m": null, "levels": null, "tract_id": "40089098800", "tract_name": "988", "tags": {"building": "house"}}}, {"type": "Feature", "geometry": {"type": "Polygon", "coordinates": [[[-94.7934575, 33.8776957], [-94.7934568, 33.8777718], [-94.7935046, 33.8777721], [-94.7935045, 33.8777865], [-94.7935767, 33.877787], [-94.7935768, 33.8777728], [-94.7936279, 33.8777731], [-94.7936285, 33.8776968], [-94.7934575, 33.8776957]]]}, "properties": {"osm_id": 1349861058, "building": "house", "name": "", "height": null, "height_m": null, "levels": null, "tract_id": "40089098800", "tract_name": "988", "tags": {"building": "house"}}}, {"type": "Feature", "geometry": {"type": "Polygon", "coordinates": [[[-94.793745, 33.8776948], [-94.7937221, 33.8777684], [-94.7937684, 33.8777783], [-94.793764, 33.8777923], [-94.7938339, 33.8778073], [-94.7938382, 33.8777935], [-94.7938876, 33.8778041], [-94.7939106, 33.8777303], [-94.793745, 33.8776948]]]}, "properties": {"osm_id": 1349861059, "building": "house", "name": "", "height": null, "height_m": null, "levels": null, "tract_id": "40089098800", "tract_name": "988", "tags": {"building": "house"}}}, {"type": "Feature", "geometry": {"type": "Polygon", "coordinates": [[[-94.7931047, 33.878151], [-94.7931962, 33.8781522], [-94.793197, 33.8781126], [-94.7932144, 33.8781128], [-94.7932156, 33.8780528], [-94.7931985, 33.8780526], [-94.7931993, 33.8780103], [-94.7931074, 33.878009], [-94.7931047, 33.878151]]]}, "properties": {"osm_id": 1349861060, "building": "house", "name": "", "height": null, "height_m": null, "levels": null, "tract_id": "40089098800", "tract_name": "988", "tags": {"building": "house"}}}, {"type": "Feature", "geometry": {"type": "Polygon", "coordinates": [[[-94.7931371, 33.8783833], [-94.7932274, 33.8783706], [-94.7932194, 33.8783315], [-94.7932365, 33.8783291], [-94.7932245, 33.87827], [-94.7932076, 33.8782724], [-94.7931991, 33.8782306], [-94.7931085, 33.8782434], [-94.7931371, 33.8783833]]]}, "properties": {"osm_id": 1349861061, "building": "house", "name": "", "height": null, "height_m": null, "levels": null, "tract_id": "40089098800", "tract_name": "988", "tags": {"building": "house"}}}, {"type": "Feature", "geometry": {"type": "Polygon", "coordinates": [[[-94.7931884, 33.8786084], [-94.793278, 33.8785926], [-94.7932681, 33.8785538], [-94.7932851, 33.8785508], [-94.7932702, 33.8784922], [-94.7932534, 33.8784951], [-94.7932429, 33.8784537], [-94.793153, 33.8784695], [-94.7931884, 33.8786084]]]}, "properties": {"osm_id": 1349861062, "building": "house", "name": "", "height": null, "height_m": null, "levels": null, "tract_id": "40089098800", "tract_name": "988", "tags": {"building": "house"}}}, {"type": "Feature", "geometry": {"type": "Polygon", "coordinates": [[[-94.7937046, 33.8783826], [-94.7936141, 33.8783942], [-94.7936213, 33.8784334], [-94.7936041, 33.8784356], [-94.7936151, 33.8784948], [-94.793632, 33.8784927], [-94.7936397, 33.8785345], [-94.7937306, 33.878523], [-94.7937046, 33.8783826]]]}, "properties": {"osm_id": 1349861063, "building": "house", "name": "", "height": null, "height_m": null, "levels": null, "tract_id": "40089098800", "tract_name": "988", "tags": {"building": "house"}}}, {"type": "Feature", "geometry": {"type": "Polygon", "coordinates": [[[-94.7937393, 33.8786355], [-94.7936477, 33.8786343], [-94.7936469, 33.8786739], [-94.7936295, 33.8786737], [-94.7936284, 33.8787336], [-94.7936455, 33.8787339], [-94.7936447, 33.8787762], [-94.7937365, 33.8787774], [-94.7937393, 33.8786355]]]}, "properties": {"osm_id": 1349861064, "building": "house", "name": "", "height": null, "height_m": null, "levels": null, "tract_id": "40089098800", "tract_name": "988", "tags": {"building": "house"}}}, {"type": "Feature", "geometry": {"type": "Polygon", "coordinates": [[[-94.7931969, 33.8788231], [-94.7932884, 33.8788197], [-94.7932863, 33.8787801], [-94.7933036, 33.8787794], [-94.7933004, 33.8787195], [-94.7932833, 33.8787202], [-94.793281, 33.8786778], [-94.7931892, 33.8786813], [-94.7931969, 33.8788231]]]}, "properties": {"osm_id": 1349861065, "building": "house", "name": "", "height": null, "height_m": null, "levels": null, "tract_id": "40089098800", "tract_name": "988", "tags": {"building": "house"}}}, {"type": "Feature", "geometry": {"type": "Polygon", "coordinates": [[[-94.7935857, 33.8780961], [-94.7935847, 33.8781619], [-94.793569, 33.8781618], [-94.7935681, 33.878226], [-94.7935881, 33.8782262], [-94.7935872, 33.8782926], [-94.7937669, 33.8782943], [-94.7937697, 33.8780985], [-94.7937093, 33.8780979], [-94.7937096, 33.8780782], [-94.7936709, 33.8780778], [-94.7936706, 33.878097], [-94.7935857, 33.8780961]]]}, "properties": {"osm_id": 1349861066, "building": "yes", "name": "", "height": null, "height_m": null, "levels": null, "tract_id": "40089098800", "tract_name": "988", "tags": {"building": "yes"}}}, {"type": "Feature", "geometry": {"type": "Polygon", "coordinates": [[[-94.7925999, 33.8780321], [-94.7926106, 33.8781162], [-94.7927456, 33.8781044], [-94.792735, 33.8780203], [-94.7925999, 33.8780321]]]}, "properties": {"osm_id": 1349861067, "building": "house", "name": "", "height": null, "height_m": null, "levels": null, "tract_id": "40089098800", "tract_name": "988", "tags": {"building": "house"}}}, {"type": "Feature", "geometry": {"type": "Polygon", "coordinates": [[[-94.7928306, 33.8782004], [-94.7927756, 33.8781292], [-94.7926613, 33.8781901], [-94.7927164, 33.8782613], [-94.7928306, 33.8782004]]]}, "properties": {"osm_id": 1349861068, "building": "house", "name": "", "height": null, "height_m": null, "levels": null, "tract_id": "40089098800", "tract_name": "988", "tags": {"building": "house"}}}, {"type": "Feature", "geometry": {"type": "Polygon", "coordinates": [[[-94.7927461, 33.8782914], [-94.7927749, 33.878371], [-94.7928848, 33.8783435], [-94.792856, 33.8782639], [-94.7927461, 33.8782914]]]}, "properties": {"osm_id": 1349861069, "building": "house", "name": "", "height": null, "height_m": null, "levels": null, "tract_id": "40089098800", "tract_name": "988", "tags": {"building": "house"}}}, {"type": "Feature", "geometry": {"type": "Polygon", "coordinates": [[[-94.7927941, 33.878417], [-94.7927695, 33.8784976], [-94.7928807, 33.878521], [-94.7929053, 33.8784404], [-94.7927941, 33.878417]]]}, "properties": {"osm_id": 1349861070, "building": "house", "name": "", "height": null, "height_m": null, "levels": null, "tract_id": "40089098800", "tract_name": "988", "tags": {"building": "house"}}}, {"type": "Feature", "geometry": {"type": "Polygon", "coordinates": [[[-94.7927841, 33.8786045], [-94.7928204, 33.878682], [-94.7929273, 33.8786475], [-94.792891, 33.87857], [-94.7927841, 33.8786045]]]}, "properties": {"osm_id": 1349861071, "building": "house", "name": "", "height": null, "height_m": null, "levels": null, "tract_id": "40089098800", "tract_name": "988", "tags": {"building": "house"}}}, {"type": "Feature", "geometry": {"type": "Polygon", "coordinates": [[[-94.7928514, 33.8787197], [-94.792894, 33.8787949], [-94.7929979, 33.8787544], [-94.7929553, 33.8786792], [-94.7928514, 33.8787197]]]}, "properties": {"osm_id": 1349861072, "building": "house", "name": "", "height": null, "height_m": null, "levels": null, "tract_id": "40089098800", "tract_name": "988", "tags": {"building": "house"}}}, {"type": "Feature", "geometry": {"type": "Polygon", "coordinates": [[[-94.7929565, 33.8791272], [-94.7929938, 33.8790501], [-94.7928874, 33.8790146], [-94.79285, 33.8790917], [-94.7929565, 33.8791272]]]}, "properties": {"osm_id": 1349861073, "building": "house", "name": "", "height": null, "height_m": null, "levels": null, "tract_id": "40089098800", "tract_name": "988", "tags": {"building": "house"}}}, {"type": "Feature", "geometry": {"type": "Polygon", "coordinates": [[[-94.7928295, 33.8792745], [-94.7928989, 33.8792146], [-94.7928161, 33.8791486], [-94.7927468, 33.8792086], [-94.7928295, 33.8792745]]]}, "properties": {"osm_id": 1349861074, "building": "house", "name": "", "height": null, "height_m": null, "levels": null, "tract_id": "40089098800", "tract_name": "988", "tags": {"building": "house"}}}, {"type": "Feature", "geometry": {"type": "Polygon", "coordinates": [[[-94.7926133, 33.879359], [-94.7927085, 33.8793333], [-94.7926731, 33.8792427], [-94.7925779, 33.8792683], [-94.7926133, 33.879359]]]}, "properties": {"osm_id": 1349861075, "building": "house", "name": "", "height": null, "height_m": null, "levels": null, "tract_id": "40089098800", "tract_name": "988", "tags": {"building": "house"}}}, {"type": "Feature", "geometry": {"type": "Polygon", "coordinates": [[[-94.7922384, 33.8793307], [-94.7923323, 33.8793596], [-94.7923721, 33.8792702], [-94.7922782, 33.8792414], [-94.7922384, 33.8793307]]]}, "properties": {"osm_id": 1349861076, "building": "house", "name": "", "height": null, "height_m": null, "levels": null, "tract_id": "40089098800", "tract_name": "988", "tags": {"building": "house"}}}, {"type": "Feature", "geometry": {"type": "Polygon", "coordinates": [[[-94.7922148, 33.8792006], [-94.792144, 33.8791419], [-94.7920629, 33.8792093], [-94.7921337, 33.879268], [-94.7922148, 33.8792006]]]}, "properties": {"osm_id": 1349861077, "building": "house", "name": "", "height": null, "height_m": null, "levels": null, "tract_id": "40089098800", "tract_name": "988", "tags": {"building": "house"}}}, {"type": "Feature", "geometry": {"type": "Polygon", "coordinates": [[[-94.7940096, 33.8792278], [-94.7940043, 33.8795029], [-94.7941356, 33.8795046], [-94.7941362, 33.8794724], [-94.7941744, 33.8794729], [-94.7941738, 33.8795067], [-94.7943931, 33.8795096], [-94.7943934, 33.8794969], [-94.7944404, 33.8794975], [-94.7944416, 33.8794322], [-94.7943852, 33.8794315], [-94.7943889, 33.8792368], [-94.7941755, 33.8792341], [-94.7941721, 33.8794116], [-94.794142, 33.8794112], [-94.7941455, 33.8792296], [-94.7940096, 33.8792278]]]}, "properties": {"osm_id": 1349861078, "building": "yes", "name": "", "height": null, "height_m": null, "levels": null, "tract_id": "40089098800", "tract_name": "988", "tags": {"building": "yes"}}}, {"type": "Feature", "geometry": {"type": "Polygon", "coordinates": [[[-94.7949328, 33.8801334], [-94.7949318, 33.8802849], [-94.7952875, 33.8802866], [-94.7952871, 33.8803536], [-94.7953897, 33.8803541], [-94.7953902, 33.8802879], [-94.7954639, 33.8802882], [-94.795465, 33.8801359], [-94.7949328, 33.8801334]]]}, "properties": {"osm_id": 1349861079, "building": "yes", "name": "", "height": null, "height_m": null, "levels": null, "tract_id": "40089098800", "tract_name": "988", "tags": {"building": "yes"}}}, {"type": "Feature", "geometry": {"type": "Polygon", "coordinates": [[[-94.7936538, 33.8800377], [-94.7936535, 33.8802897], [-94.7938688, 33.8802899], [-94.7938686, 33.8804107], [-94.7939923, 33.8804108], [-94.7939924, 33.8802952], [-94.794191, 33.8802954], [-94.7941913, 33.8800382], [-94.7936538, 33.8800377]]]}, "properties": {"osm_id": 1349861080, "building": "yes", "name": "", "height": null, "height_m": null, "levels": null, "tract_id": "40089098800", "tract_name": "988", "tags": {"building": "yes"}}}, {"type": "Feature", "geometry": {"type": "Polygon", "coordinates": [[[-94.792648, 33.8801621], [-94.7928111, 33.8803648], [-94.792741, 33.8804037], [-94.792748, 33.8804124], [-94.7927017, 33.880438], [-94.7926931, 33.8804273], [-94.7926479, 33.8804524], [-94.7926544, 33.8804605], [-94.7925641, 33.8805104], [-94.792559, 33.8805042], [-94.7925195, 33.8805261], [-94.7924806, 33.8804776], [-94.7924605, 33.8804887], [-94.7924253, 33.8804449], [-94.7924534, 33.8804293], [-94.7924456, 33.8804196], [-94.7924261, 33.8804304], [-94.7923864, 33.8803811], [-94.7924169, 33.8803642], [-94.7923758, 33.8803131], [-94.792648, 33.8801621]]]}, "properties": {"osm_id": 1349861091, "building": "yes", "name": "", "height": null, "height_m": null, "levels": null, "tract_id": "40089098800", "tract_name": "988", "tags": {"building": "yes"}}}, {"type": "Feature", "geometry": {"type": "Polygon", "coordinates": [[[-94.7924537, 33.8788772], [-94.7924541, 33.8789297], [-94.7925191, 33.8789293], [-94.7925186, 33.8788768], [-94.7924537, 33.8788772]]]}, "properties": {"osm_id": 1349861094, "building": "shed", "name": "", "height": null, "height_m": null, "levels": null, "tract_id": "40089098800", "tract_name": "988", "tags": {"building": "shed"}}}, {"type": "Feature", "geometry": {"type": "Polygon", "coordinates": [[[-94.8110397, 33.8823139], [-94.8110218, 33.8823118], [-94.8110199, 33.8823216], [-94.8110137, 33.8823211], [-94.8110156, 33.8823467], [-94.8109638, 33.8823733], [-94.8109669, 33.8823795], [-94.8109564, 33.8823948], [-94.8109292, 33.8824061], [-94.8109459, 33.8824338], [-94.8109274, 33.8824404], [-94.8109465, 33.8824671], [-94.8109292, 33.8824747], [-94.8109459, 33.8825009], [-94.8109298, 33.8825075], [-94.8109459, 33.8825352], [-94.8109298, 33.8825429], [-94.8109446, 33.882569], [-94.8109119, 33.8825844], [-94.8108977, 33.8825623], [-94.8108768, 33.882568], [-94.8108626, 33.8825449], [-94.8108422, 33.8825536], [-94.8108274, 33.8825265], [-94.8108052, 33.8825352], [-94.8107904, 33.8825121], [-94.8107725, 33.8825183], [-94.8107527, 33.8824937], [-94.8107262, 33.8825044], [-94.810717, 33.8825203], [-94.8107065, 33.8825239], [-94.8106917, 33.8825198], [-94.810575, 33.8824635], [-94.8105355, 33.8825162], [-94.8106127, 33.8825526], [-94.8106077, 33.8825634], [-94.8106164, 33.8825675], [-94.8106139, 33.8825721], [-94.8106596, 33.8825956], [-94.810662, 33.8826002], [-94.8106602, 33.8826095], [-94.8106472, 33.8826248], [-94.8106485, 33.8826448], [-94.8106843, 33.8826443], [-94.8106861, 33.8826607], [-94.8107188, 33.8826602], [-94.8107194, 33.8826776], [-94.8107373, 33.8826791], [-94.8107348, 33.8827104], [-94.8106349, 33.8827099], [-94.8106355, 33.8828031], [-94.810509, 33.8828036], [-94.8105115, 33.8828753], [-94.8107071, 33.8828738], [-94.8107089, 33.8830556], [-94.8107725, 33.8830561], [-94.8107713, 33.8832877], [-94.8108434, 33.8832882], [-94.8108434, 33.8832626], [-94.8110063, 33.8832646], [-94.8110014, 33.8832902], [-94.8111402, 33.8832882], [-94.8111452, 33.8831791], [-94.811039, 33.8831775], [-94.811039, 33.8831007], [-94.8114204, 33.8830981], [-94.811421, 33.8830812], [-94.8115339, 33.8830833], [-94.8115345, 33.8829501], [-94.8114167, 33.8829522], [-94.8114173, 33.8827954], [-94.8114592, 33.8827944], [-94.8114562, 33.882758], [-94.8114191, 33.8827595], [-94.8114191, 33.8827211], [-94.8113858, 33.8826771], [-94.8113704, 33.8826786], [-94.8113716, 33.8826586], [-94.8113833, 33.8826612], [-94.8113821, 33.8826428], [-94.8114198, 33.8826412], [-94.8114204, 33.8826218], [-94.8114019, 33.8826028], [-94.8114031, 33.8825941], [-94.8114562, 33.8825659], [-94.8114179, 33.8824983], [-94.8113599, 33.8825198], [-94.8113488, 33.8825219], [-94.8113402, 33.8825137], [-94.8113328, 33.8824988], [-94.8113173, 33.8824906], [-94.8112945, 33.8825162], [-94.8112791, 33.8825065], [-94.8112612, 33.8825321], [-94.8112464, 33.8825249], [-94.8112279, 33.88255], [-94.8112093, 33.8825408], [-94.8111902, 33.882568], [-94.8111748, 33.8825577], [-94.8111575, 33.8825849], [-94.8111186, 33.8825669], [-94.8111396, 33.8825408], [-94.811123, 33.8825352], [-94.8111372, 33.8825085], [-94.8111199, 33.8825019], [-94.8111353, 33.8824763], [-94.8111193, 33.8824676], [-94.8111365, 33.8824399], [-94.8111174, 33.8824353], [-94.8111347, 33.8824066], [-94.8111051, 33.8823928], [-94.8111014, 33.8823836], [-94.8111057, 33.8823707], [-94.8110446, 33.8823456], [-94.8110397, 33.8823139]]]}, "properties": {"osm_id": 1349861097, "building": "hospital", "name": "McCurtain Memorial Hospital", "height": null, "height_m": null, "levels": null, "tract_id": "40089098800", "tract_name": "988", "tags": {"building": "hospital", "name": "McCurtain Memorial Hospital"}}}, {"type": "Feature", "geometry": {"type": "Polygon", "coordinates": [[[-94.8111665, 33.8834479], [-94.8111667, 33.8835315], [-94.8115416, 33.883531], [-94.8115414, 33.8834475], [-94.8111665, 33.8834479]]]}, "properties": {"osm_id": 1349861109, "building": "yes", "name": "", "height": null, "height_m": null, "levels": null, "tract_id": "40089098800", "tract_name": "988", "tags": {"building": "yes"}}}, {"type": "Feature", "geometry": {"type": "Polygon", "coordinates": [[[-94.8121068, 33.8813094], [-94.8119827, 33.8813796], [-94.8119825, 33.8814506], [-94.8119608, 33.8814505], [-94.8119607, 33.8814855], [-94.8119871, 33.8814855], [-94.811987, 33.8815209], [-94.8119721, 33.8815209], [-94.811972, 33.8815631], [-94.8119868, 33.8815632], [-94.8119867, 33.8816083], [-94.8121067, 33.8816085], [-94.8121068, 33.881564], [-94.8121266, 33.8815641], [-94.8121267, 33.8815208], [-94.8121075, 33.8815208], [-94.8121076, 33.8814864], [-94.8121182, 33.8814864], [-94.8121183, 33.8814458], [-94.8121066, 33.8814458], [-94.8121068, 33.8813094]]]}, "properties": {"osm_id": 1349861110, "building": "yes", "name": "", "height": null, "height_m": null, "levels": null, "tract_id": "40089098800", "tract_name": "988", "tags": {"building": "yes"}}}, {"type": "Feature", "geometry": {"type": "Polygon", "coordinates": [[[-94.8059561, 33.8804271], [-94.8059563, 33.8804661], [-94.8058532, 33.8804665], [-94.8058536, 33.8805271], [-94.8059518, 33.8805266], [-94.8059519, 33.8805476], [-94.8059887, 33.8805475], [-94.8059888, 33.8805694], [-94.8060894, 33.8805689], [-94.8060892, 33.880547], [-94.8061572, 33.8805467], [-94.8061569, 33.8805086], [-94.8061862, 33.8805085], [-94.8061859, 33.8804647], [-94.8061421, 33.8804649], [-94.8061418, 33.8804262], [-94.8059561, 33.8804271]]]}, "properties": {"osm_id": 1349861112, "building": "yes", "name": "First State Bank", "height": null, "height_m": null, "levels": null, "tract_id": "40089098800", "tract_name": "988", "tags": {"amenity": "bank", "building": "yes", "name": "First State Bank"}}}, {"type": "Feature", "geometry": {"type": "Polygon", "coordinates": [[[-94.8006337, 33.8812304], [-94.8006296, 33.8813691], [-94.8004512, 33.8813656], [-94.8004553, 33.8812268], [-94.8006337, 33.8812304]]]}, "properties": {"osm_id": 1349861116, "building": "house", "name": "", "height": null, "height_m": null, "levels": null, "tract_id": "40089098800", "tract_name": "988", "tags": {"building": "house"}}}, {"type": "Feature", "geometry": {"type": "Polygon", "coordinates": [[[-94.8006706, 33.8814695], [-94.800706, 33.8816051], [-94.8005316, 33.8816365], [-94.8004962, 33.8815009], [-94.8006706, 33.8814695]]]}, "properties": {"osm_id": 1349861117, "building": "house", "name": "", "height": null, "height_m": null, "levels": null, "tract_id": "40089098800", "tract_name": "988", "tags": {"building": "house"}}}, {"type": "Feature", "geometry": {"type": "Polygon", "coordinates": [[[-94.8012165, 33.8813205], [-94.8013594, 33.8815994], [-94.8012457, 33.8816396], [-94.8012297, 33.8816083], [-94.8011715, 33.8816289], [-94.8010935, 33.8814764], [-94.8011514, 33.881456], [-94.8011026, 33.8813608], [-94.8012165, 33.8813205]]]}, "properties": {"osm_id": 1349861118, "building": "house", "name": "", "height": null, "height_m": null, "levels": null, "tract_id": "40089098800", "tract_name": "988", "tags": {"building": "house"}}}, {"type": "Feature", "geometry": {"type": "Polygon", "coordinates": [[[-94.8020244, 33.8813505], [-94.8020004, 33.8816059], [-94.8018371, 33.8815953], [-94.8018611, 33.88134], [-94.8020244, 33.8813505]]]}, "properties": {"osm_id": 1349861119, "building": "house", "name": "", "height": null, "height_m": null, "levels": null, "tract_id": "40089098800", "tract_name": "988", "tags": {"building": "house"}}}, {"type": "Feature", "geometry": {"type": "Polygon", "coordinates": [[[-94.8015058, 33.8818152], [-94.8015696, 33.8819434], [-94.8014047, 33.882], [-94.8013409, 33.8818717], [-94.8015058, 33.8818152]]]}, "properties": {"osm_id": 1349861120, "building": "house", "name": "", "height": null, "height_m": null, "levels": null, "tract_id": "40089098800", "tract_name": "988", "tags": {"building": "house"}}}, {"type": "Feature", "geometry": {"type": "Polygon", "coordinates": [[[-94.8008996, 33.8818583], [-94.8009903, 33.8819748], [-94.8008405, 33.8820553], [-94.8007497, 33.8819388], [-94.8008996, 33.8818583]]]}, "properties": {"osm_id": 1349861121, "building": "house", "name": "", "height": null, "height_m": null, "levels": null, "tract_id": "40089098800", "tract_name": "988", "tags": {"building": "house"}}}, {"type": "Feature", "geometry": {"type": "Polygon", "coordinates": [[[-94.8005453, 33.8821486], [-94.800582, 33.882284], [-94.8004079, 33.8823165], [-94.8003712, 33.8821812], [-94.8005453, 33.8821486]]]}, "properties": {"osm_id": 1349861122, "building": "house", "name": "", "height": null, "height_m": null, "levels": null, "tract_id": "40089098800", "tract_name": "988", "tags": {"building": "house"}}}, {"type": "Feature", "geometry": {"type": "Polygon", "coordinates": [[[-94.8017888, 33.8822044], [-94.801683, 33.8823118], [-94.8015448, 33.8822181], [-94.8016506, 33.8821106], [-94.8017888, 33.8822044]]]}, "properties": {"osm_id": 1349861123, "building": "house", "name": "", "height": null, "height_m": null, "levels": null, "tract_id": "40089098800", "tract_name": "988", "tags": {"building": "house"}}}, {"type": "Feature", "geometry": {"type": "Polygon", "coordinates": [[[-94.8024396, 33.8821682], [-94.802497, 33.8822985], [-94.8023294, 33.8823494], [-94.802272, 33.8822192], [-94.8024396, 33.8821682]]]}, "properties": {"osm_id": 1349861124, "building": "house", "name": "", "height": null, "height_m": null, "levels": null, "tract_id": "40089098800", "tract_name": "988", "tags": {"building": "house"}}}, {"type": "Feature", "geometry": {"type": "Polygon", "coordinates": [[[-94.8027746, 33.8821542], [-94.8028095, 33.8822898], [-94.802635, 33.8823208], [-94.8026001, 33.8821851], [-94.8027746, 33.8821542]]]}, "properties": {"osm_id": 1349861125, "building": "house", "name": "", "height": null, "height_m": null, "levels": null, "tract_id": "40089098800", "tract_name": "988", "tags": {"building": "house"}}}, {"type": "Feature", "geometry": {"type": "Polygon", "coordinates": [[[-94.8028811, 33.8815019], [-94.802877, 33.8816406], [-94.8026986, 33.881637], [-94.8027026, 33.8814983], [-94.8028811, 33.8815019]]]}, "properties": {"osm_id": 1349861126, "building": "house", "name": "", "height": null, "height_m": null, "levels": null, "tract_id": "40089098800", "tract_name": "988", "tags": {"building": "house"}}}, {"type": "Feature", "geometry": {"type": "Polygon", "coordinates": [[[-94.8035098, 33.8813279], [-94.8035057, 33.8814666], [-94.8033273, 33.881463], [-94.8033314, 33.8813243], [-94.8035098, 33.8813279]]]}, "properties": {"osm_id": 1349861127, "building": "house", "name": "", "height": null, "height_m": null, "levels": null, "tract_id": "40089098800", "tract_name": "988", "tags": {"building": "house"}}}, {"type": "Feature", "geometry": {"type": "Polygon", "coordinates": [[[-94.8035454, 33.8817015], [-94.8036048, 33.8818311], [-94.8034381, 33.8818839], [-94.8033786, 33.8817542], [-94.8035454, 33.8817015]]]}, "properties": {"osm_id": 1349861128, "building": "house", "name": "", "height": null, "height_m": null, "levels": null, "tract_id": "40089098800", "tract_name": "988", "tags": {"building": "house"}}}, {"type": "Feature", "geometry": {"type": "Polygon", "coordinates": [[[-94.8039663, 33.8819849], [-94.8038731, 33.8821], [-94.8037249, 33.8820174], [-94.8038182, 33.8819022], [-94.8039663, 33.8819849]]]}, "properties": {"osm_id": 1349861129, "building": "house", "name": "", "height": null, "height_m": null, "levels": null, "tract_id": "40089098800", "tract_name": "988", "tags": {"building": "house"}}}, {"type": "Feature", "geometry": {"type": "Polygon", "coordinates": [[[-94.8038439, 33.8814225], [-94.8039762, 33.8815072], [-94.8038671, 33.8816245], [-94.8037348, 33.8815397], [-94.8038439, 33.8814225]]]}, "properties": {"osm_id": 1349861130, "building": "house", "name": "", "height": null, "height_m": null, "levels": null, "tract_id": "40089098800", "tract_name": "988", "tags": {"building": "house"}}}, {"type": "Feature", "geometry": {"type": "Polygon", "coordinates": [[[-94.8039065, 33.8812745], [-94.803827, 33.8813965], [-94.80367, 33.881326], [-94.8037496, 33.881204], [-94.8039065, 33.8812745]]]}, "properties": {"osm_id": 1349861131, "building": "house", "name": "", "height": null, "height_m": null, "levels": null, "tract_id": "40089098800", "tract_name": "988", "tags": {"building": "house"}}}, {"type": "Feature", "geometry": {"type": "Polygon", "coordinates": [[[-94.8045162, 33.8813689], [-94.8045121, 33.8815076], [-94.8043337, 33.8815041], [-94.8043377, 33.8813653], [-94.8045162, 33.8813689]]]}, "properties": {"osm_id": 1349861132, "building": "house", "name": "", "height": null, "height_m": null, "levels": null, "tract_id": "40089098800", "tract_name": "988", "tags": {"building": "house"}}}, {"type": "Feature", "geometry": {"type": "Polygon", "coordinates": [[[-94.8045656, 33.8817202], [-94.8045615, 33.8818589], [-94.8043831, 33.8818553], [-94.8043872, 33.8817166], [-94.8045656, 33.8817202]]]}, "properties": {"osm_id": 1349861133, "building": "house", "name": "", "height": null, "height_m": null, "levels": null, "tract_id": "40089098800", "tract_name": "988", "tags": {"building": "house"}}}, {"type": "Feature", "geometry": {"type": "Polygon", "coordinates": [[[-94.8043534, 33.8823294], [-94.8042373, 33.8824291], [-94.8041089, 33.8823262], [-94.804225, 33.8822264], [-94.8043534, 33.8823294]]]}, "properties": {"osm_id": 1349861134, "building": "house", "name": "", "height": null, "height_m": null, "levels": null, "tract_id": "40089098800", "tract_name": "988", "tags": {"building": "house"}}}, {"type": "Feature", "geometry": {"type": "Polygon", "coordinates": [[[-94.8032791, 33.8822624], [-94.8034002, 33.8823579], [-94.8032773, 33.8824654], [-94.8031561, 33.8823698], [-94.8032791, 33.8822624]]]}, "properties": {"osm_id": 1349861135, "building": "house", "name": "", "height": null, "height_m": null, "levels": null, "tract_id": "40089098800", "tract_name": "988", "tags": {"building": "house"}}}, {"type": "Feature", "geometry": {"type": "Polygon", "coordinates": [[[-94.8030727, 33.882033], [-94.8031116, 33.8821679], [-94.802938, 33.8822024], [-94.8028991, 33.8820674], [-94.8030727, 33.882033]]]}, "properties": {"osm_id": 1349861136, "building": "house", "name": "", "height": null, "height_m": null, "levels": null, "tract_id": "40089098800", "tract_name": "988", "tags": {"building": "house"}}}, {"type": "Feature", "geometry": {"type": "Polygon", "coordinates": [[[-94.8035573, 33.8825348], [-94.8034264, 33.882621], [-94.8033154, 33.8825049], [-94.8034465, 33.8824187], [-94.8035573, 33.8825348]]]}, "properties": {"osm_id": 1349861137, "building": "house", "name": "", "height": null, "height_m": null, "levels": null, "tract_id": "40089098800", "tract_name": "988", "tags": {"building": "house"}}}, {"type": "Feature", "geometry": {"type": "Polygon", "coordinates": [[[-94.8036479, 33.8825874], [-94.803768, 33.8826838], [-94.803644, 33.8827904], [-94.8035238, 33.8826939], [-94.8036479, 33.8825874]]]}, "properties": {"osm_id": 1349861138, "building": "house", "name": "", "height": null, "height_m": null, "levels": null, "tract_id": "40089098800", "tract_name": "988", "tags": {"building": "house"}}}, {"type": "Feature", "geometry": {"type": "Polygon", "coordinates": [[[-94.8042231, 33.8826617], [-94.8043548, 33.8825763], [-94.8044647, 33.8826931], [-94.8043329, 33.8827785], [-94.8042231, 33.8826617]]]}, "properties": {"osm_id": 1349861139, "building": "house", "name": "", "height": null, "height_m": null, "levels": null, "tract_id": "40089098800", "tract_name": "988", "tags": {"building": "house"}}}, {"type": "Feature", "geometry": {"type": "Polygon", "coordinates": [[[-94.8041733, 33.8830008], [-94.8040533, 33.8830973], [-94.8039291, 33.8829909], [-94.8040492, 33.8828943], [-94.8041733, 33.8830008]]]}, "properties": {"osm_id": 1349861140, "building": "house", "name": "", "height": null, "height_m": null, "levels": null, "tract_id": "40089098800", "tract_name": "988", "tags": {"building": "house"}}}, {"type": "Feature", "geometry": {"type": "Polygon", "coordinates": [[[-94.8035665, 33.8828269], [-94.8034322, 33.8829095], [-94.803326, 33.8827905], [-94.8034603, 33.8827079], [-94.8035665, 33.8828269]]]}, "properties": {"osm_id": 1349861141, "building": "house", "name": "", "height": null, "height_m": null, "levels": null, "tract_id": "40089098800", "tract_name": "988", "tags": {"building": "house"}}}, {"type": "Feature", "geometry": {"type": "Polygon", "coordinates": [[[-94.803333, 33.8829093], [-94.8032263, 33.8830161], [-94.8030889, 33.8829215], [-94.8031957, 33.8828147], [-94.803333, 33.8829093]]]}, "properties": {"osm_id": 1349861142, "building": "house", "name": "", "height": null, "height_m": null, "levels": null, "tract_id": "40089098800", "tract_name": "988", "tags": {"building": "house"}}}, {"type": "Feature", "geometry": {"type": "Polygon", "coordinates": [[[-94.8027391, 33.8830225], [-94.8027739, 33.8831582], [-94.8025993, 33.8831891], [-94.8025645, 33.8830534], [-94.8027391, 33.8830225]]]}, "properties": {"osm_id": 1349861143, "building": "house", "name": "", "height": null, "height_m": null, "levels": null, "tract_id": "40089098800", "tract_name": "988", "tags": {"building": "house"}}}, {"type": "Feature", "geometry": {"type": "Polygon", "coordinates": [[[-94.802385, 33.8827952], [-94.8022365, 33.8828587], [-94.8021547, 33.8827271], [-94.8023032, 33.8826635], [-94.802385, 33.8827952]]]}, "properties": {"osm_id": 1349861144, "building": "house", "name": "", "height": null, "height_m": null, "levels": null, "tract_id": "40089098800", "tract_name": "988", "tags": {"building": "house"}}}, {"type": "Feature", "geometry": {"type": "Polygon", "coordinates": [[[-94.8021765, 33.8830189], [-94.8022032, 33.8831559], [-94.802027, 33.8831796], [-94.8020003, 33.8830426], [-94.8021765, 33.8830189]]]}, "properties": {"osm_id": 1349861145, "building": "house", "name": "", "height": null, "height_m": null, "levels": null, "tract_id": "40089098800", "tract_name": "988", "tags": {"building": "house"}}}, {"type": "Feature", "geometry": {"type": "Polygon", "coordinates": [[[-94.8027665, 33.8832102], [-94.8027952, 33.8833469], [-94.8026194, 33.8833723], [-94.8025907, 33.8832356], [-94.8027665, 33.8832102]]]}, "properties": {"osm_id": 1349861146, "building": "house", "name": "", "height": null, "height_m": null, "levels": null, "tract_id": "40089098800", "tract_name": "988", "tags": {"building": "house"}}}, {"type": "Feature", "geometry": {"type": "Polygon", "coordinates": [[[-94.8028281, 33.8834983], [-94.8028059, 33.8836358], [-94.802629, 33.8836161], [-94.8026512, 33.8834786], [-94.8028281, 33.8834983]]]}, "properties": {"osm_id": 1349861147, "building": "house", "name": "", "height": null, "height_m": null, "levels": null, "tract_id": "40089098800", "tract_name": "988", "tags": {"building": "house"}}}, {"type": "Feature", "geometry": {"type": "Polygon", "coordinates": [[[-94.8026135, 33.8838433], [-94.8025026, 33.8839471], [-94.8023691, 33.8838488], [-94.8024799, 33.883745], [-94.8026135, 33.8838433]]]}, "properties": {"osm_id": 1349861148, "building": "house", "name": "", "height": null, "height_m": null, "levels": null, "tract_id": "40089098800", "tract_name": "988", "tags": {"building": "house"}}}, {"type": "Feature", "geometry": {"type": "Polygon", "coordinates": [[[-94.802214, 33.8834617], [-94.8022374, 33.8835991], [-94.8020607, 33.8836198], [-94.8020373, 33.8834824], [-94.802214, 33.8834617]]]}, "properties": {"osm_id": 1349861149, "building": "house", "name": "", "height": null, "height_m": null, "levels": null, "tract_id": "40089098800", "tract_name": "988", "tags": {"building": "house"}}}, {"type": "Feature", "geometry": {"type": "Polygon", "coordinates": [[[-94.8019309, 33.8834977], [-94.8019681, 33.8836329], [-94.8017941, 33.8836659], [-94.8017569, 33.8835307], [-94.8019309, 33.8834977]]]}, "properties": {"osm_id": 1349861150, "building": "house", "name": "", "height": null, "height_m": null, "levels": null, "tract_id": "40089098800", "tract_name": "988", "tags": {"building": "house"}}}, {"type": "Feature", "geometry": {"type": "Polygon", "coordinates": [[[-94.8018643, 33.8832688], [-94.8019037, 33.8834036], [-94.8017303, 33.8834385], [-94.8016909, 33.8833037], [-94.8018643, 33.8832688]]]}, "properties": {"osm_id": 1349861151, "building": "house", "name": "", "height": null, "height_m": null, "levels": null, "tract_id": "40089098800", "tract_name": "988", "tags": {"building": "house"}}}, {"type": "Feature", "geometry": {"type": "Polygon", "coordinates": [[[-94.8017851, 33.8829848], [-94.8018247, 33.8831195], [-94.8016513, 33.8831546], [-94.8016117, 33.8830198], [-94.8017851, 33.8829848]]]}, "properties": {"osm_id": 1349861152, "building": "house", "name": "", "height": null, "height_m": null, "levels": null, "tract_id": "40089098800", "tract_name": "988", "tags": {"building": "house"}}}, {"type": "Feature", "geometry": {"type": "Polygon", "coordinates": [[[-94.8018404, 33.8827618], [-94.8017898, 33.882894], [-94.8016197, 33.8828491], [-94.8016704, 33.8827169], [-94.8018404, 33.8827618]]]}, "properties": {"osm_id": 1349861153, "building": "house", "name": "", "height": null, "height_m": null, "levels": null, "tract_id": "40089098800", "tract_name": "988", "tags": {"building": "house"}}}, {"type": "Feature", "geometry": {"type": "Polygon", "coordinates": [[[-94.8020636, 33.8825844], [-94.801941, 33.8826788], [-94.8018197, 33.8825701], [-94.8019422, 33.8824758], [-94.8020636, 33.8825844]]]}, "properties": {"osm_id": 1349861154, "building": "house", "name": "", "height": null, "height_m": null, "levels": null, "tract_id": "40089098800", "tract_name": "988", "tags": {"building": "house"}}}, {"type": "Feature", "geometry": {"type": "Polygon", "coordinates": [[[-94.7881238, 33.8962405], [-94.7881059, 33.8962678], [-94.7882261, 33.8963219], [-94.7882244, 33.8963245], [-94.7881829, 33.8963056], [-94.7881545, 33.8963485], [-94.7880764, 33.8963128], [-94.7879741, 33.896467], [-94.7879923, 33.8964753], [-94.7879328, 33.8965647], [-94.7879654, 33.8965796], [-94.7879513, 33.8966007], [-94.7881349, 33.8966849], [-94.7882017, 33.8965845], [-94.7882704, 33.896616], [-94.7882905, 33.8965858], [-94.7882455, 33.8965652], [-94.7882498, 33.8965587], [-94.7882426, 33.8965554], [-94.78826, 33.8965289], [-94.7882752, 33.8965358], [-94.7883391, 33.8964381], [-94.7882633, 33.8964039], [-94.7882892, 33.8963642], [-94.7882485, 33.8963459], [-94.788273, 33.8963085], [-94.7882512, 33.8962987], [-94.7882634, 33.8962801], [-94.7882372, 33.8962683], [-94.7882255, 33.8962862], [-94.7881238, 33.8962405]]]}, "properties": {"osm_id": 1349876895, "building": "yes", "name": "", "height": null, "height_m": null, "levels": null, "tract_id": "40089098800", "tract_name": "988", "tags": {"building": "yes"}}}, {"type": "Feature", "geometry": {"type": "Polygon", "coordinates": [[[-94.7864435, 33.8992798], [-94.7864583, 33.8992849], [-94.7864669, 33.8992727], [-94.7864842, 33.8992701], [-94.786507, 33.8992762], [-94.7865151, 33.8992906], [-94.7865169, 33.8993024], [-94.7865138, 33.8993085], [-94.7865274, 33.8993147], [-94.7864682, 33.8994145], [-94.7865268, 33.8994396], [-94.7864756, 33.8995226], [-94.7864182, 33.899498], [-94.7863546, 33.8995953], [-94.7863367, 33.8995887], [-94.7863281, 33.8995968], [-94.7863102, 33.8996015], [-94.7862966, 33.8995974], [-94.7862837, 33.8995871], [-94.78628, 33.8995753], [-94.7862824, 33.8995646], [-94.7862701, 33.8995574], [-94.786309, 33.8994965], [-94.7862756, 33.8994821], [-94.7862707, 33.8993228], [-94.7864145, 33.8993203], [-94.7864435, 33.8992798]]]}, "properties": {"osm_id": 1349876911, "building": "yes", "name": "", "height": null, "height_m": null, "levels": null, "tract_id": "40089098800", "tract_name": "988", "tags": {"building": "yes"}}}, {"type": "Feature", "geometry": {"type": "Polygon", "coordinates": [[[-94.7854909, 33.8977308], [-94.7854964, 33.898693], [-94.7856002, 33.8986926], [-94.7855949, 33.8977304], [-94.7854909, 33.8977308]]]}, "properties": {"osm_id": 1349876917, "building": "yes", "name": "", "height": null, "height_m": null, "levels": null, "tract_id": "40089098800", "tract_name": "988", "tags": {"building": "yes", "shop": "storage_rental"}}}, {"type": "Feature", "geometry": {"type": "Polygon", "coordinates": [[[-94.7856664, 33.8977326], [-94.7856718, 33.8986947], [-94.7857756, 33.8986943], [-94.7857703, 33.8977322], [-94.7856664, 33.8977326]]]}, "properties": {"osm_id": 1349876918, "building": "yes", "name": "", "height": null, "height_m": null, "levels": null, "tract_id": "40089098800", "tract_name": "988", "tags": {"building": "yes", "shop": "storage_rental"}}}, {"type": "Feature", "geometry": {"type": "Polygon", "coordinates": [[[-94.7858438, 33.897727], [-94.7858493, 33.8986891], [-94.785953, 33.8986887], [-94.7859478, 33.8977266], [-94.7858438, 33.897727]]]}, "properties": {"osm_id": 1349876919, "building": "yes", "name": "", "height": null, "height_m": null, "levels": null, "tract_id": "40089098800", "tract_name": "988", "tags": {"building": "yes", "shop": "storage_rental"}}}, {"type": "Feature", "geometry": {"type": "Polygon", "coordinates": [[[-94.7860196, 33.8977284], [-94.7860251, 33.8986905], [-94.7861288, 33.8986901], [-94.7861236, 33.897728], [-94.7860196, 33.8977284]]]}, "properties": {"osm_id": 1349876920, "building": "yes", "name": "", "height": null, "height_m": null, "levels": null, "tract_id": "40089098800", "tract_name": "988", "tags": {"building": "yes", "shop": "storage_rental"}}}, {"type": "Feature", "geometry": {"type": "Polygon", "coordinates": [[[-94.7862071, 33.8977256], [-94.7862109, 33.8986864], [-94.7863414, 33.898686], [-94.7863429, 33.8977238], [-94.7862071, 33.8977256]]]}, "properties": {"osm_id": 1349876921, "building": "yes", "name": "", "height": null, "height_m": null, "levels": null, "tract_id": "40089098800", "tract_name": "988", "tags": {"building": "yes", "shop": "storage_rental"}}}, {"type": "Feature", "geometry": {"type": "Polygon", "coordinates": [[[-94.7864214, 33.8977242], [-94.7864269, 33.8986864], [-94.7865557, 33.898686], [-94.7865521, 33.8977252], [-94.7864214, 33.8977242]]]}, "properties": {"osm_id": 1349876922, "building": "yes", "name": "", "height": null, "height_m": null, "levels": null, "tract_id": "40089098800", "tract_name": "988", "tags": {"building": "yes", "shop": "storage_rental"}}}, {"type": "Feature", "geometry": {"type": "Polygon", "coordinates": [[[-94.7865616, 33.8988742], [-94.7865148, 33.8989092], [-94.7864532, 33.8989094], [-94.7864535, 33.8989633], [-94.78545, 33.8989675], [-94.7854507, 33.8990817], [-94.7863831, 33.8990777], [-94.7863829, 33.8990518], [-94.78645, 33.8990515], [-94.7864502, 33.8990771], [-94.7865676, 33.8990766], [-94.7865674, 33.8990378], [-94.7865938, 33.8990377], [-94.7865935, 33.8989954], [-94.786572, 33.8989955], [-94.7865716, 33.898947], [-94.7866097, 33.8989186], [-94.7865616, 33.8988742]]]}, "properties": {"osm_id": 1349876926, "building": "yes", "name": "", "height": null, "height_m": null, "levels": null, "tract_id": "40089098800", "tract_name": "988", "tags": {"building": "yes", "shop": "storage_rental"}}}, {"type": "Feature", "geometry": {"type": "Polygon", "coordinates": [[[-94.7867928, 33.8975095], [-94.7867945, 33.8973797], [-94.7852603, 33.8973657], [-94.7852586, 33.8974958], [-94.7867928, 33.8975095]]]}, "properties": {"osm_id": 1349876927, "building": "yes", "name": "", "height": null, "height_m": null, "levels": null, "tract_id": "40089098800", "tract_name": "988", "tags": {"building": "yes", "shop": "storage_rental"}}}, {"type": "Feature", "geometry": {"type": "Polygon", "coordinates": [[[-94.7856788, 33.9005218], [-94.7856651, 33.9006501], [-94.7855501, 33.9006416], [-94.7855351, 33.9007816], [-94.7854028, 33.9007719], [-94.785409, 33.9007145], [-94.7853281, 33.9007085], [-94.785345, 33.9005498], [-94.7854227, 33.9005555], [-94.7854275, 33.9005102], [-94.7855501, 33.9005192], [-94.7855532, 33.9005125], [-94.7856788, 33.9005218]]]}, "properties": {"osm_id": 1349876937, "building": "yes", "name": "", "height": null, "height_m": null, "levels": null, "tract_id": "40089098800", "tract_name": "988", "tags": {"building": "yes"}}}, {"type": "Feature", "geometry": {"type": "Polygon", "coordinates": [[[-94.7846497, 33.8960127], [-94.7846585, 33.896462], [-94.7844301, 33.8964651], [-94.7844212, 33.8960158], [-94.7846497, 33.8960127]]]}, "properties": {"osm_id": 1349876955, "building": "yes", "name": "", "height": null, "height_m": null, "levels": null, "tract_id": "40089098800", "tract_name": "988", "tags": {"building": "yes"}}}, {"type": "Feature", "geometry": {"type": "Polygon", "coordinates": [[[-94.7842762, 33.8961343], [-94.7842774, 33.89662], [-94.7839858, 33.8966205], [-94.7839853, 33.8964001], [-94.7839206, 33.8964002], [-94.7839199, 33.8961349], [-94.7842762, 33.8961343]]]}, "properties": {"osm_id": 1349876956, "building": "yes", "name": "", "height": null, "height_m": null, "levels": null, "tract_id": "40089098800", "tract_name": "988", "tags": {"building": "yes"}}}, {"type": "Feature", "geometry": {"type": "Polygon", "coordinates": [[[-94.7837931, 33.8961484], [-94.7837748, 33.8963331], [-94.7834771, 33.8963128], [-94.7834693, 33.8963916], [-94.7831496, 33.8963699], [-94.7831833, 33.8960281], [-94.7834452, 33.8960459], [-94.7834375, 33.8961241], [-94.7837931, 33.8961484]]]}, "properties": {"osm_id": 1349876957, "building": "yes", "name": "", "height": null, "height_m": null, "levels": null, "tract_id": "40089098800", "tract_name": "988", "tags": {"building": "yes"}}}, {"type": "Feature", "geometry": {"type": "Polygon", "coordinates": [[[-94.7831542, 33.8965152], [-94.7831429, 33.8966395], [-94.783472, 33.89666], [-94.7834833, 33.8965357], [-94.7831542, 33.8965152]]]}, "properties": {"osm_id": 1349876958, "building": "yes", "name": "", "height": null, "height_m": null, "levels": null, "tract_id": "40089098800", "tract_name": "988", "tags": {"building": "yes"}}}, {"type": "Feature", "geometry": {"type": "Polygon", "coordinates": [[[-94.7831567, 33.8964188], [-94.7831508, 33.8964847], [-94.7833139, 33.8964947], [-94.7833198, 33.8964289], [-94.7831567, 33.8964188]]]}, "properties": {"osm_id": 1349876959, "building": "yes", "name": "", "height": null, "height_m": null, "levels": null, "tract_id": "40089098800", "tract_name": "988", "tags": {"building": "yes"}}}, {"type": "Feature", "geometry": {"type": "Polygon", "coordinates": [[[-94.7833598, 33.896442], [-94.7833557, 33.8965097], [-94.7834157, 33.8965122], [-94.7834199, 33.8964446], [-94.7833598, 33.896442]]]}, "properties": {"osm_id": 1349876960, "building": "yes", "name": "", "height": null, "height_m": null, "levels": null, "tract_id": "40089098800", "tract_name": "988", "tags": {"building": "yes"}}}, {"type": "Feature", "geometry": {"type": "Polygon", "coordinates": [[[-94.79202, 33.8886612], [-94.7920211, 33.8885802], [-94.792071, 33.8885807], [-94.792072, 33.8885053], [-94.7920238, 33.8885048], [-94.792025, 33.8884239], [-94.7919143, 33.8884228], [-94.7919138, 33.8884561], [-94.7918992, 33.8884559], [-94.7918983, 33.8885218], [-94.7919116, 33.8885219], [-94.7919112, 33.8885543], [-94.7918971, 33.8885541], [-94.7918961, 33.8886226], [-94.7919065, 33.8886227], [-94.791906, 33.8886601], [-94.79202, 33.8886612]]]}, "properties": {"osm_id": 1349876973, "building": "yes", "name": "", "height": null, "height_m": null, "levels": null, "tract_id": "40089098800", "tract_name": "988", "tags": {"building": "yes"}}}, {"type": "Feature", "geometry": {"type": "Polygon", "coordinates": [[[-94.7920136, 33.8889408], [-94.7920167, 33.8888598], [-94.7920665, 33.8888611], [-94.7920694, 33.8887857], [-94.7920211, 33.8887845], [-94.7920242, 33.8887036], [-94.7919136, 33.8887007], [-94.7919124, 33.8887339], [-94.7918977, 33.8887336], [-94.7918952, 33.8887994], [-94.7919086, 33.8887997], [-94.7919074, 33.8888321], [-94.7918932, 33.8888317], [-94.7918906, 33.8889001], [-94.7919011, 33.8889004], [-94.7918996, 33.8889378], [-94.7920136, 33.8889408]]]}, "properties": {"osm_id": 1349876974, "building": "yes", "name": "", "height": null, "height_m": null, "levels": null, "tract_id": "40089098800", "tract_name": "988", "tags": {"building": "yes"}}}, {"type": "Feature", "geometry": {"type": "Polygon", "coordinates": [[[-94.7920112, 33.8892207], [-94.792014, 33.8891398], [-94.7920638, 33.889141], [-94.7920664, 33.8890656], [-94.7920182, 33.8890644], [-94.792021, 33.8889835], [-94.7919104, 33.8889809], [-94.7919092, 33.8890142], [-94.7918946, 33.8890138], [-94.7918923, 33.8890796], [-94.7919057, 33.88908], [-94.7919046, 33.8891123], [-94.7918905, 33.889112], [-94.7918881, 33.8891804], [-94.7918985, 33.8891806], [-94.7918972, 33.889218], [-94.7920112, 33.8892207]]]}, "properties": {"osm_id": 1349876975, "building": "yes", "name": "", "height": null, "height_m": null, "levels": null, "tract_id": "40089098800", "tract_name": "988", "tags": {"building": "yes"}}}, {"type": "Feature", "geometry": {"type": "Polygon", "coordinates": [[[-94.7922595, 33.8887116], [-94.7922585, 33.8887926], [-94.7922086, 33.8887921], [-94.7922077, 33.8888675], [-94.7922559, 33.888868], [-94.7922549, 33.8889489], [-94.7923656, 33.8889498], [-94.792366, 33.8889165], [-94.7923806, 33.8889167], [-94.7923814, 33.8888508], [-94.7923681, 33.8888507], [-94.7923685, 33.8888184], [-94.7923826, 33.8888185], [-94.7923834, 33.8887501], [-94.792373, 33.88875], [-94.7923735, 33.8887126], [-94.7922595, 33.8887116]]]}, "properties": {"osm_id": 1349876976, "building": "yes", "name": "", "height": null, "height_m": null, "levels": null, "tract_id": "40089098800", "tract_name": "988", "tags": {"building": "yes"}}}, {"type": "Feature", "geometry": {"type": "Polygon", "coordinates": [[[-94.7925974, 33.8886096], [-94.7926949, 33.8886089], [-94.7926954, 33.8886503], [-94.7927862, 33.8886496], [-94.7927858, 33.8886096], [-94.7928833, 33.8886088], [-94.7928823, 33.888517], [-94.7928422, 33.8885173], [-94.7928421, 33.8885051], [-94.7927628, 33.8885057], [-94.7927629, 33.8885168], [-94.7927239, 33.8885171], [-94.7927238, 33.8885054], [-94.7926413, 33.888506], [-94.7926414, 33.8885146], [-94.7925964, 33.888515], [-94.7925974, 33.8886096]]]}, "properties": {"osm_id": 1349876977, "building": "yes", "name": "", "height": null, "height_m": null, "levels": null, "tract_id": "40089098800", "tract_name": "988", "tags": {"building": "yes"}}}, {"type": "Feature", "geometry": {"type": "Polygon", "coordinates": [[[-94.7927754, 33.8889496], [-94.7927752, 33.8888686], [-94.792825, 33.8888685], [-94.7928249, 33.8887931], [-94.7927766, 33.8887932], [-94.7927764, 33.8887123], [-94.7926658, 33.8887124], [-94.7926659, 33.8887457], [-94.7926512, 33.8887457], [-94.7926514, 33.8888116], [-94.7926648, 33.8888116], [-94.7926648, 33.8888439], [-94.7926507, 33.888844], [-94.7926509, 33.8889124], [-94.7926613, 33.8889124], [-94.7926614, 33.8889498], [-94.7927754, 33.8889496]]]}, "properties": {"osm_id": 1349876978, "building": "yes", "name": "", "height": null, "height_m": null, "levels": null, "tract_id": "40089098800", "tract_name": "988", "tags": {"building": "yes"}}}, {"type": "Feature", "geometry": {"type": "Polygon", "coordinates": [[[-94.7927087, 33.8892184], [-94.792731, 33.8891396], [-94.7927795, 33.889149], [-94.7928003, 33.8890756], [-94.7927533, 33.8890665], [-94.7927756, 33.8889877], [-94.7926679, 33.8889667], [-94.7926587, 33.8889991], [-94.7926444, 33.8889963], [-94.7926263, 33.8890604], [-94.7926394, 33.889063], [-94.7926305, 33.8890945], [-94.7926167, 33.8890918], [-94.7925979, 33.8891584], [-94.792608, 33.8891604], [-94.7925977, 33.8891968], [-94.7927087, 33.8892184]]]}, "properties": {"osm_id": 1349876979, "building": "yes", "name": "", "height": null, "height_m": null, "levels": null, "tract_id": "40089098800", "tract_name": "988", "tags": {"building": "yes"}}}, {"type": "Feature", "geometry": {"type": "Polygon", "coordinates": [[[-94.8013886, 33.8832987], [-94.8014258, 33.8834339], [-94.8012518, 33.8834669], [-94.8012146, 33.8833317], [-94.8013886, 33.8832987]]]}, "properties": {"osm_id": 1349876997, "building": "house", "name": "", "height": null, "height_m": null, "levels": null, "tract_id": "40089098800", "tract_name": "988", "tags": {"building": "house"}}}, {"type": "Feature", "geometry": {"type": "Polygon", "coordinates": [[[-94.801066, 33.8833483], [-94.8010548, 33.8834867], [-94.8008767, 33.8834767], [-94.800888, 33.8833383], [-94.801066, 33.8833483]]]}, "properties": {"osm_id": 1349876998, "building": "house", "name": "", "height": null, "height_m": null, "levels": null, "tract_id": "40089098800", "tract_name": "988", "tags": {"building": "house"}}}, {"type": "Feature", "geometry": {"type": "Polygon", "coordinates": [[[-94.8006705, 33.8834211], [-94.8005119, 33.8834645], [-94.800456, 33.8833238], [-94.8006146, 33.8832804], [-94.8006705, 33.8834211]]]}, "properties": {"osm_id": 1349876999, "building": "house", "name": "", "height": null, "height_m": null, "levels": null, "tract_id": "40089098800", "tract_name": "988", "tags": {"building": "house"}}}, {"type": "Feature", "geometry": {"type": "Polygon", "coordinates": [[[-94.8005714, 33.8831942], [-94.8004044, 33.8831906], [-94.8004089, 33.8830425], [-94.8005759, 33.883046], [-94.8005714, 33.8831942]]]}, "properties": {"osm_id": 1349877000, "building": "house", "name": "", "height": null, "height_m": null, "levels": null, "tract_id": "40089098800", "tract_name": "988", "tags": {"building": "house"}}}, {"type": "Feature", "geometry": {"type": "Polygon", "coordinates": [[[-94.8007392, 33.8827858], [-94.8007764, 33.882921], [-94.8006024, 33.882954], [-94.8005652, 33.8828188], [-94.8007392, 33.8827858]]]}, "properties": {"osm_id": 1349877001, "building": "house", "name": "", "height": null, "height_m": null, "levels": null, "tract_id": "40089098800", "tract_name": "988", "tags": {"building": "house"}}}, {"type": "Feature", "geometry": {"type": "Polygon", "coordinates": [[[-94.8012259, 33.8828385], [-94.8012631, 33.8829737], [-94.8010891, 33.8830067], [-94.8010519, 33.8828715], [-94.8012259, 33.8828385]]]}, "properties": {"osm_id": 1349877002, "building": "house", "name": "", "height": null, "height_m": null, "levels": null, "tract_id": "40089098800", "tract_name": "988", "tags": {"building": "house"}}}, {"type": "Feature", "geometry": {"type": "Polygon", "coordinates": [[[-94.8013693, 33.88251], [-94.8014065, 33.8826452], [-94.8012325, 33.8826782], [-94.8011953, 33.882543], [-94.8013693, 33.88251]]]}, "properties": {"osm_id": 1349877003, "building": "house", "name": "", "height": null, "height_m": null, "levels": null, "tract_id": "40089098800", "tract_name": "988", "tags": {"building": "house"}}}, {"type": "Feature", "geometry": {"type": "Polygon", "coordinates": [[[-94.8008702, 33.8824173], [-94.8009074, 33.8825525], [-94.8007334, 33.8825855], [-94.8006962, 33.8824503], [-94.8008702, 33.8824173]]]}, "properties": {"osm_id": 1349877004, "building": "house", "name": "", "height": null, "height_m": null, "levels": null, "tract_id": "40089098800", "tract_name": "988", "tags": {"building": "house"}}}, {"type": "Feature", "geometry": {"type": "Polygon", "coordinates": [[[-94.8032721, 33.8830526], [-94.8033093, 33.8831878], [-94.8031353, 33.8832208], [-94.8030981, 33.8830856], [-94.8032721, 33.8830526]]]}, "properties": {"osm_id": 1349877005, "building": "house", "name": "", "height": null, "height_m": null, "levels": null, "tract_id": "40089098800", "tract_name": "988", "tags": {"building": "house"}}}, {"type": "Feature", "geometry": {"type": "Polygon", "coordinates": [[[-94.8034044, 33.8832311], [-94.8034416, 33.8833663], [-94.8032676, 33.8833993], [-94.8032304, 33.8832641], [-94.8034044, 33.8832311]]]}, "properties": {"osm_id": 1349877006, "building": "house", "name": "", "height": null, "height_m": null, "levels": null, "tract_id": "40089098800", "tract_name": "988", "tags": {"building": "house"}}}, {"type": "Feature", "geometry": {"type": "Polygon", "coordinates": [[[-94.8034375, 33.88342], [-94.8034747, 33.8835552], [-94.8033007, 33.8835882], [-94.8032635, 33.883453], [-94.8034375, 33.88342]]]}, "properties": {"osm_id": 1349877007, "building": "house", "name": "", "height": null, "height_m": null, "levels": null, "tract_id": "40089098800", "tract_name": "988", "tags": {"building": "house"}}}, {"type": "Feature", "geometry": {"type": "Polygon", "coordinates": [[[-94.8034306, 33.8836295], [-94.8034678, 33.8837647], [-94.8032938, 33.8837977], [-94.8032566, 33.8836625], [-94.8034306, 33.8836295]]]}, "properties": {"osm_id": 1349877008, "building": "house", "name": "", "height": null, "height_m": null, "levels": null, "tract_id": "40089098800", "tract_name": "988", "tags": {"building": "house"}}}, {"type": "Feature", "geometry": {"type": "Polygon", "coordinates": [[[-94.8034771, 33.8838354], [-94.8035647, 33.8839535], [-94.8034128, 33.8840312], [-94.8033252, 33.8839131], [-94.8034771, 33.8838354]]]}, "properties": {"osm_id": 1349877009, "building": "house", "name": "", "height": null, "height_m": null, "levels": null, "tract_id": "40089098800", "tract_name": "988", "tags": {"building": "house"}}}, {"type": "Feature", "geometry": {"type": "Polygon", "coordinates": [[[-94.8038126, 33.8839191], [-94.8038498, 33.8840543], [-94.8036758, 33.8840873], [-94.8036386, 33.8839521], [-94.8038126, 33.8839191]]]}, "properties": {"osm_id": 1349877010, "building": "house", "name": "", "height": null, "height_m": null, "levels": null, "tract_id": "40089098800", "tract_name": "988", "tags": {"building": "house"}}}, {"type": "Feature", "geometry": {"type": "Polygon", "coordinates": [[[-94.804105, 33.8837689], [-94.8040811, 33.8839061], [-94.8039045, 33.8838849], [-94.8039284, 33.8837476], [-94.804105, 33.8837689]]]}, "properties": {"osm_id": 1349877011, "building": "house", "name": "", "height": null, "height_m": null, "levels": null, "tract_id": "40089098800", "tract_name": "988", "tags": {"building": "house"}}}, {"type": "Feature", "geometry": {"type": "Polygon", "coordinates": [[[-94.8040036, 33.8834879], [-94.8040157, 33.8836263], [-94.8038377, 33.883637], [-94.8038256, 33.8834987], [-94.8040036, 33.8834879]]]}, "properties": {"osm_id": 1349877012, "building": "house", "name": "", "height": null, "height_m": null, "levels": null, "tract_id": "40089098800", "tract_name": "988", "tags": {"building": "house"}}}, {"type": "Feature", "geometry": {"type": "Polygon", "coordinates": [[[-94.8039422, 33.8832952], [-94.8039794, 33.8834304], [-94.8038054, 33.8834634], [-94.8037682, 33.8833282], [-94.8039422, 33.8832952]]]}, "properties": {"osm_id": 1349877013, "building": "house", "name": "", "height": null, "height_m": null, "levels": null, "tract_id": "40089098800", "tract_name": "988", "tags": {"building": "house"}}}, {"type": "Feature", "geometry": {"type": "Polygon", "coordinates": [[[-94.8039867, 33.8831517], [-94.8039278, 33.8832815], [-94.8037608, 33.8832292], [-94.8038198, 33.8830994], [-94.8039867, 33.8831517]]]}, "properties": {"osm_id": 1349877014, "building": "house", "name": "", "height": null, "height_m": null, "levels": null, "tract_id": "40089098800", "tract_name": "988", "tags": {"building": "house"}}}, {"type": "Feature", "geometry": {"type": "Polygon", "coordinates": [[[-94.8048213, 33.8827937], [-94.8049417, 33.8828898], [-94.8048179, 33.8829966], [-94.8046976, 33.8829004], [-94.8048213, 33.8827937]]]}, "properties": {"osm_id": 1349877015, "building": "house", "name": "", "height": null, "height_m": null, "levels": null, "tract_id": "40089098800", "tract_name": "988", "tags": {"building": "house"}}}, {"type": "Feature", "geometry": {"type": "Polygon", "coordinates": [[[-94.8051135, 33.8831855], [-94.8049633, 33.8831249], [-94.8050414, 33.8829916], [-94.8051916, 33.8830523], [-94.8051135, 33.8831855]]]}, "properties": {"osm_id": 1349877016, "building": "house", "name": "", "height": null, "height_m": null, "levels": null, "tract_id": "40089098800", "tract_name": "988", "tags": {"building": "house"}}}, {"type": "Feature", "geometry": {"type": "Polygon", "coordinates": [[[-94.8053574, 33.8828527], [-94.8054186, 33.8829818], [-94.8052525, 33.883036], [-94.8051913, 33.8829069], [-94.8053574, 33.8828527]]]}, "properties": {"osm_id": 1349877017, "building": "house", "name": "", "height": null, "height_m": null, "levels": null, "tract_id": "40089098800", "tract_name": "988", "tags": {"building": "house"}}}, {"type": "Feature", "geometry": {"type": "Polygon", "coordinates": [[[-94.8054928, 33.8826134], [-94.8054995, 33.8827519], [-94.8053212, 33.8827579], [-94.8053144, 33.8826194], [-94.8054928, 33.8826134]]]}, "properties": {"osm_id": 1349877018, "building": "house", "name": "", "height": null, "height_m": null, "levels": null, "tract_id": "40089098800", "tract_name": "988", "tags": {"building": "house"}}}, {"type": "Feature", "geometry": {"type": "Polygon", "coordinates": [[[-94.8057231, 33.8829369], [-94.8056524, 33.8830626], [-94.8054907, 33.8829998], [-94.8055615, 33.8828742], [-94.8057231, 33.8829369]]]}, "properties": {"osm_id": 1349877019, "building": "house", "name": "", "height": null, "height_m": null, "levels": null, "tract_id": "40089098800", "tract_name": "988", "tags": {"building": "house"}}}, {"type": "Feature", "geometry": {"type": "Polygon", "coordinates": [[[-94.8058132, 33.8828649], [-94.8059179, 33.8827569], [-94.806057, 33.8828498], [-94.8059522, 33.8829578], [-94.8058132, 33.8828649]]]}, "properties": {"osm_id": 1349877020, "building": "house", "name": "", "height": null, "height_m": null, "levels": null, "tract_id": "40089098800", "tract_name": "988", "tags": {"building": "house"}}}, {"type": "Feature", "geometry": {"type": "Polygon", "coordinates": [[[-94.8061979, 33.8830938], [-94.8062351, 33.883229], [-94.8060611, 33.883262], [-94.8060239, 33.8831268], [-94.8061979, 33.8830938]]]}, "properties": {"osm_id": 1349877021, "building": "house", "name": "", "height": null, "height_m": null, "levels": null, "tract_id": "40089098800", "tract_name": "988", "tags": {"building": "house"}}}, {"type": "Feature", "geometry": {"type": "Polygon", "coordinates": [[[-94.8058614, 33.8832303], [-94.8056943, 33.8832324], [-94.8056917, 33.8830842], [-94.8058587, 33.8830821], [-94.8058614, 33.8832303]]]}, "properties": {"osm_id": 1349877022, "building": "house", "name": "", "height": null, "height_m": null, "levels": null, "tract_id": "40089098800", "tract_name": "988", "tags": {"building": "house"}}}, {"type": "Feature", "geometry": {"type": "Polygon", "coordinates": [[[-94.805738, 33.8834645], [-94.8055808, 33.8834175], [-94.8056413, 33.8832781], [-94.8057985, 33.8833251], [-94.805738, 33.8834645]]]}, "properties": {"osm_id": 1349877023, "building": "house", "name": "", "height": null, "height_m": null, "levels": null, "tract_id": "40089098800", "tract_name": "988", "tags": {"building": "house"}}}, {"type": "Feature", "geometry": {"type": "Polygon", "coordinates": [[[-94.8059707, 33.8834291], [-94.8061293, 33.8834727], [-94.8060732, 33.8836134], [-94.8059146, 33.8835698], [-94.8059707, 33.8834291]]]}, "properties": {"osm_id": 1349877024, "building": "house", "name": "", "height": null, "height_m": null, "levels": null, "tract_id": "40089098800", "tract_name": "988", "tags": {"building": "house"}}}, {"type": "Feature", "geometry": {"type": "Polygon", "coordinates": [[[-94.8067835, 33.8835501], [-94.8067509, 33.8836861], [-94.8065758, 33.8836572], [-94.8066084, 33.8835212], [-94.8067835, 33.8835501]]]}, "properties": {"osm_id": 1349877025, "building": "house", "name": "", "height": null, "height_m": null, "levels": null, "tract_id": "40089098800", "tract_name": "988", "tags": {"building": "house"}}}, {"type": "Feature", "geometry": {"type": "Polygon", "coordinates": [[[-94.8059431, 33.8836608], [-94.8058561, 33.8837793], [-94.8057037, 33.8837022], [-94.8057907, 33.8835837], [-94.8059431, 33.8836608]]]}, "properties": {"osm_id": 1349877026, "building": "house", "name": "", "height": null, "height_m": null, "levels": null, "tract_id": "40089098800", "tract_name": "988", "tags": {"building": "house"}}}, {"type": "Feature", "geometry": {"type": "Polygon", "coordinates": [[[-94.8062595, 33.8839545], [-94.8063886, 33.8840426], [-94.8062753, 33.8841571], [-94.8061462, 33.884069], [-94.8062595, 33.8839545]]]}, "properties": {"osm_id": 1349877027, "building": "house", "name": "", "height": null, "height_m": null, "levels": null, "tract_id": "40089098800", "tract_name": "988", "tags": {"building": "house"}}}, {"type": "Feature", "geometry": {"type": "Polygon", "coordinates": [[[-94.805738, 33.8843008], [-94.8058678, 33.8842135], [-94.8059802, 33.8843286], [-94.8058505, 33.8844159], [-94.805738, 33.8843008]]]}, "properties": {"osm_id": 1349877028, "building": "house", "name": "", "height": null, "height_m": null, "levels": null, "tract_id": "40089098800", "tract_name": "988", "tags": {"building": "house"}}}, {"type": "Feature", "geometry": {"type": "Polygon", "coordinates": [[[-94.8053863, 33.8840496], [-94.8055003, 33.8841509], [-94.8053698, 33.8842521], [-94.8052558, 33.8841507], [-94.8053863, 33.8840496]]]}, "properties": {"osm_id": 1349877029, "building": "house", "name": "", "height": null, "height_m": null, "levels": null, "tract_id": "40089098800", "tract_name": "988", "tags": {"building": "house"}}}, {"type": "Feature", "geometry": {"type": "Polygon", "coordinates": [[[-94.8049821, 33.8843982], [-94.8048909, 33.884282], [-94.8050404, 33.8842011], [-94.8051316, 33.8843173], [-94.8049821, 33.8843982]]]}, "properties": {"osm_id": 1349877030, "building": "house", "name": "", "height": null, "height_m": null, "levels": null, "tract_id": "40089098800", "tract_name": "988", "tags": {"building": "house"}}}, {"type": "Feature", "geometry": {"type": "Polygon", "coordinates": [[[-94.8054009, 33.8846573], [-94.8054381, 33.8847925], [-94.8052641, 33.8848255], [-94.8052269, 33.8846903], [-94.8054009, 33.8846573]]]}, "properties": {"osm_id": 1349877031, "building": "house", "name": "", "height": null, "height_m": null, "levels": null, "tract_id": "40089098800", "tract_name": "988", "tags": {"building": "house"}}}, {"type": "Feature", "geometry": {"type": "Polygon", "coordinates": [[[-94.8047777, 33.8837222], [-94.8048149, 33.8838574], [-94.8046409, 33.8838904], [-94.8046037, 33.8837552], [-94.8047777, 33.8837222]]]}, "properties": {"osm_id": 1349877032, "building": "house", "name": "", "height": null, "height_m": null, "levels": null, "tract_id": "40089098800", "tract_name": "988", "tags": {"building": "house"}}}, {"type": "Feature", "geometry": {"type": "Polygon", "coordinates": [[[-94.8030336, 33.8841134], [-94.8030391, 33.884252], [-94.8028608, 33.8842569], [-94.8028553, 33.8841183], [-94.8030336, 33.8841134]]]}, "properties": {"osm_id": 1349877033, "building": "house", "name": "", "height": null, "height_m": null, "levels": null, "tract_id": "40089098800", "tract_name": "988", "tags": {"building": "house"}}}, {"type": "Feature", "geometry": {"type": "Polygon", "coordinates": [[[-94.8021966, 33.8839717], [-94.8022338, 33.8841069], [-94.8020598, 33.8841399], [-94.8020226, 33.8840047], [-94.8021966, 33.8839717]]]}, "properties": {"osm_id": 1349877034, "building": "house", "name": "", "height": null, "height_m": null, "levels": null, "tract_id": "40089098800", "tract_name": "988", "tags": {"building": "house"}}}, {"type": "Feature", "geometry": {"type": "Polygon", "coordinates": [[[-94.8020587, 33.8842373], [-94.8020959, 33.8843725], [-94.8019219, 33.8844055], [-94.8018847, 33.8842703], [-94.8020587, 33.8842373]]]}, "properties": {"osm_id": 1349877035, "building": "house", "name": "", "height": null, "height_m": null, "levels": null, "tract_id": "40089098800", "tract_name": "988", "tags": {"building": "house"}}}, {"type": "Feature", "geometry": {"type": "Polygon", "coordinates": [[[-94.8014713, 33.884053], [-94.8015085, 33.8841882], [-94.8013345, 33.8842212], [-94.8012973, 33.884086], [-94.8014713, 33.884053]]]}, "properties": {"osm_id": 1349877036, "building": "house", "name": "", "height": null, "height_m": null, "levels": null, "tract_id": "40089098800", "tract_name": "988", "tags": {"building": "house"}}}, {"type": "Feature", "geometry": {"type": "Polygon", "coordinates": [[[-94.8015003, 33.8843368], [-94.8015375, 33.884472], [-94.8013635, 33.884505], [-94.8013263, 33.8843698], [-94.8015003, 33.8843368]]]}, "properties": {"osm_id": 1349877037, "building": "house", "name": "", "height": null, "height_m": null, "levels": null, "tract_id": "40089098800", "tract_name": "988", "tags": {"building": "house"}}}, {"type": "Feature", "geometry": {"type": "Polygon", "coordinates": [[[-94.8027605, 33.884599], [-94.8027977, 33.8847342], [-94.8026237, 33.8847672], [-94.8025865, 33.884632], [-94.8027605, 33.884599]]]}, "properties": {"osm_id": 1349877038, "building": "house", "name": "", "height": null, "height_m": null, "levels": null, "tract_id": "40089098800", "tract_name": "988", "tags": {"building": "house"}}}, {"type": "Feature", "geometry": {"type": "Polygon", "coordinates": [[[-94.8022062, 33.8846654], [-94.8022434, 33.8848006], [-94.8020694, 33.8848336], [-94.8020322, 33.8846984], [-94.8022062, 33.8846654]]]}, "properties": {"osm_id": 1349877039, "building": "house", "name": "", "height": null, "height_m": null, "levels": null, "tract_id": "40089098800", "tract_name": "988", "tags": {"building": "house"}}}, {"type": "Feature", "geometry": {"type": "Polygon", "coordinates": [[[-94.8014148, 33.8847615], [-94.801452, 33.8848967], [-94.801278, 33.8849297], [-94.8012408, 33.8847945], [-94.8014148, 33.8847615]]]}, "properties": {"osm_id": 1349877040, "building": "house", "name": "", "height": null, "height_m": null, "levels": null, "tract_id": "40089098800", "tract_name": "988", "tags": {"building": "house"}}}, {"type": "Feature", "geometry": {"type": "Polygon", "coordinates": [[[-94.8016409, 33.8850374], [-94.8016781, 33.8851726], [-94.8015041, 33.8852056], [-94.8014669, 33.8850704], [-94.8016409, 33.8850374]]]}, "properties": {"osm_id": 1349877041, "building": "house", "name": "", "height": null, "height_m": null, "levels": null, "tract_id": "40089098800", "tract_name": "988", "tags": {"building": "house"}}}, {"type": "Feature", "geometry": {"type": "Polygon", "coordinates": [[[-94.8012797, 33.8850912], [-94.8013169, 33.8852264], [-94.8011429, 33.8852594], [-94.8011057, 33.8851242], [-94.8012797, 33.8850912]]]}, "properties": {"osm_id": 1349877042, "building": "house", "name": "", "height": null, "height_m": null, "levels": null, "tract_id": "40089098800", "tract_name": "988", "tags": {"building": "house"}}}, {"type": "Feature", "geometry": {"type": "Polygon", "coordinates": [[[-94.8010177, 33.8848908], [-94.8010549, 33.885026], [-94.8008809, 33.885059], [-94.8008437, 33.8849238], [-94.8010177, 33.8848908]]]}, "properties": {"osm_id": 1349877043, "building": "house", "name": "", "height": null, "height_m": null, "levels": null, "tract_id": "40089098800", "tract_name": "988", "tags": {"building": "house"}}}, {"type": "Feature", "geometry": {"type": "Polygon", "coordinates": [[[-94.8009791, 33.8851347], [-94.8010163, 33.8852699], [-94.8008423, 33.8853029], [-94.8008051, 33.8851677], [-94.8009791, 33.8851347]]]}, "properties": {"osm_id": 1349877044, "building": "house", "name": "", "height": null, "height_m": null, "levels": null, "tract_id": "40089098800", "tract_name": "988", "tags": {"building": "house"}}}, {"type": "Feature", "geometry": {"type": "Polygon", "coordinates": [[[-94.8005671, 33.8854386], [-94.8004257, 33.8853647], [-94.8005208, 33.8852393], [-94.8006622, 33.8853132], [-94.8005671, 33.8854386]]]}, "properties": {"osm_id": 1349877045, "building": "house", "name": "", "height": null, "height_m": null, "levels": null, "tract_id": "40089098800", "tract_name": "988", "tags": {"building": "house"}}}, {"type": "Feature", "geometry": {"type": "Polygon", "coordinates": [[[-94.8006085, 33.8848983], [-94.8004438, 33.8848749], [-94.8004739, 33.8847288], [-94.8006386, 33.8847522], [-94.8006085, 33.8848983]]]}, "properties": {"osm_id": 1349877046, "building": "house", "name": "", "height": null, "height_m": null, "levels": null, "tract_id": "40089098800", "tract_name": "988", "tags": {"building": "house"}}}, {"type": "Feature", "geometry": {"type": "Polygon", "coordinates": [[[-94.800659, 33.8844164], [-94.8008051, 33.8844837], [-94.8007184, 33.8846132], [-94.8005724, 33.8845459], [-94.800659, 33.8844164]]]}, "properties": {"osm_id": 1349877047, "building": "house", "name": "", "height": null, "height_m": null, "levels": null, "tract_id": "40089098800", "tract_name": "988", "tags": {"building": "house"}}}, {"type": "Feature", "geometry": {"type": "Polygon", "coordinates": [[[-94.800611, 33.8840415], [-94.800444, 33.8840373], [-94.8004494, 33.8838892], [-94.8006163, 33.8838934], [-94.800611, 33.8840415]]]}, "properties": {"osm_id": 1349877048, "building": "house", "name": "", "height": null, "height_m": null, "levels": null, "tract_id": "40089098800", "tract_name": "988", "tags": {"building": "house"}}}, {"type": "Feature", "geometry": {"type": "Polygon", "coordinates": [[[-94.8012397, 33.8836295], [-94.8012769, 33.8837647], [-94.8011029, 33.8837977], [-94.8010657, 33.8836625], [-94.8012397, 33.8836295]]]}, "properties": {"osm_id": 1349877049, "building": "house", "name": "", "height": null, "height_m": null, "levels": null, "tract_id": "40089098800", "tract_name": "988", "tags": {"building": "house"}}}, {"type": "Feature", "geometry": {"type": "Polygon", "coordinates": [[[-94.8007113, 33.8856858], [-94.8005878, 33.8857792], [-94.8004676, 33.8856697], [-94.8005911, 33.8855763], [-94.8007113, 33.8856858]]]}, "properties": {"osm_id": 1349877050, "building": "house", "name": "", "height": null, "height_m": null, "levels": null, "tract_id": "40089098800", "tract_name": "988", "tags": {"building": "house"}}}, {"type": "Feature", "geometry": {"type": "Polygon", "coordinates": [[[-94.8009681, 33.8856806], [-94.8010053, 33.8858158], [-94.8008313, 33.8858488], [-94.8007941, 33.8857136], [-94.8009681, 33.8856806]]]}, "properties": {"osm_id": 1349877051, "building": "house", "name": "", "height": null, "height_m": null, "levels": null, "tract_id": "40089098800", "tract_name": "988", "tags": {"building": "house"}}}, {"type": "Feature", "geometry": {"type": "Polygon", "coordinates": [[[-94.801288, 33.8855479], [-94.8013252, 33.8856831], [-94.8011512, 33.8857161], [-94.801114, 33.8855809], [-94.801288, 33.8855479]]]}, "properties": {"osm_id": 1349877052, "building": "house", "name": "", "height": null, "height_m": null, "levels": null, "tract_id": "40089098800", "tract_name": "988", "tags": {"building": "house"}}}, {"type": "Feature", "geometry": {"type": "Polygon", "coordinates": [[[-94.8016531, 33.8856422], [-94.8014862, 33.8856463], [-94.8014809, 33.8854982], [-94.8016479, 33.885494], [-94.8016531, 33.8856422]]]}, "properties": {"osm_id": 1349877053, "building": "house", "name": "", "height": null, "height_m": null, "levels": null, "tract_id": "40089098800", "tract_name": "988", "tags": {"building": "house"}}}, {"type": "Feature", "geometry": {"type": "Polygon", "coordinates": [[[-94.8022297, 33.8855067], [-94.8022669, 33.8856419], [-94.8020929, 33.8856749], [-94.8020557, 33.8855397], [-94.8022297, 33.8855067]]]}, "properties": {"osm_id": 1349877054, "building": "house", "name": "", "height": null, "height_m": null, "levels": null, "tract_id": "40089098800", "tract_name": "988", "tags": {"building": "house"}}}, {"type": "Feature", "geometry": {"type": "Polygon", "coordinates": [[[-94.8016423, 33.8858191], [-94.8016795, 33.8859543], [-94.8015055, 33.8859873], [-94.8014683, 33.8858521], [-94.8016423, 33.8858191]]]}, "properties": {"osm_id": 1349877055, "building": "house", "name": "", "height": null, "height_m": null, "levels": null, "tract_id": "40089098800", "tract_name": "988", "tags": {"building": "house"}}}, {"type": "Feature", "geometry": {"type": "Polygon", "coordinates": [[[-94.801248, 33.8859279], [-94.8012852, 33.8860631], [-94.8011112, 33.8860961], [-94.801074, 33.8859609], [-94.801248, 33.8859279]]]}, "properties": {"osm_id": 1349877056, "building": "house", "name": "", "height": null, "height_m": null, "levels": null, "tract_id": "40089098800", "tract_name": "988", "tags": {"building": "house"}}}, {"type": "Feature", "geometry": {"type": "Polygon", "coordinates": [[[-94.8008743, 33.8859828], [-94.8009115, 33.886118], [-94.8007375, 33.886151], [-94.8007003, 33.8860158], [-94.8008743, 33.8859828]]]}, "properties": {"osm_id": 1349877057, "building": "house", "name": "", "height": null, "height_m": null, "levels": null, "tract_id": "40089098800", "tract_name": "988", "tags": {"building": "house"}}}, {"type": "Feature", "geometry": {"type": "Polygon", "coordinates": [[[-94.8006127, 33.8864014], [-94.8004524, 33.8863622], [-94.8005028, 33.8862201], [-94.800663, 33.8862592], [-94.8006127, 33.8864014]]]}, "properties": {"osm_id": 1349877058, "building": "house", "name": "", "height": null, "height_m": null, "levels": null, "tract_id": "40089098800", "tract_name": "988", "tags": {"building": "house"}}}, {"type": "Feature", "geometry": {"type": "Polygon", "coordinates": [[[-94.800761, 33.8865645], [-94.8006226, 33.8866421], [-94.8005227, 33.8865193], [-94.8006611, 33.8864417], [-94.800761, 33.8865645]]]}, "properties": {"osm_id": 1349877059, "building": "house", "name": "", "height": null, "height_m": null, "levels": null, "tract_id": "40089098800", "tract_name": "988", "tags": {"building": "house"}}}, {"type": "Feature", "geometry": {"type": "Polygon", "coordinates": [[[-94.8009737, 33.8865531], [-94.8010316, 33.8866831], [-94.8008642, 33.8867345], [-94.8008063, 33.8866045], [-94.8009737, 33.8865531]]]}, "properties": {"osm_id": 1349877060, "building": "house", "name": "", "height": null, "height_m": null, "levels": null, "tract_id": "40089098800", "tract_name": "988", "tags": {"building": "house"}}}, {"type": "Feature", "geometry": {"type": "Polygon", "coordinates": [[[-94.8013551, 33.886331], [-94.8014307, 33.8864546], [-94.8012715, 33.8865217], [-94.8011959, 33.886398], [-94.8013551, 33.886331]]]}, "properties": {"osm_id": 1349877061, "building": "house", "name": "", "height": null, "height_m": null, "levels": null, "tract_id": "40089098800", "tract_name": "988", "tags": {"building": "house"}}}, {"type": "Feature", "geometry": {"type": "Polygon", "coordinates": [[[-94.8016505, 33.8864707], [-94.8014835, 33.8864729], [-94.8014807, 33.8863247], [-94.8016478, 33.8863226], [-94.8016505, 33.8864707]]]}, "properties": {"osm_id": 1349877062, "building": "house", "name": "", "height": null, "height_m": null, "levels": null, "tract_id": "40089098800", "tract_name": "988", "tags": {"building": "house"}}}, {"type": "Feature", "geometry": {"type": "Polygon", "coordinates": [[[-94.8022032, 33.8863091], [-94.8021927, 33.8864475], [-94.8020146, 33.8864382], [-94.8020251, 33.8862998], [-94.8022032, 33.8863091]]]}, "properties": {"osm_id": 1349877063, "building": "house", "name": "", "height": null, "height_m": null, "levels": null, "tract_id": "40089098800", "tract_name": "988", "tags": {"building": "house"}}}, {"type": "Feature", "geometry": {"type": "Polygon", "coordinates": [[[-94.8025603, 33.8862651], [-94.8025585, 33.8864038], [-94.80238, 33.8864021], [-94.8023818, 33.8862635], [-94.8025603, 33.8862651]]]}, "properties": {"osm_id": 1349877064, "building": "house", "name": "", "height": null, "height_m": null, "levels": null, "tract_id": "40089098800", "tract_name": "988", "tags": {"building": "house"}}}, {"type": "Feature", "geometry": {"type": "Polygon", "coordinates": [[[-94.802806, 33.8862129], [-94.8028432, 33.8863481], [-94.8026692, 33.8863811], [-94.802632, 33.8862459], [-94.802806, 33.8862129]]]}, "properties": {"osm_id": 1349877065, "building": "house", "name": "", "height": null, "height_m": null, "levels": null, "tract_id": "40089098800", "tract_name": "988", "tags": {"building": "house"}}}, {"type": "Feature", "geometry": {"type": "Polygon", "coordinates": [[[-94.8031535, 33.8861934], [-94.8031907, 33.8863286], [-94.8030167, 33.8863616], [-94.8029795, 33.8862264], [-94.8031535, 33.8861934]]]}, "properties": {"osm_id": 1349877066, "building": "house", "name": "", "height": null, "height_m": null, "levels": null, "tract_id": "40089098800", "tract_name": "988", "tags": {"building": "house"}}}, {"type": "Feature", "geometry": {"type": "Polygon", "coordinates": [[[-94.8033039, 33.8860452], [-94.8034645, 33.8860836], [-94.803415, 33.886226], [-94.8032545, 33.8861876], [-94.8033039, 33.8860452]]]}, "properties": {"osm_id": 1349877067, "building": "house", "name": "", "height": null, "height_m": null, "levels": null, "tract_id": "40089098800", "tract_name": "988", "tags": {"building": "house"}}}, {"type": "Feature", "geometry": {"type": "Polygon", "coordinates": [[[-94.8033833, 33.8858158], [-94.8032921, 33.885932], [-94.8031426, 33.8858511], [-94.8032338, 33.8857349], [-94.8033833, 33.8858158]]]}, "properties": {"osm_id": 1349877068, "building": "house", "name": "", "height": null, "height_m": null, "levels": null, "tract_id": "40089098800", "tract_name": "988", "tags": {"building": "house"}}}, {"type": "Feature", "geometry": {"type": "Polygon", "coordinates": [[[-94.8029354, 33.8857203], [-94.8029334, 33.885859], [-94.8027549, 33.8858572], [-94.8027569, 33.8857186], [-94.8029354, 33.8857203]]]}, "properties": {"osm_id": 1349877069, "building": "house", "name": "", "height": null, "height_m": null, "levels": null, "tract_id": "40089098800", "tract_name": "988", "tags": {"building": "house"}}}, {"type": "Feature", "geometry": {"type": "Polygon", "coordinates": [[[-94.8027081, 33.8854311], [-94.8027453, 33.8855663], [-94.8025713, 33.8855993], [-94.8025341, 33.8854641], [-94.8027081, 33.8854311]]]}, "properties": {"osm_id": 1349877070, "building": "house", "name": "", "height": null, "height_m": null, "levels": null, "tract_id": "40089098800", "tract_name": "988", "tags": {"building": "house"}}}, {"type": "Feature", "geometry": {"type": "Polygon", "coordinates": [[[-94.8035354, 33.8852686], [-94.8035726, 33.8854038], [-94.8033986, 33.8854368], [-94.8033614, 33.8853016], [-94.8035354, 33.8852686]]]}, "properties": {"osm_id": 1349877071, "building": "house", "name": "", "height": null, "height_m": null, "levels": null, "tract_id": "40089098800", "tract_name": "988", "tags": {"building": "house"}}}, {"type": "Feature", "geometry": {"type": "Polygon", "coordinates": [[[-94.8035258, 33.8849366], [-94.803563, 33.8850718], [-94.803389, 33.8851048], [-94.8033518, 33.8849696], [-94.8035258, 33.8849366]]]}, "properties": {"osm_id": 1349877072, "building": "house", "name": "", "height": null, "height_m": null, "levels": null, "tract_id": "40089098800", "tract_name": "988", "tags": {"building": "house"}}}, {"type": "Feature", "geometry": {"type": "Polygon", "coordinates": [[[-94.8029991, 33.8849652], [-94.8030363, 33.8851004], [-94.8028623, 33.8851334], [-94.8028251, 33.8849982], [-94.8029991, 33.8849652]]]}, "properties": {"osm_id": 1349877073, "building": "house", "name": "", "height": null, "height_m": null, "levels": null, "tract_id": "40089098800", "tract_name": "988", "tags": {"building": "house"}}}, {"type": "Feature", "geometry": {"type": "Polygon", "coordinates": [[[-94.8026268, 33.8850259], [-94.802664, 33.8851611], [-94.80249, 33.8851941], [-94.8024528, 33.8850589], [-94.8026268, 33.8850259]]]}, "properties": {"osm_id": 1349877074, "building": "house", "name": "", "height": null, "height_m": null, "levels": null, "tract_id": "40089098800", "tract_name": "988", "tags": {"building": "house"}}}, {"type": "Feature", "geometry": {"type": "Polygon", "coordinates": [[[-94.8021925, 33.8851003], [-94.8022297, 33.8852355], [-94.8020557, 33.8852685], [-94.8020185, 33.8851333], [-94.8021925, 33.8851003]]]}, "properties": {"osm_id": 1349877075, "building": "house", "name": "", "height": null, "height_m": null, "levels": null, "tract_id": "40089098800", "tract_name": "988", "tags": {"building": "house"}}}, {"type": "Feature", "geometry": {"type": "Polygon", "coordinates": [[[-94.8020143, 33.8865741], [-94.8021688, 33.8865215], [-94.8022366, 33.8866585], [-94.802082, 33.8867112], [-94.8020143, 33.8865741]]]}, "properties": {"osm_id": 1349877076, "building": "house", "name": "", "height": null, "height_m": null, "levels": null, "tract_id": "40089098800", "tract_name": "988", "tags": {"building": "house"}}}, {"type": "Feature", "geometry": {"type": "Polygon", "coordinates": [[[-94.8024657, 33.8867702], [-94.802471, 33.8869088], [-94.8022926, 33.8869135], [-94.8022873, 33.8867748], [-94.8024657, 33.8867702]]]}, "properties": {"osm_id": 1349877077, "building": "house", "name": "", "height": null, "height_m": null, "levels": null, "tract_id": "40089098800", "tract_name": "988", "tags": {"building": "house"}}}, {"type": "Feature", "geometry": {"type": "Polygon", "coordinates": [[[-94.8026861, 33.8865322], [-94.8027233, 33.8866674], [-94.8025493, 33.8867004], [-94.8025121, 33.8865652], [-94.8026861, 33.8865322]]]}, "properties": {"osm_id": 1349877078, "building": "house", "name": "", "height": null, "height_m": null, "levels": null, "tract_id": "40089098800", "tract_name": "988", "tags": {"building": "house"}}}, {"type": "Feature", "geometry": {"type": "Polygon", "coordinates": [[[-94.8030178, 33.8865594], [-94.8029664, 33.8866914], [-94.8027966, 33.8866458], [-94.802848, 33.8865138], [-94.8030178, 33.8865594]]]}, "properties": {"osm_id": 1349877079, "building": "house", "name": "", "height": null, "height_m": null, "levels": null, "tract_id": "40089098800", "tract_name": "988", "tags": {"building": "house"}}}, {"type": "Feature", "geometry": {"type": "Polygon", "coordinates": [[[-94.8030411, 33.8867909], [-94.8031701, 33.8867028], [-94.8032835, 33.8868172], [-94.8031545, 33.8869053], [-94.8030411, 33.8867909]]]}, "properties": {"osm_id": 1349877080, "building": "house", "name": "", "height": null, "height_m": null, "levels": null, "tract_id": "40089098800", "tract_name": "988", "tags": {"building": "house"}}}, {"type": "Feature", "geometry": {"type": "Polygon", "coordinates": [[[-94.8025691, 33.8873015], [-94.8024021, 33.8873062], [-94.802396, 33.8871582], [-94.802563, 33.8871534], [-94.8025691, 33.8873015]]]}, "properties": {"osm_id": 1349877081, "building": "house", "name": "", "height": null, "height_m": null, "levels": null, "tract_id": "40089098800", "tract_name": "988", "tags": {"building": "house"}}}, {"type": "Feature", "geometry": {"type": "Polygon", "coordinates": [[[-94.8030928, 33.8871606], [-94.80313, 33.8872958], [-94.802956, 33.8873288], [-94.8029188, 33.8871936], [-94.8030928, 33.8871606]]]}, "properties": {"osm_id": 1349877082, "building": "house", "name": "", "height": null, "height_m": null, "levels": null, "tract_id": "40089098800", "tract_name": "988", "tags": {"building": "house"}}}, {"type": "Feature", "geometry": {"type": "Polygon", "coordinates": [[[-94.8030687, 33.8875889], [-94.802903, 33.8875718], [-94.802925, 33.8874248], [-94.8030907, 33.8874419], [-94.8030687, 33.8875889]]]}, "properties": {"osm_id": 1349877083, "building": "house", "name": "", "height": null, "height_m": null, "levels": null, "tract_id": "40089098800", "tract_name": "988", "tags": {"building": "house"}}}, {"type": "Feature", "geometry": {"type": "Polygon", "coordinates": [[[-94.8029, 33.8876652], [-94.8030376, 33.8877437], [-94.8029365, 33.8878658], [-94.8027989, 33.8877873], [-94.8029, 33.8876652]]]}, "properties": {"osm_id": 1349877084, "building": "house", "name": "", "height": null, "height_m": null, "levels": null, "tract_id": "40089098800", "tract_name": "988", "tags": {"building": "house"}}}, {"type": "Feature", "geometry": {"type": "Polygon", "coordinates": [[[-94.8025425, 33.8876385], [-94.8023965, 33.8875711], [-94.8024832, 33.8874416], [-94.8026292, 33.887509], [-94.8025425, 33.8876385]]]}, "properties": {"osm_id": 1349877085, "building": "house", "name": "", "height": null, "height_m": null, "levels": null, "tract_id": "40089098800", "tract_name": "988", "tags": {"building": "house"}}}, {"type": "Feature", "geometry": {"type": "Polygon", "coordinates": [[[-94.8023951, 33.8875807], [-94.8024323, 33.8877159], [-94.8022583, 33.8877489], [-94.8022211, 33.8876137], [-94.8023951, 33.8875807]]]}, "properties": {"osm_id": 1349877086, "building": "house", "name": "", "height": null, "height_m": null, "levels": null, "tract_id": "40089098800", "tract_name": "988", "tags": {"building": "house"}}}, {"type": "Feature", "geometry": {"type": "Polygon", "coordinates": [[[-94.8020842, 33.8875651], [-94.8020334, 33.8876973], [-94.8018634, 33.8876522], [-94.8019141, 33.8875201], [-94.8020842, 33.8875651]]]}, "properties": {"osm_id": 1349877087, "building": "house", "name": "", "height": null, "height_m": null, "levels": null, "tract_id": "40089098800", "tract_name": "988", "tags": {"building": "house"}}}, {"type": "Feature", "geometry": {"type": "Polygon", "coordinates": [[[-94.8016937, 33.8878225], [-94.8015437, 33.8877614], [-94.8016223, 33.8876284], [-94.8017723, 33.8876894], [-94.8016937, 33.8878225]]]}, "properties": {"osm_id": 1349877088, "building": "house", "name": "", "height": null, "height_m": null, "levels": null, "tract_id": "40089098800", "tract_name": "988", "tags": {"building": "house"}}}, {"type": "Feature", "geometry": {"type": "Polygon", "coordinates": [[[-94.8019815, 33.887121], [-94.8019367, 33.8872547], [-94.8017648, 33.887215], [-94.8018095, 33.8870814], [-94.8019815, 33.887121]]]}, "properties": {"osm_id": 1349877089, "building": "house", "name": "", "height": null, "height_m": null, "levels": null, "tract_id": "40089098800", "tract_name": "988", "tags": {"building": "house"}}}, {"type": "Feature", "geometry": {"type": "Polygon", "coordinates": [[[-94.801644, 33.8871161], [-94.8017308, 33.8872345], [-94.8015783, 33.8873116], [-94.8014915, 33.8871931], [-94.801644, 33.8871161]]]}, "properties": {"osm_id": 1349877090, "building": "house", "name": "", "height": null, "height_m": null, "levels": null, "tract_id": "40089098800", "tract_name": "988", "tags": {"building": "house"}}}, {"type": "Feature", "geometry": {"type": "Polygon", "coordinates": [[[-94.8013526, 33.8873165], [-94.8014631, 33.8874206], [-94.8013292, 33.8875186], [-94.8012187, 33.8874145], [-94.8013526, 33.8873165]]]}, "properties": {"osm_id": 1349877091, "building": "house", "name": "", "height": null, "height_m": null, "levels": null, "tract_id": "40089098800", "tract_name": "988", "tags": {"building": "house"}}}, {"type": "Feature", "geometry": {"type": "Polygon", "coordinates": [[[-94.801299, 33.8876173], [-94.8013362, 33.8877525], [-94.8011622, 33.8877855], [-94.801125, 33.8876503], [-94.801299, 33.8876173]]]}, "properties": {"osm_id": 1349877092, "building": "house", "name": "", "height": null, "height_m": null, "levels": null, "tract_id": "40089098800", "tract_name": "988", "tags": {"building": "house"}}}, {"type": "Feature", "geometry": {"type": "Polygon", "coordinates": [[[-94.8016791, 33.888011], [-94.8015197, 33.8880528], [-94.801466, 33.8879115], [-94.8016253, 33.8878697], [-94.8016791, 33.888011]]]}, "properties": {"osm_id": 1349877093, "building": "house", "name": "", "height": null, "height_m": null, "levels": null, "tract_id": "40089098800", "tract_name": "988", "tags": {"building": "house"}}}, {"type": "Feature", "geometry": {"type": "Polygon", "coordinates": [[[-94.8019306, 33.888056], [-94.8018967, 33.8881918], [-94.8017219, 33.8881618], [-94.8017558, 33.888026], [-94.8019306, 33.888056]]]}, "properties": {"osm_id": 1349877094, "building": "house", "name": "", "height": null, "height_m": null, "levels": null, "tract_id": "40089098800", "tract_name": "988", "tags": {"building": "house"}}}, {"type": "Feature", "geometry": {"type": "Polygon", "coordinates": [[[-94.8022515, 33.8880144], [-94.8022439, 33.8881529], [-94.8020656, 33.8881462], [-94.8020732, 33.8880076], [-94.8022515, 33.8880144]]]}, "properties": {"osm_id": 1349877095, "building": "house", "name": "", "height": null, "height_m": null, "levels": null, "tract_id": "40089098800", "tract_name": "988", "tags": {"building": "house"}}}, {"type": "Feature", "geometry": {"type": "Polygon", "coordinates": [[[-94.8024875, 33.8879824], [-94.8025247, 33.8881176], [-94.8023507, 33.8881506], [-94.8023135, 33.8880154], [-94.8024875, 33.8879824]]]}, "properties": {"osm_id": 1349877096, "building": "house", "name": "", "height": null, "height_m": null, "levels": null, "tract_id": "40089098800", "tract_name": "988", "tags": {"building": "house"}}}, {"type": "Feature", "geometry": {"type": "Polygon", "coordinates": [[[-94.8026678, 33.8878582], [-94.8028026, 33.8879401], [-94.8026972, 33.8880597], [-94.8025624, 33.8879778], [-94.8026678, 33.8878582]]]}, "properties": {"osm_id": 1349877097, "building": "house", "name": "", "height": null, "height_m": null, "levels": null, "tract_id": "40089098800", "tract_name": "988", "tags": {"building": "house"}}}, {"type": "Feature", "geometry": {"type": "Polygon", "coordinates": [[[-94.8011772, 33.8878603], [-94.8013287, 33.8879186], [-94.8012537, 33.888053], [-94.8011021, 33.8879947], [-94.8011772, 33.8878603]]]}, "properties": {"osm_id": 1349877098, "building": "house", "name": "", "height": null, "height_m": null, "levels": null, "tract_id": "40089098800", "tract_name": "988", "tags": {"building": "house"}}}, {"type": "Feature", "geometry": {"type": "Polygon", "coordinates": [[[-94.8010508, 33.8880385], [-94.801088, 33.8881737], [-94.800914, 33.8882067], [-94.8008768, 33.8880715], [-94.8010508, 33.8880385]]]}, "properties": {"osm_id": 1349877099, "building": "house", "name": "", "height": null, "height_m": null, "levels": null, "tract_id": "40089098800", "tract_name": "988", "tags": {"building": "house"}}}, {"type": "Feature", "geometry": {"type": "Polygon", "coordinates": [[[-94.8007542, 33.888057], [-94.8006325, 33.888152], [-94.8005102, 33.888044], [-94.8006319, 33.887949], [-94.8007542, 33.888057]]]}, "properties": {"osm_id": 1349877100, "building": "house", "name": "", "height": null, "height_m": null, "levels": null, "tract_id": "40089098800", "tract_name": "988", "tags": {"building": "house"}}}, {"type": "Feature", "geometry": {"type": "Polygon", "coordinates": [[[-94.8006477, 33.8878564], [-94.8004833, 33.887832], [-94.8005146, 33.8876861], [-94.8006791, 33.8877105], [-94.8006477, 33.8878564]]]}, "properties": {"osm_id": 1349877101, "building": "house", "name": "", "height": null, "height_m": null, "levels": null, "tract_id": "40089098800", "tract_name": "988", "tags": {"building": "house"}}}, {"type": "Feature", "geometry": {"type": "Polygon", "coordinates": [[[-94.8007254, 33.8874239], [-94.8007626, 33.8875591], [-94.8005886, 33.8875921], [-94.8005514, 33.8874569], [-94.8007254, 33.8874239]]]}, "properties": {"osm_id": 1349877102, "building": "house", "name": "", "height": null, "height_m": null, "levels": null, "tract_id": "40089098800", "tract_name": "988", "tags": {"building": "house"}}}, {"type": "Feature", "geometry": {"type": "Polygon", "coordinates": [[[-94.8007681, 33.8869489], [-94.8008053, 33.8870841], [-94.8006313, 33.8871171], [-94.8005941, 33.8869819], [-94.8007681, 33.8869489]]]}, "properties": {"osm_id": 1349877103, "building": "house", "name": "", "height": null, "height_m": null, "levels": null, "tract_id": "40089098800", "tract_name": "988", "tags": {"building": "house"}}}, {"type": "Feature", "geometry": {"type": "Polygon", "coordinates": [[[-94.8010549, 33.8869409], [-94.8010921, 33.8870761], [-94.8009181, 33.887109], [-94.8008809, 33.8869739], [-94.8010549, 33.8869409]]]}, "properties": {"osm_id": 1349877104, "building": "house", "name": "", "height": null, "height_m": null, "levels": null, "tract_id": "40089098800", "tract_name": "988", "tags": {"building": "house"}}}, {"type": "Feature", "geometry": {"type": "Polygon", "coordinates": [[[-94.8013218, 33.8868112], [-94.8014178, 33.8869246], [-94.8012718, 33.8870098], [-94.8011757, 33.8868963], [-94.8013218, 33.8868112]]]}, "properties": {"osm_id": 1349877105, "building": "house", "name": "", "height": null, "height_m": null, "levels": null, "tract_id": "40089098800", "tract_name": "988", "tags": {"building": "house"}}}, {"type": "Feature", "geometry": {"type": "Polygon", "coordinates": [[[-94.8016299, 33.8865803], [-94.8016671, 33.8867155], [-94.8014931, 33.8867485], [-94.8014559, 33.8866133], [-94.8016299, 33.8865803]]]}, "properties": {"osm_id": 1349877106, "building": "house", "name": "", "height": null, "height_m": null, "levels": null, "tract_id": "40089098800", "tract_name": "988", "tags": {"building": "house"}}}, {"type": "Feature", "geometry": {"type": "Polygon", "coordinates": [[[-94.8051188, 33.8822228], [-94.805156, 33.882358], [-94.804982, 33.882391], [-94.8049448, 33.8822558], [-94.8051188, 33.8822228]]]}, "properties": {"osm_id": 1349877107, "building": "house", "name": "", "height": null, "height_m": null, "levels": null, "tract_id": "40089098800", "tract_name": "988", "tags": {"building": "house"}}}, {"type": "Feature", "geometry": {"type": "Polygon", "coordinates": [[[-94.8054396, 33.8821873], [-94.8054592, 33.882325], [-94.8052819, 33.8823424], [-94.8052624, 33.8822046], [-94.8054396, 33.8821873]]]}, "properties": {"osm_id": 1349877108, "building": "house", "name": "", "height": null, "height_m": null, "levels": null, "tract_id": "40089098800", "tract_name": "988", "tags": {"building": "house"}}}, {"type": "Feature", "geometry": {"type": "Polygon", "coordinates": [[[-94.8057444, 33.8822026], [-94.8059114, 33.8821999], [-94.8059148, 33.8823481], [-94.8057478, 33.8823508], [-94.8057444, 33.8822026]]]}, "properties": {"osm_id": 1349877109, "building": "house", "name": "", "height": null, "height_m": null, "levels": null, "tract_id": "40089098800", "tract_name": "988", "tags": {"building": "house"}}}, {"type": "Feature", "geometry": {"type": "Polygon", "coordinates": [[[-94.8064082, 33.8827177], [-94.8065496, 33.8826438], [-94.8066447, 33.8827692], [-94.8065034, 33.8828431], [-94.8064082, 33.8827177]]]}, "properties": {"osm_id": 1349877110, "building": "house", "name": "", "height": null, "height_m": null, "levels": null, "tract_id": "40089098800", "tract_name": "988", "tags": {"building": "house"}}}, {"type": "Feature", "geometry": {"type": "Polygon", "coordinates": [[[-94.8065142, 33.8817036], [-94.8065145, 33.8818423], [-94.806336, 33.8818425], [-94.8063357, 33.8817039], [-94.8065142, 33.8817036]]]}, "properties": {"osm_id": 1349877111, "building": "house", "name": "", "height": null, "height_m": null, "levels": null, "tract_id": "40089098800", "tract_name": "988", "tags": {"building": "house"}}}, {"type": "Feature", "geometry": {"type": "Polygon", "coordinates": [[[-94.8269235, 33.8937305], [-94.8271374, 33.8940624], [-94.8268591, 33.894186], [-94.8267465, 33.8940113], [-94.8267927, 33.8939755], [-94.8266991, 33.8938302], [-94.8269235, 33.8937305]]]}, "properties": {"osm_id": 1350824720, "building": "yes", "name": "", "height": null, "height_m": null, "levels": null, "tract_id": "40089098800", "tract_name": "988", "tags": {"building": "yes"}}}, {"type": "Feature", "geometry": {"type": "Polygon", "coordinates": [[[-94.8274183, 33.8939494], [-94.8272188, 33.8936092], [-94.8274569, 33.893513], [-94.8274838, 33.8935588], [-94.8276729, 33.8934824], [-94.8277523, 33.8936178], [-94.8275917, 33.8936827], [-94.8276849, 33.8938416], [-94.8274183, 33.8939494]]]}, "properties": {"osm_id": 1350824721, "building": "yes", "name": "", "height": null, "height_m": null, "levels": null, "tract_id": "40089098800", "tract_name": "988", "tags": {"building": "yes"}}}, {"type": "Feature", "geometry": {"type": "Polygon", "coordinates": [[[-94.8276891, 33.8940272], [-94.8277584, 33.8941429], [-94.8276098, 33.8942042], [-94.8275405, 33.8940886], [-94.8276891, 33.8940272]]]}, "properties": {"osm_id": 1350824723, "building": "yes", "name": "", "height": null, "height_m": null, "levels": null, "tract_id": "40089098800", "tract_name": "988", "tags": {"building": "yes"}}}, {"type": "Feature", "geometry": {"type": "Polygon", "coordinates": [[[-94.8279493, 33.8948189], [-94.8278411, 33.8946408], [-94.8279993, 33.8945746], [-94.8281075, 33.8947527], [-94.8279493, 33.8948189]]]}, "properties": {"osm_id": 1350824724, "building": "yes", "name": "", "height": null, "height_m": null, "levels": null, "tract_id": "40089098800", "tract_name": "988", "tags": {"building": "yes"}}}, {"type": "Feature", "geometry": {"type": "Polygon", "coordinates": [[[-94.8286558, 33.8942688], [-94.8287585, 33.8944359], [-94.8287585, 33.8944717], [-94.8283776, 33.894633], [-94.8282574, 33.8944374], [-94.8286558, 33.8942688]]]}, "properties": {"osm_id": 1350824725, "building": "yes", "name": "", "height": null, "height_m": null, "levels": null, "tract_id": "40089098800", "tract_name": "988", "tags": {"building": "yes"}}}, {"type": "Feature", "geometry": {"type": "Polygon", "coordinates": [[[-94.8290997, 33.8966986], [-94.8287182, 33.8960786], [-94.8287866, 33.8960496], [-94.8287476, 33.8959864], [-94.82889, 33.895926], [-94.8290008, 33.8961061], [-94.8290777, 33.8960735], [-94.8291498, 33.8961905], [-94.829271, 33.896139], [-94.829437, 33.8964087], [-94.8293008, 33.8964664], [-94.8293725, 33.8965829], [-94.8290997, 33.8966986]]]}, "properties": {"osm_id": 1350824726, "building": "yes", "name": "", "height": null, "height_m": null, "levels": null, "tract_id": "40089098800", "tract_name": "988", "tags": {"building": "yes"}}}, {"type": "Feature", "geometry": {"type": "Polygon", "coordinates": [[[-94.8271287, 33.8958811], [-94.826933, 33.8955722], [-94.8277092, 33.8952334], [-94.8278403, 33.8954404], [-94.8275116, 33.8955838], [-94.8275549, 33.8956522], [-94.8274849, 33.8956827], [-94.8274401, 33.8956119], [-94.8272936, 33.8956758], [-94.8273598, 33.8957803], [-94.8271287, 33.8958811]]]}, "properties": {"osm_id": 1350824727, "building": "yes", "name": "", "height": null, "height_m": null, "levels": null, "tract_id": "40089098800", "tract_name": "988", "tags": {"building": "yes"}}}, {"type": "Feature", "geometry": {"type": "Polygon", "coordinates": [[[-94.8259487, 33.8960297], [-94.8261313, 33.8963208], [-94.8266026, 33.8961172], [-94.8264201, 33.8958261], [-94.8259487, 33.8960297]]]}, "properties": {"osm_id": 1350824728, "building": "yes", "name": "", "height": null, "height_m": null, "levels": null, "tract_id": "40089098800", "tract_name": "988", "tags": {"building": "yes"}}}]}