{"type": "FeatureCollection", "features": [{"type": "Feature", "geometry": {"type": "Polygon", "coordinates": [[[-96.4993899, 33.880768], [-96.4990944, 33.8807687], [-96.499095, 33.8809354], [-96.4993904, 33.8809348], [-96.4993899, 33.880768]]]}, "properties": {"osm_id": 226290127, "building": "yes", "name": "", "height": null, "height_m": null, "levels": null, "tract_id": "40013796600", "tract_name": "7966", "tags": {"building": "yes"}}}, {"type": "Feature", "geometry": {"type": "Polygon", "coordinates": [[[-96.500447, 33.8812389], [-96.5000747, 33.8812383], [-96.5000742, 33.8814372], [-96.5003389, 33.8814376], [-96.500339, 33.8814043], [-96.5004465, 33.8814045], [-96.500447, 33.8812389]]]}, "properties": {"osm_id": 226290130, "building": "yes", "name": "Love's", "height": null, "height_m": null, "levels": null, "tract_id": "40013796600", "tract_name": "7966", "tags": {"addr:city": "Calera", "addr:housenumber": "2150", "addr:postcode": "74730", "addr:state": "OK", "addr:street": "Leavenworth Trail", "brand": "Love's", "brand:wikidata": "Q1872496", "building": "yes", "name": "Love's", "shop": "convenience"}}}, {"type": "Feature", "geometry": {"type": "Polygon", "coordinates": [[[-96.5124676, 33.8440239], [-96.5125795, 33.8438296], [-96.5127707, 33.8439056], [-96.5126588, 33.8440999], [-96.5124676, 33.8440239]]]}, "properties": {"osm_id": 252369195, "building": "yes", "name": "Oklahoma Tourism Center", "height": null, "height_m": null, "levels": null, "tract_id": "40013796600", "tract_name": "7966", "tags": {"addr:city": "Colbert", "addr:housenumber": "1882", "addr:postcode": "74733", "addr:state": "OK", "addr:street": "US Highway 69", "building": "yes", "drinking_water": "yes", "highway": "rest_area", "information": "office", "name": "Oklahoma Tourism Center", "toilets": "yes", "tourism": "information"}}}, {"type": "Feature", "geometry": {"type": "Polygon", "coordinates": [[[-96.5127233, 33.8608582], [-96.512442, 33.8608535], [-96.5124474, 33.8606282], [-96.5127287, 33.8606329], [-96.5127233, 33.8608582]]]}, "properties": {"osm_id": 309142638, "building": "yes", "name": "", "height": null, "height_m": null, "levels": null, "tract_id": "40013796600", "tract_name": "7966", "tags": {"building": "yes"}}}, {"type": "Feature", "geometry": {"type": "Polygon", "coordinates": [[[-96.5658828, 33.8532012], [-96.5658833, 33.8531056], [-96.565741, 33.8531051], [-96.5657406, 33.8532007], [-96.5658828, 33.8532012]]]}, "properties": {"osm_id": 988158734, "building": "yes", "name": "Dam Bar", "height": null, "height_m": null, "levels": null, "tract_id": "40013796600", "tract_name": "7966", "tags": {"addr:city": "Cartwright", "addr:housenumber": "26", "addr:postcode": "74731", "addr:state": "OK", "addr:street": "Boat Club Road", "amenity": "bar", "building": "yes", "name": "Dam Bar"}}}, {"type": "Feature", "geometry": {"type": "Polygon", "coordinates": [[[-96.5662459, 33.8533231], [-96.5662457, 33.8532215], [-96.5660562, 33.8532217], [-96.5660563, 33.8532743], [-96.5660036, 33.8532744], [-96.5660037, 33.8533234], [-96.5662459, 33.8533231]]]}, "properties": {"osm_id": 988158735, "building": "yes", "name": "Cartwright Post Office", "height": null, "height_m": null, "levels": null, "tract_id": "40013796600", "tract_name": "7966", "tags": {"addr:city": "Cartwright", "addr:housenumber": "52", "addr:postcode": "74731", "addr:state": "OK", "addr:street": "Boat Club Road", "amenity": "post_office", "building": "yes", "name": "Cartwright Post Office", "operator": "United States Postal Service", "operator:short": "USPS", "operator:type": "public", "operator:website": "https://www.usps.com", "operator:wikidata": "Q668687", "operator:wikipedia": "en:United States Postal Service", "short_name": "USPS"}}}, {"type": "Feature", "geometry": {"type": "Polygon", "coordinates": [[[-96.5677746, 33.853122], [-96.5677732, 33.853038], [-96.5676114, 33.8530399], [-96.5676128, 33.8531239], [-96.5677746, 33.853122]]]}, "properties": {"osm_id": 988158736, "building": "roof", "name": "Lucky Stop", "height": null, "height_m": null, "levels": null, "tract_id": "40013796600", "tract_name": "7966", "tags": {"amenity": "fuel", "building": "roof", "name": "Lucky Stop"}}}, {"type": "Feature", "geometry": {"type": "Polygon", "coordinates": [[[-96.567808, 33.8534903], [-96.567808, 33.8534778], [-96.5678308, 33.8534778], [-96.5678303, 33.853293], [-96.5677262, 33.8532932], [-96.5677262, 33.8532699], [-96.5676493, 33.85327], [-96.5676494, 33.8532913], [-96.5674684, 33.8532916], [-96.5674689, 33.8534785], [-96.5674953, 33.8534784], [-96.5674954, 33.8534908], [-96.567808, 33.8534903]]]}, "properties": {"osm_id": 988158737, "building": "yes", "name": "Lucky Stop", "height": null, "height_m": null, "levels": null, "tract_id": "40013796600", "tract_name": "7966", "tags": {"addr:city": "Cartwright", "addr:housenumber": "204", "addr:postcode": "74731", "addr:state": "OK", "addr:street": "Boat Club Road", "building": "yes", "name": "Lucky Stop", "shop": "convenience"}}}, {"type": "Feature", "geometry": {"type": "Polygon", "coordinates": [[[-96.5658186, 33.8535158], [-96.5658229, 33.8534301], [-96.5657372, 33.8534272], [-96.5657329, 33.8535129], [-96.5658186, 33.8535158]]]}, "properties": {"osm_id": 988158741, "building": "yes", "name": "", "height": null, "height_m": null, "levels": null, "tract_id": "40013796600", "tract_name": "7966", "tags": {"building": "yes"}}}, {"type": "Feature", "geometry": {"type": "Polygon", "coordinates": [[[-96.565897, 33.8538706], [-96.5658973, 33.8537994], [-96.5657865, 33.8537991], [-96.5657868, 33.8536946], [-96.5656485, 33.8536943], [-96.5656484, 33.8537463], [-96.5656314, 33.8537463], [-96.5656313, 33.8538148], [-96.5656457, 33.8538148], [-96.5656455, 33.8538701], [-96.565897, 33.8538706]]]}, "properties": {"osm_id": 988158742, "building": "yes", "name": "Man Candy Baits", "height": null, "height_m": null, "levels": null, "tract_id": "40013796600", "tract_name": "7966", "tags": {"addr:city": "Cartwright", "addr:housenumber": "111", "addr:postcode": "74731", "addr:state": "OK", "addr:street": "1st Avenue", "building": "yes", "name": "Man Candy Baits", "shop": "fishing"}}}, {"type": "Feature", "geometry": {"type": "Polygon", "coordinates": [[[-96.564187, 33.8527595], [-96.5641852, 33.8526568], [-96.5638286, 33.8526613], [-96.5638304, 33.852764], [-96.564187, 33.8527595]]]}, "properties": {"osm_id": 988158743, "building": "fire_station", "name": "Cartwright Fire Department", "height": null, "height_m": null, "levels": null, "tract_id": "40013796600", "tract_name": "7966", "tags": {"amenity": "fire_station", "building": "fire_station", "name": "Cartwright Fire Department"}}}, {"type": "Feature", "geometry": {"type": "Polygon", "coordinates": [[[-96.5627112, 33.8533473], [-96.5627097, 33.8530527], [-96.5624928, 33.8530534], [-96.5624932, 33.8531203], [-96.5625974, 33.8531199], [-96.5625977, 33.8531899], [-96.5625821, 33.8531899], [-96.5625824, 33.8532426], [-96.5625993, 33.8532426], [-96.5625995, 33.8532746], [-96.5624998, 33.8532749], [-96.5625002, 33.853348], [-96.5627112, 33.8533473]]]}, "properties": {"osm_id": 988158744, "building": "yes", "name": "Texoma Inn", "height": null, "height_m": null, "levels": null, "tract_id": "40013796600", "tract_name": "7966", "tags": {"addr:city": "Cartwright", "addr:housenumber": "303", "addr:postcode": "74731", "addr:state": "TX", "addr:street": "Main Street", "building": "yes", "name": "Texoma Inn", "tourism": "motel"}}}, {"type": "Feature", "geometry": {"type": "Polygon", "coordinates": [[[-96.5302439, 33.830096], [-96.530157, 33.82931], [-96.52957, 33.8293353], [-96.5296146, 33.8298112], [-96.5297766, 33.8297917], [-96.529786, 33.8298873], [-96.5299715, 33.8298697], [-96.5299597, 33.8297722], [-96.5300231, 33.8297683], [-96.5300584, 33.8301018], [-96.5302439, 33.830096]]]}, "properties": {"osm_id": 988160879, "building": "yes", "name": "", "height": null, "height_m": null, "levels": null, "tract_id": "40013796600", "tract_name": "7966", "tags": {"building": "yes"}}}, {"type": "Feature", "geometry": {"type": "Polygon", "coordinates": [[[-96.5243031, 33.8327531], [-96.5241097, 33.8325722], [-96.5238969, 33.8327292], [-96.524017, 33.8328416], [-96.5240304, 33.8328316], [-96.5240557, 33.8328553], [-96.5241632, 33.832776], [-96.5242112, 33.8328209], [-96.5243031, 33.8327531]]]}, "properties": {"osm_id": 988160881, "building": "yes", "name": "", "height": null, "height_m": null, "levels": null, "tract_id": "40013796600", "tract_name": "7966", "tags": {"building": "yes"}}}, {"type": "Feature", "geometry": {"type": "Polygon", "coordinates": [[[-96.524741, 33.8306374], [-96.5245663, 33.8303744], [-96.5243052, 33.8304171], [-96.5244923, 33.8307893], [-96.5245622, 33.8308064], [-96.524741, 33.8306374]]]}, "properties": {"osm_id": 988160882, "building": "yes", "name": "", "height": null, "height_m": null, "levels": null, "tract_id": "40013796600", "tract_name": "7966", "tags": {"building": "yes"}}}, {"type": "Feature", "geometry": {"type": "Polygon", "coordinates": [[[-96.5240757, 33.8307854], [-96.5239501, 33.8305183], [-96.5233955, 33.8306982], [-96.5235774, 33.8310851], [-96.5237397, 33.8310324], [-96.5236834, 33.8309128], [-96.5240757, 33.8307854]]]}, "properties": {"osm_id": 988160883, "building": "yes", "name": "", "height": null, "height_m": null, "levels": null, "tract_id": "40013796600", "tract_name": "7966", "tags": {"building": "yes"}}}, {"type": "Feature", "geometry": {"type": "Polygon", "coordinates": [[[-96.5236587, 33.8317687], [-96.5238619, 33.8315608], [-96.5236813, 33.831439], [-96.5234781, 33.8316468], [-96.5236587, 33.8317687]]]}, "properties": {"osm_id": 988160884, "building": "yes", "name": "", "height": null, "height_m": null, "levels": null, "tract_id": "40013796600", "tract_name": "7966", "tags": {"building": "yes"}}}, {"type": "Feature", "geometry": {"type": "Polygon", "coordinates": [[[-96.523823, 33.8314756], [-96.5239417, 33.831353], [-96.5238323, 33.8312799], [-96.5237135, 33.8314025], [-96.523823, 33.8314756]]]}, "properties": {"osm_id": 988160885, "building": "yes", "name": "", "height": null, "height_m": null, "levels": null, "tract_id": "40013796600", "tract_name": "7966", "tags": {"building": "yes"}}}, {"type": "Feature", "geometry": {"type": "Polygon", "coordinates": [[[-96.5242293, 33.8314848], [-96.5243413, 33.831411], [-96.5241686, 33.8312301], [-96.5240567, 33.8313038], [-96.5242293, 33.8314848]]]}, "properties": {"osm_id": 988160886, "building": "yes", "name": "", "height": null, "height_m": null, "levels": null, "tract_id": "40013796600", "tract_name": "7966", "tags": {"building": "yes"}}}, {"type": "Feature", "geometry": {"type": "Polygon", "coordinates": [[[-96.524723, 33.8311174], [-96.5245688, 33.8308747], [-96.5244535, 33.8309253], [-96.5246076, 33.831168], [-96.524723, 33.8311174]]]}, "properties": {"osm_id": 988160887, "building": "yes", "name": "", "height": null, "height_m": null, "levels": null, "tract_id": "40013796600", "tract_name": "7966", "tags": {"building": "yes"}}}, {"type": "Feature", "geometry": {"type": "Polygon", "coordinates": [[[-96.5247628, 33.8308389], [-96.5248516, 33.830802], [-96.5247933, 33.830705], [-96.5247755, 33.8307124], [-96.5247646, 33.8306941], [-96.5247113, 33.8307162], [-96.5247246, 33.8307384], [-96.5247068, 33.8307458], [-96.5247628, 33.8308389]]]}, "properties": {"osm_id": 988160888, "building": "yes", "name": "", "height": null, "height_m": null, "levels": null, "tract_id": "40013796600", "tract_name": "7966", "tags": {"building": "yes"}}}, {"type": "Feature", "geometry": {"type": "Polygon", "coordinates": [[[-96.5247929, 33.8312177], [-96.5248733, 33.8311913], [-96.524862, 33.8311677], [-96.5249146, 33.8311504], [-96.5248369, 33.8309871], [-96.5247894, 33.8310027], [-96.5247836, 33.8309905], [-96.5247414, 33.8310043], [-96.5247491, 33.8310205], [-96.5247058, 33.8310347], [-96.5247929, 33.8312177]]]}, "properties": {"osm_id": 988160889, "building": "yes", "name": "", "height": null, "height_m": null, "levels": null, "tract_id": "40013796600", "tract_name": "7966", "tags": {"building": "yes"}}}, {"type": "Feature", "geometry": {"type": "Polygon", "coordinates": [[[-96.524398, 33.831253], [-96.5243764, 33.8312292], [-96.5244647, 33.8311738], [-96.5244111, 33.8311149], [-96.5242054, 33.831244], [-96.5242806, 33.8313267], [-96.524398, 33.831253]]]}, "properties": {"osm_id": 988160891, "building": "house", "name": "", "height": null, "height_m": null, "levels": null, "tract_id": "40013796600", "tract_name": "7966", "tags": {"building": "house"}}}, {"type": "Feature", "geometry": {"type": "Polygon", "coordinates": [[[-96.5081155, 33.8569702], [-96.5082557, 33.8569706], [-96.5082562, 33.8568604], [-96.5082814, 33.8568604], [-96.5082817, 33.8568008], [-96.5082566, 33.8568007], [-96.5082571, 33.8566748], [-96.5081168, 33.8566744], [-96.5081155, 33.8569702]]]}, "properties": {"osm_id": 988162911, "building": "yes", "name": "Colbert Senior Center", "height": null, "height_m": null, "levels": null, "tract_id": "40013796600", "tract_name": "7966", "tags": {"addr:city": "Colbert", "addr:postcode": "74733", "addr:state": "OK", "amenity": "social_centre", "building": "yes", "name": "Colbert Senior Center"}}}, {"type": "Feature", "geometry": {"type": "Polygon", "coordinates": [[[-96.513661, 33.8537887], [-96.5136815, 33.8534182], [-96.5134638, 33.8534098], [-96.5134432, 33.8537804], [-96.513661, 33.8537887]]]}, "properties": {"osm_id": 988162912, "building": "yes", "name": "Dollar General", "height": null, "height_m": null, "levels": null, "tract_id": "40013796600", "tract_name": "7966", "tags": {"addr:city": "Colbert", "addr:housenumber": "1013", "addr:postcode": "74733", "addr:state": "OK", "addr:street": "Moore Avenue", "brand": "Dollar General", "brand:wikidata": "Q145168", "building": "yes", "name": "Dollar General", "shop": "variety_store", "website": "https://www.dollargeneral.com/store-directory/ok/colbert/6465"}}}, {"type": "Feature", "geometry": {"type": "Polygon", "coordinates": [[[-96.5139658, 33.854906], [-96.5139662, 33.8547726], [-96.5137715, 33.8547722], [-96.5141464, 33.8545522], [-96.5140496, 33.8544384], [-96.5135919, 33.8547068], [-96.5135919, 33.8545367], [-96.5134375, 33.8545367], [-96.5134375, 33.8546989], [-96.5132762, 33.8546012], [-96.5131793, 33.8547116], [-96.5133052, 33.8547878], [-96.5130813, 33.8547864], [-96.5130806, 33.8548567], [-96.5133478, 33.8548585], [-96.5131995, 33.8549355], [-96.5132791, 33.8550411], [-96.5134391, 33.8549579], [-96.5134401, 33.8550747], [-96.5135913, 33.8550738], [-96.5135903, 33.8549592], [-96.5137508, 33.8550539], [-96.513841, 33.8549485], [-96.5137683, 33.8549056], [-96.5139658, 33.854906]]]}, "properties": {"osm_id": 988162913, "building": "yes", "name": "Southern Pointe Living Center", "height": null, "height_m": null, "levels": null, "tract_id": "40013796600", "tract_name": "7966", "tags": {"addr:city": "Colbert", "addr:housenumber": "101", "addr:postcode": "74733", "addr:state": "OK", "addr:street": "Sherrard Street", "amenity": "social_facility", "building": "yes", "name": "Southern Pointe Living Center", "social_facility": "nursing_home", "social_facility:for": "senior"}}}, {"type": "Feature", "geometry": {"type": "Polygon", "coordinates": [[[-96.5105785, 33.8537768], [-96.5105787, 33.8537049], [-96.5105671, 33.8537049], [-96.5105102, 33.8537047], [-96.510499, 33.8537047], [-96.5104988, 33.8537767], [-96.5105095, 33.8537767], [-96.5105672, 33.8537768], [-96.5105785, 33.8537768]]]}, "properties": {"osm_id": 988162915, "building": "roof", "name": "Phillips 66", "height": null, "height_m": null, "levels": null, "tract_id": "40013796600", "tract_name": "7966", "tags": {"amenity": "fuel", "brand": "Phillips 66", "brand:wikidata": "Q1656230", "building": "roof", "name": "Phillips 66"}}}, {"type": "Feature", "geometry": {"type": "Polygon", "coordinates": [[[-96.5103304, 33.853871], [-96.5103301, 33.8536469], [-96.5102298, 33.8536469], [-96.5102299, 33.8537196], [-96.5101417, 33.8537197], [-96.5101419, 33.853853], [-96.5101679, 33.8538529], [-96.5101679, 33.8538711], [-96.5103304, 33.853871]]]}, "properties": {"osm_id": 988162916, "building": "yes", "name": "Frank's Corner", "height": null, "height_m": null, "levels": null, "tract_id": "40013796600", "tract_name": "7966", "tags": {"addr:city": "Colbert", "addr:housenumber": "104", "addr:postcode": "74733", "addr:state": "OK", "addr:street": "Timothy Drive", "building": "yes", "name": "Frank's Corner", "shop": "convenience"}}}, {"type": "Feature", "geometry": {"type": "Polygon", "coordinates": [[[-96.5094585, 33.8525977], [-96.5094591, 33.8523871], [-96.5094468, 33.852387], [-96.5094469, 33.8523239], [-96.5093575, 33.8523238], [-96.5093573, 33.8523934], [-96.5092274, 33.8523932], [-96.5092268, 33.8525949], [-96.5092874, 33.852595], [-96.5092873, 33.8526088], [-96.5094032, 33.852609], [-96.5094032, 33.8525976], [-96.5094585, 33.8525977]]]}, "properties": {"osm_id": 988162917, "building": "yes", "name": "Colbert Post Office", "height": null, "height_m": null, "levels": null, "tract_id": "40013796600", "tract_name": "7966", "tags": {"addr:city": "Colbert", "addr:housenumber": "711", "addr:postcode": "74733", "addr:state": "OK", "addr:street": "Moore Avenue", "amenity": "post_office", "building": "yes", "name": "Colbert Post Office", "operator": "United States Postal Service", "operator:short": "USPS", "operator:type": "public", "operator:website": "https://www.usps.com", "operator:wikidata": "Q668687", "operator:wikipedia": "en:United States Postal Service", "short_name": "USPS"}}}, {"type": "Feature", "geometry": {"type": "Polygon", "coordinates": [[[-96.5096012, 33.8580397], [-96.5095434, 33.8579638], [-96.5094592, 33.858008], [-96.509517, 33.8580839], [-96.5096012, 33.8580397]]]}, "properties": {"osm_id": 988162920, "building": "yes", "name": "", "height": null, "height_m": null, "levels": null, "tract_id": "40013796600", "tract_name": "7966", "tags": {"building": "yes"}}}, {"type": "Feature", "geometry": {"type": "Polygon", "coordinates": [[[-96.5097373, 33.8573492], [-96.5097382, 33.85729], [-96.5096592, 33.8572892], [-96.5096583, 33.8573484], [-96.5097373, 33.8573492]]]}, "properties": {"osm_id": 988162921, "building": "yes", "name": "", "height": null, "height_m": null, "levels": null, "tract_id": "40013796600", "tract_name": "7966", "tags": {"building": "yes"}}}, {"type": "Feature", "geometry": {"type": "Polygon", "coordinates": [[[-96.5096179, 33.8576831], [-96.5096593, 33.8576537], [-96.5096074, 33.8576034], [-96.5095661, 33.8576328], [-96.5096179, 33.8576831]]]}, "properties": {"osm_id": 988162922, "building": "yes", "name": "", "height": null, "height_m": null, "levels": null, "tract_id": "40013796600", "tract_name": "7966", "tags": {"building": "yes"}}}, {"type": "Feature", "geometry": {"type": "Polygon", "coordinates": [[[-96.5097212, 33.8574506], [-96.5097209, 33.8573939], [-96.509672, 33.857394], [-96.5096723, 33.8574508], [-96.5097212, 33.8574506]]]}, "properties": {"osm_id": 988162923, "building": "yes", "name": "", "height": null, "height_m": null, "levels": null, "tract_id": "40013796600", "tract_name": "7966", "tags": {"building": "yes"}}}, {"type": "Feature", "geometry": {"type": "Polygon", "coordinates": [[[-96.5098661, 33.8571808], [-96.5098659, 33.8571499], [-96.5098138, 33.8571503], [-96.5098141, 33.8571811], [-96.5098661, 33.8571808]]]}, "properties": {"osm_id": 988162924, "building": "yes", "name": "", "height": null, "height_m": null, "levels": null, "tract_id": "40013796600", "tract_name": "7966", "tags": {"building": "yes"}}}, {"type": "Feature", "geometry": {"type": "Polygon", "coordinates": [[[-96.5098676, 33.857086], [-96.5098673, 33.8570552], [-96.5098152, 33.8570555], [-96.5098155, 33.8570864], [-96.5098676, 33.857086]]]}, "properties": {"osm_id": 988162925, "building": "yes", "name": "", "height": null, "height_m": null, "levels": null, "tract_id": "40013796600", "tract_name": "7966", "tags": {"building": "yes"}}}, {"type": "Feature", "geometry": {"type": "Polygon", "coordinates": [[[-96.5097017, 33.8571785], [-96.5097014, 33.8571476], [-96.5096493, 33.8571479], [-96.5096496, 33.8571788], [-96.5097017, 33.8571785]]]}, "properties": {"osm_id": 988162926, "building": "yes", "name": "", "height": null, "height_m": null, "levels": null, "tract_id": "40013796600", "tract_name": "7966", "tags": {"building": "yes"}}}, {"type": "Feature", "geometry": {"type": "Polygon", "coordinates": [[[-96.5097024, 33.8570843], [-96.5097021, 33.8570534], [-96.50965, 33.8570537], [-96.5096503, 33.8570846], [-96.5097024, 33.8570843]]]}, "properties": {"osm_id": 988162927, "building": "yes", "name": "", "height": null, "height_m": null, "levels": null, "tract_id": "40013796600", "tract_name": "7966", "tags": {"building": "yes"}}}, {"type": "Feature", "geometry": {"type": "Polygon", "coordinates": [[[-96.51034, 33.8600066], [-96.5103409, 33.8594531], [-96.5100083, 33.8594528], [-96.5100074, 33.8600062], [-96.51034, 33.8600066]]]}, "properties": {"osm_id": 988162931, "building": "yes", "name": "", "height": null, "height_m": null, "levels": null, "tract_id": "40013796600", "tract_name": "7966", "tags": {"building": "yes"}}}, {"type": "Feature", "geometry": {"type": "Polygon", "coordinates": [[[-96.5087242, 33.8599668], [-96.5087171, 33.8595219], [-96.5082279, 33.8595273], [-96.508229, 33.8595926], [-96.5081108, 33.8595939], [-96.508116, 33.85991], [-96.508223, 33.8599088], [-96.508224, 33.8599723], [-96.5087242, 33.8599668]]]}, "properties": {"osm_id": 988166140, "building": "yes", "name": "", "height": null, "height_m": null, "levels": null, "tract_id": "40013796600", "tract_name": "7966", "tags": {"building": "yes"}}}, {"type": "Feature", "geometry": {"type": "Polygon", "coordinates": [[[-96.5062167, 33.8593472], [-96.5068907, 33.859343], [-96.50689, 33.8592681], [-96.5069529, 33.8592677], [-96.5069522, 33.8591852], [-96.5068911, 33.8591856], [-96.5068904, 33.859106], [-96.5062146, 33.8591102], [-96.5062167, 33.8593472]]]}, "properties": {"osm_id": 988166141, "building": "yes", "name": "", "height": null, "height_m": null, "levels": null, "tract_id": "40013796600", "tract_name": "7966", "tags": {"building": "yes"}}}, {"type": "Feature", "geometry": {"type": "Polygon", "coordinates": [[[-96.5066938, 33.8590112], [-96.506693, 33.8588704], [-96.5062794, 33.858872], [-96.5062802, 33.8590128], [-96.5066938, 33.8590112]]]}, "properties": {"osm_id": 988166142, "building": "yes", "name": "", "height": null, "height_m": null, "levels": null, "tract_id": "40013796600", "tract_name": "7966", "tags": {"building": "yes"}}}, {"type": "Feature", "geometry": {"type": "Polygon", "coordinates": [[[-96.5068755, 33.8588232], [-96.5068767, 33.858624], [-96.5062769, 33.8586215], [-96.5062757, 33.8588208], [-96.5068755, 33.8588232]]]}, "properties": {"osm_id": 988166143, "building": "yes", "name": "", "height": null, "height_m": null, "levels": null, "tract_id": "40013796600", "tract_name": "7966", "tags": {"building": "yes"}}}, {"type": "Feature", "geometry": {"type": "Polygon", "coordinates": [[[-96.5059881, 33.8588934], [-96.5059869, 33.8588236], [-96.5058766, 33.8588249], [-96.5058778, 33.8588947], [-96.5059881, 33.8588934]]]}, "properties": {"osm_id": 988166144, "building": "yes", "name": "", "height": null, "height_m": null, "levels": null, "tract_id": "40013796600", "tract_name": "7966", "tags": {"building": "yes"}}}, {"type": "Feature", "geometry": {"type": "Polygon", "coordinates": [[[-96.5096964, 33.8585894], [-96.5096938, 33.8584765], [-96.5094429, 33.8584804], [-96.5094455, 33.8585932], [-96.5096964, 33.8585894]]]}, "properties": {"osm_id": 988166145, "building": "yes", "name": "", "height": null, "height_m": null, "levels": null, "tract_id": "40013796600", "tract_name": "7966", "tags": {"building": "yes"}}}, {"type": "Feature", "geometry": {"type": "Polygon", "coordinates": [[[-96.5060442, 33.8600705], [-96.5060376, 33.8596208], [-96.5059126, 33.859622], [-96.5059192, 33.8600718], [-96.5060442, 33.8600705]]]}, "properties": {"osm_id": 988166146, "building": "yes", "name": "", "height": null, "height_m": null, "levels": null, "tract_id": "40013796600", "tract_name": "7966", "tags": {"building": "yes"}}}, {"type": "Feature", "geometry": {"type": "Polygon", "coordinates": [[[-96.5063282, 33.8599144], [-96.5063248, 33.8597383], [-96.5062375, 33.8597395], [-96.5062379, 33.859758], [-96.5062116, 33.8597583], [-96.5062136, 33.8598616], [-96.5062465, 33.8598612], [-96.5062475, 33.8599154], [-96.5063282, 33.8599144]]]}, "properties": {"osm_id": 988166147, "building": "yes", "name": "", "height": null, "height_m": null, "levels": null, "tract_id": "40013796600", "tract_name": "7966", "tags": {"building": "yes"}}}, {"type": "Feature", "geometry": {"type": "Polygon", "coordinates": [[[-96.5057001, 33.8601493], [-96.5056997, 33.8601018], [-96.5057333, 33.8601016], [-96.5057328, 33.8600292], [-96.5057036, 33.8600293], [-96.5057029, 33.859924], [-96.5057161, 33.8599239], [-96.5057153, 33.8598162], [-96.5055619, 33.8598169], [-96.5055644, 33.8601499], [-96.5057001, 33.8601493]]]}, "properties": {"osm_id": 988166148, "building": "yes", "name": "", "height": null, "height_m": null, "levels": null, "tract_id": "40013796600", "tract_name": "7966", "tags": {"building": "yes"}}}, {"type": "Feature", "geometry": {"type": "Polygon", "coordinates": [[[-96.5052509, 33.8596947], [-96.5057702, 33.8596942], [-96.5057699, 33.8595092], [-96.5057312, 33.8595093], [-96.5057312, 33.8594963], [-96.5055517, 33.8594971], [-96.5055502, 33.8592519], [-96.5057254, 33.8592512], [-96.505724, 33.8590282], [-96.5055553, 33.859029], [-96.5055541, 33.8588513], [-96.5057257, 33.8588505], [-96.505725, 33.8587547], [-96.5060286, 33.8587532], [-96.5060275, 33.8586018], [-96.5056962, 33.8586035], [-96.5056953, 33.8584774], [-96.505743, 33.8584771], [-96.5057433, 33.858525], [-96.5058498, 33.8585244], [-96.5058486, 33.8583533], [-96.5057432, 33.8583538], [-96.5057435, 33.8583962], [-96.5057002, 33.8583964], [-96.5056999, 33.8583495], [-96.5051854, 33.8583516], [-96.5051862, 33.8584846], [-96.5051573, 33.8584847], [-96.5051578, 33.8585893], [-96.5051917, 33.8585892], [-96.505192, 33.8586952], [-96.5053529, 33.8586948], [-96.5053534, 33.8588588], [-96.5053729, 33.8588587], [-96.5053736, 33.8594742], [-96.5052506, 33.8594743], [-96.5052509, 33.8596947]]]}, "properties": {"osm_id": 988166149, "building": "yes", "name": "", "height": null, "height_m": null, "levels": null, "tract_id": "40013796600", "tract_name": "7966", "tags": {"building": "yes"}}}, {"type": "Feature", "geometry": {"type": "Polygon", "coordinates": [[[-96.5085753, 33.8524284], [-96.5086394, 33.8524289], [-96.5086389, 33.8524698], [-96.5087046, 33.8524703], [-96.508705, 33.8524301], [-96.5088274, 33.8524309], [-96.5088281, 33.8523663], [-96.5087921, 33.8523661], [-96.5087982, 33.8518012], [-96.5085821, 33.8517996], [-96.5085753, 33.8524284]]]}, "properties": {"osm_id": 988166150, "building": "yes", "name": "Colbert City Hall", "height": null, "height_m": null, "levels": null, "tract_id": "40013796600", "tract_name": "7966", "tags": {"addr:city": "Colbert", "addr:housenumber": "705", "addr:postcode": "74733", "addr:state": "OK", "addr:street": "Moore Avenue", "amenity": "townhall", "building": "yes", "name": "Colbert City Hall", "townhall:type": "city"}}}, {"type": "Feature", "geometry": {"type": "Polygon", "coordinates": [[[-96.50215, 33.8536028], [-96.5023224, 33.8534232], [-96.5022686, 33.8533875], [-96.5022369, 33.8534205], [-96.5019886, 33.8532561], [-96.5018478, 33.8534028], [-96.50215, 33.8536028]]]}, "properties": {"osm_id": 988166151, "building": "yes", "name": "Colbert Hardware & Farm Supply", "height": null, "height_m": null, "levels": null, "tract_id": "40013796600", "tract_name": "7966", "tags": {"addr:city": "Colbert", "addr:housenumber": "104", "addr:postcode": "74733", "addr:state": "OK", "addr:street": "South Franklin Street", "building": "yes", "name": "Colbert Hardware & Farm Supply", "shop": "hardware"}}}, {"type": "Feature", "geometry": {"type": "Polygon", "coordinates": [[[-96.5019649, 33.8538777], [-96.5020684, 33.8537451], [-96.5020049, 33.8537109], [-96.5019014, 33.8538435], [-96.5019649, 33.8538777]]]}, "properties": {"osm_id": 988166152, "building": "roof", "name": "Valero", "height": null, "height_m": null, "levels": null, "tract_id": "40013796600", "tract_name": "7966", "tags": {"amenity": "fuel", "brand": "Valero", "brand:wikidata": "Q1283291", "building": "roof", "name": "Valero", "website": "https://locations.valero.com/en-us/LocationDetails/Index/103-S-FRANKLIN-ST/0000028680"}}}, {"type": "Feature", "geometry": {"type": "Polygon", "coordinates": [[[-96.5016565, 33.8539924], [-96.5018868, 33.8536788], [-96.5016792, 33.8535737], [-96.5015513, 33.8537479], [-96.5015184, 33.8537313], [-96.5014161, 33.8538707], [-96.5016565, 33.8539924]]]}, "properties": {"osm_id": 988166153, "building": "yes", "name": "Food King", "height": null, "height_m": null, "levels": null, "tract_id": "40013796600", "tract_name": "7966", "tags": {"addr:city": "Colbert", "addr:housenumber": "103", "addr:postcode": "74733", "addr:state": "OK", "addr:street": "North Franklin Street", "building": "yes", "name": "Food King", "shop": "supermarket"}}}, {"type": "Feature", "geometry": {"type": "Polygon", "coordinates": [[[-96.5027461, 33.8536569], [-96.5029117, 33.8536568], [-96.5029117, 33.8535037], [-96.503044, 33.8535036], [-96.503044, 33.8534474], [-96.5027461, 33.8534474], [-96.5027461, 33.8536569]]]}, "properties": {"osm_id": 988166154, "building": "yes", "name": "First United Bank", "height": null, "height_m": null, "levels": null, "tract_id": "40013796600", "tract_name": "7966", "tags": {"addr:city": "Colbert", "addr:housenumber": "101", "addr:postcode": "74733", "addr:state": "OK", "addr:street": "Burney Street", "alt_name": "First United Bank", "amenity": "bank", "brand": "First United Bank", "brand:wikidata": "Q5453964", "building": "yes", "name": "First United Bank"}}}, {"type": "Feature", "geometry": {"type": "Polygon", "coordinates": [[[-96.5027461, 33.8536569], [-96.5027455, 33.85393], [-96.5031226, 33.8539296], [-96.5031224, 33.8537945], [-96.5030105, 33.8537946], [-96.5030103, 33.8536575], [-96.5029117, 33.8536568], [-96.5027461, 33.8536569]]]}, "properties": {"osm_id": 988166155, "building": "yes", "name": "American Funeral Services", "height": null, "height_m": null, "levels": null, "tract_id": "40013796600", "tract_name": "7966", "tags": {"addr:city": "Colbert", "addr:housenumber": "107", "addr:postcode": "74733", "addr:state": "OK", "addr:street": "Burney Street", "building": "yes", "name": "American Funeral Services", "shop": "funeral_directors"}}}, {"type": "Feature", "geometry": {"type": "Polygon", "coordinates": [[[-96.5025479, 33.8541155], [-96.5025467, 33.8538936], [-96.5023865, 33.8538942], [-96.5023876, 33.8540951], [-96.5023877, 33.8541161], [-96.5025479, 33.8541155]]]}, "properties": {"osm_id": 988166157, "building": "yes", "name": "Cunningham Funeral Home", "height": null, "height_m": null, "levels": null, "tract_id": "40013796600", "tract_name": "7966", "tags": {"addr:city": "Colbert", "addr:housenumber": "120", "addr:postcode": "74733", "addr:state": "OK", "addr:street": "Burney Street", "building": "yes", "name": "Cunningham Funeral Home", "shop": "funeral_directors"}}}, {"type": "Feature", "geometry": {"type": "Polygon", "coordinates": [[[-96.5023865, 33.8538942], [-96.5023009, 33.8538943], [-96.5023011, 33.8539561], [-96.5023014, 33.8540953], [-96.5023876, 33.8540951], [-96.5023865, 33.8538942]]]}, "properties": {"osm_id": 988166158, "building": "yes", "name": "", "height": null, "height_m": null, "levels": null, "tract_id": "40013796600", "tract_name": "7966", "tags": {"building": "yes"}}}, {"type": "Feature", "geometry": {"type": "Polygon", "coordinates": [[[-96.5023011, 33.8539561], [-96.5022028, 33.8539559], [-96.5022024, 33.8540951], [-96.5023014, 33.8540953], [-96.5023011, 33.8539561]]]}, "properties": {"osm_id": 988166159, "building": "yes", "name": "", "height": null, "height_m": null, "levels": null, "tract_id": "40013796600", "tract_name": "7966", "tags": {"building": "yes"}}}, {"type": "Feature", "geometry": {"type": "Polygon", "coordinates": [[[-96.5020738, 33.8542737], [-96.5021467, 33.8542702], [-96.5022248, 33.8541325], [-96.5021657, 33.8541105], [-96.5021847, 33.8540816], [-96.5020928, 33.8540351], [-96.5019903, 33.8541921], [-96.5020843, 33.8542325], [-96.5020738, 33.8542737]]]}, "properties": {"osm_id": 988166161, "building": "yes", "name": "", "height": null, "height_m": null, "levels": null, "tract_id": "40013796600", "tract_name": "7966", "tags": {"building": "yes"}}}, {"type": "Feature", "geometry": {"type": "Polygon", "coordinates": [[[-96.5029428, 33.8542535], [-96.5029422, 33.8541528], [-96.5027453, 33.8541536], [-96.5027459, 33.8542543], [-96.5029428, 33.8542535]]]}, "properties": {"osm_id": 988166162, "building": "yes", "name": "", "height": null, "height_m": null, "levels": null, "tract_id": "40013796600", "tract_name": "7966", "tags": {"building": "yes"}}}, {"type": "Feature", "geometry": {"type": "Polygon", "coordinates": [[[-96.5029305, 33.8540694], [-96.5029291, 33.8540131], [-96.50273, 33.8540166], [-96.5027314, 33.8540728], [-96.5029305, 33.8540694]]]}, "properties": {"osm_id": 988166163, "building": "yes", "name": "", "height": null, "height_m": null, "levels": null, "tract_id": "40013796600", "tract_name": "7966", "tags": {"building": "yes"}}}, {"type": "Feature", "geometry": {"type": "Polygon", "coordinates": [[[-96.5031966, 33.8539886], [-96.5031956, 33.8539375], [-96.5030726, 33.8539393], [-96.5030736, 33.8539904], [-96.5031966, 33.8539886]]]}, "properties": {"osm_id": 988166164, "building": "yes", "name": "", "height": null, "height_m": null, "levels": null, "tract_id": "40013796600", "tract_name": "7966", "tags": {"building": "yes"}}}, {"type": "Feature", "geometry": {"type": "Polygon", "coordinates": [[[-96.5037004, 33.8546207], [-96.5036999, 33.8545117], [-96.5036734, 33.8545118], [-96.5036734, 33.8544947], [-96.5036262, 33.8544949], [-96.5036263, 33.8545156], [-96.5034102, 33.8545164], [-96.50341, 33.8544866], [-96.5032501, 33.8544872], [-96.5032509, 33.8546555], [-96.5034121, 33.8546549], [-96.503412, 33.8546216], [-96.5037004, 33.8546207]]]}, "properties": {"osm_id": 988166165, "building": "yes", "name": "Coleman Avenue Church of Christ", "height": null, "height_m": null, "levels": null, "tract_id": "40013796600", "tract_name": "7966", "tags": {"addr:city": "Colbert", "addr:housenumber": "212", "addr:postcode": "74733", "addr:state": "OK", "addr:street": "Coleman Avenue", "amenity": "place_of_worship", "building": "yes", "denomination": "church_of_christ", "name": "Coleman Avenue Church of Christ", "religion": "christian"}}}, {"type": "Feature", "geometry": {"type": "Polygon", "coordinates": [[[-96.5017192, 33.8565231], [-96.501992, 33.8565218], [-96.5019912, 33.8564163], [-96.5019737, 33.8564164], [-96.5019727, 33.8562704], [-96.50199, 33.8562703], [-96.5019893, 33.8561693], [-96.5017563, 33.8561704], [-96.501757, 33.8562772], [-96.5018537, 33.8562768], [-96.5018547, 33.8564182], [-96.5017185, 33.8564189], [-96.5017192, 33.8565231]]]}, "properties": {"osm_id": 988166166, "building": "yes", "name": "Colbert Baptist Church", "height": null, "height_m": null, "levels": null, "tract_id": "40013796600", "tract_name": "7966", "tags": {"addr:city": "Colbert", "addr:housenumber": "307", "addr:postcode": "74733", "addr:state": "OK", "addr:street": "North Franklin Street", "amenity": "place_of_worship", "building": "yes", "denomination": "baptist", "name": "Colbert Baptist Church", "religion": "christian"}}}, {"type": "Feature", "geometry": {"type": "Polygon", "coordinates": [[[-96.5019731, 33.8566682], [-96.5019705, 33.8565525], [-96.5017248, 33.8565562], [-96.5017274, 33.856672], [-96.5019731, 33.8566682]]]}, "properties": {"osm_id": 988166167, "building": "yes", "name": "", "height": null, "height_m": null, "levels": null, "tract_id": "40013796600", "tract_name": "7966", "tags": {"building": "yes"}}}, {"type": "Feature", "geometry": {"type": "Polygon", "coordinates": [[[-96.5021187, 33.8565092], [-96.5024416, 33.8565068], [-96.502441, 33.8564552], [-96.5025035, 33.8564548], [-96.5025026, 33.8563789], [-96.5024467, 33.8563793], [-96.5024463, 33.8563405], [-96.5021169, 33.856343], [-96.5021187, 33.8565092]]]}, "properties": {"osm_id": 988166168, "building": "yes", "name": "", "height": null, "height_m": null, "levels": null, "tract_id": "40013796600", "tract_name": "7966", "tags": {"building": "yes"}}}, {"type": "Feature", "geometry": {"type": "Polygon", "coordinates": [[[-96.5023599, 33.8559297], [-96.5024573, 33.8559287], [-96.502457, 33.8559075], [-96.5025193, 33.8559069], [-96.5025181, 33.8558256], [-96.5025335, 33.8558255], [-96.5025328, 33.8557751], [-96.502479, 33.8557756], [-96.5024785, 33.8557379], [-96.5023571, 33.8557391], [-96.5023599, 33.8559297]]]}, "properties": {"osm_id": 988166169, "building": "yes", "name": "Colbert United Methodist Church", "height": null, "height_m": null, "levels": null, "tract_id": "40013796600", "tract_name": "7966", "tags": {"addr:city": "Colbert", "addr:housenumber": "302", "addr:postcode": "74733", "addr:state": "OK", "addr:street": "Burney Street", "amenity": "place_of_worship", "building": "yes", "denomination": "united_methodist", "name": "Colbert United Methodist Church", "religion": "christian"}}}, {"type": "Feature", "geometry": {"type": "Polygon", "coordinates": [[[-96.5025089, 33.8560172], [-96.5025081, 33.8559416], [-96.5021858, 33.8559439], [-96.5021866, 33.8560196], [-96.5025089, 33.8560172]]]}, "properties": {"osm_id": 988166170, "building": "yes", "name": "", "height": null, "height_m": null, "levels": null, "tract_id": "40013796600", "tract_name": "7966", "tags": {"building": "yes"}}}, {"type": "Feature", "geometry": {"type": "Polygon", "coordinates": [[[-96.5023279, 33.8561796], [-96.5024489, 33.8561778], [-96.5024478, 33.8561285], [-96.5024796, 33.856128], [-96.5024786, 33.8560813], [-96.5024513, 33.8560817], [-96.5024502, 33.8560312], [-96.5023246, 33.8560331], [-96.5023279, 33.8561796]]]}, "properties": {"osm_id": 988166171, "building": "yes", "name": "", "height": null, "height_m": null, "levels": null, "tract_id": "40013796600", "tract_name": "7966", "tags": {"building": "yes"}}}, {"type": "Feature", "geometry": {"type": "Polygon", "coordinates": [[[-96.5132453, 33.8561354], [-96.5134682, 33.8561335], [-96.5134577, 33.8552825], [-96.5132346, 33.8552844], [-96.5132453, 33.8561354]]]}, "properties": {"osm_id": 988166172, "building": "yes", "name": "RV Station Colbert", "height": null, "height_m": null, "levels": null, "tract_id": "40013796600", "tract_name": "7966", "tags": {"addr:city": "Colbert", "addr:housenumber": "413", "addr:postcode": "74733", "addr:state": "OK", "addr:street": "Sherrard Street", "building": "yes", "name": "RV Station Colbert", "shop": "caravan"}}}, {"type": "Feature", "geometry": {"type": "Polygon", "coordinates": [[[-96.5142331, 33.8553929], [-96.5142327, 33.8552632], [-96.5139645, 33.8552637], [-96.5139649, 33.8553934], [-96.5142331, 33.8553929]]]}, "properties": {"osm_id": 988166173, "building": "yes", "name": "", "height": null, "height_m": null, "levels": null, "tract_id": "40013796600", "tract_name": "7966", "tags": {"building": "yes"}}}, {"type": "Feature", "geometry": {"type": "Polygon", "coordinates": [[[-96.5138073, 33.8567205], [-96.5138034, 33.8564743], [-96.5136742, 33.8564757], [-96.5136756, 33.8565631], [-96.5136422, 33.8565635], [-96.5136432, 33.8566274], [-96.5136787, 33.856627], [-96.5136802, 33.8567219], [-96.5138073, 33.8567205]]]}, "properties": {"osm_id": 988168976, "building": "yes", "name": "", "height": null, "height_m": null, "levels": null, "tract_id": "40013796600", "tract_name": "7966", "tags": {"building": "yes"}}}, {"type": "Feature", "geometry": {"type": "Polygon", "coordinates": [[[-96.5144782, 33.8536408], [-96.5146179, 33.8536505], [-96.5146306, 33.8535246], [-96.5146789, 33.853528], [-96.5146854, 33.8534633], [-96.5146398, 33.8534601], [-96.5146505, 33.8533527], [-96.5145081, 33.8533428], [-96.5144782, 33.8536408]]]}, "properties": {"osm_id": 988168979, "building": "yes", "name": "", "height": null, "height_m": null, "levels": null, "tract_id": "40013796600", "tract_name": "7966", "tags": {"building": "yes"}}}, {"type": "Feature", "geometry": {"type": "Polygon", "coordinates": [[[-96.5088373, 33.8631469], [-96.5088373, 33.8630631], [-96.5086659, 33.8630631], [-96.5086659, 33.8631469], [-96.5088373, 33.8631469]]]}, "properties": {"osm_id": 988168980, "building": "yes", "name": "", "height": null, "height_m": null, "levels": null, "tract_id": "40013796600", "tract_name": "7966", "tags": {"building": "yes"}}}, {"type": "Feature", "geometry": {"type": "Polygon", "coordinates": [[[-96.5045246, 33.8619636], [-96.5047643, 33.8619417], [-96.5047402, 33.8617593], [-96.5045005, 33.8617811], [-96.5045246, 33.8619636]]]}, "properties": {"osm_id": 988168981, "building": "yes", "name": "", "height": null, "height_m": null, "levels": null, "tract_id": "40013796600", "tract_name": "7966", "tags": {"building": "yes"}}}, {"type": "Feature", "geometry": {"type": "Polygon", "coordinates": [[[-96.5087135, 33.853417], [-96.5089863, 33.8534138], [-96.5089828, 33.8532031], [-96.5088464, 33.8532047], [-96.5088484, 33.8533231], [-96.5087922, 33.8533237], [-96.5087924, 33.8533353], [-96.5087121, 33.8533362], [-96.5087135, 33.853417]]]}, "properties": {"osm_id": 988168983, "building": "yes", "name": "Hwy 91 Church of Christ", "height": null, "height_m": null, "levels": null, "tract_id": "40013796600", "tract_name": "7966", "tags": {"addr:city": "Colbert", "addr:housenumber": "702", "addr:postcode": "74733", "addr:state": "OK", "addr:street": "Moore Avenue", "amenity": "place_of_worship", "building": "yes", "name": "Hwy 91 Church of Christ", "religion": "christian"}}}, {"type": "Feature", "geometry": {"type": "Polygon", "coordinates": [[[-96.5070199, 33.8492625], [-96.5071831, 33.8490818], [-96.5069939, 33.8489639], [-96.5068994, 33.8490684], [-96.5068762, 33.849054], [-96.5068074, 33.8491301], [-96.5070199, 33.8492625]]]}, "properties": {"osm_id": 988168986, "building": "yes", "name": "Cummins Garage", "height": null, "height_m": null, "levels": null, "tract_id": "40013796600", "tract_name": "7966", "tags": {"addr:city": "Colbert", "addr:housenumber": "546", "addr:postcode": "74733", "addr:state": "OK", "addr:street": "South Franklin Street", "building": "yes", "name": "Cummins Garage", "shop": "car_repair"}}}, {"type": "Feature", "geometry": {"type": "Polygon", "coordinates": [[[-96.5069154, 33.850219], [-96.5071834, 33.850216], [-96.5071768, 33.8498175], [-96.5069087, 33.8498206], [-96.5069154, 33.850219]]]}, "properties": {"osm_id": 988168987, "building": "yes", "name": "", "height": null, "height_m": null, "levels": null, "tract_id": "40013796600", "tract_name": "7966", "tags": {"building": "yes"}}}, {"type": "Feature", "geometry": {"type": "Polygon", "coordinates": [[[-96.507294, 33.8507619], [-96.5072938, 33.8506307], [-96.5072573, 33.8506308], [-96.5072571, 33.8505589], [-96.5070394, 33.8505592], [-96.5070396, 33.8506327], [-96.5071499, 33.8506326], [-96.5071501, 33.8507621], [-96.507294, 33.8507619]]]}, "properties": {"osm_id": 988168988, "building": "yes", "name": "", "height": null, "height_m": null, "levels": null, "tract_id": "40013796600", "tract_name": "7966", "tags": {"building": "yes"}}}, {"type": "Feature", "geometry": {"type": "Polygon", "coordinates": [[[-96.5069819, 33.8509679], [-96.5069816, 33.8507356], [-96.5066556, 33.8507359], [-96.5066556, 33.8507508], [-96.5060801, 33.8507515], [-96.5060898, 33.8507185], [-96.505892, 33.8506782], [-96.5058442, 33.8508398], [-96.5057082, 33.850812], [-96.5056843, 33.8508931], [-96.5058168, 33.8509201], [-96.5058098, 33.850944], [-96.5060105, 33.8509849], [-96.5060305, 33.8509175], [-96.5061246, 33.8509176], [-96.5061246, 33.8509904], [-96.5063828, 33.8509905], [-96.5063828, 33.8509486], [-96.5066534, 33.8509487], [-96.5066534, 33.8509624], [-96.5067885, 33.8509624], [-96.5067886, 33.8510059], [-96.506942, 33.8510058], [-96.5069419, 33.850968], [-96.5069819, 33.8509679]]]}, "properties": {"osm_id": 988168989, "building": "yes", "name": "", "height": null, "height_m": null, "levels": null, "tract_id": "40013796600", "tract_name": "7966", "tags": {"building": "yes"}}}, {"type": "Feature", "geometry": {"type": "Polygon", "coordinates": [[[-96.5088392, 33.8506856], [-96.5088377, 33.8505168], [-96.508444, 33.8505192], [-96.5084454, 33.8506866], [-96.5085755, 33.8506858], [-96.5085759, 33.8507323], [-96.5086508, 33.8507319], [-96.5086504, 33.8506867], [-96.5088392, 33.8506856]]]}, "properties": {"osm_id": 988168990, "building": "yes", "name": "The Lighthouse of Colbert Church", "height": null, "height_m": null, "levels": null, "tract_id": "40013796600", "tract_name": "7966", "tags": {"addr:city": "Colbert", "addr:housenumber": "346", "addr:postcode": "74733", "addr:state": "OK", "addr:street": "Somers Drive", "amenity": "place_of_worship", "building": "yes", "denomination": "pentecostal", "name": "The Lighthouse of Colbert Church", "religion": "christian"}}}, {"type": "Feature", "geometry": {"type": "Polygon", "coordinates": [[[-96.5094429, 33.8522113], [-96.5094419, 33.8521226], [-96.5092905, 33.8521238], [-96.5092915, 33.8522125], [-96.5094429, 33.8522113]]]}, "properties": {"osm_id": 988168991, "building": "yes", "name": "", "height": null, "height_m": null, "levels": null, "tract_id": "40013796600", "tract_name": "7966", "tags": {"building": "yes"}}}, {"type": "Feature", "geometry": {"type": "Polygon", "coordinates": [[[-96.5092285, 33.8516984], [-96.5092273, 33.8516313], [-96.5090927, 33.8516328], [-96.5090939, 33.8517], [-96.5092285, 33.8516984]]]}, "properties": {"osm_id": 988168992, "building": "yes", "name": "", "height": null, "height_m": null, "levels": null, "tract_id": "40013796600", "tract_name": "7966", "tags": {"building": "yes"}}}, {"type": "Feature", "geometry": {"type": "Polygon", "coordinates": [[[-96.5085815, 33.8516001], [-96.5085807, 33.8513876], [-96.5084226, 33.851388], [-96.5084233, 33.8516005], [-96.5085815, 33.8516001]]]}, "properties": {"osm_id": 988168993, "building": "yes", "name": "", "height": null, "height_m": null, "levels": null, "tract_id": "40013796600", "tract_name": "7966", "tags": {"building": "yes"}}}, {"type": "Feature", "geometry": {"type": "Polygon", "coordinates": [[[-96.5089891, 33.8505618], [-96.5089884, 33.850489], [-96.5088748, 33.8504898], [-96.5088755, 33.8505626], [-96.5089891, 33.8505618]]]}, "properties": {"osm_id": 988168994, "building": "yes", "name": "", "height": null, "height_m": null, "levels": null, "tract_id": "40013796600", "tract_name": "7966", "tags": {"building": "yes"}}}, {"type": "Feature", "geometry": {"type": "Polygon", "coordinates": [[[-96.5091319, 33.8505664], [-96.5091314, 33.8504861], [-96.5090231, 33.8504866], [-96.5090236, 33.8505669], [-96.5091319, 33.8505664]]]}, "properties": {"osm_id": 988168995, "building": "yes", "name": "", "height": null, "height_m": null, "levels": null, "tract_id": "40013796600", "tract_name": "7966", "tags": {"building": "yes"}}}, {"type": "Feature", "geometry": {"type": "Polygon", "coordinates": [[[-96.5090925, 33.8506714], [-96.5090927, 33.8505779], [-96.5089829, 33.8505778], [-96.5089829, 33.8505857], [-96.5088749, 33.8505855], [-96.5088747, 33.8506782], [-96.5089782, 33.8506783], [-96.5089782, 33.8506713], [-96.5090925, 33.8506714]]]}, "properties": {"osm_id": 988168996, "building": "yes", "name": "", "height": null, "height_m": null, "levels": null, "tract_id": "40013796600", "tract_name": "7966", "tags": {"building": "yes"}}}, {"type": "Feature", "geometry": {"type": "Polygon", "coordinates": [[[-96.5092451, 33.8505639], [-96.5092448, 33.8504823], [-96.5091872, 33.8504825], [-96.5091875, 33.8505641], [-96.5092451, 33.8505639]]]}, "properties": {"osm_id": 988168997, "building": "yes", "name": "", "height": null, "height_m": null, "levels": null, "tract_id": "40013796600", "tract_name": "7966", "tags": {"building": "yes"}}}, {"type": "Feature", "geometry": {"type": "Polygon", "coordinates": [[[-96.5094139, 33.8504911], [-96.5094139, 33.8504299], [-96.5093208, 33.8504299], [-96.5093208, 33.8505154], [-96.5093799, 33.8505154], [-96.5093799, 33.8504911], [-96.5094139, 33.8504911]]]}, "properties": {"osm_id": 988168998, "building": "yes", "name": "", "height": null, "height_m": null, "levels": null, "tract_id": "40013796600", "tract_name": "7966", "tags": {"building": "yes"}}}, {"type": "Feature", "geometry": {"type": "Polygon", "coordinates": [[[-96.5116453, 33.8445071], [-96.5117197, 33.844351], [-96.5114099, 33.8442492], [-96.5113355, 33.8444053], [-96.5116453, 33.8445071]]]}, "properties": {"osm_id": 988170786, "building": "yes", "name": "", "height": null, "height_m": null, "levels": null, "tract_id": "40013796600", "tract_name": "7966", "tags": {"building": "yes"}}}, {"type": "Feature", "geometry": {"type": "Polygon", "coordinates": [[[-96.5120184, 33.8444429], [-96.5121052, 33.8442395], [-96.5119327, 33.8441887], [-96.5118694, 33.8443368], [-96.5118159, 33.8443211], [-96.5117923, 33.8443764], [-96.5120184, 33.8444429]]]}, "properties": {"osm_id": 988170787, "building": "yes", "name": "", "height": null, "height_m": null, "levels": null, "tract_id": "40013796600", "tract_name": "7966", "tags": {"building": "yes"}}}, {"type": "Feature", "geometry": {"type": "Polygon", "coordinates": [[[-96.5156647, 33.8401593], [-96.5158833, 33.8399272], [-96.5157182, 33.83982], [-96.5154823, 33.8400704], [-96.515611, 33.840154], [-96.5156283, 33.8401356], [-96.5156647, 33.8401593]]]}, "properties": {"osm_id": 988170788, "building": "yes", "name": "Holly's Border Bar", "height": null, "height_m": null, "levels": null, "tract_id": "40013796600", "tract_name": "7966", "tags": {"addr:city": "Colbert", "addr:housenumber": "1390", "addr:postcode": "74733", "addr:state": "OK", "addr:street": "South Franklin Street", "amenity": "bar", "building": "yes", "name": "Holly's Border Bar"}}}, {"type": "Feature", "geometry": {"type": "Polygon", "coordinates": [[[-96.5000599, 33.8811888], [-96.5000603, 33.8811202], [-96.4995972, 33.8811185], [-96.4995969, 33.8811872], [-96.5000599, 33.8811888]]]}, "properties": {"osm_id": 988170789, "building": "roof", "name": "Love's", "height": null, "height_m": null, "levels": null, "tract_id": "40013796600", "tract_name": "7966", "tags": {"amenity": "fuel", "brand": "Love's", "brand:wikidata": "Q1872496", "building": "roof", "hgv": "yes", "name": "Love's"}}}, {"type": "Feature", "geometry": {"type": "Polygon", "coordinates": [[[-96.5004409, 33.881041], [-96.5004399, 33.8809305], [-96.5001777, 33.8809322], [-96.5001787, 33.8810428], [-96.5004409, 33.881041]]]}, "properties": {"osm_id": 988170790, "building": "roof", "name": "Love's", "height": null, "height_m": null, "levels": null, "tract_id": "40013796600", "tract_name": "7966", "tags": {"amenity": "fuel", "brand": "Love's", "brand:wikidata": "Q1872496", "building": "roof", "hgv": "no", "name": "Love's"}}}, {"type": "Feature", "geometry": {"type": "Polygon", "coordinates": [[[-96.501506, 33.8816945], [-96.5014997, 33.8809795], [-96.5013246, 33.8809805], [-96.5013269, 33.8812496], [-96.5012363, 33.8812501], [-96.5012372, 33.8813644], [-96.5013399, 33.8813638], [-96.5013427, 33.8816955], [-96.501506, 33.8816945]]]}, "properties": {"osm_id": 988170791, "building": "yes", "name": "Stateline Truck Center", "height": null, "height_m": null, "levels": null, "tract_id": "40013796600", "tract_name": "7966", "tags": {"addr:city": "Calera", "addr:housenumber": "2215", "addr:postcode": "74730", "addr:state": "OK", "addr:street": "Leavenworth Trail", "building": "yes", "name": "Stateline Truck Center", "shop": "car_repair"}}}, {"type": "Feature", "geometry": {"type": "Polygon", "coordinates": [[[-96.5298361, 33.8313132], [-96.5297886, 33.8312388], [-96.5296531, 33.8312985], [-96.5297026, 33.8313761], [-96.5297257, 33.8313659], [-96.5297411, 33.8313899], [-96.5298184, 33.8313559], [-96.529801, 33.8313287], [-96.5298361, 33.8313132]]]}, "properties": {"osm_id": 1112156489, "building": "yes", "name": "", "height": null, "height_m": null, "levels": null, "tract_id": "40013796600", "tract_name": "7966", "tags": {"building": "yes"}}}, {"type": "Feature", "geometry": {"type": "Polygon", "coordinates": [[[-96.5290905, 33.8318998], [-96.529087, 33.8318664], [-96.5290848, 33.8318454], [-96.528938, 33.831856], [-96.5289437, 33.8319104], [-96.5290905, 33.8318998]]]}, "properties": {"osm_id": 1112156490, "building": "yes", "name": "", "height": null, "height_m": null, "levels": null, "tract_id": "40013796600", "tract_name": "7966", "tags": {"building": "yes"}}}, {"type": "Feature", "geometry": {"type": "Polygon", "coordinates": [[[-96.5291194, 33.8320354], [-96.5291139, 33.831978], [-96.5290435, 33.8319827], [-96.529049, 33.8320401], [-96.5291194, 33.8320354]]]}, "properties": {"osm_id": 1112156491, "building": "yes", "name": "", "height": null, "height_m": null, "levels": null, "tract_id": "40013796600", "tract_name": "7966", "tags": {"building": "yes"}}}, {"type": "Feature", "geometry": {"type": "Polygon", "coordinates": [[[-96.528523, 33.8319836], [-96.5284842, 33.8318748], [-96.5283782, 33.831901], [-96.5284171, 33.8320098], [-96.528523, 33.8319836]]]}, "properties": {"osm_id": 1112156492, "building": "yes", "name": "", "height": null, "height_m": null, "levels": null, "tract_id": "40013796600", "tract_name": "7966", "tags": {"building": "yes"}}}, {"type": "Feature", "geometry": {"type": "Polygon", "coordinates": [[[-96.5286004, 33.8323977], [-96.5286572, 33.8322944], [-96.5284942, 33.8322326], [-96.5284079, 33.8323894], [-96.5284811, 33.8324172], [-96.5285106, 33.8323636], [-96.5286004, 33.8323977]]]}, "properties": {"osm_id": 1112156493, "building": "yes", "name": "", "height": null, "height_m": null, "levels": null, "tract_id": "40013796600", "tract_name": "7966", "tags": {"building": "yes"}}}, {"type": "Feature", "geometry": {"type": "Polygon", "coordinates": [[[-96.5275054, 33.8328003], [-96.5275424, 33.8327355], [-96.5274694, 33.8327067], [-96.5274848, 33.8326798], [-96.5272648, 33.8325929], [-96.5272018, 33.832703], [-96.527253, 33.8327232], [-96.5271752, 33.8328593], [-96.5272443, 33.8328866], [-96.5272995, 33.8327902], [-96.5273859, 33.8328243], [-96.527419, 33.8327662], [-96.5275054, 33.8328003]]]}, "properties": {"osm_id": 1112156494, "building": "yes", "name": "", "height": null, "height_m": null, "levels": null, "tract_id": "40013796600", "tract_name": "7966", "tags": {"building": "yes"}}}, {"type": "Feature", "geometry": {"type": "Polygon", "coordinates": [[[-96.5278603, 33.8325529], [-96.5279299, 33.832454], [-96.5277971, 33.8323895], [-96.5277275, 33.8324884], [-96.5278603, 33.8325529]]]}, "properties": {"osm_id": 1112156495, "building": "yes", "name": "", "height": null, "height_m": null, "levels": null, "tract_id": "40013796600", "tract_name": "7966", "tags": {"building": "yes"}}}, {"type": "Feature", "geometry": {"type": "Polygon", "coordinates": [[[-96.4819012, 33.8923304], [-96.4817966, 33.8922219], [-96.4814935, 33.8924233], [-96.4815981, 33.8925317], [-96.4819012, 33.8923304]]]}, "properties": {"osm_id": 1112156497, "building": "yes", "name": "Fireworks World", "height": null, "height_m": null, "levels": null, "tract_id": "40013796600", "tract_name": "7966", "tags": {"addr:city": "Calera", "addr:housenumber": "154", "addr:postcode": "74730", "addr:state": "OK", "addr:street": "Spivey Drive", "building": "yes", "name": "Fireworks World", "shop": "pyrotechnics"}}}, {"type": "Feature", "geometry": {"type": "Polygon", "coordinates": [[[-96.4822437, 33.8926837], [-96.4822517, 33.8925811], [-96.4821005, 33.892573], [-96.4820925, 33.8926756], [-96.4822437, 33.8926837]]]}, "properties": {"osm_id": 1112156499, "building": "yes", "name": "", "height": null, "height_m": null, "levels": null, "tract_id": "40013796600", "tract_name": "7966", "tags": {"building": "yes"}}}, {"type": "Feature", "geometry": {"type": "Polygon", "coordinates": [[[-96.4827013, 33.8928156], [-96.4826938, 33.8926739], [-96.4824778, 33.8926819], [-96.482481, 33.8927421], [-96.4826192, 33.8927371], [-96.4826236, 33.8928184], [-96.4827013, 33.8928156]]]}, "properties": {"osm_id": 1112156500, "building": "yes", "name": "", "height": null, "height_m": null, "levels": null, "tract_id": "40013796600", "tract_name": "7966", "tags": {"building": "yes"}}}, {"type": "Feature", "geometry": {"type": "Polygon", "coordinates": [[[-96.4827003, 33.8924407], [-96.4826767, 33.8924206], [-96.4827815, 33.8923357], [-96.4827091, 33.8922742], [-96.4825661, 33.89239], [-96.4826621, 33.8924717], [-96.4827003, 33.8924407]]]}, "properties": {"osm_id": 1112156501, "building": "yes", "name": "", "height": null, "height_m": null, "levels": null, "tract_id": "40013796600", "tract_name": "7966", "tags": {"building": "yes"}}}, {"type": "Feature", "geometry": {"type": "Polygon", "coordinates": [[[-96.4820278, 33.8899554], [-96.4820255, 33.8896255], [-96.4819952, 33.8896256], [-96.4819947, 33.8895415], [-96.4816369, 33.8895432], [-96.4816396, 33.8899552], [-96.4817177, 33.8899548], [-96.4817191, 33.8901679], [-96.4818736, 33.8901672], [-96.4818722, 33.8899562], [-96.4820278, 33.8899554]]]}, "properties": {"osm_id": 1112156504, "building": "yes", "name": "", "height": null, "height_m": null, "levels": null, "tract_id": "40013796600", "tract_name": "7966", "tags": {"building": "yes"}}}, {"type": "Feature", "geometry": {"type": "Polygon", "coordinates": [[[-96.4835292, 33.8897187], [-96.4835292, 33.8896091], [-96.4834123, 33.8896091], [-96.4834123, 33.8897187], [-96.4835292, 33.8897187]]]}, "properties": {"osm_id": 1112156505, "building": "yes", "name": "PACKS. Dispensary", "height": null, "height_m": null, "levels": null, "tract_id": "40013796600", "tract_name": "7966", "tags": {"addr:city": "Calera", "addr:housenumber": "5778", "addr:postcode": "74730", "addr:state": "OK", "addr:street": "US Highway 69", "building": "yes", "name": "PACKS. Dispensary", "shop": "cannabis"}}}, {"type": "Feature", "geometry": {"type": "Polygon", "coordinates": [[[-96.4680699, 33.9062713], [-96.4680744, 33.9055911], [-96.4665808, 33.9055802], [-96.465845, 33.9062676], [-96.4680699, 33.9062713]]]}, "properties": {"osm_id": 1112158675, "building": "no", "name": "Oklahoma Trailer Sales", "height": null, "height_m": null, "levels": null, "tract_id": "40013796600", "tract_name": "7966", "tags": {"addr:city": "Calera", "addr:housenumber": "7", "addr:postcode": "74730", "addr:state": "OK", "addr:street": "Luke Brothers Drive", "building": "no", "name": "Oklahoma Trailer Sales", "shop": "caravan", "tourism": "caravan_site"}}}, {"type": "Feature", "geometry": {"type": "Polygon", "coordinates": [[[-96.4673844, 33.9058797], [-96.467383, 33.9057888], [-96.4670938, 33.9057919], [-96.4670951, 33.9058826], [-96.4673844, 33.9058797]]]}, "properties": {"osm_id": 1112158676, "building": "yes", "name": "", "height": null, "height_m": null, "levels": null, "tract_id": "40013796600", "tract_name": "7966", "tags": {"building": "yes"}}}, {"type": "Feature", "geometry": {"type": "Polygon", "coordinates": [[[-96.4674481, 33.9057544], [-96.4674465, 33.9056476], [-96.4673477, 33.9056487], [-96.4673493, 33.9057554], [-96.4674481, 33.9057544]]]}, "properties": {"osm_id": 1112158677, "building": "yes", "name": "", "height": null, "height_m": null, "levels": null, "tract_id": "40013796600", "tract_name": "7966", "tags": {"building": "yes"}}}, {"type": "Feature", "geometry": {"type": "Polygon", "coordinates": [[[-96.4798054, 33.8939458], [-96.4797663, 33.8939063], [-96.480239, 33.8935847], [-96.4800856, 33.8934295], [-96.4800288, 33.8934682], [-96.4800661, 33.8935059], [-96.4798356, 33.8936628], [-96.479813, 33.8936399], [-96.479511, 33.8938455], [-96.4796887, 33.8940253], [-96.4798054, 33.8939458]]]}, "properties": {"osm_id": 1112158678, "building": "yes", "name": "The Peanut Shoppe", "height": null, "height_m": null, "levels": null, "tract_id": "40013796600", "tract_name": "7966", "tags": {"addr:city": "Calera", "addr:housenumber": "26", "addr:postcode": "74730", "addr:state": "OK", "addr:street": "Spivey Drive", "building": "yes", "check_date": "2025-02-02", "name": "The Peanut Shoppe", "shop": "general"}}}, {"type": "Feature", "geometry": {"type": "Polygon", "coordinates": [[[-96.4799353, 33.8941465], [-96.479848, 33.8940582], [-96.4796513, 33.8941922], [-96.4797387, 33.8942805], [-96.4799353, 33.8941465]]]}, "properties": {"osm_id": 1112158679, "building": "yes", "name": "", "height": null, "height_m": null, "levels": null, "tract_id": "40013796600", "tract_name": "7966", "tags": {"building": "yes"}}}, {"type": "Feature", "geometry": {"type": "Polygon", "coordinates": [[[-96.4784775, 33.8928635], [-96.4784026, 33.8928173], [-96.4782891, 33.8929442], [-96.478364, 33.8929903], [-96.4784775, 33.8928635]]]}, "properties": {"osm_id": 1112158681, "building": "office", "name": "Hench's Country Liv'n Homes of Calera", "height": null, "height_m": null, "levels": null, "tract_id": "40013796600", "tract_name": "7966", "tags": {"addr:city": "Calera", "addr:housenumber": "23", "addr:postcode": "74730", "addr:state": "OK", "addr:street": "Freda Circle", "building": "office", "name": "Hench's Country Liv'n Homes of Calera", "shop": "house"}}}, {"type": "Feature", "geometry": {"type": "Polygon", "coordinates": [[[-96.4614383, 33.9105558], [-96.4612989, 33.9104417], [-96.461129, 33.9105846], [-96.4612685, 33.9106988], [-96.4614383, 33.9105558]]]}, "properties": {"osm_id": 1112158682, "building": "yes", "name": "", "height": null, "height_m": null, "levels": null, "tract_id": "40013796600", "tract_name": "7966", "tags": {"building": "yes"}}}, {"type": "Feature", "geometry": {"type": "Polygon", "coordinates": [[[-96.459712, 33.9101616], [-96.4595537, 33.9099925], [-96.459459, 33.9100536], [-96.4596173, 33.9102227], [-96.459712, 33.9101616]]]}, "properties": {"osm_id": 1112158683, "building": "yes", "name": "Blackburn Propane Services", "height": null, "height_m": null, "levels": null, "tract_id": "40013796600", "tract_name": "7966", "tags": {"addr:city": "Calera", "addr:housenumber": "7694", "addr:postcode": "74730", "addr:state": "OK", "addr:street": "US Highway 69", "building": "yes", "name": "Blackburn Propane Services", "shop": "gas"}}}, {"type": "Feature", "geometry": {"type": "Polygon", "coordinates": [[[-96.4512812, 33.9152495], [-96.4512115, 33.9151684], [-96.4512805, 33.9151276], [-96.451162, 33.9149896], [-96.4507078, 33.9152581], [-96.450996, 33.9155938], [-96.451161, 33.9154962], [-96.451061, 33.9153798], [-96.4512812, 33.9152495]]]}, "properties": {"osm_id": 1112158684, "building": "yes", "name": "", "height": null, "height_m": null, "levels": null, "tract_id": "40013796600", "tract_name": "7966", "tags": {"building": "yes"}}}, {"type": "Feature", "geometry": {"type": "Polygon", "coordinates": [[[-96.4508745, 33.9151341], [-96.4507317, 33.9149686], [-96.4504662, 33.9151264], [-96.450609, 33.9152919], [-96.4508745, 33.9151341]]]}, "properties": {"osm_id": 1112158685, "building": "yes", "name": "", "height": null, "height_m": null, "levels": null, "tract_id": "40013796600", "tract_name": "7966", "tags": {"building": "yes"}}}, {"type": "Feature", "geometry": {"type": "Polygon", "coordinates": [[[-96.4507491, 33.9157478], [-96.4504656, 33.9154124], [-96.4502889, 33.9155153], [-96.4505722, 33.9158507], [-96.4507491, 33.9157478]]]}, "properties": {"osm_id": 1112158686, "building": "yes", "name": "", "height": null, "height_m": null, "levels": null, "tract_id": "40013796600", "tract_name": "7966", "tags": {"building": "yes"}}}, {"type": "Feature", "geometry": {"type": "Polygon", "coordinates": [[[-96.4492312, 33.9164565], [-96.4491219, 33.9163307], [-96.4487451, 33.916556], [-96.4488569, 33.9166847], [-96.449072, 33.9165561], [-96.4490964, 33.9165842], [-96.4491881, 33.9165294], [-96.4491611, 33.9164984], [-96.4492312, 33.9164565]]]}, "properties": {"osm_id": 1112158688, "building": "yes", "name": "", "height": null, "height_m": null, "levels": null, "tract_id": "40013796600", "tract_name": "7966", "tags": {"building": "yes"}}}, {"type": "Feature", "geometry": {"type": "Polygon", "coordinates": [[[-96.5537635, 33.8978642], [-96.5536662, 33.8978659], [-96.5536594, 33.8975942], [-96.5537567, 33.8975926], [-96.5537635, 33.8978642]]]}, "properties": {"osm_id": 1235323187, "building": "farm_auxiliary", "name": "", "height": null, "height_m": null, "levels": null, "tract_id": "40013796600", "tract_name": "7966", "tags": {"building": "farm_auxiliary"}}}, {"type": "Feature", "geometry": {"type": "Polygon", "coordinates": [[[-96.5535405, 33.8978701], [-96.5534433, 33.8978718], [-96.5534364, 33.8976001], [-96.5535337, 33.8975984], [-96.5535405, 33.8978701]]]}, "properties": {"osm_id": 1235323188, "building": "farm_auxiliary", "name": "", "height": null, "height_m": null, "levels": null, "tract_id": "40013796600", "tract_name": "7966", "tags": {"building": "farm_auxiliary"}}}, {"type": "Feature", "geometry": {"type": "Polygon", "coordinates": [[[-96.5533122, 33.897876], [-96.553215, 33.8978776], [-96.5532081, 33.897606], [-96.5533055, 33.8976043], [-96.5533122, 33.897876]]]}, "properties": {"osm_id": 1235323189, "building": "farm_auxiliary", "name": "", "height": null, "height_m": null, "levels": null, "tract_id": "40013796600", "tract_name": "7966", "tags": {"building": "farm_auxiliary"}}}, {"type": "Feature", "geometry": {"type": "Polygon", "coordinates": [[[-96.5534273, 33.8978701], [-96.55333, 33.8978718], [-96.5533232, 33.8976001], [-96.5534205, 33.8975984], [-96.5534273, 33.8978701]]]}, "properties": {"osm_id": 1235323190, "building": "farm_auxiliary", "name": "", "height": null, "height_m": null, "levels": null, "tract_id": "40013796600", "tract_name": "7966", "tags": {"building": "farm_auxiliary"}}}, {"type": "Feature", "geometry": {"type": "Polygon", "coordinates": [[[-96.5536538, 33.8978657], [-96.5535565, 33.8978674], [-96.5535497, 33.8975957], [-96.553647, 33.897594], [-96.5536538, 33.8978657]]]}, "properties": {"osm_id": 1235323191, "building": "farm_auxiliary", "name": "", "height": null, "height_m": null, "levels": null, "tract_id": "40013796600", "tract_name": "7966", "tags": {"building": "farm_auxiliary"}}}, {"type": "Feature", "geometry": {"type": "Polygon", "coordinates": [[[-96.5531972, 33.8978716], [-96.5531, 33.8978732], [-96.5530931, 33.8976016], [-96.5531904, 33.8975999], [-96.5531972, 33.8978716]]]}, "properties": {"osm_id": 1235323192, "building": "farm_auxiliary", "name": "", "height": null, "height_m": null, "levels": null, "tract_id": "40013796600", "tract_name": "7966", "tags": {"building": "farm_auxiliary"}}}, {"type": "Feature", "geometry": {"type": "Polygon", "coordinates": [[[-96.5530786, 33.8976271], [-96.5530862, 33.897873], [-96.552984, 33.8978751], [-96.5529765, 33.8976293], [-96.5530786, 33.8976271]]]}, "properties": {"osm_id": 1235323193, "building": "farm_auxiliary", "name": "", "height": null, "height_m": null, "levels": null, "tract_id": "40013796600", "tract_name": "7966", "tags": {"building": "farm_auxiliary"}}}, {"type": "Feature", "geometry": {"type": "Polygon", "coordinates": [[[-96.5531157, 33.8975657], [-96.5531058, 33.8973118], [-96.5530061, 33.8973145], [-96.5530161, 33.8975684], [-96.5531157, 33.8975657]]]}, "properties": {"osm_id": 1235323194, "building": "farm_auxiliary", "name": "", "height": null, "height_m": null, "levels": null, "tract_id": "40013796600", "tract_name": "7966", "tags": {"building": "farm_auxiliary"}}}, {"type": "Feature", "geometry": {"type": "Polygon", "coordinates": [[[-96.5541003, 33.897531], [-96.554003, 33.8975327], [-96.5539962, 33.897261], [-96.5540935, 33.8972593], [-96.5541003, 33.897531]]]}, "properties": {"osm_id": 1235323195, "building": "farm_auxiliary", "name": "", "height": null, "height_m": null, "levels": null, "tract_id": "40013796600", "tract_name": "7966", "tags": {"building": "farm_auxiliary"}}}, {"type": "Feature", "geometry": {"type": "Polygon", "coordinates": [[[-96.5542675, 33.8974971], [-96.5541702, 33.8974988], [-96.5541634, 33.8972272], [-96.5542607, 33.8972255], [-96.5542675, 33.8974971]]]}, "properties": {"osm_id": 1235323196, "building": "farm_auxiliary", "name": "", "height": null, "height_m": null, "levels": null, "tract_id": "40013796600", "tract_name": "7966", "tags": {"building": "farm_auxiliary"}}}, {"type": "Feature", "geometry": {"type": "Polygon", "coordinates": [[[-96.5547487, 33.8974684], [-96.5546514, 33.8974701], [-96.5546446, 33.8971984], [-96.5547419, 33.8971967], [-96.5547487, 33.8974684]]]}, "properties": {"osm_id": 1235323197, "building": "farm_auxiliary", "name": "", "height": null, "height_m": null, "levels": null, "tract_id": "40013796600", "tract_name": "7966", "tags": {"building": "farm_auxiliary"}}}, {"type": "Feature", "geometry": {"type": "Polygon", "coordinates": [[[-96.5550035, 33.8971837], [-96.555011, 33.8974295], [-96.5549089, 33.8974317], [-96.5549013, 33.8971858], [-96.5550035, 33.8971837]]]}, "properties": {"osm_id": 1235323198, "building": "farm_auxiliary", "name": "", "height": null, "height_m": null, "levels": null, "tract_id": "40013796600", "tract_name": "7966", "tags": {"building": "farm_auxiliary"}}}, {"type": "Feature", "geometry": {"type": "Polygon", "coordinates": [[[-96.5548689, 33.8971938], [-96.5548765, 33.8974397], [-96.5547743, 33.8974419], [-96.5547668, 33.897196], [-96.5548689, 33.8971938]]]}, "properties": {"osm_id": 1235323199, "building": "farm_auxiliary", "name": "", "height": null, "height_m": null, "levels": null, "tract_id": "40013796600", "tract_name": "7966", "tags": {"building": "farm_auxiliary"}}}, {"type": "Feature", "geometry": {"type": "Polygon", "coordinates": [[[-96.5563276, 33.8975059], [-96.5562527, 33.8975068], [-96.5562479, 33.8972434], [-96.5563229, 33.8972425], [-96.5563276, 33.8975059]]]}, "properties": {"osm_id": 1235323200, "building": "farm_auxiliary", "name": "", "height": null, "height_m": null, "levels": null, "tract_id": "40013796600", "tract_name": "7966", "tags": {"building": "farm_auxiliary"}}}, {"type": "Feature", "geometry": {"type": "Polygon", "coordinates": [[[-96.5562395, 33.8975082], [-96.5561646, 33.8975091], [-96.5561599, 33.8972457], [-96.5562348, 33.8972448], [-96.5562395, 33.8975082]]]}, "properties": {"osm_id": 1235323201, "building": "farm_auxiliary", "name": "", "height": null, "height_m": null, "levels": null, "tract_id": "40013796600", "tract_name": "7966", "tags": {"building": "farm_auxiliary"}}}, {"type": "Feature", "geometry": {"type": "Polygon", "coordinates": [[[-96.5560615, 33.8974712], [-96.5559866, 33.8974722], [-96.5559819, 33.8972088], [-96.5560568, 33.8972079], [-96.5560615, 33.8974712]]]}, "properties": {"osm_id": 1235323202, "building": "farm_auxiliary", "name": "", "height": null, "height_m": null, "levels": null, "tract_id": "40013796600", "tract_name": "7966", "tags": {"building": "farm_auxiliary"}}}, {"type": "Feature", "geometry": {"type": "Polygon", "coordinates": [[[-96.5559702, 33.8974732], [-96.5558953, 33.8974741], [-96.5558905, 33.8972107], [-96.5559655, 33.8972098], [-96.5559702, 33.8974732]]]}, "properties": {"osm_id": 1235323203, "building": "farm_auxiliary", "name": "", "height": null, "height_m": null, "levels": null, "tract_id": "40013796600", "tract_name": "7966", "tags": {"building": "farm_auxiliary"}}}, {"type": "Feature", "geometry": {"type": "Polygon", "coordinates": [[[-96.5561482, 33.8974693], [-96.5560733, 33.8974702], [-96.5560685, 33.8972068], [-96.5561435, 33.8972059], [-96.5561482, 33.8974693]]]}, "properties": {"osm_id": 1235323204, "building": "farm_auxiliary", "name": "", "height": null, "height_m": null, "levels": null, "tract_id": "40013796600", "tract_name": "7966", "tags": {"building": "farm_auxiliary"}}}, {"type": "Feature", "geometry": {"type": "Polygon", "coordinates": [[[-96.5564035, 33.8971679], [-96.5563286, 33.8971689], [-96.5563238, 33.8969055], [-96.5563988, 33.8969046], [-96.5564035, 33.8971679]]]}, "properties": {"osm_id": 1235323205, "building": "farm_auxiliary", "name": "", "height": null, "height_m": null, "levels": null, "tract_id": "40013796600", "tract_name": "7966", "tags": {"building": "farm_auxiliary"}}}, {"type": "Feature", "geometry": {"type": "Polygon", "coordinates": [[[-96.5565839, 33.8971621], [-96.556509, 33.897163], [-96.5565042, 33.8968997], [-96.5565792, 33.8968987], [-96.5565839, 33.8971621]]]}, "properties": {"osm_id": 1235323206, "building": "farm_auxiliary", "name": "", "height": null, "height_m": null, "levels": null, "tract_id": "40013796600", "tract_name": "7966", "tags": {"building": "farm_auxiliary"}}}, {"type": "Feature", "geometry": {"type": "Polygon", "coordinates": [[[-96.5564972, 33.8971641], [-96.5564223, 33.897165], [-96.5564175, 33.8969016], [-96.5564925, 33.8969007], [-96.5564972, 33.8971641]]]}, "properties": {"osm_id": 1235323207, "building": "farm_auxiliary", "name": "", "height": null, "height_m": null, "levels": null, "tract_id": "40013796600", "tract_name": "7966", "tags": {"building": "farm_auxiliary"}}}, {"type": "Feature", "geometry": {"type": "Polygon", "coordinates": [[[-96.5563145, 33.8971679], [-96.5562396, 33.8971689], [-96.5562348, 33.8969055], [-96.5563098, 33.8969046], [-96.5563145, 33.8971679]]]}, "properties": {"osm_id": 1235323208, "building": "farm_auxiliary", "name": "", "height": null, "height_m": null, "levels": null, "tract_id": "40013796600", "tract_name": "7966", "tags": {"building": "farm_auxiliary"}}}, {"type": "Feature", "geometry": {"type": "Polygon", "coordinates": [[[-96.5566705, 33.8971602], [-96.5565956, 33.8971611], [-96.5565909, 33.8968977], [-96.5566658, 33.8968968], [-96.5566705, 33.8971602]]]}, "properties": {"osm_id": 1235323209, "building": "farm_auxiliary", "name": "", "height": null, "height_m": null, "levels": null, "tract_id": "40013796600", "tract_name": "7966", "tags": {"building": "farm_auxiliary"}}}, {"type": "Feature", "geometry": {"type": "Polygon", "coordinates": [[[-96.5562278, 33.8971679], [-96.5561529, 33.8971689], [-96.5561482, 33.8969055], [-96.5562231, 33.8969046], [-96.5562278, 33.8971679]]]}, "properties": {"osm_id": 1235323210, "building": "farm_auxiliary", "name": "", "height": null, "height_m": null, "levels": null, "tract_id": "40013796600", "tract_name": "7966", "tags": {"building": "farm_auxiliary"}}}, {"type": "Feature", "geometry": {"type": "Polygon", "coordinates": [[[-96.5560498, 33.8971679], [-96.5559749, 33.8971689], [-96.5559701, 33.8969055], [-96.5560451, 33.8969046], [-96.5560498, 33.8971679]]]}, "properties": {"osm_id": 1235323211, "building": "farm_auxiliary", "name": "", "height": null, "height_m": null, "levels": null, "tract_id": "40013796600", "tract_name": "7966", "tags": {"building": "farm_auxiliary"}}}, {"type": "Feature", "geometry": {"type": "Polygon", "coordinates": [[[-96.5561388, 33.8971699], [-96.5560639, 33.8971708], [-96.5560592, 33.8969074], [-96.5561341, 33.8969065], [-96.5561388, 33.8971699]]]}, "properties": {"osm_id": 1235323212, "building": "farm_auxiliary", "name": "", "height": null, "height_m": null, "levels": null, "tract_id": "40013796600", "tract_name": "7966", "tags": {"building": "farm_auxiliary"}}}, {"type": "Feature", "geometry": {"type": "Polygon", "coordinates": [[[-96.5558863, 33.897171], [-96.5558114, 33.8971719], [-96.5558066, 33.8969085], [-96.5558816, 33.8969076], [-96.5558863, 33.897171]]]}, "properties": {"osm_id": 1235323213, "building": "farm_auxiliary", "name": "", "height": null, "height_m": null, "levels": null, "tract_id": "40013796600", "tract_name": "7966", "tags": {"building": "farm_auxiliary"}}}, {"type": "Feature", "geometry": {"type": "Polygon", "coordinates": [[[-96.5557983, 33.8971743], [-96.5557234, 33.8971752], [-96.5557187, 33.8969118], [-96.5557936, 33.8969109], [-96.5557983, 33.8971743]]]}, "properties": {"osm_id": 1235323214, "building": "farm_auxiliary", "name": "", "height": null, "height_m": null, "levels": null, "tract_id": "40013796600", "tract_name": "7966", "tags": {"building": "farm_auxiliary"}}}, {"type": "Feature", "geometry": {"type": "Polygon", "coordinates": [[[-96.5559678, 33.8971699], [-96.5558929, 33.8971708], [-96.5558882, 33.8969074], [-96.5559631, 33.8969065], [-96.5559678, 33.8971699]]]}, "properties": {"osm_id": 1235323215, "building": "farm_auxiliary", "name": "", "height": null, "height_m": null, "levels": null, "tract_id": "40013796600", "tract_name": "7966", "tags": {"building": "farm_auxiliary"}}}, {"type": "Feature", "geometry": {"type": "Polygon", "coordinates": [[[-96.5543974, 33.8967366], [-96.554385, 33.896625], [-96.5543541, 33.8966269], [-96.554368, 33.8967391], [-96.5543974, 33.8967366]]]}, "properties": {"osm_id": 1235323216, "building": "static_caravan", "name": "", "height": null, "height_m": null, "levels": null, "tract_id": "40013796600", "tract_name": "7966", "tags": {"building": "static_caravan"}}}, {"type": "Feature", "geometry": {"type": "Polygon", "coordinates": [[[-96.5543247, 33.8967091], [-96.5542468, 33.8967086], [-96.554247, 33.8966861], [-96.554325, 33.8966867], [-96.5543247, 33.8967091]]]}, "properties": {"osm_id": 1235323217, "building": "static_caravan", "name": "", "height": null, "height_m": null, "levels": null, "tract_id": "40013796600", "tract_name": "7966", "tags": {"building": "static_caravan"}}}, {"type": "Feature", "geometry": {"type": "Polygon", "coordinates": [[[-96.5544558, 33.8967087], [-96.5544573, 33.8967296], [-96.5544291, 33.896731], [-96.5544235, 33.8966528], [-96.5544499, 33.8966515], [-96.5544513, 33.8966705], [-96.5544644, 33.8966698], [-96.5544671, 33.8967082], [-96.5544558, 33.8967087]]]}, "properties": {"osm_id": 1235323218, "building": "static_caravan", "name": "", "height": null, "height_m": null, "levels": null, "tract_id": "40013796600", "tract_name": "7966", "tags": {"building": "static_caravan"}}}, {"type": "Feature", "geometry": {"type": "Polygon", "coordinates": [[[-96.5542816, 33.8967912], [-96.5542809, 33.8967987], [-96.5543029, 33.8968], [-96.5543008, 33.8968233], [-96.5541988, 33.8968171], [-96.5542007, 33.8967958], [-96.5542275, 33.8967974], [-96.5542283, 33.8967879], [-96.5542816, 33.8967912]]]}, "properties": {"osm_id": 1235323219, "building": "static_caravan", "name": "", "height": null, "height_m": null, "levels": null, "tract_id": "40013796600", "tract_name": "7966", "tags": {"building": "static_caravan"}}}, {"type": "Feature", "geometry": {"type": "Polygon", "coordinates": [[[-96.5542946, 33.8967401], [-96.5542462, 33.8967394], [-96.5542464, 33.89673], [-96.5542145, 33.8967296], [-96.5542143, 33.8967393], [-96.5542035, 33.8967392], [-96.554203, 33.8967614], [-96.5542941, 33.8967626], [-96.5542946, 33.8967401]]]}, "properties": {"osm_id": 1235323220, "building": "static_caravan", "name": "", "height": null, "height_m": null, "levels": null, "tract_id": "40013796600", "tract_name": "7966", "tags": {"building": "static_caravan"}}}, {"type": "Feature", "geometry": {"type": "Polygon", "coordinates": [[[-96.5541984, 33.896869], [-96.5541987, 33.8968765], [-96.5541728, 33.8968771], [-96.5541726, 33.8968717], [-96.5541343, 33.8968726], [-96.5541346, 33.8968805], [-96.5540878, 33.8968816], [-96.5540875, 33.8968736], [-96.5540758, 33.8968739], [-96.5540749, 33.896848], [-96.5541058, 33.8968472], [-96.5541056, 33.8968412], [-96.5541241, 33.8968407], [-96.5541243, 33.8968469], [-96.5541606, 33.896846], [-96.5541604, 33.8968418], [-96.5541971, 33.8968409], [-96.5541972, 33.8968444], [-96.5542044, 33.8968443], [-96.5542053, 33.8968688], [-96.5541984, 33.896869]]]}, "properties": {"osm_id": 1235323221, "building": "static_caravan", "name": "", "height": null, "height_m": null, "levels": null, "tract_id": "40013796600", "tract_name": "7966", "tags": {"building": "static_caravan"}}}, {"type": "Feature", "geometry": {"type": "Polygon", "coordinates": [[[-96.5542682, 33.8971647], [-96.5542651, 33.8971648], [-96.554265, 33.8971627], [-96.5542432, 33.8971632], [-96.5542434, 33.897167], [-96.5542292, 33.8971673], [-96.5542291, 33.8971629], [-96.5542016, 33.8971635], [-96.5542018, 33.8971685], [-96.5541736, 33.8971691], [-96.5541735, 33.8971651], [-96.5541514, 33.8971656], [-96.5541516, 33.8971704], [-96.5541467, 33.8971705], [-96.5541476, 33.8971954], [-96.554153, 33.8971953], [-96.5541532, 33.8971999], [-96.5541899, 33.897199], [-96.5541897, 33.897194], [-96.5542421, 33.8971927], [-96.5542423, 33.8971978], [-96.5542694, 33.8971971], [-96.5542682, 33.8971647]]]}, "properties": {"osm_id": 1235323222, "building": "static_caravan", "name": "", "height": null, "height_m": null, "levels": null, "tract_id": "40013796600", "tract_name": "7966", "tags": {"building": "static_caravan"}}}, {"type": "Feature", "geometry": {"type": "Polygon", "coordinates": [[[-96.5530508, 33.8972071], [-96.5531623, 33.897211], [-96.5531636, 33.8971853], [-96.5531338, 33.8971843], [-96.5531341, 33.8971777], [-96.5530877, 33.897176], [-96.5530872, 33.8971845], [-96.5530847, 33.8971845], [-96.553085, 33.8971788], [-96.5530601, 33.8971779], [-96.5530597, 33.897186], [-96.5530518, 33.8971857], [-96.5530508, 33.8972071]]]}, "properties": {"osm_id": 1235323223, "building": "static_caravan", "name": "", "height": null, "height_m": null, "levels": null, "tract_id": "40013796600", "tract_name": "7966", "tags": {"building": "static_caravan"}}}, {"type": "Feature", "geometry": {"type": "Polygon", "coordinates": [[[-96.5531419, 33.8971076], [-96.5530079, 33.8971186], [-96.5530053, 33.897097], [-96.5531394, 33.8970861], [-96.5531419, 33.8971076]]]}, "properties": {"osm_id": 1235323224, "building": "yes", "name": "", "height": null, "height_m": null, "levels": null, "tract_id": "40013796600", "tract_name": "7966", "tags": {"building": "yes"}}}, {"type": "Feature", "geometry": {"type": "Polygon", "coordinates": [[[-96.5574656, 33.8988142], [-96.5574634, 33.8985326], [-96.5573504, 33.8985332], [-96.5573527, 33.8988149], [-96.5574656, 33.8988142]]]}, "properties": {"osm_id": 1235323225, "building": "farm_auxiliary", "name": "", "height": null, "height_m": null, "levels": null, "tract_id": "40013796600", "tract_name": "7966", "tags": {"building": "farm_auxiliary"}}}, {"type": "Feature", "geometry": {"type": "Polygon", "coordinates": [[[-96.5576804, 33.8985178], [-96.5575035, 33.8985231], [-96.5575024, 33.8984991], [-96.5576793, 33.8984938], [-96.5576804, 33.8985178]]]}, "properties": {"osm_id": 1235323226, "building": "farm_auxiliary", "name": "", "height": null, "height_m": null, "levels": null, "tract_id": "40013796600", "tract_name": "7966", "tags": {"building": "farm_auxiliary"}}}, {"type": "Feature", "geometry": {"type": "Polygon", "coordinates": [[[-96.5585867, 33.8962999], [-96.5584006, 33.8963042], [-96.5583992, 33.8962635], [-96.5585854, 33.8962592], [-96.5585867, 33.8962999]]]}, "properties": {"osm_id": 1235323228, "building": "yes", "name": "", "height": null, "height_m": null, "levels": null, "tract_id": "40013796600", "tract_name": "7966", "tags": {"building": "yes"}}}, {"type": "Feature", "geometry": {"type": "Polygon", "coordinates": [[[-96.5569566, 33.8955304], [-96.5566272, 33.8955323], [-96.556628, 33.895453], [-96.5569562, 33.8954513], [-96.5569566, 33.8955304]]]}, "properties": {"osm_id": 1235323229, "building": "yes", "name": "", "height": null, "height_m": null, "levels": null, "tract_id": "40013796600", "tract_name": "7966", "tags": {"building": "yes"}}}, {"type": "Feature", "geometry": {"type": "Polygon", "coordinates": [[[-96.556956, 33.8956098], [-96.5566278, 33.8956115], [-96.5566272, 33.8955323], [-96.5569566, 33.8955304], [-96.556956, 33.8956098]]]}, "properties": {"osm_id": 1235323230, "building": "yes", "name": "", "height": null, "height_m": null, "levels": null, "tract_id": "40013796600", "tract_name": "7966", "tags": {"building": "yes"}}}, {"type": "Feature", "geometry": {"type": "Polygon", "coordinates": [[[-96.5569575, 33.895694], [-96.5566292, 33.8956956], [-96.5566278, 33.8956115], [-96.556956, 33.8956098], [-96.5569575, 33.895694]]]}, "properties": {"osm_id": 1235323231, "building": "yes", "name": "", "height": null, "height_m": null, "levels": null, "tract_id": "40013796600", "tract_name": "7966", "tags": {"building": "yes"}}}, {"type": "Feature", "geometry": {"type": "Polygon", "coordinates": [[[-96.5569585, 33.8957829], [-96.5566303, 33.8957845], [-96.5566292, 33.8956956], [-96.5569575, 33.895694], [-96.5569585, 33.8957829]]]}, "properties": {"osm_id": 1235323232, "building": "yes", "name": "", "height": null, "height_m": null, "levels": null, "tract_id": "40013796600", "tract_name": "7966", "tags": {"building": "yes"}}}, {"type": "Feature", "geometry": {"type": "Polygon", "coordinates": [[[-96.556959, 33.895862], [-96.5566308, 33.8958637], [-96.5566303, 33.8957845], [-96.5569585, 33.8957829], [-96.556959, 33.895862]]]}, "properties": {"osm_id": 1235323233, "building": "yes", "name": "", "height": null, "height_m": null, "levels": null, "tract_id": "40013796600", "tract_name": "7966", "tags": {"building": "yes"}}}, {"type": "Feature", "geometry": {"type": "Polygon", "coordinates": [[[-96.5569582, 33.8959431], [-96.5566334, 33.8959448], [-96.5566308, 33.8958637], [-96.556959, 33.895862], [-96.5569582, 33.8959431]]]}, "properties": {"osm_id": 1235323234, "building": "yes", "name": "", "height": null, "height_m": null, "levels": null, "tract_id": "40013796600", "tract_name": "7966", "tags": {"building": "yes"}}}, {"type": "Feature", "geometry": {"type": "Polygon", "coordinates": [[[-96.556957, 33.8960251], [-96.5566329, 33.8960253], [-96.5566334, 33.8959448], [-96.5569582, 33.8959431], [-96.556957, 33.8960251]]]}, "properties": {"osm_id": 1235323235, "building": "yes", "name": "", "height": null, "height_m": null, "levels": null, "tract_id": "40013796600", "tract_name": "7966", "tags": {"building": "yes"}}}, {"type": "Feature", "geometry": {"type": "Polygon", "coordinates": [[[-96.556957, 33.8960251], [-96.5569565, 33.896138], [-96.5566353, 33.896141], [-96.5566329, 33.8960253], [-96.556957, 33.8960251]]]}, "properties": {"osm_id": 1235323236, "building": "yes", "name": "", "height": null, "height_m": null, "levels": null, "tract_id": "40013796600", "tract_name": "7966", "tags": {"building": "yes"}}}, {"type": "Feature", "geometry": {"type": "Polygon", "coordinates": [[[-96.5545351, 33.8967883], [-96.5544917, 33.896787], [-96.5544936, 33.8967446], [-96.554537, 33.8967459], [-96.5545351, 33.8967883]]]}, "properties": {"osm_id": 1235323245, "building": "yes", "name": "", "height": null, "height_m": null, "levels": null, "tract_id": "40013796600", "tract_name": "7966", "tags": {"building": "yes"}}}, {"type": "Feature", "geometry": {"type": "Polygon", "coordinates": [[[-96.5555911, 33.8980337], [-96.55559, 33.8979222], [-96.5555618, 33.8979224], [-96.5555629, 33.8980338], [-96.5555911, 33.8980337]]]}, "properties": {"osm_id": 1235323246, "building": "yes", "name": "", "height": null, "height_m": null, "levels": null, "tract_id": "40013796600", "tract_name": "7966", "tags": {"building": "yes"}}}, {"type": "Feature", "geometry": {"type": "Polygon", "coordinates": [[[-96.5555948, 33.8980294], [-96.555592, 33.8979207], [-96.5556168, 33.8979202], [-96.5556196, 33.898029], [-96.5555948, 33.8980294]]]}, "properties": {"osm_id": 1235323247, "building": "yes", "name": "", "height": null, "height_m": null, "levels": null, "tract_id": "40013796600", "tract_name": "7966", "tags": {"building": "yes"}}}, {"type": "Feature", "geometry": {"type": "Polygon", "coordinates": [[[-96.5556541, 33.8980274], [-96.5556251, 33.8980283], [-96.5556204, 33.8979206], [-96.5556494, 33.8979197], [-96.5556541, 33.8980274]]]}, "properties": {"osm_id": 1235323248, "building": "yes", "name": "", "height": null, "height_m": null, "levels": null, "tract_id": "40013796600", "tract_name": "7966", "tags": {"building": "yes"}}}, {"type": "Feature", "geometry": {"type": "Polygon", "coordinates": [[[-96.54786, 33.8967555], [-96.5478617, 33.896796], [-96.5477757, 33.8967986], [-96.5477694, 33.8966567], [-96.5478685, 33.8966537], [-96.547873, 33.8967551], [-96.54786, 33.8967555]]]}, "properties": {"osm_id": 1235323249, "building": "house", "name": "", "height": null, "height_m": null, "levels": null, "tract_id": "40013796600", "tract_name": "7966", "tags": {"building": "house"}}}, {"type": "Feature", "geometry": {"type": "Polygon", "coordinates": [[[-96.5480454, 33.8969292], [-96.5478595, 33.896936], [-96.5478576, 33.8969], [-96.5480435, 33.8968931], [-96.5480454, 33.8969292]]]}, "properties": {"osm_id": 1235323250, "building": "house", "name": "", "height": null, "height_m": null, "levels": null, "tract_id": "40013796600", "tract_name": "7966", "tags": {"building": "house"}}}, {"type": "Feature", "geometry": {"type": "Polygon", "coordinates": [[[-96.5476109, 33.8967302], [-96.5475453, 33.8967304], [-96.5475447, 33.8966299], [-96.5476102, 33.8966297], [-96.5476109, 33.8967302]]]}, "properties": {"osm_id": 1235323251, "building": "yes", "name": "", "height": null, "height_m": null, "levels": null, "tract_id": "40013796600", "tract_name": "7966", "tags": {"building": "yes"}}}, {"type": "Feature", "geometry": {"type": "Polygon", "coordinates": [[[-96.5443833, 33.8893793], [-96.5443053, 33.8893859], [-96.5442975, 33.8893213], [-96.5443754, 33.8893148], [-96.5443833, 33.8893793]]]}, "properties": {"osm_id": 1235323252, "building": "yes", "name": "", "height": null, "height_m": null, "levels": null, "tract_id": "40013796600", "tract_name": "7966", "tags": {"building": "yes"}}}, {"type": "Feature", "geometry": {"type": "Polygon", "coordinates": [[[-96.5538048, 33.8960367], [-96.5538101, 33.8958467], [-96.5536451, 33.8958408], [-96.5536433, 33.8958003], [-96.5534702, 33.8957973], [-96.5534729, 33.8960316], [-96.5538048, 33.8960367]]]}, "properties": {"osm_id": 1235323253, "building": "yes", "name": "", "height": null, "height_m": null, "levels": null, "tract_id": "40013796600", "tract_name": "7966", "tags": {"building": "yes"}}}, {"type": "Feature", "geometry": {"type": "Polygon", "coordinates": [[[-96.5537039, 33.8957833], [-96.5536833, 33.8958108], [-96.5536551, 33.8957962], [-96.5536757, 33.8957688], [-96.5537039, 33.8957833]]]}, "properties": {"osm_id": 1235323254, "building": "yes", "name": "", "height": null, "height_m": null, "levels": null, "tract_id": "40013796600", "tract_name": "7966", "tags": {"building": "yes"}}}, {"type": "Feature", "geometry": {"type": "Polygon", "coordinates": [[[-96.5539256, 33.8956971], [-96.5539281, 33.895627], [-96.5538817, 33.8956258], [-96.5538792, 33.895696], [-96.5539256, 33.8956971]]]}, "properties": {"osm_id": 1235323255, "building": "farm_auxiliary", "name": "", "height": null, "height_m": null, "levels": null, "tract_id": "40013796600", "tract_name": "7966", "tags": {"building": "farm_auxiliary"}}}, {"type": "Feature", "geometry": {"type": "Polygon", "coordinates": [[[-96.5543456, 33.8958805], [-96.5542449, 33.8958824], [-96.554244, 33.8958499], [-96.5543447, 33.8958481], [-96.5543456, 33.8958805]]]}, "properties": {"osm_id": 1235323256, "building": "farm_auxiliary", "name": "", "height": null, "height_m": null, "levels": null, "tract_id": "40013796600", "tract_name": "7966", "tags": {"building": "farm_auxiliary"}}}, {"type": "Feature", "geometry": {"type": "Polygon", "coordinates": [[[-96.5543464, 33.8956638], [-96.554247, 33.8956625], [-96.5542476, 33.8956305], [-96.554347, 33.8956318], [-96.5543464, 33.8956638]]]}, "properties": {"osm_id": 1235323257, "building": "farm_auxiliary", "name": "", "height": null, "height_m": null, "levels": null, "tract_id": "40013796600", "tract_name": "7966", "tags": {"building": "farm_auxiliary"}}}, {"type": "Feature", "geometry": {"type": "Polygon", "coordinates": [[[-96.5545592, 33.8956946], [-96.5545608, 33.8956276], [-96.5545066, 33.8956267], [-96.554505, 33.8956937], [-96.5545592, 33.8956946]]]}, "properties": {"osm_id": 1235323258, "building": "farm_auxiliary", "name": "", "height": null, "height_m": null, "levels": null, "tract_id": "40013796600", "tract_name": "7966", "tags": {"building": "farm_auxiliary"}}}, {"type": "Feature", "geometry": {"type": "Polygon", "coordinates": [[[-96.5538071, 33.8953074], [-96.5534681, 33.8953039], [-96.5534687, 33.8952643], [-96.5538076, 33.8952677], [-96.5538071, 33.8953074]]]}, "properties": {"osm_id": 1235323259, "building": "farm_auxiliary", "name": "", "height": null, "height_m": null, "levels": null, "tract_id": "40013796600", "tract_name": "7966", "tags": {"building": "farm_auxiliary"}}}, {"type": "Feature", "geometry": {"type": "Polygon", "coordinates": [[[-96.5539247, 33.8952572], [-96.5539262, 33.8951875], [-96.5538822, 33.8951868], [-96.5538806, 33.8952565], [-96.5539247, 33.8952572]]]}, "properties": {"osm_id": 1235323260, "building": "farm_auxiliary", "name": "", "height": null, "height_m": null, "levels": null, "tract_id": "40013796600", "tract_name": "7966", "tags": {"building": "farm_auxiliary"}}}, {"type": "Feature", "geometry": {"type": "Polygon", "coordinates": [[[-96.554549, 33.8952521], [-96.5545505, 33.8951823], [-96.5545065, 33.8951817], [-96.554505, 33.8952514], [-96.554549, 33.8952521]]]}, "properties": {"osm_id": 1235323261, "building": "farm_auxiliary", "name": "", "height": null, "height_m": null, "levels": null, "tract_id": "40013796600", "tract_name": "7966", "tags": {"building": "farm_auxiliary"}}}, {"type": "Feature", "geometry": {"type": "Polygon", "coordinates": [[[-96.5545474, 33.8947595], [-96.554549, 33.8946898], [-96.5545049, 33.8946891], [-96.5545034, 33.8947588], [-96.5545474, 33.8947595]]]}, "properties": {"osm_id": 1235323262, "building": "farm_auxiliary", "name": "", "height": null, "height_m": null, "levels": null, "tract_id": "40013796600", "tract_name": "7966", "tags": {"building": "farm_auxiliary"}}}, {"type": "Feature", "geometry": {"type": "Polygon", "coordinates": [[[-96.5539262, 33.8947608], [-96.5539278, 33.894691], [-96.5538837, 33.8946904], [-96.5538822, 33.8947601], [-96.5539262, 33.8947608]]]}, "properties": {"osm_id": 1235323263, "building": "farm_auxiliary", "name": "", "height": null, "height_m": null, "levels": null, "tract_id": "40013796600", "tract_name": "7966", "tags": {"building": "farm_auxiliary"}}}, {"type": "Feature", "geometry": {"type": "Polygon", "coordinates": [[[-96.5539293, 33.8943221], [-96.5539309, 33.8942524], [-96.5538868, 33.8942517], [-96.5538853, 33.8943214], [-96.5539293, 33.8943221]]]}, "properties": {"osm_id": 1235323264, "building": "farm_auxiliary", "name": "", "height": null, "height_m": null, "levels": null, "tract_id": "40013796600", "tract_name": "7966", "tags": {"building": "farm_auxiliary"}}}, {"type": "Feature", "geometry": {"type": "Polygon", "coordinates": [[[-96.5545459, 33.8943247], [-96.5545474, 33.8942549], [-96.5545034, 33.8942543], [-96.5545019, 33.894324], [-96.5545459, 33.8943247]]]}, "properties": {"osm_id": 1235323265, "building": "farm_auxiliary", "name": "", "height": null, "height_m": null, "levels": null, "tract_id": "40013796600", "tract_name": "7966", "tags": {"building": "farm_auxiliary"}}}, {"type": "Feature", "geometry": {"type": "Polygon", "coordinates": [[[-96.5539262, 33.8938321], [-96.5539278, 33.8937624], [-96.5538837, 33.8937617], [-96.5538822, 33.8938314], [-96.5539262, 33.8938321]]]}, "properties": {"osm_id": 1235323266, "building": "farm_auxiliary", "name": "", "height": null, "height_m": null, "levels": null, "tract_id": "40013796600", "tract_name": "7966", "tags": {"building": "farm_auxiliary"}}}, {"type": "Feature", "geometry": {"type": "Polygon", "coordinates": [[[-96.5539262, 33.8933908], [-96.5539278, 33.8933211], [-96.5538837, 33.8933204], [-96.5538822, 33.8933902], [-96.5539262, 33.8933908]]]}, "properties": {"osm_id": 1235323267, "building": "farm_auxiliary", "name": "", "height": null, "height_m": null, "levels": null, "tract_id": "40013796600", "tract_name": "7966", "tags": {"building": "farm_auxiliary"}}}, {"type": "Feature", "geometry": {"type": "Polygon", "coordinates": [[[-96.5552674, 33.8967924], [-96.5552658, 33.896676], [-96.5552358, 33.8966763], [-96.5552375, 33.8967927], [-96.5552674, 33.8967924]]]}, "properties": {"osm_id": 1235323268, "building": "yes", "name": "", "height": null, "height_m": null, "levels": null, "tract_id": "40013796600", "tract_name": "7966", "tags": {"building": "yes"}}}, {"type": "Feature", "geometry": {"type": "Polygon", "coordinates": [[[-96.555369, 33.8967946], [-96.5553673, 33.8966782], [-96.5553374, 33.8966785], [-96.5553391, 33.8967949], [-96.555369, 33.8967946]]]}, "properties": {"osm_id": 1235323269, "building": "yes", "name": "", "height": null, "height_m": null, "levels": null, "tract_id": "40013796600", "tract_name": "7966", "tags": {"building": "yes"}}}, {"type": "Feature", "geometry": {"type": "Polygon", "coordinates": [[[-96.5546554, 33.8975109], [-96.5546614, 33.8976272], [-96.5546913, 33.8976261], [-96.5546853, 33.8975098], [-96.5546554, 33.8975109]]]}, "properties": {"osm_id": 1235323270, "building": "yes", "name": "", "height": null, "height_m": null, "levels": null, "tract_id": "40013796600", "tract_name": "7966", "tags": {"building": "yes"}}}, {"type": "Feature", "geometry": {"type": "Polygon", "coordinates": [[[-96.5544253, 33.8976328], [-96.554431, 33.8975251], [-96.5544032, 33.897524], [-96.5543974, 33.8976318], [-96.5544253, 33.8976328]]]}, "properties": {"osm_id": 1235323271, "building": "yes", "name": "", "height": null, "height_m": null, "levels": null, "tract_id": "40013796600", "tract_name": "7966", "tags": {"building": "yes"}}}, {"type": "Feature", "geometry": {"type": "Polygon", "coordinates": [[[-96.5544128, 33.8977801], [-96.5544186, 33.8976724], [-96.5543908, 33.8976714], [-96.554385, 33.8977791], [-96.5544128, 33.8977801]]]}, "properties": {"osm_id": 1235323272, "building": "yes", "name": "", "height": null, "height_m": null, "levels": null, "tract_id": "40013796600", "tract_name": "7966", "tags": {"building": "yes"}}}, {"type": "Feature", "geometry": {"type": "Polygon", "coordinates": [[[-96.554506, 33.8977842], [-96.5545058, 33.8976737], [-96.5544793, 33.8976737], [-96.5544796, 33.8977842], [-96.554506, 33.8977842]]]}, "properties": {"osm_id": 1235323273, "building": "yes", "name": "", "height": null, "height_m": null, "levels": null, "tract_id": "40013796600", "tract_name": "7966", "tags": {"building": "yes"}}}, {"type": "Feature", "geometry": {"type": "Polygon", "coordinates": [[[-96.5542656, 33.8976623], [-96.5542934, 33.8976616], [-96.5542898, 33.8975529], [-96.554262, 33.8975535], [-96.5542656, 33.8976623]]]}, "properties": {"osm_id": 1235323274, "building": "yes", "name": "", "height": null, "height_m": null, "levels": null, "tract_id": "40013796600", "tract_name": "7966", "tags": {"building": "yes"}}}, {"type": "Feature", "geometry": {"type": "Polygon", "coordinates": [[[-96.5541753, 33.8976629], [-96.5541714, 33.8975538], [-96.5541447, 33.8975544], [-96.5541486, 33.8976635], [-96.5541753, 33.8976629]]]}, "properties": {"osm_id": 1235323275, "building": "yes", "name": "", "height": null, "height_m": null, "levels": null, "tract_id": "40013796600", "tract_name": "7966", "tags": {"building": "yes"}}}, {"type": "Feature", "geometry": {"type": "Polygon", "coordinates": [[[-96.5542968, 33.8976786], [-96.5542973, 33.8977841], [-96.5542692, 33.8977841], [-96.5542687, 33.8976787], [-96.5542968, 33.8976786]]]}, "properties": {"osm_id": 1235323276, "building": "yes", "name": "", "height": null, "height_m": null, "levels": null, "tract_id": "40013796600", "tract_name": "7966", "tags": {"building": "yes"}}}, {"type": "Feature", "geometry": {"type": "Polygon", "coordinates": [[[-96.5541761, 33.8976767], [-96.5541797, 33.8977856], [-96.5541492, 33.8977851], [-96.5541463, 33.8976762], [-96.5541761, 33.8976767]]]}, "properties": {"osm_id": 1235323277, "building": "yes", "name": "", "height": null, "height_m": null, "levels": null, "tract_id": "40013796600", "tract_name": "7966", "tags": {"building": "yes"}}}, {"type": "Feature", "geometry": {"type": "Polygon", "coordinates": [[[-96.5542702, 33.8978411], [-96.5541794, 33.8978457], [-96.5541776, 33.8978217], [-96.5542685, 33.8978171], [-96.5542702, 33.8978411]]]}, "properties": {"osm_id": 1235323280, "building": "yes", "name": "", "height": null, "height_m": null, "levels": null, "tract_id": "40013796600", "tract_name": "7966", "tags": {"building": "yes"}}}, {"type": "Feature", "geometry": {"type": "Polygon", "coordinates": [[[-96.5531377, 33.8973044], [-96.5530035, 33.8973012], [-96.5530042, 33.8972802], [-96.5531385, 33.8972834], [-96.5531377, 33.8973044]]]}, "properties": {"osm_id": 1235323281, "building": "yes", "name": "", "height": null, "height_m": null, "levels": null, "tract_id": "40013796600", "tract_name": "7966", "tags": {"building": "yes"}}}, {"type": "Feature", "geometry": {"type": "Polygon", "coordinates": [[[-96.5531372, 33.8972701], [-96.5530051, 33.8972693], [-96.5530052, 33.8972486], [-96.5531374, 33.8972493], [-96.5531372, 33.8972701]]]}, "properties": {"osm_id": 1235323282, "building": "yes", "name": "", "height": null, "height_m": null, "levels": null, "tract_id": "40013796600", "tract_name": "7966", "tags": {"building": "yes"}}}, {"type": "Feature", "geometry": {"type": "Polygon", "coordinates": [[[-96.5561029, 33.8975279], [-96.5560411, 33.897528], [-96.5560411, 33.8974959], [-96.5561029, 33.8974959], [-96.5561029, 33.8975279]]]}, "properties": {"osm_id": 1235323283, "building": "yes", "name": "", "height": null, "height_m": null, "levels": null, "tract_id": "40013796600", "tract_name": "7966", "tags": {"building": "yes"}}}, {"type": "Feature", "geometry": {"type": "Polygon", "coordinates": [[[-96.5562385, 33.8972055], [-96.5562361, 33.8972083], [-96.5562349, 33.8972115], [-96.556235, 33.8972148], [-96.5562364, 33.897218], [-96.5562389, 33.8972206], [-96.5562423, 33.8972225], [-96.5562462, 33.8972233], [-96.5562504, 33.8972231], [-96.5562543, 33.8972217], [-96.5562575, 33.8972192], [-96.5562594, 33.8972161], [-96.55626, 33.8972126], [-96.5562592, 33.8972091], [-96.556257, 33.8972061], [-96.5562537, 33.8972038], [-96.5562497, 33.8972026], [-96.5562456, 33.8972025], [-96.5562418, 33.8972036], [-96.5562385, 33.8972055]]]}, "properties": {"osm_id": 1235323284, "building": "yes", "name": "", "height": null, "height_m": null, "levels": null, "tract_id": "40013796600", "tract_name": "7966", "tags": {"building": "yes", "man_made": "silo"}}}, {"type": "Feature", "geometry": {"type": "Polygon", "coordinates": [[[-96.5561624, 33.8972046], [-96.55616, 33.8972073], [-96.5561588, 33.8972105], [-96.5561589, 33.8972139], [-96.5561603, 33.8972171], [-96.5561628, 33.8972197], [-96.5561662, 33.8972216], [-96.5561701, 33.8972224], [-96.5561743, 33.8972222], [-96.5561782, 33.8972207], [-96.5561814, 33.8972183], [-96.5561833, 33.8972152], [-96.5561839, 33.8972117], [-96.5561831, 33.8972082], [-96.5561809, 33.8972052], [-96.5561776, 33.8972029], [-96.5561736, 33.8972017], [-96.5561695, 33.8972016], [-96.5561657, 33.8972026], [-96.5561624, 33.8972046]]]}, "properties": {"osm_id": 1235323285, "building": "yes", "name": "", "height": null, "height_m": null, "levels": null, "tract_id": "40013796600", "tract_name": "7966", "tags": {"building": "yes", "man_made": "silo"}}}, {"type": "Feature", "geometry": {"type": "Polygon", "coordinates": [[[-96.5561883, 33.8972042], [-96.556186, 33.897207], [-96.5561848, 33.8972102], [-96.5561849, 33.8972135], [-96.5561862, 33.8972167], [-96.5561887, 33.8972193], [-96.5561921, 33.8972212], [-96.556196, 33.897222], [-96.5562003, 33.8972218], [-96.5562042, 33.8972204], [-96.5562073, 33.897218], [-96.5562093, 33.8972148], [-96.5562099, 33.8972113], [-96.556209, 33.8972078], [-96.5562068, 33.8972048], [-96.5562035, 33.8972025], [-96.5561995, 33.8972013], [-96.5561955, 33.8972013], [-96.5561916, 33.8972023], [-96.5561883, 33.8972042]]]}, "properties": {"osm_id": 1235323286, "building": "yes", "name": "", "height": null, "height_m": null, "levels": null, "tract_id": "40013796600", "tract_name": "7966", "tags": {"building": "yes", "man_made": "silo"}}}, {"type": "Feature", "geometry": {"type": "Polygon", "coordinates": [[[-96.556213, 33.897205], [-96.5562106, 33.8972077], [-96.5562099, 33.8972113], [-96.55621, 33.8972144], [-96.5562109, 33.8972174], [-96.5562134, 33.8972201], [-96.5562167, 33.8972219], [-96.5562207, 33.8972228], [-96.5562249, 33.8972225], [-96.5562288, 33.8972211], [-96.556232, 33.8972187], [-96.5562339, 33.8972156], [-96.5562345, 33.897212], [-96.5562337, 33.8972086], [-96.5562315, 33.8972055], [-96.5562282, 33.8972033], [-96.5562242, 33.8972021], [-96.5562201, 33.897202], [-96.5562162, 33.897203], [-96.556213, 33.897205]]]}, "properties": {"osm_id": 1235323287, "building": "yes", "name": "", "height": null, "height_m": null, "levels": null, "tract_id": "40013796600", "tract_name": "7966", "tags": {"building": "yes", "man_made": "silo"}}}, {"type": "Feature", "geometry": {"type": "Polygon", "coordinates": [[[-96.5556724, 33.8970961], [-96.5556701, 33.8970989], [-96.5556689, 33.8971021], [-96.555669, 33.8971054], [-96.5556703, 33.8971086], [-96.5556728, 33.8971112], [-96.5556762, 33.8971131], [-96.5556801, 33.897114], [-96.5556844, 33.8971137], [-96.5556883, 33.8971123], [-96.5556914, 33.8971099], [-96.5556934, 33.8971067], [-96.555694, 33.8971032], [-96.5556931, 33.8970997], [-96.5556909, 33.8970967], [-96.5556876, 33.8970944], [-96.5556834, 33.8970927], [-96.5556813, 33.8970928], [-96.5556781, 33.8970929], [-96.5556757, 33.8970942], [-96.5556724, 33.8970961]]]}, "properties": {"osm_id": 1235323288, "building": "yes", "name": "", "height": null, "height_m": null, "levels": null, "tract_id": "40013796600", "tract_name": "7966", "tags": {"building": "yes", "man_made": "silo"}}}, {"type": "Feature", "geometry": {"type": "Polygon", "coordinates": [[[-96.5556736, 33.897075], [-96.5556712, 33.8970777], [-96.55567, 33.8970809], [-96.5556701, 33.8970843], [-96.5556715, 33.8970875], [-96.555674, 33.8970901], [-96.5556774, 33.8970919], [-96.5556813, 33.8970928], [-96.5556834, 33.8970927], [-96.5556856, 33.8970926], [-96.5556895, 33.8970911], [-96.5556926, 33.8970887], [-96.5556946, 33.8970856], [-96.5556952, 33.8970821], [-96.5556943, 33.8970786], [-96.5556921, 33.8970756], [-96.5556888, 33.8970733], [-96.5556848, 33.8970721], [-96.5556829, 33.8970721], [-96.5556807, 33.897072], [-96.5556769, 33.897073], [-96.5556736, 33.897075]]]}, "properties": {"osm_id": 1235323289, "building": "yes", "name": "", "height": null, "height_m": null, "levels": null, "tract_id": "40013796600", "tract_name": "7966", "tags": {"building": "yes", "man_made": "silo"}}}, {"type": "Feature", "geometry": {"type": "Polygon", "coordinates": [[[-96.5556751, 33.8970543], [-96.5556727, 33.8970571], [-96.5556715, 33.8970603], [-96.5556716, 33.8970636], [-96.555673, 33.8970668], [-96.5556755, 33.8970694], [-96.5556788, 33.8970713], [-96.5556829, 33.8970721], [-96.555687, 33.8970719], [-96.5556909, 33.8970705], [-96.5556941, 33.8970681], [-96.555696, 33.8970649], [-96.5556966, 33.8970614], [-96.5556958, 33.8970579], [-96.5556936, 33.8970549], [-96.5556903, 33.8970526], [-96.5556863, 33.8970514], [-96.5556822, 33.8970514], [-96.5556783, 33.8970524], [-96.5556751, 33.8970543]]]}, "properties": {"osm_id": 1235323290, "building": "yes", "name": "", "height": null, "height_m": null, "levels": null, "tract_id": "40013796600", "tract_name": "7966", "tags": {"building": "yes", "man_made": "silo"}}}, {"type": "Feature", "geometry": {"type": "Polygon", "coordinates": [[[-96.5075652, 33.7974087], [-96.5074625, 33.7974281], [-96.5073924, 33.7972786], [-96.5075045, 33.7972418], [-96.5075652, 33.7974087]]]}, "properties": {"osm_id": 1285256039, "building": "yes", "name": "", "height": null, "height_m": null, "levels": null, "tract_id": "40013796600", "tract_name": "7966", "tags": {"building": "yes"}}}, {"type": "Feature", "geometry": {"type": "Polygon", "coordinates": [[[-96.5084829, 33.7975076], [-96.5083941, 33.7975542], [-96.508233, 33.7973466], [-96.5083381, 33.7973], [-96.5084829, 33.7975076]]]}, "properties": {"osm_id": 1285256040, "building": "yes", "name": "", "height": null, "height_m": null, "levels": null, "tract_id": "40013796600", "tract_name": "7966", "tags": {"building": "yes"}}}, {"type": "Feature", "geometry": {"type": "Polygon", "coordinates": [[[-96.5080345, 33.7977287], [-96.5079715, 33.7977599], [-96.5079272, 33.7976897], [-96.5078789, 33.7977075], [-96.5077931, 33.7976095], [-96.5079004, 33.7975482], [-96.5080345, 33.7977287]]]}, "properties": {"osm_id": 1285256041, "building": "yes", "name": "", "height": null, "height_m": null, "levels": null, "tract_id": "40013796600", "tract_name": "7966", "tags": {"building": "yes"}}}, {"type": "Feature", "geometry": {"type": "Polygon", "coordinates": [[[-96.5077314, 33.7975983], [-96.5076737, 33.7976284], [-96.5076335, 33.7975805], [-96.5076912, 33.7975504], [-96.5077314, 33.7975983]]]}, "properties": {"osm_id": 1285256042, "building": "yes", "name": "", "height": null, "height_m": null, "levels": null, "tract_id": "40013796600", "tract_name": "7966", "tags": {"building": "yes"}}}, {"type": "Feature", "geometry": {"type": "Polygon", "coordinates": [[[-96.5145801, 33.8074575], [-96.5145015, 33.8074619], [-96.5144992, 33.8073583], [-96.5145793, 33.8073576], [-96.5145801, 33.8074575]]]}, "properties": {"osm_id": 1285256043, "building": "yes", "name": "", "height": null, "height_m": null, "levels": null, "tract_id": "40013796600", "tract_name": "7966", "tags": {"building": "yes"}}}, {"type": "Feature", "geometry": {"type": "Polygon", "coordinates": [[[-96.5144222, 33.8075061], [-96.5142874, 33.807508], [-96.5142843, 33.8074223], [-96.5144198, 33.8074178], [-96.5144222, 33.8075061]]]}, "properties": {"osm_id": 1285256044, "building": "yes", "name": "", "height": null, "height_m": null, "levels": null, "tract_id": "40013796600", "tract_name": "7966", "tags": {"building": "yes"}}}, {"type": "Feature", "geometry": {"type": "Polygon", "coordinates": [[[-96.5145485, 33.8075586], [-96.5143898, 33.8075612], [-96.5143937, 33.8076296], [-96.5144183, 33.8076284], [-96.5144183, 33.8076437], [-96.5145315, 33.8076405], [-96.5145308, 33.8076232], [-96.5145485, 33.807622], [-96.5145485, 33.8075586]]]}, "properties": {"osm_id": 1285256045, "building": "yes", "name": "", "height": null, "height_m": null, "levels": null, "tract_id": "40013796600", "tract_name": "7966", "tags": {"building": "yes"}}}, {"type": "Feature", "geometry": {"type": "Polygon", "coordinates": [[[-96.5141123, 33.8086889], [-96.514119, 33.8086143], [-96.5139098, 33.8086176], [-96.5139084, 33.8086878], [-96.5141123, 33.8086889]]]}, "properties": {"osm_id": 1285256046, "building": "yes", "name": "", "height": null, "height_m": null, "levels": null, "tract_id": "40013796600", "tract_name": "7966", "tags": {"building": "yes"}}}, {"type": "Feature", "geometry": {"type": "Polygon", "coordinates": [[[-96.5144275, 33.8087926], [-96.5143242, 33.8087859], [-96.514347, 33.8085195], [-96.5144529, 33.8085307], [-96.5144275, 33.8087926]]]}, "properties": {"osm_id": 1285256047, "building": "yes", "name": "", "height": null, "height_m": null, "levels": null, "tract_id": "40013796600", "tract_name": "7966", "tags": {"building": "yes"}}}, {"type": "Feature", "geometry": {"type": "Polygon", "coordinates": [[[-96.5342723, 33.8247771], [-96.5342448, 33.8247802], [-96.53423, 33.8246898], [-96.5342574, 33.8246867], [-96.5342723, 33.8247771]]]}, "properties": {"osm_id": 1285339409, "building": "yes", "name": "", "height": null, "height_m": null, "levels": null, "tract_id": "40013796600", "tract_name": "7966", "tags": {"building": "yes"}}}, {"type": "Feature", "geometry": {"type": "Polygon", "coordinates": [[[-96.5328858, 33.8260474], [-96.532765, 33.8262004], [-96.5326759, 33.8261518], [-96.5327968, 33.8259989], [-96.5328858, 33.8260474]]]}, "properties": {"osm_id": 1285339410, "building": "yes", "name": "", "height": null, "height_m": null, "levels": null, "tract_id": "40013796600", "tract_name": "7966", "tags": {"building": "yes"}}}, {"type": "Feature", "geometry": {"type": "Polygon", "coordinates": [[[-96.532814, 33.8259795], [-96.5327655, 33.8259567], [-96.5328164, 33.8258769], [-96.5328691, 33.8258988], [-96.532814, 33.8259795]]]}, "properties": {"osm_id": 1285339411, "building": "yes", "name": "", "height": null, "height_m": null, "levels": null, "tract_id": "40013796600", "tract_name": "7966", "tags": {"building": "yes"}}}, {"type": "Feature", "geometry": {"type": "Polygon", "coordinates": [[[-96.5327509, 33.8259521], [-96.5326899, 33.8259147], [-96.5327557, 33.8258404], [-96.5328164, 33.8258769], [-96.5327509, 33.8259521]]]}, "properties": {"osm_id": 1285339412, "building": "yes", "name": "", "height": null, "height_m": null, "levels": null, "tract_id": "40013796600", "tract_name": "7966", "tags": {"building": "yes"}}}, {"type": "Feature", "geometry": {"type": "Polygon", "coordinates": [[[-96.5326899, 33.8259147], [-96.5326427, 33.8258905], [-96.5326979, 33.8258225], [-96.5327401, 33.825847], [-96.5326899, 33.8259147]]]}, "properties": {"osm_id": 1285339413, "building": "yes", "name": "", "height": null, "height_m": null, "levels": null, "tract_id": "40013796600", "tract_name": "7966", "tags": {"building": "yes"}}}, {"type": "Feature", "geometry": {"type": "Polygon", "coordinates": [[[-96.5326268, 33.8258897], [-96.5325747, 33.8258516], [-96.5326458, 33.8257844], [-96.5326979, 33.8258225], [-96.5326268, 33.8258897]]]}, "properties": {"osm_id": 1285339414, "building": "yes", "name": "", "height": null, "height_m": null, "levels": null, "tract_id": "40013796600", "tract_name": "7966", "tags": {"building": "yes"}}}, {"type": "Feature", "geometry": {"type": "Polygon", "coordinates": [[[-96.5325603, 33.8258464], [-96.5325261, 33.8258249], [-96.532585, 33.8257601], [-96.5326193, 33.8257816], [-96.5325603, 33.8258464]]]}, "properties": {"osm_id": 1285339415, "building": "yes", "name": "", "height": null, "height_m": null, "levels": null, "tract_id": "40013796600", "tract_name": "7966", "tags": {"building": "yes"}}}, {"type": "Feature", "geometry": {"type": "Polygon", "coordinates": [[[-96.5325046, 33.8258228], [-96.5324518, 33.8257897], [-96.5325146, 33.8257205], [-96.5325674, 33.8257536], [-96.5325046, 33.8258228]]]}, "properties": {"osm_id": 1285339416, "building": "yes", "name": "", "height": null, "height_m": null, "levels": null, "tract_id": "40013796600", "tract_name": "7966", "tags": {"building": "yes"}}}, {"type": "Feature", "geometry": {"type": "Polygon", "coordinates": [[[-96.5308719, 33.8282279], [-96.5307944, 33.8282249], [-96.5307867, 33.8281948], [-96.5308736, 33.8281982], [-96.5308719, 33.8282279]]]}, "properties": {"osm_id": 1285339417, "building": "yes", "name": "", "height": null, "height_m": null, "levels": null, "tract_id": "40013796600", "tract_name": "7966", "tags": {"building": "yes"}}}, {"type": "Feature", "geometry": {"type": "Polygon", "coordinates": [[[-96.530897, 33.8289726], [-96.5306716, 33.8289745], [-96.53067, 33.8288388], [-96.5308954, 33.8288369], [-96.5308962, 33.8288974], [-96.530897, 33.8289726]]]}, "properties": {"osm_id": 1285339418, "building": "yes", "name": "", "height": null, "height_m": null, "levels": null, "tract_id": "40013796600", "tract_name": "7966", "tags": {"building": "yes"}}}, {"type": "Feature", "geometry": {"type": "Polygon", "coordinates": [[[-96.5313248, 33.8289518], [-96.5312864, 33.8289525], [-96.5312855, 33.8289152], [-96.5313239, 33.8289145], [-96.5313248, 33.8289518]]]}, "properties": {"osm_id": 1285339419, "building": "yes", "name": "", "height": null, "height_m": null, "levels": null, "tract_id": "40013796600", "tract_name": "7966", "tags": {"building": "yes"}}}, {"type": "Feature", "geometry": {"type": "Polygon", "coordinates": [[[-96.5291007, 33.831924], [-96.5289509, 33.8319344], [-96.528945, 33.8318762], [-96.529087, 33.8318664], [-96.5291088, 33.8318928], [-96.5291007, 33.831924]]]}, "properties": {"osm_id": 1285339420, "building": "yes", "name": "", "height": null, "height_m": null, "levels": null, "tract_id": "40013796600", "tract_name": "7966", "tags": {"building": "yes", "layer": "1"}}}, {"type": "Feature", "geometry": {"type": "Polygon", "coordinates": [[[-96.5023075, 33.874361], [-96.502408, 33.8744008], [-96.502424, 33.8743729], [-96.5024666, 33.8743898], [-96.5025027, 33.8744041], [-96.5025454, 33.8743297], [-96.5025076, 33.8743147], [-96.5024777, 33.8743029], [-96.5024986, 33.8742666], [-96.5023501, 33.8742077], [-96.502324, 33.8742531], [-96.5023611, 33.8742678], [-96.5023075, 33.874361]]]}, "properties": {"osm_id": 1328411531, "building": "detached", "name": "", "height": null, "height_m": null, "levels": null, "tract_id": "40013796600", "tract_name": "7966", "tags": {"building": "detached", "source": "microsoft/BuildingFootprints"}}}, {"type": "Feature", "geometry": {"type": "Polygon", "coordinates": [[[-96.4999618, 33.8728688], [-96.5001, 33.8728664], [-96.5000988, 33.8728174], [-96.5001375, 33.8728168], [-96.5001366, 33.8727812], [-96.4999597, 33.8727842], [-96.4999618, 33.8728688]]]}, "properties": {"osm_id": 1328411532, "building": "yes", "name": "", "height": null, "height_m": null, "levels": null, "tract_id": "40013796600", "tract_name": "7966", "tags": {"building": "yes", "source": "microsoft/BuildingFootprints"}}}, {"type": "Feature", "geometry": {"type": "Polygon", "coordinates": [[[-96.5029415, 33.8740986], [-96.502936, 33.8742128], [-96.5029775, 33.8742142], [-96.5029749, 33.874269], [-96.5031127, 33.8742736], [-96.5031152, 33.8742224], [-96.50315, 33.8742236], [-96.5031467, 33.8742925], [-96.503199, 33.8742943], [-96.5032055, 33.8741595], [-96.5031546, 33.8741578], [-96.5031582, 33.8740844], [-96.5031287, 33.8740834], [-96.5031277, 33.8741048], [-96.5029415, 33.8740986]]]}, "properties": {"osm_id": 1328411533, "building": "yes", "name": "Plantation Truck Sales", "height": null, "height_m": null, "levels": null, "tract_id": "40013796600", "tract_name": "7966", "tags": {"building": "yes", "name": "Plantation Truck Sales", "shop": "car", "source": "microsoft/BuildingFootprints"}}}, {"type": "Feature", "geometry": {"type": "Polygon", "coordinates": [[[-96.5002524, 33.8725752], [-96.5001022, 33.8725729], [-96.5000986, 33.8727421], [-96.5002488, 33.8727444], [-96.5002524, 33.8725752]]]}, "properties": {"osm_id": 1328411534, "building": "yes", "name": "", "height": null, "height_m": null, "levels": null, "tract_id": "40013796600", "tract_name": "7966", "tags": {"building": "yes", "source": "microsoft/BuildingFootprints"}}}, {"type": "Feature", "geometry": {"type": "Polygon", "coordinates": [[[-96.4991071, 33.8750843], [-96.4992125, 33.875118], [-96.4992447, 33.8750484], [-96.4993214, 33.8750729], [-96.4993771, 33.8749525], [-96.4992154, 33.8749009], [-96.4991641, 33.8750118], [-96.4991437, 33.8750053], [-96.499126, 33.8750436], [-96.4991071, 33.8750843]]]}, "properties": {"osm_id": 1328411535, "building": "detached", "name": "", "height": null, "height_m": null, "levels": null, "tract_id": "40013796600", "tract_name": "7966", "tags": {"building": "detached", "source": "microsoft/BuildingFootprints"}}}, {"type": "Feature", "geometry": {"type": "Polygon", "coordinates": [[[-96.4998093, 33.8730838], [-96.4997181, 33.8730823], [-96.4997127, 33.8733138], [-96.4998038, 33.8733153], [-96.4998093, 33.8730838]]]}, "properties": {"osm_id": 1328411536, "building": "yes", "name": "", "height": null, "height_m": null, "levels": null, "tract_id": "40013796600", "tract_name": "7966", "tags": {"building": "yes", "source": "microsoft/BuildingFootprints"}}}, {"type": "Feature", "geometry": {"type": "Polygon", "coordinates": [[[-96.5017081, 33.87308], [-96.501711, 33.8731633], [-96.5019334, 33.8731581], [-96.5019306, 33.8730748], [-96.5017081, 33.87308]]]}, "properties": {"osm_id": 1328411537, "building": "yes", "name": "", "height": null, "height_m": null, "levels": null, "tract_id": "40013796600", "tract_name": "7966", "tags": {"building": "yes", "source": "microsoft/BuildingFootprints"}}}, {"type": "Feature", "geometry": {"type": "Polygon", "coordinates": [[[-96.4984257, 33.8751192], [-96.4984232, 33.8751938], [-96.4984942, 33.8751954], [-96.4984929, 33.8752344], [-96.4987918, 33.8752413], [-96.4987956, 33.8751278], [-96.4984257, 33.8751192]]]}, "properties": {"osm_id": 1328411538, "building": "yes", "name": "", "height": null, "height_m": null, "levels": null, "tract_id": "40013796600", "tract_name": "7966", "tags": {"building": "yes", "source": "microsoft/BuildingFootprints"}}}, {"type": "Feature", "geometry": {"type": "Polygon", "coordinates": [[[-96.5026381, 33.8738112], [-96.5026323, 33.8739535], [-96.5028332, 33.8739592], [-96.502839, 33.8738168], [-96.5026381, 33.8738112]]]}, "properties": {"osm_id": 1328411539, "building": "yes", "name": "", "height": null, "height_m": null, "levels": null, "tract_id": "40013796600", "tract_name": "7966", "tags": {"building": "yes", "source": "microsoft/BuildingFootprints"}}}, {"type": "Feature", "geometry": {"type": "Polygon", "coordinates": [[[-96.5022658, 33.8731609], [-96.5024009, 33.8731571], [-96.5023975, 33.8730725], [-96.5022623, 33.8730763], [-96.5022658, 33.8731609]]]}, "properties": {"osm_id": 1328411540, "building": "yes", "name": "", "height": null, "height_m": null, "levels": null, "tract_id": "40013796600", "tract_name": "7966", "tags": {"building": "yes", "source": "microsoft/BuildingFootprints"}}}, {"type": "Feature", "geometry": {"type": "Polygon", "coordinates": [[[-96.5043526, 33.872518], [-96.5044238, 33.8725344], [-96.5044088, 33.8725792], [-96.5045444, 33.8726104], [-96.5045842, 33.8724913], [-96.5043775, 33.8724436], [-96.5043526, 33.872518]]]}, "properties": {"osm_id": 1328411541, "building": "yes", "name": "", "height": null, "height_m": null, "levels": null, "tract_id": "40013796600", "tract_name": "7966", "tags": {"building": "yes", "source": "microsoft/BuildingFootprints"}}}, {"type": "Feature", "geometry": {"type": "Polygon", "coordinates": [[[-96.4999384, 33.8734], [-96.4999343, 33.8735335], [-96.5001514, 33.8735381], [-96.5001555, 33.8734046], [-96.4999384, 33.8734]]]}, "properties": {"osm_id": 1328411542, "building": "yes", "name": "", "height": null, "height_m": null, "levels": null, "tract_id": "40013796600", "tract_name": "7966", "tags": {"building": "yes", "source": "microsoft/BuildingFootprints"}}}, {"type": "Feature", "geometry": {"type": "Polygon", "coordinates": [[[-96.6296311, 33.8468666], [-96.62961, 33.846771], [-96.6295889, 33.8466755], [-96.6293294, 33.8467151], [-96.6293717, 33.8469061], [-96.6296311, 33.8468666]]]}, "properties": {"osm_id": 1332084722, "building": "service", "name": "Lake Texoma Raw Water Pump", "height": null, "height_m": null, "levels": null, "tract_id": "40013796600", "tract_name": "7966", "tags": {"building": "service", "man_made": "pumping_station", "name": "Lake Texoma Raw Water Pump", "operator": "North Texas Municipal Water District", "operator:wikidata": "Q131099923"}}}, {"type": "Feature", "geometry": {"type": "Polygon", "coordinates": [[[-96.5021521, 33.8470201], [-96.502023, 33.8469904], [-96.5020405, 33.8469379], [-96.5021696, 33.8469676], [-96.5021521, 33.8470201]]]}, "properties": {"osm_id": 1339282104, "building": "yes", "name": "", "height": null, "height_m": null, "levels": null, "tract_id": "40013796600", "tract_name": "7966", "tags": {"building": "yes"}}}, {"type": "Feature", "geometry": {"type": "Polygon", "coordinates": [[[-96.505189, 33.8522204], [-96.5051896, 33.8521739], [-96.5054447, 33.8521762], [-96.5054442, 33.8522226], [-96.505189, 33.8522204]]]}, "properties": {"osm_id": 1339282105, "building": "yes", "name": "", "height": null, "height_m": null, "levels": null, "tract_id": "40013796600", "tract_name": "7966", "tags": {"building": "yes"}}}, {"type": "Feature", "geometry": {"type": "Polygon", "coordinates": [[[-96.5052852, 33.8519314], [-96.5052276, 33.8519309], [-96.5052303, 33.8517204], [-96.5052879, 33.8517209], [-96.5052852, 33.8519314]]]}, "properties": {"osm_id": 1339282106, "building": "yes", "name": "", "height": null, "height_m": null, "levels": null, "tract_id": "40013796600", "tract_name": "7966", "tags": {"building": "yes"}}}, {"type": "Feature", "geometry": {"type": "Polygon", "coordinates": [[[-96.5045252, 33.8531776], [-96.5044548, 33.8531773], [-96.5044562, 33.8529593], [-96.5045265, 33.8529596], [-96.5045252, 33.8531776]]]}, "properties": {"osm_id": 1339282107, "building": "yes", "name": "", "height": null, "height_m": null, "levels": null, "tract_id": "40013796600", "tract_name": "7966", "tags": {"building": "yes"}}}, {"type": "Feature", "geometry": {"type": "Polygon", "coordinates": [[[-96.5042801, 33.853754], [-96.5041718, 33.8537539], [-96.5041721, 33.8534527], [-96.5042804, 33.8534527], [-96.5042801, 33.853754]]]}, "properties": {"osm_id": 1339282108, "building": "yes", "name": "", "height": null, "height_m": null, "levels": null, "tract_id": "40013796600", "tract_name": "7966", "tags": {"building": "yes"}}}, {"type": "Feature", "geometry": {"type": "Polygon", "coordinates": [[[-96.5042543, 33.8528171], [-96.5040575, 33.8528143], [-96.5040589, 33.8527441], [-96.5042557, 33.8527469], [-96.5042543, 33.8528171]]]}, "properties": {"osm_id": 1339282109, "building": "yes", "name": "", "height": null, "height_m": null, "levels": null, "tract_id": "40013796600", "tract_name": "7966", "tags": {"building": "yes"}}}, {"type": "Feature", "geometry": {"type": "Polygon", "coordinates": [[[-96.5042561, 33.8526801], [-96.504059, 33.8526802], [-96.5040589, 33.8526432], [-96.5042561, 33.8526431], [-96.5042561, 33.8526801]]]}, "properties": {"osm_id": 1339282110, "building": "yes", "name": "", "height": null, "height_m": null, "levels": null, "tract_id": "40013796600", "tract_name": "7966", "tags": {"building": "yes"}}}, {"type": "Feature", "geometry": {"type": "Polygon", "coordinates": [[[-96.5042581, 33.8525761], [-96.504061, 33.8525764], [-96.5040608, 33.8525066], [-96.504258, 33.8525064], [-96.5042581, 33.8525761]]]}, "properties": {"osm_id": 1339282111, "building": "yes", "name": "", "height": null, "height_m": null, "levels": null, "tract_id": "40013796600", "tract_name": "7966", "tags": {"building": "yes"}}}, {"type": "Feature", "geometry": {"type": "Polygon", "coordinates": [[[-96.5043783, 33.8528858], [-96.5043337, 33.8528859], [-96.5043331, 33.8524059], [-96.5043776, 33.8524058], [-96.5043783, 33.8528858]]]}, "properties": {"osm_id": 1339282112, "building": "yes", "name": "", "height": null, "height_m": null, "levels": null, "tract_id": "40013796600", "tract_name": "7966", "tags": {"building": "yes"}}}, {"type": "Feature", "geometry": {"type": "Polygon", "coordinates": [[[-96.5043056, 33.8524392], [-96.5040585, 33.8524378], [-96.5040588, 33.8524019], [-96.5043059, 33.8524033], [-96.5043056, 33.8524392]]]}, "properties": {"osm_id": 1339282113, "building": "yes", "name": "", "height": null, "height_m": null, "levels": null, "tract_id": "40013796600", "tract_name": "7966", "tags": {"building": "yes"}}}, {"type": "Feature", "geometry": {"type": "Polygon", "coordinates": [[[-96.5058478, 33.8514561], [-96.5058, 33.8514547], [-96.5058074, 33.8512801], [-96.5058552, 33.8512815], [-96.5058478, 33.8514561]]]}, "properties": {"osm_id": 1339282114, "building": "yes", "name": "", "height": null, "height_m": null, "levels": null, "tract_id": "40013796600", "tract_name": "7966", "tags": {"building": "yes"}}}, {"type": "Feature", "geometry": {"type": "Polygon", "coordinates": [[[-96.5068322, 33.8519124], [-96.5067715, 33.8519128], [-96.5067698, 33.8517006], [-96.5068305, 33.8517003], [-96.5068322, 33.8519124]]]}, "properties": {"osm_id": 1339282115, "building": "yes", "name": "", "height": null, "height_m": null, "levels": null, "tract_id": "40013796600", "tract_name": "7966", "tags": {"building": "yes"}}}, {"type": "Feature", "geometry": {"type": "Polygon", "coordinates": [[[-96.5070771, 33.8523564], [-96.5069745, 33.8523538], [-96.5069806, 33.852192], [-96.5070832, 33.8521946], [-96.5070771, 33.8523564]]]}, "properties": {"osm_id": 1339282116, "building": "yes", "name": "", "height": null, "height_m": null, "levels": null, "tract_id": "40013796600", "tract_name": "7966", "tags": {"building": "yes"}}}, {"type": "Feature", "geometry": {"type": "Polygon", "coordinates": [[[-96.50853, 33.8512211], [-96.5084023, 33.8512227], [-96.5084007, 33.8511403], [-96.5085285, 33.8511386], [-96.50853, 33.8512211]]]}, "properties": {"osm_id": 1339282117, "building": "yes", "name": "", "height": null, "height_m": null, "levels": null, "tract_id": "40013796600", "tract_name": "7966", "tags": {"building": "yes"}}}, {"type": "Feature", "geometry": {"type": "Polygon", "coordinates": [[[-96.5224135, 33.8382059], [-96.5221912, 33.8382271], [-96.522185, 33.8381824], [-96.5224073, 33.8381613], [-96.5224135, 33.8382059]]]}, "properties": {"osm_id": 1339282118, "building": "yes", "name": "", "height": null, "height_m": null, "levels": null, "tract_id": "40013796600", "tract_name": "7966", "tags": {"building": "yes"}}}, {"type": "Feature", "geometry": {"type": "Polygon", "coordinates": [[[-96.5254028, 33.8307272], [-96.5253024, 33.8306384], [-96.525408, 33.830556], [-96.5255084, 33.8306447], [-96.5254028, 33.8307272]]]}, "properties": {"osm_id": 1339282119, "building": "yes", "name": "", "height": null, "height_m": null, "levels": null, "tract_id": "40013796600", "tract_name": "7966", "tags": {"building": "yes"}}}, {"type": "Feature", "geometry": {"type": "Polygon", "coordinates": [[[-96.5219619, 33.8341929], [-96.5218771, 33.834202], [-96.5218596, 33.83409], [-96.5219444, 33.8340809], [-96.5219619, 33.8341929]]]}, "properties": {"osm_id": 1339282120, "building": "yes", "name": "", "height": null, "height_m": null, "levels": null, "tract_id": "40013796600", "tract_name": "7966", "tags": {"building": "yes"}}}, {"type": "Feature", "geometry": {"type": "Polygon", "coordinates": [[[-96.5215314, 33.8345864], [-96.5214, 33.8344875], [-96.5214729, 33.8344206], [-96.5216043, 33.8345195], [-96.5215314, 33.8345864]]]}, "properties": {"osm_id": 1339282121, "building": "yes", "name": "", "height": null, "height_m": null, "levels": null, "tract_id": "40013796600", "tract_name": "7966", "tags": {"building": "yes"}}}, {"type": "Feature", "geometry": {"type": "Polygon", "coordinates": [[[-96.5046938, 33.84182], [-96.5045583, 33.8418097], [-96.5045811, 33.8416042], [-96.5047166, 33.8416145], [-96.5046938, 33.84182]]]}, "properties": {"osm_id": 1339282122, "building": "yes", "name": "", "height": null, "height_m": null, "levels": null, "tract_id": "40013796600", "tract_name": "7966", "tags": {"building": "yes"}}}, {"type": "Feature", "geometry": {"type": "Polygon", "coordinates": [[[-96.5006447, 33.8436323], [-96.5005168, 33.8436336], [-96.5005148, 33.8434952], [-96.5006427, 33.8434939], [-96.5006447, 33.8436323]]]}, "properties": {"osm_id": 1339282123, "building": "yes", "name": "", "height": null, "height_m": null, "levels": null, "tract_id": "40013796600", "tract_name": "7966", "tags": {"building": "yes"}}}, {"type": "Feature", "geometry": {"type": "Polygon", "coordinates": [[[-96.5005773, 33.8439918], [-96.5003983, 33.8439927], [-96.5003973, 33.8438507], [-96.5005763, 33.8438499], [-96.5005773, 33.8439918]]]}, "properties": {"osm_id": 1339282124, "building": "yes", "name": "", "height": null, "height_m": null, "levels": null, "tract_id": "40013796600", "tract_name": "7966", "tags": {"building": "yes"}}}, {"type": "Feature", "geometry": {"type": "Polygon", "coordinates": [[[-96.4993639, 33.8469767], [-96.4990809, 33.8469774], [-96.4990799, 33.8467014], [-96.4993629, 33.8467007], [-96.4993639, 33.8469767]]]}, "properties": {"osm_id": 1339282125, "building": "yes", "name": "", "height": null, "height_m": null, "levels": null, "tract_id": "40013796600", "tract_name": "7966", "tags": {"building": "yes"}}}, {"type": "Feature", "geometry": {"type": "Polygon", "coordinates": [[[-96.5010534, 33.8466985], [-96.5009736, 33.8466947], [-96.5009758, 33.846662], [-96.5010556, 33.8466657], [-96.5010534, 33.8466985]]]}, "properties": {"osm_id": 1339282126, "building": "yes", "name": "", "height": null, "height_m": null, "levels": null, "tract_id": "40013796600", "tract_name": "7966", "tags": {"building": "yes"}}}, {"type": "Feature", "geometry": {"type": "Polygon", "coordinates": [[[-96.5012078, 33.846734], [-96.5010743, 33.8467177], [-96.5010896, 33.8466316], [-96.501223, 33.8466479], [-96.5012078, 33.846734]]]}, "properties": {"osm_id": 1339282127, "building": "yes", "name": "", "height": null, "height_m": null, "levels": null, "tract_id": "40013796600", "tract_name": "7966", "tags": {"building": "yes"}}}, {"type": "Feature", "geometry": {"type": "Polygon", "coordinates": [[[-96.5141392, 33.8470783], [-96.5139887, 33.8470808], [-96.5139847, 33.8469154], [-96.5141352, 33.8469129], [-96.5141392, 33.8470783]]]}, "properties": {"osm_id": 1339282128, "building": "yes", "name": "", "height": null, "height_m": null, "levels": null, "tract_id": "40013796600", "tract_name": "7966", "tags": {"building": "yes"}}}, {"type": "Feature", "geometry": {"type": "Polygon", "coordinates": [[[-96.5153412, 33.8465977], [-96.5152337, 33.8465913], [-96.5152481, 33.8464247], [-96.5153556, 33.8464312], [-96.5153412, 33.8465977]]]}, "properties": {"osm_id": 1339282129, "building": "yes", "name": "", "height": null, "height_m": null, "levels": null, "tract_id": "40013796600", "tract_name": "7966", "tags": {"building": "yes"}}}, {"type": "Feature", "geometry": {"type": "Polygon", "coordinates": [[[-96.5212038, 33.8383215], [-96.5211484, 33.8383042], [-96.5212168, 33.838153], [-96.5212722, 33.8381703], [-96.5212038, 33.8383215]]]}, "properties": {"osm_id": 1339282130, "building": "yes", "name": "", "height": null, "height_m": null, "levels": null, "tract_id": "40013796600", "tract_name": "7966", "tags": {"building": "yes"}}}, {"type": "Feature", "geometry": {"type": "Polygon", "coordinates": [[[-96.5219109, 33.8382266], [-96.5217765, 33.8382229], [-96.5217812, 33.8381004], [-96.5219157, 33.8381041], [-96.5219109, 33.8382266]]]}, "properties": {"osm_id": 1339282131, "building": "yes", "name": "", "height": null, "height_m": null, "levels": null, "tract_id": "40013796600", "tract_name": "7966", "tags": {"building": "yes"}}}, {"type": "Feature", "geometry": {"type": "Polygon", "coordinates": [[[-96.5157048, 33.8403738], [-96.5155758, 33.840371], [-96.515579, 33.8402673], [-96.515708, 33.84027], [-96.5157048, 33.8403738]]]}, "properties": {"osm_id": 1339282132, "building": "yes", "name": "", "height": null, "height_m": null, "levels": null, "tract_id": "40013796600", "tract_name": "7966", "tags": {"building": "yes"}}}, {"type": "Feature", "geometry": {"type": "Polygon", "coordinates": [[[-96.5131579, 33.8414995], [-96.5130784, 33.8414511], [-96.5131193, 33.8414047], [-96.5131988, 33.8414532], [-96.5131579, 33.8414995]]]}, "properties": {"osm_id": 1339282133, "building": "yes", "name": "", "height": null, "height_m": null, "levels": null, "tract_id": "40013796600", "tract_name": "7966", "tags": {"building": "yes"}}}, {"type": "Feature", "geometry": {"type": "Polygon", "coordinates": [[[-96.5130281, 33.8416446], [-96.5129487, 33.8415964], [-96.513061, 33.8414688], [-96.5131404, 33.8415171], [-96.5130281, 33.8416446]]]}, "properties": {"osm_id": 1339282134, "building": "yes", "name": "", "height": null, "height_m": null, "levels": null, "tract_id": "40013796600", "tract_name": "7966", "tags": {"building": "yes"}}}, {"type": "Feature", "geometry": {"type": "Polygon", "coordinates": [[[-96.5036045, 33.8475979], [-96.5035289, 33.8475514], [-96.5036634, 33.8474005], [-96.5037389, 33.847447], [-96.5036045, 33.8475979]]]}, "properties": {"osm_id": 1339282135, "building": "yes", "name": "", "height": null, "height_m": null, "levels": null, "tract_id": "40013796600", "tract_name": "7966", "tags": {"building": "yes"}}}, {"type": "Feature", "geometry": {"type": "Polygon", "coordinates": [[[-96.503755, 33.8471554], [-96.5037116, 33.8471153], [-96.5037619, 33.8470777], [-96.5038053, 33.8471178], [-96.503755, 33.8471554]]]}, "properties": {"osm_id": 1339282136, "building": "yes", "name": "", "height": null, "height_m": null, "levels": null, "tract_id": "40013796600", "tract_name": "7966", "tags": {"building": "yes"}}}, {"type": "Feature", "geometry": {"type": "Polygon", "coordinates": [[[-96.5040172, 33.8469424], [-96.503958, 33.8469594], [-96.5039376, 33.8469104], [-96.5039968, 33.8468934], [-96.5040172, 33.8469424]]]}, "properties": {"osm_id": 1339282137, "building": "yes", "name": "", "height": null, "height_m": null, "levels": null, "tract_id": "40013796600", "tract_name": "7966", "tags": {"building": "yes"}}}, {"type": "Feature", "geometry": {"type": "Polygon", "coordinates": [[[-96.5039492, 33.8469694], [-96.5037866, 33.8470257], [-96.5037439, 33.8469407], [-96.5039065, 33.8468844], [-96.5039492, 33.8469694]]]}, "properties": {"osm_id": 1339282138, "building": "yes", "name": "", "height": null, "height_m": null, "levels": null, "tract_id": "40013796600", "tract_name": "7966", "tags": {"building": "yes"}}}, {"type": "Feature", "geometry": {"type": "Polygon", "coordinates": [[[-96.5046559, 33.8409952], [-96.5044243, 33.840979], [-96.5044417, 33.8408063], [-96.5046734, 33.8408224], [-96.5046559, 33.8409952]]]}, "properties": {"osm_id": 1339282139, "building": "yes", "name": "", "height": null, "height_m": null, "levels": null, "tract_id": "40013796600", "tract_name": "7966", "tags": {"building": "yes"}}}, {"type": "Feature", "geometry": {"type": "Polygon", "coordinates": [[[-96.5103092, 33.8426027], [-96.5102664, 33.8425739], [-96.5104115, 33.842425], [-96.5104544, 33.8424538], [-96.5103092, 33.8426027]]]}, "properties": {"osm_id": 1339282140, "building": "yes", "name": "", "height": null, "height_m": null, "levels": null, "tract_id": "40013796600", "tract_name": "7966", "tags": {"building": "yes"}}}, {"type": "Feature", "geometry": {"type": "Polygon", "coordinates": [[[-96.5123669, 33.8424511], [-96.5122617, 33.8423789], [-96.5123212, 33.842319], [-96.5124265, 33.8423911], [-96.5123669, 33.8424511]]]}, "properties": {"osm_id": 1339282141, "building": "yes", "name": "", "height": null, "height_m": null, "levels": null, "tract_id": "40013796600", "tract_name": "7966", "tags": {"building": "yes"}}}, {"type": "Feature", "geometry": {"type": "Polygon", "coordinates": [[[-96.5125108, 33.8424488], [-96.512436, 33.8424], [-96.5125547, 33.8422747], [-96.5126295, 33.8423235], [-96.5125108, 33.8424488]]]}, "properties": {"osm_id": 1339282142, "building": "yes", "name": "", "height": null, "height_m": null, "levels": null, "tract_id": "40013796600", "tract_name": "7966", "tags": {"building": "yes"}}}, {"type": "Feature", "geometry": {"type": "Polygon", "coordinates": [[[-96.517329, 33.8373889], [-96.5172322, 33.8373426], [-96.517317, 33.8372201], [-96.5174139, 33.8372663], [-96.517329, 33.8373889]]]}, "properties": {"osm_id": 1339282143, "building": "yes", "name": "", "height": null, "height_m": null, "levels": null, "tract_id": "40013796600", "tract_name": "7966", "tags": {"building": "yes"}}}, {"type": "Feature", "geometry": {"type": "Polygon", "coordinates": [[[-96.517962, 33.8360886], [-96.517881, 33.83608], [-96.5178963, 33.8359805], [-96.5179773, 33.835989], [-96.517962, 33.8360886]]]}, "properties": {"osm_id": 1339282144, "building": "yes", "name": "", "height": null, "height_m": null, "levels": null, "tract_id": "40013796600", "tract_name": "7966", "tags": {"building": "yes"}}}, {"type": "Feature", "geometry": {"type": "Polygon", "coordinates": [[[-96.5147474, 33.8415833], [-96.5146545, 33.8415753], [-96.5146814, 33.8413622], [-96.5147742, 33.8413703], [-96.5147474, 33.8415833]]]}, "properties": {"osm_id": 1339282145, "building": "yes", "name": "", "height": null, "height_m": null, "levels": null, "tract_id": "40013796600", "tract_name": "7966", "tags": {"building": "yes"}}}, {"type": "Feature", "geometry": {"type": "Polygon", "coordinates": [[[-96.5148282, 33.8443062], [-96.514672, 33.8442511], [-96.514724, 33.8441494], [-96.5148802, 33.8442046], [-96.5148282, 33.8443062]]]}, "properties": {"osm_id": 1339282146, "building": "yes", "name": "", "height": null, "height_m": null, "levels": null, "tract_id": "40013796600", "tract_name": "7966", "tags": {"building": "yes"}}}, {"type": "Feature", "geometry": {"type": "Polygon", "coordinates": [[[-96.5134006, 33.8339681], [-96.5130278, 33.8338565], [-96.5130958, 33.8336997], [-96.5134686, 33.8338114], [-96.5134006, 33.8339681]]]}, "properties": {"osm_id": 1339282147, "building": "yes", "name": "", "height": null, "height_m": null, "levels": null, "tract_id": "40013796600", "tract_name": "7966", "tags": {"building": "yes"}}}, {"type": "Feature", "geometry": {"type": "Polygon", "coordinates": [[[-96.5126422, 33.834712], [-96.5122586, 33.8346507], [-96.5122969, 33.8344856], [-96.5126804, 33.8345468], [-96.5126422, 33.834712]]]}, "properties": {"osm_id": 1339282148, "building": "yes", "name": "", "height": null, "height_m": null, "levels": null, "tract_id": "40013796600", "tract_name": "7966", "tags": {"building": "yes"}}}, {"type": "Feature", "geometry": {"type": "Polygon", "coordinates": [[[-96.5115771, 33.8434087], [-96.5114238, 33.8433061], [-96.5115, 33.8432275], [-96.5116534, 33.8433302], [-96.511637, 33.8433471], [-96.5116589, 33.8433618], [-96.5116178, 33.8434042], [-96.5115957, 33.8433895], [-96.5115771, 33.8434087]]]}, "properties": {"osm_id": 1339282149, "building": "yes", "name": "", "height": null, "height_m": null, "levels": null, "tract_id": "40013796600", "tract_name": "7966", "tags": {"building": "yes"}}}, {"type": "Feature", "geometry": {"type": "Polygon", "coordinates": [[[-96.5117149, 33.8432912], [-96.5116964, 33.8433107], [-96.5114976, 33.8431807], [-96.5115784, 33.8430954], [-96.5117772, 33.8432255], [-96.5117453, 33.8432591], [-96.5118007, 33.8432957], [-96.5117702, 33.8433277], [-96.5117149, 33.8432912]]]}, "properties": {"osm_id": 1339282150, "building": "yes", "name": "", "height": null, "height_m": null, "levels": null, "tract_id": "40013796600", "tract_name": "7966", "tags": {"building": "yes"}}}, {"type": "Feature", "geometry": {"type": "Polygon", "coordinates": [[[-96.5117837, 33.8429849], [-96.5117018, 33.8429288], [-96.5117678, 33.8428622], [-96.5118498, 33.8429183], [-96.5117837, 33.8429849]]]}, "properties": {"osm_id": 1339282151, "building": "yes", "name": "", "height": null, "height_m": null, "levels": null, "tract_id": "40013796600", "tract_name": "7966", "tags": {"building": "yes"}}}, {"type": "Feature", "geometry": {"type": "Polygon", "coordinates": [[[-96.5119049, 33.8429129], [-96.5118525, 33.8428761], [-96.5118921, 33.8428371], [-96.5119445, 33.8428739], [-96.5119049, 33.8429129]]]}, "properties": {"osm_id": 1339282152, "building": "yes", "name": "", "height": null, "height_m": null, "levels": null, "tract_id": "40013796600", "tract_name": "7966", "tags": {"building": "yes"}}}, {"type": "Feature", "geometry": {"type": "Polygon", "coordinates": [[[-96.5119391, 33.8428534], [-96.5118667, 33.8428032], [-96.5119854, 33.8426851], [-96.5120578, 33.8427354], [-96.5119391, 33.8428534]]]}, "properties": {"osm_id": 1339282153, "building": "yes", "name": "", "height": null, "height_m": null, "levels": null, "tract_id": "40013796600", "tract_name": "7966", "tags": {"building": "yes"}}}, {"type": "Feature", "geometry": {"type": "Polygon", "coordinates": [[[-96.5122179, 33.8410953], [-96.5121428, 33.8410981], [-96.5121383, 33.8410141], [-96.5122134, 33.8410114], [-96.5122179, 33.8410953]]]}, "properties": {"osm_id": 1339282154, "building": "yes", "name": "", "height": null, "height_m": null, "levels": null, "tract_id": "40013796600", "tract_name": "7966", "tags": {"building": "yes"}}}, {"type": "Feature", "geometry": {"type": "Polygon", "coordinates": [[[-96.512719, 33.8413142], [-96.5127255, 33.8412481], [-96.5128071, 33.8412536], [-96.5128006, 33.8413198], [-96.512719, 33.8413142]]]}, "properties": {"osm_id": 1339282155, "building": "yes", "name": "", "height": null, "height_m": null, "levels": null, "tract_id": "40013796600", "tract_name": "7966", "tags": {"building": "yes"}}}, {"type": "Feature", "geometry": {"type": "Polygon", "coordinates": [[[-96.5127126, 33.8412499], [-96.512514, 33.8412288], [-96.5125264, 33.8411476], [-96.5127251, 33.8411686], [-96.5127126, 33.8412499]]]}, "properties": {"osm_id": 1339282156, "building": "yes", "name": "", "height": null, "height_m": null, "levels": null, "tract_id": "40013796600", "tract_name": "7966", "tags": {"building": "yes"}}}, {"type": "Feature", "geometry": {"type": "Polygon", "coordinates": [[[-96.5134975, 33.8427156], [-96.5133856, 33.8426385], [-96.5134969, 33.8425271], [-96.5136088, 33.8426042], [-96.5134975, 33.8427156]]]}, "properties": {"osm_id": 1339282157, "building": "yes", "name": "", "height": null, "height_m": null, "levels": null, "tract_id": "40013796600", "tract_name": "7966", "tags": {"building": "yes"}}}, {"type": "Feature", "geometry": {"type": "Polygon", "coordinates": [[[-96.5097568, 33.8443583], [-96.5096499, 33.8442536], [-96.5097185, 33.8442052], [-96.5098255, 33.8443099], [-96.5097568, 33.8443583]]]}, "properties": {"osm_id": 1339282158, "building": "yes", "name": "", "height": null, "height_m": null, "levels": null, "tract_id": "40013796600", "tract_name": "7966", "tags": {"building": "yes"}}}, {"type": "Feature", "geometry": {"type": "Polygon", "coordinates": [[[-96.5106564, 33.8440066], [-96.5104911, 33.8438376], [-96.5105373, 33.8438064], [-96.5107026, 33.8439754], [-96.5106564, 33.8440066]]]}, "properties": {"osm_id": 1339282159, "building": "yes", "name": "", "height": null, "height_m": null, "levels": null, "tract_id": "40013796600", "tract_name": "7966", "tags": {"building": "yes"}}}, {"type": "Feature", "geometry": {"type": "Polygon", "coordinates": [[[-96.5108401, 33.8442928], [-96.5107469, 33.8441182], [-96.5108371, 33.844085], [-96.5109303, 33.8442596], [-96.5108401, 33.8442928]]]}, "properties": {"osm_id": 1339282160, "building": "yes", "name": "", "height": null, "height_m": null, "levels": null, "tract_id": "40013796600", "tract_name": "7966", "tags": {"building": "yes"}}}, {"type": "Feature", "geometry": {"type": "Polygon", "coordinates": [[[-96.5102292, 33.8425975], [-96.5099741, 33.8425566], [-96.5099865, 33.842503], [-96.5102417, 33.8425439], [-96.5102292, 33.8425975]]]}, "properties": {"osm_id": 1339282161, "building": "yes", "name": "", "height": null, "height_m": null, "levels": null, "tract_id": "40013796600", "tract_name": "7966", "tags": {"building": "yes"}}}, {"type": "Feature", "geometry": {"type": "Polygon", "coordinates": [[[-96.5106373, 33.8418777], [-96.5105439, 33.8418103], [-96.510633, 33.841725], [-96.5107264, 33.8417925], [-96.5106373, 33.8418777]]]}, "properties": {"osm_id": 1339282162, "building": "yes", "name": "", "height": null, "height_m": null, "levels": null, "tract_id": "40013796600", "tract_name": "7966", "tags": {"building": "yes"}}}, {"type": "Feature", "geometry": {"type": "Polygon", "coordinates": [[[-96.5108203, 33.8421297], [-96.5107767, 33.8421008], [-96.5109379, 33.8419326], [-96.5109816, 33.8419615], [-96.5108203, 33.8421297]]]}, "properties": {"osm_id": 1339282163, "building": "yes", "name": "", "height": null, "height_m": null, "levels": null, "tract_id": "40013796600", "tract_name": "7966", "tags": {"building": "yes"}}}, {"type": "Feature", "geometry": {"type": "Polygon", "coordinates": [[[-96.5113256, 33.8424449], [-96.511249, 33.8423965], [-96.5113566, 33.842279], [-96.5114332, 33.8423274], [-96.5113256, 33.8424449]]]}, "properties": {"osm_id": 1339282164, "building": "yes", "name": "", "height": null, "height_m": null, "levels": null, "tract_id": "40013796600", "tract_name": "7966", "tags": {"building": "yes"}}}, {"type": "Feature", "geometry": {"type": "Polygon", "coordinates": [[[-96.5117611, 33.8422865], [-96.5115522, 33.8421576], [-96.5115846, 33.8421213], [-96.5117935, 33.8422503], [-96.5117611, 33.8422865]]]}, "properties": {"osm_id": 1339282165, "building": "yes", "name": "", "height": null, "height_m": null, "levels": null, "tract_id": "40013796600", "tract_name": "7966", "tags": {"building": "yes"}}}, {"type": "Feature", "geometry": {"type": "Polygon", "coordinates": [[[-96.5255792, 33.8305843], [-96.5255097, 33.8305233], [-96.5256211, 33.8304359], [-96.5256905, 33.8304969], [-96.5255792, 33.8305843]]]}, "properties": {"osm_id": 1339282166, "building": "yes", "name": "", "height": null, "height_m": null, "levels": null, "tract_id": "40013796600", "tract_name": "7966", "tags": {"building": "yes"}}}, {"type": "Feature", "geometry": {"type": "Polygon", "coordinates": [[[-96.5208451, 33.835689], [-96.5206134, 33.8356522], [-96.5206394, 33.8355389], [-96.5208711, 33.8355757], [-96.5208451, 33.835689]]]}, "properties": {"osm_id": 1339282167, "building": "yes", "name": "", "height": null, "height_m": null, "levels": null, "tract_id": "40013796600", "tract_name": "7966", "tags": {"building": "yes"}}}, {"type": "Feature", "geometry": {"type": "Polygon", "coordinates": [[[-96.5176787, 33.8371594], [-96.5174343, 33.8370995], [-96.5174507, 33.8370534], [-96.5176951, 33.8371132], [-96.5176787, 33.8371594]]]}, "properties": {"osm_id": 1339282168, "building": "yes", "name": "", "height": null, "height_m": null, "levels": null, "tract_id": "40013796600", "tract_name": "7966", "tags": {"building": "yes"}}}, {"type": "Feature", "geometry": {"type": "Polygon", "coordinates": [[[-96.5139572, 33.8422611], [-96.5140872, 33.8420662], [-96.5141911, 33.842114], [-96.514061, 33.842309], [-96.5139572, 33.8422611]]]}, "properties": {"osm_id": 1339282169, "building": "yes", "name": "", "height": null, "height_m": null, "levels": null, "tract_id": "40013796600", "tract_name": "7966", "tags": {"building": "yes"}}}, {"type": "Feature", "geometry": {"type": "Polygon", "coordinates": [[[-96.5220789, 33.8341099], [-96.5219946, 33.8340121], [-96.5220878, 33.8339567], [-96.5221721, 33.8340545], [-96.5220789, 33.8341099]]]}, "properties": {"osm_id": 1339282170, "building": "yes", "name": "", "height": null, "height_m": null, "levels": null, "tract_id": "40013796600", "tract_name": "7966", "tags": {"building": "yes"}}}, {"type": "Feature", "geometry": {"type": "Polygon", "coordinates": [[[-96.5201779, 33.8339846], [-96.5200759, 33.8339749], [-96.520098, 33.8338137], [-96.5202, 33.8338233], [-96.5201779, 33.8339846]]]}, "properties": {"osm_id": 1339282171, "building": "yes", "name": "", "height": null, "height_m": null, "levels": null, "tract_id": "40013796600", "tract_name": "7966", "tags": {"building": "yes"}}}, {"type": "Feature", "geometry": {"type": "Polygon", "coordinates": [[[-96.5205091, 33.8345438], [-96.5203689, 33.8344936], [-96.5204477, 33.8343418], [-96.5205879, 33.834392], [-96.5205091, 33.8345438]]]}, "properties": {"osm_id": 1339282172, "building": "yes", "name": "", "height": null, "height_m": null, "levels": null, "tract_id": "40013796600", "tract_name": "7966", "tags": {"building": "yes"}}}, {"type": "Feature", "geometry": {"type": "Polygon", "coordinates": [[[-96.517671, 33.8367695], [-96.5175134, 33.8367478], [-96.5175298, 33.8366657], [-96.5176874, 33.8366874], [-96.517671, 33.8367695]]]}, "properties": {"osm_id": 1339282173, "building": "yes", "name": "", "height": null, "height_m": null, "levels": null, "tract_id": "40013796600", "tract_name": "7966", "tags": {"building": "yes"}}}, {"type": "Feature", "geometry": {"type": "Polygon", "coordinates": [[[-96.5179593, 33.836883], [-96.5177748, 33.8368492], [-96.5177928, 33.8367813], [-96.5179774, 33.8368152], [-96.5179593, 33.836883]]]}, "properties": {"osm_id": 1339282174, "building": "yes", "name": "", "height": null, "height_m": null, "levels": null, "tract_id": "40013796600", "tract_name": "7966", "tags": {"building": "yes"}}}, {"type": "Feature", "geometry": {"type": "Polygon", "coordinates": [[[-96.5154766, 33.8381179], [-96.5152654, 33.8380489], [-96.5153039, 33.8379677], [-96.5155151, 33.8380368], [-96.5154766, 33.8381179]]]}, "properties": {"osm_id": 1339282175, "building": "yes", "name": "", "height": null, "height_m": null, "levels": null, "tract_id": "40013796600", "tract_name": "7966", "tags": {"building": "yes"}}}, {"type": "Feature", "geometry": {"type": "Polygon", "coordinates": [[[-96.5157449, 33.8380837], [-96.5155936, 33.8380709], [-96.5156112, 33.8379278], [-96.5157624, 33.8379407], [-96.5157449, 33.8380837]]]}, "properties": {"osm_id": 1339282176, "building": "yes", "name": "", "height": null, "height_m": null, "levels": null, "tract_id": "40013796600", "tract_name": "7966", "tags": {"building": "yes"}}}, {"type": "Feature", "geometry": {"type": "Polygon", "coordinates": [[[-96.5156034, 33.8386663], [-96.5154937, 33.8386217], [-96.5155349, 33.8385519], [-96.5156445, 33.8385965], [-96.5156034, 33.8386663]]]}, "properties": {"osm_id": 1339282177, "building": "yes", "name": "", "height": null, "height_m": null, "levels": null, "tract_id": "40013796600", "tract_name": "7966", "tags": {"building": "yes"}}}, {"type": "Feature", "geometry": {"type": "Polygon", "coordinates": [[[-96.515664, 33.8389896], [-96.5156114, 33.8387718], [-96.5157884, 33.8387423], [-96.515841, 33.8389601], [-96.515664, 33.8389896]]]}, "properties": {"osm_id": 1339282178, "building": "yes", "name": "", "height": null, "height_m": null, "levels": null, "tract_id": "40013796600", "tract_name": "7966", "tags": {"building": "yes"}}}, {"type": "Feature", "geometry": {"type": "Polygon", "coordinates": [[[-96.4663808, 33.7837822], [-96.4663537, 33.7837819], [-96.466354, 33.7837565], [-96.4663811, 33.7837568], [-96.4663808, 33.7837822]]]}, "properties": {"osm_id": 1360537427, "building": "yes", "name": "", "height": null, "height_m": null, "levels": null, "tract_id": "40013796600", "tract_name": "7966", "tags": {"building": "yes"}}}, {"type": "Feature", "geometry": {"type": "Polygon", "coordinates": [[[-96.4663128, 33.7838179], [-96.4663131, 33.783791], [-96.4663889, 33.7837916], [-96.4663875, 33.7838959], [-96.4663118, 33.7838952], [-96.4663123, 33.7838515], [-96.4662879, 33.7838513], [-96.4662884, 33.7838177], [-96.4663128, 33.7838179]]]}, "properties": {"osm_id": 1360537428, "building": "yes", "name": "", "height": null, "height_m": null, "levels": null, "tract_id": "40013796600", "tract_name": "7966", "tags": {"building": "yes"}}}, {"type": "Feature", "geometry": {"type": "Polygon", "coordinates": [[[-96.4667597, 33.7837816], [-96.4666583, 33.7837844], [-96.4666536, 33.7836685], [-96.466755, 33.7836657], [-96.4667597, 33.7837816]]]}, "properties": {"osm_id": 1360537429, "building": "yes", "name": "", "height": null, "height_m": null, "levels": null, "tract_id": "40013796600", "tract_name": "7966", "tags": {"building": "yes"}}}, {"type": "Feature", "geometry": {"type": "Polygon", "coordinates": [[[-96.4670511, 33.7837189], [-96.4670507, 33.7837416], [-96.4669967, 33.7837411], [-96.4669969, 33.7837248], [-96.4669232, 33.7837241], [-96.4669229, 33.7837404], [-96.4668695, 33.7837398], [-96.4668715, 33.7836007], [-96.4669323, 33.7836013], [-96.4669319, 33.7836332], [-96.4669741, 33.7836336], [-96.4669749, 33.7835775], [-96.4670531, 33.7835782], [-96.467052, 33.7836522], [-96.4671123, 33.7836527], [-96.4671114, 33.7837195], [-96.4670511, 33.7837189]]]}, "properties": {"osm_id": 1360537430, "building": "yes", "name": "", "height": null, "height_m": null, "levels": null, "tract_id": "40013796600", "tract_name": "7966", "tags": {"building": "yes"}}}, {"type": "Feature", "geometry": {"type": "Polygon", "coordinates": [[[-96.4672428, 33.783569], [-96.4671408, 33.783568], [-96.4671412, 33.7835414], [-96.4672432, 33.7835424], [-96.4672428, 33.783569]]]}, "properties": {"osm_id": 1360537431, "building": "yes", "name": "", "height": null, "height_m": null, "levels": null, "tract_id": "40013796600", "tract_name": "7966", "tags": {"building": "yes"}}}, {"type": "Feature", "geometry": {"type": "Polygon", "coordinates": [[[-96.4678134, 33.7834032], [-96.467813, 33.7834365], [-96.4677725, 33.7834361], [-96.467773, 33.7834028], [-96.4678134, 33.7834032]]]}, "properties": {"osm_id": 1360537432, "building": "yes", "name": "", "height": null, "height_m": null, "levels": null, "tract_id": "40013796600", "tract_name": "7966", "tags": {"building": "yes"}}}, {"type": "Feature", "geometry": {"type": "Polygon", "coordinates": [[[-96.4678195, 33.7835046], [-96.4677846, 33.7835043], [-96.4677853, 33.7834545], [-96.4678202, 33.7834548], [-96.4678195, 33.7835046]]]}, "properties": {"osm_id": 1360537433, "building": "yes", "name": "", "height": null, "height_m": null, "levels": null, "tract_id": "40013796600", "tract_name": "7966", "tags": {"building": "yes"}}}, {"type": "Feature", "geometry": {"type": "Polygon", "coordinates": [[[-96.4679056, 33.7835197], [-96.4678356, 33.783519], [-96.4678366, 33.7834485], [-96.4679066, 33.7834492], [-96.4679056, 33.7835197]]]}, "properties": {"osm_id": 1360537434, "building": "yes", "name": "", "height": null, "height_m": null, "levels": null, "tract_id": "40013796600", "tract_name": "7966", "tags": {"building": "yes"}}}, {"type": "Feature", "geometry": {"type": "Polygon", "coordinates": [[[-96.4682295, 33.7832034], [-96.4681834, 33.7832027], [-96.4681843, 33.7831619], [-96.4682303, 33.7831625], [-96.4682295, 33.7832034]]]}, "properties": {"osm_id": 1360537436, "building": "yes", "name": "", "height": null, "height_m": null, "levels": null, "tract_id": "40013796600", "tract_name": "7966", "tags": {"building": "yes"}}}, {"type": "Feature", "geometry": {"type": "Polygon", "coordinates": [[[-96.4683214, 33.7833106], [-96.4683878, 33.7833115], [-96.4683844, 33.7834804], [-96.4683006, 33.7834792], [-96.4683021, 33.7834065], [-96.4682755, 33.7834062], [-96.4682751, 33.7834261], [-96.4682094, 33.7834252], [-96.4682117, 33.7833091], [-96.468254, 33.7833097], [-96.4682546, 33.7832785], [-96.4683221, 33.7832795], [-96.4683214, 33.7833106]]]}, "properties": {"osm_id": 1360537437, "building": "detached", "name": "", "height": null, "height_m": null, "levels": null, "tract_id": "40013796600", "tract_name": "7966", "tags": {"building": "detached"}}}, {"type": "Feature", "geometry": {"type": "Polygon", "coordinates": [[[-96.4685795, 33.7834572], [-96.4684971, 33.7834592], [-96.4684951, 33.7834004], [-96.4685775, 33.7833984], [-96.4685795, 33.7834572]]]}, "properties": {"osm_id": 1360537438, "building": "yes", "name": "", "height": null, "height_m": null, "levels": null, "tract_id": "40013796600", "tract_name": "7966", "tags": {"building": "yes"}}}, {"type": "Feature", "geometry": {"type": "Polygon", "coordinates": [[[-96.4689718, 33.7834698], [-96.4688099, 33.7834712], [-96.4688088, 33.7833871], [-96.4689708, 33.7833857], [-96.4689718, 33.7834698]]]}, "properties": {"osm_id": 1360537439, "building": "yes", "name": "", "height": null, "height_m": null, "levels": null, "tract_id": "40013796600", "tract_name": "7966", "tags": {"building": "yes"}}}, {"type": "Feature", "geometry": {"type": "Polygon", "coordinates": [[[-96.4690778, 33.7824061], [-96.4690764, 33.782516], [-96.4688833, 33.7825143], [-96.4688846, 33.7824044], [-96.4690778, 33.7824061]]]}, "properties": {"osm_id": 1360537440, "building": "yes", "name": "", "height": null, "height_m": null, "levels": null, "tract_id": "40013796600", "tract_name": "7966", "tags": {"building": "yes"}}}, {"type": "Feature", "geometry": {"type": "Polygon", "coordinates": [[[-96.4664358, 33.7828314], [-96.4664519, 33.7827283], [-96.4665139, 33.7827349], [-96.4664978, 33.782838], [-96.4664358, 33.7828314]]]}, "properties": {"osm_id": 1360537441, "building": "yes", "name": "", "height": null, "height_m": null, "levels": null, "tract_id": "40013796600", "tract_name": "7966", "tags": {"building": "yes"}}}, {"type": "Feature", "geometry": {"type": "Polygon", "coordinates": [[[-96.4561696, 33.7838201], [-96.4561177, 33.7838195], [-96.4561183, 33.7837793], [-96.4561703, 33.7837799], [-96.4561696, 33.7838201]]]}, "properties": {"osm_id": 1360537442, "building": "yes", "name": "", "height": null, "height_m": null, "levels": null, "tract_id": "40013796600", "tract_name": "7966", "tags": {"building": "yes"}}}, {"type": "Feature", "geometry": {"type": "Polygon", "coordinates": [[[-96.4606835, 33.7835007], [-96.4606531, 33.7834846], [-96.460687, 33.7834406], [-96.4607173, 33.7834567], [-96.4606835, 33.7835007]]]}, "properties": {"osm_id": 1360537443, "building": "yes", "name": "", "height": null, "height_m": null, "levels": null, "tract_id": "40013796600", "tract_name": "7966", "tags": {"building": "yes"}}}, {"type": "Feature", "geometry": {"type": "Polygon", "coordinates": [[[-96.4608263, 33.7836757], [-96.4608008, 33.7836665], [-96.4608105, 33.7836479], [-96.460836, 33.7836571], [-96.4608263, 33.7836757]]]}, "properties": {"osm_id": 1360537444, "building": "yes", "name": "", "height": null, "height_m": null, "levels": null, "tract_id": "40013796600", "tract_name": "7966", "tags": {"building": "yes"}}}, {"type": "Feature", "geometry": {"type": "Polygon", "coordinates": [[[-96.4608601, 33.7836172], [-96.4608281, 33.7836059], [-96.4608626, 33.7835379], [-96.4608947, 33.7835492], [-96.4608601, 33.7836172]]]}, "properties": {"osm_id": 1360537445, "building": "yes", "name": "", "height": null, "height_m": null, "levels": null, "tract_id": "40013796600", "tract_name": "7966", "tags": {"building": "yes"}}}, {"type": "Feature", "geometry": {"type": "Polygon", "coordinates": [[[-96.4583486, 33.7838128], [-96.4582649, 33.7838111], [-96.4582679, 33.7837066], [-96.4583516, 33.7837083], [-96.4583486, 33.7838128]]]}, "properties": {"osm_id": 1360537446, "building": "yes", "name": "", "height": null, "height_m": null, "levels": null, "tract_id": "40013796600", "tract_name": "7966", "tags": {"building": "yes"}}}, {"type": "Feature", "geometry": {"type": "Polygon", "coordinates": [[[-96.4583717, 33.7835659], [-96.4583717, 33.7835024], [-96.4584254, 33.7835024], [-96.4584254, 33.7835286], [-96.4585434, 33.7835286], [-96.4585434, 33.7836322], [-96.4584187, 33.7836322], [-96.4584187, 33.7836434], [-96.4583717, 33.7836434], [-96.4583717, 33.7835988], [-96.4583436, 33.7835988], [-96.4583436, 33.7835659], [-96.4583717, 33.7835659]]]}, "properties": {"osm_id": 1360537447, "building": "yes", "name": "", "height": null, "height_m": null, "levels": null, "tract_id": "40013796600", "tract_name": "7966", "tags": {"building": "yes"}}}, {"type": "Feature", "geometry": {"type": "Polygon", "coordinates": [[[-96.4591026, 33.7835459], [-96.4589075, 33.7835459], [-96.4589075, 33.7834333], [-96.4591026, 33.7834333], [-96.4591026, 33.7835459]]]}, "properties": {"osm_id": 1360537448, "building": "yes", "name": "", "height": null, "height_m": null, "levels": null, "tract_id": "40013796600", "tract_name": "7966", "tags": {"building": "yes"}}}, {"type": "Feature", "geometry": {"type": "Polygon", "coordinates": [[[-96.4594802, 33.7836373], [-96.4594869, 33.7834372], [-96.4595381, 33.7834384], [-96.4595314, 33.7836384], [-96.4594802, 33.7836373]]]}, "properties": {"osm_id": 1360537449, "building": "yes", "name": "", "height": null, "height_m": null, "levels": null, "tract_id": "40013796600", "tract_name": "7966", "tags": {"building": "yes"}}}, {"type": "Feature", "geometry": {"type": "Polygon", "coordinates": [[[-96.4627082, 33.7834299], [-96.4624477, 33.7834322], [-96.4624467, 33.7833469], [-96.4627071, 33.7833447], [-96.4627082, 33.7834299]]]}, "properties": {"osm_id": 1360537450, "building": "yes", "name": "", "height": null, "height_m": null, "levels": null, "tract_id": "40013796600", "tract_name": "7966", "tags": {"building": "yes"}}}, {"type": "Feature", "geometry": {"type": "Polygon", "coordinates": [[[-96.4632661, 33.7835386], [-96.463179, 33.7835394], [-96.4631782, 33.7834765], [-96.4632653, 33.7834757], [-96.4632661, 33.7835386]]]}, "properties": {"osm_id": 1360537451, "building": "yes", "name": "", "height": null, "height_m": null, "levels": null, "tract_id": "40013796600", "tract_name": "7966", "tags": {"building": "yes"}}}, {"type": "Feature", "geometry": {"type": "Polygon", "coordinates": [[[-96.4632748, 33.7835843], [-96.4631766, 33.7835851], [-96.4631761, 33.7835444], [-96.4632743, 33.7835436], [-96.4632748, 33.7835843]]]}, "properties": {"osm_id": 1360537452, "building": "yes", "name": "", "height": null, "height_m": null, "levels": null, "tract_id": "40013796600", "tract_name": "7966", "tags": {"building": "yes"}}}, {"type": "Feature", "geometry": {"type": "Polygon", "coordinates": [[[-96.4629174, 33.7833006], [-96.4628068, 33.7832998], [-96.4628081, 33.783182], [-96.4629187, 33.7831828], [-96.4629174, 33.7833006]]]}, "properties": {"osm_id": 1360537453, "building": "yes", "name": "", "height": null, "height_m": null, "levels": null, "tract_id": "40013796600", "tract_name": "7966", "tags": {"building": "yes"}}}, {"type": "Feature", "geometry": {"type": "Polygon", "coordinates": [[[-96.4630619, 33.7832889], [-96.4630289, 33.7832902], [-96.4630269, 33.7832543], [-96.4630599, 33.783253], [-96.4630619, 33.7832889]]]}, "properties": {"osm_id": 1360537454, "building": "yes", "name": "", "height": null, "height_m": null, "levels": null, "tract_id": "40013796600", "tract_name": "7966", "tags": {"building": "yes"}}}, {"type": "Feature", "geometry": {"type": "Polygon", "coordinates": [[[-96.4632906, 33.7833034], [-96.4631538, 33.7833023], [-96.463155, 33.783195], [-96.4632918, 33.7831961], [-96.4632906, 33.7833034]]]}, "properties": {"osm_id": 1360537455, "building": "yes", "name": "", "height": null, "height_m": null, "levels": null, "tract_id": "40013796600", "tract_name": "7966", "tags": {"building": "yes"}}}, {"type": "Feature", "geometry": {"type": "Polygon", "coordinates": [[[-96.463598, 33.783034], [-96.4635412, 33.7830277], [-96.4635474, 33.7829888], [-96.4636042, 33.782995], [-96.463598, 33.783034]]]}, "properties": {"osm_id": 1360537456, "building": "yes", "name": "", "height": null, "height_m": null, "levels": null, "tract_id": "40013796600", "tract_name": "7966", "tags": {"building": "yes"}}}, {"type": "Feature", "geometry": {"type": "Polygon", "coordinates": [[[-96.4635916, 33.783076], [-96.4635152, 33.7830677], [-96.4635209, 33.7830315], [-96.4635974, 33.7830398], [-96.4635916, 33.783076]]]}, "properties": {"osm_id": 1360537457, "building": "yes", "name": "", "height": null, "height_m": null, "levels": null, "tract_id": "40013796600", "tract_name": "7966", "tags": {"building": "yes"}}}, {"type": "Feature", "geometry": {"type": "Polygon", "coordinates": [[[-96.4634408, 33.7831276], [-96.4632688, 33.7831279], [-96.4632684, 33.782981], [-96.4634404, 33.7829807], [-96.4634408, 33.7831276]]]}, "properties": {"osm_id": 1360537458, "building": "yes", "name": "", "height": null, "height_m": null, "levels": null, "tract_id": "40013796600", "tract_name": "7966", "tags": {"building": "yes"}}}, {"type": "Feature", "geometry": {"type": "Polygon", "coordinates": [[[-96.5203368, 33.8189836], [-96.5203006, 33.8189828], [-96.5203013, 33.8189599], [-96.5203376, 33.8189607], [-96.5203368, 33.8189836]]]}, "properties": {"osm_id": 1360537462, "building": "yes", "name": "", "height": null, "height_m": null, "levels": null, "tract_id": "40013796600", "tract_name": "7966", "tags": {"building": "yes"}}}, {"type": "Feature", "geometry": {"type": "Polygon", "coordinates": [[[-96.5199937, 33.8193992], [-96.5199728, 33.8193981], [-96.5199817, 33.8192883], [-96.5201557, 33.8192981], [-96.5201468, 33.8194078], [-96.5200837, 33.8194043], [-96.5200806, 33.8194424], [-96.5199906, 33.8194373], [-96.5199937, 33.8193992]]]}, "properties": {"osm_id": 1360537464, "building": "yes", "name": "", "height": null, "height_m": null, "levels": null, "tract_id": "40013796600", "tract_name": "7966", "tags": {"building": "yes"}}}, {"type": "Feature", "geometry": {"type": "Polygon", "coordinates": [[[-96.5200585, 33.818946], [-96.520021, 33.8189471], [-96.5200197, 33.8189173], [-96.5200572, 33.8189161], [-96.5200585, 33.818946]]]}, "properties": {"osm_id": 1360537465, "building": "yes", "name": "", "height": null, "height_m": null, "levels": null, "tract_id": "40013796600", "tract_name": "7966", "tags": {"building": "yes"}}}, {"type": "Feature", "geometry": {"type": "Polygon", "coordinates": [[[-96.5189715, 33.8187499], [-96.5189807, 33.8187784], [-96.5189382, 33.8187879], [-96.518929, 33.8187594], [-96.5189715, 33.8187499]]]}, "properties": {"osm_id": 1360537466, "building": "yes", "name": "", "height": null, "height_m": null, "levels": null, "tract_id": "40013796600", "tract_name": "7966", "tags": {"building": "yes"}}}, {"type": "Feature", "geometry": {"type": "Polygon", "coordinates": [[[-96.518989, 33.8188226], [-96.519047, 33.8187867], [-96.519088, 33.8188324], [-96.51903, 33.8188683], [-96.518989, 33.8188226]]]}, "properties": {"osm_id": 1360537467, "building": "yes", "name": "", "height": null, "height_m": null, "levels": null, "tract_id": "40013796600", "tract_name": "7966", "tags": {"building": "yes"}}}, {"type": "Feature", "geometry": {"type": "Polygon", "coordinates": [[[-96.5189971, 33.818495], [-96.5188583, 33.8185104], [-96.5188467, 33.8184384], [-96.5188768, 33.818435], [-96.5188594, 33.8183273], [-96.5189782, 33.8183141], [-96.5189854, 33.8183585], [-96.5189433, 33.8183632], [-96.5189533, 33.8184252], [-96.5189853, 33.8184216], [-96.5189971, 33.818495]]]}, "properties": {"osm_id": 1360537468, "building": "yes", "name": "", "height": null, "height_m": null, "levels": null, "tract_id": "40013796600", "tract_name": "7966", "tags": {"building": "yes"}}}, {"type": "Feature", "geometry": {"type": "Polygon", "coordinates": [[[-96.5198017, 33.8172725], [-96.5197465, 33.8172507], [-96.5197749, 33.8172012], [-96.51983, 33.8172229], [-96.5198017, 33.8172725]]]}, "properties": {"osm_id": 1360537470, "building": "yes", "name": "", "height": null, "height_m": null, "levels": null, "tract_id": "40013796600", "tract_name": "7966", "tags": {"building": "yes"}}}, {"type": "Feature", "geometry": {"type": "Polygon", "coordinates": [[[-96.519718, 33.8173955], [-96.5196363, 33.8173632], [-96.5197008, 33.8172505], [-96.5198017, 33.8172903], [-96.5197632, 33.8173576], [-96.519744, 33.81735], [-96.519718, 33.8173955]]]}, "properties": {"osm_id": 1360537471, "building": "yes", "name": "", "height": null, "height_m": null, "levels": null, "tract_id": "40013796600", "tract_name": "7966", "tags": {"building": "yes"}}}, {"type": "Feature", "geometry": {"type": "Polygon", "coordinates": [[[-96.519969, 33.8172034], [-96.5199174, 33.817183], [-96.5199443, 33.8171359], [-96.519996, 33.8171563], [-96.519969, 33.8172034]]]}, "properties": {"osm_id": 1360537472, "building": "yes", "name": "", "height": null, "height_m": null, "levels": null, "tract_id": "40013796600", "tract_name": "7966", "tags": {"building": "yes"}}}, {"type": "Feature", "geometry": {"type": "Polygon", "coordinates": [[[-96.5199851, 33.8170257], [-96.5200041, 33.8169923], [-96.5200914, 33.8170268], [-96.5200136, 33.8171627], [-96.5199264, 33.8171283], [-96.5199637, 33.817063], [-96.5199194, 33.8170454], [-96.5199407, 33.8170082], [-96.5199851, 33.8170257]]]}, "properties": {"osm_id": 1360537473, "building": "yes", "name": "", "height": null, "height_m": null, "levels": null, "tract_id": "40013796600", "tract_name": "7966", "tags": {"building": "yes"}}}, {"type": "Feature", "geometry": {"type": "Polygon", "coordinates": [[[-96.5227307, 33.8206563], [-96.52261, 33.820668], [-96.5225996, 33.8205941], [-96.5227203, 33.8205824], [-96.5227307, 33.8206563]]]}, "properties": {"osm_id": 1360537474, "building": "yes", "name": "", "height": null, "height_m": null, "levels": null, "tract_id": "40013796600", "tract_name": "7966", "tags": {"building": "yes"}}}, {"type": "Feature", "geometry": {"type": "Polygon", "coordinates": [[[-96.5212103, 33.8196398], [-96.5213084, 33.8196304], [-96.521319, 33.819707], [-96.521142, 33.819724], [-96.5211314, 33.8196474], [-96.5211487, 33.8196457], [-96.5211426, 33.8196017], [-96.5212042, 33.8195958], [-96.5212103, 33.8196398]]]}, "properties": {"osm_id": 1360537475, "building": "yes", "name": "", "height": null, "height_m": null, "levels": null, "tract_id": "40013796600", "tract_name": "7966", "tags": {"building": "yes"}}}, {"type": "Feature", "geometry": {"type": "Polygon", "coordinates": [[[-96.5213825, 33.8196925], [-96.5213216, 33.8196983], [-96.5213113, 33.8196234], [-96.5213721, 33.8196176], [-96.5213825, 33.8196925]]]}, "properties": {"osm_id": 1360537476, "building": "yes", "name": "", "height": null, "height_m": null, "levels": null, "tract_id": "40013796600", "tract_name": "7966", "tags": {"building": "yes"}}}, {"type": "Feature", "geometry": {"type": "Polygon", "coordinates": [[[-96.5224333, 33.8196262], [-96.5223837, 33.8196153], [-96.5223951, 33.8195791], [-96.5224448, 33.81959], [-96.5224333, 33.8196262]]]}, "properties": {"osm_id": 1360537477, "building": "yes", "name": "", "height": null, "height_m": null, "levels": null, "tract_id": "40013796600", "tract_name": "7966", "tags": {"building": "yes"}}}, {"type": "Feature", "geometry": {"type": "Polygon", "coordinates": [[[-96.5222777, 33.8195061], [-96.5222684, 33.8195508], [-96.5222027, 33.8195413], [-96.522212, 33.8194967], [-96.5222777, 33.8195061]]]}, "properties": {"osm_id": 1360537478, "building": "yes", "name": "", "height": null, "height_m": null, "levels": null, "tract_id": "40013796600", "tract_name": "7966", "tags": {"building": "yes"}}}, {"type": "Feature", "geometry": {"type": "Polygon", "coordinates": [[[-96.5223723, 33.8194028], [-96.5224167, 33.8193939], [-96.5224371, 33.8194637], [-96.5223783, 33.8194756], [-96.5223691, 33.8194442], [-96.5222452, 33.8194691], [-96.522234, 33.8194306], [-96.5222994, 33.8194175], [-96.5222873, 33.819376], [-96.5223602, 33.8193613], [-96.5223723, 33.8194028]]]}, "properties": {"osm_id": 1360537479, "building": "yes", "name": "", "height": null, "height_m": null, "levels": null, "tract_id": "40013796600", "tract_name": "7966", "tags": {"building": "yes"}}}, {"type": "Feature", "geometry": {"type": "Polygon", "coordinates": [[[-96.5225258, 33.8201081], [-96.5224201, 33.8200793], [-96.5224999, 33.8198771], [-96.5226056, 33.8199059], [-96.5225258, 33.8201081]]]}, "properties": {"osm_id": 1360537480, "building": "yes", "name": "", "height": null, "height_m": null, "levels": null, "tract_id": "40013796600", "tract_name": "7966", "tags": {"building": "yes"}}}, {"type": "Feature", "geometry": {"type": "Polygon", "coordinates": [[[-96.5225932, 33.8202306], [-96.5223994, 33.8201833], [-96.5224328, 33.8200891], [-96.5226265, 33.8201365], [-96.5225932, 33.8202306]]]}, "properties": {"osm_id": 1360537481, "building": "yes", "name": "", "height": null, "height_m": null, "levels": null, "tract_id": "40013796600", "tract_name": "7966", "tags": {"building": "yes"}}}, {"type": "Feature", "geometry": {"type": "Polygon", "coordinates": [[[-96.5716646, 33.8534434], [-96.5712997, 33.8534391], [-96.5713034, 33.8532175], [-96.5716684, 33.8532217], [-96.5716646, 33.8534434]]]}, "properties": {"osm_id": 1378862738, "building": "yes", "name": "", "height": null, "height_m": null, "levels": null, "tract_id": "40013796600", "tract_name": "7966", "tags": {"building": "yes"}}}, {"type": "Feature", "geometry": {"type": "Polygon", "coordinates": [[[-96.5716446, 33.8538599], [-96.5713185, 33.8538592], [-96.5713192, 33.8536487], [-96.5716453, 33.8536494], [-96.5716446, 33.8538599]]]}, "properties": {"osm_id": 1378862739, "building": "yes", "name": "", "height": null, "height_m": null, "levels": null, "tract_id": "40013796600", "tract_name": "7966", "tags": {"building": "yes"}}}, {"type": "Feature", "geometry": {"type": "Polygon", "coordinates": [[[-96.5720919, 33.854382], [-96.5718302, 33.8543821], [-96.5718302, 33.8537737], [-96.5718779, 33.8537737], [-96.5718779, 33.8536006], [-96.5719289, 33.8536006], [-96.5719288, 33.8532022], [-96.5720917, 33.8532022], [-96.5720919, 33.854382]]]}, "properties": {"osm_id": 1378862740, "building": "yes", "name": "", "height": null, "height_m": null, "levels": null, "tract_id": "40013796600", "tract_name": "7966", "tags": {"building": "yes"}}}, {"type": "Feature", "geometry": {"type": "Polygon", "coordinates": [[[-96.5724535, 33.8543558], [-96.5723166, 33.8543567], [-96.5723045, 33.8531975], [-96.5724412, 33.8531965], [-96.5724535, 33.8543558]]]}, "properties": {"osm_id": 1378862741, "building": "yes", "name": "", "height": null, "height_m": null, "levels": null, "tract_id": "40013796600", "tract_name": "7966", "tags": {"building": "yes"}}}, {"type": "Feature", "geometry": {"type": "Polygon", "coordinates": [[[-96.5721055, 33.854829], [-96.5718403, 33.8548341], [-96.5718316, 33.8545248], [-96.5720968, 33.8545196], [-96.5721055, 33.854829]]]}, "properties": {"osm_id": 1378862742, "building": "yes", "name": "", "height": null, "height_m": null, "levels": null, "tract_id": "40013796600", "tract_name": "7966", "tags": {"building": "yes"}}}, {"type": "Feature", "geometry": {"type": "Polygon", "coordinates": [[[-96.5716726, 33.8550999], [-96.5715438, 33.8551006], [-96.5715432, 33.8550284], [-96.571672, 33.8550277], [-96.5716726, 33.8550999]]]}, "properties": {"osm_id": 1378862743, "building": "yes", "name": "", "height": null, "height_m": null, "levels": null, "tract_id": "40013796600", "tract_name": "7966", "tags": {"building": "yes"}}}, {"type": "Feature", "geometry": {"type": "Polygon", "coordinates": [[[-96.5718313, 33.8556142], [-96.5715654, 33.8556137], [-96.5715656, 33.8555122], [-96.5718315, 33.8555126], [-96.5718313, 33.8556142]]]}, "properties": {"osm_id": 1378862744, "building": "yes", "name": "", "height": null, "height_m": null, "levels": null, "tract_id": "40013796600", "tract_name": "7966", "tags": {"building": "yes"}}}, {"type": "Feature", "geometry": {"type": "Polygon", "coordinates": [[[-96.5715294, 33.8556134], [-96.5709036, 33.8556126], [-96.5709036, 33.855589], [-96.5708545, 33.8555889], [-96.5708546, 33.8555233], [-96.5709068, 33.8555234], [-96.5709069, 33.8555022], [-96.5711038, 33.8555025], [-96.5711039, 33.8554543], [-96.5712234, 33.8554545], [-96.5712233, 33.8554981], [-96.5715297, 33.8554985], [-96.5715294, 33.8556134]]]}, "properties": {"osm_id": 1378862745, "building": "yes", "name": "", "height": null, "height_m": null, "levels": null, "tract_id": "40013796600", "tract_name": "7966", "tags": {"building": "yes"}}}, {"type": "Feature", "geometry": {"type": "Polygon", "coordinates": [[[-96.5104881, 33.8664349], [-96.5102692, 33.8663863], [-96.5102753, 33.8663673], [-96.5101456, 33.8663385], [-96.5102419, 33.8660395], [-96.5103528, 33.8660641], [-96.5103246, 33.8661517], [-96.5105266, 33.8661966], [-96.5104786, 33.8663458], [-96.5105142, 33.8663537], [-96.5104881, 33.8664349]]]}, "properties": {"osm_id": 1379297535, "building": "yes", "name": "", "height": null, "height_m": null, "levels": null, "tract_id": "40013796600", "tract_name": "7966", "tags": {"building": "yes"}}}, {"type": "Feature", "geometry": {"type": "Polygon", "coordinates": [[[-96.4547397, 33.9149132], [-96.454497, 33.9149726], [-96.4546131, 33.9152993], [-96.4548558, 33.9152399], [-96.4547397, 33.9149132]]]}, "properties": {"osm_id": 1379297536, "building": "yes", "name": "", "height": null, "height_m": null, "levels": null, "tract_id": "40013796600", "tract_name": "7966", "tags": {"building": "yes"}}}, {"type": "Feature", "geometry": {"type": "Polygon", "coordinates": [[[-96.5635947, 33.853243], [-96.5636004, 33.8530699], [-96.5629601, 33.8530552], [-96.562958, 33.8531176], [-96.5631357, 33.8531216], [-96.5631321, 33.8532324], [-96.5635947, 33.853243]]]}, "properties": {"osm_id": 1383374648, "building": "yes", "name": "", "height": null, "height_m": null, "levels": null, "tract_id": "40013796600", "tract_name": "7966", "tags": {"building": "yes"}}}, {"type": "Feature", "geometry": {"type": "Polygon", "coordinates": [[[-96.5630771, 33.853198], [-96.5629574, 33.853194], [-96.5629523, 33.8532988], [-96.563072, 33.8533028], [-96.5630771, 33.853198]]]}, "properties": {"osm_id": 1383374649, "building": "yes", "name": "", "height": null, "height_m": null, "levels": null, "tract_id": "40013796600", "tract_name": "7966", "tags": {"building": "yes"}}}, {"type": "Feature", "geometry": {"type": "Polygon", "coordinates": [[[-96.5653813, 33.8532071], [-96.5653818, 33.8531129], [-96.5651403, 33.8531121], [-96.5651396, 33.8532513], [-96.565247, 33.8532517], [-96.5652472, 33.8532067], [-96.5653813, 33.8532071]]]}, "properties": {"osm_id": 1383374650, "building": "yes", "name": "", "height": null, "height_m": null, "levels": null, "tract_id": "40013796600", "tract_name": "7966", "tags": {"building": "yes"}}}, {"type": "Feature", "geometry": {"type": "Polygon", "coordinates": [[[-96.565201, 33.8542363], [-96.5651074, 33.8542295], [-96.5651124, 33.8541823], [-96.5650552, 33.8541781], [-96.5650612, 33.8541213], [-96.5651267, 33.8541261], [-96.565146, 33.8539442], [-96.5653853, 33.8539617], [-96.5653733, 33.8540753], [-96.5652192, 33.8540641], [-96.565201, 33.8542363]]]}, "properties": {"osm_id": 1383374656, "building": "yes", "name": "", "height": null, "height_m": null, "levels": null, "tract_id": "40013796600", "tract_name": "7966", "tags": {"building": "yes"}}}, {"type": "Feature", "geometry": {"type": "Polygon", "coordinates": [[[-96.5685263, 33.853316], [-96.5685283, 33.8532232], [-96.5684864, 33.8532226], [-96.5684898, 33.8530645], [-96.5683466, 33.8530623], [-96.5683449, 33.8531427], [-96.5681995, 33.8531405], [-96.5681971, 33.8532495], [-96.5682917, 33.8532509], [-96.5682908, 33.8532931], [-96.5683736, 33.8532943], [-96.5683732, 33.8533137], [-96.5685263, 33.853316]]]}, "properties": {"osm_id": 1383374657, "building": "yes", "name": "", "height": null, "height_m": null, "levels": null, "tract_id": "40013796600", "tract_name": "7966", "tags": {"building": "yes"}}}, {"type": "Feature", "geometry": {"type": "Polygon", "coordinates": [[[-96.5692215, 33.8532535], [-96.5692196, 33.8531337], [-96.5694209, 33.8531314], [-96.5694234, 33.8532819], [-96.5693602, 33.8532826], [-96.5693591, 33.8532177], [-96.5692951, 33.8532185], [-96.5692956, 33.8532526], [-96.5692215, 33.8532535]]]}, "properties": {"osm_id": 1383374658, "building": "yes", "name": "", "height": null, "height_m": null, "levels": null, "tract_id": "40013796600", "tract_name": "7966", "tags": {"building": "yes"}}}, {"type": "Feature", "geometry": {"type": "Polygon", "coordinates": [[[-96.5697052, 33.853192], [-96.5697057, 33.8530966], [-96.5695764, 33.8530962], [-96.5695759, 33.8531916], [-96.5697052, 33.853192]]]}, "properties": {"osm_id": 1383374659, "building": "yes", "name": "", "height": null, "height_m": null, "levels": null, "tract_id": "40013796600", "tract_name": "7966", "tags": {"building": "yes"}}}, {"type": "Feature", "geometry": {"type": "Polygon", "coordinates": [[[-96.5691209, 33.8546742], [-96.5691285, 33.8544969], [-96.568887, 33.8544898], [-96.5688793, 33.8546671], [-96.5691209, 33.8546742]]]}, "properties": {"osm_id": 1383374660, "building": "yes", "name": "", "height": null, "height_m": null, "levels": null, "tract_id": "40013796600", "tract_name": "7966", "tags": {"building": "yes"}}}, {"type": "Feature", "geometry": {"type": "Polygon", "coordinates": [[[-96.5699483, 33.8542949], [-96.5699479, 33.8542302], [-96.5700828, 33.8542297], [-96.5700831, 33.8542944], [-96.5699483, 33.8542949]]]}, "properties": {"osm_id": 1383374664, "building": "yes", "name": "", "height": null, "height_m": null, "levels": null, "tract_id": "40013796600", "tract_name": "7966", "tags": {"building": "yes"}}}, {"type": "Feature", "geometry": {"type": "Polygon", "coordinates": [[[-96.5700232, 33.8543726], [-96.5699508, 33.8543726], [-96.5699508, 33.8543224], [-96.5700232, 33.8543224], [-96.5700232, 33.8543726]]]}, "properties": {"osm_id": 1383374665, "building": "yes", "name": "", "height": null, "height_m": null, "levels": null, "tract_id": "40013796600", "tract_name": "7966", "tags": {"building": "yes"}}}, {"type": "Feature", "geometry": {"type": "Polygon", "coordinates": [[[-96.5700451, 33.8544721], [-96.5700428, 33.8544141], [-96.5701131, 33.8544122], [-96.5701154, 33.8544702], [-96.5700451, 33.8544721]]]}, "properties": {"osm_id": 1383374666, "building": "yes", "name": "", "height": null, "height_m": null, "levels": null, "tract_id": "40013796600", "tract_name": "7966", "tags": {"building": "yes"}}}]}