{"type": "FeatureCollection", "features": [{"type": "Feature", "geometry": {"type": "Polygon", "coordinates": [[[-95.8027958, 36.0660524], [-95.8026722, 36.0660525], [-95.802672, 36.0658677], [-95.8023613, 36.0658679], [-95.8023615, 36.0660432], [-95.8021697, 36.0660434], [-95.8021689, 36.0654627], [-95.8023814, 36.0654626], [-95.8023818, 36.065761], [-95.8027954, 36.0657606], [-95.8027958, 36.0660524]]]}, "properties": {"osm_id": 102033700, "building": "yes", "name": "Arrowhead Elementary School", "height": null, "height_m": null, "levels": null, "tract_id": "40143007414", "tract_name": "74.14", "tags": {"building": "yes", "name": "Arrowhead Elementary School"}}}, {"type": "Feature", "geometry": {"type": "Polygon", "coordinates": [[[-95.7977813, 36.0674615], [-95.7977174, 36.0674612], [-95.7976286, 36.0674608], [-95.7976294, 36.0673395], [-95.7977181, 36.0673399], [-95.7977821, 36.0673402], [-95.7977813, 36.0674615]]]}, "properties": {"osm_id": 102033881, "building": "yes", "name": "Sinclair", "height": null, "height_m": null, "levels": null, "tract_id": "40143007414", "tract_name": "74.14", "tags": {"amenity": "fuel", "atm": "yes", "brand": "Sinclair", "brand:wikidata": "Q1290900", "building": "yes", "check_date": "2024-09-25", "compressed_air": "no", "name": "Sinclair", "phone": "+1 918-258-7202", "website": "https://stations.sinclairoil.com/ok/broken-arrow/1302-n-elm-pl"}}}, {"type": "Feature", "geometry": {"type": "Polygon", "coordinates": [[[-95.7978571, 36.0674947], [-95.7979305, 36.0674947], [-95.7979305, 36.0675042], [-95.7980456, 36.0675042], [-95.7980454, 36.0676661], [-95.7980148, 36.0676661], [-95.7980145, 36.0679936], [-95.7981183, 36.0679937], [-95.7981182, 36.0681307], [-95.7978829, 36.0681306], [-95.797883, 36.0680822], [-95.797883, 36.0680497], [-95.7978831, 36.0679586], [-95.7978832, 36.0679326], [-95.7978833, 36.067847], [-95.7978833, 36.0678036], [-95.7978834, 36.0676925], [-95.7978835, 36.0676615], [-95.797857, 36.0676615], [-95.797857, 36.0675803], [-95.7978571, 36.0674947]]]}, "properties": {"osm_id": 102033899, "building": "retail", "name": "", "height": null, "height_m": null, "levels": null, "tract_id": "40143007414", "tract_name": "74.14", "tags": {"building": "retail"}}}, {"type": "Feature", "geometry": {"type": "Polygon", "coordinates": [[[-95.8144354, 36.0743971], [-95.8144296, 36.0744666], [-95.814413, 36.074535], [-95.8143859, 36.0746011], [-95.8143488, 36.074664], [-95.8143022, 36.0747227], [-95.8142469, 36.0747761], [-95.8141837, 36.0748236], [-95.8141137, 36.0748642], [-95.8140379, 36.0748975], [-95.8139576, 36.0749228], [-95.813874, 36.0749397], [-95.8137678, 36.0749419], [-95.8137635, 36.0747421], [-95.8138564, 36.0747421], [-95.8138364, 36.0747112], [-95.8139438, 36.0746789], [-95.8139638, 36.0746568], [-95.8136941, 36.0744398], [-95.813576, 36.0743448], [-95.813514, 36.0743992], [-95.8134667, 36.0743992], [-95.8134667, 36.0744463], [-95.8134121, 36.0744463], [-95.8134157, 36.0744846], [-95.8133811, 36.0745096], [-95.8133174, 36.0745081], [-95.8133137, 36.0744022], [-95.8130042, 36.0744066], [-95.8130024, 36.0741534], [-95.8132628, 36.0741505], [-95.8134485, 36.073993], [-95.8134867, 36.0739945], [-95.8134867, 36.0731703], [-95.8138655, 36.0731717], [-95.8138655, 36.0732541], [-95.8137999, 36.0732527], [-95.8138036, 36.0741564], [-95.8137016, 36.0742462], [-95.813811, 36.0743338], [-95.8140877, 36.0745552], [-95.8141186, 36.0745346], [-95.8141568, 36.0744507], [-95.8141969, 36.074464], [-95.8141969, 36.0743933], [-95.8144354, 36.0743971]]]}, "properties": {"osm_id": 242896010, "building": "retail", "name": "Aspen Business Center", "height": null, "height_m": null, "levels": null, "tract_id": "40143007414", "tract_name": "74.14", "tags": {"building": "retail", "name": "Aspen Business Center"}}}, {"type": "Feature", "geometry": {"type": "Polygon", "coordinates": [[[-95.8138064, 36.0723883], [-95.8138064, 36.0717568], [-95.81413, 36.0717568], [-95.81413, 36.0716138], [-95.8138889, 36.0716138], [-95.8138889, 36.0715721], [-95.8137816, 36.0715721], [-95.8137816, 36.0712983], [-95.8139084, 36.0712983], [-95.8139084, 36.0712307], [-95.8139293, 36.0712307], [-95.8139293, 36.0711942], [-95.8141621, 36.0711942], [-95.8141621, 36.0711643], [-95.8142583, 36.0711643], [-95.8142583, 36.0711942], [-95.8146834, 36.0711942], [-95.8146834, 36.0715743], [-95.8145533, 36.0715743], [-95.8145533, 36.0717463], [-95.8146834, 36.0717463], [-95.8146834, 36.0721048], [-95.814612, 36.0721048], [-95.814612, 36.0723883], [-95.8138064, 36.0723883]]]}, "properties": {"osm_id": 242898705, "building": "industrial", "name": "R. L. Hudson & Company", "height": null, "height_m": null, "levels": null, "tract_id": "40143007414", "tract_name": "74.14", "tags": {"addr:city": "Tulsa", "addr:country": "US", "addr:housenumber": "2000", "addr:postcode": "74012", "addr:state": "OK", "addr:street": "West Tacoma Street", "building": "industrial", "name": "R. L. Hudson & Company"}}}, {"type": "Feature", "geometry": {"type": "Polygon", "coordinates": [[[-95.8110565, 36.0612537], [-95.8110565, 36.061601], [-95.8112935, 36.061601], [-95.8112935, 36.0612537], [-95.8110565, 36.0612537]]]}, "properties": {"osm_id": 435139974, "building": "industrial", "name": "Freeman Products", "height": null, "height_m": null, "levels": null, "tract_id": "40143007414", "tract_name": "74.14", "tags": {"addr:housenumber": "1912", "addr:postcode": "74012", "addr:street": "West Kenosha Street", "building": "industrial", "craft": "interior_work", "name": "Freeman Products", "phone": "+1-918-258-8861", "shop": "paint"}}}, {"type": "Feature", "geometry": {"type": "Polygon", "coordinates": [[[-95.8097523, 36.0647472], [-95.8097545, 36.0647888], [-95.8097203, 36.064816], [-95.8096722, 36.0648178], [-95.8096341, 36.0647937], [-95.8096347, 36.0647548], [-95.8096623, 36.0647213], [-95.8097131, 36.064716], [-95.8097523, 36.0647472]]]}, "properties": {"osm_id": 504252357, "building": "gazebo", "name": "", "height": null, "height_m": null, "levels": null, "tract_id": "40143007414", "tract_name": "74.14", "tags": {"building": "gazebo"}}}, {"type": "Feature", "geometry": {"type": "Polygon", "coordinates": [[[-95.8106534, 36.0738577], [-95.8106439, 36.0738777], [-95.8106166, 36.0738798], [-95.8105989, 36.0738624], [-95.8106103, 36.0738393], [-95.8106376, 36.0738367], [-95.8106534, 36.0738577]]]}, "properties": {"osm_id": 522278755, "building": "yes", "name": "", "height": null, "height_m": null, "levels": null, "tract_id": "40143007414", "tract_name": "74.14", "tags": {"amenity": "shelter", "building": "yes", "shelter_type": "gazebo"}}}, {"type": "Feature", "geometry": {"type": "Polygon", "coordinates": [[[-95.8124276, 36.0737372], [-95.8124227, 36.0733042], [-95.8120023, 36.0733073], [-95.8120072, 36.0737403], [-95.8124276, 36.0737372]]]}, "properties": {"osm_id": 522670471, "building": "yes", "name": "", "height": null, "height_m": null, "levels": null, "tract_id": "40143007414", "tract_name": "74.14", "tags": {"building": "yes"}}}, {"type": "Feature", "geometry": {"type": "Polygon", "coordinates": [[[-95.8119363, 36.0716617], [-95.8119373, 36.071889], [-95.8117749, 36.0718895], [-95.8117762, 36.0721698], [-95.8110261, 36.072172], [-95.8110247, 36.0718786], [-95.8112645, 36.0718779], [-95.8112636, 36.0716637], [-95.8119363, 36.0716617]]]}, "properties": {"osm_id": 522670472, "building": "yes", "name": "", "height": null, "height_m": null, "levels": null, "tract_id": "40143007414", "tract_name": "74.14", "tags": {"building": "yes"}}}, {"type": "Feature", "geometry": {"type": "Polygon", "coordinates": [[[-95.811578, 36.0700948], [-95.8108961, 36.0700961], [-95.8108977, 36.0706496], [-95.811213, 36.070649], [-95.8112133, 36.0707283], [-95.8112686, 36.0707282], [-95.8112686, 36.0707415], [-95.8113769, 36.0707413], [-95.8113769, 36.0707366], [-95.8115143, 36.0707364], [-95.811514, 36.0706468], [-95.8116152, 36.0706466], [-95.8116146, 36.0704548], [-95.811579, 36.0704549], [-95.811578, 36.0700948]]]}, "properties": {"osm_id": 522670473, "building": "yes", "name": "", "height": null, "height_m": null, "levels": null, "tract_id": "40143007414", "tract_name": "74.14", "tags": {"building": "yes"}}}, {"type": "Feature", "geometry": {"type": "Polygon", "coordinates": [[[-95.8105931, 36.0708848], [-95.8104162, 36.0708856], [-95.810416, 36.0708572], [-95.8103465, 36.0708575], [-95.8103459, 36.0707672], [-95.8103335, 36.0707651], [-95.810332, 36.0705642], [-95.8105907, 36.070563], [-95.8105931, 36.0708848]]]}, "properties": {"osm_id": 522670474, "building": "yes", "name": "", "height": null, "height_m": null, "levels": null, "tract_id": "40143007414", "tract_name": "74.14", "tags": {"building": "yes"}}}, {"type": "Feature", "geometry": {"type": "Polygon", "coordinates": [[[-95.8095903, 36.0712223], [-95.8095905, 36.071256], [-95.809648, 36.0712558], [-95.8096489, 36.0714502], [-95.8095891, 36.0714504], [-95.8095896, 36.0715692], [-95.8089081, 36.0715712], [-95.8089065, 36.0712245], [-95.808969, 36.0712244], [-95.8089688, 36.0711938], [-95.8090507, 36.0711936], [-95.8091171, 36.0712239], [-95.8095903, 36.0712223]]]}, "properties": {"osm_id": 522678524, "building": "yes", "name": "Air Hygeine", "height": null, "height_m": 6.0, "levels": 2, "tract_id": "40143007414", "tract_name": "74.14", "tags": {"addr:city": "Broken Arrow", "addr:housenumber": "1600", "addr:postcode": "74012", "addr:state": "OK", "addr:street": "West Tacoma Street", "building": "yes", "building:levels": "2", "name": "Air Hygeine", "office": "company", "phone": "+1 918 307 8865", "website": "https://www.airhygiene.com/"}}}, {"type": "Feature", "geometry": {"type": "Polygon", "coordinates": [[[-95.8089237, 36.0726047], [-95.8082414, 36.0726066], [-95.8082394, 36.0721875], [-95.8084083, 36.0721876], [-95.8084036, 36.0718583], [-95.8087508, 36.0718572], [-95.8087548, 36.0721849], [-95.8089219, 36.0721849], [-95.8089237, 36.0726047]]]}, "properties": {"osm_id": 522678527, "building": "yes", "name": "", "height": null, "height_m": null, "levels": null, "tract_id": "40143007414", "tract_name": "74.14", "tags": {"building": "yes"}}}, {"type": "Feature", "geometry": {"type": "Polygon", "coordinates": [[[-95.8075306, 36.0704772], [-95.8070413, 36.0708199], [-95.8070135, 36.0707939], [-95.8069814, 36.0708164], [-95.8070107, 36.0708437], [-95.8069944, 36.0708551], [-95.8074649, 36.0712937], [-95.8076338, 36.0711753], [-95.8076515, 36.0711918], [-95.8076933, 36.0711625], [-95.8076749, 36.0711453], [-95.8080016, 36.0709165], [-95.8075306, 36.0704772]]]}, "properties": {"osm_id": 522678530, "building": "industrial", "name": "Control Devices, Inc. (CDI)", "height": null, "height_m": null, "levels": null, "tract_id": "40143007414", "tract_name": "74.14", "tags": {"addr:city": "Broken Arrow", "addr:housenumber": "1801", "addr:postcode": "74012", "addr:state": "OK", "addr:street": "North Juniper Avenue", "building": "industrial", "name": "Control Devices, Inc. (CDI)", "office": "company", "opening_hours": "Mo-Fr 08:00-17:00", "phone": "+1 918 258 6068", "website": "https://www.pigging.com"}}}, {"type": "Feature", "geometry": {"type": "Polygon", "coordinates": [[[-95.8101198, 36.0699291], [-95.8099894, 36.0701514], [-95.8100389, 36.0701704], [-95.8099971, 36.0702417], [-95.8099485, 36.0702231], [-95.809901, 36.0703042], [-95.8097152, 36.070233], [-95.8097694, 36.0701407], [-95.8095289, 36.0700485], [-95.8096473, 36.0698465], [-95.8098865, 36.0699382], [-95.8099337, 36.0698578], [-95.8101198, 36.0699291]]]}, "properties": {"osm_id": 522678532, "building": "yes", "name": "", "height": null, "height_m": null, "levels": null, "tract_id": "40143007414", "tract_name": "74.14", "tags": {"building": "yes"}}}, {"type": "Feature", "geometry": {"type": "Polygon", "coordinates": [[[-95.809881, 36.0705456], [-95.8097492, 36.0707854], [-95.8097282, 36.070777], [-95.8097012, 36.0708145], [-95.8096484, 36.0707944], [-95.8096335, 36.0708189], [-95.8096025, 36.0708082], [-95.8095865, 36.0708359], [-95.8091817, 36.070681], [-95.8091955, 36.0706555], [-95.8091685, 36.0706457], [-95.8092055, 36.0705756], [-95.8091889, 36.0705703], [-95.8093258, 36.0703315], [-95.809881, 36.0705456]]]}, "properties": {"osm_id": 522678535, "building": "yes", "name": "", "height": null, "height_m": null, "levels": null, "tract_id": "40143007414", "tract_name": "74.14", "tags": {"building": "yes"}}}, {"type": "Feature", "geometry": {"type": "Polygon", "coordinates": [[[-95.8134017, 36.068665], [-95.8134006, 36.0683187], [-95.8130599, 36.0683195], [-95.8130611, 36.0686658], [-95.8134017, 36.068665]]]}, "properties": {"osm_id": 522678539, "building": "yes", "name": "", "height": null, "height_m": null, "levels": null, "tract_id": "40143007414", "tract_name": "74.14", "tags": {"building": "yes"}}}, {"type": "Feature", "geometry": {"type": "Polygon", "coordinates": [[[-95.8128061, 36.0685404], [-95.8128051, 36.0683412], [-95.8122949, 36.0683428], [-95.8122959, 36.0685421], [-95.8128061, 36.0685404]]]}, "properties": {"osm_id": 522678542, "building": "yes", "name": "", "height": null, "height_m": null, "levels": null, "tract_id": "40143007414", "tract_name": "74.14", "tags": {"building": "yes"}}}, {"type": "Feature", "geometry": {"type": "Polygon", "coordinates": [[[-95.8120214, 36.068368], [-95.8116801, 36.0683703], [-95.8116826, 36.0686119], [-95.8116121, 36.0686123], [-95.8116125, 36.0686526], [-95.8116925, 36.068652], [-95.8116924, 36.0686437], [-95.8120152, 36.0686415], [-95.8120153, 36.0686509], [-95.8120992, 36.0686504], [-95.8120988, 36.0686088], [-95.8120238, 36.0686093], [-95.8120214, 36.068368]]]}, "properties": {"osm_id": 522678543, "building": "yes", "name": "", "height": null, "height_m": null, "levels": null, "tract_id": "40143007414", "tract_name": "74.14", "tags": {"building": "yes"}}}, {"type": "Feature", "geometry": {"type": "Polygon", "coordinates": [[[-95.811308, 36.0686993], [-95.8111304, 36.0687005], [-95.8111268, 36.0683615], [-95.8111263, 36.0683109], [-95.8113038, 36.0683097], [-95.811308, 36.0686993]]]}, "properties": {"osm_id": 522678547, "building": "yes", "name": "", "height": null, "height_m": null, "levels": null, "tract_id": "40143007414", "tract_name": "74.14", "tags": {"building": "yes"}}}, {"type": "Feature", "geometry": {"type": "Polygon", "coordinates": [[[-95.8111304, 36.0687005], [-95.8111317, 36.0687475], [-95.8109503, 36.0687473], [-95.8109509, 36.0684523], [-95.8110032, 36.0683627], [-95.8111268, 36.0683615], [-95.8111304, 36.0687005]]]}, "properties": {"osm_id": 522678550, "building": "yes", "name": "", "height": null, "height_m": null, "levels": null, "tract_id": "40143007414", "tract_name": "74.14", "tags": {"building": "yes"}}}, {"type": "Feature", "geometry": {"type": "Polygon", "coordinates": [[[-95.8147296, 36.0694718], [-95.8147289, 36.069765], [-95.8144548, 36.0697646], [-95.8144556, 36.0694713], [-95.8147296, 36.0694718]]]}, "properties": {"osm_id": 522686817, "building": "yes", "name": "", "height": null, "height_m": null, "levels": null, "tract_id": "40143007414", "tract_name": "74.14", "tags": {"building": "yes"}}}, {"type": "Feature", "geometry": {"type": "Polygon", "coordinates": [[[-95.8147573, 36.0700053], [-95.8147574, 36.0700659], [-95.8147404, 36.0700727], [-95.8147391, 36.070223], [-95.8147575, 36.0702231], [-95.8147559, 36.0704127], [-95.8147388, 36.0704126], [-95.8147383, 36.0704685], [-95.8147499, 36.0704726], [-95.8147515, 36.0705293], [-95.8146836, 36.0705305], [-95.8146724, 36.0705192], [-95.8144279, 36.0705203], [-95.8144169, 36.0705301], [-95.8143513, 36.0705306], [-95.8143507, 36.0704738], [-95.8143687, 36.0704633], [-95.8143645, 36.0700723], [-95.8143519, 36.0700613], [-95.8143517, 36.0700059], [-95.8144192, 36.0700057], [-95.8144267, 36.0700163], [-95.8146816, 36.0700175], [-95.8146881, 36.0700054], [-95.8147573, 36.0700053]]]}, "properties": {"osm_id": 522686818, "building": "yes", "name": "", "height": null, "height_m": null, "levels": null, "tract_id": "40143007414", "tract_name": "74.14", "tags": {"building": "yes"}}}, {"type": "Feature", "geometry": {"type": "Polygon", "coordinates": [[[-95.8130668, 36.0690063], [-95.8130668, 36.0690948], [-95.8131334, 36.0690948], [-95.8131334, 36.0692531], [-95.8131082, 36.0692531], [-95.813108, 36.0694734], [-95.8130533, 36.0694734], [-95.8130531, 36.0696951], [-95.8130007, 36.0696951], [-95.8130006, 36.0699444], [-95.8132362, 36.0699442], [-95.8132358, 36.0696974], [-95.8132912, 36.0696974], [-95.8132909, 36.0694757], [-95.8133489, 36.0694757], [-95.8133486, 36.0692586], [-95.8133731, 36.0692586], [-95.8133729, 36.0690062], [-95.8130668, 36.0690063]]]}, "properties": {"osm_id": 522686819, "building": "apartments", "name": "", "height": null, "height_m": null, "levels": null, "tract_id": "40143007414", "tract_name": "74.14", "tags": {"building": "apartments"}}}, {"type": "Feature", "geometry": {"type": "Polygon", "coordinates": [[[-95.8133238, 36.0709281], [-95.8130572, 36.0709277], [-95.8130575, 36.070848], [-95.8131209, 36.0708481], [-95.8131213, 36.0706891], [-95.8130951, 36.0706891], [-95.8130957, 36.0704682], [-95.8130426, 36.0704681], [-95.8130432, 36.0702473], [-95.8129917, 36.0702472], [-95.8129922, 36.0700207], [-95.8131914, 36.0700211], [-95.8131908, 36.0702444], [-95.8132483, 36.0702445], [-95.8132477, 36.0704603], [-95.813299, 36.0704604], [-95.8132984, 36.0706836], [-95.8133245, 36.0706837], [-95.8133238, 36.0709281]]]}, "properties": {"osm_id": 522686820, "building": "apartments", "name": "", "height": null, "height_m": null, "levels": null, "tract_id": "40143007414", "tract_name": "74.14", "tags": {"building": "apartments"}}}, {"type": "Feature", "geometry": {"type": "Polygon", "coordinates": [[[-95.8129051, 36.069022], [-95.8127843, 36.0695142], [-95.8124993, 36.0694685], [-95.8125308, 36.0693401], [-95.8124574, 36.0693283], [-95.8124878, 36.0692047], [-95.8125081, 36.0692079], [-95.8125131, 36.0691876], [-95.8125681, 36.0691964], [-95.812622, 36.0689767], [-95.8129051, 36.069022]]]}, "properties": {"osm_id": 522686821, "building": "yes", "name": "", "height": null, "height_m": null, "levels": null, "tract_id": "40143007414", "tract_name": "74.14", "tags": {"building": "yes"}}}, {"type": "Feature", "geometry": {"type": "Polygon", "coordinates": [[[-95.798055, 36.0702774], [-95.7980232, 36.0702835], [-95.7980203, 36.0702736], [-95.7979391, 36.0702889], [-95.7979084, 36.0701841], [-95.7978893, 36.0701879], [-95.7978706, 36.0701252], [-95.7978954, 36.0701204], [-95.7978809, 36.0700719], [-95.7979884, 36.070051], [-95.7980041, 36.0701037], [-95.7980115, 36.0701022], [-95.7980141, 36.0701111], [-95.7980072, 36.0701125], [-95.798055, 36.0702774]]]}, "properties": {"osm_id": 544637897, "building": "yes", "name": "Taco Bueno", "height": null, "height_m": null, "levels": null, "tract_id": "40143007414", "tract_name": "74.14", "tags": {"amenity": "fast_food", "brand": "Taco Bueno", "brand:wikidata": "Q7673958", "building": "yes", "cuisine": "mexican", "name": "Taco Bueno", "takeaway": "yes"}}}, {"type": "Feature", "geometry": {"type": "Polygon", "coordinates": [[[-95.7981869, 36.0693754], [-95.7981863, 36.0694833], [-95.7982915, 36.0694836], [-95.7982914, 36.0694943], [-95.7984049, 36.0694947], [-95.798405, 36.0694726], [-95.7984843, 36.0694729], [-95.7984847, 36.0693865], [-95.7983879, 36.0693862], [-95.798388, 36.0693677], [-95.7983435, 36.0693675], [-95.7983434, 36.0693759], [-95.7981869, 36.0693754]]]}, "properties": {"osm_id": 544637898, "building": "yes", "name": "Burger King", "height": null, "height_m": null, "levels": null, "tract_id": "40143007414", "tract_name": "74.14", "tags": {"addr:city": "Broken Arrow", "addr:housenumber": "1600", "addr:postcode": "74012-1703", "addr:state": "OK", "addr:street": "North Elm Place", "air_conditioning": "yes", "amenity": "fast_food", "brand": "Burger King", "brand:wikidata": "Q177054", "building": "yes", "check_date": "2023-07-16", "cuisine": "burger", "delivery": "yes", "drive_through": "yes", "internet_access": "wlan", "name": "Burger King", "opening_hours": "Mo-Sa 06:00-22:00; Su 07:00-22:00", "phone": "+1 918-258-4470", "ref": "3003", "takeaway": "yes", "website": "https://www.bk.com/store-locator/store/restaurant_1647", "wheelchair": "yes"}}}, {"type": "Feature", "geometry": {"type": "Polygon", "coordinates": [[[-95.7979321, 36.0691228], [-95.7977605, 36.0691228], [-95.7977605, 36.0690673], [-95.7979321, 36.0690673], [-95.7979321, 36.0691228]]]}, "properties": {"osm_id": 544637899, "building": "retail", "name": "Reliable Auto Sales", "height": null, "height_m": null, "levels": null, "tract_id": "40143007414", "tract_name": "74.14", "tags": {"building": "retail", "name": "Reliable Auto Sales", "phone": "+1 918 258 7770", "second_hand": "only", "shop": "car", "website": "https://reliableba.com/"}}}, {"type": "Feature", "geometry": {"type": "Polygon", "coordinates": [[[-95.8001528, 36.0704555], [-95.799861, 36.0708694], [-95.7993542, 36.070636], [-95.799646, 36.0702221], [-95.8001528, 36.0704555]]]}, "properties": {"osm_id": 544637902, "building": "retail", "name": "Sutherlands Furniture Gallery", "height": null, "height_m": null, "levels": null, "tract_id": "40143007414", "tract_name": "74.14", "tags": {"addr:housenumber": "1812", "addr:postcode": "74012", "addr:street": "West Queens Circle", "building": "retail", "name": "Sutherlands Furniture Gallery", "opening_hours": "Mo-Sa 11:00-19:00; Su 11:00-17:00", "shop": "furniture"}}}, {"type": "Feature", "geometry": {"type": "Polygon", "coordinates": [[[-95.8012765, 36.0711404], [-95.8009878, 36.0715341], [-95.8005064, 36.0713035], [-95.8006271, 36.0711389], [-95.8003622, 36.0710119], [-95.8004861, 36.0708431], [-95.8008072, 36.0709969], [-95.8008513, 36.0709368], [-95.8012765, 36.0711404]]]}, "properties": {"osm_id": 544637903, "building": "yes", "name": "Nelson Nissan", "height": null, "height_m": null, "levels": null, "tract_id": "40143007414", "tract_name": "74.14", "tags": {"addr:city": "Broken Arrow", "addr:housenumber": "800", "addr:postcode": "74012", "addr:street": "West Queens Circle", "brand": "Nissan", "brand:wikidata": "Q20165", "building": "yes", "layer": "1", "name": "Nelson Nissan", "shop": "car"}}}, {"type": "Feature", "geometry": {"type": "Polygon", "coordinates": [[[-95.7982403, 36.0674711], [-95.7982404, 36.0673438], [-95.7982324, 36.0673438], [-95.7982324, 36.0673305], [-95.7982011, 36.0673305], [-95.7981386, 36.0673305], [-95.7980761, 36.0673304], [-95.7980136, 36.0673304], [-95.7979823, 36.0673304], [-95.7979823, 36.0673415], [-95.7979726, 36.0673415], [-95.7979725, 36.067471], [-95.7982403, 36.0674711]]]}, "properties": {"osm_id": 544645051, "building": "retail", "name": "", "height": null, "height_m": null, "levels": null, "tract_id": "40143007414", "tract_name": "74.14", "tags": {"building": "retail"}}}, {"type": "Feature", "geometry": {"type": "Polygon", "coordinates": [[[-95.7978087, 36.0682574], [-95.7978077, 36.068434], [-95.7980538, 36.068435], [-95.7980539, 36.0684217], [-95.7981081, 36.0684219], [-95.7981091, 36.0682523], [-95.7980624, 36.0682521], [-95.7980624, 36.0682633], [-95.7980527, 36.0682632], [-95.7980527, 36.0682584], [-95.7978087, 36.0682574]]]}, "properties": {"osm_id": 544645052, "building": "retail", "name": "Mom's Family Diner", "height": null, "height_m": null, "levels": null, "tract_id": "40143007414", "tract_name": "74.14", "tags": {"addr:city": "Broken Arrow", "addr:housenumber": "1530", "addr:postcode": "74012", "addr:state": "OK", "addr:street": "North Elm Place", "amenity": "restaurant", "building": "retail", "cuisine": "american;breakfast", "name": "Mom's Family Diner", "phone": "+1 918 893 4781"}}}, {"type": "Feature", "geometry": {"type": "Polygon", "coordinates": [[[-95.7996906, 36.0624041], [-95.7996906, 36.0613114], [-95.7991612, 36.0613048], [-95.7991612, 36.061717], [-95.7991215, 36.061717], [-95.7991215, 36.0619933], [-95.799152, 36.0619966], [-95.7991499, 36.0623203], [-95.799339, 36.062322], [-95.7993532, 36.0624041], [-95.7996906, 36.0624041]]]}, "properties": {"osm_id": 548770695, "building": "commercial", "name": "Xtreme Racing & Entertainment", "height": null, "height_m": 3.0, "levels": 1, "tract_id": "40143007414", "tract_name": "74.14", "tags": {"addr:city": "Broken Arrow", "addr:housenumber": "708", "addr:postcode": "74012", "addr:state": "OK", "addr:street": "West Kenosha Street", "building": "commercial", "building:levels": "1", "description": "Go-Kart Track and Virtual Reality", "name": "Xtreme Racing & Entertainment"}}}, {"type": "Feature", "geometry": {"type": "Polygon", "coordinates": [[[-95.8065213, 36.0722303], [-95.8065179, 36.0719245], [-95.8068618, 36.0719221], [-95.8068651, 36.0722278], [-95.8065213, 36.0722303]]]}, "properties": {"osm_id": 725187578, "building": "industrial", "name": "", "height": null, "height_m": null, "levels": null, "tract_id": "40143007414", "tract_name": "74.14", "tags": {"building": "industrial"}}}, {"type": "Feature", "geometry": {"type": "Polygon", "coordinates": [[[-95.8078102, 36.0734713], [-95.8073962, 36.0734834], [-95.807401, 36.0735899], [-95.8071947, 36.0735959], [-95.8072121, 36.073984], [-95.8073761, 36.0739792], [-95.8073745, 36.0739421], [-95.8074545, 36.0739398], [-95.8074517, 36.0738772], [-95.8074737, 36.0738766], [-95.8074704, 36.0738024], [-95.8074482, 36.0738031], [-95.8074439, 36.0737071], [-95.8078203, 36.0736961], [-95.8078102, 36.0734713]]]}, "properties": {"osm_id": 725187579, "building": "yes", "name": "", "height": null, "height_m": null, "levels": null, "tract_id": "40143007414", "tract_name": "74.14", "tags": {"building": "yes", "office": "company"}}}, {"type": "Feature", "geometry": {"type": "Polygon", "coordinates": [[[-95.8068838, 36.074033], [-95.8065504, 36.0740355], [-95.8065464, 36.0736935], [-95.8068798, 36.0736909], [-95.8068838, 36.074033]]]}, "properties": {"osm_id": 725187580, "building": "commercial", "name": "", "height": null, "height_m": null, "levels": null, "tract_id": "40143007414", "tract_name": "74.14", "tags": {"building": "commercial"}}}, {"type": "Feature", "geometry": {"type": "Polygon", "coordinates": [[[-95.8063397, 36.0739661], [-95.8062461, 36.0739814], [-95.8062597, 36.0740341], [-95.8060609, 36.0740724], [-95.8059546, 36.0740163], [-95.8058809, 36.0737509], [-95.8059146, 36.0737441], [-95.8058936, 36.0736786], [-95.8061461, 36.0736293], [-95.8061934, 36.0737926], [-95.8063397, 36.0737662], [-95.8063397, 36.0739661]]]}, "properties": {"osm_id": 725187581, "building": "commercial", "name": "Cycle City", "height": null, "height_m": null, "levels": null, "tract_id": "40143007414", "tract_name": "74.14", "tags": {"brand": "Polaris", "building": "commercial", "name": "Cycle City", "note": "other brands also - only Polaris is the most visible brand name from the highway.", "shop": "atv"}}}, {"type": "Feature", "geometry": {"type": "Polygon", "coordinates": [[[-95.8061978, 36.0735177], [-95.806201, 36.0736039], [-95.8063358, 36.0736006], [-95.8063326, 36.0735144], [-95.8061978, 36.0735177]]]}, "properties": {"osm_id": 725187582, "building": "yes", "name": "", "height": null, "height_m": null, "levels": null, "tract_id": "40143007414", "tract_name": "74.14", "tags": {"building": "yes"}}}, {"type": "Feature", "geometry": {"type": "Polygon", "coordinates": [[[-95.8093942, 36.0694309], [-95.8086837, 36.0691075], [-95.8086157, 36.0692051], [-95.8087319, 36.0692579], [-95.8086625, 36.0693575], [-95.8092569, 36.069628], [-95.8093942, 36.0694309]]]}, "properties": {"osm_id": 726969894, "building": "yes", "name": "", "height": null, "height_m": null, "levels": null, "tract_id": "40143007414", "tract_name": "74.14", "tags": {"building": "yes"}}}, {"type": "Feature", "geometry": {"type": "Polygon", "coordinates": [[[-95.8086709, 36.0704681], [-95.8079592, 36.070143], [-95.8081215, 36.069911], [-95.8082483, 36.0699689], [-95.8082402, 36.0699805], [-95.8083368, 36.0700246], [-95.8083713, 36.0699754], [-95.8084624, 36.0700171], [-95.8084401, 36.0700489], [-95.8084635, 36.0700596], [-95.8085053, 36.0699999], [-95.8086648, 36.0700729], [-95.8086751, 36.0700582], [-95.8088608, 36.070143], [-95.808764, 36.0702815], [-95.8087923, 36.0702944], [-95.8086709, 36.0704681]]]}, "properties": {"osm_id": 726969895, "building": "yes", "name": "", "height": null, "height_m": null, "levels": null, "tract_id": "40143007414", "tract_name": "74.14", "tags": {"building": "yes"}}}, {"type": "Feature", "geometry": {"type": "Polygon", "coordinates": [[[-95.8063382, 36.0699973], [-95.8062903, 36.0699978], [-95.8062898, 36.0699568], [-95.8063377, 36.0699564], [-95.8063382, 36.0699973]]]}, "properties": {"osm_id": 726969896, "building": "yes", "name": "", "height": null, "height_m": null, "levels": null, "tract_id": "40143007414", "tract_name": "74.14", "tags": {"building": "yes"}}}, {"type": "Feature", "geometry": {"type": "Polygon", "coordinates": [[[-95.8063123, 36.0697986], [-95.8063115, 36.069759], [-95.8063392, 36.0697587], [-95.80634, 36.0697983], [-95.8063123, 36.0697986]]]}, "properties": {"osm_id": 726969897, "building": "yes", "name": "", "height": null, "height_m": null, "levels": null, "tract_id": "40143007414", "tract_name": "74.14", "tags": {"building": "yes"}}}, {"type": "Feature", "geometry": {"type": "Polygon", "coordinates": [[[-95.8063062, 36.0695887], [-95.8063065, 36.069565], [-95.8062779, 36.0695647], [-95.8062775, 36.0695884], [-95.8063062, 36.0695887]]]}, "properties": {"osm_id": 726969898, "building": "yes", "name": "", "height": null, "height_m": null, "levels": null, "tract_id": "40143007414", "tract_name": "74.14", "tags": {"building": "yes"}}}, {"type": "Feature", "geometry": {"type": "Polygon", "coordinates": [[[-95.8060775, 36.0695461], [-95.806077, 36.0694812], [-95.8061325, 36.0694809], [-95.8061324, 36.0694697], [-95.806136, 36.0694697], [-95.806136, 36.0694625], [-95.806118, 36.0694626], [-95.8061177, 36.0694234], [-95.8062936, 36.0694224], [-95.8062942, 36.0694942], [-95.8062601, 36.0694944], [-95.8062603, 36.0695257], [-95.8062422, 36.0695258], [-95.8062423, 36.0695452], [-95.8060775, 36.0695461]]]}, "properties": {"osm_id": 726969899, "building": "yes", "name": "", "height": null, "height_m": null, "levels": null, "tract_id": "40143007414", "tract_name": "74.14", "tags": {"building": "yes"}}}, {"type": "Feature", "geometry": {"type": "Polygon", "coordinates": [[[-95.7980986, 36.061499], [-95.7979827, 36.0614995], [-95.7979826, 36.061475], [-95.797969, 36.061475], [-95.7979685, 36.0613847], [-95.7979819, 36.0613847], [-95.7979814, 36.0612954], [-95.7980975, 36.061295], [-95.7980986, 36.061499]]]}, "properties": {"osm_id": 739583905, "building": "commercial", "name": "World Finance", "height": null, "height_m": null, "levels": null, "tract_id": "40143007414", "tract_name": "74.14", "tags": {"branch": "Loan and Tax Services", "brand": "World Finance", "brand:wikidata": "Q3569971", "building": "commercial", "name": "World Finance", "shop": "money_lender"}}}, {"type": "Feature", "geometry": {"type": "Polygon", "coordinates": [[[-95.7979455, 36.0615141], [-95.7977798, 36.0615141], [-95.7977798, 36.0613733], [-95.7979089, 36.0613733], [-95.7979089, 36.0614631], [-95.7979455, 36.0614631], [-95.7979455, 36.0615141]]]}, "properties": {"osm_id": 739583906, "building": "commercial", "name": "Papa John's", "height": null, "height_m": null, "levels": null, "tract_id": "40143007414", "tract_name": "74.14", "tags": {"air_conditioning": "yes", "amenity": "fast_food", "brand": "Papa John's", "brand:wikidata": "Q2759586", "building": "commercial", "cuisine": "pizza", "name": "Papa John's", "payment:credit_cards": "yes", "payment:debit_cards": "yes", "takeaway": "yes", "wheelchair": "yes"}}}, {"type": "Feature", "geometry": {"type": "Polygon", "coordinates": [[[-95.8096577, 36.0692175], [-95.8089131, 36.0689336], [-95.8090583, 36.0686838], [-95.8093499, 36.0687942], [-95.8093884, 36.0687209], [-95.8095025, 36.0687671], [-95.8094616, 36.0688393], [-95.8096701, 36.0689205], [-95.8096539, 36.0689516], [-95.8097842, 36.0690018], [-95.8096577, 36.0692175]]]}, "properties": {"osm_id": 965183174, "building": "industrial", "name": "", "height": null, "height_m": null, "levels": null, "tract_id": "40143007414", "tract_name": "74.14", "tags": {"building": "industrial"}}}, {"type": "Feature", "geometry": {"type": "Polygon", "coordinates": [[[-95.8105656, 36.0696752], [-95.8102799, 36.0699112], [-95.81007, 36.0697452], [-95.8100564, 36.0697564], [-95.8099625, 36.0696822], [-95.8100314, 36.0696252], [-95.8098438, 36.0694769], [-95.8101648, 36.0692116], [-95.8101848, 36.0692274], [-95.810256, 36.0691685], [-95.8102695, 36.0691791], [-95.8103417, 36.0691194], [-95.8104206, 36.0691818], [-95.810433, 36.0691715], [-95.8104693, 36.0692002], [-95.8104544, 36.0692125], [-95.8105778, 36.0693101], [-95.8105062, 36.0693693], [-95.8105159, 36.069377], [-95.8103557, 36.0695093], [-95.8105656, 36.0696752]]]}, "properties": {"osm_id": 965183175, "building": "industrial", "name": "", "height": null, "height_m": null, "levels": null, "tract_id": "40143007414", "tract_name": "74.14", "tags": {"building": "industrial"}}}, {"type": "Feature", "geometry": {"type": "Polygon", "coordinates": [[[-95.8141105, 36.0705643], [-95.8138543, 36.0705658], [-95.8138516, 36.0701537], [-95.8141087, 36.070153], [-95.8141105, 36.0705643]]]}, "properties": {"osm_id": 965183188, "building": "industrial", "name": "", "height": null, "height_m": null, "levels": null, "tract_id": "40143007414", "tract_name": "74.14", "tags": {"building": "industrial"}}}, {"type": "Feature", "geometry": {"type": "Polygon", "coordinates": [[[-95.8049965, 36.0730137], [-95.8047557, 36.0730117], [-95.8047048, 36.0729726], [-95.8047048, 36.0724952], [-95.8048562, 36.0724942], [-95.8048562, 36.0723869], [-95.8049989, 36.0723848], [-95.8049965, 36.0730137]]]}, "properties": {"osm_id": 965183189, "building": "industrial", "name": "Air Assurance", "height": null, "height_m": null, "levels": null, "tract_id": "40143007414", "tract_name": "74.14", "tags": {"building": "industrial", "craft": "hvac", "name": "Air Assurance"}}}, {"type": "Feature", "geometry": {"type": "Polygon", "coordinates": [[[-95.8048157, 36.0719878], [-95.8046532, 36.0719896], [-95.8046511, 36.0718718], [-95.8048137, 36.0718699], [-95.8048157, 36.0719878]]]}, "properties": {"osm_id": 965183190, "building": "shed", "name": "", "height": null, "height_m": null, "levels": null, "tract_id": "40143007414", "tract_name": "74.14", "tags": {"building": "shed"}}}, {"type": "Feature", "geometry": {"type": "Polygon", "coordinates": [[[-95.8041514, 36.0714656], [-95.8038205, 36.0719359], [-95.8035227, 36.0718111], [-95.8033324, 36.0720808], [-95.8034206, 36.0721231], [-95.8033158, 36.0722702], [-95.8029022, 36.0720763], [-95.8030042, 36.0719314], [-95.8030952, 36.0719693], [-95.8033351, 36.0716483], [-95.8030952, 36.0715436], [-95.8031504, 36.0714611], [-95.8032304, 36.0714923], [-95.8034675, 36.0711535], [-95.8041514, 36.0714656]]]}, "properties": {"osm_id": 965183191, "building": "yes", "name": "Jim Norton Ford", "height": null, "height_m": null, "levels": null, "tract_id": "40143007414", "tract_name": "74.14", "tags": {"brand": "Ford", "brand:wikidata": "Q44294", "building": "yes", "name": "Jim Norton Ford", "shop": "car"}}}, {"type": "Feature", "geometry": {"type": "Polygon", "coordinates": [[[-95.8055986, 36.0739036], [-95.805187, 36.0737467], [-95.805246, 36.073644], [-95.8053608, 36.0736875], [-95.805373, 36.0736645], [-95.8054198, 36.0736522], [-95.8056556, 36.0737417], [-95.8056718, 36.0737787], [-95.8055986, 36.0739036]]]}, "properties": {"osm_id": 965183192, "building": "commercial", "name": "Cycle City Accessories and Apparel", "height": null, "height_m": null, "levels": null, "tract_id": "40143007414", "tract_name": "74.14", "tags": {"building": "commercial", "name": "Cycle City Accessories and Apparel", "shop": "clothes"}}}, {"type": "Feature", "geometry": {"type": "Polygon", "coordinates": [[[-95.8147367, 36.0624193], [-95.8147375, 36.0625136], [-95.8147972, 36.0625133], [-95.8147972, 36.0625223], [-95.8148388, 36.0625221], [-95.8148387, 36.0625134], [-95.8149122, 36.062513], [-95.8149117, 36.0624594], [-95.8149222, 36.0624594], [-95.8149219, 36.0624183], [-95.8147367, 36.0624193]]]}, "properties": {"osm_id": 973774787, "building": "yes", "name": "Dunkin'", "height": null, "height_m": null, "levels": null, "tract_id": "40143007414", "tract_name": "74.14", "tags": {"addr:city": "Broken Arrow", "addr:housenumber": "1101", "addr:postcode": "74012", "addr:state": "OK", "addr:street": "North Aspen Avenue", "air_conditioning": "yes", "alt_name": "Dunkin' Donuts", "amenity": "fast_food", "brand": "Dunkin'", "brand:wikidata": "Q847743", "building": "yes", "cuisine": "donut;coffee_shop", "drive_through": "yes", "name": "Dunkin'", "opening_hours": "Mo-Su 05:00-21:00", "phone": "+1 918-994-7570", "ref": "356819", "takeaway": "yes", "website": "https://locations.dunkindonuts.com/en/ok/broken-arrow/1101-n-aspen-ave/356819", "wheelchair": "yes"}}}, {"type": "Feature", "geometry": {"type": "Polygon", "coordinates": [[[-95.8014329, 36.0612626], [-95.8013953, 36.0612626], [-95.8013952, 36.0612895], [-95.8012572, 36.0612894], [-95.8012574, 36.0611477], [-95.8013956, 36.0611478], [-95.8013955, 36.0611788], [-95.801433, 36.0611788], [-95.8014329, 36.0612626]]]}, "properties": {"osm_id": 1020545008, "building": "commercial", "name": "El Paisa Tire Shop", "height": null, "height_m": null, "levels": null, "tract_id": "40143007414", "tract_name": "74.14", "tags": {"building": "commercial", "name": "El Paisa Tire Shop", "shop": "tyres"}}}, {"type": "Feature", "geometry": {"type": "Polygon", "coordinates": [[[-95.8011189, 36.0615019], [-95.8009112, 36.0615002], [-95.8009063, 36.0611695], [-95.8011175, 36.0611695], [-95.8011189, 36.0615019]]]}, "properties": {"osm_id": 1020545009, "building": "commercial", "name": "", "height": null, "height_m": null, "levels": null, "tract_id": "40143007414", "tract_name": "74.14", "tags": {"building": "commercial", "office": "yes"}}}, {"type": "Feature", "geometry": {"type": "Polygon", "coordinates": [[[-95.800752, 36.0612889], [-95.8005918, 36.0612886], [-95.8005921, 36.0612009], [-95.8007523, 36.0612012], [-95.800752, 36.0612889]]]}, "properties": {"osm_id": 1020545010, "building": "commercial", "name": "", "height": null, "height_m": null, "levels": null, "tract_id": "40143007414", "tract_name": "74.14", "tags": {"building": "commercial", "shop": "clothes"}}}, {"type": "Feature", "geometry": {"type": "Polygon", "coordinates": [[[-95.7980666, 36.0621638], [-95.798477, 36.0621634], [-95.7984775, 36.0624757], [-95.7981285, 36.0624761], [-95.7981286, 36.062543], [-95.7980672, 36.0625431], [-95.798067, 36.0624671], [-95.7980669, 36.0623912], [-95.7980668, 36.0623154], [-95.7980667, 36.0622395], [-95.7980666, 36.0621638]]]}, "properties": {"osm_id": 1030399167, "building": "retail", "name": "B&B Liquor & Wine", "height": null, "height_m": null, "levels": null, "tract_id": "40143007414", "tract_name": "74.14", "tags": {"addr:housenumber": "1000", "addr:postcode": "74012", "addr:street": "North Elm Place", "building": "retail", "name": "B&B Liquor & Wine", "opening_hours": "Mo-Sa 09:00-21:30; Su 12:00-18:00", "payment:credit_cards": "yes", "payment:debit_cards": "yes", "roof:orientation": "across", "roof:shape": "round", "shop": "alcohol", "wheelchair": "yes"}}}, {"type": "Feature", "geometry": {"type": "Polygon", "coordinates": [[[-95.8001368, 36.0614763], [-95.7997982, 36.0614769], [-95.7997979, 36.0613425], [-95.8001365, 36.0613419], [-95.8001368, 36.0614763]]]}, "properties": {"osm_id": 1060537799, "building": "commercial", "name": "", "height": null, "height_m": null, "levels": null, "tract_id": "40143007414", "tract_name": "74.14", "tags": {"building": "commercial"}}}, {"type": "Feature", "geometry": {"type": "Polygon", "coordinates": [[[-95.8018429, 36.0613051], [-95.8018428, 36.0613506], [-95.8017308, 36.0613503], [-95.8017309, 36.0613051], [-95.8016597, 36.0613051], [-95.8016597, 36.0612032], [-95.8018683, 36.0612032], [-95.8018683, 36.0613051], [-95.8018429, 36.0613051]]]}, "properties": {"osm_id": 1060537800, "building": "commercial", "name": "Detail Boss", "height": null, "height_m": null, "levels": null, "tract_id": "40143007414", "tract_name": "74.14", "tags": {"building": "commercial", "name": "Detail Boss", "shop": "car_detail"}}}, {"type": "Feature", "geometry": {"type": "Polygon", "coordinates": [[[-95.8007544, 36.0614764], [-95.8004513, 36.0614774], [-95.8004507, 36.0613636], [-95.8007538, 36.0613625], [-95.8007544, 36.0614764]]]}, "properties": {"osm_id": 1167878218, "building": "commercial", "name": "", "height": null, "height_m": null, "levels": null, "tract_id": "40143007414", "tract_name": "74.14", "tags": {"building": "commercial"}}}, {"type": "Feature", "geometry": {"type": "Polygon", "coordinates": [[[-95.7983735, 36.0613126], [-95.7983733, 36.0612804], [-95.7983794, 36.0612804], [-95.7983794, 36.0612786], [-95.7984082, 36.0612785], [-95.7984082, 36.0612802], [-95.7984136, 36.0612802], [-95.7984138, 36.0613124], [-95.7984208, 36.0613124], [-95.7984208, 36.0613163], [-95.7984417, 36.0613162], [-95.7984599, 36.0613161], [-95.7984601, 36.0613441], [-95.7984417, 36.0613442], [-95.798421, 36.0613443], [-95.7984216, 36.0614156], [-95.7984146, 36.0614157], [-95.7984149, 36.0614495], [-95.7984094, 36.0614496], [-95.7984095, 36.0614574], [-95.7983807, 36.0614575], [-95.7983807, 36.0614497], [-95.7983746, 36.0614497], [-95.7983743, 36.0614159], [-95.7983667, 36.0614159], [-95.7983662, 36.0613446], [-95.798346, 36.0613447], [-95.7983269, 36.0613447], [-95.7983267, 36.0613167], [-95.7983459, 36.0613166], [-95.798366, 36.0613165], [-95.7983659, 36.0613127], [-95.7983735, 36.0613126]]]}, "properties": {"osm_id": 1167944629, "building": "commercial", "name": "Eggroll Street", "height": null, "height_m": null, "levels": null, "tract_id": "40143007414", "tract_name": "74.14", "tags": {"amenity": "fast_food", "building": "commercial", "cuisine": "chinese", "name": "Eggroll Street"}}}, {"type": "Feature", "geometry": {"type": "Polygon", "coordinates": [[[-95.8131474, 36.0614378], [-95.8130369, 36.0614378], [-95.8130369, 36.0613948], [-95.8131474, 36.0613948], [-95.8131474, 36.0614378]]]}, "properties": {"osm_id": 1172619786, "building": "roof", "name": "", "height": null, "height_m": null, "levels": null, "tract_id": "40143007414", "tract_name": "74.14", "tags": {"building": "roof"}}}, {"type": "Feature", "geometry": {"type": "Polygon", "coordinates": [[[-95.8136011, 36.061544], [-95.8136001, 36.0613684], [-95.8135888, 36.0613681], [-95.8135874, 36.061321], [-95.8135497, 36.0612878], [-95.81355, 36.0612676], [-95.81353, 36.0612679], [-95.8134928, 36.0612684], [-95.8134928, 36.0612942], [-95.8134346, 36.0612931], [-95.8134349, 36.061341], [-95.8132637, 36.0613396], [-95.813263, 36.0614313], [-95.8134298, 36.061429], [-95.8134288, 36.0615049], [-95.8134757, 36.0615052], [-95.8134767, 36.0615913], [-95.8135716, 36.0615908], [-95.8135713, 36.061544], [-95.8136011, 36.061544]]]}, "properties": {"osm_id": 1172619788, "building": "commercial", "name": "Dental Depot", "height": null, "height_m": null, "levels": null, "tract_id": "40143007414", "tract_name": "74.14", "tags": {"addr:city": "Broken Arrow", "addr:housenumber": "1950", "addr:postcode": "74012", "addr:state": "OK", "addr:street": "West Kenosha Street", "amenity": "dentist", "building": "commercial", "healthcare": "dentist", "healthcare:speciality": "dentistry;orthodontics;dental_oral_maxillo_facial_surgery", "name": "Dental Depot", "opening_hours": "Mo-Fr 08:00-17:00", "phone": "+1 918-518-1526", "website": "https://dentaldepot.net/locations/broken-arrow/"}}}, {"type": "Feature", "geometry": {"type": "Polygon", "coordinates": [[[-95.8020982, 36.0614069], [-95.8020982, 36.0615441], [-95.8019279, 36.0615441], [-95.8019279, 36.0611999], [-95.8020982, 36.0611999], [-95.8020982, 36.0612682], [-95.8022665, 36.0612682], [-95.8022665, 36.0611993], [-95.8024375, 36.0611993], [-95.8024375, 36.0614069], [-95.8020982, 36.0614069]]]}, "properties": {"osm_id": 1175779454, "building": "commercial", "name": "", "height": null, "height_m": null, "levels": null, "tract_id": "40143007414", "tract_name": "74.14", "tags": {"addr:postcode": "74012", "addr:street": "West Kenosha Street", "building": "commercial", "shop": "yes"}}}, {"type": "Feature", "geometry": {"type": "Polygon", "coordinates": [[[-95.8027701, 36.061684], [-95.8027688, 36.0611847], [-95.8029424, 36.0611844], [-95.8029437, 36.0616837], [-95.8027701, 36.061684]]]}, "properties": {"osm_id": 1175779455, "building": "commercial", "name": "Rhema Bible Church We Care Center", "height": null, "height_m": null, "levels": null, "tract_id": "40143007414", "tract_name": "74.14", "tags": {"addr:postcode": "74012", "addr:street": "West Kenosha Street", "building": "commercial", "name": "Rhema Bible Church We Care Center", "shop": "yes"}}}, {"type": "Feature", "geometry": {"type": "Polygon", "coordinates": [[[-95.8091055, 36.0615118], [-95.8091055, 36.0614975], [-95.8093462, 36.0614973], [-95.8093804, 36.0615243], [-95.8094361, 36.0615242], [-95.8094763, 36.0614931], [-95.8094762, 36.0614453], [-95.8094403, 36.06142], [-95.8094401, 36.061278], [-95.8094601, 36.0612779], [-95.80946, 36.0612194], [-95.8095272, 36.0612194], [-95.8095272, 36.0612076], [-95.8096996, 36.0612075], [-95.8096997, 36.0612687], [-95.809731, 36.0612687], [-95.8097311, 36.0613929], [-95.8096638, 36.0613929], [-95.8096639, 36.0615241], [-95.8096641, 36.061658], [-95.8089345, 36.0616585], [-95.8089345, 36.0616379], [-95.8089191, 36.0616379], [-95.808919, 36.0615615], [-95.8089344, 36.0615615], [-95.8089343, 36.0614981], [-95.8090317, 36.061498], [-95.8090317, 36.0615118], [-95.8091055, 36.0615118]]]}, "properties": {"osm_id": 1175779456, "building": "commercial", "name": "", "height": null, "height_m": null, "levels": null, "tract_id": "40143007414", "tract_name": "74.14", "tags": {"addr:postcode": "74012", "addr:street": "West Kenosha Street", "building": "commercial"}}}, {"type": "Feature", "geometry": {"type": "Polygon", "coordinates": [[[-95.8098796, 36.0613533], [-95.8098719, 36.0613533], [-95.8098719, 36.0612877], [-95.8098867, 36.0612877], [-95.8098867, 36.0612124], [-95.8100268, 36.0612124], [-95.8100268, 36.0612877], [-95.8100892, 36.0612877], [-95.8100892, 36.0613533], [-95.8100268, 36.0613533], [-95.8100268, 36.0614308], [-95.8098867, 36.0614308], [-95.8098867, 36.0613926], [-95.8098796, 36.0613926], [-95.8098796, 36.0613533]]]}, "properties": {"osm_id": 1175779457, "building": "commercial", "name": "50s Diner", "height": null, "height_m": null, "levels": null, "tract_id": "40143007414", "tract_name": "74.14", "tags": {"addr:postcode": "74012", "addr:street": "West Kenosha Street", "amenity": "restaurant", "building": "commercial", "cuisine": "american;burger", "name": "50s Diner"}}}, {"type": "Feature", "geometry": {"type": "Polygon", "coordinates": [[[-95.8104546, 36.0613034], [-95.8104714, 36.0613034], [-95.8104714, 36.0614216], [-95.8104546, 36.0614216], [-95.8104546, 36.0614574], [-95.8104426, 36.0614574], [-95.8104426, 36.0615631], [-95.8102521, 36.0615631], [-95.8102521, 36.0612552], [-95.8102883, 36.0612552], [-95.8102883, 36.0612498], [-95.8104546, 36.0612498], [-95.8104546, 36.0613034]]]}, "properties": {"osm_id": 1175779458, "building": "commercial", "name": "", "height": null, "height_m": null, "levels": null, "tract_id": "40143007414", "tract_name": "74.14", "tags": {"addr:postcode": "74012", "addr:street": "West Kenosha Street", "building": "commercial"}}}, {"type": "Feature", "geometry": {"type": "Polygon", "coordinates": [[[-95.7991934, 36.0628152], [-95.7992698, 36.0628144], [-95.7992693, 36.0627868], [-95.7993398, 36.0627861], [-95.7993402, 36.0628137], [-95.7993811, 36.0628133], [-95.7993831, 36.0629399], [-95.7993081, 36.0629407], [-95.7993075, 36.0629082], [-95.7991949, 36.0629093], [-95.7991934, 36.0628152]]]}, "properties": {"osm_id": 1188501427, "building": "yes", "name": "", "height": null, "height_m": null, "levels": null, "tract_id": "40143007414", "tract_name": "74.14", "tags": {"building": "yes"}}}, {"type": "Feature", "geometry": {"type": "Polygon", "coordinates": [[[-95.7992148, 36.0627713], [-95.7991643, 36.0627719], [-95.7991639, 36.0627432], [-95.7992144, 36.0627426], [-95.7992148, 36.0627713]]]}, "properties": {"osm_id": 1188501428, "building": "yes", "name": "", "height": null, "height_m": null, "levels": null, "tract_id": "40143007414", "tract_name": "74.14", "tags": {"building": "yes"}}}, {"type": "Feature", "geometry": {"type": "Polygon", "coordinates": [[[-95.799129, 36.0626824], [-95.7990808, 36.062683], [-95.7990801, 36.0626358], [-95.7991282, 36.0626353], [-95.799129, 36.0626824]]]}, "properties": {"osm_id": 1188501429, "building": "yes", "name": "", "height": null, "height_m": null, "levels": null, "tract_id": "40143007414", "tract_name": "74.14", "tags": {"building": "yes"}}}, {"type": "Feature", "geometry": {"type": "Polygon", "coordinates": [[[-95.7991243, 36.062805], [-95.7991263, 36.0629276], [-95.799015, 36.0629288], [-95.7990145, 36.0628972], [-95.798932, 36.062898], [-95.7989306, 36.062807], [-95.7990278, 36.062806], [-95.7990272, 36.0627694], [-95.7990909, 36.0627687], [-95.7990915, 36.0628053], [-95.7991243, 36.062805]]]}, "properties": {"osm_id": 1188501430, "building": "yes", "name": "", "height": null, "height_m": null, "levels": null, "tract_id": "40143007414", "tract_name": "74.14", "tags": {"building": "yes"}}}, {"type": "Feature", "geometry": {"type": "Polygon", "coordinates": [[[-95.7988769, 36.0629302], [-95.7987381, 36.0629316], [-95.7987377, 36.0629061], [-95.7986839, 36.0629066], [-95.7986824, 36.062818], [-95.798875, 36.0628159], [-95.7988769, 36.0629302]]]}, "properties": {"osm_id": 1188501431, "building": "yes", "name": "", "height": null, "height_m": null, "levels": null, "tract_id": "40143007414", "tract_name": "74.14", "tags": {"building": "yes"}}}, {"type": "Feature", "geometry": {"type": "Polygon", "coordinates": [[[-95.7986268, 36.062689], [-95.7985776, 36.0626895], [-95.7985771, 36.0626597], [-95.7986263, 36.0626592], [-95.7986268, 36.062689]]]}, "properties": {"osm_id": 1188501432, "building": "yes", "name": "", "height": null, "height_m": null, "levels": null, "tract_id": "40143007414", "tract_name": "74.14", "tags": {"building": "yes"}}}, {"type": "Feature", "geometry": {"type": "Polygon", "coordinates": [[[-95.7986348, 36.0628413], [-95.7986361, 36.0629187], [-95.7985637, 36.0629195], [-95.798564, 36.0629346], [-95.7984996, 36.0629353], [-95.7984994, 36.0629202], [-95.7984309, 36.0629209], [-95.7984296, 36.0628434], [-95.7985336, 36.0628423], [-95.7985331, 36.0628114], [-95.7986001, 36.0628107], [-95.7986006, 36.0628416], [-95.7986348, 36.0628413]]]}, "properties": {"osm_id": 1188501433, "building": "yes", "name": "", "height": null, "height_m": null, "levels": null, "tract_id": "40143007414", "tract_name": "74.14", "tags": {"building": "yes"}}}, {"type": "Feature", "geometry": {"type": "Polygon", "coordinates": [[[-95.7983787, 36.0628321], [-95.7983791, 36.062935], [-95.7982828, 36.0629353], [-95.7982827, 36.0629187], [-95.7982027, 36.0629189], [-95.7982023, 36.0628326], [-95.7983787, 36.0628321]]]}, "properties": {"osm_id": 1188501434, "building": "yes", "name": "", "height": null, "height_m": null, "levels": null, "tract_id": "40143007414", "tract_name": "74.14", "tags": {"building": "yes"}}}, {"type": "Feature", "geometry": {"type": "Polygon", "coordinates": [[[-95.7983304, 36.0627063], [-95.7982928, 36.0627068], [-95.7982923, 36.0626841], [-95.7983299, 36.0626836], [-95.7983304, 36.0627063]]]}, "properties": {"osm_id": 1188501435, "building": "yes", "name": "", "height": null, "height_m": null, "levels": null, "tract_id": "40143007414", "tract_name": "74.14", "tags": {"building": "yes"}}}, {"type": "Feature", "geometry": {"type": "Polygon", "coordinates": [[[-95.7981567, 36.0627171], [-95.7980977, 36.0627167], [-95.7980984, 36.0626603], [-95.7981574, 36.0626608], [-95.7981567, 36.0627171]]]}, "properties": {"osm_id": 1188501436, "building": "yes", "name": "", "height": null, "height_m": null, "levels": null, "tract_id": "40143007414", "tract_name": "74.14", "tags": {"building": "yes"}}}, {"type": "Feature", "geometry": {"type": "Polygon", "coordinates": [[[-95.7981299, 36.0628424], [-95.7981305, 36.0629198], [-95.7980601, 36.0629202], [-95.7980602, 36.0629327], [-95.7979952, 36.0629331], [-95.7979951, 36.0629206], [-95.79793, 36.0629209], [-95.7979294, 36.0628434], [-95.7981299, 36.0628424]]]}, "properties": {"osm_id": 1188501437, "building": "yes", "name": "", "height": null, "height_m": null, "levels": null, "tract_id": "40143007414", "tract_name": "74.14", "tags": {"building": "yes"}}}, {"type": "Feature", "geometry": {"type": "Polygon", "coordinates": [[[-95.7979032, 36.0628358], [-95.7979047, 36.0629359], [-95.7978103, 36.0629367], [-95.79781, 36.0629158], [-95.7977287, 36.0629165], [-95.7977276, 36.0628375], [-95.7979032, 36.0628358]]]}, "properties": {"osm_id": 1188501438, "building": "yes", "name": "", "height": null, "height_m": null, "levels": null, "tract_id": "40143007414", "tract_name": "74.14", "tags": {"building": "yes"}}}, {"type": "Feature", "geometry": {"type": "Polygon", "coordinates": [[[-95.798067, 36.0624671], [-95.7980672, 36.0625431], [-95.7979116, 36.0625432], [-95.7979114, 36.0624673], [-95.798067, 36.0624671]]]}, "properties": {"osm_id": 1188501487, "building": "retail", "name": "Flippo Insurance", "height": null, "height_m": null, "levels": null, "tract_id": "40143007414", "tract_name": "74.14", "tags": {"addr:housenumber": "1024", "addr:postcode": "74012", "addr:street": "North Elm Place", "building": "retail", "building:colour": "brown", "building:material": "brick", "description": "auto, home, business, health", "name": "Flippo Insurance", "office": "insurance", "phone": "+1 918 994 6494", "roof:colour": "white", "roof:material": "tar_paper", "roof:shape": "flat"}}}, {"type": "Feature", "geometry": {"type": "Polygon", "coordinates": [[[-95.7980669, 36.0623912], [-95.798067, 36.0624671], [-95.7979114, 36.0624673], [-95.7979113, 36.0623914], [-95.7980669, 36.0623912]]]}, "properties": {"osm_id": 1188501488, "building": "retail", "name": "China Massage", "height": null, "height_m": null, "levels": null, "tract_id": "40143007414", "tract_name": "74.14", "tags": {"addr:housenumber": "1020", "addr:postcode": "74012", "addr:street": "North Elm Place", "building": "retail", "building:colour": "brown", "building:material": "brick", "name": "China Massage", "opening_hours": "10:00-21:00", "phone": "+1 918 940 3262", "roof:colour": "white", "roof:material": "tar_paper", "roof:shape": "flat", "shop": "massage"}}}, {"type": "Feature", "geometry": {"type": "Polygon", "coordinates": [[[-95.7980668, 36.0623154], [-95.7980669, 36.0623912], [-95.7979113, 36.0623914], [-95.7979112, 36.0623155], [-95.7980668, 36.0623154]]]}, "properties": {"osm_id": 1188501489, "building": "retail", "name": "Habaneros Street Tacos", "height": null, "height_m": null, "levels": null, "tract_id": "40143007414", "tract_name": "74.14", "tags": {"addr:housenumber": "1016", "addr:postcode": "74012", "addr:street": "North Elm Place", "amenity": "restaurant", "building": "retail", "building:colour": "brown", "building:material": "brick", "cuisine": "mexican", "name": "Habaneros Street Tacos", "opening_hours": "Mo-Sa 11:00-22:00; Su 11:00-21:00", "roof:colour": "white", "roof:material": "tar_paper", "roof:shape": "flat"}}}, {"type": "Feature", "geometry": {"type": "Polygon", "coordinates": [[[-95.7980667, 36.0622395], [-95.7980668, 36.0623154], [-95.7979112, 36.0623155], [-95.7979111, 36.0622396], [-95.7980667, 36.0622395]]]}, "properties": {"osm_id": 1188501490, "building": "retail", "name": "Just Peachy Tattoos", "height": null, "height_m": null, "levels": null, "tract_id": "40143007414", "tract_name": "74.14", "tags": {"addr:housenumber": "1012", "addr:postcode": "74012", "addr:street": "North Elm Place", "building": "retail", "building:colour": "brown", "building:material": "brick", "name": "Just Peachy Tattoos", "opening_hours": "Tu-Th 12:00-20:00; Fr-Sa 12:00-21:00", "phone": "+1 918 872 9092", "roof:colour": "white", "roof:material": "tar_paper", "roof:shape": "flat", "shop": "tattoo"}}}, {"type": "Feature", "geometry": {"type": "Polygon", "coordinates": [[[-95.7980666, 36.0621638], [-95.7980667, 36.0622395], [-95.7979111, 36.0622396], [-95.797911, 36.0621639], [-95.7980666, 36.0621638]]]}, "properties": {"osm_id": 1188501491, "building": "retail", "name": "Master Blends Barber Shop", "height": null, "height_m": null, "levels": null, "tract_id": "40143007414", "tract_name": "74.14", "tags": {"addr:housenumber": "1008", "addr:postcode": "74012", "addr:street": "North Elm Place", "building": "retail", "building:colour": "brown", "building:material": "brick", "hairdresser": "barber", "name": "Master Blends Barber Shop", "opening_hours": "Mo-Fr 11:00-19:00; Sa 10:30-19:00", "phone": "+1 918 994 6362", "roof:colour": "white", "roof:material": "tar_paper", "roof:shape": "flat", "shop": "hairdresser"}}}, {"type": "Feature", "geometry": {"type": "Polygon", "coordinates": [[[-95.8110112, 36.0749206], [-95.8113557, 36.0749221], [-95.8113554, 36.074965], [-95.8114587, 36.0749655], [-95.8114579, 36.0750956], [-95.8111332, 36.0750941], [-95.8111331, 36.0751118], [-95.8110796, 36.0751115], [-95.8109958, 36.0751112], [-95.8109966, 36.0749904], [-95.8110107, 36.0749905], [-95.8110112, 36.0749206]]]}, "properties": {"osm_id": 1197822861, "building": "yes", "name": "Stonewood Vision Eyecare & Optical", "height": null, "height_m": null, "levels": null, "tract_id": "40143007414", "tract_name": "74.14", "tags": {"building": "yes", "name": "Stonewood Vision Eyecare & Optical", "shop": "optician"}}}, {"type": "Feature", "geometry": {"type": "Polygon", "coordinates": [[[-95.8106893, 36.0749374], [-95.8100751, 36.0749347], [-95.8100762, 36.0747764], [-95.8100837, 36.0747765], [-95.8100843, 36.0746955], [-95.8102246, 36.0746961], [-95.8102241, 36.0747766], [-95.8103554, 36.0747772], [-95.8103564, 36.0746257], [-95.8105435, 36.0746266], [-95.8105425, 36.074778], [-95.8106904, 36.0747787], [-95.8106893, 36.0749374]]]}, "properties": {"osm_id": 1197822862, "building": "yes", "name": "Primrose School", "height": null, "height_m": null, "levels": null, "tract_id": "40143007414", "tract_name": "74.14", "tags": {"after_school": "yes", "alt_name": "Primrose Schools", "amenity": "kindergarten", "brand": "Primrose School", "brand:wikidata": "Q7243677", "building": "yes", "fee": "yes", "isced:level": "0", "max_age": "12", "min_age": "6 weeks", "name": "Primrose School", "nursery": "yes", "preschool": "yes"}}}, {"type": "Feature", "geometry": {"type": "Polygon", "coordinates": [[[-95.8044512, 36.0614509], [-95.8042379, 36.0614498], [-95.8042392, 36.061271], [-95.8044525, 36.061272], [-95.8044512, 36.0614509]]]}, "properties": {"osm_id": 1225306362, "building": "retail", "name": "", "height": null, "height_m": null, "levels": null, "tract_id": "40143007414", "tract_name": "74.14", "tags": {"building": "retail", "shop": "yes"}}}, {"type": "Feature", "geometry": {"type": "Polygon", "coordinates": [[[-95.799646, 36.0702221], [-95.799566, 36.0701852], [-95.7999628, 36.0696223], [-95.8004929, 36.0698664], [-95.8004989, 36.0699645], [-95.8001528, 36.0704555], [-95.799646, 36.0702221]]]}, "properties": {"osm_id": 1242462329, "building": "retail", "name": "Planet Fitness", "height": null, "height_m": null, "levels": null, "tract_id": "40143007414", "tract_name": "74.14", "tags": {"brand": "Planet Fitness", "brand:wikidata": "Q7201095", "building": "retail", "leisure": "fitness_centre", "name": "Planet Fitness"}}}, {"type": "Feature", "geometry": {"type": "Polygon", "coordinates": [[[-95.7981842, 36.0670161], [-95.7977316, 36.0670177], [-95.7977306, 36.0668474], [-95.7977787, 36.0668472], [-95.7977784, 36.0668047], [-95.7978281, 36.0668046], [-95.7978273, 36.0666547], [-95.7980394, 36.0666539], [-95.79804, 36.0667693], [-95.7980859, 36.0667691], [-95.7980863, 36.0668461], [-95.7981833, 36.0668458], [-95.7981842, 36.0670161]]]}, "properties": {"osm_id": 1293537515, "building": "yes", "name": "Broken Arrow Family Clinic", "height": null, "height_m": null, "levels": null, "tract_id": "40143007414", "tract_name": "74.14", "tags": {"addr:housenumber": "1220", "addr:postcode": "74012", "addr:street": "North Elm Place", "amenity": "clinic", "building": "yes", "healthcare": "clinic", "healthcare:speciality": "paediatrics", "name": "Broken Arrow Family Clinic"}}}, {"type": "Feature", "geometry": {"type": "Polygon", "coordinates": [[[-95.8004414, 36.0688066], [-95.8001744, 36.0689037], [-95.8001694, 36.0688947], [-95.8000755, 36.0689288], [-95.7999977, 36.068789], [-95.8000916, 36.0687549], [-95.8000858, 36.0687444], [-95.8003528, 36.0686474], [-95.8004414, 36.0688066]]]}, "properties": {"osm_id": 1383258030, "building": "office", "name": "", "height": null, "height_m": null, "levels": null, "tract_id": "40143007414", "tract_name": "74.14", "tags": {"addr:postcode": "74012", "building": "office"}}}, {"type": "Feature", "geometry": {"type": "Polygon", "coordinates": [[[-95.7990656, 36.0684783], [-95.7990648, 36.0682959], [-95.7991122, 36.0682957], [-95.7991123, 36.0683212], [-95.7993015, 36.0683207], [-95.799302, 36.0684361], [-95.7992363, 36.0684363], [-95.7992363, 36.0684475], [-95.7991981, 36.0684476], [-95.7991981, 36.0684364], [-95.7991403, 36.0684366], [-95.7991404, 36.0684781], [-95.7990656, 36.0684783]]]}, "properties": {"osm_id": 1383670206, "building": "office", "name": "", "height": null, "height_m": null, "levels": null, "tract_id": "40143007414", "tract_name": "74.14", "tags": {"addr:city": "Broken Arrow", "addr:housenumber": "705", "addr:postcode": "74012", "addr:street": "West Queens Street", "building": "office"}}}, {"type": "Feature", "geometry": {"type": "Polygon", "coordinates": [[[-95.799016, 36.068254], [-95.7990169, 36.0683107], [-95.79898, 36.0683111], [-95.7989817, 36.0684239], [-95.7988845, 36.0684249], [-95.7988842, 36.068407], [-95.7987753, 36.0684081], [-95.798775, 36.0683878], [-95.7986438, 36.0683891], [-95.7986435, 36.0683708], [-95.7986227, 36.068371], [-95.7986229, 36.0683807], [-95.7985947, 36.068381], [-95.7985946, 36.0683712], [-95.7985497, 36.0683717], [-95.7985483, 36.0682839], [-95.7989412, 36.0682799], [-95.7989409, 36.0682547], [-95.799016, 36.068254]]]}, "properties": {"osm_id": 1383670207, "building": "office", "name": "", "height": null, "height_m": null, "levels": null, "tract_id": "40143007414", "tract_name": "74.14", "tags": {"addr:city": "Broken Arrow", "addr:housenumber": "701", "addr:postcode": "74012", "addr:street": "West Queens Street", "building": "office", "operator": "Atlas Property Management"}}}]}