{"type": "FeatureCollection", "features": [{"type": "Feature", "geometry": {"type": "Polygon", "coordinates": [[[-97.1069848, 36.7037543], [-97.1066308, 36.7037564], [-97.1066308, 36.7037199], [-97.1065584, 36.7037242], [-97.1065584, 36.7034876], [-97.1069795, 36.7034876], [-97.1069848, 36.7037543]]]}, "properties": {"osm_id": 200888361, "building": "yes", "name": "", "height": null, "height_m": null, "levels": null, "tract_id": "40071000500", "tract_name": "5", "tags": {"building": "yes", "source": "bing"}}}, {"type": "Feature", "geometry": {"type": "Polygon", "coordinates": [[[-97.1036696, 36.7032747], [-97.1036696, 36.7028339], [-97.1039888, 36.7028403], [-97.1039888, 36.7028768], [-97.1039888, 36.7028941], [-97.1040934, 36.7028941], [-97.1040934, 36.7029306], [-97.1041739, 36.7029285], [-97.1041793, 36.7031134], [-97.1041294, 36.7032853], [-97.1040988, 36.7032855], [-97.1041015, 36.7033285], [-97.1040827, 36.7033285], [-97.104131, 36.7033758], [-97.1041149, 36.703393], [-97.1041791, 36.7034189], [-97.1041786, 36.7034361], [-97.1042141, 36.7034382], [-97.1042141, 36.7034188], [-97.1043268, 36.7034209], [-97.1043268, 36.7034704], [-97.1043885, 36.7034747], [-97.1043885, 36.7034618], [-97.1045938, 36.7034651], [-97.104654, 36.7034661], [-97.1046567, 36.7037414], [-97.1040156, 36.7037371], [-97.1040156, 36.7036596], [-97.1038397, 36.7036551], [-97.1038467, 36.7034468], [-97.1037753, 36.7034164], [-97.1037903, 36.7034037], [-97.1037474, 36.7033478], [-97.1037662, 36.7033414], [-97.1037635, 36.7032812], [-97.1036696, 36.7032747]]]}, "properties": {"osm_id": 200888374, "building": "yes", "name": "", "height": null, "height_m": null, "levels": null, "tract_id": "40071000500", "tract_name": "5", "tags": {"building": "yes", "source": "bing"}}}, {"type": "Feature", "geometry": {"type": "Polygon", "coordinates": [[[-97.0969064, 36.695764], [-97.0965369, 36.6957663], [-97.096534, 36.6954631], [-97.0969036, 36.6954608], [-97.0969064, 36.695764]]]}, "properties": {"osm_id": 200889449, "building": "yes", "name": "", "height": null, "height_m": null, "levels": null, "tract_id": "40071000500", "tract_name": "5", "tags": {"building": "yes", "source": "bing"}}}, {"type": "Feature", "geometry": {"type": "Polygon", "coordinates": [[[-97.0861696, 36.7094419], [-97.0861749, 36.7096419], [-97.0860416, 36.7096442], [-97.0860363, 36.7094442], [-97.0861696, 36.7094419]]]}, "properties": {"osm_id": 671074143, "building": "yes", "name": "", "height": null, "height_m": null, "levels": null, "tract_id": "40071000500", "tract_name": "5", "tags": {"building": "yes"}}}, {"type": "Feature", "geometry": {"type": "Polygon", "coordinates": [[[-97.0855661, 36.7096333], [-97.0854051, 36.7096376], [-97.0854016, 36.7095513], [-97.0855625, 36.709547], [-97.0855661, 36.7096333]]]}, "properties": {"osm_id": 671074144, "building": "yes", "name": "", "height": null, "height_m": null, "levels": null, "tract_id": "40071000500", "tract_name": "5", "tags": {"building": "yes"}}}, {"type": "Feature", "geometry": {"type": "Polygon", "coordinates": [[[-97.0873323, 36.7093053], [-97.087331, 36.7094301], [-97.0872207, 36.7094293], [-97.087222, 36.7093046], [-97.0873323, 36.7093053]]]}, "properties": {"osm_id": 671074145, "building": "yes", "name": "", "height": null, "height_m": null, "levels": null, "tract_id": "40071000500", "tract_name": "5", "tags": {"building": "yes"}}}, {"type": "Feature", "geometry": {"type": "Polygon", "coordinates": [[[-97.0875489, 36.7095634], [-97.0873611, 36.709565], [-97.0873597, 36.7094599], [-97.0875475, 36.7094583], [-97.0875489, 36.7095634]]]}, "properties": {"osm_id": 671074146, "building": "yes", "name": "", "height": null, "height_m": null, "levels": null, "tract_id": "40071000500", "tract_name": "5", "tags": {"building": "yes"}}}, {"type": "Feature", "geometry": {"type": "Polygon", "coordinates": [[[-97.0870842, 36.7093053], [-97.0870815, 36.7095935], [-97.0869015, 36.7095924], [-97.0869041, 36.7093043], [-97.0870842, 36.7093053]]]}, "properties": {"osm_id": 671074147, "building": "yes", "name": "", "height": null, "height_m": null, "levels": null, "tract_id": "40071000500", "tract_name": "5", "tags": {"building": "yes"}}}, {"type": "Feature", "geometry": {"type": "Polygon", "coordinates": [[[-97.10143, 36.7037574], [-97.1013376, 36.7037969], [-97.1012612, 36.7036818], [-97.1013536, 36.7036424], [-97.10143, 36.7037574]]]}, "properties": {"osm_id": 671074150, "building": "yes", "name": "", "height": null, "height_m": null, "levels": null, "tract_id": "40071000500", "tract_name": "5", "tags": {"building": "yes"}}}, {"type": "Feature", "geometry": {"type": "Polygon", "coordinates": [[[-97.1019463, 36.7036467], [-97.1019959, 36.7037628], [-97.1018839, 36.7037936], [-97.1018343, 36.7036775], [-97.1019463, 36.7036467]]]}, "properties": {"osm_id": 671074151, "building": "yes", "name": "", "height": null, "height_m": null, "levels": null, "tract_id": "40071000500", "tract_name": "5", "tags": {"building": "yes"}}}, {"type": "Feature", "geometry": {"type": "Polygon", "coordinates": [[[-97.1018551, 36.7034714], [-97.1018994, 36.7036091], [-97.1017876, 36.7036322], [-97.1017433, 36.7034946], [-97.1018551, 36.7034714]]]}, "properties": {"osm_id": 671074152, "building": "yes", "name": "", "height": null, "height_m": null, "levels": null, "tract_id": "40071000500", "tract_name": "5", "tags": {"building": "yes"}}}, {"type": "Feature", "geometry": {"type": "Polygon", "coordinates": [[[-97.1023822, 36.7033994], [-97.1023862, 36.7035779], [-97.1022955, 36.7035792], [-97.1022915, 36.7034007], [-97.1023822, 36.7033994]]]}, "properties": {"osm_id": 671074153, "building": "yes", "name": "", "height": null, "height_m": null, "levels": null, "tract_id": "40071000500", "tract_name": "5", "tags": {"building": "yes"}}}, {"type": "Feature", "geometry": {"type": "Polygon", "coordinates": [[[-97.0864472, 36.705495], [-97.0861803, 36.7054831], [-97.0861873, 36.7053821], [-97.0864541, 36.705394], [-97.0864472, 36.705495]]]}, "properties": {"osm_id": 671074174, "building": "yes", "name": "", "height": null, "height_m": null, "levels": null, "tract_id": "40071000500", "tract_name": "5", "tags": {"building": "yes"}}}, {"type": "Feature", "geometry": {"type": "Polygon", "coordinates": [[[-97.0863506, 36.7057444], [-97.0859979, 36.7057337], [-97.0860014, 36.7056594], [-97.0863541, 36.7056702], [-97.0863506, 36.7057444]]]}, "properties": {"osm_id": 671074175, "building": "yes", "name": "", "height": null, "height_m": null, "levels": null, "tract_id": "40071000500", "tract_name": "5", "tags": {"building": "yes"}}}, {"type": "Feature", "geometry": {"type": "Polygon", "coordinates": [[[-97.102004, 36.7003877], [-97.1016486, 36.7003898], [-97.1016473, 36.7002493], [-97.1020027, 36.7002472], [-97.102004, 36.7003877]]]}, "properties": {"osm_id": 671074176, "building": "yes", "name": "", "height": null, "height_m": null, "levels": null, "tract_id": "40071000500", "tract_name": "5", "tags": {"building": "yes"}}}, {"type": "Feature", "geometry": {"type": "Polygon", "coordinates": [[[-97.100848, 36.6994102], [-97.1005382, 36.6994135], [-97.1005366, 36.6993149], [-97.1008464, 36.6993117], [-97.100848, 36.6994102]]]}, "properties": {"osm_id": 671074177, "building": "yes", "name": "", "height": null, "height_m": null, "levels": null, "tract_id": "40071000500", "tract_name": "5", "tags": {"building": "yes"}}}, {"type": "Feature", "geometry": {"type": "Polygon", "coordinates": [[[-97.1110953, 36.6948724], [-97.1110927, 36.6950897], [-97.1109485, 36.6950885], [-97.1109512, 36.6948713], [-97.1110953, 36.6948724]]]}, "properties": {"osm_id": 671074180, "building": "yes", "name": "", "height": null, "height_m": null, "levels": null, "tract_id": "40071000500", "tract_name": "5", "tags": {"building": "yes"}}}, {"type": "Feature", "geometry": {"type": "Polygon", "coordinates": [[[-97.1111074, 36.6943531], [-97.1111101, 36.6946359], [-97.1109413, 36.6946369], [-97.1109386, 36.6943541], [-97.1111074, 36.6943531]]]}, "properties": {"osm_id": 671074181, "building": "yes", "name": "", "height": null, "height_m": null, "levels": null, "tract_id": "40071000500", "tract_name": "5", "tags": {"building": "yes"}}}, {"type": "Feature", "geometry": {"type": "Polygon", "coordinates": [[[-97.1140873, 36.6947531], [-97.1140927, 36.6950843], [-97.1138724, 36.6950866], [-97.113867, 36.6947554], [-97.1140873, 36.6947531]]]}, "properties": {"osm_id": 671074182, "building": "yes", "name": "", "height": null, "height_m": null, "levels": null, "tract_id": "40071000500", "tract_name": "5", "tags": {"building": "yes"}}}, {"type": "Feature", "geometry": {"type": "Polygon", "coordinates": [[[-97.115529, 36.6946262], [-97.1155344, 36.6948509], [-97.1154025, 36.694853], [-97.1153972, 36.6946282], [-97.115529, 36.6946262]]]}, "properties": {"osm_id": 671074183, "building": "yes", "name": "", "height": null, "height_m": null, "levels": null, "tract_id": "40071000500", "tract_name": "5", "tags": {"building": "yes"}}}, {"type": "Feature", "geometry": {"type": "Polygon", "coordinates": [[[-97.1153292, 36.6946326], [-97.1153212, 36.694894], [-97.1151743, 36.694891], [-97.1151824, 36.6946297], [-97.1153292, 36.6946326]]]}, "properties": {"osm_id": 671074184, "building": "yes", "name": "", "height": null, "height_m": null, "levels": null, "tract_id": "40071000500", "tract_name": "5", "tags": {"building": "yes"}}}, {"type": "Feature", "geometry": {"type": "Polygon", "coordinates": [[[-97.1160105, 36.6947821], [-97.1157289, 36.6947843], [-97.1157268, 36.6946148], [-97.1160085, 36.6946126], [-97.1160105, 36.6947821]]]}, "properties": {"osm_id": 671074185, "building": "yes", "name": "", "height": null, "height_m": null, "levels": null, "tract_id": "40071000500", "tract_name": "5", "tags": {"building": "yes"}}}, {"type": "Feature", "geometry": {"type": "Polygon", "coordinates": [[[-97.1088986, 36.6973543], [-97.1086518, 36.6973532], [-97.1086531, 36.6971627], [-97.1088999, 36.6971637], [-97.1088986, 36.6973543]]]}, "properties": {"osm_id": 671074188, "building": "yes", "name": "", "height": null, "height_m": null, "levels": null, "tract_id": "40071000500", "tract_name": "5", "tags": {"building": "yes"}}}, {"type": "Feature", "geometry": {"type": "Polygon", "coordinates": [[[-97.110976, 36.6962951], [-97.1106997, 36.6962951], [-97.1106997, 36.6961478], [-97.110976, 36.6961478], [-97.110976, 36.6962951]]]}, "properties": {"osm_id": 671074189, "building": "yes", "name": "", "height": null, "height_m": null, "levels": null, "tract_id": "40071000500", "tract_name": "5", "tags": {"building": "yes"}}}, {"type": "Feature", "geometry": {"type": "Polygon", "coordinates": [[[-97.1105924, 36.6967521], [-97.1100158, 36.69675], [-97.1100179, 36.6963867], [-97.1105945, 36.6963888], [-97.1105924, 36.6967521]]]}, "properties": {"osm_id": 671074190, "building": "yes", "name": "", "height": null, "height_m": null, "levels": null, "tract_id": "40071000500", "tract_name": "5", "tags": {"building": "yes"}}}, {"type": "Feature", "geometry": {"type": "Polygon", "coordinates": [[[-97.1041042, 36.6912108], [-97.1038601, 36.6912076], [-97.1038635, 36.6910405], [-97.1041076, 36.6910437], [-97.1041042, 36.6912108]]]}, "properties": {"osm_id": 671074191, "building": "yes", "name": "", "height": null, "height_m": null, "levels": null, "tract_id": "40071000500", "tract_name": "5", "tags": {"building": "yes"}}}, {"type": "Feature", "geometry": {"type": "Polygon", "coordinates": [[[-97.1055619, 36.6879814], [-97.1048082, 36.6879728], [-97.1048143, 36.6876302], [-97.105568, 36.6876388], [-97.1055619, 36.6879814]]]}, "properties": {"osm_id": 671074192, "building": "yes", "name": "", "height": null, "height_m": null, "levels": null, "tract_id": "40071000500", "tract_name": "5", "tags": {"building": "yes"}}}, {"type": "Feature", "geometry": {"type": "Polygon", "coordinates": [[[-97.104426, 36.6864026], [-97.1044233, 36.6866306], [-97.1042805, 36.6866295], [-97.1042832, 36.6864016], [-97.104426, 36.6864026]]]}, "properties": {"osm_id": 671074193, "building": "yes", "name": "", "height": null, "height_m": null, "levels": null, "tract_id": "40071000500", "tract_name": "5", "tags": {"building": "yes"}}}, {"type": "Feature", "geometry": {"type": "Polygon", "coordinates": [[[-97.105397, 36.6864177], [-97.1053863, 36.6868586], [-97.1051236, 36.6868545], [-97.1051343, 36.6864136], [-97.105397, 36.6864177]]]}, "properties": {"osm_id": 671074194, "building": "yes", "name": "", "height": null, "height_m": null, "levels": null, "tract_id": "40071000500", "tract_name": "5", "tags": {"building": "yes"}}}, {"type": "Feature", "geometry": {"type": "Polygon", "coordinates": [[[-97.0856814, 36.7063207], [-97.0856962, 36.7059476], [-97.0857711, 36.7059495], [-97.0857563, 36.7063226], [-97.0856814, 36.7063207]]]}, "properties": {"osm_id": 671074205, "building": "yes", "name": "", "height": null, "height_m": null, "levels": null, "tract_id": "40071000500", "tract_name": "5", "tags": {"building": "yes"}}}, {"type": "Feature", "geometry": {"type": "Polygon", "coordinates": [[[-97.0856372, 36.7059412], [-97.0856224, 36.7063282], [-97.0855644, 36.7063268], [-97.0855791, 36.7059397], [-97.0856372, 36.7059412]]]}, "properties": {"osm_id": 671074206, "building": "yes", "name": "", "height": null, "height_m": null, "levels": null, "tract_id": "40071000500", "tract_name": "5", "tags": {"building": "yes"}}}, {"type": "Feature", "geometry": {"type": "Polygon", "coordinates": [[[-97.0859684, 36.7064401], [-97.0859697, 36.7063777], [-97.0864458, 36.7063842], [-97.0864445, 36.7064465], [-97.0859684, 36.7064401]]]}, "properties": {"osm_id": 671074207, "building": "yes", "name": "", "height": null, "height_m": null, "levels": null, "tract_id": "40071000500", "tract_name": "5", "tags": {"building": "yes"}}}, {"type": "Feature", "geometry": {"type": "Polygon", "coordinates": [[[-97.0863748, 36.7065777], [-97.0860596, 36.7065734], [-97.0860609, 36.7065141], [-97.086376, 36.7065184], [-97.0863748, 36.7065777]]]}, "properties": {"osm_id": 671074208, "building": "yes", "name": "", "height": null, "height_m": null, "levels": null, "tract_id": "40071000500", "tract_name": "5", "tags": {"building": "yes"}}}, {"type": "Feature", "geometry": {"type": "Polygon", "coordinates": [[[-97.086364, 36.7066766], [-97.086065, 36.7066723], [-97.0860664, 36.7066078], [-97.0863655, 36.7066121], [-97.086364, 36.7066766]]]}, "properties": {"osm_id": 671074209, "building": "yes", "name": "", "height": null, "height_m": null, "levels": null, "tract_id": "40071000500", "tract_name": "5", "tags": {"building": "yes"}}}, {"type": "Feature", "geometry": {"type": "Polygon", "coordinates": [[[-97.0864324, 36.7068121], [-97.085951, 36.7068024], [-97.0859536, 36.7067177], [-97.0864351, 36.7067274], [-97.0864324, 36.7068121]]]}, "properties": {"osm_id": 671074210, "building": "yes", "name": "", "height": null, "height_m": null, "levels": null, "tract_id": "40071000500", "tract_name": "5", "tags": {"building": "yes"}}}, {"type": "Feature", "geometry": {"type": "Polygon", "coordinates": [[[-97.0846286, 36.7072604], [-97.0844677, 36.707254], [-97.084477, 36.7071043], [-97.084638, 36.7071107], [-97.0846286, 36.7072604]]]}, "properties": {"osm_id": 671074213, "building": "yes", "name": "", "height": null, "height_m": null, "levels": null, "tract_id": "40071000500", "tract_name": "5", "tags": {"building": "yes"}}}, {"type": "Feature", "geometry": {"type": "Polygon", "coordinates": [[[-97.0845509, 36.7084485], [-97.0843699, 36.7084405], [-97.0844075, 36.70789], [-97.0845884, 36.707898], [-97.0845509, 36.7084485]]]}, "properties": {"osm_id": 671074214, "building": "yes", "name": "", "height": null, "height_m": null, "levels": null, "tract_id": "40071000500", "tract_name": "5", "tags": {"building": "yes"}}}, {"type": "Feature", "geometry": {"type": "Polygon", "coordinates": [[[-97.0864888, 36.7051713], [-97.0862795, 36.7051673], [-97.0862825, 36.7050641], [-97.0863281, 36.7050649], [-97.0863303, 36.7049886], [-97.0864941, 36.7049918], [-97.0864888, 36.7051713]]]}, "properties": {"osm_id": 682105373, "building": "yes", "name": "Wayne D Bell Tax & Bookkeeping", "height": null, "height_m": null, "levels": null, "tract_id": "40071000500", "tract_name": "5", "tags": {"addr:city": "Ponca City", "addr:housenumber": "219", "addr:postcode": "74601", "addr:state": "OK", "addr:street": "West Cleveland Avenue", "building": "yes", "name": "Wayne D Bell Tax & Bookkeeping", "office": "accountant", "phone": "+1 580 765 9444", "website": "https://belltaxandbookkeeping.com/"}}}, {"type": "Feature", "geometry": {"type": "Polygon", "coordinates": [[[-97.1030805, 36.6958252], [-97.1030804, 36.6957211], [-97.1030067, 36.6957212], [-97.1026599, 36.6957214], [-97.1026599, 36.6958253], [-97.1030805, 36.6958252]]]}, "properties": {"osm_id": 867169650, "building": "retail", "name": "OnCue Express", "height": null, "height_m": null, "levels": null, "tract_id": "40071000500", "tract_name": "5", "tags": {"addr:city": "Ponca City", "addr:housenumber": "1613", "addr:postcode": "74601", "addr:state": "OK", "addr:street": "West South Avenue", "building": "retail", "name": "OnCue Express", "shop": "convenience"}}}, {"type": "Feature", "geometry": {"type": "Polygon", "coordinates": [[[-97.1026599, 36.6957214], [-97.1026598, 36.6954799], [-97.1030069, 36.69548], [-97.1030067, 36.6957212], [-97.1026599, 36.6957214]]]}, "properties": {"osm_id": 867169651, "building": "roof", "name": "Phillips 66", "height": null, "height_m": null, "levels": null, "tract_id": "40071000500", "tract_name": "5", "tags": {"amenity": "fuel", "brand": "Phillips 66", "brand:wikidata": "Q1656230", "building": "roof", "name": "Phillips 66", "website": "https://www.phillips66gas.com/station/P66-ONCUE-EXPRESS-0016-0000715483/"}}}, {"type": "Feature", "geometry": {"type": "Polygon", "coordinates": [[[-97.1036985, 36.6960165], [-97.1037006, 36.6958892], [-97.1034975, 36.695887], [-97.1034953, 36.6960143], [-97.1036985, 36.6960165]]]}, "properties": {"osm_id": 867169652, "building": "yes", "name": "El Potrillo", "height": null, "height_m": null, "levels": null, "tract_id": "40071000500", "tract_name": "5", "tags": {"addr:city": "Ponca City", "addr:housenumber": "718", "addr:postcode": "74601", "addr:state": "OK", "addr:street": "South Waverly Street", "amenity": "restaurant", "building": "yes", "cuisine": "mexican", "name": "El Potrillo"}}}, {"type": "Feature", "geometry": {"type": "Polygon", "coordinates": [[[-97.0904753, 36.6957082], [-97.0904753, 36.6954895], [-97.0904023, 36.6954649], [-97.0903946, 36.6954803], [-97.0902487, 36.6954495], [-97.0902487, 36.6954803], [-97.0901987, 36.6954787], [-97.0901987, 36.6954618], [-97.090193, 36.695451], [-97.0901814, 36.6954372], [-97.0901642, 36.6954249], [-97.0901315, 36.6954249], [-97.0901008, 36.6954295], [-97.0900835, 36.6954433], [-97.0900701, 36.6954603], [-97.0900662, 36.6954803], [-97.0900701, 36.6954957], [-97.0900777, 36.6955034], [-97.0900681, 36.6957113], [-97.0904753, 36.6957082]]]}, "properties": {"osm_id": 867169655, "building": "yes", "name": "Conoco Museum", "height": null, "height_m": null, "levels": null, "tract_id": "40071000500", "tract_name": "5", "tags": {"addr:city": "Ponca City", "addr:housenumber": "501", "addr:postcode": "74601", "addr:state": "OK", "addr:street": "West South Avenue", "building": "yes", "name": "Conoco Museum", "tourism": "museum"}}}, {"type": "Feature", "geometry": {"type": "Polygon", "coordinates": [[[-97.0909153, 36.6957671], [-97.0909153, 36.6956026], [-97.0908216, 36.6956026], [-97.0908216, 36.6956421], [-97.0908061, 36.6956421], [-97.0908061, 36.6956985], [-97.0908372, 36.6956985], [-97.0908372, 36.6957671], [-97.0909153, 36.6957671]]]}, "properties": {"osm_id": 867182684, "building": "house", "name": "", "height": null, "height_m": null, "levels": null, "tract_id": "40071000500", "tract_name": "5", "tags": {"addr:city": "Ponca City", "addr:housenumber": "612", "addr:postcode": "74601", "addr:state": "OK", "addr:street": "South Osage Street", "building": "house"}}}, {"type": "Feature", "geometry": {"type": "Polygon", "coordinates": [[[-97.0909441, 36.6955531], [-97.0909447, 36.6955062], [-97.0909254, 36.695506], [-97.0909268, 36.695405], [-97.0908572, 36.6954043], [-97.0908562, 36.6954784], [-97.0908365, 36.6954782], [-97.090836, 36.6955132], [-97.0908604, 36.6955134], [-97.0908599, 36.6955523], [-97.0909441, 36.6955531]]]}, "properties": {"osm_id": 867182685, "building": "house", "name": "", "height": null, "height_m": null, "levels": null, "tract_id": "40071000500", "tract_name": "5", "tags": {"addr:city": "Ponca City", "addr:housenumber": "616", "addr:postcode": "74601", "addr:state": "OK", "addr:street": "South Osage Street", "building": "house"}}}, {"type": "Feature", "geometry": {"type": "Polygon", "coordinates": [[[-97.0912473, 36.6955744], [-97.0912471, 36.6954914], [-97.0911749, 36.6954915], [-97.0911748, 36.695441], [-97.0910782, 36.6954411], [-97.0910786, 36.6955747], [-97.0912473, 36.6955744]]]}, "properties": {"osm_id": 867182686, "building": "house", "name": "", "height": null, "height_m": null, "levels": null, "tract_id": "40071000500", "tract_name": "5", "tags": {"addr:city": "Ponca City", "addr:housenumber": "609", "addr:postcode": "74601", "addr:state": "OK", "addr:street": "West South Avenue", "building": "house"}}}, {"type": "Feature", "geometry": {"type": "Polygon", "coordinates": [[[-97.0915275, 36.695759], [-97.0915268, 36.6957019], [-97.0913932, 36.6957029], [-97.0913923, 36.6956281], [-97.0913092, 36.6956287], [-97.0913108, 36.6957607], [-97.0915275, 36.695759]]]}, "properties": {"osm_id": 867182687, "building": "house", "name": "", "height": null, "height_m": null, "levels": null, "tract_id": "40071000500", "tract_name": "5", "tags": {"addr:city": "Ponca City", "addr:housenumber": "613", "addr:postcode": "74601", "addr:state": "OK", "addr:street": "West South Avenue", "building": "house"}}}, {"type": "Feature", "geometry": {"type": "Polygon", "coordinates": [[[-97.0921952, 36.6958989], [-97.0923244, 36.6958016], [-97.0922423, 36.6957315], [-97.0921131, 36.6958287], [-97.0921952, 36.6958989]]]}, "properties": {"osm_id": 867182688, "building": "yes", "name": "", "height": null, "height_m": null, "levels": null, "tract_id": "40071000500", "tract_name": "5", "tags": {"building": "yes"}}}, {"type": "Feature", "geometry": {"type": "Polygon", "coordinates": [[[-97.0923912, 36.695756], [-97.0924995, 36.6956464], [-97.0924019, 36.6955843], [-97.0922935, 36.6956939], [-97.0923912, 36.695756]]]}, "properties": {"osm_id": 867182689, "building": "yes", "name": "", "height": null, "height_m": null, "levels": null, "tract_id": "40071000500", "tract_name": "5", "tags": {"building": "yes"}}}, {"type": "Feature", "geometry": {"type": "Polygon", "coordinates": [[[-97.0925574, 36.6955828], [-97.0926408, 36.6954682], [-97.092537, 36.6954196], [-97.0924536, 36.6955343], [-97.0925574, 36.6955828]]]}, "properties": {"osm_id": 867182690, "building": "yes", "name": "", "height": null, "height_m": null, "levels": null, "tract_id": "40071000500", "tract_name": "5", "tags": {"building": "yes"}}}, {"type": "Feature", "geometry": {"type": "Polygon", "coordinates": [[[-97.0922393, 36.695519], [-97.0922384, 36.6953794], [-97.0921202, 36.6953799], [-97.092121, 36.6955194], [-97.0922393, 36.695519]]]}, "properties": {"osm_id": 867182691, "building": "yes", "name": "", "height": null, "height_m": null, "levels": null, "tract_id": "40071000500", "tract_name": "5", "tags": {"building": "yes"}}}, {"type": "Feature", "geometry": {"type": "Polygon", "coordinates": [[[-97.0923954, 36.6955369], [-97.0923967, 36.6954586], [-97.0923233, 36.6954579], [-97.092322, 36.6955362], [-97.0923954, 36.6955369]]]}, "properties": {"osm_id": 867182692, "building": "yes", "name": "", "height": null, "height_m": null, "levels": null, "tract_id": "40071000500", "tract_name": "5", "tags": {"building": "yes"}}}, {"type": "Feature", "geometry": {"type": "Polygon", "coordinates": [[[-97.0917497, 36.695568], [-97.0917497, 36.6955084], [-97.0917221, 36.6955084], [-97.0917221, 36.6954843], [-97.0917451, 36.6954843], [-97.0917451, 36.6954478], [-97.0917245, 36.6954478], [-97.0917245, 36.6953816], [-97.0915722, 36.6953816], [-97.0915722, 36.695568], [-97.0917497, 36.695568]]]}, "properties": {"osm_id": 867182693, "building": "house", "name": "", "height": null, "height_m": null, "levels": null, "tract_id": "40071000500", "tract_name": "5", "tags": {"addr:city": "Ponca City", "addr:housenumber": "621", "addr:postcode": "74601", "addr:state": "OK", "addr:street": "South Palm Street", "building": "house"}}}, {"type": "Feature", "geometry": {"type": "Polygon", "coordinates": [[[-97.0917473, 36.6957078], [-97.0917465, 36.6956111], [-97.0916638, 36.6956115], [-97.0916646, 36.6957083], [-97.0917473, 36.6957078]]]}, "properties": {"osm_id": 867182694, "building": "house", "name": "", "height": null, "height_m": null, "levels": null, "tract_id": "40071000500", "tract_name": "5", "tags": {"addr:city": "Ponca City", "addr:housenumber": "611", "addr:postcode": "74601", "addr:state": "OK", "addr:street": "South Palm Street", "building": "house"}}}, {"type": "Feature", "geometry": {"type": "Polygon", "coordinates": [[[-97.0889741, 36.695736], [-97.0889789, 36.6953763], [-97.0885968, 36.6953731], [-97.0885572, 36.6954033], [-97.0885063, 36.6954017], [-97.0885045, 36.695441], [-97.0884668, 36.6954742], [-97.0884684, 36.6956905], [-97.0887315, 36.6956892], [-97.0887317, 36.6957106], [-97.0887764, 36.6957104], [-97.0887762, 36.6956922], [-97.0888718, 36.6956917], [-97.0889226, 36.6957355], [-97.0889741, 36.695736]]]}, "properties": {"osm_id": 867182695, "building": "yes", "name": "VFW Post", "height": null, "height_m": null, "levels": null, "tract_id": "40071000500", "tract_name": "5", "tags": {"addr:city": "Ponca City", "addr:housenumber": "407", "addr:postcode": "74601", "addr:state": "OK", "addr:street": "West South Avenue", "amenity": "social_centre", "brand": "Veterans of Foreign Wars of the United States", "brand:wikidata": "Q3556413", "building": "yes", "name": "VFW Post", "name:en": "VFW Post", "official_name": "Veterans of Foreign Wars of the United States", "short_name": "VFW", "social_centre:for": "veterans"}}}, {"type": "Feature", "geometry": {"type": "Polygon", "coordinates": [[[-97.1041359, 36.690677], [-97.1040313, 36.6906783], [-97.1040302, 36.6906201], [-97.1039071, 36.6906216], [-97.1039076, 36.6906497], [-97.1037928, 36.6906511], [-97.1037897, 36.6904911], [-97.1038952, 36.6904898], [-97.1038959, 36.6905256], [-97.1040359, 36.6905239], [-97.1040347, 36.6904614], [-97.1041277, 36.6904603], [-97.104129, 36.6905321], [-97.1041871, 36.6905314], [-97.1041887, 36.6906202], [-97.1041348, 36.6906209], [-97.1041359, 36.690677]]]}, "properties": {"osm_id": 1094024566, "building": "yes", "name": "", "height": null, "height_m": null, "levels": null, "tract_id": "40071000500", "tract_name": "5", "tags": {"building": "yes"}}}]}