{"type": "FeatureCollection", "features": [{"type": "Feature", "geometry": {"type": "Polygon", "coordinates": [[[-95.4774036, 35.5760697], [-95.4771511, 35.5760697], [-95.4771511, 35.5760162], [-95.4774036, 35.5760162], [-95.4774036, 35.5760697]]]}, "properties": {"osm_id": 111267797, "building": "yes", "name": "Oktaha Post Office", "height": null, "height_m": null, "levels": null, "tract_id": "40101001100", "tract_name": "11", "tags": {"addr:city": "Oktaha", "addr:housenumber": "104", "addr:postcode": "74450", "addr:state": "OK", "addr:street": "East Prairie Street", "amenity": "post_office", "building": "yes", "name": "Oktaha Post Office", "operator": "United States Postal Service", "operator:short": "USPS", "operator:type": "public", "operator:website": "https://www.usps.com", "operator:wikidata": "Q668687", "operator:wikipedia": "en:United States Postal Service", "short_name": "USPS", "website": "https://tools.usps.com/locations/details/1375986"}}}, {"type": "Feature", "geometry": {"type": "Polygon", "coordinates": [[[-95.4771976, 35.5796066], [-95.4769833, 35.5795977], [-95.4769886, 35.5795138], [-95.4770086, 35.5795147], [-95.4770116, 35.5794681], [-95.4770948, 35.5794716], [-95.4770915, 35.5795249], [-95.4772025, 35.5795296], [-95.4771976, 35.5796066]]]}, "properties": {"osm_id": 246493014, "building": "yes", "name": "", "height": null, "height_m": null, "levels": null, "tract_id": "40101001100", "tract_name": "11", "tags": {"addr:city": "Oktaha", "addr:housenumber": "109", "addr:street": "East Oak Street", "building": "yes"}}}, {"type": "Feature", "geometry": {"type": "Polygon", "coordinates": [[[-95.4775896, 35.576471], [-95.4774799, 35.5764698], [-95.477477, 35.5766445], [-95.4772215, 35.5766416], [-95.4772203, 35.5767188], [-95.4775855, 35.5767227], [-95.4775896, 35.576471]]]}, "properties": {"osm_id": 1312111697, "building": "yes", "name": "Trinity Baptist Church", "height": null, "height_m": null, "levels": null, "tract_id": "40101001100", "tract_name": "11", "tags": {"addr:city": "Oktaha", "addr:housenumber": "107", "addr:postcode": "74450", "addr:state": "OK", "addr:street": "East Prairie Street", "building": "yes", "name": "Trinity Baptist Church"}}}, {"type": "Feature", "geometry": {"type": "Polygon", "coordinates": [[[-95.4772255, 35.5768054], [-95.4772245, 35.5769112], [-95.4774259, 35.5769124], [-95.4774269, 35.5768067], [-95.4772255, 35.5768054]]]}, "properties": {"osm_id": 1312111698, "building": "yes", "name": "", "height": null, "height_m": null, "levels": null, "tract_id": "40101001100", "tract_name": "11", "tags": {"building": "yes"}}}, {"type": "Feature", "geometry": {"type": "Polygon", "coordinates": [[[-95.4762057, 35.5769528], [-95.476228, 35.5771094], [-95.4763202, 35.5771007], [-95.476298, 35.5769441], [-95.4762057, 35.5769528]]]}, "properties": {"osm_id": 1312111699, "building": "yes", "name": "", "height": null, "height_m": null, "levels": null, "tract_id": "40101001100", "tract_name": "11", "tags": {"building": "yes"}}}, {"type": "Feature", "geometry": {"type": "Polygon", "coordinates": [[[-95.4108125, 35.696694], [-95.4107539, 35.6966937], [-95.4107545, 35.6965881], [-95.4108132, 35.6965883], [-95.4108125, 35.696694]]]}, "properties": {"osm_id": 1341240345, "building": "yes", "name": "", "height": null, "height_m": null, "levels": null, "tract_id": "40101001100", "tract_name": "11", "tags": {"building": "yes"}}}, {"type": "Feature", "geometry": {"type": "Polygon", "coordinates": [[[-95.4111136, 35.6967353], [-95.4108668, 35.6967258], [-95.4108725, 35.6966293], [-95.4111193, 35.6966389], [-95.4111136, 35.6967353]]]}, "properties": {"osm_id": 1341240346, "building": "yes", "name": "", "height": null, "height_m": null, "levels": null, "tract_id": "40101001100", "tract_name": "11", "tags": {"building": "yes"}}}, {"type": "Feature", "geometry": {"type": "Polygon", "coordinates": [[[-95.4092046, 35.6960949], [-95.4091468, 35.6960966], [-95.4091374, 35.6958856], [-95.4091952, 35.6958839], [-95.4092046, 35.6960949]]]}, "properties": {"osm_id": 1341240347, "building": "yes", "name": "", "height": null, "height_m": null, "levels": null, "tract_id": "40101001100", "tract_name": "11", "tags": {"building": "yes"}}}, {"type": "Feature", "geometry": {"type": "Polygon", "coordinates": [[[-95.4093041, 35.6961938], [-95.4090463, 35.6962017], [-95.4090443, 35.6961579], [-95.4093021, 35.69615], [-95.4093041, 35.6961938]]]}, "properties": {"osm_id": 1341240348, "building": "yes", "name": "", "height": null, "height_m": null, "levels": null, "tract_id": "40101001100", "tract_name": "11", "tags": {"building": "yes"}}}, {"type": "Feature", "geometry": {"type": "Polygon", "coordinates": [[[-95.4092109, 35.6966907], [-95.4089501, 35.6966899], [-95.4089503, 35.6966428], [-95.4092111, 35.6966436], [-95.4092109, 35.6966907]]]}, "properties": {"osm_id": 1341240349, "building": "yes", "name": "", "height": null, "height_m": null, "levels": null, "tract_id": "40101001100", "tract_name": "11", "tags": {"building": "yes"}}}, {"type": "Feature", "geometry": {"type": "Polygon", "coordinates": [[[-95.4069099, 35.6966273], [-95.4067386, 35.6966229], [-95.4067419, 35.6965364], [-95.4069133, 35.6965407], [-95.4069099, 35.6966273]]]}, "properties": {"osm_id": 1341240350, "building": "yes", "name": "", "height": null, "height_m": null, "levels": null, "tract_id": "40101001100", "tract_name": "11", "tags": {"building": "yes"}}}, {"type": "Feature", "geometry": {"type": "Polygon", "coordinates": [[[-95.4046375, 35.6905942], [-95.4049046, 35.6907123], [-95.4049524, 35.6906409], [-95.4048382, 35.6905905], [-95.4048514, 35.6905708], [-95.4048575, 35.6905736], [-95.404897, 35.6905146], [-95.4047892, 35.6904669], [-95.4047588, 35.6905123], [-95.4047307, 35.6904998], [-95.4046998, 35.6905459], [-95.4047299, 35.6905592], [-95.4047234, 35.6905689], [-95.4046702, 35.6905454], [-95.4046375, 35.6905942]]]}, "properties": {"osm_id": 1341240354, "building": "yes", "name": "", "height": null, "height_m": null, "levels": null, "tract_id": "40101001100", "tract_name": "11", "tags": {"building": "yes"}}}, {"type": "Feature", "geometry": {"type": "Polygon", "coordinates": [[[-95.4031525, 35.6940503], [-95.403028, 35.6940367], [-95.4030739, 35.6937593], [-95.4031984, 35.6937729], [-95.4031525, 35.6940503]]]}, "properties": {"osm_id": 1341240370, "building": "yes", "name": "", "height": null, "height_m": null, "levels": null, "tract_id": "40101001100", "tract_name": "11", "tags": {"building": "yes"}}}, {"type": "Feature", "geometry": {"type": "Polygon", "coordinates": [[[-95.4041704, 35.6952499], [-95.4041265, 35.6952402], [-95.4041654, 35.6951241], [-95.4042093, 35.6951338], [-95.4042389, 35.6950456], [-95.4045751, 35.6951199], [-95.4044758, 35.6954161], [-95.4041396, 35.6953418], [-95.4041704, 35.6952499]]]}, "properties": {"osm_id": 1341240371, "building": "yes", "name": "", "height": null, "height_m": null, "levels": null, "tract_id": "40101001100", "tract_name": "11", "tags": {"building": "yes"}}}, {"type": "Feature", "geometry": {"type": "Polygon", "coordinates": [[[-95.4039649, 35.6921173], [-95.4037802, 35.6920546], [-95.4039046, 35.6918128], [-95.4040892, 35.6918755], [-95.4039649, 35.6921173]]]}, "properties": {"osm_id": 1341240372, "building": "yes", "name": "", "height": null, "height_m": null, "levels": null, "tract_id": "40101001100", "tract_name": "11", "tags": {"building": "yes"}}}, {"type": "Feature", "geometry": {"type": "Polygon", "coordinates": [[[-95.4045667, 35.6911732], [-95.4043632, 35.6910981], [-95.4044469, 35.6909485], [-95.4046504, 35.6910236], [-95.4045667, 35.6911732]]]}, "properties": {"osm_id": 1341240373, "building": "yes", "name": "", "height": null, "height_m": null, "levels": null, "tract_id": "40101001100", "tract_name": "11", "tags": {"building": "yes"}}}, {"type": "Feature", "geometry": {"type": "Polygon", "coordinates": [[[-95.4052771, 35.6902395], [-95.405027, 35.6902311], [-95.4050319, 35.6901352], [-95.405282, 35.6901436], [-95.4052771, 35.6902395]]]}, "properties": {"osm_id": 1341240374, "building": "yes", "name": "", "height": null, "height_m": null, "levels": null, "tract_id": "40101001100", "tract_name": "11", "tags": {"building": "yes"}}}, {"type": "Feature", "geometry": {"type": "Polygon", "coordinates": [[[-95.4083469, 35.6890171], [-95.4083923, 35.6888912], [-95.4085653, 35.6889323], [-95.4085199, 35.6890582], [-95.4083469, 35.6890171]]]}, "properties": {"osm_id": 1341240375, "building": "yes", "name": "", "height": null, "height_m": null, "levels": null, "tract_id": "40101001100", "tract_name": "11", "tags": {"building": "yes"}}}, {"type": "Feature", "geometry": {"type": "Polygon", "coordinates": [[[-95.4078601, 35.6888349], [-95.407713, 35.6887724], [-95.4079008, 35.6884813], [-95.4080478, 35.6885438], [-95.4078601, 35.6888349]]]}, "properties": {"osm_id": 1341240376, "building": "yes", "name": "", "height": null, "height_m": null, "levels": null, "tract_id": "40101001100", "tract_name": "11", "tags": {"building": "yes"}}}, {"type": "Feature", "geometry": {"type": "Polygon", "coordinates": [[[-95.4060895, 35.6912808], [-95.4059675, 35.6912297], [-95.4060614, 35.6910818], [-95.4061834, 35.6911329], [-95.4060895, 35.6912808]]]}, "properties": {"osm_id": 1341240377, "building": "yes", "name": "", "height": null, "height_m": null, "levels": null, "tract_id": "40101001100", "tract_name": "11", "tags": {"building": "yes"}}}, {"type": "Feature", "geometry": {"type": "Polygon", "coordinates": [[[-95.4057358, 35.6917245], [-95.4059574, 35.6918126], [-95.4058904, 35.6919237], [-95.4056688, 35.6918356], [-95.4057358, 35.6917245]]]}, "properties": {"osm_id": 1341240378, "building": "yes", "name": "", "height": null, "height_m": null, "levels": null, "tract_id": "40101001100", "tract_name": "11", "tags": {"building": "yes"}}}, {"type": "Feature", "geometry": {"type": "Polygon", "coordinates": [[[-95.408656, 35.6922167], [-95.4086456, 35.6919667], [-95.4087593, 35.6919636], [-95.4087697, 35.6922136], [-95.408656, 35.6922167]]]}, "properties": {"osm_id": 1341240379, "building": "yes", "name": "", "height": null, "height_m": null, "levels": null, "tract_id": "40101001100", "tract_name": "11", "tags": {"building": "yes"}}}, {"type": "Feature", "geometry": {"type": "Polygon", "coordinates": [[[-95.4081075, 35.6917018], [-95.4079379, 35.6917018], [-95.4079379, 35.6915324], [-95.4081075, 35.6915324], [-95.4081075, 35.6917018]]]}, "properties": {"osm_id": 1341240380, "building": "yes", "name": "", "height": null, "height_m": null, "levels": null, "tract_id": "40101001100", "tract_name": "11", "tags": {"building": "yes"}}}, {"type": "Feature", "geometry": {"type": "Polygon", "coordinates": [[[-95.4078423, 35.6918387], [-95.4076676, 35.6918404], [-95.4076657, 35.6917038], [-95.4078404, 35.6917021], [-95.4078423, 35.6918387]]]}, "properties": {"osm_id": 1341240381, "building": "yes", "name": "", "height": null, "height_m": null, "levels": null, "tract_id": "40101001100", "tract_name": "11", "tags": {"building": "yes"}}}, {"type": "Feature", "geometry": {"type": "Polygon", "coordinates": [[[-95.4078118, 35.6921693], [-95.4076713, 35.6921696], [-95.4076703, 35.6918971], [-95.4078108, 35.6918967], [-95.4078118, 35.6921693]]]}, "properties": {"osm_id": 1341240382, "building": "yes", "name": "", "height": null, "height_m": null, "levels": null, "tract_id": "40101001100", "tract_name": "11", "tags": {"building": "yes"}}}, {"type": "Feature", "geometry": {"type": "Polygon", "coordinates": [[[-95.5128326, 35.5687719], [-95.5128098, 35.5674883], [-95.5120006, 35.5674978], [-95.5120236, 35.5687815], [-95.5128326, 35.5687719]]]}, "properties": {"osm_id": 1387080629, "building": "yes", "name": "", "height": null, "height_m": null, "levels": null, "tract_id": "40101001100", "tract_name": "11", "tags": {"building": "yes", "telecom": "data_center"}}}]}