{"type": "FeatureCollection", "features": [{"type": "Feature", "geometry": {"type": "Polygon", "coordinates": [[[-97.6212859, 35.5799169], [-97.6212865, 35.5797578], [-97.6210038, 35.5797572], [-97.6210032, 35.5799163], [-97.6212859, 35.5799169]]]}, "properties": {"osm_id": 230246184, "building": "yes", "name": "", "height": null, "height_m": null, "levels": null, "tract_id": "40109108513", "tract_name": "1085.13", "tags": {"building": "yes", "source": "Bing"}}}, {"type": "Feature", "geometry": {"type": "Polygon", "coordinates": [[[-97.621117, 35.5796748], [-97.6209212, 35.5796732], [-97.6209255, 35.5793299], [-97.6211213, 35.5793315], [-97.621117, 35.5796748]]]}, "properties": {"osm_id": 230246185, "building": "yes", "name": "", "height": null, "height_m": null, "levels": null, "tract_id": "40109108513", "tract_name": "1085.13", "tags": {"building": "yes", "source": "Bing"}}}, {"type": "Feature", "geometry": {"type": "Polygon", "coordinates": [[[-97.6216541, 35.5797708], [-97.6216535, 35.579917], [-97.6213733, 35.5799163], [-97.6213738, 35.5797702], [-97.6216541, 35.5797708]]]}, "properties": {"osm_id": 230246186, "building": "yes", "name": "", "height": null, "height_m": null, "levels": null, "tract_id": "40109108513", "tract_name": "1085.13", "tags": {"building": "yes", "source": "Bing"}}}, {"type": "Feature", "geometry": {"type": "Polygon", "coordinates": [[[-97.6218763, 35.5799281], [-97.6218699, 35.5797885], [-97.6217279, 35.5797833], [-97.6217258, 35.5799247], [-97.6218763, 35.5799281]]]}, "properties": {"osm_id": 324886817, "building": "commercial", "name": "", "height": null, "height_m": null, "levels": null, "tract_id": "40109108513", "tract_name": "1085.13", "tags": {"building": "commercial", "roof:shape": "flat"}}}, {"type": "Feature", "geometry": {"type": "Polygon", "coordinates": [[[-97.6222746, 35.5797527], [-97.6222761, 35.5796466], [-97.622417, 35.579643], [-97.6224185, 35.5797612], [-97.6222746, 35.5797527]]]}, "properties": {"osm_id": 324886826, "building": "commercial", "name": "", "height": null, "height_m": null, "levels": null, "tract_id": "40109108513", "tract_name": "1085.13", "tags": {"building": "commercial", "roof:shape": "flat"}}}, {"type": "Feature", "geometry": {"type": "Polygon", "coordinates": [[[-97.6212169, 35.5789419], [-97.6212233, 35.5787953], [-97.6210219, 35.5787936], [-97.621024, 35.5789453], [-97.6212169, 35.5789419]]]}, "properties": {"osm_id": 324886832, "building": "commercial", "name": "", "height": null, "height_m": 6.0, "levels": 2, "tract_id": "40109108513", "tract_name": "1085.13", "tags": {"building": "commercial", "building:levels": "2"}}}, {"type": "Feature", "geometry": {"type": "Polygon", "coordinates": [[[-97.6224725, 35.5799295], [-97.6224635, 35.5798136], [-97.6222806, 35.5798124], [-97.6222821, 35.5799319], [-97.6224725, 35.5799295]]]}, "properties": {"osm_id": 324886850, "building": "commercial", "name": "", "height": null, "height_m": null, "levels": null, "tract_id": "40109108513", "tract_name": "1085.13", "tags": {"building": "commercial", "roof:shape": "flat"}}}, {"type": "Feature", "geometry": {"type": "Polygon", "coordinates": [[[-97.6212212, 35.5792816], [-97.6212254, 35.5791384], [-97.6210261, 35.5791367], [-97.6210198, 35.5792816], [-97.6212212, 35.5792816]]]}, "properties": {"osm_id": 324886869, "building": "commercial", "name": "", "height": null, "height_m": 6.0, "levels": 2, "tract_id": "40109108513", "tract_name": "1085.13", "tags": {"building": "commercial", "building:levels": "2"}}}, {"type": "Feature", "geometry": {"type": "Polygon", "coordinates": [[[-97.6212127, 35.5791109], [-97.6212191, 35.5789608], [-97.6210219, 35.5789695], [-97.6210219, 35.5791022], [-97.6212127, 35.5791109]]]}, "properties": {"osm_id": 324886897, "building": "commercial", "name": "", "height": null, "height_m": 6.0, "levels": 2, "tract_id": "40109108513", "tract_name": "1085.13", "tags": {"building": "commercial", "building:levels": "2"}}}, {"type": "Feature", "geometry": {"type": "Polygon", "coordinates": [[[-97.6228014, 35.5799274], [-97.6228128, 35.5797907], [-97.6226328, 35.5797877], [-97.6226286, 35.5798601], [-97.6225989, 35.579861], [-97.6226042, 35.57993], [-97.6228014, 35.5799274]]]}, "properties": {"osm_id": 324886908, "building": "commercial", "name": "", "height": null, "height_m": null, "levels": null, "tract_id": "40109108513", "tract_name": "1085.13", "tags": {"building": "commercial", "roof:shape": "flat"}}}, {"type": "Feature", "geometry": {"type": "Polygon", "coordinates": [[[-97.621959, 35.5796816], [-97.6219653, 35.5795988], [-97.62173, 35.579604], [-97.6217236, 35.579754], [-97.6218063, 35.579754], [-97.6218084, 35.5796936], [-97.621959, 35.5796816]]]}, "properties": {"osm_id": 324886910, "building": "commercial", "name": "", "height": null, "height_m": 6.0, "levels": 2, "tract_id": "40109108513", "tract_name": "1085.13", "tags": {"building": "commercial", "building:levels": "2"}}}, {"type": "Feature", "geometry": {"type": "Polygon", "coordinates": [[[-97.6220227, 35.579699], [-97.6220212, 35.5795978], [-97.6222356, 35.5795917], [-97.6222476, 35.5797698], [-97.6221621, 35.5797661], [-97.6221621, 35.5797076], [-97.6220227, 35.579699]]]}, "properties": {"osm_id": 324886917, "building": "commercial", "name": "", "height": null, "height_m": null, "levels": null, "tract_id": "40109108513", "tract_name": "1085.13", "tags": {"building": "commercial", "roof:shape": "flat"}}}, {"type": "Feature", "geometry": {"type": "Polygon", "coordinates": [[[-97.6220212, 35.5799331], [-97.6222371, 35.5799331], [-97.6222371, 35.57981], [-97.6221606, 35.5798088], [-97.6221591, 35.5798405], [-97.6220212, 35.5798429], [-97.6220212, 35.5799331]]]}, "properties": {"osm_id": 324886918, "building": "commercial", "name": "", "height": null, "height_m": null, "levels": null, "tract_id": "40109108513", "tract_name": "1085.13", "tags": {"building": "commercial", "roof:shape": "flat"}}}, {"type": "Feature", "geometry": {"type": "Polygon", "coordinates": [[[-97.6381013, 35.5794747], [-97.6379194, 35.5794766], [-97.6379163, 35.5792847], [-97.6380983, 35.5792828], [-97.6381013, 35.5794747]]]}, "properties": {"osm_id": 457080341, "building": "yes", "name": "", "height": null, "height_m": null, "levels": null, "tract_id": "40109108513", "tract_name": "1085.13", "tags": {"building": "yes", "shop": "car_repair"}}}, {"type": "Feature", "geometry": {"type": "Polygon", "coordinates": [[[-97.637417, 35.5796995], [-97.6373019, 35.5796982], [-97.6373052, 35.5794946], [-97.6374204, 35.5794959], [-97.637417, 35.5796995]]]}, "properties": {"osm_id": 457080342, "building": "yes", "name": "Freddy's", "height": null, "height_m": null, "levels": null, "tract_id": "40109108513", "tract_name": "1085.13", "tags": {"addr:city": "Oklahoma City", "addr:housenumber": "7010", "addr:postcode": "73162", "addr:state": "OK", "addr:street": "West Hefner Road", "amenity": "fast_food", "brand": "Freddy's", "brand:wikidata": "Q5496837", "building": "yes", "cuisine": "ice_cream;burger", "drive_through": "yes", "name": "Freddy's", "official_name": "Freddy's Frozen Custard & Steakburgers", "takeaway": "yes"}}}, {"type": "Feature", "geometry": {"type": "Polygon", "coordinates": [[[-97.6381074, 35.5797926], [-97.6381073, 35.5796905], [-97.6379958, 35.5796906], [-97.6379958, 35.5796973], [-97.6378861, 35.5796974], [-97.6378862, 35.579786], [-97.6379923, 35.5797859], [-97.6379924, 35.5797927], [-97.6381074, 35.5797926]]]}, "properties": {"osm_id": 457080343, "building": "yes", "name": "Taco Bell", "height": null, "height_m": null, "levels": null, "tract_id": "40109108513", "tract_name": "1085.13", "tags": {"addr:city": "Oklahoma City", "addr:housenumber": "10830", "addr:postcode": "73162", "addr:state": "OK", "addr:street": "North Rockwell Avenue", "amenity": "fast_food", "brand": "Taco Bell", "brand:wikidata": "Q752941", "building": "yes", "cuisine": "tex-mex", "drive_through": "yes", "name": "Taco Bell", "opening_hours": "07:00-03:00", "phone": "+1 405-721-8850", "takeaway": "yes", "website": "https://locations.tacobell.com/ok/oklahoma-city/10830-n-rockwell-ave.html"}}}, {"type": "Feature", "geometry": {"type": "Polygon", "coordinates": [[[-97.6380516, 35.5788973], [-97.6377364, 35.5788977], [-97.6377365, 35.578934], [-97.6377365, 35.5789505], [-97.63765, 35.5789506], [-97.63765, 35.5789361], [-97.6376499, 35.578899], [-97.6375504, 35.5788991], [-97.63755, 35.5786922], [-97.6379342, 35.5786918], [-97.6379341, 35.578666], [-97.6380512, 35.5786658], [-97.6380516, 35.5788973]]]}, "properties": {"osm_id": 567281264, "building": "yes", "name": "CVS Pharmacy", "height": null, "height_m": null, "levels": null, "tract_id": "40109108513", "tract_name": "1085.13", "tags": {"brand": "CVS Pharmacy", "brand:website": "https://www.cvs.com/", "brand:wikidata": "Q2078880", "building": "yes", "name": "CVS Pharmacy", "shop": "chemist", "short_name": "CVS", "website": "https://www.cvs.com/store-locator/oklahoma-city-ok-pharmacies/10800-n-rockwell-ave-oklahoma-city-ok-73162/storeid=6072"}}}, {"type": "Feature", "geometry": {"type": "Polygon", "coordinates": [[[-97.6368875, 35.579823], [-97.6368074, 35.5798241], [-97.6368074, 35.5795586], [-97.6367826, 35.5795563], [-97.6367797, 35.5795124], [-97.6368861, 35.5795148], [-97.6368875, 35.579823]]]}, "properties": {"osm_id": 567391416, "building": "yes", "name": "", "height": null, "height_m": null, "levels": null, "tract_id": "40109108513", "tract_name": "1085.13", "tags": {"amenity": "car_wash", "building": "yes"}}}, {"type": "Feature", "geometry": {"type": "Polygon", "coordinates": [[[-97.6379922, 35.5784503], [-97.637711, 35.5784456], [-97.637711, 35.5782299], [-97.6379908, 35.5782299], [-97.6379922, 35.5784503]]]}, "properties": {"osm_id": 567391417, "building": "yes", "name": "O'Reilly Auto Parts", "height": null, "height_m": 3.0, "levels": 1, "tract_id": "40109108513", "tract_name": "1085.13", "tags": {"addr:housenumber": "10700", "addr:postcode": "73162", "addr:street": "North Rockwell Avenue", "brand": "O'Reilly Auto Parts", "brand:wikidata": "Q7071951", "building": "yes", "building:levels": "1", "name": "O'Reilly Auto Parts", "opening_hours": "Mo-Sa 07:30-21:00, Su 09:00-21:00", "phone": "(405) 720-1750", "shop": "car_parts", "website": "https://locations.oreillyauto.com/ok/oklahomacity/autoparts-316.html"}}}]}