{"type": "FeatureCollection", "features": [{"type": "Feature", "geometry": {"type": "Polygon", "coordinates": [[[-97.1549289, 34.160532], [-97.1550404, 34.160434], [-97.1548561, 34.1602905], [-97.1547136, 34.1604158], [-97.1547928, 34.1604776], [-97.1548239, 34.1604503], [-97.1549289, 34.160532]]]}, "properties": {"osm_id": 705614570, "building": "house", "name": "", "height": null, "height_m": 3.0, "levels": 1, "tract_id": "40019893001", "tract_name": "8930.01", "tags": {"addr:city": "Ardmore", "addr:housenumber": "2004", "addr:postcode": "73401", "addr:state": "OK", "addr:street": "Yorktown Court", "building": "house", "building:levels": "1"}}}, {"type": "Feature", "geometry": {"type": "Polygon", "coordinates": [[[-97.1641143, 34.1720023], [-97.1641118, 34.1718068], [-97.1637962, 34.1718096], [-97.1637988, 34.1720051], [-97.1641143, 34.1720023]]]}, "properties": {"osm_id": 865227546, "building": "yes", "name": "Two Frogs Grill", "height": null, "height_m": null, "levels": null, "tract_id": "40019893001", "tract_name": "8930.01", "tags": {"addr:city": "Ardmore", "addr:housenumber": "2646", "addr:postcode": "73401", "addr:state": "OK", "addr:street": "West Broadway Street", "amenity": "restaurant", "building": "yes", "name": "Two Frogs Grill"}}}, {"type": "Feature", "geometry": {"type": "Polygon", "coordinates": [[[-97.1645309, 34.1721263], [-97.1645242, 34.1718847], [-97.1643226, 34.1718886], [-97.1643294, 34.1721301], [-97.1645309, 34.1721263]]]}, "properties": {"osm_id": 865227547, "building": "yes", "name": "Applebee's", "height": null, "height_m": null, "levels": null, "tract_id": "40019893001", "tract_name": "8930.01", "tags": {"addr:city": "Ardmore", "addr:housenumber": "2680", "addr:postcode": "73401", "addr:state": "OK", "addr:street": "West Broadway Street", "amenity": "restaurant", "brand": "Applebee's Neighborhood Grill & Bar", "brand:wikidata": "Q621532", "building": "yes", "cuisine": "american", "name": "Applebee's", "official_name": "Applebee's Neighborhood Grill & Bar", "phone": "+1 580-490-3373", "website": "https://restaurants.applebees.com/en-us/ok/ardmore/2680-w.-broadway-94010", "website:menu": "https://www.applebees.com/en/menu?StoreNumber=94010&action=viewmenu"}}}, {"type": "Feature", "geometry": {"type": "Polygon", "coordinates": [[[-97.1649836, 34.1721707], [-97.1649801, 34.1720687], [-97.1650764, 34.1720664], [-97.1650759, 34.172053], [-97.1651405, 34.1720515], [-97.1651401, 34.1720402], [-97.1652234, 34.1720383], [-97.1651896, 34.1710543], [-97.1649875, 34.1710591], [-97.1650144, 34.1718412], [-97.1651031, 34.1718391], [-97.1651045, 34.1718812], [-97.1647669, 34.1718892], [-97.1647732, 34.1720713], [-97.1648692, 34.172069], [-97.1648728, 34.1721733], [-97.1649836, 34.1721707]]]}, "properties": {"osm_id": 865227548, "building": "yes", "name": "Econo Lodge", "height": null, "height_m": null, "levels": null, "tract_id": "40019893001", "tract_name": "8930.01", "tags": {"addr:city": "Ardmore", "addr:housenumber": "2700", "addr:postcode": "73401", "addr:state": "OK", "addr:street": "West Broadway Street", "brand": "Econo Lodge", "brand:wikidata": "Q5333330", "building": "yes", "name": "Econo Lodge", "phone": "+1 580-226-1250", "ref": "OK410", "tourism": "motel", "website": "https://www.choicehotels.com/oklahoma/ardmore/econo-lodge-hotels"}}}, {"type": "Feature", "geometry": {"type": "Polygon", "coordinates": [[[-97.1633785, 34.1723336], [-97.1633766, 34.1722814], [-97.163374, 34.1722056], [-97.163398, 34.172205], [-97.1633792, 34.1716728], [-97.163168, 34.1716779], [-97.1631875, 34.1722336], [-97.1632848, 34.1722313], [-97.1632867, 34.1722845], [-97.1632885, 34.1723358], [-97.1633785, 34.1723336]]]}, "properties": {"osm_id": 865227549, "building": "yes", "name": "Days Inn", "height": null, "height_m": null, "levels": null, "tract_id": "40019893001", "tract_name": "8930.01", "tags": {"addr:city": "Ardmore", "addr:housenumber": "2614", "addr:postcode": "73401", "addr:state": "OK", "addr:street": "West Broadway Street", "branch": "Ardmore", "brand": "Days Inn", "brand:wikidata": "Q1047239", "building": "yes", "name": "Days Inn", "phone": "+1 580-226-1761", "ref": "14383", "tourism": "hotel", "website": "https://www.wyndhamhotels.com/days-inn/ardmore-oklahoma/days-inn-ardmore/overview"}}}, {"type": "Feature", "geometry": {"type": "Polygon", "coordinates": [[[-97.1633873, 34.173693], [-97.163386, 34.1734662], [-97.1632342, 34.1734668], [-97.1632356, 34.1736936], [-97.1633873, 34.173693]]]}, "properties": {"osm_id": 865227550, "building": "yes", "name": "KFC", "height": null, "height_m": null, "levels": null, "tract_id": "40019893001", "tract_name": "8930.01", "tags": {"addr:city": "Ardmore", "addr:housenumber": "2615", "addr:postcode": "73401", "addr:state": "OK", "addr:street": "West Broadway Street", "alt_name": "Kentucky Fried Chicken", "amenity": "fast_food", "brand": "KFC", "brand:wikidata": "Q524757", "building": "yes", "cuisine": "chicken", "name": "KFC", "takeaway": "yes", "website": "https://locations.kfc.com/ok/ardmore/2615-w-broadway-street"}}}, {"type": "Feature", "geometry": {"type": "Polygon", "coordinates": [[[-97.1654071, 34.1740412], [-97.1654055, 34.1738345], [-97.1650961, 34.1738362], [-97.1650977, 34.1740428], [-97.1654071, 34.1740412]]]}, "properties": {"osm_id": 865227551, "building": "yes", "name": "Prairie Kitchen", "height": null, "height_m": null, "levels": null, "tract_id": "40019893001", "tract_name": "8930.01", "tags": {"addr:city": "Ardmore", "addr:housenumber": "102", "addr:postcode": "73401", "addr:state": "OK", "addr:street": "Holiday Drive", "amenity": "restaurant", "building": "yes", "cuisine": "american", "name": "Prairie Kitchen"}}}, {"type": "Feature", "geometry": {"type": "Polygon", "coordinates": [[[-97.1633565, 34.171342], [-97.1633529, 34.1711579], [-97.1634749, 34.1711562], [-97.1634725, 34.1710367], [-97.1633349, 34.1710386], [-97.163327, 34.1706422], [-97.1631083, 34.1706452], [-97.1631119, 34.1708296], [-97.1631588, 34.170829], [-97.1631633, 34.1710583], [-97.1629677, 34.1710609], [-97.1629716, 34.171258], [-97.1631416, 34.1712557], [-97.1631433, 34.1713449], [-97.1633565, 34.171342]]]}, "properties": {"osm_id": 865227553, "building": "yes", "name": "Comfort Inn & Suites", "height": null, "height_m": null, "levels": null, "tract_id": "40019893001", "tract_name": "8930.01", "tags": {"addr:city": "Ardmore", "addr:housenumber": "410", "addr:postcode": "73401", "addr:state": "OK", "addr:street": "Railway Express", "branch": "Ardmore", "brand": "Comfort Inn & Suites", "brand:wikidata": "Q113152349", "building": "yes", "name": "Comfort Inn & Suites", "phone": "+1 580-798-3200", "ref": "OK214", "tourism": "hotel", "website": "https://www.choicehotels.com/oklahoma/ardmore/econo-lodge-hotels"}}}, {"type": "Feature", "geometry": {"type": "Polygon", "coordinates": [[[-97.1639649, 34.1705532], [-97.163955, 34.170161], [-97.1637294, 34.1701649], [-97.1637346, 34.1703697], [-97.1636979, 34.1703704], [-97.1637005, 34.1704737], [-97.1637446, 34.170473], [-97.1637467, 34.170557], [-97.1639649, 34.1705532]]]}, "properties": {"osm_id": 865227554, "building": "yes", "name": "Southern Oklahoma Library System", "height": null, "height_m": null, "levels": null, "tract_id": "40019893001", "tract_name": "8930.01", "tags": {"addr:city": "Ardmore", "addr:housenumber": "601", "addr:postcode": "73401", "addr:state": "OK", "addr:street": "Railway Express", "amenity": "library", "building": "yes", "name": "Southern Oklahoma Library System"}}}, {"type": "Feature", "geometry": {"type": "Polygon", "coordinates": [[[-97.1616575, 34.1723291], [-97.1616597, 34.1722166], [-97.1616319, 34.1722162], [-97.1616344, 34.1720983], [-97.1617085, 34.1720994], [-97.1617578, 34.1721001], [-97.1617601, 34.1719925], [-97.1617081, 34.1719917], [-97.161655, 34.1719909], [-97.1616554, 34.1719718], [-97.1616291, 34.171966], [-97.1616302, 34.1718549], [-97.1616073, 34.1718548], [-97.1616075, 34.1718393], [-97.1616534, 34.1718397], [-97.1616545, 34.1717462], [-97.16154, 34.1717453], [-97.1615404, 34.1717131], [-97.161447, 34.1717123], [-97.1614467, 34.1717408], [-97.1614055, 34.1717404], [-97.1614002, 34.1721116], [-97.1613789, 34.1721114], [-97.161376, 34.1722796], [-97.1614037, 34.17228], [-97.1614028, 34.1723257], [-97.1616575, 34.1723291]]]}, "properties": {"osm_id": 865227555, "building": "yes", "name": "Best Western Plus", "height": null, "height_m": null, "levels": null, "tract_id": "40019893001", "tract_name": "8930.01", "tags": {"addr:city": "Ardmore", "addr:housenumber": "2600", "addr:postcode": "73401", "addr:state": "OK", "addr:street": "West Broadway Street", "branch": "Ardmore Inn & Suites", "brand": "Best Western Plus", "brand:wikidata": "Q830334", "building": "yes", "name": "Best Western Plus", "phone": "+1 580-223-3200", "ref": "37131", "tourism": "hotel", "website": "https://www.bestwestern.com/en_US/book/hotels-in-ardmore/best-western-plus-ardmore-inn-suites/propertyCode.37131.html"}}}, {"type": "Feature", "geometry": {"type": "Polygon", "coordinates": [[[-97.1611446, 34.1724611], [-97.1611452, 34.1723864], [-97.1607549, 34.1723841], [-97.1607542, 34.1724588], [-97.1611446, 34.1724611]]]}, "properties": {"osm_id": 865227556, "building": "roof", "name": "Valero", "height": null, "height_m": null, "levels": null, "tract_id": "40019893001", "tract_name": "8930.01", "tags": {"amenity": "fuel", "brand": "Valero", "brand:wikidata": "Q1283291", "building": "roof", "name": "Valero", "website": "https://locations.valero.com/en-us/LocationDetails/Index/2500-W-BROADWAY/0000003171"}}}, {"type": "Feature", "geometry": {"type": "Polygon", "coordinates": [[[-97.1611149, 34.1722189], [-97.1611158, 34.1721075], [-97.1608154, 34.1721058], [-97.1608144, 34.1722201], [-97.1609012, 34.1722206], [-97.160901, 34.1722456], [-97.1609618, 34.172246], [-97.160962, 34.172218], [-97.1611149, 34.1722189]]]}, "properties": {"osm_id": 865227557, "building": "yes", "name": "", "height": null, "height_m": null, "levels": null, "tract_id": "40019893001", "tract_name": "8930.01", "tags": {"addr:city": "Ardmore", "addr:housenumber": "2500", "addr:postcode": "73401", "addr:state": "OK", "addr:street": "West Broadway Street", "branch": "One Stop", "building": "yes", "shop": "convenience"}}}, {"type": "Feature", "geometry": {"type": "Polygon", "coordinates": [[[-97.1601606, 34.1720303], [-97.1601613, 34.1719241], [-97.1599116, 34.1719231], [-97.1599113, 34.171974], [-97.1598845, 34.1719738], [-97.1598841, 34.1720369], [-97.159916, 34.1720371], [-97.1599159, 34.1720557], [-97.1600491, 34.1720562], [-97.1600493, 34.1720298], [-97.1601606, 34.1720303]]]}, "properties": {"osm_id": 865227558, "building": "yes", "name": "Pizza Hut", "height": null, "height_m": null, "levels": null, "tract_id": "40019893001", "tract_name": "8930.01", "tags": {"addr:city": "Ardmore", "addr:housenumber": "410", "addr:postcode": "73401", "addr:state": "OK", "addr:street": "South Rockford Road", "amenity": "restaurant", "brand": "Pizza Hut", "brand:wikidata": "Q191615", "building": "yes", "cuisine": "pizza", "name": "Pizza Hut", "phone": "+1 580-226-5050", "website": "https://locations.pizzahut.com/ok/ardmore/410-s-rockford-rd"}}}, {"type": "Feature", "geometry": {"type": "Polygon", "coordinates": [[[-97.1425667, 34.1516549], [-97.1425648, 34.1512934], [-97.1423236, 34.1512943], [-97.1423255, 34.1516557], [-97.1425667, 34.1516549]]]}, "properties": {"osm_id": 865500773, "building": "yes", "name": "Dollar General", "height": null, "height_m": null, "levels": null, "tract_id": "40019893001", "tract_name": "8930.01", "tags": {"addr:city": "Ardmore", "addr:housenumber": "1492", "addr:postcode": "73401", "addr:state": "OK", "addr:street": "South Commerce Street", "brand": "Dollar General", "brand:wikidata": "Q145168", "building": "yes", "name": "Dollar General", "shop": "variety_store", "website": "https://www.dollargeneral.com/store-directory/ok/ardmore/20336"}}}, {"type": "Feature", "geometry": {"type": "Polygon", "coordinates": [[[-97.1354667, 34.1635731], [-97.1352981, 34.163577], [-97.13529, 34.1633344], [-97.1354586, 34.1633306], [-97.1354667, 34.1635731]]]}, "properties": {"osm_id": 990979321, "building": "yes", "name": "", "height": null, "height_m": null, "levels": null, "tract_id": "40019893001", "tract_name": "8930.01", "tags": {"building": "yes"}}}, {"type": "Feature", "geometry": {"type": "Polygon", "coordinates": [[[-97.1362231, 34.1639991], [-97.1360645, 34.1639983], [-97.1360653, 34.1638835], [-97.136224, 34.1638842], [-97.1362231, 34.1639991]]]}, "properties": {"osm_id": 990979322, "building": "house", "name": "", "height": null, "height_m": null, "levels": null, "tract_id": "40019893001", "tract_name": "8930.01", "tags": {"building": "house"}}}, {"type": "Feature", "geometry": {"type": "Polygon", "coordinates": [[[-97.1357743, 34.1644338], [-97.1356075, 34.1644366], [-97.1356019, 34.1642059], [-97.1357687, 34.1642031], [-97.1357743, 34.1644338]]]}, "properties": {"osm_id": 990979323, "building": "yes", "name": "", "height": null, "height_m": null, "levels": null, "tract_id": "40019893001", "tract_name": "8930.01", "tags": {"building": "yes"}}}, {"type": "Feature", "geometry": {"type": "Polygon", "coordinates": [[[-97.1357286, 34.1648337], [-97.1355253, 34.1648355], [-97.1355237, 34.1647118], [-97.135727, 34.16471], [-97.1357286, 34.1648337]]]}, "properties": {"osm_id": 990979324, "building": "yes", "name": "", "height": null, "height_m": null, "levels": null, "tract_id": "40019893001", "tract_name": "8930.01", "tags": {"building": "yes"}}}, {"type": "Feature", "geometry": {"type": "Polygon", "coordinates": [[[-97.1368044, 34.1644074], [-97.1365344, 34.1644066], [-97.1365349, 34.1642798], [-97.136805, 34.1642805], [-97.1368044, 34.1644074]]]}, "properties": {"osm_id": 990979325, "building": "yes", "name": "", "height": null, "height_m": null, "levels": null, "tract_id": "40019893001", "tract_name": "8930.01", "tags": {"building": "yes"}}}, {"type": "Feature", "geometry": {"type": "Polygon", "coordinates": [[[-97.1364528, 34.1644005], [-97.1360139, 34.1644005], [-97.1360139, 34.1642822], [-97.1364528, 34.1642823], [-97.1364528, 34.1644005]]]}, "properties": {"osm_id": 990979326, "building": "yes", "name": "", "height": null, "height_m": null, "levels": null, "tract_id": "40019893001", "tract_name": "8930.01", "tags": {"building": "yes"}}}, {"type": "Feature", "geometry": {"type": "Polygon", "coordinates": [[[-97.1375861, 34.1650507], [-97.137409, 34.165051], [-97.1374087, 34.1649595], [-97.1370804, 34.16496], [-97.1370799, 34.1647763], [-97.1375855, 34.1647756], [-97.1375861, 34.1650507]]]}, "properties": {"osm_id": 990979327, "building": "yes", "name": "", "height": null, "height_m": null, "levels": null, "tract_id": "40019893001", "tract_name": "8930.01", "tags": {"building": "yes"}}}, {"type": "Feature", "geometry": {"type": "Polygon", "coordinates": [[[-97.1639472, 34.1608175], [-97.1637398, 34.1608835], [-97.1638569, 34.1611355], [-97.163964, 34.1611015], [-97.16392, 34.1610067], [-97.1640203, 34.1609748], [-97.1639472, 34.1608175]]]}, "properties": {"osm_id": 1194106210, "building": "detached", "name": "", "height": null, "height_m": null, "levels": null, "tract_id": "40019893001", "tract_name": "8930.01", "tags": {"building": "detached", "source": "microsoft/BuildingFootprints"}}}, {"type": "Feature", "geometry": {"type": "Polygon", "coordinates": [[[-97.1638319, 34.1607459], [-97.163791, 34.1606619], [-97.163844, 34.1606442], [-97.1638254, 34.160606], [-97.1637631, 34.1606268], [-97.1637361, 34.1605715], [-97.1636785, 34.1605907], [-97.1636911, 34.1606167], [-97.1636335, 34.160636], [-97.1636837, 34.1607391], [-97.1636422, 34.1607529], [-97.1636854, 34.1608414], [-97.163803, 34.1608021], [-97.1637835, 34.1607621], [-97.1638319, 34.1607459]]]}, "properties": {"osm_id": 1194106211, "building": "detached", "name": "", "height": null, "height_m": null, "levels": null, "tract_id": "40019893001", "tract_name": "8930.01", "tags": {"building": "detached", "source": "microsoft/BuildingFootprints"}}}, {"type": "Feature", "geometry": {"type": "Polygon", "coordinates": [[[-97.163681, 34.1618202], [-97.1638257, 34.1618171], [-97.1638272, 34.1618623], [-97.1638871, 34.1618609], [-97.1638854, 34.1618069], [-97.1639041, 34.1618065], [-97.1639029, 34.1617685], [-97.1639127, 34.1617683], [-97.1639105, 34.161702], [-97.1637551, 34.1617054], [-97.1637545, 34.1616877], [-97.1636768, 34.1616894], [-97.163681, 34.1618202]]]}, "properties": {"osm_id": 1194106212, "building": "detached", "name": "", "height": null, "height_m": null, "levels": null, "tract_id": "40019893001", "tract_name": "8930.01", "tags": {"building": "detached", "source": "microsoft/BuildingFootprints"}}}, {"type": "Feature", "geometry": {"type": "Polygon", "coordinates": [[[-97.1642491, 34.161523], [-97.1641314, 34.1616278], [-97.1640623, 34.1615746], [-97.1640021, 34.1616282], [-97.1641863, 34.1617699], [-97.1643642, 34.1616115], [-97.1642491, 34.161523]]]}, "properties": {"osm_id": 1194106213, "building": "detached", "name": "", "height": null, "height_m": null, "levels": null, "tract_id": "40019893001", "tract_name": "8930.01", "tags": {"building": "detached", "source": "microsoft/BuildingFootprints"}}}, {"type": "Feature", "geometry": {"type": "Polygon", "coordinates": [[[-97.1657298, 34.1749284], [-97.1655817, 34.1749272], [-97.1655823, 34.1748777], [-97.1651254, 34.1748741], [-97.1651269, 34.1747492], [-97.1651889, 34.1747497], [-97.1651922, 34.1744637], [-97.1653278, 34.1744647], [-97.1653274, 34.1745072], [-97.1657841, 34.1745108], [-97.1657828, 34.1746283], [-97.1657333, 34.1746279], [-97.1657298, 34.1749284]]]}, "properties": {"osm_id": 1225868774, "building": "yes", "name": "Motel 6 Ardmore, OK", "height": null, "height_m": null, "levels": null, "tract_id": "40019893001", "tract_name": "8930.01", "tags": {"brand": "Motel 6", "brand:wikidata": "Q2188884", "building": "yes", "name": "Motel 6 Ardmore, OK", "tourism": "motel"}}}, {"type": "Feature", "geometry": {"type": "Polygon", "coordinates": [[[-97.1650759, 34.1772143], [-97.165205, 34.1772136], [-97.1652046, 34.1771726], [-97.1656361, 34.1771701], [-97.1656366, 34.1772302], [-97.1657638, 34.1772294], [-97.1657615, 34.1769568], [-97.1656396, 34.1769575], [-97.16564, 34.1769972], [-97.1652201, 34.1769995], [-97.1652197, 34.1769615], [-97.1650739, 34.1769623], [-97.1650759, 34.1772143]]]}, "properties": {"osm_id": 1225869294, "building": "yes", "name": "Boarders Inn & Suites by Cobblestone Hotels", "height": null, "height_m": null, "levels": null, "tract_id": "40019893001", "tract_name": "8930.01", "tags": {"building": "yes", "name": "Boarders Inn & Suites by Cobblestone Hotels", "tourism": "hotel"}}}, {"type": "Feature", "geometry": {"type": "Polygon", "coordinates": [[[-97.1622874, 34.1734337], [-97.1625108, 34.1734312], [-97.1625153, 34.1736998], [-97.1623705, 34.1737015], [-97.1623674, 34.1735165], [-97.1622888, 34.1735174], [-97.1622874, 34.1734337]]]}, "properties": {"osm_id": 1239194534, "building": "yes", "name": "Burger King", "height": null, "height_m": null, "levels": null, "tract_id": "40019893001", "tract_name": "8930.01", "tags": {"addr:city": "Ardmore", "addr:housenumber": "2605", "addr:postcode": "73401-2530", "addr:state": "OK", "addr:street": "West Broadway", "amenity": "fast_food", "brand": "Burger King", "brand:wikidata": "Q177054", "building": "yes", "cuisine": "burger", "delivery": "yes", "drive_through": "yes", "internet_access": "wlan", "name": "Burger King", "opening_hours": "Mo 06:00-22:00; Tu 10:00-22:00; We-Sa 06:00-22:00; Su 07:00-22:00", "phone": "+1 580-223-1661", "ref": "4619", "takeaway": "yes", "website": "https://www.bk.com/store-locator/store/restaurant_2583"}}}, {"type": "Feature", "geometry": {"type": "Polygon", "coordinates": [[[-97.1628085, 34.1734221], [-97.1629141, 34.1734238], [-97.1629091, 34.1736277], [-97.1628036, 34.173626], [-97.1628085, 34.1734221]]]}, "properties": {"osm_id": 1239194535, "building": "yes", "name": "", "height": null, "height_m": null, "levels": null, "tract_id": "40019893001", "tract_name": "8930.01", "tags": {"amenity": "restaurant", "building": "yes", "cuisine": "mexican"}}}, {"type": "Feature", "geometry": {"type": "Polygon", "coordinates": [[[-97.1608178, 34.1733267], [-97.1608157, 34.1731604], [-97.1609114, 34.1731596], [-97.1609136, 34.1733256], [-97.1608178, 34.1733267]]]}, "properties": {"osm_id": 1239194542, "building": "roof", "name": "Shell Express", "height": null, "height_m": null, "levels": null, "tract_id": "40019893001", "tract_name": "8930.01", "tags": {"amenity": "fuel", "brand": "Shell Express", "brand:wikidata": "Q2289188", "building": "roof", "name": "Shell Express"}}}, {"type": "Feature", "geometry": {"type": "Polygon", "coordinates": [[[-97.1609136, 34.1733256], [-97.1609874, 34.1733247], [-97.1609891, 34.1734198], [-97.1608065, 34.173422], [-97.1608047, 34.1733269], [-97.1608178, 34.1733267], [-97.1609136, 34.1733256]]]}, "properties": {"osm_id": 1239194543, "building": "yes", "name": "Shell", "height": null, "height_m": null, "levels": null, "tract_id": "40019893001", "tract_name": "8930.01", "tags": {"brand": "Shell", "brand:wikidata": "Q110716465", "building": "yes", "name": "Shell", "shop": "convenience"}}}, {"type": "Feature", "geometry": {"type": "Polygon", "coordinates": [[[-97.1661375, 34.1752644], [-97.1661375, 34.1754668], [-97.1659817, 34.1754668], [-97.1659817, 34.1754217], [-97.1657677, 34.1754217], [-97.1657677, 34.1753441], [-97.1658397, 34.1753441], [-97.1658397, 34.1752644], [-97.1661375, 34.1752644]]]}, "properties": {"osm_id": 1279480153, "building": "yes", "name": "", "height": null, "height_m": null, "levels": null, "tract_id": "40019893001", "tract_name": "8930.01", "tags": {"building": "yes"}}}, {"type": "Feature", "geometry": {"type": "Polygon", "coordinates": [[[-97.1653524, 34.1762431], [-97.1653511, 34.1765191], [-97.1650788, 34.1765182], [-97.1650802, 34.1762422], [-97.1653524, 34.1762431]]]}, "properties": {"osm_id": 1279480154, "building": "yes", "name": "", "height": null, "height_m": null, "levels": null, "tract_id": "40019893001", "tract_name": "8930.01", "tags": {"building": "yes"}}}, {"type": "Feature", "geometry": {"type": "Polygon", "coordinates": [[[-97.1671562, 34.176465], [-97.1671551, 34.1766891], [-97.1664846, 34.1766869], [-97.1664856, 34.1764628], [-97.1671562, 34.176465]]]}, "properties": {"osm_id": 1279480155, "building": "yes", "name": "", "height": null, "height_m": null, "levels": null, "tract_id": "40019893001", "tract_name": "8930.01", "tags": {"building": "yes"}}}, {"type": "Feature", "geometry": {"type": "Polygon", "coordinates": [[[-97.1463434, 34.1607739], [-97.146342, 34.1606454], [-97.1461868, 34.1606465], [-97.1461861, 34.1605746], [-97.1460038, 34.1605759], [-97.1460066, 34.1608501], [-97.1461903, 34.1608488], [-97.1461895, 34.160775], [-97.1463434, 34.1607739]]]}, "properties": {"osm_id": 1303985256, "building": "yes", "name": "", "height": null, "height_m": null, "levels": null, "tract_id": "40019893001", "tract_name": "8930.01", "tags": {"building": "yes"}}}, {"type": "Feature", "geometry": {"type": "Polygon", "coordinates": [[[-97.161461, 34.1674184], [-97.1614608, 34.1673604], [-97.1614081, 34.1673605], [-97.1614083, 34.1674185], [-97.161461, 34.1674184]]]}, "properties": {"osm_id": 1333194952, "building": "yes", "name": "", "height": null, "height_m": null, "levels": null, "tract_id": "40019893001", "tract_name": "8930.01", "tags": {"building": "yes"}}}, {"type": "Feature", "geometry": {"type": "Polygon", "coordinates": [[[-97.1613231, 34.1673657], [-97.1613252, 34.1672107], [-97.1610619, 34.1672084], [-97.1610599, 34.167354], [-97.16101, 34.1673536], [-97.1610091, 34.1674279], [-97.1610511, 34.1674283], [-97.1610496, 34.1675448], [-97.161072, 34.167545], [-97.1610719, 34.1675592], [-97.1612137, 34.1675605], [-97.1612163, 34.1673648], [-97.1613231, 34.1673657]]]}, "properties": {"osm_id": 1333194953, "building": "yes", "name": "", "height": null, "height_m": null, "levels": null, "tract_id": "40019893001", "tract_name": "8930.01", "tags": {"building": "yes"}}}, {"type": "Feature", "geometry": {"type": "Polygon", "coordinates": [[[-97.1385263, 34.1349267], [-97.137591, 34.1349219], [-97.1375948, 34.1344281], [-97.1355852, 34.1344174], [-97.1355898, 34.1338231], [-97.1345556, 34.1338176], [-97.1345582, 34.1334695], [-97.1373299, 34.1334836], [-97.1373328, 34.1330864], [-97.1385401, 34.1330927], [-97.1385263, 34.1349267]]]}, "properties": {"osm_id": 1373762916, "building": "yes", "name": "", "height": null, "height_m": null, "levels": null, "tract_id": "40019893001", "tract_name": "8930.01", "tags": {"building": "yes"}}}, {"type": "Feature", "geometry": {"type": "Polygon", "coordinates": [[[-97.1347923, 34.1377736], [-97.1347963, 34.1386437], [-97.1361543, 34.1386394], [-97.1361541, 34.1385876], [-97.1362611, 34.1385873], [-97.1362604, 34.1384114], [-97.1368348, 34.1384096], [-97.1368327, 34.1379329], [-97.1368029, 34.137933], [-97.1368022, 34.1377672], [-97.1347923, 34.1377736]]]}, "properties": {"osm_id": 1373762918, "building": "yes", "name": "", "height": null, "height_m": null, "levels": null, "tract_id": "40019893001", "tract_name": "8930.01", "tags": {"building": "yes"}}}, {"type": "Feature", "geometry": {"type": "Polygon", "coordinates": [[[-97.1383737, 34.1371323], [-97.1383707, 34.1374346], [-97.1385955, 34.1374361], [-97.1385959, 34.1373917], [-97.1387092, 34.1373925], [-97.1387117, 34.1371346], [-97.1383737, 34.1371323]]]}, "properties": {"osm_id": 1373762919, "building": "yes", "name": "", "height": null, "height_m": null, "levels": null, "tract_id": "40019893001", "tract_name": "8930.01", "tags": {"building": "yes"}}}, {"type": "Feature", "geometry": {"type": "Polygon", "coordinates": [[[-97.1329031, 34.137038], [-97.1329074, 34.137501], [-97.1328405, 34.1375014], [-97.1328443, 34.1378907], [-97.1335019, 34.1378864], [-97.133547, 34.1378861], [-97.1335461, 34.1377954], [-97.1335389, 34.1370339], [-97.1329031, 34.137038]]]}, "properties": {"osm_id": 1373762930, "building": "yes", "name": "", "height": null, "height_m": null, "levels": null, "tract_id": "40019893001", "tract_name": "8930.01", "tags": {"building": "yes"}}}, {"type": "Feature", "geometry": {"type": "Polygon", "coordinates": [[[-97.1335461, 34.1377954], [-97.1337943, 34.1377902], [-97.1337983, 34.1379253], [-97.1335033, 34.1379314], [-97.1335019, 34.1378864], [-97.133547, 34.1378861], [-97.1335461, 34.1377954]]]}, "properties": {"osm_id": 1373762931, "building": "yes", "name": "", "height": null, "height_m": null, "levels": null, "tract_id": "40019893001", "tract_name": "8930.01", "tags": {"building": "yes"}}}, {"type": "Feature", "geometry": {"type": "Polygon", "coordinates": [[[-97.1346111, 34.1369454], [-97.1346084, 34.1362494], [-97.1350161, 34.1362484], [-97.1350189, 34.1369443], [-97.1346111, 34.1369454]]]}, "properties": {"osm_id": 1373762932, "building": "yes", "name": "", "height": null, "height_m": null, "levels": null, "tract_id": "40019893001", "tract_name": "8930.01", "tags": {"building": "yes"}}}, {"type": "Feature", "geometry": {"type": "Polygon", "coordinates": [[[-97.1359426, 34.1365988], [-97.1359405, 34.1367687], [-97.1363991, 34.1367726], [-97.1364012, 34.1366026], [-97.1359426, 34.1365988]]]}, "properties": {"osm_id": 1373762933, "building": "yes", "name": "", "height": null, "height_m": null, "levels": null, "tract_id": "40019893001", "tract_name": "8930.01", "tags": {"building": "yes"}}}, {"type": "Feature", "geometry": {"type": "Polygon", "coordinates": [[[-97.1375579, 34.1361575], [-97.137314, 34.1361515], [-97.1373338, 34.135601], [-97.1375775, 34.135607], [-97.1375579, 34.1361575]]]}, "properties": {"osm_id": 1373762934, "building": "yes", "name": "", "height": null, "height_m": null, "levels": null, "tract_id": "40019893001", "tract_name": "8930.01", "tags": {"building": "yes"}}}, {"type": "Feature", "geometry": {"type": "Polygon", "coordinates": [[[-97.1389476, 34.1356651], [-97.1389529, 34.1351833], [-97.1384794, 34.1351798], [-97.1384743, 34.1356616], [-97.1389476, 34.1356651]]]}, "properties": {"osm_id": 1373762935, "building": "yes", "name": "", "height": null, "height_m": null, "levels": null, "tract_id": "40019893001", "tract_name": "8930.01", "tags": {"building": "yes"}}}, {"type": "Feature", "geometry": {"type": "Polygon", "coordinates": [[[-97.1392539, 34.1362936], [-97.1392587, 34.1359381], [-97.138841, 34.1359341], [-97.1388379, 34.1361595], [-97.1389208, 34.1361603], [-97.138919, 34.1362904], [-97.1392539, 34.1362936]]]}, "properties": {"osm_id": 1373762936, "building": "yes", "name": "", "height": null, "height_m": null, "levels": null, "tract_id": "40019893001", "tract_name": "8930.01", "tags": {"building": "yes"}}}, {"type": "Feature", "geometry": {"type": "Polygon", "coordinates": [[[-97.1385636, 34.1358133], [-97.1387056, 34.1358142], [-97.1387012, 34.136287], [-97.1385619, 34.1362861], [-97.1385637, 34.1360894], [-97.1385161, 34.1360891], [-97.1385175, 34.1359451], [-97.1385624, 34.1359454], [-97.1385636, 34.1358133]]]}, "properties": {"osm_id": 1373762937, "building": "yes", "name": "", "height": null, "height_m": null, "levels": null, "tract_id": "40019893001", "tract_name": "8930.01", "tags": {"building": "yes"}}}, {"type": "Feature", "geometry": {"type": "Polygon", "coordinates": [[[-97.1398772, 34.134716], [-97.1398223, 34.1349905], [-97.1399761, 34.1350116], [-97.140031, 34.1347371], [-97.1398772, 34.134716]]]}, "properties": {"osm_id": 1373762938, "building": "yes", "name": "", "height": null, "height_m": null, "levels": null, "tract_id": "40019893001", "tract_name": "8930.01", "tags": {"building": "yes"}}}]}