{"type": "FeatureCollection", "features": [{"type": "Feature", "geometry": {"type": "Polygon", "coordinates": [[[-95.0474297, 34.7513313], [-95.0472683, 34.7514458], [-95.0471224, 34.751307], [-95.0472837, 34.7511925], [-95.0474297, 34.7513313]]]}, "properties": {"osm_id": 111465314, "building": "yes", "name": "Talihina", "height": null, "height_m": null, "levels": null, "tract_id": "40079040700", "tract_name": "407", "tags": {"amenity": "post_office", "building": "yes", "name": "Talihina"}}}, {"type": "Feature", "geometry": {"type": "Polygon", "coordinates": [[[-94.9545138, 34.7963002], [-94.9544365, 34.7963418], [-94.9544071, 34.796305], [-94.9542523, 34.7963883], [-94.9542127, 34.7963387], [-94.9544449, 34.7962138], [-94.9545138, 34.7963002]]]}, "properties": {"osm_id": 170408749, "building": "yes", "name": "Talihina Visitor Information Center", "height": null, "height_m": null, "levels": null, "tract_id": "40079040700", "tract_name": "407", "tags": {"building": "yes", "information": "office", "name": "Talihina Visitor Information Center", "tourism": "information"}}}, {"type": "Feature", "geometry": {"type": "Polygon", "coordinates": [[[-94.8921916, 34.5370921], [-94.8920993, 34.5370939], [-94.8921015, 34.5371726], [-94.891995, 34.5371747], [-94.8919927, 34.5370927], [-94.8918971, 34.5370945], [-94.8918935, 34.5369688], [-94.8921879, 34.5369631], [-94.8921916, 34.5370921]]]}, "properties": {"osm_id": 800167154, "building": "house", "name": "", "height": null, "height_m": null, "levels": null, "tract_id": "40079040700", "tract_name": "407", "tags": {"building": "house"}}}, {"type": "Feature", "geometry": {"type": "Polygon", "coordinates": [[[-94.8941276, 34.5345345], [-94.8938903, 34.5345322], [-94.8938928, 34.5343542], [-94.8941301, 34.5343565], [-94.8941276, 34.5345345]]]}, "properties": {"osm_id": 800167155, "building": "yes", "name": "", "height": null, "height_m": null, "levels": null, "tract_id": "40079040700", "tract_name": "407", "tags": {"building": "yes"}}}, {"type": "Feature", "geometry": {"type": "Polygon", "coordinates": [[[-95.0421841, 34.7468327], [-95.0418718, 34.7468292], [-95.0418794, 34.7463751], [-95.0421919, 34.7463787], [-95.0421841, 34.7468327]]]}, "properties": {"osm_id": 911685306, "building": "yes", "name": "LIving Faith Church INC", "height": null, "height_m": null, "levels": null, "tract_id": "40079040700", "tract_name": "407", "tags": {"addr:city": "Talihina", "addr:housenumber": "1303", "addr:postcode": "74571", "addr:state": "OK", "addr:street": "Hellen Street", "amenity": "place_of_worship", "building": "yes", "name": "LIving Faith Church INC", "religion": "christian"}}}, {"type": "Feature", "geometry": {"type": "Polygon", "coordinates": [[[-95.0422766, 34.7471764], [-95.0419333, 34.7471742], [-95.0419279, 34.7470662], [-95.0420646, 34.7470636], [-95.0422739, 34.7470596], [-95.0422766, 34.7471764]]]}, "properties": {"osm_id": 911686172, "building": "yes", "name": "Living Faith Church INC - Youth Building", "height": null, "height_m": null, "levels": null, "tract_id": "40079040700", "tract_name": "407", "tags": {"addr:city": "Talihina", "addr:housenumber": "1301", "addr:postcode": "74571", "addr:state": "OK", "addr:street": "Hellen Street", "amenity": "place_of_worship", "building": "yes", "name": "Living Faith Church INC - Youth Building", "religion": "christian"}}}, {"type": "Feature", "geometry": {"type": "Polygon", "coordinates": [[[-95.0420646, 34.7470636], [-95.0420566, 34.7469208], [-95.0419252, 34.7469185], [-95.0419279, 34.7470662], [-95.0420646, 34.7470636]]]}, "properties": {"osm_id": 911686302, "building": "house", "name": "Living Faith Church INC - Parsonage", "height": null, "height_m": null, "levels": null, "tract_id": "40079040700", "tract_name": "407", "tags": {"addr:city": "Talihina", "addr:housenumber": "1301", "addr:postcode": "74571", "addr:state": "OK", "addr:street": "Hellen Street", "building": "house", "name": "Living Faith Church INC - Parsonage"}}}, {"type": "Feature", "geometry": {"type": "Polygon", "coordinates": [[[-94.886515, 34.690039], [-94.886515, 34.690156], [-94.886859, 34.690156], [-94.886859, 34.690039], [-94.886515, 34.690039]]]}, "properties": {"osm_id": 918775744, "building": "yes", "name": "", "height": null, "height_m": null, "levels": null, "tract_id": "40079040700", "tract_name": "407", "tags": {"building": "yes", "source": "microsoft/BuildingFootprints"}}}, {"type": "Feature", "geometry": {"type": "Polygon", "coordinates": [[[-94.887608, 34.691234], [-94.88741, 34.69123], [-94.8874, 34.691566], [-94.887599, 34.69157], [-94.887608, 34.691234]]]}, "properties": {"osm_id": 918775745, "building": "yes", "name": "", "height": null, "height_m": null, "levels": null, "tract_id": "40079040700", "tract_name": "407", "tags": {"building": "yes", "source": "microsoft/BuildingFootprints"}}}, {"type": "Feature", "geometry": {"type": "Polygon", "coordinates": [[[-94.88738, 34.691245], [-94.887276, 34.691243], [-94.887267, 34.691563], [-94.88737, 34.691565], [-94.88738, 34.691245]]]}, "properties": {"osm_id": 918775746, "building": "yes", "name": "", "height": null, "height_m": null, "levels": null, "tract_id": "40079040700", "tract_name": "407", "tags": {"building": "yes", "source": "microsoft/BuildingFootprints"}}}, {"type": "Feature", "geometry": {"type": "Polygon", "coordinates": [[[-94.887251, 34.691194], [-94.887011, 34.691187], [-94.886996, 34.691565], [-94.887236, 34.691571], [-94.887251, 34.691194]]]}, "properties": {"osm_id": 918775747, "building": "yes", "name": "", "height": null, "height_m": null, "levels": null, "tract_id": "40079040700", "tract_name": "407", "tags": {"building": "yes", "source": "microsoft/BuildingFootprints"}}}, {"type": "Feature", "geometry": {"type": "Polygon", "coordinates": [[[-94.886881, 34.691925], [-94.88724, 34.691935], [-94.887241, 34.691904], [-94.887356, 34.691907], [-94.887364, 34.691715], [-94.886874, 34.691702], [-94.886872, 34.691733], [-94.886835, 34.691732], [-94.886829, 34.691893], [-94.886882, 34.691894], [-94.886881, 34.691925]]]}, "properties": {"osm_id": 918775748, "building": "yes", "name": "", "height": null, "height_m": null, "levels": null, "tract_id": "40079040700", "tract_name": "407", "tags": {"building": "yes", "source": "microsoft/BuildingFootprints"}}}, {"type": "Feature", "geometry": {"type": "Polygon", "coordinates": [[[-94.886597, 34.691544], [-94.886562, 34.691544], [-94.88656, 34.691743], [-94.886702, 34.691744], [-94.886704, 34.691548], [-94.88694, 34.691549], [-94.886942, 34.691311], [-94.886599, 34.691309], [-94.886597, 34.691544]]]}, "properties": {"osm_id": 918775749, "building": "yes", "name": "", "height": null, "height_m": null, "levels": null, "tract_id": "40079040700", "tract_name": "407", "tags": {"building": "yes", "source": "microsoft/BuildingFootprints"}}}, {"type": "Feature", "geometry": {"type": "Polygon", "coordinates": [[[-94.886483, 34.691468], [-94.886287, 34.691468], [-94.886287, 34.691548], [-94.886483, 34.691548], [-94.886483, 34.691468]]]}, "properties": {"osm_id": 918775750, "building": "yes", "name": "", "height": null, "height_m": null, "levels": null, "tract_id": "40079040700", "tract_name": "407", "tags": {"building": "yes", "source": "microsoft/BuildingFootprints"}}}, {"type": "Feature", "geometry": {"type": "Polygon", "coordinates": [[[-94.88654, 34.691779], [-94.88654, 34.691987], [-94.886709, 34.691987], [-94.886709, 34.691779], [-94.88654, 34.691779]]]}, "properties": {"osm_id": 918775751, "building": "yes", "name": "", "height": null, "height_m": null, "levels": null, "tract_id": "40079040700", "tract_name": "407", "tags": {"building": "yes", "source": "microsoft/BuildingFootprints"}}}, {"type": "Feature", "geometry": {"type": "Polygon", "coordinates": [[[-94.887475, 34.692107], [-94.887556, 34.692122], [-94.887594, 34.691984], [-94.887513, 34.691969], [-94.887475, 34.692107]]]}, "properties": {"osm_id": 918775752, "building": "yes", "name": "", "height": null, "height_m": null, "levels": null, "tract_id": "40079040700", "tract_name": "407", "tags": {"building": "yes", "source": "microsoft/BuildingFootprints"}}}, {"type": "Feature", "geometry": {"type": "Polygon", "coordinates": [[[-94.887419, 34.692207], [-94.887234, 34.692207], [-94.887234, 34.692295], [-94.887419, 34.692295], [-94.887419, 34.692207]]]}, "properties": {"osm_id": 918775753, "building": "yes", "name": "", "height": null, "height_m": null, "levels": null, "tract_id": "40079040700", "tract_name": "407", "tags": {"building": "yes", "source": "microsoft/BuildingFootprints"}}}, {"type": "Feature", "geometry": {"type": "Polygon", "coordinates": [[[-94.886664, 34.692215], [-94.886546, 34.692182], [-94.886497, 34.692301], [-94.886615, 34.692333], [-94.886664, 34.692215]]]}, "properties": {"osm_id": 918775754, "building": "yes", "name": "", "height": null, "height_m": null, "levels": null, "tract_id": "40079040700", "tract_name": "407", "tags": {"building": "yes", "source": "microsoft/BuildingFootprints"}}}, {"type": "Feature", "geometry": {"type": "Polygon", "coordinates": [[[-94.886325, 34.692079], [-94.886411, 34.692079], [-94.886411, 34.691993], [-94.886325, 34.691993], [-94.886325, 34.692079]]]}, "properties": {"osm_id": 918775755, "building": "yes", "name": "", "height": null, "height_m": null, "levels": null, "tract_id": "40079040700", "tract_name": "407", "tags": {"building": "yes", "source": "microsoft/BuildingFootprints"}}}, {"type": "Feature", "geometry": {"type": "Polygon", "coordinates": [[[-94.886956, 34.691193], [-94.886951, 34.691065], [-94.886666, 34.691072], [-94.88667, 34.691199], [-94.886956, 34.691193]]]}, "properties": {"osm_id": 918775756, "building": "yes", "name": "", "height": null, "height_m": null, "levels": null, "tract_id": "40079040700", "tract_name": "407", "tags": {"building": "yes", "source": "microsoft/BuildingFootprints"}}}, {"type": "Feature", "geometry": {"type": "Polygon", "coordinates": [[[-94.6862985, 34.5289525], [-94.6860298, 34.5289537], [-94.6860292, 34.5288705], [-94.686298, 34.5288692], [-94.6862985, 34.5289525]]]}, "properties": {"osm_id": 965778719, "building": "yes", "name": "Octavia Volunteer Fire Dept.", "height": null, "height_m": null, "levels": null, "tract_id": "40079040700", "tract_name": "407", "tags": {"amenity": "fire_station", "building": "yes", "name": "Octavia Volunteer Fire Dept."}}}, {"type": "Feature", "geometry": {"type": "Polygon", "coordinates": [[[-94.6844216, 34.5284937], [-94.6842049, 34.528569], [-94.6841785, 34.5285175], [-94.6841548, 34.5285257], [-94.6841166, 34.5284512], [-94.6841566, 34.5284374], [-94.6841351, 34.5283954], [-94.6843356, 34.5283257], [-94.6844216, 34.5284937]]]}, "properties": {"osm_id": 965778720, "building": "house", "name": "", "height": null, "height_m": 3.0, "levels": 1, "tract_id": "40079040700", "tract_name": "407", "tags": {"addr:housenumber": "68644", "addr:street": "N US Highway 259", "building": "house", "building:levels": "1", "roof:levels": "0"}}}, {"type": "Feature", "geometry": {"type": "Polygon", "coordinates": [[[-94.7034249, 34.5265419], [-94.7034214, 34.5264802], [-94.7033538, 34.5264827], [-94.7033518, 34.5264457], [-94.7035272, 34.5264391], [-94.7035327, 34.5265378], [-94.7034249, 34.5265419]]]}, "properties": {"osm_id": 991634332, "building": "yes", "name": "", "height": null, "height_m": null, "levels": null, "tract_id": "40079040700", "tract_name": "407", "tags": {"building": "yes"}}}, {"type": "Feature", "geometry": {"type": "Polygon", "coordinates": [[[-94.7043354, 34.5269757], [-94.7043341, 34.5268698], [-94.704228, 34.5268706], [-94.7042292, 34.5269766], [-94.7043354, 34.5269757]]]}, "properties": {"osm_id": 991634333, "building": "yes", "name": "", "height": null, "height_m": null, "levels": null, "tract_id": "40079040700", "tract_name": "407", "tags": {"building": "yes"}}}, {"type": "Feature", "geometry": {"type": "Polygon", "coordinates": [[[-94.7035486, 34.5270459], [-94.7035466, 34.5270763], [-94.7035225, 34.5270752], [-94.7035181, 34.5271434], [-94.7035452, 34.5271446], [-94.7035434, 34.5271721], [-94.7035967, 34.5271745], [-94.7036049, 34.5270483], [-94.7035486, 34.5270459]]]}, "properties": {"osm_id": 991634334, "building": "yes", "name": "", "height": null, "height_m": null, "levels": null, "tract_id": "40079040700", "tract_name": "407", "tags": {"building": "yes"}}}, {"type": "Feature", "geometry": {"type": "Polygon", "coordinates": [[[-94.7041223, 34.5269455], [-94.704123, 34.5269044], [-94.704077, 34.5269039], [-94.7040763, 34.526945], [-94.7041223, 34.5269455]]]}, "properties": {"osm_id": 991634335, "building": "yes", "name": "", "height": null, "height_m": null, "levels": null, "tract_id": "40079040700", "tract_name": "407", "tags": {"building": "yes"}}}, {"type": "Feature", "geometry": {"type": "Polygon", "coordinates": [[[-94.701708, 34.5270841], [-94.7016726, 34.5270834], [-94.7016733, 34.5270579], [-94.7015153, 34.5270547], [-94.701513, 34.5271339], [-94.7017064, 34.5271378], [-94.701708, 34.5270841]]]}, "properties": {"osm_id": 991634336, "building": "yes", "name": "", "height": null, "height_m": null, "levels": null, "tract_id": "40079040700", "tract_name": "407", "tags": {"building": "yes"}}}, {"type": "Feature", "geometry": {"type": "Polygon", "coordinates": [[[-94.7013844, 34.5269221], [-94.7013309, 34.526921], [-94.70133, 34.5269502], [-94.7013835, 34.5269513], [-94.7013844, 34.5269221]]]}, "properties": {"osm_id": 991634337, "building": "yes", "name": "", "height": null, "height_m": null, "levels": null, "tract_id": "40079040700", "tract_name": "407", "tags": {"building": "yes"}}}, {"type": "Feature", "geometry": {"type": "Polygon", "coordinates": [[[-94.7014307, 34.5271901], [-94.7014235, 34.527154], [-94.7013961, 34.5271577], [-94.7014033, 34.5271938], [-94.7014307, 34.5271901]]]}, "properties": {"osm_id": 991634338, "building": "yes", "name": "", "height": null, "height_m": null, "levels": null, "tract_id": "40079040700", "tract_name": "407", "tags": {"building": "yes"}}}, {"type": "Feature", "geometry": {"type": "Polygon", "coordinates": [[[-94.7007041, 34.5278512], [-94.7007018, 34.5277059], [-94.7006034, 34.5277069], [-94.7006057, 34.5278522], [-94.7007041, 34.5278512]]]}, "properties": {"osm_id": 991634339, "building": "yes", "name": "", "height": null, "height_m": null, "levels": null, "tract_id": "40079040700", "tract_name": "407", "tags": {"building": "yes"}}}, {"type": "Feature", "geometry": {"type": "Polygon", "coordinates": [[[-94.7049593, 34.5263626], [-94.7049589, 34.5262351], [-94.7048731, 34.5262353], [-94.7048735, 34.5263628], [-94.7049593, 34.5263626]]]}, "properties": {"osm_id": 991634340, "building": "yes", "name": "", "height": null, "height_m": null, "levels": null, "tract_id": "40079040700", "tract_name": "407", "tags": {"building": "yes"}}}, {"type": "Feature", "geometry": {"type": "Polygon", "coordinates": [[[-94.7048025, 34.5261648], [-94.704804, 34.5261207], [-94.7047061, 34.5261186], [-94.7047046, 34.5261627], [-94.7048025, 34.5261648]]]}, "properties": {"osm_id": 991634341, "building": "yes", "name": "", "height": null, "height_m": null, "levels": null, "tract_id": "40079040700", "tract_name": "407", "tags": {"building": "yes"}}}, {"type": "Feature", "geometry": {"type": "Polygon", "coordinates": [[[-94.7050891, 34.5268387], [-94.7050821, 34.5267746], [-94.7050419, 34.5267776], [-94.705049, 34.5268417], [-94.7050891, 34.5268387]]]}, "properties": {"osm_id": 991634342, "building": "yes", "name": "", "height": null, "height_m": null, "levels": null, "tract_id": "40079040700", "tract_name": "407", "tags": {"building": "yes"}}}, {"type": "Feature", "geometry": {"type": "Polygon", "coordinates": [[[-94.7065386, 34.5260971], [-94.706539, 34.5260252], [-94.7065745, 34.5260253], [-94.706575, 34.5259368], [-94.7065273, 34.5259366], [-94.7065276, 34.5258766], [-94.7063394, 34.5258759], [-94.7063382, 34.5260964], [-94.7065386, 34.5260971]]]}, "properties": {"osm_id": 991634343, "building": "yes", "name": "", "height": null, "height_m": null, "levels": null, "tract_id": "40079040700", "tract_name": "407", "tags": {"building": "yes"}}}, {"type": "Feature", "geometry": {"type": "Polygon", "coordinates": [[[-94.7064873, 34.5264446], [-94.706327, 34.5264419], [-94.706333, 34.5261971], [-94.7064898, 34.5261968], [-94.7064877, 34.526428], [-94.7064873, 34.5264446]]]}, "properties": {"osm_id": 991634344, "building": "yes", "name": "", "height": null, "height_m": null, "levels": null, "tract_id": "40079040700", "tract_name": "407", "tags": {"building": "yes"}}}, {"type": "Feature", "geometry": {"type": "Polygon", "coordinates": [[[-94.7064485, 34.5271587], [-94.7064463, 34.5270606], [-94.7064904, 34.52706], [-94.7064887, 34.5269838], [-94.7064448, 34.5269844], [-94.7064411, 34.5268099], [-94.7063289, 34.5268115], [-94.7063334, 34.5270218], [-94.7062578, 34.5270229], [-94.7062593, 34.5270904], [-94.7063207, 34.5270895], [-94.7063222, 34.5271606], [-94.7064485, 34.5271587]]]}, "properties": {"osm_id": 991634345, "building": "yes", "name": "", "height": null, "height_m": null, "levels": null, "tract_id": "40079040700", "tract_name": "407", "tags": {"building": "yes"}}}, {"type": "Feature", "geometry": {"type": "Polygon", "coordinates": [[[-94.7065298, 34.5264383], [-94.7065065, 34.5264382], [-94.7064877, 34.526428], [-94.7064898, 34.5261968], [-94.706532, 34.5261971], [-94.7065298, 34.5264383]]]}, "properties": {"osm_id": 991634346, "building": "yes", "name": "", "height": null, "height_m": null, "levels": null, "tract_id": "40079040700", "tract_name": "407", "tags": {"building": "yes"}}}, {"type": "Feature", "geometry": {"type": "Polygon", "coordinates": [[[-94.7070343, 34.5289024], [-94.7069553, 34.5288999], [-94.7069541, 34.5289261], [-94.7069095, 34.5289247], [-94.7069136, 34.5288334], [-94.7070373, 34.5288373], [-94.7070343, 34.5289024]]]}, "properties": {"osm_id": 991634347, "building": "yes", "name": "", "height": null, "height_m": null, "levels": null, "tract_id": "40079040700", "tract_name": "407", "tags": {"building": "yes"}}}, {"type": "Feature", "geometry": {"type": "Polygon", "coordinates": [[[-94.7068825, 34.5288036], [-94.7068468, 34.5287801], [-94.7067937, 34.5288347], [-94.7068294, 34.5288582], [-94.7068825, 34.5288036]]]}, "properties": {"osm_id": 991634348, "building": "yes", "name": "", "height": null, "height_m": null, "levels": null, "tract_id": "40079040700", "tract_name": "407", "tags": {"building": "yes"}}}, {"type": "Feature", "geometry": {"type": "Polygon", "coordinates": [[[-94.7001896, 34.5247257], [-94.7001407, 34.5247289], [-94.7001437, 34.5247611], [-94.7000359, 34.524768], [-94.7000329, 34.5247364], [-94.6999986, 34.5247386], [-94.6999922, 34.5246714], [-94.7001834, 34.5246592], [-94.7001896, 34.5247257]]]}, "properties": {"osm_id": 991634349, "building": "yes", "name": "", "height": null, "height_m": null, "levels": null, "tract_id": "40079040700", "tract_name": "407", "tags": {"building": "yes"}}}, {"type": "Feature", "geometry": {"type": "Polygon", "coordinates": [[[-94.7003031, 34.524692], [-94.7002682, 34.5246968], [-94.7002637, 34.5246751], [-94.7002987, 34.5246702], [-94.7003031, 34.524692]]]}, "properties": {"osm_id": 991634350, "building": "yes", "name": "", "height": null, "height_m": null, "levels": null, "tract_id": "40079040700", "tract_name": "407", "tags": {"building": "yes"}}}, {"type": "Feature", "geometry": {"type": "Polygon", "coordinates": [[[-94.7029246, 34.5276631], [-94.7029267, 34.5274924], [-94.702867, 34.5274919], [-94.7028649, 34.5276626], [-94.7029246, 34.5276631]]]}, "properties": {"osm_id": 991634351, "building": "yes", "name": "", "height": null, "height_m": null, "levels": null, "tract_id": "40079040700", "tract_name": "407", "tags": {"building": "yes"}}}, {"type": "Feature", "geometry": {"type": "Polygon", "coordinates": [[[-94.7003688, 34.5304852], [-94.7003036, 34.5305154], [-94.7002813, 34.5304827], [-94.7002553, 34.5304946], [-94.7002077, 34.5304246], [-94.700265, 34.5303979], [-94.7002808, 34.530421], [-94.7003145, 34.5304054], [-94.7003688, 34.5304852]]]}, "properties": {"osm_id": 991634352, "building": "yes", "name": "", "height": null, "height_m": null, "levels": null, "tract_id": "40079040700", "tract_name": "407", "tags": {"building": "yes"}}}, {"type": "Feature", "geometry": {"type": "Polygon", "coordinates": [[[-94.7002553, 34.5304946], [-94.7000539, 34.5305876], [-94.7000063, 34.5305176], [-94.7002077, 34.5304246], [-94.7002553, 34.5304946]]]}, "properties": {"osm_id": 991634353, "building": "yes", "name": "", "height": null, "height_m": null, "levels": null, "tract_id": "40079040700", "tract_name": "407", "tags": {"building": "yes"}}}, {"type": "Feature", "geometry": {"type": "Polygon", "coordinates": [[[-94.700794, 34.5293674], [-94.7007897, 34.5292545], [-94.7006902, 34.5292571], [-94.7006921, 34.529308], [-94.7007132, 34.5293075], [-94.7007156, 34.5293695], [-94.700794, 34.5293674]]]}, "properties": {"osm_id": 991634354, "building": "yes", "name": "", "height": null, "height_m": null, "levels": null, "tract_id": "40079040700", "tract_name": "407", "tags": {"building": "yes"}}}, {"type": "Feature", "geometry": {"type": "Polygon", "coordinates": [[[-94.7012891, 34.5299863], [-94.7013, 34.5299451], [-94.7013435, 34.5299529], [-94.7013628, 34.5298802], [-94.7012677, 34.5298631], [-94.7012435, 34.5299544], [-94.7012592, 34.5299573], [-94.7012532, 34.5299798], [-94.7012891, 34.5299863]]]}, "properties": {"osm_id": 991634355, "building": "yes", "name": "", "height": null, "height_m": null, "levels": null, "tract_id": "40079040700", "tract_name": "407", "tags": {"building": "yes"}}}, {"type": "Feature", "geometry": {"type": "Polygon", "coordinates": [[[-95.042282, 34.7367618], [-95.042158, 34.7367607], [-95.0421589, 34.736688], [-95.042225, 34.7366886], [-95.0422255, 34.7366536], [-95.0422835, 34.7366541], [-95.042282, 34.7367618]]]}, "properties": {"osm_id": 1034956280, "building": "yes", "name": "", "height": null, "height_m": null, "levels": null, "tract_id": "40079040700", "tract_name": "407", "tags": {"building": "yes"}}}, {"type": "Feature", "geometry": {"type": "Polygon", "coordinates": [[[-95.0420192, 34.7367006], [-95.0420165, 34.7362686], [-95.0421036, 34.7362682], [-95.0421063, 34.7367003], [-95.0420192, 34.7367006]]]}, "properties": {"osm_id": 1034956282, "building": "yes", "name": "Rockin H Inn", "height": null, "height_m": null, "levels": null, "tract_id": "40079040700", "tract_name": "407", "tags": {"addr:city": "Talihina", "addr:housenumber": "54158", "addr:postcode": "74571", "addr:state": "OK", "addr:street": "Dallas Street", "building": "yes", "name": "Rockin H Inn", "phone": "(866) 459-4464", "tourism": "motel", "website": "http://www.rockinhinn.net/"}}}, {"type": "Feature", "geometry": {"type": "Polygon", "coordinates": [[[-95.0462896, 34.7522694], [-95.0464102, 34.7521934], [-95.0463245, 34.7521015], [-95.0462547, 34.7521455], [-95.0462826, 34.7521754], [-95.0462317, 34.7522074], [-95.0462896, 34.7522694]]]}, "properties": {"osm_id": 1061561238, "building": "yes", "name": "", "height": null, "height_m": null, "levels": null, "tract_id": "40079040700", "tract_name": "407", "tags": {"addr:city": "Talihina", "addr:housenumber": "403", "addr:postcode": "74571", "addr:state": "OK", "addr:street": "Emmert Street", "building": "yes"}}}, {"type": "Feature", "geometry": {"type": "Polygon", "coordinates": [[[-94.4894646, 34.6391783], [-94.4895637, 34.6391869], [-94.489541, 34.6393637], [-94.4894419, 34.6393551], [-94.4894646, 34.6391783]]]}, "properties": {"osm_id": 1074794094, "building": "house", "name": "", "height": null, "height_m": null, "levels": null, "tract_id": "40079040700", "tract_name": "407", "tags": {"building": "house"}}}, {"type": "Feature", "geometry": {"type": "Polygon", "coordinates": [[[-94.4869793, 34.6388444], [-94.4870642, 34.6388142], [-94.4870525, 34.6387919], [-94.4871063, 34.6387727], [-94.4870838, 34.63873], [-94.4869435, 34.6387799], [-94.4869329, 34.6387597], [-94.4868556, 34.6387872], [-94.4868752, 34.6388081], [-94.4868507, 34.6388168], [-94.4868726, 34.6388585], [-94.4869687, 34.6388243], [-94.4869793, 34.6388444]]]}, "properties": {"osm_id": 1074794095, "building": "house", "name": "", "height": null, "height_m": null, "levels": null, "tract_id": "40079040700", "tract_name": "407", "tags": {"building": "house"}}}, {"type": "Feature", "geometry": {"type": "Polygon", "coordinates": [[[-94.4845227, 34.638644], [-94.4845789, 34.6385145], [-94.4847072, 34.6385521], [-94.4846982, 34.6385728], [-94.4847378, 34.6385844], [-94.4846906, 34.6386933], [-94.4845227, 34.638644]]]}, "properties": {"osm_id": 1074794098, "building": "house", "name": "", "height": null, "height_m": null, "levels": null, "tract_id": "40079040700", "tract_name": "407", "tags": {"building": "house"}}}, {"type": "Feature", "geometry": {"type": "Polygon", "coordinates": [[[-94.4867808, 34.638143], [-94.4868722, 34.6381209], [-94.486917, 34.6382466], [-94.4868256, 34.6382687], [-94.4868164, 34.638243], [-94.4867792, 34.6382519], [-94.4867619, 34.6382033], [-94.4867991, 34.6381944], [-94.4867808, 34.638143]]]}, "properties": {"osm_id": 1074794099, "building": "house", "name": "", "height": null, "height_m": null, "levels": null, "tract_id": "40079040700", "tract_name": "407", "tags": {"building": "house"}}}, {"type": "Feature", "geometry": {"type": "Polygon", "coordinates": [[[-94.4860958, 34.6387124], [-94.4862245, 34.6387161], [-94.4862218, 34.6387799], [-94.4860931, 34.6387763], [-94.4860958, 34.6387124]]]}, "properties": {"osm_id": 1074794100, "building": "house", "name": "", "height": null, "height_m": null, "levels": null, "tract_id": "40079040700", "tract_name": "407", "tags": {"building": "house"}}}, {"type": "Feature", "geometry": {"type": "Polygon", "coordinates": [[[-94.4915766, 34.6417054], [-94.4915338, 34.6417337], [-94.4916825, 34.641886], [-94.4917253, 34.6418577], [-94.4915766, 34.6417054]]]}, "properties": {"osm_id": 1074794101, "building": "house", "name": "", "height": null, "height_m": null, "levels": null, "tract_id": "40079040700", "tract_name": "407", "tags": {"building": "house"}}}, {"type": "Feature", "geometry": {"type": "Polygon", "coordinates": [[[-94.4913554, 34.6442099], [-94.4915167, 34.644208], [-94.4915212, 34.6444715], [-94.49136, 34.6444734], [-94.4913554, 34.6442099]]]}, "properties": {"osm_id": 1074794103, "building": "yes", "name": "", "height": null, "height_m": null, "levels": null, "tract_id": "40079040700", "tract_name": "407", "tags": {"building": "yes"}}}, {"type": "Feature", "geometry": {"type": "Polygon", "coordinates": [[[-94.4912139, 34.6445862], [-94.4912134, 34.6445591], [-94.4912721, 34.6445584], [-94.4912724, 34.6445783], [-94.4913301, 34.6445775], [-94.4913314, 34.644643], [-94.4914126, 34.6446419], [-94.4914137, 34.6446949], [-94.4911935, 34.6446978], [-94.4911914, 34.6445865], [-94.4912139, 34.6445862]]]}, "properties": {"osm_id": 1074794105, "building": "house", "name": "", "height": null, "height_m": null, "levels": null, "tract_id": "40079040700", "tract_name": "407", "tags": {"building": "house"}}}, {"type": "Feature", "geometry": {"type": "Polygon", "coordinates": [[[-94.6802429, 34.6038905], [-94.6800788, 34.603803], [-94.6801009, 34.6037749], [-94.6800876, 34.6037678], [-94.6801404, 34.6037007], [-94.6802558, 34.6037622], [-94.6802755, 34.6037372], [-94.6803289, 34.6037656], [-94.680308, 34.6037922], [-94.6803205, 34.6037989], [-94.6803032, 34.6038208], [-94.680333, 34.6038367], [-94.68029, 34.6038915], [-94.6802562, 34.6038735], [-94.6802429, 34.6038905]]]}, "properties": {"osm_id": 1074910723, "building": "house", "name": "", "height": null, "height_m": null, "levels": null, "tract_id": "40079040700", "tract_name": "407", "tags": {"building": "house"}}}, {"type": "Feature", "geometry": {"type": "Polygon", "coordinates": [[[-94.6803649, 34.6040913], [-94.6803591, 34.6041455], [-94.6804403, 34.6041523], [-94.6804474, 34.6040972], [-94.6803649, 34.6040913]]]}, "properties": {"osm_id": 1074910724, "building": "shed", "name": "", "height": null, "height_m": null, "levels": null, "tract_id": "40079040700", "tract_name": "407", "tags": {"building": "shed"}}}, {"type": "Feature", "geometry": {"type": "Polygon", "coordinates": [[[-94.6803591, 34.6041455], [-94.6803539, 34.604187], [-94.6804351, 34.6041938], [-94.6804403, 34.6041523], [-94.6803591, 34.6041455]]]}, "properties": {"osm_id": 1074910725, "building": "shed", "name": "", "height": null, "height_m": null, "levels": null, "tract_id": "40079040700", "tract_name": "407", "tags": {"building": "shed"}}}, {"type": "Feature", "geometry": {"type": "Polygon", "coordinates": [[[-94.679863, 34.6044384], [-94.6798449, 34.6044971], [-94.6798966, 34.6045079], [-94.6798924, 34.6045215], [-94.6799575, 34.6045351], [-94.679962, 34.6045206], [-94.6799913, 34.6045268], [-94.6800091, 34.604469], [-94.679863, 34.6044384]]]}, "properties": {"osm_id": 1074910726, "building": "cabin", "name": "", "height": null, "height_m": null, "levels": null, "tract_id": "40079040700", "tract_name": "407", "tags": {"building": "cabin"}}}, {"type": "Feature", "geometry": {"type": "Polygon", "coordinates": [[[-94.6805359, 34.6045624], [-94.6805381, 34.6046695], [-94.6807039, 34.6046671], [-94.6807027, 34.6046119], [-94.6806733, 34.6046123], [-94.6806723, 34.6045605], [-94.6805359, 34.6045624]]]}, "properties": {"osm_id": 1074910727, "building": "cabin", "name": "", "height": null, "height_m": null, "levels": null, "tract_id": "40079040700", "tract_name": "407", "tags": {"building": "cabin"}}}, {"type": "Feature", "geometry": {"type": "Polygon", "coordinates": [[[-94.6776951, 34.5945165], [-94.677653, 34.5945241], [-94.6776707, 34.5945906], [-94.6777127, 34.594583], [-94.6776951, 34.5945165]]]}, "properties": {"osm_id": 1074910731, "building": "cabin", "name": "", "height": null, "height_m": null, "levels": null, "tract_id": "40079040700", "tract_name": "407", "tags": {"building": "cabin"}}}, {"type": "Feature", "geometry": {"type": "Polygon", "coordinates": [[[-94.6781867, 34.5951367], [-94.6781591, 34.5952167], [-94.6783065, 34.5952513], [-94.6783342, 34.5951714], [-94.6781867, 34.5951367]]]}, "properties": {"osm_id": 1074910732, "building": "cabin", "name": "", "height": null, "height_m": null, "levels": null, "tract_id": "40079040700", "tract_name": "407", "tags": {"building": "cabin"}}}, {"type": "Feature", "geometry": {"type": "Polygon", "coordinates": [[[-94.6780562, 34.5952661], [-94.6780143, 34.5953794], [-94.6781202, 34.5954059], [-94.6781621, 34.5952926], [-94.6780562, 34.5952661]]]}, "properties": {"osm_id": 1074910733, "building": "cabin", "name": "", "height": null, "height_m": null, "levels": null, "tract_id": "40079040700", "tract_name": "407", "tags": {"building": "cabin"}}}, {"type": "Feature", "geometry": {"type": "Polygon", "coordinates": [[[-94.6761488, 34.5958761], [-94.6761075, 34.5959349], [-94.6762028, 34.5959803], [-94.6762442, 34.5959215], [-94.6761488, 34.5958761]]]}, "properties": {"osm_id": 1074910734, "building": "cabin", "name": "", "height": null, "height_m": null, "levels": null, "tract_id": "40079040700", "tract_name": "407", "tags": {"building": "cabin"}}}, {"type": "Feature", "geometry": {"type": "Polygon", "coordinates": [[[-94.6757713, 34.5959734], [-94.6758602, 34.5959859], [-94.6758654, 34.5959652], [-94.6758792, 34.5959099], [-94.6759573, 34.5959347], [-94.6759942, 34.5958594], [-94.6758895, 34.5958304], [-94.675862, 34.5957885], [-94.6758178, 34.5957799], [-94.6757722, 34.5957974], [-94.6757551, 34.5958312], [-94.6757082, 34.5958408], [-94.6756823, 34.5958273], [-94.6756569, 34.5958602], [-94.6756874, 34.5958761], [-94.6757164, 34.5959298], [-94.6757858, 34.5959043], [-94.6757755, 34.5959532], [-94.6757713, 34.5959734]]]}, "properties": {"osm_id": 1074910735, "building": "house", "name": "", "height": null, "height_m": null, "levels": null, "tract_id": "40079040700", "tract_name": "407", "tags": {"building": "house"}}}, {"type": "Feature", "geometry": {"type": "Polygon", "coordinates": [[[-94.6762696, 34.5978927], [-94.6762114, 34.5979259], [-94.6763135, 34.5980468], [-94.6763716, 34.5980136], [-94.6762696, 34.5978927]]]}, "properties": {"osm_id": 1074910741, "building": "yes", "name": "", "height": null, "height_m": null, "levels": null, "tract_id": "40079040700", "tract_name": "407", "tags": {"building": "yes"}}}, {"type": "Feature", "geometry": {"type": "Polygon", "coordinates": [[[-94.6758975, 34.5976631], [-94.6758778, 34.5977388], [-94.6759952, 34.5977595], [-94.6760148, 34.5976837], [-94.6758975, 34.5976631]]]}, "properties": {"osm_id": 1074910742, "building": "yes", "name": "", "height": null, "height_m": null, "levels": null, "tract_id": "40079040700", "tract_name": "407", "tags": {"building": "yes"}}}, {"type": "Feature", "geometry": {"type": "Polygon", "coordinates": [[[-94.67644, 34.5971527], [-94.6763683, 34.5972242], [-94.6764169, 34.5972572], [-94.6764014, 34.5972726], [-94.6764257, 34.5972891], [-94.6764404, 34.5972745], [-94.6764509, 34.5972817], [-94.6765234, 34.5972094], [-94.67644, 34.5971527]]]}, "properties": {"osm_id": 1074910743, "building": "yes", "name": "", "height": null, "height_m": null, "levels": null, "tract_id": "40079040700", "tract_name": "407", "tags": {"building": "yes"}}}, {"type": "Feature", "geometry": {"type": "Polygon", "coordinates": [[[-94.6768631, 34.5988467], [-94.6768267, 34.5989173], [-94.6769143, 34.598948], [-94.676934, 34.5989098], [-94.6768971, 34.5988969], [-94.6769139, 34.5988645], [-94.6768631, 34.5988467]]]}, "properties": {"osm_id": 1074910745, "building": "yes", "name": "", "height": null, "height_m": null, "levels": null, "tract_id": "40079040700", "tract_name": "407", "tags": {"building": "yes"}}}, {"type": "Feature", "geometry": {"type": "Polygon", "coordinates": [[[-94.6755954, 34.5990646], [-94.6755635, 34.5991648], [-94.6756723, 34.5991883], [-94.6756857, 34.5991461], [-94.6756546, 34.5991394], [-94.675673, 34.5990814], [-94.6755954, 34.5990646]]]}, "properties": {"osm_id": 1074910746, "building": "yes", "name": "", "height": null, "height_m": null, "levels": null, "tract_id": "40079040700", "tract_name": "407", "tags": {"building": "yes"}}}, {"type": "Feature", "geometry": {"type": "Polygon", "coordinates": [[[-94.6762089, 34.600099], [-94.6762054, 34.6001937], [-94.676246, 34.6001947], [-94.6762468, 34.6001723], [-94.676306, 34.6001737], [-94.6763086, 34.6001014], [-94.6762089, 34.600099]]]}, "properties": {"osm_id": 1074910747, "building": "yes", "name": "", "height": null, "height_m": null, "levels": null, "tract_id": "40079040700", "tract_name": "407", "tags": {"building": "yes"}}}, {"type": "Feature", "geometry": {"type": "Polygon", "coordinates": [[[-94.6855463, 34.6033584], [-94.6855749, 34.6034703], [-94.6857014, 34.6034483], [-94.6857176, 34.6035114], [-94.6858953, 34.6034806], [-94.6858979, 34.6034909], [-94.6859744, 34.6034777], [-94.6859269, 34.6032924], [-94.6855463, 34.6033584]]]}, "properties": {"osm_id": 1074910751, "building": "yes", "name": "", "height": null, "height_m": null, "levels": null, "tract_id": "40079040700", "tract_name": "407", "tags": {"building": "yes"}}}, {"type": "Feature", "geometry": {"type": "Polygon", "coordinates": [[[-94.6854153, 34.603416], [-94.6854322, 34.6034945], [-94.6855378, 34.603479], [-94.6855209, 34.6034005], [-94.6854153, 34.603416]]]}, "properties": {"osm_id": 1074910752, "building": "yes", "name": "", "height": null, "height_m": null, "levels": null, "tract_id": "40079040700", "tract_name": "407", "tags": {"building": "yes"}}}, {"type": "Feature", "geometry": {"type": "Polygon", "coordinates": [[[-94.6870013, 34.6032033], [-94.6870076, 34.6032683], [-94.6870789, 34.6032636], [-94.687081, 34.6032852], [-94.6871228, 34.6032824], [-94.6871205, 34.6032583], [-94.6871831, 34.6032542], [-94.6871771, 34.6031918], [-94.6870013, 34.6032033]]]}, "properties": {"osm_id": 1074910753, "building": "yes", "name": "", "height": null, "height_m": null, "levels": null, "tract_id": "40079040700", "tract_name": "407", "tags": {"building": "yes"}}}, {"type": "Feature", "geometry": {"type": "Polygon", "coordinates": [[[-94.6868495, 34.5262182], [-94.6867434, 34.5262292], [-94.6867313, 34.5261498], [-94.6868374, 34.5261388], [-94.6868495, 34.5262182]]]}, "properties": {"osm_id": 1074953700, "building": "shed", "name": "", "height": null, "height_m": null, "levels": null, "tract_id": "40079040700", "tract_name": "407", "tags": {"building": "shed"}}}, {"type": "Feature", "geometry": {"type": "Polygon", "coordinates": [[[-95.0339545, 34.7445721], [-95.0338155, 34.7445743], [-95.0338129, 34.7444667], [-95.033952, 34.7444645], [-95.0339545, 34.7445721]]]}, "properties": {"osm_id": 1081837957, "building": "yes", "name": "", "height": null, "height_m": null, "levels": null, "tract_id": "40079040700", "tract_name": "407", "tags": {"building": "yes"}}}, {"type": "Feature", "geometry": {"type": "Polygon", "coordinates": [[[-95.0337909, 34.7445717], [-95.0336518, 34.7445739], [-95.0336493, 34.7444663], [-95.0337883, 34.7444641], [-95.0337909, 34.7445717]]]}, "properties": {"osm_id": 1081837958, "building": "yes", "name": "1103 Old Town Rd", "height": null, "height_m": null, "levels": null, "tract_id": "40079040700", "tract_name": "407", "tags": {"addr:city": "Talihina", "addr:housenumber": "1103", "addr:postcode": "74571", "addr:state": "OK", "addr:street": "Old Town Road", "building": "yes", "name": "1103 Old Town Rd"}}}, {"type": "Feature", "geometry": {"type": "Polygon", "coordinates": [[[-95.0336185, 34.7445717], [-95.0334795, 34.7445739], [-95.0334769, 34.7444663], [-95.0336159, 34.7444641], [-95.0336185, 34.7445717]]]}, "properties": {"osm_id": 1081837959, "building": "yes", "name": "1105 Old Town Rd", "height": null, "height_m": null, "levels": null, "tract_id": "40079040700", "tract_name": "407", "tags": {"addr:city": "Talihina", "addr:housenumber": "1105", "addr:postcode": "74571", "addr:state": "OK", "addr:street": "Old Town Road", "building": "yes", "name": "1105 Old Town Rd"}}}, {"type": "Feature", "geometry": {"type": "Polygon", "coordinates": [[[-95.0334471, 34.7445685], [-95.0333081, 34.7445708], [-95.0333055, 34.7444632], [-95.0334446, 34.7444609], [-95.0334471, 34.7445685]]]}, "properties": {"osm_id": 1081837960, "building": "yes", "name": "", "height": null, "height_m": null, "levels": null, "tract_id": "40079040700", "tract_name": "407", "tags": {"building": "yes"}}}, {"type": "Feature", "geometry": {"type": "Polygon", "coordinates": [[[-95.0337831, 34.7449665], [-95.0336441, 34.7449687], [-95.0336416, 34.7448611], [-95.0337806, 34.7448589], [-95.0337831, 34.7449665]]]}, "properties": {"osm_id": 1081837961, "building": "yes", "name": "1102 Old Town Rd", "height": null, "height_m": null, "levels": null, "tract_id": "40079040700", "tract_name": "407", "tags": {"addr:city": "Talihina", "addr:housenumber": "1102", "addr:postcode": "74571", "addr:state": "OK", "addr:street": "Old Town Road", "building": "yes", "name": "1102 Old Town Rd"}}}, {"type": "Feature", "geometry": {"type": "Polygon", "coordinates": [[[-95.0336137, 34.7449554], [-95.0334747, 34.7449577], [-95.0334721, 34.74485], [-95.0336111, 34.7448478], [-95.0336137, 34.7449554]]]}, "properties": {"osm_id": 1081837962, "building": "yes", "name": "1104 Old Town Rd", "height": null, "height_m": null, "levels": null, "tract_id": "40079040700", "tract_name": "407", "tags": {"addr:city": "Talihina", "addr:housenumber": "1104", "addr:postcode": "74571", "addr:state": "OK", "addr:street": "Old Town Road", "building": "yes", "name": "1104 Old Town Rd"}}}, {"type": "Feature", "geometry": {"type": "Polygon", "coordinates": [[[-95.0334519, 34.7449522], [-95.0333129, 34.7449545], [-95.0333103, 34.7448469], [-95.0334494, 34.7448446], [-95.0334519, 34.7449522]]]}, "properties": {"osm_id": 1081837963, "building": "yes", "name": "1106 Old Town Rd", "height": null, "height_m": null, "levels": null, "tract_id": "40079040700", "tract_name": "407", "tags": {"addr:city": "Talihina", "addr:housenumber": "1106", "addr:postcode": "74571", "addr:state": "OK", "addr:street": "Old Town Road", "building": "yes", "name": "1106 Old Town Rd"}}}, {"type": "Feature", "geometry": {"type": "Polygon", "coordinates": [[[-95.0332642, 34.7449554], [-95.0331252, 34.7449577], [-95.0331226, 34.74485], [-95.0332616, 34.7448478], [-95.0332642, 34.7449554]]]}, "properties": {"osm_id": 1081837964, "building": "yes", "name": "", "height": null, "height_m": null, "levels": null, "tract_id": "40079040700", "tract_name": "407", "tags": {"building": "yes"}}}, {"type": "Feature", "geometry": {"type": "Polygon", "coordinates": [[[-95.0331082, 34.7449499], [-95.0329692, 34.7449521], [-95.0329666, 34.7448445], [-95.0331056, 34.7448423], [-95.0331082, 34.7449499]]]}, "properties": {"osm_id": 1081837965, "building": "yes", "name": "", "height": null, "height_m": null, "levels": null, "tract_id": "40079040700", "tract_name": "407", "tags": {"building": "yes"}}}, {"type": "Feature", "geometry": {"type": "Polygon", "coordinates": [[[-94.9884575, 34.7382132], [-94.9884481, 34.7382706], [-94.9883529, 34.7382601], [-94.9883623, 34.7382028], [-94.9884575, 34.7382132]]]}, "properties": {"osm_id": 1135178748, "building": "yes", "name": "", "height": null, "height_m": null, "levels": null, "tract_id": "40079040700", "tract_name": "407", "tags": {"building": "yes"}}}, {"type": "Feature", "geometry": {"type": "Polygon", "coordinates": [[[-94.9886231, 34.7382187], [-94.9885346, 34.738211], [-94.9885418, 34.7381549], [-94.9886304, 34.7381626], [-94.9886231, 34.7382187]]]}, "properties": {"osm_id": 1135178749, "building": "yes", "name": "", "height": null, "height_m": null, "levels": null, "tract_id": "40079040700", "tract_name": "407", "tags": {"building": "yes"}}}, {"type": "Feature", "geometry": {"type": "Polygon", "coordinates": [[[-94.9887753, 34.7382154], [-94.9888822, 34.7382353], [-94.9888527, 34.7383427], [-94.9887458, 34.7383229], [-94.9887753, 34.7382154]]]}, "properties": {"osm_id": 1135178750, "building": "yes", "name": "", "height": null, "height_m": null, "levels": null, "tract_id": "40079040700", "tract_name": "407", "tags": {"building": "yes"}}}, {"type": "Feature", "geometry": {"type": "Polygon", "coordinates": [[[-95.009148, 34.7378088], [-95.0090247, 34.737806], [-95.009027, 34.7377365], [-95.0091503, 34.7377393], [-95.009148, 34.7378088]]]}, "properties": {"osm_id": 1135178755, "building": "yes", "name": "", "height": null, "height_m": null, "levels": null, "tract_id": "40079040700", "tract_name": "407", "tags": {"building": "yes"}}}, {"type": "Feature", "geometry": {"type": "Polygon", "coordinates": [[[-95.009032, 34.7375834], [-95.0090374, 34.7374644], [-95.0091426, 34.7374676], [-95.0091372, 34.7375866], [-95.009032, 34.7375834]]]}, "properties": {"osm_id": 1135178756, "building": "yes", "name": "", "height": null, "height_m": null, "levels": null, "tract_id": "40079040700", "tract_name": "407", "tags": {"building": "yes"}}}, {"type": "Feature", "geometry": {"type": "Polygon", "coordinates": [[[-95.0279295, 34.7355148], [-95.0280287, 34.7354278], [-95.0281339, 34.7355089], [-95.0280348, 34.7355958], [-95.0279295, 34.7355148]]]}, "properties": {"osm_id": 1135178759, "building": "yes", "name": "", "height": null, "height_m": null, "levels": null, "tract_id": "40079040700", "tract_name": "407", "tags": {"building": "yes"}}}, {"type": "Feature", "geometry": {"type": "Polygon", "coordinates": [[[-95.042223, 34.7385444], [-95.0422592, 34.7387119], [-95.0421566, 34.7387269], [-95.0421204, 34.7385594], [-95.042223, 34.7385444]]]}, "properties": {"osm_id": 1135178760, "building": "yes", "name": "", "height": null, "height_m": null, "levels": null, "tract_id": "40079040700", "tract_name": "407", "tags": {"building": "yes"}}}, {"type": "Feature", "geometry": {"type": "Polygon", "coordinates": [[[-95.0405453, 34.737871], [-95.0402878, 34.7378721], [-95.0402863, 34.7376267], [-95.0405438, 34.7376256], [-95.0405453, 34.737871]]]}, "properties": {"osm_id": 1135178761, "building": "yes", "name": "", "height": null, "height_m": null, "levels": null, "tract_id": "40079040700", "tract_name": "407", "tags": {"building": "yes"}}}, {"type": "Feature", "geometry": {"type": "Polygon", "coordinates": [[[-95.050733, 34.7332273], [-95.0508456, 34.7332275], [-95.0508449, 34.7334425], [-95.0507323, 34.7334422], [-95.050733, 34.7332273]]]}, "properties": {"osm_id": 1135178762, "building": "yes", "name": "", "height": null, "height_m": null, "levels": null, "tract_id": "40079040700", "tract_name": "407", "tags": {"building": "yes"}}}, {"type": "Feature", "geometry": {"type": "Polygon", "coordinates": [[[-95.0519923, 34.7336612], [-95.0519145, 34.7336647], [-95.0519112, 34.7336158], [-95.051989, 34.7336123], [-95.0519923, 34.7336612]]]}, "properties": {"osm_id": 1135178763, "building": "yes", "name": "", "height": null, "height_m": null, "levels": null, "tract_id": "40079040700", "tract_name": "407", "tags": {"building": "yes"}}}, {"type": "Feature", "geometry": {"type": "Polygon", "coordinates": [[[-95.0521369, 34.7336113], [-95.0520786, 34.7336405], [-95.0520556, 34.7336097], [-95.052114, 34.7335804], [-95.0521369, 34.7336113]]]}, "properties": {"osm_id": 1135178764, "building": "yes", "name": "", "height": null, "height_m": null, "levels": null, "tract_id": "40079040700", "tract_name": "407", "tags": {"building": "yes"}}}, {"type": "Feature", "geometry": {"type": "Polygon", "coordinates": [[[-95.0485564, 34.7420707], [-95.0486071, 34.7420728], [-95.0486021, 34.7421543], [-95.0485514, 34.7421522], [-95.0485564, 34.7420707]]]}, "properties": {"osm_id": 1135178768, "building": "yes", "name": "", "height": null, "height_m": null, "levels": null, "tract_id": "40079040700", "tract_name": "407", "tags": {"building": "yes"}}}, {"type": "Feature", "geometry": {"type": "Polygon", "coordinates": [[[-95.0464515, 34.7456833], [-95.0465559, 34.7456839], [-95.0465545, 34.7458415], [-95.0464502, 34.7458409], [-95.0464515, 34.7456833]]]}, "properties": {"osm_id": 1135178769, "building": "yes", "name": "", "height": null, "height_m": null, "levels": null, "tract_id": "40079040700", "tract_name": "407", "tags": {"building": "yes"}}}, {"type": "Feature", "geometry": {"type": "Polygon", "coordinates": [[[-95.0440203, 34.7463768], [-95.0442764, 34.7468116], [-95.0438323, 34.7469882], [-95.043768, 34.7468789], [-95.0437205, 34.7468978], [-95.0436384, 34.7467585], [-95.0436859, 34.7467396], [-95.0435763, 34.7465534], [-95.0440203, 34.7463768]]]}, "properties": {"osm_id": 1135178770, "building": "yes", "name": "", "height": null, "height_m": null, "levels": null, "tract_id": "40079040700", "tract_name": "407", "tags": {"building": "yes"}}}, {"type": "Feature", "geometry": {"type": "Polygon", "coordinates": [[[-95.0415766, 34.7455228], [-95.0415766, 34.7453787], [-95.0419113, 34.7453787], [-95.0419113, 34.7455228], [-95.0415766, 34.7455228]]]}, "properties": {"osm_id": 1135178771, "building": "yes", "name": "", "height": null, "height_m": null, "levels": null, "tract_id": "40079040700", "tract_name": "407", "tags": {"building": "yes"}}}, {"type": "Feature", "geometry": {"type": "Polygon", "coordinates": [[[-95.0429924, 34.7436215], [-95.0432949, 34.7436188], [-95.0433006, 34.744049], [-95.0429981, 34.7440517], [-95.0429924, 34.7436215]]]}, "properties": {"osm_id": 1135178772, "building": "yes", "name": "", "height": null, "height_m": null, "levels": null, "tract_id": "40079040700", "tract_name": "407", "tags": {"building": "yes"}}}, {"type": "Feature", "geometry": {"type": "Polygon", "coordinates": [[[-95.0463797, 34.7466542], [-95.0463818, 34.7465021], [-95.0466383, 34.7465044], [-95.0466362, 34.7466566], [-95.0463797, 34.7466542]]]}, "properties": {"osm_id": 1135178773, "building": "yes", "name": "", "height": null, "height_m": null, "levels": null, "tract_id": "40079040700", "tract_name": "407", "tags": {"building": "yes"}}}, {"type": "Feature", "geometry": {"type": "Polygon", "coordinates": [[[-95.0461334, 34.7464712], [-95.0460046, 34.7464717], [-95.046004, 34.7463782], [-95.0461328, 34.7463776], [-95.0461334, 34.7464712]]]}, "properties": {"osm_id": 1135178774, "building": "yes", "name": "", "height": null, "height_m": null, "levels": null, "tract_id": "40079040700", "tract_name": "407", "tags": {"building": "yes"}}}, {"type": "Feature", "geometry": {"type": "Polygon", "coordinates": [[[-95.0456144, 34.7469403], [-95.0456148, 34.7469049], [-95.0456808, 34.7469054], [-95.0456804, 34.7469409], [-95.0456144, 34.7469403]]]}, "properties": {"osm_id": 1135178775, "building": "yes", "name": "", "height": null, "height_m": null, "levels": null, "tract_id": "40079040700", "tract_name": "407", "tags": {"building": "yes"}}}, {"type": "Feature", "geometry": {"type": "Polygon", "coordinates": [[[-95.0456794, 34.7468825], [-95.0456137, 34.7468822], [-95.0456139, 34.7468461], [-95.0456796, 34.7468464], [-95.0456794, 34.7468825]]]}, "properties": {"osm_id": 1135178776, "building": "yes", "name": "", "height": null, "height_m": null, "levels": null, "tract_id": "40079040700", "tract_name": "407", "tags": {"building": "yes"}}}, {"type": "Feature", "geometry": {"type": "Polygon", "coordinates": [[[-95.0449488, 34.7460453], [-95.0449475, 34.7458381], [-95.0450024, 34.7458379], [-95.0450038, 34.746045], [-95.0449488, 34.7460453]]]}, "properties": {"osm_id": 1135178777, "building": "yes", "name": "", "height": null, "height_m": null, "levels": null, "tract_id": "40079040700", "tract_name": "407", "tags": {"building": "yes"}}}, {"type": "Feature", "geometry": {"type": "Polygon", "coordinates": [[[-95.0443978, 34.7458875], [-95.0441626, 34.7458836], [-95.0441646, 34.7457997], [-95.0443998, 34.7458036], [-95.0443978, 34.7458875]]]}, "properties": {"osm_id": 1135178778, "building": "yes", "name": "", "height": null, "height_m": null, "levels": null, "tract_id": "40079040700", "tract_name": "407", "tags": {"building": "yes"}}}, {"type": "Feature", "geometry": {"type": "Polygon", "coordinates": [[[-95.0441542, 34.7461615], [-95.0441616, 34.7459527], [-95.0442545, 34.7459549], [-95.0442471, 34.7461638], [-95.0441542, 34.7461615]]]}, "properties": {"osm_id": 1135178779, "building": "yes", "name": "", "height": null, "height_m": null, "levels": null, "tract_id": "40079040700", "tract_name": "407", "tags": {"building": "yes"}}}, {"type": "Feature", "geometry": {"type": "Polygon", "coordinates": [[[-95.0439651, 34.7461279], [-95.0439712, 34.7458508], [-95.0440758, 34.7458523], [-95.0440697, 34.7461295], [-95.0439651, 34.7461279]]]}, "properties": {"osm_id": 1135178780, "building": "yes", "name": "", "height": null, "height_m": null, "levels": null, "tract_id": "40079040700", "tract_name": "407", "tags": {"building": "yes"}}}, {"type": "Feature", "geometry": {"type": "Polygon", "coordinates": [[[-95.0439128, 34.7458557], [-95.0439061, 34.7461296], [-95.0437994, 34.7461278], [-95.0438061, 34.745854], [-95.0439128, 34.7458557]]]}, "properties": {"osm_id": 1135178781, "building": "yes", "name": "", "height": null, "height_m": null, "levels": null, "tract_id": "40079040700", "tract_name": "407", "tags": {"building": "yes"}}}, {"type": "Feature", "geometry": {"type": "Polygon", "coordinates": [[[-95.0432849, 34.7457816], [-95.0432342, 34.7457816], [-95.0432342, 34.7457546], [-95.0432849, 34.7457546], [-95.0432849, 34.7457816]]]}, "properties": {"osm_id": 1135178782, "building": "yes", "name": "", "height": null, "height_m": null, "levels": null, "tract_id": "40079040700", "tract_name": "407", "tags": {"building": "yes"}}}, {"type": "Feature", "geometry": {"type": "Polygon", "coordinates": [[[-95.0433144, 34.7457381], [-95.0432342, 34.7457398], [-95.0432327, 34.7456899], [-95.0433128, 34.7456882], [-95.0433144, 34.7457381]]]}, "properties": {"osm_id": 1135178783, "building": "yes", "name": "", "height": null, "height_m": null, "levels": null, "tract_id": "40079040700", "tract_name": "407", "tags": {"building": "yes"}}}, {"type": "Feature", "geometry": {"type": "Polygon", "coordinates": [[[-95.0416028, 34.7449158], [-95.0417043, 34.7448806], [-95.0418398, 34.7451451], [-95.0417382, 34.7451802], [-95.0416028, 34.7449158]]]}, "properties": {"osm_id": 1135178784, "building": "yes", "name": "", "height": null, "height_m": null, "levels": null, "tract_id": "40079040700", "tract_name": "407", "tags": {"building": "yes"}}}, {"type": "Feature", "geometry": {"type": "Polygon", "coordinates": [[[-95.0433603, 34.7450392], [-95.0429472, 34.7450353], [-95.0429498, 34.744849], [-95.0433629, 34.7448528], [-95.0433603, 34.7450392]]]}, "properties": {"osm_id": 1135178785, "building": "yes", "name": "", "height": null, "height_m": null, "levels": null, "tract_id": "40079040700", "tract_name": "407", "tags": {"building": "yes"}}}, {"type": "Feature", "geometry": {"type": "Polygon", "coordinates": [[[-95.0427407, 34.7444491], [-95.042821, 34.7444493], [-95.0428197, 34.7447347], [-95.0427394, 34.7447345], [-95.0427407, 34.7444491]]]}, "properties": {"osm_id": 1135178786, "building": "roof", "name": "", "height": null, "height_m": null, "levels": null, "tract_id": "40079040700", "tract_name": "407", "tags": {"building": "roof", "layer": "1"}}}, {"type": "Feature", "geometry": {"type": "Polygon", "coordinates": [[[-95.0305407, 34.7416929], [-95.0304347, 34.7416819], [-95.0304443, 34.7416199], [-95.0305502, 34.7416309], [-95.0305407, 34.7416929]]]}, "properties": {"osm_id": 1135178787, "building": "yes", "name": "", "height": null, "height_m": null, "levels": null, "tract_id": "40079040700", "tract_name": "407", "tags": {"building": "yes"}}}, {"type": "Feature", "geometry": {"type": "Polygon", "coordinates": [[[-95.0304106, 34.7418131], [-95.0302617, 34.7417932], [-95.0302828, 34.7416867], [-95.0304316, 34.7417065], [-95.0304106, 34.7418131]]]}, "properties": {"osm_id": 1135178788, "building": "yes", "name": "", "height": null, "height_m": null, "levels": null, "tract_id": "40079040700", "tract_name": "407", "tags": {"building": "yes"}}}, {"type": "Feature", "geometry": {"type": "Polygon", "coordinates": [[[-94.9865332, 34.751267], [-94.9863634, 34.7512686], [-94.9863614, 34.7511177], [-94.9865311, 34.7511161], [-94.9865332, 34.751267]]]}, "properties": {"osm_id": 1135178792, "building": "yes", "name": "", "height": null, "height_m": null, "levels": null, "tract_id": "40079040700", "tract_name": "407", "tags": {"building": "yes"}}}, {"type": "Feature", "geometry": {"type": "Polygon", "coordinates": [[[-94.9837361, 34.7536931], [-94.9835363, 34.7537383], [-94.9834951, 34.7536152], [-94.9836949, 34.7535701], [-94.9837361, 34.7536931]]]}, "properties": {"osm_id": 1135178793, "building": "yes", "name": "", "height": null, "height_m": null, "levels": null, "tract_id": "40079040700", "tract_name": "407", "tags": {"building": "yes"}}}, {"type": "Feature", "geometry": {"type": "Polygon", "coordinates": [[[-94.9716543, 34.7543906], [-94.9715626, 34.7543898], [-94.9715645, 34.7542433], [-94.9716562, 34.7542441], [-94.9716543, 34.7543906]]]}, "properties": {"osm_id": 1135178794, "building": "yes", "name": "", "height": null, "height_m": null, "levels": null, "tract_id": "40079040700", "tract_name": "407", "tags": {"building": "yes"}}}, {"type": "Feature", "geometry": {"type": "Polygon", "coordinates": [[[-94.9711655, 34.7536808], [-94.9711043, 34.75368], [-94.9711053, 34.7536272], [-94.9711664, 34.753628], [-94.9711655, 34.7536808]]]}, "properties": {"osm_id": 1135178795, "building": "yes", "name": "", "height": null, "height_m": null, "levels": null, "tract_id": "40079040700", "tract_name": "407", "tags": {"building": "yes"}}}, {"type": "Feature", "geometry": {"type": "Polygon", "coordinates": [[[-94.9718955, 34.7525097], [-94.9720153, 34.7524104], [-94.9721602, 34.7525283], [-94.9720404, 34.7526276], [-94.9718955, 34.7525097]]]}, "properties": {"osm_id": 1135178796, "building": "yes", "name": "", "height": null, "height_m": null, "levels": null, "tract_id": "40079040700", "tract_name": "407", "tags": {"building": "yes"}}}, {"type": "Feature", "geometry": {"type": "Polygon", "coordinates": [[[-94.9758065, 34.75268], [-94.9757728, 34.7528109], [-94.9757268, 34.7528029], [-94.9757604, 34.752672], [-94.9758065, 34.75268]]]}, "properties": {"osm_id": 1135178797, "building": "yes", "name": "", "height": null, "height_m": null, "levels": null, "tract_id": "40079040700", "tract_name": "407", "tags": {"building": "yes"}}}, {"type": "Feature", "geometry": {"type": "Polygon", "coordinates": [[[-94.9757857, 34.7528538], [-94.9757951, 34.7528171], [-94.9759231, 34.7528392], [-94.9759138, 34.7528758], [-94.9757857, 34.7528538]]]}, "properties": {"osm_id": 1135178798, "building": "yes", "name": "", "height": null, "height_m": null, "levels": null, "tract_id": "40079040700", "tract_name": "407", "tags": {"building": "yes"}}}, {"type": "Feature", "geometry": {"type": "Polygon", "coordinates": [[[-94.9760489, 34.7528334], [-94.9760348, 34.7528992], [-94.9759963, 34.7528937], [-94.9760104, 34.7528278], [-94.9760489, 34.7528334]]]}, "properties": {"osm_id": 1135178799, "building": "yes", "name": "", "height": null, "height_m": null, "levels": null, "tract_id": "40079040700", "tract_name": "407", "tags": {"building": "yes"}}}, {"type": "Feature", "geometry": {"type": "Polygon", "coordinates": [[[-94.9750833, 34.7562378], [-94.9748687, 34.7563271], [-94.9748252, 34.7562565], [-94.9750398, 34.7561672], [-94.9750833, 34.7562378]]]}, "properties": {"osm_id": 1135178800, "building": "yes", "name": "", "height": null, "height_m": null, "levels": null, "tract_id": "40079040700", "tract_name": "407", "tags": {"building": "yes"}}}, {"type": "Feature", "geometry": {"type": "Polygon", "coordinates": [[[-94.9661489, 34.7554633], [-94.9661965, 34.7556021], [-94.9661077, 34.7556226], [-94.9660601, 34.7554838], [-94.9661489, 34.7554633]]]}, "properties": {"osm_id": 1135178801, "building": "yes", "name": "", "height": null, "height_m": null, "levels": null, "tract_id": "40079040700", "tract_name": "407", "tags": {"building": "yes"}}}, {"type": "Feature", "geometry": {"type": "Polygon", "coordinates": [[[-94.965349, 34.7538841], [-94.9652362, 34.7538865], [-94.9652332, 34.7537878], [-94.965346, 34.7537855], [-94.965349, 34.7538841]]]}, "properties": {"osm_id": 1135178802, "building": "yes", "name": "", "height": null, "height_m": null, "levels": null, "tract_id": "40079040700", "tract_name": "407", "tags": {"building": "yes"}}}, {"type": "Feature", "geometry": {"type": "Polygon", "coordinates": [[[-94.9691288, 34.7498101], [-94.9691154, 34.7499478], [-94.9689787, 34.7499388], [-94.9689921, 34.7498011], [-94.9691288, 34.7498101]]]}, "properties": {"osm_id": 1135178804, "building": "yes", "name": "", "height": null, "height_m": null, "levels": null, "tract_id": "40079040700", "tract_name": "407", "tags": {"building": "yes"}}}, {"type": "Feature", "geometry": {"type": "Polygon", "coordinates": [[[-95.0071297, 34.7522998], [-95.007131, 34.752161], [-95.0072787, 34.7521619], [-95.0072774, 34.7523008], [-95.0071297, 34.7522998]]]}, "properties": {"osm_id": 1135178809, "building": "yes", "name": "", "height": null, "height_m": null, "levels": null, "tract_id": "40079040700", "tract_name": "407", "tags": {"building": "yes"}}}, {"type": "Feature", "geometry": {"type": "Polygon", "coordinates": [[[-95.026197, 34.7385003], [-95.0262045, 34.7386125], [-95.0260988, 34.7386173], [-95.0260912, 34.7385051], [-95.026197, 34.7385003]]]}, "properties": {"osm_id": 1135229419, "building": "yes", "name": "", "height": null, "height_m": null, "levels": null, "tract_id": "40079040700", "tract_name": "407", "tags": {"building": "yes"}}}, {"type": "Feature", "geometry": {"type": "Polygon", "coordinates": [[[-95.0256669, 34.7370859], [-95.0256593, 34.7368723], [-95.0257747, 34.7368696], [-95.0257823, 34.7370831], [-95.0256669, 34.7370859]]]}, "properties": {"osm_id": 1135229420, "building": "yes", "name": "", "height": null, "height_m": null, "levels": null, "tract_id": "40079040700", "tract_name": "407", "tags": {"building": "yes"}}}, {"type": "Feature", "geometry": {"type": "Polygon", "coordinates": [[[-95.0307109, 34.7398601], [-95.0308596, 34.739906], [-95.0307733, 34.7400946], [-95.0306246, 34.7400487], [-95.0307109, 34.7398601]]]}, "properties": {"osm_id": 1135229421, "building": "yes", "name": "", "height": null, "height_m": null, "levels": null, "tract_id": "40079040700", "tract_name": "407", "tags": {"building": "yes"}}}, {"type": "Feature", "geometry": {"type": "Polygon", "coordinates": [[[-95.0355229, 34.7386204], [-95.0355552, 34.7384332], [-95.0359146, 34.7384751], [-95.0358823, 34.7386623], [-95.0355229, 34.7386204]]]}, "properties": {"osm_id": 1135229422, "building": "yes", "name": "", "height": null, "height_m": null, "levels": null, "tract_id": "40079040700", "tract_name": "407", "tags": {"building": "yes"}}}, {"type": "Feature", "geometry": {"type": "Polygon", "coordinates": [[[-95.0372931, 34.7367712], [-95.0373806, 34.7366801], [-95.0375335, 34.7367793], [-95.037446, 34.7368703], [-95.0372931, 34.7367712]]]}, "properties": {"osm_id": 1135229423, "building": "yes", "name": "", "height": null, "height_m": null, "levels": null, "tract_id": "40079040700", "tract_name": "407", "tags": {"building": "yes"}}}, {"type": "Feature", "geometry": {"type": "Polygon", "coordinates": [[[-95.0408041, 34.7345471], [-95.0406774, 34.7345796], [-95.0406389, 34.7344783], [-95.0407657, 34.7344458], [-95.0408041, 34.7345471]]]}, "properties": {"osm_id": 1135229424, "building": "yes", "name": "", "height": null, "height_m": null, "levels": null, "tract_id": "40079040700", "tract_name": "407", "tags": {"building": "yes"}}}, {"type": "Feature", "geometry": {"type": "Polygon", "coordinates": [[[-95.0427686, 34.7407469], [-95.042768, 34.7406602], [-95.0431255, 34.7406587], [-95.0431261, 34.7407453], [-95.0427686, 34.7407469]]]}, "properties": {"osm_id": 1135229425, "building": "yes", "name": "", "height": null, "height_m": null, "levels": null, "tract_id": "40079040700", "tract_name": "407", "tags": {"building": "yes"}}}, {"type": "Feature", "geometry": {"type": "Polygon", "coordinates": [[[-95.0427648, 34.740616], [-95.042765, 34.7405374], [-95.043133, 34.7405381], [-95.0431327, 34.7406168], [-95.0427648, 34.740616]]]}, "properties": {"osm_id": 1135229426, "building": "yes", "name": "", "height": null, "height_m": null, "levels": null, "tract_id": "40079040700", "tract_name": "407", "tags": {"building": "yes"}}}, {"type": "Feature", "geometry": {"type": "Polygon", "coordinates": [[[-95.04322, 34.7415176], [-95.0433967, 34.7415189], [-95.0433942, 34.7417395], [-95.0432175, 34.7417381], [-95.04322, 34.7415176]]]}, "properties": {"osm_id": 1135229427, "building": "yes", "name": "", "height": null, "height_m": null, "levels": null, "tract_id": "40079040700", "tract_name": "407", "tags": {"building": "yes"}}}, {"type": "Feature", "geometry": {"type": "Polygon", "coordinates": [[[-95.040324, 34.7464657], [-95.0401564, 34.746464], [-95.0401578, 34.7463689], [-95.0403254, 34.7463706], [-95.040324, 34.7464657]]]}, "properties": {"osm_id": 1135229428, "building": "yes", "name": "", "height": null, "height_m": null, "levels": null, "tract_id": "40079040700", "tract_name": "407", "tags": {"building": "yes"}}}, {"type": "Feature", "geometry": {"type": "Polygon", "coordinates": [[[-95.0387114, 34.7470139], [-95.0387155, 34.7468976], [-95.0388523, 34.7469009], [-95.0388481, 34.7470172], [-95.0387114, 34.7470139]]]}, "properties": {"osm_id": 1135229429, "building": "yes", "name": "", "height": null, "height_m": null, "levels": null, "tract_id": "40079040700", "tract_name": "407", "tags": {"building": "yes"}}}, {"type": "Feature", "geometry": {"type": "Polygon", "coordinates": [[[-95.0400914, 34.747469], [-95.0399599, 34.7474734], [-95.0399562, 34.7473977], [-95.0400876, 34.7473933], [-95.0400914, 34.747469]]]}, "properties": {"osm_id": 1135229430, "building": "yes", "name": "", "height": null, "height_m": null, "levels": null, "tract_id": "40079040700", "tract_name": "407", "tags": {"building": "yes"}}}, {"type": "Feature", "geometry": {"type": "Polygon", "coordinates": [[[-95.0396169, 34.7474602], [-95.0396816, 34.7474625], [-95.0396786, 34.7475195], [-95.0396139, 34.7475172], [-95.0396169, 34.7474602]]]}, "properties": {"osm_id": 1135229431, "building": "yes", "name": "", "height": null, "height_m": null, "levels": null, "tract_id": "40079040700", "tract_name": "407", "tags": {"building": "yes"}}}, {"type": "Feature", "geometry": {"type": "Polygon", "coordinates": [[[-95.0395361, 34.7476481], [-95.0395366, 34.7476063], [-95.0398029, 34.7476085], [-95.0398023, 34.7476503], [-95.0395361, 34.7476481]]]}, "properties": {"osm_id": 1135229432, "building": "yes", "name": "", "height": null, "height_m": null, "levels": null, "tract_id": "40079040700", "tract_name": "407", "tags": {"building": "yes"}}}, {"type": "Feature", "geometry": {"type": "Polygon", "coordinates": [[[-95.0402736, 34.7476793], [-95.0402703, 34.7475585], [-95.0403727, 34.7475566], [-95.0403761, 34.7476774], [-95.0402736, 34.7476793]]]}, "properties": {"osm_id": 1135229433, "building": "yes", "name": "", "height": null, "height_m": null, "levels": null, "tract_id": "40079040700", "tract_name": "407", "tags": {"building": "yes"}}}, {"type": "Feature", "geometry": {"type": "Polygon", "coordinates": [[[-94.9437531, 34.7451455], [-94.943743, 34.7450324], [-94.9438986, 34.7450231], [-94.9439087, 34.7451362], [-94.9437531, 34.7451455]]]}, "properties": {"osm_id": 1135229434, "building": "yes", "name": "", "height": null, "height_m": null, "levels": null, "tract_id": "40079040700", "tract_name": "407", "tags": {"building": "yes"}}}, {"type": "Feature", "geometry": {"type": "Polygon", "coordinates": [[[-94.9444646, 34.7443053], [-94.9442902, 34.7443042], [-94.9442912, 34.7441949], [-94.9444656, 34.744196], [-94.9444646, 34.7443053]]]}, "properties": {"osm_id": 1135229435, "building": "yes", "name": "", "height": null, "height_m": null, "levels": null, "tract_id": "40079040700", "tract_name": "407", "tags": {"building": "yes"}}}, {"type": "Feature", "geometry": {"type": "Polygon", "coordinates": [[[-94.954429, 34.7272034], [-94.9545453, 34.7272358], [-94.9544997, 34.7273461], [-94.9543834, 34.7273136], [-94.954429, 34.7272034]]]}, "properties": {"osm_id": 1135229436, "building": "yes", "name": "", "height": null, "height_m": null, "levels": null, "tract_id": "40079040700", "tract_name": "407", "tags": {"building": "yes"}}}, {"type": "Feature", "geometry": {"type": "Polygon", "coordinates": [[[-94.9553168, 34.7259611], [-94.9553698, 34.7258888], [-94.95553, 34.7259682], [-94.955477, 34.7260405], [-94.9553168, 34.7259611]]]}, "properties": {"osm_id": 1135229437, "building": "yes", "name": "", "height": null, "height_m": null, "levels": null, "tract_id": "40079040700", "tract_name": "407", "tags": {"building": "yes"}}}, {"type": "Feature", "geometry": {"type": "Polygon", "coordinates": [[[-94.9545852, 34.7254602], [-94.9545537, 34.7255969], [-94.9544269, 34.7255771], [-94.9544584, 34.7254404], [-94.9545852, 34.7254602]]]}, "properties": {"osm_id": 1135229438, "building": "yes", "name": "", "height": null, "height_m": null, "levels": null, "tract_id": "40079040700", "tract_name": "407", "tags": {"building": "yes"}}}, {"type": "Feature", "geometry": {"type": "Polygon", "coordinates": [[[-94.9497912, 34.7276255], [-94.949702, 34.7277178], [-94.949656, 34.7276878], [-94.9497451, 34.7275955], [-94.9497912, 34.7276255]]]}, "properties": {"osm_id": 1135229439, "building": "yes", "name": "", "height": null, "height_m": null, "levels": null, "tract_id": "40079040700", "tract_name": "407", "tags": {"building": "yes"}}}, {"type": "Feature", "geometry": {"type": "Polygon", "coordinates": [[[-94.9676335, 34.7340941], [-94.9676673, 34.7340162], [-94.9679196, 34.7340903], [-94.9678857, 34.7341681], [-94.9676335, 34.7340941]]]}, "properties": {"osm_id": 1135229451, "building": "yes", "name": "", "height": null, "height_m": null, "levels": null, "tract_id": "40079040700", "tract_name": "407", "tags": {"building": "yes"}}}, {"type": "Feature", "geometry": {"type": "Polygon", "coordinates": [[[-94.9691154, 34.734255], [-94.968996, 34.7342451], [-94.9690095, 34.7341357], [-94.9691289, 34.7341456], [-94.9691154, 34.734255]]]}, "properties": {"osm_id": 1135229452, "building": "yes", "name": "", "height": null, "height_m": null, "levels": null, "tract_id": "40079040700", "tract_name": "407", "tags": {"building": "yes"}}}, {"type": "Feature", "geometry": {"type": "Polygon", "coordinates": [[[-94.9808604, 34.7514914], [-94.980786, 34.7514945], [-94.9807826, 34.7514403], [-94.9808571, 34.7514372], [-94.9808604, 34.7514914]]]}, "properties": {"osm_id": 1135229458, "building": "yes", "name": "", "height": null, "height_m": null, "levels": null, "tract_id": "40079040700", "tract_name": "407", "tags": {"building": "yes"}}}, {"type": "Feature", "geometry": {"type": "Polygon", "coordinates": [[[-94.9755862, 34.7539295], [-94.9757064, 34.7539337], [-94.9756991, 34.7540748], [-94.9755789, 34.7540705], [-94.9755862, 34.7539295]]]}, "properties": {"osm_id": 1135229459, "building": "yes", "name": "", "height": null, "height_m": null, "levels": null, "tract_id": "40079040700", "tract_name": "407", "tags": {"building": "yes"}}}, {"type": "Feature", "geometry": {"type": "Polygon", "coordinates": [[[-94.9755064, 34.7538777], [-94.9754857, 34.7540264], [-94.9754049, 34.7540188], [-94.9754257, 34.7538701], [-94.9755064, 34.7538777]]]}, "properties": {"osm_id": 1135229460, "building": "yes", "name": "", "height": null, "height_m": null, "levels": null, "tract_id": "40079040700", "tract_name": "407", "tags": {"building": "yes"}}}, {"type": "Feature", "geometry": {"type": "Polygon", "coordinates": [[[-94.9749847, 34.7521576], [-94.9748653, 34.7521287], [-94.9749069, 34.7520123], [-94.9750264, 34.7520411], [-94.9749847, 34.7521576]]]}, "properties": {"osm_id": 1135229461, "building": "yes", "name": "", "height": null, "height_m": null, "levels": null, "tract_id": "40079040700", "tract_name": "407", "tags": {"building": "yes"}}}, {"type": "Feature", "geometry": {"type": "Polygon", "coordinates": [[[-94.9597796, 34.753592], [-94.9597739, 34.7534237], [-94.9598795, 34.7534213], [-94.9598852, 34.7535896], [-94.9597796, 34.753592]]]}, "properties": {"osm_id": 1135229462, "building": "yes", "name": "", "height": null, "height_m": null, "levels": null, "tract_id": "40079040700", "tract_name": "407", "tags": {"building": "yes"}}}, {"type": "Feature", "geometry": {"type": "Polygon", "coordinates": [[[-95.0433674, 34.7461306], [-95.0433679, 34.745974], [-95.0434756, 34.7459742], [-95.0434751, 34.7461308], [-95.0433674, 34.7461306]]]}, "properties": {"osm_id": 1135229506, "building": "yes", "name": "", "height": null, "height_m": null, "levels": null, "tract_id": "40079040700", "tract_name": "407", "tags": {"building": "yes"}}}, {"type": "Feature", "geometry": {"type": "Polygon", "coordinates": [[[-95.0413841, 34.7485278], [-95.0413836, 34.7484902], [-95.0415628, 34.7484886], [-95.0415633, 34.7485263], [-95.0413841, 34.7485278]]]}, "properties": {"osm_id": 1135229507, "building": "yes", "name": "", "height": null, "height_m": null, "levels": null, "tract_id": "40079040700", "tract_name": "407", "tags": {"building": "yes"}}}, {"type": "Feature", "geometry": {"type": "Polygon", "coordinates": [[[-95.0433677, 34.7488564], [-95.0431021, 34.748858], [-95.0431013, 34.7487705], [-95.0433669, 34.7487688], [-95.0433677, 34.7488564]]]}, "properties": {"osm_id": 1135229508, "building": "yes", "name": "", "height": null, "height_m": null, "levels": null, "tract_id": "40079040700", "tract_name": "407", "tags": {"building": "yes"}}}, {"type": "Feature", "geometry": {"type": "Polygon", "coordinates": [[[-95.0431055, 34.7489836], [-95.0431039, 34.7488969], [-95.0433721, 34.7488936], [-95.0433737, 34.7489803], [-95.0431055, 34.7489836]]]}, "properties": {"osm_id": 1135229509, "building": "yes", "name": "", "height": null, "height_m": null, "levels": null, "tract_id": "40079040700", "tract_name": "407", "tags": {"building": "yes"}}}, {"type": "Feature", "geometry": {"type": "Polygon", "coordinates": [[[-95.0431033, 34.7491103], [-95.0431033, 34.7490257], [-95.0433726, 34.7490257], [-95.0433726, 34.7491103], [-95.0431033, 34.7491103]]]}, "properties": {"osm_id": 1135229510, "building": "yes", "name": "", "height": null, "height_m": null, "levels": null, "tract_id": "40079040700", "tract_name": "407", "tags": {"building": "yes"}}}, {"type": "Feature", "geometry": {"type": "Polygon", "coordinates": [[[-95.049575, 34.7528094], [-95.0495084, 34.7527398], [-95.0498068, 34.752547], [-95.0498734, 34.7526166], [-95.049575, 34.7528094]]]}, "properties": {"osm_id": 1135229518, "building": "yes", "name": "", "height": null, "height_m": null, "levels": null, "tract_id": "40079040700", "tract_name": "407", "tags": {"building": "yes"}}}, {"type": "Feature", "geometry": {"type": "Polygon", "coordinates": [[[-95.049465, 34.7527213], [-95.049345, 34.7526205], [-95.0494146, 34.7525645], [-95.0495346, 34.7526653], [-95.049465, 34.7527213]]]}, "properties": {"osm_id": 1135229519, "building": "yes", "name": "", "height": null, "height_m": null, "levels": null, "tract_id": "40079040700", "tract_name": "407", "tags": {"building": "yes"}}}, {"type": "Feature", "geometry": {"type": "Polygon", "coordinates": [[[-95.0458789, 34.7527169], [-95.0457454, 34.7528028], [-95.0456519, 34.7527047], [-95.0457853, 34.7526188], [-95.0458789, 34.7527169]]]}, "properties": {"osm_id": 1135229523, "building": "yes", "name": "", "height": null, "height_m": null, "levels": null, "tract_id": "40079040700", "tract_name": "407", "tags": {"building": "yes"}}}, {"type": "Feature", "geometry": {"type": "Polygon", "coordinates": [[[-95.0416886, 34.7554699], [-95.0417549, 34.7555317], [-95.0416309, 34.7556215], [-95.0415646, 34.7555597], [-95.0416886, 34.7554699]]]}, "properties": {"osm_id": 1135229524, "building": "yes", "name": "", "height": null, "height_m": null, "levels": null, "tract_id": "40079040700", "tract_name": "407", "tags": {"building": "yes"}}}, {"type": "Feature", "geometry": {"type": "Polygon", "coordinates": [[[-95.0405875, 34.7556847], [-95.0406468, 34.7556827], [-95.0406496, 34.7557402], [-95.0405903, 34.7557422], [-95.0405875, 34.7556847]]]}, "properties": {"osm_id": 1135229532, "building": "yes", "name": "", "height": null, "height_m": null, "levels": null, "tract_id": "40079040700", "tract_name": "407", "tags": {"building": "yes"}}}, {"type": "Feature", "geometry": {"type": "Polygon", "coordinates": [[[-95.0409118, 34.7558725], [-95.0406539, 34.7560478], [-95.0405473, 34.7559419], [-95.0408052, 34.7557666], [-95.0409118, 34.7558725]]]}, "properties": {"osm_id": 1135229533, "building": "yes", "name": "", "height": null, "height_m": null, "levels": null, "tract_id": "40079040700", "tract_name": "407", "tags": {"building": "yes"}}}, {"type": "Feature", "geometry": {"type": "Polygon", "coordinates": [[[-95.0323856, 34.7529655], [-95.0323856, 34.75289], [-95.0324951, 34.75289], [-95.0324951, 34.7529655], [-95.0323856, 34.7529655]]]}, "properties": {"osm_id": 1135229539, "building": "yes", "name": "", "height": null, "height_m": null, "levels": null, "tract_id": "40079040700", "tract_name": "407", "tags": {"building": "yes"}}}, {"type": "Feature", "geometry": {"type": "Polygon", "coordinates": [[[-95.0333979, 34.7530029], [-95.0332893, 34.7530033], [-95.033289, 34.7529348], [-95.0333975, 34.7529344], [-95.0333979, 34.7530029]]]}, "properties": {"osm_id": 1135229540, "building": "yes", "name": "", "height": null, "height_m": null, "levels": null, "tract_id": "40079040700", "tract_name": "407", "tags": {"building": "yes"}}}, {"type": "Feature", "geometry": {"type": "Polygon", "coordinates": [[[-95.0333548, 34.7531931], [-95.0333566, 34.7532775], [-95.0329877, 34.753283], [-95.0329859, 34.7531985], [-95.0333548, 34.7531931]]]}, "properties": {"osm_id": 1135229541, "building": "yes", "name": "", "height": null, "height_m": null, "levels": null, "tract_id": "40079040700", "tract_name": "407", "tags": {"building": "yes"}}}, {"type": "Feature", "geometry": {"type": "Polygon", "coordinates": [[[-95.0329887, 34.753151], [-95.0329893, 34.7530655], [-95.0333562, 34.753067], [-95.0333557, 34.7531525], [-95.0329887, 34.753151]]]}, "properties": {"osm_id": 1135229542, "building": "yes", "name": "", "height": null, "height_m": null, "levels": null, "tract_id": "40079040700", "tract_name": "407", "tags": {"building": "yes"}}}, {"type": "Feature", "geometry": {"type": "Polygon", "coordinates": [[[-95.030247, 34.7523026], [-95.0302787, 34.7521887], [-95.0304369, 34.7522185], [-95.0304052, 34.7523323], [-95.030247, 34.7523026]]]}, "properties": {"osm_id": 1135229543, "building": "yes", "name": "", "height": null, "height_m": null, "levels": null, "tract_id": "40079040700", "tract_name": "407", "tags": {"building": "yes"}}}, {"type": "Feature", "geometry": {"type": "Polygon", "coordinates": [[[-95.0313829, 34.7524177], [-95.0312474, 34.7524205], [-95.0312449, 34.7523357], [-95.0313803, 34.752333], [-95.0313829, 34.7524177]]]}, "properties": {"osm_id": 1135229544, "building": "yes", "name": "", "height": null, "height_m": null, "levels": null, "tract_id": "40079040700", "tract_name": "407", "tags": {"building": "yes"}}}, {"type": "Feature", "geometry": {"type": "Polygon", "coordinates": [[[-95.0290246, 34.7527692], [-95.0288918, 34.7527681], [-95.0288922, 34.7527345], [-95.029025, 34.7527356], [-95.0290246, 34.7527692]]]}, "properties": {"osm_id": 1135229546, "building": "yes", "name": "", "height": null, "height_m": null, "levels": null, "tract_id": "40079040700", "tract_name": "407", "tags": {"building": "yes"}}}, {"type": "Feature", "geometry": {"type": "Polygon", "coordinates": [[[-95.027959, 34.7525152], [-95.0279577, 34.7524246], [-95.0280663, 34.7524235], [-95.0280677, 34.7525141], [-95.027959, 34.7525152]]]}, "properties": {"osm_id": 1135229547, "building": "yes", "name": "", "height": null, "height_m": null, "levels": null, "tract_id": "40079040700", "tract_name": "407", "tags": {"building": "yes"}}}, {"type": "Feature", "geometry": {"type": "Polygon", "coordinates": [[[-95.0281723, 34.7526651], [-95.02817, 34.7525486], [-95.0283363, 34.7525464], [-95.0283386, 34.7526629], [-95.0281723, 34.7526651]]]}, "properties": {"osm_id": 1135229548, "building": "yes", "name": "", "height": null, "height_m": null, "levels": null, "tract_id": "40079040700", "tract_name": "407", "tags": {"building": "yes"}}}, {"type": "Feature", "geometry": {"type": "Polygon", "coordinates": [[[-95.0275286, 34.7517885], [-95.0275345, 34.7516767], [-95.0277337, 34.7516838], [-95.0277277, 34.7517957], [-95.0275286, 34.7517885]]]}, "properties": {"osm_id": 1135229549, "building": "yes", "name": "", "height": null, "height_m": null, "levels": null, "tract_id": "40079040700", "tract_name": "407", "tags": {"building": "yes"}}}, {"type": "Feature", "geometry": {"type": "Polygon", "coordinates": [[[-95.0285013, 34.7520625], [-95.0283382, 34.752075], [-95.0283272, 34.7519774], [-95.0284903, 34.7519649], [-95.0285013, 34.7520625]]]}, "properties": {"osm_id": 1135229550, "building": "yes", "name": "", "height": null, "height_m": null, "levels": null, "tract_id": "40079040700", "tract_name": "407", "tags": {"building": "yes"}}}, {"type": "Feature", "geometry": {"type": "Polygon", "coordinates": [[[-95.0129975, 34.7372129], [-95.0130426, 34.7371344], [-95.0131811, 34.7371882], [-95.013136, 34.7372667], [-95.0129975, 34.7372129]]]}, "properties": {"osm_id": 1135229555, "building": "yes", "name": "", "height": null, "height_m": null, "levels": null, "tract_id": "40079040700", "tract_name": "407", "tags": {"building": "yes"}}}, {"type": "Feature", "geometry": {"type": "Polygon", "coordinates": [[[-94.999763, 34.7370384], [-94.9997013, 34.7370373], [-94.9997022, 34.7370019], [-94.9997639, 34.737003], [-94.999763, 34.7370384]]]}, "properties": {"osm_id": 1135229556, "building": "yes", "name": "", "height": null, "height_m": null, "levels": null, "tract_id": "40079040700", "tract_name": "407", "tags": {"building": "yes"}}}, {"type": "Feature", "geometry": {"type": "Polygon", "coordinates": [[[-94.9995001, 34.7369679], [-94.9993178, 34.7369684], [-94.9993171, 34.7368335], [-94.9994995, 34.736833], [-94.9995001, 34.7369679]]]}, "properties": {"osm_id": 1135229557, "building": "yes", "name": "", "height": null, "height_m": null, "levels": null, "tract_id": "40079040700", "tract_name": "407", "tags": {"building": "yes"}}}, {"type": "Feature", "geometry": {"type": "Polygon", "coordinates": [[[-94.9996638, 34.7373371], [-94.999661, 34.7372478], [-94.9997683, 34.7372456], [-94.999771, 34.7373349], [-94.9996638, 34.7373371]]]}, "properties": {"osm_id": 1135229558, "building": "yes", "name": "", "height": null, "height_m": null, "levels": null, "tract_id": "40079040700", "tract_name": "407", "tags": {"building": "yes"}}}, {"type": "Feature", "geometry": {"type": "Polygon", "coordinates": [[[-94.9984354, 34.7382127], [-94.9984529, 34.7380965], [-94.9985904, 34.7381105], [-94.9985729, 34.7382267], [-94.9984354, 34.7382127]]]}, "properties": {"osm_id": 1135229559, "building": "yes", "name": "", "height": null, "height_m": null, "levels": null, "tract_id": "40079040700", "tract_name": "407", "tags": {"building": "yes"}}}, {"type": "Feature", "geometry": {"type": "Polygon", "coordinates": [[[-94.9920845, 34.7391864], [-94.9920913, 34.7391047], [-94.992257, 34.7391141], [-94.9922501, 34.7391957], [-94.9920845, 34.7391864]]]}, "properties": {"osm_id": 1135229560, "building": "yes", "name": "", "height": null, "height_m": null, "levels": null, "tract_id": "40079040700", "tract_name": "407", "tags": {"building": "yes"}}}, {"type": "Feature", "geometry": {"type": "Polygon", "coordinates": [[[-94.9864056, 34.737396], [-94.9862677, 34.7374085], [-94.986256, 34.7373214], [-94.986394, 34.7373089], [-94.9864056, 34.737396]]]}, "properties": {"osm_id": 1135229562, "building": "yes", "name": "", "height": null, "height_m": null, "levels": null, "tract_id": "40079040700", "tract_name": "407", "tags": {"building": "yes"}}}, {"type": "Feature", "geometry": {"type": "Polygon", "coordinates": [[[-94.9861909, 34.7374194], [-94.9860524, 34.7374268], [-94.9860453, 34.7373367], [-94.9861837, 34.7373293], [-94.9861909, 34.7374194]]]}, "properties": {"osm_id": 1135229563, "building": "yes", "name": "", "height": null, "height_m": null, "levels": null, "tract_id": "40079040700", "tract_name": "407", "tags": {"building": "yes"}}}, {"type": "Feature", "geometry": {"type": "Polygon", "coordinates": [[[-94.9864552, 34.7376413], [-94.9863198, 34.7376517], [-94.9863096, 34.7375626], [-94.986445, 34.7375521], [-94.9864552, 34.7376413]]]}, "properties": {"osm_id": 1135229564, "building": "yes", "name": "", "height": null, "height_m": null, "levels": null, "tract_id": "40079040700", "tract_name": "407", "tags": {"building": "yes"}}}, {"type": "Feature", "geometry": {"type": "Polygon", "coordinates": [[[-94.9862098, 34.7376627], [-94.9860837, 34.7376721], [-94.9860739, 34.7375823], [-94.9861999, 34.7375729], [-94.9862098, 34.7376627]]]}, "properties": {"osm_id": 1135229565, "building": "yes", "name": "", "height": null, "height_m": null, "levels": null, "tract_id": "40079040700", "tract_name": "407", "tags": {"building": "yes"}}}, {"type": "Feature", "geometry": {"type": "Polygon", "coordinates": [[[-94.9862232, 34.7377823], [-94.9860938, 34.73779], [-94.986086, 34.737702], [-94.9862154, 34.7376942], [-94.9862232, 34.7377823]]]}, "properties": {"osm_id": 1135229566, "building": "yes", "name": "", "height": null, "height_m": null, "levels": null, "tract_id": "40079040700", "tract_name": "407", "tags": {"building": "yes"}}}, {"type": "Feature", "geometry": {"type": "Polygon", "coordinates": [[[-94.9864713, 34.7377647], [-94.9863325, 34.7377741], [-94.9863239, 34.7376881], [-94.9864627, 34.7376787], [-94.9864713, 34.7377647]]]}, "properties": {"osm_id": 1135229567, "building": "yes", "name": "", "height": null, "height_m": null, "levels": null, "tract_id": "40079040700", "tract_name": "407", "tags": {"building": "yes"}}}, {"type": "Feature", "geometry": {"type": "Polygon", "coordinates": [[[-94.9832258, 34.7377079], [-94.9833026, 34.7377088], [-94.9833012, 34.7377876], [-94.9832245, 34.7377867], [-94.9832258, 34.7377079]]]}, "properties": {"osm_id": 1135229568, "building": "yes", "name": "", "height": null, "height_m": null, "levels": null, "tract_id": "40079040700", "tract_name": "407", "tags": {"building": "yes"}}}, {"type": "Feature", "geometry": {"type": "Polygon", "coordinates": [[[-94.9829922, 34.7378161], [-94.9829889, 34.7378729], [-94.9829237, 34.7378704], [-94.982927, 34.7378135], [-94.9829922, 34.7378161]]]}, "properties": {"osm_id": 1135229569, "building": "yes", "name": "", "height": null, "height_m": null, "levels": null, "tract_id": "40079040700", "tract_name": "407", "tags": {"building": "yes"}}}, {"type": "Feature", "geometry": {"type": "Polygon", "coordinates": [[[-94.9833365, 34.7380981], [-94.9832406, 34.7380964], [-94.9832429, 34.7380063], [-94.9833388, 34.7380079], [-94.9833365, 34.7380981]]]}, "properties": {"osm_id": 1135229570, "building": "yes", "name": "", "height": null, "height_m": null, "levels": null, "tract_id": "40079040700", "tract_name": "407", "tags": {"building": "yes"}}}, {"type": "Feature", "geometry": {"type": "Polygon", "coordinates": [[[-94.6837512, 34.5288828], [-94.6837395, 34.5287334], [-94.6836399, 34.5287425], [-94.6836489, 34.528887], [-94.6837512, 34.5288828]]]}, "properties": {"osm_id": 1155344367, "building": "shed", "name": "", "height": null, "height_m": null, "levels": null, "tract_id": "40079040700", "tract_name": "407", "tags": {"building": "shed"}}}, {"type": "Feature", "geometry": {"type": "Polygon", "coordinates": [[[-94.6824957, 34.5286851], [-94.6824994, 34.5286036], [-94.6827718, 34.528595], [-94.682779, 34.5287321], [-94.6826931, 34.5287303], [-94.6826931, 34.5286828], [-94.6824957, 34.5286851]]]}, "properties": {"osm_id": 1155344368, "building": "yes", "name": "", "height": null, "height_m": null, "levels": null, "tract_id": "40079040700", "tract_name": "407", "tags": {"building": "yes"}}}, {"type": "Feature", "geometry": {"type": "Polygon", "coordinates": [[[-94.6823863, 34.5282169], [-94.6823504, 34.5281452], [-94.682437, 34.5281253], [-94.6824636, 34.5281938], [-94.6823863, 34.5282169]]]}, "properties": {"osm_id": 1155344369, "building": "yes", "name": "", "height": null, "height_m": null, "levels": null, "tract_id": "40079040700", "tract_name": "407", "tags": {"building": "yes"}}}, {"type": "Feature", "geometry": {"type": "Polygon", "coordinates": [[[-94.6859851, 34.5289765], [-94.6859831, 34.5288483], [-94.6858822, 34.5288515], [-94.6858822, 34.5289767], [-94.6859851, 34.5289765]]]}, "properties": {"osm_id": 1155344370, "building": "yes", "name": "", "height": null, "height_m": null, "levels": null, "tract_id": "40079040700", "tract_name": "407", "tags": {"building": "yes"}}}, {"type": "Feature", "geometry": {"type": "Polygon", "coordinates": [[[-94.6823356, 34.5250473], [-94.6822356, 34.5248691], [-94.68237, 34.5248241], [-94.6824599, 34.5250108], [-94.6823356, 34.5250473]]]}, "properties": {"osm_id": 1155344371, "building": "yes", "name": "", "height": null, "height_m": null, "levels": null, "tract_id": "40079040700", "tract_name": "407", "tags": {"building": "yes"}}}, {"type": "Feature", "geometry": {"type": "Polygon", "coordinates": [[[-94.6820463, 34.5249182], [-94.6819372, 34.5247752], [-94.6820439, 34.524719], [-94.6821515, 34.5248669], [-94.6820463, 34.5249182]]]}, "properties": {"osm_id": 1155344372, "building": "yes", "name": "", "height": null, "height_m": null, "levels": null, "tract_id": "40079040700", "tract_name": "407", "tags": {"building": "yes"}}}, {"type": "Feature", "geometry": {"type": "Polygon", "coordinates": [[[-94.6821917, 34.5245864], [-94.6821569, 34.5244936], [-94.6822883, 34.5244641], [-94.6823135, 34.524568], [-94.6821917, 34.5245864]]]}, "properties": {"osm_id": 1155344373, "building": "yes", "name": "", "height": null, "height_m": null, "levels": null, "tract_id": "40079040700", "tract_name": "407", "tags": {"building": "yes"}}}, {"type": "Feature", "geometry": {"type": "Polygon", "coordinates": [[[-94.6800485, 34.523511], [-94.6800552, 34.5233889], [-94.6798752, 34.5233887], [-94.6798762, 34.523507], [-94.6800485, 34.523511]]]}, "properties": {"osm_id": 1155344374, "building": "yes", "name": "", "height": null, "height_m": null, "levels": null, "tract_id": "40079040700", "tract_name": "407", "tags": {"building": "yes"}}}, {"type": "Feature", "geometry": {"type": "Polygon", "coordinates": [[[-94.6750014, 34.5217936], [-94.6750085, 34.5216672], [-94.6751574, 34.5216701], [-94.6751522, 34.5217317], [-94.6751877, 34.521734], [-94.6751839, 34.5217971], [-94.6750014, 34.5217936]]]}, "properties": {"osm_id": 1155344375, "building": "yes", "name": "", "height": null, "height_m": null, "levels": null, "tract_id": "40079040700", "tract_name": "407", "tags": {"building": "yes"}}}, {"type": "Feature", "geometry": {"type": "Polygon", "coordinates": [[[-94.6754452, 34.521849], [-94.6754494, 34.5217452], [-94.6753847, 34.5217441], [-94.6753831, 34.5218505], [-94.6754452, 34.521849]]]}, "properties": {"osm_id": 1155344376, "building": "yes", "name": "", "height": null, "height_m": null, "levels": null, "tract_id": "40079040700", "tract_name": "407", "tags": {"building": "yes"}}}, {"type": "Feature", "geometry": {"type": "Polygon", "coordinates": [[[-94.6751897, 34.5219125], [-94.6753625, 34.5219172], [-94.6753695, 34.5218614], [-94.675193, 34.5218625], [-94.6751897, 34.5219125]]]}, "properties": {"osm_id": 1155344377, "building": "yes", "name": "", "height": null, "height_m": null, "levels": null, "tract_id": "40079040700", "tract_name": "407", "tags": {"building": "yes"}}}, {"type": "Feature", "geometry": {"type": "Polygon", "coordinates": [[[-94.6755568, 34.5217789], [-94.6755634, 34.5217107], [-94.675626, 34.5217137], [-94.6756221, 34.5217836], [-94.6755568, 34.5217789]]]}, "properties": {"osm_id": 1155344378, "building": "yes", "name": "", "height": null, "height_m": null, "levels": null, "tract_id": "40079040700", "tract_name": "407", "tags": {"building": "yes"}}}, {"type": "Feature", "geometry": {"type": "Polygon", "coordinates": [[[-94.6752913, 34.5220949], [-94.6752931, 34.5220332], [-94.6752375, 34.5220298], [-94.6752393, 34.5220963], [-94.6752913, 34.5220949]]]}, "properties": {"osm_id": 1155344379, "building": "yes", "name": "", "height": null, "height_m": null, "levels": null, "tract_id": "40079040700", "tract_name": "407", "tags": {"building": "yes"}}}, {"type": "Feature", "geometry": {"type": "Polygon", "coordinates": [[[-94.6761201, 34.5234473], [-94.6761148, 34.523239], [-94.6759526, 34.5232366], [-94.6759582, 34.5234528], [-94.6761201, 34.5234473]]]}, "properties": {"osm_id": 1155344380, "building": "yes", "name": "", "height": null, "height_m": null, "levels": null, "tract_id": "40079040700", "tract_name": "407", "tags": {"building": "yes"}}}, {"type": "Feature", "geometry": {"type": "Polygon", "coordinates": [[[-94.6757811, 34.5231756], [-94.6757963, 34.52307], [-94.6756376, 34.5230499], [-94.6756115, 34.5231621], [-94.6757811, 34.5231756]]]}, "properties": {"osm_id": 1155344381, "building": "yes", "name": "", "height": null, "height_m": null, "levels": null, "tract_id": "40079040700", "tract_name": "407", "tags": {"building": "yes"}}}, {"type": "Feature", "geometry": {"type": "Polygon", "coordinates": [[[-94.6769428, 34.5138494], [-94.6768553, 34.5135844], [-94.6770412, 34.5135301], [-94.6771228, 34.5138195], [-94.6769428, 34.5138494]]]}, "properties": {"osm_id": 1155344382, "building": "yes", "name": "", "height": null, "height_m": null, "levels": null, "tract_id": "40079040700", "tract_name": "407", "tags": {"building": "yes"}}}, {"type": "Feature", "geometry": {"type": "Polygon", "coordinates": [[[-94.6768675, 34.5134072], [-94.6769102, 34.5135389], [-94.6770109, 34.5135182], [-94.6769699, 34.5133831], [-94.6768675, 34.5134072]]]}, "properties": {"osm_id": 1155344383, "building": "yes", "name": "", "height": null, "height_m": null, "levels": null, "tract_id": "40079040700", "tract_name": "407", "tags": {"building": "yes"}}}, {"type": "Feature", "geometry": {"type": "Polygon", "coordinates": [[[-94.8390054, 34.683909], [-94.8389895, 34.6840216], [-94.8388088, 34.6840044], [-94.8388217, 34.683913], [-94.8389346, 34.6839238], [-94.8389376, 34.6839025], [-94.8390054, 34.683909]]]}, "properties": {"osm_id": 1205921073, "building": "yes", "name": "", "height": null, "height_m": null, "levels": null, "tract_id": "40079040700", "tract_name": "407", "tags": {"building": "yes"}}}, {"type": "Feature", "geometry": {"type": "Polygon", "coordinates": [[[-94.8868273, 34.7389155], [-94.8868006, 34.7389447], [-94.8867254, 34.7388982], [-94.8867522, 34.738869], [-94.8868273, 34.7389155]]]}, "properties": {"osm_id": 1213695208, "building": "yes", "name": "", "height": null, "height_m": null, "levels": null, "tract_id": "40079040700", "tract_name": "407", "tags": {"building": "yes"}}}, {"type": "Feature", "geometry": {"type": "Polygon", "coordinates": [[[-94.8869296, 34.7389452], [-94.8868538, 34.738897], [-94.88697, 34.7387735], [-94.8870458, 34.7388217], [-94.8869296, 34.7389452]]]}, "properties": {"osm_id": 1213695209, "building": "yes", "name": "", "height": null, "height_m": null, "levels": null, "tract_id": "40079040700", "tract_name": "407", "tags": {"building": "yes"}}}, {"type": "Feature", "geometry": {"type": "Polygon", "coordinates": [[[-94.887024, 34.7386618], [-94.8869827, 34.7387058], [-94.8868303, 34.7386091], [-94.8868527, 34.7385852], [-94.8868716, 34.7385651], [-94.887024, 34.7386618]]]}, "properties": {"osm_id": 1213695210, "building": "yes", "name": "", "height": null, "height_m": null, "levels": null, "tract_id": "40079040700", "tract_name": "407", "tags": {"building": "yes"}}}, {"type": "Feature", "geometry": {"type": "Polygon", "coordinates": [[[-94.8852559, 34.73926], [-94.8852685, 34.7390979], [-94.8851646, 34.7390924], [-94.8851521, 34.7392545], [-94.8852559, 34.73926]]]}, "properties": {"osm_id": 1213695214, "building": "yes", "name": "", "height": null, "height_m": null, "levels": null, "tract_id": "40079040700", "tract_name": "407", "tags": {"building": "yes"}}}, {"type": "Feature", "geometry": {"type": "Polygon", "coordinates": [[[-94.8658973, 34.5349723], [-94.8657327, 34.5350026], [-94.8657024, 34.5349001], [-94.8658682, 34.5348694], [-94.8658973, 34.5349723]]]}, "properties": {"osm_id": 1292409081, "building": "detached", "name": "", "height": null, "height_m": null, "levels": null, "tract_id": "40079040700", "tract_name": "407", "tags": {"addr:city": "Smithville", "addr:housenumber": "33860", "addr:postcode": "74957", "addr:state": "OK", "addr:street": "Highway 144", "building": "detached", "tourism": "chalet", "website": "https://airbnb.com/h/livingthedreamok"}}}]}