{"type": "FeatureCollection", "features": [{"type": "Feature", "geometry": {"type": "Polygon", "coordinates": [[[-95.631942, 36.3208054], [-95.6318709, 36.3206714], [-95.6317763, 36.3207038], [-95.6317924, 36.3207362], [-95.6315618, 36.3208129], [-95.6315571, 36.3208027], [-95.6314129, 36.3208529], [-95.6313839, 36.32079], [-95.6312788, 36.3208275], [-95.6313257, 36.3209253], [-95.6310887, 36.3210112], [-95.6310737, 36.3210171], [-95.6310555, 36.3210281], [-95.6310414, 36.3210404], [-95.6310334, 36.3210517], [-95.6310273, 36.3210625], [-95.63102, 36.3210804], [-95.6310186, 36.321102], [-95.6310226, 36.3211209], [-95.6310327, 36.3211376], [-95.6310461, 36.3211528], [-95.6310622, 36.3211641], [-95.6310803, 36.3211722], [-95.6311018, 36.3211782], [-95.6311239, 36.3211792], [-95.631146, 36.3211787], [-95.6311681, 36.3211733], [-95.6312044, 36.3210977], [-95.6312433, 36.3210868], [-95.6312134, 36.3210349], [-95.6312392, 36.3210274], [-95.6313776, 36.3212729], [-95.631344, 36.3212851], [-95.6314166, 36.3214139], [-95.6315407, 36.321372], [-95.6314368, 36.3211779], [-95.6317152, 36.321083], [-95.6316464, 36.3209642], [-95.6317016, 36.3209454], [-95.6316922, 36.3209292], [-95.6318101, 36.3208883], [-95.6317936, 36.3208575], [-95.631942, 36.3208054]]]}, "properties": {"osm_id": 71183450, "building": "yes", "name": "Will Rogers Museum", "height": null, "height_m": null, "levels": null, "tract_id": "40131050104", "tract_name": "501.04", "tags": {"building": "yes", "name": "Will Rogers Museum", "phone": "800-324-9455", "tourism": "museum", "website": "https://www.willrogers.com/"}}}, {"type": "Feature", "geometry": {"type": "Polygon", "coordinates": [[[-95.6176285, 36.318134], [-95.6175493, 36.318103], [-95.6175948, 36.3180276], [-95.6175719, 36.3180186], [-95.6176102, 36.3179551], [-95.6177123, 36.317995], [-95.6176285, 36.318134]]]}, "properties": {"osm_id": 328270246, "building": "house", "name": "", "height": null, "height_m": null, "levels": null, "tract_id": "40131050104", "tract_name": "501.04", "tags": {"building": "house"}}}, {"type": "Feature", "geometry": {"type": "Polygon", "coordinates": [[[-95.6205643, 36.3155374], [-95.620724, 36.3156029], [-95.6207588, 36.3155479], [-95.6212243, 36.3157389], [-95.6211977, 36.315781], [-95.6211896, 36.3157939], [-95.621322, 36.3158482], [-95.6210789, 36.316233], [-95.6211433, 36.3162595], [-95.6210753, 36.3163671], [-95.6207579, 36.3162369], [-95.6207198, 36.3162973], [-95.6205718, 36.3163002], [-95.6205711, 36.3162363], [-95.6203775, 36.3161568], [-95.6203458, 36.3162069], [-95.6202053, 36.3161493], [-95.6202369, 36.3160992], [-95.6202151, 36.3160902], [-95.6205643, 36.3155374]]]}, "properties": {"osm_id": 335394419, "building": "retail", "name": "Reasor's", "height": null, "height_m": null, "levels": null, "tract_id": "40131050104", "tract_name": "501.04", "tags": {"addr:city": "Claremore", "addr:country": "US", "addr:housenumber": "1000", "addr:postcode": "74017", "addr:state": "OK", "addr:street": "West Will Rogers Boulevard", "building": "retail", "name": "Reasor's", "opening_hours": "24/7", "shop": "supermarket"}}}, {"type": "Feature", "geometry": {"type": "Polygon", "coordinates": [[[-95.6200289, 36.3158599], [-95.6197275, 36.315734], [-95.6199074, 36.3154544], [-95.6198097, 36.3154135], [-95.6198487, 36.3153529], [-95.6198887, 36.3152908], [-95.6199864, 36.3153317], [-95.620103, 36.3151504], [-95.6204044, 36.3152763], [-95.6200289, 36.3158599]]]}, "properties": {"osm_id": 572691716, "building": "yes", "name": "Roller World", "height": null, "height_m": null, "levels": null, "tract_id": "40131050104", "tract_name": "501.04", "tags": {"building": "yes", "leisure": "sports_centre", "name": "Roller World", "sport": "roller_skating"}}}, {"type": "Feature", "geometry": {"type": "Polygon", "coordinates": [[[-95.6271069, 36.3137282], [-95.6270066, 36.313729], [-95.6270037, 36.3134868], [-95.6271041, 36.313486], [-95.6271069, 36.3137282]]]}, "properties": {"osm_id": 965635213, "building": "yes", "name": "", "height": null, "height_m": null, "levels": null, "tract_id": "40131050104", "tract_name": "501.04", "tags": {"building": "yes"}}}, {"type": "Feature", "geometry": {"type": "Polygon", "coordinates": [[[-95.6271769, 36.3142647], [-95.6270177, 36.314264], [-95.6270178, 36.3142423], [-95.6270035, 36.3142423], [-95.6270038, 36.3141929], [-95.6270192, 36.3141929], [-95.6270194, 36.3141622], [-95.627181, 36.3141628], [-95.627181, 36.3141735], [-95.6271968, 36.3141735], [-95.6271965, 36.3142186], [-95.6271772, 36.3142185], [-95.6271769, 36.3142647]]]}, "properties": {"osm_id": 965635214, "building": "yes", "name": "", "height": null, "height_m": null, "levels": null, "tract_id": "40131050104", "tract_name": "501.04", "tags": {"building": "yes"}}}, {"type": "Feature", "geometry": {"type": "Polygon", "coordinates": [[[-95.6272624, 36.3141505], [-95.627007, 36.3141499], [-95.6270075, 36.3139997], [-95.6272629, 36.3140002], [-95.6272624, 36.3141505]]]}, "properties": {"osm_id": 965635215, "building": "church", "name": "Christ United Methodist Church", "height": null, "height_m": null, "levels": null, "tract_id": "40131050104", "tract_name": "501.04", "tags": {"addr:city": "Claremore", "addr:housenumber": "317", "addr:postcode": "74017", "addr:street": "South Davis Avenue", "amenity": "place_of_worship", "building": "church", "denomination": "united_methodist", "name": "Christ United Methodist Church", "phone": "+1 918 923 6748", "religion": "christian"}}}, {"type": "Feature", "geometry": {"type": "Polygon", "coordinates": [[[-95.6275729, 36.3177597], [-95.6276884, 36.3175679], [-95.6275568, 36.3175165], [-95.6275992, 36.3174461], [-95.6274056, 36.3173704], [-95.6273816, 36.3174104], [-95.6272435, 36.3173564], [-95.6271658, 36.3174854], [-95.626988, 36.3174158], [-95.6269319, 36.317509], [-95.6272795, 36.3176519], [-95.6272554, 36.3176988], [-95.62738, 36.3177471], [-95.6274085, 36.3176987], [-95.6275729, 36.3177597]]]}, "properties": {"osm_id": 1138162148, "building": "church", "name": "", "height": null, "height_m": null, "levels": null, "tract_id": "40131050104", "tract_name": "501.04", "tags": {"amenity": "place_of_worship", "building": "church", "layer": "1", "religion": "christian"}}}, {"type": "Feature", "geometry": {"type": "Polygon", "coordinates": [[[-95.6274106, 36.3169676], [-95.6274093, 36.3168466], [-95.6274931, 36.316846], [-95.6274936, 36.3168849], [-95.627528, 36.3168847], [-95.6275288, 36.3169603], [-95.6274944, 36.3169606], [-95.6274945, 36.316967], [-95.6274106, 36.3169676]]]}, "properties": {"osm_id": 1138162157, "building": "yes", "name": "", "height": null, "height_m": null, "levels": null, "tract_id": "40131050104", "tract_name": "501.04", "tags": {"building": "yes", "shop": "yes"}}}, {"type": "Feature", "geometry": {"type": "Polygon", "coordinates": [[[-95.6288385, 36.3180489], [-95.6286981, 36.3182735], [-95.6285695, 36.3182213], [-95.6287098, 36.3179967], [-95.6288385, 36.3180489]]]}, "properties": {"osm_id": 1138162162, "building": "retail", "name": "Mazzio's", "height": null, "height_m": null, "levels": null, "tract_id": "40131050104", "tract_name": "501.04", "tags": {"amenity": "restaurant", "brand": "Mazzio's", "brand:wikidata": "Q3853292", "building": "retail", "cuisine": "pizza", "name": "Mazzio's"}}}, {"type": "Feature", "geometry": {"type": "Polygon", "coordinates": [[[-95.6259772, 36.3171937], [-95.6259708, 36.3173138], [-95.6256042, 36.3173011], [-95.6256107, 36.317181], [-95.6259772, 36.3171937]]]}, "properties": {"osm_id": 1224803212, "building": "yes", "name": "", "height": null, "height_m": null, "levels": null, "tract_id": "40131050104", "tract_name": "501.04", "tags": {"building": "yes", "shop": "convenience"}}}, {"type": "Feature", "geometry": {"type": "Polygon", "coordinates": [[[-95.6255035, 36.3169838], [-95.6255079, 36.3168525], [-95.6259263, 36.3168616], [-95.6259219, 36.3169929], [-95.6255035, 36.3169838]]]}, "properties": {"osm_id": 1224803213, "building": "roof", "name": "", "height": null, "height_m": null, "levels": null, "tract_id": "40131050104", "tract_name": "501.04", "tags": {"building": "roof"}}}, {"type": "Feature", "geometry": {"type": "Polygon", "coordinates": [[[-95.6302974, 36.3103638], [-95.6302923, 36.3105846], [-95.62978, 36.310577], [-95.6297851, 36.3103562], [-95.6302974, 36.3103638]]]}, "properties": {"osm_id": 1252058086, "building": "yes", "name": "", "height": null, "height_m": null, "levels": null, "tract_id": "40131050104", "tract_name": "501.04", "tags": {"building": "yes", "shop": "yes"}}}, {"type": "Feature", "geometry": {"type": "Polygon", "coordinates": [[[-95.6323385, 36.3107409], [-95.6324542, 36.3107389], [-95.6324603, 36.310967], [-95.6323446, 36.310969], [-95.6323385, 36.3107409]]]}, "properties": {"osm_id": 1252061912, "building": "yes", "name": "", "height": null, "height_m": null, "levels": null, "tract_id": "40131050104", "tract_name": "501.04", "tags": {"building": "yes", "shop": "yes"}}}, {"type": "Feature", "geometry": {"type": "Polygon", "coordinates": [[[-95.6324698, 36.3104388], [-95.6324654, 36.3105559], [-95.6324419, 36.3105553], [-95.6324407, 36.3105857], [-95.6323885, 36.3105844], [-95.6323897, 36.310554], [-95.632291, 36.3105516], [-95.6322943, 36.3104664], [-95.6323909, 36.3104688], [-95.6323921, 36.3104368], [-95.6324698, 36.3104388]]]}, "properties": {"osm_id": 1252061913, "building": "detached", "name": "", "height": null, "height_m": null, "levels": null, "tract_id": "40131050104", "tract_name": "501.04", "tags": {"building": "detached"}}}, {"type": "Feature", "geometry": {"type": "Polygon", "coordinates": [[[-95.63225, 36.3104427], [-95.6322514, 36.3105225], [-95.6321627, 36.3105235], [-95.6321633, 36.3105534], [-95.6321057, 36.310554], [-95.6321051, 36.3105241], [-95.6320556, 36.3105247], [-95.6320542, 36.3104448], [-95.63225, 36.3104427]]]}, "properties": {"osm_id": 1252061914, "building": "yes", "name": "", "height": null, "height_m": null, "levels": null, "tract_id": "40131050104", "tract_name": "501.04", "tags": {"building": "yes"}}}, {"type": "Feature", "geometry": {"type": "Polygon", "coordinates": [[[-95.6325102, 36.3100785], [-95.6325044, 36.3101674], [-95.6323247, 36.3101598], [-95.6323305, 36.3100709], [-95.6325102, 36.3100785]]]}, "properties": {"osm_id": 1252061915, "building": "detached", "name": "", "height": null, "height_m": null, "levels": null, "tract_id": "40131050104", "tract_name": "501.04", "tags": {"building": "detached"}}}, {"type": "Feature", "geometry": {"type": "Polygon", "coordinates": [[[-95.6320609, 36.3100212], [-95.6320454, 36.3101365], [-95.6319602, 36.3101291], [-95.6319645, 36.3100968], [-95.6318767, 36.3100892], [-95.6318879, 36.3100061], [-95.6320609, 36.3100212]]]}, "properties": {"osm_id": 1252061916, "building": "detached", "name": "", "height": null, "height_m": null, "levels": null, "tract_id": "40131050104", "tract_name": "501.04", "tags": {"building": "detached"}}}, {"type": "Feature", "geometry": {"type": "Polygon", "coordinates": [[[-95.6316197, 36.310005], [-95.6318128, 36.310005], [-95.6318128, 36.3100893], [-95.6316197, 36.3100893], [-95.6316197, 36.310005]]]}, "properties": {"osm_id": 1252061917, "building": "detached", "name": "", "height": null, "height_m": null, "levels": null, "tract_id": "40131050104", "tract_name": "501.04", "tags": {"building": "detached"}}}, {"type": "Feature", "geometry": {"type": "Polygon", "coordinates": [[[-95.6314038, 36.3099909], [-95.6315888, 36.3100017], [-95.6315822, 36.3100758], [-95.6313971, 36.310065], [-95.6314038, 36.3099909]]]}, "properties": {"osm_id": 1252061918, "building": "detached", "name": "", "height": null, "height_m": null, "levels": null, "tract_id": "40131050104", "tract_name": "501.04", "tags": {"building": "detached"}}}, {"type": "Feature", "geometry": {"type": "Polygon", "coordinates": [[[-95.6307668, 36.3101833], [-95.6307359, 36.3100471], [-95.6308447, 36.3100311], [-95.6308616, 36.3101058], [-95.6308969, 36.3101006], [-95.6309109, 36.3101621], [-95.6307668, 36.3101833]]]}, "properties": {"osm_id": 1252061919, "building": "yes", "name": "", "height": null, "height_m": null, "levels": null, "tract_id": "40131050104", "tract_name": "501.04", "tags": {"building": "yes"}}}, {"type": "Feature", "geometry": {"type": "Polygon", "coordinates": [[[-95.6293103, 36.309979], [-95.6291038, 36.3099812], [-95.6291032, 36.3099465], [-95.6293098, 36.3099443], [-95.6293103, 36.309979]]]}, "properties": {"osm_id": 1252061920, "building": "static_caravan", "name": "", "height": null, "height_m": null, "levels": null, "tract_id": "40131050104", "tract_name": "501.04", "tags": {"building": "static_caravan"}}}, {"type": "Feature", "geometry": {"type": "Polygon", "coordinates": [[[-95.629089, 36.3100925], [-95.629089, 36.3100504], [-95.6293143, 36.3100504], [-95.6293143, 36.3100925], [-95.629089, 36.3100925]]]}, "properties": {"osm_id": 1252061921, "building": "static_caravan", "name": "", "height": null, "height_m": null, "levels": null, "tract_id": "40131050104", "tract_name": "501.04", "tags": {"building": "static_caravan"}}}, {"type": "Feature", "geometry": {"type": "Polygon", "coordinates": [[[-95.6291078, 36.3104221], [-95.6291084, 36.3103824], [-95.6293243, 36.3103845], [-95.6293237, 36.3104243], [-95.6291078, 36.3104221]]]}, "properties": {"osm_id": 1252061922, "building": "static_caravan", "name": "", "height": null, "height_m": null, "levels": null, "tract_id": "40131050104", "tract_name": "501.04", "tags": {"building": "static_caravan"}}}, {"type": "Feature", "geometry": {"type": "Polygon", "coordinates": [[[-95.6293505, 36.3106123], [-95.6290837, 36.3106112], [-95.6290839, 36.3105669], [-95.6293508, 36.310568], [-95.6293505, 36.3106123]]]}, "properties": {"osm_id": 1252061923, "building": "static_caravan", "name": "", "height": null, "height_m": null, "levels": null, "tract_id": "40131050104", "tract_name": "501.04", "tags": {"building": "static_caravan"}}}, {"type": "Feature", "geometry": {"type": "Polygon", "coordinates": [[[-95.6291132, 36.3107528], [-95.6291121, 36.3107171], [-95.6293293, 36.3107128], [-95.6293304, 36.3107485], [-95.6291132, 36.3107528]]]}, "properties": {"osm_id": 1252061924, "building": "static_caravan", "name": "", "height": null, "height_m": null, "levels": null, "tract_id": "40131050104", "tract_name": "501.04", "tags": {"building": "static_caravan"}}}, {"type": "Feature", "geometry": {"type": "Polygon", "coordinates": [[[-95.6293452, 36.31097], [-95.6291226, 36.3109722], [-95.6291219, 36.3109301], [-95.6293445, 36.3109279], [-95.6293452, 36.31097]]]}, "properties": {"osm_id": 1252061925, "building": "yes", "name": "", "height": null, "height_m": null, "levels": null, "tract_id": "40131050104", "tract_name": "501.04", "tags": {"building": "yes"}}}, {"type": "Feature", "geometry": {"type": "Polygon", "coordinates": [[[-95.6287035, 36.3102017], [-95.62892, 36.3102006], [-95.6289204, 36.3102404], [-95.6287038, 36.3102415], [-95.6287035, 36.3102017]]]}, "properties": {"osm_id": 1252061926, "building": "yes", "name": "", "height": null, "height_m": null, "levels": null, "tract_id": "40131050104", "tract_name": "501.04", "tags": {"building": "yes"}}}, {"type": "Feature", "geometry": {"type": "Polygon", "coordinates": [[[-95.6287082, 36.3101071], [-95.6289355, 36.3101087], [-95.628935, 36.3101527], [-95.6287077, 36.3101511], [-95.6287082, 36.3101071]]]}, "properties": {"osm_id": 1252061927, "building": "yes", "name": "", "height": null, "height_m": null, "levels": null, "tract_id": "40131050104", "tract_name": "501.04", "tags": {"building": "yes"}}}, {"type": "Feature", "geometry": {"type": "Polygon", "coordinates": [[[-95.6289529, 36.3104745], [-95.6286867, 36.3104718], [-95.6286875, 36.310419], [-95.6289537, 36.3104217], [-95.6289529, 36.3104745]]]}, "properties": {"osm_id": 1252061928, "building": "yes", "name": "", "height": null, "height_m": null, "levels": null, "tract_id": "40131050104", "tract_name": "501.04", "tags": {"building": "yes"}}}, {"type": "Feature", "geometry": {"type": "Polygon", "coordinates": [[[-95.6286907, 36.3107528], [-95.6289549, 36.3107588], [-95.6289535, 36.3108007], [-95.6286893, 36.3107947], [-95.6286907, 36.3107528]]]}, "properties": {"osm_id": 1252061929, "building": "static_caravan", "name": "", "height": null, "height_m": null, "levels": null, "tract_id": "40131050104", "tract_name": "501.04", "tags": {"building": "static_caravan"}}}, {"type": "Feature", "geometry": {"type": "Polygon", "coordinates": [[[-95.6286196, 36.310943], [-95.6285672, 36.3109425], [-95.6285699, 36.310782], [-95.6286223, 36.3107825], [-95.6286196, 36.310943]]]}, "properties": {"osm_id": 1252061930, "building": "static_caravan", "name": "", "height": null, "height_m": null, "levels": null, "tract_id": "40131050104", "tract_name": "501.04", "tags": {"building": "static_caravan"}}}, {"type": "Feature", "geometry": {"type": "Polygon", "coordinates": [[[-95.6286109, 36.3107458], [-95.6283823, 36.3107442], [-95.6283827, 36.3107068], [-95.6286113, 36.3107085], [-95.6286109, 36.3107458]]]}, "properties": {"osm_id": 1252061931, "building": "static_caravan", "name": "", "height": null, "height_m": null, "levels": null, "tract_id": "40131050104", "tract_name": "501.04", "tags": {"building": "static_caravan"}}}, {"type": "Feature", "geometry": {"type": "Polygon", "coordinates": [[[-95.6286465, 36.3106177], [-95.6283829, 36.3106194], [-95.6283825, 36.310575], [-95.628646, 36.3105734], [-95.6286465, 36.3106177]]]}, "properties": {"osm_id": 1252061932, "building": "static_caravan", "name": "", "height": null, "height_m": null, "levels": null, "tract_id": "40131050104", "tract_name": "501.04", "tags": {"building": "static_caravan"}}}, {"type": "Feature", "geometry": {"type": "Polygon", "coordinates": [[[-95.6286431, 36.310521], [-95.6283796, 36.3105199], [-95.6283799, 36.3104767], [-95.6286434, 36.3104778], [-95.6286431, 36.310521]]]}, "properties": {"osm_id": 1252061933, "building": "static_caravan", "name": "", "height": null, "height_m": null, "levels": null, "tract_id": "40131050104", "tract_name": "501.04", "tags": {"building": "static_caravan"}}}, {"type": "Feature", "geometry": {"type": "Polygon", "coordinates": [[[-95.6286478, 36.3104108], [-95.6283863, 36.310407], [-95.6283872, 36.3103644], [-95.6286488, 36.3103682], [-95.6286478, 36.3104108]]]}, "properties": {"osm_id": 1252061934, "building": "static_caravan", "name": "", "height": null, "height_m": null, "levels": null, "tract_id": "40131050104", "tract_name": "501.04", "tags": {"building": "static_caravan"}}}, {"type": "Feature", "geometry": {"type": "Polygon", "coordinates": [[[-95.6286465, 36.3103346], [-95.6286472, 36.3103592], [-95.6286177, 36.3103597], [-95.628617, 36.3103351], [-95.6286465, 36.3103346]]]}, "properties": {"osm_id": 1252061935, "building": "shed", "name": "", "height": null, "height_m": null, "levels": null, "tract_id": "40131050104", "tract_name": "501.04", "tags": {"building": "shed"}}}, {"type": "Feature", "geometry": {"type": "Polygon", "coordinates": [[[-95.6285117, 36.3102168], [-95.6285109, 36.3102374], [-95.6284653, 36.3102363], [-95.6284661, 36.3102157], [-95.6285117, 36.3102168]]]}, "properties": {"osm_id": 1252061936, "building": "shed", "name": "", "height": null, "height_m": null, "levels": null, "tract_id": "40131050104", "tract_name": "501.04", "tags": {"building": "shed"}}}, {"type": "Feature", "geometry": {"type": "Polygon", "coordinates": [[[-95.6286317, 36.3103097], [-95.6284037, 36.3103054], [-95.6284048, 36.3102671], [-95.6286328, 36.3102714], [-95.6286317, 36.3103097]]]}, "properties": {"osm_id": 1252061937, "building": "static_caravan", "name": "", "height": null, "height_m": null, "levels": null, "tract_id": "40131050104", "tract_name": "501.04", "tags": {"building": "static_caravan"}}}, {"type": "Feature", "geometry": {"type": "Polygon", "coordinates": [[[-95.6286545, 36.3101601], [-95.6286518, 36.3101981], [-95.6284265, 36.3101878], [-95.6284292, 36.3101498], [-95.6286545, 36.3101601]]]}, "properties": {"osm_id": 1252061938, "building": "static_caravan", "name": "", "height": null, "height_m": null, "levels": null, "tract_id": "40131050104", "tract_name": "501.04", "tags": {"building": "static_caravan"}}}, {"type": "Feature", "geometry": {"type": "Polygon", "coordinates": [[[-95.6312374, 36.3103188], [-95.6312303, 36.3103434], [-95.6311324, 36.310325], [-95.6311074, 36.3104111], [-95.631283, 36.3104441], [-95.631315, 36.3103334], [-95.6312374, 36.3103188]]]}, "properties": {"osm_id": 1252061939, "building": "detached", "name": "", "height": null, "height_m": null, "levels": null, "tract_id": "40131050104", "tract_name": "501.04", "tags": {"building": "detached"}}}, {"type": "Feature", "geometry": {"type": "Polygon", "coordinates": [[[-95.6320259, 36.310423], [-95.6318274, 36.3104212], [-95.6318263, 36.3105033], [-95.6318933, 36.3105039], [-95.6318929, 36.310532], [-95.6319412, 36.3105325], [-95.6319416, 36.3105044], [-95.6320247, 36.3105051], [-95.6320259, 36.310423]]]}, "properties": {"osm_id": 1252061940, "building": "detached", "name": "", "height": null, "height_m": null, "levels": null, "tract_id": "40131050104", "tract_name": "501.04", "tags": {"building": "detached"}}}, {"type": "Feature", "geometry": {"type": "Polygon", "coordinates": [[[-95.6284411, 36.309931], [-95.6284413, 36.3099483], [-95.6284011, 36.3099487], [-95.6284015, 36.3099768], [-95.6285999, 36.3099749], [-95.6285993, 36.3099296], [-95.6284411, 36.309931]]]}, "properties": {"osm_id": 1252061941, "building": "static_caravan", "name": "", "height": null, "height_m": null, "levels": null, "tract_id": "40131050104", "tract_name": "501.04", "tags": {"building": "static_caravan"}}}, {"type": "Feature", "geometry": {"type": "Polygon", "coordinates": [[[-95.6313663, 36.3100389], [-95.6313779, 36.3099512], [-95.6312014, 36.3099361], [-95.6311861, 36.3100525], [-95.631275, 36.3100602], [-95.6312788, 36.3100313], [-95.6313663, 36.3100389]]]}, "properties": {"osm_id": 1252061942, "building": "detached", "name": "", "height": null, "height_m": null, "levels": null, "tract_id": "40131050104", "tract_name": "501.04", "tags": {"building": "detached"}}}, {"type": "Feature", "geometry": {"type": "Polygon", "coordinates": [[[-95.6287179, 36.3106839], [-95.6289391, 36.3106876], [-95.6289401, 36.3106487], [-95.6287189, 36.310645], [-95.6287179, 36.3106839]]]}, "properties": {"osm_id": 1252061943, "building": "static_caravan", "name": "", "height": null, "height_m": null, "levels": null, "tract_id": "40131050104", "tract_name": "501.04", "tags": {"building": "static_caravan"}}}, {"type": "Feature", "geometry": {"type": "Polygon", "coordinates": [[[-95.6290803, 36.3103143], [-95.629331, 36.3103101], [-95.6293298, 36.3102647], [-95.6290791, 36.310269], [-95.6290803, 36.3103143]]]}, "properties": {"osm_id": 1252061944, "building": "static_caravan", "name": "", "height": null, "height_m": null, "levels": null, "tract_id": "40131050104", "tract_name": "501.04", "tags": {"building": "static_caravan"}}}, {"type": "Feature", "geometry": {"type": "Polygon", "coordinates": [[[-95.6290982, 36.3108203], [-95.6290976, 36.3108678], [-95.629335, 36.3108698], [-95.6293356, 36.3108222], [-95.6290982, 36.3108203]]]}, "properties": {"osm_id": 1252061945, "building": "static_caravan", "name": "", "height": null, "height_m": null, "levels": null, "tract_id": "40131050104", "tract_name": "501.04", "tags": {"building": "static_caravan"}}}, {"type": "Feature", "geometry": {"type": "Polygon", "coordinates": [[[-95.6322871, 36.3100751], [-95.6320943, 36.3100687], [-95.6320901, 36.3101517], [-95.6322829, 36.3101581], [-95.6322871, 36.3100751]]]}, "properties": {"osm_id": 1252061946, "building": "detached", "name": "", "height": null, "height_m": null, "levels": null, "tract_id": "40131050104", "tract_name": "501.04", "tags": {"building": "detached"}}}, {"type": "Feature", "geometry": {"type": "Polygon", "coordinates": [[[-95.6287109, 36.310861], [-95.62871, 36.3109021], [-95.6289432, 36.3109057], [-95.6289442, 36.3108647], [-95.6287109, 36.310861]]]}, "properties": {"osm_id": 1252061947, "building": "static_caravan", "name": "", "height": null, "height_m": null, "levels": null, "tract_id": "40131050104", "tract_name": "501.04", "tags": {"building": "static_caravan"}}}, {"type": "Feature", "geometry": {"type": "Polygon", "coordinates": [[[-95.6317783, 36.3103892], [-95.6315825, 36.3103912], [-95.6315839, 36.3104755], [-95.6317797, 36.3104735], [-95.6317783, 36.3103892]]]}, "properties": {"osm_id": 1252061948, "building": "detached", "name": "", "height": null, "height_m": null, "levels": null, "tract_id": "40131050104", "tract_name": "501.04", "tags": {"building": "detached"}}}, {"type": "Feature", "geometry": {"type": "Polygon", "coordinates": [[[-95.6289499, 36.309922], [-95.6289505, 36.3098831], [-95.6287226, 36.3098807], [-95.6287219, 36.3099196], [-95.6288078, 36.3099205], [-95.6288073, 36.3099486], [-95.6289119, 36.3099497], [-95.6289124, 36.3099216], [-95.6289499, 36.309922]]]}, "properties": {"osm_id": 1252061949, "building": "static_caravan", "name": "", "height": null, "height_m": null, "levels": null, "tract_id": "40131050104", "tract_name": "501.04", "tags": {"building": "static_caravan"}}}, {"type": "Feature", "geometry": {"type": "Polygon", "coordinates": [[[-95.6289608, 36.3105383], [-95.6286928, 36.310532], [-95.6286912, 36.3105761], [-95.6289591, 36.3105825], [-95.6289608, 36.3105383]]]}, "properties": {"osm_id": 1252061950, "building": "static_caravan", "name": "", "height": null, "height_m": null, "levels": null, "tract_id": "40131050104", "tract_name": "501.04", "tags": {"building": "static_caravan"}}}, {"type": "Feature", "geometry": {"type": "Polygon", "coordinates": [[[-95.6308297, 36.3098484], [-95.6307224, 36.3098498], [-95.6307251, 36.3099924], [-95.63087, 36.3099906], [-95.6308687, 36.3099258], [-95.6308312, 36.3099262], [-95.6308297, 36.3098484]]]}, "properties": {"osm_id": 1252061951, "building": "detached", "name": "", "height": null, "height_m": null, "levels": null, "tract_id": "40131050104", "tract_name": "501.04", "tags": {"building": "detached"}}}, {"type": "Feature", "geometry": {"type": "Polygon", "coordinates": [[[-95.6291012, 36.3102061], [-95.6293291, 36.3102045], [-95.6293287, 36.3101666], [-95.6291007, 36.3101682], [-95.6291012, 36.3102061]]]}, "properties": {"osm_id": 1252061952, "building": "static_caravan", "name": "", "height": null, "height_m": null, "levels": null, "tract_id": "40131050104", "tract_name": "501.04", "tags": {"building": "static_caravan"}}}, {"type": "Feature", "geometry": {"type": "Polygon", "coordinates": [[[-95.6205781, 36.3149111], [-95.6204653, 36.3150913], [-95.6204379, 36.3150954], [-95.6204184, 36.3150875], [-95.6204495, 36.3150376], [-95.6204269, 36.3150284], [-95.6203909, 36.3150862], [-95.6203563, 36.3150722], [-95.6203928, 36.3150136], [-95.6203785, 36.3150078], [-95.6203475, 36.3150575], [-95.6203234, 36.3150478], [-95.6203152, 36.3150313], [-95.6204308, 36.3148465], [-95.6204915, 36.3148711], [-95.6204976, 36.3148613], [-95.6205224, 36.3148714], [-95.6205139, 36.314885], [-95.6205781, 36.3149111]]]}, "properties": {"osm_id": 1374791937, "building": "yes", "name": "", "height": null, "height_m": null, "levels": null, "tract_id": "40131050104", "tract_name": "501.04", "tags": {"amenity": "restaurant", "building": "yes"}}}, {"type": "Feature", "geometry": {"type": "Polygon", "coordinates": [[[-95.6249832, 36.3165444], [-95.6251192, 36.3165447], [-95.6251187, 36.3166664], [-95.6251362, 36.3166665], [-95.6251361, 36.3166948], [-95.6251477, 36.3166948], [-95.6251471, 36.3168429], [-95.6251178, 36.3168428], [-95.6251176, 36.3168916], [-95.6250907, 36.3168916], [-95.6250905, 36.316929], [-95.6249974, 36.3169288], [-95.6249976, 36.3168902], [-95.6249777, 36.3168901], [-95.624978, 36.3167996], [-95.6249664, 36.3167995], [-95.6249669, 36.3166526], [-95.6249828, 36.3166527], [-95.6249832, 36.3165444]]]}, "properties": {"osm_id": 1374791938, "building": "yes", "name": "McDonald's", "height": null, "height_m": null, "levels": null, "tract_id": "40131050104", "tract_name": "501.04", "tags": {"amenity": "fast_food", "brand": "McDonald's", "brand:wikidata": "Q38076", "building": "yes", "cuisine": "burger", "name": "McDonald's", "takeaway": "yes"}}}, {"type": "Feature", "geometry": {"type": "Polygon", "coordinates": [[[-95.6262552, 36.3170766], [-95.6263077, 36.3170766], [-95.6263077, 36.3171394], [-95.6263871, 36.3171394], [-95.6263872, 36.3170756], [-95.6264381, 36.3170756], [-95.6264381, 36.3174545], [-95.6263859, 36.3174545], [-95.6263859, 36.3174289], [-95.626308, 36.3174288], [-95.6263079, 36.3174506], [-95.626255, 36.3174505], [-95.6262552, 36.3170766]]]}, "properties": {"osm_id": 1374791939, "building": "yes", "name": "Sonic", "height": null, "height_m": null, "levels": null, "tract_id": "40131050104", "tract_name": "501.04", "tags": {"amenity": "fast_food", "brand": "Sonic", "brand:wikidata": "Q7561808", "building": "yes", "cuisine": "burger", "drive_in": "yes", "name": "Sonic", "takeaway": "yes"}}}, {"type": "Feature", "geometry": {"type": "Polygon", "coordinates": [[[-95.6265168, 36.318392], [-95.6264274, 36.3183918], [-95.6264277, 36.3182084], [-95.6263571, 36.3182083], [-95.6263573, 36.3181109], [-95.6265174, 36.3181111], [-95.6265168, 36.318392]]]}, "properties": {"osm_id": 1374791940, "building": "yes", "name": "", "height": null, "height_m": null, "levels": null, "tract_id": "40131050104", "tract_name": "501.04", "tags": {"amenity": "car_wash", "building": "yes"}}}, {"type": "Feature", "geometry": {"type": "Polygon", "coordinates": [[[-95.6237805, 36.3216614], [-95.623437, 36.3216614], [-95.623437, 36.3215279], [-95.6237805, 36.3215279], [-95.6237805, 36.3216614]]]}, "properties": {"osm_id": 1374791955, "building": "yes", "name": "", "height": null, "height_m": null, "levels": null, "tract_id": "40131050104", "tract_name": "501.04", "tags": {"building": "yes"}}}, {"type": "Feature", "geometry": {"type": "Polygon", "coordinates": [[[-95.6207181, 36.310715], [-95.6207429, 36.3106014], [-95.6209298, 36.3106278], [-95.620905, 36.3107414], [-95.6207181, 36.310715]]]}, "properties": {"osm_id": 1374791962, "building": "yes", "name": "VFW Post", "height": null, "height_m": null, "levels": null, "tract_id": "40131050104", "tract_name": "501.04", "tags": {"amenity": "social_centre", "brand": "Veterans of Foreign Wars of the United States", "brand:short": "VFW", "brand:wikidata": "Q3556413", "building": "yes", "name": "VFW Post", "name:en": "VFW Post", "official_name": "Veterans of Foreign Wars of the United States", "social_centre:for": "veteran"}}}, {"type": "Feature", "geometry": {"type": "Polygon", "coordinates": [[[-95.6185918, 36.3133251], [-95.618206, 36.3131782], [-95.6184697, 36.3127818], [-95.6188405, 36.3129356], [-95.6185918, 36.3133251]]]}, "properties": {"osm_id": 1374791963, "building": "commercial", "name": "", "height": null, "height_m": null, "levels": null, "tract_id": "40131050104", "tract_name": "501.04", "tags": {"building": "commercial"}}}, {"type": "Feature", "geometry": {"type": "Polygon", "coordinates": [[[-95.618192, 36.3140107], [-95.6179442, 36.3139118], [-95.6181588, 36.3135628], [-95.6184066, 36.3136618], [-95.618192, 36.3140107]]]}, "properties": {"osm_id": 1374791964, "building": "yes", "name": "", "height": null, "height_m": null, "levels": null, "tract_id": "40131050104", "tract_name": "501.04", "tags": {"building": "yes", "shop": "antiques"}}}, {"type": "Feature", "geometry": {"type": "Polygon", "coordinates": [[[-95.6198297, 36.3138964], [-95.619699, 36.3138616], [-95.6197405, 36.3137526], [-95.6198737, 36.3137871], [-95.6198297, 36.3138964]]]}, "properties": {"osm_id": 1374791965, "building": "yes", "name": "American Deli", "height": null, "height_m": null, "levels": null, "tract_id": "40131050104", "tract_name": "501.04", "tags": {"amenity": "fast_food", "brand": "American Deli", "brand:wikidata": "Q119993570", "building": "yes", "cuisine": "american", "name": "American Deli", "takeaway": "yes"}}}, {"type": "Feature", "geometry": {"type": "Polygon", "coordinates": [[[-95.6213949, 36.3135668], [-95.6217939, 36.3134959], [-95.6219095, 36.3139188], [-95.6215105, 36.3139896], [-95.6213949, 36.3135668]]]}, "properties": {"osm_id": 1374791966, "building": "yes", "name": "Harbor Freight Tools", "height": null, "height_m": null, "levels": null, "tract_id": "40131050104", "tract_name": "501.04", "tags": {"brand": "Harbor Freight Tools", "brand:wikidata": "Q5654601", "building": "yes", "name": "Harbor Freight Tools", "shop": "hardware"}}}, {"type": "Feature", "geometry": {"type": "Polygon", "coordinates": [[[-95.6226258, 36.3147665], [-95.6228226, 36.314444], [-95.6236081, 36.3147692], [-95.6234063, 36.3150876], [-95.6226258, 36.3147665]]]}, "properties": {"osm_id": 1375971094, "building": "yes", "name": "", "height": null, "height_m": null, "levels": null, "tract_id": "40131050104", "tract_name": "501.04", "tags": {"building": "yes"}}}, {"type": "Feature", "geometry": {"type": "Polygon", "coordinates": [[[-95.6219095, 36.3139188], [-95.622088, 36.314568], [-95.6216893, 36.3146415], [-95.6215105, 36.3139896], [-95.6219095, 36.3139188]]]}, "properties": {"osm_id": 1375971095, "building": "yes", "name": "", "height": null, "height_m": null, "levels": null, "tract_id": "40131050104", "tract_name": "501.04", "tags": {"building": "yes"}}}, {"type": "Feature", "geometry": {"type": "Polygon", "coordinates": [[[-95.6217939, 36.3134959], [-95.6217727, 36.3134159], [-95.6217386, 36.3134212], [-95.6217133, 36.313345], [-95.6215802, 36.313368], [-95.6215299, 36.313177], [-95.6215807, 36.313139], [-95.6213285, 36.3129539], [-95.6213001, 36.3129767], [-95.6212918, 36.3129982], [-95.6211206, 36.3129522], [-95.6210437, 36.3129405], [-95.6208746, 36.3129399], [-95.6208746, 36.3128855], [-95.6206663, 36.3128865], [-95.6206668, 36.3129425], [-95.6204369, 36.3129454], [-95.620435, 36.3128477], [-95.620296, 36.3128482], [-95.6202966, 36.3128614], [-95.6199569, 36.3128638], [-95.61996, 36.3131402], [-95.6201278, 36.3131399], [-95.6201278, 36.313171], [-95.6203022, 36.31317], [-95.6203028, 36.3131425], [-95.6210408, 36.3131354], [-95.6211998, 36.3131787], [-95.6211751, 36.3132161], [-95.6212666, 36.3132641], [-95.6212956, 36.3132243], [-95.6213949, 36.3135668], [-95.6217939, 36.3134959]]]}, "properties": {"osm_id": 1375971096, "building": "yes", "name": "", "height": null, "height_m": null, "levels": null, "tract_id": "40131050104", "tract_name": "501.04", "tags": {"building": "yes"}}}, {"type": "Feature", "geometry": {"type": "Polygon", "coordinates": [[[-95.6195353, 36.3138322], [-95.6195128, 36.3138272], [-95.6195157, 36.3138191], [-95.6194857, 36.3138134], [-95.6195447, 36.313627], [-95.6196285, 36.3136451], [-95.619565, 36.3138297], [-95.6195375, 36.3138234], [-95.6195353, 36.3138322]]]}, "properties": {"osm_id": 1375971097, "building": "yes", "name": "", "height": null, "height_m": null, "levels": null, "tract_id": "40131050104", "tract_name": "501.04", "tags": {"building": "yes"}}}, {"type": "Feature", "geometry": {"type": "Polygon", "coordinates": [[[-95.6197405, 36.3137526], [-95.6199181, 36.3133074], [-95.6200194, 36.3133336], [-95.6199989, 36.3133849], [-95.6200307, 36.3133931], [-95.6198737, 36.3137871], [-95.6197405, 36.3137526]]]}, "properties": {"osm_id": 1375971098, "building": "yes", "name": "", "height": null, "height_m": null, "levels": null, "tract_id": "40131050104", "tract_name": "501.04", "tags": {"building": "yes"}}}, {"type": "Feature", "geometry": {"type": "Polygon", "coordinates": [[[-95.6192302, 36.3136789], [-95.6191811, 36.3136589], [-95.6191898, 36.313645], [-95.619171, 36.3136373], [-95.6192268, 36.3135486], [-95.6192332, 36.3135512], [-95.6192409, 36.3135389], [-95.6193113, 36.3135676], [-95.6192967, 36.3135908], [-95.6193049, 36.3135966], [-95.6192562, 36.3136742], [-95.6192379, 36.3136667], [-95.6192302, 36.3136789]]]}, "properties": {"osm_id": 1375971099, "building": "yes", "name": "", "height": null, "height_m": null, "levels": null, "tract_id": "40131050104", "tract_name": "501.04", "tags": {"building": "yes"}}}, {"type": "Feature", "geometry": {"type": "Polygon", "coordinates": [[[-95.6189471, 36.3135491], [-95.6190107, 36.3134481], [-95.6188771, 36.3133935], [-95.6189503, 36.3132773], [-95.6191117, 36.3133434], [-95.6191238, 36.3133241], [-95.6192315, 36.3133682], [-95.61922, 36.3133865], [-95.6192501, 36.3133988], [-95.6191236, 36.3135994], [-95.6191333, 36.3136034], [-95.6191223, 36.3136208], [-95.6189471, 36.3135491]]]}, "properties": {"osm_id": 1375971100, "building": "yes", "name": "", "height": null, "height_m": null, "levels": null, "tract_id": "40131050104", "tract_name": "501.04", "tags": {"building": "yes"}}}, {"type": "Feature", "geometry": {"type": "Polygon", "coordinates": [[[-95.6195204, 36.3127038], [-95.6193512, 36.3126352], [-95.6193989, 36.3125587], [-95.6195682, 36.3126273], [-95.6195204, 36.3127038]]]}, "properties": {"osm_id": 1375971101, "building": "yes", "name": "", "height": null, "height_m": null, "levels": null, "tract_id": "40131050104", "tract_name": "501.04", "tags": {"building": "yes"}}}, {"type": "Feature", "geometry": {"type": "Polygon", "coordinates": [[[-95.6191823, 36.3130275], [-95.6191531, 36.3129905], [-95.6191791, 36.3128819], [-95.6192145, 36.3128874], [-95.6192266, 36.3128372], [-95.6196623, 36.3129051], [-95.6196233, 36.3130671], [-95.6195817, 36.3130886], [-95.6191823, 36.3130275]]]}, "properties": {"osm_id": 1375971102, "building": "yes", "name": "", "height": null, "height_m": null, "levels": null, "tract_id": "40131050104", "tract_name": "501.04", "tags": {"building": "yes"}}}, {"type": "Feature", "geometry": {"type": "Polygon", "coordinates": [[[-95.6179354, 36.3130251], [-95.6178048, 36.3129721], [-95.6185782, 36.3117343], [-95.6187091, 36.3117874], [-95.6179354, 36.3130251]]]}, "properties": {"osm_id": 1375971103, "building": "yes", "name": "", "height": null, "height_m": null, "levels": null, "tract_id": "40131050104", "tract_name": "501.04", "tags": {"building": "yes"}}}, {"type": "Feature", "geometry": {"type": "Polygon", "coordinates": [[[-95.618729, 36.3121068], [-95.6188866, 36.3118657], [-95.6193967, 36.3120823], [-95.6192391, 36.3123233], [-95.618729, 36.3121068]]]}, "properties": {"osm_id": 1375971104, "building": "yes", "name": "", "height": null, "height_m": null, "levels": null, "tract_id": "40131050104", "tract_name": "501.04", "tags": {"building": "yes"}}}, {"type": "Feature", "geometry": {"type": "Polygon", "coordinates": [[[-95.6208078, 36.3127215], [-95.6208029, 36.3126192], [-95.6210066, 36.3126129], [-95.6210115, 36.3127152], [-95.6208078, 36.3127215]]]}, "properties": {"osm_id": 1375971105, "building": "yes", "name": "", "height": null, "height_m": null, "levels": null, "tract_id": "40131050104", "tract_name": "501.04", "tags": {"building": "yes"}}}, {"type": "Feature", "geometry": {"type": "Polygon", "coordinates": [[[-95.6210248, 36.3126576], [-95.621068, 36.3123858], [-95.6212418, 36.3124037], [-95.6211984, 36.3126755], [-95.6210248, 36.3126576]]]}, "properties": {"osm_id": 1375971106, "building": "yes", "name": "", "height": null, "height_m": null, "levels": null, "tract_id": "40131050104", "tract_name": "501.04", "tags": {"building": "yes"}}}, {"type": "Feature", "geometry": {"type": "Polygon", "coordinates": [[[-95.6206257, 36.3124075], [-95.6202887, 36.3122752], [-95.620226, 36.3123788], [-95.6205631, 36.3125111], [-95.6206257, 36.3124075]]]}, "properties": {"osm_id": 1375971107, "building": "yes", "name": "", "height": null, "height_m": null, "levels": null, "tract_id": "40131050104", "tract_name": "501.04", "tags": {"building": "yes"}}}, {"type": "Feature", "geometry": {"type": "Polygon", "coordinates": [[[-95.6200805, 36.311811], [-95.6199775, 36.3117692], [-95.6200656, 36.3116284], [-95.6201686, 36.3116702], [-95.6200805, 36.311811]]]}, "properties": {"osm_id": 1375971108, "building": "yes", "name": "", "height": null, "height_m": null, "levels": null, "tract_id": "40131050104", "tract_name": "501.04", "tags": {"building": "yes"}}}, {"type": "Feature", "geometry": {"type": "Polygon", "coordinates": [[[-95.6204269, 36.3117539], [-95.6203312, 36.311912], [-95.620192, 36.3118573], [-95.6202877, 36.3116992], [-95.6204269, 36.3117539]]]}, "properties": {"osm_id": 1375971109, "building": "yes", "name": "", "height": null, "height_m": null, "levels": null, "tract_id": "40131050104", "tract_name": "501.04", "tags": {"building": "yes"}}}, {"type": "Feature", "geometry": {"type": "Polygon", "coordinates": [[[-95.6203426, 36.3119505], [-95.6204071, 36.3118479], [-95.6206317, 36.3119395], [-95.6205672, 36.3120421], [-95.6203426, 36.3119505]]]}, "properties": {"osm_id": 1375971110, "building": "yes", "name": "", "height": null, "height_m": null, "levels": null, "tract_id": "40131050104", "tract_name": "501.04", "tags": {"building": "yes"}}}, {"type": "Feature", "geometry": {"type": "Polygon", "coordinates": [[[-95.6206875, 36.311814], [-95.6205612, 36.3117626], [-95.6206512, 36.3116116], [-95.6206607, 36.3116148], [-95.6208917, 36.3112419], [-95.6209999, 36.3112875], [-95.6207688, 36.31166], [-95.6207787, 36.3116636], [-95.6206875, 36.311814]]]}, "properties": {"osm_id": 1375971111, "building": "yes", "name": "", "height": null, "height_m": null, "levels": null, "tract_id": "40131050104", "tract_name": "501.04", "tags": {"building": "yes"}}}, {"type": "Feature", "geometry": {"type": "Polygon", "coordinates": [[[-95.6205971, 36.3113541], [-95.6205359, 36.3113301], [-95.6205677, 36.3112776], [-95.6206289, 36.3113017], [-95.6205971, 36.3113541]]]}, "properties": {"osm_id": 1375971112, "building": "yes", "name": "", "height": null, "height_m": null, "levels": null, "tract_id": "40131050104", "tract_name": "501.04", "tags": {"building": "yes"}}}, {"type": "Feature", "geometry": {"type": "Polygon", "coordinates": [[[-95.6206988, 36.3113314], [-95.6206352, 36.3113095], [-95.6206509, 36.31128], [-95.6207145, 36.3113019], [-95.6206988, 36.3113314]]]}, "properties": {"osm_id": 1375971113, "building": "yes", "name": "", "height": null, "height_m": null, "levels": null, "tract_id": "40131050104", "tract_name": "501.04", "tags": {"building": "yes"}}}, {"type": "Feature", "geometry": {"type": "Polygon", "coordinates": [[[-95.6204746, 36.3113109], [-95.6204162, 36.3112871], [-95.6204792, 36.311187], [-95.6205375, 36.3112108], [-95.6204746, 36.3113109]]]}, "properties": {"osm_id": 1375971114, "building": "yes", "name": "", "height": null, "height_m": null, "levels": null, "tract_id": "40131050104", "tract_name": "501.04", "tags": {"building": "yes"}}}, {"type": "Feature", "geometry": {"type": "Polygon", "coordinates": [[[-95.6204023, 36.3112603], [-95.6202809, 36.311214], [-95.620294, 36.3111917], [-95.6202731, 36.3111837], [-95.6202908, 36.3111535], [-95.6203116, 36.3111614], [-95.620321, 36.3111455], [-95.6204425, 36.3111919], [-95.6204023, 36.3112603]]]}, "properties": {"osm_id": 1375971115, "building": "yes", "name": "", "height": null, "height_m": null, "levels": null, "tract_id": "40131050104", "tract_name": "501.04", "tags": {"amenity": "place_of_worship", "building": "yes", "religion": "christian"}}}, {"type": "Feature", "geometry": {"type": "Polygon", "coordinates": [[[-95.6192093, 36.3113607], [-95.6189, 36.311225], [-95.6192978, 36.310618], [-95.6196041, 36.3107481], [-95.6192093, 36.3113607]]]}, "properties": {"osm_id": 1375971116, "building": "yes", "name": "", "height": null, "height_m": null, "levels": null, "tract_id": "40131050104", "tract_name": "501.04", "tags": {"building": "yes"}}}, {"type": "Feature", "geometry": {"type": "Polygon", "coordinates": [[[-95.6176958, 36.3147179], [-95.6174144, 36.3146054], [-95.6174769, 36.314504], [-95.6177583, 36.3146165], [-95.6176958, 36.3147179]]]}, "properties": {"osm_id": 1375971117, "building": "yes", "name": "", "height": null, "height_m": null, "levels": null, "tract_id": "40131050104", "tract_name": "501.04", "tags": {"building": "yes"}}}, {"type": "Feature", "geometry": {"type": "Polygon", "coordinates": [[[-95.6187817, 36.3141616], [-95.6186632, 36.3141142], [-95.6186825, 36.314083], [-95.6186609, 36.3140744], [-95.6187032, 36.3140059], [-95.6187274, 36.3140156], [-95.6187615, 36.3139605], [-95.618876, 36.3140064], [-95.6188336, 36.3140752], [-95.6188837, 36.3140953], [-95.6188535, 36.3141443], [-95.6188046, 36.3141246], [-95.6187817, 36.3141616]]]}, "properties": {"osm_id": 1375971118, "building": "yes", "name": "", "height": null, "height_m": null, "levels": null, "tract_id": "40131050104", "tract_name": "501.04", "tags": {"building": "yes"}}}, {"type": "Feature", "geometry": {"type": "Polygon", "coordinates": [[[-95.6186812, 36.3143603], [-95.6183771, 36.3142336], [-95.618441, 36.3141339], [-95.6187452, 36.3142607], [-95.6186812, 36.3143603]]]}, "properties": {"osm_id": 1375971119, "building": "yes", "name": "", "height": null, "height_m": null, "levels": null, "tract_id": "40131050104", "tract_name": "501.04", "tags": {"building": "yes"}}}, {"type": "Feature", "geometry": {"type": "Polygon", "coordinates": [[[-95.6182634, 36.3144202], [-95.6182708, 36.3144083], [-95.6182578, 36.3144031], [-95.6182856, 36.3143584], [-95.618299, 36.3143638], [-95.6183268, 36.314319], [-95.6186263, 36.3144399], [-95.6185634, 36.3145412], [-95.6182634, 36.3144202]]]}, "properties": {"osm_id": 1375971120, "building": "yes", "name": "", "height": null, "height_m": null, "levels": null, "tract_id": "40131050104", "tract_name": "501.04", "tags": {"building": "yes"}}}, {"type": "Feature", "geometry": {"type": "Polygon", "coordinates": [[[-95.618696, 36.314657], [-95.6187888, 36.3145071], [-95.6190923, 36.3146291], [-95.6189995, 36.314779], [-95.618696, 36.314657]]]}, "properties": {"osm_id": 1375971121, "building": "yes", "name": "", "height": null, "height_m": null, "levels": null, "tract_id": "40131050104", "tract_name": "501.04", "tags": {"building": "yes"}}}, {"type": "Feature", "geometry": {"type": "Polygon", "coordinates": [[[-95.6196795, 36.3146183], [-95.6195266, 36.3145565], [-95.6196553, 36.3143498], [-95.6198082, 36.3144117], [-95.6196795, 36.3146183]]]}, "properties": {"osm_id": 1375971122, "building": "yes", "name": "", "height": null, "height_m": null, "levels": null, "tract_id": "40131050104", "tract_name": "501.04", "tags": {"building": "yes"}}}, {"type": "Feature", "geometry": {"type": "Polygon", "coordinates": [[[-95.6205125, 36.3151827], [-95.6207033, 36.3148772], [-95.6208178, 36.3149236], [-95.6206269, 36.3152292], [-95.6205125, 36.3151827]]]}, "properties": {"osm_id": 1375971123, "building": "yes", "name": "", "height": null, "height_m": null, "levels": null, "tract_id": "40131050104", "tract_name": "501.04", "tags": {"building": "yes"}}}, {"type": "Feature", "geometry": {"type": "Polygon", "coordinates": [[[-95.6192049, 36.3144422], [-95.6191161, 36.3144061], [-95.6192312, 36.3142222], [-95.6195381, 36.3143469], [-95.6194438, 36.3144975], [-95.6192257, 36.3144088], [-95.6192049, 36.3144422]]]}, "properties": {"osm_id": 1375971124, "building": "yes", "name": "", "height": null, "height_m": null, "levels": null, "tract_id": "40131050104", "tract_name": "501.04", "tags": {"building": "yes"}}}, {"type": "Feature", "geometry": {"type": "Polygon", "coordinates": [[[-95.618873, 36.3144917], [-95.618958, 36.3143548], [-95.6188643, 36.314317], [-95.6189833, 36.3141255], [-95.6191481, 36.314192], [-95.6191226, 36.3142331], [-95.6191729, 36.3142534], [-95.619081, 36.3144013], [-95.6191083, 36.3144123], [-95.6190217, 36.3145517], [-95.618873, 36.3144917]]]}, "properties": {"osm_id": 1375971125, "building": "yes", "name": "", "height": null, "height_m": null, "levels": null, "tract_id": "40131050104", "tract_name": "501.04", "tags": {"building": "yes"}}}, {"type": "Feature", "geometry": {"type": "Polygon", "coordinates": [[[-95.622623, 36.3159651], [-95.6225399, 36.3159307], [-95.6225636, 36.3158933], [-95.6224891, 36.3158625], [-95.6225462, 36.3157727], [-95.6225224, 36.3157629], [-95.6225399, 36.3157355], [-95.6224469, 36.3156971], [-95.6225018, 36.3156108], [-95.6226164, 36.3156582], [-95.6226679, 36.3155772], [-95.6228279, 36.3156433], [-95.622623, 36.3159651]]]}, "properties": {"osm_id": 1375971126, "building": "yes", "name": "", "height": null, "height_m": null, "levels": null, "tract_id": "40131050104", "tract_name": "501.04", "tags": {"building": "yes"}}}, {"type": "Feature", "geometry": {"type": "Polygon", "coordinates": [[[-95.622791, 36.3162079], [-95.622687, 36.3161632], [-95.6228785, 36.3158593], [-95.622828, 36.315837], [-95.622899, 36.3157251], [-95.6233222, 36.3158956], [-95.6232506, 36.3160109], [-95.6231783, 36.3159818], [-95.623169, 36.3159969], [-95.6231397, 36.3159851], [-95.6231496, 36.3159692], [-95.6230724, 36.315938], [-95.6230699, 36.3159767], [-95.6230237, 36.3159606], [-95.6230113, 36.3159819], [-95.6229648, 36.3159616], [-95.6229455, 36.3159922], [-95.62293, 36.3159861], [-95.622791, 36.3162079]]]}, "properties": {"osm_id": 1375971127, "building": "yes", "name": "", "height": null, "height_m": null, "levels": null, "tract_id": "40131050104", "tract_name": "501.04", "tags": {"building": "yes"}}}, {"type": "Feature", "geometry": {"type": "Polygon", "coordinates": [[[-95.6235755, 36.3161229], [-95.6234993, 36.3160902], [-95.6235356, 36.3160334], [-95.6234006, 36.3159784], [-95.6234775, 36.3158533], [-95.623537, 36.3158778], [-95.6235065, 36.3159264], [-95.6235138, 36.3159293], [-95.6235087, 36.3159369], [-95.6236528, 36.3159986], [-95.6235755, 36.3161229]]]}, "properties": {"osm_id": 1375971128, "building": "yes", "name": "", "height": null, "height_m": null, "levels": null, "tract_id": "40131050104", "tract_name": "501.04", "tags": {"building": "yes"}}}, {"type": "Feature", "geometry": {"type": "Polygon", "coordinates": [[[-95.6243862, 36.3163753], [-95.6242943, 36.3163757], [-95.6242932, 36.3162369], [-95.6243818, 36.3162365], [-95.6243822, 36.3162898], [-95.62439, 36.3162898], [-95.6243904, 36.3163436], [-95.624386, 36.3163436], [-95.6243862, 36.3163753]]]}, "properties": {"osm_id": 1375971129, "building": "yes", "name": "", "height": null, "height_m": null, "levels": null, "tract_id": "40131050104", "tract_name": "501.04", "tags": {"building": "yes"}}}, {"type": "Feature", "geometry": {"type": "Polygon", "coordinates": [[[-95.6242, 36.3163546], [-95.6241999, 36.31634], [-95.6241331, 36.3163402], [-95.6241329, 36.3162757], [-95.6241108, 36.3162758], [-95.6241105, 36.3162108], [-95.6241172, 36.3162108], [-95.6241169, 36.316141], [-95.6242262, 36.3161407], [-95.6242267, 36.3162369], [-95.6242499, 36.3162369], [-95.6242501, 36.3162824], [-95.6242265, 36.3162825], [-95.6242268, 36.3163545], [-95.6242, 36.3163546]]]}, "properties": {"osm_id": 1375971130, "building": "yes", "name": "", "height": null, "height_m": null, "levels": null, "tract_id": "40131050104", "tract_name": "501.04", "tags": {"building": "yes"}}}, {"type": "Feature", "geometry": {"type": "Polygon", "coordinates": [[[-95.627753, 36.3180915], [-95.6273646, 36.317942], [-95.6274399, 36.3178149], [-95.6278283, 36.3179643], [-95.627753, 36.3180915]]]}, "properties": {"osm_id": 1375971131, "building": "yes", "name": "", "height": null, "height_m": null, "levels": null, "tract_id": "40131050104", "tract_name": "501.04", "tags": {"building": "yes"}}}, {"type": "Feature", "geometry": {"type": "Polygon", "coordinates": [[[-95.6165193, 36.3158993], [-95.6161345, 36.315743], [-95.6163432, 36.3154094], [-95.6165311, 36.3154857], [-95.6165691, 36.3154248], [-95.6166881, 36.3154732], [-95.6166498, 36.3155343], [-95.6167278, 36.315566], [-95.6165193, 36.3158993]]]}, "properties": {"osm_id": 1375971132, "building": "yes", "name": "", "height": null, "height_m": null, "levels": null, "tract_id": "40131050104", "tract_name": "501.04", "tags": {"building": "yes"}}}, {"type": "Feature", "geometry": {"type": "Polygon", "coordinates": [[[-95.626577, 36.3167672], [-95.6263576, 36.3166754], [-95.626394, 36.316616], [-95.6265023, 36.3166661], [-95.6265616, 36.3166669], [-95.6265607, 36.3165959], [-95.6265387, 36.3165959], [-95.6265387, 36.3165635], [-95.6265626, 36.3165627], [-95.6265626, 36.3164323], [-95.6265913, 36.3164321], [-95.6265919, 36.3164118], [-95.6266984, 36.3164594], [-95.6266981, 36.3165647], [-95.626713, 36.3165647], [-95.626712, 36.3165879], [-95.6266986, 36.3165879], [-95.626697, 36.3167693], [-95.6266094, 36.3167317], [-95.6265986, 36.3167317], [-95.626577, 36.3167672]]]}, "properties": {"osm_id": 1376134510, "building": "yes", "name": "", "height": null, "height_m": null, "levels": null, "tract_id": "40131050104", "tract_name": "501.04", "tags": {"building": "yes"}}}, {"type": "Feature", "geometry": {"type": "Polygon", "coordinates": [[[-95.6261731, 36.3165681], [-95.6260763, 36.3165299], [-95.6261467, 36.3164106], [-95.6262416, 36.3164485], [-95.6261731, 36.3165681]]]}, "properties": {"osm_id": 1376134511, "building": "yes", "name": "", "height": null, "height_m": null, "levels": null, "tract_id": "40131050104", "tract_name": "501.04", "tags": {"building": "yes"}}}, {"type": "Feature", "geometry": {"type": "Polygon", "coordinates": [[[-95.6254954, 36.3161581], [-95.6254877, 36.3161554], [-95.6255021, 36.3161334], [-95.625514, 36.316138], [-95.6255361, 36.3160983], [-95.6255255, 36.3160941], [-95.625537, 36.3160775], [-95.6257085, 36.3161481], [-95.6256112, 36.3163072], [-95.6254653, 36.3162423], [-95.6255074, 36.3161695], [-95.6254965, 36.3161645], [-95.6254998, 36.3161598], [-95.6254954, 36.3161581]]]}, "properties": {"osm_id": 1376134512, "building": "yes", "name": "", "height": null, "height_m": null, "levels": null, "tract_id": "40131050104", "tract_name": "501.04", "tags": {"building": "yes", "layer": "1"}}}, {"type": "Feature", "geometry": {"type": "Polygon", "coordinates": [[[-95.6247991, 36.3158776], [-95.624701, 36.3158374], [-95.6247124, 36.3158194], [-95.624382, 36.315684], [-95.6243987, 36.3156576], [-95.6244129, 36.3156634], [-95.6244875, 36.3155452], [-95.6252193, 36.3158452], [-95.6251456, 36.315962], [-95.6251587, 36.3159673], [-95.6251398, 36.3159971], [-95.6248092, 36.3158616], [-95.6247991, 36.3158776]]]}, "properties": {"osm_id": 1376134516, "building": "yes", "name": "", "height": null, "height_m": null, "levels": null, "tract_id": "40131050104", "tract_name": "501.04", "tags": {"building": "yes"}}}, {"type": "Feature", "geometry": {"type": "Polygon", "coordinates": [[[-95.6241249, 36.3154861], [-95.6241335, 36.3154521], [-95.6241801, 36.3154597], [-95.6241716, 36.3154935], [-95.6242455, 36.3155055], [-95.6242289, 36.3155716], [-95.6242469, 36.3155745], [-95.6242315, 36.315636], [-95.624212, 36.3156328], [-95.6242053, 36.3156596], [-95.6241537, 36.3156512], [-95.6241521, 36.3156577], [-95.6240921, 36.3156479], [-95.6240941, 36.3156403], [-95.6240717, 36.3156367], [-95.6240836, 36.3155894], [-95.6240734, 36.3155878], [-95.6240904, 36.3155196], [-95.6241061, 36.3155222], [-95.6241155, 36.3154846], [-95.6241249, 36.3154861]]]}, "properties": {"osm_id": 1376134517, "building": "yes", "name": "", "height": null, "height_m": null, "levels": null, "tract_id": "40131050104", "tract_name": "501.04", "tags": {"amenity": "restaurant", "building": "yes"}}}, {"type": "Feature", "geometry": {"type": "Polygon", "coordinates": [[[-95.6266943, 36.3172945], [-95.6266251, 36.3172875], [-95.6266427, 36.3171753], [-95.6266098, 36.3171641], [-95.6266205, 36.3170969], [-95.6267175, 36.3171256], [-95.6267288, 36.3171261], [-95.626728, 36.31715], [-95.6267182, 36.3171497], [-95.6266943, 36.3172945]]]}, "properties": {"osm_id": 1376134518, "building": "yes", "name": "", "height": null, "height_m": null, "levels": null, "tract_id": "40131050104", "tract_name": "501.04", "tags": {"building": "yes"}}}, {"type": "Feature", "geometry": {"type": "Polygon", "coordinates": [[[-95.626092, 36.317423], [-95.6260936, 36.3170127], [-95.6261465, 36.3170127], [-95.6261453, 36.3174233], [-95.626092, 36.317423]]]}, "properties": {"osm_id": 1376134519, "building": "yes", "name": "", "height": null, "height_m": null, "levels": null, "tract_id": "40131050104", "tract_name": "501.04", "tags": {"amenity": "shelter", "building": "yes"}}}, {"type": "Feature", "geometry": {"type": "Polygon", "coordinates": [[[-95.6280337, 36.3171384], [-95.6277696, 36.3170805], [-95.6278131, 36.3169516], [-95.6278452, 36.3169586], [-95.6278417, 36.316969], [-95.6280388, 36.3170122], [-95.6280422, 36.317002], [-95.6280771, 36.3170097], [-95.6280337, 36.3171384]]]}, "properties": {"osm_id": 1376134520, "building": "yes", "name": "", "height": null, "height_m": null, "levels": null, "tract_id": "40131050104", "tract_name": "501.04", "tags": {"building": "yes"}}}, {"type": "Feature", "geometry": {"type": "Polygon", "coordinates": [[[-95.6301011, 36.3187577], [-95.6300218, 36.3187243], [-95.6300405, 36.3186955], [-95.6299948, 36.3186762], [-95.6300159, 36.3186436], [-95.6299548, 36.3186179], [-95.6300153, 36.3185247], [-95.6302014, 36.3186032], [-95.6301011, 36.3187577]]]}, "properties": {"osm_id": 1376134522, "building": "yes", "name": "", "height": null, "height_m": null, "levels": null, "tract_id": "40131050104", "tract_name": "501.04", "tags": {"building": "yes"}}}, {"type": "Feature", "geometry": {"type": "Polygon", "coordinates": [[[-95.6299613, 36.3188857], [-95.6299616, 36.3187999], [-95.6299712, 36.3187999], [-95.6299713, 36.3187722], [-95.6300168, 36.3187723], [-95.6300167, 36.3187939], [-95.630051, 36.318794], [-95.6300511, 36.3187759], [-95.6300878, 36.318776], [-95.6300877, 36.3188008], [-95.6301397, 36.3188009], [-95.6301394, 36.3188861], [-95.6299613, 36.3188857]]]}, "properties": {"osm_id": 1376134523, "building": "yes", "name": "", "height": null, "height_m": null, "levels": null, "tract_id": "40131050104", "tract_name": "501.04", "tags": {"building": "yes"}}}, {"type": "Feature", "geometry": {"type": "Polygon", "coordinates": [[[-95.6157183, 36.3167134], [-95.6156368, 36.3165023], [-95.6162376, 36.3163518], [-95.6162319, 36.3163372], [-95.616433, 36.3162867], [-95.6165202, 36.3165124], [-95.6162022, 36.3165889], [-95.6162218, 36.316645], [-95.6159946, 36.3166952], [-95.6159779, 36.3166465], [-95.6157183, 36.3167134]]]}, "properties": {"osm_id": 1376228900, "building": "industrial", "name": "", "height": null, "height_m": null, "levels": null, "tract_id": "40131050104", "tract_name": "501.04", "tags": {"building": "industrial"}}}, {"type": "Feature", "geometry": {"type": "Polygon", "coordinates": [[[-95.6158265, 36.3169944], [-95.6157639, 36.3168332], [-95.6160903, 36.3167509], [-95.6161529, 36.3169122], [-95.6158265, 36.3169944]]]}, "properties": {"osm_id": 1376228901, "building": "industrial", "name": "", "height": null, "height_m": null, "levels": null, "tract_id": "40131050104", "tract_name": "501.04", "tags": {"building": "industrial"}}}, {"type": "Feature", "geometry": {"type": "Polygon", "coordinates": [[[-95.6155062, 36.3174308], [-95.6154436, 36.3174061], [-95.6155489, 36.317233], [-95.6156502, 36.317273], [-95.6155738, 36.3173986], [-95.6155351, 36.3173833], [-95.6155062, 36.3174308]]]}, "properties": {"osm_id": 1376228902, "building": "industrial", "name": "", "height": null, "height_m": null, "levels": null, "tract_id": "40131050104", "tract_name": "501.04", "tags": {"building": "industrial"}}}, {"type": "Feature", "geometry": {"type": "Polygon", "coordinates": [[[-95.615091, 36.3173504], [-95.6151021, 36.3173471], [-95.615114, 36.3173468], [-95.6151253, 36.3173496], [-95.615135, 36.3173551], [-95.6151419, 36.3173629], [-95.6151455, 36.317372], [-95.6151452, 36.3173815], [-95.6151412, 36.3173905], [-95.6151339, 36.317398], [-95.615124, 36.3174032], [-95.6151125, 36.3174056], [-95.6151, 36.3174048], [-95.6150885, 36.3174006], [-95.6150794, 36.3173936], [-95.6150739, 36.3173844], [-95.6150725, 36.3173743], [-95.6150754, 36.3173644], [-95.6150818, 36.3173564], [-95.615091, 36.3173504]]]}, "properties": {"osm_id": 1376228903, "building": "yes", "name": "", "height": null, "height_m": null, "levels": null, "tract_id": "40131050104", "tract_name": "501.04", "tags": {"building": "yes", "man_made": "silo"}}}, {"type": "Feature", "geometry": {"type": "Polygon", "coordinates": [[[-95.6150544, 36.317409], [-95.6150656, 36.3174057], [-95.6150774, 36.3174054], [-95.6150887, 36.3174082], [-95.6150984, 36.3174137], [-95.6151053, 36.3174214], [-95.6151089, 36.3174305], [-95.6151086, 36.3174401], [-95.6151047, 36.3174491], [-95.6150973, 36.3174565], [-95.6150874, 36.3174618], [-95.6150759, 36.3174642], [-95.6150634, 36.3174634], [-95.6150519, 36.3174592], [-95.6150428, 36.3174521], [-95.6150373, 36.317443], [-95.6150359, 36.3174329], [-95.6150388, 36.317423], [-95.6150452, 36.3174149], [-95.6150544, 36.317409]]]}, "properties": {"osm_id": 1376228904, "building": "yes", "name": "", "height": null, "height_m": null, "levels": null, "tract_id": "40131050104", "tract_name": "501.04", "tags": {"building": "yes", "man_made": "silo"}}}, {"type": "Feature", "geometry": {"type": "Polygon", "coordinates": [[[-95.6150173, 36.3174696], [-95.6150285, 36.3174663], [-95.6150403, 36.317466], [-95.6150516, 36.3174688], [-95.6150613, 36.3174743], [-95.6150682, 36.317482], [-95.6150718, 36.3174911], [-95.6150715, 36.3175007], [-95.6150676, 36.3175097], [-95.6150602, 36.3175172], [-95.6150503, 36.3175224], [-95.6150388, 36.3175248], [-95.6150263, 36.317524], [-95.6150148, 36.3175198], [-95.6150057, 36.3175127], [-95.6150002, 36.3175036], [-95.6149988, 36.3174935], [-95.6150017, 36.3174836], [-95.6150081, 36.3174755], [-95.6150173, 36.3174696]]]}, "properties": {"osm_id": 1376228905, "building": "yes", "name": "", "height": null, "height_m": null, "levels": null, "tract_id": "40131050104", "tract_name": "501.04", "tags": {"building": "yes", "man_made": "silo"}}}, {"type": "Feature", "geometry": {"type": "Polygon", "coordinates": [[[-95.6149808, 36.3175294], [-95.6149919, 36.3175261], [-95.6150037, 36.3175258], [-95.615015, 36.3175285], [-95.6150247, 36.3175341], [-95.6150316, 36.3175418], [-95.6150352, 36.3175509], [-95.615035, 36.3175605], [-95.615031, 36.3175694], [-95.6150236, 36.3175769], [-95.6150137, 36.3175822], [-95.6150023, 36.3175846], [-95.6149897, 36.3175838], [-95.6149782, 36.3175796], [-95.6149691, 36.3175725], [-95.6149636, 36.3175634], [-95.6149622, 36.3175533], [-95.6149651, 36.3175434], [-95.6149715, 36.3175353], [-95.6149808, 36.3175294]]]}, "properties": {"osm_id": 1376228906, "building": "yes", "name": "", "height": null, "height_m": null, "levels": null, "tract_id": "40131050104", "tract_name": "501.04", "tags": {"building": "yes", "man_made": "silo"}}}, {"type": "Feature", "geometry": {"type": "Polygon", "coordinates": [[[-95.6149452, 36.3175879], [-95.6149563, 36.3175846], [-95.6149681, 36.3175843], [-95.6149795, 36.3175871], [-95.6149891, 36.3175926], [-95.6149961, 36.3176004], [-95.6149996, 36.3176095], [-95.6149994, 36.317619], [-95.6149954, 36.317628], [-95.6149881, 36.3176355], [-95.6149781, 36.3176407], [-95.6149667, 36.3176431], [-95.6149541, 36.3176423], [-95.6149426, 36.3176381], [-95.6149336, 36.317631], [-95.614928, 36.3176219], [-95.6149266, 36.3176118], [-95.6149296, 36.3176019], [-95.6149359, 36.3175939], [-95.6149452, 36.3175879]]]}, "properties": {"osm_id": 1376228907, "building": "yes", "name": "", "height": null, "height_m": null, "levels": null, "tract_id": "40131050104", "tract_name": "501.04", "tags": {"building": "yes", "man_made": "silo"}}}, {"type": "Feature", "geometry": {"type": "Polygon", "coordinates": [[[-95.6156197, 36.3178135], [-95.6154532, 36.317749], [-95.6154857, 36.3176945], [-95.6154455, 36.317679], [-95.615485, 36.3176126], [-95.6155102, 36.3176223], [-95.6155236, 36.3175998], [-95.61554, 36.3176061], [-95.6155599, 36.3175728], [-95.6157252, 36.3176368], [-95.6156197, 36.3178135]]]}, "properties": {"osm_id": 1376228908, "building": "industrial", "name": "", "height": null, "height_m": null, "levels": null, "tract_id": "40131050104", "tract_name": "501.04", "tags": {"building": "industrial"}}}, {"type": "Feature", "geometry": {"type": "Polygon", "coordinates": [[[-95.6168975, 36.317371], [-95.6165761, 36.3172414], [-95.6167146, 36.3170183], [-95.6170361, 36.3171479], [-95.6168975, 36.317371]]]}, "properties": {"osm_id": 1376228909, "building": "yes", "name": "", "height": null, "height_m": null, "levels": null, "tract_id": "40131050104", "tract_name": "501.04", "tags": {"building": "yes"}}}, {"type": "Feature", "geometry": {"type": "Polygon", "coordinates": [[[-95.6170983, 36.3170436], [-95.6167779, 36.3169128], [-95.6168503, 36.3167976], [-95.6171707, 36.3169283], [-95.6170983, 36.3170436]]]}, "properties": {"osm_id": 1376228910, "building": "yes", "name": "", "height": null, "height_m": null, "levels": null, "tract_id": "40131050104", "tract_name": "501.04", "tags": {"building": "yes"}}}, {"type": "Feature", "geometry": {"type": "Polygon", "coordinates": [[[-95.6172918, 36.3167535], [-95.617169, 36.316704], [-95.6172158, 36.3166288], [-95.6173385, 36.3166783], [-95.6172918, 36.3167535]]]}, "properties": {"osm_id": 1376228911, "building": "yes", "name": "", "height": null, "height_m": null, "levels": null, "tract_id": "40131050104", "tract_name": "501.04", "tags": {"building": "yes"}}}, {"type": "Feature", "geometry": {"type": "Polygon", "coordinates": [[[-95.617143, 36.3167221], [-95.6168651, 36.3166067], [-95.6169136, 36.3165308], [-95.6171915, 36.3166463], [-95.617143, 36.3167221]]]}, "properties": {"osm_id": 1376228912, "building": "yes", "name": "", "height": null, "height_m": null, "levels": null, "tract_id": "40131050104", "tract_name": "501.04", "tags": {"building": "yes"}}}, {"type": "Feature", "geometry": {"type": "Polygon", "coordinates": [[[-95.6179272, 36.3166895], [-95.6175342, 36.316531], [-95.6175861, 36.3164474], [-95.6176109, 36.3164574], [-95.6176304, 36.316426], [-95.6179987, 36.3165745], [-95.6179272, 36.3166895]]]}, "properties": {"osm_id": 1376228913, "building": "yes", "name": "", "height": null, "height_m": null, "levels": null, "tract_id": "40131050104", "tract_name": "501.04", "tags": {"building": "yes"}}}, {"type": "Feature", "geometry": {"type": "Polygon", "coordinates": [[[-95.6183797, 36.3160165], [-95.6181888, 36.3159399], [-95.6182298, 36.3158733], [-95.6184208, 36.3159499], [-95.6183797, 36.3160165]]]}, "properties": {"osm_id": 1376228914, "building": "yes", "name": "", "height": null, "height_m": null, "levels": null, "tract_id": "40131050104", "tract_name": "501.04", "tags": {"building": "yes"}}}, {"type": "Feature", "geometry": {"type": "Polygon", "coordinates": [[[-95.6181365, 36.3159158], [-95.617978, 36.31585], [-95.6180167, 36.3157855], [-95.6181004, 36.3158186], [-95.6181036, 36.3158135], [-95.618182, 36.3158453], [-95.6181365, 36.3159158]]]}, "properties": {"osm_id": 1376228915, "building": "yes", "name": "", "height": null, "height_m": null, "levels": null, "tract_id": "40131050104", "tract_name": "501.04", "tags": {"building": "yes"}}}, {"type": "Feature", "geometry": {"type": "Polygon", "coordinates": [[[-95.6182671, 36.3161989], [-95.6181228, 36.3161387], [-95.6182193, 36.3159819], [-95.6183652, 36.3160425], [-95.6182671, 36.3161989]]]}, "properties": {"osm_id": 1376228916, "building": "yes", "name": "", "height": null, "height_m": null, "levels": null, "tract_id": "40131050104", "tract_name": "501.04", "tags": {"building": "yes"}}}, {"type": "Feature", "geometry": {"type": "Polygon", "coordinates": [[[-95.6181741, 36.3163041], [-95.6180049, 36.3162358], [-95.617993, 36.316255], [-95.6179233, 36.3162269], [-95.6179396, 36.3162006], [-95.6178995, 36.3161845], [-95.6179626, 36.3160829], [-95.6182415, 36.3161955], [-95.6181741, 36.3163041]]]}, "properties": {"osm_id": 1376228917, "building": "yes", "name": "", "height": null, "height_m": null, "levels": null, "tract_id": "40131050104", "tract_name": "501.04", "tags": {"building": "yes"}}}, {"type": "Feature", "geometry": {"type": "Polygon", "coordinates": [[[-95.6174415, 36.3165005], [-95.6171204, 36.3163705], [-95.6173922, 36.3159368], [-95.6174619, 36.3159669], [-95.6174508, 36.3159825], [-95.6174823, 36.3159955], [-95.6174654, 36.3160222], [-95.6176671, 36.3160995], [-95.6174956, 36.3163718], [-95.617516, 36.31638], [-95.6174415, 36.3165005]]]}, "properties": {"osm_id": 1376228918, "building": "yes", "name": "", "height": null, "height_m": null, "levels": null, "tract_id": "40131050104", "tract_name": "501.04", "tags": {"building": "yes"}}}, {"type": "Feature", "geometry": {"type": "Polygon", "coordinates": [[[-95.6159394, 36.3186475], [-95.6159674, 36.3183699], [-95.6161407, 36.3183813], [-95.6161126, 36.3186589], [-95.6159394, 36.3186475]]]}, "properties": {"osm_id": 1376228919, "building": "yes", "name": "", "height": null, "height_m": null, "levels": null, "tract_id": "40131050104", "tract_name": "501.04", "tags": {"building": "yes"}}}, {"type": "Feature", "geometry": {"type": "Polygon", "coordinates": [[[-95.6161901, 36.3181538], [-95.6160614, 36.3181101], [-95.6162131, 36.3178169], [-95.6163448, 36.3178603], [-95.6162523, 36.318041], [-95.6163796, 36.3180856], [-95.6163445, 36.3181454], [-95.6162167, 36.3181026], [-95.6161901, 36.3181538]]]}, "properties": {"osm_id": 1376228920, "building": "yes", "name": "", "height": null, "height_m": null, "levels": null, "tract_id": "40131050104", "tract_name": "501.04", "tags": {"building": "yes"}}}, {"type": "Feature", "geometry": {"type": "Polygon", "coordinates": [[[-95.6163504, 36.3179135], [-95.6165097, 36.317969], [-95.6164409, 36.3180974], [-95.6162821, 36.3180428], [-95.6163504, 36.3179135]]]}, "properties": {"osm_id": 1376228921, "building": "yes", "name": "", "height": null, "height_m": null, "levels": null, "tract_id": "40131050104", "tract_name": "501.04", "tags": {"building": "yes"}}}, {"type": "Feature", "geometry": {"type": "Polygon", "coordinates": [[[-95.6204068, 36.3213782], [-95.6202831, 36.3213778], [-95.6202834, 36.3213112], [-95.6201031, 36.3213106], [-95.6201041, 36.3210853], [-95.6202927, 36.3210858], [-95.620293, 36.3210188], [-95.6204025, 36.3210192], [-95.6204021, 36.3210834], [-95.62059, 36.321084], [-95.6205889, 36.3213119], [-95.6204071, 36.3213113], [-95.6204068, 36.3213782]]]}, "properties": {"osm_id": 1376228922, "building": "school", "name": "Claremore Christian School", "height": null, "height_m": null, "levels": null, "tract_id": "40131050104", "tract_name": "501.04", "tags": {"building": "school", "name": "Claremore Christian School"}}}, {"type": "Feature", "geometry": {"type": "Polygon", "coordinates": [[[-95.6218289, 36.3217982], [-95.6217505, 36.3217983], [-95.6217503, 36.3217035], [-95.6217399, 36.3217035], [-95.62174, 36.3217286], [-95.6216306, 36.3217287], [-95.6216305, 36.3216704], [-95.6216413, 36.3216704], [-95.6216413, 36.3216601], [-95.6216493, 36.3216601], [-95.6216493, 36.3216127], [-95.6216421, 36.3216127], [-95.6216421, 36.3216012], [-95.6216305, 36.3216012], [-95.6216305, 36.3215777], [-95.6216486, 36.3215777], [-95.6216487, 36.321539], [-95.621732, 36.3215392], [-95.6217318, 36.3216126], [-95.6217473, 36.3216126], [-95.6217474, 36.3215832], [-95.621776, 36.3215832], [-95.6217761, 36.3215546], [-95.6218297, 36.3215547], [-95.6218296, 36.3215826], [-95.6218343, 36.3215826], [-95.6218342, 36.3215993], [-95.6218509, 36.3215994], [-95.6218512, 36.3215355], [-95.6219224, 36.3215357], [-95.6219387, 36.3215416], [-95.6219507, 36.3215416], [-95.621951, 36.3215767], [-95.621935, 36.3215768], [-95.6219351, 36.3215824], [-95.6220508, 36.3215819], [-95.6220513, 36.3216623], [-95.6219348, 36.3216628], [-95.6219349, 36.3216896], [-95.6219489, 36.3216895], [-95.6219491, 36.3217251], [-95.6219369, 36.3217251], [-95.6219369, 36.3217284], [-95.6218452, 36.3217286], [-95.6218452, 36.3217012], [-95.6218287, 36.3217013], [-95.6218289, 36.3217982]]]}, "properties": {"osm_id": 1376305401, "building": "yes", "name": "", "height": null, "height_m": null, "levels": null, "tract_id": "40131050104", "tract_name": "501.04", "tags": {"amenity": "childcare", "building": "yes"}}}, {"type": "Feature", "geometry": {"type": "Polygon", "coordinates": [[[-95.6230075, 36.3216667], [-95.6229448, 36.3216147], [-95.6227684, 36.3216145], [-95.6227684, 36.3216448], [-95.6226483, 36.3216446], [-95.6226484, 36.3216139], [-95.6224585, 36.3216137], [-95.6224667, 36.3216203], [-95.622408, 36.3216679], [-95.6223501, 36.3216215], [-95.6223969, 36.3215836], [-95.6223967, 36.3214153], [-95.623019, 36.3214149], [-95.6230191, 36.321585], [-95.6230642, 36.3216223], [-95.6230075, 36.3216667]]]}, "properties": {"osm_id": 1376305402, "building": "commercial", "name": "", "height": null, "height_m": null, "levels": null, "tract_id": "40131050104", "tract_name": "501.04", "tags": {"building": "commercial"}}}, {"type": "Feature", "geometry": {"type": "Polygon", "coordinates": [[[-95.6234286, 36.321818], [-95.6233485, 36.3218149], [-95.6233504, 36.3217457], [-95.6234328, 36.3217495], [-95.6234286, 36.321818]]]}, "properties": {"osm_id": 1376305403, "building": "yes", "name": "", "height": null, "height_m": null, "levels": null, "tract_id": "40131050104", "tract_name": "501.04", "tags": {"amenity": "shelter", "building": "yes"}}}, {"type": "Feature", "geometry": {"type": "Polygon", "coordinates": [[[-95.6264395, 36.3216299], [-95.6264173, 36.3216299], [-95.6264173, 36.3215772], [-95.6265668, 36.3215771], [-95.6265668, 36.3215679], [-95.6266138, 36.3215679], [-95.6266138, 36.3215775], [-95.6266289, 36.3215775], [-95.6266288, 36.3217226], [-95.626593, 36.3217226], [-95.626593, 36.3217383], [-95.6264762, 36.3217383], [-95.6264762, 36.3217237], [-95.6264395, 36.3217237], [-95.6264395, 36.3216299]]]}, "properties": {"osm_id": 1376305407, "building": "yes", "name": "", "height": null, "height_m": null, "levels": null, "tract_id": "40131050104", "tract_name": "501.04", "tags": {"building": "yes"}}}, {"type": "Feature", "geometry": {"type": "Polygon", "coordinates": [[[-95.6270749, 36.3217374], [-95.6269886, 36.3217372], [-95.6269887, 36.3216814], [-95.6269766, 36.3216813], [-95.6269767, 36.3216312], [-95.62699, 36.3216312], [-95.62699, 36.3216092], [-95.6271247, 36.3216095], [-95.6271245, 36.3216827], [-95.6270751, 36.3216826], [-95.6270749, 36.3217374]]]}, "properties": {"osm_id": 1376305408, "building": "yes", "name": "", "height": null, "height_m": null, "levels": null, "tract_id": "40131050104", "tract_name": "501.04", "tags": {"building": "yes"}}}, {"type": "Feature", "geometry": {"type": "Polygon", "coordinates": [[[-95.6273016, 36.3216842], [-95.6272012, 36.3216833], [-95.6272023, 36.3216017], [-95.6273026, 36.3216025], [-95.6273016, 36.3216842]]]}, "properties": {"osm_id": 1376305409, "building": "yes", "name": "", "height": null, "height_m": null, "levels": null, "tract_id": "40131050104", "tract_name": "501.04", "tags": {"building": "yes"}}}, {"type": "Feature", "geometry": {"type": "Polygon", "coordinates": [[[-95.6266784, 36.3212102], [-95.6265248, 36.3212104], [-95.6265243, 36.3210208], [-95.626678, 36.3210206], [-95.6266784, 36.3212102]]]}, "properties": {"osm_id": 1376305410, "building": "residential", "name": "", "height": null, "height_m": null, "levels": null, "tract_id": "40131050104", "tract_name": "501.04", "tags": {"building": "residential"}}}, {"type": "Feature", "geometry": {"type": "Polygon", "coordinates": [[[-95.626492, 36.3212102], [-95.6263384, 36.3212104], [-95.6263379, 36.3210208], [-95.6264916, 36.3210206], [-95.626492, 36.3212102]]]}, "properties": {"osm_id": 1376305411, "building": "residential", "name": "", "height": null, "height_m": null, "levels": null, "tract_id": "40131050104", "tract_name": "501.04", "tags": {"building": "residential"}}}, {"type": "Feature", "geometry": {"type": "Polygon", "coordinates": [[[-95.6263048, 36.3212095], [-95.6261512, 36.3212098], [-95.6261507, 36.3210202], [-95.6263044, 36.3210199], [-95.6263048, 36.3212095]]]}, "properties": {"osm_id": 1376305412, "building": "residential", "name": "", "height": null, "height_m": null, "levels": null, "tract_id": "40131050104", "tract_name": "501.04", "tags": {"building": "residential"}}}, {"type": "Feature", "geometry": {"type": "Polygon", "coordinates": [[[-95.6261184, 36.3212102], [-95.6259648, 36.3212104], [-95.6259643, 36.3210208], [-95.626118, 36.3210206], [-95.6261184, 36.3212102]]]}, "properties": {"osm_id": 1376305413, "building": "residential", "name": "", "height": null, "height_m": null, "levels": null, "tract_id": "40131050104", "tract_name": "501.04", "tags": {"building": "residential"}}}, {"type": "Feature", "geometry": {"type": "Polygon", "coordinates": [[[-95.6266265, 36.3193799], [-95.6266266, 36.3192678], [-95.6258344, 36.3192673], [-95.6258343, 36.3193793], [-95.6266265, 36.3193799]]]}, "properties": {"osm_id": 1376305414, "building": "yes", "name": "", "height": null, "height_m": null, "levels": null, "tract_id": "40131050104", "tract_name": "501.04", "tags": {"building": "yes"}}}, {"type": "Feature", "geometry": {"type": "Polygon", "coordinates": [[[-95.6258394, 36.3191261], [-95.6258369, 36.3184843], [-95.6259748, 36.318484], [-95.6259772, 36.3191258], [-95.6258394, 36.3191261]]]}, "properties": {"osm_id": 1376305415, "building": "yes", "name": "", "height": null, "height_m": null, "levels": null, "tract_id": "40131050104", "tract_name": "501.04", "tags": {"building": "yes"}}}, {"type": "Feature", "geometry": {"type": "Polygon", "coordinates": [[[-95.6266302, 36.3186116], [-95.6261252, 36.31861], [-95.6261219, 36.3184987], [-95.6266308, 36.3184981], [-95.6266302, 36.3186116]]]}, "properties": {"osm_id": 1376305416, "building": "yes", "name": "", "height": null, "height_m": null, "levels": null, "tract_id": "40131050104", "tract_name": "501.04", "tags": {"building": "yes"}}}, {"type": "Feature", "geometry": {"type": "Polygon", "coordinates": [[[-95.6265449, 36.3191385], [-95.6263921, 36.3191378], [-95.6263925, 36.3190848], [-95.6261372, 36.3190835], [-95.6261381, 36.3189669], [-95.6263913, 36.3189682], [-95.6263917, 36.3189128], [-95.6261838, 36.3189118], [-95.6261847, 36.3187954], [-95.6263975, 36.3187965], [-95.6263979, 36.3187441], [-95.6265459, 36.3187448], [-95.6265452, 36.3188378], [-95.6265623, 36.3188379], [-95.6265619, 36.3188872], [-95.6265757, 36.3188872], [-95.6265748, 36.3189956], [-95.6265637, 36.3189955], [-95.6265633, 36.3190441], [-95.6265456, 36.319044], [-95.6265449, 36.3191385]]]}, "properties": {"osm_id": 1376305417, "building": "yes", "name": "", "height": null, "height_m": null, "levels": null, "tract_id": "40131050104", "tract_name": "501.04", "tags": {"building": "yes"}}}]}