{"type": "FeatureCollection", "features": [{"type": "Feature", "geometry": {"type": "Polygon", "coordinates": [[[-95.3226255, 35.4937486], [-95.3226251, 35.4937291], [-95.3227391, 35.4937279], [-95.322739, 35.4936777], [-95.322624, 35.493679], [-95.3226185, 35.4934156], [-95.322195, 35.4934216], [-95.3221974, 35.493535], [-95.3221982, 35.4936157], [-95.3221978, 35.4937442], [-95.3223713, 35.4937446], [-95.3223711, 35.4937905], [-95.3223701, 35.4938219], [-95.322279, 35.4938215], [-95.3222801, 35.4939737], [-95.3227417, 35.4939737], [-95.3227436, 35.4938199], [-95.3226049, 35.4938191], [-95.3226057, 35.4937827], [-95.322605, 35.4937489], [-95.3226255, 35.4937486]]]}, "properties": {"osm_id": 129813326, "building": "yes", "name": "Library Resource Center", "height": null, "height_m": null, "levels": null, "tract_id": "40101001501", "tract_name": "15.01", "tags": {"addr:housename": "Library Resource Center", "amenity": "college", "building": "yes", "designation": "Library Resource Center", "name": "Library Resource Center"}}}, {"type": "Feature", "geometry": {"type": "Polygon", "coordinates": [[[-95.3205343, 35.4935365], [-95.3197493, 35.4935382], [-95.3197487, 35.493351], [-95.3197831, 35.4933509], [-95.3200067, 35.4933504], [-95.320007, 35.4934204], [-95.3205209, 35.4934193], [-95.320534, 35.4934193], [-95.3205343, 35.4935365]]]}, "properties": {"osm_id": 129813338, "building": "yes", "name": "McClarren Hall", "height": null, "height_m": null, "levels": null, "tract_id": "40101001501", "tract_name": "15.01", "tags": {"addr:housename": "McClarren Hall", "amenity": "college", "building": "yes", "designation": "McClarren Hall", "name": "McClarren Hall"}}}, {"type": "Feature", "geometry": {"type": "Polygon", "coordinates": [[[-95.3204028, 35.4925543], [-95.3201113, 35.4925549], [-95.3201107, 35.4923369], [-95.3201104, 35.4922111], [-95.3203015, 35.4922108], [-95.3203021, 35.4924334], [-95.3204025, 35.4924332], [-95.3204028, 35.4925543]]]}, "properties": {"osm_id": 129813778, "building": "yes", "name": "Classroom Building", "height": null, "height_m": null, "levels": null, "tract_id": "40101001501", "tract_name": "15.01", "tags": {"addr:housename": "Classroom Building", "amenity": "college", "building": "yes", "designation": "Classroom Building", "name": "Classroom Building"}}}, {"type": "Feature", "geometry": {"type": "Polygon", "coordinates": [[[-95.3205062, 35.49192], [-95.3200734, 35.4919102], [-95.3200731, 35.4917609], [-95.320071, 35.4917386], [-95.3200065, 35.49174], [-95.3200002, 35.4915419], [-95.3202705, 35.4915442], [-95.3202703, 35.4917434], [-95.3204994, 35.4917436], [-95.3205062, 35.49192]]]}, "properties": {"osm_id": 129813781, "building": "yes", "name": "Education Building", "height": null, "height_m": null, "levels": null, "tract_id": "40101001501", "tract_name": "15.01", "tags": {"addr:housename": "Education Building", "amenity": "college", "building": "yes", "designation": "Education Building", "name": "Education Building"}}}, {"type": "Feature", "geometry": {"type": "Polygon", "coordinates": [[[-95.3204563, 35.4931537], [-95.3201437, 35.4931546], [-95.3201418, 35.4927583], [-95.3204538, 35.492757], [-95.3204546, 35.4928921], [-95.3203074, 35.4928927], [-95.3203082, 35.4930222], [-95.3204557, 35.4930215], [-95.3204563, 35.4931537]]]}, "properties": {"osm_id": 129813782, "building": "yes", "name": "Holloway Hall", "height": null, "height_m": null, "levels": null, "tract_id": "40101001501", "tract_name": "15.01", "tags": {"addr:housename": "Holloway Hall", "amenity": "college", "building": "yes", "designation": "Holloway Hall", "name": "Holloway Hall"}}}, {"type": "Feature", "geometry": {"type": "Polygon", "coordinates": [[[-95.3184632, 35.492251], [-95.3183461, 35.4922476], [-95.318328, 35.4922472], [-95.3182041, 35.4922445], [-95.3182126, 35.4919894], [-95.318363, 35.4919928], [-95.3184744, 35.491996], [-95.3184632, 35.492251]]]}, "properties": {"osm_id": 129813783, "building": "yes", "name": "Millers Crossing Clubhouse", "height": null, "height_m": null, "levels": null, "tract_id": "40101001501", "tract_name": "15.01", "tags": {"addr:housename": "Millers Crossing Clubhouse", "amenity": "college", "building": "yes", "designation": "Millers Crossing Clubhouse", "name": "Millers Crossing Clubhouse"}}}, {"type": "Feature", "geometry": {"type": "Polygon", "coordinates": [[[-95.3184657, 35.4925687], [-95.3184725, 35.4924136], [-95.3183671, 35.4924106], [-95.3180265, 35.4924007], [-95.3179066, 35.4923972], [-95.3178998, 35.4925523], [-95.3184657, 35.4925687]]]}, "properties": {"osm_id": 129813784, "building": "yes", "name": "Millers Crossing A Building", "height": null, "height_m": null, "levels": null, "tract_id": "40101001501", "tract_name": "15.01", "tags": {"addr:housename": "Millers Crossing A Building", "amenity": "college", "building": "yes", "designation": "Millers Crossing A Building", "name": "Millers Crossing A Building"}}}, {"type": "Feature", "geometry": {"type": "Polygon", "coordinates": [[[-95.3194386, 35.4918439], [-95.3193192, 35.4918447], [-95.3190899, 35.491845], [-95.3190885, 35.4915416], [-95.3194372, 35.4915405], [-95.3194386, 35.4918439]]]}, "properties": {"osm_id": 129813785, "building": "yes", "name": "Fine Arts Auditorium", "height": null, "height_m": null, "levels": null, "tract_id": "40101001501", "tract_name": "15.01", "tags": {"addr:housename": "Fine Arts Auditorium", "amenity": "college", "building": "yes", "designation": "Fine Arts Auditorium", "name": "Fine Arts Auditorium"}}}, {"type": "Feature", "geometry": {"type": "Polygon", "coordinates": [[[-95.3197841, 35.4931155], [-95.3197866, 35.4926844], [-95.3192576, 35.4926823], [-95.3192566, 35.4928493], [-95.3192524, 35.4930703], [-95.3192562, 35.4931135], [-95.3197841, 35.4931155]]]}, "properties": {"osm_id": 129813786, "building": "yes", "name": "Student Union", "height": null, "height_m": null, "levels": null, "tract_id": "40101001501", "tract_name": "15.01", "tags": {"addr:housename": "Student Union", "amenity": "college", "building": "yes", "designation": "Student Union", "name": "Student Union"}}}, {"type": "Feature", "geometry": {"type": "Polygon", "coordinates": [[[-95.3176486, 35.4916263], [-95.3176383, 35.4917909], [-95.3178195, 35.4917984], [-95.31832, 35.4918192], [-95.3184885, 35.4918262], [-95.3184988, 35.4916616], [-95.3176486, 35.4916263]]]}, "properties": {"osm_id": 129813787, "building": "yes", "name": "Millers Crossing C Building", "height": null, "height_m": null, "levels": null, "tract_id": "40101001501", "tract_name": "15.01", "tags": {"addr:housename": "Millers Crossing C Building", "amenity": "college", "building": "yes", "designation": "Millers Crossing C Building", "name": "Millers Crossing C Building"}}}, {"type": "Feature", "geometry": {"type": "Polygon", "coordinates": [[[-95.3213086, 35.4924853], [-95.3211257, 35.492486], [-95.3211266, 35.492656], [-95.3211275, 35.4928118], [-95.3213104, 35.4928111], [-95.3213095, 35.4926516], [-95.3213086, 35.4924853]]]}, "properties": {"osm_id": 129813788, "building": "yes", "name": "Business Office", "height": null, "height_m": null, "levels": null, "tract_id": "40101001501", "tract_name": "15.01", "tags": {"addr:housename": "Business Office", "amenity": "college", "building": "yes", "designation": "Business Office", "name": "Business Office"}}}, {"type": "Feature", "geometry": {"type": "Polygon", "coordinates": [[[-95.3196337, 35.492366], [-95.3193595, 35.4923627], [-95.3193602, 35.4923256], [-95.3192873, 35.4923247], [-95.319289, 35.4922085], [-95.3194089, 35.4922099], [-95.3194109, 35.49212], [-95.3196145, 35.4921224], [-95.3196128, 35.4921942], [-95.319713, 35.4921954], [-95.3197109, 35.4923292], [-95.3196344, 35.4923282], [-95.3196337, 35.492366]]]}, "properties": {"osm_id": 129813790, "building": "yes", "name": "Jacob Johnson Building", "height": null, "height_m": null, "levels": null, "tract_id": "40101001501", "tract_name": "15.01", "tags": {"addr:housename": "Jacob Johnson Building", "amenity": "college", "building": "yes", "designation": "Jacob Johnson Building", "name": "Jacob Johnson Building"}}}, {"type": "Feature", "geometry": {"type": "Polygon", "coordinates": [[[-95.3178435, 35.4925487], [-95.317622, 35.4925404], [-95.3176615, 35.4918414], [-95.3178831, 35.4918497], [-95.3178724, 35.4920393], [-95.3178539, 35.4923646], [-95.3178435, 35.4925487]]]}, "properties": {"osm_id": 129813791, "building": "yes", "name": "Millers Crossing B Building", "height": null, "height_m": null, "levels": null, "tract_id": "40101001501", "tract_name": "15.01", "tags": {"addr:housename": "Millers Crossing B Building", "amenity": "college", "building": "yes", "designation": "Millers Crossing B Building", "name": "Millers Crossing B Building"}}}, {"type": "Feature", "geometry": {"type": "Polygon", "coordinates": [[[-95.3189838, 35.4929398], [-95.3187315, 35.4929392], [-95.3187318, 35.4928566], [-95.3188515, 35.4928569], [-95.3188528, 35.4925061], [-95.3187318, 35.4925058], [-95.3187322, 35.4924061], [-95.3189865, 35.4924067], [-95.3189855, 35.4926777], [-95.3189841, 35.4928481], [-95.3189838, 35.4929398]]]}, "properties": {"osm_id": 129813792, "building": "yes", "name": "Russell Hall", "height": null, "height_m": null, "levels": null, "tract_id": "40101001501", "tract_name": "15.01", "tags": {"addr:housename": "Russell Hall", "amenity": "college", "building": "yes", "designation": "Russell Hall", "name": "Russell Hall"}}}, {"type": "Feature", "geometry": {"type": "Polygon", "coordinates": [[[-95.3224675, 35.4929109], [-95.3221743, 35.4929156], [-95.3221732, 35.492868], [-95.3219278, 35.49287], [-95.3219175, 35.4923944], [-95.322275, 35.492389], [-95.3225887, 35.492384], [-95.3226945, 35.4923825], [-95.3227728, 35.4923821], [-95.3227726, 35.4925161], [-95.3226978, 35.4925173], [-95.3227035, 35.4928228], [-95.3224671, 35.4928234], [-95.3224675, 35.4929109]]]}, "properties": {"osm_id": 129813793, "building": "yes", "name": "Melvin Self Fieldhouse", "height": null, "height_m": null, "levels": null, "tract_id": "40101001501", "tract_name": "15.01", "tags": {"addr:housename": "Melvin Self Fieldhouse", "amenity": "college", "building": "yes", "designation": "Melvin Self Fieldhouse", "name": "Melvin Self Fieldhouse"}}}, {"type": "Feature", "geometry": {"type": "Polygon", "coordinates": [[[-95.3204516, 35.4884541], [-95.32032, 35.4884726], [-95.3203657, 35.4886888], [-95.3204974, 35.4886703], [-95.3204516, 35.4884541]]]}, "properties": {"osm_id": 129813866, "building": "yes", "name": "Indoor Softball Practice Building", "height": null, "height_m": null, "levels": null, "tract_id": "40101001501", "tract_name": "15.01", "tags": {"addr:housename": "Indoor Softball Practice Building", "amenity": "college", "building": "yes", "designation": "Indoor Softball Practice Building", "name": "Indoor Softball Practice Building"}}}, {"type": "Feature", "geometry": {"type": "Polygon", "coordinates": [[[-95.3201021, 35.4883887], [-95.3200229, 35.4884122], [-95.3199034, 35.4881453], [-95.3196736, 35.4882135], [-95.3196513, 35.4881636], [-95.3199602, 35.4880719], [-95.3201021, 35.4883887]]]}, "properties": {"osm_id": 129813868, "building": "yes", "name": "Softball Dugouts and Clubhouse", "height": null, "height_m": null, "levels": null, "tract_id": "40101001501", "tract_name": "15.01", "tags": {"addr:housename": "Softball Dugouts and Clubhouse", "amenity": "college", "building": "yes", "designation": "Softball Dugouts and Clubhouse", "name": "Softball Dugouts and Clubhouse"}}}, {"type": "Feature", "geometry": {"type": "Polygon", "coordinates": [[[-95.3195919, 35.4881127], [-95.3195039, 35.4881359], [-95.31947, 35.4880505], [-95.319558, 35.4880273], [-95.3195919, 35.4881127]]]}, "properties": {"osm_id": 129813869, "building": "yes", "name": "Softball Restrooms", "height": null, "height_m": null, "levels": null, "tract_id": "40101001501", "tract_name": "15.01", "tags": {"addr:housename": "Softball Restrooms", "amenity": "college", "building": "yes", "designation": "Softball Restrooms", "name": "Softball Restrooms"}}}, {"type": "Feature", "geometry": {"type": "Polygon", "coordinates": [[[-95.320006, 35.4901499], [-95.319854, 35.4901462], [-95.3198366, 35.4906257], [-95.3193347, 35.4906222], [-95.3193444, 35.490685], [-95.3196207, 35.4906877], [-95.3198453, 35.4906912], [-95.3199199, 35.4906397], [-95.3199203, 35.4904348], [-95.3199958, 35.4903893], [-95.320006, 35.4901499]]]}, "properties": {"osm_id": 129813870, "building": "yes", "name": "Baseball Dugouts & Indoor Practice Building", "height": null, "height_m": null, "levels": null, "tract_id": "40101001501", "tract_name": "15.01", "tags": {"addr:housename": "Baseball Dugouts & Indoor Practice Building", "amenity": "college", "building": "yes", "designation": "Baseball Dugouts & Indoor Practice Building", "name": "Baseball Dugouts & Indoor Practice Building"}}}, {"type": "Feature", "geometry": {"type": "Polygon", "coordinates": [[[-95.3209218, 35.4895266], [-95.3207227, 35.4895246], [-95.3207274, 35.4892134], [-95.3206641, 35.4890659], [-95.3208593, 35.4890488], [-95.3209236, 35.4891827], [-95.3209218, 35.4895266]]]}, "properties": {"osm_id": 129814731, "building": "yes", "name": "Physical Plant", "height": null, "height_m": null, "levels": null, "tract_id": "40101001501", "tract_name": "15.01", "tags": {"addr:housename": "Physical Plant", "amenity": "college", "building": "yes", "designation": "Physical Plant", "name": "Physical Plant"}}}, {"type": "Feature", "geometry": {"type": "Polygon", "coordinates": [[[-95.3244306, 35.4912594], [-95.3244169, 35.4914479], [-95.3241973, 35.4914374], [-95.324211, 35.4912488], [-95.3244306, 35.4912594]]]}, "properties": {"osm_id": 129814734, "building": "yes", "name": "Farm Offices", "height": null, "height_m": null, "levels": null, "tract_id": "40101001501", "tract_name": "15.01", "tags": {"addr:housename": "Farm Offices", "amenity": "college", "building": "yes", "designation": "Farm Offices", "name": "Farm Offices"}}}, {"type": "Feature", "geometry": {"type": "Polygon", "coordinates": [[[-95.3250023, 35.4950864], [-95.3249583, 35.4942721], [-95.3249541, 35.4940675], [-95.3254403, 35.4940399], [-95.325456, 35.494247], [-95.3258078, 35.4942248], [-95.3258381, 35.4945352], [-95.3256909, 35.4945457], [-95.3257057, 35.4947456], [-95.3254714, 35.4947564], [-95.3254914, 35.4950681], [-95.3250023, 35.4950864]]]}, "properties": {"osm_id": 129814750, "building": "yes", "name": "Outdoor Arena", "height": null, "height_m": null, "levels": null, "tract_id": "40101001501", "tract_name": "15.01", "tags": {"addr:housename": "Outdoor Arena", "amenity": "college", "building": "yes", "designation": "Outdoor Arena", "name": "Outdoor Arena"}}}, {"type": "Feature", "geometry": {"type": "Polygon", "coordinates": [[[-95.3231019, 35.4919714], [-95.3230996, 35.4917763], [-95.3233199, 35.4917751], [-95.3233207, 35.4918773], [-95.3235477, 35.4918787], [-95.3235459, 35.4919743], [-95.3231019, 35.4919714]]]}, "properties": {"osm_id": 129814751, "building": "yes", "name": "Greenhouses and Horticulture Classroom", "height": null, "height_m": null, "levels": null, "tract_id": "40101001501", "tract_name": "15.01", "tags": {"addr:housename": "Greenhouses and Horticulture Classroom", "amenity": "college", "building": "yes", "designation": "Greenhouses and Horticulture Classroom", "name": "Greenhouses and Horticulture Classroom"}}}, {"type": "Feature", "geometry": {"type": "Polygon", "coordinates": [[[-95.3199565, 35.4899533], [-95.3198756, 35.4899469], [-95.3198857, 35.4898624], [-95.3199666, 35.4898688], [-95.3199565, 35.4899533]]]}, "properties": {"osm_id": 129814753, "building": "yes", "name": "Baseball Restrooms", "height": null, "height_m": null, "levels": null, "tract_id": "40101001501", "tract_name": "15.01", "tags": {"addr:housename": "Baseball Restrooms", "amenity": "college", "building": "yes", "designation": "Baseball Restrooms", "name": "Baseball Restrooms"}}}, {"type": "Feature", "geometry": {"type": "Polygon", "coordinates": [[[-95.3241072, 35.4928049], [-95.3241067, 35.4926043], [-95.3242992, 35.492604], [-95.3242988, 35.4924214], [-95.3249978, 35.4924205], [-95.324999, 35.4929691], [-95.3243886, 35.4929699], [-95.3243883, 35.4928045], [-95.3241072, 35.4928049]]]}, "properties": {"osm_id": 129814759, "building": "yes", "name": "Bull Test Facility", "height": null, "height_m": null, "levels": null, "tract_id": "40101001501", "tract_name": "15.01", "tags": {"addr:housename": "Bull Test Facility", "amenity": "college", "building": "yes", "designation": "Bull Test Facility", "name": "Bull Test Facility"}}}, {"type": "Feature", "geometry": {"type": "Polygon", "coordinates": [[[-95.3231293, 35.4929243], [-95.3231316, 35.4929579], [-95.3231395, 35.4929766], [-95.3231632, 35.4930041], [-95.323197, 35.4930234], [-95.3232369, 35.4930322], [-95.323278, 35.4930293], [-95.3233287, 35.4930063], [-95.3233534, 35.4929794], [-95.3233654, 35.4929472], [-95.3233657, 35.4925061], [-95.3236872, 35.4925048], [-95.3236888, 35.4923852], [-95.3233517, 35.4923858], [-95.3233532, 35.4925281], [-95.3231489, 35.4925288], [-95.3231478, 35.4926512], [-95.3230421, 35.4926509], [-95.3230421, 35.4927863], [-95.3231307, 35.4927862], [-95.3231293, 35.4929243]]]}, "properties": {"osm_id": 129814765, "building": "yes", "name": "Barn & Horse Stables", "height": null, "height_m": null, "levels": null, "tract_id": "40101001501", "tract_name": "15.01", "tags": {"addr:housename": "Barn & Horse Stables", "amenity": "college", "building": "yes", "designation": "Barn & Horse Stables", "name": "Barn & Horse Stables"}}}, {"type": "Feature", "geometry": {"type": "Polygon", "coordinates": [[[-95.3248268, 35.4949997], [-95.3244321, 35.4950127], [-95.3244251, 35.4948223], [-95.32438, 35.494824], [-95.3243689, 35.4945235], [-95.3244145, 35.4945216], [-95.3244038, 35.4943207], [-95.3247979, 35.494308], [-95.3248268, 35.4949997]]]}, "properties": {"osm_id": 129814772, "building": "yes", "name": "Arena", "height": null, "height_m": null, "levels": null, "tract_id": "40101001501", "tract_name": "15.01", "tags": {"addr:housename": "Arena", "amenity": "college", "building": "yes", "designation": "Arena", "name": "Arena"}}}, {"type": "Feature", "geometry": {"type": "Polygon", "coordinates": [[[-95.3237864, 35.4935633], [-95.3239401, 35.4935605], [-95.3239354, 35.4933894], [-95.3237816, 35.4933922], [-95.3237864, 35.4935633]]]}, "properties": {"osm_id": 129814776, "building": "yes", "name": "Equine Classroom", "height": null, "height_m": null, "levels": null, "tract_id": "40101001501", "tract_name": "15.01", "tags": {"addr:housename": "Equine Classroom", "amenity": "college", "building": "yes", "designation": "Equine Classroom", "name": "Equine Classroom"}}}, {"type": "Feature", "geometry": {"type": "Polygon", "coordinates": [[[-95.3214504, 35.4914097], [-95.3213356, 35.4914119], [-95.3213271, 35.4911188], [-95.321442, 35.4911166], [-95.3214504, 35.4914097]]]}, "properties": {"osm_id": 129815561, "building": "yes", "name": "Faculty Housing", "height": null, "height_m": null, "levels": null, "tract_id": "40101001501", "tract_name": "15.01", "tags": {"building": "yes", "designation": "Faculty Housing", "name": "Faculty Housing"}}}, {"type": "Feature", "geometry": {"type": "Polygon", "coordinates": [[[-95.3209329, 35.4914116], [-95.3208256, 35.4914136], [-95.3208208, 35.4912371], [-95.3209281, 35.4912351], [-95.3209329, 35.4914116]]]}, "properties": {"osm_id": 129815564, "building": "yes", "name": "Faculty Housing", "height": null, "height_m": null, "levels": null, "tract_id": "40101001501", "tract_name": "15.01", "tags": {"building": "yes", "designation": "Faculty Housing", "name": "Faculty Housing"}}}, {"type": "Feature", "geometry": {"type": "Polygon", "coordinates": [[[-95.3213258, 35.4904072], [-95.3213691, 35.4904061], [-95.321372, 35.4904796], [-95.3212229, 35.4904835], [-95.3212176, 35.4903489], [-95.3213233, 35.4903461], [-95.3213258, 35.4904072]]]}, "properties": {"osm_id": 129815572, "building": "yes", "name": "Faculty Housing", "height": null, "height_m": null, "levels": null, "tract_id": "40101001501", "tract_name": "15.01", "tags": {"building": "yes", "designation": "Faculty Housing", "name": "Faculty Housing"}}}, {"type": "Feature", "geometry": {"type": "Polygon", "coordinates": [[[-95.3214319, 35.4915876], [-95.3212367, 35.4915935], [-95.3212319, 35.4914903], [-95.3214272, 35.4914844], [-95.3214319, 35.4915876]]]}, "properties": {"osm_id": 129815577, "building": "yes", "name": "Faculty Housing", "height": null, "height_m": null, "levels": null, "tract_id": "40101001501", "tract_name": "15.01", "tags": {"building": "yes", "designation": "Faculty Housing", "name": "Faculty Housing"}}}, {"type": "Feature", "geometry": {"type": "Polygon", "coordinates": [[[-95.3235636, 35.4912421], [-95.3232248, 35.4912399], [-95.3232228, 35.491173], [-95.3235647, 35.491169], [-95.3235636, 35.4912421]]]}, "properties": {"osm_id": 129815579, "building": "yes", "name": "Farm Building", "height": null, "height_m": null, "levels": null, "tract_id": "40101001501", "tract_name": "15.01", "tags": {"addr:housename": "Farm Building", "amenity": "college", "building": "yes", "designation": "Farm Building", "name": "Farm Building"}}}, {"type": "Feature", "geometry": {"type": "Polygon", "coordinates": [[[-95.3211081, 35.4935908], [-95.3209643, 35.4935916], [-95.3209631, 35.4934479], [-95.3211099, 35.4934472], [-95.3211101, 35.4934768], [-95.3211992, 35.4934764], [-95.321199, 35.4934532], [-95.3212851, 35.4934528], [-95.3212848, 35.4934223], [-95.3214189, 35.4934216], [-95.3214192, 35.4934498], [-95.321488, 35.4934495], [-95.3214882, 35.4934706], [-95.321569, 35.4934702], [-95.3215687, 35.493445], [-95.3216967, 35.4934443], [-95.3216978, 35.4935876], [-95.3215633, 35.4935883], [-95.3215631, 35.4935664], [-95.3214904, 35.4935668], [-95.3214907, 35.4935918], [-95.321408, 35.4935922], [-95.3212986, 35.4935928], [-95.3211997, 35.4935933], [-95.3211994, 35.4935686], [-95.3211078, 35.4935691], [-95.3211081, 35.4935908]]]}, "properties": {"osm_id": 129815583, "building": "yes", "name": "Gatlin Hall", "height": null, "height_m": null, "levels": null, "tract_id": "40101001501", "tract_name": "15.01", "tags": {"addr:housename": "Gatlin Hall", "amenity": "college", "building": "yes", "designation": "Gatlin Hall", "name": "Gatlin Hall"}}}, {"type": "Feature", "geometry": {"type": "Polygon", "coordinates": [[[-95.3209296, 35.4911139], [-95.3208017, 35.4911153], [-95.3207987, 35.490911], [-95.3209243, 35.4909097], [-95.3209296, 35.4911139]]]}, "properties": {"osm_id": 129815587, "building": "yes", "name": "Faculty Housing", "height": null, "height_m": null, "levels": null, "tract_id": "40101001501", "tract_name": "15.01", "tags": {"building": "yes", "designation": "Faculty Housing", "name": "Faculty Housing"}}}, {"type": "Feature", "geometry": {"type": "Polygon", "coordinates": [[[-95.3208986, 35.4901771], [-95.3207837, 35.4901788], [-95.3207784, 35.489935], [-95.3208932, 35.4899333], [-95.3208986, 35.4901771]]]}, "properties": {"osm_id": 129815588, "building": "yes", "name": "Faculty Housing", "height": null, "height_m": null, "levels": null, "tract_id": "40101001501", "tract_name": "15.01", "tags": {"building": "yes", "designation": "Faculty Housing", "name": "Faculty Housing"}}}, {"type": "Feature", "geometry": {"type": "Polygon", "coordinates": [[[-95.3250257, 35.4997982], [-95.3248448, 35.4997993], [-95.3248441, 35.4997256], [-95.3247306, 35.4997263], [-95.3247298, 35.4996353], [-95.3246784, 35.4996356], [-95.3246778, 35.4995762], [-95.3248141, 35.4995753], [-95.3248145, 35.4996187], [-95.3249756, 35.4996177], [-95.324975, 35.4995517], [-95.3250308, 35.4995513], [-95.3250306, 35.4995271], [-95.3251046, 35.4995267], [-95.3251049, 35.4995621], [-95.3250685, 35.4995623], [-95.3250695, 35.4996682], [-95.3250245, 35.4996685], [-95.3250257, 35.4997982]]]}, "properties": {"osm_id": 160272999, "building": "house", "name": "Connors State College Presidents House", "height": null, "height_m": null, "levels": null, "tract_id": "40101001501", "tract_name": "15.01", "tags": {"building": "house", "name": "Connors State College Presidents House"}}}, {"type": "Feature", "geometry": {"type": "Polygon", "coordinates": [[[-95.170248, 35.5534014], [-95.1701974, 35.5533403], [-95.1701671, 35.5533037], [-95.1698485, 35.5529188], [-95.1704979, 35.5525629], [-95.1706792, 35.5527819], [-95.1707033, 35.5527686], [-95.1707415, 35.5527477], [-95.1708112, 35.552832], [-95.1708349, 35.5528606], [-95.1709201, 35.5529635], [-95.1710352, 35.5529005], [-95.1710725, 35.5529454], [-95.170699, 35.55315], [-95.1707302, 35.5531876], [-95.1705864, 35.5532664], [-95.1705577, 35.5532317], [-95.170248, 35.5534014]]]}, "properties": {"osm_id": 209130777, "building": "yes", "name": "Webbers Falls", "height": null, "height_m": null, "levels": null, "tract_id": "40101001501", "tract_name": "15.01", "tags": {"building": "yes", "name": "Webbers Falls", "operator": "USCE-Tulsa District", "plant:output:electricity": "75 MW", "plant:source": "hydro", "power": "plant", "ref:US:EIA": "2987", "source": "U.S. Energy Information Administration - EIA-860 - 2021", "start_date": "1973-08", "wikidata": "Q65204187"}}}, {"type": "Feature", "geometry": {"type": "Polygon", "coordinates": [[[-95.1491401, 35.4854239], [-95.1490382, 35.4855703], [-95.1492098, 35.4856555], [-95.1493278, 35.4855222], [-95.1491401, 35.4854239]]]}, "properties": {"osm_id": 226297128, "building": "retail", "name": "", "height": null, "height_m": null, "levels": null, "tract_id": "40101001501", "tract_name": "15.01", "tags": {"building": "retail"}}}, {"type": "Feature", "geometry": {"type": "Polygon", "coordinates": [[[-95.1492795, 35.4862405], [-95.1491461, 35.4862399], [-95.1491449, 35.4864474], [-95.1491444, 35.4865326], [-95.1492779, 35.4865331], [-95.1492783, 35.4864475], [-95.1492795, 35.4862405]]]}, "properties": {"osm_id": 226297129, "building": "roof", "name": "", "height": null, "height_m": null, "levels": null, "tract_id": "40101001501", "tract_name": "15.01", "tags": {"building": "roof"}}}, {"type": "Feature", "geometry": {"type": "Polygon", "coordinates": [[[-95.184662, 35.5075793], [-95.1845041, 35.5074589], [-95.1846002, 35.5073755], [-95.184758, 35.507496], [-95.184662, 35.5075793]]]}, "properties": {"osm_id": 302549170, "building": "service", "name": "", "height": null, "height_m": null, "levels": null, "tract_id": "40101001501", "tract_name": "15.01", "tags": {"building": "service"}}}, {"type": "Feature", "geometry": {"type": "Polygon", "coordinates": [[[-95.3068708, 35.4793934], [-95.3069647, 35.4795678], [-95.3069787, 35.4795628], [-95.3069974, 35.4795975], [-95.3069833, 35.4796025], [-95.3070273, 35.4796841], [-95.3068545, 35.4797458], [-95.3067649, 35.4795793], [-95.3067997, 35.4795669], [-95.3067328, 35.4794427], [-95.3068708, 35.4793934]]]}, "properties": {"osm_id": 343053781, "building": "retail", "name": "Sinclair", "height": null, "height_m": null, "levels": null, "tract_id": "40101001501", "tract_name": "15.01", "tags": {"brand": "Sinclair", "brand:wikidata": "Q1290900", "building": "retail", "name": "Sinclair", "shop": "convenience"}}}, {"type": "Feature", "geometry": {"type": "Polygon", "coordinates": [[[-95.3073181, 35.4795965], [-95.3072229, 35.47963], [-95.3070171, 35.4792418], [-95.3071123, 35.4792083], [-95.3073181, 35.4795965]]]}, "properties": {"osm_id": 343053784, "building": "roof", "name": "", "height": null, "height_m": null, "levels": null, "tract_id": "40101001501", "tract_name": "15.01", "tags": {"amenity": "fuel", "brand": "Sinclair", "brand:wikidata": "Q1290900", "building": "roof"}}}, {"type": "Feature", "geometry": {"type": "Polygon", "coordinates": [[[-95.3068764, 35.4792298], [-95.3066265, 35.4791255], [-95.3066567, 35.4790776], [-95.3069066, 35.4791819], [-95.3068764, 35.4792298]]]}, "properties": {"osm_id": 343053785, "building": "roof", "name": "", "height": null, "height_m": null, "levels": null, "tract_id": "40101001501", "tract_name": "15.01", "tags": {"amenity": "fuel", "building": "roof"}}}, {"type": "Feature", "geometry": {"type": "Polygon", "coordinates": [[[-95.3076365, 35.496073], [-95.3076311, 35.4956799], [-95.3074541, 35.4956755], [-95.3074541, 35.496073], [-95.3076365, 35.496073]]]}, "properties": {"osm_id": 607209917, "building": "industrial", "name": "Gage\u2019s Fire Department", "height": null, "height_m": null, "levels": null, "tract_id": "40101001501", "tract_name": "15.01", "tags": {"addr:city": "Warner", "addr:housenumber": "1000", "addr:postcode": "74469", "addr:state": "OK", "addr:street": "US-64", "amenity": "fire_station", "building": "industrial", "name": "Gage\u2019s Fire Department", "operator": "Chief Steve Marshall"}}}, {"type": "Feature", "geometry": {"type": "Polygon", "coordinates": [[[-95.1817321, 35.4396827], [-95.1815651, 35.4396816], [-95.1815661, 35.4395844], [-95.1817331, 35.4395855], [-95.1817321, 35.4396827]]]}, "properties": {"osm_id": 843341488, "building": "yes", "name": "", "height": null, "height_m": null, "levels": null, "tract_id": "40101001501", "tract_name": "15.01", "tags": {"building": "yes"}}}, {"type": "Feature", "geometry": {"type": "Polygon", "coordinates": [[[-95.1841253, 35.4418493], [-95.1840515, 35.4418493], [-95.1840515, 35.4417963], [-95.1841253, 35.4417963], [-95.1841253, 35.4418493]]]}, "properties": {"osm_id": 843341489, "building": "yes", "name": "", "height": null, "height_m": null, "levels": null, "tract_id": "40101001501", "tract_name": "15.01", "tags": {"building": "yes"}}}, {"type": "Feature", "geometry": {"type": "Polygon", "coordinates": [[[-95.1821995, 35.4400416], [-95.1819961, 35.4400444], [-95.181992, 35.4398543], [-95.1821955, 35.4398515], [-95.1821995, 35.4400416]]]}, "properties": {"osm_id": 843341491, "building": "yes", "name": "The Elderberry Wine Company", "height": null, "height_m": null, "levels": null, "tract_id": "40101001501", "tract_name": "15.01", "tags": {"building": "yes", "craft": "winery", "name": "The Elderberry Wine Company"}}}, {"type": "Feature", "geometry": {"type": "Polygon", "coordinates": [[[-95.30689, 35.4947025], [-95.3068918, 35.4947962], [-95.3068148, 35.4947972], [-95.3068154, 35.4948239], [-95.3067193, 35.4948251], [-95.306717, 35.4947047], [-95.30689, 35.4947025]]]}, "properties": {"osm_id": 1024443536, "building": "yes", "name": "Warner", "height": null, "height_m": null, "levels": null, "tract_id": "40101001501", "tract_name": "15.01", "tags": {"amenity": "post_office", "building": "yes", "name": "Warner", "operator": "United States Postal Service", "operator:short": "USPS", "operator:type": "public", "operator:website": "https://www.usps.com", "operator:wikidata": "Q668687", "operator:wikipedia": "en:United States Postal Service", "short_name": "USPS"}}}, {"type": "Feature", "geometry": {"type": "Polygon", "coordinates": [[[-95.0812036, 35.4358982], [-95.0813145, 35.4359068], [-95.0812984, 35.4360445], [-95.0811875, 35.4360359], [-95.0812036, 35.4358982]]]}, "properties": {"osm_id": 1099721361, "building": "yes", "name": "", "height": null, "height_m": null, "levels": null, "tract_id": "40101001501", "tract_name": "15.01", "tags": {"building": "yes"}}}, {"type": "Feature", "geometry": {"type": "Polygon", "coordinates": [[[-95.3062798, 35.5080945], [-95.3061645, 35.5080956], [-95.3061637, 35.5080388], [-95.306279, 35.5080377], [-95.3062798, 35.5080945]]]}, "properties": {"osm_id": 1107943598, "building": "service", "name": "", "height": null, "height_m": null, "levels": null, "tract_id": "40101001501", "tract_name": "15.01", "tags": {"building": "service"}}}, {"type": "Feature", "geometry": {"type": "Polygon", "coordinates": [[[-95.1281733, 35.5115193], [-95.1285846, 35.5112184], [-95.1287864, 35.5114052], [-95.1287833, 35.5114341], [-95.1283304, 35.5117714], [-95.1281825, 35.5116372], [-95.1282472, 35.5115896], [-95.1281733, 35.5115193]]]}, "properties": {"osm_id": 1190734567, "building": "yes", "name": "", "height": null, "height_m": null, "levels": null, "tract_id": "40101001501", "tract_name": "15.01", "tags": {"building": "yes"}}}, {"type": "Feature", "geometry": {"type": "Polygon", "coordinates": [[[-95.166857, 35.4873214], [-95.1668909, 35.4872957], [-95.1667955, 35.4872123], [-95.1667616, 35.4872379], [-95.166857, 35.4873214]]]}, "properties": {"osm_id": 1227461180, "building": "service", "name": "", "height": null, "height_m": null, "levels": null, "tract_id": "40101001501", "tract_name": "15.01", "tags": {"building": "service"}}}, {"type": "Feature", "geometry": {"type": "Polygon", "coordinates": [[[-95.1517655, 35.4851452], [-95.1517655, 35.4847375], [-95.1514687, 35.4847346], [-95.1514615, 35.4851336], [-95.1517655, 35.4851452]]]}, "properties": {"osm_id": 1242061616, "building": "industrial", "name": "CM Auto & Tire", "height": null, "height_m": null, "levels": null, "tract_id": "40101001501", "tract_name": "15.01", "tags": {"building": "industrial", "name": "CM Auto & Tire", "shop": "tyres"}}}, {"type": "Feature", "geometry": {"type": "Polygon", "coordinates": [[[-95.15216, 35.4863214], [-95.1512907, 35.486318], [-95.151291, 35.486276], [-95.1520707, 35.4862789], [-95.1520716, 35.4861103], [-95.1520326, 35.4861102], [-95.1520345, 35.4857778], [-95.1521632, 35.4857783], [-95.15216, 35.4863214]]]}, "properties": {"osm_id": 1242061617, "building": "yes", "name": "", "height": null, "height_m": null, "levels": null, "tract_id": "40101001501", "tract_name": "15.01", "tags": {"building": "yes"}}}, {"type": "Feature", "geometry": {"type": "Polygon", "coordinates": [[[-95.1519788, 35.4862247], [-95.1519786, 35.4861627], [-95.1512956, 35.4861647], [-95.1512958, 35.4862266], [-95.1519788, 35.4862247]]]}, "properties": {"osm_id": 1242061618, "building": "yes", "name": "", "height": null, "height_m": null, "levels": null, "tract_id": "40101001501", "tract_name": "15.01", "tags": {"building": "yes"}}}, {"type": "Feature", "geometry": {"type": "Polygon", "coordinates": [[[-95.1514968, 35.4857214], [-95.1514925, 35.4855219], [-95.1514671, 35.4855222], [-95.1514665, 35.4854931], [-95.1514658, 35.4854635], [-95.1513695, 35.4854648], [-95.1513701, 35.4854921], [-95.1513705, 35.4855124], [-95.1513424, 35.4855128], [-95.1513469, 35.4857235], [-95.1514968, 35.4857214]]]}, "properties": {"osm_id": 1242061619, "building": "retail", "name": "Tobacco & Vape", "height": null, "height_m": null, "levels": null, "tract_id": "40101001501", "tract_name": "15.01", "tags": {"building": "retail", "name": "Tobacco & Vape", "shop": "tobacco"}}}, {"type": "Feature", "geometry": {"type": "Polygon", "coordinates": [[[-95.1682096, 35.5009313], [-95.1680091, 35.5007906], [-95.1684935, 35.5003328], [-95.1687001, 35.5004777], [-95.1684992, 35.5006676], [-95.1685235, 35.5006847], [-95.1685544, 35.5006554], [-95.1686598, 35.5007293], [-95.1686279, 35.5007595], [-95.1686438, 35.5007706], [-95.1686135, 35.5007993], [-95.168596, 35.5007871], [-95.1685691, 35.5008126], [-95.1684671, 35.5007411], [-95.1684979, 35.500712], [-95.1684656, 35.5006893], [-95.1682096, 35.5009313]]]}, "properties": {"osm_id": 1242067507, "building": "yes", "name": "", "height": null, "height_m": null, "levels": null, "tract_id": "40101001501", "tract_name": "15.01", "tags": {"building": "yes"}}}, {"type": "Feature", "geometry": {"type": "Polygon", "coordinates": [[[-95.1795756, 35.5086898], [-95.1793878, 35.5087822], [-95.1793337, 35.5087092], [-95.1793921, 35.5086805], [-95.1793595, 35.5086366], [-95.1794889, 35.5085729], [-95.1795756, 35.5086898]]]}, "properties": {"osm_id": 1242067510, "building": "yes", "name": "", "height": null, "height_m": null, "levels": null, "tract_id": "40101001501", "tract_name": "15.01", "tags": {"building": "yes"}}}, {"type": "Feature", "geometry": {"type": "Polygon", "coordinates": [[[-95.1792158, 35.5086616], [-95.1792073, 35.5086142], [-95.1791341, 35.5086229], [-95.1791427, 35.5086704], [-95.1792158, 35.5086616]]]}, "properties": {"osm_id": 1242067511, "building": "yes", "name": "", "height": null, "height_m": null, "levels": null, "tract_id": "40101001501", "tract_name": "15.01", "tags": {"building": "yes"}}}, {"type": "Feature", "geometry": {"type": "Polygon", "coordinates": [[[-95.1792142, 35.5086358], [-95.1792452, 35.5086321], [-95.179233, 35.5085645], [-95.179202, 35.5085682], [-95.1792142, 35.5086358]]]}, "properties": {"osm_id": 1242067512, "building": "yes", "name": "", "height": null, "height_m": null, "levels": null, "tract_id": "40101001501", "tract_name": "15.01", "tags": {"building": "yes"}}}, {"type": "Feature", "geometry": {"type": "Polygon", "coordinates": [[[-95.1793287, 35.5086031], [-95.1792653, 35.5086013], [-95.1792679, 35.5085411], [-95.1793313, 35.5085429], [-95.1793287, 35.5086031]]]}, "properties": {"osm_id": 1242067513, "building": "yes", "name": "", "height": null, "height_m": null, "levels": null, "tract_id": "40101001501", "tract_name": "15.01", "tags": {"building": "yes"}}}, {"type": "Feature", "geometry": {"type": "Polygon", "coordinates": [[[-95.1792649, 35.508539], [-95.1792326, 35.5085473], [-95.1792341, 35.508551], [-95.1792045, 35.5085586], [-95.1791909, 35.5085236], [-95.1791463, 35.508535], [-95.179136, 35.5085084], [-95.179181, 35.5084969], [-95.1791769, 35.5084862], [-95.1792056, 35.5084788], [-95.1792231, 35.5085241], [-95.1792559, 35.5085157], [-95.1792649, 35.508539]]]}, "properties": {"osm_id": 1242067514, "building": "yes", "name": "", "height": null, "height_m": null, "levels": null, "tract_id": "40101001501", "tract_name": "15.01", "tags": {"building": "yes"}}}, {"type": "Feature", "geometry": {"type": "Polygon", "coordinates": [[[-95.1791897, 35.5084629], [-95.1791783, 35.5084337], [-95.1792467, 35.5084159], [-95.1792582, 35.5084451], [-95.1791897, 35.5084629]]]}, "properties": {"osm_id": 1242067515, "building": "yes", "name": "", "height": null, "height_m": null, "levels": null, "tract_id": "40101001501", "tract_name": "15.01", "tags": {"building": "yes"}}}, {"type": "Feature", "geometry": {"type": "Polygon", "coordinates": [[[-95.1788789, 35.5089149], [-95.1788724, 35.5088688], [-95.1787196, 35.5088829], [-95.1787166, 35.5088616], [-95.1786816, 35.5088648], [-95.1786845, 35.5088857], [-95.1786123, 35.5088924], [-95.1786188, 35.5089389], [-95.1788789, 35.5089149]]]}, "properties": {"osm_id": 1242067516, "building": "yes", "name": "", "height": null, "height_m": null, "levels": null, "tract_id": "40101001501", "tract_name": "15.01", "tags": {"building": "yes"}}}, {"type": "Feature", "geometry": {"type": "Polygon", "coordinates": [[[-95.1789652, 35.5088413], [-95.1789609, 35.5087896], [-95.1788868, 35.5087937], [-95.1788911, 35.5088454], [-95.1789652, 35.5088413]]]}, "properties": {"osm_id": 1242067517, "building": "yes", "name": "", "height": null, "height_m": null, "levels": null, "tract_id": "40101001501", "tract_name": "15.01", "tags": {"building": "yes"}}}, {"type": "Feature", "geometry": {"type": "Polygon", "coordinates": [[[-95.178809, 35.509045], [-95.1787965, 35.5090135], [-95.1787177, 35.5090342], [-95.1787302, 35.5090657], [-95.178809, 35.509045]]]}, "properties": {"osm_id": 1242067518, "building": "quonset_hut", "name": "", "height": null, "height_m": null, "levels": null, "tract_id": "40101001501", "tract_name": "15.01", "tags": {"building": "quonset_hut"}}}, {"type": "Feature", "geometry": {"type": "Polygon", "coordinates": [[[-95.1783318, 35.5084581], [-95.1780859, 35.5083733], [-95.1780166, 35.5085065], [-95.1782624, 35.5085913], [-95.1783318, 35.5084581]]]}, "properties": {"osm_id": 1242067519, "building": "yes", "name": "", "height": null, "height_m": null, "levels": null, "tract_id": "40101001501", "tract_name": "15.01", "tags": {"building": "yes"}}}, {"type": "Feature", "geometry": {"type": "Polygon", "coordinates": [[[-95.1778936, 35.5081744], [-95.1778851, 35.508087], [-95.1777109, 35.5080982], [-95.1777194, 35.5081856], [-95.1778936, 35.5081744]]]}, "properties": {"osm_id": 1242067520, "building": "yes", "name": "", "height": null, "height_m": null, "levels": null, "tract_id": "40101001501", "tract_name": "15.01", "tags": {"building": "yes"}}}, {"type": "Feature", "geometry": {"type": "Polygon", "coordinates": [[[-95.1768779, 35.5083643], [-95.176843, 35.5082896], [-95.1767757, 35.5083105], [-95.1767654, 35.5082885], [-95.1767, 35.5083088], [-95.1767102, 35.5083305], [-95.1766731, 35.508342], [-95.1767078, 35.5084164], [-95.1767622, 35.5083996], [-95.1767769, 35.5084309], [-95.1768172, 35.5084185], [-95.1768028, 35.5083876], [-95.1768779, 35.5083643]]]}, "properties": {"osm_id": 1242067521, "building": "yes", "name": "", "height": null, "height_m": null, "levels": null, "tract_id": "40101001501", "tract_name": "15.01", "tags": {"building": "yes"}}}, {"type": "Feature", "geometry": {"type": "Polygon", "coordinates": [[[-95.1935849, 35.5210234], [-95.1936028, 35.5208473], [-95.1934669, 35.5208328], [-95.1934365, 35.5210089], [-95.1935849, 35.5210234]]]}, "properties": {"osm_id": 1242067522, "building": "yes", "name": "", "height": null, "height_m": null, "levels": null, "tract_id": "40101001501", "tract_name": "15.01", "tags": {"building": "yes"}}}, {"type": "Feature", "geometry": {"type": "Polygon", "coordinates": [[[-95.1939824, 35.5208565], [-95.1939916, 35.5208287], [-95.194113, 35.5208552], [-95.1941201, 35.5208335], [-95.1941787, 35.5208464], [-95.194198, 35.520788], [-95.1941326, 35.5207737], [-95.1941431, 35.520742], [-95.1938524, 35.5206785], [-95.1938178, 35.5207834], [-95.193859, 35.5207924], [-95.1938476, 35.520827], [-95.1939824, 35.5208565]]]}, "properties": {"osm_id": 1242067523, "building": "yes", "name": "", "height": null, "height_m": null, "levels": null, "tract_id": "40101001501", "tract_name": "15.01", "tags": {"building": "yes"}}}, {"type": "Feature", "geometry": {"type": "Polygon", "coordinates": [[[-95.1971433, 35.5218932], [-95.197148, 35.5217627], [-95.1970381, 35.5217601], [-95.197038, 35.5217636], [-95.1970112, 35.521763], [-95.1970067, 35.5218899], [-95.1971433, 35.5218932]]]}, "properties": {"osm_id": 1242067524, "building": "yes", "name": "", "height": null, "height_m": null, "levels": null, "tract_id": "40101001501", "tract_name": "15.01", "tags": {"building": "yes"}}}, {"type": "Feature", "geometry": {"type": "Polygon", "coordinates": [[[-95.1972199, 35.5216376], [-95.1972187, 35.5216001], [-95.1971593, 35.5216014], [-95.1971605, 35.5216389], [-95.1972199, 35.5216376]]]}, "properties": {"osm_id": 1242067525, "building": "yes", "name": "", "height": null, "height_m": null, "levels": null, "tract_id": "40101001501", "tract_name": "15.01", "tags": {"building": "yes"}}}, {"type": "Feature", "geometry": {"type": "Polygon", "coordinates": [[[-95.1960148, 35.5218993], [-95.1960069, 35.5217369], [-95.1958904, 35.5217407], [-95.1958982, 35.521903], [-95.1960148, 35.5218993]]]}, "properties": {"osm_id": 1242067526, "building": "yes", "name": "", "height": null, "height_m": null, "levels": null, "tract_id": "40101001501", "tract_name": "15.01", "tags": {"building": "yes"}}}, {"type": "Feature", "geometry": {"type": "Polygon", "coordinates": [[[-95.1961012, 35.5218728], [-95.1960975, 35.5218117], [-95.1960347, 35.5218142], [-95.1960383, 35.5218753], [-95.1961012, 35.5218728]]]}, "properties": {"osm_id": 1242067527, "building": "yes", "name": "", "height": null, "height_m": null, "levels": null, "tract_id": "40101001501", "tract_name": "15.01", "tags": {"building": "yes"}}}, {"type": "Feature", "geometry": {"type": "Polygon", "coordinates": [[[-95.1984117, 35.5230136], [-95.1984114, 35.5229405], [-95.1984971, 35.5229403], [-95.1984971, 35.5229296], [-95.1986318, 35.5229293], [-95.1986317, 35.522918], [-95.198698, 35.5229178], [-95.1986984, 35.5230229], [-95.1986453, 35.523023], [-95.1986454, 35.5230504], [-95.1985292, 35.5230506], [-95.1985291, 35.523022], [-95.1984914, 35.5230221], [-95.1984913, 35.5230134], [-95.1984117, 35.5230136]]]}, "properties": {"osm_id": 1242067528, "building": "yes", "name": "", "height": null, "height_m": null, "levels": null, "tract_id": "40101001501", "tract_name": "15.01", "tags": {"building": "yes"}}}, {"type": "Feature", "geometry": {"type": "Polygon", "coordinates": [[[-95.2002914, 35.5248323], [-95.200248, 35.5247635], [-95.2004797, 35.5246667], [-95.2005232, 35.5247357], [-95.2004351, 35.5247725], [-95.2004493, 35.5247951], [-95.2004213, 35.5248068], [-95.2004069, 35.5247841], [-95.2002914, 35.5248323]]]}, "properties": {"osm_id": 1242067529, "building": "yes", "name": "", "height": null, "height_m": null, "levels": null, "tract_id": "40101001501", "tract_name": "15.01", "tags": {"building": "yes"}}}, {"type": "Feature", "geometry": {"type": "Polygon", "coordinates": [[[-95.201305, 35.5190371], [-95.2012644, 35.5189186], [-95.2011352, 35.5189478], [-95.2011757, 35.5190664], [-95.201305, 35.5190371]]]}, "properties": {"osm_id": 1242067530, "building": "yes", "name": "", "height": null, "height_m": null, "levels": null, "tract_id": "40101001501", "tract_name": "15.01", "tags": {"building": "yes"}}}, {"type": "Feature", "geometry": {"type": "Polygon", "coordinates": [[[-95.2012959, 35.5193663], [-95.2012538, 35.51924], [-95.2011651, 35.5192596], [-95.2012072, 35.5193859], [-95.2012959, 35.5193663]]]}, "properties": {"osm_id": 1242067531, "building": "yes", "name": "", "height": null, "height_m": null, "levels": null, "tract_id": "40101001501", "tract_name": "15.01", "tags": {"building": "yes"}}}, {"type": "Feature", "geometry": {"type": "Polygon", "coordinates": [[[-95.2131353, 35.5268478], [-95.2132883, 35.5268215], [-95.2132499, 35.5266734], [-95.2132957, 35.5266655], [-95.2132781, 35.5265974], [-95.2130793, 35.5266315], [-95.2131353, 35.5268478]]]}, "properties": {"osm_id": 1242067532, "building": "yes", "name": "", "height": null, "height_m": null, "levels": null, "tract_id": "40101001501", "tract_name": "15.01", "tags": {"building": "yes"}}}, {"type": "Feature", "geometry": {"type": "Polygon", "coordinates": [[[-95.2131919, 35.5265456], [-95.213173, 35.526465], [-95.2131333, 35.5264712], [-95.2131257, 35.5264387], [-95.2130557, 35.5264496], [-95.2130822, 35.5265627], [-95.2131919, 35.5265456]]]}, "properties": {"osm_id": 1242067533, "building": "yes", "name": "", "height": null, "height_m": null, "levels": null, "tract_id": "40101001501", "tract_name": "15.01", "tags": {"building": "yes"}}}, {"type": "Feature", "geometry": {"type": "Polygon", "coordinates": [[[-95.2130542, 35.5264947], [-95.2130261, 35.5263958], [-95.2129603, 35.5264082], [-95.2129667, 35.5264305], [-95.2129282, 35.5264377], [-95.21295, 35.5265143], [-95.2130542, 35.5264947]]]}, "properties": {"osm_id": 1242067534, "building": "yes", "name": "", "height": null, "height_m": null, "levels": null, "tract_id": "40101001501", "tract_name": "15.01", "tags": {"building": "yes"}}}, {"type": "Feature", "geometry": {"type": "Polygon", "coordinates": [[[-95.2130607, 35.5270875], [-95.2129638, 35.5269702], [-95.2127864, 35.5270673], [-95.2128832, 35.5271846], [-95.2130607, 35.5270875]]]}, "properties": {"osm_id": 1242067535, "building": "yes", "name": "", "height": null, "height_m": null, "levels": null, "tract_id": "40101001501", "tract_name": "15.01", "tags": {"building": "yes"}}}, {"type": "Feature", "geometry": {"type": "Polygon", "coordinates": [[[-95.2116114, 35.5289354], [-95.2116293, 35.5288673], [-95.2117444, 35.5288873], [-95.2117266, 35.5289554], [-95.2116114, 35.5289354]]]}, "properties": {"osm_id": 1242067536, "building": "yes", "name": "", "height": null, "height_m": null, "levels": null, "tract_id": "40101001501", "tract_name": "15.01", "tags": {"building": "yes"}}}, {"type": "Feature", "geometry": {"type": "Polygon", "coordinates": [[[-95.211727, 35.5289839], [-95.211622, 35.5289575], [-95.2115972, 35.5290226], [-95.2117023, 35.529049], [-95.211727, 35.5289839]]]}, "properties": {"osm_id": 1242067537, "building": "yes", "name": "", "height": null, "height_m": null, "levels": null, "tract_id": "40101001501", "tract_name": "15.01", "tags": {"building": "yes"}}}, {"type": "Feature", "geometry": {"type": "Polygon", "coordinates": [[[-95.2114514, 35.5292039], [-95.2113989, 35.5291889], [-95.2113945, 35.5291991], [-95.2113406, 35.5291838], [-95.2113488, 35.5291647], [-95.2113111, 35.5291539], [-95.2113266, 35.5291178], [-95.2113678, 35.5291295], [-95.2114211, 35.5290054], [-95.2114679, 35.5290188], [-95.2114371, 35.5290903], [-95.2114934, 35.5291063], [-95.2114514, 35.5292039]]]}, "properties": {"osm_id": 1242067538, "building": "yes", "name": "", "height": null, "height_m": null, "levels": null, "tract_id": "40101001501", "tract_name": "15.01", "tags": {"building": "yes"}}}, {"type": "Feature", "geometry": {"type": "Polygon", "coordinates": [[[-95.210256, 35.5292371], [-95.2102768, 35.5291816], [-95.2102591, 35.5291772], [-95.2102733, 35.5291394], [-95.2102495, 35.5291335], [-95.2102532, 35.5291236], [-95.2101401, 35.5290955], [-95.2101013, 35.5291987], [-95.210256, 35.5292371]]]}, "properties": {"osm_id": 1242067540, "building": "yes", "name": "", "height": null, "height_m": null, "levels": null, "tract_id": "40101001501", "tract_name": "15.01", "tags": {"building": "yes"}}}, {"type": "Feature", "geometry": {"type": "Polygon", "coordinates": [[[-95.2101169, 35.5291211], [-95.2101437, 35.5290522], [-95.2100382, 35.5290251], [-95.2100115, 35.529094], [-95.2101169, 35.5291211]]]}, "properties": {"osm_id": 1242067541, "building": "yes", "name": "", "height": null, "height_m": null, "levels": null, "tract_id": "40101001501", "tract_name": "15.01", "tags": {"building": "yes"}}}, {"type": "Feature", "geometry": {"type": "Polygon", "coordinates": [[[-95.209796, 35.5294208], [-95.2097576, 35.5294095], [-95.2097835, 35.5293509], [-95.2098219, 35.5293622], [-95.209796, 35.5294208]]]}, "properties": {"osm_id": 1242067542, "building": "yes", "name": "", "height": null, "height_m": null, "levels": null, "tract_id": "40101001501", "tract_name": "15.01", "tags": {"building": "yes"}}}, {"type": "Feature", "geometry": {"type": "Polygon", "coordinates": [[[-95.230212, 35.5516574], [-95.2301622, 35.5514693], [-95.2304222, 35.5514237], [-95.2304721, 35.5516117], [-95.230212, 35.5516574]]]}, "properties": {"osm_id": 1242067543, "building": "yes", "name": "", "height": null, "height_m": null, "levels": null, "tract_id": "40101001501", "tract_name": "15.01", "tags": {"building": "yes"}}}, {"type": "Feature", "geometry": {"type": "Polygon", "coordinates": [[[-95.2305626, 35.5515522], [-95.2305185, 35.5513865], [-95.2306389, 35.5513652], [-95.230683, 35.551531], [-95.2305626, 35.5515522]]]}, "properties": {"osm_id": 1242067544, "building": "yes", "name": "", "height": null, "height_m": null, "levels": null, "tract_id": "40101001501", "tract_name": "15.01", "tags": {"building": "yes"}}}, {"type": "Feature", "geometry": {"type": "Polygon", "coordinates": [[[-95.2497736, 35.5737093], [-95.2497678, 35.5736198], [-95.2496609, 35.5736244], [-95.2496666, 35.5737139], [-95.2497736, 35.5737093]]]}, "properties": {"osm_id": 1242067549, "building": "yes", "name": "", "height": null, "height_m": null, "levels": null, "tract_id": "40101001501", "tract_name": "15.01", "tags": {"building": "yes"}}}, {"type": "Feature", "geometry": {"type": "Polygon", "coordinates": [[[-95.2497922, 35.5738106], [-95.2497905, 35.5737741], [-95.2500262, 35.573767], [-95.2500278, 35.5738036], [-95.2497922, 35.5738106]]]}, "properties": {"osm_id": 1242067550, "building": "yes", "name": "", "height": null, "height_m": null, "levels": null, "tract_id": "40101001501", "tract_name": "15.01", "tags": {"building": "yes"}}}, {"type": "Feature", "geometry": {"type": "Polygon", "coordinates": [[[-95.2502131, 35.5738114], [-95.2500539, 35.5738098], [-95.2500527, 35.5738909], [-95.2502119, 35.5738924], [-95.2502131, 35.5738114]]]}, "properties": {"osm_id": 1242067551, "building": "yes", "name": "", "height": null, "height_m": null, "levels": null, "tract_id": "40101001501", "tract_name": "15.01", "tags": {"building": "yes"}}}, {"type": "Feature", "geometry": {"type": "Polygon", "coordinates": [[[-95.2506041, 35.5740913], [-95.2506042, 35.5740501], [-95.250307, 35.5740496], [-95.2503069, 35.5740908], [-95.2506041, 35.5740913]]]}, "properties": {"osm_id": 1242067552, "building": "static_caravan", "name": "", "height": null, "height_m": null, "levels": null, "tract_id": "40101001501", "tract_name": "15.01", "tags": {"building": "static_caravan"}}}, {"type": "Feature", "geometry": {"type": "Polygon", "coordinates": [[[-95.2512798, 35.5758921], [-95.2512732, 35.5756823], [-95.2511289, 35.5756853], [-95.2511355, 35.5758951], [-95.2512798, 35.5758921]]]}, "properties": {"osm_id": 1242067553, "building": "yes", "name": "", "height": null, "height_m": null, "levels": null, "tract_id": "40101001501", "tract_name": "15.01", "tags": {"building": "yes"}}}, {"type": "Feature", "geometry": {"type": "Polygon", "coordinates": [[[-95.2508209, 35.5760538], [-95.2508208, 35.5760084], [-95.2507256, 35.5760087], [-95.2507258, 35.5760541], [-95.2508209, 35.5760538]]]}, "properties": {"osm_id": 1242067554, "building": "yes", "name": "", "height": null, "height_m": null, "levels": null, "tract_id": "40101001501", "tract_name": "15.01", "tags": {"building": "yes"}}}, {"type": "Feature", "geometry": {"type": "Polygon", "coordinates": [[[-95.2506432, 35.5756799], [-95.2506402, 35.5755702], [-95.250552, 35.5755718], [-95.2505549, 35.5756815], [-95.2506432, 35.5756799]]]}, "properties": {"osm_id": 1242067555, "building": "yes", "name": "", "height": null, "height_m": null, "levels": null, "tract_id": "40101001501", "tract_name": "15.01", "tags": {"building": "yes"}}}, {"type": "Feature", "geometry": {"type": "Polygon", "coordinates": [[[-95.2505568, 35.5758744], [-95.2505405, 35.5756985], [-95.2504512, 35.575704], [-95.2504675, 35.5758798], [-95.2505568, 35.5758744]]]}, "properties": {"osm_id": 1242067556, "building": "yes", "name": "", "height": null, "height_m": null, "levels": null, "tract_id": "40101001501", "tract_name": "15.01", "tags": {"building": "yes"}}}, {"type": "Feature", "geometry": {"type": "Polygon", "coordinates": [[[-95.2505716, 35.5760059], [-95.2505613, 35.5759077], [-95.2504725, 35.5759139], [-95.2504828, 35.5760121], [-95.2505716, 35.5760059]]]}, "properties": {"osm_id": 1242067557, "building": "yes", "name": "", "height": null, "height_m": null, "levels": null, "tract_id": "40101001501", "tract_name": "15.01", "tags": {"building": "yes"}}}, {"type": "Feature", "geometry": {"type": "Polygon", "coordinates": [[[-95.25046, 35.5762294], [-95.2504542, 35.5763483], [-95.2503115, 35.5763438], [-95.2503172, 35.5762248], [-95.25046, 35.5762294]]]}, "properties": {"osm_id": 1242067558, "building": "yes", "name": "", "height": null, "height_m": null, "levels": null, "tract_id": "40101001501", "tract_name": "15.01", "tags": {"building": "yes"}}}, {"type": "Feature", "geometry": {"type": "Polygon", "coordinates": [[[-95.2511528, 35.5778781], [-95.2511577, 35.5778093], [-95.2511776, 35.5778103], [-95.2511801, 35.577776], [-95.2511636, 35.5777752], [-95.2511693, 35.5776956], [-95.2510331, 35.5776891], [-95.25102, 35.5778718], [-95.2511528, 35.5778781]]]}, "properties": {"osm_id": 1242067559, "building": "yes", "name": "", "height": null, "height_m": null, "levels": null, "tract_id": "40101001501", "tract_name": "15.01", "tags": {"building": "yes"}}}, {"type": "Feature", "geometry": {"type": "Polygon", "coordinates": [[[-95.2508099, 35.5778015], [-95.2507249, 35.5778592], [-95.2506372, 35.5777739], [-95.2507222, 35.5777161], [-95.2508099, 35.5778015]]]}, "properties": {"osm_id": 1242067560, "building": "yes", "name": "", "height": null, "height_m": null, "levels": null, "tract_id": "40101001501", "tract_name": "15.01", "tags": {"building": "yes"}}}, {"type": "Feature", "geometry": {"type": "Polygon", "coordinates": [[[-95.2546751, 35.582956], [-95.2545381, 35.5829568], [-95.2545391, 35.5830645], [-95.2545142, 35.5830646], [-95.2545148, 35.5831286], [-95.2545391, 35.5831285], [-95.2545395, 35.5831747], [-95.2546791, 35.583174], [-95.2546785, 35.5831022], [-95.2547052, 35.5831021], [-95.2547049, 35.5830656], [-95.2546761, 35.5830658], [-95.2546751, 35.582956]]]}, "properties": {"osm_id": 1242067571, "building": "yes", "name": "", "height": null, "height_m": null, "levels": null, "tract_id": "40101001501", "tract_name": "15.01", "tags": {"building": "yes"}}}, {"type": "Feature", "geometry": {"type": "Polygon", "coordinates": [[[-95.2542928, 35.5832235], [-95.2542998, 35.5831653], [-95.254192, 35.5831568], [-95.2541851, 35.583215], [-95.2542928, 35.5832235]]]}, "properties": {"osm_id": 1242067572, "building": "yes", "name": "", "height": null, "height_m": null, "levels": null, "tract_id": "40101001501", "tract_name": "15.01", "tags": {"building": "yes"}}}, {"type": "Feature", "geometry": {"type": "Polygon", "coordinates": [[[-95.2543759, 35.583235], [-95.2543335, 35.5832353], [-95.2543326, 35.5831641], [-95.254375, 35.5831637], [-95.2543759, 35.583235]]]}, "properties": {"osm_id": 1242067573, "building": "yes", "name": "", "height": null, "height_m": null, "levels": null, "tract_id": "40101001501", "tract_name": "15.01", "tags": {"building": "yes"}}}, {"type": "Feature", "geometry": {"type": "Polygon", "coordinates": [[[-95.2548993, 35.5834884], [-95.2548775, 35.5833887], [-95.2546751, 35.583418], [-95.2546968, 35.5835176], [-95.2548993, 35.5834884]]]}, "properties": {"osm_id": 1242067574, "building": "yes", "name": "", "height": null, "height_m": null, "levels": null, "tract_id": "40101001501", "tract_name": "15.01", "tags": {"building": "yes"}}}, {"type": "Feature", "geometry": {"type": "Polygon", "coordinates": [[[-95.2545276, 35.5837124], [-95.2545145, 35.5836432], [-95.2544659, 35.5836493], [-95.254479, 35.5837185], [-95.2545276, 35.5837124]]]}, "properties": {"osm_id": 1242067575, "building": "yes", "name": "", "height": null, "height_m": null, "levels": null, "tract_id": "40101001501", "tract_name": "15.01", "tags": {"building": "yes"}}}, {"type": "Feature", "geometry": {"type": "Polygon", "coordinates": [[[-95.1485015, 35.4866877], [-95.1482651, 35.486686], [-95.1480281, 35.4866844], [-95.1480288, 35.4866199], [-95.1482661, 35.4866216], [-95.1485022, 35.4866232], [-95.1485015, 35.4866877]]]}, "properties": {"osm_id": 1254374135, "building": "roof", "name": "", "height": null, "height_m": null, "levels": null, "tract_id": "40101001501", "tract_name": "15.01", "tags": {"building": "roof"}}}, {"type": "Feature", "geometry": {"type": "Polygon", "coordinates": [[[-95.1486181, 35.4864935], [-95.1485939, 35.4864935], [-95.1485924, 35.4861896], [-95.1488744, 35.4861887], [-95.1488759, 35.4864926], [-95.1486181, 35.4864935]]]}, "properties": {"osm_id": 1254374136, "building": "retail", "name": "Love's Country Store", "height": null, "height_m": 3.0, "levels": 1, "tract_id": "40101001501", "tract_name": "15.01", "tags": {"addr:city": "Webbers Falls", "addr:housenumber": "214", "addr:postcode": "74470", "addr:state": "OK", "addr:street": "South Highway 100", "building": "retail", "building:levels": "1", "changing_table": "yes", "check_date": "2024-01-21", "name": "Love's Country Store", "opening_hours": "24/7", "phone": "+1 918 464 2865", "ref": "255", "roof:colour": "white", "roof:levels": "0", "roof:shape": "flat", "shop": "convenience", "toilets": "yes", "toilets:wheelchair": "yes"}}}, {"type": "Feature", "geometry": {"type": "Polygon", "coordinates": [[[-95.1488759, 35.4864926], [-95.148876, 35.4865086], [-95.1488986, 35.4865086], [-95.148899, 35.4866072], [-95.1486187, 35.4866081], [-95.1486181, 35.4864935], [-95.1488759, 35.4864926]]]}, "properties": {"osm_id": 1254374137, "building": "retail", "name": "Subway", "height": null, "height_m": 3.0, "levels": 1, "tract_id": "40101001501", "tract_name": "15.01", "tags": {"addr:city": "Webbers Falls", "addr:housenumber": "214", "addr:postcode": "74470", "addr:state": "OK", "addr:street": "South Highway 100", "amenity": "fast_food", "brand": "Subway", "brand:wikidata": "Q244457", "building": "retail", "building:levels": "1", "cuisine": "sandwich", "name": "Subway", "opening_hours": "06:00-23:00", "phone": "+1 918-464-2865", "roof:colour": "white", "roof:levels": "0", "roof:shape": "flat", "takeaway": "yes", "website": "https://restaurants.subway.com/united-states/ok/webbers-falls/214-south-hwy-100"}}}, {"type": "Feature", "geometry": {"type": "Polygon", "coordinates": [[[-95.1507935, 35.4860117], [-95.1505132, 35.4860139], [-95.150512, 35.4859101], [-95.1507923, 35.485908], [-95.1507935, 35.4860117]]]}, "properties": {"osm_id": 1254374138, "building": "retail", "name": "Cox's Country Buffet", "height": null, "height_m": null, "levels": null, "tract_id": "40101001501", "tract_name": "15.01", "tags": {"amenity": "restaurant", "building": "retail", "cuisine": "american", "indoor_seating": "yes", "name": "Cox's Country Buffet", "outdoor_seating": "no"}}}]}