{"type": "FeatureCollection", "features": [{"type": "Feature", "geometry": {"type": "Polygon", "coordinates": [[[-98.3182869, 34.5931202], [-98.3184686, 34.5930302], [-98.3184363, 34.5930061], [-98.3184039, 34.5930238], [-98.3183454, 34.5929338], [-98.3187043, 34.592755], [-98.318598, 34.5926091], [-98.318239, 34.5927753], [-98.3182186, 34.5927561], [-98.3181795, 34.5927766], [-98.3182227, 34.5928255], [-98.3182511, 34.5928109], [-98.3182674, 34.5928255], [-98.3181302, 34.5928962], [-98.3182869, 34.5931202]]]}, "properties": {"osm_id": 913056638, "building": "yes", "name": "KWSO", "height": null, "height_m": null, "levels": null, "tract_id": "40031002004", "tract_name": "20.04", "tags": {"amenity": "studio", "building": "yes", "name": "KWSO", "studio": "television"}}}, {"type": "Feature", "geometry": {"type": "Polygon", "coordinates": [[[-98.3181385, 34.5924912], [-98.3182652, 34.5924623], [-98.3182316, 34.5923313], [-98.3180948, 34.5923489], [-98.3181385, 34.5924912]]]}, "properties": {"osm_id": 913056639, "building": "shed", "name": "", "height": null, "height_m": null, "levels": null, "tract_id": "40031002004", "tract_name": "20.04", "tags": {"building": "shed"}}}, {"type": "Feature", "geometry": {"type": "Polygon", "coordinates": [[[-98.3334863, 34.5877389], [-98.3334832, 34.5876795], [-98.3334609, 34.5876786], [-98.3334527, 34.5875941], [-98.3333643, 34.5875925], [-98.3333674, 34.5876678], [-98.3333288, 34.5876669], [-98.3333328, 34.5877406], [-98.3334863, 34.5877389]]]}, "properties": {"osm_id": 947873895, "building": "house", "name": "", "height": null, "height_m": null, "levels": null, "tract_id": "40031002004", "tract_name": "20.04", "tags": {"building": "house"}}}, {"type": "Feature", "geometry": {"type": "Polygon", "coordinates": [[[-98.3335056, 34.5878744], [-98.3335036, 34.5877824], [-98.3333237, 34.5877782], [-98.3333277, 34.5879046], [-98.3334243, 34.5879046], [-98.3334263, 34.5878786], [-98.3335056, 34.5878744]]]}, "properties": {"osm_id": 947873896, "building": "house", "name": "", "height": null, "height_m": null, "levels": null, "tract_id": "40031002004", "tract_name": "20.04", "tags": {"building": "house"}}}, {"type": "Feature", "geometry": {"type": "Polygon", "coordinates": [[[-98.3334934, 34.5880485], [-98.3334914, 34.5879472], [-98.3333318, 34.5879481], [-98.3333257, 34.5880978], [-98.3334324, 34.5881004], [-98.3334334, 34.5880493], [-98.3334934, 34.5880485]]]}, "properties": {"osm_id": 947873897, "building": "house", "name": "", "height": null, "height_m": null, "levels": null, "tract_id": "40031002004", "tract_name": "20.04", "tags": {"building": "house"}}}, {"type": "Feature", "geometry": {"type": "Polygon", "coordinates": [[[-98.3334481, 34.5883226], [-98.333483, 34.5882796], [-98.3334595, 34.5882614], [-98.3334904, 34.5882122], [-98.3334092, 34.5881637], [-98.3333576, 34.5882117], [-98.3333174, 34.5881868], [-98.3332852, 34.5882404], [-98.3334481, 34.5883226]]]}, "properties": {"osm_id": 947873898, "building": "house", "name": "", "height": null, "height_m": null, "levels": null, "tract_id": "40031002004", "tract_name": "20.04", "tags": {"building": "house"}}}, {"type": "Feature", "geometry": {"type": "Polygon", "coordinates": [[[-98.333257, 34.5883646], [-98.3332288, 34.5883028], [-98.3332597, 34.5882945], [-98.3332456, 34.5882514], [-98.3332141, 34.5882586], [-98.3331987, 34.5882282], [-98.3331289, 34.588252], [-98.3331423, 34.5882912], [-98.3330458, 34.588321], [-98.3330994, 34.5884192], [-98.333257, 34.5883646]]]}, "properties": {"osm_id": 947873899, "building": "house", "name": "", "height": null, "height_m": null, "levels": null, "tract_id": "40031002004", "tract_name": "20.04", "tags": {"building": "house"}}}, {"type": "Feature", "geometry": {"type": "Polygon", "coordinates": [[[-98.3330027, 34.5879269], [-98.3330036, 34.5878686], [-98.3329638, 34.5878606], [-98.3329602, 34.5877725], [-98.332851, 34.5877722], [-98.3328487, 34.5879276], [-98.3330027, 34.5879269]]]}, "properties": {"osm_id": 947873900, "building": "house", "name": "", "height": null, "height_m": null, "levels": null, "tract_id": "40031002004", "tract_name": "20.04", "tags": {"building": "house"}}}, {"type": "Feature", "geometry": {"type": "Polygon", "coordinates": [[[-98.3329989, 34.5877443], [-98.3330051, 34.5876733], [-98.3329234, 34.5876689], [-98.3329196, 34.5876327], [-98.3328942, 34.5876055], [-98.3327332, 34.5876086], [-98.3327478, 34.5876657], [-98.3328087, 34.5876664], [-98.3328133, 34.5877424], [-98.3329989, 34.5877443]]]}, "properties": {"osm_id": 947873901, "building": "house", "name": "", "height": null, "height_m": null, "levels": null, "tract_id": "40031002004", "tract_name": "20.04", "tags": {"building": "house"}}}, {"type": "Feature", "geometry": {"type": "Polygon", "coordinates": [[[-98.3338652, 34.60583], [-98.3338612, 34.6060836], [-98.3340165, 34.6060852], [-98.3340171, 34.6060451], [-98.334022, 34.6060451], [-98.3340216, 34.6060713], [-98.334069, 34.6060718], [-98.3340694, 34.6060473], [-98.3344171, 34.6060509], [-98.3344198, 34.6058772], [-98.3340199, 34.605873], [-98.3340205, 34.6058316], [-98.3338652, 34.60583]]]}, "properties": {"osm_id": 1241461390, "building": "yes", "name": "Trinity Assembly of God Church", "height": null, "height_m": null, "levels": null, "tract_id": "40031002004", "tract_name": "20.04", "tags": {"amenity": "place_of_worship", "building": "yes", "denomination": "pentecostal", "ele": "353", "gnis:feature_id": "1798497", "name": "Trinity Assembly of God Church", "religion": "christian"}}}, {"type": "Feature", "geometry": {"type": "Polygon", "coordinates": [[[-98.3344192, 34.6056128], [-98.3344194, 34.6055039], [-98.3342072, 34.6055036], [-98.3342074, 34.6054219], [-98.334113, 34.6054217], [-98.3341128, 34.6055083], [-98.3340968, 34.6055082], [-98.3340966, 34.6056113], [-98.3341143, 34.6056114], [-98.3341141, 34.6057011], [-98.334203, 34.6057012], [-98.3342032, 34.6056125], [-98.3344192, 34.6056128]]]}, "properties": {"osm_id": 1241461391, "building": "fire_station", "name": "Lawton Fire Station No. 6", "height": null, "height_m": null, "levels": null, "tract_id": "40031002004", "tract_name": "20.04", "tags": {"addr:city": "Lawton", "addr:housenumber": "312", "addr:postcode": "73501", "addr:state": "OK", "addr:street": "Southeast 45th Street", "building": "fire_station", "name": "Lawton Fire Station No. 6"}}}, {"type": "Feature", "geometry": {"type": "Polygon", "coordinates": [[[-98.3340514, 34.6083979], [-98.3340518, 34.6079282], [-98.33396, 34.6079281], [-98.3339598, 34.6083979], [-98.3340514, 34.6083979]]]}, "properties": {"osm_id": 1241461392, "building": "garages", "name": "", "height": null, "height_m": null, "levels": null, "tract_id": "40031002004", "tract_name": "20.04", "tags": {"building": "garages"}}}, {"type": "Feature", "geometry": {"type": "Polygon", "coordinates": [[[-98.3346037, 34.6082302], [-98.3345145, 34.6082294], [-98.3345128, 34.6083668], [-98.334602, 34.6083676], [-98.3346037, 34.6082302]]]}, "properties": {"osm_id": 1241461393, "building": "yes", "name": "Alon", "height": null, "height_m": null, "levels": null, "tract_id": "40031002004", "tract_name": "20.04", "tags": {"amenity": "fuel", "brand": "Alon", "brand:wikidata": "Q62274304", "building": "yes", "name": "Alon"}}}, {"type": "Feature", "geometry": {"type": "Polygon", "coordinates": [[[-98.3343476, 34.608329], [-98.3343465, 34.6080508], [-98.3341343, 34.6080514], [-98.3341353, 34.6083295], [-98.3343476, 34.608329]]]}, "properties": {"osm_id": 1241461394, "building": "yes", "name": "Hop & Sack", "height": null, "height_m": null, "levels": null, "tract_id": "40031002004", "tract_name": "20.04", "tags": {"addr:city": "Lawton", "addr:housenumber": "2", "addr:postcode": "73501", "addr:street": "Southeast 45th Street", "building": "yes", "name": "Hop & Sack", "operator": "Hop & Sack", "shop": "convenience"}}}, {"type": "Feature", "geometry": {"type": "Polygon", "coordinates": [[[-98.3153131, 34.6036484], [-98.3154199, 34.6036491], [-98.3154213, 34.6035137], [-98.3153145, 34.6035129], [-98.3153131, 34.6036484]]]}, "properties": {"osm_id": 1443390729, "building": "service", "name": "", "height": null, "height_m": 3.0, "levels": 1, "tract_id": "40031002004", "tract_name": "20.04", "tags": {"building": "service", "building:levels": "1"}}}, {"type": "Feature", "geometry": {"type": "Polygon", "coordinates": [[[-98.315821, 34.6036072], [-98.31591, 34.6036078], [-98.3159104, 34.6035753], [-98.3158213, 34.6035746], [-98.315821, 34.6036072]]]}, "properties": {"osm_id": 1443390730, "building": "service", "name": "", "height": null, "height_m": 3.0, "levels": 1, "tract_id": "40031002004", "tract_name": "20.04", "tags": {"building": "service", "building:levels": "1"}}}]}