{"type": "FeatureCollection", "features": [{"type": "Feature", "geometry": {"type": "Polygon", "coordinates": [[[-97.0501829, 34.086274], [-97.0501121, 34.0862154], [-97.0501752, 34.0861632], [-97.050246, 34.0862218], [-97.0501829, 34.086274]]]}, "properties": {"osm_id": 490958144, "building": "yes", "name": "", "height": null, "height_m": null, "levels": null, "tract_id": "40019892700", "tract_name": "8927", "tags": {"amenity": "toilets", "building": "yes"}}}, {"type": "Feature", "geometry": {"type": "Polygon", "coordinates": [[[-97.0502471, 34.0872049], [-97.0501579, 34.0872372], [-97.0501202, 34.0871659], [-97.0502094, 34.0871336], [-97.0502471, 34.0872049]]]}, "properties": {"osm_id": 490958148, "building": "yes", "name": "", "height": null, "height_m": null, "levels": null, "tract_id": "40019892700", "tract_name": "8927", "tags": {"building": "yes"}}}, {"type": "Feature", "geometry": {"type": "Polygon", "coordinates": [[[-97.10811, 34.1350442], [-97.1081687, 34.1349321], [-97.1079778, 34.1348623], [-97.1078445, 34.1348491], [-97.1078242, 34.13494], [-97.10811, 34.1350442]]]}, "properties": {"osm_id": 865500774, "building": "yes", "name": "Lake Country Store", "height": null, "height_m": null, "levels": null, "tract_id": "40019892700", "tract_name": "8927", "tags": {"addr:city": "Ardmore", "addr:housenumber": "18550", "addr:postcode": "73401", "addr:state": "OK", "addr:street": "State Highway 77S", "building": "yes", "name": "Lake Country Store", "shop": "convenience"}}}, {"type": "Feature", "geometry": {"type": "Polygon", "coordinates": [[[-97.1214069, 34.1543913], [-97.1214049, 34.1542347], [-97.1212038, 34.1542365], [-97.1212058, 34.154393], [-97.1214069, 34.1543913]]]}, "properties": {"osm_id": 866857004, "building": "hangar", "name": "", "height": null, "height_m": null, "levels": null, "tract_id": "40019892700", "tract_name": "8927", "tags": {"aeroway": "hangar", "building": "hangar"}}}, {"type": "Feature", "geometry": {"type": "Polygon", "coordinates": [[[-97.1213923, 34.1510453], [-97.121394, 34.1509544], [-97.1205345, 34.1509436], [-97.1205328, 34.1510345], [-97.1213923, 34.1510453]]]}, "properties": {"osm_id": 866857020, "building": "hangar", "name": "", "height": null, "height_m": null, "levels": null, "tract_id": "40019892700", "tract_name": "8927", "tags": {"aeroway": "hangar", "building": "hangar"}}}, {"type": "Feature", "geometry": {"type": "Polygon", "coordinates": [[[-97.1212715, 34.1501794], [-97.1212682, 34.1498332], [-97.1212343, 34.1498335], [-97.1212346, 34.1498692], [-97.1208595, 34.1498718], [-97.1208623, 34.1501514], [-97.1212355, 34.1501488], [-97.1212358, 34.1501796], [-97.1212715, 34.1501794]]]}, "properties": {"osm_id": 866857029, "building": "hangar", "name": "", "height": null, "height_m": null, "levels": null, "tract_id": "40019892700", "tract_name": "8927", "tags": {"aeroway": "hangar", "building": "hangar"}}}, {"type": "Feature", "geometry": {"type": "Polygon", "coordinates": [[[-97.1213204, 34.1507304], [-97.1213175, 34.1504516], [-97.1211432, 34.1504528], [-97.1211435, 34.1504819], [-97.120888, 34.1504836], [-97.1208903, 34.1507098], [-97.1209633, 34.1507093], [-97.1209639, 34.1507665], [-97.1211718, 34.1507651], [-97.1211715, 34.1507315], [-97.1213204, 34.1507304]]]}, "properties": {"osm_id": 866857038, "building": "hangar", "name": "", "height": null, "height_m": null, "levels": null, "tract_id": "40019892700", "tract_name": "8927", "tags": {"aeroway": "hangar", "building": "hangar"}}}, {"type": "Feature", "geometry": {"type": "Polygon", "coordinates": [[[-97.1214031, 34.1535711], [-97.1214009, 34.153408], [-97.1212239, 34.1534096], [-97.121226, 34.1535727], [-97.1214031, 34.1535711]]]}, "properties": {"osm_id": 866857043, "building": "hangar", "name": "", "height": null, "height_m": null, "levels": null, "tract_id": "40019892700", "tract_name": "8927", "tags": {"aeroway": "hangar", "building": "hangar"}}}, {"type": "Feature", "geometry": {"type": "Polygon", "coordinates": [[[-97.1213618, 34.1521408], [-97.121359, 34.1519555], [-97.1211511, 34.1519576], [-97.1211539, 34.1521429], [-97.1213618, 34.1521408]]]}, "properties": {"osm_id": 866857053, "building": "hangar", "name": "", "height": null, "height_m": null, "levels": null, "tract_id": "40019892700", "tract_name": "8927", "tags": {"aeroway": "hangar", "building": "hangar"}}}, {"type": "Feature", "geometry": {"type": "Polygon", "coordinates": [[[-97.1211491, 34.1498584], [-97.1211452, 34.1496774], [-97.1208261, 34.1496821], [-97.1208292, 34.1498303], [-97.1210475, 34.1498271], [-97.1210482, 34.1498598], [-97.1211491, 34.1498584]]]}, "properties": {"osm_id": 866857063, "building": "hangar", "name": "", "height": null, "height_m": null, "levels": null, "tract_id": "40019892700", "tract_name": "8927", "tags": {"aeroway": "hangar", "building": "hangar"}}}, {"type": "Feature", "geometry": {"type": "Polygon", "coordinates": [[[-97.1214048, 34.1538123], [-97.1214041, 34.1536162], [-97.1212407, 34.1536166], [-97.1212411, 34.1537235], [-97.1211769, 34.1537236], [-97.1211772, 34.1538129], [-97.1214048, 34.1538123]]]}, "properties": {"osm_id": 866857077, "building": "hangar", "name": "", "height": null, "height_m": null, "levels": null, "tract_id": "40019892700", "tract_name": "8927", "tags": {"aeroway": "hangar", "building": "hangar"}}}, {"type": "Feature", "geometry": {"type": "Polygon", "coordinates": [[[-97.1213577, 34.1498134], [-97.1213551, 34.1496836], [-97.1211821, 34.1496859], [-97.1211847, 34.1498157], [-97.1213577, 34.1498134]]]}, "properties": {"osm_id": 866857086, "building": "hangar", "name": "", "height": null, "height_m": null, "levels": null, "tract_id": "40019892700", "tract_name": "8927", "tags": {"aeroway": "hangar", "building": "hangar"}}}, {"type": "Feature", "geometry": {"type": "Polygon", "coordinates": [[[-97.1213869, 34.1533805], [-97.1213804, 34.1531279], [-97.1211805, 34.1531315], [-97.1211837, 34.1532548], [-97.1212111, 34.1532543], [-97.1212116, 34.153273], [-97.1211802, 34.1532735], [-97.121183, 34.1533841], [-97.1213869, 34.1533805]]]}, "properties": {"osm_id": 866857102, "building": "hangar", "name": "", "height": null, "height_m": null, "levels": null, "tract_id": "40019892700", "tract_name": "8927", "tags": {"aeroway": "hangar", "building": "hangar"}}}, {"type": "Feature", "geometry": {"type": "Polygon", "coordinates": [[[-97.1200954, 34.1501818], [-97.1204285, 34.1497089], [-97.1203055, 34.1496496], [-97.1199723, 34.1501224], [-97.1200954, 34.1501818]]]}, "properties": {"osm_id": 866857112, "building": "hangar", "name": "", "height": null, "height_m": null, "levels": null, "tract_id": "40019892700", "tract_name": "8927", "tags": {"aeroway": "hangar", "building": "hangar"}}}, {"type": "Feature", "geometry": {"type": "Polygon", "coordinates": [[[-97.1204543, 34.1503528], [-97.1207748, 34.1498883], [-97.1206548, 34.1498316], [-97.1203344, 34.1502962], [-97.1204543, 34.1503528]]]}, "properties": {"osm_id": 866857121, "building": "hangar", "name": "", "height": null, "height_m": null, "levels": null, "tract_id": "40019892700", "tract_name": "8927", "tags": {"aeroway": "hangar", "building": "hangar"}}}, {"type": "Feature", "geometry": {"type": "Polygon", "coordinates": [[[-97.1214031, 34.1541992], [-97.1214031, 34.1540373], [-97.1214326, 34.1540373], [-97.1214326, 34.1539301], [-97.1212467, 34.1539301], [-97.1212467, 34.1541992], [-97.1214031, 34.1541992]]]}, "properties": {"osm_id": 866857136, "building": "hangar", "name": "", "height": null, "height_m": null, "levels": null, "tract_id": "40019892700", "tract_name": "8927", "tags": {"aeroway": "hangar", "building": "hangar"}}}, {"type": "Feature", "geometry": {"type": "Polygon", "coordinates": [[[-97.1214159, 34.1515155], [-97.1214124, 34.1513341], [-97.1213061, 34.1513355], [-97.1213056, 34.1513093], [-97.1210267, 34.151313], [-97.1210307, 34.1515214], [-97.1210988, 34.1515205], [-97.1210992, 34.1515445], [-97.1213136, 34.1515416], [-97.1213131, 34.1515168], [-97.1214159, 34.1515155]]]}, "properties": {"osm_id": 866857145, "building": "hangar", "name": "", "height": null, "height_m": null, "levels": null, "tract_id": "40019892700", "tract_name": "8927", "tags": {"aeroway": "hangar", "building": "hangar"}}}, {"type": "Feature", "geometry": {"type": "Polygon", "coordinates": [[[-97.102271, 34.0722177], [-97.102162, 34.0723072], [-97.1020908, 34.0722477], [-97.1021621, 34.0721891], [-97.1021163, 34.0721509], [-97.102154, 34.07212], [-97.102271, 34.0722177]]]}, "properties": {"osm_id": 1026620646, "building": "yes", "name": "Lake Murray Chapel", "height": null, "height_m": null, "levels": null, "tract_id": "40019892700", "tract_name": "8927", "tags": {"addr:city": "Ardmore", "addr:housenumber": "3323", "addr:postcode": "73401", "addr:state": "OK", "addr:street": "Lodge Road", "amenity": "place_of_worship", "building": "yes", "name": "Lake Murray Chapel", "religion": "christian"}}}, {"type": "Feature", "geometry": {"type": "Polygon", "coordinates": [[[-96.9581511, 34.1996378], [-96.9580995, 34.1996278], [-96.9581105, 34.1995889], [-96.9581621, 34.1995989], [-96.9581511, 34.1996378]]]}, "properties": {"osm_id": 1082613039, "building": "yes", "name": "", "height": null, "height_m": null, "levels": null, "tract_id": "40019892700", "tract_name": "8927", "tags": {"building": "yes"}}}, {"type": "Feature", "geometry": {"type": "Polygon", "coordinates": [[[-96.958709, 34.1996151], [-96.9586701, 34.1996084], [-96.9586792, 34.199572], [-96.9587181, 34.1995786], [-96.958709, 34.1996151]]]}, "properties": {"osm_id": 1082613040, "building": "yes", "name": "", "height": null, "height_m": null, "levels": null, "tract_id": "40019892700", "tract_name": "8927", "tags": {"building": "yes"}}}, {"type": "Feature", "geometry": {"type": "Polygon", "coordinates": [[[-96.9579157, 34.1984421], [-96.9577092, 34.1984626], [-96.9576898, 34.198329], [-96.9577791, 34.1983201], [-96.9577857, 34.1983656], [-96.9579029, 34.198354], [-96.9579157, 34.1984421]]]}, "properties": {"osm_id": 1082613044, "building": "yes", "name": "", "height": null, "height_m": null, "levels": null, "tract_id": "40019892700", "tract_name": "8927", "tags": {"building": "yes"}}}, {"type": "Feature", "geometry": {"type": "Polygon", "coordinates": [[[-96.9580297, 34.1989562], [-96.9580458, 34.1988897], [-96.9581077, 34.1988999], [-96.9580916, 34.1989664], [-96.9580297, 34.1989562]]]}, "properties": {"osm_id": 1082613045, "building": "yes", "name": "", "height": null, "height_m": null, "levels": null, "tract_id": "40019892700", "tract_name": "8927", "tags": {"building": "yes"}}}, {"type": "Feature", "geometry": {"type": "Polygon", "coordinates": [[[-96.9580619, 34.1986967], [-96.9580579, 34.1986301], [-96.9581206, 34.1986275], [-96.9581246, 34.1986941], [-96.9580619, 34.1986967]]]}, "properties": {"osm_id": 1082613046, "building": "yes", "name": "", "height": null, "height_m": null, "levels": null, "tract_id": "40019892700", "tract_name": "8927", "tags": {"building": "yes"}}}, {"type": "Feature", "geometry": {"type": "Polygon", "coordinates": [[[-96.9579063, 34.2015785], [-96.95797, 34.2015603], [-96.9578882, 34.2013596], [-96.9578245, 34.2013778], [-96.9579063, 34.2015785]]]}, "properties": {"osm_id": 1082613047, "building": "yes", "name": "", "height": null, "height_m": null, "levels": null, "tract_id": "40019892700", "tract_name": "8927", "tags": {"building": "yes", "source": "microsoft/BuildingFootprints"}}}, {"type": "Feature", "geometry": {"type": "Polygon", "coordinates": [[[-96.9582722, 34.1994302], [-96.9584482, 34.1994772], [-96.9584772, 34.1994022], [-96.9583022, 34.1993552], [-96.9582929, 34.1993784], [-96.9582038, 34.199354], [-96.958183, 34.1994058], [-96.9582722, 34.1994302]]]}, "properties": {"osm_id": 1082613048, "building": "yes", "name": "", "height": null, "height_m": null, "levels": null, "tract_id": "40019892700", "tract_name": "8927", "tags": {"building": "yes", "source": "microsoft/BuildingFootprints"}}}, {"type": "Feature", "geometry": {"type": "Polygon", "coordinates": [[[-96.9578184, 34.1989853], [-96.9578347, 34.199043], [-96.9579712, 34.1990168], [-96.9579549, 34.1989592], [-96.9578184, 34.1989853]]]}, "properties": {"osm_id": 1082613049, "building": "yes", "name": "", "height": null, "height_m": null, "levels": null, "tract_id": "40019892700", "tract_name": "8927", "tags": {"building": "yes", "source": "microsoft/BuildingFootprints"}}}, {"type": "Feature", "geometry": {"type": "Polygon", "coordinates": [[[-96.958892, 34.19959], [-96.958841, 34.199565], [-96.958726, 34.199724], [-96.958777, 34.199749], [-96.958892, 34.19959]]]}, "properties": {"osm_id": 1082613050, "building": "yes", "name": "", "height": null, "height_m": null, "levels": null, "tract_id": "40019892700", "tract_name": "8927", "tags": {"building": "yes", "source": "microsoft/BuildingFootprints"}}}, {"type": "Feature", "geometry": {"type": "Polygon", "coordinates": [[[-96.9708909, 34.1680656], [-96.970738, 34.1681199], [-96.9706852, 34.1680183], [-96.9708381, 34.167964], [-96.9708909, 34.1680656]]]}, "properties": {"osm_id": 1082620765, "building": "yes", "name": "", "height": null, "height_m": null, "levels": null, "tract_id": "40019892700", "tract_name": "8927", "tags": {"building": "yes"}}}, {"type": "Feature", "geometry": {"type": "Polygon", "coordinates": [[[-96.971017, 34.167817], [-96.9708306, 34.1678825], [-96.970794, 34.1678112], [-96.9709804, 34.1677457], [-96.971017, 34.167817]]]}, "properties": {"osm_id": 1082620766, "building": "yes", "name": "", "height": null, "height_m": null, "levels": null, "tract_id": "40019892700", "tract_name": "8927", "tags": {"building": "yes"}}}, {"type": "Feature", "geometry": {"type": "Polygon", "coordinates": [[[-96.9716232, 34.1651461], [-96.9716111, 34.1650867], [-96.9716858, 34.1650763], [-96.9716978, 34.1651357], [-96.9716232, 34.1651461]]]}, "properties": {"osm_id": 1082620767, "building": "yes", "name": "", "height": null, "height_m": null, "levels": null, "tract_id": "40019892700", "tract_name": "8927", "tags": {"building": "yes"}}}, {"type": "Feature", "geometry": {"type": "Polygon", "coordinates": [[[-96.971662, 34.1647716], [-96.9716058, 34.1648115], [-96.9715414, 34.1647494], [-96.9714079, 34.1647705], [-96.9713858, 34.1646673], [-96.9714146, 34.1646623], [-96.9714106, 34.1646462], [-96.9715467, 34.164634], [-96.9715527, 34.1646662], [-96.971662, 34.1647716]]]}, "properties": {"osm_id": 1082620768, "building": "yes", "name": "", "height": null, "height_m": null, "levels": null, "tract_id": "40019892700", "tract_name": "8927", "tags": {"building": "yes"}}}, {"type": "Feature", "geometry": {"type": "Polygon", "coordinates": [[[-96.9707615, 34.1645657], [-96.9708102, 34.1645905], [-96.9707751, 34.1646377], [-96.9707942, 34.1646475], [-96.9707586, 34.1646954], [-96.9707394, 34.1646856], [-96.9706761, 34.1647708], [-96.9706274, 34.1647461], [-96.9707615, 34.1645657]]]}, "properties": {"osm_id": 1082620769, "building": "yes", "name": "", "height": null, "height_m": null, "levels": null, "tract_id": "40019892700", "tract_name": "8927", "tags": {"building": "yes"}}}, {"type": "Feature", "geometry": {"type": "Polygon", "coordinates": [[[-96.9707642, 34.164346], [-96.9707407, 34.1642917], [-96.9707735, 34.164282], [-96.970797, 34.1643363], [-96.9707642, 34.164346]]]}, "properties": {"osm_id": 1082620770, "building": "yes", "name": "", "height": null, "height_m": null, "levels": null, "tract_id": "40019892700", "tract_name": "8927", "tags": {"building": "yes"}}}, {"type": "Feature", "geometry": {"type": "Polygon", "coordinates": [[[-96.970852, 34.1643405], [-96.9708099, 34.1643497], [-96.9707838, 34.1642675], [-96.9708259, 34.1642584], [-96.970852, 34.1643405]]]}, "properties": {"osm_id": 1082620771, "building": "yes", "name": "", "height": null, "height_m": null, "levels": null, "tract_id": "40019892700", "tract_name": "8927", "tags": {"building": "yes"}}}, {"type": "Feature", "geometry": {"type": "Polygon", "coordinates": [[[-96.9709003, 34.1643305], [-96.9708597, 34.1643387], [-96.9708436, 34.1642843], [-96.9708842, 34.1642761], [-96.9709003, 34.1643305]]]}, "properties": {"osm_id": 1082620772, "building": "yes", "name": "", "height": null, "height_m": null, "levels": null, "tract_id": "40019892700", "tract_name": "8927", "tags": {"building": "yes"}}}, {"type": "Feature", "geometry": {"type": "Polygon", "coordinates": [[[-96.9710867, 34.1641452], [-96.9710887, 34.1641765], [-96.9709988, 34.1641804], [-96.9709969, 34.1641491], [-96.9710867, 34.1641452]]]}, "properties": {"osm_id": 1082620773, "building": "yes", "name": "", "height": null, "height_m": null, "levels": null, "tract_id": "40019892700", "tract_name": "8927", "tags": {"building": "yes"}}}, {"type": "Feature", "geometry": {"type": "Polygon", "coordinates": [[[-96.97108, 34.1641013], [-96.971083, 34.1641317], [-96.9709998, 34.1641373], [-96.9709969, 34.1641069], [-96.97108, 34.1641013]]]}, "properties": {"osm_id": 1082620774, "building": "yes", "name": "", "height": null, "height_m": null, "levels": null, "tract_id": "40019892700", "tract_name": "8927", "tags": {"building": "yes"}}}, {"type": "Feature", "geometry": {"type": "Polygon", "coordinates": [[[-96.9767864, 34.164224], [-96.9767341, 34.1641705], [-96.9768186, 34.1641139], [-96.9768709, 34.1641674], [-96.9767864, 34.164224]]]}, "properties": {"osm_id": 1082620775, "building": "yes", "name": "", "height": null, "height_m": null, "levels": null, "tract_id": "40019892700", "tract_name": "8927", "tags": {"building": "yes"}}}, {"type": "Feature", "geometry": {"type": "Polygon", "coordinates": [[[-96.9762875, 34.1637213], [-96.9763003, 34.1636874], [-96.9763266, 34.1636942], [-96.9763138, 34.1637281], [-96.9762875, 34.1637213]]]}, "properties": {"osm_id": 1082620776, "building": "yes", "name": "", "height": null, "height_m": null, "levels": null, "tract_id": "40019892700", "tract_name": "8927", "tags": {"building": "yes"}}}, {"type": "Feature", "geometry": {"type": "Polygon", "coordinates": [[[-96.9764015, 34.1638212], [-96.97637, 34.1638162], [-96.9763774, 34.1637841], [-96.9764089, 34.1637891], [-96.9764015, 34.1638212]]]}, "properties": {"osm_id": 1082620777, "building": "yes", "name": "", "height": null, "height_m": null, "levels": null, "tract_id": "40019892700", "tract_name": "8927", "tags": {"building": "yes"}}}, {"type": "Feature", "geometry": {"type": "Polygon", "coordinates": [[[-96.9763586, 34.1638134], [-96.976319, 34.1638073], [-96.9763274, 34.1637701], [-96.976367, 34.1637762], [-96.9763586, 34.1638134]]]}, "properties": {"osm_id": 1082620778, "building": "yes", "name": "", "height": null, "height_m": null, "levels": null, "tract_id": "40019892700", "tract_name": "8927", "tags": {"building": "yes"}}}, {"type": "Feature", "geometry": {"type": "Polygon", "coordinates": [[[-96.9763774, 34.163875], [-96.9763123, 34.1638655], [-96.9763198, 34.1638303], [-96.9763848, 34.1638397], [-96.9763774, 34.163875]]]}, "properties": {"osm_id": 1082620779, "building": "yes", "name": "", "height": null, "height_m": null, "levels": null, "tract_id": "40019892700", "tract_name": "8927", "tags": {"building": "yes"}}}, {"type": "Feature", "geometry": {"type": "Polygon", "coordinates": [[[-96.9786599, 34.1700595], [-96.978507, 34.1700806], [-96.978487, 34.1699811], [-96.9786399, 34.16996], [-96.9786599, 34.1700595]]]}, "properties": {"osm_id": 1082620782, "building": "yes", "name": "", "height": null, "height_m": null, "levels": null, "tract_id": "40019892700", "tract_name": "8927", "tags": {"building": "yes"}}}, {"type": "Feature", "geometry": {"type": "Polygon", "coordinates": [[[-96.9742048, 34.1672522], [-96.9741054, 34.1672659], [-96.9740893, 34.167186], [-96.9741887, 34.1671723], [-96.9742048, 34.1672522]]]}, "properties": {"osm_id": 1082620785, "building": "yes", "name": "", "height": null, "height_m": null, "levels": null, "tract_id": "40019892700", "tract_name": "8927", "tags": {"building": "yes"}}}, {"type": "Feature", "geometry": {"type": "Polygon", "coordinates": [[[-96.9766436, 34.1666175], [-96.976554, 34.1665894], [-96.9765595, 34.1665774], [-96.9765033, 34.1665598], [-96.9765201, 34.1665229], [-96.9764339, 34.1664959], [-96.976468, 34.1664216], [-96.9765542, 34.1664486], [-96.9765583, 34.1664397], [-96.9765849, 34.166448], [-96.9765888, 34.1664397], [-96.976708, 34.1664771], [-96.9766436, 34.1666175]]]}, "properties": {"osm_id": 1082620786, "building": "yes", "name": "", "height": null, "height_m": null, "levels": null, "tract_id": "40019892700", "tract_name": "8927", "tags": {"building": "yes"}}}, {"type": "Feature", "geometry": {"type": "Polygon", "coordinates": [[[-96.9763988, 34.165762], [-96.9762889, 34.1657767], [-96.9762674, 34.1656668], [-96.9763774, 34.1656521], [-96.9763988, 34.165762]]]}, "properties": {"osm_id": 1082620787, "building": "yes", "name": "", "height": null, "height_m": null, "levels": null, "tract_id": "40019892700", "tract_name": "8927", "tags": {"building": "yes"}}}, {"type": "Feature", "geometry": {"type": "Polygon", "coordinates": [[[-96.9791333, 34.1658219], [-96.9791414, 34.1659053], [-96.9790073, 34.1659142], [-96.9789992, 34.1658308], [-96.9791333, 34.1658219]]]}, "properties": {"osm_id": 1082620789, "building": "yes", "name": "", "height": null, "height_m": null, "levels": null, "tract_id": "40019892700", "tract_name": "8927", "tags": {"building": "yes"}}}, {"type": "Feature", "geometry": {"type": "Polygon", "coordinates": [[[-96.9777171, 34.1686226], [-96.977573, 34.1686358], [-96.9775643, 34.168571], [-96.9775486, 34.1685724], [-96.9775352, 34.1684725], [-96.977695, 34.1684578], [-96.9777171, 34.1686226]]]}, "properties": {"osm_id": 1082620791, "building": "yes", "name": "", "height": null, "height_m": null, "levels": null, "tract_id": "40019892700", "tract_name": "8927", "tags": {"building": "yes"}}}, {"type": "Feature", "geometry": {"type": "Polygon", "coordinates": [[[-96.9759556, 34.1682403], [-96.9758225, 34.1682367], [-96.9758279, 34.1681024], [-96.975961, 34.1681061], [-96.9759556, 34.1682403]]]}, "properties": {"osm_id": 1082620792, "building": "construction", "name": "", "height": null, "height_m": null, "levels": null, "tract_id": "40019892700", "tract_name": "8927", "tags": {"building": "construction"}}}, {"type": "Feature", "geometry": {"type": "Polygon", "coordinates": [[[-96.9742544, 34.1681094], [-96.9742544, 34.1681316], [-96.9741967, 34.1681316], [-96.9741967, 34.1681094], [-96.9742544, 34.1681094]]]}, "properties": {"osm_id": 1082620793, "building": "yes", "name": "", "height": null, "height_m": null, "levels": null, "tract_id": "40019892700", "tract_name": "8927", "tags": {"building": "yes"}}}, {"type": "Feature", "geometry": {"type": "Polygon", "coordinates": [[[-96.9743308, 34.169475], [-96.974267, 34.1694103], [-96.9742424, 34.1694266], [-96.9741712, 34.1693545], [-96.9740673, 34.1694247], [-96.9742013, 34.1695605], [-96.9743308, 34.169475]]]}, "properties": {"osm_id": 1082620796, "building": "yes", "name": "", "height": null, "height_m": null, "levels": null, "tract_id": "40019892700", "tract_name": "8927", "tags": {"building": "yes", "source": "microsoft/BuildingFootprints"}}}, {"type": "Feature", "geometry": {"type": "Polygon", "coordinates": [[[-96.9740822, 34.1660503], [-96.9741706, 34.1660503], [-96.9741706, 34.1660266], [-96.9742054, 34.1660266], [-96.9742054, 34.1659643], [-96.9740822, 34.1659643], [-96.9740822, 34.1660503]]]}, "properties": {"osm_id": 1082620797, "building": "yes", "name": "", "height": null, "height_m": null, "levels": null, "tract_id": "40019892700", "tract_name": "8927", "tags": {"building": "yes", "source": "microsoft/BuildingFootprints"}}}, {"type": "Feature", "geometry": {"type": "Polygon", "coordinates": [[[-96.975621, 34.166938], [-96.975608, 34.166954], [-96.975559, 34.166924], [-96.975484, 34.167008], [-96.975688, 34.167132], [-96.975761, 34.167049], [-96.97571, 34.167019], [-96.975725, 34.167001], [-96.975621, 34.166938]]]}, "properties": {"osm_id": 1082620798, "building": "yes", "name": "", "height": null, "height_m": null, "levels": null, "tract_id": "40019892700", "tract_name": "8927", "tags": {"building": "yes", "source": "microsoft/BuildingFootprints"}}}, {"type": "Feature", "geometry": {"type": "Polygon", "coordinates": [[[-96.97494, 34.165877], [-96.975009, 34.165877], [-96.975009, 34.165742], [-96.97494, 34.165742], [-96.97494, 34.165877]]]}, "properties": {"osm_id": 1082620799, "building": "yes", "name": "", "height": null, "height_m": null, "levels": null, "tract_id": "40019892700", "tract_name": "8927", "tags": {"building": "yes", "source": "microsoft/BuildingFootprints"}}}, {"type": "Feature", "geometry": {"type": "Polygon", "coordinates": [[[-96.9737893, 34.1669284], [-96.9736917, 34.1668566], [-96.9736617, 34.1668845], [-96.9736041, 34.1668421], [-96.9735048, 34.1669346], [-96.973567, 34.1669803], [-96.9735531, 34.1669932], [-96.9737103, 34.1671088], [-96.973824, 34.167003], [-96.9737599, 34.1669558], [-96.9737893, 34.1669284]]]}, "properties": {"osm_id": 1082620800, "building": "yes", "name": "", "height": null, "height_m": null, "levels": null, "tract_id": "40019892700", "tract_name": "8927", "tags": {"building": "yes", "source": "microsoft/BuildingFootprints"}}}, {"type": "Feature", "geometry": {"type": "Polygon", "coordinates": [[[-96.973924, 34.1679605], [-96.9739172, 34.1680735], [-96.9740695, 34.1680798], [-96.9740807, 34.1678946], [-96.97386, 34.1678855], [-96.9738556, 34.1679576], [-96.973924, 34.1679605]]]}, "properties": {"osm_id": 1082620802, "building": "yes", "name": "", "height": null, "height_m": null, "levels": null, "tract_id": "40019892700", "tract_name": "8927", "tags": {"building": "yes", "source": "microsoft/BuildingFootprints"}}}, {"type": "Feature", "geometry": {"type": "Polygon", "coordinates": [[[-96.9761473, 34.1639485], [-96.9762861, 34.163955], [-96.9762909, 34.1638841], [-96.9761522, 34.1638776], [-96.9761473, 34.1639485]]]}, "properties": {"osm_id": 1082620804, "building": "yes", "name": "", "height": null, "height_m": null, "levels": null, "tract_id": "40019892700", "tract_name": "8927", "tags": {"building": "yes", "source": "microsoft/BuildingFootprints"}}}, {"type": "Feature", "geometry": {"type": "Polygon", "coordinates": [[[-96.9755348, 34.1684554], [-96.975502, 34.1684291], [-96.9753752, 34.1685375], [-96.9754889, 34.1686286], [-96.9755233, 34.1685992], [-96.9755486, 34.1686194], [-96.9755836, 34.1685895], [-96.9755538, 34.1685657], [-96.9756107, 34.168517], [-96.9756019, 34.1685099], [-96.9756159, 34.1684979], [-96.9756068, 34.1684906], [-96.9756739, 34.1684333], [-96.9756154, 34.1683864], [-96.9755348, 34.1684554]]]}, "properties": {"osm_id": 1082620806, "building": "yes", "name": "", "height": null, "height_m": null, "levels": null, "tract_id": "40019892700", "tract_name": "8927", "tags": {"building": "yes", "source": "microsoft/BuildingFootprints"}}}, {"type": "Feature", "geometry": {"type": "Polygon", "coordinates": [[[-96.9738957, 34.166113], [-96.973802, 34.166113], [-96.973802, 34.166167], [-96.973791, 34.166167], [-96.973791, 34.1662263], [-96.9739895, 34.1662263], [-96.9739895, 34.1661636], [-96.9739748, 34.1661636], [-96.9739748, 34.1661448], [-96.9739091, 34.1661448], [-96.9739091, 34.1661636], [-96.9738957, 34.1661636], [-96.9738957, 34.166113]]]}, "properties": {"osm_id": 1082620808, "building": "yes", "name": "", "height": null, "height_m": null, "levels": null, "tract_id": "40019892700", "tract_name": "8927", "tags": {"building": "yes", "source": "microsoft/BuildingFootprints"}}}, {"type": "Feature", "geometry": {"type": "Polygon", "coordinates": [[[-96.9745377, 34.1698587], [-96.9745523, 34.1699769], [-96.9745283, 34.169979], [-96.9745418, 34.1700881], [-96.974565, 34.1700862], [-96.9745702, 34.1701279], [-96.9746837, 34.1701183], [-96.9746778, 34.1700702], [-96.9747357, 34.1700654], [-96.9747218, 34.1699521], [-96.9746787, 34.1699557], [-96.9746733, 34.1699119], [-96.9746596, 34.1699131], [-96.9746517, 34.1698491], [-96.9745377, 34.1698587]]]}, "properties": {"osm_id": 1082620809, "building": "yes", "name": "", "height": null, "height_m": null, "levels": null, "tract_id": "40019892700", "tract_name": "8927", "tags": {"building": "yes", "source": "microsoft/BuildingFootprints"}}}, {"type": "Feature", "geometry": {"type": "Polygon", "coordinates": [[[-96.972955, 34.1710798], [-96.972955, 34.1711175], [-96.9729334, 34.1711175], [-96.9729334, 34.1711874], [-96.972955, 34.1711874], [-96.972955, 34.1712224], [-96.9729622, 34.1712224], [-96.9729622, 34.1712623], [-96.9730568, 34.1712623], [-96.9730568, 34.1712174], [-96.9730682, 34.1712174], [-96.9730682, 34.1710798], [-96.972955, 34.1710798]]]}, "properties": {"osm_id": 1082620813, "building": "yes", "name": "", "height": null, "height_m": null, "levels": null, "tract_id": "40019892700", "tract_name": "8927", "tags": {"building": "yes", "source": "microsoft/BuildingFootprints"}}}, {"type": "Feature", "geometry": {"type": "Polygon", "coordinates": [[[-96.9755633, 34.1644154], [-96.9756133, 34.1643597], [-96.9754366, 34.1642512], [-96.9753492, 34.1643486], [-96.9753791, 34.1643669], [-96.9753662, 34.1643812], [-96.9754168, 34.1644123], [-96.9754303, 34.1643972], [-96.9754602, 34.1644156], [-96.9754969, 34.1643747], [-96.9755633, 34.1644154]]]}, "properties": {"osm_id": 1082620814, "building": "yes", "name": "", "height": null, "height_m": null, "levels": null, "tract_id": "40019892700", "tract_name": "8927", "tags": {"building": "yes", "source": "microsoft/BuildingFootprints"}}}, {"type": "Feature", "geometry": {"type": "Polygon", "coordinates": [[[-97.14585, 34.1096114], [-97.1457084, 34.1096524], [-97.1456907, 34.1095586], [-97.1457708, 34.1095073], [-97.1458111, 34.1095293], [-97.14585, 34.1096114]]]}, "properties": {"osm_id": 1292714343, "building": "grandstand", "name": "", "height": null, "height_m": null, "levels": null, "tract_id": "40019892700", "tract_name": "8927", "tags": {"building": "grandstand"}}}, {"type": "Feature", "geometry": {"type": "Polygon", "coordinates": [[[-97.1457708, 34.1095073], [-97.1455563, 34.1091015], [-97.1454465, 34.1091279], [-97.145666, 34.109544], [-97.1457708, 34.1095073]]]}, "properties": {"osm_id": 1292714344, "building": "grandstand", "name": "", "height": null, "height_m": null, "levels": null, "tract_id": "40019892700", "tract_name": "8927", "tags": {"building": "grandstand"}}}, {"type": "Feature", "geometry": {"type": "Polygon", "coordinates": [[[-97.1454926, 34.1089726], [-97.1453722, 34.108996], [-97.1452448, 34.1087352], [-97.1453828, 34.1086971], [-97.1454926, 34.1089726]]]}, "properties": {"osm_id": 1292714345, "building": "grandstand", "name": "", "height": null, "height_m": null, "levels": null, "tract_id": "40019892700", "tract_name": "8927", "tags": {"building": "grandstand"}}}, {"type": "Feature", "geometry": {"type": "Polygon", "coordinates": [[[-97.1453227, 34.1086532], [-97.1451174, 34.1083425], [-97.1450643, 34.1083689], [-97.1452165, 34.1086678], [-97.1453227, 34.1086532]]]}, "properties": {"osm_id": 1292714346, "building": "grandstand", "name": "", "height": null, "height_m": null, "levels": null, "tract_id": "40019892700", "tract_name": "8927", "tags": {"building": "grandstand"}}}]}