{"type": "FeatureCollection", "features": [{"type": "Feature", "geometry": {"type": "Polygon", "coordinates": [[[-97.2978114, 36.8100065], [-97.2983641, 36.8100023], [-97.2983697, 36.8104727], [-97.2981014, 36.8104747], [-97.2978169, 36.8104769], [-97.2978114, 36.8100065]]]}, "properties": {"osm_id": 681759471, "building": "retail", "name": "", "height": null, "height_m": null, "levels": null, "tract_id": "40071001301", "tract_name": "13.01", "tags": {"building": "retail"}}}, {"type": "Feature", "geometry": {"type": "Polygon", "coordinates": [[[-97.2978107, 36.8099531], [-97.2978114, 36.8100065], [-97.2978169, 36.8104769], [-97.2974247, 36.8104798], [-97.2970324, 36.8104828], [-97.2970322, 36.810465], [-97.2970004, 36.8104652], [-97.2969994, 36.8103822], [-97.2969344, 36.8103827], [-97.2969325, 36.8102193], [-97.2969958, 36.8102188], [-97.296995, 36.8101523], [-97.2970317, 36.8101521], [-97.2970288, 36.8099064], [-97.297374, 36.8099037], [-97.2973743, 36.8099285], [-97.2973746, 36.8099564], [-97.2978107, 36.8099531]]]}, "properties": {"osm_id": 681759472, "building": "retail", "name": "Walmart", "height": null, "height_m": null, "levels": null, "tract_id": "40071001301", "tract_name": "13.01", "tags": {"addr:city": "Blackwell", "addr:country": "US", "addr:housenumber": "1219", "addr:postcode": "74631", "addr:state": "OK", "addr:street": "West Doolin Avenue", "brand": "Walmart", "brand:wikidata": "Q483551", "building": "retail", "name": "Walmart", "opening_hours": "Mo-Sa 07:00-22:00;Su 09:00-21:00", "operator": "Walmart", "operator:wikidata": "Q483551", "payment:app:walmart": "yes", "payment:apple_pay": "no", "payment:google_pay": "no", "payment:samsung_pay": "no", "phone": "+1 580-363-4111", "ref": "136", "ref:walmart": "136", "sensory_friendly:accommodation": "dimmed_light;static_screens;no_pa", "sensory_friendly:conditional": "yes @ 08:00-10:00", "shop": "department_store", "website": "https://www.walmart.com/store/136-blackwell-ok"}}}, {"type": "Feature", "geometry": {"type": "Polygon", "coordinates": [[[-97.3389791, 36.8104847], [-97.338978, 36.8103808], [-97.3387952, 36.810382], [-97.338795, 36.8103611], [-97.3387554, 36.8103613], [-97.3387556, 36.8103818], [-97.3386521, 36.8103825], [-97.3386532, 36.8104867], [-97.3389791, 36.8104847]]]}, "properties": {"osm_id": 754444013, "building": "retail", "name": "", "height": null, "height_m": null, "levels": null, "tract_id": "40071001301", "tract_name": "13.01", "tags": {"addr:city": "Blackwell", "addr:housenumber": "4505", "addr:postcode": "74631", "addr:state": "OK", "addr:street": "West Doolin Avenue", "building": "retail", "disused": "yes", "note": "Old Taco Bell; Stripped of signs and closed as of 2020-10-14", "roof:shape": "flat"}}}, {"type": "Feature", "geometry": {"type": "Polygon", "coordinates": [[[-97.3379978, 36.8105598], [-97.3379972, 36.8104115], [-97.3374895, 36.810413], [-97.3374902, 36.8105613], [-97.3379978, 36.8105598]]]}, "properties": {"osm_id": 754444014, "building": "retail", "name": "Braum's", "height": null, "height_m": null, "levels": null, "tract_id": "40071001301", "tract_name": "13.01", "tags": {"addr:city": "Blackwell", "addr:housenumber": "823", "addr:postcode": "74631", "addr:state": "OK", "addr:street": "South 44th Street", "amenity": "fast_food", "brand": "Braum's", "brand:wikidata": "Q4958263", "building": "retail", "cuisine": "ice_cream;burger", "drive_through": "yes", "name": "Braum's", "phone": "+1-580-363-2610", "shop": "dairy", "takeaway": "yes"}}}, {"type": "Feature", "geometry": {"type": "Polygon", "coordinates": [[[-97.3368443, 36.8110279], [-97.3367528, 36.8110283], [-97.3367501, 36.8105696], [-97.3368415, 36.8105693], [-97.3368443, 36.8110279]]]}, "properties": {"osm_id": 754444015, "building": "roof", "name": "Casey's General Store", "height": null, "height_m": null, "levels": null, "tract_id": "40071001301", "tract_name": "13.01", "tags": {"amenity": "fuel", "brand": "Casey's General Store", "brand:wikidata": "Q2940968", "building": "roof", "compressed_air": "no", "name": "Casey's General Store", "opening_hours": "24/7", "self_service": "yes"}}}, {"type": "Feature", "geometry": {"type": "Polygon", "coordinates": [[[-97.3366606, 36.8102883], [-97.33666, 36.8102232], [-97.3369236, 36.8102217], [-97.3369241, 36.8102868], [-97.3366606, 36.8102883]]]}, "properties": {"osm_id": 754444016, "building": "roof", "name": "", "height": null, "height_m": null, "levels": null, "tract_id": "40071001301", "tract_name": "13.01", "tags": {"building": "roof"}}}, {"type": "Feature", "geometry": {"type": "Polygon", "coordinates": [[[-97.3365413, 36.8109193], [-97.3365369, 36.8106122], [-97.3363727, 36.8106137], [-97.3363772, 36.8109208], [-97.3365413, 36.8109193]]]}, "properties": {"osm_id": 754444017, "building": "retail", "name": "Casey's General Store", "height": null, "height_m": null, "levels": null, "tract_id": "40071001301", "tract_name": "13.01", "tags": {"addr:city": "Blackwell", "addr:housenumber": "4415", "addr:postcode": "74637", "addr:state": "OK", "addr:street": "West Doolin Avenue", "brand": "Casey's General Store", "brand:wikidata": "Q2940968", "building": "retail", "name": "Casey's General Store", "opening_hours": "24/7", "roof:shape": "flat", "shop": "convenience"}}}, {"type": "Feature", "geometry": {"type": "Polygon", "coordinates": [[[-97.3382816, 36.8100719], [-97.3382776, 36.8098564], [-97.3375454, 36.8098652], [-97.3375495, 36.8100807], [-97.3377589, 36.8100793], [-97.3379064, 36.8100781], [-97.3382816, 36.8100719]]]}, "properties": {"osm_id": 859089374, "building": "hotel", "name": "Holiday Inn Express", "height": null, "height_m": null, "levels": null, "tract_id": "40071001301", "tract_name": "13.01", "tags": {"addr:city": "Blackwell", "addr:housenumber": "827", "addr:postcode": "74631", "addr:state": "OK", "addr:street": "South 44th Street", "branch": "Blackwell", "brand": "Holiday Inn Express", "brand:wikidata": "Q5880423", "building": "hotel", "dog": "yes", "internet_access": "wlan", "internet_access:fee": "no", "name": "Holiday Inn Express", "phone": "+1 580-363-1700", "ref": "BKOOK", "roof:shape": "flat", "tourism": "hotel", "website": "https://www.ihg.com/holidayinnexpress/hotels/us/en/blackwell/bkook/hoteldetail", "wikimedia_commons": "File:Holiday Inn Express, Blackwell, Oklahoma.jpg"}}}, {"type": "Feature", "geometry": {"type": "Polygon", "coordinates": [[[-97.4074949, 36.7682241], [-97.4074787, 36.7680576], [-97.4075838, 36.768051], [-97.4076, 36.7682176], [-97.4074949, 36.7682241]]]}, "properties": {"osm_id": 879885706, "building": "yes", "name": "", "height": null, "height_m": null, "levels": null, "tract_id": "40071001301", "tract_name": "13.01", "tags": {"building": "yes"}}}, {"type": "Feature", "geometry": {"type": "Polygon", "coordinates": [[[-97.4081632, 36.7680883], [-97.408162, 36.7679352], [-97.4082676, 36.7679346], [-97.4082689, 36.7680877], [-97.4081632, 36.7680883]]]}, "properties": {"osm_id": 879885707, "building": "yes", "name": "", "height": null, "height_m": null, "levels": null, "tract_id": "40071001301", "tract_name": "13.01", "tags": {"building": "yes"}}}, {"type": "Feature", "geometry": {"type": "Polygon", "coordinates": [[[-97.4078505, 36.768474], [-97.4078341, 36.7682232], [-97.4077475, 36.7682268], [-97.4077511, 36.768282], [-97.4076873, 36.7682847], [-97.407696, 36.7684168], [-97.4076594, 36.7684183], [-97.4076635, 36.7684819], [-97.4078505, 36.768474]]]}, "properties": {"osm_id": 879885708, "building": "yes", "name": "", "height": null, "height_m": null, "levels": null, "tract_id": "40071001301", "tract_name": "13.01", "tags": {"building": "yes"}}}, {"type": "Feature", "geometry": {"type": "Polygon", "coordinates": [[[-97.4072687, 36.767253], [-97.4070423, 36.7672589], [-97.4070391, 36.7671809], [-97.4072655, 36.767175], [-97.4072687, 36.767253]]]}, "properties": {"osm_id": 879885710, "building": "yes", "name": "", "height": null, "height_m": null, "levels": null, "tract_id": "40071001301", "tract_name": "13.01", "tags": {"building": "yes"}}}, {"type": "Feature", "geometry": {"type": "Polygon", "coordinates": [[[-97.406896, 36.7673372], [-97.4067961, 36.7673383], [-97.4067947, 36.7672561], [-97.4068947, 36.767255], [-97.406896, 36.7673372]]]}, "properties": {"osm_id": 879885711, "building": "yes", "name": "", "height": null, "height_m": null, "levels": null, "tract_id": "40071001301", "tract_name": "13.01", "tags": {"building": "yes"}}}, {"type": "Feature", "geometry": {"type": "Polygon", "coordinates": [[[-97.4063619, 36.7673373], [-97.4062265, 36.7673411], [-97.4062289, 36.7673971], [-97.4063643, 36.7673933], [-97.4063619, 36.7673373]]]}, "properties": {"osm_id": 879885712, "building": "yes", "name": "", "height": null, "height_m": null, "levels": null, "tract_id": "40071001301", "tract_name": "13.01", "tags": {"building": "yes"}}}, {"type": "Feature", "geometry": {"type": "Polygon", "coordinates": [[[-97.4065368, 36.7722386], [-97.4062729, 36.7720763], [-97.4063912, 36.7719528], [-97.4066552, 36.772115], [-97.4065368, 36.7722386]]]}, "properties": {"osm_id": 879885715, "building": "yes", "name": "", "height": null, "height_m": null, "levels": null, "tract_id": "40071001301", "tract_name": "13.01", "tags": {"building": "yes"}}}, {"type": "Feature", "geometry": {"type": "Polygon", "coordinates": [[[-97.4069102, 36.7723721], [-97.4070347, 36.7722669], [-97.4070912, 36.7723098], [-97.407036, 36.7723565], [-97.4070472, 36.772365], [-97.4069905, 36.772413], [-97.4069711, 36.7723983], [-97.4069586, 36.7724089], [-97.4069102, 36.7723721]]]}, "properties": {"osm_id": 879885716, "building": "yes", "name": "", "height": null, "height_m": null, "levels": null, "tract_id": "40071001301", "tract_name": "13.01", "tags": {"building": "yes"}}}, {"type": "Feature", "geometry": {"type": "Polygon", "coordinates": [[[-97.4072238, 36.7728651], [-97.4072442, 36.7726822], [-97.4071558, 36.7726758], [-97.4071354, 36.7728587], [-97.4072238, 36.7728651]]]}, "properties": {"osm_id": 879885717, "building": "yes", "name": "", "height": null, "height_m": null, "levels": null, "tract_id": "40071001301", "tract_name": "13.01", "tags": {"building": "yes"}}}, {"type": "Feature", "geometry": {"type": "Polygon", "coordinates": [[[-97.4099088, 36.7713895], [-97.4099071, 36.7712646], [-97.4100724, 36.7712645], [-97.410074, 36.7713116], [-97.4100347, 36.7713116], [-97.4100347, 36.7713388], [-97.4099611, 36.7713388], [-97.4099612, 36.7713895], [-97.4099088, 36.7713895]]]}, "properties": {"osm_id": 879885719, "building": "yes", "name": "", "height": null, "height_m": null, "levels": null, "tract_id": "40071001301", "tract_name": "13.01", "tags": {"building": "yes"}}}, {"type": "Feature", "geometry": {"type": "Polygon", "coordinates": [[[-97.4106217, 36.7711737], [-97.410413, 36.7711714], [-97.4104113, 36.7712646], [-97.41062, 36.771267], [-97.4106217, 36.7711737]]]}, "properties": {"osm_id": 879885720, "building": "yes", "name": "", "height": null, "height_m": null, "levels": null, "tract_id": "40071001301", "tract_name": "13.01", "tags": {"building": "yes"}}}, {"type": "Feature", "geometry": {"type": "Polygon", "coordinates": [[[-97.4103477, 36.7717823], [-97.4102038, 36.7717828], [-97.4102036, 36.7717395], [-97.4103475, 36.771739], [-97.4103477, 36.7717823]]]}, "properties": {"osm_id": 879885721, "building": "yes", "name": "", "height": null, "height_m": null, "levels": null, "tract_id": "40071001301", "tract_name": "13.01", "tags": {"building": "yes"}}}, {"type": "Feature", "geometry": {"type": "Polygon", "coordinates": [[[-97.4106617, 36.7716413], [-97.4105994, 36.7716424], [-97.4105984, 36.7716092], [-97.4106607, 36.7716081], [-97.4106617, 36.7716413]]]}, "properties": {"osm_id": 879885722, "building": "yes", "name": "", "height": null, "height_m": null, "levels": null, "tract_id": "40071001301", "tract_name": "13.01", "tags": {"building": "yes"}}}, {"type": "Feature", "geometry": {"type": "Polygon", "coordinates": [[[-97.2859256, 36.8047852], [-97.2859233, 36.8044051], [-97.2857233, 36.8044058], [-97.2857256, 36.8047859], [-97.2859256, 36.8047852]]]}, "properties": {"osm_id": 1044738230, "building": "yes", "name": "", "height": null, "height_m": null, "levels": null, "tract_id": "40071001301", "tract_name": "13.01", "tags": {"addr:city": "Blackwell", "addr:housenumber": "105", "addr:postcode": "74631", "addr:state": "OK", "addr:street": "North 2nd Street", "building": "yes"}}}, {"type": "Feature", "geometry": {"type": "Polygon", "coordinates": [[[-97.3002274, 36.8056596], [-97.3002233, 36.8054189], [-97.3003884, 36.8054171], [-97.3003909, 36.8055642], [-97.3004631, 36.8055634], [-97.3004644, 36.8056371], [-97.3003821, 36.8056381], [-97.3003824, 36.805658], [-97.3002274, 36.8056596]]]}, "properties": {"osm_id": 1149555227, "building": "yes", "name": "Kingdom Hall Jehovahs Witness", "height": null, "height_m": null, "levels": null, "tract_id": "40071001301", "tract_name": "13.01", "tags": {"amenity": "place_of_worship", "building": "yes", "denomination": "jehovahs_witness", "ele": "307", "gnis:feature_id": "1782543", "name": "Kingdom Hall Jehovahs Witness", "religion": "christian"}}}, {"type": "Feature", "geometry": {"type": "Polygon", "coordinates": [[[-97.3379081, 36.8102128], [-97.3377606, 36.810214], [-97.3377589, 36.8100793], [-97.3379064, 36.8100781], [-97.3379081, 36.8102128]]]}, "properties": {"osm_id": 1169710477, "building": "roof", "name": "", "height": null, "height_m": null, "levels": null, "tract_id": "40071001301", "tract_name": "13.01", "tags": {"building": "roof", "layer": "1", "roof:shape": "flat"}}}, {"type": "Feature", "geometry": {"type": "Polygon", "coordinates": [[[-97.3095985, 36.7961075], [-97.3093341, 36.7961083], [-97.3093334, 36.795947], [-97.3092268, 36.7959473], [-97.3092277, 36.7961131], [-97.3089225, 36.796114], [-97.3089133, 36.7959007], [-97.308838, 36.795901], [-97.3088389, 36.7961062], [-97.3083155, 36.7961046], [-97.3083146, 36.7959138], [-97.3082111, 36.7959141], [-97.3082121, 36.7961111], [-97.3079201, 36.796112], [-97.3079186, 36.7957975], [-97.3081912, 36.7957967], [-97.3081916, 36.795875], [-97.3083334, 36.7958746], [-97.3083312, 36.795387], [-97.3088395, 36.7953855], [-97.3088415, 36.7958202], [-97.3089273, 36.79582], [-97.3089261, 36.7955738], [-97.3092184, 36.7955729], [-97.3092195, 36.7958121], [-97.3093217, 36.7958117], [-97.3093205, 36.7955757], [-97.3095959, 36.7955748], [-97.3095985, 36.7961075]]]}, "properties": {"osm_id": 1169715246, "building": "yes", "name": "", "height": null, "height_m": null, "levels": null, "tract_id": "40071001301", "tract_name": "13.01", "tags": {"building": "yes"}}}, {"type": "Feature", "geometry": {"type": "Polygon", "coordinates": [[[-97.2834837, 36.8019819], [-97.283249, 36.8019787], [-97.2832544, 36.8016275], [-97.283485, 36.8016254], [-97.2834837, 36.8016554], [-97.2835481, 36.8016554], [-97.2835494, 36.801751], [-97.2835916, 36.8017483], [-97.2835913, 36.8019467], [-97.2834852, 36.8019471], [-97.2834837, 36.8019819]]]}, "properties": {"osm_id": 1196226315, "building": "yes", "name": "Top of Oklahoma Historical", "height": null, "height_m": null, "levels": null, "tract_id": "40071001301", "tract_name": "13.01", "tags": {"building": "yes", "name": "Top of Oklahoma Historical", "tourism": "museum"}}}]}