{"type": "FeatureCollection", "features": [{"type": "Feature", "geometry": {"type": "Polygon", "coordinates": [[[-97.5762116, 35.4508933], [-97.575418, 35.4513721], [-97.5754344, 35.4513902], [-97.5754463, 35.451567], [-97.5754207, 35.4515824], [-97.5759688, 35.4521856], [-97.5757662, 35.4523078], [-97.575798, 35.4523427], [-97.5757392, 35.4523782], [-97.5756551, 35.4522857], [-97.575534, 35.4523588], [-97.5753176, 35.4521207], [-97.5752872, 35.452139], [-97.5752181, 35.452063], [-97.5752485, 35.4520447], [-97.5750371, 35.451812], [-97.5751577, 35.4517392], [-97.5750722, 35.4516451], [-97.5751293, 35.4516107], [-97.5751595, 35.451644], [-97.5752676, 35.4515788], [-97.5752198, 35.4515262], [-97.5753317, 35.4514587], [-97.5753171, 35.4514426], [-97.5752541, 35.4514806], [-97.5751628, 35.4513803], [-97.5752474, 35.4513292], [-97.575185, 35.4512606], [-97.5751441, 35.4512853], [-97.5751013, 35.4512383], [-97.5752472, 35.4511503], [-97.5751539, 35.4510477], [-97.5754418, 35.4508739], [-97.575399, 35.4508268], [-97.5754927, 35.4507702], [-97.5755356, 35.4508173], [-97.5758279, 35.4506409], [-97.5759194, 35.4507415], [-97.5760607, 35.4506562], [-97.5761027, 35.4507024], [-97.5760609, 35.4507276], [-97.5762116, 35.4508933]]]}, "properties": {"osm_id": 292821425, "building": "yes", "name": "Dell OKC", "height": null, "height_m": null, "levels": null, "tract_id": "40109105600", "tract_name": "1056", "tags": {"building": "yes", "name": "Dell OKC", "office": "company", "source": "Bing"}}}, {"type": "Feature", "geometry": {"type": "Polygon", "coordinates": [[[-97.5829766, 35.4435612], [-97.5828089, 35.4435612], [-97.5828089, 35.4432801], [-97.5829766, 35.4432801], [-97.5829766, 35.4435612]]]}, "properties": {"osm_id": 292824954, "building": "yes", "name": "", "height": null, "height_m": null, "levels": null, "tract_id": "40109105600", "tract_name": "1056", "tags": {"building": "yes", "roof:shape": "flat", "source": "Bing"}}}, {"type": "Feature", "geometry": {"type": "Polygon", "coordinates": [[[-97.5828984, 35.4440228], [-97.5827242, 35.4440228], [-97.5827242, 35.4436077], [-97.5828984, 35.4436077], [-97.5828984, 35.4440228]]]}, "properties": {"osm_id": 292824958, "building": "yes", "name": "", "height": null, "height_m": null, "levels": null, "tract_id": "40109105600", "tract_name": "1056", "tags": {"building": "yes", "roof:shape": "flat", "source": "Bing"}}}, {"type": "Feature", "geometry": {"type": "Polygon", "coordinates": [[[-97.582676, 35.4474692], [-97.5823351, 35.4474692], [-97.5823352, 35.4473733], [-97.582308, 35.4473733], [-97.582308, 35.4474692], [-97.5822197, 35.4474692], [-97.5822197, 35.4472856], [-97.5823072, 35.4472856], [-97.5823072, 35.4473436], [-97.5823336, 35.4473436], [-97.5823336, 35.4473266], [-97.582676, 35.4473266], [-97.582676, 35.4474692]]]}, "properties": {"osm_id": 293246984, "building": "yes", "name": "", "height": null, "height_m": null, "levels": null, "tract_id": "40109105600", "tract_name": "1056", "tags": {"building": "yes", "source": "Bing"}}}, {"type": "Feature", "geometry": {"type": "Polygon", "coordinates": [[[-97.5830073, 35.4399032], [-97.5828802, 35.4399032], [-97.5828802, 35.4396881], [-97.5830073, 35.4396881], [-97.5830073, 35.4399032]]]}, "properties": {"osm_id": 293246989, "building": "yes", "name": "", "height": null, "height_m": null, "levels": null, "tract_id": "40109105600", "tract_name": "1056", "tags": {"building": "yes", "source": "Bing"}}}, {"type": "Feature", "geometry": {"type": "Polygon", "coordinates": [[[-97.5828606, 35.4411983], [-97.582625, 35.4411983], [-97.582625, 35.4409383], [-97.5828606, 35.4409383], [-97.5828606, 35.4411983]]]}, "properties": {"osm_id": 293246991, "building": "yes", "name": "", "height": null, "height_m": null, "levels": null, "tract_id": "40109105600", "tract_name": "1056", "tags": {"building": "yes", "source": "Bing"}}}, {"type": "Feature", "geometry": {"type": "Polygon", "coordinates": [[[-97.5830401, 35.4426005], [-97.5828331, 35.4426005], [-97.5828331, 35.4424764], [-97.5830401, 35.4424764], [-97.5830401, 35.4426005]]]}, "properties": {"osm_id": 293246995, "building": "yes", "name": "", "height": null, "height_m": null, "levels": null, "tract_id": "40109105600", "tract_name": "1056", "tags": {"building": "yes", "source": "Bing"}}}, {"type": "Feature", "geometry": {"type": "Polygon", "coordinates": [[[-97.5825001, 35.4414793], [-97.5821825, 35.4414793], [-97.5821825, 35.4412672], [-97.5825001, 35.4412672], [-97.5825001, 35.4414793]]]}, "properties": {"osm_id": 293247003, "building": "yes", "name": "", "height": null, "height_m": null, "levels": null, "tract_id": "40109105600", "tract_name": "1056", "tags": {"building": "yes", "source": "Bing"}}}, {"type": "Feature", "geometry": {"type": "Polygon", "coordinates": [[[-97.5829553, 35.4356589], [-97.5828158, 35.4356589], [-97.5828158, 35.4353875], [-97.5829553, 35.4353875], [-97.5829553, 35.4356589]]]}, "properties": {"osm_id": 293247007, "building": "yes", "name": "", "height": null, "height_m": null, "levels": null, "tract_id": "40109105600", "tract_name": "1056", "tags": {"building": "yes", "source": "Bing"}}}, {"type": "Feature", "geometry": {"type": "Polygon", "coordinates": [[[-97.5817994, 35.4477176], [-97.5815949, 35.4477176], [-97.5815949, 35.4473831], [-97.5817994, 35.4473831], [-97.5817994, 35.4477176]]]}, "properties": {"osm_id": 293247015, "building": "yes", "name": "", "height": null, "height_m": null, "levels": null, "tract_id": "40109105600", "tract_name": "1056", "tags": {"building": "yes", "source": "Bing"}}}, {"type": "Feature", "geometry": {"type": "Polygon", "coordinates": [[[-97.5828164, 35.4424091], [-97.5824143, 35.4424091], [-97.5824143, 35.4422476], [-97.5828164, 35.4422476], [-97.5828164, 35.4424091]]]}, "properties": {"osm_id": 293247021, "building": "yes", "name": "", "height": null, "height_m": null, "levels": null, "tract_id": "40109105600", "tract_name": "1056", "tags": {"building": "yes", "source": "Bing"}}}, {"type": "Feature", "geometry": {"type": "Polygon", "coordinates": [[[-97.582995, 35.4424127], [-97.582869, 35.4424127], [-97.582869, 35.4421485], [-97.582995, 35.4421485], [-97.582995, 35.4424127]]]}, "properties": {"osm_id": 293247022, "building": "yes", "name": "", "height": null, "height_m": null, "levels": null, "tract_id": "40109105600", "tract_name": "1056", "tags": {"building": "yes", "source": "Bing"}}}, {"type": "Feature", "geometry": {"type": "Polygon", "coordinates": [[[-97.5830053, 35.4417772], [-97.5828348, 35.4417772], [-97.5828348, 35.4415828], [-97.5825776, 35.4415828], [-97.5825776, 35.4414982], [-97.5830053, 35.4414982], [-97.5830053, 35.4417772]]]}, "properties": {"osm_id": 293247036, "building": "yes", "name": "", "height": null, "height_m": null, "levels": null, "tract_id": "40109105600", "tract_name": "1056", "tags": {"building": "yes", "source": "Bing"}}}, {"type": "Feature", "geometry": {"type": "Polygon", "coordinates": [[[-97.582313, 35.4475055], [-97.582313, 35.4475795], [-97.5823228, 35.4475795], [-97.5823228, 35.447725], [-97.5821826, 35.447725], [-97.5821826, 35.4475055], [-97.582313, 35.4475055]]]}, "properties": {"osm_id": 293247037, "building": "yes", "name": "", "height": null, "height_m": null, "levels": null, "tract_id": "40109105600", "tract_name": "1056", "tags": {"building": "yes", "source": "Bing"}}}, {"type": "Feature", "geometry": {"type": "Polygon", "coordinates": [[[-97.583004, 35.4396791], [-97.5822524, 35.4396791], [-97.5822524, 35.439597], [-97.5827619, 35.439597], [-97.5827619, 35.4396131], [-97.583004, 35.4396131], [-97.583004, 35.4396791]]]}, "properties": {"osm_id": 293247040, "building": "yes", "name": "", "height": null, "height_m": null, "levels": null, "tract_id": "40109105600", "tract_name": "1056", "tags": {"building": "yes", "source": "Bing"}}}, {"type": "Feature", "geometry": {"type": "Polygon", "coordinates": [[[-97.5818152, 35.4426238], [-97.5817352, 35.4426238], [-97.5817352, 35.4424899], [-97.5818152, 35.4424899], [-97.5818152, 35.4426238]]]}, "properties": {"osm_id": 293251609, "building": "yes", "name": "", "height": null, "height_m": null, "levels": null, "tract_id": "40109105600", "tract_name": "1056", "tags": {"building": "yes", "source": "Bing"}}}, {"type": "Feature", "geometry": {"type": "Polygon", "coordinates": [[[-97.582615, 35.4426247], [-97.5825186, 35.4426247], [-97.5825186, 35.4424935], [-97.582615, 35.4424935], [-97.582615, 35.4426247]]]}, "properties": {"osm_id": 293251610, "building": "yes", "name": "", "height": null, "height_m": null, "levels": null, "tract_id": "40109105600", "tract_name": "1056", "tags": {"building": "yes", "source": "Bing"}}}, {"type": "Feature", "geometry": {"type": "Polygon", "coordinates": [[[-97.5821767, 35.4425443], [-97.5820606, 35.4425443], [-97.5820606, 35.442489], [-97.5821767, 35.442489], [-97.5821767, 35.4425443]]]}, "properties": {"osm_id": 293251611, "building": "yes", "name": "", "height": null, "height_m": null, "levels": null, "tract_id": "40109105600", "tract_name": "1056", "tags": {"building": "yes", "source": "Bing"}}}, {"type": "Feature", "geometry": {"type": "Polygon", "coordinates": [[[-97.5823104, 35.4426247], [-97.5822217, 35.4426247], [-97.5822217, 35.442489], [-97.5823104, 35.442489], [-97.5823104, 35.4426247]]]}, "properties": {"osm_id": 293251612, "building": "yes", "name": "", "height": null, "height_m": null, "levels": null, "tract_id": "40109105600", "tract_name": "1056", "tags": {"building": "yes", "source": "Bing"}}}, {"type": "Feature", "geometry": {"type": "Polygon", "coordinates": [[[-97.5819028, 35.4426256], [-97.5818283, 35.4426256], [-97.5818283, 35.442489], [-97.5819028, 35.442489], [-97.5819028, 35.4426256]]]}, "properties": {"osm_id": 293251613, "building": "yes", "name": "", "height": null, "height_m": null, "levels": null, "tract_id": "40109105600", "tract_name": "1056", "tags": {"building": "yes", "source": "Bing"}}}, {"type": "Feature", "geometry": {"type": "Polygon", "coordinates": [[[-97.5824123, 35.4426256], [-97.5823279, 35.4426256], [-97.5823279, 35.442489], [-97.5824123, 35.442489], [-97.5824123, 35.4426256]]]}, "properties": {"osm_id": 293251614, "building": "yes", "name": "", "height": null, "height_m": null, "levels": null, "tract_id": "40109105600", "tract_name": "1056", "tags": {"building": "yes", "source": "Bing"}}}, {"type": "Feature", "geometry": {"type": "Polygon", "coordinates": [[[-97.5824978, 35.4426247], [-97.5824233, 35.4426247], [-97.5824233, 35.4424872], [-97.5824978, 35.4424872], [-97.5824978, 35.4426247]]]}, "properties": {"osm_id": 293251615, "building": "yes", "name": "", "height": null, "height_m": null, "levels": null, "tract_id": "40109105600", "tract_name": "1056", "tags": {"building": "yes", "source": "Bing"}}}, {"type": "Feature", "geometry": {"type": "Polygon", "coordinates": [[[-97.582019, 35.4426256], [-97.5819258, 35.4426256], [-97.5819258, 35.442489], [-97.582019, 35.442489], [-97.582019, 35.4426256]]]}, "properties": {"osm_id": 293251616, "building": "yes", "name": "", "height": null, "height_m": null, "levels": null, "tract_id": "40109105600", "tract_name": "1056", "tags": {"building": "yes", "source": "Bing"}}}, {"type": "Feature", "geometry": {"type": "Polygon", "coordinates": [[[-97.5817122, 35.4426202], [-97.5816256, 35.4426202], [-97.5816256, 35.442489], [-97.5817122, 35.442489], [-97.5817122, 35.4426202]]]}, "properties": {"osm_id": 293251618, "building": "yes", "name": "", "height": null, "height_m": null, "levels": null, "tract_id": "40109105600", "tract_name": "1056", "tags": {"building": "yes", "source": "Bing"}}}, {"type": "Feature", "geometry": {"type": "Polygon", "coordinates": [[[-97.5706874, 35.4418548], [-97.5706874, 35.4416106], [-97.5707123, 35.4416106], [-97.5707123, 35.4415677], [-97.5709845, 35.4415677], [-97.5709845, 35.441551], [-97.5713619, 35.441551], [-97.5713619, 35.4417661], [-97.5710461, 35.4417661], [-97.5710461, 35.4417727], [-97.570914, 35.4417727], [-97.570914, 35.4418548], [-97.5706874, 35.4418548]]]}, "properties": {"osm_id": 293258679, "building": "yes", "name": "", "height": null, "height_m": null, "levels": null, "tract_id": "40109105600", "tract_name": "1056", "tags": {"building": "yes", "source": "Bing"}}}, {"type": "Feature", "geometry": {"type": "Polygon", "coordinates": [[[-97.5710582, 35.4404757], [-97.5706682, 35.4404757], [-97.5706683, 35.4403362], [-97.5708958, 35.4403362], [-97.5708959, 35.4402264], [-97.5707049, 35.4402264], [-97.5707049, 35.4401869], [-97.5706686, 35.4401869], [-97.5706686, 35.4401653], [-97.5706686, 35.4401458], [-97.5707049, 35.4401458], [-97.570705, 35.4401079], [-97.5710583, 35.440108], [-97.5710582, 35.4404757]]]}, "properties": {"osm_id": 293258680, "building": "yes", "name": "", "height": null, "height_m": null, "levels": null, "tract_id": "40109105600", "tract_name": "1056", "tags": {"building": "yes", "source": "Bing"}}}, {"type": "Feature", "geometry": {"type": "Polygon", "coordinates": [[[-97.5707391, 35.4414557], [-97.5707391, 35.4413723], [-97.5707508, 35.4413723], [-97.5707508, 35.4411489], [-97.5709559, 35.4411489], [-97.5709559, 35.4413485], [-97.5710124, 35.4413485], [-97.5710124, 35.4412536], [-97.5712245, 35.4412536], [-97.5712245, 35.4413466], [-97.5712566, 35.4413466], [-97.5712566, 35.4412739], [-97.5713039, 35.4412739], [-97.5713039, 35.4412638], [-97.5714181, 35.4412638], [-97.5714396, 35.4412638], [-97.5714395, 35.4412748], [-97.5714485, 35.4412748], [-97.5714485, 35.4413488], [-97.5714672, 35.4413488], [-97.5714672, 35.4414557], [-97.5707391, 35.4414557]]]}, "properties": {"osm_id": 293258681, "building": "yes", "name": "", "height": null, "height_m": null, "levels": null, "tract_id": "40109105600", "tract_name": "1056", "tags": {"building": "yes", "source": "Bing"}}}, {"type": "Feature", "geometry": {"type": "Polygon", "coordinates": [[[-97.5710884, 35.4398316], [-97.571001, 35.4398316], [-97.571001, 35.4396608], [-97.5710884, 35.4396608], [-97.5710884, 35.4398316]]]}, "properties": {"osm_id": 293258683, "building": "yes", "name": "", "height": null, "height_m": null, "levels": null, "tract_id": "40109105600", "tract_name": "1056", "tags": {"building": "yes", "source": "Bing"}}}, {"type": "Feature", "geometry": {"type": "Polygon", "coordinates": [[[-97.5724311, 35.4413784], [-97.5715853, 35.4413784], [-97.5715853, 35.4413079], [-97.5724311, 35.4413079], [-97.5724311, 35.4413784]]]}, "properties": {"osm_id": 293258684, "building": "yes", "name": "", "height": null, "height_m": null, "levels": null, "tract_id": "40109105600", "tract_name": "1056", "tags": {"building": "yes", "source": "Bing"}}}, {"type": "Feature", "geometry": {"type": "Polygon", "coordinates": [[[-97.570968, 35.4398312], [-97.5708805, 35.4398312], [-97.5708805, 35.4396604], [-97.570968, 35.4396604], [-97.570968, 35.4398312]]]}, "properties": {"osm_id": 293258685, "building": "yes", "name": "", "height": null, "height_m": null, "levels": null, "tract_id": "40109105600", "tract_name": "1056", "tags": {"building": "yes", "source": "Bing"}}}, {"type": "Feature", "geometry": {"type": "Polygon", "coordinates": [[[-97.5741923, 35.4428768], [-97.5741539, 35.4429211], [-97.5740985, 35.4428893], [-97.5741369, 35.442845], [-97.5741923, 35.4428768]]]}, "properties": {"osm_id": 293258686, "building": "roof", "name": "", "height": null, "height_m": null, "levels": null, "tract_id": "40109105600", "tract_name": "1056", "tags": {"amenity": "shelter", "building": "roof", "source": "Bing"}}}, {"type": "Feature", "geometry": {"type": "Polygon", "coordinates": [[[-97.5707409, 35.4406821], [-97.5708819, 35.4406821], [-97.5708819, 35.4408871], [-97.5708114, 35.4408871], [-97.5708114, 35.4408994], [-97.5707409, 35.4408994], [-97.5707409, 35.4406821]]]}, "properties": {"osm_id": 293258687, "building": "yes", "name": "", "height": null, "height_m": null, "levels": null, "tract_id": "40109105600", "tract_name": "1056", "tags": {"building": "yes", "source": "Bing"}}}, {"type": "Feature", "geometry": {"type": "Polygon", "coordinates": [[[-97.5672246, 35.4433], [-97.5672263, 35.4429673], [-97.5671457, 35.442967], [-97.5671449, 35.4431275], [-97.5666243, 35.4431257], [-97.5666252, 35.442962], [-97.5661388, 35.4429603], [-97.5661378, 35.4431572], [-97.5658633, 35.4431563], [-97.5658626, 35.4432953], [-97.5672246, 35.4433]]]}, "properties": {"osm_id": 496888665, "building": "industrial", "name": "", "height": null, "height_m": null, "levels": null, "tract_id": "40109105600", "tract_name": "1056", "tags": {"building": "industrial"}}}, {"type": "Feature", "geometry": {"type": "Polygon", "coordinates": [[[-97.5661085, 35.4434715], [-97.5661085, 35.443356], [-97.5658332, 35.4433513], [-97.5658332, 35.4434692], [-97.5661085, 35.4434715]]]}, "properties": {"osm_id": 496888667, "building": "industrial", "name": "", "height": null, "height_m": null, "levels": null, "tract_id": "40109105600", "tract_name": "1056", "tags": {"building": "industrial"}}}, {"type": "Feature", "geometry": {"type": "Polygon", "coordinates": [[[-97.5661041, 35.4354296], [-97.5657755, 35.4354234], [-97.5657791, 35.4352982], [-97.5661077, 35.4353045], [-97.5661041, 35.4354296]]]}, "properties": {"osm_id": 500141894, "building": "yes", "name": "KFC", "height": null, "height_m": null, "levels": null, "tract_id": "40109105600", "tract_name": "1056", "tags": {"addr:city": "Oklahoma City", "addr:housenumber": "2903", "addr:postcode": "73119", "addr:state": "OK", "addr:street": "Southwest 29th Street", "alt_name": "Kentucky Fried Chicken", "amenity": "fast_food", "brand": "KFC", "brand:wikidata": "Q524757", "building": "yes", "cuisine": "chicken", "name": "KFC", "takeaway": "yes", "website": "https://locations.kfc.com/ok/oklahoma-city/2903-sw-29th-st"}}}, {"type": "Feature", "geometry": {"type": "Polygon", "coordinates": [[[-97.5661345, 35.4358669], [-97.5657542, 35.4358619], [-97.5657565, 35.4357403], [-97.5658505, 35.4357416], [-97.5658512, 35.435708], [-97.5660086, 35.43571], [-97.566008, 35.4357399], [-97.5661017, 35.4357411], [-97.5661023, 35.4357076], [-97.5661581, 35.4357083], [-97.5661573, 35.4357489], [-97.5661368, 35.4357486], [-97.5661345, 35.4358669]]]}, "properties": {"osm_id": 500141895, "building": "yes", "name": "McDonald's", "height": null, "height_m": null, "levels": null, "tract_id": "40109105600", "tract_name": "1056", "tags": {"addr:city": "Oklahoma City", "addr:housenumber": "2901", "addr:postcode": "73108-5625", "addr:state": "OK", "addr:street": "South May", "amenity": "fast_food", "brand": "McDonald's", "brand:wikidata": "Q38076", "building": "yes", "cuisine": "burger", "drive_through": "yes", "internet_access": "wlan", "name": "McDonald's", "opening_hours": "06:00-21:00", "phone": "+1 405-681-4225", "takeaway": "yes", "website": "https://www.mcdonalds.com/us/en-us/location/4244.html"}}}, {"type": "Feature", "geometry": {"type": "Polygon", "coordinates": [[[-97.5674005, 35.4355654], [-97.5674028, 35.4354575], [-97.5670721, 35.4354528], [-97.5670713, 35.4354922], [-97.5669579, 35.4354906], [-97.5669564, 35.4355591], [-97.5674005, 35.4355654]]]}, "properties": {"osm_id": 500141896, "building": "retail", "name": "Burger King", "height": null, "height_m": null, "levels": null, "tract_id": "40109105600", "tract_name": "1056", "tags": {"addr:city": "Oklahoma City", "addr:housenumber": "2929", "addr:postcode": "73119-1711", "addr:state": "OK", "addr:street": "Southwest 29th Street", "amenity": "fast_food", "brand": "Burger King", "brand:wikidata": "Q177054", "building": "retail", "cuisine": "burger", "delivery": "yes", "drive_through": "yes", "internet_access": "wlan", "name": "Burger King", "opening_hours": "07:00-22:00", "phone": "+1 405-685-6523", "ref": "3375", "takeaway": "yes", "website": "https://www.bk.com/store-locator/store/restaurant_1866"}}}, {"type": "Feature", "geometry": {"type": "Polygon", "coordinates": [[[-97.5657541, 35.4378117], [-97.5660127, 35.4378075], [-97.5660098, 35.4376888], [-97.5657512, 35.437693], [-97.5657541, 35.4378117]]]}, "properties": {"osm_id": 688746790, "building": "yes", "name": "", "height": null, "height_m": null, "levels": null, "tract_id": "40109105600", "tract_name": "1056", "tags": {"building": "yes"}}}, {"type": "Feature", "geometry": {"type": "Polygon", "coordinates": [[[-97.5660834, 35.4370521], [-97.5658608, 35.4370494], [-97.5658722, 35.4364233], [-97.5660949, 35.436426], [-97.5660834, 35.4370521]]]}, "properties": {"osm_id": 688746791, "building": "yes", "name": "", "height": null, "height_m": null, "levels": null, "tract_id": "40109105600", "tract_name": "1056", "tags": {"building": "yes"}}}, {"type": "Feature", "geometry": {"type": "Polygon", "coordinates": [[[-97.566022, 35.4558226], [-97.5661588, 35.455821], [-97.5661562, 35.4556802], [-97.5660195, 35.4556818], [-97.566022, 35.4558226]]]}, "properties": {"osm_id": 1250902047, "building": "yes", "name": "", "height": null, "height_m": null, "levels": null, "tract_id": "40109105600", "tract_name": "1056", "tags": {"building": "yes", "source": "microsoft/BuildingFootprints"}}}, {"type": "Feature", "geometry": {"type": "Polygon", "coordinates": [[[-97.5658075, 35.4557782], [-97.5658114, 35.4558863], [-97.5659534, 35.455883], [-97.5659496, 35.4557748], [-97.5658075, 35.4557782]]]}, "properties": {"osm_id": 1250902048, "building": "yes", "name": "", "height": null, "height_m": null, "levels": null, "tract_id": "40109105600", "tract_name": "1056", "tags": {"building": "yes", "source": "microsoft/BuildingFootprints"}}}, {"type": "Feature", "geometry": {"type": "Polygon", "coordinates": [[[-97.5663542, 35.4560004], [-97.5663569, 35.455913], [-97.5662684, 35.4559112], [-97.5662657, 35.4559985], [-97.5663542, 35.4560004]]]}, "properties": {"osm_id": 1250902049, "building": "yes", "name": "", "height": null, "height_m": null, "levels": null, "tract_id": "40109105600", "tract_name": "1056", "tags": {"building": "yes", "source": "microsoft/BuildingFootprints"}}}, {"type": "Feature", "geometry": {"type": "Polygon", "coordinates": [[[-97.5665125, 35.4553244], [-97.5663772, 35.4553207], [-97.5663736, 35.455408], [-97.566509, 35.4554117], [-97.5665125, 35.4553244]]]}, "properties": {"osm_id": 1250902050, "building": "yes", "name": "", "height": null, "height_m": null, "levels": null, "tract_id": "40109105600", "tract_name": "1056", "tags": {"building": "yes", "source": "microsoft/BuildingFootprints"}}}, {"type": "Feature", "geometry": {"type": "Polygon", "coordinates": [[[-97.5667472, 35.4554273], [-97.5668638, 35.4554251], [-97.5668605, 35.4553107], [-97.5667439, 35.4553129], [-97.5667472, 35.4554273]]]}, "properties": {"osm_id": 1250902051, "building": "yes", "name": "", "height": null, "height_m": null, "levels": null, "tract_id": "40109105600", "tract_name": "1056", "tags": {"building": "yes", "source": "microsoft/BuildingFootprints"}}}, {"type": "Feature", "geometry": {"type": "Polygon", "coordinates": [[[-97.5675222, 35.4553123], [-97.5674283, 35.4553134], [-97.5674294, 35.455378], [-97.5675233, 35.4553769], [-97.5675222, 35.4553123]]]}, "properties": {"osm_id": 1250902052, "building": "yes", "name": "", "height": null, "height_m": null, "levels": null, "tract_id": "40109105600", "tract_name": "1056", "tags": {"building": "yes", "source": "microsoft/BuildingFootprints"}}}, {"type": "Feature", "geometry": {"type": "Polygon", "coordinates": [[[-97.5667883, 35.4545474], [-97.5668619, 35.4545484], [-97.5668695, 35.4541618], [-97.5664673, 35.4541565], [-97.5664661, 35.4542155], [-97.5667948, 35.4542198], [-97.5667883, 35.4545474]]]}, "properties": {"osm_id": 1250902053, "building": "yes", "name": "", "height": null, "height_m": null, "levels": null, "tract_id": "40109105600", "tract_name": "1056", "tags": {"building": "yes", "source": "microsoft/BuildingFootprints"}}}, {"type": "Feature", "geometry": {"type": "Polygon", "coordinates": [[[-97.5662061, 35.4541395], [-97.5662086, 35.4543045], [-97.566399, 35.4543027], [-97.5663966, 35.4541376], [-97.5662061, 35.4541395]]]}, "properties": {"osm_id": 1250902054, "building": "yes", "name": "", "height": null, "height_m": null, "levels": null, "tract_id": "40109105600", "tract_name": "1056", "tags": {"building": "yes", "source": "microsoft/BuildingFootprints"}}}, {"type": "Feature", "geometry": {"type": "Polygon", "coordinates": [[[-97.5660906, 35.4543354], [-97.5658224, 35.4543345], [-97.5658212, 35.4545529], [-97.5660895, 35.4545538], [-97.5660906, 35.4543354]]]}, "properties": {"osm_id": 1250902055, "building": "yes", "name": "", "height": null, "height_m": null, "levels": null, "tract_id": "40109105600", "tract_name": "1056", "tags": {"building": "yes", "source": "microsoft/BuildingFootprints"}}}, {"type": "Feature", "geometry": {"type": "Polygon", "coordinates": [[[-97.5657634, 35.4535569], [-97.5661371, 35.45355], [-97.5661339, 35.4534342], [-97.5657601, 35.4534411], [-97.5657634, 35.4535569]]]}, "properties": {"osm_id": 1250902056, "building": "yes", "name": "", "height": null, "height_m": null, "levels": null, "tract_id": "40109105600", "tract_name": "1056", "tags": {"building": "yes", "source": "microsoft/BuildingFootprints"}}}, {"type": "Feature", "geometry": {"type": "Polygon", "coordinates": [[[-97.5658465, 35.4531411], [-97.5662982, 35.4531408], [-97.566298, 35.4529879], [-97.5662095, 35.452988], [-97.5662094, 35.4528634], [-97.5658463, 35.4528636], [-97.5658465, 35.4531411]]]}, "properties": {"osm_id": 1250902057, "building": "yes", "name": "", "height": null, "height_m": null, "levels": null, "tract_id": "40109105600", "tract_name": "1056", "tags": {"building": "yes", "source": "microsoft/BuildingFootprints"}}}, {"type": "Feature", "geometry": {"type": "Polygon", "coordinates": [[[-97.5675235, 35.4533422], [-97.5673905, 35.4533412], [-97.5673878, 35.4535749], [-97.5676737, 35.4535771], [-97.5676742, 35.4535312], [-97.5676994, 35.4535314], [-97.5676998, 35.4534965], [-97.5676692, 35.4534962], [-97.5676698, 35.4534482], [-97.5675545, 35.4534473], [-97.5675548, 35.4534189], [-97.5675226, 35.4534186], [-97.5675235, 35.4533422]]]}, "properties": {"osm_id": 1250902058, "building": "yes", "name": "", "height": null, "height_m": null, "levels": null, "tract_id": "40109105600", "tract_name": "1056", "tags": {"building": "yes", "source": "microsoft/BuildingFootprints"}}}, {"type": "Feature", "geometry": {"type": "Polygon", "coordinates": [[[-97.5657508, 35.4525879], [-97.5661075, 35.452592], [-97.5661099, 35.4524543], [-97.5661715, 35.452455], [-97.5661724, 35.452408], [-97.5663198, 35.4524097], [-97.566321, 35.4523432], [-97.5660957, 35.4523406], [-97.5660969, 35.452275], [-97.5659655, 35.4522735], [-97.5659634, 35.4523915], [-97.5657543, 35.4523891], [-97.5657508, 35.4525879]]]}, "properties": {"osm_id": 1250902059, "building": "yes", "name": "", "height": null, "height_m": null, "levels": null, "tract_id": "40109105600", "tract_name": "1056", "tags": {"building": "yes", "source": "microsoft/BuildingFootprints"}}}, {"type": "Feature", "geometry": {"type": "Polygon", "coordinates": [[[-97.5676832, 35.4518096], [-97.5675599, 35.4518078], [-97.5675555, 35.4520044], [-97.5676788, 35.4520062], [-97.5676832, 35.4518096]]]}, "properties": {"osm_id": 1250902060, "building": "yes", "name": "", "height": null, "height_m": null, "levels": null, "tract_id": "40109105600", "tract_name": "1056", "tags": {"building": "yes", "source": "microsoft/BuildingFootprints"}}}, {"type": "Feature", "geometry": {"type": "Polygon", "coordinates": [[[-97.5663956, 35.4513462], [-97.566291, 35.4513471], [-97.5662933, 35.4515132], [-97.5663979, 35.4515122], [-97.5663956, 35.4513462]]]}, "properties": {"osm_id": 1250902061, "building": "yes", "name": "", "height": null, "height_m": null, "levels": null, "tract_id": "40109105600", "tract_name": "1056", "tags": {"building": "yes", "source": "microsoft/BuildingFootprints"}}}, {"type": "Feature", "geometry": {"type": "Polygon", "coordinates": [[[-97.5657779, 35.4515572], [-97.5660327, 35.4515557], [-97.566032, 35.4514749], [-97.5657772, 35.4514763], [-97.5657779, 35.4515572]]]}, "properties": {"osm_id": 1250902062, "building": "yes", "name": "", "height": null, "height_m": null, "levels": null, "tract_id": "40109105600", "tract_name": "1056", "tags": {"building": "yes", "source": "microsoft/BuildingFootprints"}}}, {"type": "Feature", "geometry": {"type": "Polygon", "coordinates": [[[-97.5714237, 35.4471316], [-97.5714229, 35.4470458], [-97.5712739, 35.4470467], [-97.5712741, 35.4470626], [-97.5709918, 35.4470643], [-97.5709916, 35.4470468], [-97.5708394, 35.4470477], [-97.5708402, 35.4471317], [-97.5709863, 35.4471308], [-97.5709865, 35.4471497], [-97.5712805, 35.4471479], [-97.5712803, 35.4471324], [-97.5714237, 35.4471316]]]}, "properties": {"osm_id": 1250902153, "building": "yes", "name": "", "height": null, "height_m": null, "levels": null, "tract_id": "40109105600", "tract_name": "1056", "tags": {"building": "yes", "source": "microsoft/BuildingFootprints"}}}, {"type": "Feature", "geometry": {"type": "Polygon", "coordinates": [[[-97.5714949, 35.4471296], [-97.57155, 35.4472107], [-97.5715396, 35.4472154], [-97.5715567, 35.4472405], [-97.5715691, 35.4472349], [-97.5715794, 35.4472501], [-97.5715664, 35.4472559], [-97.5715853, 35.4472838], [-97.5715944, 35.4472797], [-97.5716472, 35.4473573], [-97.5717553, 35.4473085], [-97.5717069, 35.4472373], [-97.571712, 35.4472349], [-97.5716548, 35.4471508], [-97.5716501, 35.4471529], [-97.5716015, 35.4470815], [-97.5714949, 35.4471296]]]}, "properties": {"osm_id": 1250902154, "building": "yes", "name": "", "height": null, "height_m": null, "levels": null, "tract_id": "40109105600", "tract_name": "1056", "tags": {"building": "yes", "source": "microsoft/BuildingFootprints"}}}, {"type": "Feature", "geometry": {"type": "Polygon", "coordinates": [[[-97.5711946, 35.447548], [-97.5712465, 35.4476245], [-97.571342, 35.4475814], [-97.571352, 35.4475961], [-97.5715501, 35.4475069], [-97.5715396, 35.4474914], [-97.5716342, 35.4474489], [-97.5715823, 35.4473721], [-97.5714761, 35.4474199], [-97.571487, 35.4474359], [-97.5713093, 35.4475158], [-97.5712992, 35.4475009], [-97.5711946, 35.447548]]]}, "properties": {"osm_id": 1250902155, "building": "yes", "name": "", "height": null, "height_m": null, "levels": null, "tract_id": "40109105600", "tract_name": "1056", "tags": {"building": "yes", "source": "microsoft/BuildingFootprints"}}}, {"type": "Feature", "geometry": {"type": "Polygon", "coordinates": [[[-97.5713172, 35.4478908], [-97.5712686, 35.447822], [-97.5712743, 35.4478193], [-97.571216, 35.4477368], [-97.5712114, 35.447739], [-97.5711617, 35.4476687], [-97.5710562, 35.4477181], [-97.5711096, 35.4477938], [-97.5710984, 35.447799], [-97.5711517, 35.4478746], [-97.5711627, 35.4478694], [-97.5712124, 35.4479399], [-97.5713172, 35.4478908]]]}, "properties": {"osm_id": 1250902156, "building": "yes", "name": "", "height": null, "height_m": null, "levels": null, "tract_id": "40109105600", "tract_name": "1056", "tags": {"building": "yes", "source": "microsoft/BuildingFootprints"}}}, {"type": "Feature", "geometry": {"type": "Polygon", "coordinates": [[[-97.5716736, 35.4476768], [-97.571401, 35.4478048], [-97.5714613, 35.44789], [-97.5715567, 35.4478452], [-97.5715634, 35.4478547], [-97.5716448, 35.4478165], [-97.5716384, 35.4478075], [-97.5717342, 35.4477625], [-97.5716736, 35.4476768]]]}, "properties": {"osm_id": 1250902157, "building": "yes", "name": "", "height": null, "height_m": null, "levels": null, "tract_id": "40109105600", "tract_name": "1056", "tags": {"building": "yes", "source": "microsoft/BuildingFootprints"}}}, {"type": "Feature", "geometry": {"type": "Polygon", "coordinates": [[[-97.5718249, 35.4476921], [-97.5718618, 35.4477426], [-97.5718486, 35.447749], [-97.5718853, 35.4477991], [-97.5718963, 35.4477938], [-97.571931, 35.4478412], [-97.5720342, 35.4477912], [-97.5720206, 35.4477726], [-97.5720265, 35.4477697], [-97.5719471, 35.4476609], [-97.5719419, 35.4476634], [-97.5719268, 35.4476427], [-97.5718249, 35.4476921]]]}, "properties": {"osm_id": 1250902158, "building": "yes", "name": "", "height": null, "height_m": null, "levels": null, "tract_id": "40109105600", "tract_name": "1056", "tags": {"building": "yes", "source": "microsoft/BuildingFootprints"}}}, {"type": "Feature", "geometry": {"type": "Polygon", "coordinates": [[[-97.5720886, 35.4477602], [-97.5721492, 35.4478443], [-97.5722273, 35.4478069], [-97.5722345, 35.4478169], [-97.5722997, 35.4477857], [-97.5722929, 35.4477762], [-97.5723699, 35.4477394], [-97.5723099, 35.4476562], [-97.5722512, 35.4476843], [-97.572247, 35.4476784], [-97.5721432, 35.447728], [-97.5721465, 35.4477326], [-97.5720886, 35.4477602]]]}, "properties": {"osm_id": 1250902159, "building": "yes", "name": "", "height": null, "height_m": null, "levels": null, "tract_id": "40109105600", "tract_name": "1056", "tags": {"building": "yes", "source": "microsoft/BuildingFootprints"}}}, {"type": "Feature", "geometry": {"type": "Polygon", "coordinates": [[[-97.5722842, 35.4476223], [-97.5723903, 35.4475724], [-97.5723051, 35.4474522], [-97.5722866, 35.4474609], [-97.5721567, 35.4472772], [-97.5721739, 35.4472691], [-97.5720902, 35.4471509], [-97.5719856, 35.4471999], [-97.5720578, 35.447302], [-97.5720408, 35.44731], [-97.5721957, 35.4475289], [-97.5722125, 35.447521], [-97.5722842, 35.4476223]]]}, "properties": {"osm_id": 1250902160, "building": "yes", "name": "", "height": null, "height_m": null, "levels": null, "tract_id": "40109105600", "tract_name": "1056", "tags": {"building": "yes", "source": "microsoft/BuildingFootprints"}}}, {"type": "Feature", "geometry": {"type": "Polygon", "coordinates": [[[-97.572755, 35.4471478], [-97.5727549, 35.447048], [-97.5725883, 35.4470482], [-97.5725884, 35.4470653], [-97.5725537, 35.4470653], [-97.5725537, 35.44706], [-97.5725029, 35.4470601], [-97.5725029, 35.4470651], [-97.5724104, 35.4470652], [-97.5724104, 35.44706], [-97.572366, 35.44706], [-97.572366, 35.4470653], [-97.5723255, 35.4470653], [-97.5723255, 35.4470483], [-97.5721577, 35.4470485], [-97.5721578, 35.4471481], [-97.5723035, 35.447148], [-97.5723035, 35.447165], [-97.5726122, 35.4471647], [-97.5726122, 35.447148], [-97.572755, 35.4471478]]]}, "properties": {"osm_id": 1250902161, "building": "yes", "name": "", "height": null, "height_m": null, "levels": null, "tract_id": "40109105600", "tract_name": "1056", "tags": {"building": "yes", "source": "microsoft/BuildingFootprints"}}}, {"type": "Feature", "geometry": {"type": "Polygon", "coordinates": [[[-97.5727961, 35.4471442], [-97.5727976, 35.4472729], [-97.5728132, 35.4472727], [-97.5728136, 35.4473065], [-97.572798, 35.4473066], [-97.5727995, 35.4474365], [-97.5729208, 35.4474355], [-97.5729196, 35.4473374], [-97.572944, 35.4473372], [-97.5729428, 35.4472417], [-97.5729167, 35.4472419], [-97.5729156, 35.4471432], [-97.5727961, 35.4471442]]]}, "properties": {"osm_id": 1250902162, "building": "yes", "name": "", "height": null, "height_m": null, "levels": null, "tract_id": "40109105600", "tract_name": "1056", "tags": {"building": "yes", "source": "microsoft/BuildingFootprints"}}}, {"type": "Feature", "geometry": {"type": "Polygon", "coordinates": [[[-97.573974, 35.4470631], [-97.5739197, 35.4470633], [-97.5739197, 35.4470532], [-97.5738709, 35.4470534], [-97.5738709, 35.4470635], [-97.5738151, 35.4470637], [-97.5738152, 35.447083], [-97.5737769, 35.4470831], [-97.5737768, 35.4470724], [-97.5737264, 35.4470726], [-97.5737265, 35.4470832], [-97.5736345, 35.4470834], [-97.5736345, 35.4470714], [-97.5735833, 35.4470716], [-97.5735833, 35.4470838], [-97.5735421, 35.4470839], [-97.5735421, 35.4470633], [-97.5734894, 35.4470635], [-97.5734893, 35.4470551], [-97.5734414, 35.4470553], [-97.5734414, 35.4470638], [-97.5733867, 35.4470639], [-97.5733871, 35.4471532], [-97.5735304, 35.4471528], [-97.5735304, 35.4471702], [-97.5738291, 35.4471692], [-97.5738291, 35.4471527], [-97.5739744, 35.4471523], [-97.573974, 35.4470631]]]}, "properties": {"osm_id": 1250902163, "building": "yes", "name": "", "height": null, "height_m": null, "levels": null, "tract_id": "40109105600", "tract_name": "1056", "tags": {"building": "yes", "source": "microsoft/BuildingFootprints"}}}, {"type": "Feature", "geometry": {"type": "Polygon", "coordinates": [[[-97.5732417, 35.447382], [-97.5733621, 35.4473813], [-97.5733614, 35.4472914], [-97.5733743, 35.4472914], [-97.573374, 35.4472612], [-97.5733603, 35.4472613], [-97.5733602, 35.4472461], [-97.5733748, 35.447246], [-97.5733746, 35.4472144], [-97.5733614, 35.4472145], [-97.5733606, 35.4471234], [-97.5732404, 35.4471241], [-97.573241, 35.4472044], [-97.5732345, 35.4472045], [-97.5732352, 35.4473007], [-97.573241, 35.4473007], [-97.5732417, 35.447382]]]}, "properties": {"osm_id": 1250902164, "building": "yes", "name": "", "height": null, "height_m": null, "levels": null, "tract_id": "40109105600", "tract_name": "1056", "tags": {"building": "yes", "source": "microsoft/BuildingFootprints"}}}, {"type": "Feature", "geometry": {"type": "Polygon", "coordinates": [[[-97.5740658, 35.4473799], [-97.5741855, 35.44738], [-97.5741857, 35.4473005], [-97.5741933, 35.4473006], [-97.5741935, 35.4472047], [-97.5741865, 35.4472047], [-97.5741868, 35.4471229], [-97.5740673, 35.4471227], [-97.574067, 35.4472119], [-97.5740532, 35.4472119], [-97.574053, 35.447293], [-97.574066, 35.447293], [-97.5740658, 35.4473799]]]}, "properties": {"osm_id": 1250902165, "building": "yes", "name": "", "height": null, "height_m": null, "levels": null, "tract_id": "40109105600", "tract_name": "1056", "tags": {"building": "yes", "source": "microsoft/BuildingFootprints"}}}, {"type": "Feature", "geometry": {"type": "Polygon", "coordinates": [[[-97.574174, 35.4476353], [-97.5740512, 35.4476356], [-97.5740516, 35.4477487], [-97.574062, 35.4477487], [-97.5740622, 35.4478182], [-97.5740511, 35.4478183], [-97.5740515, 35.4479328], [-97.5741735, 35.4479325], [-97.5741732, 35.4478387], [-97.5741921, 35.4478387], [-97.5741917, 35.4477293], [-97.5741744, 35.4477294], [-97.574174, 35.4476353]]]}, "properties": {"osm_id": 1250902166, "building": "yes", "name": "", "height": null, "height_m": null, "levels": null, "tract_id": "40109105600", "tract_name": "1056", "tags": {"building": "yes", "source": "microsoft/BuildingFootprints"}}}, {"type": "Feature", "geometry": {"type": "Polygon", "coordinates": [[[-97.5740093, 35.4480164], [-97.5740083, 35.4479188], [-97.5738519, 35.4479198], [-97.573852, 35.4479343], [-97.5738085, 35.4479346], [-97.5738084, 35.4479199], [-97.5736527, 35.4479209], [-97.5736537, 35.4480198], [-97.5737726, 35.448019], [-97.5737728, 35.4480388], [-97.5738903, 35.4480381], [-97.5738901, 35.4480171], [-97.5740093, 35.4480164]]]}, "properties": {"osm_id": 1250902167, "building": "yes", "name": "", "height": null, "height_m": null, "levels": null, "tract_id": "40109105600", "tract_name": "1056", "tags": {"building": "yes", "source": "microsoft/BuildingFootprints"}}}, {"type": "Feature", "geometry": {"type": "Polygon", "coordinates": [[[-97.5733311, 35.4476846], [-97.5733891, 35.4477675], [-97.5733734, 35.4477748], [-97.5734365, 35.4478649], [-97.5734569, 35.4478554], [-97.5735132, 35.4479358], [-97.5736123, 35.4478898], [-97.5735466, 35.447796], [-97.5735352, 35.4478013], [-97.5734906, 35.4477375], [-97.5735015, 35.4477324], [-97.5734345, 35.4476366], [-97.5733311, 35.4476846]]]}, "properties": {"osm_id": 1250902168, "building": "yes", "name": "", "height": null, "height_m": null, "levels": null, "tract_id": "40109105600", "tract_name": "1056", "tags": {"building": "yes", "source": "microsoft/BuildingFootprints"}}}, {"type": "Feature", "geometry": {"type": "Polygon", "coordinates": [[[-97.5732959, 35.4477218], [-97.573236, 35.447638], [-97.5731444, 35.4476814], [-97.5731368, 35.4476709], [-97.5730464, 35.4477137], [-97.5730547, 35.4477253], [-97.572966, 35.4477674], [-97.5730256, 35.4478507], [-97.5731095, 35.4478109], [-97.5731128, 35.4478155], [-97.5732153, 35.4477669], [-97.5732116, 35.4477617], [-97.5732959, 35.4477218]]]}, "properties": {"osm_id": 1250902169, "building": "yes", "name": "", "height": null, "height_m": null, "levels": null, "tract_id": "40109105600", "tract_name": "1056", "tags": {"building": "yes", "source": "microsoft/BuildingFootprints"}}}, {"type": "Feature", "geometry": {"type": "Polygon", "coordinates": [[[-97.5731651, 35.4481739], [-97.5732207, 35.4482525], [-97.5732098, 35.4482576], [-97.5732592, 35.4483275], [-97.5732702, 35.4483223], [-97.5733237, 35.4483979], [-97.5734281, 35.4483489], [-97.5733783, 35.4482785], [-97.5733837, 35.4482759], [-97.573325, 35.448193], [-97.573319, 35.4481958], [-97.5732689, 35.4481251], [-97.5731651, 35.4481739]]]}, "properties": {"osm_id": 1250902170, "building": "yes", "name": "", "height": null, "height_m": null, "levels": null, "tract_id": "40109105600", "tract_name": "1056", "tags": {"building": "yes", "source": "microsoft/BuildingFootprints"}}}, {"type": "Feature", "geometry": {"type": "Polygon", "coordinates": [[[-97.5730859, 35.4478681], [-97.5729827, 35.4479169], [-97.5730373, 35.4479933], [-97.5730249, 35.4479992], [-97.5730446, 35.4480268], [-97.5730559, 35.4480214], [-97.5730658, 35.4480352], [-97.5730542, 35.4480407], [-97.5730744, 35.4480691], [-97.573086, 35.4480636], [-97.5731389, 35.4481377], [-97.5732419, 35.4480889], [-97.5731937, 35.4480214], [-97.5732001, 35.4480183], [-97.5731405, 35.4479348], [-97.5731353, 35.4479373], [-97.5730859, 35.4478681]]]}, "properties": {"osm_id": 1250902171, "building": "yes", "name": "", "height": null, "height_m": null, "levels": null, "tract_id": "40109105600", "tract_name": "1056", "tags": {"building": "yes", "source": "microsoft/BuildingFootprints"}}}, {"type": "Feature", "geometry": {"type": "Polygon", "coordinates": [[[-97.5727037, 35.4485276], [-97.5728691, 35.4485277], [-97.5728691, 35.448512], [-97.5731328, 35.448512], [-97.5731329, 35.4485283], [-97.5732988, 35.4485283], [-97.5732988, 35.4484292], [-97.5731588, 35.4484292], [-97.5731588, 35.4484127], [-97.5728448, 35.4484127], [-97.5728448, 35.4484298], [-97.5727037, 35.4484298], [-97.5727037, 35.4485276]]]}, "properties": {"osm_id": 1250902172, "building": "yes", "name": "", "height": null, "height_m": null, "levels": null, "tract_id": "40109105600", "tract_name": "1056", "tags": {"building": "yes", "source": "microsoft/BuildingFootprints"}}}, {"type": "Feature", "geometry": {"type": "Polygon", "coordinates": [[[-97.5719863, 35.4481708], [-97.5720187, 35.4482651], [-97.5721127, 35.4482436], [-97.5721145, 35.4482488], [-97.5722281, 35.4482229], [-97.572226, 35.4482169], [-97.5723208, 35.4481953], [-97.5722888, 35.4481021], [-97.572184, 35.448126], [-97.5721804, 35.4481154], [-97.5721442, 35.4481237], [-97.5721475, 35.4481335], [-97.5721286, 35.4481378], [-97.5721251, 35.4481276], [-97.5720884, 35.448136], [-97.5720921, 35.4481467], [-97.5719863, 35.4481708]]]}, "properties": {"osm_id": 1250902173, "building": "yes", "name": "", "height": null, "height_m": null, "levels": null, "tract_id": "40109105600", "tract_name": "1056", "tags": {"building": "yes", "source": "microsoft/BuildingFootprints"}}}, {"type": "Feature", "geometry": {"type": "Polygon", "coordinates": [[[-97.5720203, 35.4484665], [-97.5720015, 35.4484117], [-97.5720071, 35.4484104], [-97.5719758, 35.4483193], [-97.5719692, 35.4483208], [-97.57195, 35.4482647], [-97.5718354, 35.4482908], [-97.5718596, 35.4483612], [-97.5718467, 35.4483641], [-97.5718672, 35.4484238], [-97.5718818, 35.4484205], [-97.5719064, 35.4484924], [-97.5720203, 35.4484665]]]}, "properties": {"osm_id": 1250902174, "building": "yes", "name": "", "height": null, "height_m": null, "levels": null, "tract_id": "40109105600", "tract_name": "1056", "tags": {"building": "yes", "source": "microsoft/BuildingFootprints"}}}, {"type": "Feature", "geometry": {"type": "Polygon", "coordinates": [[[-97.5723675, 35.4481177], [-97.5724225, 35.4481943], [-97.5724069, 35.4482018], [-97.572517, 35.448355], [-97.5725004, 35.4483629], [-97.5725664, 35.4484549], [-97.5726714, 35.4484048], [-97.5726168, 35.4483288], [-97.5726348, 35.4483202], [-97.5725263, 35.4481692], [-97.5725423, 35.4481616], [-97.5724742, 35.4480669], [-97.5723675, 35.4481177]]]}, "properties": {"osm_id": 1250902175, "building": "yes", "name": "", "height": null, "height_m": null, "levels": null, "tract_id": "40109105600", "tract_name": "1056", "tags": {"building": "yes", "source": "microsoft/BuildingFootprints"}}}, {"type": "Feature", "geometry": {"type": "Polygon", "coordinates": [[[-97.5721167, 35.4486866], [-97.5720992, 35.4486334], [-97.5721203, 35.4486288], [-97.5720899, 35.448536], [-97.5720689, 35.4485406], [-97.572051, 35.4484861], [-97.5719377, 35.4485108], [-97.5719615, 35.4485831], [-97.5719522, 35.4485851], [-97.5719712, 35.4486429], [-97.5719813, 35.4486407], [-97.5720044, 35.448711], [-97.5721167, 35.4486866]]]}, "properties": {"osm_id": 1250902176, "building": "yes", "name": "", "height": null, "height_m": null, "levels": null, "tract_id": "40109105600", "tract_name": "1056", "tags": {"building": "yes", "source": "microsoft/BuildingFootprints"}}}, {"type": "Feature", "geometry": {"type": "Polygon", "coordinates": [[[-97.5714826, 35.448727], [-97.5715138, 35.4488194], [-97.5715781, 35.448805], [-97.5715843, 35.4488234], [-97.5716978, 35.448798], [-97.5716915, 35.4487795], [-97.5718009, 35.448755], [-97.5718064, 35.4487714], [-97.5719185, 35.4487463], [-97.5719127, 35.448729], [-97.5719764, 35.4487148], [-97.5719455, 35.4486233], [-97.5714826, 35.448727]]]}, "properties": {"osm_id": 1250902177, "building": "yes", "name": "", "height": null, "height_m": null, "levels": null, "tract_id": "40109105600", "tract_name": "1056", "tags": {"building": "yes", "source": "microsoft/BuildingFootprints"}}}, {"type": "Feature", "geometry": {"type": "Polygon", "coordinates": [[[-97.5713283, 35.4485849], [-97.5713577, 35.4486715], [-97.5713779, 35.448667], [-97.5713958, 35.4487198], [-97.5715102, 35.4486941], [-97.571486, 35.4486227], [-97.571496, 35.4486204], [-97.5714761, 35.4485619], [-97.5714657, 35.4485642], [-97.5714416, 35.4484933], [-97.5713278, 35.4485189], [-97.5713486, 35.4485803], [-97.5713283, 35.4485849]]]}, "properties": {"osm_id": 1250902178, "building": "yes", "name": "", "height": null, "height_m": null, "levels": null, "tract_id": "40109105600", "tract_name": "1056", "tags": {"building": "yes", "source": "microsoft/BuildingFootprints"}}}, {"type": "Feature", "geometry": {"type": "Polygon", "coordinates": [[[-97.571484, 35.4489566], [-97.5715154, 35.4490514], [-97.5716547, 35.4490207], [-97.5716599, 35.4490363], [-97.5718212, 35.4490009], [-97.5718155, 35.4489839], [-97.5719316, 35.4489585], [-97.5719373, 35.448976], [-97.5720991, 35.4489405], [-97.5720678, 35.4488456], [-97.5719249, 35.4488769], [-97.5719196, 35.4488608], [-97.5717634, 35.448895], [-97.5717689, 35.4489117], [-97.5716501, 35.4489378], [-97.5716446, 35.4489213], [-97.571484, 35.4489566]]]}, "properties": {"osm_id": 1250902179, "building": "yes", "name": "", "height": null, "height_m": null, "levels": null, "tract_id": "40109105600", "tract_name": "1056", "tags": {"building": "yes", "source": "microsoft/BuildingFootprints"}}}, {"type": "Feature", "geometry": {"type": "Polygon", "coordinates": [[[-97.5721581, 35.448888], [-97.5721866, 35.4489728], [-97.5721696, 35.4489766], [-97.5722335, 35.4491664], [-97.5722509, 35.4491625], [-97.5722797, 35.4492481], [-97.5723965, 35.4492219], [-97.5723622, 35.4491201], [-97.5723434, 35.4491243], [-97.5722923, 35.4489728], [-97.5723137, 35.448968], [-97.5722777, 35.4488612], [-97.5721581, 35.448888]]]}, "properties": {"osm_id": 1250902180, "building": "yes", "name": "", "height": null, "height_m": null, "levels": null, "tract_id": "40109105600", "tract_name": "1056", "tags": {"building": "yes", "source": "microsoft/BuildingFootprints"}}}, {"type": "Feature", "geometry": {"type": "Polygon", "coordinates": [[[-97.5720913, 35.4494391], [-97.5721925, 35.4494903], [-97.5722298, 35.4494415], [-97.5722345, 35.4494439], [-97.5722955, 35.4493639], [-97.5722899, 35.449361], [-97.5723268, 35.4493126], [-97.5722257, 35.4492615], [-97.5721787, 35.4493232], [-97.5721681, 35.4493178], [-97.5721274, 35.4493713], [-97.5721387, 35.449377], [-97.5720913, 35.4494391]]]}, "properties": {"osm_id": 1250902181, "building": "yes", "name": "", "height": null, "height_m": null, "levels": null, "tract_id": "40109105600", "tract_name": "1056", "tags": {"building": "yes", "source": "microsoft/BuildingFootprints"}}}, {"type": "Feature", "geometry": {"type": "Polygon", "coordinates": [[[-97.5760975, 35.4481962], [-97.5763301, 35.4481958], [-97.5763297, 35.4479853], [-97.576097, 35.4479857], [-97.5760975, 35.4481962]]]}, "properties": {"osm_id": 1250902182, "building": "yes", "name": "", "height": null, "height_m": null, "levels": null, "tract_id": "40109105600", "tract_name": "1056", "tags": {"building": "yes", "source": "microsoft/BuildingFootprints"}}}, {"type": "Feature", "geometry": {"type": "Polygon", "coordinates": [[[-97.5766454, 35.4481955], [-97.5766451, 35.4481264], [-97.5766446, 35.4479834], [-97.5764678, 35.4479838], [-97.5764685, 35.4481958], [-97.5765001, 35.4481957], [-97.5765002, 35.4482339], [-97.5765485, 35.4482338], [-97.5765483, 35.4481957], [-97.5766454, 35.4481955]]]}, "properties": {"osm_id": 1250902183, "building": "yes", "name": "", "height": null, "height_m": null, "levels": null, "tract_id": "40109105600", "tract_name": "1056", "tags": {"building": "yes", "source": "microsoft/BuildingFootprints"}}}, {"type": "Feature", "geometry": {"type": "Polygon", "coordinates": [[[-97.5755567, 35.4481897], [-97.5757619, 35.4481892], [-97.5760594, 35.4481884], [-97.5760587, 35.4479935], [-97.575556, 35.4479948], [-97.5755561, 35.4480224], [-97.5755567, 35.4481897]]]}, "properties": {"osm_id": 1250902184, "building": "yes", "name": "", "height": null, "height_m": null, "levels": null, "tract_id": "40109105600", "tract_name": "1056", "tags": {"building": "yes", "source": "microsoft/BuildingFootprints"}}}, {"type": "Feature", "geometry": {"type": "Polygon", "coordinates": [[[-97.5771716, 35.4477358], [-97.5771717, 35.4479931], [-97.5771923, 35.4479931], [-97.5771923, 35.4481103], [-97.5772128, 35.4481103], [-97.5772129, 35.4482267], [-97.5773352, 35.4482267], [-97.5773351, 35.4480888], [-97.5773158, 35.4480889], [-97.5773157, 35.44797], [-97.5772963, 35.44797], [-97.5772962, 35.4477358], [-97.5771716, 35.4477358]]]}, "properties": {"osm_id": 1250902185, "building": "yes", "name": "", "height": null, "height_m": null, "levels": null, "tract_id": "40109105600", "tract_name": "1056", "tags": {"building": "yes", "source": "microsoft/BuildingFootprints"}}}, {"type": "Feature", "geometry": {"type": "Polygon", "coordinates": [[[-97.5772902, 35.4476782], [-97.5773285, 35.4477718], [-97.5774203, 35.4477469], [-97.5774222, 35.4477515], [-97.5775326, 35.4477215], [-97.5775307, 35.4477171], [-97.5776235, 35.4476918], [-97.5775855, 35.4475993], [-97.5774811, 35.4476277], [-97.5774772, 35.4476181], [-97.5774429, 35.4476274], [-97.5774466, 35.4476365], [-97.5774298, 35.4476411], [-97.5774259, 35.4476314], [-97.5773877, 35.4476417], [-97.5773914, 35.4476507], [-97.5772902, 35.4476782]]]}, "properties": {"osm_id": 1250902186, "building": "yes", "name": "", "height": null, "height_m": null, "levels": null, "tract_id": "40109105600", "tract_name": "1056", "tags": {"building": "yes", "source": "microsoft/BuildingFootprints"}}}, {"type": "Feature", "geometry": {"type": "Polygon", "coordinates": [[[-97.5781821, 35.4478227], [-97.5777515, 35.4474865], [-97.5776671, 35.4475582], [-97.5780977, 35.4478944], [-97.5781821, 35.4478227]]]}, "properties": {"osm_id": 1250902187, "building": "yes", "name": "", "height": null, "height_m": null, "levels": null, "tract_id": "40109105600", "tract_name": "1056", "tags": {"building": "yes", "source": "microsoft/BuildingFootprints"}}}, {"type": "Feature", "geometry": {"type": "Polygon", "coordinates": [[[-97.5783423, 35.4478938], [-97.5782203, 35.4478966], [-97.5782237, 35.4479983], [-97.5782037, 35.4479988], [-97.578207, 35.4480936], [-97.5782338, 35.448093], [-97.578237, 35.4481869], [-97.5783522, 35.4481842], [-97.5783423, 35.4478938]]]}, "properties": {"osm_id": 1250902188, "building": "yes", "name": "", "height": null, "height_m": null, "levels": null, "tract_id": "40109105600", "tract_name": "1056", "tags": {"building": "yes", "source": "microsoft/BuildingFootprints"}}}, {"type": "Feature", "geometry": {"type": "Polygon", "coordinates": [[[-97.5783987, 35.4482314], [-97.5785114, 35.4482311], [-97.5785113, 35.4482136], [-97.5787232, 35.4482129], [-97.5787233, 35.4482326], [-97.5788386, 35.4482322], [-97.5788382, 35.448147], [-97.5787336, 35.4481473], [-97.5787335, 35.4481298], [-97.5785028, 35.4481306], [-97.5785029, 35.4481481], [-97.5783983, 35.4481484], [-97.5783987, 35.4482314]]]}, "properties": {"osm_id": 1250902189, "building": "yes", "name": "", "height": null, "height_m": null, "levels": null, "tract_id": "40109105600", "tract_name": "1056", "tags": {"building": "yes", "source": "microsoft/BuildingFootprints"}}}, {"type": "Feature", "geometry": {"type": "Polygon", "coordinates": [[[-97.5788925, 35.4480504], [-97.5788905, 35.4481531], [-97.5792057, 35.448157], [-97.5792076, 35.4480543], [-97.5788925, 35.4480504]]]}, "properties": {"osm_id": 1250902190, "building": "yes", "name": "", "height": null, "height_m": null, "levels": null, "tract_id": "40109105600", "tract_name": "1056", "tags": {"building": "yes", "source": "microsoft/BuildingFootprints"}}}, {"type": "Feature", "geometry": {"type": "Polygon", "coordinates": [[[-97.5792712, 35.4480686], [-97.5793811, 35.4480706], [-97.5793877, 35.4478304], [-97.5794064, 35.4478307], [-97.5794129, 35.4475948], [-97.5793083, 35.4475929], [-97.5793018, 35.447831], [-97.5792777, 35.4478306], [-97.5792712, 35.4480686]]]}, "properties": {"osm_id": 1250902191, "building": "yes", "name": "", "height": null, "height_m": null, "levels": null, "tract_id": "40109105600", "tract_name": "1056", "tags": {"building": "yes", "source": "microsoft/BuildingFootprints"}}}, {"type": "Feature", "geometry": {"type": "Polygon", "coordinates": [[[-97.5787546, 35.4475949], [-97.5788605, 35.4475954], [-97.5788604, 35.4476116], [-97.5790803, 35.4476127], [-97.5790802, 35.447628], [-97.5792076, 35.4476287], [-97.5792085, 35.4475186], [-97.5788906, 35.4475169], [-97.5788908, 35.4474951], [-97.5787554, 35.4474944], [-97.5787546, 35.4475949]]]}, "properties": {"osm_id": 1250902192, "building": "yes", "name": "", "height": null, "height_m": null, "levels": null, "tract_id": "40109105600", "tract_name": "1056", "tags": {"building": "yes", "source": "microsoft/BuildingFootprints"}}}, {"type": "Feature", "geometry": {"type": "Polygon", "coordinates": [[[-97.5787074, 35.4476454], [-97.5787092, 35.4475405], [-97.5783955, 35.4475369], [-97.5783936, 35.4476417], [-97.5787074, 35.4476454]]]}, "properties": {"osm_id": 1250902193, "building": "yes", "name": "", "height": null, "height_m": null, "levels": null, "tract_id": "40109105600", "tract_name": "1056", "tags": {"building": "yes", "source": "microsoft/BuildingFootprints"}}}, {"type": "Feature", "geometry": {"type": "Polygon", "coordinates": [[[-97.5780852, 35.447402], [-97.5783086, 35.4475743], [-97.5783964, 35.4474988], [-97.578173, 35.4473264], [-97.5780852, 35.447402]]]}, "properties": {"osm_id": 1250902194, "building": "yes", "name": "", "height": null, "height_m": null, "levels": null, "tract_id": "40109105600", "tract_name": "1056", "tags": {"building": "yes", "source": "microsoft/BuildingFootprints"}}}, {"type": "Feature", "geometry": {"type": "Polygon", "coordinates": [[[-97.5780471, 35.4472548], [-97.5781701, 35.4472737], [-97.578229, 35.4470206], [-97.578106, 35.4470016], [-97.5780471, 35.4472548]]]}, "properties": {"osm_id": 1250902195, "building": "yes", "name": "", "height": null, "height_m": null, "levels": null, "tract_id": "40109105600", "tract_name": "1056", "tags": {"building": "yes", "source": "microsoft/BuildingFootprints"}}}, {"type": "Feature", "geometry": {"type": "Polygon", "coordinates": [[[-97.5781293, 35.4469517], [-97.5782434, 35.4469989], [-97.5783376, 35.4468478], [-97.5782234, 35.4468006], [-97.5781293, 35.4469517]]]}, "properties": {"osm_id": 1250902196, "building": "yes", "name": "", "height": null, "height_m": null, "levels": null, "tract_id": "40109105600", "tract_name": "1056", "tags": {"building": "yes", "source": "microsoft/BuildingFootprints"}}}, {"type": "Feature", "geometry": {"type": "Polygon", "coordinates": [[[-97.5784074, 35.4467534], [-97.5783763, 35.4468214], [-97.5785093, 35.4468618], [-97.5784979, 35.4468867], [-97.5786451, 35.4469314], [-97.5786481, 35.4469249], [-97.5787729, 35.4469628], [-97.5787624, 35.4469858], [-97.5789037, 35.4470287], [-97.5789406, 35.4469481], [-97.5788122, 35.4469092], [-97.5788219, 35.4468881], [-97.5786771, 35.4468441], [-97.5786806, 35.4468364], [-97.5784074, 35.4467534]]]}, "properties": {"osm_id": 1250902197, "building": "yes", "name": "", "height": null, "height_m": null, "levels": null, "tract_id": "40109105600", "tract_name": "1056", "tags": {"building": "yes", "source": "microsoft/BuildingFootprints"}}}, {"type": "Feature", "geometry": {"type": "Polygon", "coordinates": [[[-97.5789037, 35.4470567], [-97.5790952, 35.4472558], [-97.5791949, 35.4471921], [-97.5790035, 35.446993], [-97.5789037, 35.4470567]]]}, "properties": {"osm_id": 1250902198, "building": "yes", "name": "", "height": null, "height_m": null, "levels": null, "tract_id": "40109105600", "tract_name": "1056", "tags": {"building": "yes", "source": "microsoft/BuildingFootprints"}}}, {"type": "Feature", "geometry": {"type": "Polygon", "coordinates": [[[-97.5795815, 35.4470892], [-97.579327, 35.4472429], [-97.5794019, 35.4473252], [-97.5796564, 35.4471716], [-97.5795815, 35.4470892]]]}, "properties": {"osm_id": 1250902199, "building": "yes", "name": "", "height": null, "height_m": null, "levels": null, "tract_id": "40109105600", "tract_name": "1056", "tags": {"building": "yes", "source": "microsoft/BuildingFootprints"}}}, {"type": "Feature", "geometry": {"type": "Polygon", "coordinates": [[[-97.579475, 35.4467636], [-97.5793761, 35.4468253], [-97.5795663, 35.4470279], [-97.5796653, 35.4469662], [-97.579475, 35.4467636]]]}, "properties": {"osm_id": 1250902200, "building": "yes", "name": "", "height": null, "height_m": null, "levels": null, "tract_id": "40109105600", "tract_name": "1056", "tags": {"building": "yes", "source": "microsoft/BuildingFootprints"}}}, {"type": "Feature", "geometry": {"type": "Polygon", "coordinates": [[[-97.5790576, 35.4466825], [-97.579349, 35.4467657], [-97.5793909, 35.4466685], [-97.5790995, 35.4465852], [-97.5790576, 35.4466825]]]}, "properties": {"osm_id": 1250902201, "building": "yes", "name": "", "height": null, "height_m": null, "levels": null, "tract_id": "40109105600", "tract_name": "1056", "tags": {"building": "yes", "source": "microsoft/BuildingFootprints"}}}, {"type": "Feature", "geometry": {"type": "Polygon", "coordinates": [[[-97.5785536, 35.4465252], [-97.5786679, 35.446564], [-97.5787892, 35.4463268], [-97.578675, 35.446288], [-97.5785536, 35.4465252]]]}, "properties": {"osm_id": 1250902202, "building": "yes", "name": "", "height": null, "height_m": null, "levels": null, "tract_id": "40109105600", "tract_name": "1056", "tags": {"building": "yes", "source": "microsoft/BuildingFootprints"}}}, {"type": "Feature", "geometry": {"type": "Polygon", "coordinates": [[[-97.5790301, 35.4466168], [-97.5787443, 35.4465124], [-97.5786922, 35.4466069], [-97.578978, 35.4467114], [-97.5790301, 35.4466168]]]}, "properties": {"osm_id": 1250902302, "building": "yes", "name": "", "height": null, "height_m": null, "levels": null, "tract_id": "40109105600", "tract_name": "1056", "tags": {"building": "yes", "source": "microsoft/BuildingFootprints"}}}, {"type": "Feature", "geometry": {"type": "Polygon", "coordinates": [[[-97.5792755, 35.4462464], [-97.5792739, 35.4463491], [-97.5795918, 35.4463523], [-97.5795933, 35.4462496], [-97.5792755, 35.4462464]]]}, "properties": {"osm_id": 1250902303, "building": "yes", "name": "", "height": null, "height_m": null, "levels": null, "tract_id": "40109105600", "tract_name": "1056", "tags": {"building": "yes", "source": "microsoft/BuildingFootprints"}}}, {"type": "Feature", "geometry": {"type": "Polygon", "coordinates": [[[-97.5797124, 35.446486], [-97.5798384, 35.4464837], [-97.5798325, 35.4462726], [-97.5797065, 35.446275], [-97.5797124, 35.446486]]]}, "properties": {"osm_id": 1250902304, "building": "yes", "name": "", "height": null, "height_m": null, "levels": null, "tract_id": "40109105600", "tract_name": "1056", "tags": {"building": "yes", "source": "microsoft/BuildingFootprints"}}}, {"type": "Feature", "geometry": {"type": "Polygon", "coordinates": [[[-97.5799105, 35.4467836], [-97.5799045, 35.4467873], [-97.5799743, 35.4468622], [-97.5800611, 35.4468086], [-97.5797959, 35.4465237], [-97.579715, 35.4465737], [-97.5799105, 35.4467836]]]}, "properties": {"osm_id": 1250902305, "building": "yes", "name": "", "height": null, "height_m": null, "levels": null, "tract_id": "40109105600", "tract_name": "1056", "tags": {"building": "yes", "source": "microsoft/BuildingFootprints"}}}, {"type": "Feature", "geometry": {"type": "Polygon", "coordinates": [[[-97.5800951, 35.4468531], [-97.5801716, 35.4469342], [-97.5805847, 35.4466755], [-97.5805757, 35.4466659], [-97.5806457, 35.4466221], [-97.5805783, 35.4465507], [-97.5800951, 35.4468531]]]}, "properties": {"osm_id": 1250902306, "building": "yes", "name": "", "height": null, "height_m": null, "levels": null, "tract_id": "40109105600", "tract_name": "1056", "tags": {"building": "yes", "source": "microsoft/BuildingFootprints"}}}, {"type": "Feature", "geometry": {"type": "Polygon", "coordinates": [[[-97.5804172, 35.4463141], [-97.580321, 35.446377], [-97.5804812, 35.4465395], [-97.5805774, 35.4464766], [-97.5804172, 35.4463141]]]}, "properties": {"osm_id": 1250902307, "building": "yes", "name": "", "height": null, "height_m": null, "levels": null, "tract_id": "40109105600", "tract_name": "1056", "tags": {"building": "yes", "source": "microsoft/BuildingFootprints"}}}, {"type": "Feature", "geometry": {"type": "Polygon", "coordinates": [[[-97.5804051, 35.4461931], [-97.5804568, 35.4462934], [-97.580654, 35.4462258], [-97.5806023, 35.4461256], [-97.5804051, 35.4461931]]]}, "properties": {"osm_id": 1250902308, "building": "yes", "name": "", "height": null, "height_m": null, "levels": null, "tract_id": "40109105600", "tract_name": "1056", "tags": {"building": "yes", "source": "microsoft/BuildingFootprints"}}}, {"type": "Feature", "geometry": {"type": "Polygon", "coordinates": [[[-97.5806763, 35.4461608], [-97.5808774, 35.4463711], [-97.5809751, 35.4463091], [-97.580774, 35.4460988], [-97.5806763, 35.4461608]]]}, "properties": {"osm_id": 1250902309, "building": "yes", "name": "", "height": null, "height_m": null, "levels": null, "tract_id": "40109105600", "tract_name": "1056", "tags": {"building": "yes", "source": "microsoft/BuildingFootprints"}}}, {"type": "Feature", "geometry": {"type": "Polygon", "coordinates": [[[-97.5814764, 35.4461301], [-97.581402, 35.4460482], [-97.5810166, 35.4462807], [-97.581091, 35.4463626], [-97.5814764, 35.4461301]]]}, "properties": {"osm_id": 1250902310, "building": "yes", "name": "", "height": null, "height_m": null, "levels": null, "tract_id": "40109105600", "tract_name": "1056", "tags": {"building": "yes", "source": "microsoft/BuildingFootprints"}}}, {"type": "Feature", "geometry": {"type": "Polygon", "coordinates": [[[-97.5814904, 35.4459093], [-97.5813584, 35.4457783], [-97.5812623, 35.4458426], [-97.5813943, 35.4459736], [-97.5814904, 35.4459093]]]}, "properties": {"osm_id": 1250902311, "building": "yes", "name": "", "height": null, "height_m": null, "levels": null, "tract_id": "40109105600", "tract_name": "1056", "tags": {"building": "yes", "source": "microsoft/BuildingFootprints"}}}, {"type": "Feature", "geometry": {"type": "Polygon", "coordinates": [[[-97.5812709, 35.4456938], [-97.5813816, 35.4457428], [-97.5814818, 35.4455927], [-97.5813711, 35.4455437], [-97.5812709, 35.4456938]]]}, "properties": {"osm_id": 1250902312, "building": "yes", "name": "", "height": null, "height_m": null, "levels": null, "tract_id": "40109105600", "tract_name": "1056", "tags": {"building": "yes", "source": "microsoft/BuildingFootprints"}}}, {"type": "Feature", "geometry": {"type": "Polygon", "coordinates": [[[-97.5811493, 35.4449751], [-97.5813022, 35.4449773], [-97.5813045, 35.4448681], [-97.5811517, 35.4448659], [-97.5811493, 35.4449751]]]}, "properties": {"osm_id": 1250902313, "building": "yes", "name": "", "height": null, "height_m": null, "levels": null, "tract_id": "40109105600", "tract_name": "1056", "tags": {"building": "yes", "source": "microsoft/BuildingFootprints"}}}, {"type": "Feature", "geometry": {"type": "Polygon", "coordinates": [[[-97.5811122, 35.4451113], [-97.5812571, 35.4451339], [-97.5812824, 35.4450264], [-97.5811375, 35.4450038], [-97.5811122, 35.4451113]]]}, "properties": {"osm_id": 1250902314, "building": "yes", "name": "", "height": null, "height_m": null, "levels": null, "tract_id": "40109105600", "tract_name": "1056", "tags": {"building": "yes", "source": "microsoft/BuildingFootprints"}}}, {"type": "Feature", "geometry": {"type": "Polygon", "coordinates": [[[-97.5807233, 35.4450308], [-97.5808708, 35.4450297], [-97.5808697, 35.4449248], [-97.58071, 35.4449259], [-97.5807233, 35.4450308]]]}, "properties": {"osm_id": 1250902315, "building": "yes", "name": "", "height": null, "height_m": null, "levels": null, "tract_id": "40109105600", "tract_name": "1056", "tags": {"building": "yes", "source": "microsoft/BuildingFootprints"}}}, {"type": "Feature", "geometry": {"type": "Polygon", "coordinates": [[[-97.5810729, 35.4450308], [-97.5810734, 35.4449259], [-97.5809286, 35.4449254], [-97.580928, 35.4450303], [-97.5810729, 35.4450308]]]}, "properties": {"osm_id": 1250902316, "building": "yes", "name": "", "height": null, "height_m": null, "levels": null, "tract_id": "40109105600", "tract_name": "1056", "tags": {"building": "yes", "source": "microsoft/BuildingFootprints"}}}, {"type": "Feature", "geometry": {"type": "Polygon", "coordinates": [[[-97.5804924, 35.4449236], [-97.580353, 35.4449255], [-97.5803552, 35.4450318], [-97.5804947, 35.4450299], [-97.5804924, 35.4449236]]]}, "properties": {"osm_id": 1250902317, "building": "yes", "name": "", "height": null, "height_m": null, "levels": null, "tract_id": "40109105600", "tract_name": "1056", "tags": {"building": "yes", "source": "microsoft/BuildingFootprints"}}}, {"type": "Feature", "geometry": {"type": "Polygon", "coordinates": [[[-97.5807045, 35.444926], [-97.5805518, 35.4449224], [-97.5805478, 35.4450315], [-97.5807006, 35.4450352], [-97.5807045, 35.444926]]]}, "properties": {"osm_id": 1250902318, "building": "yes", "name": "", "height": null, "height_m": null, "levels": null, "tract_id": "40109105600", "tract_name": "1056", "tags": {"building": "yes", "source": "microsoft/BuildingFootprints"}}}, {"type": "Feature", "geometry": {"type": "Polygon", "coordinates": [[[-97.580186, 35.4448211], [-97.5800412, 35.4448191], [-97.5800391, 35.444924], [-97.5801839, 35.4449259], [-97.580186, 35.4448211]]]}, "properties": {"osm_id": 1250902319, "building": "yes", "name": "", "height": null, "height_m": null, "levels": null, "tract_id": "40109105600", "tract_name": "1056", "tags": {"building": "yes", "source": "microsoft/BuildingFootprints"}}}, {"type": "Feature", "geometry": {"type": "Polygon", "coordinates": [[[-97.5798361, 35.4449272], [-97.5799794, 35.4449255], [-97.5799775, 35.4448185], [-97.5798343, 35.4448201], [-97.5798361, 35.4449272]]]}, "properties": {"osm_id": 1250902320, "building": "yes", "name": "", "height": null, "height_m": null, "levels": null, "tract_id": "40109105600", "tract_name": "1056", "tags": {"building": "yes", "source": "microsoft/BuildingFootprints"}}}, {"type": "Feature", "geometry": {"type": "Polygon", "coordinates": [[[-97.5797988, 35.4449245], [-97.5797959, 35.4448196], [-97.5796554, 35.4448221], [-97.5796582, 35.444927], [-97.5797988, 35.4449245]]]}, "properties": {"osm_id": 1250902321, "building": "yes", "name": "", "height": null, "height_m": null, "levels": null, "tract_id": "40109105600", "tract_name": "1056", "tags": {"building": "yes", "source": "microsoft/BuildingFootprints"}}}, {"type": "Feature", "geometry": {"type": "Polygon", "coordinates": [[[-97.5794482, 35.4449242], [-97.579593, 35.4449266], [-97.5795956, 35.4448217], [-97.5794508, 35.4448194], [-97.5794482, 35.4449242]]]}, "properties": {"osm_id": 1250902322, "building": "yes", "name": "", "height": null, "height_m": null, "levels": null, "tract_id": "40109105600", "tract_name": "1056", "tags": {"building": "yes", "source": "microsoft/BuildingFootprints"}}}, {"type": "Feature", "geometry": {"type": "Polygon", "coordinates": [[[-97.5794313, 35.4452439], [-97.5794338, 35.4453487], [-97.5795786, 35.4453464], [-97.579576, 35.4452415], [-97.5794313, 35.4452439]]]}, "properties": {"osm_id": 1250902323, "building": "yes", "name": "", "height": null, "height_m": null, "levels": null, "tract_id": "40109105600", "tract_name": "1056", "tags": {"building": "yes", "source": "microsoft/BuildingFootprints"}}}, {"type": "Feature", "geometry": {"type": "Polygon", "coordinates": [[[-97.5797619, 35.4453489], [-97.5797632, 35.4452432], [-97.5796157, 35.445242], [-97.5796144, 35.4453477], [-97.5797619, 35.4453489]]]}, "properties": {"osm_id": 1250902324, "building": "yes", "name": "", "height": null, "height_m": null, "levels": null, "tract_id": "40109105600", "tract_name": "1056", "tags": {"building": "yes", "source": "microsoft/BuildingFootprints"}}}, {"type": "Feature", "geometry": {"type": "Polygon", "coordinates": [[[-97.5801721, 35.4449961], [-97.5801741, 35.4451067], [-97.5803189, 35.445105], [-97.580317, 35.4449944], [-97.5801721, 35.4449961]]]}, "properties": {"osm_id": 1250902325, "building": "yes", "name": "", "height": null, "height_m": null, "levels": null, "tract_id": "40109105600", "tract_name": "1056", "tags": {"building": "yes", "source": "microsoft/BuildingFootprints"}}}, {"type": "Feature", "geometry": {"type": "Polygon", "coordinates": [[[-97.5801734, 35.4451374], [-97.5801759, 35.4452488], [-97.5803261, 35.4452465], [-97.5803235, 35.4451351], [-97.5801734, 35.4451374]]]}, "properties": {"osm_id": 1250902326, "building": "yes", "name": "", "height": null, "height_m": null, "levels": null, "tract_id": "40109105600", "tract_name": "1056", "tags": {"building": "yes", "source": "microsoft/BuildingFootprints"}}}, {"type": "Feature", "geometry": {"type": "Polygon", "coordinates": [[[-97.5803052, 35.445291], [-97.5802169, 35.4453685], [-97.5803222, 35.4454481], [-97.5804105, 35.4453705], [-97.5803052, 35.445291]]]}, "properties": {"osm_id": 1250902327, "building": "yes", "name": "", "height": null, "height_m": null, "levels": null, "tract_id": "40109105600", "tract_name": "1056", "tags": {"building": "yes", "source": "microsoft/BuildingFootprints"}}}, {"type": "Feature", "geometry": {"type": "Polygon", "coordinates": [[[-97.5804528, 35.4454098], [-97.5803631, 35.4454876], [-97.5804671, 35.4455672], [-97.5805568, 35.4454894], [-97.5804528, 35.4454098]]]}, "properties": {"osm_id": 1250902328, "building": "yes", "name": "", "height": null, "height_m": null, "levels": null, "tract_id": "40109105600", "tract_name": "1056", "tags": {"building": "yes", "source": "microsoft/BuildingFootprints"}}}, {"type": "Feature", "geometry": {"type": "Polygon", "coordinates": [[[-97.5806273, 35.4457036], [-97.5807287, 35.4457799], [-97.5808156, 35.4457031], [-97.5807142, 35.4456269], [-97.5806273, 35.4457036]]]}, "properties": {"osm_id": 1250902329, "building": "yes", "name": "", "height": null, "height_m": null, "levels": null, "tract_id": "40109105600", "tract_name": "1056", "tags": {"building": "yes", "source": "microsoft/BuildingFootprints"}}}, {"type": "Feature", "geometry": {"type": "Polygon", "coordinates": [[[-97.5804425, 35.4457783], [-97.5805023, 35.4458736], [-97.5806363, 35.4458179], [-97.5805766, 35.4457226], [-97.5804425, 35.4457783]]]}, "properties": {"osm_id": 1250902330, "building": "yes", "name": "", "height": null, "height_m": null, "levels": null, "tract_id": "40109105600", "tract_name": "1056", "tags": {"building": "yes", "source": "microsoft/BuildingFootprints"}}}, {"type": "Feature", "geometry": {"type": "Polygon", "coordinates": [[[-97.5802745, 35.4458322], [-97.5803057, 35.4459329], [-97.5804444, 35.4459043], [-97.5804131, 35.4458036], [-97.5802745, 35.4458322]]]}, "properties": {"osm_id": 1250902331, "building": "yes", "name": "", "height": null, "height_m": null, "levels": null, "tract_id": "40109105600", "tract_name": "1056", "tags": {"building": "yes", "source": "microsoft/BuildingFootprints"}}}, {"type": "Feature", "geometry": {"type": "Polygon", "coordinates": [[[-97.5801146, 35.4458722], [-97.5801463, 35.4459773], [-97.5802854, 35.4459495], [-97.5802537, 35.4458444], [-97.5801146, 35.4458722]]]}, "properties": {"osm_id": 1250902332, "building": "yes", "name": "", "height": null, "height_m": null, "levels": null, "tract_id": "40109105600", "tract_name": "1056", "tags": {"building": "yes", "source": "microsoft/BuildingFootprints"}}}, {"type": "Feature", "geometry": {"type": "Polygon", "coordinates": [[[-97.5799447, 35.4460001], [-97.5800975, 35.4459885], [-97.5800928, 35.4459473], [-97.580073, 35.4459488], [-97.5800655, 35.4458839], [-97.5799326, 35.445894], [-97.5799447, 35.4460001]]]}, "properties": {"osm_id": 1250902333, "building": "yes", "name": "", "height": null, "height_m": null, "levels": null, "tract_id": "40109105600", "tract_name": "1056", "tags": {"building": "yes", "source": "microsoft/BuildingFootprints"}}}, {"type": "Feature", "geometry": {"type": "Polygon", "coordinates": [[[-97.5798794, 35.4459048], [-97.5797373, 35.4459038], [-97.5797361, 35.4460087], [-97.5798783, 35.4460097], [-97.5798794, 35.4459048]]]}, "properties": {"osm_id": 1250902334, "building": "yes", "name": "", "height": null, "height_m": null, "levels": null, "tract_id": "40109105600", "tract_name": "1056", "tags": {"building": "yes", "source": "microsoft/BuildingFootprints"}}}, {"type": "Feature", "geometry": {"type": "Polygon", "coordinates": [[[-97.5797263, 35.4458511], [-97.5798792, 35.4458524], [-97.5798806, 35.4457409], [-97.5797277, 35.4457397], [-97.5797263, 35.4458511]]]}, "properties": {"osm_id": 1250902335, "building": "yes", "name": "", "height": null, "height_m": null, "levels": null, "tract_id": "40109105600", "tract_name": "1056", "tags": {"building": "yes", "source": "microsoft/BuildingFootprints"}}}, {"type": "Feature", "geometry": {"type": "Polygon", "coordinates": [[[-97.5797314, 35.4457105], [-97.5798777, 35.4457084], [-97.5798753, 35.4455978], [-97.5797291, 35.4455999], [-97.5797314, 35.4457105]]]}, "properties": {"osm_id": 1250902336, "building": "yes", "name": "", "height": null, "height_m": null, "levels": null, "tract_id": "40109105600", "tract_name": "1056", "tags": {"building": "yes", "source": "microsoft/BuildingFootprints"}}}, {"type": "Feature", "geometry": {"type": "Polygon", "coordinates": [[[-97.5798808, 35.4454413], [-97.5797295, 35.4454402], [-97.5797282, 35.4455494], [-97.5798796, 35.4455505], [-97.5798808, 35.4454413]]]}, "properties": {"osm_id": 1250902337, "building": "yes", "name": "", "height": null, "height_m": null, "levels": null, "tract_id": "40109105600", "tract_name": "1056", "tags": {"building": "yes", "source": "microsoft/BuildingFootprints"}}}, {"type": "Feature", "geometry": {"type": "Polygon", "coordinates": [[[-97.5792609, 35.4454065], [-97.5793525, 35.4454774], [-97.5794497, 35.4453941], [-97.5793582, 35.4453231], [-97.5792609, 35.4454065]]]}, "properties": {"osm_id": 1250902338, "building": "yes", "name": "", "height": null, "height_m": null, "levels": null, "tract_id": "40109105600", "tract_name": "1056", "tags": {"building": "yes", "source": "microsoft/BuildingFootprints"}}}, {"type": "Feature", "geometry": {"type": "Polygon", "coordinates": [[[-97.5791173, 35.4455208], [-97.5792102, 35.4455933], [-97.5793032, 35.4455143], [-97.5792103, 35.4454418], [-97.5791173, 35.4455208]]]}, "properties": {"osm_id": 1250902339, "building": "yes", "name": "", "height": null, "height_m": null, "levels": null, "tract_id": "40109105600", "tract_name": "1056", "tags": {"building": "yes", "source": "microsoft/BuildingFootprints"}}}, {"type": "Feature", "geometry": {"type": "Polygon", "coordinates": [[[-97.5789869, 35.4456265], [-97.579079, 35.4457001], [-97.5791823, 35.4456145], [-97.5790902, 35.4455408], [-97.5789869, 35.4456265]]]}, "properties": {"osm_id": 1250902340, "building": "yes", "name": "", "height": null, "height_m": null, "levels": null, "tract_id": "40109105600", "tract_name": "1056", "tags": {"building": "yes", "source": "microsoft/BuildingFootprints"}}}, {"type": "Feature", "geometry": {"type": "Polygon", "coordinates": [[[-97.5789838, 35.4457175], [-97.5789827, 35.4458289], [-97.5791329, 35.44583], [-97.579134, 35.4457185], [-97.5789838, 35.4457175]]]}, "properties": {"osm_id": 1250902341, "building": "yes", "name": "", "height": null, "height_m": null, "levels": null, "tract_id": "40109105600", "tract_name": "1056", "tags": {"building": "yes", "source": "microsoft/BuildingFootprints"}}}, {"type": "Feature", "geometry": {"type": "Polygon", "coordinates": [[[-97.5789774, 35.4458775], [-97.5789751, 35.4459836], [-97.5791238, 35.4459858], [-97.5791261, 35.4458796], [-97.5789774, 35.4458775]]]}, "properties": {"osm_id": 1250902342, "building": "yes", "name": "", "height": null, "height_m": null, "levels": null, "tract_id": "40109105600", "tract_name": "1056", "tags": {"building": "yes", "source": "microsoft/BuildingFootprints"}}}, {"type": "Feature", "geometry": {"type": "Polygon", "coordinates": [[[-97.5787911, 35.4459971], [-97.5789329, 35.4459916], [-97.5789269, 35.4458879], [-97.5787851, 35.4458933], [-97.5787911, 35.4459971]]]}, "properties": {"osm_id": 1250902343, "building": "yes", "name": "", "height": null, "height_m": null, "levels": null, "tract_id": "40109105600", "tract_name": "1056", "tags": {"building": "yes", "source": "microsoft/BuildingFootprints"}}}, {"type": "Feature", "geometry": {"type": "Polygon", "coordinates": [[[-97.5785903, 35.4459333], [-97.5786203, 35.4460359], [-97.5787573, 35.4460093], [-97.5787273, 35.4459067], [-97.5785903, 35.4459333]]]}, "properties": {"osm_id": 1250902344, "building": "yes", "name": "", "height": null, "height_m": null, "levels": null, "tract_id": "40109105600", "tract_name": "1056", "tags": {"building": "yes", "source": "microsoft/BuildingFootprints"}}}, {"type": "Feature", "geometry": {"type": "Polygon", "coordinates": [[[-97.5785534, 35.4460646], [-97.578503, 35.4459669], [-97.578372, 35.4460118], [-97.5784223, 35.4461094], [-97.5785534, 35.4460646]]]}, "properties": {"osm_id": 1250902345, "building": "yes", "name": "", "height": null, "height_m": null, "levels": null, "tract_id": "40109105600", "tract_name": "1056", "tags": {"building": "yes", "source": "microsoft/BuildingFootprints"}}}, {"type": "Feature", "geometry": {"type": "Polygon", "coordinates": [[[-97.577908, 35.4463627], [-97.5778287, 35.4464593], [-97.5778985, 35.4464973], [-97.5778913, 35.4465061], [-97.5779337, 35.4465291], [-97.5779711, 35.4464836], [-97.5779592, 35.4464771], [-97.5780083, 35.4464173], [-97.577908, 35.4463627]]]}, "properties": {"osm_id": 1250902346, "building": "yes", "name": "", "height": null, "height_m": null, "levels": null, "tract_id": "40109105600", "tract_name": "1056", "tags": {"building": "yes", "source": "microsoft/BuildingFootprints"}}}, {"type": "Feature", "geometry": {"type": "Polygon", "coordinates": [[[-97.577706, 35.446613], [-97.5776577, 35.4465774], [-97.5775753, 35.4466516], [-97.5776235, 35.4466871], [-97.5776163, 35.4466936], [-97.5776824, 35.4467424], [-97.5777152, 35.4467129], [-97.5777058, 35.446706], [-97.5777366, 35.4466783], [-97.5777463, 35.4466855], [-97.5777809, 35.4466543], [-97.5777145, 35.4466054], [-97.577706, 35.446613]]]}, "properties": {"osm_id": 1250902347, "building": "yes", "name": "", "height": null, "height_m": null, "levels": null, "tract_id": "40109105600", "tract_name": "1056", "tags": {"building": "yes", "source": "microsoft/BuildingFootprints"}}}, {"type": "Feature", "geometry": {"type": "Polygon", "coordinates": [[[-97.5779261, 35.4465503], [-97.5778811, 35.446532], [-97.5778747, 35.4465424], [-97.5778001, 35.446512], [-97.5777379, 35.4466134], [-97.5778456, 35.4466572], [-97.5778833, 35.4465958], [-97.5778952, 35.4466006], [-97.5779261, 35.4465503]]]}, "properties": {"osm_id": 1250902348, "building": "yes", "name": "", "height": null, "height_m": null, "levels": null, "tract_id": "40109105600", "tract_name": "1056", "tags": {"building": "yes", "source": "microsoft/BuildingFootprints"}}}, {"type": "Feature", "geometry": {"type": "Polygon", "coordinates": [[[-97.5775355, 35.4468895], [-97.5775955, 35.446889], [-97.5775957, 35.4468993], [-97.5776879, 35.4468986], [-97.5776874, 35.4468578], [-97.5776748, 35.4468579], [-97.5776744, 35.4468206], [-97.5776867, 35.4468205], [-97.5776862, 35.4467793], [-97.5775965, 35.44678], [-97.5775966, 35.4467896], [-97.5775343, 35.4467901], [-97.5775355, 35.4468895]]]}, "properties": {"osm_id": 1250902349, "building": "yes", "name": "", "height": null, "height_m": null, "levels": null, "tract_id": "40109105600", "tract_name": "1056", "tags": {"building": "yes", "source": "microsoft/BuildingFootprints"}}}, {"type": "Feature", "geometry": {"type": "Polygon", "coordinates": [[[-97.5775372, 35.4469215], [-97.5775368, 35.4470201], [-97.5776092, 35.4470202], [-97.5776092, 35.4470304], [-97.5776888, 35.4470305], [-97.577689, 35.4469841], [-97.5776778, 35.4469841], [-97.5776779, 35.4469553], [-97.5776885, 35.4469553], [-97.5776887, 35.4469101], [-97.5776033, 35.4469099], [-97.5776033, 35.4469216], [-97.5775372, 35.4469215]]]}, "properties": {"osm_id": 1250902350, "building": "yes", "name": "", "height": null, "height_m": null, "levels": null, "tract_id": "40109105600", "tract_name": "1056", "tags": {"building": "yes", "source": "microsoft/BuildingFootprints"}}}, {"type": "Feature", "geometry": {"type": "Polygon", "coordinates": [[[-97.577775, 35.4471185], [-97.5777314, 35.4471003], [-97.5777258, 35.4471092], [-97.5776509, 35.4470779], [-97.5775866, 35.4471799], [-97.5776937, 35.4472247], [-97.5777331, 35.4471622], [-97.5777445, 35.4471669], [-97.577775, 35.4471185]]]}, "properties": {"osm_id": 1250902351, "building": "yes", "name": "", "height": null, "height_m": null, "levels": null, "tract_id": "40109105600", "tract_name": "1056", "tags": {"building": "yes", "source": "microsoft/BuildingFootprints"}}}, {"type": "Feature", "geometry": {"type": "Polygon", "coordinates": [[[-97.5771038, 35.446838], [-97.5770371, 35.4468382], [-97.577037, 35.4468313], [-97.5769771, 35.4468315], [-97.5769771, 35.4468386], [-97.5769643, 35.4468386], [-97.5769646, 35.4469057], [-97.5769517, 35.4469057], [-97.5769519, 35.4469488], [-97.5770205, 35.4469486], [-97.5770204, 35.4469371], [-97.5771041, 35.446937], [-97.5771038, 35.446838]]]}, "properties": {"osm_id": 1250902462, "building": "yes", "name": "", "height": null, "height_m": null, "levels": null, "tract_id": "40109105600", "tract_name": "1056", "tags": {"building": "yes", "source": "microsoft/BuildingFootprints"}}}, {"type": "Feature", "geometry": {"type": "Polygon", "coordinates": [[[-97.5772103, 35.4470828], [-97.5772091, 35.4469854], [-97.5771453, 35.4469859], [-97.5771452, 35.4469751], [-97.5770601, 35.4469758], [-97.5770607, 35.4470199], [-97.5770733, 35.4470198], [-97.5770737, 35.4470508], [-97.5770601, 35.4470509], [-97.5770606, 35.4470966], [-97.5771417, 35.447096], [-97.5771415, 35.4470834], [-97.5772103, 35.4470828]]]}, "properties": {"osm_id": 1250902463, "building": "yes", "name": "", "height": null, "height_m": null, "levels": null, "tract_id": "40109105600", "tract_name": "1056", "tags": {"building": "yes", "source": "microsoft/BuildingFootprints"}}}, {"type": "Feature", "geometry": {"type": "Polygon", "coordinates": [[[-97.5772139, 35.4471446], [-97.5771481, 35.4471447], [-97.5771481, 35.4471357], [-97.5770618, 35.4471359], [-97.5770619, 35.4471766], [-97.5770739, 35.4471766], [-97.577074, 35.4472119], [-97.5770618, 35.4472119], [-97.5770619, 35.4472539], [-97.5771529, 35.4472537], [-97.5771528, 35.4472417], [-97.5772142, 35.4472416], [-97.5772139, 35.4471446]]]}, "properties": {"osm_id": 1250902464, "building": "yes", "name": "", "height": null, "height_m": null, "levels": null, "tract_id": "40109105600", "tract_name": "1056", "tags": {"building": "yes", "source": "microsoft/BuildingFootprints"}}}, {"type": "Feature", "geometry": {"type": "Polygon", "coordinates": [[[-97.5772908, 35.4472734], [-97.5772235, 35.4472733], [-97.5772235, 35.4472671], [-97.5771654, 35.447267], [-97.5771654, 35.4472747], [-97.5771498, 35.4472747], [-97.5771497, 35.4473401], [-97.5771356, 35.4473401], [-97.5771355, 35.4473825], [-97.5772036, 35.4473826], [-97.5772036, 35.4473713], [-97.5772906, 35.4473715], [-97.5772908, 35.4472734]]]}, "properties": {"osm_id": 1250902465, "building": "yes", "name": "", "height": null, "height_m": null, "levels": null, "tract_id": "40109105600", "tract_name": "1056", "tags": {"building": "yes", "source": "microsoft/BuildingFootprints"}}}, {"type": "Feature", "geometry": {"type": "Polygon", "coordinates": [[[-97.5773039, 35.4472835], [-97.5773448, 35.4473761], [-97.577427, 35.447352], [-97.5774314, 35.4473618], [-97.5774933, 35.4473436], [-97.5774759, 35.4473042], [-97.5774649, 35.4473074], [-97.5774371, 35.4472445], [-97.5773039, 35.4472835]]]}, "properties": {"osm_id": 1250902466, "building": "yes", "name": "", "height": null, "height_m": null, "levels": null, "tract_id": "40109105600", "tract_name": "1056", "tags": {"building": "yes", "source": "microsoft/BuildingFootprints"}}}, {"type": "Feature", "geometry": {"type": "Polygon", "coordinates": [[[-97.5776416, 35.4472747], [-97.5775764, 35.4471935], [-97.5774599, 35.4472556], [-97.5775045, 35.4473111], [-97.577492, 35.4473178], [-97.5775192, 35.4473517], [-97.5775767, 35.4473211], [-97.5775701, 35.4473129], [-97.5776416, 35.4472747]]]}, "properties": {"osm_id": 1250902467, "building": "yes", "name": "", "height": null, "height_m": null, "levels": null, "tract_id": "40109105600", "tract_name": "1056", "tags": {"building": "yes", "source": "microsoft/BuildingFootprints"}}}, {"type": "Feature", "geometry": {"type": "Polygon", "coordinates": [[[-97.5769284, 35.446839], [-97.5769174, 35.446839], [-97.5769174, 35.4468305], [-97.5768544, 35.4468307], [-97.5768544, 35.4468392], [-97.5767882, 35.4468394], [-97.5767886, 35.4469364], [-97.5768758, 35.4469361], [-97.5768759, 35.4469473], [-97.5769413, 35.4469471], [-97.5769411, 35.4469065], [-97.5769287, 35.4469066], [-97.5769284, 35.446839]]]}, "properties": {"osm_id": 1250902468, "building": "yes", "name": "", "height": null, "height_m": null, "levels": null, "tract_id": "40109105600", "tract_name": "1056", "tags": {"building": "yes", "source": "microsoft/BuildingFootprints"}}}, {"type": "Feature", "geometry": {"type": "Polygon", "coordinates": [[[-97.5766458, 35.4468344], [-97.5766459, 35.4468412], [-97.576633, 35.4468413], [-97.5766336, 35.446908], [-97.5766212, 35.446908], [-97.5766216, 35.4469503], [-97.5766885, 35.4469499], [-97.5766884, 35.446939], [-97.5767748, 35.4469385], [-97.5767739, 35.4468399], [-97.5767052, 35.4468403], [-97.5767052, 35.446834], [-97.5766458, 35.4468344]]]}, "properties": {"osm_id": 1250902469, "building": "yes", "name": "", "height": null, "height_m": null, "levels": null, "tract_id": "40109105600", "tract_name": "1056", "tags": {"building": "yes", "source": "microsoft/BuildingFootprints"}}}, {"type": "Feature", "geometry": {"type": "Polygon", "coordinates": [[[-97.5764559, 35.4468435], [-97.5764569, 35.4469407], [-97.5765447, 35.4469401], [-97.5765448, 35.4469506], [-97.5766084, 35.4469502], [-97.576608, 35.446908], [-97.5765979, 35.4469081], [-97.5765972, 35.4468427], [-97.5765851, 35.4468428], [-97.576585, 35.4468344], [-97.5765296, 35.4468348], [-97.5765297, 35.446843], [-97.5764559, 35.4468435]]]}, "properties": {"osm_id": 1250902470, "building": "yes", "name": "", "height": null, "height_m": null, "levels": null, "tract_id": "40109105600", "tract_name": "1056", "tags": {"building": "yes", "source": "microsoft/BuildingFootprints"}}}, {"type": "Feature", "geometry": {"type": "Polygon", "coordinates": [[[-97.5763826, 35.4469731], [-97.5762917, 35.4469735], [-97.5762917, 35.446984], [-97.5762279, 35.4469843], [-97.5762284, 35.4470829], [-97.5762941, 35.4470827], [-97.5762941, 35.4470931], [-97.5763831, 35.4470928], [-97.5763829, 35.447052], [-97.576369, 35.4470521], [-97.5763688, 35.4470158], [-97.5763828, 35.4470158], [-97.5763826, 35.4469731]]]}, "properties": {"osm_id": 1250902471, "building": "yes", "name": "", "height": null, "height_m": null, "levels": null, "tract_id": "40109105600", "tract_name": "1056", "tags": {"building": "yes", "source": "microsoft/BuildingFootprints"}}}, {"type": "Feature", "geometry": {"type": "Polygon", "coordinates": [[[-97.57638, 35.447103], [-97.5762946, 35.4471035], [-97.5762947, 35.4471136], [-97.5762289, 35.447114], [-97.5762298, 35.447212], [-97.5762963, 35.4472116], [-97.5762964, 35.4472221], [-97.5763811, 35.4472216], [-97.5763807, 35.4471804], [-97.5763734, 35.4471804], [-97.5763731, 35.4471479], [-97.5763804, 35.4471478], [-97.57638, 35.447103]]]}, "properties": {"osm_id": 1250902472, "building": "yes", "name": "", "height": null, "height_m": null, "levels": null, "tract_id": "40109105600", "tract_name": "1056", "tags": {"building": "yes", "source": "microsoft/BuildingFootprints"}}}, {"type": "Feature", "geometry": {"type": "Polygon", "coordinates": [[[-97.5762299, 35.4473634], [-97.5763164, 35.4473633], [-97.5763164, 35.4473745], [-97.5763822, 35.4473745], [-97.5763822, 35.4473325], [-97.5763711, 35.4473325], [-97.576371, 35.4472646], [-97.5763605, 35.4472646], [-97.5763605, 35.4472577], [-97.5762969, 35.4472577], [-97.5762969, 35.4472646], [-97.5762298, 35.4472646], [-97.5762299, 35.4473634]]]}, "properties": {"osm_id": 1250902473, "building": "yes", "name": "", "height": null, "height_m": null, "levels": null, "tract_id": "40109105600", "tract_name": "1056", "tags": {"building": "yes", "source": "microsoft/BuildingFootprints"}}}, {"type": "Feature", "geometry": {"type": "Polygon", "coordinates": [[[-97.5761619, 35.447363], [-97.5761623, 35.4472663], [-97.5760972, 35.4472661], [-97.5760972, 35.4472549], [-97.5760364, 35.4472547], [-97.5760364, 35.4472656], [-97.5760263, 35.4472655], [-97.576026, 35.4473336], [-97.5760099, 35.4473335], [-97.5760097, 35.4473748], [-97.5760782, 35.447375], [-97.5760783, 35.4473627], [-97.5761619, 35.447363]]]}, "properties": {"osm_id": 1250902474, "building": "yes", "name": "", "height": null, "height_m": null, "levels": null, "tract_id": "40109105600", "tract_name": "1056", "tags": {"building": "yes", "source": "microsoft/BuildingFootprints"}}}, {"type": "Feature", "geometry": {"type": "Polygon", "coordinates": [[[-97.5757837, 35.4473643], [-97.575871, 35.4473643], [-97.575871, 35.4473751], [-97.5759411, 35.4473751], [-97.5759412, 35.4473337], [-97.575925, 35.4473337], [-97.5759251, 35.4472655], [-97.5759151, 35.4472655], [-97.5759151, 35.4472554], [-97.5758546, 35.4472554], [-97.5758546, 35.4472655], [-97.5757837, 35.4472655], [-97.5757837, 35.4473643]]]}, "properties": {"osm_id": 1250902475, "building": "yes", "name": "", "height": null, "height_m": null, "levels": null, "tract_id": "40109105600", "tract_name": "1056", "tags": {"building": "yes", "source": "microsoft/BuildingFootprints"}}}, {"type": "Feature", "geometry": {"type": "Polygon", "coordinates": [[[-97.5757569, 35.4473638], [-97.5757566, 35.4472659], [-97.5756895, 35.447266], [-97.5756895, 35.4472591], [-97.5756175, 35.4472593], [-97.5756177, 35.4473335], [-97.5756057, 35.4473335], [-97.5756058, 35.447375], [-97.5756715, 35.4473748], [-97.5756715, 35.447364], [-97.5757569, 35.4473638]]]}, "properties": {"osm_id": 1250902476, "building": "yes", "name": "", "height": null, "height_m": null, "levels": null, "tract_id": "40109105600", "tract_name": "1056", "tags": {"building": "yes", "source": "microsoft/BuildingFootprints"}}}, {"type": "Feature", "geometry": {"type": "Polygon", "coordinates": [[[-97.5756452, 35.4471975], [-97.5757335, 35.4471969], [-97.5757334, 35.4471864], [-97.5757974, 35.447186], [-97.5757964, 35.4470885], [-97.575733, 35.4470889], [-97.5757329, 35.447079], [-97.5756452, 35.4470796], [-97.5756456, 35.4471237], [-97.5756587, 35.4471236], [-97.575659, 35.4471548], [-97.5756448, 35.4471549], [-97.5756452, 35.4471975]]]}, "properties": {"osm_id": 1250902477, "building": "yes", "name": "", "height": null, "height_m": null, "levels": null, "tract_id": "40109105600", "tract_name": "1056", "tags": {"building": "yes", "source": "microsoft/BuildingFootprints"}}}, {"type": "Feature", "geometry": {"type": "Polygon", "coordinates": [[[-97.5756446, 35.4469397], [-97.5756446, 35.4469841], [-97.5756576, 35.4469841], [-97.5756575, 35.4470185], [-97.5756449, 35.4470185], [-97.5756449, 35.44706], [-97.5757337, 35.4470601], [-97.5757337, 35.4470492], [-97.5757987, 35.4470493], [-97.5757989, 35.446952], [-97.5757381, 35.446952], [-97.5757381, 35.4469397], [-97.5756446, 35.4469397]]]}, "properties": {"osm_id": 1250902478, "building": "yes", "name": "", "height": null, "height_m": null, "levels": null, "tract_id": "40109105600", "tract_name": "1056", "tags": {"building": "yes", "source": "microsoft/BuildingFootprints"}}}, {"type": "Feature", "geometry": {"type": "Polygon", "coordinates": [[[-97.5756496, 35.4468976], [-97.5757343, 35.4468968], [-97.5757341, 35.4468866], [-97.5757981, 35.4468859], [-97.5757968, 35.4467896], [-97.5757332, 35.4467902], [-97.575733, 35.4467781], [-97.5756454, 35.446779], [-97.575646, 35.4468222], [-97.5756593, 35.446822], [-97.5756597, 35.4468537], [-97.575649, 35.4468538], [-97.5756496, 35.4468976]]]}, "properties": {"osm_id": 1250902479, "building": "yes", "name": "", "height": null, "height_m": null, "levels": null, "tract_id": "40109105600", "tract_name": "1056", "tags": {"building": "yes", "source": "microsoft/BuildingFootprints"}}}, {"type": "Feature", "geometry": {"type": "Polygon", "coordinates": [[[-97.5752085, 35.4469444], [-97.5751126, 35.4469447], [-97.5751126, 35.4469387], [-97.5749985, 35.4469391], [-97.5749985, 35.4469454], [-97.5748973, 35.4469457], [-97.5748978, 35.4470428], [-97.5750075, 35.4470424], [-97.5750076, 35.4470534], [-97.5750448, 35.4470532], [-97.5750448, 35.4470433], [-97.5750623, 35.4470432], [-97.5750624, 35.4470531], [-97.5751019, 35.447053], [-97.5751019, 35.4470419], [-97.5752089, 35.4470416], [-97.5752085, 35.4469444]]]}, "properties": {"osm_id": 1250902480, "building": "yes", "name": "", "height": null, "height_m": null, "levels": null, "tract_id": "40109105600", "tract_name": "1056", "tags": {"building": "yes", "source": "microsoft/BuildingFootprints"}}}, {"type": "Feature", "geometry": {"type": "Polygon", "coordinates": [[[-97.5750157, 35.4471199], [-97.5748944, 35.44712], [-97.5748945, 35.4472029], [-97.5748897, 35.4472029], [-97.5748898, 35.44729], [-97.5748961, 35.44729], [-97.5748963, 35.4473768], [-97.5750164, 35.4473766], [-97.5750162, 35.4472915], [-97.5750292, 35.4472915], [-97.5750291, 35.4472056], [-97.5750157, 35.4472056], [-97.5750157, 35.4471199]]]}, "properties": {"osm_id": 1250902481, "building": "yes", "name": "", "height": null, "height_m": null, "levels": null, "tract_id": "40109105600", "tract_name": "1056", "tags": {"building": "yes", "source": "microsoft/BuildingFootprints"}}}, {"type": "Feature", "geometry": {"type": "Polygon", "coordinates": [[[-97.5793716, 35.4448305], [-97.5792938, 35.4448294], [-97.5792931, 35.44486], [-97.5792315, 35.4448591], [-97.5792297, 35.4449399], [-97.5793691, 35.4449419], [-97.5793716, 35.4448305]]]}, "properties": {"osm_id": 1250902482, "building": "yes", "name": "", "height": null, "height_m": null, "levels": null, "tract_id": "40109105600", "tract_name": "1056", "tags": {"building": "yes", "source": "microsoft/BuildingFootprints"}}}, {"type": "Feature", "geometry": {"type": "Polygon", "coordinates": [[[-97.5789374, 35.4449406], [-97.5791573, 35.4449426], [-97.5791585, 35.4448596], [-97.5790217, 35.4448584], [-97.5790214, 35.4448758], [-97.5789383, 35.4448751], [-97.5789374, 35.4449406]]]}, "properties": {"osm_id": 1250902483, "building": "yes", "name": "", "height": null, "height_m": null, "levels": null, "tract_id": "40109105600", "tract_name": "1056", "tags": {"building": "yes", "source": "microsoft/BuildingFootprints"}}}, {"type": "Feature", "geometry": {"type": "Polygon", "coordinates": [[[-97.5788686, 35.4451209], [-97.578945, 35.4451569], [-97.5790344, 35.4450307], [-97.5789017, 35.4449682], [-97.5788564, 35.4450321], [-97.5789127, 35.4450586], [-97.5788686, 35.4451209]]]}, "properties": {"osm_id": 1250902484, "building": "yes", "name": "", "height": null, "height_m": null, "levels": null, "tract_id": "40109105600", "tract_name": "1056", "tags": {"building": "yes", "source": "microsoft/BuildingFootprints"}}}, {"type": "Feature", "geometry": {"type": "Polygon", "coordinates": [[[-97.5787451, 35.4451386], [-97.578685, 35.4451925], [-97.5788124, 35.4452866], [-97.5789227, 35.4451876], [-97.5788527, 35.4451359], [-97.5788025, 35.445181], [-97.5787451, 35.4451386]]]}, "properties": {"osm_id": 1250902485, "building": "yes", "name": "", "height": null, "height_m": null, "levels": null, "tract_id": "40109105600", "tract_name": "1056", "tags": {"building": "yes", "source": "microsoft/BuildingFootprints"}}}, {"type": "Feature", "geometry": {"type": "Polygon", "coordinates": [[[-97.5786694, 35.4453233], [-97.5787076, 35.445357], [-97.5787728, 35.445308], [-97.5786664, 35.4452141], [-97.5785664, 35.4452892], [-97.5786346, 35.4453494], [-97.5786694, 35.4453233]]]}, "properties": {"osm_id": 1250902486, "building": "yes", "name": "", "height": null, "height_m": null, "levels": null, "tract_id": "40109105600", "tract_name": "1056", "tags": {"building": "yes", "source": "microsoft/BuildingFootprints"}}}, {"type": "Feature", "geometry": {"type": "Polygon", "coordinates": [[[-97.5785011, 35.4453508], [-97.5784383, 35.4453992], [-97.5785535, 35.4454982], [-97.5786671, 35.4454104], [-97.5786095, 35.4453609], [-97.5785586, 35.4454002], [-97.5785011, 35.4453508]]]}, "properties": {"osm_id": 1250902487, "building": "yes", "name": "", "height": null, "height_m": null, "levels": null, "tract_id": "40109105600", "tract_name": "1056", "tags": {"building": "yes", "source": "microsoft/BuildingFootprints"}}}, {"type": "Feature", "geometry": {"type": "Polygon", "coordinates": [[[-97.5784188, 35.4455296], [-97.5784572, 35.4455595], [-97.5785228, 35.4455038], [-97.5784125, 35.4454175], [-97.5783181, 35.4454976], [-97.5783901, 35.4455539], [-97.5784188, 35.4455296]]]}, "properties": {"osm_id": 1250902488, "building": "yes", "name": "", "height": null, "height_m": null, "levels": null, "tract_id": "40109105600", "tract_name": "1056", "tags": {"building": "yes", "source": "microsoft/BuildingFootprints"}}}, {"type": "Feature", "geometry": {"type": "Polygon", "coordinates": [[[-97.5783365, 35.4456514], [-97.5783989, 35.445604], [-97.5782986, 35.4455162], [-97.5781822, 35.4456044], [-97.5782557, 35.4456689], [-97.5783097, 35.4456279], [-97.5783365, 35.4456514]]]}, "properties": {"osm_id": 1250902489, "building": "yes", "name": "", "height": null, "height_m": null, "levels": null, "tract_id": "40109105600", "tract_name": "1056", "tags": {"building": "yes", "source": "microsoft/BuildingFootprints"}}}, {"type": "Feature", "geometry": {"type": "Polygon", "coordinates": [[[-97.578168, 35.4456186], [-97.578103, 35.4456682], [-97.5781485, 35.4457078], [-97.5780962, 35.4457476], [-97.5781578, 35.4458013], [-97.5782751, 35.4457119], [-97.578168, 35.4456186]]]}, "properties": {"osm_id": 1250902490, "building": "yes", "name": "", "height": null, "height_m": null, "levels": null, "tract_id": "40109105600", "tract_name": "1056", "tags": {"building": "yes", "source": "microsoft/BuildingFootprints"}}}, {"type": "Feature", "geometry": {"type": "Polygon", "coordinates": [[[-97.5781632, 35.4458964], [-97.5779882, 35.44576], [-97.5779198, 35.4458182], [-97.5780949, 35.4459546], [-97.5781632, 35.4458964]]]}, "properties": {"osm_id": 1250902491, "building": "yes", "name": "", "height": null, "height_m": null, "levels": null, "tract_id": "40109105600", "tract_name": "1056", "tags": {"building": "yes", "source": "microsoft/BuildingFootprints"}}}, {"type": "Feature", "geometry": {"type": "Polygon", "coordinates": [[[-97.5779158, 35.4460937], [-97.5777475, 35.4459686], [-97.5776834, 35.4460258], [-97.5778517, 35.4461509], [-97.5779158, 35.4460937]]]}, "properties": {"osm_id": 1250902492, "building": "yes", "name": "", "height": null, "height_m": null, "levels": null, "tract_id": "40109105600", "tract_name": "1056", "tags": {"building": "yes", "source": "microsoft/BuildingFootprints"}}}, {"type": "Feature", "geometry": {"type": "Polygon", "coordinates": [[[-97.5774965, 35.4461638], [-97.5776179, 35.4462659], [-97.57773, 35.4461775], [-97.5776656, 35.4461233], [-97.5776144, 35.4461637], [-97.5775574, 35.4461157], [-97.5774965, 35.4461638]]]}, "properties": {"osm_id": 1250902493, "building": "yes", "name": "", "height": null, "height_m": null, "levels": null, "tract_id": "40109105600", "tract_name": "1056", "tags": {"building": "yes", "source": "microsoft/BuildingFootprints"}}}, {"type": "Feature", "geometry": {"type": "Polygon", "coordinates": [[[-97.5773616, 35.4462687], [-97.5774337, 35.4463328], [-97.5774877, 35.4462926], [-97.5775125, 35.4463146], [-97.5775787, 35.4462651], [-97.5774818, 35.4461789], [-97.5773616, 35.4462687]]]}, "properties": {"osm_id": 1250902494, "building": "yes", "name": "", "height": null, "height_m": null, "levels": null, "tract_id": "40109105600", "tract_name": "1056", "tags": {"building": "yes", "source": "microsoft/BuildingFootprints"}}}, {"type": "Feature", "geometry": {"type": "Polygon", "coordinates": [[[-97.577305, 35.4464014], [-97.5773331, 35.4464368], [-97.5774144, 35.4463939], [-97.5773299, 35.4462877], [-97.5772109, 35.4463505], [-97.5772672, 35.4464213], [-97.577305, 35.4464014]]]}, "properties": {"osm_id": 1250902495, "building": "yes", "name": "", "height": null, "height_m": null, "levels": null, "tract_id": "40109105600", "tract_name": "1056", "tags": {"building": "yes", "source": "microsoft/BuildingFootprints"}}}, {"type": "Feature", "geometry": {"type": "Polygon", "coordinates": [[[-97.5771985, 35.4464506], [-97.5771398, 35.4464687], [-97.5771106, 35.4464055], [-97.5770284, 35.4464308], [-97.5770899, 35.4465638], [-97.5772309, 35.4465206], [-97.5771985, 35.4464506]]]}, "properties": {"osm_id": 1250902496, "building": "yes", "name": "", "height": null, "height_m": null, "levels": null, "tract_id": "40109105600", "tract_name": "1056", "tags": {"building": "yes", "source": "microsoft/BuildingFootprints"}}}, {"type": "Feature", "geometry": {"type": "Polygon", "coordinates": [[[-97.5769053, 35.4464551], [-97.5768281, 35.446468], [-97.5768638, 35.4466094], [-97.5770208, 35.4465831], [-97.5770009, 35.4465046], [-97.5769212, 35.446518], [-97.5769053, 35.4464551]]]}, "properties": {"osm_id": 1250902497, "building": "yes", "name": "", "height": null, "height_m": null, "levels": null, "tract_id": "40109105600", "tract_name": "1056", "tags": {"building": "yes", "source": "microsoft/BuildingFootprints"}}}, {"type": "Feature", "geometry": {"type": "Polygon", "coordinates": [[[-97.5766225, 35.4465874], [-97.5767177, 35.4465893], [-97.5767168, 35.4466167], [-97.5767878, 35.4466182], [-97.5767913, 35.4465056], [-97.5767162, 35.4465041], [-97.5767173, 35.4464713], [-97.5766261, 35.4464695], [-97.5766225, 35.4465874]]]}, "properties": {"osm_id": 1250902498, "building": "yes", "name": "", "height": null, "height_m": null, "levels": null, "tract_id": "40109105600", "tract_name": "1056", "tags": {"building": "yes", "source": "microsoft/BuildingFootprints"}}}, {"type": "Feature", "geometry": {"type": "Polygon", "coordinates": [[[-97.5764448, 35.4465856], [-97.576544, 35.4465873], [-97.5765452, 35.4465392], [-97.5765854, 35.4465399], [-97.5765875, 35.4464591], [-97.5764481, 35.4464567], [-97.5764448, 35.4465856]]]}, "properties": {"osm_id": 1250902499, "building": "yes", "name": "", "height": null, "height_m": null, "levels": null, "tract_id": "40109105600", "tract_name": "1056", "tags": {"building": "yes", "source": "microsoft/BuildingFootprints"}}}, {"type": "Feature", "geometry": {"type": "Polygon", "coordinates": [[[-97.5762473, 35.4465936], [-97.5764095, 35.4465957], [-97.5764119, 35.4464723], [-97.5763314, 35.4464713], [-97.5763308, 35.4465019], [-97.5762491, 35.4465008], [-97.5762473, 35.4465936]]]}, "properties": {"osm_id": 1250902500, "building": "yes", "name": "", "height": null, "height_m": null, "levels": null, "tract_id": "40109105600", "tract_name": "1056", "tags": {"building": "yes", "source": "microsoft/BuildingFootprints"}}}, {"type": "Feature", "geometry": {"type": "Polygon", "coordinates": [[[-97.5762209, 35.4465894], [-97.5762232, 35.4464736], [-97.5761388, 35.4464725], [-97.5761382, 35.4465041], [-97.5760658, 35.4465031], [-97.5760635, 35.4466179], [-97.5761452, 35.446619], [-97.5761458, 35.4465884], [-97.5762209, 35.4465894]]]}, "properties": {"osm_id": 1250902501, "building": "yes", "name": "", "height": null, "height_m": null, "levels": null, "tract_id": "40109105600", "tract_name": "1056", "tags": {"building": "yes", "source": "microsoft/BuildingFootprints"}}}, {"type": "Feature", "geometry": {"type": "Polygon", "coordinates": [[[-97.5760365, 35.4464731], [-97.57594, 35.4464717], [-97.5759393, 35.4465066], [-97.5758803, 35.4465058], [-97.575878, 35.4466107], [-97.5759424, 35.4466116], [-97.5759429, 35.4465854], [-97.5760341, 35.4465866], [-97.5760365, 35.4464731]]]}, "properties": {"osm_id": 1250902502, "building": "yes", "name": "", "height": null, "height_m": null, "levels": null, "tract_id": "40109105600", "tract_name": "1056", "tags": {"building": "yes", "source": "microsoft/BuildingFootprints"}}}, {"type": "Feature", "geometry": {"type": "Polygon", "coordinates": [[[-97.5757621, 35.4464705], [-97.5757606, 35.4465383], [-97.5756909, 35.4465372], [-97.5756893, 35.4466126], [-97.5758421, 35.4466149], [-97.5758452, 35.4464717], [-97.5757621, 35.4464705]]]}, "properties": {"osm_id": 1250902503, "building": "yes", "name": "", "height": null, "height_m": null, "levels": null, "tract_id": "40109105600", "tract_name": "1056", "tags": {"building": "yes", "source": "microsoft/BuildingFootprints"}}}, {"type": "Feature", "geometry": {"type": "Polygon", "coordinates": [[[-97.5755898, 35.44647], [-97.575496, 35.4464685], [-97.5754912, 35.446664], [-97.575585, 35.4466655], [-97.5755898, 35.44647]]]}, "properties": {"osm_id": 1250902504, "building": "yes", "name": "", "height": null, "height_m": null, "levels": null, "tract_id": "40109105600", "tract_name": "1056", "tags": {"building": "yes", "source": "microsoft/BuildingFootprints"}}}, {"type": "Feature", "geometry": {"type": "Polygon", "coordinates": [[[-97.5750455, 35.4466827], [-97.5750479, 35.4467985], [-97.5751391, 35.4467972], [-97.5751383, 35.4467579], [-97.5752026, 35.446757], [-97.5752011, 35.4466806], [-97.5750455, 35.4466827]]]}, "properties": {"osm_id": 1250902505, "building": "yes", "name": "", "height": null, "height_m": null, "levels": null, "tract_id": "40109105600", "tract_name": "1056", "tags": {"building": "yes", "source": "microsoft/BuildingFootprints"}}}, {"type": "Feature", "geometry": {"type": "Polygon", "coordinates": [[[-97.5752071, 35.4465251], [-97.575049, 35.4465211], [-97.5750438, 35.4466553], [-97.5751363, 35.4466577], [-97.5751387, 35.4465966], [-97.5752043, 35.4465983], [-97.5752071, 35.4465251]]]}, "properties": {"osm_id": 1250902506, "building": "yes", "name": "", "height": null, "height_m": null, "levels": null, "tract_id": "40109105600", "tract_name": "1056", "tags": {"building": "yes", "source": "microsoft/BuildingFootprints"}}}, {"type": "Feature", "geometry": {"type": "Polygon", "coordinates": [[[-97.575203, 35.4465064], [-97.5752047, 35.4464387], [-97.575127, 35.4464374], [-97.5751286, 35.4463719], [-97.5750241, 35.4463701], [-97.5750219, 35.4464586], [-97.5749641, 35.4464576], [-97.574963, 35.4465024], [-97.575203, 35.4465064]]]}, "properties": {"osm_id": 1250902507, "building": "yes", "name": "", "height": null, "height_m": null, "levels": null, "tract_id": "40109105600", "tract_name": "1056", "tags": {"building": "yes", "source": "microsoft/BuildingFootprints"}}}, {"type": "Feature", "geometry": {"type": "Polygon", "coordinates": [[[-97.5750669, 35.4461304], [-97.5750362, 35.4461297], [-97.5750338, 35.4461974], [-97.5751959, 35.4462012], [-97.5751991, 35.4461084], [-97.575155, 35.4461074], [-97.5751563, 35.4460713], [-97.5750691, 35.4460693], [-97.5750669, 35.4461304]]]}, "properties": {"osm_id": 1250902508, "building": "yes", "name": "", "height": null, "height_m": null, "levels": null, "tract_id": "40109105600", "tract_name": "1056", "tags": {"building": "yes", "source": "microsoft/BuildingFootprints"}}}, {"type": "Feature", "geometry": {"type": "Polygon", "coordinates": [[[-97.5750675, 35.4459209], [-97.5750703, 35.446052], [-97.575199, 35.4460501], [-97.575197, 35.4459595], [-97.5751568, 35.44596], [-97.575156, 35.4459196], [-97.5750675, 35.4459209]]]}, "properties": {"osm_id": 1250902509, "building": "yes", "name": "", "height": null, "height_m": null, "levels": null, "tract_id": "40109105600", "tract_name": "1056", "tags": {"building": "yes", "source": "microsoft/BuildingFootprints"}}}, {"type": "Feature", "geometry": {"type": "Polygon", "coordinates": [[[-97.5750688, 35.4457678], [-97.5750662, 35.4459], [-97.5751949, 35.4459016], [-97.5751967, 35.4458088], [-97.5751592, 35.4458083], [-97.57516, 35.445769], [-97.5750688, 35.4457678]]]}, "properties": {"osm_id": 1250902510, "building": "yes", "name": "", "height": null, "height_m": null, "levels": null, "tract_id": "40109105600", "tract_name": "1056", "tags": {"building": "yes", "source": "microsoft/BuildingFootprints"}}}, {"type": "Feature", "geometry": {"type": "Polygon", "coordinates": [[[-97.5750708, 35.4457493], [-97.5752048, 35.4457468], [-97.5752034, 35.4456966], [-97.5751632, 35.4456973], [-97.5751609, 35.4456165], [-97.575067, 35.4456183], [-97.5750708, 35.4457493]]]}, "properties": {"osm_id": 1250902511, "building": "yes", "name": "", "height": null, "height_m": null, "levels": null, "tract_id": "40109105600", "tract_name": "1056", "tags": {"building": "yes", "source": "microsoft/BuildingFootprints"}}}, {"type": "Feature", "geometry": {"type": "Polygon", "coordinates": [[[-97.5813333, 35.4439299], [-97.5812368, 35.4439319], [-97.5812427, 35.4441175], [-97.5813392, 35.4441155], [-97.5813333, 35.4439299]]]}, "properties": {"osm_id": 1250902746, "building": "yes", "name": "", "height": null, "height_m": null, "levels": null, "tract_id": "40109105600", "tract_name": "1056", "tags": {"building": "yes", "source": "microsoft/BuildingFootprints"}}}, {"type": "Feature", "geometry": {"type": "Polygon", "coordinates": [[[-97.5810075, 35.4439288], [-97.5810059, 35.444011], [-97.5810434, 35.4440115], [-97.5810422, 35.4440727], [-97.5811468, 35.4440741], [-97.5811497, 35.4439307], [-97.5810075, 35.4439288]]]}, "properties": {"osm_id": 1250902747, "building": "yes", "name": "", "height": null, "height_m": null, "levels": null, "tract_id": "40109105600", "tract_name": "1056", "tags": {"building": "yes", "source": "microsoft/BuildingFootprints"}}}, {"type": "Feature", "geometry": {"type": "Polygon", "coordinates": [[[-97.5808064, 35.4440702], [-97.5809352, 35.4440715], [-97.5809366, 35.4439688], [-97.5808776, 35.4439682], [-97.5808781, 35.4439333], [-97.5808084, 35.4439326], [-97.5808064, 35.4440702]]]}, "properties": {"osm_id": 1250902748, "building": "yes", "name": "", "height": null, "height_m": null, "levels": null, "tract_id": "40109105600", "tract_name": "1056", "tags": {"building": "yes", "source": "microsoft/BuildingFootprints"}}}, {"type": "Feature", "geometry": {"type": "Polygon", "coordinates": [[[-97.5806331, 35.4439824], [-97.580634, 35.4440742], [-97.5806716, 35.444074], [-97.5806718, 35.4441002], [-97.5807389, 35.4440997], [-97.5807387, 35.4440757], [-97.5807843, 35.4440754], [-97.5807828, 35.4439334], [-97.5807238, 35.4439338], [-97.5807243, 35.4439818], [-97.5806331, 35.4439824]]]}, "properties": {"osm_id": 1250902749, "building": "yes", "name": "", "height": null, "height_m": null, "levels": null, "tract_id": "40109105600", "tract_name": "1056", "tags": {"building": "yes", "source": "microsoft/BuildingFootprints"}}}, {"type": "Feature", "geometry": {"type": "Polygon", "coordinates": [[[-97.5804446, 35.4440748], [-97.5804849, 35.4440745], [-97.5804851, 35.4441], [-97.5805576, 35.4440994], [-97.5805574, 35.4440827], [-97.5805992, 35.4440824], [-97.5805981, 35.4439819], [-97.5805026, 35.4439826], [-97.5805021, 35.4439302], [-97.5804431, 35.4439306], [-97.5804446, 35.4440748]]]}, "properties": {"osm_id": 1250902750, "building": "yes", "name": "", "height": null, "height_m": null, "levels": null, "tract_id": "40109105600", "tract_name": "1056", "tags": {"building": "yes", "source": "microsoft/BuildingFootprints"}}}, {"type": "Feature", "geometry": {"type": "Polygon", "coordinates": [[[-97.5802456, 35.4440343], [-97.5804012, 35.4440349], [-97.5804016, 35.4439593], [-97.5803335, 35.443959], [-97.5803337, 35.4439276], [-97.5802462, 35.4439273], [-97.5802456, 35.4440343]]]}, "properties": {"osm_id": 1250902751, "building": "yes", "name": "", "height": null, "height_m": null, "levels": null, "tract_id": "40109105600", "tract_name": "1056", "tags": {"building": "yes", "source": "microsoft/BuildingFootprints"}}}, {"type": "Feature", "geometry": {"type": "Polygon", "coordinates": [[[-97.5798788, 35.4440416], [-97.5800407, 35.444039], [-97.580038, 35.4439276], [-97.5799699, 35.4439287], [-97.5799708, 35.4439628], [-97.5798769, 35.4439644], [-97.5798788, 35.4440416]]]}, "properties": {"osm_id": 1250902752, "building": "yes", "name": "", "height": null, "height_m": null, "levels": null, "tract_id": "40109105600", "tract_name": "1056", "tags": {"building": "yes", "source": "microsoft/BuildingFootprints"}}}, {"type": "Feature", "geometry": {"type": "Polygon", "coordinates": [[[-97.5796899, 35.4440513], [-97.5797784, 35.4440526], [-97.5797779, 35.4440723], [-97.5798476, 35.4440733], [-97.5798506, 35.4439401], [-97.5796924, 35.4439377], [-97.5796899, 35.4440513]]]}, "properties": {"osm_id": 1250902753, "building": "yes", "name": "", "height": null, "height_m": null, "levels": null, "tract_id": "40109105600", "tract_name": "1056", "tags": {"building": "yes", "source": "microsoft/BuildingFootprints"}}}, {"type": "Feature", "geometry": {"type": "Polygon", "coordinates": [[[-97.5800776, 35.4440398], [-97.5802144, 35.4440415], [-97.5802161, 35.4439497], [-97.5800793, 35.4439481], [-97.5800776, 35.4440398]]]}, "properties": {"osm_id": 1250902754, "building": "yes", "name": "", "height": null, "height_m": null, "levels": null, "tract_id": "40109105600", "tract_name": "1056", "tags": {"building": "yes", "source": "microsoft/BuildingFootprints"}}}, {"type": "Feature", "geometry": {"type": "Polygon", "coordinates": [[[-97.5813427, 35.4444354], [-97.5812247, 35.4444342], [-97.5812227, 35.4445653], [-97.5813407, 35.4445665], [-97.5813427, 35.4444354]]]}, "properties": {"osm_id": 1250902755, "building": "yes", "name": "", "height": null, "height_m": null, "levels": null, "tract_id": "40109105600", "tract_name": "1056", "tags": {"building": "yes", "source": "microsoft/BuildingFootprints"}}}, {"type": "Feature", "geometry": {"type": "Polygon", "coordinates": [[[-97.580987, 35.4444354], [-97.5809884, 35.4445315], [-97.5811585, 35.4445299], [-97.5811571, 35.4444338], [-97.580987, 35.4444354]]]}, "properties": {"osm_id": 1250902756, "building": "yes", "name": "", "height": null, "height_m": null, "levels": null, "tract_id": "40109105600", "tract_name": "1056", "tags": {"building": "yes", "source": "microsoft/BuildingFootprints"}}}, {"type": "Feature", "geometry": {"type": "Polygon", "coordinates": [[[-97.5809667, 35.4444619], [-97.5808069, 35.4444635], [-97.5808083, 35.4445574], [-97.5809681, 35.4445559], [-97.5809667, 35.4444619]]]}, "properties": {"osm_id": 1250902757, "building": "yes", "name": "", "height": null, "height_m": null, "levels": null, "tract_id": "40109105600", "tract_name": "1056", "tags": {"building": "yes", "source": "microsoft/BuildingFootprints"}}}, {"type": "Feature", "geometry": {"type": "Polygon", "coordinates": [[[-97.5806236, 35.4444813], [-97.5806246, 35.4445687], [-97.5807828, 35.4445675], [-97.5807818, 35.4444801], [-97.5806236, 35.4444813]]]}, "properties": {"osm_id": 1250902758, "building": "yes", "name": "", "height": null, "height_m": null, "levels": null, "tract_id": "40109105600", "tract_name": "1056", "tags": {"building": "yes", "source": "microsoft/BuildingFootprints"}}}, {"type": "Feature", "geometry": {"type": "Polygon", "coordinates": [[[-97.5802438, 35.4444656], [-97.5802465, 35.4445603], [-97.5804062, 35.4445574], [-97.5804036, 35.4444627], [-97.5802438, 35.4444656]]]}, "properties": {"osm_id": 1250902759, "building": "yes", "name": "", "height": null, "height_m": null, "levels": null, "tract_id": "40109105600", "tract_name": "1056", "tags": {"building": "yes", "source": "microsoft/BuildingFootprints"}}}, {"type": "Feature", "geometry": {"type": "Polygon", "coordinates": [[[-97.5800568, 35.4445657], [-97.5802188, 35.4445645], [-97.5802179, 35.444475], [-97.5800558, 35.4444761], [-97.5800568, 35.4445657]]]}, "properties": {"osm_id": 1250902760, "building": "yes", "name": "", "height": null, "height_m": null, "levels": null, "tract_id": "40109105600", "tract_name": "1056", "tags": {"building": "yes", "source": "microsoft/BuildingFootprints"}}}, {"type": "Feature", "geometry": {"type": "Polygon", "coordinates": [[[-97.5800338, 35.4444652], [-97.5798783, 35.4444637], [-97.5798769, 35.4445577], [-97.5800325, 35.4445591], [-97.5800338, 35.4444652]]]}, "properties": {"osm_id": 1250902761, "building": "yes", "name": "", "height": null, "height_m": null, "levels": null, "tract_id": "40109105600", "tract_name": "1056", "tags": {"building": "yes", "source": "microsoft/BuildingFootprints"}}}, {"type": "Feature", "geometry": {"type": "Polygon", "coordinates": [[[-97.5796905, 35.4445589], [-97.579846, 35.4445611], [-97.5798479, 35.4444759], [-97.5796924, 35.4444737], [-97.5796905, 35.4445589]]]}, "properties": {"osm_id": 1250902762, "building": "yes", "name": "", "height": null, "height_m": null, "levels": null, "tract_id": "40109105600", "tract_name": "1056", "tags": {"building": "yes", "source": "microsoft/BuildingFootprints"}}}, {"type": "Feature", "geometry": {"type": "Polygon", "coordinates": [[[-97.5790498, 35.4443628], [-97.5789495, 35.4443611], [-97.5789445, 35.4445599], [-97.5790448, 35.4445616], [-97.5790498, 35.4443628]]]}, "properties": {"osm_id": 1250902763, "building": "yes", "name": "", "height": null, "height_m": null, "levels": null, "tract_id": "40109105600", "tract_name": "1056", "tags": {"building": "yes", "source": "microsoft/BuildingFootprints"}}}, {"type": "Feature", "geometry": {"type": "Polygon", "coordinates": [[[-97.578952, 35.4440652], [-97.5790818, 35.4440672], [-97.5790849, 35.4439287], [-97.5789766, 35.4439271], [-97.5789754, 35.4439817], [-97.5789539, 35.4439814], [-97.578952, 35.4440652]]]}, "properties": {"osm_id": 1250902764, "building": "yes", "name": "", "height": null, "height_m": null, "levels": null, "tract_id": "40109105600", "tract_name": "1056", "tags": {"building": "yes", "source": "microsoft/BuildingFootprints"}}}, {"type": "Feature", "geometry": {"type": "Polygon", "coordinates": [[[-97.5791377, 35.4440425], [-97.579289, 35.4440429], [-97.5792895, 35.4439271], [-97.5791382, 35.4439267], [-97.5791377, 35.4440425]]]}, "properties": {"osm_id": 1250902765, "building": "yes", "name": "", "height": null, "height_m": null, "levels": null, "tract_id": "40109105600", "tract_name": "1056", "tags": {"building": "yes", "source": "microsoft/BuildingFootprints"}}}, {"type": "Feature", "geometry": {"type": "Polygon", "coordinates": [[[-97.5793268, 35.4440808], [-97.5794716, 35.4440821], [-97.5794738, 35.443927], [-97.5793944, 35.4439263], [-97.579394, 35.4439547], [-97.5793286, 35.443954], [-97.5793268, 35.4440808]]]}, "properties": {"osm_id": 1250902766, "building": "yes", "name": "", "height": null, "height_m": null, "levels": null, "tract_id": "40109105600", "tract_name": "1056", "tags": {"building": "yes", "source": "microsoft/BuildingFootprints"}}}, {"type": "Feature", "geometry": {"type": "Polygon", "coordinates": [[[-97.5795812, 35.4440792], [-97.5796482, 35.4440805], [-97.5796528, 35.443929], [-97.5795788, 35.4439275], [-97.5795777, 35.4439633], [-97.5795268, 35.4439623], [-97.5795244, 35.4440423], [-97.5795823, 35.4440434], [-97.5795812, 35.4440792]]]}, "properties": {"osm_id": 1250902767, "building": "yes", "name": "", "height": null, "height_m": null, "levels": null, "tract_id": "40109105600", "tract_name": "1056", "tags": {"building": "yes", "source": "microsoft/BuildingFootprints"}}}, {"type": "Feature", "geometry": {"type": "Polygon", "coordinates": [[[-97.578951, 35.44354], [-97.5789532, 35.4436055], [-97.5790862, 35.4436027], [-97.5790817, 35.4434651], [-97.5789799, 35.4434673], [-97.5789822, 35.4435393], [-97.578951, 35.44354]]]}, "properties": {"osm_id": 1250902768, "building": "yes", "name": "", "height": null, "height_m": null, "levels": null, "tract_id": "40109105600", "tract_name": "1056", "tags": {"building": "yes", "source": "microsoft/BuildingFootprints"}}}, {"type": "Feature", "geometry": {"type": "Polygon", "coordinates": [[[-97.5794056, 35.4436605], [-97.5794807, 35.4436599], [-97.5794793, 35.4435471], [-97.5793318, 35.4435484], [-97.5793328, 35.4436314], [-97.5794053, 35.4436308], [-97.5794056, 35.4436605]]]}, "properties": {"osm_id": 1250902769, "building": "yes", "name": "", "height": null, "height_m": null, "levels": null, "tract_id": "40109105600", "tract_name": "1056", "tags": {"building": "yes", "source": "microsoft/BuildingFootprints"}}}, {"type": "Feature", "geometry": {"type": "Polygon", "coordinates": [[[-97.5795912, 35.4436626], [-97.5796652, 35.4436608], [-97.5796614, 35.4435582], [-97.579506, 35.443562], [-97.579509, 35.4436441], [-97.5795904, 35.4436421], [-97.5795912, 35.4436626]]]}, "properties": {"osm_id": 1250902770, "building": "yes", "name": "", "height": null, "height_m": null, "levels": null, "tract_id": "40109105600", "tract_name": "1056", "tags": {"building": "yes", "source": "microsoft/BuildingFootprints"}}}, {"type": "Feature", "geometry": {"type": "Polygon", "coordinates": [[[-97.5797719, 35.4436576], [-97.5798469, 35.4436598], [-97.5798516, 35.4435529], [-97.5797375, 35.4435495], [-97.5797339, 35.4436289], [-97.5797731, 35.44363], [-97.5797719, 35.4436576]]]}, "properties": {"osm_id": 1250902771, "building": "yes", "name": "", "height": null, "height_m": null, "levels": null, "tract_id": "40109105600", "tract_name": "1056", "tags": {"building": "yes", "source": "microsoft/BuildingFootprints"}}}, {"type": "Feature", "geometry": {"type": "Polygon", "coordinates": [[[-97.5793035, 35.4436517], [-97.579306, 35.4435591], [-97.5791425, 35.4435561], [-97.57914, 35.4436487], [-97.5793035, 35.4436517]]]}, "properties": {"osm_id": 1250902772, "building": "yes", "name": "", "height": null, "height_m": null, "levels": null, "tract_id": "40109105600", "tract_name": "1056", "tags": {"building": "yes", "source": "microsoft/BuildingFootprints"}}}, {"type": "Feature", "geometry": {"type": "Polygon", "coordinates": [[[-97.580038, 35.4435554], [-97.5798744, 35.4435554], [-97.5798744, 35.4436647], [-97.5799683, 35.4436647], [-97.5799683, 35.4436341], [-97.580038, 35.4436341], [-97.580038, 35.4435554]]]}, "properties": {"osm_id": 1250902773, "building": "yes", "name": "", "height": null, "height_m": null, "levels": null, "tract_id": "40109105600", "tract_name": "1056", "tags": {"building": "yes", "source": "microsoft/BuildingFootprints"}}}, {"type": "Feature", "geometry": {"type": "Polygon", "coordinates": [[[-97.5803353, 35.4436446], [-97.5803336, 35.4437131], [-97.5804114, 35.4437144], [-97.5804151, 35.4435637], [-97.5802478, 35.4435609], [-97.5802458, 35.4436431], [-97.5803353, 35.4436446]]]}, "properties": {"osm_id": 1250902774, "building": "yes", "name": "", "height": null, "height_m": null, "levels": null, "tract_id": "40109105600", "tract_name": "1056", "tags": {"building": "yes", "source": "microsoft/BuildingFootprints"}}}, {"type": "Feature", "geometry": {"type": "Polygon", "coordinates": [[[-97.5801403, 35.4436338], [-97.580141, 35.4436622], [-97.580216, 35.4436611], [-97.5802126, 35.4435038], [-97.580116, 35.4435053], [-97.5801169, 35.4435468], [-97.580066, 35.4435475], [-97.5800679, 35.4436349], [-97.5801403, 35.4436338]]]}, "properties": {"osm_id": 1250902775, "building": "yes", "name": "", "height": null, "height_m": null, "levels": null, "tract_id": "40109105600", "tract_name": "1056", "tags": {"building": "yes", "source": "microsoft/BuildingFootprints"}}}, {"type": "Feature", "geometry": {"type": "Polygon", "coordinates": [[[-97.5804451, 35.4436334], [-97.5805158, 35.4436342], [-97.5805153, 35.4436626], [-97.5805824, 35.4436633], [-97.5805843, 35.4435483], [-97.5804466, 35.4435468], [-97.5804451, 35.4436334]]]}, "properties": {"osm_id": 1250902776, "building": "yes", "name": "", "height": null, "height_m": null, "levels": null, "tract_id": "40109105600", "tract_name": "1056", "tags": {"building": "yes", "source": "microsoft/BuildingFootprints"}}}, {"type": "Feature", "geometry": {"type": "Polygon", "coordinates": [[[-97.5806231, 35.4436438], [-97.5807143, 35.4436427], [-97.5807146, 35.4436601], [-97.580787, 35.4436593], [-97.5807853, 35.443561], [-97.5807584, 35.4435613], [-97.5807575, 35.4435067], [-97.5806948, 35.4435074], [-97.5806957, 35.443562], [-97.5806217, 35.4435629], [-97.5806231, 35.4436438]]]}, "properties": {"osm_id": 1250902777, "building": "yes", "name": "", "height": null, "height_m": null, "levels": null, "tract_id": "40109105600", "tract_name": "1056", "tags": {"building": "yes", "source": "microsoft/BuildingFootprints"}}}, {"type": "Feature", "geometry": {"type": "Polygon", "coordinates": [[[-97.5809677, 35.4436626], [-97.5809638, 35.443549], [-97.5808181, 35.4435524], [-97.580821, 35.4436367], [-97.580889, 35.4436352], [-97.58089, 35.4436644], [-97.5809677, 35.4436626]]]}, "properties": {"osm_id": 1250902778, "building": "yes", "name": "", "height": null, "height_m": null, "levels": null, "tract_id": "40109105600", "tract_name": "1056", "tags": {"building": "yes", "source": "microsoft/BuildingFootprints"}}}, {"type": "Feature", "geometry": {"type": "Polygon", "coordinates": [[[-97.5810072, 35.4435435], [-97.5810061, 35.4436309], [-97.5810758, 35.4436315], [-97.5810754, 35.4436621], [-97.5811505, 35.4436628], [-97.5811521, 35.4435448], [-97.5810072, 35.4435435]]]}, "properties": {"osm_id": 1250902779, "building": "yes", "name": "", "height": null, "height_m": null, "levels": null, "tract_id": "40109105600", "tract_name": "1056", "tags": {"building": "yes", "source": "microsoft/BuildingFootprints"}}}, {"type": "Feature", "geometry": {"type": "Polygon", "coordinates": [[[-97.581207, 35.443661], [-97.5813374, 35.443663], [-97.5813395, 35.4435756], [-97.58131, 35.4435752], [-97.5813112, 35.4435219], [-97.5812103, 35.4435203], [-97.581207, 35.443661]]]}, "properties": {"osm_id": 1250902780, "building": "yes", "name": "", "height": null, "height_m": null, "levels": null, "tract_id": "40109105600", "tract_name": "1056", "tags": {"building": "yes", "source": "microsoft/BuildingFootprints"}}}, {"type": "Feature", "geometry": {"type": "Polygon", "coordinates": [[[-97.5809741, 35.4430236], [-97.5808132, 35.4430213], [-97.5808115, 35.4431022], [-97.5809724, 35.4431044], [-97.5809741, 35.4430236]]]}, "properties": {"osm_id": 1250902781, "building": "yes", "name": "", "height": null, "height_m": null, "levels": null, "tract_id": "40109105600", "tract_name": "1056", "tags": {"building": "yes", "source": "microsoft/BuildingFootprints"}}}, {"type": "Feature", "geometry": {"type": "Polygon", "coordinates": [[[-97.580567, 35.443122], [-97.5805672, 35.4431285], [-97.5806064, 35.4431279], [-97.5806036, 35.4430121], [-97.5805687, 35.4430127], [-97.5805691, 35.4430302], [-97.5804334, 35.4430324], [-97.5804356, 35.4431241], [-97.580567, 35.443122]]]}, "properties": {"osm_id": 1250902782, "building": "yes", "name": "", "height": null, "height_m": null, "levels": null, "tract_id": "40109105600", "tract_name": "1056", "tags": {"building": "yes", "source": "microsoft/BuildingFootprints"}}}, {"type": "Feature", "geometry": {"type": "Polygon", "coordinates": [[[-97.5804117, 35.4430278], [-97.5802455, 35.4430296], [-97.5802469, 35.4431169], [-97.5804131, 35.4431151], [-97.5804117, 35.4430278]]]}, "properties": {"osm_id": 1250902783, "building": "yes", "name": "", "height": null, "height_m": null, "levels": null, "tract_id": "40109105600", "tract_name": "1056", "tags": {"building": "yes", "source": "microsoft/BuildingFootprints"}}}, {"type": "Feature", "geometry": {"type": "Polygon", "coordinates": [[[-97.58022, 35.4430261], [-97.5800752, 35.4430287], [-97.5800778, 35.4431234], [-97.5801743, 35.4431217], [-97.5801751, 35.4431471], [-97.5802233, 35.4431462], [-97.58022, 35.4430261]]]}, "properties": {"osm_id": 1250902784, "building": "yes", "name": "", "height": null, "height_m": null, "levels": null, "tract_id": "40109105600", "tract_name": "1056", "tags": {"building": "yes", "source": "microsoft/BuildingFootprints"}}}, {"type": "Feature", "geometry": {"type": "Polygon", "coordinates": [[[-97.5798722, 35.4431016], [-97.5800288, 35.4431003], [-97.5800277, 35.443018], [-97.5798711, 35.4430194], [-97.5798722, 35.4431016]]]}, "properties": {"osm_id": 1250902785, "building": "yes", "name": "", "height": null, "height_m": null, "levels": null, "tract_id": "40109105600", "tract_name": "1056", "tags": {"building": "yes", "source": "microsoft/BuildingFootprints"}}}, {"type": "Feature", "geometry": {"type": "Polygon", "coordinates": [[[-97.579842, 35.4430236], [-97.5796811, 35.4430259], [-97.5796831, 35.4431163], [-97.5797555, 35.4431153], [-97.5797561, 35.4431459], [-97.5798446, 35.4431446], [-97.579842, 35.4430236]]]}, "properties": {"osm_id": 1250902786, "building": "yes", "name": "", "height": null, "height_m": null, "levels": null, "tract_id": "40109105600", "tract_name": "1056", "tags": {"building": "yes", "source": "microsoft/BuildingFootprints"}}}, {"type": "Feature", "geometry": {"type": "Polygon", "coordinates": [[[-97.5794963, 35.4431204], [-97.5796562, 35.4431191], [-97.5796552, 35.4430339], [-97.5794953, 35.4430352], [-97.5794963, 35.4431204]]]}, "properties": {"osm_id": 1250902787, "building": "yes", "name": "", "height": null, "height_m": null, "levels": null, "tract_id": "40109105600", "tract_name": "1056", "tags": {"building": "yes", "source": "microsoft/BuildingFootprints"}}}, {"type": "Feature", "geometry": {"type": "Polygon", "coordinates": [[[-97.5794709, 35.4430194], [-97.5793075, 35.4430154], [-97.5793044, 35.4430984], [-97.5794679, 35.4431024], [-97.5794709, 35.4430194]]]}, "properties": {"osm_id": 1250902788, "building": "yes", "name": "", "height": null, "height_m": null, "levels": null, "tract_id": "40109105600", "tract_name": "1056", "tags": {"building": "yes", "source": "microsoft/BuildingFootprints"}}}, {"type": "Feature", "geometry": {"type": "Polygon", "coordinates": [[[-97.579282, 35.4429535], [-97.5792053, 35.4429547], [-97.5792072, 35.4430377], [-97.5791214, 35.443039], [-97.5791233, 35.4431207], [-97.5792858, 35.4431182], [-97.579282, 35.4429535]]]}, "properties": {"osm_id": 1250902789, "building": "yes", "name": "", "height": null, "height_m": null, "levels": null, "tract_id": "40109105600", "tract_name": "1056", "tags": {"building": "yes", "source": "microsoft/BuildingFootprints"}}}, {"type": "Feature", "geometry": {"type": "Polygon", "coordinates": [[[-97.5789332, 35.4430426], [-97.5789339, 35.4431221], [-97.5790653, 35.4431213], [-97.5790646, 35.4430418], [-97.5789332, 35.4430426]]]}, "properties": {"osm_id": 1250902790, "building": "yes", "name": "", "height": null, "height_m": null, "levels": null, "tract_id": "40109105600", "tract_name": "1056", "tags": {"building": "yes", "source": "microsoft/BuildingFootprints"}}}, {"type": "Feature", "geometry": {"type": "Polygon", "coordinates": [[[-97.5806205, 35.4431013], [-97.5807868, 35.443103], [-97.580788, 35.4430243], [-97.5806217, 35.4430226], [-97.5806205, 35.4431013]]]}, "properties": {"osm_id": 1250902791, "building": "yes", "name": "", "height": null, "height_m": null, "levels": null, "tract_id": "40109105600", "tract_name": "1056", "tags": {"building": "yes", "source": "microsoft/BuildingFootprints"}}}, {"type": "Feature", "geometry": {"type": "Polygon", "coordinates": [[[-97.571744, 35.4356147], [-97.5717445, 35.4355047], [-97.5717271, 35.4355046], [-97.5717271, 35.4354935], [-97.5714571, 35.4354928], [-97.5714571, 35.435504], [-97.5714448, 35.4355039], [-97.5714444, 35.4356138], [-97.571744, 35.4356147]]]}, "properties": {"osm_id": 1374862407, "building": "retail", "name": "Okey Locksmith", "height": null, "height_m": null, "levels": null, "tract_id": "40109105600", "tract_name": "1056", "tags": {"addr:city": "Oklahoma City", "addr:housenumber": "3121", "addr:postcode": "73119", "addr:state": "OK", "addr:street": "Southwest 29th Street", "branch": "Oklahoma City", "building": "retail", "name": "Okey Locksmith", "phone": "+1 405 703 8943", "shop": "locksmith", "website": "https://okeylocksmith.com/locksmith-near-me/okc/"}}}]}