{"type": "FeatureCollection", "features": [{"type": "Feature", "geometry": {"type": "Polygon", "coordinates": [[[-97.4213877, 35.4636976], [-97.4215633, 35.4636976], [-97.4215602, 35.4634555], [-97.4214955, 35.4634542], [-97.4214924, 35.4633601], [-97.4213106, 35.4633588], [-97.4213137, 35.4635157], [-97.4213368, 35.4635157], [-97.4213384, 35.4635809], [-97.4213645, 35.4635816], [-97.4213661, 35.4636399], [-97.4213869, 35.4636399], [-97.4213877, 35.4636976]]]}, "properties": {"osm_id": 480511130, "building": "yes", "name": "Cutt Co", "height": null, "height_m": null, "levels": null, "tract_id": "40109107705", "tract_name": "1077.05", "tags": {"building": "yes", "name": "Cutt Co", "shop": "hairdresser"}}}, {"type": "Feature", "geometry": {"type": "Polygon", "coordinates": [[[-97.4222676, 35.4636745], [-97.4222684, 35.4635917], [-97.4222205, 35.4635922], [-97.4221606, 35.4635929], [-97.4221582, 35.4635496], [-97.4220912, 35.463549], [-97.4220912, 35.4635936], [-97.4216476, 35.4635923], [-97.4216491, 35.4636726], [-97.4220897, 35.4636739], [-97.4220905, 35.4637008], [-97.4221621, 35.4637008], [-97.4221621, 35.4636739], [-97.4222223, 35.4636742], [-97.4222676, 35.4636745]]]}, "properties": {"osm_id": 480511131, "building": "yes", "name": "Express 1 Car Wash", "height": null, "height_m": null, "levels": null, "tract_id": "40109107705", "tract_name": "1077.05", "tags": {"addr:city": "Midwest City", "addr:housenumber": "5700", "addr:postcode": "73110", "addr:state": "OK", "addr:street": "East Reno Avenue", "amenity": "car_wash", "automated": "yes", "building": "yes", "name": "Express 1 Car Wash", "self_service": "yes"}}}, {"type": "Feature", "geometry": {"type": "Polygon", "coordinates": [[[-97.4216814, 35.4634863], [-97.4221036, 35.4634882], [-97.422102, 35.4634292], [-97.4216799, 35.4634298], [-97.4216814, 35.4634863]]]}, "properties": {"osm_id": 480511132, "building": "yes", "name": "", "height": null, "height_m": null, "levels": null, "tract_id": "40109107705", "tract_name": "1077.05", "tags": {"building": "yes"}}}, {"type": "Feature", "geometry": {"type": "Polygon", "coordinates": [[[-97.4229768, 35.4638976], [-97.4229777, 35.4637845], [-97.4227114, 35.4637831], [-97.4227105, 35.4638962], [-97.4229768, 35.4638976]]]}, "properties": {"osm_id": 480511134, "building": "yes", "name": "Coast to Coast Club", "height": null, "height_m": null, "levels": null, "tract_id": "40109107705", "tract_name": "1077.05", "tags": {"addr:city": "Midwest City", "addr:housenumber": "5600", "addr:postcode": "73110", "addr:state": "OK", "addr:street": "East Reno Avenue", "amenity": "bar", "building": "yes", "name": "Coast to Coast Club"}}}, {"type": "Feature", "geometry": {"type": "Polygon", "coordinates": [[[-97.4233934, 35.4633292], [-97.4236526, 35.4633282], [-97.4236472, 35.4629583], [-97.4233316, 35.4629578], [-97.4233339, 35.4631335], [-97.4232907, 35.4631333], [-97.4232919, 35.4632265], [-97.4233934, 35.4632293], [-97.4233934, 35.4633292]]]}, "properties": {"osm_id": 480511135, "building": "yes", "name": "", "height": null, "height_m": null, "levels": null, "tract_id": "40109107705", "tract_name": "1077.05", "tags": {"building": "yes"}}}, {"type": "Feature", "geometry": {"type": "Polygon", "coordinates": [[[-97.4236553, 35.462666], [-97.4236553, 35.4622718], [-97.4231324, 35.4622675], [-97.4231342, 35.4623648], [-97.4232006, 35.4623641], [-97.4232067, 35.462666], [-97.4236553, 35.462666]]]}, "properties": {"osm_id": 480511136, "building": "yes", "name": "", "height": null, "height_m": null, "levels": null, "tract_id": "40109107705", "tract_name": "1077.05", "tags": {"building": "yes"}}}, {"type": "Feature", "geometry": {"type": "Polygon", "coordinates": [[[-97.4233945, 35.46358], [-97.4234025, 35.4635205], [-97.4233073, 35.4635101], [-97.4233006, 35.463568], [-97.4233945, 35.46358]]]}, "properties": {"osm_id": 480511141, "building": "yes", "name": "", "height": null, "height_m": null, "levels": null, "tract_id": "40109107705", "tract_name": "1077.05", "tags": {"building": "yes"}}}, {"type": "Feature", "geometry": {"type": "Polygon", "coordinates": [[[-97.4196995, 35.4637244], [-97.4196966, 35.4635894], [-97.4199202, 35.4635875], [-97.4199208, 35.4637234], [-97.4198735, 35.4637234], [-97.4198741, 35.4637296], [-97.4198326, 35.4637296], [-97.4198332, 35.4637406], [-97.419783, 35.4637401], [-97.4197824, 35.4637291], [-97.4197422, 35.4637287], [-97.4197416, 35.4637244], [-97.4196995, 35.4637244]]]}, "properties": {"osm_id": 480511171, "building": "yes", "name": "", "height": null, "height_m": null, "levels": null, "tract_id": "40109107705", "tract_name": "1077.05", "tags": {"building": "yes"}}}, {"type": "Feature", "geometry": {"type": "Polygon", "coordinates": [[[-97.4204145, 35.4636456], [-97.4203975, 35.4630797], [-97.4204992, 35.4630797], [-97.4205146, 35.4636468], [-97.4204145, 35.4636456]]]}, "properties": {"osm_id": 480511172, "building": "yes", "name": "", "height": null, "height_m": null, "levels": null, "tract_id": "40109107705", "tract_name": "1077.05", "tags": {"building": "yes"}}}, {"type": "Feature", "geometry": {"type": "Polygon", "coordinates": [[[-97.4204839, 35.4629704], [-97.4208248, 35.4629676], [-97.4208213, 35.462823], [-97.420478, 35.4628268], [-97.4204839, 35.4629704]]]}, "properties": {"osm_id": 480511174, "building": "yes", "name": "", "height": null, "height_m": null, "levels": null, "tract_id": "40109107705", "tract_name": "1077.05", "tags": {"building": "yes"}}}, {"type": "Feature", "geometry": {"type": "Polygon", "coordinates": [[[-97.4172899, 35.4638158], [-97.4173986, 35.4638191], [-97.4173966, 35.4636419], [-97.4172858, 35.4636394], [-97.4172899, 35.4638158]]]}, "properties": {"osm_id": 480511190, "building": "yes", "name": "Hair Port Barber & Style Shop", "height": null, "height_m": null, "levels": null, "tract_id": "40109107705", "tract_name": "1077.05", "tags": {"addr:city": "Midwest City", "addr:housenumber": "6422", "addr:postcode": "73110", "addr:state": "OK", "addr:street": "East Reno Avenue", "building": "yes", "name": "Hair Port Barber & Style Shop", "phone": "405-733-7755", "shop": "hairdresser"}}}, {"type": "Feature", "geometry": {"type": "Polygon", "coordinates": [[[-97.4174718, 35.4638191], [-97.4176304, 35.4638191], [-97.4176283, 35.4637222], [-97.4174677, 35.463723], [-97.4174718, 35.4638191]]]}, "properties": {"osm_id": 480511192, "building": "yes", "name": "Friendly Food Mart", "height": null, "height_m": null, "levels": null, "tract_id": "40109107705", "tract_name": "1077.05", "tags": {"addr:city": "Midwest City", "addr:housenumber": "6120", "addr:postcode": "73110", "addr:state": "OK", "addr:street": "East Reno Avenue", "building": "yes", "name": "Friendly Food Mart", "shop": "convenience"}}}, {"type": "Feature", "geometry": {"type": "Polygon", "coordinates": [[[-97.4199392, 35.4630633], [-97.4201176, 35.4630644], [-97.4201202, 35.4627728], [-97.4199392, 35.4627684], [-97.4199392, 35.4630633]]]}, "properties": {"osm_id": 480511202, "building": "yes", "name": "", "height": null, "height_m": null, "levels": null, "tract_id": "40109107705", "tract_name": "1077.05", "tags": {"building": "yes"}}}, {"type": "Feature", "geometry": {"type": "Polygon", "coordinates": [[[-97.4198748, 35.4627236], [-97.4199365, 35.4625827], [-97.4194242, 35.462408], [-97.4193612, 35.4625521], [-97.4198748, 35.4627236]]]}, "properties": {"osm_id": 480511203, "building": "yes", "name": "", "height": null, "height_m": null, "levels": null, "tract_id": "40109107705", "tract_name": "1077.05", "tags": {"building": "yes"}}}, {"type": "Feature", "geometry": {"type": "Polygon", "coordinates": [[[-97.4198976, 35.462953], [-97.4198963, 35.4628187], [-97.4195597, 35.4628165], [-97.4195597, 35.4629541], [-97.4198976, 35.462953]]]}, "properties": {"osm_id": 480511204, "building": "yes", "name": "", "height": null, "height_m": null, "levels": null, "tract_id": "40109107705", "tract_name": "1077.05", "tags": {"building": "yes"}}}, {"type": "Feature", "geometry": {"type": "Polygon", "coordinates": [[[-97.4189079, 35.4629607], [-97.4190742, 35.4629618], [-97.4190755, 35.4624342], [-97.4189066, 35.4624331], [-97.4189079, 35.4629607]]]}, "properties": {"osm_id": 480511205, "building": "yes", "name": "", "height": null, "height_m": null, "levels": null, "tract_id": "40109107705", "tract_name": "1077.05", "tags": {"building": "yes"}}}, {"type": "Feature", "geometry": {"type": "Polygon", "coordinates": [[[-97.4193491, 35.4629574], [-97.4195235, 35.4629585], [-97.4195221, 35.4626559], [-97.4193478, 35.4626548], [-97.4193491, 35.4629574]]]}, "properties": {"osm_id": 480511206, "building": "yes", "name": "", "height": null, "height_m": null, "levels": null, "tract_id": "40109107705", "tract_name": "1077.05", "tags": {"building": "yes"}}}, {"type": "Feature", "geometry": {"type": "Polygon", "coordinates": [[[-97.4184737, 35.4637985], [-97.4186364, 35.4637091], [-97.4185937, 35.4636561], [-97.4186252, 35.4636404], [-97.4185805, 35.4635891], [-97.4183823, 35.4636959], [-97.4184737, 35.4637985]]]}, "properties": {"osm_id": 480511207, "building": "yes", "name": "", "height": null, "height_m": null, "levels": null, "tract_id": "40109107705", "tract_name": "1077.05", "tags": {"building": "yes"}}}, {"type": "Feature", "geometry": {"type": "Polygon", "coordinates": [[[-97.4182247, 35.463551], [-97.4186221, 35.4633184], [-97.4185256, 35.4631983], [-97.4181139, 35.4634392], [-97.4182247, 35.463551]]]}, "properties": {"osm_id": 480511208, "building": "yes", "name": "", "height": null, "height_m": null, "levels": null, "tract_id": "40109107705", "tract_name": "1077.05", "tags": {"building": "yes"}}}, {"type": "Feature", "geometry": {"type": "Polygon", "coordinates": [[[-97.4179676, 35.4632861], [-97.4183599, 35.4630551], [-97.4182654, 35.4629401], [-97.4178588, 35.4631685], [-97.4179676, 35.4632861]]]}, "properties": {"osm_id": 480511210, "building": "yes", "name": "", "height": null, "height_m": null, "levels": null, "tract_id": "40109107705", "tract_name": "1077.05", "tags": {"building": "yes"}}}, {"type": "Feature", "geometry": {"type": "Polygon", "coordinates": [[[-97.4183884, 35.4630535], [-97.4185703, 35.4630576], [-97.4185723, 35.4629119], [-97.4183843, 35.4629086], [-97.4183884, 35.4630535]]]}, "properties": {"osm_id": 480511212, "building": "yes", "name": "", "height": null, "height_m": null, "levels": null, "tract_id": "40109107705", "tract_name": "1077.05", "tags": {"building": "yes"}}}, {"type": "Feature", "geometry": {"type": "Polygon", "coordinates": [[[-97.4178416, 35.463104], [-97.4180042, 35.4630609], [-97.4178426, 35.4626884], [-97.4176739, 35.4627273], [-97.4178416, 35.463104]]]}, "properties": {"osm_id": 480511214, "building": "yes", "name": "", "height": null, "height_m": null, "levels": null, "tract_id": "40109107705", "tract_name": "1077.05", "tags": {"building": "yes"}}}, {"type": "Feature", "geometry": {"type": "Polygon", "coordinates": [[[-97.4179371, 35.4628242], [-97.417933, 35.4626884], [-97.4185713, 35.4626892], [-97.4185738, 35.4628011], [-97.4185744, 35.46283], [-97.4179371, 35.4628242]]]}, "properties": {"osm_id": 480511216, "building": "yes", "name": "", "height": null, "height_m": null, "levels": null, "tract_id": "40109107705", "tract_name": "1077.05", "tags": {"building": "yes"}}}, {"type": "Feature", "geometry": {"type": "Polygon", "coordinates": [[[-97.4186079, 35.4629508], [-97.4188539, 35.4629517], [-97.4188528, 35.4628175], [-97.4186089, 35.4628151], [-97.4186079, 35.4629508]]]}, "properties": {"osm_id": 480511217, "building": "yes", "name": "", "height": null, "height_m": null, "levels": null, "tract_id": "40109107705", "tract_name": "1077.05", "tags": {"building": "yes"}}}, {"type": "Feature", "geometry": {"type": "Polygon", "coordinates": [[[-97.4186506, 35.4627911], [-97.4188823, 35.4627124], [-97.4188183, 35.4625849], [-97.4185845, 35.4626603], [-97.4186506, 35.4627911]]]}, "properties": {"osm_id": 480511219, "building": "yes", "name": "", "height": null, "height_m": null, "levels": null, "tract_id": "40109107705", "tract_name": "1077.05", "tags": {"building": "yes"}}}, {"type": "Feature", "geometry": {"type": "Polygon", "coordinates": [[[-97.4175754, 35.4624554], [-97.4177283, 35.462391], [-97.4175674, 35.4621179], [-97.4174011, 35.4621802], [-97.4175754, 35.4624554]]]}, "properties": {"osm_id": 480511221, "building": "yes", "name": "", "height": null, "height_m": null, "levels": null, "tract_id": "40109107705", "tract_name": "1077.05", "tags": {"building": "yes"}}}, {"type": "Feature", "geometry": {"type": "Polygon", "coordinates": [[[-97.4177752, 35.4624762], [-97.4184136, 35.4624729], [-97.4184163, 35.4623331], [-97.4177712, 35.4623309], [-97.4177752, 35.4624762]]]}, "properties": {"osm_id": 480511222, "building": "yes", "name": "", "height": null, "height_m": null, "levels": null, "tract_id": "40109107705", "tract_name": "1077.05", "tags": {"building": "yes"}}}, {"type": "Feature", "geometry": {"type": "Polygon", "coordinates": [[[-97.4184525, 35.4625526], [-97.4186228, 35.4625516], [-97.4186228, 35.4621583], [-97.4184498, 35.462155], [-97.4184525, 35.4625526]]]}, "properties": {"osm_id": 480511224, "building": "yes", "name": "", "height": null, "height_m": null, "levels": null, "tract_id": "40109107705", "tract_name": "1077.05", "tags": {"building": "yes"}}}, {"type": "Feature", "geometry": {"type": "Polygon", "coordinates": [[[-97.4183439, 35.4622785], [-97.4184069, 35.4621507], [-97.4176237, 35.4618699], [-97.4175607, 35.462013], [-97.4183439, 35.4622785]]]}, "properties": {"osm_id": 480511226, "building": "yes", "name": "", "height": null, "height_m": null, "levels": null, "tract_id": "40109107705", "tract_name": "1077.05", "tags": {"building": "yes"}}}, {"type": "Feature", "geometry": {"type": "Polygon", "coordinates": [[[-97.4173689, 35.4620982], [-97.4175285, 35.4620982], [-97.4175204, 35.461835], [-97.4173649, 35.4618328], [-97.4173689, 35.4620982]]]}, "properties": {"osm_id": 480511228, "building": "yes", "name": "", "height": null, "height_m": null, "levels": null, "tract_id": "40109107705", "tract_name": "1077.05", "tags": {"building": "yes"}}}, {"type": "Feature", "geometry": {"type": "Polygon", "coordinates": [[[-97.4151391, 35.4637575], [-97.415444, 35.4637608], [-97.415444, 35.4635034], [-97.4151412, 35.4634984], [-97.4151391, 35.4637575]]]}, "properties": {"osm_id": 480511230, "building": "yes", "name": "East Reno Laundromat", "height": null, "height_m": null, "levels": null, "tract_id": "40109107705", "tract_name": "1077.05", "tags": {"addr:city": "Midwest City", "addr:housenumber": "6300", "addr:postcode": "73110", "addr:state": "OK", "addr:street": "East Reno Avenue", "building": "yes", "name": "East Reno Laundromat", "self_service": "yes", "shop": "laundry"}}}, {"type": "Feature", "geometry": {"type": "Polygon", "coordinates": [[[-97.4147295, 35.4637799], [-97.4147295, 35.4635746], [-97.414384, 35.4635655], [-97.414384, 35.4637757], [-97.4147295, 35.4637799]]]}, "properties": {"osm_id": 480511231, "building": "yes", "name": "Stover Physical Therapy (MWC)", "height": null, "height_m": null, "levels": null, "tract_id": "40109107705", "tract_name": "1077.05", "tags": {"addr:city": "Midwest City", "addr:housenumber": "6312", "addr:postcode": "73110", "addr:state": "OK", "addr:street": "East Reno Avenue", "brand": "Doctors of Physical Therapy", "building": "yes", "healthcare": "rehabilitation", "name": "Stover Physical Therapy (MWC)", "phone": "405-732-3400"}}}, {"type": "Feature", "geometry": {"type": "Polygon", "coordinates": [[[-97.4150369, 35.4638131], [-97.4147908, 35.463817], [-97.414786, 35.4637185], [-97.4148175, 35.4637179], [-97.4148144, 35.4636733], [-97.4148398, 35.4636729], [-97.4148391, 35.4636323], [-97.4148959, 35.4636305], [-97.4148938, 35.463614], [-97.4150298, 35.4636086], [-97.4150369, 35.4638131]]]}, "properties": {"osm_id": 480511233, "building": "yes", "name": "Green House Remedies", "height": null, "height_m": null, "levels": null, "tract_id": "40109107705", "tract_name": "1077.05", "tags": {"building": "yes", "name": "Green House Remedies", "shop": "vacant"}}}, {"type": "Feature", "geometry": {"type": "Polygon", "coordinates": [[[-97.4125474, 35.4637165], [-97.4127908, 35.4637165], [-97.4127908, 35.4636989], [-97.413065, 35.4636989], [-97.413065, 35.4637102], [-97.413199, 35.4637102], [-97.4132005, 35.4634204], [-97.4129941, 35.4634229], [-97.4129941, 35.4635672], [-97.4127538, 35.4635672], [-97.4127538, 35.4634417], [-97.4125427, 35.4634392], [-97.4125474, 35.4637165]]]}, "properties": {"osm_id": 480511310, "building": "church", "name": "Free Methodist Church", "height": null, "height_m": null, "levels": null, "tract_id": "40109107705", "tract_name": "1077.05", "tags": {"addr:city": "Midwest City", "addr:housenumber": "6500", "addr:postcode": "73110", "addr:state": "OK", "addr:street": "East Reno Avenue", "building": "church", "name": "Free Methodist Church"}}}, {"type": "Feature", "geometry": {"type": "Polygon", "coordinates": [[[-97.4116585, 35.4638574], [-97.4116591, 35.4636784], [-97.4115359, 35.4636789], [-97.4115359, 35.4637302], [-97.4114828, 35.4637297], [-97.4114834, 35.4637825], [-97.4115359, 35.4637825], [-97.4115348, 35.4638557], [-97.4116585, 35.4638574]]]}, "properties": {"osm_id": 480523752, "building": "yes", "name": "Arby's", "height": null, "height_m": null, "levels": null, "tract_id": "40109107705", "tract_name": "1077.05", "tags": {"addr:city": "Midwest City", "addr:housenumber": "6600", "addr:postcode": "73110", "addr:state": "OK", "addr:street": "East Reno Avenue", "amenity": "fast_food", "brand": "Arby's", "brand:wikidata": "Q630866", "building": "yes", "check_date": "2024-06-21", "cuisine": "sandwich", "drive_through": "yes", "name": "Arby's", "opening_hours": "Mo-Sa 10:00-23:00; Su 10:00-22:00", "phone": "+1 405-737-1011", "takeaway": "yes", "website": "https://www.arbys.com/locations/us/ok/midwest-city/6600-e-reno-ave/store-1359/"}}}, {"type": "Feature", "geometry": {"type": "Polygon", "coordinates": [[[-97.4110537, 35.4637306], [-97.4112041, 35.463729], [-97.4112041, 35.4635295], [-97.4110486, 35.4635295], [-97.4110537, 35.4637306]]]}, "properties": {"osm_id": 480523753, "building": "yes", "name": "Comalli Mexican Kitchen", "height": null, "height_m": null, "levels": null, "tract_id": "40109107705", "tract_name": "1077.05", "tags": {"addr:city": "Midwest City", "addr:housenumber": "6610", "addr:postcode": "73110", "addr:state": "OK", "addr:street": "East Reno Avenue", "amenity": "restaurant", "building": "yes", "cuisine": "mexican", "name": "Comalli Mexican Kitchen", "phone": "405-931-3045"}}}, {"type": "Feature", "geometry": {"type": "Polygon", "coordinates": [[[-97.4105049, 35.4637372], [-97.4109185, 35.4637381], [-97.4109165, 35.4637066], [-97.4109389, 35.4637066], [-97.4109409, 35.463248], [-97.4104886, 35.4632488], [-97.4104927, 35.4637083], [-97.4105049, 35.4637083], [-97.4105049, 35.4637372]]]}, "properties": {"osm_id": 480523754, "building": "yes", "name": "Biomat Plasma USA", "height": null, "height_m": null, "levels": null, "tract_id": "40109107705", "tract_name": "1077.05", "tags": {"addr:city": "Midwest City", "addr:housenumber": "6700", "addr:postcode": "73110", "addr:state": "OK", "addr:street": "East Reno Avenue", "building": "yes", "healthcare": "blood_donation", "name": "Biomat Plasma USA", "phone": "405-737-2447"}}}, {"type": "Feature", "geometry": {"type": "Polygon", "coordinates": [[[-97.4068247, 35.4634454], [-97.4070548, 35.4634468], [-97.4070512, 35.4632075], [-97.4068212, 35.4632075], [-97.4068247, 35.4634454]]]}, "properties": {"osm_id": 480523766, "building": "yes", "name": "", "height": null, "height_m": null, "levels": null, "tract_id": "40109107705", "tract_name": "1077.05", "tags": {"building": "yes"}}}, {"type": "Feature", "geometry": {"type": "Polygon", "coordinates": [[[-97.4068389, 35.4631701], [-97.4071344, 35.4631672], [-97.4071326, 35.4629366], [-97.4068318, 35.4629351], [-97.4068389, 35.4631701]]]}, "properties": {"osm_id": 480523767, "building": "yes", "name": "", "height": null, "height_m": null, "levels": null, "tract_id": "40109107705", "tract_name": "1077.05", "tags": {"building": "yes"}}}, {"type": "Feature", "geometry": {"type": "Polygon", "coordinates": [[[-97.4065053, 35.4635406], [-97.406676, 35.46354], [-97.4066782, 35.4634596], [-97.4065062, 35.4634598], [-97.4065053, 35.4635406]]]}, "properties": {"osm_id": 480523768, "building": "yes", "name": "City Sweets Floral", "height": null, "height_m": null, "levels": null, "tract_id": "40109107705", "tract_name": "1077.05", "tags": {"addr:city": "Midwest City", "addr:housenumber": "105", "addr:postcode": "73110", "addr:state": "OK", "addr:street": "South Air Depot Boulevard", "building": "yes", "name": "City Sweets Floral", "phone": "405-733-4111", "shop": "florist"}}}, {"type": "Feature", "geometry": {"type": "Polygon", "coordinates": [[[-97.4078476, 35.4636587], [-97.4080422, 35.4636572], [-97.4080387, 35.4634893], [-97.4080051, 35.4634886], [-97.4080051, 35.4634655], [-97.4079051, 35.463467], [-97.407906, 35.4634958], [-97.4078476, 35.4634958], [-97.4078476, 35.4636587]]]}, "properties": {"osm_id": 480523769, "building": "yes", "name": "MVP Real Estate & Property", "height": null, "height_m": null, "levels": null, "tract_id": "40109107705", "tract_name": "1077.05", "tags": {"addr:city": "Midwest City", "addr:housenumber": "6904", "addr:postcode": "73110", "addr:state": "OK", "addr:street": "East Reno Avenue", "building": "yes", "name": "MVP Real Estate & Property", "office": "property_management", "phone": "405-455-7733", "website": "https://www.mvprealestateoklahoma.com/"}}}, {"type": "Feature", "geometry": {"type": "Polygon", "coordinates": [[[-97.4075763, 35.463732], [-97.4075727, 35.4635001], [-97.4076509, 35.4635017], [-97.4076474, 35.4634817], [-97.4077599, 35.4634831], [-97.407762, 35.4637404], [-97.4076768, 35.4637414], [-97.4076768, 35.4637313], [-97.4075763, 35.463732]]]}, "properties": {"osm_id": 480523770, "building": "yes", "name": "", "height": null, "height_m": null, "levels": null, "tract_id": "40109107705", "tract_name": "1077.05", "tags": {"building": "yes"}}}, {"type": "Feature", "geometry": {"type": "Polygon", "coordinates": [[[-97.407457, 35.4637471], [-97.4074513, 35.4634885], [-97.4073724, 35.4634841], [-97.4073724, 35.4634971], [-97.407268, 35.4634968], [-97.4072648, 35.4637333], [-97.4073689, 35.4637327], [-97.407368, 35.4637457], [-97.407457, 35.4637471]]]}, "properties": {"osm_id": 480523771, "building": "yes", "name": "", "height": null, "height_m": null, "levels": null, "tract_id": "40109107705", "tract_name": "1077.05", "tags": {"building": "yes"}}}, {"type": "Feature", "geometry": {"type": "Polygon", "coordinates": [[[-97.4076827, 35.4631107], [-97.4079303, 35.4631107], [-97.4079291, 35.4629471], [-97.4079948, 35.4629471], [-97.4080213, 35.4629471], [-97.408019, 35.462872], [-97.4079935, 35.462872], [-97.4079267, 35.462872], [-97.4079267, 35.4628169], [-97.4076816, 35.462814], [-97.4076827, 35.4631107]]]}, "properties": {"osm_id": 480523772, "building": "yes", "name": "", "height": null, "height_m": null, "levels": null, "tract_id": "40109107705", "tract_name": "1077.05", "tags": {"building": "yes"}}}, {"type": "Feature", "geometry": {"type": "Polygon", "coordinates": [[[-97.4065302, 35.4627404], [-97.4068473, 35.462742], [-97.4068463, 35.4626245], [-97.4065271, 35.4626261], [-97.4065302, 35.4627404]]]}, "properties": {"osm_id": 480523773, "building": "yes", "name": "", "height": null, "height_m": null, "levels": null, "tract_id": "40109107705", "tract_name": "1077.05", "tags": {"building": "yes"}}}, {"type": "Feature", "geometry": {"type": "Polygon", "coordinates": [[[-97.4065831, 35.4638902], [-97.4067325, 35.4638917], [-97.4067326, 35.4637336], [-97.4065855, 35.4637307], [-97.4065831, 35.4638902]]]}, "properties": {"osm_id": 480523774, "building": "yes", "name": "Precision Tune Auto Care", "height": null, "height_m": null, "levels": null, "tract_id": "40109107705", "tract_name": "1077.05", "tags": {"addr:city": "Midwest City", "addr:housenumber": "6930", "addr:postcode": "73110", "addr:state": "OK", "addr:street": "East Reno Avenue", "brand": "Precision Tune Auto Care", "brand:wikidata": "Q120717427", "building": "yes", "name": "Precision Tune Auto Care", "phone": "405-610-6863", "shop": "car_repair"}}}, {"type": "Feature", "geometry": {"type": "Polygon", "coordinates": [[[-97.4069084, 35.4638363], [-97.40703, 35.463839], [-97.4070297, 35.4637656], [-97.4070229, 35.4637644], [-97.4070208, 35.4636684], [-97.4069659, 35.4636684], [-97.4069659, 35.4636386], [-97.4069063, 35.4636379], [-97.4069084, 35.4638363]]]}, "properties": {"osm_id": 480523775, "building": "yes", "name": "Taylor Hammett Law Office", "height": null, "height_m": null, "levels": null, "tract_id": "40109107705", "tract_name": "1077.05", "tags": {"addr:city": "Midwest City", "addr:housenumber": "6920", "addr:postcode": "73110", "addr:state": "OK", "addr:street": "East Reno Avenue", "building": "yes", "name": "Taylor Hammett Law Office", "office": "lawyer", "phone": "405-733-3891"}}}, {"type": "Feature", "geometry": {"type": "Polygon", "coordinates": [[[-97.406846, 35.4635392], [-97.4068958, 35.4635392], [-97.4068928, 35.463468], [-97.406844, 35.4634672], [-97.406846, 35.4635392]]]}, "properties": {"osm_id": 480523776, "building": "yes", "name": "", "height": null, "height_m": null, "levels": null, "tract_id": "40109107705", "tract_name": "1077.05", "tags": {"building": "yes"}}}, {"type": "Feature", "geometry": {"type": "Polygon", "coordinates": [[[-97.4129836, 35.4603103], [-97.4132631, 35.4603086], [-97.413257, 35.4602027], [-97.4129796, 35.460206], [-97.4129836, 35.4603103]]]}, "properties": {"osm_id": 480523794, "building": "church", "name": "Church of Christ", "height": null, "height_m": null, "levels": null, "tract_id": "40109107705", "tract_name": "1077.05", "tags": {"amenity": "place_of_worship", "building": "church", "ele": "370", "gnis:feature_id": "1801457", "name": "Church of Christ", "religion": "christian"}}}, {"type": "Feature", "geometry": {"type": "Polygon", "coordinates": [[[-97.4065643, 35.4625495], [-97.4067009, 35.4625485], [-97.4067003, 35.4625319], [-97.4067435, 35.4625319], [-97.406743, 35.4624444], [-97.4066828, 35.4624449], [-97.4066822, 35.4623845], [-97.4065573, 35.4623835], [-97.4065643, 35.4625495]]]}, "properties": {"osm_id": 480523796, "building": "yes", "name": "", "height": null, "height_m": null, "levels": null, "tract_id": "40109107705", "tract_name": "1077.05", "tags": {"building": "yes"}}}, {"type": "Feature", "geometry": {"type": "Polygon", "coordinates": [[[-97.4065427, 35.4622067], [-97.4068939, 35.4622073], [-97.4068924, 35.4621678], [-97.4069217, 35.4621672], [-97.4069194, 35.4621007], [-97.4067468, 35.4621013], [-97.4067476, 35.4620768], [-97.4065396, 35.4620787], [-97.4065427, 35.4622067]]]}, "properties": {"osm_id": 480523797, "building": "yes", "name": "Sonic", "height": null, "height_m": null, "levels": null, "tract_id": "40109107705", "tract_name": "1077.05", "tags": {"addr:city": "Midwest City", "addr:housenumber": "217", "addr:postcode": "73110", "addr:state": "OK", "addr:street": "South Air Depot", "amenity": "fast_food", "brand": "Sonic", "brand:wikidata": "Q7561808", "building": "yes", "cuisine": "burger", "drive_in": "yes", "name": "Sonic", "opening_hours": "Mo-Th 06:00-22:00; Fr-Sa 06:00-23:00; Su 07:00-22:00", "phone": "+1 405-733-0161", "takeaway": "yes", "website": "https://locations.sonicdrivein.com/ok/midwestcity/217-s.-air-depot.html"}}}, {"type": "Feature", "geometry": {"type": "Polygon", "coordinates": [[[-97.4065188, 35.4623397], [-97.4069779, 35.4623391], [-97.4069771, 35.4622989], [-97.4065173, 35.4622996], [-97.4065188, 35.4623397]]]}, "properties": {"osm_id": 480523798, "building": "yes", "name": "", "height": null, "height_m": null, "levels": null, "tract_id": "40109107705", "tract_name": "1077.05", "tags": {"building": "yes"}}}, {"type": "Feature", "geometry": {"type": "Polygon", "coordinates": [[[-97.4065589, 35.4620135], [-97.4069463, 35.4620122], [-97.4069432, 35.4619332], [-97.4065535, 35.4619307], [-97.4065589, 35.4620135]]]}, "properties": {"osm_id": 480523799, "building": "yes", "name": "", "height": null, "height_m": null, "levels": null, "tract_id": "40109107705", "tract_name": "1077.05", "tags": {"building": "yes"}}}, {"type": "Feature", "geometry": {"type": "Polygon", "coordinates": [[[-97.4065774, 35.4617958], [-97.4067252, 35.461797], [-97.4067252, 35.461686], [-97.4069055, 35.4616866], [-97.4069047, 35.4615831], [-97.4065797, 35.4615818], [-97.4065774, 35.4617958]]]}, "properties": {"osm_id": 480523800, "building": "yes", "name": "", "height": null, "height_m": null, "levels": null, "tract_id": "40109107705", "tract_name": "1077.05", "tags": {"building": "yes"}}}, {"type": "Feature", "geometry": {"type": "Polygon", "coordinates": [[[-97.406622, 35.4613867], [-97.4067199, 35.4613867], [-97.4067206, 35.4613961], [-97.4069132, 35.4613968], [-97.4069101, 35.4612744], [-97.4066189, 35.4612757], [-97.406622, 35.4613867]]]}, "properties": {"osm_id": 480523801, "building": "yes", "name": "Chiu Wu", "height": null, "height_m": null, "levels": null, "tract_id": "40109107705", "tract_name": "1077.05", "tags": {"amenity": "restaurant", "building": "yes", "cuisine": "chinese", "name": "Chiu Wu", "outdoor_seating": "no", "takeaway": "yes"}}}, {"type": "Feature", "geometry": {"type": "Polygon", "coordinates": [[[-97.406613, 35.4612075], [-97.4069407, 35.4612093], [-97.4069416, 35.4611078], [-97.4067012, 35.4611065], [-97.4067018, 35.4610436], [-97.4066143, 35.4610432], [-97.406613, 35.4612075]]]}, "properties": {"osm_id": 480523802, "building": "retail", "name": "Open Flame", "height": null, "height_m": 3.0, "levels": 1, "tract_id": "40109107705", "tract_name": "1077.05", "tags": {"addr:city": "Midwest City", "addr:housenumber": "307", "addr:postcode": "73110", "addr:state": "OK", "addr:street": "South Air Depot Boulevard", "building": "retail", "building:levels": "1", "name": "Open Flame", "shop": "coffee"}}}, {"type": "Feature", "geometry": {"type": "Polygon", "coordinates": [[[-97.4065671, 35.4609102], [-97.4067897, 35.460908], [-97.4067857, 35.4606306], [-97.4069037, 35.4606273], [-97.4069037, 35.4604929], [-97.4065711, 35.460494], [-97.4065752, 35.4606295], [-97.4065591, 35.4606284], [-97.4065671, 35.4609102]]]}, "properties": {"osm_id": 480523803, "building": "yes", "name": "", "height": null, "height_m": null, "levels": null, "tract_id": "40109107705", "tract_name": "1077.05", "tags": {"building": "yes"}}}, {"type": "Feature", "geometry": {"type": "Polygon", "coordinates": [[[-97.4064686, 35.4603045], [-97.4065295, 35.4603045], [-97.406531, 35.4603157], [-97.4065765, 35.4603159], [-97.4065757, 35.4603019], [-97.4067028, 35.4603007], [-97.4066997, 35.4602191], [-97.4064679, 35.4602179], [-97.4064686, 35.4603045]]]}, "properties": {"osm_id": 480523804, "building": "yes", "name": "", "height": null, "height_m": null, "levels": null, "tract_id": "40109107705", "tract_name": "1077.05", "tags": {"building": "yes"}}}, {"type": "Feature", "geometry": {"type": "Polygon", "coordinates": [[[-97.4066249, 35.4599668], [-97.4072455, 35.4599703], [-97.4072462, 35.4598858], [-97.4071431, 35.4598853], [-97.4071448, 35.4596911], [-97.4067489, 35.4596889], [-97.4067491, 35.4596672], [-97.4065939, 35.4596664], [-97.4065929, 35.4597942], [-97.4066264, 35.4597944], [-97.4066249, 35.4599668]]]}, "properties": {"osm_id": 480523805, "building": "retail", "name": "", "height": null, "height_m": null, "levels": null, "tract_id": "40109107705", "tract_name": "1077.05", "tags": {"building": "retail"}}}, {"type": "Feature", "geometry": {"type": "Polygon", "coordinates": [[[-97.4067343, 35.4592135], [-97.4071605, 35.4592135], [-97.4071628, 35.4589406], [-97.406739, 35.4589396], [-97.4067343, 35.4592135]]]}, "properties": {"osm_id": 480523806, "building": "yes", "name": "", "height": null, "height_m": null, "levels": null, "tract_id": "40109107705", "tract_name": "1077.05", "tags": {"building": "yes"}}}, {"type": "Feature", "geometry": {"type": "Polygon", "coordinates": [[[-97.4066269, 35.4588664], [-97.4071336, 35.4588635], [-97.4071289, 35.45866], [-97.4070215, 35.45866], [-97.4070227, 35.4586429], [-97.406934, 35.4586429], [-97.4069316, 35.4585782], [-97.4068207, 35.4585801], [-97.4068207, 35.4586439], [-97.4066269, 35.4586458], [-97.4066269, 35.4588664]]]}, "properties": {"osm_id": 480523807, "building": "yes", "name": "", "height": null, "height_m": null, "levels": null, "tract_id": "40109107705", "tract_name": "1077.05", "tags": {"amenity": "restaurant", "building": "yes"}}}, {"type": "Feature", "geometry": {"type": "Polygon", "coordinates": [[[-97.4073004, 35.4576677], [-97.4076402, 35.4576677], [-97.4076402, 35.4571171], [-97.4072986, 35.4571171], [-97.4073004, 35.4576677]]]}, "properties": {"osm_id": 488362954, "building": "yes", "name": "", "height": null, "height_m": null, "levels": null, "tract_id": "40109107705", "tract_name": "1077.05", "tags": {"building": "yes"}}}, {"type": "Feature", "geometry": {"type": "Polygon", "coordinates": [[[-97.4065076, 35.4573837], [-97.4068916, 35.457378], [-97.4068899, 35.4571704], [-97.4065005, 35.4571719], [-97.4065076, 35.4573837]]]}, "properties": {"osm_id": 488362955, "building": "yes", "name": "", "height": null, "height_m": null, "levels": null, "tract_id": "40109107705", "tract_name": "1077.05", "tags": {"building": "yes"}}}, {"type": "Feature", "geometry": {"type": "Polygon", "coordinates": [[[-97.4070987, 35.4569528], [-97.4072367, 35.4569556], [-97.4072349, 35.456712], [-97.4070987, 35.456712], [-97.4070987, 35.4569528]]]}, "properties": {"osm_id": 488362956, "building": "yes", "name": "", "height": null, "height_m": null, "levels": null, "tract_id": "40109107705", "tract_name": "1077.05", "tags": {"building": "yes"}}}, {"type": "Feature", "geometry": {"type": "Polygon", "coordinates": [[[-97.4066864, 35.4569412], [-97.4069182, 35.4569427], [-97.4069129, 35.456712], [-97.406681, 35.4567135], [-97.4066864, 35.4569412]]]}, "properties": {"osm_id": 488362957, "building": "yes", "name": "", "height": null, "height_m": null, "levels": null, "tract_id": "40109107705", "tract_name": "1077.05", "tags": {"building": "yes"}}}, {"type": "Feature", "geometry": {"type": "Polygon", "coordinates": [[[-97.406405, 35.4566573], [-97.4067217, 35.4566544], [-97.40672, 35.4565996], [-97.4066669, 35.4565996], [-97.4066669, 35.4565174], [-97.4064015, 35.456516], [-97.406405, 35.4566573]]]}, "properties": {"osm_id": 488362958, "building": "yes", "name": "", "height": null, "height_m": null, "levels": null, "tract_id": "40109107705", "tract_name": "1077.05", "tags": {"building": "yes"}}}, {"type": "Feature", "geometry": {"type": "Polygon", "coordinates": [[[-97.406462, 35.4561791], [-97.4065827, 35.4561791], [-97.4065814, 35.4560491], [-97.4065157, 35.4560502], [-97.4065143, 35.4560392], [-97.4064728, 35.4560392], [-97.4064728, 35.4560556], [-97.4064607, 35.4560545], [-97.406462, 35.4561791]]]}, "properties": {"osm_id": 488362959, "building": "yes", "name": "", "height": null, "height_m": null, "levels": null, "tract_id": "40109107705", "tract_name": "1077.05", "tags": {"building": "yes"}}}, {"type": "Feature", "geometry": {"type": "Polygon", "coordinates": [[[-97.4065425, 35.4559213], [-97.4069006, 35.4559169], [-97.4068992, 35.4557399], [-97.406686, 35.4557388], [-97.4066873, 35.4557115], [-97.4066002, 35.4557104], [-97.4066015, 35.4557388], [-97.4065438, 35.4557377], [-97.4065425, 35.4559213]]]}, "properties": {"osm_id": 488362960, "building": "yes", "name": "", "height": null, "height_m": null, "levels": null, "tract_id": "40109107705", "tract_name": "1077.05", "tags": {"building": "yes"}}}, {"type": "Feature", "geometry": {"type": "Polygon", "coordinates": [[[-97.4065666, 35.4554308], [-97.4067343, 35.4554308], [-97.4067329, 35.4551959], [-97.4065277, 35.4551948], [-97.4065331, 35.4554144], [-97.406568, 35.4554155], [-97.4065666, 35.4554308]]]}, "properties": {"osm_id": 488362961, "building": "yes", "name": "", "height": null, "height_m": null, "levels": null, "tract_id": "40109107705", "tract_name": "1077.05", "tags": {"building": "yes"}}}, {"type": "Feature", "geometry": {"type": "Polygon", "coordinates": [[[-97.4064486, 35.4550273], [-97.4065202, 35.4550273], [-97.4065187, 35.4549784], [-97.406749, 35.4549778], [-97.4067497, 35.4548636], [-97.4065217, 35.4548642], [-97.4065225, 35.4548541], [-97.406447, 35.4548541], [-97.4064486, 35.4550273]]]}, "properties": {"osm_id": 488362962, "building": "yes", "name": "", "height": null, "height_m": null, "levels": null, "tract_id": "40109107705", "tract_name": "1077.05", "tags": {"building": "yes"}}}, {"type": "Feature", "geometry": {"type": "Polygon", "coordinates": [[[-97.407038, 35.4551465], [-97.4072105, 35.455144], [-97.4072103, 35.455137], [-97.4072059, 35.4549445], [-97.407038, 35.454947], [-97.407038, 35.4551402], [-97.407038, 35.4551465]]]}, "properties": {"osm_id": 488362987, "building": "yes", "name": "", "height": null, "height_m": null, "levels": null, "tract_id": "40109107705", "tract_name": "1077.05", "tags": {"building": "yes"}}}, {"type": "Feature", "geometry": {"type": "Polygon", "coordinates": [[[-97.4075471, 35.4552414], [-97.4076884, 35.4552406], [-97.4076884, 35.4551363], [-97.4077098, 35.4551363], [-97.4077098, 35.45508], [-97.4076884, 35.45508], [-97.4076884, 35.4550121], [-97.4077362, 35.4550113], [-97.4077352, 35.455027], [-97.4078409, 35.4550278], [-97.4078439, 35.4549227], [-97.4076854, 35.4549227], [-97.4076864, 35.454907], [-97.4074902, 35.4549086], [-97.4074912, 35.454945], [-97.4074465, 35.4549459], [-97.4074471, 35.4549588], [-97.4074496, 35.4550088], [-97.4075441, 35.4550096], [-97.4075461, 35.4550692], [-97.4075309, 35.4550692], [-97.4075309, 35.4551164], [-97.4075471, 35.4551164], [-97.4075471, 35.4552414]]]}, "properties": {"osm_id": 488363005, "building": "yes", "name": "", "height": null, "height_m": null, "levels": null, "tract_id": "40109107705", "tract_name": "1077.05", "tags": {"building": "yes"}}}, {"type": "Feature", "geometry": {"type": "Polygon", "coordinates": [[[-97.4077555, 35.4560014], [-97.4078622, 35.4560006], [-97.4078622, 35.455917], [-97.4077575, 35.4559178], [-97.4077555, 35.4560014]]]}, "properties": {"osm_id": 488363008, "building": "yes", "name": "", "height": null, "height_m": null, "levels": null, "tract_id": "40109107705", "tract_name": "1077.05", "tags": {"building": "yes"}}}, {"type": "Feature", "geometry": {"type": "Polygon", "coordinates": [[[-97.4164196, 35.4637374], [-97.4160752, 35.4637382], [-97.4160618, 35.4635197], [-97.4164025, 35.4635088], [-97.4164196, 35.4637374]]]}, "properties": {"osm_id": 1204452358, "building": "yes", "name": "Family Dollar", "height": null, "height_m": null, "levels": null, "tract_id": "40109107705", "tract_name": "1077.05", "tags": {"addr:city": "Midwest City", "addr:housenumber": "6212", "addr:postcode": "73110", "addr:state": "OK", "addr:street": "East Reno Avenue", "brand": "Family Dollar", "brand:wikidata": "Q5433101", "building": "yes", "name": "Family Dollar", "shop": "variety_store"}}}, {"type": "Feature", "geometry": {"type": "Polygon", "coordinates": [[[-97.414119, 35.4637229], [-97.4139011, 35.4637252], [-97.413908, 35.4635702], [-97.4139687, 35.4635657], [-97.4139687, 35.4635185], [-97.4141148, 35.4635152], [-97.414119, 35.4637229]]]}, "properties": {"osm_id": 1204452359, "building": "yes", "name": "Reno Animal Hospital", "height": null, "height_m": null, "levels": null, "tract_id": "40109107705", "tract_name": "1077.05", "tags": {"addr:city": "Midwest City", "addr:housenumber": "6400", "addr:postcode": "73110", "addr:state": "OK", "addr:street": "East Reno Avenue", "amenity": "veterinary", "building": "yes", "name": "Reno Animal Hospital", "phone": "405-733-3346"}}}, {"type": "Feature", "geometry": {"type": "Polygon", "coordinates": [[[-97.4121411, 35.4637431], [-97.4121356, 35.4636072], [-97.4121108, 35.4636072], [-97.4121094, 35.4636364], [-97.4120487, 35.4636364], [-97.4120528, 35.4637431], [-97.4121411, 35.4637431]]]}, "properties": {"osm_id": 1204452360, "building": "yes", "name": "", "height": null, "height_m": null, "levels": null, "tract_id": "40109107705", "tract_name": "1077.05", "tags": {"building": "yes"}}}, {"type": "Feature", "geometry": {"type": "Polygon", "coordinates": [[[-97.4121411, 35.4637431], [-97.4124251, 35.463742], [-97.4124237, 35.4635668], [-97.4123052, 35.4635702], [-97.4123038, 35.4635567], [-97.4121383, 35.4635567], [-97.4121411, 35.4637431]]]}, "properties": {"osm_id": 1204452361, "building": "yes", "name": "", "height": null, "height_m": null, "levels": null, "tract_id": "40109107705", "tract_name": "1077.05", "tags": {"building": "yes"}}}, {"type": "Feature", "geometry": {"type": "Polygon", "coordinates": [[[-97.4093807, 35.4637574], [-97.4092097, 35.4637574], [-97.4092097, 35.4635306], [-97.4093765, 35.4635283], [-97.4093807, 35.4637574]]]}, "properties": {"osm_id": 1204452362, "building": "yes", "name": "Lee's Alteration Shop", "height": null, "height_m": null, "levels": null, "tract_id": "40109107705", "tract_name": "1077.05", "tags": {"addr:city": "Midwest City", "addr:housenumber": "6816", "addr:postcode": "73110", "addr:state": "OK", "addr:street": "East Reno Avenue", "building": "yes", "description": "Expert alterations for all apparels\nWedding and formal gowns\nLeather goods\nWe provide fast service at a reasonable rate.", "name": "Lee's Alteration Shop", "phone": "405-732-9955", "shop": "tailor"}}}, {"type": "Feature", "geometry": {"type": "Polygon", "coordinates": [[[-97.4092097, 35.4637574], [-97.4092097, 35.4635306], [-97.4092014, 35.4633722], [-97.4087685, 35.4633756], [-97.4087685, 35.4632824], [-97.4087037, 35.4632813], [-97.4087092, 35.4637384], [-97.4088126, 35.4637395], [-97.4088126, 35.4637844], [-97.4088278, 35.4637923], [-97.4089532, 35.4637911], [-97.4089643, 35.4637866], [-97.4089712, 35.4637563], [-97.4092097, 35.4637574]]]}, "properties": {"osm_id": 1204452363, "building": "yes", "name": "Goodwill Thrift Store & Donation Center", "height": null, "height_m": null, "levels": null, "tract_id": "40109107705", "tract_name": "1077.05", "tags": {"addr:city": "Midwest City", "addr:housenumber": "6830", "addr:postcode": "73110", "addr:state": "OK", "addr:street": "East Reno Avenue", "building": "yes", "name": "Goodwill Thrift Store & Donation Center", "phone": "405-737-3860", "second_hand": "only", "shop": "second_hand", "url": "https://okgoodwill.org/"}}}]}