{"type": "FeatureCollection", "features": [{"type": "Feature", "geometry": {"type": "Polygon", "coordinates": [[[-99.3336721, 34.6665502], [-99.3333903, 34.6665462], [-99.3333928, 34.6664291], [-99.3336746, 34.6664331], [-99.3336721, 34.6665502]]]}, "properties": {"osm_id": 262084862, "building": "yes", "name": "Whataburger", "height": null, "height_m": null, "levels": null, "tract_id": "40065968400", "tract_name": "9684", "tags": {"addr:city": "Altus", "addr:housenumber": "2728", "addr:postcode": "73521", "addr:state": "OK", "addr:street": "North Main Street", "amenity": "fast_food", "branch": "Highway 283 - Altus", "brand": "Whataburger", "brand:wikidata": "Q376627", "building": "yes", "cuisine": "burger", "name": "Whataburger", "phone": "+1 580-482-3370", "takeaway": "yes", "website": "https://locations.whataburger.com/ok/altus/2728-n-main-st.html"}}}, {"type": "Feature", "geometry": {"type": "Polygon", "coordinates": [[[-99.3358147, 34.6957047], [-99.3351173, 34.6957091], [-99.3351066, 34.6953033], [-99.3350288, 34.6953033], [-99.3350261, 34.6950916], [-99.3349778, 34.695085], [-99.3349751, 34.6949571], [-99.3350288, 34.6949593], [-99.3350261, 34.6947366], [-99.3350958, 34.6947344], [-99.3350905, 34.6946109], [-99.3350744, 34.6945932], [-99.3350744, 34.6945006], [-99.3351683, 34.6945028], [-99.3351817, 34.6945359], [-99.3352293, 34.694534], [-99.3353533, 34.6945293], [-99.3353641, 34.6945006], [-99.3355411, 34.6944984], [-99.335535, 34.694535], [-99.3359649, 34.6945204], [-99.3359783, 34.6948182], [-99.3357959, 34.6948248], [-99.3358059, 34.6952936], [-99.3358147, 34.6957047]]]}, "properties": {"osm_id": 285823579, "building": "transportation", "name": "", "height": null, "height_m": null, "levels": null, "tract_id": "40065968400", "tract_name": "9684", "tags": {"aeroway": "terminal", "building": "transportation"}}}, {"type": "Feature", "geometry": {"type": "Polygon", "coordinates": [[[-99.3353468, 34.6808309], [-99.3353445, 34.6804781], [-99.3350605, 34.6804794], [-99.3350612, 34.680589], [-99.3349623, 34.6805894], [-99.3349631, 34.6807265], [-99.3350689, 34.6807261], [-99.3350696, 34.6808321], [-99.3353468, 34.6808309]]]}, "properties": {"osm_id": 739083250, "building": "yes", "name": "Heritage Park Theatre 7", "height": null, "height_m": null, "levels": null, "tract_id": "40065968400", "tract_name": "9684", "tags": {"addr:city": "Altus", "addr:housenumber": "16107", "addr:state": "OK", "addr:street": "US-283", "amenity": "cinema", "building": "yes", "name": "Heritage Park Theatre 7", "screen": "7", "website": "https://altus.oktheatres.com/", "wikidata": "Q43191111"}}}, {"type": "Feature", "geometry": {"type": "Polygon", "coordinates": [[[-99.3327859, 34.6683032], [-99.3329632, 34.6683023], [-99.3329609, 34.667957], [-99.3331715, 34.667956], [-99.3331723, 34.6680893], [-99.3335638, 34.6680875], [-99.3335607, 34.6676203], [-99.3332055, 34.6676219], [-99.3332046, 34.6674918], [-99.3327803, 34.6674938], [-99.3327859, 34.6683032]]]}, "properties": {"osm_id": 956561630, "building": "yes", "name": "Days Inn by Wyndham Altus", "height": null, "height_m": null, "levels": null, "tract_id": "40065968400", "tract_name": "9684", "tags": {"addr:city": "Altus", "addr:housenumber": "2804", "addr:postcode": "73521", "addr:state": "OK", "addr:street": "North Main Street", "branch": "Altus", "brand": "Days Inn", "brand:wikidata": "Q1047239", "building": "yes", "name": "Days Inn by Wyndham Altus", "phone": "+1 580-482-9300", "ref": "48585", "tourism": "hotel", "website": "https://www.wyndhamhotels.com/days-inn/altus-oklahoma/days-inn-altus/overview"}}}, {"type": "Feature", "geometry": {"type": "Polygon", "coordinates": [[[-99.3193678, 34.6665813], [-99.3193678, 34.6663927], [-99.3196629, 34.6663938], [-99.3196629, 34.6664886], [-99.3196307, 34.6664886], [-99.3196307, 34.6665802], [-99.3193678, 34.6665813]]]}, "properties": {"osm_id": 985202773, "building": "yes", "name": "JCMH - Counseling Center", "height": null, "height_m": null, "levels": null, "tract_id": "40065968400", "tract_name": "9684", "tags": {"addr:city": "Atlus", "addr:housenumber": "1200", "addr:postcode": "73521", "addr:state": "OK", "addr:street": "East Tamarack Road", "amenity": "clinic", "building": "yes", "healthcare": "clinic", "name": "JCMH - Counseling Center", "operator": "Jackson County Memorial Hospital"}}}, {"type": "Feature", "geometry": {"type": "Polygon", "coordinates": [[[-99.3196389, 34.6662219], [-99.3196382, 34.6660125], [-99.3191805, 34.6660136], [-99.3191812, 34.6662009], [-99.319469, 34.6662002], [-99.3194691, 34.6662223], [-99.3196389, 34.6662219]]]}, "properties": {"osm_id": 985202784, "building": "yes", "name": "", "height": null, "height_m": null, "levels": null, "tract_id": "40065968400", "tract_name": "9684", "tags": {"building": "yes"}}}, {"type": "Feature", "geometry": {"type": "Polygon", "coordinates": [[[-99.3187262, 34.6664858], [-99.318795, 34.6664853], [-99.3187945, 34.6664461], [-99.3189078, 34.6664452], [-99.3189308, 34.666445], [-99.318928, 34.6661997], [-99.3189277, 34.6661778], [-99.318818, 34.6661787], [-99.3188167, 34.6660706], [-99.3185881, 34.6660724], [-99.3185926, 34.6664563], [-99.3187258, 34.6664552], [-99.3187262, 34.6664858]]]}, "properties": {"osm_id": 985202785, "building": "yes", "name": "", "height": null, "height_m": null, "levels": null, "tract_id": "40065968400", "tract_name": "9684", "tags": {"building": "yes"}}}, {"type": "Feature", "geometry": {"type": "Polygon", "coordinates": [[[-99.3175086, 34.6630441], [-99.3173734, 34.6630446], [-99.3173732, 34.6630085], [-99.3172874, 34.6630088], [-99.3172878, 34.6630825], [-99.317264, 34.6630826], [-99.3172641, 34.663123], [-99.317286, 34.6631229], [-99.3172864, 34.663221], [-99.3173249, 34.6632209], [-99.317325, 34.6632487], [-99.3174122, 34.6632484], [-99.3174121, 34.6632221], [-99.3175095, 34.6632218], [-99.3175086, 34.6630441]]]}, "properties": {"osm_id": 1079281678, "building": "church", "name": "Faith Lutheran Church", "height": null, "height_m": null, "levels": null, "tract_id": "40065968400", "tract_name": "9684", "tags": {"amenity": "place_of_worship", "building": "church", "denomination": "lutheran", "ele": "421", "gnis:feature_id": "1778572", "name": "Faith Lutheran Church", "religion": "christian"}}}, {"type": "Feature", "geometry": {"type": "Polygon", "coordinates": [[[-99.316949, 34.6638346], [-99.31695, 34.6636862], [-99.3167688, 34.6636853], [-99.3167696, 34.663574], [-99.3167698, 34.6635441], [-99.3167138, 34.6635438], [-99.3167136, 34.6635745], [-99.3167129, 34.6636847], [-99.3166965, 34.6636846], [-99.3166955, 34.663839], [-99.3167244, 34.6638391], [-99.3167221, 34.6641773], [-99.3167107, 34.6641773], [-99.3167094, 34.6643452], [-99.316763, 34.6643454], [-99.3167628, 34.664366], [-99.3168092, 34.6643663], [-99.3168094, 34.6643411], [-99.3168863, 34.6643415], [-99.3168881, 34.6641174], [-99.3169173, 34.6641175], [-99.3169176, 34.6640766], [-99.3168902, 34.6640765], [-99.316891, 34.6639704], [-99.3169458, 34.6639707], [-99.3169466, 34.663872], [-99.3168867, 34.6638717], [-99.3168869, 34.6638343], [-99.316949, 34.6638346]]]}, "properties": {"osm_id": 1079281679, "building": "church", "name": "First Christian Church", "height": null, "height_m": null, "levels": null, "tract_id": "40065968400", "tract_name": "9684", "tags": {"amenity": "place_of_worship", "building": "church", "ele": "434", "gnis:feature_id": "1778576", "name": "First Christian Church", "religion": "christian"}}}, {"type": "Feature", "geometry": {"type": "Polygon", "coordinates": [[[-99.3223092, 34.6663182], [-99.3223183, 34.6657731], [-99.321988, 34.6657694], [-99.321979, 34.6663146], [-99.3223092, 34.6663182]]]}, "properties": {"osm_id": 1079281681, "building": "church", "name": "Tamarack Road Church of Christ", "height": null, "height_m": null, "levels": null, "tract_id": "40065968400", "tract_name": "9684", "tags": {"amenity": "place_of_worship", "building": "church", "name": "Tamarack Road Church of Christ", "religion": "christian"}}}, {"type": "Feature", "geometry": {"type": "Polygon", "coordinates": [[[-99.3315867, 34.6673245], [-99.3315764, 34.6670413], [-99.3314613, 34.6670441], [-99.3314715, 34.6673273], [-99.3315867, 34.6673245]]]}, "properties": {"osm_id": 1079282108, "building": "yes", "name": "", "height": null, "height_m": null, "levels": null, "tract_id": "40065968400", "tract_name": "9684", "tags": {"amenity": "car_wash", "building": "yes"}}}, {"type": "Feature", "geometry": {"type": "Polygon", "coordinates": [[[-99.3177197, 34.6770342], [-99.3177312, 34.6769645], [-99.3176524, 34.6769557], [-99.3176408, 34.6770254], [-99.3177197, 34.6770342]]]}, "properties": {"osm_id": 1079322358, "building": "yes", "name": "", "height": null, "height_m": null, "levels": null, "tract_id": "40065968400", "tract_name": "9684", "tags": {"amenity": "shelter", "building": "yes", "shelter_type": "picnic_shelter"}}}, {"type": "Feature", "geometry": {"type": "Polygon", "coordinates": [[[-99.3326382, 34.6706646], [-99.3324929, 34.6706612], [-99.3324943, 34.6705952], [-99.3325191, 34.6705963], [-99.3325218, 34.6705396], [-99.3325146, 34.6705388], [-99.3325164, 34.6704891], [-99.3326436, 34.6704928], [-99.3326359, 34.6705611], [-99.3326652, 34.6705611], [-99.3326634, 34.6706086], [-99.3326409, 34.6706104], [-99.3326382, 34.6706646]]]}, "properties": {"osm_id": 1120707161, "building": "house", "name": "", "height": null, "height_m": 3.0, "levels": 1, "tract_id": "40065968400", "tract_name": "9684", "tags": {"addr:city": "Altus", "addr:housenumber": "3201", "addr:postcode": "73521", "addr:state": "OK", "addr:street": "Quail Circle", "building": "house", "building:levels": "1"}}}, {"type": "Feature", "geometry": {"type": "Polygon", "coordinates": [[[-99.3227779, 34.6760436], [-99.3226978, 34.6760464], [-99.3226946, 34.6759843], [-99.3227747, 34.6759815], [-99.3227779, 34.6760436]]]}, "properties": {"osm_id": 1160835609, "building": "yes", "name": "", "height": null, "height_m": null, "levels": null, "tract_id": "40065968400", "tract_name": "9684", "tags": {"building": "yes"}}}, {"type": "Feature", "geometry": {"type": "Polygon", "coordinates": [[[-99.3229555, 34.6758036], [-99.3228555, 34.6758046], [-99.3228545, 34.6757345], [-99.3229545, 34.6757335], [-99.3229555, 34.6758036]]]}, "properties": {"osm_id": 1160835610, "building": "yes", "name": "", "height": null, "height_m": null, "levels": null, "tract_id": "40065968400", "tract_name": "9684", "tags": {"building": "yes"}}}, {"type": "Feature", "geometry": {"type": "Polygon", "coordinates": [[[-99.3195669, 34.6743993], [-99.3193693, 34.6744003], [-99.3193686, 34.6743048], [-99.3195662, 34.6743038], [-99.3195669, 34.6743993]]]}, "properties": {"osm_id": 1160835612, "building": "yes", "name": "", "height": null, "height_m": null, "levels": null, "tract_id": "40065968400", "tract_name": "9684", "tags": {"building": "yes"}}}, {"type": "Feature", "geometry": {"type": "Polygon", "coordinates": [[[-99.3288236, 34.6696665], [-99.3288244, 34.6697611], [-99.3287462, 34.6697616], [-99.3287453, 34.669667], [-99.3288236, 34.6696665]]]}, "properties": {"osm_id": 1160835618, "building": "yes", "name": "", "height": null, "height_m": null, "levels": null, "tract_id": "40065968400", "tract_name": "9684", "tags": {"building": "yes"}}}, {"type": "Feature", "geometry": {"type": "Polygon", "coordinates": [[[-99.3318272, 34.6692032], [-99.33271, 34.6692047], [-99.3327099, 34.6692537], [-99.3318271, 34.6692523], [-99.3318272, 34.6692032]]]}, "properties": {"osm_id": 1160835620, "building": "yes", "name": "", "height": null, "height_m": null, "levels": null, "tract_id": "40065968400", "tract_name": "9684", "tags": {"building": "yes"}}}, {"type": "Feature", "geometry": {"type": "Polygon", "coordinates": [[[-99.3324186, 34.6689846], [-99.3318238, 34.6689832], [-99.3318241, 34.6689047], [-99.3324188, 34.6689061], [-99.3324186, 34.6689846]]]}, "properties": {"osm_id": 1160835621, "building": "yes", "name": "", "height": null, "height_m": null, "levels": null, "tract_id": "40065968400", "tract_name": "9684", "tags": {"building": "yes"}}}, {"type": "Feature", "geometry": {"type": "Polygon", "coordinates": [[[-99.3318175, 34.6691356], [-99.3318171, 34.669056], [-99.3325809, 34.6690538], [-99.3325811, 34.6690797], [-99.3326127, 34.6690796], [-99.332613, 34.6691334], [-99.3318175, 34.6691356]]]}, "properties": {"osm_id": 1160835622, "building": "yes", "name": "", "height": null, "height_m": null, "levels": null, "tract_id": "40065968400", "tract_name": "9684", "tags": {"building": "yes"}}}, {"type": "Feature", "geometry": {"type": "Polygon", "coordinates": [[[-99.332849, 34.669777], [-99.332849, 34.6695669], [-99.3333551, 34.6695669], [-99.3333551, 34.669777], [-99.332849, 34.669777]]]}, "properties": {"osm_id": 1160835623, "building": "yes", "name": "", "height": null, "height_m": null, "levels": null, "tract_id": "40065968400", "tract_name": "9684", "tags": {"building": "yes"}}}, {"type": "Feature", "geometry": {"type": "Polygon", "coordinates": [[[-99.3369244, 34.6712022], [-99.3369883, 34.6711501], [-99.337157, 34.6712898], [-99.3370932, 34.6713419], [-99.3369244, 34.6712022]]]}, "properties": {"osm_id": 1160835624, "building": "yes", "name": "", "height": null, "height_m": null, "levels": null, "tract_id": "40065968400", "tract_name": "9684", "tags": {"building": "yes"}}}, {"type": "Feature", "geometry": {"type": "Polygon", "coordinates": [[[-99.3375516, 34.6715012], [-99.337387, 34.6715022], [-99.3373844, 34.6712331], [-99.3375491, 34.6712321], [-99.3375516, 34.6715012]]]}, "properties": {"osm_id": 1160835625, "building": "yes", "name": "", "height": null, "height_m": null, "levels": null, "tract_id": "40065968400", "tract_name": "9684", "tags": {"building": "yes"}}}, {"type": "Feature", "geometry": {"type": "Polygon", "coordinates": [[[-99.3377527, 34.6714991], [-99.3375784, 34.6715011], [-99.3375733, 34.6712096], [-99.3377476, 34.6712075], [-99.3377527, 34.6714991]]]}, "properties": {"osm_id": 1160835626, "building": "yes", "name": "", "height": null, "height_m": null, "levels": null, "tract_id": "40065968400", "tract_name": "9684", "tags": {"building": "yes"}}}, {"type": "Feature", "geometry": {"type": "Polygon", "coordinates": [[[-99.3382878, 34.6711375], [-99.3382895, 34.6714388], [-99.3380376, 34.6714398], [-99.3380359, 34.6711384], [-99.3382878, 34.6711375]]]}, "properties": {"osm_id": 1160835627, "building": "yes", "name": "", "height": null, "height_m": null, "levels": null, "tract_id": "40065968400", "tract_name": "9684", "tags": {"building": "yes"}}}, {"type": "Feature", "geometry": {"type": "Polygon", "coordinates": [[[-99.338857, 34.6682754], [-99.3388562, 34.6680285], [-99.3394475, 34.6680271], [-99.3394484, 34.668274], [-99.338857, 34.6682754]]]}, "properties": {"osm_id": 1160835633, "building": "yes", "name": "", "height": null, "height_m": null, "levels": null, "tract_id": "40065968400", "tract_name": "9684", "tags": {"building": "yes"}}}, {"type": "Feature", "geometry": {"type": "Polygon", "coordinates": [[[-99.3308251, 34.6517817], [-99.3308245, 34.6515263], [-99.3310651, 34.6515258], [-99.3310658, 34.6517812], [-99.3308251, 34.6517817]]]}, "properties": {"osm_id": 1160858497, "building": "yes", "name": "", "height": null, "height_m": null, "levels": null, "tract_id": "40065968400", "tract_name": "9684", "tags": {"building": "yes"}}}, {"type": "Feature", "geometry": {"type": "Polygon", "coordinates": [[[-99.3307648, 34.650877], [-99.3307626, 34.6508037], [-99.3309289, 34.6508004], [-99.3309311, 34.6508737], [-99.3307648, 34.650877]]]}, "properties": {"osm_id": 1160858498, "building": "yes", "name": "", "height": null, "height_m": null, "levels": null, "tract_id": "40065968400", "tract_name": "9684", "tags": {"building": "yes"}}}, {"type": "Feature", "geometry": {"type": "Polygon", "coordinates": [[[-99.3304818, 34.6507573], [-99.3302927, 34.6507568], [-99.3302933, 34.6506242], [-99.3304824, 34.6506248], [-99.3304818, 34.6507573]]]}, "properties": {"osm_id": 1160858499, "building": "yes", "name": "", "height": null, "height_m": null, "levels": null, "tract_id": "40065968400", "tract_name": "9684", "tags": {"building": "yes"}}}, {"type": "Feature", "geometry": {"type": "Polygon", "coordinates": [[[-99.3225767, 34.652469], [-99.3227463, 34.6524519], [-99.3227892, 34.652741], [-99.3226196, 34.652758], [-99.3225767, 34.652469]]]}, "properties": {"osm_id": 1160858513, "building": "yes", "name": "", "height": null, "height_m": null, "levels": null, "tract_id": "40065968400", "tract_name": "9684", "tags": {"building": "yes"}}}, {"type": "Feature", "geometry": {"type": "Polygon", "coordinates": [[[-99.322188, 34.6527397], [-99.3219434, 34.6527709], [-99.3219293, 34.6526965], [-99.322174, 34.6526653], [-99.322188, 34.6527397]]]}, "properties": {"osm_id": 1160858514, "building": "yes", "name": "", "height": null, "height_m": null, "levels": null, "tract_id": "40065968400", "tract_name": "9684", "tags": {"building": "yes"}}}, {"type": "Feature", "geometry": {"type": "Polygon", "coordinates": [[[-99.3215792, 34.6526976], [-99.321327, 34.6527226], [-99.3213101, 34.6526069], [-99.3215623, 34.652582], [-99.3215792, 34.6526976]]]}, "properties": {"osm_id": 1160858515, "building": "yes", "name": "", "height": null, "height_m": null, "levels": null, "tract_id": "40065968400", "tract_name": "9684", "tags": {"building": "yes"}}}, {"type": "Feature", "geometry": {"type": "Polygon", "coordinates": [[[-99.321913, 34.6527257], [-99.321638, 34.6527585], [-99.3216242, 34.6526801], [-99.3218992, 34.6526473], [-99.321913, 34.6527257]]]}, "properties": {"osm_id": 1160858516, "building": "yes", "name": "", "height": null, "height_m": null, "levels": null, "tract_id": "40065968400", "tract_name": "9684", "tags": {"building": "yes"}}}, {"type": "Feature", "geometry": {"type": "Polygon", "coordinates": [[[-99.3203863, 34.653576], [-99.3203844, 34.6530596], [-99.3205323, 34.6530592], [-99.3205341, 34.6535756], [-99.3203863, 34.653576]]]}, "properties": {"osm_id": 1160858517, "building": "yes", "name": "", "height": null, "height_m": null, "levels": null, "tract_id": "40065968400", "tract_name": "9684", "tags": {"building": "yes"}}}, {"type": "Feature", "geometry": {"type": "Polygon", "coordinates": [[[-99.3210679, 34.6528087], [-99.3203652, 34.6528253], [-99.3203605, 34.6526898], [-99.3210632, 34.6526732], [-99.3210679, 34.6528087]]]}, "properties": {"osm_id": 1160858518, "building": "yes", "name": "", "height": null, "height_m": null, "levels": null, "tract_id": "40065968400", "tract_name": "9684", "tags": {"building": "yes"}}}, {"type": "Feature", "geometry": {"type": "Polygon", "coordinates": [[[-99.3418767, 34.7102364], [-99.3418122, 34.710238], [-99.34181, 34.7101743], [-99.3418744, 34.7101728], [-99.3418767, 34.7102364]]]}, "properties": {"osm_id": 1160858538, "building": "yes", "name": "", "height": null, "height_m": null, "levels": null, "tract_id": "40065968400", "tract_name": "9684", "tags": {"building": "yes"}}}, {"type": "Feature", "geometry": {"type": "Polygon", "coordinates": [[[-99.3466582, 34.7099361], [-99.3466935, 34.7099351], [-99.3466949, 34.7099671], [-99.3466596, 34.7099681], [-99.3466582, 34.7099361]]]}, "properties": {"osm_id": 1160858539, "building": "yes", "name": "", "height": null, "height_m": null, "levels": null, "tract_id": "40065968400", "tract_name": "9684", "tags": {"building": "yes"}}}, {"type": "Feature", "geometry": {"type": "Polygon", "coordinates": [[[-99.3508439, 34.7032428], [-99.3506466, 34.7032444], [-99.3506456, 34.7031556], [-99.3508429, 34.7031541], [-99.3508439, 34.7032428]]]}, "properties": {"osm_id": 1160858541, "building": "yes", "name": "", "height": null, "height_m": null, "levels": null, "tract_id": "40065968400", "tract_name": "9684", "tags": {"building": "yes"}}}, {"type": "Feature", "geometry": {"type": "Polygon", "coordinates": [[[-99.3521065, 34.6825537], [-99.3521145, 34.6827533], [-99.3520206, 34.6827558], [-99.3520125, 34.6825562], [-99.3521065, 34.6825537]]]}, "properties": {"osm_id": 1160858542, "building": "yes", "name": "", "height": null, "height_m": null, "levels": null, "tract_id": "40065968400", "tract_name": "9684", "tags": {"building": "yes"}}}, {"type": "Feature", "geometry": {"type": "Polygon", "coordinates": [[[-99.3523733, 34.6836796], [-99.3521105, 34.6836824], [-99.3521094, 34.6836119], [-99.3523722, 34.6836092], [-99.3523733, 34.6836796]]]}, "properties": {"osm_id": 1160858543, "building": "yes", "name": "", "height": null, "height_m": null, "levels": null, "tract_id": "40065968400", "tract_name": "9684", "tags": {"building": "yes"}}}, {"type": "Feature", "geometry": {"type": "Polygon", "coordinates": [[[-99.3523626, 34.6831393], [-99.3523599, 34.6832981], [-99.3522333, 34.6832966], [-99.352236, 34.6831378], [-99.3523626, 34.6831393]]]}, "properties": {"osm_id": 1160858544, "building": "yes", "name": "", "height": null, "height_m": null, "levels": null, "tract_id": "40065968400", "tract_name": "9684", "tags": {"building": "yes"}}}, {"type": "Feature", "geometry": {"type": "Polygon", "coordinates": [[[-99.3504435, 34.6887887], [-99.3502007, 34.688792], [-99.3501976, 34.6886349], [-99.3504403, 34.6886316], [-99.3504435, 34.6887887]]]}, "properties": {"osm_id": 1160858545, "building": "yes", "name": "", "height": null, "height_m": null, "levels": null, "tract_id": "40065968400", "tract_name": "9684", "tags": {"building": "yes"}}}, {"type": "Feature", "geometry": {"type": "Polygon", "coordinates": [[[-99.350897, 34.6888858], [-99.3507035, 34.6888897], [-99.3506986, 34.6887249], [-99.3508921, 34.688721], [-99.350897, 34.6888858]]]}, "properties": {"osm_id": 1160858546, "building": "yes", "name": "", "height": null, "height_m": null, "levels": null, "tract_id": "40065968400", "tract_name": "9684", "tags": {"building": "yes"}}}, {"type": "Feature", "geometry": {"type": "Polygon", "coordinates": [[[-99.3401812, 34.6692198], [-99.3401823, 34.6689719], [-99.340683, 34.6689734], [-99.3406819, 34.6692213], [-99.3401812, 34.6692198]]]}, "properties": {"osm_id": 1160858547, "building": "yes", "name": "", "height": null, "height_m": null, "levels": null, "tract_id": "40065968400", "tract_name": "9684", "tags": {"building": "yes"}}}, {"type": "Feature", "geometry": {"type": "Polygon", "coordinates": [[[-99.3391487, 34.6653028], [-99.3391801, 34.6653367], [-99.3391352, 34.6653648], [-99.3391038, 34.6653309], [-99.3391487, 34.6653028]]]}, "properties": {"osm_id": 1160858549, "building": "yes", "name": "", "height": null, "height_m": null, "levels": null, "tract_id": "40065968400", "tract_name": "9684", "tags": {"building": "yes"}}}, {"type": "Feature", "geometry": {"type": "Polygon", "coordinates": [[[-99.3391849, 34.6652465], [-99.339081, 34.6653149], [-99.3390246, 34.6652569], [-99.3391285, 34.6651885], [-99.3391849, 34.6652465]]]}, "properties": {"osm_id": 1160858550, "building": "yes", "name": "", "height": null, "height_m": null, "levels": null, "tract_id": "40065968400", "tract_name": "9684", "tags": {"building": "yes"}}}, {"type": "Feature", "geometry": {"type": "Polygon", "coordinates": [[[-99.3377782, 34.6644667], [-99.337716, 34.6644917], [-99.3376949, 34.664456], [-99.337757, 34.6644311], [-99.3377782, 34.6644667]]]}, "properties": {"osm_id": 1160858551, "building": "yes", "name": "", "height": null, "height_m": null, "levels": null, "tract_id": "40065968400", "tract_name": "9684", "tags": {"building": "yes"}}}, {"type": "Feature", "geometry": {"type": "Polygon", "coordinates": [[[-99.3360788, 34.6659978], [-99.3359546, 34.6659994], [-99.335953, 34.6659153], [-99.3360772, 34.6659137], [-99.3360788, 34.6659978]]]}, "properties": {"osm_id": 1160858552, "building": "yes", "name": "", "height": null, "height_m": null, "levels": null, "tract_id": "40065968400", "tract_name": "9684", "tags": {"building": "yes"}}}, {"type": "Feature", "geometry": {"type": "Polygon", "coordinates": [[[-99.3334229, 34.6644286], [-99.3332721, 34.6644262], [-99.3332755, 34.664285], [-99.3334262, 34.6642874], [-99.3334229, 34.6644286]]]}, "properties": {"osm_id": 1160858553, "building": "yes", "name": "", "height": null, "height_m": null, "levels": null, "tract_id": "40065968400", "tract_name": "9684", "tags": {"building": "yes"}}}, {"type": "Feature", "geometry": {"type": "Polygon", "coordinates": [[[-99.3349465, 34.6641173], [-99.334945, 34.6639515], [-99.3353186, 34.6639491], [-99.3353202, 34.664115], [-99.3349465, 34.6641173]]]}, "properties": {"osm_id": 1160858554, "building": "yes", "name": "", "height": null, "height_m": null, "levels": null, "tract_id": "40065968400", "tract_name": "9684", "tags": {"building": "yes"}}}, {"type": "Feature", "geometry": {"type": "Polygon", "coordinates": [[[-99.3351201, 34.6635128], [-99.335121, 34.6633092], [-99.3353204, 34.6633099], [-99.3353194, 34.6635135], [-99.3351201, 34.6635128]]]}, "properties": {"osm_id": 1160858555, "building": "yes", "name": "", "height": null, "height_m": null, "levels": null, "tract_id": "40065968400", "tract_name": "9684", "tags": {"building": "yes"}}}, {"type": "Feature", "geometry": {"type": "Polygon", "coordinates": [[[-99.3348517, 34.6633077], [-99.3350462, 34.6633065], [-99.3350481, 34.6635155], [-99.3348536, 34.6635167], [-99.3348517, 34.6633077]]]}, "properties": {"osm_id": 1160858556, "building": "yes", "name": "", "height": null, "height_m": null, "levels": null, "tract_id": "40065968400", "tract_name": "9684", "tags": {"building": "yes"}}}, {"type": "Feature", "geometry": {"type": "Polygon", "coordinates": [[[-99.3353685, 34.6632625], [-99.3347882, 34.6632609], [-99.3347884, 34.6632001], [-99.3353688, 34.6632016], [-99.3353685, 34.6632625]]]}, "properties": {"osm_id": 1160858557, "building": "yes", "name": "", "height": null, "height_m": null, "levels": null, "tract_id": "40065968400", "tract_name": "9684", "tags": {"building": "yes"}}}, {"type": "Feature", "geometry": {"type": "Polygon", "coordinates": [[[-99.3347285, 34.6629624], [-99.3345382, 34.6629582], [-99.3345448, 34.6627519], [-99.3347351, 34.662756], [-99.3347285, 34.6629624]]]}, "properties": {"osm_id": 1160858558, "building": "yes", "name": "", "height": null, "height_m": null, "levels": null, "tract_id": "40065968400", "tract_name": "9684", "tags": {"building": "yes"}}}, {"type": "Feature", "geometry": {"type": "Polygon", "coordinates": [[[-99.3349925, 34.6629637], [-99.3347957, 34.6629594], [-99.3348025, 34.66275], [-99.3349993, 34.6627543], [-99.3349925, 34.6629637]]]}, "properties": {"osm_id": 1160858559, "building": "yes", "name": "", "height": null, "height_m": null, "levels": null, "tract_id": "40065968400", "tract_name": "9684", "tags": {"building": "yes"}}}, {"type": "Feature", "geometry": {"type": "Polygon", "coordinates": [[[-99.3350624, 34.6629632], [-99.3350691, 34.6627558], [-99.3352749, 34.6627603], [-99.3352681, 34.6629677], [-99.3350624, 34.6629632]]]}, "properties": {"osm_id": 1160858560, "building": "yes", "name": "", "height": null, "height_m": null, "levels": null, "tract_id": "40065968400", "tract_name": "9684", "tags": {"building": "yes"}}}, {"type": "Feature", "geometry": {"type": "Polygon", "coordinates": [[[-99.3350148, 34.6627165], [-99.3350163, 34.662542], [-99.3352781, 34.6625436], [-99.3352765, 34.662718], [-99.3350148, 34.6627165]]]}, "properties": {"osm_id": 1160858561, "building": "yes", "name": "", "height": null, "height_m": null, "levels": null, "tract_id": "40065968400", "tract_name": "9684", "tags": {"building": "yes"}}}, {"type": "Feature", "geometry": {"type": "Polygon", "coordinates": [[[-99.3344629, 34.6625787], [-99.3344669, 34.6624188], [-99.3345707, 34.6624206], [-99.3345667, 34.6625805], [-99.3344629, 34.6625787]]]}, "properties": {"osm_id": 1160858562, "building": "yes", "name": "", "height": null, "height_m": null, "levels": null, "tract_id": "40065968400", "tract_name": "9684", "tags": {"building": "yes"}}}, {"type": "Feature", "geometry": {"type": "Polygon", "coordinates": [[[-99.3349329, 34.6624238], [-99.3349289, 34.6625843], [-99.3347775, 34.6625817], [-99.3347815, 34.6624212], [-99.3349329, 34.6624238]]]}, "properties": {"osm_id": 1160858563, "building": "yes", "name": "", "height": null, "height_m": null, "levels": null, "tract_id": "40065968400", "tract_name": "9684", "tags": {"building": "yes"}}}, {"type": "Feature", "geometry": {"type": "Polygon", "coordinates": [[[-99.3336314, 34.6615766], [-99.3337304, 34.6615318], [-99.3338485, 34.6617083], [-99.3337494, 34.6617531], [-99.3336314, 34.6615766]]]}, "properties": {"osm_id": 1160858564, "building": "roof", "name": "", "height": null, "height_m": null, "levels": null, "tract_id": "40065968400", "tract_name": "9684", "tags": {"building": "roof", "layer": "1"}}}, {"type": "Feature", "geometry": {"type": "Polygon", "coordinates": [[[-99.33373, 34.660821], [-99.33373, 34.6610113], [-99.3336187, 34.6610113], [-99.3336187, 34.660821], [-99.33373, 34.660821]]]}, "properties": {"osm_id": 1160858565, "building": "yes", "name": "", "height": null, "height_m": null, "levels": null, "tract_id": "40065968400", "tract_name": "9684", "tags": {"building": "yes"}}}, {"type": "Feature", "geometry": {"type": "Polygon", "coordinates": [[[-99.3336796, 34.6598765], [-99.3336784, 34.6597929], [-99.3338434, 34.6597913], [-99.3338446, 34.6598749], [-99.3336796, 34.6598765]]]}, "properties": {"osm_id": 1160858567, "building": "roof", "name": "", "height": null, "height_m": null, "levels": null, "tract_id": "40065968400", "tract_name": "9684", "tags": {"building": "roof", "layer": "1"}}}, {"type": "Feature", "geometry": {"type": "Polygon", "coordinates": [[[-99.3323439, 34.6596351], [-99.3324462, 34.6595899], [-99.3326796, 34.6599474], [-99.3325773, 34.6599925], [-99.3323439, 34.6596351]]]}, "properties": {"osm_id": 1160858568, "building": "yes", "name": "", "height": null, "height_m": null, "levels": null, "tract_id": "40065968400", "tract_name": "9684", "tags": {"building": "yes"}}}, {"type": "Feature", "geometry": {"type": "Polygon", "coordinates": [[[-99.3316711, 34.6578796], [-99.331769, 34.6577702], [-99.3319273, 34.6578662], [-99.3318294, 34.6579755], [-99.3316711, 34.6578796]]]}, "properties": {"osm_id": 1160858569, "building": "yes", "name": "", "height": null, "height_m": null, "levels": null, "tract_id": "40065968400", "tract_name": "9684", "tags": {"building": "yes"}}}, {"type": "Feature", "geometry": {"type": "Polygon", "coordinates": [[[-99.3345805, 34.6573109], [-99.3345843, 34.6575052], [-99.3344028, 34.6575076], [-99.334399, 34.6573133], [-99.3345805, 34.6573109]]]}, "properties": {"osm_id": 1160858570, "building": "yes", "name": "", "height": null, "height_m": null, "levels": null, "tract_id": "40065968400", "tract_name": "9684", "tags": {"building": "yes"}}}, {"type": "Feature", "geometry": {"type": "Polygon", "coordinates": [[[-99.3345397, 34.6567797], [-99.3345369, 34.657176], [-99.334458, 34.6571756], [-99.3344609, 34.6567793], [-99.3345397, 34.6567797]]]}, "properties": {"osm_id": 1160858571, "building": "yes", "name": "", "height": null, "height_m": null, "levels": null, "tract_id": "40065968400", "tract_name": "9684", "tags": {"building": "yes"}}}, {"type": "Feature", "geometry": {"type": "Polygon", "coordinates": [[[-99.3347227, 34.6568413], [-99.3347189, 34.6571144], [-99.334657, 34.6571138], [-99.3346608, 34.6568408], [-99.3347227, 34.6568413]]]}, "properties": {"osm_id": 1160858572, "building": "yes", "name": "", "height": null, "height_m": null, "levels": null, "tract_id": "40065968400", "tract_name": "9684", "tags": {"building": "yes"}}}, {"type": "Feature", "geometry": {"type": "Polygon", "coordinates": [[[-99.3349522, 34.6569482], [-99.334846, 34.6569482], [-99.334846, 34.6568429], [-99.3349522, 34.6568429], [-99.3349522, 34.6569482]]]}, "properties": {"osm_id": 1160858573, "building": "yes", "name": "", "height": null, "height_m": null, "levels": null, "tract_id": "40065968400", "tract_name": "9684", "tags": {"building": "yes"}}}, {"type": "Feature", "geometry": {"type": "Polygon", "coordinates": [[[-99.3346506, 34.6565387], [-99.3344477, 34.656534], [-99.3344516, 34.6564193], [-99.3346546, 34.656424], [-99.3346506, 34.6565387]]]}, "properties": {"osm_id": 1160858574, "building": "yes", "name": "", "height": null, "height_m": null, "levels": null, "tract_id": "40065968400", "tract_name": "9684", "tags": {"building": "yes"}}}, {"type": "Feature", "geometry": {"type": "Polygon", "coordinates": [[[-99.3318664, 34.6517943], [-99.3314378, 34.6517896], [-99.3314412, 34.6515758], [-99.3318699, 34.6515805], [-99.3318664, 34.6517943]]]}, "properties": {"osm_id": 1160858575, "building": "yes", "name": "", "height": null, "height_m": null, "levels": null, "tract_id": "40065968400", "tract_name": "9684", "tags": {"building": "yes"}}}, {"type": "Feature", "geometry": {"type": "Polygon", "coordinates": [[[-99.3315896, 34.652844], [-99.3315882, 34.6527883], [-99.3316665, 34.6527871], [-99.3316678, 34.6528428], [-99.3315896, 34.652844]]]}, "properties": {"osm_id": 1160858576, "building": "yes", "name": "", "height": null, "height_m": null, "levels": null, "tract_id": "40065968400", "tract_name": "9684", "tags": {"building": "yes"}}}, {"type": "Feature", "geometry": {"type": "Polygon", "coordinates": [[[-99.3317801, 34.6525221], [-99.3317751, 34.6524645], [-99.3318548, 34.6524598], [-99.3318598, 34.6525174], [-99.3317801, 34.6525221]]]}, "properties": {"osm_id": 1160858577, "building": "yes", "name": "", "height": null, "height_m": null, "levels": null, "tract_id": "40065968400", "tract_name": "9684", "tags": {"building": "yes"}}}, {"type": "Feature", "geometry": {"type": "Polygon", "coordinates": [[[-99.3319432, 34.6532554], [-99.3318626, 34.6532889], [-99.3318242, 34.6532265], [-99.3319048, 34.6531929], [-99.3319432, 34.6532554]]]}, "properties": {"osm_id": 1160858578, "building": "yes", "name": "", "height": null, "height_m": null, "levels": null, "tract_id": "40065968400", "tract_name": "9684", "tags": {"building": "yes"}}}, {"type": "Feature", "geometry": {"type": "Polygon", "coordinates": [[[-99.3313676, 34.6536549], [-99.3314788, 34.6536556], [-99.3314774, 34.65381], [-99.3313663, 34.6538094], [-99.3313676, 34.6536549]]]}, "properties": {"osm_id": 1160858579, "building": "yes", "name": "", "height": null, "height_m": null, "levels": null, "tract_id": "40065968400", "tract_name": "9684", "tags": {"building": "yes"}}}, {"type": "Feature", "geometry": {"type": "Polygon", "coordinates": [[[-99.330748, 34.653977], [-99.3304208, 34.6539815], [-99.3304192, 34.6539017], [-99.3307464, 34.6538973], [-99.330748, 34.653977]]]}, "properties": {"osm_id": 1160858580, "building": "yes", "name": "", "height": null, "height_m": null, "levels": null, "tract_id": "40065968400", "tract_name": "9684", "tags": {"building": "yes"}}}, {"type": "Feature", "geometry": {"type": "Polygon", "coordinates": [[[-99.3305871, 34.6536417], [-99.3303242, 34.6536461], [-99.3303199, 34.6534724], [-99.3305828, 34.653468], [-99.3305871, 34.6536417]]]}, "properties": {"osm_id": 1160858581, "building": "yes", "name": "", "height": null, "height_m": null, "levels": null, "tract_id": "40065968400", "tract_name": "9684", "tags": {"building": "yes"}}}, {"type": "Feature", "geometry": {"type": "Polygon", "coordinates": [[[-99.3283877, 34.6568883], [-99.328326, 34.6569181], [-99.3282926, 34.6568713], [-99.3283543, 34.6568415], [-99.3283877, 34.6568883]]]}, "properties": {"osm_id": 1160858582, "building": "yes", "name": "", "height": null, "height_m": null, "levels": null, "tract_id": "40065968400", "tract_name": "9684", "tags": {"building": "yes"}}}, {"type": "Feature", "geometry": {"type": "Polygon", "coordinates": [[[-99.3291088, 34.6565145], [-99.3291211, 34.6564607], [-99.3291847, 34.6564705], [-99.3291724, 34.6565244], [-99.3291088, 34.6565145]]]}, "properties": {"osm_id": 1160858583, "building": "yes", "name": "", "height": null, "height_m": null, "levels": null, "tract_id": "40065968400", "tract_name": "9684", "tags": {"building": "yes"}}}, {"type": "Feature", "geometry": {"type": "Polygon", "coordinates": [[[-99.3296645, 34.655665], [-99.3295971, 34.6556923], [-99.3295617, 34.6556331], [-99.329629, 34.6556058], [-99.3296645, 34.655665]]]}, "properties": {"osm_id": 1160858584, "building": "yes", "name": "", "height": null, "height_m": null, "levels": null, "tract_id": "40065968400", "tract_name": "9684", "tags": {"building": "yes"}}}, {"type": "Feature", "geometry": {"type": "Polygon", "coordinates": [[[-99.3293553, 34.6558187], [-99.329307, 34.6558577], [-99.3292589, 34.6558174], [-99.3293073, 34.6557784], [-99.3293553, 34.6558187]]]}, "properties": {"osm_id": 1160858585, "building": "yes", "name": "", "height": null, "height_m": null, "levels": null, "tract_id": "40065968400", "tract_name": "9684", "tags": {"building": "yes"}}}, {"type": "Feature", "geometry": {"type": "Polygon", "coordinates": [[[-99.3299935, 34.6564388], [-99.3299325, 34.6564099], [-99.3299647, 34.6563639], [-99.3300258, 34.6563928], [-99.3299935, 34.6564388]]]}, "properties": {"osm_id": 1160858586, "building": "yes", "name": "", "height": null, "height_m": null, "levels": null, "tract_id": "40065968400", "tract_name": "9684", "tags": {"building": "yes"}}}, {"type": "Feature", "geometry": {"type": "Polygon", "coordinates": [[[-99.3310451, 34.6558574], [-99.3310075, 34.6559015], [-99.3309538, 34.6558706], [-99.3309913, 34.6558265], [-99.3310451, 34.6558574]]]}, "properties": {"osm_id": 1160858587, "building": "yes", "name": "", "height": null, "height_m": null, "levels": null, "tract_id": "40065968400", "tract_name": "9684", "tags": {"building": "yes"}}}, {"type": "Feature", "geometry": {"type": "Polygon", "coordinates": [[[-99.3309452, 34.6553549], [-99.3310191, 34.6553435], [-99.3310311, 34.6553965], [-99.3309572, 34.6554079], [-99.3309452, 34.6553549]]]}, "properties": {"osm_id": 1160858588, "building": "yes", "name": "", "height": null, "height_m": null, "levels": null, "tract_id": "40065968400", "tract_name": "9684", "tags": {"building": "yes"}}}, {"type": "Feature", "geometry": {"type": "Polygon", "coordinates": [[[-99.3301974, 34.6558117], [-99.3301926, 34.6557206], [-99.330369, 34.6557143], [-99.3303738, 34.6558054], [-99.3301974, 34.6558117]]]}, "properties": {"osm_id": 1160858589, "building": "yes", "name": "", "height": null, "height_m": null, "levels": null, "tract_id": "40065968400", "tract_name": "9684", "tags": {"building": "yes"}}}, {"type": "Feature", "geometry": {"type": "Polygon", "coordinates": [[[-99.3322474, 34.6568254], [-99.3322426, 34.6564383], [-99.3335649, 34.6564273], [-99.3335697, 34.6568144], [-99.3322474, 34.6568254]]]}, "properties": {"osm_id": 1160858590, "building": "yes", "name": "", "height": null, "height_m": null, "levels": null, "tract_id": "40065968400", "tract_name": "9684", "tags": {"building": "yes"}}}, {"type": "Feature", "geometry": {"type": "Polygon", "coordinates": [[[-99.331829, 34.6543234], [-99.3322102, 34.6543216], [-99.3322129, 34.6547055], [-99.3318316, 34.6547073], [-99.331829, 34.6543234]]]}, "properties": {"osm_id": 1160858591, "building": "yes", "name": "", "height": null, "height_m": null, "levels": null, "tract_id": "40065968400", "tract_name": "9684", "tags": {"building": "yes"}}}, {"type": "Feature", "geometry": {"type": "Polygon", "coordinates": [[[-99.3325961, 34.6540587], [-99.3331094, 34.6540531], [-99.3331228, 34.6548849], [-99.3326095, 34.6548905], [-99.3325961, 34.6540587]]]}, "properties": {"osm_id": 1160858592, "building": "yes", "name": "", "height": null, "height_m": null, "levels": null, "tract_id": "40065968400", "tract_name": "9684", "tags": {"building": "yes"}}}, {"type": "Feature", "geometry": {"type": "Polygon", "coordinates": [[[-99.3343567, 34.6546135], [-99.3343574, 34.6545145], [-99.3345167, 34.6545153], [-99.334516, 34.6546143], [-99.3343567, 34.6546135]]]}, "properties": {"osm_id": 1160858593, "building": "yes", "name": "", "height": null, "height_m": null, "levels": null, "tract_id": "40065968400", "tract_name": "9684", "tags": {"building": "yes"}}}, {"type": "Feature", "geometry": {"type": "Polygon", "coordinates": [[[-99.3343744, 34.6544922], [-99.3343744, 34.6542892], [-99.3345058, 34.6542892], [-99.3345058, 34.6544922], [-99.3343744, 34.6544922]]]}, "properties": {"osm_id": 1160858594, "building": "yes", "name": "", "height": null, "height_m": null, "levels": null, "tract_id": "40065968400", "tract_name": "9684", "tags": {"building": "yes"}}}, {"type": "Feature", "geometry": {"type": "Polygon", "coordinates": [[[-99.3343453, 34.6541587], [-99.334348, 34.6540837], [-99.3344751, 34.6540868], [-99.3344724, 34.6541618], [-99.3343453, 34.6541587]]]}, "properties": {"osm_id": 1160858595, "building": "yes", "name": "", "height": null, "height_m": null, "levels": null, "tract_id": "40065968400", "tract_name": "9684", "tags": {"building": "yes"}}}, {"type": "Feature", "geometry": {"type": "Polygon", "coordinates": [[[-99.3345084, 34.6529987], [-99.3345105, 34.6539544], [-99.3343483, 34.6539547], [-99.3343462, 34.652999], [-99.3345084, 34.6529987]]]}, "properties": {"osm_id": 1160858596, "building": "yes", "name": "", "height": null, "height_m": null, "levels": null, "tract_id": "40065968400", "tract_name": "9684", "tags": {"building": "yes"}}}, {"type": "Feature", "geometry": {"type": "Polygon", "coordinates": [[[-99.334481, 34.6529913], [-99.334306, 34.6529919], [-99.3343054, 34.6528651], [-99.3344804, 34.6528646], [-99.334481, 34.6529913]]]}, "properties": {"osm_id": 1160858597, "building": "yes", "name": "", "height": null, "height_m": null, "levels": null, "tract_id": "40065968400", "tract_name": "9684", "tags": {"building": "yes"}}}, {"type": "Feature", "geometry": {"type": "Polygon", "coordinates": [[[-99.3344595, 34.6527061], [-99.334554, 34.6527065], [-99.3345533, 34.6528372], [-99.3344589, 34.6528369], [-99.3344595, 34.6527061]]]}, "properties": {"osm_id": 1160858598, "building": "yes", "name": "", "height": null, "height_m": null, "levels": null, "tract_id": "40065968400", "tract_name": "9684", "tags": {"building": "yes"}}}, {"type": "Feature", "geometry": {"type": "Polygon", "coordinates": [[[-99.3343006, 34.6523498], [-99.3345426, 34.6523458], [-99.334548, 34.6525665], [-99.334306, 34.6525705], [-99.3343006, 34.6523498]]]}, "properties": {"osm_id": 1160858599, "building": "yes", "name": "", "height": null, "height_m": null, "levels": null, "tract_id": "40065968400", "tract_name": "9684", "tags": {"building": "yes"}}}, {"type": "Feature", "geometry": {"type": "Polygon", "coordinates": [[[-99.3335778, 34.6516184], [-99.3333967, 34.6516195], [-99.3333953, 34.6514607], [-99.3335763, 34.6514596], [-99.3335778, 34.6516184]]]}, "properties": {"osm_id": 1160858600, "building": "yes", "name": "", "height": null, "height_m": null, "levels": null, "tract_id": "40065968400", "tract_name": "9684", "tags": {"building": "yes"}}}, {"type": "Feature", "geometry": {"type": "Polygon", "coordinates": [[[-99.3329917, 34.652031], [-99.3329944, 34.6517574], [-99.3331984, 34.6517587], [-99.3331957, 34.6520323], [-99.3329917, 34.652031]]]}, "properties": {"osm_id": 1160858601, "building": "yes", "name": "", "height": null, "height_m": null, "levels": null, "tract_id": "40065968400", "tract_name": "9684", "tags": {"building": "yes"}}}, {"type": "Feature", "geometry": {"type": "Polygon", "coordinates": [[[-99.3336967, 34.6511386], [-99.3333861, 34.6511335], [-99.3333895, 34.6509937], [-99.3337, 34.6509988], [-99.3336967, 34.6511386]]]}, "properties": {"osm_id": 1160858604, "building": "yes", "name": "", "height": null, "height_m": null, "levels": null, "tract_id": "40065968400", "tract_name": "9684", "tags": {"building": "yes"}}}, {"type": "Feature", "geometry": {"type": "Polygon", "coordinates": [[[-99.3475495, 34.6380127], [-99.3475523, 34.6380923], [-99.347464, 34.6380944], [-99.3474611, 34.6380149], [-99.3475495, 34.6380127]]]}, "properties": {"osm_id": 1160901250, "building": "yes", "name": "", "height": null, "height_m": null, "levels": null, "tract_id": "40065968400", "tract_name": "9684", "tags": {"building": "yes"}}}, {"type": "Feature", "geometry": {"type": "Polygon", "coordinates": [[[-99.3517484, 34.63842], [-99.3517524, 34.6382843], [-99.3518282, 34.6382858], [-99.3518242, 34.6384215], [-99.3517484, 34.63842]]]}, "properties": {"osm_id": 1160901251, "building": "yes", "name": "", "height": null, "height_m": null, "levels": null, "tract_id": "40065968400", "tract_name": "9684", "tags": {"building": "yes"}}}, {"type": "Feature", "geometry": {"type": "Polygon", "coordinates": [[[-99.3502199, 34.6448987], [-99.3499828, 34.6448956], [-99.3499847, 34.6447973], [-99.3502218, 34.6448005], [-99.3502199, 34.6448987]]]}, "properties": {"osm_id": 1160901261, "building": "yes", "name": "", "height": null, "height_m": null, "levels": null, "tract_id": "40065968400", "tract_name": "9684", "tags": {"building": "yes"}}}, {"type": "Feature", "geometry": {"type": "Polygon", "coordinates": [[[-99.3526979, 34.6414063], [-99.3525235, 34.6414063], [-99.3525235, 34.6412606], [-99.3526979, 34.6412606], [-99.3526979, 34.6414063]]]}, "properties": {"osm_id": 1160901262, "building": "yes", "name": "", "height": null, "height_m": null, "levels": null, "tract_id": "40065968400", "tract_name": "9684", "tags": {"building": "yes"}}}, {"type": "Feature", "geometry": {"type": "Polygon", "coordinates": [[[-99.3528789, 34.6412408], [-99.3528789, 34.641403], [-99.3527636, 34.641403], [-99.3527636, 34.6412408], [-99.3528789, 34.6412408]]]}, "properties": {"osm_id": 1160901263, "building": "yes", "name": "", "height": null, "height_m": null, "levels": null, "tract_id": "40065968400", "tract_name": "9684", "tags": {"building": "yes"}}}, {"type": "Feature", "geometry": {"type": "Polygon", "coordinates": [[[-99.3582219, 34.6408039], [-99.3575487, 34.6408083], [-99.3575459, 34.6405262], [-99.3582192, 34.6405218], [-99.3582219, 34.6408039]]]}, "properties": {"osm_id": 1160901264, "building": "yes", "name": "", "height": null, "height_m": null, "levels": null, "tract_id": "40065968400", "tract_name": "9684", "tags": {"building": "yes"}}}, {"type": "Feature", "geometry": {"type": "Polygon", "coordinates": [[[-99.3490601, 34.6380619], [-99.3492099, 34.6380643], [-99.3492042, 34.6383061], [-99.3490544, 34.6383037], [-99.3490601, 34.6380619]]]}, "properties": {"osm_id": 1160901269, "building": "yes", "name": "", "height": null, "height_m": null, "levels": null, "tract_id": "40065968400", "tract_name": "9684", "tags": {"building": "yes"}}}, {"type": "Feature", "geometry": {"type": "Polygon", "coordinates": [[[-99.3500103, 34.6382903], [-99.3496241, 34.6382914], [-99.3496232, 34.6380874], [-99.3500094, 34.6380863], [-99.3500103, 34.6382903]]]}, "properties": {"osm_id": 1160901270, "building": "yes", "name": "", "height": null, "height_m": null, "levels": null, "tract_id": "40065968400", "tract_name": "9684", "tags": {"building": "yes"}}}, {"type": "Feature", "geometry": {"type": "Polygon", "coordinates": [[[-99.3471015, 34.63834], [-99.3467756, 34.6383433], [-99.3467736, 34.6382133], [-99.3470995, 34.63821], [-99.3471015, 34.63834]]]}, "properties": {"osm_id": 1160901274, "building": "yes", "name": "", "height": null, "height_m": null, "levels": null, "tract_id": "40065968400", "tract_name": "9684", "tags": {"building": "yes"}}}, {"type": "Feature", "geometry": {"type": "Polygon", "coordinates": [[[-99.3464363, 34.6381866], [-99.3464351, 34.6380229], [-99.347107, 34.6380196], [-99.3471082, 34.6381833], [-99.3464363, 34.6381866]]]}, "properties": {"osm_id": 1160901275, "building": "yes", "name": "", "height": null, "height_m": null, "levels": null, "tract_id": "40065968400", "tract_name": "9684", "tags": {"building": "yes"}}}, {"type": "Feature", "geometry": {"type": "Polygon", "coordinates": [[[-99.3483675, 34.638031], [-99.3485009, 34.6380322], [-99.3484983, 34.6382484], [-99.3483648, 34.6382473], [-99.3483675, 34.638031]]]}, "properties": {"osm_id": 1160901276, "building": "yes", "name": "", "height": null, "height_m": null, "levels": null, "tract_id": "40065968400", "tract_name": "9684", "tags": {"building": "yes"}}}, {"type": "Feature", "geometry": {"type": "Polygon", "coordinates": [[[-99.347658, 34.6381778], [-99.3476594, 34.6380599], [-99.3479343, 34.6380621], [-99.3479329, 34.63818], [-99.347658, 34.6381778]]]}, "properties": {"osm_id": 1160901277, "building": "yes", "name": "", "height": null, "height_m": null, "levels": null, "tract_id": "40065968400", "tract_name": "9684", "tags": {"building": "yes"}}}, {"type": "Feature", "geometry": {"type": "Polygon", "coordinates": [[[-99.3574649, 34.6390621], [-99.3574649, 34.6389404], [-99.3577077, 34.6389404], [-99.3577077, 34.6390621], [-99.3574649, 34.6390621]]]}, "properties": {"osm_id": 1160901281, "building": "yes", "name": "", "height": null, "height_m": null, "levels": null, "tract_id": "40065968400", "tract_name": "9684", "tags": {"building": "yes"}}}, {"type": "Feature", "geometry": {"type": "Polygon", "coordinates": [[[-99.3591046, 34.6382671], [-99.3589083, 34.6382639], [-99.3589107, 34.6381609], [-99.359107, 34.638164], [-99.3591046, 34.6382671]]]}, "properties": {"osm_id": 1160901282, "building": "yes", "name": "", "height": null, "height_m": null, "levels": null, "tract_id": "40065968400", "tract_name": "9684", "tags": {"building": "yes"}}}, {"type": "Feature", "geometry": {"type": "Polygon", "coordinates": [[[-99.3573568, 34.6386665], [-99.3572592, 34.6386673], [-99.3572582, 34.6385848], [-99.3573559, 34.638584], [-99.3573568, 34.6386665]]]}, "properties": {"osm_id": 1160901283, "building": "yes", "name": "", "height": null, "height_m": null, "levels": null, "tract_id": "40065968400", "tract_name": "9684", "tags": {"building": "yes"}}}, {"type": "Feature", "geometry": {"type": "Polygon", "coordinates": [[[-99.3574628, 34.6386523], [-99.3574628, 34.638308], [-99.357664, 34.638308], [-99.357664, 34.6386523], [-99.3574628, 34.6386523]]]}, "properties": {"osm_id": 1160901284, "building": "yes", "name": "", "height": null, "height_m": null, "levels": null, "tract_id": "40065968400", "tract_name": "9684", "tags": {"building": "yes"}}}, {"type": "Feature", "geometry": {"type": "Polygon", "coordinates": [[[-99.3573521, 34.6382312], [-99.3573549, 34.638427], [-99.3572416, 34.6384281], [-99.3572387, 34.6382323], [-99.3573521, 34.6382312]]]}, "properties": {"osm_id": 1160901285, "building": "yes", "name": "", "height": null, "height_m": null, "levels": null, "tract_id": "40065968400", "tract_name": "9684", "tags": {"building": "yes"}}}, {"type": "Feature", "geometry": {"type": "Polygon", "coordinates": [[[-99.355759, 34.6385612], [-99.3556416, 34.6385618], [-99.3556411, 34.6384913], [-99.3557585, 34.6384907], [-99.355759, 34.6385612]]]}, "properties": {"osm_id": 1160901286, "building": "yes", "name": "", "height": null, "height_m": null, "levels": null, "tract_id": "40065968400", "tract_name": "9684", "tags": {"building": "yes"}}}, {"type": "Feature", "geometry": {"type": "Polygon", "coordinates": [[[-99.3556228, 34.6383521], [-99.3554592, 34.6383554], [-99.3554552, 34.6382204], [-99.3556188, 34.6382171], [-99.3556228, 34.6383521]]]}, "properties": {"osm_id": 1160901287, "building": "yes", "name": "", "height": null, "height_m": null, "levels": null, "tract_id": "40065968400", "tract_name": "9684", "tags": {"building": "yes"}}}, {"type": "Feature", "geometry": {"type": "Polygon", "coordinates": [[[-99.3547659, 34.638884], [-99.3546049, 34.6388829], [-99.3546064, 34.6387336], [-99.3547674, 34.6387347], [-99.3547659, 34.638884]]]}, "properties": {"osm_id": 1160901288, "building": "yes", "name": "", "height": null, "height_m": null, "levels": null, "tract_id": "40065968400", "tract_name": "9684", "tags": {"building": "yes"}}}, {"type": "Feature", "geometry": {"type": "Polygon", "coordinates": [[[-99.3538378, 34.6388939], [-99.3538338, 34.6391631], [-99.3536331, 34.6391611], [-99.3536372, 34.6388919], [-99.3538378, 34.6388939]]]}, "properties": {"osm_id": 1160901289, "building": "yes", "name": "", "height": null, "height_m": null, "levels": null, "tract_id": "40065968400", "tract_name": "9684", "tags": {"building": "yes"}}}, {"type": "Feature", "geometry": {"type": "Polygon", "coordinates": [[[-99.3512066, 34.6388178], [-99.3508726, 34.6388156], [-99.3508737, 34.6387071], [-99.3512076, 34.6387093], [-99.3512066, 34.6388178]]]}, "properties": {"osm_id": 1160901290, "building": "yes", "name": "", "height": null, "height_m": null, "levels": null, "tract_id": "40065968400", "tract_name": "9684", "tags": {"building": "yes"}}}, {"type": "Feature", "geometry": {"type": "Polygon", "coordinates": [[[-99.3509075, 34.6396453], [-99.3506192, 34.6396464], [-99.350618, 34.6394447], [-99.3509064, 34.6394435], [-99.3509075, 34.6396453]]]}, "properties": {"osm_id": 1160901293, "building": "yes", "name": "", "height": null, "height_m": null, "levels": null, "tract_id": "40065968400", "tract_name": "9684", "tags": {"building": "yes"}}}, {"type": "Feature", "geometry": {"type": "Polygon", "coordinates": [[[-99.3506884, 34.6409689], [-99.3505357, 34.6409697], [-99.3505351, 34.6408956], [-99.3506878, 34.6408949], [-99.3506884, 34.6409689]]]}, "properties": {"osm_id": 1160901294, "building": "yes", "name": "", "height": null, "height_m": null, "levels": null, "tract_id": "40065968400", "tract_name": "9684", "tags": {"building": "yes"}}}, {"type": "Feature", "geometry": {"type": "Polygon", "coordinates": [[[-99.350951, 34.6411734], [-99.3506931, 34.6411757], [-99.3506916, 34.641066], [-99.3509496, 34.6410637], [-99.350951, 34.6411734]]]}, "properties": {"osm_id": 1160901295, "building": "yes", "name": "", "height": null, "height_m": null, "levels": null, "tract_id": "40065968400", "tract_name": "9684", "tags": {"building": "yes"}}}, {"type": "Feature", "geometry": {"type": "Polygon", "coordinates": [[[-99.3497273, 34.6415299], [-99.3497139, 34.6420131], [-99.3495461, 34.64201], [-99.3495595, 34.6415267], [-99.3497273, 34.6415299]]]}, "properties": {"osm_id": 1160901296, "building": "yes", "name": "", "height": null, "height_m": null, "levels": null, "tract_id": "40065968400", "tract_name": "9684", "tags": {"building": "yes"}}}, {"type": "Feature", "geometry": {"type": "Polygon", "coordinates": [[[-99.3507452, 34.6415464], [-99.3510289, 34.6415496], [-99.3510235, 34.6418762], [-99.3507399, 34.641873], [-99.3507452, 34.6415464]]]}, "properties": {"osm_id": 1160901297, "building": "yes", "name": "", "height": null, "height_m": null, "levels": null, "tract_id": "40065968400", "tract_name": "9684", "tags": {"building": "yes"}}}, {"type": "Feature", "geometry": {"type": "Polygon", "coordinates": [[[-99.350567, 34.6422055], [-99.3502588, 34.6422024], [-99.3502623, 34.6419705], [-99.3505705, 34.6419736], [-99.350567, 34.6422055]]]}, "properties": {"osm_id": 1160901298, "building": "yes", "name": "", "height": null, "height_m": null, "levels": null, "tract_id": "40065968400", "tract_name": "9684", "tags": {"building": "yes"}}}, {"type": "Feature", "geometry": {"type": "Polygon", "coordinates": [[[-99.3510667, 34.6435272], [-99.3508714, 34.643528], [-99.3508709, 34.6434438], [-99.3510662, 34.643443], [-99.3510667, 34.6435272]]]}, "properties": {"osm_id": 1160901299, "building": "yes", "name": "", "height": null, "height_m": null, "levels": null, "tract_id": "40065968400", "tract_name": "9684", "tags": {"building": "yes"}}}, {"type": "Feature", "geometry": {"type": "Polygon", "coordinates": [[[-99.3512327, 34.6439914], [-99.3510772, 34.6439929], [-99.3510762, 34.6439292], [-99.3512317, 34.6439277], [-99.3512327, 34.6439914]]]}, "properties": {"osm_id": 1160901300, "building": "yes", "name": "", "height": null, "height_m": null, "levels": null, "tract_id": "40065968400", "tract_name": "9684", "tags": {"building": "yes"}}}, {"type": "Feature", "geometry": {"type": "Polygon", "coordinates": [[[-99.3779, 34.6738993], [-99.3779, 34.6739546], [-99.3778412, 34.6739546], [-99.3778412, 34.6738993], [-99.3779, 34.6738993]]]}, "properties": {"osm_id": 1160901316, "building": "yes", "name": "", "height": null, "height_m": null, "levels": null, "tract_id": "40065968400", "tract_name": "9684", "tags": {"building": "yes"}}}, {"type": "Feature", "geometry": {"type": "Polygon", "coordinates": [[[-99.3236513, 34.6588211], [-99.3237061, 34.6588134], [-99.3237184, 34.6588726], [-99.3236636, 34.6588804], [-99.3236513, 34.6588211]]]}, "properties": {"osm_id": 1160901317, "building": "yes", "name": "", "height": null, "height_m": null, "levels": null, "tract_id": "40065968400", "tract_name": "9684", "tags": {"building": "yes"}}}, {"type": "Feature", "geometry": {"type": "Polygon", "coordinates": [[[-99.327237, 34.6679522], [-99.3273442, 34.6678693], [-99.3274931, 34.6679994], [-99.3273859, 34.6680824], [-99.327237, 34.6679522]]]}, "properties": {"osm_id": 1160901326, "building": "yes", "name": "", "height": null, "height_m": null, "levels": null, "tract_id": "40065968400", "tract_name": "9684", "tags": {"building": "yes"}}}, {"type": "Feature", "geometry": {"type": "Polygon", "coordinates": [[[-99.3892635, 34.6464894], [-99.3889923, 34.6464957], [-99.3889877, 34.6463617], [-99.3892589, 34.6463555], [-99.3892635, 34.6464894]]]}, "properties": {"osm_id": 1160901386, "building": "yes", "name": "", "height": null, "height_m": null, "levels": null, "tract_id": "40065968400", "tract_name": "9684", "tags": {"building": "yes"}}}, {"type": "Feature", "geometry": {"type": "Polygon", "coordinates": [[[-99.3873896, 34.6478298], [-99.3875009, 34.6478298], [-99.3875009, 34.6478916], [-99.3873896, 34.6478916], [-99.3873896, 34.6478298]]]}, "properties": {"osm_id": 1160901387, "building": "yes", "name": "", "height": null, "height_m": null, "levels": null, "tract_id": "40065968400", "tract_name": "9684", "tags": {"building": "yes"}}}, {"type": "Feature", "geometry": {"type": "Polygon", "coordinates": [[[-99.3874048, 34.6473507], [-99.3872284, 34.6473476], [-99.387231, 34.6472505], [-99.3874073, 34.6472536], [-99.3874048, 34.6473507]]]}, "properties": {"osm_id": 1160901388, "building": "yes", "name": "", "height": null, "height_m": null, "levels": null, "tract_id": "40065968400", "tract_name": "9684", "tags": {"building": "yes"}}}, {"type": "Feature", "geometry": {"type": "Polygon", "coordinates": [[[-99.3742441, 34.6528672], [-99.3743192, 34.6531243], [-99.3740465, 34.6531782], [-99.3739714, 34.6529211], [-99.3742441, 34.6528672]]]}, "properties": {"osm_id": 1160901391, "building": "yes", "name": "", "height": null, "height_m": null, "levels": null, "tract_id": "40065968400", "tract_name": "9684", "tags": {"building": "yes"}}}, {"type": "Feature", "geometry": {"type": "Polygon", "coordinates": [[[-99.3563363, 34.6525241], [-99.3564489, 34.6525241], [-99.3564489, 34.6527856], [-99.3563363, 34.6527856], [-99.3563363, 34.6525241]]]}, "properties": {"osm_id": 1160901394, "building": "yes", "name": "", "height": null, "height_m": null, "levels": null, "tract_id": "40065968400", "tract_name": "9684", "tags": {"building": "yes"}}}, {"type": "Feature", "geometry": {"type": "Polygon", "coordinates": [[[-99.355997, 34.652576], [-99.355997, 34.6527823], [-99.3557274, 34.6527823], [-99.3557274, 34.652576], [-99.355997, 34.652576]]]}, "properties": {"osm_id": 1160901395, "building": "yes", "name": "", "height": null, "height_m": null, "levels": null, "tract_id": "40065968400", "tract_name": "9684", "tags": {"building": "yes"}}}, {"type": "Feature", "geometry": {"type": "Polygon", "coordinates": [[[-99.3211847, 34.6714843], [-99.3211188, 34.6714855], [-99.3211179, 34.6714486], [-99.3211838, 34.6714475], [-99.3211847, 34.6714843]]]}, "properties": {"osm_id": 1160901399, "building": "yes", "name": "", "height": null, "height_m": null, "levels": null, "tract_id": "40065968400", "tract_name": "9684", "tags": {"building": "yes"}}}, {"type": "Feature", "geometry": {"type": "Polygon", "coordinates": [[[-99.3171663, 34.6723261], [-99.3171663, 34.6723633], [-99.3171341, 34.6723633], [-99.3171341, 34.6723261], [-99.3171663, 34.6723261]]]}, "properties": {"osm_id": 1160901402, "building": "yes", "name": "", "height": null, "height_m": null, "levels": null, "tract_id": "40065968400", "tract_name": "9684", "tags": {"building": "yes"}}}, {"type": "Feature", "geometry": {"type": "Polygon", "coordinates": [[[-99.3171908, 34.6695841], [-99.3171405, 34.6695825], [-99.3171425, 34.6695416], [-99.3171928, 34.6695433], [-99.3171908, 34.6695841]]]}, "properties": {"osm_id": 1160901405, "building": "yes", "name": "", "height": null, "height_m": null, "levels": null, "tract_id": "40065968400", "tract_name": "9684", "tags": {"building": "yes"}}}, {"type": "Feature", "geometry": {"type": "Polygon", "coordinates": [[[-99.3172371, 34.6695141], [-99.3171392, 34.6695207], [-99.3171307, 34.6694364], [-99.3172286, 34.6694298], [-99.3172371, 34.6695141]]]}, "properties": {"osm_id": 1160901406, "building": "yes", "name": "", "height": null, "height_m": null, "levels": null, "tract_id": "40065968400", "tract_name": "9684", "tags": {"building": "yes"}}}, {"type": "Feature", "geometry": {"type": "Polygon", "coordinates": [[[-99.3171083, 34.6685853], [-99.3170411, 34.6685862], [-99.3170371, 34.66837], [-99.3171043, 34.6683692], [-99.3171083, 34.6685853]]]}, "properties": {"osm_id": 1160901407, "building": "yes", "name": "", "height": null, "height_m": null, "levels": null, "tract_id": "40065968400", "tract_name": "9684", "tags": {"building": "yes"}}}, {"type": "Feature", "geometry": {"type": "Polygon", "coordinates": [[[-99.3172398, 34.6680062], [-99.3172471, 34.6685842], [-99.317187, 34.6685848], [-99.3171796, 34.6680067], [-99.3172398, 34.6680062]]]}, "properties": {"osm_id": 1160901408, "building": "yes", "name": "", "height": null, "height_m": null, "levels": null, "tract_id": "40065968400", "tract_name": "9684", "tags": {"building": "yes"}}}, {"type": "Feature", "geometry": {"type": "Polygon", "coordinates": [[[-99.3511858, 34.6675783], [-99.3510986, 34.6675783], [-99.3510986, 34.6675061], [-99.3511858, 34.6675061], [-99.3511858, 34.6675783]]]}, "properties": {"osm_id": 1160901481, "building": "yes", "name": "", "height": null, "height_m": null, "levels": null, "tract_id": "40065968400", "tract_name": "9684", "tags": {"building": "yes"}}}, {"type": "Feature", "geometry": {"type": "Polygon", "coordinates": [[[-99.3418824, 34.6638607], [-99.3419606, 34.6638035], [-99.3420289, 34.6638667], [-99.3419507, 34.6639239], [-99.3418824, 34.6638607]]]}, "properties": {"osm_id": 1160901482, "building": "yes", "name": "", "height": null, "height_m": null, "levels": null, "tract_id": "40065968400", "tract_name": "9684", "tags": {"building": "yes"}}}, {"type": "Feature", "geometry": {"type": "Polygon", "coordinates": [[[-99.3434657, 34.6632196], [-99.3434657, 34.6633002], [-99.3433785, 34.6633002], [-99.3433785, 34.6632196], [-99.3434657, 34.6632196]]]}, "properties": {"osm_id": 1160901483, "building": "yes", "name": "", "height": null, "height_m": null, "levels": null, "tract_id": "40065968400", "tract_name": "9684", "tags": {"building": "yes"}}}, {"type": "Feature", "geometry": {"type": "Polygon", "coordinates": [[[-99.3387719, 34.6629907], [-99.3387701, 34.6629534], [-99.3388231, 34.6629518], [-99.3388248, 34.6629891], [-99.3387719, 34.6629907]]]}, "properties": {"osm_id": 1160901485, "building": "yes", "name": "", "height": null, "height_m": null, "levels": null, "tract_id": "40065968400", "tract_name": "9684", "tags": {"building": "yes"}}}, {"type": "Feature", "geometry": {"type": "Polygon", "coordinates": [[[-99.33481, 34.6610886], [-99.3345966, 34.6610886], [-99.3345966, 34.6609646], [-99.33481, 34.6609646], [-99.33481, 34.6610886]]]}, "properties": {"osm_id": 1160901486, "building": "yes", "name": "", "height": null, "height_m": null, "levels": null, "tract_id": "40065968400", "tract_name": "9684", "tags": {"building": "yes"}}}, {"type": "Feature", "geometry": {"type": "Polygon", "coordinates": [[[-99.3348441, 34.6609271], [-99.3348424, 34.660878], [-99.33494, 34.6608757], [-99.3349418, 34.6609248], [-99.3348441, 34.6609271]]]}, "properties": {"osm_id": 1160901487, "building": "yes", "name": "", "height": null, "height_m": null, "levels": null, "tract_id": "40065968400", "tract_name": "9684", "tags": {"building": "yes"}}}, {"type": "Feature", "geometry": {"type": "Polygon", "coordinates": [[[-99.3347231, 34.6616461], [-99.3344964, 34.6616483], [-99.3344944, 34.6615074], [-99.334721, 34.6615052], [-99.3347231, 34.6616461]]]}, "properties": {"osm_id": 1160901488, "building": "yes", "name": "", "height": null, "height_m": null, "levels": null, "tract_id": "40065968400", "tract_name": "9684", "tags": {"building": "yes"}}}, {"type": "Feature", "geometry": {"type": "Polygon", "coordinates": [[[-99.3349638, 34.6623579], [-99.3349665, 34.6621837], [-99.3348316, 34.6621823], [-99.3348318, 34.6621712], [-99.3346685, 34.6621695], [-99.3346683, 34.6621794], [-99.3345689, 34.6621784], [-99.3345681, 34.6622278], [-99.334554, 34.6622276], [-99.3345528, 34.6623018], [-99.3345701, 34.662302], [-99.3345695, 34.6623415], [-99.334583, 34.6623416], [-99.3345828, 34.6623539], [-99.3349638, 34.6623579]]]}, "properties": {"osm_id": 1160901489, "building": "yes", "name": "", "height": null, "height_m": null, "levels": null, "tract_id": "40065968400", "tract_name": "9684", "tags": {"building": "yes"}}}, {"type": "Feature", "geometry": {"type": "Polygon", "coordinates": [[[-99.3336837, 34.6629964], [-99.3331864, 34.6629997], [-99.3331885, 34.6632212], [-99.3336859, 34.6632179], [-99.3336837, 34.6629964]]]}, "properties": {"osm_id": 1160901490, "building": "yes", "name": "", "height": null, "height_m": null, "levels": null, "tract_id": "40065968400", "tract_name": "9684", "tags": {"building": "yes"}}}, {"type": "Feature", "geometry": {"type": "Polygon", "coordinates": [[[-99.330752, 34.6634982], [-99.3318162, 34.663491], [-99.3318188, 34.6638034], [-99.3319074, 34.663804], [-99.3319409, 34.6637784], [-99.331985, 34.6638112], [-99.3319693, 34.6638213], [-99.3319712, 34.6639477], [-99.3319594, 34.6639543], [-99.3319565, 34.6643396], [-99.3319764, 34.6643544], [-99.3319751, 34.6644716], [-99.3319875, 34.6644821], [-99.3319389, 34.6645215], [-99.3319084, 34.664495], [-99.3318196, 34.6644959], [-99.3318236, 34.6648902], [-99.3317753, 34.6648916], [-99.331774, 34.6651048], [-99.3315554, 34.6651031], [-99.331562, 34.6648934], [-99.3312093, 34.6648918], [-99.3312083, 34.6650915], [-99.3310156, 34.665091], [-99.3310169, 34.6647937], [-99.3307487, 34.664797], [-99.330752, 34.6634982]]]}, "properties": {"osm_id": 1160901491, "building": "yes", "name": "", "height": null, "height_m": null, "levels": null, "tract_id": "40065968400", "tract_name": "9684", "tags": {"building": "yes"}}}, {"type": "Feature", "geometry": {"type": "Polygon", "coordinates": [[[-99.3289053, 34.6670963], [-99.3289964, 34.6670967], [-99.3289937, 34.6675434], [-99.3289027, 34.667543], [-99.3289053, 34.6670963]]]}, "properties": {"osm_id": 1160901492, "building": "yes", "name": "", "height": null, "height_m": null, "levels": null, "tract_id": "40065968400", "tract_name": "9684", "tags": {"building": "yes"}}}, {"type": "Feature", "geometry": {"type": "Polygon", "coordinates": [[[-99.3371722, 34.6720681], [-99.3371728, 34.6721494], [-99.3370268, 34.6721502], [-99.3370261, 34.6720688], [-99.3371722, 34.6720681]]]}, "properties": {"osm_id": 1160901493, "building": "yes", "name": "", "height": null, "height_m": null, "levels": null, "tract_id": "40065968400", "tract_name": "9684", "tags": {"building": "yes"}}}, {"type": "Feature", "geometry": {"type": "Polygon", "coordinates": [[[-99.3336266, 34.6725852], [-99.3329455, 34.6725809], [-99.332948, 34.6723075], [-99.3334173, 34.6723105], [-99.3334176, 34.6722796], [-99.3336295, 34.672281], [-99.3336266, 34.6725852]]]}, "properties": {"osm_id": 1160901494, "building": "yes", "name": "", "height": null, "height_m": null, "levels": null, "tract_id": "40065968400", "tract_name": "9684", "tags": {"building": "yes"}}}, {"type": "Feature", "geometry": {"type": "Polygon", "coordinates": [[[-99.3299684, 34.6715763], [-99.3298883, 34.6715767], [-99.3298877, 34.6714973], [-99.3299678, 34.6714969], [-99.3299684, 34.6715763]]]}, "properties": {"osm_id": 1160901495, "building": "yes", "name": "", "height": null, "height_m": null, "levels": null, "tract_id": "40065968400", "tract_name": "9684", "tags": {"building": "yes"}}}, {"type": "Feature", "geometry": {"type": "Polygon", "coordinates": [[[-99.3293975, 34.6713704], [-99.3293948, 34.6712645], [-99.3294961, 34.6712628], [-99.3294988, 34.6713686], [-99.3293975, 34.6713704]]]}, "properties": {"osm_id": 1160901496, "building": "yes", "name": "", "height": null, "height_m": null, "levels": null, "tract_id": "40065968400", "tract_name": "9684", "tags": {"building": "yes"}}}, {"type": "Feature", "geometry": {"type": "Polygon", "coordinates": [[[-99.3295082, 34.6715948], [-99.3293969, 34.6715932], [-99.3293988, 34.6715062], [-99.3295101, 34.6715078], [-99.3295082, 34.6715948]]]}, "properties": {"osm_id": 1160901497, "building": "yes", "name": "", "height": null, "height_m": null, "levels": null, "tract_id": "40065968400", "tract_name": "9684", "tags": {"building": "yes"}}}, {"type": "Feature", "geometry": {"type": "Polygon", "coordinates": [[[-99.327243, 34.6714925], [-99.3272084, 34.6714898], [-99.3272121, 34.6714573], [-99.3272468, 34.6714601], [-99.327243, 34.6714925]]]}, "properties": {"osm_id": 1160901498, "building": "yes", "name": "", "height": null, "height_m": null, "levels": null, "tract_id": "40065968400", "tract_name": "9684", "tags": {"building": "yes"}}}, {"type": "Feature", "geometry": {"type": "Polygon", "coordinates": [[[-99.3269732, 34.6714823], [-99.3269409, 34.6714812], [-99.3269425, 34.6714514], [-99.3269748, 34.6714525], [-99.3269732, 34.6714823]]]}, "properties": {"osm_id": 1160901499, "building": "yes", "name": "", "height": null, "height_m": null, "levels": null, "tract_id": "40065968400", "tract_name": "9684", "tags": {"building": "yes"}}}, {"type": "Feature", "geometry": {"type": "Polygon", "coordinates": [[[-99.327754, 34.6715187], [-99.3277084, 34.6715171], [-99.3277105, 34.6714786], [-99.3277561, 34.6714803], [-99.327754, 34.6715187]]]}, "properties": {"osm_id": 1160901500, "building": "yes", "name": "", "height": null, "height_m": null, "levels": null, "tract_id": "40065968400", "tract_name": "9684", "tags": {"building": "yes"}}}, {"type": "Feature", "geometry": {"type": "Polygon", "coordinates": [[[-99.3280093, 34.6713545], [-99.3277909, 34.6713551], [-99.3277903, 34.671214], [-99.3278709, 34.6712137], [-99.327871, 34.6712296], [-99.3279554, 34.6712293], [-99.3279554, 34.6712202], [-99.3280087, 34.67122], [-99.3280093, 34.6713545]]]}, "properties": {"osm_id": 1160901501, "building": "yes", "name": "", "height": null, "height_m": null, "levels": null, "tract_id": "40065968400", "tract_name": "9684", "tags": {"building": "yes"}}}, {"type": "Feature", "geometry": {"type": "Polygon", "coordinates": [[[-99.3203773, 34.6704852], [-99.3203767, 34.670459], [-99.3204183, 34.6704584], [-99.3204188, 34.6704847], [-99.3203773, 34.6704852]]]}, "properties": {"osm_id": 1160901503, "building": "yes", "name": "", "height": null, "height_m": null, "levels": null, "tract_id": "40065968400", "tract_name": "9684", "tags": {"building": "yes"}}}, {"type": "Feature", "geometry": {"type": "Polygon", "coordinates": [[[-99.3204141, 34.6706865], [-99.3203699, 34.6706871], [-99.3203695, 34.6706651], [-99.3204137, 34.6706645], [-99.3204141, 34.6706865]]]}, "properties": {"osm_id": 1160901504, "building": "yes", "name": "", "height": null, "height_m": null, "levels": null, "tract_id": "40065968400", "tract_name": "9684", "tags": {"building": "yes"}}}, {"type": "Feature", "geometry": {"type": "Polygon", "coordinates": [[[-99.3208178, 34.6700396], [-99.3207769, 34.670065], [-99.3207505, 34.6700362], [-99.3207914, 34.6700108], [-99.3208178, 34.6700396]]]}, "properties": {"osm_id": 1160901505, "building": "yes", "name": "", "height": null, "height_m": null, "levels": null, "tract_id": "40065968400", "tract_name": "9684", "tags": {"building": "yes"}}}, {"type": "Feature", "geometry": {"type": "Polygon", "coordinates": [[[-99.3209899, 34.6698812], [-99.3210159, 34.669868], [-99.3210392, 34.6698992], [-99.3210131, 34.6699124], [-99.3209899, 34.6698812]]]}, "properties": {"osm_id": 1160901506, "building": "yes", "name": "", "height": null, "height_m": null, "levels": null, "tract_id": "40065968400", "tract_name": "9684", "tags": {"building": "yes"}}}, {"type": "Feature", "geometry": {"type": "Polygon", "coordinates": [[[-99.321364, 34.6696999], [-99.3213813, 34.6696718], [-99.3214124, 34.6696848], [-99.3213952, 34.6697129], [-99.321364, 34.6696999]]]}, "properties": {"osm_id": 1160901507, "building": "yes", "name": "", "height": null, "height_m": null, "levels": null, "tract_id": "40065968400", "tract_name": "9684", "tags": {"building": "yes"}}}, {"type": "Feature", "geometry": {"type": "Polygon", "coordinates": [[[-99.3222326, 34.6654066], [-99.3220448, 34.6654051], [-99.3220458, 34.6653245], [-99.3222336, 34.6653261], [-99.3222326, 34.6654066]]]}, "properties": {"osm_id": 1160901511, "building": "yes", "name": "", "height": null, "height_m": null, "levels": null, "tract_id": "40065968400", "tract_name": "9684", "tags": {"building": "yes"}}}, {"type": "Feature", "geometry": {"type": "Polygon", "coordinates": [[[-99.3226679, 34.6654109], [-99.3227674, 34.6654088], [-99.3227714, 34.6655412], [-99.3226719, 34.6655432], [-99.3226679, 34.6654109]]]}, "properties": {"osm_id": 1160901512, "building": "yes", "name": "", "height": null, "height_m": null, "levels": null, "tract_id": "40065968400", "tract_name": "9684", "tags": {"building": "yes"}}}, {"type": "Feature", "geometry": {"type": "Polygon", "coordinates": [[[-99.323436, 34.6659947], [-99.3232331, 34.6660009], [-99.3232297, 34.6659264], [-99.3234326, 34.6659201], [-99.323436, 34.6659947]]]}, "properties": {"osm_id": 1160901513, "building": "yes", "name": "", "height": null, "height_m": null, "levels": null, "tract_id": "40065968400", "tract_name": "9684", "tags": {"building": "yes"}}}, {"type": "Feature", "geometry": {"type": "Polygon", "coordinates": [[[-99.3231875, 34.665958], [-99.3228566, 34.6659666], [-99.3228511, 34.6658226], [-99.323182, 34.6658141], [-99.3231875, 34.665958]]]}, "properties": {"osm_id": 1160901514, "building": "yes", "name": "", "height": null, "height_m": null, "levels": null, "tract_id": "40065968400", "tract_name": "9684", "tags": {"building": "yes"}}}, {"type": "Feature", "geometry": {"type": "Polygon", "coordinates": [[[-99.3213545, 34.6654331], [-99.3214455, 34.6654854], [-99.3213744, 34.6655571], [-99.3213164, 34.6657012], [-99.3214166, 34.6657271], [-99.3213868, 34.6658044], [-99.3212842, 34.6657773], [-99.3212594, 34.6658443], [-99.3211471, 34.6658455], [-99.3211471, 34.6658714], [-99.3209908, 34.6658707], [-99.3209908, 34.6658469], [-99.3208788, 34.6658488], [-99.3207581, 34.665546], [-99.3210673, 34.6653612], [-99.3212999, 34.665498], [-99.3213545, 34.6654331]]]}, "properties": {"osm_id": 1160901515, "building": "yes", "name": "", "height": null, "height_m": null, "levels": null, "tract_id": "40065968400", "tract_name": "9684", "tags": {"building": "yes"}}}, {"type": "Feature", "geometry": {"type": "Polygon", "coordinates": [[[-99.3171943, 34.6671264], [-99.3173004, 34.6671267], [-99.3172994, 34.6673482], [-99.3171933, 34.6673479], [-99.3171943, 34.6671264]]]}, "properties": {"osm_id": 1160901537, "building": "yes", "name": "", "height": null, "height_m": null, "levels": null, "tract_id": "40065968400", "tract_name": "9684", "tags": {"building": "yes"}}}, {"type": "Feature", "geometry": {"type": "Polygon", "coordinates": [[[-99.3170226, 34.6673479], [-99.3170226, 34.6671272], [-99.317126, 34.6671272], [-99.317126, 34.6673479], [-99.3170226, 34.6673479]]]}, "properties": {"osm_id": 1160901538, "building": "yes", "name": "", "height": null, "height_m": null, "levels": null, "tract_id": "40065968400", "tract_name": "9684", "tags": {"building": "yes"}}}, {"type": "Feature", "geometry": {"type": "Polygon", "coordinates": [[[-99.3168377, 34.6671327], [-99.316966, 34.6671312], [-99.3169698, 34.6673495], [-99.3168415, 34.667351], [-99.3168377, 34.6671327]]]}, "properties": {"osm_id": 1160901539, "building": "yes", "name": "", "height": null, "height_m": null, "levels": null, "tract_id": "40065968400", "tract_name": "9684", "tags": {"building": "yes"}}}, {"type": "Feature", "geometry": {"type": "Polygon", "coordinates": [[[-99.3172967, 34.6675382], [-99.316832, 34.6675398], [-99.3168314, 34.6674182], [-99.3172961, 34.6674167], [-99.3172967, 34.6675382]]]}, "properties": {"osm_id": 1160901540, "building": "yes", "name": "", "height": null, "height_m": null, "levels": null, "tract_id": "40065968400", "tract_name": "9684", "tags": {"building": "yes"}}}, {"type": "Feature", "geometry": {"type": "Polygon", "coordinates": [[[-99.3168339, 34.6677644], [-99.3168347, 34.6676242], [-99.3176294, 34.6676274], [-99.3176286, 34.6677675], [-99.3168339, 34.6677644]]]}, "properties": {"osm_id": 1160901541, "building": "yes", "name": "", "height": null, "height_m": null, "levels": null, "tract_id": "40065968400", "tract_name": "9684", "tags": {"building": "yes"}}}, {"type": "Feature", "geometry": {"type": "Polygon", "coordinates": [[[-99.3174579, 34.6671264], [-99.3176249, 34.6671259], [-99.3176268, 34.6675346], [-99.3174598, 34.6675351], [-99.3174579, 34.6671264]]]}, "properties": {"osm_id": 1160901542, "building": "yes", "name": "", "height": null, "height_m": null, "levels": null, "tract_id": "40065968400", "tract_name": "9684", "tags": {"building": "yes"}}}, {"type": "Feature", "geometry": {"type": "Polygon", "coordinates": [[[-99.3186452, 34.6674119], [-99.3186469, 34.6672355], [-99.3188821, 34.667237], [-99.3188804, 34.6674134], [-99.3186452, 34.6674119]]]}, "properties": {"osm_id": 1160901543, "building": "yes", "name": "", "height": null, "height_m": null, "levels": null, "tract_id": "40065968400", "tract_name": "9684", "tags": {"building": "yes"}}}, {"type": "Feature", "geometry": {"type": "Polygon", "coordinates": [[[-99.3227644, 34.6691446], [-99.3227118, 34.6691448], [-99.3227116, 34.6691157], [-99.3227642, 34.6691154], [-99.3227644, 34.6691446]]]}, "properties": {"osm_id": 1160901544, "building": "yes", "name": "", "height": null, "height_m": null, "levels": null, "tract_id": "40065968400", "tract_name": "9684", "tags": {"building": "yes"}}}, {"type": "Feature", "geometry": {"type": "Polygon", "coordinates": [[[-99.3313572, 34.6738244], [-99.331355, 34.6737964], [-99.3313996, 34.6737941], [-99.3314018, 34.673822], [-99.3313572, 34.6738244]]]}, "properties": {"osm_id": 1160901551, "building": "yes", "name": "", "height": null, "height_m": null, "levels": null, "tract_id": "40065968400", "tract_name": "9684", "tags": {"building": "yes"}}}, {"type": "Feature", "geometry": {"type": "Polygon", "coordinates": [[[-99.3315198, 34.67337], [-99.3315455, 34.6733486], [-99.3316327, 34.6734191], [-99.331607, 34.6734406], [-99.3315198, 34.67337]]]}, "properties": {"osm_id": 1160901552, "building": "yes", "name": "", "height": null, "height_m": null, "levels": null, "tract_id": "40065968400", "tract_name": "9684", "tags": {"building": "yes"}}}, {"type": "Feature", "geometry": {"type": "Polygon", "coordinates": [[[-99.3285372, 34.6733656], [-99.3285372, 34.6732912], [-99.3285795, 34.6732912], [-99.3285795, 34.6733656], [-99.3285372, 34.6733656]]]}, "properties": {"osm_id": 1160901553, "building": "yes", "name": "", "height": null, "height_m": null, "levels": null, "tract_id": "40065968400", "tract_name": "9684", "tags": {"building": "yes"}}}, {"type": "Feature", "geometry": {"type": "Polygon", "coordinates": [[[-99.3282055, 34.6734017], [-99.3281761, 34.6734021], [-99.3281756, 34.6733787], [-99.328205, 34.6733784], [-99.3282055, 34.6734017]]]}, "properties": {"osm_id": 1160901555, "building": "yes", "name": "", "height": null, "height_m": null, "levels": null, "tract_id": "40065968400", "tract_name": "9684", "tags": {"building": "yes"}}}, {"type": "Feature", "geometry": {"type": "Polygon", "coordinates": [[[-99.3276583, 34.6734372], [-99.3276593, 34.673383], [-99.3277044, 34.6733835], [-99.3277035, 34.6734377], [-99.3276583, 34.6734372]]]}, "properties": {"osm_id": 1160901556, "building": "yes", "name": "", "height": null, "height_m": null, "levels": null, "tract_id": "40065968400", "tract_name": "9684", "tags": {"building": "yes"}}}, {"type": "Feature", "geometry": {"type": "Polygon", "coordinates": [[[-99.3294391, 34.6725566], [-99.3293452, 34.6725549], [-99.3293473, 34.6724764], [-99.3294412, 34.672478], [-99.3294391, 34.6725566]]]}, "properties": {"osm_id": 1160901558, "building": "yes", "name": "", "height": null, "height_m": null, "levels": null, "tract_id": "40065968400", "tract_name": "9684", "tags": {"building": "yes"}}}, {"type": "Feature", "geometry": {"type": "Polygon", "coordinates": [[[-99.331581, 34.6705074], [-99.3314511, 34.670509], [-99.33145, 34.670447], [-99.3315799, 34.6704455], [-99.331581, 34.6705074]]]}, "properties": {"osm_id": 1160901560, "building": "yes", "name": "", "height": null, "height_m": null, "levels": null, "tract_id": "40065968400", "tract_name": "9684", "tags": {"building": "yes"}}}, {"type": "Feature", "geometry": {"type": "Polygon", "coordinates": [[[-99.3260258, 34.6696413], [-99.3260962, 34.6696425], [-99.3260943, 34.6697228], [-99.3260239, 34.6697217], [-99.3260258, 34.6696413]]]}, "properties": {"osm_id": 1160901561, "building": "yes", "name": "", "height": null, "height_m": null, "levels": null, "tract_id": "40065968400", "tract_name": "9684", "tags": {"building": "yes"}}}, {"type": "Feature", "geometry": {"type": "Polygon", "coordinates": [[[-99.3296483, 34.6706751], [-99.3295767, 34.6706767], [-99.3295754, 34.6706348], [-99.329647, 34.6706332], [-99.3296483, 34.6706751]]]}, "properties": {"osm_id": 1160901562, "building": "yes", "name": "", "height": null, "height_m": null, "levels": null, "tract_id": "40065968400", "tract_name": "9684", "tags": {"building": "yes"}}}, {"type": "Feature", "geometry": {"type": "Polygon", "coordinates": [[[-99.3296782, 34.6708393], [-99.3296792, 34.6709229], [-99.3295815, 34.6709237], [-99.3295805, 34.6708401], [-99.3296782, 34.6708393]]]}, "properties": {"osm_id": 1160901563, "building": "yes", "name": "", "height": null, "height_m": null, "levels": null, "tract_id": "40065968400", "tract_name": "9684", "tags": {"building": "yes"}}}, {"type": "Feature", "geometry": {"type": "Polygon", "coordinates": [[[-99.3322571, 34.65777], [-99.332168, 34.6577711], [-99.3321666, 34.6577015], [-99.3322558, 34.6577003], [-99.3322571, 34.65777]]]}, "properties": {"osm_id": 1160901566, "building": "yes", "name": "", "height": null, "height_m": null, "levels": null, "tract_id": "40065968400", "tract_name": "9684", "tags": {"building": "yes"}}}, {"type": "Feature", "geometry": {"type": "Polygon", "coordinates": [[[-99.3317394, 34.6560722], [-99.3317488, 34.6554872], [-99.3321962, 34.6554921], [-99.3321867, 34.6560771], [-99.3317394, 34.6560722]]]}, "properties": {"osm_id": 1160901567, "building": "yes", "name": "", "height": null, "height_m": null, "levels": null, "tract_id": "40065968400", "tract_name": "9684", "tags": {"building": "yes"}}}, {"type": "Feature", "geometry": {"type": "Polygon", "coordinates": [[[-99.3337206, 34.655821], [-99.3334765, 34.6558188], [-99.3334775, 34.6557435], [-99.3337216, 34.6557457], [-99.3337206, 34.655821]]]}, "properties": {"osm_id": 1160901568, "building": "yes", "name": "", "height": null, "height_m": null, "levels": null, "tract_id": "40065968400", "tract_name": "9684", "tags": {"building": "yes"}}}, {"type": "Feature", "geometry": {"type": "Polygon", "coordinates": [[[-99.3335221, 34.6553036], [-99.333325, 34.6553455], [-99.333329, 34.6552755], [-99.3335248, 34.6552314], [-99.3335221, 34.6553036]]]}, "properties": {"osm_id": 1160901569, "building": "roof", "name": "", "height": null, "height_m": null, "levels": null, "tract_id": "40065968400", "tract_name": "9684", "tags": {"building": "roof", "layer": "1"}}}, {"type": "Feature", "geometry": {"type": "Polygon", "coordinates": [[[-99.3330076, 34.6554258], [-99.3327778, 34.6554309], [-99.3327672, 34.6551109], [-99.3329971, 34.6551057], [-99.3330024, 34.6551905], [-99.3330722, 34.6552501], [-99.3330051, 34.6552953], [-99.3330076, 34.6554258]]]}, "properties": {"osm_id": 1160901570, "building": "yes", "name": "", "height": null, "height_m": null, "levels": null, "tract_id": "40065968400", "tract_name": "9684", "tags": {"building": "yes"}}}, {"type": "Feature", "geometry": {"type": "Polygon", "coordinates": [[[-99.3301756, 34.6510282], [-99.3301775, 34.6509556], [-99.3303558, 34.6509587], [-99.3303539, 34.6510313], [-99.3301756, 34.6510282]]]}, "properties": {"osm_id": 1160901571, "building": "yes", "name": "", "height": null, "height_m": null, "levels": null, "tract_id": "40065968400", "tract_name": "9684", "tags": {"building": "yes"}}}, {"type": "Feature", "geometry": {"type": "Polygon", "coordinates": [[[-99.3301016, 34.6506171], [-99.3301014, 34.6505032], [-99.3304314, 34.6505028], [-99.3304316, 34.6506167], [-99.3301016, 34.6506171]]]}, "properties": {"osm_id": 1160901572, "building": "yes", "name": "", "height": null, "height_m": null, "levels": null, "tract_id": "40065968400", "tract_name": "9684", "tags": {"building": "yes"}}}, {"type": "Feature", "geometry": {"type": "Polygon", "coordinates": [[[-99.3306516, 34.6505087], [-99.3307602, 34.6505106], [-99.3307574, 34.650619], [-99.3306488, 34.6506171], [-99.3306516, 34.6505087]]]}, "properties": {"osm_id": 1160901573, "building": "yes", "name": "", "height": null, "height_m": null, "levels": null, "tract_id": "40065968400", "tract_name": "9684", "tags": {"building": "yes"}}}, {"type": "Feature", "geometry": {"type": "Polygon", "coordinates": [[[-99.3396831, 34.6543869], [-99.3394391, 34.6543836], [-99.3394409, 34.6542906], [-99.339685, 34.6542939], [-99.3396831, 34.6543869]]]}, "properties": {"osm_id": 1161101811, "building": "yes", "name": "", "height": null, "height_m": null, "levels": null, "tract_id": "40065968400", "tract_name": "9684", "tags": {"building": "yes"}}}, {"type": "Feature", "geometry": {"type": "Polygon", "coordinates": [[[-99.3426866, 34.652423], [-99.3426885, 34.6523395], [-99.3428858, 34.6523426], [-99.3428838, 34.6524261], [-99.3426866, 34.652423]]]}, "properties": {"osm_id": 1161188199, "building": "yes", "name": "", "height": null, "height_m": null, "levels": null, "tract_id": "40065968400", "tract_name": "9684", "tags": {"building": "yes"}}}, {"type": "Feature", "geometry": {"type": "Polygon", "coordinates": [[[-99.368763, 34.6411406], [-99.3686635, 34.6411421], [-99.3686621, 34.641083], [-99.3687617, 34.6410814], [-99.368763, 34.6411406]]]}, "properties": {"osm_id": 1161188215, "building": "yes", "name": "", "height": null, "height_m": null, "levels": null, "tract_id": "40065968400", "tract_name": "9684", "tags": {"building": "yes"}}}, {"type": "Feature", "geometry": {"type": "Polygon", "coordinates": [[[-99.3678897, 34.6409845], [-99.3678934, 34.6411297], [-99.3678365, 34.6411307], [-99.3678328, 34.6409856], [-99.3678897, 34.6409845]]]}, "properties": {"osm_id": 1161188216, "building": "yes", "name": "", "height": null, "height_m": null, "levels": null, "tract_id": "40065968400", "tract_name": "9684", "tags": {"building": "yes"}}}, {"type": "Feature", "geometry": {"type": "Polygon", "coordinates": [[[-99.3206462, 34.6811498], [-99.3206487, 34.6810877], [-99.3207492, 34.6810905], [-99.3207467, 34.6811525], [-99.3206462, 34.6811498]]]}, "properties": {"osm_id": 1161188240, "building": "yes", "name": "", "height": null, "height_m": null, "levels": null, "tract_id": "40065968400", "tract_name": "9684", "tags": {"building": "yes"}}}, {"type": "Feature", "geometry": {"type": "Polygon", "coordinates": [[[-99.3209901, 34.6811034], [-99.3209137, 34.681104], [-99.3209129, 34.6810281], [-99.3209893, 34.6810275], [-99.3209901, 34.6811034]]]}, "properties": {"osm_id": 1161188241, "building": "yes", "name": "", "height": null, "height_m": null, "levels": null, "tract_id": "40065968400", "tract_name": "9684", "tags": {"building": "yes"}}}, {"type": "Feature", "geometry": {"type": "Polygon", "coordinates": [[[-99.341735, 34.65643], [-99.341556, 34.6564316], [-99.3415548, 34.6563482], [-99.3417339, 34.6563465], [-99.341735, 34.65643]]]}, "properties": {"osm_id": 1161188242, "building": "yes", "name": "", "height": null, "height_m": null, "levels": null, "tract_id": "40065968400", "tract_name": "9684", "tags": {"building": "yes"}}}, {"type": "Feature", "geometry": {"type": "Polygon", "coordinates": [[[-99.3692391, 34.6444294], [-99.3692458, 34.6446336], [-99.3691926, 34.6446347], [-99.3691859, 34.6444306], [-99.3692391, 34.6444294]]]}, "properties": {"osm_id": 1161188243, "building": "yes", "name": "", "height": null, "height_m": null, "levels": null, "tract_id": "40065968400", "tract_name": "9684", "tags": {"building": "yes"}}}, {"type": "Feature", "geometry": {"type": "Polygon", "coordinates": [[[-99.3679873, 34.6438993], [-99.3680925, 34.6438149], [-99.3682035, 34.6439086], [-99.3680983, 34.6439929], [-99.3679873, 34.6438993]]]}, "properties": {"osm_id": 1161188244, "building": "yes", "name": "", "height": null, "height_m": null, "levels": null, "tract_id": "40065968400", "tract_name": "9684", "tags": {"building": "yes"}}}, {"type": "Feature", "geometry": {"type": "Polygon", "coordinates": [[[-99.3691433, 34.6423936], [-99.3691426, 34.642326], [-99.3692507, 34.6423252], [-99.3692514, 34.6423928], [-99.3691433, 34.6423936]]]}, "properties": {"osm_id": 1161188245, "building": "yes", "name": "", "height": null, "height_m": null, "levels": null, "tract_id": "40065968400", "tract_name": "9684", "tags": {"building": "yes"}}}, {"type": "Feature", "geometry": {"type": "Polygon", "coordinates": [[[-99.3691822, 34.6420893], [-99.3691809, 34.6420195], [-99.369308, 34.6420179], [-99.3693093, 34.6420877], [-99.3691822, 34.6420893]]]}, "properties": {"osm_id": 1161188246, "building": "yes", "name": "", "height": null, "height_m": null, "levels": null, "tract_id": "40065968400", "tract_name": "9684", "tags": {"building": "yes"}}}, {"type": "Feature", "geometry": {"type": "Polygon", "coordinates": [[[-99.3696051, 34.6418233], [-99.369405, 34.6418318], [-99.3693962, 34.6416922], [-99.3695963, 34.6416836], [-99.3696051, 34.6418233]]]}, "properties": {"osm_id": 1161188247, "building": "yes", "name": "", "height": null, "height_m": null, "levels": null, "tract_id": "40065968400", "tract_name": "9684", "tags": {"building": "yes"}}}, {"type": "Feature", "geometry": {"type": "Polygon", "coordinates": [[[-99.3709973, 34.6405192], [-99.3708836, 34.6405172], [-99.3708863, 34.6404135], [-99.3709999, 34.6404155], [-99.3709973, 34.6405192]]]}, "properties": {"osm_id": 1161188248, "building": "yes", "name": "", "height": null, "height_m": null, "levels": null, "tract_id": "40065968400", "tract_name": "9684", "tags": {"building": "yes"}}}, {"type": "Feature", "geometry": {"type": "Polygon", "coordinates": [[[-99.3685961, 34.638129], [-99.3687295, 34.6381306], [-99.3687267, 34.6382913], [-99.3685933, 34.6382897], [-99.3685961, 34.638129]]]}, "properties": {"osm_id": 1161188249, "building": "yes", "name": "", "height": null, "height_m": null, "levels": null, "tract_id": "40065968400", "tract_name": "9684", "tags": {"building": "yes"}}}, {"type": "Feature", "geometry": {"type": "Polygon", "coordinates": [[[-99.3687013, 34.6383941], [-99.3687872, 34.6383935], [-99.3687899, 34.6386671], [-99.368704, 34.6386677], [-99.3687013, 34.6383941]]]}, "properties": {"osm_id": 1161188250, "building": "yes", "name": "", "height": null, "height_m": null, "levels": null, "tract_id": "40065968400", "tract_name": "9684", "tags": {"building": "yes"}}}, {"type": "Feature", "geometry": {"type": "Polygon", "coordinates": [[[-99.3683499, 34.6388266], [-99.3680388, 34.6388255], [-99.3680391, 34.6387625], [-99.3683502, 34.6387636], [-99.3683499, 34.6388266]]]}, "properties": {"osm_id": 1161188251, "building": "yes", "name": "", "height": null, "height_m": null, "levels": null, "tract_id": "40065968400", "tract_name": "9684", "tags": {"building": "yes"}}}, {"type": "Feature", "geometry": {"type": "Polygon", "coordinates": [[[-99.3701533, 34.6394694], [-99.3700205, 34.6394694], [-99.3700205, 34.6393321], [-99.3701533, 34.6393321], [-99.3701533, 34.6394694]]]}, "properties": {"osm_id": 1161188252, "building": "yes", "name": "", "height": null, "height_m": null, "levels": null, "tract_id": "40065968400", "tract_name": "9684", "tags": {"building": "yes"}}}, {"type": "Feature", "geometry": {"type": "Polygon", "coordinates": [[[-99.3694193, 34.6391191], [-99.3694822, 34.6390533], [-99.3696918, 34.639189], [-99.3696288, 34.6392548], [-99.3694193, 34.6391191]]]}, "properties": {"osm_id": 1161188253, "building": "yes", "name": "", "height": null, "height_m": null, "levels": null, "tract_id": "40065968400", "tract_name": "9684", "tags": {"building": "yes"}}}, {"type": "Feature", "geometry": {"type": "Polygon", "coordinates": [[[-99.370379, 34.6390318], [-99.3703857, 34.6387074], [-99.3704855, 34.6387088], [-99.3704788, 34.6390332], [-99.370379, 34.6390318]]]}, "properties": {"osm_id": 1161188254, "building": "yes", "name": "", "height": null, "height_m": null, "levels": null, "tract_id": "40065968400", "tract_name": "9684", "tags": {"building": "yes"}}}, {"type": "Feature", "geometry": {"type": "Polygon", "coordinates": [[[-99.3704946, 34.6385518], [-99.3703987, 34.6385525], [-99.3703978, 34.6384502], [-99.3704937, 34.6384496], [-99.3704946, 34.6385518]]]}, "properties": {"osm_id": 1161188255, "building": "yes", "name": "", "height": null, "height_m": null, "levels": null, "tract_id": "40065968400", "tract_name": "9684", "tags": {"building": "yes"}}}, {"type": "Feature", "geometry": {"type": "Polygon", "coordinates": [[[-99.3701698, 34.6386357], [-99.3701778, 34.6384448], [-99.3703172, 34.6384488], [-99.3703091, 34.6386397], [-99.3701698, 34.6386357]]]}, "properties": {"osm_id": 1161188256, "building": "yes", "name": "", "height": null, "height_m": null, "levels": null, "tract_id": "40065968400", "tract_name": "9684", "tags": {"building": "yes"}}}, {"type": "Feature", "geometry": {"type": "Polygon", "coordinates": [[[-99.3697715, 34.6382109], [-99.3699098, 34.6382132], [-99.3699044, 34.6384317], [-99.3697661, 34.6384294], [-99.3697715, 34.6382109]]]}, "properties": {"osm_id": 1161188257, "building": "yes", "name": "", "height": null, "height_m": null, "levels": null, "tract_id": "40065968400", "tract_name": "9684", "tags": {"building": "yes"}}}, {"type": "Feature", "geometry": {"type": "Polygon", "coordinates": [[[-99.3241149, 34.6786661], [-99.3240894, 34.6786943], [-99.3240371, 34.6786622], [-99.3240626, 34.6786341], [-99.3241149, 34.6786661]]]}, "properties": {"osm_id": 1161188338, "building": "yes", "name": "", "height": null, "height_m": null, "levels": null, "tract_id": "40065968400", "tract_name": "9684", "tags": {"building": "yes"}}}, {"type": "Feature", "geometry": {"type": "Polygon", "coordinates": [[[-99.3240499, 34.6798164], [-99.3240502, 34.6798622], [-99.3240085, 34.6798624], [-99.3240081, 34.6798166], [-99.3240499, 34.6798164]]]}, "properties": {"osm_id": 1161188339, "building": "yes", "name": "", "height": null, "height_m": null, "levels": null, "tract_id": "40065968400", "tract_name": "9684", "tags": {"building": "yes"}}}, {"type": "Feature", "geometry": {"type": "Polygon", "coordinates": [[[-99.324015, 34.6800767], [-99.324016, 34.6800454], [-99.3240562, 34.6800463], [-99.3240552, 34.6800775], [-99.324015, 34.6800767]]]}, "properties": {"osm_id": 1161188340, "building": "yes", "name": "", "height": null, "height_m": null, "levels": null, "tract_id": "40065968400", "tract_name": "9684", "tags": {"building": "yes"}}}, {"type": "Feature", "geometry": {"type": "Polygon", "coordinates": [[[-99.3210482, 34.6815894], [-99.3210492, 34.6816504], [-99.32098, 34.6816512], [-99.3209789, 34.6815902], [-99.3210482, 34.6815894]]]}, "properties": {"osm_id": 1161188341, "building": "yes", "name": "", "height": null, "height_m": null, "levels": null, "tract_id": "40065968400", "tract_name": "9684", "tags": {"building": "yes"}}}, {"type": "Feature", "geometry": {"type": "Polygon", "coordinates": [[[-99.3210937, 34.6819645], [-99.320905, 34.6819629], [-99.3209073, 34.6817749], [-99.321096, 34.6817765], [-99.3210937, 34.6819645]]]}, "properties": {"osm_id": 1161188342, "building": "yes", "name": "", "height": null, "height_m": null, "levels": null, "tract_id": "40065968400", "tract_name": "9684", "tags": {"building": "yes"}}}, {"type": "Feature", "geometry": {"type": "Polygon", "coordinates": [[[-99.3175623, 34.6804925], [-99.3176109, 34.6803766], [-99.317809, 34.6804329], [-99.3177604, 34.6805487], [-99.3175623, 34.6804925]]]}, "properties": {"osm_id": 1161188343, "building": "yes", "name": "", "height": null, "height_m": null, "levels": null, "tract_id": "40065968400", "tract_name": "9684", "tags": {"building": "yes"}}}, {"type": "Feature", "geometry": {"type": "Polygon", "coordinates": [[[-99.3171291, 34.6789463], [-99.3170138, 34.6789446], [-99.3170156, 34.6788598], [-99.3171309, 34.6788614], [-99.3171291, 34.6789463]]]}, "properties": {"osm_id": 1161188344, "building": "yes", "name": "", "height": null, "height_m": null, "levels": null, "tract_id": "40065968400", "tract_name": "9684", "tags": {"building": "yes"}}}, {"type": "Feature", "geometry": {"type": "Polygon", "coordinates": [[[-99.3179405, 34.6771359], [-99.3179304, 34.6772501], [-99.317857, 34.6772457], [-99.3178671, 34.6771315], [-99.3179405, 34.6771359]]]}, "properties": {"osm_id": 1161188346, "building": "yes", "name": "", "height": null, "height_m": null, "levels": null, "tract_id": "40065968400", "tract_name": "9684", "tags": {"building": "yes"}}}, {"type": "Feature", "geometry": {"type": "Polygon", "coordinates": [[[-99.3183863, 34.6775054], [-99.3183937, 34.6774274], [-99.3185028, 34.6774344], [-99.3184953, 34.6775124], [-99.3183863, 34.6775054]]]}, "properties": {"osm_id": 1161188347, "building": "yes", "name": "", "height": null, "height_m": null, "levels": null, "tract_id": "40065968400", "tract_name": "9684", "tags": {"building": "yes"}}}, {"type": "Feature", "geometry": {"type": "Polygon", "coordinates": [[[-99.3189443, 34.6779327], [-99.3189502, 34.6778369], [-99.3192023, 34.6778474], [-99.3191964, 34.6779432], [-99.3189443, 34.6779327]]]}, "properties": {"osm_id": 1161188348, "building": "yes", "name": "", "height": null, "height_m": null, "levels": null, "tract_id": "40065968400", "tract_name": "9684", "tags": {"building": "yes"}}}, {"type": "Feature", "geometry": {"type": "Polygon", "coordinates": [[[-99.3195043, 34.6775467], [-99.3195074, 34.6774787], [-99.3196107, 34.6774818], [-99.3196077, 34.6775498], [-99.3195043, 34.6775467]]]}, "properties": {"osm_id": 1161188349, "building": "yes", "name": "", "height": null, "height_m": null, "levels": null, "tract_id": "40065968400", "tract_name": "9684", "tags": {"building": "yes"}}}, {"type": "Feature", "geometry": {"type": "Polygon", "coordinates": [[[-99.320079, 34.6775791], [-99.3199766, 34.6775744], [-99.3199814, 34.6775035], [-99.3200838, 34.6775081], [-99.320079, 34.6775791]]]}, "properties": {"osm_id": 1161188350, "building": "yes", "name": "", "height": null, "height_m": null, "levels": null, "tract_id": "40065968400", "tract_name": "9684", "tags": {"building": "yes"}}}, {"type": "Feature", "geometry": {"type": "Polygon", "coordinates": [[[-99.319116, 34.6764858], [-99.3191106, 34.6766005], [-99.3189965, 34.6765968], [-99.3190018, 34.6764821], [-99.319116, 34.6764858]]]}, "properties": {"osm_id": 1161289996, "building": "yes", "name": "", "height": null, "height_m": null, "levels": null, "tract_id": "40065968400", "tract_name": "9684", "tags": {"building": "yes"}}}, {"type": "Feature", "geometry": {"type": "Polygon", "coordinates": [[[-99.317732, 34.6966252], [-99.3177345, 34.6966884], [-99.3176217, 34.6966915], [-99.3176191, 34.6966283], [-99.317732, 34.6966252]]]}, "properties": {"osm_id": 1161290006, "building": "yes", "name": "", "height": null, "height_m": null, "levels": null, "tract_id": "40065968400", "tract_name": "9684", "tags": {"building": "yes"}}}, {"type": "Feature", "geometry": {"type": "Polygon", "coordinates": [[[-99.3332995, 34.7099766], [-99.3333032, 34.7099029], [-99.3334641, 34.7099084], [-99.3334604, 34.7099821], [-99.3332995, 34.7099766]]]}, "properties": {"osm_id": 1161290014, "building": "yes", "name": "", "height": null, "height_m": null, "levels": null, "tract_id": "40065968400", "tract_name": "9684", "tags": {"building": "yes"}}}, {"type": "Feature", "geometry": {"type": "Polygon", "coordinates": [[[-99.3354662, 34.7035126], [-99.3355601, 34.703508], [-99.3355715, 34.7036654], [-99.3354776, 34.70367], [-99.3354662, 34.7035126]]]}, "properties": {"osm_id": 1161290022, "building": "yes", "name": "", "height": null, "height_m": null, "levels": null, "tract_id": "40065968400", "tract_name": "9684", "tags": {"building": "yes"}}}, {"type": "Feature", "geometry": {"type": "Polygon", "coordinates": [[[-99.3355686, 34.7039429], [-99.3354283, 34.7039445], [-99.3354266, 34.7038433], [-99.3355669, 34.7038417], [-99.3355686, 34.7039429]]]}, "properties": {"osm_id": 1161290023, "building": "yes", "name": "", "height": null, "height_m": null, "levels": null, "tract_id": "40065968400", "tract_name": "9684", "tags": {"building": "yes"}}}, {"type": "Feature", "geometry": {"type": "Polygon", "coordinates": [[[-99.3309438, 34.6953773], [-99.3310412, 34.6953785], [-99.3310385, 34.6955197], [-99.3309411, 34.6955184], [-99.3309438, 34.6953773]]]}, "properties": {"osm_id": 1161290024, "building": "yes", "name": "", "height": null, "height_m": null, "levels": null, "tract_id": "40065968400", "tract_name": "9684", "tags": {"building": "yes"}}}, {"type": "Feature", "geometry": {"type": "Polygon", "coordinates": [[[-99.3306394, 34.6945856], [-99.3307255, 34.6945851], [-99.3307268, 34.6947571], [-99.3306407, 34.6947576], [-99.3306394, 34.6945856]]]}, "properties": {"osm_id": 1161290025, "building": "yes", "name": "", "height": null, "height_m": null, "levels": null, "tract_id": "40065968400", "tract_name": "9684", "tags": {"building": "yes"}}}, {"type": "Feature", "geometry": {"type": "Polygon", "coordinates": [[[-99.3313797, 34.692141], [-99.3312456, 34.6921421], [-99.3312448, 34.6920805], [-99.3313789, 34.6920794], [-99.3313797, 34.692141]]]}, "properties": {"osm_id": 1161290026, "building": "yes", "name": "", "height": null, "height_m": null, "levels": null, "tract_id": "40065968400", "tract_name": "9684", "tags": {"building": "yes"}}}, {"type": "Feature", "geometry": {"type": "Polygon", "coordinates": [[[-99.3314347, 34.6921432], [-99.3314322, 34.6920639], [-99.3316387, 34.6920595], [-99.3316412, 34.6921388], [-99.3314347, 34.6921432]]]}, "properties": {"osm_id": 1161290027, "building": "yes", "name": "", "height": null, "height_m": null, "levels": null, "tract_id": "40065968400", "tract_name": "9684", "tags": {"building": "yes"}}}, {"type": "Feature", "geometry": {"type": "Polygon", "coordinates": [[[-99.3325625, 34.6923384], [-99.3325492, 34.6920655], [-99.3327175, 34.69206], [-99.3327308, 34.6923329], [-99.3325625, 34.6923384]]]}, "properties": {"osm_id": 1161290028, "building": "yes", "name": "", "height": null, "height_m": null, "levels": null, "tract_id": "40065968400", "tract_name": "9684", "tags": {"building": "yes"}}}, {"type": "Feature", "geometry": {"type": "Polygon", "coordinates": [[[-99.3319328, 34.6917537], [-99.3319318, 34.6915773], [-99.3323396, 34.6915758], [-99.3323406, 34.6917521], [-99.3319328, 34.6917537]]]}, "properties": {"osm_id": 1161290029, "building": "yes", "name": "", "height": null, "height_m": null, "levels": null, "tract_id": "40065968400", "tract_name": "9684", "tags": {"building": "yes"}}}, {"type": "Feature", "geometry": {"type": "Polygon", "coordinates": [[[-99.3348539, 34.6855871], [-99.3349711, 34.6855849], [-99.3349684, 34.6854873], [-99.3348586, 34.6854894], [-99.334857, 34.6854314], [-99.3347328, 34.6854338], [-99.3347354, 34.6855254], [-99.3346563, 34.6855269], [-99.3346582, 34.6855943], [-99.3347359, 34.6855929], [-99.334738, 34.6856668], [-99.3348561, 34.6856646], [-99.3348539, 34.6855871]]]}, "properties": {"osm_id": 1161290030, "building": "yes", "name": "", "height": null, "height_m": null, "levels": null, "tract_id": "40065968400", "tract_name": "9684", "tags": {"building": "yes"}}}, {"type": "Feature", "geometry": {"type": "Polygon", "coordinates": [[[-99.3349152, 34.685302], [-99.3349124, 34.6851039], [-99.3349881, 34.6851032], [-99.3349909, 34.6853013], [-99.3349152, 34.685302]]]}, "properties": {"osm_id": 1161290031, "building": "yes", "name": "", "height": null, "height_m": null, "levels": null, "tract_id": "40065968400", "tract_name": "9684", "tags": {"building": "yes"}}}, {"type": "Feature", "geometry": {"type": "Polygon", "coordinates": [[[-99.334883, 34.6849581], [-99.3348811, 34.6850688], [-99.3347975, 34.6850679], [-99.3347993, 34.6849571], [-99.334883, 34.6849581]]]}, "properties": {"osm_id": 1161290032, "building": "yes", "name": "", "height": null, "height_m": null, "levels": null, "tract_id": "40065968400", "tract_name": "9684", "tags": {"building": "yes"}}}, {"type": "Feature", "geometry": {"type": "Polygon", "coordinates": [[[-99.3449198, 34.6819302], [-99.3448212, 34.6819294], [-99.3448218, 34.681877], [-99.3449204, 34.6818778], [-99.3449198, 34.6819302]]]}, "properties": {"osm_id": 1161290033, "building": "yes", "name": "", "height": null, "height_m": null, "levels": null, "tract_id": "40065968400", "tract_name": "9684", "tags": {"building": "yes"}}}, {"type": "Feature", "geometry": {"type": "Polygon", "coordinates": [[[-99.3439411, 34.6817337], [-99.3439364, 34.681839], [-99.3438704, 34.681837], [-99.3438751, 34.6817317], [-99.3439411, 34.6817337]]]}, "properties": {"osm_id": 1161290034, "building": "yes", "name": "", "height": null, "height_m": null, "levels": null, "tract_id": "40065968400", "tract_name": "9684", "tags": {"building": "yes"}}}, {"type": "Feature", "geometry": {"type": "Polygon", "coordinates": [[[-99.3440404, 34.6817359], [-99.344037, 34.6818175], [-99.3439579, 34.6818153], [-99.3439613, 34.6817337], [-99.3440404, 34.6817359]]]}, "properties": {"osm_id": 1161290035, "building": "yes", "name": "", "height": null, "height_m": null, "levels": null, "tract_id": "40065968400", "tract_name": "9684", "tags": {"building": "yes"}}}, {"type": "Feature", "geometry": {"type": "Polygon", "coordinates": [[[-99.3441731, 34.6818605], [-99.3441752, 34.681919], [-99.3441193, 34.6819203], [-99.3441173, 34.6818618], [-99.3441731, 34.6818605]]]}, "properties": {"osm_id": 1161290036, "building": "yes", "name": "", "height": null, "height_m": null, "levels": null, "tract_id": "40065968400", "tract_name": "9684", "tags": {"building": "yes"}}}, {"type": "Feature", "geometry": {"type": "Polygon", "coordinates": [[[-99.3384401, 34.6699124], [-99.338442, 34.6691652], [-99.3385843, 34.6691654], [-99.3385824, 34.6699126], [-99.3384401, 34.6699124]]]}, "properties": {"osm_id": 1161290040, "building": "yes", "name": "", "height": null, "height_m": null, "levels": null, "tract_id": "40065968400", "tract_name": "9684", "tags": {"building": "yes"}}}, {"type": "Feature", "geometry": {"type": "Polygon", "coordinates": [[[-99.3418725, 34.6683574], [-99.3412507, 34.6683506], [-99.3412438, 34.668781], [-99.3409629, 34.6687779], [-99.3409703, 34.6683156], [-99.3405843, 34.6683114], [-99.3405898, 34.6679667], [-99.341018, 34.6679714], [-99.3410189, 34.6679167], [-99.3410204, 34.6678201], [-99.3414517, 34.6678248], [-99.3414502, 34.6679231], [-99.3418794, 34.6679277], [-99.3418725, 34.6683574]]]}, "properties": {"osm_id": 1161290046, "building": "yes", "name": "", "height": null, "height_m": null, "levels": null, "tract_id": "40065968400", "tract_name": "9684", "tags": {"building": "yes"}}}, {"type": "Feature", "geometry": {"type": "Polygon", "coordinates": [[[-99.333333, 34.6506249], [-99.3334429, 34.6506253], [-99.3334422, 34.6507489], [-99.3333323, 34.6507485], [-99.333333, 34.6506249]]]}, "properties": {"osm_id": 1161290049, "building": "yes", "name": "", "height": null, "height_m": null, "levels": null, "tract_id": "40065968400", "tract_name": "9684", "tags": {"building": "yes"}}}, {"type": "Feature", "geometry": {"type": "Polygon", "coordinates": [[[-99.3396154, 34.6548066], [-99.3394592, 34.6548088], [-99.3394573, 34.6547216], [-99.3396136, 34.6547194], [-99.3396154, 34.6548066]]]}, "properties": {"osm_id": 1161290050, "building": "yes", "name": "", "height": null, "height_m": null, "levels": null, "tract_id": "40065968400", "tract_name": "9684", "tags": {"building": "yes"}}}, {"type": "Feature", "geometry": {"type": "Polygon", "coordinates": [[[-99.3415382, 34.6542866], [-99.3413846, 34.6542469], [-99.3414186, 34.654158], [-99.3415722, 34.6541977], [-99.3415382, 34.6542866]]]}, "properties": {"osm_id": 1161290051, "building": "yes", "name": "", "height": null, "height_m": null, "levels": null, "tract_id": "40065968400", "tract_name": "9684", "tags": {"building": "yes"}}}, {"type": "Feature", "geometry": {"type": "Polygon", "coordinates": [[[-99.341762, 34.6542968], [-99.3416818, 34.6542984], [-99.341679, 34.6542048], [-99.3417591, 34.6542032], [-99.341762, 34.6542968]]]}, "properties": {"osm_id": 1161290052, "building": "yes", "name": "", "height": null, "height_m": null, "levels": null, "tract_id": "40065968400", "tract_name": "9684", "tags": {"building": "yes"}}}, {"type": "Feature", "geometry": {"type": "Polygon", "coordinates": [[[-99.3421172, 34.6530399], [-99.3419697, 34.6530421], [-99.3419678, 34.6529557], [-99.3421153, 34.6529534], [-99.3421172, 34.6530399]]]}, "properties": {"osm_id": 1161290053, "building": "yes", "name": "", "height": null, "height_m": null, "levels": null, "tract_id": "40065968400", "tract_name": "9684", "tags": {"building": "yes"}}}, {"type": "Feature", "geometry": {"type": "Polygon", "coordinates": [[[-99.3409411, 34.6525081], [-99.3407909, 34.6525092], [-99.34079, 34.6524257], [-99.3409402, 34.6524246], [-99.3409411, 34.6525081]]]}, "properties": {"osm_id": 1161290054, "building": "yes", "name": "", "height": null, "height_m": null, "levels": null, "tract_id": "40065968400", "tract_name": "9684", "tags": {"building": "yes"}}}, {"type": "Feature", "geometry": {"type": "Polygon", "coordinates": [[[-99.3412907, 34.6528287], [-99.3412915, 34.6527391], [-99.3414129, 34.6527399], [-99.3414121, 34.6528294], [-99.3412907, 34.6528287]]]}, "properties": {"osm_id": 1161290055, "building": "yes", "name": "", "height": null, "height_m": null, "levels": null, "tract_id": "40065968400", "tract_name": "9684", "tags": {"building": "yes"}}}, {"type": "Feature", "geometry": {"type": "Polygon", "coordinates": [[[-99.3434221, 34.65263], [-99.3433544, 34.6526775], [-99.3432498, 34.6525766], [-99.3433175, 34.6525291], [-99.3434221, 34.65263]]]}, "properties": {"osm_id": 1161290056, "building": "yes", "name": "", "height": null, "height_m": null, "levels": null, "tract_id": "40065968400", "tract_name": "9684", "tags": {"building": "yes"}}}, {"type": "Feature", "geometry": {"type": "Polygon", "coordinates": [[[-99.3431821, 34.6526438], [-99.3430118, 34.6526504], [-99.3430071, 34.652569], [-99.3431774, 34.6525624], [-99.3431821, 34.6526438]]]}, "properties": {"osm_id": 1161290057, "building": "yes", "name": "", "height": null, "height_m": null, "levels": null, "tract_id": "40065968400", "tract_name": "9684", "tags": {"building": "yes"}}}, {"type": "Feature", "geometry": {"type": "Polygon", "coordinates": [[[-99.3349809, 34.6663007], [-99.3349618, 34.6663021], [-99.3349269, 34.6663404], [-99.3348749, 34.6663749], [-99.3348744, 34.6663933], [-99.3346469, 34.6663956], [-99.3346478, 34.6661257], [-99.3349778, 34.6661195], [-99.3349809, 34.6663007]]]}, "properties": {"osm_id": 1161290058, "building": "yes", "name": "", "height": null, "height_m": null, "levels": null, "tract_id": "40065968400", "tract_name": "9684", "tags": {"building": "yes"}}}, {"type": "Feature", "geometry": {"type": "Polygon", "coordinates": [[[-99.3168696, 34.662817], [-99.3167207, 34.6628143], [-99.3167248, 34.6626621], [-99.3168736, 34.6626648], [-99.3168696, 34.662817]]]}, "properties": {"osm_id": 1162241289, "building": "yes", "name": "", "height": null, "height_m": null, "levels": null, "tract_id": "40065968400", "tract_name": "9684", "tags": {"building": "yes"}}}, {"type": "Feature", "geometry": {"type": "Polygon", "coordinates": [[[-99.317457, 34.6624508], [-99.3172599, 34.6624519], [-99.3172589, 34.6623396], [-99.3174561, 34.6623385], [-99.317457, 34.6624508]]]}, "properties": {"osm_id": 1162241290, "building": "yes", "name": "", "height": null, "height_m": null, "levels": null, "tract_id": "40065968400", "tract_name": "9684", "tags": {"building": "yes"}}}, {"type": "Feature", "geometry": {"type": "Polygon", "coordinates": [[[-99.3190053, 34.6591514], [-99.3189837, 34.6591217], [-99.3191674, 34.6590312], [-99.319189, 34.659061], [-99.3190053, 34.6591514]]]}, "properties": {"osm_id": 1162241291, "building": "yes", "name": "", "height": null, "height_m": null, "levels": null, "tract_id": "40065968400", "tract_name": "9684", "tags": {"building": "yes"}}}, {"type": "Feature", "geometry": {"type": "Polygon", "coordinates": [[[-99.3193097, 34.6590615], [-99.3193411, 34.6590316], [-99.3195335, 34.6591678], [-99.3195022, 34.6591977], [-99.3193097, 34.6590615]]]}, "properties": {"osm_id": 1162241292, "building": "yes", "name": "", "height": null, "height_m": null, "levels": null, "tract_id": "40065968400", "tract_name": "9684", "tags": {"building": "yes"}}}, {"type": "Feature", "geometry": {"type": "Polygon", "coordinates": [[[-99.3197697, 34.6592055], [-99.3197478, 34.6591723], [-99.3199436, 34.6590846], [-99.3199655, 34.6591178], [-99.3197697, 34.6592055]]]}, "properties": {"osm_id": 1162241293, "building": "yes", "name": "", "height": null, "height_m": null, "levels": null, "tract_id": "40065968400", "tract_name": "9684", "tags": {"building": "yes"}}}, {"type": "Feature", "geometry": {"type": "Polygon", "coordinates": [[[-99.3201211, 34.6591172], [-99.320162, 34.6590855], [-99.3203136, 34.6592179], [-99.3202727, 34.6592496], [-99.3201211, 34.6591172]]]}, "properties": {"osm_id": 1162241294, "building": "yes", "name": "", "height": null, "height_m": null, "levels": null, "tract_id": "40065968400", "tract_name": "9684", "tags": {"building": "yes"}}}, {"type": "Feature", "geometry": {"type": "Polygon", "coordinates": [[[-99.3207005, 34.6592545], [-99.3205878, 34.6593108], [-99.3205376, 34.6592428], [-99.3206503, 34.6591866], [-99.3207005, 34.6592545]]]}, "properties": {"osm_id": 1162241295, "building": "yes", "name": "", "height": null, "height_m": null, "levels": null, "tract_id": "40065968400", "tract_name": "9684", "tags": {"building": "yes"}}}, {"type": "Feature", "geometry": {"type": "Polygon", "coordinates": [[[-99.3224654, 34.6602816], [-99.3223085, 34.6602054], [-99.3223368, 34.6601659], [-99.3224937, 34.660242], [-99.3224654, 34.6602816]]]}, "properties": {"osm_id": 1162241296, "building": "yes", "name": "", "height": null, "height_m": null, "levels": null, "tract_id": "40065968400", "tract_name": "9684", "tags": {"building": "yes"}}}, {"type": "Feature", "geometry": {"type": "Polygon", "coordinates": [[[-99.3229643, 34.6601558], [-99.3227349, 34.6602297], [-99.3227121, 34.6601817], [-99.3229414, 34.6601078], [-99.3229643, 34.6601558]]]}, "properties": {"osm_id": 1162241297, "building": "yes", "name": "", "height": null, "height_m": null, "levels": null, "tract_id": "40065968400", "tract_name": "9684", "tags": {"building": "yes"}}}, {"type": "Feature", "geometry": {"type": "Polygon", "coordinates": [[[-99.3223567, 34.6599252], [-99.3221422, 34.6599859], [-99.3221254, 34.6599458], [-99.32234, 34.6598852], [-99.3223567, 34.6599252]]]}, "properties": {"osm_id": 1162241298, "building": "yes", "name": "", "height": null, "height_m": null, "levels": null, "tract_id": "40065968400", "tract_name": "9684", "tags": {"building": "yes"}}}, {"type": "Feature", "geometry": {"type": "Polygon", "coordinates": [[[-99.3220866, 34.6596268], [-99.3221201, 34.6595878], [-99.3222984, 34.6596916], [-99.3222648, 34.6597306], [-99.3220866, 34.6596268]]]}, "properties": {"osm_id": 1162241299, "building": "yes", "name": "", "height": null, "height_m": null, "levels": null, "tract_id": "40065968400", "tract_name": "9684", "tags": {"building": "yes"}}}, {"type": "Feature", "geometry": {"type": "Polygon", "coordinates": [[[-99.32239, 34.6595535], [-99.3224404, 34.6595391], [-99.3225314, 34.6597544], [-99.3224811, 34.6597688], [-99.32239, 34.6595535]]]}, "properties": {"osm_id": 1162241300, "building": "yes", "name": "", "height": null, "height_m": null, "levels": null, "tract_id": "40065968400", "tract_name": "9684", "tags": {"building": "yes"}}}, {"type": "Feature", "geometry": {"type": "Polygon", "coordinates": [[[-99.322757, 34.6596487], [-99.322796, 34.6596192], [-99.3229677, 34.6597729], [-99.3229287, 34.6598023], [-99.322757, 34.6596487]]]}, "properties": {"osm_id": 1162241301, "building": "yes", "name": "", "height": null, "height_m": null, "levels": null, "tract_id": "40065968400", "tract_name": "9684", "tags": {"building": "yes"}}}, {"type": "Feature", "geometry": {"type": "Polygon", "coordinates": [[[-99.3185706, 34.6730127], [-99.3188019, 34.6730115], [-99.318801, 34.6728844], [-99.3185697, 34.6728856], [-99.3185706, 34.6730127]]]}, "properties": {"osm_id": 1162241310, "building": "yes", "name": "", "height": null, "height_m": null, "levels": null, "tract_id": "40065968400", "tract_name": "9684", "tags": {"building": "yes"}}}, {"type": "Feature", "geometry": {"type": "Polygon", "coordinates": [[[-99.3179767, 34.6602683], [-99.317809, 34.6601536], [-99.3178412, 34.6601218], [-99.3180089, 34.6602365], [-99.3179767, 34.6602683]]]}, "properties": {"osm_id": 1162241326, "building": "yes", "name": "", "height": null, "height_m": null, "levels": null, "tract_id": "40065968400", "tract_name": "9684", "tags": {"building": "yes"}}}, {"type": "Feature", "geometry": {"type": "Polygon", "coordinates": [[[-99.3172967, 34.6597521], [-99.3174822, 34.659764], [-99.317458, 34.6600177], [-99.3172726, 34.6600058], [-99.3172967, 34.6597521]]]}, "properties": {"osm_id": 1162241327, "building": "yes", "name": "", "height": null, "height_m": null, "levels": null, "tract_id": "40065968400", "tract_name": "9684", "tags": {"building": "yes"}}}, {"type": "Feature", "geometry": {"type": "Polygon", "coordinates": [[[-99.3190067, 34.6606103], [-99.3190343, 34.6605756], [-99.3192207, 34.6606759], [-99.3191931, 34.6607107], [-99.3190067, 34.6606103]]]}, "properties": {"osm_id": 1162241328, "building": "yes", "name": "", "height": null, "height_m": null, "levels": null, "tract_id": "40065968400", "tract_name": "9684", "tags": {"building": "yes"}}}, {"type": "Feature", "geometry": {"type": "Polygon", "coordinates": [[[-99.3192789, 34.6602595], [-99.3190683, 34.6603654], [-99.3190379, 34.6603245], [-99.3192485, 34.6602186], [-99.3192789, 34.6602595]]]}, "properties": {"osm_id": 1162241329, "building": "yes", "name": "", "height": null, "height_m": null, "levels": null, "tract_id": "40065968400", "tract_name": "9684", "tags": {"building": "yes"}}}, {"type": "Feature", "geometry": {"type": "Polygon", "coordinates": [[[-99.3185225, 34.6604415], [-99.3185329, 34.6604081], [-99.3187796, 34.66046], [-99.3187693, 34.6604933], [-99.3185225, 34.6604415]]]}, "properties": {"osm_id": 1162241330, "building": "yes", "name": "", "height": null, "height_m": null, "levels": null, "tract_id": "40065968400", "tract_name": "9684", "tags": {"building": "yes"}}}, {"type": "Feature", "geometry": {"type": "Polygon", "coordinates": [[[-99.3201975, 34.6603148], [-99.3202331, 34.6602856], [-99.3203782, 34.6604049], [-99.3203426, 34.6604342], [-99.3201975, 34.6603148]]]}, "properties": {"osm_id": 1162241331, "building": "yes", "name": "", "height": null, "height_m": null, "levels": null, "tract_id": "40065968400", "tract_name": "9684", "tags": {"building": "yes"}}}, {"type": "Feature", "geometry": {"type": "Polygon", "coordinates": [[[-99.3203491, 34.6600747], [-99.3201607, 34.6601718], [-99.3201361, 34.6601395], [-99.3203245, 34.6600425], [-99.3203491, 34.6600747]]]}, "properties": {"osm_id": 1162241332, "building": "yes", "name": "", "height": null, "height_m": null, "levels": null, "tract_id": "40065968400", "tract_name": "9684", "tags": {"building": "yes"}}}, {"type": "Feature", "geometry": {"type": "Polygon", "coordinates": [[[-99.3199877, 34.6602363], [-99.3198529, 34.6601177], [-99.3198845, 34.6600934], [-99.3200193, 34.660212], [-99.3199877, 34.6602363]]]}, "properties": {"osm_id": 1162241333, "building": "yes", "name": "", "height": null, "height_m": null, "levels": null, "tract_id": "40065968400", "tract_name": "9684", "tags": {"building": "yes"}}}, {"type": "Feature", "geometry": {"type": "Polygon", "coordinates": [[[-99.320038, 34.6603196], [-99.3198388, 34.6603979], [-99.3198193, 34.6603645], [-99.3200185, 34.6602861], [-99.320038, 34.6603196]]]}, "properties": {"osm_id": 1162241334, "building": "yes", "name": "", "height": null, "height_m": null, "levels": null, "tract_id": "40065968400", "tract_name": "9684", "tags": {"building": "yes"}}}, {"type": "Feature", "geometry": {"type": "Polygon", "coordinates": [[[-99.3193828, 34.6602716], [-99.3194154, 34.660241], [-99.3195777, 34.6603579], [-99.3195451, 34.6603886], [-99.3193828, 34.6602716]]]}, "properties": {"osm_id": 1162241335, "building": "yes", "name": "", "height": null, "height_m": null, "levels": null, "tract_id": "40065968400", "tract_name": "9684", "tags": {"building": "yes"}}}, {"type": "Feature", "geometry": {"type": "Polygon", "coordinates": [[[-99.319529, 34.6605863], [-99.3195528, 34.6606214], [-99.3193603, 34.6607096], [-99.3193365, 34.6606744], [-99.319529, 34.6605863]]]}, "properties": {"osm_id": 1162241336, "building": "yes", "name": "", "height": null, "height_m": null, "levels": null, "tract_id": "40065968400", "tract_name": "9684", "tags": {"building": "yes"}}}, {"type": "Feature", "geometry": {"type": "Polygon", "coordinates": [[[-99.320043, 34.6605948], [-99.320077, 34.6606175], [-99.3199167, 34.6607805], [-99.3198827, 34.6607579], [-99.320043, 34.6605948]]]}, "properties": {"osm_id": 1162241337, "building": "yes", "name": "", "height": null, "height_m": null, "levels": null, "tract_id": "40065968400", "tract_name": "9684", "tags": {"building": "yes"}}}, {"type": "Feature", "geometry": {"type": "Polygon", "coordinates": [[[-99.3201171, 34.6605612], [-99.320128, 34.6605222], [-99.3203138, 34.6605575], [-99.3203028, 34.6605965], [-99.3201171, 34.6605612]]]}, "properties": {"osm_id": 1162241338, "building": "yes", "name": "", "height": null, "height_m": null, "levels": null, "tract_id": "40065968400", "tract_name": "9684", "tags": {"building": "yes"}}}, {"type": "Feature", "geometry": {"type": "Polygon", "coordinates": [[[-99.321129, 34.660746], [-99.3209533, 34.6608204], [-99.3209354, 34.660792], [-99.3211111, 34.6607175], [-99.321129, 34.660746]]]}, "properties": {"osm_id": 1162241339, "building": "yes", "name": "", "height": null, "height_m": null, "levels": null, "tract_id": "40065968400", "tract_name": "9684", "tags": {"building": "yes"}}}, {"type": "Feature", "geometry": {"type": "Polygon", "coordinates": [[[-99.3208252, 34.6603808], [-99.3206415, 34.6604746], [-99.3206193, 34.6604452], [-99.320803, 34.6603514], [-99.3208252, 34.6603808]]]}, "properties": {"osm_id": 1162241340, "building": "yes", "name": "", "height": null, "height_m": null, "levels": null, "tract_id": "40065968400", "tract_name": "9684", "tags": {"building": "yes"}}}, {"type": "Feature", "geometry": {"type": "Polygon", "coordinates": [[[-99.320996, 34.6603835], [-99.3210252, 34.6603564], [-99.3211931, 34.6604789], [-99.3211639, 34.6605059], [-99.320996, 34.6603835]]]}, "properties": {"osm_id": 1162241341, "building": "yes", "name": "", "height": null, "height_m": null, "levels": null, "tract_id": "40065968400", "tract_name": "9684", "tags": {"building": "yes"}}}, {"type": "Feature", "geometry": {"type": "Polygon", "coordinates": [[[-99.321492, 34.6601853], [-99.3215214, 34.6601612], [-99.3216608, 34.6602758], [-99.3216314, 34.6603], [-99.321492, 34.6601853]]]}, "properties": {"osm_id": 1162241342, "building": "yes", "name": "", "height": null, "height_m": null, "levels": null, "tract_id": "40065968400", "tract_name": "9684", "tags": {"building": "yes"}}}, {"type": "Feature", "geometry": {"type": "Polygon", "coordinates": [[[-99.3219718, 34.6602446], [-99.321997, 34.660278], [-99.3218244, 34.6603662], [-99.3217992, 34.6603328], [-99.3219718, 34.6602446]]]}, "properties": {"osm_id": 1162241343, "building": "yes", "name": "", "height": null, "height_m": null, "levels": null, "tract_id": "40065968400", "tract_name": "9684", "tags": {"building": "yes"}}}, {"type": "Feature", "geometry": {"type": "Polygon", "coordinates": [[[-99.3222108, 34.6608523], [-99.3222677, 34.660778], [-99.3224422, 34.6608684], [-99.3223853, 34.6609427], [-99.3222108, 34.6608523]]]}, "properties": {"osm_id": 1162241344, "building": "yes", "name": "", "height": null, "height_m": null, "levels": null, "tract_id": "40065968400", "tract_name": "9684", "tags": {"building": "yes"}}}, {"type": "Feature", "geometry": {"type": "Polygon", "coordinates": [[[-99.3226717, 34.6606159], [-99.3226862, 34.6605827], [-99.3228967, 34.6606451], [-99.3228822, 34.6606783], [-99.3226717, 34.6606159]]]}, "properties": {"osm_id": 1162241345, "building": "yes", "name": "", "height": null, "height_m": null, "levels": null, "tract_id": "40065968400", "tract_name": "9684", "tags": {"building": "yes"}}}, {"type": "Feature", "geometry": {"type": "Polygon", "coordinates": [[[-99.3231344, 34.6614536], [-99.3230422, 34.661464], [-99.3230147, 34.6612978], [-99.3231069, 34.6612875], [-99.3231344, 34.6614536]]]}, "properties": {"osm_id": 1162241346, "building": "yes", "name": "", "height": null, "height_m": null, "levels": null, "tract_id": "40065968400", "tract_name": "9684", "tags": {"building": "yes"}}}, {"type": "Feature", "geometry": {"type": "Polygon", "coordinates": [[[-99.3187822, 34.6788444], [-99.3187798, 34.6788916], [-99.318745, 34.6788904], [-99.3187474, 34.6788432], [-99.3187822, 34.6788444]]]}, "properties": {"osm_id": 1162241377, "building": "yes", "name": "", "height": null, "height_m": null, "levels": null, "tract_id": "40065968400", "tract_name": "9684", "tags": {"building": "yes"}}}, {"type": "Feature", "geometry": {"type": "Polygon", "coordinates": [[[-99.3189064, 34.6789773], [-99.3188419, 34.6789734], [-99.3188472, 34.6789144], [-99.3189117, 34.6789183], [-99.3189064, 34.6789773]]]}, "properties": {"osm_id": 1162241378, "building": "yes", "name": "", "height": null, "height_m": null, "levels": null, "tract_id": "40065968400", "tract_name": "9684", "tags": {"building": "yes"}}}, {"type": "Feature", "geometry": {"type": "Polygon", "coordinates": [[[-99.3189287, 34.6785964], [-99.3188386, 34.6785909], [-99.3188449, 34.6785211], [-99.318935, 34.6785265], [-99.3189287, 34.6785964]]]}, "properties": {"osm_id": 1162241379, "building": "yes", "name": "", "height": null, "height_m": null, "levels": null, "tract_id": "40065968400", "tract_name": "9684", "tags": {"building": "yes"}}}, {"type": "Feature", "geometry": {"type": "Polygon", "coordinates": [[[-99.3287663, 34.6673991], [-99.3287661, 34.6674794], [-99.3281371, 34.6674785], [-99.3281374, 34.667344], [-99.3287409, 34.6673448], [-99.3287408, 34.6673991], [-99.3287663, 34.6673991]]]}, "properties": {"osm_id": 1162241385, "building": "yes", "name": "", "height": null, "height_m": null, "levels": null, "tract_id": "40065968400", "tract_name": "9684", "tags": {"building": "yes"}}}, {"type": "Feature", "geometry": {"type": "Polygon", "coordinates": [[[-99.3232672, 34.667142], [-99.3232191, 34.6671421], [-99.323219, 34.6671326], [-99.3231077, 34.6671327], [-99.3231077, 34.6671422], [-99.3230219, 34.6671422], [-99.3230219, 34.6671238], [-99.3228893, 34.6671239], [-99.3228896, 34.6673011], [-99.3232675, 34.6673007], [-99.3232672, 34.667142]]]}, "properties": {"osm_id": 1162241386, "building": "yes", "name": "", "height": null, "height_m": null, "levels": null, "tract_id": "40065968400", "tract_name": "9684", "tags": {"building": "yes"}}}, {"type": "Feature", "geometry": {"type": "Polygon", "coordinates": [[[-99.3238462, 34.6671943], [-99.323761, 34.6671576], [-99.3237452, 34.6671823], [-99.323718, 34.6671706], [-99.3237282, 34.6671547], [-99.3236422, 34.6671177], [-99.3236329, 34.6671324], [-99.3235961, 34.6671166], [-99.3235207, 34.6672351], [-99.3236909, 34.6673083], [-99.3236414, 34.6673862], [-99.3237063, 34.6674142], [-99.3238462, 34.6671943]]]}, "properties": {"osm_id": 1162241387, "building": "yes", "name": "", "height": null, "height_m": null, "levels": null, "tract_id": "40065968400", "tract_name": "9684", "tags": {"building": "yes"}}}, {"type": "Feature", "geometry": {"type": "Polygon", "coordinates": [[[-99.320506, 34.6672816], [-99.3203075, 34.6672816], [-99.3203075, 34.6671106], [-99.320506, 34.6671106], [-99.320506, 34.6672816]]]}, "properties": {"osm_id": 1162241388, "building": "yes", "name": "", "height": null, "height_m": null, "levels": null, "tract_id": "40065968400", "tract_name": "9684", "tags": {"building": "yes"}}}, {"type": "Feature", "geometry": {"type": "Polygon", "coordinates": [[[-99.3211287, 34.6671255], [-99.321129, 34.6672536], [-99.3211524, 34.6672535], [-99.3211526, 34.6673058], [-99.3211291, 34.6673058], [-99.3211293, 34.667402], [-99.3209337, 34.6674023], [-99.3209331, 34.6671258], [-99.3211287, 34.6671255]]]}, "properties": {"osm_id": 1162241389, "building": "yes", "name": "", "height": null, "height_m": null, "levels": null, "tract_id": "40065968400", "tract_name": "9684", "tags": {"building": "yes"}}}, {"type": "Feature", "geometry": {"type": "Polygon", "coordinates": [[[-99.3282079, 34.6868725], [-99.3280798, 34.6868725], [-99.3280798, 34.6867828], [-99.3282079, 34.6867828], [-99.3282079, 34.6868725]]]}, "properties": {"osm_id": 1162830617, "building": "yes", "name": "", "height": null, "height_m": null, "levels": null, "tract_id": "40065968400", "tract_name": "9684", "tags": {"building": "yes"}}}, {"type": "Feature", "geometry": {"type": "Polygon", "coordinates": [[[-99.328379, 34.6865772], [-99.3283809, 34.6865105], [-99.3284922, 34.6865127], [-99.3284903, 34.6865794], [-99.328379, 34.6865772]]]}, "properties": {"osm_id": 1162830618, "building": "yes", "name": "", "height": null, "height_m": null, "levels": null, "tract_id": "40065968400", "tract_name": "9684", "tags": {"building": "yes"}}}, {"type": "Feature", "geometry": {"type": "Polygon", "coordinates": [[[-99.3229476, 34.6768012], [-99.3229509, 34.6768671], [-99.3228909, 34.6768691], [-99.3228876, 34.6768032], [-99.3229476, 34.6768012]]]}, "properties": {"osm_id": 1162830622, "building": "yes", "name": "", "height": null, "height_m": null, "levels": null, "tract_id": "40065968400", "tract_name": "9684", "tags": {"building": "yes"}}}, {"type": "Feature", "geometry": {"type": "Polygon", "coordinates": [[[-99.3274657, 34.6625385], [-99.3274647, 34.6626011], [-99.3273561, 34.6626], [-99.327357, 34.6625374], [-99.3274657, 34.6625385]]]}, "properties": {"osm_id": 1164715960, "building": "yes", "name": "", "height": null, "height_m": null, "levels": null, "tract_id": "40065968400", "tract_name": "9684", "tags": {"building": "yes"}}}, {"type": "Feature", "geometry": {"type": "Polygon", "coordinates": [[[-99.3338064, 34.6621314], [-99.3338059, 34.6620964], [-99.333867, 34.6620958], [-99.3338674, 34.6621309], [-99.3338064, 34.6621314]]]}, "properties": {"osm_id": 1164715963, "building": "yes", "name": "", "height": null, "height_m": null, "levels": null, "tract_id": "40065968400", "tract_name": "9684", "tags": {"building": "yes"}}}, {"type": "Feature", "geometry": {"type": "Polygon", "coordinates": [[[-99.3170929, 34.6623443], [-99.3171534, 34.6623439], [-99.317154, 34.6624012], [-99.3170936, 34.6624017], [-99.3170929, 34.6623443]]]}, "properties": {"osm_id": 1164715976, "building": "yes", "name": "", "height": null, "height_m": null, "levels": null, "tract_id": "40065968400", "tract_name": "9684", "tags": {"building": "yes"}}}, {"type": "Feature", "geometry": {"type": "Polygon", "coordinates": [[[-99.3277337, 34.6582953], [-99.3274729, 34.6582977], [-99.3274717, 34.6582027], [-99.3277325, 34.6582004], [-99.3277337, 34.6582953]]]}, "properties": {"osm_id": 1164715977, "building": "yes", "name": "", "height": null, "height_m": null, "levels": null, "tract_id": "40065968400", "tract_name": "9684", "tags": {"building": "yes"}}}, {"type": "Feature", "geometry": {"type": "Polygon", "coordinates": [[[-99.3438385, 34.6559104], [-99.3437628, 34.6559793], [-99.3437146, 34.6559435], [-99.3437904, 34.6558745], [-99.3438385, 34.6559104]]]}, "properties": {"osm_id": 1164715980, "building": "yes", "name": "", "height": null, "height_m": null, "levels": null, "tract_id": "40065968400", "tract_name": "9684", "tags": {"building": "yes"}}}, {"type": "Feature", "geometry": {"type": "Polygon", "coordinates": [[[-99.3464931, 34.6531126], [-99.3463309, 34.6531103], [-99.3463335, 34.6529901], [-99.3464956, 34.6529924], [-99.3464931, 34.6531126]]]}, "properties": {"osm_id": 1164715981, "building": "yes", "name": "", "height": null, "height_m": null, "levels": null, "tract_id": "40065968400", "tract_name": "9684", "tags": {"building": "yes"}}}, {"type": "Feature", "geometry": {"type": "Polygon", "coordinates": [[[-99.3335892, 34.6519896], [-99.3333645, 34.6519874], [-99.3333663, 34.6518614], [-99.333591, 34.6518637], [-99.3335892, 34.6519896]]]}, "properties": {"osm_id": 1164715991, "building": "yes", "name": "", "height": null, "height_m": null, "levels": null, "tract_id": "40065968400", "tract_name": "9684", "tags": {"building": "yes"}}}, {"type": "Feature", "geometry": {"type": "Polygon", "coordinates": [[[-99.3325934, 34.6524171], [-99.3330714, 34.6524168], [-99.3330727, 34.6538596], [-99.3325947, 34.6538599], [-99.3325934, 34.6524171]]]}, "properties": {"osm_id": 1164715992, "building": "yes", "name": "", "height": null, "height_m": null, "levels": null, "tract_id": "40065968400", "tract_name": "9684", "tags": {"building": "yes"}}}, {"type": "Feature", "geometry": {"type": "Polygon", "coordinates": [[[-99.3342798, 34.655372], [-99.3344073, 34.6553705], [-99.33441, 34.6555216], [-99.3342825, 34.6555231], [-99.3342798, 34.655372]]]}, "properties": {"osm_id": 1164715993, "building": "yes", "name": "", "height": null, "height_m": null, "levels": null, "tract_id": "40065968400", "tract_name": "9684", "tags": {"building": "yes"}}}, {"type": "Feature", "geometry": {"type": "Polygon", "coordinates": [[[-99.3356189, 34.6583008], [-99.3357421, 34.6583008], [-99.3357421, 34.6585309], [-99.3356189, 34.6585309], [-99.3356189, 34.6583008]]]}, "properties": {"osm_id": 1164715994, "building": "yes", "name": "", "height": null, "height_m": null, "levels": null, "tract_id": "40065968400", "tract_name": "9684", "tags": {"building": "yes"}}}, {"type": "Feature", "geometry": {"type": "Polygon", "coordinates": [[[-99.3356103, 34.6592485], [-99.3356425, 34.6591736], [-99.3359194, 34.6592539], [-99.3358872, 34.6593289], [-99.3356103, 34.6592485]]]}, "properties": {"osm_id": 1164715995, "building": "yes", "name": "", "height": null, "height_m": null, "levels": null, "tract_id": "40065968400", "tract_name": "9684", "tags": {"building": "yes"}}}, {"type": "Feature", "geometry": {"type": "Polygon", "coordinates": [[[-99.3352935, 34.6611383], [-99.3352939, 34.6613886], [-99.3345428, 34.6613896], [-99.3345425, 34.6612212], [-99.3351275, 34.6612205], [-99.3351273, 34.6611385], [-99.3352935, 34.6611383]]]}, "properties": {"osm_id": 1164715999, "building": "yes", "name": "", "height": null, "height_m": null, "levels": null, "tract_id": "40065968400", "tract_name": "9684", "tags": {"building": "yes"}}}, {"type": "Feature", "geometry": {"type": "Polygon", "coordinates": [[[-99.3331566, 34.6608155], [-99.3332167, 34.6608144], [-99.333218, 34.6608685], [-99.333158, 34.6608695], [-99.3331566, 34.6608155]]]}, "properties": {"osm_id": 1164716005, "building": "yes", "name": "", "height": null, "height_m": null, "levels": null, "tract_id": "40065968400", "tract_name": "9684", "tags": {"building": "yes"}}}, {"type": "Feature", "geometry": {"type": "Polygon", "coordinates": [[[-99.3336569, 34.6608055], [-99.3333055, 34.6608044], [-99.3333064, 34.6606067], [-99.3336578, 34.6606078], [-99.3336569, 34.6608055]]]}, "properties": {"osm_id": 1164716006, "building": "yes", "name": "", "height": null, "height_m": null, "levels": null, "tract_id": "40065968400", "tract_name": "9684", "tags": {"building": "yes"}}}, {"type": "Feature", "geometry": {"type": "Polygon", "coordinates": [[[-99.3331195, 34.6617061], [-99.3330619, 34.6617058], [-99.3330619, 34.6617124], [-99.332992, 34.661712], [-99.3329921, 34.6617037], [-99.3329686, 34.6617036], [-99.3329684, 34.6617224], [-99.3328506, 34.6617218], [-99.3328508, 34.6617032], [-99.332831, 34.6617031], [-99.3328309, 34.6617113], [-99.3327655, 34.661711], [-99.3327656, 34.6617024], [-99.3326888, 34.6617019], [-99.3326899, 34.6615599], [-99.3331207, 34.6615622], [-99.3331195, 34.6617061]]]}, "properties": {"osm_id": 1164716007, "building": "yes", "name": "", "height": null, "height_m": null, "levels": null, "tract_id": "40065968400", "tract_name": "9684", "tags": {"building": "yes"}}}, {"type": "Feature", "geometry": {"type": "Polygon", "coordinates": [[[-99.3170493, 34.6785399], [-99.3169816, 34.6785404], [-99.3169808, 34.6784743], [-99.3170485, 34.6784737], [-99.3170493, 34.6785399]]]}, "properties": {"osm_id": 1164822146, "building": "yes", "name": "", "height": null, "height_m": null, "levels": null, "tract_id": "40065968400", "tract_name": "9684", "tags": {"building": "yes"}}}, {"type": "Feature", "geometry": {"type": "Polygon", "coordinates": [[[-99.3171539, 34.6784765], [-99.3172619, 34.6784765], [-99.3172619, 34.6785818], [-99.3171539, 34.6785818], [-99.3171539, 34.6784765]]]}, "properties": {"osm_id": 1164822147, "building": "yes", "name": "", "height": null, "height_m": null, "levels": null, "tract_id": "40065968400", "tract_name": "9684", "tags": {"building": "yes"}}}, {"type": "Feature", "geometry": {"type": "Polygon", "coordinates": [[[-99.3347778, 34.6753717], [-99.334947, 34.6753708], [-99.3349536, 34.6762033], [-99.3347836, 34.6762043], [-99.3347823, 34.6760474], [-99.3347742, 34.6760474], [-99.3347736, 34.6759679], [-99.3347622, 34.6759679], [-99.334759, 34.6755726], [-99.3347727, 34.6755725], [-99.3347723, 34.6755272], [-99.334779, 34.6755272], [-99.3347778, 34.6753717]]]}, "properties": {"osm_id": 1164887879, "building": "yes", "name": "Hampton Inn & Suites", "height": null, "height_m": null, "levels": null, "tract_id": "40065968400", "tract_name": "9684", "tags": {"addr:city": "Altus", "addr:housenumber": "3601", "addr:postcode": "73521", "addr:state": "OK", "addr:street": "North Main Street", "branch": "Altus", "brand": "Hampton Inn & Suites", "brand:wikidata": "Q5646230", "building": "yes", "name": "Hampton Inn & Suites", "official_name": "Hampton Inn & Suites by Hilton", "phone": "+1 580-482-1273", "ref": "AXSOKHX", "tourism": "hotel", "website": "https://www.hilton.com/en/hotels/axsokhx-hampton-suites-altus/"}}}, {"type": "Feature", "geometry": {"type": "Polygon", "coordinates": [[[-99.327813, 34.6868711], [-99.3278132, 34.6868243], [-99.3279822, 34.6868249], [-99.327982, 34.6868716], [-99.327813, 34.6868711]]]}, "properties": {"osm_id": 1164887880, "building": "yes", "name": "", "height": null, "height_m": null, "levels": null, "tract_id": "40065968400", "tract_name": "9684", "tags": {"building": "yes"}}}, {"type": "Feature", "geometry": {"type": "Polygon", "coordinates": [[[-99.3200648, 34.6830146], [-99.3200648, 34.6829551], [-99.3201479, 34.6829551], [-99.3201479, 34.6830146], [-99.3200648, 34.6830146]]]}, "properties": {"osm_id": 1164887881, "building": "yes", "name": "", "height": null, "height_m": null, "levels": null, "tract_id": "40065968400", "tract_name": "9684", "tags": {"building": "yes"}}}, {"type": "Feature", "geometry": {"type": "Polygon", "coordinates": [[[-99.3197416, 34.67904], [-99.3198468, 34.6790853], [-99.3197704, 34.6792055], [-99.3196651, 34.6791602], [-99.3197416, 34.67904]]]}, "properties": {"osm_id": 1164887882, "building": "yes", "name": "", "height": null, "height_m": null, "levels": null, "tract_id": "40065968400", "tract_name": "9684", "tags": {"building": "yes"}}}, {"type": "Feature", "geometry": {"type": "Polygon", "coordinates": [[[-99.3210671, 34.6805491], [-99.3210719, 34.6807121], [-99.3209921, 34.6807136], [-99.3209874, 34.6805507], [-99.3210671, 34.6805491]]]}, "properties": {"osm_id": 1164887883, "building": "yes", "name": "", "height": null, "height_m": null, "levels": null, "tract_id": "40065968400", "tract_name": "9684", "tags": {"building": "yes"}}}, {"type": "Feature", "geometry": {"type": "Polygon", "coordinates": [[[-99.321308, 34.6804352], [-99.3214703, 34.6804338], [-99.3214732, 34.6806467], [-99.3213109, 34.6806481], [-99.321308, 34.6804352]]]}, "properties": {"osm_id": 1164887884, "building": "yes", "name": "", "height": null, "height_m": null, "levels": null, "tract_id": "40065968400", "tract_name": "9684", "tags": {"building": "yes"}}}, {"type": "Feature", "geometry": {"type": "Polygon", "coordinates": [[[-99.3209865, 34.680075], [-99.3209888, 34.6800386], [-99.3210637, 34.6800417], [-99.3210615, 34.6800781], [-99.3209865, 34.680075]]]}, "properties": {"osm_id": 1164887885, "building": "yes", "name": "", "height": null, "height_m": null, "levels": null, "tract_id": "40065968400", "tract_name": "9684", "tags": {"building": "yes"}}}, {"type": "Feature", "geometry": {"type": "Polygon", "coordinates": [[[-99.3210491, 34.6800204], [-99.3209059, 34.6800188], [-99.3209074, 34.6799251], [-99.3210506, 34.6799266], [-99.3210491, 34.6800204]]]}, "properties": {"osm_id": 1164887886, "building": "yes", "name": "", "height": null, "height_m": null, "levels": null, "tract_id": "40065968400", "tract_name": "9684", "tags": {"building": "yes"}}}, {"type": "Feature", "geometry": {"type": "Polygon", "coordinates": [[[-99.3207627, 34.6793786], [-99.3206395, 34.6793801], [-99.320638, 34.6793039], [-99.3207613, 34.6793024], [-99.3207627, 34.6793786]]]}, "properties": {"osm_id": 1164887887, "building": "yes", "name": "", "height": null, "height_m": null, "levels": null, "tract_id": "40065968400", "tract_name": "9684", "tags": {"building": "yes"}}}, {"type": "Feature", "geometry": {"type": "Polygon", "coordinates": [[[-99.3210662, 34.6793606], [-99.3209562, 34.6793583], [-99.3209589, 34.6792707], [-99.3210689, 34.6792731], [-99.3210662, 34.6793606]]]}, "properties": {"osm_id": 1164887888, "building": "yes", "name": "", "height": null, "height_m": null, "levels": null, "tract_id": "40065968400", "tract_name": "9684", "tags": {"building": "yes"}}}, {"type": "Feature", "geometry": {"type": "Polygon", "coordinates": [[[-99.3186215, 34.6795891], [-99.3185864, 34.6796241], [-99.318597, 34.6796313], [-99.3185265, 34.6797016], [-99.3185158, 34.6796944], [-99.3184662, 34.6797439], [-99.3183395, 34.6796579], [-99.3184948, 34.6795031], [-99.3186215, 34.6795891]]]}, "properties": {"osm_id": 1164887889, "building": "yes", "name": "", "height": null, "height_m": null, "levels": null, "tract_id": "40065968400", "tract_name": "9684", "tags": {"building": "yes"}}}, {"type": "Feature", "geometry": {"type": "Polygon", "coordinates": [[[-99.3349336, 34.6749318], [-99.3349347, 34.6750267], [-99.3348627, 34.6750273], [-99.3348634, 34.6750939], [-99.3346331, 34.6750957], [-99.3346312, 34.6749342], [-99.3349336, 34.6749318]]]}, "properties": {"osm_id": 1164887890, "building": "yes", "name": "Applebee's", "height": null, "height_m": null, "levels": null, "tract_id": "40065968400", "tract_name": "9684", "tags": {"addr:city": "Altus", "addr:housenumber": "3501", "addr:postcode": "73521", "addr:street": "North Main Street", "amenity": "restaurant", "brand": "Applebee's Neighborhood Grill & Bar", "brand:wikidata": "Q621532", "building": "yes", "cuisine": "american", "name": "Applebee's", "official_name": "Applebee's Neighborhood Grill & Bar", "phone": "+1 580-480-1500", "website": "https://restaurants.applebees.com/en-us/ok/altus/3501-north-main-99056", "website:menu": "https://www.applebees.com/en/menu?StoreNumber=99056&action=viewmenu"}}}, {"type": "Feature", "geometry": {"type": "Polygon", "coordinates": [[[-99.3169625, 34.6722644], [-99.3167403, 34.672271], [-99.3167381, 34.6722222], [-99.3167098, 34.672223], [-99.3167066, 34.6721509], [-99.3168947, 34.6721453], [-99.3168956, 34.6721658], [-99.316934, 34.6721647], [-99.3169351, 34.6721903], [-99.3169592, 34.6721895], [-99.3169625, 34.6722644]]]}, "properties": {"osm_id": 1225834083, "building": "yes", "name": "", "height": null, "height_m": null, "levels": null, "tract_id": "40065968400", "tract_name": "9684", "tags": {"building": "yes"}}}, {"type": "Feature", "geometry": {"type": "Polygon", "coordinates": [[[-99.3337177, 34.6711213], [-99.3330311, 34.6711314], [-99.3330276, 34.6709743], [-99.3337124, 34.6709684], [-99.3337177, 34.6711213]]]}, "properties": {"osm_id": 1225852688, "building": "yes", "name": "Microtel Inn & Suites by Wyndham Altus", "height": null, "height_m": null, "levels": null, "tract_id": "40065968400", "tract_name": "9684", "tags": {"brand": "Microtel Inn & Suites", "brand:wikidata": "Q6840402", "building": "yes", "name": "Microtel Inn & Suites by Wyndham Altus", "official_name": "Microtel Inn & Suites by Wyndham", "tourism": "hotel"}}}, {"type": "Feature", "geometry": {"type": "Polygon", "coordinates": [[[-99.3322077, 34.6654246], [-99.3315125, 34.6654246], [-99.3315003, 34.6663927], [-99.3321975, 34.666386], [-99.3322077, 34.6654246]]]}, "properties": {"osm_id": 1230265196, "building": "yes", "name": "", "height": null, "height_m": null, "levels": null, "tract_id": "40065968400", "tract_name": "9684", "tags": {"building": "yes"}}}]}