{"type": "FeatureCollection", "features": [{"type": "Feature", "geometry": {"type": "Polygon", "coordinates": [[[-98.9867074, 35.5068469], [-98.9868873, 35.5065321], [-98.986773, 35.5064888], [-98.986843, 35.5063663], [-98.9869534, 35.5064081], [-98.9870049, 35.506318], [-98.9871659, 35.506379], [-98.9868645, 35.5069064], [-98.9867074, 35.5068469]]]}, "properties": {"osm_id": 457637249, "building": "yes", "name": "", "height": null, "height_m": null, "levels": null, "tract_id": "40039960402", "tract_name": "9604.02", "tags": {"building": "yes"}}}, {"type": "Feature", "geometry": {"type": "Polygon", "coordinates": [[[-98.976265, 35.514834], [-98.976265, 35.514516], [-98.976179, 35.514516], [-98.976179, 35.514834], [-98.976265, 35.514834]]]}, "properties": {"osm_id": 852386883, "building": "yes", "name": "", "height": null, "height_m": null, "levels": null, "tract_id": "40039960402", "tract_name": "9604.02", "tags": {"building": "yes", "source": "microsoft/BuildingFootprints"}}}, {"type": "Feature", "geometry": {"type": "Polygon", "coordinates": [[[-98.976447, 35.514516], [-98.97634, 35.514516], [-98.97634, 35.514837], [-98.976447, 35.514837], [-98.976447, 35.514516]]]}, "properties": {"osm_id": 852386884, "building": "yes", "name": "", "height": null, "height_m": null, "levels": null, "tract_id": "40039960402", "tract_name": "9604.02", "tags": {"building": "yes", "source": "microsoft/BuildingFootprints"}}}, {"type": "Feature", "geometry": {"type": "Polygon", "coordinates": [[[-98.976613, 35.514518], [-98.976535, 35.514518], [-98.976535, 35.514837], [-98.976613, 35.514837], [-98.976613, 35.514518]]]}, "properties": {"osm_id": 852386885, "building": "yes", "name": "", "height": null, "height_m": null, "levels": null, "tract_id": "40039960402", "tract_name": "9604.02", "tags": {"building": "yes", "source": "microsoft/BuildingFootprints"}}}, {"type": "Feature", "geometry": {"type": "Polygon", "coordinates": [[[-98.976686, 35.514838], [-98.976794, 35.514839], [-98.976796, 35.514519], [-98.976688, 35.514518], [-98.976686, 35.514838]]]}, "properties": {"osm_id": 852386886, "building": "yes", "name": "", "height": null, "height_m": null, "levels": null, "tract_id": "40039960402", "tract_name": "9604.02", "tags": {"building": "yes", "source": "microsoft/BuildingFootprints"}}}, {"type": "Feature", "geometry": {"type": "Polygon", "coordinates": [[[-98.977163, 35.51519], [-98.977163, 35.51497], [-98.977077, 35.51497], [-98.977077, 35.51519], [-98.977163, 35.51519]]]}, "properties": {"osm_id": 852386887, "building": "yes", "name": "", "height": null, "height_m": null, "levels": null, "tract_id": "40039960402", "tract_name": "9604.02", "tags": {"building": "yes", "source": "microsoft/BuildingFootprints"}}}, {"type": "Feature", "geometry": {"type": "Polygon", "coordinates": [[[-98.976899, 35.515536], [-98.976901, 35.515599], [-98.977012, 35.515597], [-98.97701, 35.515534], [-98.976899, 35.515536]]]}, "properties": {"osm_id": 852386888, "building": "yes", "name": "", "height": null, "height_m": null, "levels": null, "tract_id": "40039960402", "tract_name": "9604.02", "tags": {"building": "yes", "source": "microsoft/BuildingFootprints"}}}, {"type": "Feature", "geometry": {"type": "Polygon", "coordinates": [[[-98.976857, 35.51586], [-98.977083, 35.51586], [-98.977083, 35.515732], [-98.976857, 35.515732], [-98.976857, 35.51586]]]}, "properties": {"osm_id": 852386889, "building": "yes", "name": "", "height": null, "height_m": null, "levels": null, "tract_id": "40039960402", "tract_name": "9604.02", "tags": {"building": "yes", "source": "microsoft/BuildingFootprints"}}}, {"type": "Feature", "geometry": {"type": "Polygon", "coordinates": [[[-98.976841, 35.516077], [-98.977026, 35.516077], [-98.977026, 35.515961], [-98.976841, 35.515961], [-98.976841, 35.516077]]]}, "properties": {"osm_id": 852386890, "building": "yes", "name": "", "height": null, "height_m": null, "levels": null, "tract_id": "40039960402", "tract_name": "9604.02", "tags": {"building": "yes", "source": "microsoft/BuildingFootprints"}}}, {"type": "Feature", "geometry": {"type": "Polygon", "coordinates": [[[-98.977015, 35.516257], [-98.977016, 35.51629], [-98.977136, 35.516289], [-98.977135, 35.516138], [-98.976921, 35.51614], [-98.976922, 35.516257], [-98.977015, 35.516257]]]}, "properties": {"osm_id": 852386891, "building": "yes", "name": "", "height": null, "height_m": null, "levels": null, "tract_id": "40039960402", "tract_name": "9604.02", "tags": {"building": "yes", "source": "microsoft/BuildingFootprints"}}}, {"type": "Feature", "geometry": {"type": "Polygon", "coordinates": [[[-98.976187, 35.513911], [-98.976187, 35.514016], [-98.976329, 35.514016], [-98.976329, 35.513911], [-98.976187, 35.513911]]]}, "properties": {"osm_id": 852386894, "building": "yes", "name": "", "height": null, "height_m": null, "levels": null, "tract_id": "40039960402", "tract_name": "9604.02", "tags": {"building": "yes", "source": "microsoft/BuildingFootprints"}}}, {"type": "Feature", "geometry": {"type": "Polygon", "coordinates": [[[-98.976608, 35.512795], [-98.976608, 35.512869], [-98.976761, 35.512869], [-98.976761, 35.512795], [-98.976608, 35.512795]]]}, "properties": {"osm_id": 852386895, "building": "yes", "name": "", "height": null, "height_m": null, "levels": null, "tract_id": "40039960402", "tract_name": "9604.02", "tags": {"building": "yes", "source": "microsoft/BuildingFootprints"}}}, {"type": "Feature", "geometry": {"type": "Polygon", "coordinates": [[[-98.976434, 35.511127], [-98.976249, 35.511127], [-98.976249, 35.511225], [-98.976434, 35.511225], [-98.976434, 35.511127]]]}, "properties": {"osm_id": 852386896, "building": "yes", "name": "", "height": null, "height_m": null, "levels": null, "tract_id": "40039960402", "tract_name": "9604.02", "tags": {"building": "yes", "source": "microsoft/BuildingFootprints"}}}, {"type": "Feature", "geometry": {"type": "Polygon", "coordinates": [[[-98.976466, 35.511225], [-98.976645, 35.511225], [-98.976645, 35.511129], [-98.976466, 35.511129], [-98.976466, 35.511225]]]}, "properties": {"osm_id": 852386897, "building": "yes", "name": "", "height": null, "height_m": null, "levels": null, "tract_id": "40039960402", "tract_name": "9604.02", "tags": {"building": "yes", "source": "microsoft/BuildingFootprints"}}}, {"type": "Feature", "geometry": {"type": "Polygon", "coordinates": [[[-98.977025, 35.511082], [-98.976789, 35.511084], [-98.976789, 35.511154], [-98.976917, 35.511153], [-98.976918, 35.511239], [-98.977026, 35.511238], [-98.977025, 35.511082]]]}, "properties": {"osm_id": 852386898, "building": "yes", "name": "", "height": null, "height_m": null, "levels": null, "tract_id": "40039960402", "tract_name": "9604.02", "tags": {"building": "yes", "source": "microsoft/BuildingFootprints"}}}, {"type": "Feature", "geometry": {"type": "Polygon", "coordinates": [[[-98.9844464, 35.496256], [-98.9837333, 35.4966068], [-98.9838483, 35.4967617], [-98.9845613, 35.4964108], [-98.9844464, 35.496256]]]}, "properties": {"osm_id": 962298925, "building": "hotel", "name": "Holiday Inn Express & Suites Clinton", "height": null, "height_m": null, "levels": null, "tract_id": "40039960402", "tract_name": "9604.02", "tags": {"addr:city": "Clinton", "addr:housenumber": "2000", "addr:postcode": "73601", "addr:state": "OK", "addr:street": "Boulevard of Champions", "brand": "Holiday Inn Express & Suites", "brand:wikidata": "Q5880423", "building": "hotel", "email": "hixmanager@clintonamerica.com", "internet_access": "wlan", "internet_access:fee": "customers", "name": "Holiday Inn Express & Suites Clinton", "phone": "+1 580-323-1950", "tourism": "hotel", "website": "https://www.ihg.com/holidayinnexpress/hotels/us/en/clinton/csmsh/hoteldetail"}}}, {"type": "Feature", "geometry": {"type": "Polygon", "coordinates": [[[-98.9827911, 35.4970054], [-98.9826477, 35.4965451], [-98.9829694, 35.4964787], [-98.9830001, 35.4965771], [-98.9832982, 35.4965155], [-98.983324, 35.4965983], [-98.9836133, 35.4965386], [-98.9837002, 35.4968178], [-98.9835499, 35.4968488], [-98.9827911, 35.4970054]]]}, "properties": {"osm_id": 962298926, "building": "yes", "name": "Water-Zoo Clinton Indoor Water Park", "height": null, "height_m": null, "levels": null, "tract_id": "40039960402", "tract_name": "9604.02", "tags": {"addr:city": "Clinton", "addr:housenumber": "1900", "addr:postcode": "73601", "addr:state": "OK", "addr:street": "Boulevard of Champions", "building": "yes", "leisure": "water_park", "name": "Water-Zoo Clinton Indoor Water Park", "opening_hours": "Fr 16:00-21:00; Sa-Su 10:00-20:00", "phone": "+1 580-323-9966", "sport": "swimming", "website": "https://www.water-zoo.com/"}}}, {"type": "Feature", "geometry": {"type": "Polygon", "coordinates": [[[-98.9787325, 35.4969149], [-98.9785095, 35.496858], [-98.9785644, 35.4967153], [-98.9787874, 35.4967721], [-98.9787325, 35.4969149]]]}, "properties": {"osm_id": 1017572935, "building": "retail", "name": "", "height": null, "height_m": null, "levels": null, "tract_id": "40039960402", "tract_name": "9604.02", "tags": {"building": "retail"}}}, {"type": "Feature", "geometry": {"type": "Polygon", "coordinates": [[[-98.9783015, 35.4968038], [-98.9783486, 35.4966687], [-98.9785151, 35.4967072], [-98.9784679, 35.4968423], [-98.9783015, 35.4968038]]]}, "properties": {"osm_id": 1017572937, "building": "roof", "name": "Phillips 66", "height": null, "height_m": null, "levels": null, "tract_id": "40039960402", "tract_name": "9604.02", "tags": {"amenity": "fuel", "brand": "Phillips 66", "brand:wikidata": "Q1656230", "building": "roof", "name": "Phillips 66", "website": "https://www.phillips66gas.com/station/P66-NEPTUNE-66-0000911401/"}}}, {"type": "Feature", "geometry": {"type": "Polygon", "coordinates": [[[-98.9876556, 35.5053024], [-98.9873592, 35.5052413], [-98.987378, 35.5051441], [-98.9876784, 35.5051954], [-98.9876556, 35.5053024]]]}, "properties": {"osm_id": 1150535779, "building": "yes", "name": "", "height": null, "height_m": null, "levels": null, "tract_id": "40039960402", "tract_name": "9604.02", "tags": {"addr:city": "Clinton", "addr:housenumber": "2229", "addr:postcode": "73601", "addr:state": "OK", "addr:street": "West Gary Boulevard", "building": "yes"}}}, {"type": "Feature", "geometry": {"type": "Polygon", "coordinates": [[[-98.9863775, 35.505404], [-98.9862716, 35.505404], [-98.9862649, 35.5050328], [-98.9863681, 35.5050306], [-98.9863775, 35.505404]]]}, "properties": {"osm_id": 1150535782, "building": "roof", "name": "Phillips 66", "height": null, "height_m": null, "levels": null, "tract_id": "40039960402", "tract_name": "9604.02", "tags": {"addr:city": "Clinton", "addr:housenumber": "2136", "addr:postcode": "73601", "addr:state": "OK", "addr:street": "West Gary Boulevard", "amenity": "fuel", "brand": "Phillips 66", "brand:wikidata": "Q1656230", "building": "roof", "fuel:Regular": "yes", "fuel:diesel": "yes", "name": "Phillips 66", "note": "I do not know if any other types of fuel are sold here but assume yes.", "operator": "Hutch's", "self_service": "yes", "website": "https://www.phillips66gas.com/station/P66-HUTCH121-0000890780/"}}}, {"type": "Feature", "geometry": {"type": "Polygon", "coordinates": [[[-98.9926145, 35.5080147], [-98.9926167, 35.5082046], [-98.9926676, 35.5082042], [-98.992668, 35.5082326], [-98.9928772, 35.5082311], [-98.9928769, 35.508206], [-98.9929159, 35.5082057], [-98.9929137, 35.5080124], [-98.9928291, 35.5080131], [-98.9928289, 35.5079912], [-98.9926909, 35.5079923], [-98.9926911, 35.5080141], [-98.9926145, 35.5080147]]]}, "properties": {"osm_id": 1205966420, "building": "yes", "name": "", "height": null, "height_m": null, "levels": null, "tract_id": "40039960402", "tract_name": "9604.02", "tags": {"building": "yes", "source": "microsoft/BuildingFootprints"}}}, {"type": "Feature", "geometry": {"type": "Polygon", "coordinates": [[[-98.9931363, 35.5078653], [-98.9931399, 35.5082343], [-98.9933411, 35.508233], [-98.9933393, 35.5080562], [-98.9933742, 35.508056], [-98.9933723, 35.5078638], [-98.9931363, 35.5078653]]]}, "properties": {"osm_id": 1205966421, "building": "yes", "name": "", "height": null, "height_m": null, "levels": null, "tract_id": "40039960402", "tract_name": "9604.02", "tags": {"building": "yes", "source": "microsoft/BuildingFootprints"}}}, {"type": "Feature", "geometry": {"type": "Polygon", "coordinates": [[[-98.9926698, 35.5076396], [-98.993315, 35.5076441], [-98.9933161, 35.5075437], [-98.9926709, 35.5075391], [-98.9926698, 35.5076396]]]}, "properties": {"osm_id": 1205966423, "building": "yes", "name": "", "height": null, "height_m": null, "levels": null, "tract_id": "40039960402", "tract_name": "9604.02", "tags": {"building": "yes", "source": "microsoft/BuildingFootprints"}}}, {"type": "Feature", "geometry": {"type": "Polygon", "coordinates": [[[-98.9926713, 35.5073109], [-98.9926725, 35.5074637], [-98.9933511, 35.5074601], [-98.9933499, 35.5073072], [-98.9926713, 35.5073109]]]}, "properties": {"osm_id": 1205966424, "building": "yes", "name": "", "height": null, "height_m": null, "levels": null, "tract_id": "40039960402", "tract_name": "9604.02", "tags": {"building": "yes", "source": "microsoft/BuildingFootprints"}}}, {"type": "Feature", "geometry": {"type": "Polygon", "coordinates": [[[-98.9935443, 35.5072925], [-98.9934386, 35.5072941], [-98.9934451, 35.507568], [-98.9935508, 35.5075664], [-98.9935443, 35.5072925]]]}, "properties": {"osm_id": 1205966425, "building": "yes", "name": "", "height": null, "height_m": null, "levels": null, "tract_id": "40039960402", "tract_name": "9604.02", "tags": {"building": "yes", "source": "microsoft/BuildingFootprints"}}}, {"type": "Feature", "geometry": {"type": "Polygon", "coordinates": [[[-98.9918931, 35.5074534], [-98.9925717, 35.5074591], [-98.9925736, 35.5073063], [-98.991895, 35.5073006], [-98.9918931, 35.5074534]]]}, "properties": {"osm_id": 1205966426, "building": "yes", "name": "", "height": null, "height_m": null, "levels": null, "tract_id": "40039960402", "tract_name": "9604.02", "tags": {"building": "yes", "source": "microsoft/BuildingFootprints"}}}, {"type": "Feature", "geometry": {"type": "Polygon", "coordinates": [[[-98.9925734, 35.5075261], [-98.9918933, 35.5075194], [-98.9918916, 35.5076352], [-98.9925717, 35.5076418], [-98.9925734, 35.5075261]]]}, "properties": {"osm_id": 1205966427, "building": "yes", "name": "", "height": null, "height_m": null, "levels": null, "tract_id": "40039960402", "tract_name": "9604.02", "tags": {"building": "yes", "source": "microsoft/BuildingFootprints"}}}, {"type": "Feature", "geometry": {"type": "Polygon", "coordinates": [[[-98.9917919, 35.5075201], [-98.9910651, 35.5075215], [-98.9910653, 35.5075957], [-98.9917921, 35.5075943], [-98.9917919, 35.5075201]]]}, "properties": {"osm_id": 1205966428, "building": "yes", "name": "", "height": null, "height_m": null, "levels": null, "tract_id": "40039960402", "tract_name": "9604.02", "tags": {"building": "yes", "source": "microsoft/BuildingFootprints"}}}, {"type": "Feature", "geometry": {"type": "Polygon", "coordinates": [[[-98.9917955, 35.5073022], [-98.9911534, 35.5072958], [-98.9911511, 35.5074486], [-98.9917932, 35.507455], [-98.9917955, 35.5073022]]]}, "properties": {"osm_id": 1205966429, "building": "yes", "name": "", "height": null, "height_m": null, "levels": null, "tract_id": "40039960402", "tract_name": "9604.02", "tags": {"building": "yes", "source": "microsoft/BuildingFootprints"}}}, {"type": "Feature", "geometry": {"type": "Polygon", "coordinates": [[[-98.9912186, 35.5080947], [-98.9912183, 35.5082825], [-98.9916126, 35.5082828], [-98.9916127, 35.5082195], [-98.9917066, 35.5082196], [-98.9917068, 35.5080602], [-98.991598, 35.5080601], [-98.991598, 35.5080208], [-98.9914761, 35.5080207], [-98.991476, 35.5080949], [-98.9912186, 35.5080947]]]}, "properties": {"osm_id": 1205966430, "building": "yes", "name": "", "height": null, "height_m": null, "levels": null, "tract_id": "40039960402", "tract_name": "9604.02", "tags": {"building": "yes", "source": "microsoft/BuildingFootprints"}}}, {"type": "Feature", "geometry": {"type": "Polygon", "coordinates": [[[-98.9922415, 35.5078974], [-98.9920484, 35.5078991], [-98.9920519, 35.5081709], [-98.9920841, 35.5081706], [-98.9920845, 35.5082033], [-98.9921596, 35.5082027], [-98.992159, 35.5081569], [-98.9923146, 35.5081556], [-98.9923141, 35.5081206], [-98.9922968, 35.5081208], [-98.9922957, 35.5080334], [-98.9923157, 35.5080333], [-98.992315, 35.507982], [-98.9922426, 35.5079826], [-98.9922415, 35.5078974]]]}, "properties": {"osm_id": 1205966431, "building": "yes", "name": "", "height": null, "height_m": null, "levels": null, "tract_id": "40039960402", "tract_name": "9604.02", "tags": {"building": "yes", "source": "microsoft/BuildingFootprints"}}}, {"type": "Feature", "geometry": {"type": "Polygon", "coordinates": [[[-98.990624, 35.5076196], [-98.9906524, 35.5075843], [-98.9909294, 35.5074371], [-98.9908466, 35.5073338], [-98.9905762, 35.5074775], [-98.990565, 35.5074776], [-98.9905325, 35.5074602], [-98.9905321, 35.5073763], [-98.9904045, 35.5073767], [-98.990405, 35.5074751], [-98.9903932, 35.5074898], [-98.9901023, 35.5073346], [-98.9900193, 35.5074377], [-98.9903091, 35.5075922], [-98.9903093, 35.5076193], [-98.9902771, 35.5076593], [-98.9900161, 35.507798], [-98.9900966, 35.5078984], [-98.9904053, 35.5077343], [-98.9904057, 35.5077938], [-98.9905302, 35.5077933], [-98.9905299, 35.5077418], [-98.9905355, 35.5077348], [-98.9908434, 35.5078989], [-98.9909238, 35.5077989], [-98.9907564, 35.5077096], [-98.9907456, 35.5076961], [-98.9906404, 35.5076401], [-98.990624, 35.5076196]]]}, "properties": {"osm_id": 1205966435, "building": "yes", "name": "", "height": null, "height_m": null, "levels": null, "tract_id": "40039960402", "tract_name": "9604.02", "tags": {"building": "yes", "source": "microsoft/BuildingFootprints"}}}, {"type": "Feature", "geometry": {"type": "Polygon", "coordinates": [[[-98.9893701, 35.5083797], [-98.9895885, 35.5083816], [-98.9895919, 35.5081109], [-98.9893735, 35.508109], [-98.9893701, 35.5083797]]]}, "properties": {"osm_id": 1205966437, "building": "yes", "name": "", "height": null, "height_m": null, "levels": null, "tract_id": "40039960402", "tract_name": "9604.02", "tags": {"building": "yes", "source": "microsoft/BuildingFootprints"}}}, {"type": "Feature", "geometry": {"type": "Polygon", "coordinates": [[[-98.989665, 35.508101], [-98.989665, 35.508282], [-98.989759, 35.508282], [-98.989759, 35.508101], [-98.989665, 35.508101]]]}, "properties": {"osm_id": 1205966438, "building": "yes", "name": "", "height": null, "height_m": null, "levels": null, "tract_id": "40039960402", "tract_name": "9604.02", "tags": {"building": "yes", "source": "microsoft/BuildingFootprints"}}}, {"type": "Feature", "geometry": {"type": "Polygon", "coordinates": [[[-98.9884969, 35.5076447], [-98.9878844, 35.5074396], [-98.9878258, 35.5075696], [-98.9879117, 35.5075937], [-98.9880829, 35.5076417], [-98.98822, 35.5076801], [-98.9883667, 35.5078148], [-98.9884954, 35.5078612], [-98.9884972, 35.507895], [-98.9880132, 35.5077631], [-98.9879572, 35.50787], [-98.9884885, 35.5080128], [-98.9884949, 35.5080481], [-98.9884132, 35.5080262], [-98.9882031, 35.5080514], [-98.9882242, 35.5081681], [-98.9883634, 35.5081514], [-98.9883835, 35.5082625], [-98.9885489, 35.5082426], [-98.9885423, 35.5082063], [-98.9885843, 35.5082013], [-98.9885868, 35.5082147], [-98.9887672, 35.5082633], [-98.9885962, 35.5073199], [-98.9883574, 35.5073486], [-98.988374, 35.5074405], [-98.988458, 35.5074304], [-98.9884969, 35.5076447]]]}, "properties": {"osm_id": 1205966439, "building": "yes", "name": "", "height": null, "height_m": null, "levels": null, "tract_id": "40039960402", "tract_name": "9604.02", "tags": {"building": "yes", "source": "microsoft/BuildingFootprints"}}}, {"type": "Feature", "geometry": {"type": "Polygon", "coordinates": [[[-98.9880829, 35.5076417], [-98.9880513, 35.5077451], [-98.9880108, 35.5077347], [-98.9879876, 35.5077988], [-98.9878533, 35.5077564], [-98.9879117, 35.5075937], [-98.9880829, 35.5076417]]]}, "properties": {"osm_id": 1205966440, "building": "yes", "name": "", "height": null, "height_m": null, "levels": null, "tract_id": "40039960402", "tract_name": "9604.02", "tags": {"building": "yes"}}}, {"type": "Feature", "geometry": {"type": "Polygon", "coordinates": [[[-98.9872425, 35.5081231], [-98.9871164, 35.508122], [-98.9871125, 35.5084123], [-98.9872385, 35.5084134], [-98.9872425, 35.5081231]]]}, "properties": {"osm_id": 1205966441, "building": "yes", "name": "", "height": null, "height_m": null, "levels": null, "tract_id": "40039960402", "tract_name": "9604.02", "tags": {"building": "yes", "source": "microsoft/BuildingFootprints"}}}, {"type": "Feature", "geometry": {"type": "Polygon", "coordinates": [[[-98.9867602, 35.508412], [-98.9869023, 35.508409], [-98.9868967, 35.5082301], [-98.9867547, 35.508233], [-98.9867602, 35.508412]]]}, "properties": {"osm_id": 1205966442, "building": "yes", "name": "", "height": null, "height_m": null, "levels": null, "tract_id": "40039960402", "tract_name": "9604.02", "tags": {"building": "yes", "source": "microsoft/BuildingFootprints"}}}, {"type": "Feature", "geometry": {"type": "Polygon", "coordinates": [[[-98.9843293, 35.5082117], [-98.9838116, 35.5082082], [-98.9838097, 35.5084025], [-98.9843729, 35.5084063], [-98.9843743, 35.5082665], [-98.9843287, 35.5082662], [-98.9843293, 35.5082117]]]}, "properties": {"osm_id": 1205966446, "building": "yes", "name": "", "height": null, "height_m": null, "levels": null, "tract_id": "40039960402", "tract_name": "9604.02", "tags": {"building": "yes", "source": "microsoft/BuildingFootprints"}}}, {"type": "Feature", "geometry": {"type": "Polygon", "coordinates": [[[-98.9847542, 35.5077125], [-98.9844592, 35.5077151], [-98.9844619, 35.5079181], [-98.984494, 35.5079178], [-98.9844999, 35.5083588], [-98.984752, 35.5083566], [-98.9847467, 35.5079571], [-98.9847318, 35.5079572], [-98.9847313, 35.5079201], [-98.9847569, 35.5079199], [-98.9847542, 35.5077125]]]}, "properties": {"osm_id": 1205966447, "building": "yes", "name": "", "height": null, "height_m": null, "levels": null, "tract_id": "40039960402", "tract_name": "9604.02", "tags": {"building": "yes", "source": "microsoft/BuildingFootprints"}}}, {"type": "Feature", "geometry": {"type": "Polygon", "coordinates": [[[-98.9836516, 35.5076618], [-98.9836499, 35.5078462], [-98.9836982, 35.5078465], [-98.983696, 35.5080769], [-98.9839708, 35.5080786], [-98.9839746, 35.5076638], [-98.9836516, 35.5076618]]]}, "properties": {"osm_id": 1205966448, "building": "yes", "name": "", "height": null, "height_m": null, "levels": null, "tract_id": "40039960402", "tract_name": "9604.02", "tags": {"building": "yes", "source": "microsoft/BuildingFootprints"}}}, {"type": "Feature", "geometry": {"type": "Polygon", "coordinates": [[[-98.9847044, 35.5069058], [-98.983543, 35.5069057], [-98.983543, 35.5070367], [-98.9839078, 35.5070367], [-98.9839078, 35.5071515], [-98.9838541, 35.5071515], [-98.9838541, 35.5070455], [-98.9838155, 35.5070455], [-98.9838155, 35.5071525], [-98.9837833, 35.5071525], [-98.9837833, 35.5072813], [-98.9836905, 35.5072813], [-98.9836905, 35.5075193], [-98.9839415, 35.5075193], [-98.9839415, 35.5072825], [-98.9847044, 35.5072826], [-98.9847044, 35.5071494], [-98.9841841, 35.5071494], [-98.9841841, 35.5070368], [-98.9847044, 35.5070368], [-98.9847044, 35.5069058]]]}, "properties": {"osm_id": 1205966449, "building": "yes", "name": "", "height": null, "height_m": null, "levels": null, "tract_id": "40039960402", "tract_name": "9604.02", "tags": {"building": "yes", "source": "microsoft/BuildingFootprints"}}}, {"type": "Feature", "geometry": {"type": "Polygon", "coordinates": [[[-98.9806569, 35.5069811], [-98.9809358, 35.5069838], [-98.9809368, 35.5069139], [-98.9808698, 35.5069133], [-98.9808704, 35.5068674], [-98.9809364, 35.506868], [-98.9809374, 35.5067982], [-98.9808607, 35.5067974], [-98.9808611, 35.506768], [-98.9807244, 35.5067666], [-98.9807239, 35.5067972], [-98.9806504, 35.5067965], [-98.9806494, 35.5068653], [-98.9806586, 35.5068654], [-98.9806569, 35.5069811]]]}, "properties": {"osm_id": 1205966454, "building": "yes", "name": "", "height": null, "height_m": null, "levels": null, "tract_id": "40039960402", "tract_name": "9604.02", "tags": {"building": "yes", "source": "microsoft/BuildingFootprints"}}}, {"type": "Feature", "geometry": {"type": "Polygon", "coordinates": [[[-98.9806397, 35.5070114], [-98.9806423, 35.5072276], [-98.9807431, 35.5072268], [-98.9807427, 35.507194], [-98.980835, 35.5071933], [-98.9808354, 35.5072261], [-98.9809443, 35.5072252], [-98.9809417, 35.5070112], [-98.9808318, 35.5070121], [-98.9808325, 35.5070787], [-98.9807494, 35.5070794], [-98.9807486, 35.5070106], [-98.9806397, 35.5070114]]]}, "properties": {"osm_id": 1205966455, "building": "yes", "name": "", "height": null, "height_m": null, "levels": null, "tract_id": "40039960402", "tract_name": "9604.02", "tags": {"building": "yes", "source": "microsoft/BuildingFootprints"}}}, {"type": "Feature", "geometry": {"type": "Polygon", "coordinates": [[[-98.9807803, 35.5072787], [-98.9808687, 35.5072759], [-98.9808665, 35.507229], [-98.9808049, 35.507231], [-98.9808035, 35.5072027], [-98.9807542, 35.5072042], [-98.9807558, 35.507238], [-98.9807784, 35.5072373], [-98.9807803, 35.5072787]]]}, "properties": {"osm_id": 1205966456, "building": "roof", "name": "", "height": null, "height_m": null, "levels": null, "tract_id": "40039960402", "tract_name": "9604.02", "tags": {"building": "roof", "layer": "1", "source": "microsoft/BuildingFootprints"}}}, {"type": "Feature", "geometry": {"type": "Polygon", "coordinates": [[[-98.9813794, 35.5067831], [-98.9811729, 35.5067799], [-98.9811712, 35.5068552], [-98.9812677, 35.5068567], [-98.9812658, 35.5069407], [-98.9813757, 35.5069424], [-98.9813794, 35.5067831]]]}, "properties": {"osm_id": 1205966457, "building": "yes", "name": "", "height": null, "height_m": null, "levels": null, "tract_id": "40039960402", "tract_name": "9604.02", "tags": {"building": "yes", "source": "microsoft/BuildingFootprints"}}}, {"type": "Feature", "geometry": {"type": "Polygon", "coordinates": [[[-98.9813442, 35.5071883], [-98.9812422, 35.5071884], [-98.9812424, 35.5073085], [-98.981237, 35.5073085], [-98.9812372, 35.507505], [-98.981079, 35.5075051], [-98.9810791, 35.5075816], [-98.9813446, 35.5075813], [-98.9813442, 35.5071883]]]}, "properties": {"osm_id": 1205966458, "building": "yes", "name": "", "height": null, "height_m": null, "levels": null, "tract_id": "40039960402", "tract_name": "9604.02", "tags": {"building": "yes", "source": "microsoft/BuildingFootprints"}}}, {"type": "Feature", "geometry": {"type": "Polygon", "coordinates": [[[-98.9811909, 35.5071738], [-98.9813143, 35.5071751], [-98.9813178, 35.506959], [-98.9811944, 35.5069577], [-98.9811909, 35.5071738]]]}, "properties": {"osm_id": 1205966459, "building": "yes", "name": "", "height": null, "height_m": null, "levels": null, "tract_id": "40039960402", "tract_name": "9604.02", "tags": {"building": "yes", "source": "microsoft/BuildingFootprints"}}}, {"type": "Feature", "geometry": {"type": "Polygon", "coordinates": [[[-98.9803427, 35.5072495], [-98.9802509, 35.5073279], [-98.9804364, 35.5074718], [-98.9803527, 35.5075433], [-98.9804567, 35.507624], [-98.9805438, 35.5075496], [-98.9805986, 35.5075921], [-98.980687, 35.5075166], [-98.9803427, 35.5072495]]]}, "properties": {"osm_id": 1205966460, "building": "yes", "name": "", "height": null, "height_m": null, "levels": null, "tract_id": "40039960402", "tract_name": "9604.02", "tags": {"building": "yes", "source": "microsoft/BuildingFootprints"}}}, {"type": "Feature", "geometry": {"type": "Polygon", "coordinates": [[[-98.9809036, 35.5075812], [-98.9810431, 35.5075834], [-98.9810455, 35.507483], [-98.9808191, 35.5074794], [-98.980816, 35.5076071], [-98.980903, 35.5076085], [-98.9809036, 35.5075812]]]}, "properties": {"osm_id": 1205966461, "building": "yes", "name": "", "height": null, "height_m": null, "levels": null, "tract_id": "40039960402", "tract_name": "9604.02", "tags": {"building": "yes", "source": "microsoft/BuildingFootprints"}}}, {"type": "Feature", "geometry": {"type": "Polygon", "coordinates": [[[-98.9803152, 35.5071879], [-98.9804289, 35.5071866], [-98.9804216, 35.5067664], [-98.9803079, 35.5067677], [-98.9803101, 35.5068954], [-98.9802725, 35.5068958], [-98.9802741, 35.5069853], [-98.9803117, 35.5069849], [-98.9803152, 35.5071879]]]}, "properties": {"osm_id": 1205966462, "building": "yes", "name": "", "height": null, "height_m": null, "levels": null, "tract_id": "40039960402", "tract_name": "9604.02", "tags": {"building": "yes", "source": "microsoft/BuildingFootprints"}}}, {"type": "Feature", "geometry": {"type": "Polygon", "coordinates": [[[-98.976628, 35.5084627], [-98.9766297, 35.5083457], [-98.9762301, 35.5083419], [-98.9762284, 35.5084589], [-98.976628, 35.5084627]]]}, "properties": {"osm_id": 1205966464, "building": "yes", "name": "", "height": null, "height_m": null, "levels": null, "tract_id": "40039960402", "tract_name": "9604.02", "tags": {"building": "yes", "source": "microsoft/BuildingFootprints"}}}, {"type": "Feature", "geometry": {"type": "Polygon", "coordinates": [[[-98.9765367, 35.5084679], [-98.9762551, 35.5084642], [-98.9762539, 35.5085275], [-98.9765354, 35.5085312], [-98.9765367, 35.5084679]]]}, "properties": {"osm_id": 1205966465, "building": "yes", "name": "", "height": null, "height_m": null, "levels": null, "tract_id": "40039960402", "tract_name": "9604.02", "tags": {"building": "yes", "source": "microsoft/BuildingFootprints"}}}, {"type": "Feature", "geometry": {"type": "Polygon", "coordinates": [[[-98.9933848, 35.4951715], [-98.9933481, 35.4946491], [-98.9930763, 35.4946391], [-98.9931075, 35.4951821], [-98.9933848, 35.4951715]]]}, "properties": {"osm_id": 1225720717, "building": "yes", "name": "La Quinta Inn & Suites Clinton Historic Route 66", "height": null, "height_m": null, "levels": null, "tract_id": "40039960402", "tract_name": "9604.02", "tags": {"addr:city": "Clinton", "addr:housenumber": "2715", "addr:postcode": "73601", "addr:state": "OK", "addr:street": "Chapman Road", "branch": "Clinton Historic Route 66", "brand": "La Quinta Inn & Suites", "brand:wikidata": "Q6464734", "building": "yes", "name": "La Quinta Inn & Suites Clinton Historic Route 66", "phone": "+1 580-547-4128", "ref": "53000", "tourism": "hotel", "website": "https://www.wyndhamhotels.com/laquinta/clinton-oklahoma/la-quinta-clinton-historic-route-66/overview"}}}, {"type": "Feature", "geometry": {"type": "Polygon", "coordinates": [[[-98.9850763, 35.505446], [-98.9850692, 35.5050124], [-98.9852593, 35.5050083], [-98.9852583, 35.5054468], [-98.9850763, 35.505446]]]}, "properties": {"osm_id": 1230253320, "building": "yes", "name": "", "height": null, "height_m": null, "levels": null, "tract_id": "40039960402", "tract_name": "9604.02", "tags": {"building": "yes"}}}, {"type": "Feature", "geometry": {"type": "Polygon", "coordinates": [[[-98.9788141, 35.5130718], [-98.9786893, 35.5130711], [-98.9786867, 35.5129883], [-98.9787548, 35.5129919], [-98.9787521, 35.5129645], [-98.9788212, 35.5129624], [-98.9788238, 35.5130365], [-98.978815, 35.5130373], [-98.978815, 35.513056], [-98.9788141, 35.5130718]]]}, "properties": {"osm_id": 1315098804, "building": "yes", "name": "", "height": null, "height_m": null, "levels": null, "tract_id": "40039960402", "tract_name": "9604.02", "tags": {"building": "yes"}}}, {"type": "Feature", "geometry": {"type": "Polygon", "coordinates": [[[-98.9764775, 35.5089144], [-98.9764776, 35.5089362], [-98.9765809, 35.5089361], [-98.9765807, 35.5088379], [-98.9764869, 35.508838], [-98.9764868, 35.5088096], [-98.976244, 35.5088099], [-98.9762442, 35.5089147], [-98.9764775, 35.5089144]]]}, "properties": {"osm_id": 1408662829, "building": "yes", "name": "", "height": null, "height_m": null, "levels": null, "tract_id": "40039960402", "tract_name": "9604.02", "tags": {"building": "yes", "source": "microsoft/BuildingFootprints"}}}, {"type": "Feature", "geometry": {"type": "Polygon", "coordinates": [[[-98.9764997, 35.5090334], [-98.9765022, 35.5091258], [-98.976596, 35.5091242], [-98.9765936, 35.5090317], [-98.9764997, 35.5090334]]]}, "properties": {"osm_id": 1408662830, "building": "yes", "name": "", "height": null, "height_m": null, "levels": null, "tract_id": "40039960402", "tract_name": "9604.02", "tags": {"building": "yes", "source": "microsoft/BuildingFootprints"}}}, {"type": "Feature", "geometry": {"type": "Polygon", "coordinates": [[[-98.9764544, 35.509164], [-98.9762371, 35.5091655], [-98.976238, 35.5092485], [-98.9764177, 35.5092473], [-98.9764179, 35.5092713], [-98.9764555, 35.509271], [-98.9764544, 35.509164]]]}, "properties": {"osm_id": 1408662831, "building": "yes", "name": "", "height": null, "height_m": null, "levels": null, "tract_id": "40039960402", "tract_name": "9604.02", "tags": {"building": "yes", "source": "microsoft/BuildingFootprints"}}}, {"type": "Feature", "geometry": {"type": "Polygon", "coordinates": [[[-98.9763913, 35.5092831], [-98.9762519, 35.5092855], [-98.9762538, 35.5093611], [-98.9763933, 35.5093586], [-98.9763913, 35.5092831]]]}, "properties": {"osm_id": 1408662832, "building": "yes", "name": "", "height": null, "height_m": null, "levels": null, "tract_id": "40039960402", "tract_name": "9604.02", "tags": {"building": "yes", "source": "microsoft/BuildingFootprints"}}}, {"type": "Feature", "geometry": {"type": "Polygon", "coordinates": [[[-98.9764409, 35.5095012], [-98.9764433, 35.5094226], [-98.9762597, 35.5094189], [-98.9762556, 35.5095506], [-98.9763642, 35.5095528], [-98.9763658, 35.5094996], [-98.9764409, 35.5095012]]]}, "properties": {"osm_id": 1408662833, "building": "yes", "name": "", "height": null, "height_m": null, "levels": null, "tract_id": "40039960402", "tract_name": "9604.02", "tags": {"building": "yes", "source": "microsoft/BuildingFootprints"}}}, {"type": "Feature", "geometry": {"type": "Polygon", "coordinates": [[[-98.9765194, 35.5096457], [-98.9766106, 35.5096479], [-98.9766138, 35.5095571], [-98.9765227, 35.5095549], [-98.9765194, 35.5096457]]]}, "properties": {"osm_id": 1408662834, "building": "house", "name": "", "height": null, "height_m": null, "levels": null, "tract_id": "40039960402", "tract_name": "9604.02", "tags": {"building": "house", "source": "microsoft/BuildingFootprints"}}}, {"type": "Feature", "geometry": {"type": "Polygon", "coordinates": [[[-98.9767942, 35.5096455], [-98.976813, 35.5096451], [-98.9768161, 35.509749], [-98.9769354, 35.5097466], [-98.9769303, 35.5095772], [-98.9767923, 35.50958], [-98.9767942, 35.5096455]]]}, "properties": {"osm_id": 1408662835, "building": "yes", "name": "", "height": null, "height_m": null, "levels": null, "tract_id": "40039960402", "tract_name": "9604.02", "tags": {"building": "yes", "source": "microsoft/BuildingFootprints"}}}, {"type": "Feature", "geometry": {"type": "Polygon", "coordinates": [[[-98.9764516, 35.5097638], [-98.9762827, 35.5097618], [-98.976281, 35.5098557], [-98.9764499, 35.5098577], [-98.9764516, 35.5097638]]]}, "properties": {"osm_id": 1408662836, "building": "yes", "name": "", "height": null, "height_m": null, "levels": null, "tract_id": "40039960402", "tract_name": "9604.02", "tags": {"building": "yes", "source": "microsoft/BuildingFootprints"}}}, {"type": "Feature", "geometry": {"type": "Polygon", "coordinates": [[[-98.9767859, 35.5095464], [-98.9769575, 35.5095444], [-98.9769564, 35.5094855], [-98.9768894, 35.5094863], [-98.9768883, 35.5094251], [-98.9769446, 35.5094245], [-98.9769433, 35.5093524], [-98.9767824, 35.5093543], [-98.9767859, 35.5095464]]]}, "properties": {"osm_id": 1408662837, "building": "yes", "name": "", "height": null, "height_m": null, "levels": null, "tract_id": "40039960402", "tract_name": "9604.02", "tags": {"building": "yes", "source": "microsoft/BuildingFootprints"}}}, {"type": "Feature", "geometry": {"type": "Polygon", "coordinates": [[[-98.9767757, 35.5093073], [-98.9769044, 35.5093057], [-98.9769047, 35.509324], [-98.9769839, 35.509323], [-98.9769824, 35.5092466], [-98.9769395, 35.5092472], [-98.9769383, 35.5091795], [-98.9767733, 35.5091815], [-98.9767757, 35.5093073]]]}, "properties": {"osm_id": 1408662838, "building": "yes", "name": "", "height": null, "height_m": null, "levels": null, "tract_id": "40039960402", "tract_name": "9604.02", "tags": {"building": "yes", "source": "microsoft/BuildingFootprints"}}}, {"type": "Feature", "geometry": {"type": "Polygon", "coordinates": [[[-98.9767408, 35.5098056], [-98.9767449, 35.5100313], [-98.9768723, 35.5100298], [-98.9768703, 35.5099185], [-98.9770111, 35.5099168], [-98.977009, 35.5098024], [-98.9767408, 35.5098056]]]}, "properties": {"osm_id": 1408662839, "building": "yes", "name": "", "height": null, "height_m": null, "levels": null, "tract_id": "40039960402", "tract_name": "9604.02", "tags": {"building": "yes", "source": "microsoft/BuildingFootprints"}}}, {"type": "Feature", "geometry": {"type": "Polygon", "coordinates": [[[-98.9768382, 35.5101995], [-98.9768364, 35.5103021], [-98.9770295, 35.5103044], [-98.9770309, 35.5102236], [-98.9769236, 35.5102223], [-98.976924, 35.5102005], [-98.9768382, 35.5101995]]]}, "properties": {"osm_id": 1408662840, "building": "yes", "name": "", "height": null, "height_m": null, "levels": null, "tract_id": "40039960402", "tract_name": "9604.02", "tags": {"building": "yes", "source": "microsoft/BuildingFootprints"}}}, {"type": "Feature", "geometry": {"type": "Polygon", "coordinates": [[[-98.9767313, 35.510241], [-98.9767326, 35.5103297], [-98.9768144, 35.5103289], [-98.9768131, 35.5102402], [-98.9767313, 35.510241]]]}, "properties": {"osm_id": 1408662841, "building": "yes", "name": "", "height": null, "height_m": null, "levels": null, "tract_id": "40039960402", "tract_name": "9604.02", "tags": {"building": "yes", "source": "microsoft/BuildingFootprints"}}}, {"type": "Feature", "geometry": {"type": "Polygon", "coordinates": [[[-98.9764231, 35.5099881], [-98.9762394, 35.5099856], [-98.9762377, 35.5100708], [-98.9764214, 35.5100733], [-98.9764231, 35.5099881]]]}, "properties": {"osm_id": 1408662842, "building": "yes", "name": "", "height": null, "height_m": null, "levels": null, "tract_id": "40039960402", "tract_name": "9604.02", "tags": {"building": "yes", "source": "microsoft/BuildingFootprints"}}}, {"type": "Feature", "geometry": {"type": "Polygon", "coordinates": [[[-98.9765035, 35.5100261], [-98.9764579, 35.5100272], [-98.9764597, 35.5100765], [-98.9764248, 35.5100773], [-98.9764269, 35.5101341], [-98.9765702, 35.5101307], [-98.9765681, 35.5100718], [-98.9765052, 35.5100733], [-98.9765035, 35.5100261]]]}, "properties": {"osm_id": 1408662843, "building": "yes", "name": "", "height": null, "height_m": null, "levels": null, "tract_id": "40039960402", "tract_name": "9604.02", "tags": {"building": "yes", "source": "microsoft/BuildingFootprints"}}}, {"type": "Feature", "geometry": {"type": "Polygon", "coordinates": [[[-98.9764295, 35.5102115], [-98.9764297, 35.5102683], [-98.9762822, 35.5102686], [-98.9762825, 35.5103582], [-98.9765159, 35.5103576], [-98.9765155, 35.5102681], [-98.9765893, 35.5102679], [-98.9765891, 35.5102111], [-98.9764295, 35.5102115]]]}, "properties": {"osm_id": 1408662844, "building": "yes", "name": "", "height": null, "height_m": null, "levels": null, "tract_id": "40039960402", "tract_name": "9604.02", "tags": {"building": "yes", "source": "microsoft/BuildingFootprints"}}}]}