{"type": "FeatureCollection", "features": [{"type": "Feature", "geometry": {"type": "Polygon", "coordinates": [[[-99.7666478, 36.1347031], [-99.7666478, 36.1345973], [-99.7665112, 36.1345973], [-99.7665112, 36.1347031], [-99.7666478, 36.1347031]]]}, "properties": {"osm_id": 477119471, "building": "yes", "name": "", "height": null, "height_m": null, "levels": null, "tract_id": "40045952800", "tract_name": "9528", "tags": {"building": "yes"}}}, {"type": "Feature", "geometry": {"type": "Polygon", "coordinates": [[[-99.7668262, 36.1346197], [-99.7668255, 36.1342476], [-99.7667307, 36.1341367], [-99.766432, 36.1341378], [-99.7663428, 36.1342487], [-99.7663474, 36.1346177], [-99.7664392, 36.134617], [-99.7664348, 36.1342647], [-99.7664773, 36.1342098], [-99.7666825, 36.134211], [-99.7667307, 36.1342693], [-99.7667313, 36.1346198], [-99.7668262, 36.1346197]]]}, "properties": {"osm_id": 477119472, "building": "yes", "name": "", "height": null, "height_m": null, "levels": null, "tract_id": "40045952800", "tract_name": "9528", "tags": {"building": "yes"}}}, {"type": "Feature", "geometry": {"type": "Polygon", "coordinates": [[[-99.7666989, 36.1355433], [-99.7667003, 36.1354004], [-99.7663662, 36.1353924], [-99.7663691, 36.1355387], [-99.7666989, 36.1355433]]]}, "properties": {"osm_id": 477119473, "building": "yes", "name": "", "height": null, "height_m": null, "levels": null, "tract_id": "40045952800", "tract_name": "9528", "tags": {"building": "yes"}}}, {"type": "Feature", "geometry": {"type": "Polygon", "coordinates": [[[-99.7684943, 36.1341888], [-99.7681568, 36.134189], [-99.7681567, 36.134068], [-99.7681255, 36.134068], [-99.7681253, 36.1339285], [-99.7685434, 36.1339282], [-99.7685437, 36.134167], [-99.7684942, 36.1341671], [-99.7684943, 36.1341888]]]}, "properties": {"osm_id": 477119793, "building": "yes", "name": "Arnett Christian Church", "height": null, "height_m": null, "levels": null, "tract_id": "40045952800", "tract_name": "9528", "tags": {"addr:city": "Arnett", "addr:housenumber": "122", "addr:state": "OK", "addr:street": "Jefferson Street", "amenity": "place_of_worship", "building": "yes", "name": "Arnett Christian Church", "phone": "580 885-7200", "religion": "christian"}}}, {"type": "Feature", "geometry": {"type": "Polygon", "coordinates": [[[-99.7716125, 36.1345613], [-99.7713842, 36.1345596], [-99.7713855, 36.1344476], [-99.7715735, 36.134449], [-99.7715731, 36.1344836], [-99.7716321, 36.1344841], [-99.7716315, 36.1345354], [-99.7716128, 36.1345353], [-99.7716125, 36.1345613]]]}, "properties": {"osm_id": 477120364, "building": "yes", "name": "Arnett Post Office", "height": null, "height_m": null, "levels": null, "tract_id": "40045952800", "tract_name": "9528", "tags": {"addr:city": "Arnett", "addr:housenumber": "109", "addr:state": "OK", "addr:street": "South Washington Street", "amenity": "post_office", "building": "yes", "name": "Arnett Post Office"}}}, {"type": "Feature", "geometry": {"type": "Polygon", "coordinates": [[[-99.77238, 36.1342134], [-99.7723848, 36.1339813], [-99.772208, 36.1339788], [-99.7722085, 36.1339562], [-99.7721117, 36.1339548], [-99.7721111, 36.133984], [-99.7720958, 36.1339838], [-99.7720912, 36.1342058], [-99.7721885, 36.1342072], [-99.7721877, 36.134241], [-99.7723236, 36.1342429], [-99.7723243, 36.1342127], [-99.77238, 36.1342134]]]}, "properties": {"osm_id": 477120682, "building": "yes", "name": "R and R Grocery", "height": null, "height_m": null, "levels": null, "tract_id": "40045952800", "tract_name": "9528", "tags": {"addr:city": "Arnett", "addr:housenumber": "120", "addr:state": "OK", "addr:street": "South Main Street", "building": "yes", "name": "R and R Grocery", "phone": "(580) 885-7411", "shop": "supermarket"}}}, {"type": "Feature", "geometry": {"type": "Polygon", "coordinates": [[[-99.774848, 36.1353681], [-99.7748471, 36.1349938], [-99.7744266, 36.1349945], [-99.7744001, 36.135012], [-99.7744004, 36.1351169], [-99.7744743, 36.1351168], [-99.774475, 36.1353688], [-99.774848, 36.1353681]]]}, "properties": {"osm_id": 477131526, "building": "yes", "name": "Arnett New Holland", "height": null, "height_m": null, "levels": null, "tract_id": "40045952800", "tract_name": "9528", "tags": {"addr:city": "Arnett", "addr:housenumber": "219", "addr:state": "OK", "addr:street": "W Renfrow", "building": "yes", "name": "Arnett New Holland", "phone": "800-256-8816", "website": "https://www.arnettnewholland.com/default.htm"}}}, {"type": "Feature", "geometry": {"type": "Polygon", "coordinates": [[[-99.5204097, 36.0186577], [-99.5204137, 36.0185901], [-99.5203944, 36.0185894], [-99.5203938, 36.0185987], [-99.5203698, 36.0185977], [-99.5203663, 36.018656], [-99.5204097, 36.0186577]]]}, "properties": {"osm_id": 1158340558, "building": "yes", "name": "", "height": null, "height_m": null, "levels": null, "tract_id": "40045952800", "tract_name": "9528", "tags": {"building": "yes"}}}, {"type": "Feature", "geometry": {"type": "Polygon", "coordinates": [[[-99.530313, 35.9837228], [-99.530313, 35.9836476], [-99.530239, 35.9836476], [-99.530239, 35.9837228], [-99.530313, 35.9837228]]]}, "properties": {"osm_id": 1158340561, "building": "yes", "name": "", "height": null, "height_m": null, "levels": null, "tract_id": "40045952800", "tract_name": "9528", "tags": {"building": "yes"}}}, {"type": "Feature", "geometry": {"type": "Polygon", "coordinates": [[[-99.5130383, 35.9686249], [-99.5129676, 35.9686286], [-99.5129617, 35.9685556], [-99.5130324, 35.9685519], [-99.5130383, 35.9686249]]]}, "properties": {"osm_id": 1158340564, "building": "yes", "name": "", "height": null, "height_m": null, "levels": null, "tract_id": "40045952800", "tract_name": "9528", "tags": {"building": "yes"}}}, {"type": "Feature", "geometry": {"type": "Polygon", "coordinates": [[[-99.5201804, 35.9566129], [-99.5201315, 35.9566092], [-99.520142, 35.9565175], [-99.5201909, 35.9565212], [-99.5201804, 35.9566129]]]}, "properties": {"osm_id": 1158340565, "building": "yes", "name": "", "height": null, "height_m": null, "levels": null, "tract_id": "40045952800", "tract_name": "9528", "tags": {"building": "yes"}}}, {"type": "Feature", "geometry": {"type": "Polygon", "coordinates": [[[-99.5667982, 35.9550798], [-99.5668103, 35.9550084], [-99.5667392, 35.9550005], [-99.5667271, 35.9550719], [-99.5667982, 35.9550798]]]}, "properties": {"osm_id": 1158588534, "building": "yes", "name": "", "height": null, "height_m": null, "levels": null, "tract_id": "40045952800", "tract_name": "9528", "tags": {"building": "yes"}}}, {"type": "Feature", "geometry": {"type": "Polygon", "coordinates": [[[-99.5478335, 35.955158], [-99.5477521, 35.9551522], [-99.5477446, 35.9552217], [-99.5478261, 35.9552274], [-99.5478335, 35.955158]]]}, "properties": {"osm_id": 1158588535, "building": "yes", "name": "", "height": null, "height_m": null, "levels": null, "tract_id": "40045952800", "tract_name": "9528", "tags": {"building": "yes"}}}, {"type": "Feature", "geometry": {"type": "Polygon", "coordinates": [[[-99.7729957, 36.1389682], [-99.7731529, 36.1389682], [-99.7731615, 36.1389682], [-99.7731616, 36.1386908], [-99.7731507, 36.1386908], [-99.7729107, 36.1386907], [-99.7729106, 36.1389468], [-99.7729957, 36.1389468], [-99.7729957, 36.1389682]]]}, "properties": {"osm_id": 1381025756, "building": "school", "name": "", "height": null, "height_m": null, "levels": null, "tract_id": "40045952800", "tract_name": "9528", "tags": {"building": "school"}}}, {"type": "Feature", "geometry": {"type": "Polygon", "coordinates": [[[-99.7728641, 36.1386975], [-99.7725673, 36.138931], [-99.7725671, 36.1390663], [-99.7723971, 36.1390661], [-99.7723973, 36.1389305], [-99.7722934, 36.1388466], [-99.7721409, 36.1389697], [-99.7719612, 36.1388246], [-99.7720987, 36.1387136], [-99.7720636, 36.1386853], [-99.7722427, 36.1385408], [-99.772305, 36.1385911], [-99.7723679, 36.1385403], [-99.7729953, 36.1385417], [-99.772996, 36.1383402], [-99.7735773, 36.1383415], [-99.7735766, 36.1385319], [-99.7735764, 36.1385825], [-99.7731504, 36.1385815], [-99.7730004, 36.1385812], [-99.7730004, 36.1385747], [-99.7723838, 36.1385726], [-99.7723552, 36.1385935], [-99.7723608, 36.1385985], [-99.772597, 36.1385977], [-99.7726443, 36.1386369], [-99.7727196, 36.1385777], [-99.7728641, 36.1386975]]]}, "properties": {"osm_id": 1381025757, "building": "school", "name": "", "height": null, "height_m": null, "levels": null, "tract_id": "40045952800", "tract_name": "9528", "tags": {"building": "school"}}}, {"type": "Feature", "geometry": {"type": "Polygon", "coordinates": [[[-99.7718264, 36.1388108], [-99.7721731, 36.1385279], [-99.7720562, 36.1384344], [-99.7717506, 36.1386838], [-99.7718209, 36.13874], [-99.7717798, 36.1387735], [-99.7718264, 36.1388108]]]}, "properties": {"osm_id": 1381025758, "building": "school", "name": "", "height": null, "height_m": null, "levels": null, "tract_id": "40045952800", "tract_name": "9528", "tags": {"building": "school"}}}, {"type": "Feature", "geometry": {"type": "Polygon", "coordinates": [[[-99.7736089, 36.1389149], [-99.7736064, 36.138779], [-99.7736035, 36.1387791], [-99.7734728, 36.1387806], [-99.7734752, 36.138912], [-99.7734753, 36.1389165], [-99.7736089, 36.1389149]]]}, "properties": {"osm_id": 1381025759, "building": "roof", "name": "", "height": null, "height_m": null, "levels": null, "tract_id": "40045952800", "tract_name": "9528", "tags": {"building": "roof", "layer": "1"}}}, {"type": "Feature", "geometry": {"type": "Polygon", "coordinates": [[[-99.7694417, 36.1368424], [-99.7694434, 36.1367223], [-99.769236, 36.1367204], [-99.7692343, 36.1368404], [-99.7694245, 36.1368422], [-99.7694417, 36.1368424]]]}, "properties": {"osm_id": 1381025767, "building": "roof", "name": "", "height": null, "height_m": null, "levels": null, "tract_id": "40045952800", "tract_name": "9528", "tags": {"building": "roof", "layer": "1"}}}]}