{"type": "FeatureCollection", "features": [{"type": "Feature", "geometry": {"type": "Polygon", "coordinates": [[[-98.2896055, 34.7803864], [-98.2896095, 34.7798889], [-98.2892152, 34.7798856], [-98.2892152, 34.7799857], [-98.2889509, 34.7799757], [-98.2889468, 34.7802762], [-98.2892233, 34.7802696], [-98.2892233, 34.7803831], [-98.2896055, 34.7803864]]]}, "properties": {"osm_id": 557067069, "building": "yes", "name": "Elgin High School Gym", "height": null, "height_m": 3.0, "levels": 1, "tract_id": "40031002101", "tract_name": "21.01", "tags": {"building": "yes", "building:levels": "1", "gym": "yes", "name": "Elgin High School Gym", "sport": "basketball", "sport_1": "wrestling", "sport_2": "volleyball"}}}, {"type": "Feature", "geometry": {"type": "Polygon", "coordinates": [[[-98.2939593, 34.7833774], [-98.2939593, 34.7831626], [-98.2935064, 34.7831665], [-98.2935064, 34.7833813], [-98.2939593, 34.7833774]]]}, "properties": {"osm_id": 557068212, "building": "retail", "name": "Dollar General", "height": null, "height_m": null, "levels": null, "tract_id": "40031002101", "tract_name": "21.01", "tags": {"brand": "Dollar General", "brand:wikidata": "Q145168", "building": "retail", "name": "Dollar General", "shop": "variety_store", "website": "https://www.dollargeneral.com/store-directory/ok/elgin/7578"}}}, {"type": "Feature", "geometry": {"type": "Polygon", "coordinates": [[[-98.2923435, 34.7833813], [-98.2925163, 34.783201], [-98.2922548, 34.7830284], [-98.292082, 34.7832087], [-98.2923435, 34.7833813]]]}, "properties": {"osm_id": 557068214, "building": "yes", "name": "Family Dollar", "height": null, "height_m": null, "levels": null, "tract_id": "40031002101", "tract_name": "21.01", "tags": {"brand": "Family Dollar", "brand:wikidata": "Q5433101", "building": "yes", "name": "Family Dollar", "shop": "variety_store"}}}, {"type": "Feature", "geometry": {"type": "Polygon", "coordinates": [[[-98.2910313, 34.7851763], [-98.2912601, 34.7848541], [-98.2916851, 34.7850766], [-98.2914562, 34.7853834], [-98.2910313, 34.7851763]]]}, "properties": {"osm_id": 557068216, "building": "retail", "name": "Williams", "height": null, "height_m": null, "levels": null, "tract_id": "40031002101", "tract_name": "21.01", "tags": {"building": "retail", "name": "Williams"}}}, {"type": "Feature", "geometry": {"type": "Polygon", "coordinates": [[[-98.3004169, 34.7744339], [-98.300174, 34.7744339], [-98.3001717, 34.7742306], [-98.3000363, 34.7742306], [-98.3000386, 34.7741443], [-98.2996463, 34.7741481], [-98.2996463, 34.774012], [-98.3004192, 34.7740024], [-98.3004169, 34.7744339]]]}, "properties": {"osm_id": 561628026, "building": "yes", "name": "Crossroads Baptist Church", "height": null, "height_m": null, "levels": null, "tract_id": "40031002101", "tract_name": "21.01", "tags": {"amenity": "place_of_worship", "building": "yes", "denomination": "baptist", "name": "Crossroads Baptist Church", "religion": "christian"}}}, {"type": "Feature", "geometry": {"type": "Polygon", "coordinates": [[[-98.289758, 34.7786458], [-98.2897598, 34.7785411], [-98.2895262, 34.778544], [-98.2895262, 34.7788507], [-98.2893404, 34.7788507], [-98.2893386, 34.7789554], [-98.2897616, 34.7789554], [-98.2897598, 34.7788551], [-98.289666, 34.7788565], [-98.2896678, 34.7786458], [-98.289758, 34.7786458]]]}, "properties": {"osm_id": 561629146, "building": "yes", "name": "Elgin First Baptist Church", "height": null, "height_m": null, "levels": null, "tract_id": "40031002101", "tract_name": "21.01", "tags": {"amenity": "place_of_worship", "building": "yes", "denomination": "baptist", "name": "Elgin First Baptist Church", "religion": "christian"}}}, {"type": "Feature", "geometry": {"type": "Polygon", "coordinates": [[[-98.2893976, 34.7791976], [-98.2893947, 34.7790239], [-98.2895161, 34.7790225], [-98.2895166, 34.7790501], [-98.2897019, 34.779048], [-98.2897017, 34.7790347], [-98.2897594, 34.779034], [-98.2897617, 34.7791772], [-98.2896967, 34.779178], [-98.2896965, 34.7791663], [-98.2895269, 34.7791682], [-98.2895273, 34.7791961], [-98.2893976, 34.7791976]]]}, "properties": {"osm_id": 561629147, "building": "yes", "name": "Grace Reformed Baptist Church", "height": null, "height_m": null, "levels": null, "tract_id": "40031002101", "tract_name": "21.01", "tags": {"addr:city": "Elgin", "addr:housenumber": "420", "addr:postcode": "73538", "addr:state": "OK", "addr:street": "I Street", "amenity": "place_of_worship", "building": "yes", "denomination": "baptist", "name": "Grace Reformed Baptist Church", "religion": "christian"}}}, {"type": "Feature", "geometry": {"type": "Polygon", "coordinates": [[[-98.2857007, 34.7797395], [-98.2856937, 34.7795011], [-98.2859626, 34.779504], [-98.2859662, 34.7794342], [-98.2859616, 34.7792828], [-98.2862422, 34.7792802], [-98.2862433, 34.7795102], [-98.2865909, 34.7795102], [-98.2865889, 34.7793465], [-98.2867677, 34.7793432], [-98.2867657, 34.7790644], [-98.2863165, 34.7790677], [-98.2863124, 34.7788256], [-98.2867698, 34.7788239], [-98.2867698, 34.7786837], [-98.2870442, 34.7786787], [-98.2870401, 34.77942], [-98.2871316, 34.7794768], [-98.2870462, 34.7795469], [-98.2871037, 34.779587], [-98.2870272, 34.7796465], [-98.2870688, 34.7796807], [-98.2869763, 34.7797534], [-98.286932, 34.779717], [-98.2868623, 34.7797732], [-98.2868154, 34.7797313], [-98.2867429, 34.7797897], [-98.2866638, 34.779728], [-98.2862373, 34.7797357], [-98.2862347, 34.7798988], [-98.2859651, 34.779901], [-98.2859637, 34.7797413], [-98.2857007, 34.7797395]]]}, "properties": {"osm_id": 561630100, "building": "school", "name": "Elgin High School", "height": null, "height_m": null, "levels": null, "tract_id": "40031002101", "tract_name": "21.01", "tags": {"addr:city": "Elgin", "addr:housenumber": "501", "addr:postcode": "73538", "addr:state": "OK", "addr:street": "K Street", "building": "school", "name": "Elgin High School"}}}, {"type": "Feature", "geometry": {"type": "Polygon", "coordinates": [[[-98.2904849, 34.7860946], [-98.2904814, 34.7859434], [-98.2901487, 34.7859449], [-98.2901487, 34.7860917], [-98.2904849, 34.7860946]]]}, "properties": {"osm_id": 561630275, "building": "retail", "name": "NAPA Auto Parts", "height": null, "height_m": null, "levels": null, "tract_id": "40031002101", "tract_name": "21.01", "tags": {"building": "retail", "name": "NAPA Auto Parts"}}}, {"type": "Feature", "geometry": {"type": "Polygon", "coordinates": [[[-98.2824294, 34.7890871], [-98.2824267, 34.7889082], [-98.2825691, 34.7889067], [-98.2825693, 34.7889207], [-98.2826356, 34.78892], [-98.2826368, 34.7889973], [-98.2825684, 34.788998], [-98.2825697, 34.7890857], [-98.2824294, 34.7890871]]]}, "properties": {"osm_id": 1150157972, "building": "yes", "name": "Jehovah's Witness Kingdom Hall", "height": null, "height_m": null, "levels": null, "tract_id": "40031002101", "tract_name": "21.01", "tags": {"addr:housenumber": "13372", "addr:street": "NE Keeney Road", "amenity": "place_of_worship", "building": "yes", "denomination": "jehovahs_witness", "name": "Jehovah's Witness Kingdom Hall", "religion": "christian"}}}, {"type": "Feature", "geometry": {"type": "Polygon", "coordinates": [[[-98.2899667, 34.7830174], [-98.2899638, 34.7828195], [-98.2900222, 34.7828189], [-98.2900218, 34.7827977], [-98.2901312, 34.7827966], [-98.2901315, 34.7828195], [-98.2901852, 34.782819], [-98.2901881, 34.7830114], [-98.2902605, 34.7830107], [-98.2902612, 34.7830564], [-98.2901872, 34.7830572], [-98.2901874, 34.7830676], [-98.2900993, 34.7830685], [-98.2900985, 34.783016], [-98.2899667, 34.7830174]]]}, "properties": {"osm_id": 1242683223, "building": "yes", "name": "Elgin Post Office", "height": null, "height_m": null, "levels": null, "tract_id": "40031002101", "tract_name": "21.01", "tags": {"addr:city": "Elgin", "addr:housenumber": "8292", "addr:postcode": "73538", "addr:state": "OK", "addr:street": "ok-17", "amenity": "post_office", "building": "yes", "description": "Post Office", "name": "Elgin Post Office", "operator": "United States Postal Service", "operator:short": "USPS", "operator:type": "public", "operator:website": "https://www.usps.com", "operator:wikidata": "Q668687", "operator:wikipedia": "en:United States Postal Service"}}}, {"type": "Feature", "geometry": {"type": "Polygon", "coordinates": [[[-98.2916892, 34.7812881], [-98.2916875, 34.7811673], [-98.2918354, 34.7811659], [-98.2918347, 34.7811137], [-98.2919605, 34.7811124], [-98.2919612, 34.7811586], [-98.2920741, 34.7811575], [-98.2920754, 34.7812478], [-98.2919646, 34.7812488], [-98.2919651, 34.7812854], [-98.2916892, 34.7812881]]]}, "properties": {"osm_id": 1242683224, "building": "yes", "name": "Elgin Methodist Church", "height": null, "height_m": null, "levels": null, "tract_id": "40031002101", "tract_name": "21.01", "tags": {"addr:city": "Elgin", "addr:housenumber": "420", "addr:postcode": "73538", "addr:state": "OK", "addr:street": "I Street", "amenity": "place_of_worship", "building": "yes", "name": "Elgin Methodist Church", "religion": "christian"}}}, {"type": "Feature", "geometry": {"type": "Polygon", "coordinates": [[[-98.2923017, 34.7809523], [-98.2923007, 34.7808262], [-98.2919514, 34.780828], [-98.2919524, 34.7809541], [-98.2923017, 34.7809523]]]}, "properties": {"osm_id": 1242683225, "building": "yes", "name": "Community United Methodist Church", "height": null, "height_m": null, "levels": null, "tract_id": "40031002101", "tract_name": "21.01", "tags": {"addr:city": "Elgin", "addr:housenumber": "604", "addr:postcode": "73538", "addr:state": "OK", "addr:street": "G Street", "amenity": "place_of_worship", "building": "yes", "name": "Community United Methodist Church", "religion": "christian"}}}, {"type": "Feature", "geometry": {"type": "Polygon", "coordinates": [[[-98.2731991, 34.7820117], [-98.2730914, 34.7820157], [-98.2730824, 34.7818522], [-98.27319, 34.7818482], [-98.2731991, 34.7820117]]]}, "properties": {"osm_id": 1321546090, "building": "hangar", "name": "", "height": null, "height_m": null, "levels": null, "tract_id": "40031002101", "tract_name": "21.01", "tags": {"aeroway": "hangar", "building": "hangar"}}}, {"type": "Feature", "geometry": {"type": "Polygon", "coordinates": [[[-98.2971829, 34.7827828], [-98.2967093, 34.7827878], [-98.2967082, 34.7827167], [-98.2971818, 34.7827116], [-98.2971829, 34.7827828]]]}, "properties": {"osm_id": 1328224937, "building": "roof", "name": "", "height": null, "height_m": null, "levels": null, "tract_id": "40031002101", "tract_name": "21.01", "tags": {"building": "roof"}}}, {"type": "Feature", "geometry": {"type": "Polygon", "coordinates": [[[-98.2971534, 34.7829964], [-98.2971562, 34.7831746], [-98.2970341, 34.7831759], [-98.2970333, 34.7831265], [-98.2967451, 34.7831296], [-98.296743, 34.7830008], [-98.2971534, 34.7829964]]]}, "properties": {"osm_id": 1328224938, "building": "yes", "name": "", "height": null, "height_m": null, "levels": null, "tract_id": "40031002101", "tract_name": "21.01", "tags": {"building": "yes"}}}, {"type": "Feature", "geometry": {"type": "Polygon", "coordinates": [[[-98.2886261, 34.7831042], [-98.2886449, 34.7830557], [-98.2886275, 34.7830039], [-98.2885926, 34.7830028], [-98.2885886, 34.7829764], [-98.288551, 34.7829731], [-98.2885457, 34.7830039], [-98.2883834, 34.7830028], [-98.288374, 34.7829885], [-98.2882989, 34.7829896], [-98.2883257, 34.7830524], [-98.2882989, 34.7831086], [-98.2886261, 34.7831042]]]}, "properties": {"osm_id": 1416393270, "building": "yes", "name": "Saint Ann's Catholic Church", "height": null, "height_m": null, "levels": null, "tract_id": "40031002101", "tract_name": "21.01", "tags": {"addr:city": "Elgin", "addr:housenumber": "8492", "addr:postcode": "73538", "addr:state": "OK", "addr:street": "OK-17", "amenity": "place_of_worship", "building": "yes", "denomination": "catholic", "name": "Saint Ann's Catholic Church", "religion": "christian"}}}, {"type": "Feature", "geometry": {"type": "Polygon", "coordinates": [[[-98.2882909, 34.7831042], [-98.2880669, 34.7831031], [-98.2880655, 34.7831416], [-98.2880334, 34.7831427], [-98.2880293, 34.7832705], [-98.2878697, 34.7832705], [-98.2878765, 34.7829081], [-98.2881259, 34.7829114], [-98.2881259, 34.7830326], [-98.2882909, 34.7830315], [-98.2882909, 34.7831042]]]}, "properties": {"osm_id": 1416394856, "building": "yes", "name": "Parish Hall St Ann's", "height": null, "height_m": null, "levels": null, "tract_id": "40031002101", "tract_name": "21.01", "tags": {"building": "yes", "name": "Parish Hall St Ann's"}}}, {"type": "Feature", "geometry": {"type": "Polygon", "coordinates": [[[-98.2877904, 34.7830083], [-98.2877974, 34.7829065], [-98.2877019, 34.7829022], [-98.2877001, 34.7828876], [-98.2876541, 34.7828905], [-98.2876576, 34.7828455], [-98.2875656, 34.7828411], [-98.2875621, 34.7830054], [-98.2877904, 34.7830083]]]}, "properties": {"osm_id": 1416395646, "building": "house", "name": "Rectory", "height": null, "height_m": null, "levels": null, "tract_id": "40031002101", "tract_name": "21.01", "tags": {"building": "house", "name": "Rectory"}}}, {"type": "Feature", "geometry": {"type": "Polygon", "coordinates": [[[-98.2909646, 34.7853559], [-98.2908389, 34.7853544], [-98.2908637, 34.7855797], [-98.2909752, 34.7855768], [-98.2909646, 34.7853559]]]}, "properties": {"osm_id": 1416399065, "building": "medical_offices", "name": "", "height": null, "height_m": null, "levels": null, "tract_id": "40031002101", "tract_name": "21.01", "tags": {"building": "medical_offices"}}}, {"type": "Feature", "geometry": {"type": "Polygon", "coordinates": [[[-98.2903981, 34.7850667], [-98.2902919, 34.7851597], [-98.2901716, 34.7850681], [-98.2902831, 34.7849765], [-98.2903981, 34.7850667]]]}, "properties": {"osm_id": 1416399066, "building": "yes", "name": "", "height": null, "height_m": null, "levels": null, "tract_id": "40031002101", "tract_name": "21.01", "tags": {"building": "yes"}}}, {"type": "Feature", "geometry": {"type": "Polygon", "coordinates": [[[-98.2903025, 34.7843589], [-98.2901557, 34.7843545], [-98.290161, 34.7838008], [-98.2903061, 34.7838037], [-98.2903025, 34.7843589]]]}, "properties": {"osm_id": 1416399067, "building": "yes", "name": "", "height": null, "height_m": null, "levels": null, "tract_id": "40031002101", "tract_name": "21.01", "tags": {"building": "yes"}}}, {"type": "Feature", "geometry": {"type": "Polygon", "coordinates": [[[-98.2904494, 34.7842731], [-98.2903698, 34.7842731], [-98.2903786, 34.7837964], [-98.2905202, 34.7837979], [-98.2905255, 34.7842222], [-98.2904477, 34.7842193], [-98.2904494, 34.7842731]]]}, "properties": {"osm_id": 1416399068, "building": "yes", "name": "", "height": null, "height_m": null, "levels": null, "tract_id": "40031002101", "tract_name": "21.01", "tags": {"building": "yes"}}}, {"type": "Feature", "geometry": {"type": "Polygon", "coordinates": [[[-98.2905167, 34.7837223], [-98.2903716, 34.7837223], [-98.2903751, 34.7833299], [-98.2905167, 34.7833313], [-98.2905167, 34.7837223]]]}, "properties": {"osm_id": 1416399069, "building": "yes", "name": "", "height": null, "height_m": null, "levels": null, "tract_id": "40031002101", "tract_name": "21.01", "tags": {"building": "yes"}}}, {"type": "Feature", "geometry": {"type": "Polygon", "coordinates": [[[-98.2901928, 34.783654], [-98.2900548, 34.783654], [-98.290053, 34.7835174], [-98.2901875, 34.7835159], [-98.2901928, 34.783654]]]}, "properties": {"osm_id": 1416399070, "building": "yes", "name": "", "height": null, "height_m": null, "levels": null, "tract_id": "40031002101", "tract_name": "21.01", "tags": {"building": "yes"}}}, {"type": "Feature", "geometry": {"type": "Polygon", "coordinates": [[[-98.2909502, 34.783901], [-98.2907131, 34.7838996], [-98.290729, 34.783561], [-98.2906158, 34.7835624], [-98.2906158, 34.7834912], [-98.290952, 34.7834883], [-98.2909431, 34.7836249], [-98.290998, 34.7836264], [-98.290998, 34.7837165], [-98.2909077, 34.7837165], [-98.2909095, 34.7837615], [-98.2909502, 34.7837644], [-98.2909502, 34.783901]]]}, "properties": {"osm_id": 1416399071, "building": "yes", "name": "", "height": null, "height_m": null, "levels": null, "tract_id": "40031002101", "tract_name": "21.01", "tags": {"building": "yes"}}}, {"type": "Feature", "geometry": {"type": "Polygon", "coordinates": [[[-98.2910702, 34.7825875], [-98.2908274, 34.7825894], [-98.2908437, 34.7828119], [-98.2909581, 34.7828176], [-98.2909605, 34.7829135], [-98.2910375, 34.7829116], [-98.2910352, 34.7828176], [-98.2910609, 34.7828176], [-98.2910702, 34.7825875]]]}, "properties": {"osm_id": 1416399072, "building": "bank", "name": "Liberty National Bank", "height": null, "height_m": null, "levels": null, "tract_id": "40031002101", "tract_name": "21.01", "tags": {"addr:city": "Elgin", "addr:housenumber": "8232", "addr:postcode": "73538", "addr:state": "OK", "addr:street": "OK-17", "building": "bank", "name": "Liberty National Bank"}}}, {"type": "Feature", "geometry": {"type": "Polygon", "coordinates": [[[-98.2878569, 34.7815568], [-98.2875885, 34.7815552], [-98.2875743, 34.7822514], [-98.2883752, 34.7822581], [-98.2883711, 34.7814233], [-98.2879443, 34.78143], [-98.2879422, 34.7817756], [-98.2880764, 34.7817772], [-98.2880744, 34.7820777], [-98.2878589, 34.7820761], [-98.2878569, 34.7815568]]]}, "properties": {"osm_id": 1421908093, "building": "yes", "name": "Elgin Middle School", "height": null, "height_m": null, "levels": null, "tract_id": "40031002101", "tract_name": "21.01", "tags": {"building": "yes", "name": "Elgin Middle School"}}}, {"type": "Feature", "geometry": {"type": "Polygon", "coordinates": [[[-98.2898047, 34.7822625], [-98.2895677, 34.7822635], [-98.2895689, 34.7822951], [-98.2894883, 34.7822942], [-98.2894871, 34.7822606], [-98.2892128, 34.7822606], [-98.2892186, 34.7820544], [-98.289807, 34.7820554], [-98.2898047, 34.7822625]]]}, "properties": {"osm_id": 1421908094, "building": "yes", "name": "Elgin 5th Grade Annex", "height": null, "height_m": null, "levels": null, "tract_id": "40031002101", "tract_name": "21.01", "tags": {"building": "yes", "name": "Elgin 5th Grade Annex"}}}, {"type": "Feature", "geometry": {"type": "Polygon", "coordinates": [[[-98.2898887, 34.7819435], [-98.2889943, 34.7819498], [-98.2889916, 34.7818595], [-98.2889125, 34.7818606], [-98.2889152, 34.781604], [-98.2891983, 34.781601], [-98.2891948, 34.781556], [-98.2897327, 34.7815604], [-98.2897345, 34.781617], [-98.2898849, 34.7816141], [-98.2898887, 34.7819435]]]}, "properties": {"osm_id": 1421908095, "building": "yes", "name": "Elgin 6th Grade Center", "height": null, "height_m": null, "levels": null, "tract_id": "40031002101", "tract_name": "21.01", "tags": {"building": "yes", "name": "Elgin 6th Grade Center"}}}, {"type": "Feature", "geometry": {"type": "Polygon", "coordinates": [[[-98.2897911, 34.7813554], [-98.2895045, 34.7813525], [-98.289508, 34.7809892], [-98.2894691, 34.7809906], [-98.2894708, 34.7808365], [-98.2895275, 34.7808351], [-98.2895168, 34.7806272], [-98.2897876, 34.7806316], [-98.2897929, 34.7808394], [-98.289823, 34.7808394], [-98.2898301, 34.7809412], [-98.2898672, 34.7809397], [-98.2898672, 34.7810328], [-98.2897929, 34.7810328], [-98.2897911, 34.7813554]]]}, "properties": {"osm_id": 1421908096, "building": "yes", "name": "Elgin Upper Elementary", "height": null, "height_m": null, "levels": null, "tract_id": "40031002101", "tract_name": "21.01", "tags": {"building": "yes", "name": "Elgin Upper Elementary"}}}, {"type": "Feature", "geometry": {"type": "Polygon", "coordinates": [[[-98.2879521, 34.781218], [-98.2877396, 34.7812218], [-98.2877396, 34.7806695], [-98.2879451, 34.7806733], [-98.2879404, 34.7806388], [-98.2881669, 34.7806426], [-98.2881599, 34.7805563], [-98.288314, 34.7805621], [-98.2883164, 34.7806254], [-98.2884121, 34.7806234], [-98.2884191, 34.7805295], [-98.2886059, 34.7805314], [-98.2886176, 34.7813119], [-98.2885452, 34.7813119], [-98.2885475, 34.7813388], [-98.2884915, 34.7813445], [-98.2884985, 34.7813886], [-98.2883981, 34.7813867], [-98.2883934, 34.7807596], [-98.2883467, 34.7807634], [-98.2883421, 34.780844], [-98.2879498, 34.780844], [-98.2879521, 34.781218]]]}, "properties": {"osm_id": 1421908097, "building": "yes", "name": "Elgin Elementary School", "height": null, "height_m": null, "levels": null, "tract_id": "40031002101", "tract_name": "21.01", "tags": {"building": "yes", "name": "Elgin Elementary School"}}}]}