{"type": "FeatureCollection", "features": [{"type": "Feature", "geometry": {"type": "Polygon", "coordinates": [[[-95.47106, 33.9985932], [-95.4708921, 33.9985902], [-95.4708959, 33.9984437], [-95.470959, 33.9984448], [-95.4709581, 33.9984798], [-95.4710629, 33.9984817], [-95.47106, 33.9985932]]]}, "properties": {"osm_id": 523035560, "building": "yes", "name": "", "height": null, "height_m": null, "levels": null, "tract_id": "40023967100", "tract_name": "9671", "tags": {"building": "yes"}}}, {"type": "Feature", "geometry": {"type": "Polygon", "coordinates": [[[-95.4710124, 33.9979294], [-95.4710179, 33.9977153], [-95.4712361, 33.9977192], [-95.4712351, 33.9977603], [-95.4712999, 33.9977615], [-95.4712963, 33.9979006], [-95.4712315, 33.9978994], [-95.4712306, 33.9979333], [-95.4710124, 33.9979294]]]}, "properties": {"osm_id": 523035562, "building": "yes", "name": "", "height": null, "height_m": null, "levels": null, "tract_id": "40023967100", "tract_name": "9671", "tags": {"building": "yes"}}}, {"type": "Feature", "geometry": {"type": "Polygon", "coordinates": [[[-95.4710197, 33.9975458], [-95.4709286, 33.9975469], [-95.4709295, 33.9976], [-95.4708705, 33.9976007], [-95.4708682, 33.9974709], [-95.4710184, 33.9974691], [-95.4710197, 33.9975458]]]}, "properties": {"osm_id": 523035564, "building": "yes", "name": "", "height": null, "height_m": null, "levels": null, "tract_id": "40023967100", "tract_name": "9671", "tags": {"building": "yes"}}}, {"type": "Feature", "geometry": {"type": "Polygon", "coordinates": [[[-95.5092877, 34.0114166], [-95.5092977, 34.0111622], [-95.5092231, 34.0111602], [-95.5092254, 34.0111013], [-95.5090334, 34.0110962], [-95.5090357, 34.0110356], [-95.508903, 34.011032], [-95.5088884, 34.0114058], [-95.5092877, 34.0114166]]]}, "properties": {"osm_id": 764324755, "building": "yes", "name": "United States Post Office", "height": null, "height_m": null, "levels": null, "tract_id": "40023967100", "tract_name": "9671", "tags": {"addr:city": "Hugo", "addr:housenumber": "207", "addr:postcode": "74743", "addr:state": "OK", "addr:street": "North 4th Street", "amenity": "post_office", "brand": "United States Post Office", "brand:wikidata": "Q668687", "building": "yes", "name": "United States Post Office", "operator": "United States Postal Service", "operator:short": "USPS", "operator:type": "public", "operator:website": "https://www.usps.com", "operator:wikidata": "Q668687", "operator:wikipedia": "en:United States Postal Service"}}}, {"type": "Feature", "geometry": {"type": "Polygon", "coordinates": [[[-95.5070915, 34.0103709], [-95.5070969, 34.0101965], [-95.5067965, 34.0101901], [-95.506791, 34.0103645], [-95.5070915, 34.0103709]]]}, "properties": {"osm_id": 764324756, "building": "yes", "name": "AutoZone", "height": null, "height_m": null, "levels": null, "tract_id": "40023967100", "tract_name": "9671", "tags": {"addr:city": "Hugo", "addr:housenumber": "504", "addr:postcode": "74743", "addr:state": "OK", "addr:street": "East Jackson Street", "brand": "AutoZone", "brand:wikidata": "Q4826087", "building": "yes", "name": "AutoZone", "shop": "car_parts", "website": "https://www.autozone.com/locations/ok/hugo/504-e-jackson.html"}}}, {"type": "Feature", "geometry": {"type": "Polygon", "coordinates": [[[-95.5085819, 34.011141], [-95.5085881, 34.0108771], [-95.5085556, 34.0108766], [-95.5085565, 34.0108417], [-95.508406, 34.0108393], [-95.5084054, 34.0108624], [-95.5083667, 34.0108618], [-95.5083657, 34.0109054], [-95.5082126, 34.0109029], [-95.5082137, 34.0108575], [-95.5081099, 34.0108558], [-95.5081039, 34.0111044], [-95.5081345, 34.0111049], [-95.5081357, 34.0110549], [-95.5082484, 34.0110568], [-95.5082492, 34.0110195], [-95.5082906, 34.0110202], [-95.5082879, 34.0111363], [-95.5085819, 34.011141]]]}, "properties": {"osm_id": 764324757, "building": "yes", "name": "4th & Jackson Church of Christ", "height": null, "height_m": null, "levels": null, "tract_id": "40023967100", "tract_name": "9671", "tags": {"addr:city": "Hugo", "addr:housenumber": "401", "addr:postcode": "74743", "addr:state": "OK", "addr:street": "East Jackson Street", "amenity": "place_of_worship", "building": "yes", "denomination": "church_of_christ", "name": "4th & Jackson Church of Christ", "religion": "christian"}}}, {"type": "Feature", "geometry": {"type": "Polygon", "coordinates": [[[-95.505749, 34.0110283], [-95.5057524, 34.0108016], [-95.5056257, 34.0108003], [-95.505626, 34.0107812], [-95.5055687, 34.0107806], [-95.5055652, 34.011009], [-95.5055889, 34.0110093], [-95.5055887, 34.0110266], [-95.505749, 34.0110283]]]}, "properties": {"osm_id": 764324758, "building": "yes", "name": "Braum's", "height": null, "height_m": null, "levels": null, "tract_id": "40023967100", "tract_name": "9671", "tags": {"addr:city": "Hugo", "addr:housenumber": "603", "addr:postcode": "74743", "addr:state": "OK", "addr:street": "East Jackson Street", "amenity": "fast_food", "brand": "Braum's", "brand:wikidata": "Q4958263", "building": "yes", "cuisine": "ice_cream;burger", "name": "Braum's", "shop": "dairy", "takeaway": "yes"}}}, {"type": "Feature", "geometry": {"type": "Polygon", "coordinates": [[[-95.5049983, 34.011114], [-95.5050104, 34.0107303], [-95.5044554, 34.0107183], [-95.5044491, 34.010917], [-95.5046761, 34.0109219], [-95.5046703, 34.011107], [-95.5049983, 34.011114]]]}, "properties": {"osm_id": 764324759, "building": "yes", "name": "Choctaw County Library", "height": null, "height_m": null, "levels": null, "tract_id": "40023967100", "tract_name": "9671", "tags": {"addr:city": "Hugo", "addr:housenumber": "703", "addr:postcode": "74743", "addr:state": "OK", "addr:street": "East Jackson Street", "amenity": "library", "building": "yes", "name": "Choctaw County Library"}}}, {"type": "Feature", "geometry": {"type": "Polygon", "coordinates": [[[-95.5033413, 34.0112339], [-95.5033419, 34.0111693], [-95.5032384, 34.0111687], [-95.5032393, 34.0110734], [-95.503403, 34.0110744], [-95.5034049, 34.0108554], [-95.5030081, 34.0108531], [-95.5030063, 34.0110719], [-95.5031646, 34.0110729], [-95.5031638, 34.0111587], [-95.5030302, 34.0111579], [-95.5030295, 34.011232], [-95.5033413, 34.0112339]]]}, "properties": {"osm_id": 764324760, "building": "yes", "name": "First United Bank", "height": null, "height_m": null, "levels": null, "tract_id": "40023967100", "tract_name": "9671", "tags": {"addr:city": "Hugo", "addr:housenumber": "801", "addr:postcode": "74743", "addr:state": "OK", "addr:street": "East Jackson Street", "alt_name": "First United Bank", "amenity": "bank", "brand": "First United Bank", "brand:wikidata": "Q5453964", "building": "yes", "name": "First United Bank"}}}, {"type": "Feature", "geometry": {"type": "Polygon", "coordinates": [[[-95.5026724, 34.0109431], [-95.5026727, 34.0108472], [-95.5025451, 34.0108469], [-95.5025448, 34.0109428], [-95.5026724, 34.0109431]]]}, "properties": {"osm_id": 764324761, "building": "yes", "name": "Billy Nowell Auto Sales", "height": null, "height_m": null, "levels": null, "tract_id": "40023967100", "tract_name": "9671", "tags": {"addr:city": "Hugo", "addr:housenumber": "901", "addr:postcode": "74743", "addr:state": "OK", "addr:street": "East Jackson Street", "building": "yes", "name": "Billy Nowell Auto Sales", "shop": "car"}}}, {"type": "Feature", "geometry": {"type": "Polygon", "coordinates": [[[-95.5014716, 34.0109167], [-95.5014722, 34.0107582], [-95.5013748, 34.0107579], [-95.5013742, 34.0109165], [-95.5014716, 34.0109167]]]}, "properties": {"osm_id": 764324762, "building": "yes", "name": "Subway", "height": null, "height_m": null, "levels": null, "tract_id": "40023967100", "tract_name": "9671", "tags": {"addr:city": "Hugo", "addr:housenumber": "1003", "addr:postcode": "74743", "addr:state": "OK", "addr:street": "East Jackson Street", "amenity": "fast_food", "brand": "Subway", "brand:wikidata": "Q244457", "building": "yes", "cuisine": "sandwich", "name": "Subway", "opening_hours": "08:30-21:30", "phone": "+1 580-326-8884", "takeaway": "yes", "website": "https://restaurants.subway.com/united-states/ok/hugo/1003-e-jackson"}}}, {"type": "Feature", "geometry": {"type": "Polygon", "coordinates": [[[-95.5010056, 34.0110727], [-95.5010069, 34.0108594], [-95.5007379, 34.0108583], [-95.5007366, 34.0110716], [-95.5010056, 34.0110727]]]}, "properties": {"osm_id": 764324763, "building": "yes", "name": "O'Reilly Auto Parts", "height": null, "height_m": null, "levels": null, "tract_id": "40023967100", "tract_name": "9671", "tags": {"addr:city": "Hugo", "addr:housenumber": "1107", "addr:postcode": "74743", "addr:state": "OK", "addr:street": "East Jackson Street", "brand": "O'Reilly Auto Parts", "brand:wikidata": "Q7071951", "building": "yes", "name": "O'Reilly Auto Parts", "shop": "car_parts", "website": "https://locations.oreillyauto.com/ok/hugo/autoparts-706.html"}}}, {"type": "Feature", "geometry": {"type": "Polygon", "coordinates": [[[-95.5004466, 34.011005], [-95.5004434, 34.0107457], [-95.5003175, 34.0107467], [-95.5003206, 34.011006], [-95.5004466, 34.011005]]]}, "properties": {"osm_id": 764324764, "building": "yes", "name": "Pizza Hut", "height": null, "height_m": null, "levels": null, "tract_id": "40023967100", "tract_name": "9671", "tags": {"addr:city": "Hugo", "addr:housenumber": "1109", "addr:postcode": "74743", "addr:state": "OK", "addr:street": "East Jackson Street", "amenity": "restaurant", "brand": "Pizza Hut", "brand:wikidata": "Q191615", "building": "yes", "cuisine": "pizza", "name": "Pizza Hut", "phone": "+1 580-326-3389", "website": "https://locations.pizzahut.com/ok/hugo/1109-e-jackson-st"}}}, {"type": "Feature", "geometry": {"type": "Polygon", "coordinates": [[[-95.5001871, 34.0110908], [-95.5001873, 34.0110356], [-95.500148, 34.0110355], [-95.5001483, 34.0109669], [-95.4999693, 34.0109664], [-95.4999688, 34.0110902], [-95.5001871, 34.0110908]]]}, "properties": {"osm_id": 764324765, "building": "yes", "name": "E-Z Mart", "height": null, "height_m": null, "levels": null, "tract_id": "40023967100", "tract_name": "9671", "tags": {"addr:city": "Hugo", "addr:housenumber": "1115", "addr:postcode": "74743", "addr:state": "OK", "addr:street": "East Jackson Street", "building": "yes", "name": "E-Z Mart", "shop": "convenience"}}}, {"type": "Feature", "geometry": {"type": "Polygon", "coordinates": [[[-95.500061, 34.0108567], [-95.5000633, 34.0107179], [-95.4999586, 34.0107168], [-95.4999564, 34.0108555], [-95.500061, 34.0108567]]]}, "properties": {"osm_id": 764324766, "building": "roof", "name": "Shell", "height": null, "height_m": null, "levels": null, "tract_id": "40023967100", "tract_name": "9671", "tags": {"amenity": "fuel", "brand": "Shell", "brand:wikidata": "Q110716465", "building": "roof", "name": "Shell"}}}, {"type": "Feature", "geometry": {"type": "Polygon", "coordinates": [[[-95.4987782, 34.0104017], [-95.4987779, 34.0101424], [-95.4987141, 34.0101425], [-95.4987143, 34.0102967], [-95.4986532, 34.0102967], [-95.4986531, 34.0101438], [-95.4986013, 34.0101439], [-95.4986016, 34.0104019], [-95.4987782, 34.0104017]]]}, "properties": {"osm_id": 764324767, "building": "yes", "name": "Sonic", "height": null, "height_m": null, "levels": null, "tract_id": "40023967100", "tract_name": "9671", "tags": {"addr:city": "Hugo", "addr:housenumber": "1210", "addr:postcode": "74743", "addr:state": "OK", "addr:street": "East Jackson Street", "amenity": "fast_food", "brand": "Sonic", "brand:wikidata": "Q7561808", "building": "yes", "cuisine": "burger", "drive_in": "yes", "name": "Sonic", "opening_hours": "Mo-Th 07:00-22:00; Fr 07:00-23:00; Sa 08:00-23:00; Su 08:00-22:00", "takeaway": "yes", "website": "https://locations.sonicdrivein.com/ok/hugo/1210-e.-jackson.html"}}}, {"type": "Feature", "geometry": {"type": "Polygon", "coordinates": [[[-95.4989406, 34.0104037], [-95.4989422, 34.0101348], [-95.4988831, 34.0101346], [-95.4988815, 34.0104035], [-95.4989406, 34.0104037]]]}, "properties": {"osm_id": 764324768, "building": "roof", "name": "", "height": null, "height_m": null, "levels": null, "tract_id": "40023967100", "tract_name": "9671", "tags": {"building": "roof"}}}, {"type": "Feature", "geometry": {"type": "Polygon", "coordinates": [[[-95.4975905, 34.0110047], [-95.4975907, 34.010895], [-95.4976176, 34.010895], [-95.4976177, 34.0108202], [-95.4975845, 34.0108202], [-95.4975847, 34.0107246], [-95.4974638, 34.0107244], [-95.4974632, 34.0110045], [-95.4975905, 34.0110047]]]}, "properties": {"osm_id": 764324770, "building": "yes", "name": "KFC", "height": null, "height_m": null, "levels": null, "tract_id": "40023967100", "tract_name": "9671", "tags": {"addr:city": "Hugo", "addr:housenumber": "1311", "addr:postcode": "74743", "addr:state": "OK", "addr:street": "East Jackson Street", "alt_name": "Kentucky Fried Chicken", "amenity": "fast_food", "brand": "KFC", "brand:wikidata": "Q524757", "building": "yes", "cuisine": "chicken", "name": "KFC", "takeaway": "yes", "website": "https://locations.kfc.com/ok/hugo/1311-east-jackson"}}}, {"type": "Feature", "geometry": {"type": "Polygon", "coordinates": [[[-95.4973533, 34.0101486], [-95.4973529, 34.0100611], [-95.497243, 34.0100615], [-95.4972434, 34.0101489], [-95.4973533, 34.0101486]]]}, "properties": {"osm_id": 764324771, "building": "yes", "name": "Ralph's Barber Shop", "height": null, "height_m": null, "levels": null, "tract_id": "40023967100", "tract_name": "9671", "tags": {"addr:city": "Hugo", "addr:housenumber": "1314", "addr:postcode": "74743", "addr:state": "OK", "addr:street": "East Jackson Street", "building": "yes", "name": "Ralph's Barber Shop", "shop": "hairdresser"}}}, {"type": "Feature", "geometry": {"type": "Polygon", "coordinates": [[[-95.4939949, 34.0095265], [-95.4939935, 34.009401], [-95.4940341, 34.0094007], [-95.4940332, 34.0093193], [-95.4938586, 34.0093207], [-95.4938606, 34.0094982], [-95.4938891, 34.009498], [-95.4938895, 34.0095273], [-95.4939949, 34.0095265]]]}, "properties": {"osm_id": 764324772, "building": "yes", "name": "McDonald's", "height": null, "height_m": null, "levels": null, "tract_id": "40023967100", "tract_name": "9671", "tags": {"addr:city": "Hugo", "addr:housenumber": "1509", "addr:postcode": "74743", "addr:state": "OK", "addr:street": "East Jackson Street", "amenity": "fast_food", "brand": "McDonald's", "brand:wikidata": "Q38076", "building": "yes", "cuisine": "burger", "name": "McDonald's", "takeaway": "yes", "website": "https://www.mcdonalds.com/us/en-us/location/ok/hugo/1509-e-jackson/15847.html"}}}, {"type": "Feature", "geometry": {"type": "Polygon", "coordinates": [[[-95.4913999, 34.0082949], [-95.4914041, 34.0079357], [-95.4911589, 34.0079338], [-95.4911548, 34.008293], [-95.4913999, 34.0082949]]]}, "properties": {"osm_id": 764324773, "building": "yes", "name": "Dollar General", "height": null, "height_m": null, "levels": null, "tract_id": "40023967100", "tract_name": "9671", "tags": {"addr:city": "Hugo", "addr:housenumber": "1701", "addr:postcode": "74743", "addr:state": "OK", "addr:street": "East Jackson Street", "brand": "Dollar General", "brand:wikidata": "Q145168", "building": "yes", "name": "Dollar General", "shop": "variety_store", "website": "https://www.dollargeneral.com/store-directory/ok/hugo/638"}}}, {"type": "Feature", "geometry": {"type": "Polygon", "coordinates": [[[-95.4921857, 34.0088169], [-95.4921864, 34.0087263], [-95.4922312, 34.0087265], [-95.4922338, 34.0084112], [-95.4922035, 34.0084111], [-95.4922047, 34.0082725], [-95.4917634, 34.00827], [-95.4917615, 34.0085015], [-95.4917266, 34.0085013], [-95.4917261, 34.0085745], [-95.4916995, 34.0085743], [-95.4916976, 34.0088169], [-95.4921857, 34.0088169]]]}, "properties": {"osm_id": 764324774, "building": "yes", "name": "", "height": null, "height_m": null, "levels": null, "tract_id": "40023967100", "tract_name": "9671", "tags": {"building": "yes"}}}, {"type": "Feature", "geometry": {"type": "Polygon", "coordinates": [[[-95.4921857, 34.0088169], [-95.4921996, 34.0088169], [-95.4921996, 34.0094402], [-95.4914357, 34.0094401], [-95.4914357, 34.0093848], [-95.4913385, 34.0093848], [-95.4913385, 34.0090904], [-95.4914417, 34.0090904], [-95.4914417, 34.0088168], [-95.4916976, 34.0088169], [-95.4921857, 34.0088169]]]}, "properties": {"osm_id": 764324775, "building": "yes", "name": "", "height": null, "height_m": null, "levels": null, "tract_id": "40023967100", "tract_name": "9671", "tags": {"building": "yes"}}}, {"type": "Feature", "geometry": {"type": "Polygon", "coordinates": [[[-95.4929376, 34.0097725], [-95.4929382, 34.0096475], [-95.4927715, 34.0096469], [-95.4927717, 34.0096156], [-95.4924673, 34.0096146], [-95.4924672, 34.0096454], [-95.4923063, 34.0096448], [-95.4923057, 34.0097706], [-95.4929376, 34.0097725]]]}, "properties": {"osm_id": 764324776, "building": "yes", "name": "", "height": null, "height_m": null, "levels": null, "tract_id": "40023967100", "tract_name": "9671", "tags": {"building": "yes"}}}, {"type": "Feature", "geometry": {"type": "Polygon", "coordinates": [[[-95.4937695, 34.0083166], [-95.4939693, 34.0081079], [-95.49378, 34.0079833], [-95.4935802, 34.008192], [-95.4937695, 34.0083166]]]}, "properties": {"osm_id": 764326738, "building": "yes", "name": "", "height": null, "height_m": null, "levels": null, "tract_id": "40023967100", "tract_name": "9671", "tags": {"building": "yes"}}}, {"type": "Feature", "geometry": {"type": "Polygon", "coordinates": [[[-95.4947178, 34.0080444], [-95.4947158, 34.0078681], [-95.4944361, 34.0078702], [-95.4944381, 34.0080465], [-95.4947178, 34.0080444]]]}, "properties": {"osm_id": 764326739, "building": "yes", "name": "", "height": null, "height_m": null, "levels": null, "tract_id": "40023967100", "tract_name": "9671", "tags": {"building": "yes"}}}, {"type": "Feature", "geometry": {"type": "Polygon", "coordinates": [[[-95.4944039, 34.008048], [-95.4944032, 34.0078665], [-95.4940484, 34.0078674], [-95.4940491, 34.0080489], [-95.4944039, 34.008048]]]}, "properties": {"osm_id": 764326740, "building": "yes", "name": "", "height": null, "height_m": null, "levels": null, "tract_id": "40023967100", "tract_name": "9671", "tags": {"building": "yes"}}}, {"type": "Feature", "geometry": {"type": "Polygon", "coordinates": [[[-95.4936797, 34.008417], [-95.4937479, 34.0083455], [-95.4932156, 34.0079961], [-95.4931474, 34.0080675], [-95.4936797, 34.008417]]]}, "properties": {"osm_id": 764326741, "building": "yes", "name": "", "height": null, "height_m": null, "levels": null, "tract_id": "40023967100", "tract_name": "9671", "tags": {"building": "yes"}}}, {"type": "Feature", "geometry": {"type": "Polygon", "coordinates": [[[-95.4952644, 34.0081242], [-95.4952622, 34.0079501], [-95.4951184, 34.0079513], [-95.4951205, 34.0081254], [-95.4952644, 34.0081242]]]}, "properties": {"osm_id": 764326742, "building": "yes", "name": "", "height": null, "height_m": null, "levels": null, "tract_id": "40023967100", "tract_name": "9671", "tags": {"building": "yes"}}}, {"type": "Feature", "geometry": {"type": "Polygon", "coordinates": [[[-95.4952285, 34.0086604], [-95.4952298, 34.0083444], [-95.4947633, 34.008343], [-95.4947637, 34.0082344], [-95.4947175, 34.0082343], [-95.4947177, 34.0081778], [-95.4939408, 34.0081752], [-95.4939394, 34.00846], [-95.4939015, 34.0084599], [-95.4939009, 34.0086045], [-95.4946076, 34.0086068], [-95.4946073, 34.0086634], [-95.4947231, 34.0086638], [-95.4947234, 34.0086121], [-95.4947548, 34.0086122], [-95.4947546, 34.0086672], [-95.4948187, 34.0086674], [-95.494819, 34.0086084], [-95.494977, 34.0086088], [-95.4949766, 34.008698], [-95.4950417, 34.0086982], [-95.4950419, 34.0086598], [-95.4952285, 34.0086604]]]}, "properties": {"osm_id": 764326743, "building": "yes", "name": "", "height": null, "height_m": null, "levels": null, "tract_id": "40023967100", "tract_name": "9671", "tags": {"building": "yes"}}}, {"type": "Feature", "geometry": {"type": "Polygon", "coordinates": [[[-95.4919489, 34.0064892], [-95.4920972, 34.0063399], [-95.4920365, 34.0062985], [-95.492104, 34.0062305], [-95.4919497, 34.0061252], [-95.491887, 34.0061883], [-95.4916593, 34.0060327], [-95.491693, 34.0059988], [-95.4916505, 34.0059697], [-95.4916156, 34.0060048], [-95.4915187, 34.0059386], [-95.4911952, 34.0062642], [-95.4913438, 34.0063656], [-95.4915151, 34.0061931], [-95.4919489, 34.0064892]]]}, "properties": {"osm_id": 764326745, "building": "yes", "name": "Ed Wallace Ford", "height": null, "height_m": null, "levels": null, "tract_id": "40023967100", "tract_name": "9671", "tags": {"addr:city": "Hugo", "addr:housenumber": "1700", "addr:postcode": "74743", "addr:state": "OK", "addr:street": "East Jackson Street", "brand": "Ford", "brand:wikidata": "Q44294", "building": "yes", "name": "Ed Wallace Ford", "shop": "car"}}}, {"type": "Feature", "geometry": {"type": "Polygon", "coordinates": [[[-95.4895014, 34.0069238], [-95.4897274, 34.0066927], [-95.4896632, 34.0066495], [-95.489437, 34.0068805], [-95.4895014, 34.0069238]]]}, "properties": {"osm_id": 764326746, "building": "roof", "name": "Murphy USA", "height": null, "height_m": null, "levels": null, "tract_id": "40023967100", "tract_name": "9671", "tags": {"addr:city": "Hugo", "addr:housenumber": "1909", "addr:postcode": "74743", "addr:state": "OK", "addr:street": "East Jackson Street", "amenity": "fuel", "brand": "Murphy USA", "brand:wikidata": "Q19604459", "building": "roof", "name": "Murphy USA"}}}, {"type": "Feature", "geometry": {"type": "Polygon", "coordinates": [[[-95.4881515, 34.007862], [-95.488725, 34.0072798], [-95.4884861, 34.0071181], [-95.4885044, 34.0070995], [-95.4883298, 34.0069812], [-95.4883117, 34.0069995], [-95.4875242, 34.0064657], [-95.4872338, 34.0067601], [-95.4873539, 34.0068415], [-95.4873341, 34.0068616], [-95.4874233, 34.006922], [-95.4871591, 34.0071902], [-95.4881515, 34.007862]]]}, "properties": {"osm_id": 764326747, "building": "yes", "name": "Walmart Supercenter", "height": null, "height_m": null, "levels": null, "tract_id": "40023967100", "tract_name": "9671", "tags": {"addr:city": "Hugo", "addr:housenumber": "1911", "addr:postcode": "74743", "addr:state": "OK", "addr:street": "East Jackson Street", "brand": "Walmart", "brand:wikidata": "Q483551", "building": "yes", "name": "Walmart Supercenter", "opening_hours": "06:00-23:00", "payment:app:walmart": "yes", "payment:apple_pay": "no", "payment:google_pay": "no", "payment:samsung_pay": "no", "phone": "+1 580-326-6494", "ref": "49", "sensory_friendly:accommodation": "dimmed_light;static_screens;no_pa", "sensory_friendly:conditional": "yes @ 08:00-10:00", "shop": "supermarket", "website": "https://www.walmart.com/store/49-hugo-ok"}}}, {"type": "Feature", "geometry": {"type": "Polygon", "coordinates": [[[-95.4902649, 34.0061552], [-95.4904823, 34.0059385], [-95.4902651, 34.0057887], [-95.4900476, 34.0060053], [-95.4902649, 34.0061552]]]}, "properties": {"osm_id": 764326748, "building": "yes", "name": "Dollar Tree", "height": null, "height_m": null, "levels": null, "tract_id": "40023967100", "tract_name": "9671", "tags": {"addr:city": "Hugo", "addr:housenumber": "1818", "addr:postcode": "74743", "addr:state": "OK", "addr:street": "East Jackson Street", "brand": "Dollar Tree", "brand:wikidata": "Q5289230", "building": "yes", "check_date": "2024-07-11", "check_date:opening_hours": "2024-07-11", "name": "Dollar Tree", "opening_hours": "Mo-Su 09:00-21:00", "shop": "variety_store", "website": "https://www.dollartree.com/locations/ok/hugo/6570/"}}}, {"type": "Feature", "geometry": {"type": "Polygon", "coordinates": [[[-95.4962825, 34.0129245], [-95.4962808, 34.01282], [-95.4961536, 34.0128214], [-95.4961553, 34.0129259], [-95.4962825, 34.0129245]]]}, "properties": {"osm_id": 764326749, "building": "yes", "name": "", "height": null, "height_m": null, "levels": null, "tract_id": "40023967100", "tract_name": "9671", "tags": {"building": "yes"}}}, {"type": "Feature", "geometry": {"type": "Polygon", "coordinates": [[[-95.495927, 34.0128271], [-95.4959104, 34.0126428], [-95.4958218, 34.0126483], [-95.4958384, 34.0128326], [-95.495927, 34.0128271]]]}, "properties": {"osm_id": 764326750, "building": "yes", "name": "", "height": null, "height_m": null, "levels": null, "tract_id": "40023967100", "tract_name": "9671", "tags": {"building": "yes"}}}, {"type": "Feature", "geometry": {"type": "Polygon", "coordinates": [[[-95.4957842, 34.0125117], [-95.4957853, 34.0124001], [-95.4958426, 34.0124005], [-95.4958434, 34.0123168], [-95.4956008, 34.0123152], [-95.4956, 34.0123983], [-95.4957205, 34.0123991], [-95.4957193, 34.0125113], [-95.4957842, 34.0125117]]]}, "properties": {"osm_id": 764326751, "building": "yes", "name": "", "height": null, "height_m": null, "levels": null, "tract_id": "40023967100", "tract_name": "9671", "tags": {"building": "yes"}}}, {"type": "Feature", "geometry": {"type": "Polygon", "coordinates": [[[-95.4967928, 34.0128205], [-95.4967927, 34.0127706], [-95.4968367, 34.0127705], [-95.4968582, 34.0127535], [-95.496837, 34.0127352], [-95.4968898, 34.0126934], [-95.4967207, 34.0125467], [-95.4967404, 34.0125311], [-95.4969407, 34.0125322], [-95.4969416, 34.0124322], [-95.4969879, 34.0124325], [-95.4969883, 34.0123858], [-95.4969709, 34.012357], [-95.4968799, 34.0123565], [-95.4968813, 34.0121873], [-95.4969036, 34.0121874], [-95.4969042, 34.0121114], [-95.4966635, 34.0121101], [-95.4966632, 34.0121452], [-95.4965891, 34.0121449], [-95.4965892, 34.0121231], [-95.496618, 34.0121232], [-95.4966184, 34.0120375], [-95.4966195, 34.011794], [-95.4965753, 34.0117938], [-95.4965755, 34.0117348], [-95.4963887, 34.0117344], [-95.496388, 34.0119544], [-95.4965156, 34.0119546], [-95.4965154, 34.0120357], [-95.4965151, 34.0121336], [-95.4965009, 34.0121336], [-95.4965009, 34.0121572], [-95.4964883, 34.0121572], [-95.4964884, 34.0121795], [-95.4964225, 34.0121798], [-95.4964223, 34.01216], [-95.496333, 34.0121606], [-95.4963331, 34.0121764], [-95.4962878, 34.0121767], [-95.4962882, 34.0122124], [-95.4962485, 34.0122127], [-95.4962483, 34.0121907], [-95.4960638, 34.0121924], [-95.4960641, 34.0122095], [-95.4958945, 34.0122112], [-95.4958963, 34.0123338], [-95.496265, 34.0123301], [-95.4962643, 34.0122812], [-95.4962734, 34.0122812], [-95.4962745, 34.0123791], [-95.4960602, 34.0123807], [-95.4960619, 34.0125335], [-95.4965254, 34.0125301], [-95.4965258, 34.0125651], [-95.496372, 34.0126867], [-95.4964216, 34.0127298], [-95.4964036, 34.012744], [-95.4964326, 34.0127692], [-95.496469, 34.0127691], [-95.4964692, 34.0128213], [-95.4967928, 34.0128205]]]}, "properties": {"osm_id": 764326752, "building": "hospital", "name": "", "height": null, "height_m": null, "levels": null, "tract_id": "40023967100", "tract_name": "9671", "tags": {"building": "hospital", "layer": "1"}}}, {"type": "Feature", "geometry": {"type": "Polygon", "coordinates": [[[-95.5006904, 33.9965536], [-95.5008123, 33.9964498], [-95.5009553, 33.9965652], [-95.5012021, 33.996355], [-95.5012722, 33.9964116], [-95.501472, 33.9962413], [-95.5011733, 33.9960004], [-95.5011007, 33.9960623], [-95.5009174, 33.9959145], [-95.5009528, 33.9958843], [-95.5007557, 33.9957253], [-95.5005457, 33.9959042], [-95.5004753, 33.9958474], [-95.5002779, 33.9960155], [-95.5004193, 33.9961296], [-95.5002956, 33.996235], [-95.5006904, 33.9965536]]]}, "properties": {"osm_id": 764327133, "building": "yes", "name": "", "height": null, "height_m": null, "levels": null, "tract_id": "40023967100", "tract_name": "9671", "tags": {"building": "yes"}}}, {"type": "Feature", "geometry": {"type": "Polygon", "coordinates": [[[-95.5043601, 34.0104205], [-95.5043621, 34.0102347], [-95.5042437, 34.0102338], [-95.5042417, 34.0104196], [-95.5043601, 34.0104205]]]}, "properties": {"osm_id": 764327136, "building": "yes", "name": "Simple Simon's Pizza", "height": null, "height_m": null, "levels": null, "tract_id": "40023967100", "tract_name": "9671", "tags": {"addr:city": "Hugo", "addr:housenumber": "708", "addr:postcode": "74743", "addr:state": "OK", "addr:street": "East Jackson Street", "amenity": "restaurant", "building": "yes", "cuisine": "pizza", "name": "Simple Simon's Pizza"}}}, {"type": "Feature", "geometry": {"type": "Polygon", "coordinates": [[[-95.5036141, 34.0104164], [-95.503615, 34.010269], [-95.5038467, 34.01027], [-95.5038474, 34.0101486], [-95.5034714, 34.010147], [-95.5034697, 34.0104158], [-95.5036141, 34.0104164]]]}, "properties": {"osm_id": 764327137, "building": "yes", "name": "State Farm", "height": null, "height_m": null, "levels": null, "tract_id": "40023967100", "tract_name": "9671", "tags": {"addr:city": "Hugo", "addr:housenumber": "802", "addr:postcode": "74743", "addr:state": "OK", "addr:street": "East Jackson Street", "brand": "State Farm", "brand:wikidata": "Q2007336", "building": "yes", "name": "State Farm", "office": "insurance"}}}, {"type": "Feature", "geometry": {"type": "Polygon", "coordinates": [[[-95.4977715, 34.0102676], [-95.4977722, 34.0101331], [-95.4977115, 34.0101329], [-95.4977116, 34.0101049], [-95.4976086, 34.0101045], [-95.4976085, 34.0101243], [-95.4975801, 34.0101242], [-95.4975798, 34.0101924], [-95.4975491, 34.0101923], [-95.4975488, 34.0102669], [-95.4977715, 34.0102676]]]}, "properties": {"osm_id": 764327138, "building": "yes", "name": "Angie's Circus City Diner", "height": null, "height_m": null, "levels": null, "tract_id": "40023967100", "tract_name": "9671", "tags": {"addr:city": "Hugo", "addr:housenumber": "1312", "addr:postcode": "74743", "addr:state": "OK", "addr:street": "East Jackson Street", "amenity": "restaurant", "building": "yes", "cuisine": "american", "name": "Angie's Circus City Diner"}}}, {"type": "Feature", "geometry": {"type": "Polygon", "coordinates": [[[-95.5144742, 34.0106501], [-95.5144703, 34.0107246], [-95.5142821, 34.0107179], [-95.514279, 34.0107767], [-95.5142107, 34.0107743], [-95.5142176, 34.010641], [-95.5144742, 34.0106501]]]}, "properties": {"osm_id": 875304374, "building": "yes", "name": "Brownsworth Law Office", "height": null, "height_m": null, "levels": null, "tract_id": "40023967100", "tract_name": "9671", "tags": {"addr:city": "Hugo", "addr:housenumber": "201", "addr:postcode": "74743", "addr:state": "OK", "addr:street": "W. Jackson", "building": "yes", "designation": "lawyer, attorney", "name": "Brownsworth Law Office", "office": "lawyer", "source": "Personal Knowledge"}}}, {"type": "Feature", "geometry": {"type": "Polygon", "coordinates": [[[-95.5126883, 34.0112549], [-95.5126972, 34.0110064], [-95.5126735, 34.0109667], [-95.5124566, 34.0109614], [-95.5124463, 34.0112489], [-95.5126883, 34.0112549]]]}, "properties": {"osm_id": 875304376, "building": "yes", "name": "AmeriState Bank", "height": null, "height_m": null, "levels": null, "tract_id": "40023967100", "tract_name": "9671", "tags": {"addr:city": "Hugo", "addr:housenumber": "101", "addr:postcode": "74743", "addr:state": "OK", "addr:street": "East Jackson Street", "amenity": "bank", "atm": "yes", "building": "yes", "designation": "bank, financial institution", "name": "AmeriState Bank", "source": "Personal Knowledge"}}}, {"type": "Feature", "geometry": {"type": "Polygon", "coordinates": [[[-95.5095458, 34.0094251], [-95.5095605, 34.0091206], [-95.5092791, 34.0091113], [-95.5092644, 34.0094158], [-95.5095458, 34.0094251]]]}, "properties": {"osm_id": 875304388, "building": "yes", "name": "Choctaw County Courthouse", "height": null, "height_m": null, "levels": null, "tract_id": "40023967100", "tract_name": "9671", "tags": {"addr:city": "Hugo", "addr:housename": "Choctaw County Courthouse", "addr:housenumber": "300", "addr:postcode": "74743", "addr:state": "OK", "addr:street": "East Duke Street", "amenity": "courthouse", "building": "yes", "designation": "government building, courthouse", "name": "Choctaw County Courthouse", "source": "Personal Knowledge"}}}, {"type": "Feature", "geometry": {"type": "Polygon", "coordinates": [[[-95.5102207, 34.0106485], [-95.5101738, 34.0106044], [-95.5102738, 34.0105313], [-95.5103207, 34.0105755], [-95.5102207, 34.0106485]]]}, "properties": {"osm_id": 875304389, "building": "yes", "name": "Leoma Caldwell Real Estate", "height": null, "height_m": null, "levels": null, "tract_id": "40023967100", "tract_name": "9671", "tags": {"addr:city": "Hugo", "addr:postcode": "74743", "addr:state": "OK", "addr:street": "E. Jackson", "building": "yes", "designation": "realty, real estate", "name": "Leoma Caldwell Real Estate", "office": "estate_agent", "source": "Personal Knowledge"}}}, {"type": "Feature", "geometry": {"type": "Polygon", "coordinates": [[[-95.5110254, 34.0107185], [-95.5110315, 34.0105144], [-95.5113464, 34.0105209], [-95.5113415, 34.010684], [-95.5112607, 34.0106824], [-95.5112615, 34.0106571], [-95.5111916, 34.0106556], [-95.511191, 34.010675], [-95.5111383, 34.0106739], [-95.5111034, 34.0106983], [-95.5111028, 34.0107201], [-95.5110254, 34.0107185]]]}, "properties": {"osm_id": 984774833, "building": "yes", "name": "Kiamichi Family Medical Center, Inc", "height": null, "height_m": null, "levels": null, "tract_id": "40023967100", "tract_name": "9671", "tags": {"addr:city": "Hugo", "addr:housenumber": "204", "addr:postcode": "74743", "addr:state": "OK", "addr:street": "East Jackson Street", "amenity": "clinic", "building": "yes", "healthcare": "clinic", "name": "Kiamichi Family Medical Center, Inc", "website": "https://www.kiamichimed.org/"}}}, {"type": "Feature", "geometry": {"type": "Polygon", "coordinates": [[[-95.5106731, 34.0121209], [-95.5106812, 34.0118929], [-95.5102736, 34.011883], [-95.5102655, 34.012111], [-95.5106731, 34.0121209]]]}, "properties": {"osm_id": 1058718978, "building": "yes", "name": "", "height": null, "height_m": null, "levels": null, "tract_id": "40023967100", "tract_name": "9671", "tags": {"addr:city": "Hugo", "addr:housenumber": "215", "addr:postcode": "74743", "addr:state": "OK", "addr:street": "East Kirk Street", "building": "yes", "telecom": "exchange"}}}, {"type": "Feature", "geometry": {"type": "Polygon", "coordinates": [[[-95.5146142, 34.0105731], [-95.5146934, 34.0105758], [-95.5146946, 34.0105528], [-95.5147257, 34.0105539], [-95.5147247, 34.0105734], [-95.5147818, 34.0105753], [-95.5147777, 34.0106575], [-95.514794, 34.010658], [-95.5147918, 34.0107026], [-95.5147695, 34.0107018], [-95.5147652, 34.0107903], [-95.5146038, 34.0107849], [-95.5146142, 34.0105731]]]}, "properties": {"osm_id": 1077783403, "building": "yes", "name": "Buffalo Grill LLC", "height": null, "height_m": null, "levels": null, "tract_id": "40023967100", "tract_name": "9671", "tags": {"addr:city": "Hugo", "addr:housenumber": "203", "addr:postcode": "74743", "addr:state": "OK", "addr:street": "West Jackson Street", "amenity": "restaurant", "branch": "Hugo", "building": "yes", "contact:facebook": "https://www.facebook.com/buffalogrillllc/", "cuisine": "barbecue;american;sandwich", "email": "buffalogrill203@yahoo.com", "name": "Buffalo Grill LLC", "opening_hours": "Mo-Sa 11:00-21:00; Su off", "phone": "(580)743-2833", "website:menu": "https://www.facebook.com/buffalogrillllc/menu"}}}, {"type": "Feature", "geometry": {"type": "Polygon", "coordinates": [[[-95.5077285, 34.0103279], [-95.5078518, 34.0103312], [-95.5078455, 34.0104919], [-95.5077221, 34.0104886], [-95.5077285, 34.0103279]]]}, "properties": {"osm_id": 1081989495, "building": "yes", "name": "", "height": null, "height_m": null, "levels": null, "tract_id": "40023967100", "tract_name": "9671", "tags": {"building": "yes", "shop": "yes"}}}, {"type": "Feature", "geometry": {"type": "Polygon", "coordinates": [[[-95.5076051, 34.0103246], [-95.5077285, 34.0103279], [-95.5077221, 34.0104886], [-95.5075988, 34.0104853], [-95.5076051, 34.0103246]]]}, "properties": {"osm_id": 1081989496, "building": "yes", "name": "Burgess & Burgess", "height": null, "height_m": null, "levels": null, "tract_id": "40023967100", "tract_name": "9671", "tags": {"addr:city": "Hugo", "addr:country": "US", "addr:housenumber": "404", "addr:state": "OK", "addr:street": "East Jackson Street", "building": "yes", "email": "brandi@burgesscpa.com", "name": "Burgess & Burgess", "office": "accountant", "phone": "+1 580 326 5541", "website": "http://www.burgesscpa.com"}}}, {"type": "Feature", "geometry": {"type": "Polygon", "coordinates": [[[-95.5082248, 34.0089983], [-95.5082281, 34.0088147], [-95.5078629, 34.0088101], [-95.5078595, 34.0089937], [-95.5082248, 34.0089983]]]}, "properties": {"osm_id": 1111234770, "building": "yes", "name": "Choctaw County Health Department", "height": null, "height_m": null, "levels": null, "tract_id": "40023967100", "tract_name": "9671", "tags": {"addr:city": "Hugo", "addr:housenumber": "103", "addr:postcode": "74743", "addr:state": "OK", "addr:street": "South 4th Street", "building": "yes", "name": "Choctaw County Health Department", "office": "government"}}}, {"type": "Feature", "geometry": {"type": "Polygon", "coordinates": [[[-95.5143923, 34.0113666], [-95.5144029, 34.011081], [-95.5142219, 34.0110764], [-95.5142113, 34.011362], [-95.5143923, 34.0113666]]]}, "properties": {"osm_id": 1111622426, "building": "yes", "name": "Bumper to Bumper Auto Parts", "height": null, "height_m": null, "levels": null, "tract_id": "40023967100", "tract_name": "9671", "tags": {"addr:city": "Hugo", "addr:housenumber": "200", "addr:postcode": "74743", "addr:state": "OK", "addr:street": "West Jackson Street", "building": "yes", "name": "Bumper to Bumper Auto Parts", "shop": "car_parts"}}}, {"type": "Feature", "geometry": {"type": "Polygon", "coordinates": [[[-95.5144731, 34.011246], [-95.5145513, 34.0112462], [-95.5145508, 34.0110319], [-95.5144742, 34.0110325], [-95.5144731, 34.011246]]]}, "properties": {"osm_id": 1111622427, "building": "yes", "name": "Bravado Wireless", "height": null, "height_m": null, "levels": null, "tract_id": "40023967100", "tract_name": "9671", "tags": {"addr:city": "Hugo", "addr:housenumber": "210", "addr:postcode": "74743", "addr:state": "OK", "addr:street": "West Jackson Street", "building": "yes", "name": "Bravado Wireless", "shop": "mobile_phone"}}}, {"type": "Feature", "geometry": {"type": "Polygon", "coordinates": [[[-95.5145513, 34.0112462], [-95.5145517, 34.0113867], [-95.5146378, 34.0113866], [-95.514637, 34.0110318], [-95.5145508, 34.0110319], [-95.5145513, 34.0112462]]]}, "properties": {"osm_id": 1111622428, "building": "yes", "name": "The Wild-Flour Bakery", "height": null, "height_m": null, "levels": null, "tract_id": "40023967100", "tract_name": "9671", "tags": {"addr:city": "Hugo", "addr:housenumber": "212", "addr:postcode": "74743", "addr:state": "OK", "addr:street": "West Jackson Street", "building": "yes", "name": "The Wild-Flour Bakery", "shop": "bakery"}}}, {"type": "Feature", "geometry": {"type": "Polygon", "coordinates": [[[-95.5153878, 34.0114289], [-95.5153408, 34.011087], [-95.5152186, 34.0110985], [-95.5152384, 34.0112424], [-95.5150192, 34.0112631], [-95.5150358, 34.0113844], [-95.5150674, 34.0113814], [-95.515078, 34.0114582], [-95.5153878, 34.0114289]]]}, "properties": {"osm_id": 1111622430, "building": "yes", "name": "", "height": null, "height_m": null, "levels": null, "tract_id": "40023967100", "tract_name": "9671", "tags": {"building": "yes"}}}, {"type": "Feature", "geometry": {"type": "Polygon", "coordinates": [[[-95.5149228, 34.0103181], [-95.5149104, 34.0101961], [-95.5146633, 34.0102134], [-95.5146716, 34.0102952], [-95.5148458, 34.010283], [-95.5148499, 34.0103232], [-95.5149228, 34.0103181]]]}, "properties": {"osm_id": 1111622431, "building": "yes", "name": "The Buffalo Brew", "height": null, "height_m": null, "levels": null, "tract_id": "40023967100", "tract_name": "9671", "tags": {"addr:city": "Hugo", "addr:housenumber": "205", "addr:postcode": "74743", "addr:state": "OK", "addr:street": "West Jackson Street", "amenity": "cafe", "building": "yes", "cuisine": "coffee_shop", "name": "The Buffalo Brew"}}}, {"type": "Feature", "geometry": {"type": "Polygon", "coordinates": [[[-95.5143834, 34.0101308], [-95.5143852, 34.0099757], [-95.5142037, 34.0099743], [-95.514202, 34.0101294], [-95.5143834, 34.0101308]]]}, "properties": {"osm_id": 1111622432, "building": "yes", "name": "Amigos Mexican Grill", "height": null, "height_m": null, "levels": null, "tract_id": "40023967100", "tract_name": "9671", "tags": {"addr:city": "Hugo", "addr:housenumber": "101", "addr:postcode": "74743", "addr:state": "OK", "addr:street": "North A Street", "amenity": "restaurant", "building": "yes", "cuisine": "mexican", "name": "Amigos Mexican Grill"}}}, {"type": "Feature", "geometry": {"type": "Polygon", "coordinates": [[[-95.513845, 34.0095107], [-95.5138105, 34.0094785], [-95.5138509, 34.0094488], [-95.5138123, 34.0094127], [-95.5138371, 34.0093944], [-95.5137836, 34.0093444], [-95.5137502, 34.009369], [-95.5136129, 34.0092407], [-95.5136957, 34.0091799], [-95.5135618, 34.0090547], [-95.5134738, 34.0091194], [-95.5134439, 34.0090914], [-95.5134012, 34.0091227], [-95.513245, 34.0089767], [-95.5131514, 34.0090455], [-95.513313, 34.0091966], [-95.5132672, 34.0092302], [-95.513432, 34.0093843], [-95.5134562, 34.0093665], [-95.5136803, 34.009576], [-95.5137056, 34.0095574], [-95.5137389, 34.0095886], [-95.513845, 34.0095107]]]}, "properties": {"osm_id": 1111622433, "building": "yes", "name": "Security First National Bank", "height": null, "height_m": null, "levels": null, "tract_id": "40023967100", "tract_name": "9671", "tags": {"addr:city": "Hugo", "addr:housenumber": "100", "addr:postcode": "74743", "addr:state": "OK", "addr:street": "South Broadway Street", "amenity": "bank", "building": "yes", "name": "Security First National Bank"}}}, {"type": "Feature", "geometry": {"type": "Polygon", "coordinates": [[[-95.5121737, 34.010732], [-95.5121777, 34.0105064], [-95.5120187, 34.0105045], [-95.5120147, 34.01073], [-95.5121737, 34.010732]]]}, "properties": {"osm_id": 1111622434, "building": "yes", "name": "H&R Block", "height": null, "height_m": null, "levels": null, "tract_id": "40023967100", "tract_name": "9671", "tags": {"addr:city": "Hugo", "addr:housenumber": "122", "addr:postcode": "74743", "addr:state": "OK", "addr:street": "East Jackson Street", "brand": "H&R Block", "brand:wikidata": "Q5627799", "building": "yes", "name": "H&R Block", "office": "tax_advisor"}}}, {"type": "Feature", "geometry": {"type": "Polygon", "coordinates": [[[-95.5122575, 34.0104603], [-95.5122579, 34.0103441], [-95.5121607, 34.0103439], [-95.5121603, 34.0104601], [-95.5122575, 34.0104603]]]}, "properties": {"osm_id": 1111622435, "building": "yes", "name": "", "height": null, "height_m": null, "levels": null, "tract_id": "40023967100", "tract_name": "9671", "tags": {"building": "yes"}}}, {"type": "Feature", "geometry": {"type": "Polygon", "coordinates": [[[-95.5119119, 34.0107207], [-95.5119189, 34.0103679], [-95.5117549, 34.0103657], [-95.5117483, 34.0106958], [-95.5117721, 34.0107188], [-95.5119119, 34.0107207]]]}, "properties": {"osm_id": 1111622437, "building": "yes", "name": "Piearcy Financial Solutions", "height": null, "height_m": null, "levels": null, "tract_id": "40023967100", "tract_name": "9671", "tags": {"addr:city": "Hugo", "addr:housenumber": "128", "addr:postcode": "74743", "addr:state": "OK", "addr:street": "East Jackson Street", "building": "yes", "name": "Piearcy Financial Solutions", "office": "tax_advisor"}}}, {"type": "Feature", "geometry": {"type": "Polygon", "coordinates": [[[-95.5115015, 34.0096695], [-95.5115175, 34.0092819], [-95.5111892, 34.0092726], [-95.5111732, 34.0096602], [-95.5115015, 34.0096695]]]}, "properties": {"osm_id": 1111622439, "building": "yes", "name": "", "height": null, "height_m": null, "levels": null, "tract_id": "40023967100", "tract_name": "9671", "tags": {"building": "yes"}}}, {"type": "Feature", "geometry": {"type": "Polygon", "coordinates": [[[-95.5139097, 34.0102501], [-95.5139134, 34.0099736], [-95.5137016, 34.0099716], [-95.5136979, 34.0102482], [-95.5139097, 34.0102501]]]}, "properties": {"osm_id": 1111622440, "building": "yes", "name": "", "height": null, "height_m": null, "levels": null, "tract_id": "40023967100", "tract_name": "9671", "tags": {"building": "yes"}}}, {"type": "Feature", "geometry": {"type": "Polygon", "coordinates": [[[-95.4875072, 34.0061793], [-95.4869089, 34.0057971], [-95.4870588, 34.0056359], [-95.4876569, 34.0060182], [-95.4875072, 34.0061793]]]}, "properties": {"osm_id": 1206830735, "building": "yes", "name": "HiWay Inn Express of Hugo", "height": null, "height_m": null, "levels": null, "tract_id": "40023967100", "tract_name": "9671", "tags": {"building": "yes", "name": "HiWay Inn Express of Hugo", "tourism": "motel"}}}, {"type": "Feature", "geometry": {"type": "Polygon", "coordinates": [[[-95.5118651, 34.024024], [-95.5118648, 34.0239948], [-95.5118033, 34.0239953], [-95.5118036, 34.0240245], [-95.5118651, 34.024024]]]}, "properties": {"osm_id": 1211910451, "building": "yes", "name": "", "height": null, "height_m": null, "levels": null, "tract_id": "40023967100", "tract_name": "9671", "tags": {"building": "yes"}}}, {"type": "Feature", "geometry": {"type": "Polygon", "coordinates": [[[-95.501594, 34.0104985], [-95.5018351, 34.010501], [-95.5018403, 34.0101434], [-95.5015729, 34.0101407], [-95.5015719, 34.0102068], [-95.501728, 34.0102084], [-95.501725, 34.0104115], [-95.5015953, 34.0104102], [-95.501594, 34.0104985]]]}, "properties": {"osm_id": 1225867399, "building": "yes", "name": "", "height": null, "height_m": null, "levels": null, "tract_id": "40023967100", "tract_name": "9671", "tags": {"building": "yes", "tourism": "motel"}}}, {"type": "Feature", "geometry": {"type": "Polygon", "coordinates": [[[-95.4884309, 34.0057538], [-95.4883626, 34.0057071], [-95.4882063, 34.0058641], [-95.4882745, 34.0059108], [-95.4884309, 34.0057538]]]}, "properties": {"osm_id": 1230402414, "building": "yes", "name": "Taco Bell", "height": null, "height_m": null, "levels": null, "tract_id": "40023967100", "tract_name": "9671", "tags": {"addr:city": "Hugo", "addr:housenumber": "2011", "addr:postcode": "74743", "addr:state": "OK", "addr:street": "East Jackson Street", "amenity": "fast_food", "brand": "Taco Bell", "brand:wikidata": "Q752941", "building": "yes", "cuisine": "tex-mex", "name": "Taco Bell", "opening_hours": "Mo-Th 09:00-01:00; Fr-Sa 09:00-02:00; Su 09:00-01:00", "phone": "+1 580-326-9065", "takeaway": "yes", "website": "https://locations.tacobell.com/ok/hugo/2011-east-jackson-st.html"}}}, {"type": "Feature", "geometry": {"type": "Polygon", "coordinates": [[[-95.5097015, 34.0088155], [-95.5093236, 34.0088058], [-95.5093161, 34.0090075], [-95.5093829, 34.0090092], [-95.5093859, 34.008929], [-95.509697, 34.0089369], [-95.5097015, 34.0088155]]]}, "properties": {"osm_id": 1283054258, "building": "yes", "name": "", "height": null, "height_m": null, "levels": null, "tract_id": "40023967100", "tract_name": "9671", "tags": {"addr:city": "Hugo", "addr:housenumber": "305", "addr:postcode": "74743", "addr:state": "OK", "addr:street": "East Jefferson Street", "building": "yes", "emergency": "psap", "office": "government"}}}, {"type": "Feature", "geometry": {"type": "Polygon", "coordinates": [[[-95.5130438, 34.0107534], [-95.513085, 34.0099899], [-95.5131133, 34.00994], [-95.5136116, 34.0099583], [-95.5136001, 34.0101727], [-95.5134595, 34.0101675], [-95.5134272, 34.0107676], [-95.5130438, 34.0107534]]]}, "properties": {"osm_id": 1350824731, "building": "yes", "name": "", "height": null, "height_m": null, "levels": null, "tract_id": "40023967100", "tract_name": "9671", "tags": {"building": "yes"}}}, {"type": "Feature", "geometry": {"type": "Polygon", "coordinates": [[[-95.5130375, 34.0109743], [-95.5135218, 34.0109891], [-95.513506, 34.0113425], [-95.5132806, 34.0113356], [-95.513285, 34.0112382], [-95.5130261, 34.0112303], [-95.5130375, 34.0109743]]]}, "properties": {"osm_id": 1350824732, "building": "yes", "name": "", "height": null, "height_m": null, "levels": null, "tract_id": "40023967100", "tract_name": "9671", "tags": {"building": "yes"}}}, {"type": "Feature", "geometry": {"type": "Polygon", "coordinates": [[[-95.5118286, 34.0109522], [-95.5123559, 34.010961], [-95.5123417, 34.0112309], [-95.5118321, 34.0112191], [-95.5118286, 34.0109522]]]}, "properties": {"osm_id": 1350824733, "building": "yes", "name": "", "height": null, "height_m": null, "levels": null, "tract_id": "40023967100", "tract_name": "9671", "tags": {"building": "yes"}}}, {"type": "Feature", "geometry": {"type": "Polygon", "coordinates": [[[-95.51277, 34.0099224], [-95.5127346, 34.0106148], [-95.5124408, 34.0106089], [-95.5124515, 34.010474], [-95.5124019, 34.010474], [-95.5124196, 34.0103243], [-95.5123665, 34.0103331], [-95.5123736, 34.0101806], [-95.5124373, 34.0101806], [-95.5124479, 34.0100456], [-95.5123807, 34.0100486], [-95.5123913, 34.0099165], [-95.51277, 34.0099224]]]}, "properties": {"osm_id": 1350824734, "building": "yes", "name": "", "height": null, "height_m": null, "levels": null, "tract_id": "40023967100", "tract_name": "9671", "tags": {"building": "yes"}}}, {"type": "Feature", "geometry": {"type": "Polygon", "coordinates": [[[-95.5119647, 34.0097058], [-95.5128515, 34.0097269], [-95.5128662, 34.0093041], [-95.5126607, 34.0092992], [-95.5126567, 34.0094149], [-95.5125966, 34.0094295], [-95.5125986, 34.0093691], [-95.5124706, 34.0093661], [-95.5124695, 34.0093974], [-95.5124313, 34.0093965], [-95.5124342, 34.0093121], [-95.5119787, 34.0093012], [-95.5119647, 34.0097058]]]}, "properties": {"osm_id": 1350824735, "building": "yes", "name": "", "height": null, "height_m": null, "levels": null, "tract_id": "40023967100", "tract_name": "9671", "tags": {"building": "yes"}}}, {"type": "Feature", "geometry": {"type": "Polygon", "coordinates": [[[-95.5128318, 34.0089081], [-95.512821, 34.009246], [-95.51257, 34.0092405], [-95.5125761, 34.00905], [-95.5123972, 34.0090461], [-95.5124019, 34.0088986], [-95.5128318, 34.0089081]]]}, "properties": {"osm_id": 1350824736, "building": "yes", "name": "", "height": null, "height_m": null, "levels": null, "tract_id": "40023967100", "tract_name": "9671", "tags": {"building": "yes"}}}, {"type": "Feature", "geometry": {"type": "Polygon", "coordinates": [[[-95.5135501, 34.0107715], [-95.513997, 34.0107898], [-95.5140191, 34.0104197], [-95.5135722, 34.0104013], [-95.5135501, 34.0107715]]]}, "properties": {"osm_id": 1350824738, "building": "yes", "name": "", "height": null, "height_m": null, "levels": null, "tract_id": "40023967100", "tract_name": "9671", "tags": {"building": "yes"}}}, {"type": "Feature", "geometry": {"type": "Polygon", "coordinates": [[[-95.5120702, 34.0099011], [-95.512046, 34.0102869], [-95.5117987, 34.0102762], [-95.511823, 34.0098904], [-95.5120702, 34.0099011]]]}, "properties": {"osm_id": 1350824739, "building": "yes", "name": "", "height": null, "height_m": null, "levels": null, "tract_id": "40023967100", "tract_name": "9671", "tags": {"building": "yes"}}}, {"type": "Feature", "geometry": {"type": "Polygon", "coordinates": [[[-95.5116063, 34.0077009], [-95.5113508, 34.0076731], [-95.5113769, 34.0075081], [-95.5116324, 34.0075359], [-95.5116063, 34.0077009]]]}, "properties": {"osm_id": 1389900500, "building": "yes", "name": "", "height": null, "height_m": null, "levels": null, "tract_id": "40023967100", "tract_name": "9671", "tags": {"building": "yes"}}}, {"type": "Feature", "geometry": {"type": "Polygon", "coordinates": [[[-95.5128508, 34.0079872], [-95.51191, 34.0077932], [-95.511956, 34.0076401], [-95.5128967, 34.0078341], [-95.5128508, 34.0079872]]]}, "properties": {"osm_id": 1389900501, "building": "yes", "name": "", "height": null, "height_m": null, "levels": null, "tract_id": "40023967100", "tract_name": "9671", "tags": {"building": "yes"}}}, {"type": "Feature", "geometry": {"type": "Polygon", "coordinates": [[[-95.5133584, 34.0080956], [-95.5131767, 34.0080717], [-95.5131909, 34.0079973], [-95.5133726, 34.0080212], [-95.5133584, 34.0080956]]]}, "properties": {"osm_id": 1389900502, "building": "yes", "name": "", "height": null, "height_m": null, "levels": null, "tract_id": "40023967100", "tract_name": "9671", "tags": {"building": "yes"}}}, {"type": "Feature", "geometry": {"type": "Polygon", "coordinates": [[[-95.5134811, 34.0081195], [-95.51337, 34.0081075], [-95.513416, 34.0078155], [-95.5135057, 34.0078252], [-95.5134925, 34.0079087], [-95.513514, 34.0079111], [-95.5134811, 34.0081195]]]}, "properties": {"osm_id": 1389900503, "building": "yes", "name": "", "height": null, "height_m": null, "levels": null, "tract_id": "40023967100", "tract_name": "9671", "tags": {"building": "yes"}}}, {"type": "Feature", "geometry": {"type": "Polygon", "coordinates": [[[-95.5135421, 34.0078227], [-95.5134077, 34.0078112], [-95.5134245, 34.0076756], [-95.5135589, 34.007687], [-95.5135421, 34.0078227]]]}, "properties": {"osm_id": 1389900504, "building": "yes", "name": "", "height": null, "height_m": null, "levels": null, "tract_id": "40023967100", "tract_name": "9671", "tags": {"building": "yes"}}}, {"type": "Feature", "geometry": {"type": "Polygon", "coordinates": [[[-95.5138426, 34.0080789], [-95.51375, 34.0080686], [-95.5137675, 34.0079611], [-95.51386, 34.0079714], [-95.5138426, 34.0080789]]]}, "properties": {"osm_id": 1389900505, "building": "yes", "name": "", "height": null, "height_m": null, "levels": null, "tract_id": "40023967100", "tract_name": "9671", "tags": {"building": "yes"}}}, {"type": "Feature", "geometry": {"type": "Polygon", "coordinates": [[[-95.5137534, 34.0078638], [-95.5136616, 34.0078536], [-95.5136903, 34.0076759], [-95.5137821, 34.0076861], [-95.5137534, 34.0078638]]]}, "properties": {"osm_id": 1389900506, "building": "yes", "name": "", "height": null, "height_m": null, "levels": null, "tract_id": "40023967100", "tract_name": "9671", "tags": {"building": "yes"}}}, {"type": "Feature", "geometry": {"type": "Polygon", "coordinates": [[[-95.5139022, 34.0078955], [-95.5137766, 34.0078815], [-95.5138081, 34.0076869], [-95.5139337, 34.0077009], [-95.5139022, 34.0078955]]]}, "properties": {"osm_id": 1389900507, "building": "yes", "name": "", "height": null, "height_m": null, "levels": null, "tract_id": "40023967100", "tract_name": "9671", "tags": {"building": "yes"}}}, {"type": "Feature", "geometry": {"type": "Polygon", "coordinates": [[[-95.51443, 34.007901], [-95.5144284, 34.0079857], [-95.5143227, 34.0079844], [-95.5143242, 34.0078997], [-95.51443, 34.007901]]]}, "properties": {"osm_id": 1389900508, "building": "yes", "name": "", "height": null, "height_m": null, "levels": null, "tract_id": "40023967100", "tract_name": "9671", "tags": {"building": "yes"}}}, {"type": "Feature", "geometry": {"type": "Polygon", "coordinates": [[[-95.5144447, 34.0078721], [-95.5143272, 34.0078707], [-95.5143292, 34.0077601], [-95.5144467, 34.0077615], [-95.5144447, 34.0078721]]]}, "properties": {"osm_id": 1389900509, "building": "yes", "name": "", "height": null, "height_m": null, "levels": null, "tract_id": "40023967100", "tract_name": "9671", "tags": {"building": "yes"}}}, {"type": "Feature", "geometry": {"type": "Polygon", "coordinates": [[[-95.5150643, 34.0085436], [-95.5149698, 34.0085253], [-95.5149827, 34.0084794], [-95.5150772, 34.0084978], [-95.5150643, 34.0085436]]]}, "properties": {"osm_id": 1389900510, "building": "yes", "name": "", "height": null, "height_m": null, "levels": null, "tract_id": "40023967100", "tract_name": "9671", "tags": {"building": "yes"}}}, {"type": "Feature", "geometry": {"type": "Polygon", "coordinates": [[[-95.5133792, 34.0086153], [-95.5133832, 34.0084658], [-95.5134911, 34.0084678], [-95.5134871, 34.0086173], [-95.5133792, 34.0086153]]]}, "properties": {"osm_id": 1389900511, "building": "yes", "name": "", "height": null, "height_m": null, "levels": null, "tract_id": "40023967100", "tract_name": "9671", "tags": {"building": "yes"}}}, {"type": "Feature", "geometry": {"type": "Polygon", "coordinates": [[[-95.5141041, 34.0085464], [-95.514096, 34.0087116], [-95.5136984, 34.0086982], [-95.5137064, 34.0085331], [-95.5141041, 34.0085464]]]}, "properties": {"osm_id": 1389900512, "building": "yes", "name": "", "height": null, "height_m": null, "levels": null, "tract_id": "40023967100", "tract_name": "9671", "tags": {"building": "yes"}}}, {"type": "Feature", "geometry": {"type": "Polygon", "coordinates": [[[-95.5214824, 34.0591162], [-95.5214575, 34.059116], [-95.5214594, 34.0589887], [-95.5216488, 34.0589907], [-95.5216468, 34.059118], [-95.5215556, 34.059117], [-95.5215546, 34.0591849], [-95.5214813, 34.0591841], [-95.5214824, 34.0591162]]]}, "properties": {"osm_id": 1391527624, "building": "yes", "name": "", "height": null, "height_m": null, "levels": null, "tract_id": "40023967100", "tract_name": "9671", "tags": {"building": "yes"}}}, {"type": "Feature", "geometry": {"type": "Polygon", "coordinates": [[[-95.5209591, 34.0583457], [-95.520818, 34.0583352], [-95.5208329, 34.0581981], [-95.5209741, 34.0582086], [-95.5209591, 34.0583457]]]}, "properties": {"osm_id": 1391527625, "building": "yes", "name": "", "height": null, "height_m": null, "levels": null, "tract_id": "40023967100", "tract_name": "9671", "tags": {"building": "yes"}}}, {"type": "Feature", "geometry": {"type": "Polygon", "coordinates": [[[-95.5208401, 34.0588177], [-95.5207365, 34.0587406], [-95.5208474, 34.0586382], [-95.5209511, 34.0587152], [-95.5208401, 34.0588177]]]}, "properties": {"osm_id": 1391527626, "building": "yes", "name": "", "height": null, "height_m": null, "levels": null, "tract_id": "40023967100", "tract_name": "9671", "tags": {"building": "yes"}}}, {"type": "Feature", "geometry": {"type": "Polygon", "coordinates": [[[-95.5208277, 34.0498304], [-95.5206628, 34.049852], [-95.5206441, 34.0497546], [-95.5208091, 34.0497329], [-95.5208277, 34.0498304]]]}, "properties": {"osm_id": 1391527630, "building": "barn", "name": "", "height": null, "height_m": null, "levels": null, "tract_id": "40023967100", "tract_name": "9671", "tags": {"building": "barn"}}}, {"type": "Feature", "geometry": {"type": "Polygon", "coordinates": [[[-95.5111072, 34.0086454], [-95.5115337, 34.0086574], [-95.5115462, 34.0083507], [-95.5113361, 34.0083448], [-95.5113339, 34.0083985], [-95.511237, 34.0083958], [-95.5112333, 34.0084881], [-95.5111137, 34.0084848], [-95.5111072, 34.0086454]]]}, "properties": {"osm_id": 1395942207, "building": "yes", "name": "", "height": null, "height_m": null, "levels": null, "tract_id": "40023967100", "tract_name": "9671", "tags": {"building": "yes"}}}, {"type": "Feature", "geometry": {"type": "Polygon", "coordinates": [[[-95.4957343, 34.002477], [-95.495621, 34.0024765], [-95.4956222, 34.0022955], [-95.4957355, 34.002296], [-95.4957343, 34.002477]]]}, "properties": {"osm_id": 1410062710, "building": "yes", "name": "", "height": null, "height_m": null, "levels": null, "tract_id": "40023967100", "tract_name": "9671", "tags": {"building": "yes"}}}, {"type": "Feature", "geometry": {"type": "Polygon", "coordinates": [[[-95.4959489, 34.002478], [-95.4958397, 34.0024775], [-95.4958409, 34.0022965], [-95.4959501, 34.002297], [-95.4959489, 34.002478]]]}, "properties": {"osm_id": 1410062711, "building": "yes", "name": "", "height": null, "height_m": null, "levels": null, "tract_id": "40023967100", "tract_name": "9671", "tags": {"building": "yes"}}}, {"type": "Feature", "geometry": {"type": "Polygon", "coordinates": [[[-95.4961795, 34.0024791], [-95.496069, 34.0024786], [-95.4960702, 34.0022976], [-95.4961807, 34.0022981], [-95.4961795, 34.0024791]]]}, "properties": {"osm_id": 1410062712, "building": "yes", "name": "", "height": null, "height_m": null, "levels": null, "tract_id": "40023967100", "tract_name": "9671", "tags": {"building": "yes"}}}, {"type": "Feature", "geometry": {"type": "Polygon", "coordinates": [[[-95.4963787, 34.00248], [-95.4962669, 34.0024795], [-95.4962681, 34.0022985], [-95.4963799, 34.002299], [-95.4963787, 34.00248]]]}, "properties": {"osm_id": 1410062713, "building": "yes", "name": "", "height": null, "height_m": null, "levels": null, "tract_id": "40023967100", "tract_name": "9671", "tags": {"building": "yes"}}}, {"type": "Feature", "geometry": {"type": "Polygon", "coordinates": [[[-95.496608, 34.002481], [-95.4964975, 34.0024805], [-95.4964987, 34.0022995], [-95.4966092, 34.0023], [-95.496608, 34.002481]]]}, "properties": {"osm_id": 1410062714, "building": "yes", "name": "", "height": null, "height_m": null, "levels": null, "tract_id": "40023967100", "tract_name": "9671", "tags": {"building": "yes"}}}, {"type": "Feature", "geometry": {"type": "Polygon", "coordinates": [[[-95.4968058, 34.0024819], [-95.4966947, 34.0024814], [-95.4966959, 34.0023004], [-95.496807, 34.0023009], [-95.4968058, 34.0024819]]]}, "properties": {"osm_id": 1410062715, "building": "yes", "name": "", "height": null, "height_m": null, "levels": null, "tract_id": "40023967100", "tract_name": "9671", "tags": {"building": "yes"}}}, {"type": "Feature", "geometry": {"type": "Polygon", "coordinates": [[[-95.4970365, 34.002483], [-95.4969233, 34.0024825], [-95.4969245, 34.0023015], [-95.4970377, 34.002302], [-95.4970365, 34.002483]]]}, "properties": {"osm_id": 1410062716, "building": "yes", "name": "", "height": null, "height_m": null, "levels": null, "tract_id": "40023967100", "tract_name": "9671", "tags": {"building": "yes"}}}, {"type": "Feature", "geometry": {"type": "Polygon", "coordinates": [[[-95.497237, 34.0024839], [-95.4971225, 34.0024834], [-95.4971237, 34.0023024], [-95.4972382, 34.0023029], [-95.497237, 34.0024839]]]}, "properties": {"osm_id": 1410062717, "building": "yes", "name": "", "height": null, "height_m": null, "levels": null, "tract_id": "40023967100", "tract_name": "9671", "tags": {"building": "yes"}}}, {"type": "Feature", "geometry": {"type": "Polygon", "coordinates": [[[-95.4974657, 34.0024849], [-95.4973538, 34.0024844], [-95.497355, 34.0023035], [-95.4974669, 34.002304], [-95.4974657, 34.0024849]]]}, "properties": {"osm_id": 1410062718, "building": "yes", "name": "", "height": null, "height_m": null, "levels": null, "tract_id": "40023967100", "tract_name": "9671", "tags": {"building": "yes"}}}, {"type": "Feature", "geometry": {"type": "Polygon", "coordinates": [[[-95.4976997, 34.002486], [-95.4975899, 34.0024855], [-95.4975911, 34.0023045], [-95.4977009, 34.002305], [-95.4976997, 34.002486]]]}, "properties": {"osm_id": 1410062719, "building": "yes", "name": "", "height": null, "height_m": null, "levels": null, "tract_id": "40023967100", "tract_name": "9671", "tags": {"building": "yes"}}}, {"type": "Feature", "geometry": {"type": "Polygon", "coordinates": [[[-95.4979089, 34.002487], [-95.4978011, 34.0024865], [-95.4978023, 34.0023055], [-95.4979101, 34.002306], [-95.4979089, 34.002487]]]}, "properties": {"osm_id": 1410062720, "building": "yes", "name": "", "height": null, "height_m": null, "levels": null, "tract_id": "40023967100", "tract_name": "9671", "tags": {"building": "yes"}}}, {"type": "Feature", "geometry": {"type": "Polygon", "coordinates": [[[-95.4981101, 34.0024879], [-95.4980002, 34.0024874], [-95.4980014, 34.0023064], [-95.4981113, 34.0023069], [-95.4981101, 34.0024879]]]}, "properties": {"osm_id": 1410062721, "building": "yes", "name": "", "height": null, "height_m": null, "levels": null, "tract_id": "40023967100", "tract_name": "9671", "tags": {"building": "yes"}}}, {"type": "Feature", "geometry": {"type": "Polygon", "coordinates": [[[-95.4976913, 34.0019898], [-95.4976354, 34.0020558], [-95.4975218, 34.0019896], [-95.4975776, 34.0019237], [-95.4976913, 34.0019898]]]}, "properties": {"osm_id": 1410062722, "building": "yes", "name": "", "height": null, "height_m": null, "levels": null, "tract_id": "40023967100", "tract_name": "9671", "tags": {"building": "yes"}}}, {"type": "Feature", "geometry": {"type": "Polygon", "coordinates": [[[-95.4973678, 34.0019531], [-95.4972312, 34.0019523], [-95.497232, 34.0018695], [-95.4973685, 34.0018703], [-95.4973678, 34.0019531]]]}, "properties": {"osm_id": 1410062723, "building": "yes", "name": "", "height": null, "height_m": null, "levels": null, "tract_id": "40023967100", "tract_name": "9671", "tags": {"building": "yes"}}}, {"type": "Feature", "geometry": {"type": "Polygon", "coordinates": [[[-95.4957386, 34.0019506], [-95.4956274, 34.0019499], [-95.495629, 34.0017675], [-95.4957402, 34.0017681], [-95.4957386, 34.0019506]]]}, "properties": {"osm_id": 1410062724, "building": "yes", "name": "", "height": null, "height_m": null, "levels": null, "tract_id": "40023967100", "tract_name": "9671", "tags": {"building": "yes"}}}, {"type": "Feature", "geometry": {"type": "Polygon", "coordinates": [[[-95.4959556, 34.0019476], [-95.4958437, 34.001947], [-95.4958453, 34.0017688], [-95.4959571, 34.0017694], [-95.4959556, 34.0019476]]]}, "properties": {"osm_id": 1410062725, "building": "yes", "name": "", "height": null, "height_m": null, "levels": null, "tract_id": "40023967100", "tract_name": "9671", "tags": {"building": "yes"}}}, {"type": "Feature", "geometry": {"type": "Polygon", "coordinates": [[[-95.4961628, 34.0019235], [-95.4960259, 34.0019226], [-95.4960267, 34.0018406], [-95.4961635, 34.0018414], [-95.4961628, 34.0019235]]]}, "properties": {"osm_id": 1410062726, "building": "yes", "name": "", "height": null, "height_m": null, "levels": null, "tract_id": "40023967100", "tract_name": "9671", "tags": {"building": "yes"}}}, {"type": "Feature", "geometry": {"type": "Polygon", "coordinates": [[[-95.4963324, 34.0019245], [-95.4961949, 34.0019237], [-95.4961956, 34.0018416], [-95.4963331, 34.0018424], [-95.4963324, 34.0019245]]]}, "properties": {"osm_id": 1410062727, "building": "yes", "name": "", "height": null, "height_m": null, "levels": null, "tract_id": "40023967100", "tract_name": "9671", "tags": {"building": "yes"}}}, {"type": "Feature", "geometry": {"type": "Polygon", "coordinates": [[[-95.4965138, 34.001951], [-95.4964036, 34.0019503], [-95.4964052, 34.0017721], [-95.4965154, 34.0017728], [-95.4965138, 34.001951]]]}, "properties": {"osm_id": 1410062728, "building": "yes", "name": "", "height": null, "height_m": null, "levels": null, "tract_id": "40023967100", "tract_name": "9671", "tags": {"building": "yes"}}}, {"type": "Feature", "geometry": {"type": "Polygon", "coordinates": [[[-95.4967153, 34.0019576], [-95.4966027, 34.0019569], [-95.4966043, 34.0017733], [-95.4967169, 34.001774], [-95.4967153, 34.0019576]]]}, "properties": {"osm_id": 1410062729, "building": "yes", "name": "", "height": null, "height_m": null, "levels": null, "tract_id": "40023967100", "tract_name": "9671", "tags": {"building": "yes"}}}, {"type": "Feature", "geometry": {"type": "Polygon", "coordinates": [[[-95.4969426, 34.0019536], [-95.4968318, 34.0019529], [-95.4968333, 34.0017747], [-95.4969442, 34.0017754], [-95.4969426, 34.0019536]]]}, "properties": {"osm_id": 1410062730, "building": "yes", "name": "", "height": null, "height_m": null, "levels": null, "tract_id": "40023967100", "tract_name": "9671", "tags": {"building": "yes"}}}, {"type": "Feature", "geometry": {"type": "Polygon", "coordinates": [[[-95.4971431, 34.0019548], [-95.4970329, 34.0019541], [-95.4970345, 34.0017759], [-95.4971447, 34.0017766], [-95.4971431, 34.0019548]]]}, "properties": {"osm_id": 1410062731, "building": "yes", "name": "", "height": null, "height_m": null, "levels": null, "tract_id": "40023967100", "tract_name": "9671", "tags": {"building": "yes"}}}, {"type": "Feature", "geometry": {"type": "Polygon", "coordinates": [[[-95.4963861, 34.0014867], [-95.4956478, 34.0014823], [-95.4956494, 34.0013039], [-95.4963876, 34.0013084], [-95.4963861, 34.0014867]]]}, "properties": {"osm_id": 1410062732, "building": "yes", "name": "", "height": null, "height_m": null, "levels": null, "tract_id": "40023967100", "tract_name": "9671", "tags": {"building": "yes"}}}, {"type": "Feature", "geometry": {"type": "Polygon", "coordinates": [[[-95.4972174, 34.0013167], [-95.4971278, 34.0012639], [-95.4972517, 34.0011196], [-95.4973413, 34.0011725], [-95.4972174, 34.0013167]]]}, "properties": {"osm_id": 1410062733, "building": "yes", "name": "", "height": null, "height_m": null, "levels": null, "tract_id": "40023967100", "tract_name": "9671", "tags": {"building": "yes"}}}, {"type": "Feature", "geometry": {"type": "Polygon", "coordinates": [[[-95.4973785, 34.0014183], [-95.4972866, 34.0013641], [-95.4974142, 34.0012155], [-95.4975061, 34.0012697], [-95.4973785, 34.0014183]]]}, "properties": {"osm_id": 1410062734, "building": "yes", "name": "", "height": null, "height_m": null, "levels": null, "tract_id": "40023967100", "tract_name": "9671", "tags": {"building": "yes"}}}, {"type": "Feature", "geometry": {"type": "Polygon", "coordinates": [[[-95.4979771, 34.0017274], [-95.4978662, 34.0016607], [-95.497924, 34.0015946], [-95.498035, 34.0016613], [-95.4979771, 34.0017274]]]}, "properties": {"osm_id": 1410062735, "building": "yes", "name": "", "height": null, "height_m": null, "levels": null, "tract_id": "40023967100", "tract_name": "9671", "tags": {"building": "yes"}}}, {"type": "Feature", "geometry": {"type": "Polygon", "coordinates": [[[-95.4978443, 34.0016476], [-95.4977319, 34.00158], [-95.4977897, 34.0015139], [-95.4979021, 34.0015814], [-95.4978443, 34.0016476]]]}, "properties": {"osm_id": 1410062736, "building": "yes", "name": "", "height": null, "height_m": null, "levels": null, "tract_id": "40023967100", "tract_name": "9671", "tags": {"building": "yes"}}}, {"type": "Feature", "geometry": {"type": "Polygon", "coordinates": [[[-95.4977089, 34.0015662], [-95.4975979, 34.0014995], [-95.4976557, 34.0014334], [-95.4977667, 34.0015001], [-95.4977089, 34.0015662]]]}, "properties": {"osm_id": 1410062737, "building": "yes", "name": "", "height": null, "height_m": null, "levels": null, "tract_id": "40023967100", "tract_name": "9671", "tags": {"building": "yes"}}}, {"type": "Feature", "geometry": {"type": "Polygon", "coordinates": [[[-95.4974653, 34.0014198], [-95.4975231, 34.0013537], [-95.4976329, 34.0014197], [-95.4975751, 34.0014858], [-95.4974653, 34.0014198]]]}, "properties": {"osm_id": 1410062738, "building": "yes", "name": "", "height": null, "height_m": null, "levels": null, "tract_id": "40023967100", "tract_name": "9671", "tags": {"building": "yes"}}}, {"type": "Feature", "geometry": {"type": "Polygon", "coordinates": [[[-95.4969785, 34.0011273], [-95.4970363, 34.0010612], [-95.4971512, 34.0011302], [-95.4970934, 34.0011963], [-95.4969785, 34.0011273]]]}, "properties": {"osm_id": 1410062739, "building": "yes", "name": "", "height": null, "height_m": null, "levels": null, "tract_id": "40023967100", "tract_name": "9671", "tags": {"building": "yes"}}}, {"type": "Feature", "geometry": {"type": "Polygon", "coordinates": [[[-95.4968482, 34.001049], [-95.496906, 34.0009829], [-95.4970174, 34.0010498], [-95.4969596, 34.0011159], [-95.4968482, 34.001049]]]}, "properties": {"osm_id": 1410062740, "building": "yes", "name": "", "height": null, "height_m": null, "levels": null, "tract_id": "40023967100", "tract_name": "9671", "tags": {"building": "yes"}}}, {"type": "Feature", "geometry": {"type": "Polygon", "coordinates": [[[-95.4967135, 34.000968], [-95.4967713, 34.0009019], [-95.4968831, 34.0009691], [-95.4968253, 34.0010352], [-95.4967135, 34.000968]]]}, "properties": {"osm_id": 1410062741, "building": "yes", "name": "", "height": null, "height_m": null, "levels": null, "tract_id": "40023967100", "tract_name": "9671", "tags": {"building": "yes"}}}, {"type": "Feature", "geometry": {"type": "Polygon", "coordinates": [[[-95.4965805, 34.0008881], [-95.4966383, 34.000822], [-95.4967501, 34.0008891], [-95.4966922, 34.0009553], [-95.4965805, 34.0008881]]]}, "properties": {"osm_id": 1410062742, "building": "yes", "name": "", "height": null, "height_m": null, "levels": null, "tract_id": "40023967100", "tract_name": "9671", "tags": {"building": "yes"}}}, {"type": "Feature", "geometry": {"type": "Polygon", "coordinates": [[[-95.4964466, 34.0008077], [-95.4965044, 34.0007415], [-95.496615, 34.000808], [-95.4965572, 34.0008741], [-95.4964466, 34.0008077]]]}, "properties": {"osm_id": 1410062743, "building": "yes", "name": "", "height": null, "height_m": null, "levels": null, "tract_id": "40023967100", "tract_name": "9671", "tags": {"building": "yes"}}}, {"type": "Feature", "geometry": {"type": "Polygon", "coordinates": [[[-95.4960106, 34.0009453], [-95.4958882, 34.0010895], [-95.4957985, 34.0010373], [-95.4959209, 34.000893], [-95.4960106, 34.0009453]]]}, "properties": {"osm_id": 1410062744, "building": "yes", "name": "", "height": null, "height_m": null, "levels": null, "tract_id": "40023967100", "tract_name": "9671", "tags": {"building": "yes"}}}, {"type": "Feature", "geometry": {"type": "Polygon", "coordinates": [[[-95.4956361, 34.0009426], [-95.4957585, 34.0007983], [-95.4958497, 34.0008515], [-95.4957273, 34.0009957], [-95.4956361, 34.0009426]]]}, "properties": {"osm_id": 1410062745, "building": "yes", "name": "", "height": null, "height_m": null, "levels": null, "tract_id": "40023967100", "tract_name": "9671", "tags": {"building": "yes"}}}, {"type": "Feature", "geometry": {"type": "Polygon", "coordinates": [[[-95.4961978, 34.0007067], [-95.4961085, 34.0006534], [-95.4962354, 34.0005071], [-95.4963248, 34.0005604], [-95.4961978, 34.0007067]]]}, "properties": {"osm_id": 1410062746, "building": "yes", "name": "", "height": null, "height_m": null, "levels": null, "tract_id": "40023967100", "tract_name": "9671", "tags": {"building": "yes"}}}, {"type": "Feature", "geometry": {"type": "Polygon", "coordinates": [[[-95.4963603, 34.0008036], [-95.4962714, 34.0007506], [-95.4963984, 34.0006043], [-95.4964873, 34.0006573], [-95.4963603, 34.0008036]]]}, "properties": {"osm_id": 1410062747, "building": "yes", "name": "", "height": null, "height_m": null, "levels": null, "tract_id": "40023967100", "tract_name": "9671", "tags": {"building": "yes"}}}, {"type": "Feature", "geometry": {"type": "Polygon", "coordinates": [[[-95.4959462, 34.0005545], [-95.4958567, 34.0005011], [-95.4959821, 34.0003566], [-95.4960716, 34.0004099], [-95.4959462, 34.0005545]]]}, "properties": {"osm_id": 1410062748, "building": "yes", "name": "", "height": null, "height_m": null, "levels": null, "tract_id": "40023967100", "tract_name": "9671", "tags": {"building": "yes"}}}, {"type": "Feature", "geometry": {"type": "Polygon", "coordinates": [[[-95.4958431, 34.0002737], [-95.4959331, 34.0003273], [-95.4958077, 34.0004719], [-95.4957177, 34.0004182], [-95.4958431, 34.0002737]]]}, "properties": {"osm_id": 1410062749, "building": "yes", "name": "", "height": null, "height_m": null, "levels": null, "tract_id": "40023967100", "tract_name": "9671", "tags": {"building": "yes"}}}, {"type": "Feature", "geometry": {"type": "Polygon", "coordinates": [[[-95.4863676, 34.0224474], [-95.4862556, 34.022448], [-95.486255, 34.0223729], [-95.486367, 34.0223723], [-95.4863676, 34.0224474]]]}, "properties": {"osm_id": 1415093091, "building": "yes", "name": "", "height": null, "height_m": null, "levels": null, "tract_id": "40023967100", "tract_name": "9671", "tags": {"building": "yes"}}}, {"type": "Feature", "geometry": {"type": "Polygon", "coordinates": [[[-95.4864633, 34.0223934], [-95.4864638, 34.0224537], [-95.486368, 34.0224542], [-95.4863667, 34.0222908], [-95.4864625, 34.0222903], [-95.486463, 34.0223542], [-95.486477, 34.0223542], [-95.4864773, 34.0223933], [-95.4864633, 34.0223934]]]}, "properties": {"osm_id": 1415093122, "building": "detached", "name": "", "height": null, "height_m": null, "levels": null, "tract_id": "40023967100", "tract_name": "9671", "tags": {"building": "detached"}}}, {"type": "Feature", "geometry": {"type": "Polygon", "coordinates": [[[-95.4861444, 34.0224464], [-95.4860455, 34.0224464], [-95.4860455, 34.0223633], [-95.4861444, 34.0223633], [-95.4861444, 34.0224464]]]}, "properties": {"osm_id": 1415093123, "building": "yes", "name": "", "height": null, "height_m": null, "levels": null, "tract_id": "40023967100", "tract_name": "9671", "tags": {"building": "yes"}}}, {"type": "Feature", "geometry": {"type": "Polygon", "coordinates": [[[-95.4859382, 34.0227515], [-95.4858547, 34.0227445], [-95.4858648, 34.0226628], [-95.4859483, 34.0226698], [-95.4859382, 34.0227515]]]}, "properties": {"osm_id": 1415093124, "building": "yes", "name": "", "height": null, "height_m": null, "levels": null, "tract_id": "40023967100", "tract_name": "9671", "tags": {"building": "yes"}}}, {"type": "Feature", "geometry": {"type": "Polygon", "coordinates": [[[-95.4863551, 34.0227902], [-95.4863545, 34.0228303], [-95.4862604, 34.0228293], [-95.4862627, 34.0226679], [-95.4863568, 34.0226688], [-95.4863559, 34.0227348], [-95.4863749, 34.022735], [-95.4863741, 34.0227904], [-95.4863551, 34.0227902]]]}, "properties": {"osm_id": 1415093125, "building": "yes", "name": "", "height": null, "height_m": null, "levels": null, "tract_id": "40023967100", "tract_name": "9671", "tags": {"building": "yes"}}}, {"type": "Feature", "geometry": {"type": "Polygon", "coordinates": [[[-95.4863389, 34.0231515], [-95.4862446, 34.0231442], [-95.486263, 34.0229823], [-95.4863573, 34.0229897], [-95.4863389, 34.0231515]]]}, "properties": {"osm_id": 1415093126, "building": "detached", "name": "", "height": null, "height_m": null, "levels": null, "tract_id": "40023967100", "tract_name": "9671", "tags": {"building": "detached"}}}, {"type": "Feature", "geometry": {"type": "Polygon", "coordinates": [[[-95.4863633, 34.0229366], [-95.4863573, 34.0229895], [-95.4862222, 34.022979], [-95.4862282, 34.022926], [-95.4863633, 34.0229366]]]}, "properties": {"osm_id": 1415093127, "building": "garage", "name": "", "height": null, "height_m": null, "levels": null, "tract_id": "40023967100", "tract_name": "9671", "tags": {"building": "garage"}}}, {"type": "Feature", "geometry": {"type": "Polygon", "coordinates": [[[-95.4887274, 34.0230772], [-95.4886797, 34.023077], [-95.4886801, 34.0230209], [-95.4887277, 34.0230211], [-95.4887274, 34.0230772]]]}, "properties": {"osm_id": 1415093135, "building": "yes", "name": "", "height": null, "height_m": null, "levels": null, "tract_id": "40023967100", "tract_name": "9671", "tags": {"building": "yes"}}}, {"type": "Feature", "geometry": {"type": "Polygon", "coordinates": [[[-95.4885879, 34.0231319], [-95.4885415, 34.023131], [-95.4885432, 34.0230751], [-95.4885896, 34.0230761], [-95.4885879, 34.0231319]]]}, "properties": {"osm_id": 1415093136, "building": "yes", "name": "", "height": null, "height_m": null, "levels": null, "tract_id": "40023967100", "tract_name": "9671", "tags": {"building": "yes"}}}, {"type": "Feature", "geometry": {"type": "Polygon", "coordinates": [[[-95.4886613, 34.0230397], [-95.4885473, 34.023038], [-95.4885486, 34.0229781], [-95.4886626, 34.0229797], [-95.4886613, 34.0230397]]]}, "properties": {"osm_id": 1415093137, "building": "yes", "name": "", "height": null, "height_m": null, "levels": null, "tract_id": "40023967100", "tract_name": "9671", "tags": {"building": "yes"}}}, {"type": "Feature", "geometry": {"type": "Polygon", "coordinates": [[[-95.4882192, 34.0232436], [-95.488218, 34.0231877], [-95.488287, 34.0231867], [-95.4882881, 34.0232426], [-95.4882192, 34.0232436]]]}, "properties": {"osm_id": 1415093138, "building": "yes", "name": "", "height": null, "height_m": null, "levels": null, "tract_id": "40023967100", "tract_name": "9671", "tags": {"building": "yes"}}}, {"type": "Feature", "geometry": {"type": "Polygon", "coordinates": [[[-95.4883525, 34.0232417], [-95.4882886, 34.0232426], [-95.4882875, 34.0231867], [-95.4883514, 34.0231858], [-95.4883525, 34.0232417]]]}, "properties": {"osm_id": 1415093139, "building": "yes", "name": "", "height": null, "height_m": null, "levels": null, "tract_id": "40023967100", "tract_name": "9671", "tags": {"building": "yes"}}}, {"type": "Feature", "geometry": {"type": "Polygon", "coordinates": [[[-95.4882114, 34.023466], [-95.4880499, 34.0234682], [-95.4880481, 34.0233816], [-95.4880746, 34.0233812], [-95.4880734, 34.0233245], [-95.4880548, 34.0233248], [-95.4880531, 34.0232403], [-95.4882067, 34.0232381], [-95.4882114, 34.023466]]]}, "properties": {"osm_id": 1415093140, "building": "detached", "name": "", "height": null, "height_m": null, "levels": null, "tract_id": "40023967100", "tract_name": "9671", "tags": {"building": "detached"}}}, {"type": "Feature", "geometry": {"type": "Polygon", "coordinates": [[[-95.4880055, 34.0228807], [-95.4879469, 34.022883], [-95.4879438, 34.0228297], [-95.4880025, 34.0228274], [-95.4880055, 34.0228807]]]}, "properties": {"osm_id": 1415093141, "building": "yes", "name": "", "height": null, "height_m": null, "levels": null, "tract_id": "40023967100", "tract_name": "9671", "tags": {"building": "yes"}}}, {"type": "Feature", "geometry": {"type": "Polygon", "coordinates": [[[-95.4884891, 34.0228766], [-95.4884893, 34.0228927], [-95.4883404, 34.0228939], [-95.488339, 34.0227788], [-95.488488, 34.0227776], [-95.4884886, 34.0228351], [-95.4885254, 34.0228348], [-95.4885259, 34.0228763], [-95.4884891, 34.0228766]]]}, "properties": {"osm_id": 1415093142, "building": "yes", "name": "", "height": null, "height_m": null, "levels": null, "tract_id": "40023967100", "tract_name": "9671", "tags": {"building": "yes"}}}, {"type": "Feature", "geometry": {"type": "Polygon", "coordinates": [[[-95.4888256, 34.0228449], [-95.4886945, 34.0228449], [-95.4886945, 34.0226804], [-95.4888256, 34.0226804], [-95.4888256, 34.0228449]]]}, "properties": {"osm_id": 1415093143, "building": "yes", "name": "", "height": null, "height_m": null, "levels": null, "tract_id": "40023967100", "tract_name": "9671", "tags": {"building": "yes"}}}, {"type": "Feature", "geometry": {"type": "Polygon", "coordinates": [[[-95.5018373, 34.0367487], [-95.5017747, 34.0367401], [-95.5017855, 34.0366865], [-95.501848, 34.0366951], [-95.5018373, 34.0367487]]]}, "properties": {"osm_id": 1415093150, "building": "yes", "name": "", "height": null, "height_m": null, "levels": null, "tract_id": "40023967100", "tract_name": "9671", "tags": {"building": "yes"}}}, {"type": "Feature", "geometry": {"type": "Polygon", "coordinates": [[[-95.5020097, 34.0366938], [-95.5019704, 34.0366877], [-95.5019869, 34.036615], [-95.5020261, 34.0366211], [-95.5020097, 34.0366938]]]}, "properties": {"osm_id": 1415093151, "building": "yes", "name": "", "height": null, "height_m": null, "levels": null, "tract_id": "40023967100", "tract_name": "9671", "tags": {"building": "yes"}}}, {"type": "Feature", "geometry": {"type": "Polygon", "coordinates": [[[-95.5021669, 34.0368243], [-95.5020975, 34.0368135], [-95.5021198, 34.0367146], [-95.5020093, 34.0366975], [-95.5020272, 34.0366182], [-95.5022071, 34.0366462], [-95.5021669, 34.0368243]]]}, "properties": {"osm_id": 1415093152, "building": "detached", "name": "", "height": null, "height_m": null, "levels": null, "tract_id": "40023967100", "tract_name": "9671", "tags": {"building": "detached"}}}, {"type": "Feature", "geometry": {"type": "Polygon", "coordinates": [[[-95.5023238, 34.0363019], [-95.5023016, 34.0363577], [-95.5022305, 34.0363383], [-95.5022527, 34.0362825], [-95.5023238, 34.0363019]]]}, "properties": {"osm_id": 1415093153, "building": "yes", "name": "", "height": null, "height_m": null, "levels": null, "tract_id": "40023967100", "tract_name": "9671", "tags": {"building": "yes"}}}, {"type": "Feature", "geometry": {"type": "Polygon", "coordinates": [[[-95.5014196, 34.033743], [-95.5013778, 34.0337428], [-95.501378, 34.0337152], [-95.5014198, 34.0337155], [-95.5014196, 34.033743]]]}, "properties": {"osm_id": 1415093159, "building": "yes", "name": "", "height": null, "height_m": null, "levels": null, "tract_id": "40023967100", "tract_name": "9671", "tags": {"building": "yes"}}}, {"type": "Feature", "geometry": {"type": "Polygon", "coordinates": [[[-95.5014087, 34.0335277], [-95.5014093, 34.0334603], [-95.5015298, 34.033461], [-95.5015278, 34.0336989], [-95.5013716, 34.033698], [-95.5013721, 34.0336394], [-95.5014077, 34.0336396], [-95.501408, 34.033607], [-95.501381, 34.0336068], [-95.5013817, 34.0335276], [-95.5014087, 34.0335277]]]}, "properties": {"osm_id": 1415093160, "building": "detached", "name": "", "height": null, "height_m": null, "levels": null, "tract_id": "40023967100", "tract_name": "9671", "tags": {"building": "detached"}}}, {"type": "Feature", "geometry": {"type": "Polygon", "coordinates": [[[-95.5038966, 34.0313977], [-95.5037662, 34.0313843], [-95.5037694, 34.0313629], [-95.5038998, 34.0313762], [-95.5038966, 34.0313977]]]}, "properties": {"osm_id": 1415093162, "building": "yes", "name": "", "height": null, "height_m": null, "levels": null, "tract_id": "40023967100", "tract_name": "9671", "tags": {"building": "yes"}}}, {"type": "Feature", "geometry": {"type": "Polygon", "coordinates": [[[-95.5027117, 34.0303015], [-95.5025548, 34.0303001], [-95.5025559, 34.0302162], [-95.5027128, 34.0302176], [-95.5027117, 34.0303015]]]}, "properties": {"osm_id": 1415093164, "building": "yes", "name": "", "height": null, "height_m": null, "levels": null, "tract_id": "40023967100", "tract_name": "9671", "tags": {"building": "yes"}}}, {"type": "Feature", "geometry": {"type": "Polygon", "coordinates": [[[-95.5014407, 34.0282943], [-95.5013051, 34.0283079], [-95.5012809, 34.0281428], [-95.5014165, 34.0281292], [-95.5014407, 34.0282943]]]}, "properties": {"osm_id": 1415093165, "building": "yes", "name": "", "height": null, "height_m": null, "levels": null, "tract_id": "40023967100", "tract_name": "9671", "tags": {"building": "yes"}}}]}