{"type": "FeatureCollection", "features": [{"type": "Feature", "geometry": {"type": "Polygon", "coordinates": [[[-97.5851261, 35.5119874], [-97.5851282, 35.5118529], [-97.5853702, 35.5118477], [-97.5853642, 35.5119883], [-97.5851261, 35.5119874]]]}, "properties": {"osm_id": 187416601, "building": "yes", "name": "", "height": null, "height_m": null, "levels": null, "tract_id": "40109106602", "tract_name": "1066.02", "tags": {"building": "yes"}}}, {"type": "Feature", "geometry": {"type": "Polygon", "coordinates": [[[-97.591864, 35.51173], [-97.5917446, 35.5117307], [-97.5917445, 35.5117185], [-97.5917442, 35.5116876], [-97.5917441, 35.5116782], [-97.5918635, 35.5116775], [-97.5918636, 35.5116879], [-97.5918639, 35.5117189], [-97.591864, 35.51173]]]}, "properties": {"osm_id": 228868301, "building": "roof", "name": "", "height": null, "height_m": null, "levels": null, "tract_id": "40109106602", "tract_name": "1066.02", "tags": {"building": "roof", "layer": "1", "source": "Bing"}}}, {"type": "Feature", "geometry": {"type": "Polygon", "coordinates": [[[-97.5914025, 35.5120289], [-97.5912252, 35.5120268], [-97.5912282, 35.5118586], [-97.591306, 35.5118586], [-97.5913087, 35.5118149], [-97.5913596, 35.5118149], [-97.5913623, 35.5118586], [-97.5913999, 35.5118542], [-97.5914025, 35.5120289]]]}, "properties": {"osm_id": 228868302, "building": "yes", "name": "", "height": null, "height_m": null, "levels": null, "tract_id": "40109106602", "tract_name": "1066.02", "tags": {"building": "yes", "source": "Bing"}}}, {"type": "Feature", "geometry": {"type": "Polygon", "coordinates": [[[-97.5917538, 35.5128825], [-97.5911796, 35.5128128], [-97.5912067, 35.5126489], [-97.591786, 35.5127253], [-97.5917538, 35.5128825]]]}, "properties": {"osm_id": 228868303, "building": "yes", "name": "", "height": null, "height_m": null, "levels": null, "tract_id": "40109106602", "tract_name": "1066.02", "tags": {"building": "yes", "source": "Bing"}}}, {"type": "Feature", "geometry": {"type": "Polygon", "coordinates": [[[-97.5919684, 35.5121817], [-97.5917617, 35.5121775], [-97.5917645, 35.5120114], [-97.5916624, 35.5120137], [-97.5916626, 35.5119044], [-97.5918342, 35.5119069], [-97.5919657, 35.5119088], [-97.5919684, 35.5121817]]]}, "properties": {"osm_id": 228868304, "building": "yes", "name": "7-Eleven", "height": null, "height_m": null, "levels": null, "tract_id": "40109106602", "tract_name": "1066.02", "tags": {"addr:city": "Oklahoma City", "addr:postcode": "73112", "addr:state": "OK", "brand": "7-Eleven", "brand:wikidata": "Q259340", "building": "yes", "contact:website": "https://www.7-eleven.com/locations/ok/oklahoma-city/4045-nw-39-expressway-41449", "name": "7-Eleven", "shop": "convenience", "source": "Bing"}}}, {"type": "Feature", "geometry": {"type": "Polygon", "coordinates": [[[-97.5907454, 35.5124917], [-97.5907454, 35.5122952], [-97.5903618, 35.5122931], [-97.5903618, 35.5121337], [-97.5907508, 35.5121271], [-97.5907508, 35.5119787], [-97.5903565, 35.5119765], [-97.5903699, 35.5118149], [-97.5906727, 35.5118149], [-97.5909519, 35.5118149], [-97.5909492, 35.5124961], [-97.5907454, 35.5124917]]]}, "properties": {"osm_id": 228868964, "building": "hotel", "name": "", "height": null, "height_m": null, "levels": null, "tract_id": "40109106602", "tract_name": "1066.02", "tags": {"building": "hotel", "source": "Bing"}}}, {"type": "Feature", "geometry": {"type": "Polygon", "coordinates": [[[-97.5838199, 35.5117407], [-97.5837102, 35.5117382], [-97.5837102, 35.51195], [-97.5838253, 35.5119481], [-97.5838232, 35.5118692], [-97.5838199, 35.5117407]]]}, "properties": {"osm_id": 244350796, "building": "yes", "name": "Carl's Jr.", "height": null, "height_m": null, "levels": null, "tract_id": "40109106602", "tract_name": "1066.02", "tags": {"addr:city": "Oklahoma City", "addr:housenumber": "4001", "addr:postcode": "73112", "addr:state": "OK", "addr:street": "North Portland Avenue", "amenity": "fast_food", "brand": "Carl's Jr.", "brand:wikidata": "Q1043486", "building": "yes", "cuisine": "burger", "name": "Carl's Jr.", "phone": "+1 405-942-6013", "ref": "1101651", "source": "Bing", "takeaway": "yes", "website": "https://locations.carlsjr.com/ok/oklahoma-city/4001-n-portland-ave"}}}, {"type": "Feature", "geometry": {"type": "Polygon", "coordinates": [[[-97.5844773, 35.5117887], [-97.5843834, 35.5117889], [-97.5843833, 35.5117495], [-97.5843832, 35.5117123], [-97.5844717, 35.5117101], [-97.5844744, 35.5117478], [-97.5844773, 35.5117887]]]}, "properties": {"osm_id": 244350863, "building": "roof", "name": "", "height": null, "height_m": null, "levels": null, "tract_id": "40109106602", "tract_name": "1066.02", "tags": {"building": "roof", "layer": "1"}}}, {"type": "Feature", "geometry": {"type": "Polygon", "coordinates": [[[-97.600981, 35.521949], [-97.6009073, 35.5219492], [-97.6009077, 35.5220982], [-97.6009813, 35.5220981], [-97.600981, 35.521949]]]}, "properties": {"osm_id": 245902216, "building": "roof", "name": "", "height": null, "height_m": null, "levels": null, "tract_id": "40109106602", "tract_name": "1066.02", "tags": {"building": "roof", "source": "Bing"}}}, {"type": "Feature", "geometry": {"type": "Polygon", "coordinates": [[[-97.600734, 35.5220387], [-97.6007352, 35.5219676], [-97.6007368, 35.5218694], [-97.6005892, 35.5218706], [-97.6005892, 35.5220409], [-97.600734, 35.5220387]]]}, "properties": {"osm_id": 245902217, "building": "yes", "name": "", "height": null, "height_m": null, "levels": null, "tract_id": "40109106602", "tract_name": "1066.02", "tags": {"building": "yes", "source": "Bing"}}}, {"type": "Feature", "geometry": {"type": "Polygon", "coordinates": [[[-97.6005551, 35.5219245], [-97.600291, 35.5219291], [-97.6002947, 35.522071], [-97.6005589, 35.5220664], [-97.6005551, 35.5219245]]]}, "properties": {"osm_id": 245902218, "building": "yes", "name": "", "height": null, "height_m": null, "levels": null, "tract_id": "40109106602", "tract_name": "1066.02", "tags": {"building": "yes", "source": "Bing"}}}, {"type": "Feature", "geometry": {"type": "Polygon", "coordinates": [[[-97.600237, 35.5221253], [-97.6000599, 35.5221257], [-97.6000597, 35.5220788], [-97.5999602, 35.522079], [-97.5999591, 35.5217398], [-97.6002357, 35.5217391], [-97.600237, 35.5221253]]]}, "properties": {"osm_id": 245902219, "building": "yes", "name": "", "height": null, "height_m": null, "levels": null, "tract_id": "40109106602", "tract_name": "1066.02", "tags": {"building": "yes", "source": "Bing"}}}, {"type": "Feature", "geometry": {"type": "Polygon", "coordinates": [[[-97.5931618, 35.5139238], [-97.5928349, 35.5139238], [-97.5928349, 35.5138421], [-97.592733, 35.5138421], [-97.592733, 35.5136768], [-97.5926313, 35.5135969], [-97.5926313, 35.5134895], [-97.5929593, 35.5134895], [-97.5929593, 35.513578], [-97.5930606, 35.513578], [-97.5930606, 35.5136584], [-97.5931618, 35.5136584], [-97.5931618, 35.5139238]]]}, "properties": {"osm_id": 284244732, "building": "yes", "name": "", "height": null, "height_m": null, "levels": null, "tract_id": "40109106602", "tract_name": "1066.02", "tags": {"building": "yes", "roof:shape": "flat", "source": "Bing"}}}, {"type": "Feature", "geometry": {"type": "Polygon", "coordinates": [[[-97.5969571, 35.5145656], [-97.5967081, 35.5145654], [-97.5967082, 35.5145098], [-97.596603, 35.5145097], [-97.5966487, 35.5140802], [-97.5967088, 35.5140803], [-97.5967088, 35.5140294], [-97.5969579, 35.5140296], [-97.5969577, 35.5141702], [-97.5970669, 35.5141703], [-97.5970664, 35.5144985], [-97.5969572, 35.5144984], [-97.5969571, 35.5145656]]]}, "properties": {"osm_id": 284244733, "building": "yes", "name": "", "height": null, "height_m": null, "levels": null, "tract_id": "40109106602", "tract_name": "1066.02", "tags": {"building": "yes", "roof:shape": "flat", "source": "Bing"}}}, {"type": "Feature", "geometry": {"type": "Polygon", "coordinates": [[[-97.5937897, 35.5139267], [-97.5937897, 35.5136589], [-97.5938891, 35.5136589], [-97.5938891, 35.5135753], [-97.5939881, 35.5135753], [-97.5939881, 35.5134922], [-97.5943158, 35.5134922], [-97.5943158, 35.5135921], [-97.5942159, 35.5136745], [-97.5942159, 35.5138411], [-97.5941146, 35.5138411], [-97.5941146, 35.5139267], [-97.5937897, 35.5139267]]]}, "properties": {"osm_id": 284244735, "building": "yes", "name": "", "height": null, "height_m": null, "levels": null, "tract_id": "40109106602", "tract_name": "1066.02", "tags": {"building": "yes", "roof:shape": "flat", "source": "Bing"}}}, {"type": "Feature", "geometry": {"type": "Polygon", "coordinates": [[[-97.5929186, 35.5118315], [-97.5929186, 35.5120373], [-97.5929066, 35.5120373], [-97.5929066, 35.5121865], [-97.5927612, 35.5121865], [-97.5927612, 35.5120353], [-97.5927555, 35.5120353], [-97.5927555, 35.5118315], [-97.5929186, 35.5118315]]]}, "properties": {"osm_id": 284249016, "building": "yes", "name": "Braum's", "height": null, "height_m": null, "levels": null, "tract_id": "40109106602", "tract_name": "1066.02", "tags": {"addr:city": "Oklahoma City", "addr:postcode": "73112", "addr:state": "OK", "amenity": "fast_food", "brand": "Braum's", "brand:wikidata": "Q4958263", "building": "yes", "cuisine": "ice_cream;burger", "name": "Braum's", "shop": "dairy", "source": "Bing", "takeaway": "yes"}}}, {"type": "Feature", "geometry": {"type": "Polygon", "coordinates": [[[-97.5953719, 35.51294], [-97.5953312, 35.5129405], [-97.5953299, 35.5128585], [-97.5953707, 35.5128581], [-97.5953719, 35.51294]]]}, "properties": {"osm_id": 284258025, "building": "yes", "name": "", "height": null, "height_m": null, "levels": null, "tract_id": "40109106602", "tract_name": "1066.02", "tags": {"building": "yes", "source": "Bing"}}}, {"type": "Feature", "geometry": {"type": "Polygon", "coordinates": [[[-97.5950099, 35.5118284], [-97.5954444, 35.5118284], [-97.5954444, 35.5121852], [-97.5952457, 35.5121852], [-97.5952457, 35.5122516], [-97.5950099, 35.5122516], [-97.5950099, 35.5118284]]]}, "properties": {"osm_id": 284258026, "building": "yes", "name": "Siloam Masonic Lodge #276", "height": null, "height_m": null, "levels": null, "tract_id": "40109106602", "tract_name": "1066.02", "tags": {"addr:city": "Oklahoma City", "addr:housenumber": "4201", "addr:postcode": "73112", "addr:state": "OK", "addr:street": "Northwest 39th Expressway", "amenity": "social_centre", "building": "yes", "name": "Siloam Masonic Lodge #276", "source": "Bing"}}}, {"type": "Feature", "geometry": {"type": "Polygon", "coordinates": [[[-97.5966109, 35.5123989], [-97.5963752, 35.5123989], [-97.5963752, 35.5121251], [-97.5962707, 35.5121251], [-97.5962707, 35.5119871], [-97.5963217, 35.5119871], [-97.5963217, 35.5118253], [-97.596667, 35.5118253], [-97.596667, 35.5119861], [-97.5966109, 35.5119861], [-97.5966109, 35.5123989]]]}, "properties": {"osm_id": 284259088, "building": "yes", "name": "", "height": null, "height_m": null, "levels": null, "tract_id": "40109106602", "tract_name": "1066.02", "tags": {"building": "yes", "source": "Bing"}}}, {"type": "Feature", "geometry": {"type": "Polygon", "coordinates": [[[-97.597533, 35.5129671], [-97.596077, 35.5129656], [-97.5960771, 35.5128908], [-97.5975331, 35.5128923], [-97.597533, 35.5129671]]]}, "properties": {"osm_id": 284259092, "building": "yes", "name": "", "height": null, "height_m": null, "levels": null, "tract_id": "40109106602", "tract_name": "1066.02", "tags": {"building": "yes", "roof:shape": "flat", "source": "Bing"}}}, {"type": "Feature", "geometry": {"type": "Polygon", "coordinates": [[[-97.5975076, 35.5126852], [-97.5968628, 35.5126852], [-97.5968628, 35.5125701], [-97.5975076, 35.5125701], [-97.5975076, 35.5126852]]]}, "properties": {"osm_id": 284259093, "building": "yes", "name": "", "height": null, "height_m": null, "levels": null, "tract_id": "40109106602", "tract_name": "1066.02", "tags": {"building": "yes", "roof:shape": "flat", "source": "Bing"}}}, {"type": "Feature", "geometry": {"type": "Polygon", "coordinates": [[[-97.5974956, 35.5125089], [-97.5968504, 35.5125089], [-97.5968504, 35.51236], [-97.5974956, 35.51236], [-97.5974956, 35.5125089]]]}, "properties": {"osm_id": 284259094, "building": "yes", "name": "", "height": null, "height_m": null, "levels": null, "tract_id": "40109106602", "tract_name": "1066.02", "tags": {"building": "yes", "roof:shape": "flat", "source": "Bing"}}}, {"type": "Feature", "geometry": {"type": "Polygon", "coordinates": [[[-97.5975259, 35.5122914], [-97.5974116, 35.5122951], [-97.5973836, 35.5117194], [-97.5974978, 35.5117157], [-97.5975259, 35.5122914]]]}, "properties": {"osm_id": 284259095, "building": "yes", "name": "", "height": null, "height_m": null, "levels": null, "tract_id": "40109106602", "tract_name": "1066.02", "tags": {"building": "yes", "roof:shape": "flat", "source": "Bing"}}}, {"type": "Feature", "geometry": {"type": "Polygon", "coordinates": [[[-97.596235, 35.5122568], [-97.5961586, 35.5122568], [-97.5961586, 35.5121448], [-97.596235, 35.5121448], [-97.596235, 35.5122568]]]}, "properties": {"osm_id": 284259096, "building": "yes", "name": "", "height": null, "height_m": null, "levels": null, "tract_id": "40109106602", "tract_name": "1066.02", "tags": {"building": "yes", "source": "Bing"}}}, {"type": "Feature", "geometry": {"type": "Polygon", "coordinates": [[[-97.5973919, 35.5123028], [-97.5967838, 35.5123028], [-97.5967838, 35.5122397], [-97.5973919, 35.5122397], [-97.5973919, 35.5123028]]]}, "properties": {"osm_id": 284259097, "building": "yes", "name": "", "height": null, "height_m": null, "levels": null, "tract_id": "40109106602", "tract_name": "1066.02", "tags": {"building": "yes", "roof:shape": "flat", "source": "Bing"}}}, {"type": "Feature", "geometry": {"type": "Polygon", "coordinates": [[[-97.5975312, 35.5128365], [-97.5959836, 35.5128319], [-97.5959863, 35.5127722], [-97.5968212, 35.512772], [-97.5968212, 35.5127435], [-97.5975314, 35.5127442], [-97.5975312, 35.5128365]]]}, "properties": {"osm_id": 284259098, "building": "yes", "name": "", "height": null, "height_m": null, "levels": null, "tract_id": "40109106602", "tract_name": "1066.02", "tags": {"building": "yes", "roof:shape": "flat", "source": "Bing"}}}, {"type": "Feature", "geometry": {"type": "Polygon", "coordinates": [[[-97.5969142, 35.5121586], [-97.5968989, 35.5117168], [-97.5972664, 35.5117084], [-97.5972703, 35.5118195], [-97.5972039, 35.511821], [-97.5972153, 35.5121517], [-97.5969142, 35.5121586]]]}, "properties": {"osm_id": 284259099, "building": "yes", "name": "", "height": null, "height_m": null, "levels": null, "tract_id": "40109106602", "tract_name": "1066.02", "tags": {"building": "yes", "roof:shape": "flat", "source": "Bing"}}}, {"type": "Feature", "geometry": {"type": "Polygon", "coordinates": [[[-97.6007035, 35.5136463], [-97.600572, 35.5136463], [-97.600572, 35.5134817], [-97.6007035, 35.5134817], [-97.6007035, 35.5136463]]]}, "properties": {"osm_id": 284260285, "building": "yes", "name": "", "height": null, "height_m": null, "levels": null, "tract_id": "40109106602", "tract_name": "1066.02", "tags": {"building": "yes", "roof:shape": "gabled", "source": "Bing"}}}, {"type": "Feature", "geometry": {"type": "Polygon", "coordinates": [[[-97.6004693, 35.5136477], [-97.6003377, 35.5136477], [-97.6003377, 35.5134831], [-97.6004693, 35.5134831], [-97.6004693, 35.5136477]]]}, "properties": {"osm_id": 284260286, "building": "yes", "name": "", "height": null, "height_m": null, "levels": null, "tract_id": "40109106602", "tract_name": "1066.02", "tags": {"building": "yes", "roof:shape": "gabled", "source": "Bing"}}}, {"type": "Feature", "geometry": {"type": "Polygon", "coordinates": [[[-97.600262, 35.5136492], [-97.6001305, 35.5136492], [-97.6001305, 35.5134846], [-97.600262, 35.5134846], [-97.600262, 35.5136492]]]}, "properties": {"osm_id": 284260287, "building": "yes", "name": "", "height": null, "height_m": null, "levels": null, "tract_id": "40109106602", "tract_name": "1066.02", "tags": {"building": "yes", "roof:shape": "gabled", "source": "Bing"}}}, {"type": "Feature", "geometry": {"type": "Polygon", "coordinates": [[[-97.6002887, 35.5138673], [-97.6000226, 35.5138673], [-97.6000226, 35.5137574], [-97.6002887, 35.5137574], [-97.6002887, 35.5138673]]]}, "properties": {"osm_id": 284260288, "building": "yes", "name": "", "height": null, "height_m": null, "levels": null, "tract_id": "40109106602", "tract_name": "1066.02", "tags": {"building": "yes", "roof:shape": "gabled", "source": "Bing"}}}, {"type": "Feature", "geometry": {"type": "Polygon", "coordinates": [[[-97.6005927, 35.5138673], [-97.6003265, 35.5138673], [-97.6003265, 35.5137574], [-97.6005927, 35.5137574], [-97.6005927, 35.5138673]]]}, "properties": {"osm_id": 284260289, "building": "yes", "name": "", "height": null, "height_m": null, "levels": null, "tract_id": "40109106602", "tract_name": "1066.02", "tags": {"building": "yes", "roof:shape": "gabled", "source": "Bing"}}}, {"type": "Feature", "geometry": {"type": "Polygon", "coordinates": [[[-97.6000289, 35.5136484], [-97.5998973, 35.5136483], [-97.5998973, 35.5134838], [-97.6000289, 35.5134838], [-97.6000289, 35.5136484]]]}, "properties": {"osm_id": 284260290, "building": "yes", "name": "", "height": null, "height_m": null, "levels": null, "tract_id": "40109106602", "tract_name": "1066.02", "tags": {"building": "yes", "roof:shape": "gabled", "source": "Bing"}}}, {"type": "Feature", "geometry": {"type": "Polygon", "coordinates": [[[-97.5999863, 35.5138672], [-97.5997531, 35.5138672], [-97.5997531, 35.5137572], [-97.5999863, 35.5137572], [-97.5999863, 35.5138672]]]}, "properties": {"osm_id": 284260291, "building": "yes", "name": "", "height": null, "height_m": null, "levels": null, "tract_id": "40109106602", "tract_name": "1066.02", "tags": {"building": "yes", "roof:shape": "gabled", "source": "Bing"}}}, {"type": "Feature", "geometry": {"type": "Polygon", "coordinates": [[[-97.6008614, 35.5138667], [-97.6006282, 35.5138667], [-97.6006282, 35.5137568], [-97.6008614, 35.5137568], [-97.6008614, 35.5138667]]]}, "properties": {"osm_id": 284260292, "building": "yes", "name": "", "height": null, "height_m": null, "levels": null, "tract_id": "40109106602", "tract_name": "1066.02", "tags": {"building": "yes", "roof:shape": "gabled", "source": "Bing"}}}, {"type": "Feature", "geometry": {"type": "Polygon", "coordinates": [[[-97.6009077, 35.5136473], [-97.6007761, 35.5136473], [-97.6007761, 35.5134827], [-97.6009077, 35.5134827], [-97.6009077, 35.5136473]]]}, "properties": {"osm_id": 284260293, "building": "yes", "name": "", "height": null, "height_m": null, "levels": null, "tract_id": "40109106602", "tract_name": "1066.02", "tags": {"building": "yes", "roof:shape": "gabled", "source": "Bing"}}}, {"type": "Feature", "geometry": {"type": "Polygon", "coordinates": [[[-97.5998263, 35.5136504], [-97.5996947, 35.5136504], [-97.5996947, 35.5134858], [-97.5998263, 35.5134858], [-97.5998263, 35.5136504]]]}, "properties": {"osm_id": 284260294, "building": "yes", "name": "", "height": null, "height_m": null, "levels": null, "tract_id": "40109106602", "tract_name": "1066.02", "tags": {"building": "yes", "roof:shape": "gabled", "source": "Bing"}}}, {"type": "Feature", "geometry": {"type": "Polygon", "coordinates": [[[-97.5998842, 35.5131237], [-97.599686, 35.5131237], [-97.599686, 35.5130452], [-97.5998842, 35.5130452], [-97.5998842, 35.5131237]]]}, "properties": {"osm_id": 284262306, "building": "yes", "name": "", "height": null, "height_m": null, "levels": null, "tract_id": "40109106602", "tract_name": "1066.02", "tags": {"building": "yes", "roof:shape": "gabled", "source": "Bing"}}}, {"type": "Feature", "geometry": {"type": "Polygon", "coordinates": [[[-97.5998279, 35.5134576], [-97.5996941, 35.5134576], [-97.5996941, 35.5132388], [-97.5998279, 35.5132388], [-97.5998279, 35.5134576]]]}, "properties": {"osm_id": 284262307, "building": "yes", "name": "", "height": null, "height_m": null, "levels": null, "tract_id": "40109106602", "tract_name": "1066.02", "tags": {"building": "yes", "roof:shape": "gabled", "source": "Bing"}}}, {"type": "Feature", "geometry": {"type": "Polygon", "coordinates": [[[-97.6002656, 35.5134556], [-97.6001318, 35.5134556], [-97.6001318, 35.5132367], [-97.6002656, 35.5132367], [-97.6002656, 35.5134556]]]}, "properties": {"osm_id": 284262308, "building": "yes", "name": "", "height": null, "height_m": null, "levels": null, "tract_id": "40109106602", "tract_name": "1066.02", "tags": {"building": "yes", "roof:shape": "gabled", "source": "Bing"}}}, {"type": "Feature", "geometry": {"type": "Polygon", "coordinates": [[[-97.6006961, 35.513122], [-97.6004591, 35.513122], [-97.6004591, 35.5130436], [-97.6006961, 35.5130436], [-97.6006961, 35.513122]]]}, "properties": {"osm_id": 284262309, "building": "yes", "name": "", "height": null, "height_m": null, "levels": null, "tract_id": "40109106602", "tract_name": "1066.02", "tags": {"building": "yes", "roof:shape": "gabled", "source": "Bing"}}}, {"type": "Feature", "geometry": {"type": "Polygon", "coordinates": [[[-97.6001604, 35.5131235], [-97.5999234, 35.5131235], [-97.5999234, 35.513045], [-97.6001604, 35.513045], [-97.6001604, 35.5131235]]]}, "properties": {"osm_id": 284262310, "building": "yes", "name": "", "height": null, "height_m": null, "levels": null, "tract_id": "40109106602", "tract_name": "1066.02", "tags": {"building": "yes", "roof:shape": "gabled", "source": "Bing"}}}, {"type": "Feature", "geometry": {"type": "Polygon", "coordinates": [[[-97.6000324, 35.5134561], [-97.5998986, 35.5134561], [-97.5998986, 35.5132372], [-97.6000324, 35.5132372], [-97.6000324, 35.5134561]]]}, "properties": {"osm_id": 284262311, "building": "yes", "name": "", "height": null, "height_m": null, "levels": null, "tract_id": "40109106602", "tract_name": "1066.02", "tags": {"building": "yes", "roof:shape": "gabled", "source": "Bing"}}}, {"type": "Feature", "geometry": {"type": "Polygon", "coordinates": [[[-97.6009122, 35.5134535], [-97.6007784, 35.5134535], [-97.6007784, 35.5132346], [-97.6009122, 35.5132346], [-97.6009122, 35.5134535]]]}, "properties": {"osm_id": 284262312, "building": "yes", "name": "", "height": null, "height_m": null, "levels": null, "tract_id": "40109106602", "tract_name": "1066.02", "tags": {"building": "yes", "roof:shape": "gabled", "source": "Bing"}}}, {"type": "Feature", "geometry": {"type": "Polygon", "coordinates": [[[-97.6009267, 35.5131224], [-97.6007285, 35.5131224], [-97.6007285, 35.5130439], [-97.6009267, 35.5130439], [-97.6009267, 35.5131224]]]}, "properties": {"osm_id": 284262313, "building": "yes", "name": "", "height": null, "height_m": null, "levels": null, "tract_id": "40109106602", "tract_name": "1066.02", "tags": {"building": "yes", "roof:shape": "gabled", "source": "Bing"}}}, {"type": "Feature", "geometry": {"type": "Polygon", "coordinates": [[[-97.6007064, 35.5134556], [-97.6005726, 35.5134556], [-97.6005727, 35.5132367], [-97.6007064, 35.5132367], [-97.6007064, 35.5134556]]]}, "properties": {"osm_id": 284262314, "building": "yes", "name": "", "height": null, "height_m": null, "levels": null, "tract_id": "40109106602", "tract_name": "1066.02", "tags": {"building": "yes", "roof:shape": "gabled", "source": "Bing"}}}, {"type": "Feature", "geometry": {"type": "Polygon", "coordinates": [[[-97.6004289, 35.5131228], [-97.6001919, 35.5131228], [-97.6001919, 35.5130443], [-97.6004289, 35.5130443], [-97.6004289, 35.5131228]]]}, "properties": {"osm_id": 284262315, "building": "yes", "name": "", "height": null, "height_m": null, "levels": null, "tract_id": "40109106602", "tract_name": "1066.02", "tags": {"building": "yes", "roof:shape": "gabled", "source": "Bing"}}}, {"type": "Feature", "geometry": {"type": "Polygon", "coordinates": [[[-97.6004707, 35.5134561], [-97.6003369, 35.5134561], [-97.6003369, 35.5132372], [-97.6004707, 35.5132372], [-97.6004707, 35.5134561]]]}, "properties": {"osm_id": 284262316, "building": "yes", "name": "", "height": null, "height_m": null, "levels": null, "tract_id": "40109106602", "tract_name": "1066.02", "tags": {"building": "yes", "roof:shape": "gabled", "source": "Bing"}}}, {"type": "Feature", "geometry": {"type": "Polygon", "coordinates": [[[-97.594289, 35.5148187], [-97.5938132, 35.5148187], [-97.5938132, 35.5144872], [-97.5939932, 35.5144872], [-97.593998, 35.5144686], [-97.59401, 35.5144562], [-97.5940235, 35.5144468], [-97.5940467, 35.5144424], [-97.5940649, 35.5144447], [-97.594083, 35.5144533], [-97.5940967, 35.5144691], [-97.5941012, 35.5144872], [-97.5941012, 35.5145106], [-97.594289, 35.5145106], [-97.594289, 35.5148187]]]}, "properties": {"osm_id": 284264842, "building": "yes", "name": "", "height": null, "height_m": null, "levels": null, "tract_id": "40109106602", "tract_name": "1066.02", "tags": {"building": "yes", "roof:shape": "flat", "source": "Bing"}}}, {"type": "Feature", "geometry": {"type": "Polygon", "coordinates": [[[-97.5926776, 35.5150247], [-97.5926776, 35.5147752], [-97.5927371, 35.5147752], [-97.5927371, 35.5147332], [-97.5927059, 35.5147332], [-97.5926991, 35.5147282], [-97.5926949, 35.5147193], [-97.5926978, 35.5147106], [-97.5927059, 35.5147057], [-97.5927371, 35.5147057], [-97.5927371, 35.5146845], [-97.5926776, 35.5146844], [-97.5926776, 35.5144291], [-97.5931873, 35.5144291], [-97.5931873, 35.5146821], [-97.5931255, 35.5146821], [-97.5931255, 35.5147265], [-97.5931547, 35.5147265], [-97.5931618, 35.51473], [-97.5931669, 35.5147404], [-97.5931637, 35.5147495], [-97.5931547, 35.5147536], [-97.5931255, 35.5147536], [-97.5931255, 35.5147764], [-97.5931873, 35.5147764], [-97.5931873, 35.5150247], [-97.5931424, 35.5150247], [-97.5931424, 35.515017], [-97.5930275, 35.515017], [-97.5930275, 35.5150247], [-97.5929374, 35.5150247], [-97.5929374, 35.5150189], [-97.5927284, 35.5150189], [-97.5927284, 35.5150247], [-97.5926776, 35.5150247]]]}, "properties": {"osm_id": 284264843, "building": "yes", "name": "", "height": null, "height_m": null, "levels": null, "tract_id": "40109106602", "tract_name": "1066.02", "tags": {"building": "yes", "roof:shape": "flat", "source": "Bing"}}}, {"type": "Feature", "geometry": {"type": "Polygon", "coordinates": [[[-97.5935141, 35.515002], [-97.5933897, 35.515002], [-97.5933897, 35.514339], [-97.5935141, 35.514339], [-97.5935141, 35.515002]]]}, "properties": {"osm_id": 284264844, "building": "roof", "name": "", "height": null, "height_m": null, "levels": null, "tract_id": "40109106602", "tract_name": "1066.02", "tags": {"building": "roof", "layer": "1", "source": "Bing"}}}, {"type": "Feature", "geometry": {"type": "Polygon", "coordinates": [[[-97.5977693, 35.5141111], [-97.5977081, 35.5141111], [-97.5977081, 35.5139597], [-97.5977693, 35.5139597], [-97.5977693, 35.5141111]]]}, "properties": {"osm_id": 284274081, "building": "roof", "name": "", "height": null, "height_m": null, "levels": null, "tract_id": "40109106602", "tract_name": "1066.02", "tags": {"building": "roof", "roof:shape": "flat", "source": "Bing"}}}, {"type": "Feature", "geometry": {"type": "Polygon", "coordinates": [[[-97.5989872, 35.513187], [-97.5988097, 35.513187], [-97.5988097, 35.5131357], [-97.5989872, 35.5131357], [-97.5989872, 35.513187]]]}, "properties": {"osm_id": 284274082, "building": "roof", "name": "", "height": null, "height_m": null, "levels": null, "tract_id": "40109106602", "tract_name": "1066.02", "tags": {"building": "roof", "roof:shape": "flat", "source": "Bing"}}}, {"type": "Feature", "geometry": {"type": "Polygon", "coordinates": [[[-97.5993429, 35.5126799], [-97.5992808, 35.5126799], [-97.5992808, 35.5124877], [-97.5993429, 35.5124877], [-97.5993429, 35.5126799]]]}, "properties": {"osm_id": 284274083, "building": "roof", "name": "", "height": null, "height_m": null, "levels": null, "tract_id": "40109106602", "tract_name": "1066.02", "tags": {"building": "roof", "roof:shape": "flat", "source": "Bing"}}}, {"type": "Feature", "geometry": {"type": "Polygon", "coordinates": [[[-97.5977069, 35.5137667], [-97.597768, 35.5137667], [-97.597768, 35.513913], [-97.5977069, 35.513913], [-97.5977069, 35.5137667]]]}, "properties": {"osm_id": 284274084, "building": "roof", "name": "", "height": null, "height_m": null, "levels": null, "tract_id": "40109106602", "tract_name": "1066.02", "tags": {"building": "roof", "roof:shape": "flat", "source": "Bing"}}}, {"type": "Feature", "geometry": {"type": "Polygon", "coordinates": [[[-97.5984891, 35.5148494], [-97.5984241, 35.5148494], [-97.5984241, 35.5147571], [-97.5984891, 35.5147571], [-97.5984891, 35.5148494]]]}, "properties": {"osm_id": 284274085, "building": "roof", "name": "", "height": null, "height_m": null, "levels": null, "tract_id": "40109106602", "tract_name": "1066.02", "tags": {"building": "roof", "roof:shape": "flat", "source": "Bing"}}}, {"type": "Feature", "geometry": {"type": "Polygon", "coordinates": [[[-97.5983374, 35.5148505], [-97.5982712, 35.5148505], [-97.5982712, 35.5147623], [-97.5983374, 35.5147623], [-97.5983374, 35.5148505]]]}, "properties": {"osm_id": 284274086, "building": "roof", "name": "", "height": null, "height_m": null, "levels": null, "tract_id": "40109106602", "tract_name": "1066.02", "tags": {"building": "roof", "roof:shape": "flat", "source": "Bing"}}}, {"type": "Feature", "geometry": {"type": "Polygon", "coordinates": [[[-97.5983628, 35.512898], [-97.5981123, 35.512898], [-97.5981123, 35.5128452], [-97.5983628, 35.5128452], [-97.5983628, 35.512898]]]}, "properties": {"osm_id": 284274087, "building": "roof", "name": "", "height": null, "height_m": null, "levels": null, "tract_id": "40109106602", "tract_name": "1066.02", "tags": {"building": "roof", "roof:shape": "flat", "source": "Bing"}}}, {"type": "Feature", "geometry": {"type": "Polygon", "coordinates": [[[-97.5984331, 35.5130125], [-97.5981979, 35.5130125], [-97.5981979, 35.5129611], [-97.5984331, 35.5129611], [-97.5984331, 35.5130125]]]}, "properties": {"osm_id": 284274088, "building": "roof", "name": "", "height": null, "height_m": null, "levels": null, "tract_id": "40109106602", "tract_name": "1066.02", "tags": {"building": "roof", "roof:shape": "flat", "source": "Bing"}}}, {"type": "Feature", "geometry": {"type": "Polygon", "coordinates": [[[-97.6009439, 35.5121316], [-97.6003387, 35.5121316], [-97.6003387, 35.5120807], [-97.6009439, 35.5120807], [-97.6009439, 35.5121316]]]}, "properties": {"osm_id": 284274089, "building": "roof", "name": "", "height": null, "height_m": null, "levels": null, "tract_id": "40109106602", "tract_name": "1066.02", "tags": {"building": "roof", "roof:shape": "flat", "source": "Bing"}}}, {"type": "Feature", "geometry": {"type": "Polygon", "coordinates": [[[-97.5988863, 35.5129589], [-97.5991251, 35.5129589], [-97.5991251, 35.5130088], [-97.5988863, 35.5130088], [-97.5988863, 35.5129589]]]}, "properties": {"osm_id": 284274090, "building": "roof", "name": "", "height": null, "height_m": null, "levels": null, "tract_id": "40109106602", "tract_name": "1066.02", "tags": {"building": "roof", "roof:shape": "flat", "source": "Bing"}}}, {"type": "Feature", "geometry": {"type": "Polygon", "coordinates": [[[-97.5994701, 35.5138488], [-97.5994077, 35.5138488], [-97.5994077, 35.5135252], [-97.5994701, 35.5135252], [-97.5994701, 35.5138488]]]}, "properties": {"osm_id": 284274091, "building": "roof", "name": "", "height": null, "height_m": null, "levels": null, "tract_id": "40109106602", "tract_name": "1066.02", "tags": {"building": "roof", "roof:shape": "flat", "source": "Bing"}}}, {"type": "Feature", "geometry": {"type": "Polygon", "coordinates": [[[-97.5976289, 35.5147602], [-97.5976289, 35.5148474], [-97.5975665, 35.5148474], [-97.5975665, 35.5147602], [-97.5976289, 35.5147602]]]}, "properties": {"osm_id": 284274092, "building": "roof", "name": "", "height": null, "height_m": null, "levels": null, "tract_id": "40109106602", "tract_name": "1066.02", "tags": {"building": "roof", "roof:shape": "flat", "source": "Bing"}}}, {"type": "Feature", "geometry": {"type": "Polygon", "coordinates": [[[-97.5987122, 35.5145757], [-97.5984803, 35.5145757], [-97.5984803, 35.5145239], [-97.5987122, 35.5145239], [-97.5987122, 35.5145757]]]}, "properties": {"osm_id": 284274093, "building": "roof", "name": "", "height": null, "height_m": null, "levels": null, "tract_id": "40109106602", "tract_name": "1066.02", "tags": {"building": "roof", "roof:shape": "flat", "source": "Bing"}}}, {"type": "Feature", "geometry": {"type": "Polygon", "coordinates": [[[-97.5977056, 35.5134597], [-97.5977655, 35.5134597], [-97.5977655, 35.513607], [-97.5977056, 35.513607], [-97.5977056, 35.5134597]]]}, "properties": {"osm_id": 284274094, "building": "roof", "name": "", "height": null, "height_m": null, "levels": null, "tract_id": "40109106602", "tract_name": "1066.02", "tags": {"building": "roof", "roof:shape": "flat", "source": "Bing"}}}, {"type": "Feature", "geometry": {"type": "Polygon", "coordinates": [[[-97.599126, 35.5119754], [-97.5989494, 35.5119754], [-97.5989494, 35.5119255], [-97.599126, 35.5119255], [-97.599126, 35.5119754]]]}, "properties": {"osm_id": 284274095, "building": "roof", "name": "", "height": null, "height_m": null, "levels": null, "tract_id": "40109106602", "tract_name": "1066.02", "tags": {"building": "roof", "roof:shape": "flat", "source": "Bing"}}}, {"type": "Feature", "geometry": {"type": "Polygon", "coordinates": [[[-97.5995862, 35.5148484], [-97.5995237, 35.5148484], [-97.5995237, 35.5147571], [-97.5995862, 35.5147571], [-97.5995862, 35.5148484]]]}, "properties": {"osm_id": 284274096, "building": "roof", "name": "", "height": null, "height_m": null, "levels": null, "tract_id": "40109106602", "tract_name": "1066.02", "tags": {"building": "roof", "roof:shape": "flat", "source": "Bing"}}}, {"type": "Feature", "geometry": {"type": "Polygon", "coordinates": [[[-97.5986097, 35.5119761], [-97.5984268, 35.5119761], [-97.5984268, 35.5119262], [-97.5986097, 35.5119262], [-97.5986097, 35.5119761]]]}, "properties": {"osm_id": 284274097, "building": "roof", "name": "", "height": null, "height_m": null, "levels": null, "tract_id": "40109106602", "tract_name": "1066.02", "tags": {"building": "roof", "roof:shape": "flat", "source": "Bing"}}}, {"type": "Feature", "geometry": {"type": "Polygon", "coordinates": [[[-97.5986367, 35.5130726], [-97.5983448, 35.5130726], [-97.5983448, 35.513022], [-97.5986367, 35.513022], [-97.5986367, 35.5130726]]]}, "properties": {"osm_id": 284274098, "building": "roof", "name": "", "height": null, "height_m": null, "levels": null, "tract_id": "40109106602", "tract_name": "1066.02", "tags": {"building": "roof", "roof:shape": "flat", "source": "Bing"}}}, {"type": "Feature", "geometry": {"type": "Polygon", "coordinates": [[[-97.5983516, 35.5144585], [-97.5980038, 35.5144585], [-97.5980038, 35.5144067], [-97.5983516, 35.5144067], [-97.5983516, 35.5144585]]]}, "properties": {"osm_id": 284274099, "building": "roof", "name": "", "height": null, "height_m": null, "levels": null, "tract_id": "40109106602", "tract_name": "1066.02", "tags": {"building": "roof", "roof:shape": "flat", "source": "Bing"}}}, {"type": "Feature", "geometry": {"type": "Polygon", "coordinates": [[[-97.5985845, 35.5131877], [-97.5984042, 35.5131877], [-97.5984042, 35.5131379], [-97.5985845, 35.5131379], [-97.5985845, 35.5131877]]]}, "properties": {"osm_id": 284274100, "building": "roof", "name": "", "height": null, "height_m": null, "levels": null, "tract_id": "40109106602", "tract_name": "1066.02", "tags": {"building": "roof", "roof:shape": "flat", "source": "Bing"}}}, {"type": "Feature", "geometry": {"type": "Polygon", "coordinates": [[[-97.5978292, 35.5123188], [-97.5977643, 35.5123199], [-97.5977592, 35.512126], [-97.5978241, 35.5121248], [-97.5978292, 35.5123188]]]}, "properties": {"osm_id": 284274101, "building": "roof", "name": "", "height": null, "height_m": null, "levels": null, "tract_id": "40109106602", "tract_name": "1066.02", "tags": {"building": "roof", "roof:shape": "flat", "source": "Bing"}}}, {"type": "Feature", "geometry": {"type": "Polygon", "coordinates": [[[-97.5981934, 35.5121294], [-97.5979456, 35.5121294], [-97.5979456, 35.5120766], [-97.5981934, 35.5120766], [-97.5981934, 35.5121294]]]}, "properties": {"osm_id": 284274102, "building": "roof", "name": "", "height": null, "height_m": null, "levels": null, "tract_id": "40109106602", "tract_name": "1066.02", "tags": {"building": "roof", "roof:shape": "flat", "source": "Bing"}}}, {"type": "Feature", "geometry": {"type": "Polygon", "coordinates": [[[-97.5993447, 35.5120886], [-97.5993447, 35.5123277], [-97.5992826, 35.5123277], [-97.5992826, 35.5120886], [-97.5993447, 35.5120886]]]}, "properties": {"osm_id": 284274103, "building": "roof", "name": "", "height": null, "height_m": null, "levels": null, "tract_id": "40109106602", "tract_name": "1066.02", "tags": {"building": "roof", "roof:shape": "flat", "source": "Bing"}}}, {"type": "Feature", "geometry": {"type": "Polygon", "coordinates": [[[-97.599059, 35.512091], [-97.599059, 35.5120402], [-97.5992896, 35.5120402], [-97.5992896, 35.5120776], [-97.5992737, 35.512091], [-97.599059, 35.512091]]]}, "properties": {"osm_id": 284274104, "building": "roof", "name": "", "height": null, "height_m": null, "levels": null, "tract_id": "40109106602", "tract_name": "1066.02", "tags": {"building": "roof", "roof:shape": "flat", "source": "Bing"}}}, {"type": "Feature", "geometry": {"type": "Polygon", "coordinates": [[[-97.6009752, 35.5128906], [-97.6003825, 35.5128832], [-97.5996345, 35.5128833], [-97.5996345, 35.5128349], [-97.6003843, 35.5128326], [-97.600977, 35.5128393], [-97.6009752, 35.5128906]]]}, "properties": {"osm_id": 284274106, "building": "roof", "name": "", "height": null, "height_m": null, "levels": null, "tract_id": "40109106602", "tract_name": "1066.02", "tags": {"building": "roof", "roof:shape": "flat", "source": "Bing"}}}, {"type": "Feature", "geometry": {"type": "Polygon", "coordinates": [[[-97.5989637, 35.5119062], [-97.5989637, 35.5118701], [-97.5989787, 35.5118701], [-97.5989787, 35.5118591], [-97.5990445, 35.5117711], [-97.5990445, 35.5117557], [-97.5991003, 35.5117326], [-97.5991003, 35.5117185], [-97.5993732, 35.5117185], [-97.5993732, 35.5117229], [-97.5994186, 35.5117229], [-97.5994186, 35.5118537], [-97.5994003, 35.5118537], [-97.5994003, 35.5118706], [-97.5993351, 35.5118706], [-97.5993351, 35.5118612], [-97.5992148, 35.5118612], [-97.5992148, 35.5118667], [-97.5991915, 35.5118667], [-97.5991915, 35.5118629], [-97.5991915, 35.5118533], [-97.5991804, 35.5118533], [-97.5991504, 35.5118709], [-97.5991804, 35.5118857], [-97.5991641, 35.5119062], [-97.5991367, 35.5118922], [-97.5991374, 35.5119062], [-97.5989637, 35.5119062]]]}, "properties": {"osm_id": 284279043, "building": "apartments", "name": "", "height": null, "height_m": null, "levels": null, "tract_id": "40109106602", "tract_name": "1066.02", "tags": {"building": "apartments", "source": "Bing"}}}, {"type": "Feature", "geometry": {"type": "Polygon", "coordinates": [[[-97.5987398, 35.5118532], [-97.5987191, 35.5118532], [-97.5987191, 35.5118693], [-97.5986551, 35.5118693], [-97.5986551, 35.5118532], [-97.5985957, 35.5118532], [-97.5985957, 35.5118679], [-97.598538, 35.5118679], [-97.598538, 35.5118532], [-97.5984983, 35.5118532], [-97.5984983, 35.5118671], [-97.5984452, 35.5118671], [-97.5984452, 35.5118532], [-97.5984082, 35.5118532], [-97.5984082, 35.5118796], [-97.5983217, 35.5118796], [-97.5983217, 35.5118532], [-97.5983001, 35.5118532], [-97.5983001, 35.5117344], [-97.5983272, 35.5117344], [-97.5983272, 35.5117153], [-97.5983821, 35.5117153], [-97.5983821, 35.5117344], [-97.5984416, 35.5117344], [-97.5984416, 35.5117175], [-97.5984992, 35.5117175], [-97.5984992, 35.5117344], [-97.5985362, 35.5117344], [-97.5985362, 35.5117161], [-97.5985975, 35.5117161], [-97.5985975, 35.5117344], [-97.5986569, 35.5117344], [-97.5986569, 35.5117168], [-97.5987146, 35.5117168], [-97.5987146, 35.5117344], [-97.5987398, 35.5117344], [-97.5987398, 35.5118532]]]}, "properties": {"osm_id": 284279044, "building": "apartments", "name": "", "height": null, "height_m": null, "levels": null, "tract_id": "40109106602", "tract_name": "1066.02", "tags": {"building": "apartments", "source": "Bing"}}}, {"type": "Feature", "geometry": {"type": "Polygon", "coordinates": [[[-97.6009643, 35.51261], [-97.600582, 35.5127884], [-97.6005051, 35.5126792], [-97.6008874, 35.5125008], [-97.6009643, 35.51261]]]}, "properties": {"osm_id": 284282218, "building": "apartments", "name": "", "height": null, "height_m": 6.0, "levels": 2, "tract_id": "40109106602", "tract_name": "1066.02", "tags": {"building": "apartments", "building:levels": "2", "roof:shape": "gabled", "source": "Bing"}}}, {"type": "Feature", "geometry": {"type": "Polygon", "coordinates": [[[-97.6004762, 35.5126286], [-97.6000935, 35.5128073], [-97.6000137, 35.512694], [-97.6003965, 35.5125153], [-97.6004762, 35.5126286]]]}, "properties": {"osm_id": 284282219, "building": "apartments", "name": "", "height": null, "height_m": 6.0, "levels": 2, "tract_id": "40109106602", "tract_name": "1066.02", "tags": {"building": "apartments", "building:levels": "2", "roof:shape": "gabled", "source": "Bing"}}}, {"type": "Feature", "geometry": {"type": "Polygon", "coordinates": [[[-97.6002138, 35.5124399], [-97.60016, 35.5124908], [-97.6000517, 35.5124151], [-97.6001054, 35.5123641], [-97.6002138, 35.5124399]]]}, "properties": {"osm_id": 284282220, "building": "yes", "name": "", "height": null, "height_m": null, "levels": null, "tract_id": "40109106602", "tract_name": "1066.02", "tags": {"building": "yes", "roof:shape": "gabled", "source": "Bing"}}}, {"type": "Feature", "geometry": {"type": "Polygon", "coordinates": [[[-97.6009311, 35.5124191], [-97.6004915, 35.512419], [-97.6004916, 35.5122853], [-97.6009312, 35.5122854], [-97.6009311, 35.5124191]]]}, "properties": {"osm_id": 284282221, "building": "apartments", "name": "", "height": null, "height_m": 6.0, "levels": 2, "tract_id": "40109106602", "tract_name": "1066.02", "tags": {"building": "apartments", "building:levels": "2", "roof:shape": "gabled", "source": "Bing"}}}, {"type": "Feature", "geometry": {"type": "Polygon", "coordinates": [[[-97.59995, 35.5127116], [-97.5998367, 35.512805], [-97.5995206, 35.5125509], [-97.599634, 35.5124575], [-97.59995, 35.5127116]]]}, "properties": {"osm_id": 284282222, "building": "apartments", "name": "", "height": null, "height_m": 6.0, "levels": 2, "tract_id": "40109106602", "tract_name": "1066.02", "tags": {"building": "apartments", "building:levels": "2", "roof:shape": "gabled", "source": "Bing"}}}, {"type": "Feature", "geometry": {"type": "Polygon", "coordinates": [[[-97.5985145, 35.5121438], [-97.5985145, 35.5121756], [-97.5985019, 35.5121756], [-97.5985019, 35.5121859], [-97.5984817, 35.5122183], [-97.5984734, 35.5122328], [-97.598446, 35.5122577], [-97.5984517, 35.5122624], [-97.5984298, 35.5122782], [-97.5984375, 35.5122881], [-97.5983645, 35.5123237], [-97.5982447, 35.5123237], [-97.5982447, 35.5123298], [-97.5981064, 35.5123298], [-97.5981064, 35.5123237], [-97.5980694, 35.5123237], [-97.5980694, 35.5122941], [-97.5980497, 35.5122941], [-97.5980497, 35.5123054], [-97.5979905, 35.5123054], [-97.5979905, 35.5122941], [-97.5979293, 35.5122941], [-97.5979293, 35.5123055], [-97.5978758, 35.5123055], [-97.5978758, 35.5122941], [-97.5978529, 35.5122941], [-97.5978529, 35.5121664], [-97.5978794, 35.5121664], [-97.5978794, 35.5121539], [-97.5979316, 35.5121539], [-97.5979316, 35.5121664], [-97.5979956, 35.5121664], [-97.5979956, 35.5121539], [-97.5980461, 35.5121539], [-97.5980461, 35.5121664], [-97.5980707, 35.5121664], [-97.5980707, 35.5121775], [-97.5981427, 35.5121775], [-97.5981427, 35.5121833], [-97.5982594, 35.5121833], [-97.5982594, 35.5121775], [-97.5982878, 35.5121775], [-97.5982878, 35.5121936], [-97.5983117, 35.5121936], [-97.5983376, 35.5121767], [-97.5983376, 35.5121564], [-97.598347, 35.5121565], [-97.598347, 35.5121438], [-97.5985145, 35.5121438]]]}, "properties": {"osm_id": 284309062, "building": "apartments", "name": "", "height": null, "height_m": null, "levels": null, "tract_id": "40109106602", "tract_name": "1066.02", "tags": {"building": "apartments", "source": "Bing"}}}, {"type": "Feature", "geometry": {"type": "Polygon", "coordinates": [[[-97.5980602, 35.5128273], [-97.597836, 35.5128273], [-97.597836, 35.5127939], [-97.5978478, 35.5127939], [-97.5978478, 35.5126384], [-97.597836, 35.5126384], [-97.597836, 35.5125761], [-97.5978451, 35.5125761], [-97.5978451, 35.512425], [-97.597836, 35.512425], [-97.597836, 35.5123924], [-97.5980064, 35.5123924], [-97.5980064, 35.5123896], [-97.5980602, 35.5123896], [-97.5980602, 35.5124257], [-97.5980487, 35.5124257], [-97.5980487, 35.5125702], [-97.5980602, 35.5125702], [-97.5980602, 35.5126421], [-97.598046, 35.5126421], [-97.598046, 35.5127924], [-97.5980602, 35.5127924], [-97.5980602, 35.5128273]]]}, "properties": {"osm_id": 284316213, "building": "apartments", "name": "", "height": null, "height_m": null, "levels": null, "tract_id": "40109106602", "tract_name": "1066.02", "tags": {"building": "apartments", "source": "Bing"}}}, {"type": "Feature", "geometry": {"type": "Polygon", "coordinates": [[[-97.6001262, 35.5119159], [-97.5998803, 35.5119152], [-97.5998804, 35.5118861], [-97.5997505, 35.5118858], [-97.5997512, 35.5117178], [-97.5998992, 35.5117182], [-97.5999353, 35.5116814], [-97.5999785, 35.5117184], [-97.6001271, 35.5117188], [-97.6001272, 35.5117522], [-97.6001268, 35.5118501], [-97.6001262, 35.5119159]]]}, "properties": {"osm_id": 284318211, "building": "yes", "name": "", "height": null, "height_m": null, "levels": null, "tract_id": "40109106602", "tract_name": "1066.02", "tags": {"building": "yes", "source": "Bing"}}}, {"type": "Feature", "geometry": {"type": "Polygon", "coordinates": [[[-97.600779, 35.5119657], [-97.600635, 35.5119667], [-97.6006333, 35.5118111], [-97.6007773, 35.51181], [-97.600779, 35.5119657]]]}, "properties": {"osm_id": 284318212, "building": "yes", "name": "", "height": null, "height_m": null, "levels": null, "tract_id": "40109106602", "tract_name": "1066.02", "tags": {"building": "yes", "roof:shape": "flat", "source": "Bing"}}}, {"type": "Feature", "geometry": {"type": "Polygon", "coordinates": [[[-97.6001268, 35.5118501], [-97.6001272, 35.5117522], [-97.6002788, 35.5117526], [-97.6002784, 35.5118505], [-97.6001268, 35.5118501]]]}, "properties": {"osm_id": 284318213, "building": "roof", "name": "", "height": null, "height_m": null, "levels": null, "tract_id": "40109106602", "tract_name": "1066.02", "tags": {"building": "roof", "source": "Bing"}}}, {"type": "Feature", "geometry": {"type": "Polygon", "coordinates": [[[-97.6004738, 35.5119191], [-97.6003502, 35.5119191], [-97.6003502, 35.5118351], [-97.6003668, 35.5118351], [-97.6003668, 35.5117542], [-97.6004535, 35.5117542], [-97.6004535, 35.5118351], [-97.6004738, 35.5118351], [-97.6004738, 35.5119191]]]}, "properties": {"osm_id": 284318214, "building": "yes", "name": "", "height": null, "height_m": null, "levels": null, "tract_id": "40109106602", "tract_name": "1066.02", "tags": {"building": "yes", "source": "Bing"}}}, {"type": "Feature", "geometry": {"type": "Polygon", "coordinates": [[[-97.593311, 35.5150825], [-97.5932486, 35.5150825], [-97.5932486, 35.51479], [-97.593311, 35.51479], [-97.593311, 35.5150825]]]}, "properties": {"osm_id": 284319211, "building": "roof", "name": "", "height": null, "height_m": null, "levels": null, "tract_id": "40109106602", "tract_name": "1066.02", "tags": {"building": "roof", "layer": "1", "roof:shape": "flat", "source": "Bing"}}}, {"type": "Feature", "geometry": {"type": "Polygon", "coordinates": [[[-97.5992578, 35.5126529], [-97.599215, 35.5126529], [-97.599215, 35.5126597], [-97.5990758, 35.5126597], [-97.5990758, 35.5126529], [-97.5990384, 35.5126529], [-97.5990384, 35.5126461], [-97.5989888, 35.5126461], [-97.5989888, 35.512641], [-97.5989352, 35.512641], [-97.5989134, 35.5126228], [-97.598908, 35.5126271], [-97.5988557, 35.5125835], [-97.5988611, 35.5125792], [-97.598838, 35.5125599], [-97.598838, 35.5125181], [-97.5988285, 35.5125181], [-97.5988285, 35.5124598], [-97.5988143, 35.5124598], [-97.5988143, 35.5124151], [-97.5988285, 35.5124151], [-97.5988285, 35.5123637], [-97.5988145, 35.5123637], [-97.5988145, 35.5123161], [-97.5988285, 35.5123161], [-97.5988285, 35.5122592], [-97.598838, 35.5122592], [-97.598838, 35.5122176], [-97.598862, 35.5121977], [-97.5988565, 35.5121933], [-97.5989065, 35.5121519], [-97.598912, 35.5121563], [-97.598935, 35.5121373], [-97.5989904, 35.5121373], [-97.5989904, 35.5121314], [-97.5990353, 35.5121314], [-97.5990353, 35.5121252], [-97.599078, 35.5121252], [-97.599078, 35.5121161], [-97.599222, 35.5121161], [-97.599222, 35.5121252], [-97.5992578, 35.5121252], [-97.5992578, 35.5122616], [-97.5990349, 35.5122616], [-97.5990349, 35.5122542], [-97.5989989, 35.5122542], [-97.5990315, 35.5122791], [-97.5990121, 35.5122959], [-97.5989795, 35.5122711], [-97.5989795, 35.5122973], [-97.5989866, 35.5122973], [-97.5989866, 35.5123185], [-97.5989987, 35.5123185], [-97.5989987, 35.5123636], [-97.5989866, 35.5123636], [-97.5989866, 35.5124139], [-97.5989974, 35.5124139], [-97.5989974, 35.5124617], [-97.5989865, 35.5124617], [-97.5989865, 35.5124772], [-97.5989794, 35.5124772], [-97.5989794, 35.5125068], [-97.5990093, 35.5124787], [-97.5990316, 35.5124945], [-97.5990017, 35.5125225], [-97.5990369, 35.5125225], [-97.5990369, 35.5125086], [-97.5990594, 35.5125086], [-97.5990594, 35.5125145], [-97.5991603, 35.5125145], [-97.5991603, 35.5125205], [-97.5991829, 35.5125205], [-97.5991829, 35.5125093], [-97.5992387, 35.5125093], [-97.5992387, 35.5125205], [-97.5992578, 35.5125205], [-97.5992578, 35.5126529]]]}, "properties": {"osm_id": 284325230, "building": "apartments", "name": "", "height": null, "height_m": null, "levels": null, "tract_id": "40109106602", "tract_name": "1066.02", "tags": {"building": "apartments", "source": "Bing"}}}, {"type": "Feature", "geometry": {"type": "Polygon", "coordinates": [[[-97.5992716, 35.5143741], [-97.5991712, 35.5142966], [-97.5991733, 35.5142149], [-97.5993313, 35.5142115], [-97.5993327, 35.5142494], [-97.59949, 35.5142528], [-97.5994931, 35.514241], [-97.5996143, 35.514246], [-97.5996039, 35.5143825], [-97.5995201, 35.5143918], [-97.5992716, 35.5143741]]]}, "properties": {"osm_id": 325445859, "building": "apartments", "name": "", "height": null, "height_m": 6.0, "levels": 2, "tract_id": "40109106602", "tract_name": "1066.02", "tags": {"building": "apartments", "building:levels": "2"}}}, {"type": "Feature", "geometry": {"type": "Polygon", "coordinates": [[[-97.599841, 35.5142105], [-97.5997385, 35.5141009], [-97.5998893, 35.5140008], [-97.5999991, 35.514108], [-97.5999654, 35.5141283], [-97.6000166, 35.5141915], [-97.599939, 35.5142379], [-97.5999273, 35.5142165], [-97.5999061, 35.5142278], [-97.5998973, 35.5142183], [-97.599879, 35.5142284], [-97.5998615, 35.5142087], [-97.5998812, 35.5141938], [-97.5998746, 35.5141867], [-97.599841, 35.5142105]]]}, "properties": {"osm_id": 325445886, "building": "apartments", "name": "", "height": null, "height_m": 6.0, "levels": 2, "tract_id": "40109106602", "tract_name": "1066.02", "tags": {"building": "apartments", "building:levels": "2"}}}, {"type": "Feature", "geometry": {"type": "Polygon", "coordinates": [[[-97.5994362, 35.5133494], [-97.5994382, 35.5132542], [-97.5993948, 35.5132525], [-97.5993937, 35.5132356], [-97.5989693, 35.5132289], [-97.5989641, 35.513239], [-97.5989237, 35.5132415], [-97.598931, 35.5133637], [-97.5989776, 35.5133629], [-97.5989786, 35.5133721], [-97.5993295, 35.5133738], [-97.5993368, 35.513362], [-97.5993813, 35.513362], [-97.5993813, 35.5133528], [-97.5994362, 35.5133494]]]}, "properties": {"osm_id": 325445890, "building": "apartments", "name": "", "height": null, "height_m": 6.0, "levels": 2, "tract_id": "40109106602", "tract_name": "1066.02", "tags": {"building": "apartments", "building:levels": "2"}}}, {"type": "Feature", "geometry": {"type": "Polygon", "coordinates": [[[-97.6004782, 35.5148442], [-97.6004792, 35.5147305], [-97.6005579, 35.5147305], [-97.6005693, 35.5146504], [-97.6007142, 35.5146504], [-97.6007142, 35.5146807], [-97.6007659, 35.5146807], [-97.6007659, 35.514717], [-97.6007276, 35.5147187], [-97.6007276, 35.5147515], [-97.6007794, 35.514754], [-97.6007773, 35.5148459], [-97.600651, 35.5148442], [-97.6006501, 35.5148522], [-97.6004773, 35.5148526], [-97.6004782, 35.5148442]]]}, "properties": {"osm_id": 325445893, "building": "commercial", "name": "", "height": null, "height_m": null, "levels": null, "tract_id": "40109106602", "tract_name": "1066.02", "tags": {"building": "commercial", "roof:shape": "gabled"}}}, {"type": "Feature", "geometry": {"type": "Polygon", "coordinates": [[[-97.5988295, 35.5140299], [-97.5988285, 35.5139304], [-97.5988068, 35.5139288], [-97.5988057, 35.5138723], [-97.5988823, 35.5138672], [-97.5988896, 35.5138487], [-97.5989475, 35.5138538], [-97.5989517, 35.5138748], [-97.5990076, 35.5138731], [-97.5990179, 35.5139422], [-97.5989569, 35.5139498], [-97.5989569, 35.5139877], [-97.5989144, 35.5139911], [-97.5989142, 35.5139962], [-97.5988785, 35.5139962], [-97.5988295, 35.5140299]]]}, "properties": {"osm_id": 325445895, "building": "apartments", "name": "", "height": null, "height_m": null, "levels": null, "tract_id": "40109106602", "tract_name": "1066.02", "tags": {"building": "apartments", "roof:shape": "gabled"}}}, {"type": "Feature", "geometry": {"type": "Polygon", "coordinates": [[[-97.5992659, 35.5128513], [-97.5992649, 35.512724], [-97.5988259, 35.5127223], [-97.5988311, 35.5128572], [-97.5988497, 35.5128572], [-97.5988487, 35.5128774], [-97.5989077, 35.5128782], [-97.5989108, 35.5128656], [-97.599005, 35.5128664], [-97.599005, 35.5128715], [-97.5990806, 35.5128723], [-97.5990806, 35.5128647], [-97.5991893, 35.512866], [-97.5991929, 35.512874], [-97.5992473, 35.5128732], [-97.5992493, 35.5128538], [-97.5992674, 35.5128567], [-97.5992659, 35.5128513]]]}, "properties": {"osm_id": 325445898, "building": "apartments", "name": "", "height": null, "height_m": 9.0, "levels": 3, "tract_id": "40109106602", "tract_name": "1066.02", "tags": {"building": "apartments", "building:levels": "3", "survey:date": "2023-10-22"}}}, {"type": "Feature", "geometry": {"type": "Polygon", "coordinates": [[[-97.5980653, 35.5139419], [-97.5980668, 35.5138203], [-97.5981034, 35.5138215], [-97.5980697, 35.5138049], [-97.5980946, 35.5137846], [-97.5981166, 35.5137989], [-97.5981166, 35.513588], [-97.5980932, 35.5136047], [-97.5980697, 35.5135892], [-97.5980961, 35.5135594], [-97.5980668, 35.5135594], [-97.5980653, 35.513439], [-97.5981664, 35.5134378], [-97.5982659, 35.5135058], [-97.5982864, 35.5136368], [-97.5982908, 35.5137453], [-97.5982718, 35.5138573], [-97.5981854, 35.5139312], [-97.5980653, 35.5139419]]]}, "properties": {"osm_id": 325445900, "building": "apartments", "name": "", "height": null, "height_m": 6.0, "levels": 2, "tract_id": "40109106602", "tract_name": "1066.02", "tags": {"building": "apartments", "building:levels": "2"}}}, {"type": "Feature", "geometry": {"type": "Polygon", "coordinates": [[[-97.6002198, 35.5148556], [-97.5999417, 35.5148538], [-97.5999417, 35.5148461], [-97.5998714, 35.5148449], [-97.5998714, 35.5148026], [-97.5999307, 35.5148032], [-97.5999292, 35.5147871], [-97.5999468, 35.5147853], [-97.5999468, 35.5147216], [-97.5999849, 35.5147204], [-97.5999849, 35.5146834], [-97.6000449, 35.5146846], [-97.6000456, 35.5146608], [-97.6001166, 35.514659], [-97.6001144, 35.5146876], [-97.6001847, 35.5146858], [-97.600184, 35.5147222], [-97.6002228, 35.5147222], [-97.6002198, 35.5148556]]]}, "properties": {"osm_id": 325445901, "building": "commercial", "name": "", "height": null, "height_m": null, "levels": null, "tract_id": "40109106602", "tract_name": "1066.02", "tags": {"building": "commercial", "roof:shape": "gabled"}}}, {"type": "Feature", "geometry": {"type": "Polygon", "coordinates": [[[-97.5993476, 35.5139987], [-97.5993476, 35.5139654], [-97.5993681, 35.5139666], [-97.5993667, 35.5137211], [-97.5993447, 35.5137151], [-97.5993403, 35.5136472], [-97.599374, 35.5136436], [-97.5993681, 35.5135531], [-97.5993447, 35.5135495], [-97.5993476, 35.5135316], [-97.5993725, 35.5135292], [-97.5993579, 35.5134387], [-97.5991398, 35.5134351], [-97.5991441, 35.5135268], [-97.5991573, 35.5135388], [-97.5991441, 35.5135566], [-97.5991456, 35.5136424], [-97.5991793, 35.513646], [-97.5991851, 35.5139809], [-97.5992583, 35.5139856], [-97.5992715, 35.5140095], [-97.5993476, 35.5139987]]]}, "properties": {"osm_id": 325445905, "building": "apartments", "name": "", "height": null, "height_m": 6.0, "levels": 2, "tract_id": "40109106602", "tract_name": "1066.02", "tags": {"building": "apartments", "building:levels": "2"}}}, {"type": "Feature", "geometry": {"type": "Polygon", "coordinates": [[[-97.598524, 35.5122538], [-97.5985266, 35.512207], [-97.5985737, 35.5122087], [-97.5985711, 35.5121523], [-97.5986229, 35.5121468], [-97.5986291, 35.5121367], [-97.5986534, 35.5121384], [-97.5986555, 35.5121662], [-97.5987424, 35.5121691], [-97.5987424, 35.5122134], [-97.5987217, 35.5122146], [-97.5987202, 35.512226], [-97.59876, 35.512226], [-97.5987611, 35.5122555], [-97.5987756, 35.5122567], [-97.598775, 35.5122951], [-97.5986436, 35.5122964], [-97.59864, 35.5123212], [-97.5985711, 35.5123195], [-97.5985649, 35.5122858], [-97.5985903, 35.5122867], [-97.5985892, 35.5122664], [-97.5985665, 35.5122669], [-97.598567, 35.5122567], [-97.598524, 35.5122538]]]}, "properties": {"osm_id": 325445907, "building": "office", "name": "Woodscape Apartments", "height": null, "height_m": null, "levels": null, "tract_id": "40109106602", "tract_name": "1066.02", "tags": {"building": "office", "name": "Woodscape Apartments", "office": "property_management", "roof:shape": "gabled", "survey:date": "2023-10-22"}}}, {"type": "Feature", "geometry": {"type": "Polygon", "coordinates": [[[-97.5982501, 35.5132103], [-97.5980876, 35.5132136], [-97.5980938, 35.5132549], [-97.5981601, 35.5133417], [-97.5982408, 35.5133864], [-97.598306, 35.5133822], [-97.5983102, 35.5133965], [-97.5983433, 35.5133965], [-97.598348, 35.5134024], [-97.5984851, 35.513402], [-97.5984851, 35.5133906], [-97.5985327, 35.5133885], [-97.5985358, 35.513335], [-97.5985441, 35.5133333], [-97.598541, 35.5132659], [-97.5984939, 35.5132671], [-97.5984929, 35.5132541], [-97.5983107, 35.513252], [-97.5982921, 35.5132541], [-97.598276, 35.5132452], [-97.5982905, 35.5132364], [-97.5982967, 35.5132309], [-97.5982858, 35.5132128], [-97.598262, 35.5132229], [-97.5982553, 35.5132128], [-97.5982501, 35.5132103]]]}, "properties": {"osm_id": 325445910, "building": "apartments", "name": "", "height": null, "height_m": 6.0, "levels": 2, "tract_id": "40109106602", "tract_name": "1066.02", "tags": {"building": "apartments", "building:levels": "2"}}}, {"type": "Feature", "geometry": {"type": "Polygon", "coordinates": [[[-97.598131, 35.5128284], [-97.5981393, 35.5125756], [-97.5982366, 35.5124922], [-97.5986631, 35.5124855], [-97.5987645, 35.5125655], [-97.598779, 35.5126835], [-97.5987811, 35.5128318], [-97.598601, 35.5128309], [-97.5985968, 35.5126591], [-97.598587, 35.5126451], [-97.5985787, 35.5126489], [-97.598558, 35.5126317], [-97.5985865, 35.5126106], [-97.5985337, 35.5126077], [-97.5985332, 35.5126199], [-97.5984757, 35.5126207], [-97.5984731, 35.5126098], [-97.5984183, 35.5126089], [-97.5984167, 35.5126207], [-97.5983582, 35.5126207], [-97.5983577, 35.5126081], [-97.598307, 35.5126072], [-97.5983365, 35.5126312], [-97.5983204, 35.5126481], [-97.5983096, 35.5126422], [-97.5983034, 35.512651], [-97.5983039, 35.5126683], [-97.5982966, 35.5126696], [-97.5983035, 35.5128305], [-97.598131, 35.5128284]]]}, "properties": {"osm_id": 325445912, "building": "apartments", "name": "", "height": null, "height_m": 6.0, "levels": 2, "tract_id": "40109106602", "tract_name": "1066.02", "tags": {"building": "apartments", "building:levels": "2"}}}, {"type": "Feature", "geometry": {"type": "Polygon", "coordinates": [[[-97.5983786, 35.5134748], [-97.5983698, 35.5136011], [-97.5983772, 35.5137095], [-97.5984826, 35.5137953], [-97.5986363, 35.513812], [-97.59879, 35.5138144], [-97.5989291, 35.5137953], [-97.5990286, 35.5137238], [-97.5990462, 35.5136059], [-97.5990462, 35.5134915], [-97.5990286, 35.5134879], [-97.5990301, 35.5134486], [-97.5989657, 35.5134474], [-97.5989584, 35.5134366], [-97.598872, 35.5134307], [-97.5988666, 35.5136252], [-97.5988723, 35.5136425], [-97.5988754, 35.513653], [-97.598851, 35.5136353], [-97.598835, 35.5136539], [-97.5988536, 35.5136694], [-97.5985539, 35.5136745], [-97.5985855, 35.5136513], [-97.5985643, 35.5136353], [-97.5985389, 35.5136522], [-97.5985389, 35.5136366], [-97.5985493, 35.5136307], [-97.5985482, 35.5134836], [-97.5985358, 35.513479], [-97.5985348, 35.513439], [-97.5984455, 35.5134405], [-97.5984316, 35.5134524], [-97.5983884, 35.5134524], [-97.5983786, 35.5134748]]]}, "properties": {"osm_id": 325445913, "building": "apartments", "name": "", "height": null, "height_m": 6.0, "levels": 2, "tract_id": "40109106602", "tract_name": "1066.02", "tags": {"building": "apartments", "building:levels": "2"}}}, {"type": "Feature", "geometry": {"type": "Polygon", "coordinates": [[[-97.5980841, 35.514381], [-97.5980841, 35.5141855], [-97.5981865, 35.5140509], [-97.5983432, 35.5140068], [-97.598535, 35.514002], [-97.5986697, 35.5140247], [-97.5987648, 35.5140962], [-97.5987794, 35.5142237], [-97.598778, 35.5143571], [-97.5987035, 35.5143646], [-97.5986926, 35.5143979], [-97.5986429, 35.5143979], [-97.5986212, 35.5143743], [-97.5985984, 35.5143727], [-97.5985984, 35.5143356], [-97.5986025, 35.5142833], [-97.5986315, 35.5142825], [-97.5986263, 35.5142623], [-97.5986087, 35.5142614], [-97.5986046, 35.5141637], [-97.5985808, 35.5141789], [-97.5985632, 35.5141612], [-97.5985849, 35.5141443], [-97.5985673, 35.5141443], [-97.5985596, 35.5141531], [-97.5983209, 35.5141479], [-97.5982755, 35.5141657], [-97.5983063, 35.5141671], [-97.5983094, 35.5142732], [-97.5982535, 35.5142825], [-97.5982597, 35.5143052], [-97.5983022, 35.5143052], [-97.5983074, 35.5143912], [-97.5980841, 35.514381]]]}, "properties": {"osm_id": 325445914, "building": "apartments", "name": "", "height": null, "height_m": 6.0, "levels": 2, "tract_id": "40109106602", "tract_name": "1066.02", "tags": {"building": "apartments", "building:levels": "2"}}}, {"type": "Feature", "geometry": {"type": "Polygon", "coordinates": [[[-97.6002629, 35.5148577], [-97.6002691, 35.5147658], [-97.6004523, 35.5147709], [-97.6004513, 35.514856], [-97.6002629, 35.5148577]]]}, "properties": {"osm_id": 325445994, "building": "commercial", "name": "", "height": null, "height_m": null, "levels": null, "tract_id": "40109106602", "tract_name": "1066.02", "tags": {"building": "commercial", "roof:shape": "gabled"}}}, {"type": "Feature", "geometry": {"type": "Polygon", "coordinates": [[[-97.5992259, 35.5148263], [-97.5992322, 35.5146325], [-97.5993874, 35.5146359], [-97.5993843, 35.5148263], [-97.5992259, 35.5148263]]]}, "properties": {"osm_id": 325446054, "building": "apartments", "name": "", "height": null, "height_m": 6.0, "levels": 2, "tract_id": "40109106602", "tract_name": "1066.02", "tags": {"building": "apartments", "building:levels": "2"}}}, {"type": "Feature", "geometry": {"type": "Polygon", "coordinates": [[[-97.5978194, 35.5135844], [-97.5978121, 35.513215], [-97.5979892, 35.5132174], [-97.5979878, 35.5135784], [-97.5978194, 35.5135844]]]}, "properties": {"osm_id": 325446069, "building": "apartments", "name": "", "height": null, "height_m": 6.0, "levels": 2, "tract_id": "40109106602", "tract_name": "1066.02", "tags": {"building": "apartments", "building:levels": "2"}}}, {"type": "Feature", "geometry": {"type": "Polygon", "coordinates": [[[-97.5979971, 35.5143859], [-97.5979846, 35.5138011], [-97.5978066, 35.5138062], [-97.5978128, 35.5143926], [-97.5979971, 35.5143859]]]}, "properties": {"osm_id": 325446111, "building": "apartments", "name": "", "height": null, "height_m": 6.0, "levels": 2, "tract_id": "40109106602", "tract_name": "1066.02", "tags": {"building": "apartments", "building:levels": "2"}}}, {"type": "Feature", "geometry": {"type": "Polygon", "coordinates": [[[-97.5981968, 35.5148383], [-97.5981978, 35.5148273], [-97.5982341, 35.5148265], [-97.5982382, 35.5146057], [-97.5980788, 35.5146023], [-97.5980736, 35.5148399], [-97.5981968, 35.5148383]]]}, "properties": {"osm_id": 325446138, "building": "apartments", "name": "", "height": null, "height_m": 6.0, "levels": 2, "tract_id": "40109106602", "tract_name": "1066.02", "tags": {"building": "apartments", "building:levels": "2"}}}, {"type": "Feature", "geometry": {"type": "Polygon", "coordinates": [[[-97.5985208, 35.5148121], [-97.5985312, 35.5146318], [-97.598704, 35.5146343], [-97.5986968, 35.5148231], [-97.5985581, 35.5148248], [-97.5985581, 35.5148121], [-97.5985208, 35.5148121]]]}, "properties": {"osm_id": 325446147, "building": "apartments", "name": "", "height": null, "height_m": 6.0, "levels": 2, "tract_id": "40109106602", "tract_name": "1066.02", "tags": {"building": "apartments", "building:levels": "2"}}}, {"type": "Feature", "geometry": {"type": "Polygon", "coordinates": [[[-97.5979349, 35.5148222], [-97.5979308, 35.5146293], [-97.59776, 35.514631], [-97.5977662, 35.5148172], [-97.5977962, 35.5148172], [-97.5977983, 35.5148315], [-97.597937, 35.5148315], [-97.5979349, 35.5148222]]]}, "properties": {"osm_id": 325446152, "building": "apartments", "name": "", "height": null, "height_m": 6.0, "levels": 2, "tract_id": "40109106602", "tract_name": "1066.02", "tags": {"building": "apartments", "building:levels": "2"}}}, {"type": "Feature", "geometry": {"type": "Polygon", "coordinates": [[[-97.5853866, 35.5221147], [-97.5853875, 35.5219788], [-97.5850087, 35.521977], [-97.5850095, 35.5218664], [-97.5848146, 35.5218654], [-97.5848128, 35.522112], [-97.5853866, 35.5221147]]]}, "properties": {"osm_id": 471351307, "building": "yes", "name": "", "height": null, "height_m": null, "levels": null, "tract_id": "40109106602", "tract_name": "1066.02", "tags": {"building": "yes"}}}, {"type": "Feature", "geometry": {"type": "Polygon", "coordinates": [[[-97.5839903, 35.5207273], [-97.5839896, 35.5205835], [-97.5836522, 35.5205846], [-97.583653, 35.5207285], [-97.5839903, 35.5207273]]]}, "properties": {"osm_id": 471351309, "building": "yes", "name": "", "height": null, "height_m": null, "levels": null, "tract_id": "40109106602", "tract_name": "1066.02", "tags": {"building": "yes"}}}, {"type": "Feature", "geometry": {"type": "Polygon", "coordinates": [[[-97.5846343, 35.5219896], [-97.5846309, 35.5218308], [-97.5842943, 35.5218356], [-97.5842977, 35.5219944], [-97.5846343, 35.5219896]]]}, "properties": {"osm_id": 472825272, "building": "yes", "name": "", "height": null, "height_m": null, "levels": null, "tract_id": "40109106602", "tract_name": "1066.02", "tags": {"building": "yes"}}}, {"type": "Feature", "geometry": {"type": "Polygon", "coordinates": [[[-97.6009248, 35.5218008], [-97.6009246, 35.5216951], [-97.6007937, 35.5216953], [-97.6007939, 35.5217742], [-97.6008261, 35.5217742], [-97.6008261, 35.5218009], [-97.6009248, 35.5218008]]]}, "properties": {"osm_id": 546735126, "building": "yes", "name": "Bunny's Onion Burgers", "height": null, "height_m": null, "levels": null, "tract_id": "40109106602", "tract_name": "1066.02", "tags": {"addr:city": "Oklahoma City", "addr:housenumber": "5020", "addr:state": "OK", "addr:street": "North Meridian Avenue", "amenity": "restaurant", "building": "yes", "cuisine": "burger", "delivery": "no", "name": "Bunny's Onion Burgers", "outdoor_seating": "no", "smoking": "no"}}}, {"type": "Feature", "geometry": {"type": "Polygon", "coordinates": [[[-97.6009241, 35.5216246], [-97.6009244, 35.5213978], [-97.6005702, 35.5213976], [-97.6005701, 35.5214499], [-97.6004889, 35.5214499], [-97.6004887, 35.5216242], [-97.6009241, 35.5216246]]]}, "properties": {"osm_id": 546735127, "building": "commercial", "name": "", "height": null, "height_m": null, "levels": null, "tract_id": "40109106602", "tract_name": "1066.02", "tags": {"building": "commercial"}}}, {"type": "Feature", "geometry": {"type": "Polygon", "coordinates": [[[-97.5894195, 35.5125105], [-97.5894187, 35.512202], [-97.5892873, 35.5122022], [-97.5892872, 35.5121742], [-97.5890679, 35.5121745], [-97.5890683, 35.5123435], [-97.5890234, 35.5123435], [-97.5889808, 35.5123436], [-97.5889809, 35.5124008], [-97.5890243, 35.5124007], [-97.5891011, 35.5124006], [-97.5891015, 35.5125682], [-97.5892861, 35.512568], [-97.589286, 35.5125504], [-97.5893587, 35.5125502], [-97.5893586, 35.5125106], [-97.5894195, 35.5125105]]]}, "properties": {"osm_id": 726952203, "building": "yes", "name": "", "height": null, "height_m": null, "levels": null, "tract_id": "40109106602", "tract_name": "1066.02", "tags": {"building": "yes"}}}, {"type": "Feature", "geometry": {"type": "Polygon", "coordinates": [[[-97.5875401, 35.5132426], [-97.5875401, 35.5131803], [-97.5874307, 35.5131803], [-97.5874307, 35.5132426], [-97.5875401, 35.5132426]]]}, "properties": {"osm_id": 726952204, "building": "yes", "name": "", "height": null, "height_m": null, "levels": null, "tract_id": "40109106602", "tract_name": "1066.02", "tags": {"building": "yes"}}}, {"type": "Feature", "geometry": {"type": "Polygon", "coordinates": [[[-97.5882997, 35.5132148], [-97.5881989, 35.5132618], [-97.5881155, 35.5131432], [-97.5880509, 35.5131733], [-97.5880517, 35.513341], [-97.5879535, 35.5133413], [-97.5879533, 35.5132945], [-97.5875915, 35.5132956], [-97.5875902, 35.5130149], [-97.5876238, 35.5130148], [-97.5876236, 35.5129794], [-97.5876691, 35.5129793], [-97.5876689, 35.5129469], [-97.5877261, 35.5129467], [-97.5877262, 35.5129651], [-97.5878728, 35.5129648], [-97.5878728, 35.5129537], [-97.587758, 35.512954], [-97.5877578, 35.5129032], [-97.5877577, 35.5128595], [-97.587934, 35.5128592], [-97.5879341, 35.5129032], [-97.5879342, 35.5129382], [-97.5879263, 35.5129382], [-97.5879264, 35.5129816], [-97.5879569, 35.5129816], [-97.5879569, 35.5129663], [-97.5880343, 35.5129662], [-97.5880613, 35.5130045], [-97.5881295, 35.5129727], [-97.5882997, 35.5132148]]]}, "properties": {"osm_id": 726952205, "building": "yes", "name": "", "height": null, "height_m": null, "levels": null, "tract_id": "40109106602", "tract_name": "1066.02", "tags": {"building": "yes"}}}, {"type": "Feature", "geometry": {"type": "Polygon", "coordinates": [[[-97.5859255, 35.5125716], [-97.5857714, 35.5125713], [-97.5857717, 35.5124186], [-97.5858492, 35.5124187], [-97.5859258, 35.5124188], [-97.5859255, 35.5125716]]]}, "properties": {"osm_id": 726952206, "building": "yes", "name": "", "height": null, "height_m": null, "levels": null, "tract_id": "40109106602", "tract_name": "1066.02", "tags": {"building": "yes"}}}, {"type": "Feature", "geometry": {"type": "Polygon", "coordinates": [[[-97.5886784, 35.5121475], [-97.5886594, 35.5121477], [-97.5886596, 35.5121603], [-97.5885825, 35.512161], [-97.5885823, 35.5121473], [-97.588578, 35.5121474], [-97.5885785, 35.5121828], [-97.588521, 35.5121834], [-97.5885204, 35.5121451], [-97.5884958, 35.5121453], [-97.5884953, 35.5121161], [-97.5885216, 35.5121158], [-97.5885211, 35.5120775], [-97.588574, 35.512077], [-97.5885745, 35.5121085], [-97.5885828, 35.5121084], [-97.5885827, 35.5121019], [-97.5886548, 35.5121012], [-97.588655, 35.5121116], [-97.5886779, 35.5121114], [-97.5886784, 35.5121475]]]}, "properties": {"osm_id": 726952221, "building": "yes", "name": "", "height": null, "height_m": null, "levels": null, "tract_id": "40109106602", "tract_name": "1066.02", "tags": {"building": "yes"}}}, {"type": "Feature", "geometry": {"type": "Polygon", "coordinates": [[[-97.5886469, 35.513002], [-97.5885727, 35.5130018], [-97.588573, 35.5128948], [-97.5886473, 35.512895], [-97.5886469, 35.513002]]]}, "properties": {"osm_id": 726952239, "building": "yes", "name": "", "height": null, "height_m": null, "levels": null, "tract_id": "40109106602", "tract_name": "1066.02", "tags": {"building": "yes"}}}, {"type": "Feature", "geometry": {"type": "Polygon", "coordinates": [[[-97.58841, 35.5221048], [-97.5883659, 35.5221067], [-97.5883667, 35.5220856], [-97.5882409, 35.5220882], [-97.588237, 35.5218776], [-97.5881048, 35.5218763], [-97.5881001, 35.5216747], [-97.588399, 35.521674], [-97.58841, 35.5221048]]]}, "properties": {"osm_id": 765228144, "building": "yes", "name": "Springdale Baptist Church", "height": null, "height_m": null, "levels": null, "tract_id": "40109106602", "tract_name": "1066.02", "tags": {"amenity": "place_of_worship", "building": "yes", "denomination": "baptist", "name": "Springdale Baptist Church", "religion": "christian"}}}, {"type": "Feature", "geometry": {"type": "Polygon", "coordinates": [[[-97.5888203, 35.5220567], [-97.5885487, 35.5220567], [-97.5885468, 35.5219145], [-97.5886835, 35.5219129], [-97.5886854, 35.5219345], [-97.5887215, 35.5219345], [-97.5887215, 35.521967], [-97.5888184, 35.521967], [-97.5888203, 35.5220567]]]}, "properties": {"osm_id": 765228146, "building": "yes", "name": "", "height": null, "height_m": null, "levels": null, "tract_id": "40109106602", "tract_name": "1066.02", "tags": {"building": "yes"}}}, {"type": "Feature", "geometry": {"type": "Polygon", "coordinates": [[[-97.5918336, 35.5220962], [-97.5917492, 35.5220962], [-97.5917492, 35.5220842], [-97.5916162, 35.5220825], [-97.5916162, 35.521885], [-97.5916394, 35.5218867], [-97.5916384, 35.5218601], [-97.5917492, 35.5218601], [-97.5917492, 35.5218841], [-97.5917734, 35.5218841], [-97.5917745, 35.5219811], [-97.5918325, 35.5219811], [-97.5918336, 35.5220962]]]}, "properties": {"osm_id": 765228147, "building": "yes", "name": "", "height": null, "height_m": null, "levels": null, "tract_id": "40109106602", "tract_name": "1066.02", "tags": {"amenity": "place_of_worship", "building": "yes", "religion": "christian"}}}, {"type": "Feature", "geometry": {"type": "Polygon", "coordinates": [[[-97.5946901, 35.513253], [-97.594675, 35.5138422], [-97.5947233, 35.513843], [-97.5947218, 35.5138998], [-97.5954645, 35.5139124], [-97.5954647, 35.5139027], [-97.5954915, 35.5139031], [-97.595508, 35.5132615], [-97.5952077, 35.5132564], [-97.5952099, 35.5131701], [-97.5949767, 35.5131662], [-97.5949743, 35.5132578], [-97.5946901, 35.513253]]]}, "properties": {"osm_id": 1251295399, "building": "yes", "name": "", "height": null, "height_m": null, "levels": null, "tract_id": "40109106602", "tract_name": "1066.02", "tags": {"building": "yes", "source": "microsoft/BuildingFootprints"}}}, {"type": "Feature", "geometry": {"type": "Polygon", "coordinates": [[[-97.5943179, 35.5186594], [-97.5940485, 35.5186643], [-97.5940587, 35.5190374], [-97.5939233, 35.5190399], [-97.5939125, 35.518644], [-97.5936229, 35.5186492], [-97.5936325, 35.5190006], [-97.5934569, 35.5190037], [-97.593452, 35.5188226], [-97.593397, 35.5188236], [-97.5933918, 35.5186338], [-97.5930996, 35.5186391], [-97.5931114, 35.5190698], [-97.5930363, 35.5190712], [-97.5930384, 35.5191475], [-97.593222, 35.5191442], [-97.5932229, 35.5191739], [-97.5930579, 35.5191769], [-97.5930623, 35.5193362], [-97.5932004, 35.5193337], [-97.5932017, 35.5193825], [-97.5933626, 35.5193796], [-97.5933616, 35.5193438], [-97.5934299, 35.5193426], [-97.5934326, 35.5194408], [-97.5937235, 35.5194355], [-97.5937173, 35.5192073], [-97.593976, 35.5192026], [-97.5939751, 35.519169], [-97.5940474, 35.5191677], [-97.594055, 35.519447], [-97.5943392, 35.5194418], [-97.5943179, 35.5186594]]]}, "properties": {"osm_id": 1251295422, "building": "yes", "name": "", "height": null, "height_m": null, "levels": null, "tract_id": "40109106602", "tract_name": "1066.02", "tags": {"building": "yes", "source": "microsoft/BuildingFootprints"}}}, {"type": "Feature", "geometry": {"type": "Polygon", "coordinates": [[[-97.599779, 35.5221311], [-97.5997128, 35.5221324], [-97.5997128, 35.5220998], [-97.5996219, 35.5221023], [-97.5996234, 35.5221123], [-97.5995772, 35.5221086], [-97.5995757, 35.5220045], [-97.5996527, 35.522002], [-97.5996558, 35.5218014], [-97.5996373, 35.5218052], [-97.5996126, 35.5217199], [-97.5996204, 35.5216998], [-97.5996465, 35.5216936], [-97.5996157, 35.5215281], [-97.5995757, 35.5215343], [-97.5995649, 35.5215105], [-97.5995595, 35.5215111], [-97.5995449, 35.5214362], [-97.5996737, 35.5214189], [-97.599675, 35.5214254], [-97.5997254, 35.5214189], [-97.5997772, 35.5217402], [-97.5997721, 35.5220272], [-97.5997803, 35.5220305], [-97.599779, 35.5221311]]]}, "properties": {"osm_id": 1445464007, "building": "yes", "name": "", "height": null, "height_m": null, "levels": null, "tract_id": "40109106602", "tract_name": "1066.02", "tags": {"building": "yes"}}}, {"type": "Feature", "geometry": {"type": "Polygon", "coordinates": [[[-97.5993579, 35.5220696], [-97.5993572, 35.5219675], [-97.5991205, 35.5219643], [-97.5991185, 35.52208], [-97.599197, 35.52208], [-97.5991983, 35.5220614], [-97.5992768, 35.5220603], [-97.5992768, 35.5220696], [-97.5993579, 35.5220696]]]}, "properties": {"osm_id": 1445464008, "building": "yes", "name": "Ipanema Tax Service", "height": null, "height_m": null, "levels": null, "tract_id": "40109106602", "tract_name": "1066.02", "tags": {"addr:city": "Oklahoma City", "addr:housenumber": "4410", "addr:postcode": "73112", "addr:state": "OK", "addr:street": "Nw 50th", "building": "yes", "name": "Ipanema Tax Service"}}}]}