{"type": "FeatureCollection", "features": [{"type": "Feature", "geometry": {"type": "Polygon", "coordinates": [[[-95.8888998, 36.0238045], [-95.888811, 36.0237836], [-95.8888259, 36.0237419], [-95.8887971, 36.0237351], [-95.8887944, 36.0237428], [-95.8887019, 36.0237211], [-95.8887095, 36.0236997], [-95.8886427, 36.023684], [-95.8886351, 36.0237052], [-95.8885425, 36.0236835], [-95.8885451, 36.0236765], [-95.8885189, 36.0236704], [-95.8885041, 36.0237116], [-95.8884156, 36.0236908], [-95.8884277, 36.0236572], [-95.8884088, 36.0236527], [-95.8884289, 36.0235968], [-95.8884465, 36.023601], [-95.8884544, 36.0235788], [-95.8884386, 36.0235751], [-95.8884528, 36.0235355], [-95.8884686, 36.0235392], [-95.888477, 36.0235157], [-95.8884588, 36.0235114], [-95.8884784, 36.023457], [-95.8884965, 36.0234612], [-95.8885089, 36.0234266], [-95.8885965, 36.0234472], [-95.8885821, 36.0234874], [-95.8886114, 36.0234943], [-95.8886144, 36.0234861], [-95.8887045, 36.0235073], [-95.8886963, 36.0235302], [-95.8887663, 36.0235467], [-95.8887747, 36.0235232], [-95.888863, 36.0235439], [-95.88886, 36.0235523], [-95.8888887, 36.023559], [-95.8889032, 36.0235187], [-95.8889901, 36.0235391], [-95.8889778, 36.0235734], [-95.8889964, 36.0235777], [-95.8889764, 36.0236335], [-95.8889598, 36.0236296], [-95.8889531, 36.0236484], [-95.8889673, 36.0236517], [-95.8889525, 36.0236931], [-95.8889382, 36.0236898], [-95.8889308, 36.0237106], [-95.8889449, 36.0237139], [-95.8889242, 36.0237717], [-95.8889125, 36.023769], [-95.8888998, 36.0238045]]]}, "properties": {"osm_id": 248774845, "building": "yes", "name": "", "height": null, "height_m": null, "levels": null, "tract_id": "40143007629", "tract_name": "76.29", "tags": {"addr:city": "Tusla", "addr:country": "US", "addr:housenumber": "7814", "addr:postcode": "74133", "addr:state": "OK", "addr:street": "East 97th Street", "building": "yes"}}}, {"type": "Feature", "geometry": {"type": "Polygon", "coordinates": [[[-95.9035655, 36.017636], [-95.9035655, 36.0177445], [-95.9036292, 36.0177445], [-95.9036292, 36.0178183], [-95.9037573, 36.0178183], [-95.9037573, 36.0178481], [-95.9037908, 36.0178785], [-95.9039008, 36.0178785], [-95.9039008, 36.0177038], [-95.9038847, 36.0177038], [-95.9038847, 36.017636], [-95.9035655, 36.017636]]]}, "properties": {"osm_id": 682192914, "building": "yes", "name": "Bank of Oklahoma", "height": null, "height_m": null, "levels": null, "tract_id": "40143007629", "tract_name": "76.29", "tags": {"amenity": "bank", "building": "yes", "name": "Bank of Oklahoma"}}}, {"type": "Feature", "geometry": {"type": "Polygon", "coordinates": [[[-95.9036487, 36.0313264], [-95.9037861, 36.031326], [-95.9037862, 36.0313378], [-95.9038068, 36.0313377], [-95.9038074, 36.0314765], [-95.9037868, 36.0314766], [-95.9037868, 36.0314898], [-95.9036493, 36.0314901], [-95.9036487, 36.0313264]]]}, "properties": {"osm_id": 691102917, "building": "yes", "name": "Mandarin Taste", "height": null, "height_m": null, "levels": null, "tract_id": "40143007629", "tract_name": "76.29", "tags": {"addr:housenumber": "9107", "addr:street": "South Sheridan Road", "amenity": "restaurant", "building": "yes", "cuisine": "chinese", "name": "Mandarin Taste"}}}, {"type": "Feature", "geometry": {"type": "Polygon", "coordinates": [[[-95.9033875, 36.0293915], [-95.9033878, 36.0294777], [-95.9023599, 36.0296263], [-95.9023605, 36.0295423], [-95.9033875, 36.0293915]]]}, "properties": {"osm_id": 691102927, "building": "yes", "name": "", "height": null, "height_m": null, "levels": null, "tract_id": "40143007629", "tract_name": "76.29", "tags": {"building": "yes"}}}, {"type": "Feature", "geometry": {"type": "Polygon", "coordinates": [[[-95.9033181, 36.0295705], [-95.9033865, 36.0295704], [-95.9033871, 36.0300938], [-95.9033188, 36.0300938], [-95.9033181, 36.0295705]]]}, "properties": {"osm_id": 691102928, "building": "yes", "name": "", "height": null, "height_m": null, "levels": null, "tract_id": "40143007629", "tract_name": "76.29", "tags": {"building": "yes"}}}, {"type": "Feature", "geometry": {"type": "Polygon", "coordinates": [[[-95.9031471, 36.0295997], [-95.9032142, 36.0295997], [-95.9032148, 36.0300938], [-95.9031477, 36.0300938], [-95.9031471, 36.0295997]]]}, "properties": {"osm_id": 691102929, "building": "yes", "name": "", "height": null, "height_m": null, "levels": null, "tract_id": "40143007629", "tract_name": "76.29", "tags": {"building": "yes"}}}, {"type": "Feature", "geometry": {"type": "Polygon", "coordinates": [[[-95.9029908, 36.0296269], [-95.9030593, 36.0296268], [-95.9030599, 36.0300927], [-95.9029915, 36.0300927], [-95.9029908, 36.0296269]]]}, "properties": {"osm_id": 691102930, "building": "yes", "name": "", "height": null, "height_m": null, "levels": null, "tract_id": "40143007629", "tract_name": "76.29", "tags": {"building": "yes"}}}, {"type": "Feature", "geometry": {"type": "Polygon", "coordinates": [[[-95.902783, 36.029654], [-95.9028883, 36.0296539], [-95.9028889, 36.0300932], [-95.9027836, 36.0300933], [-95.902783, 36.029654]]]}, "properties": {"osm_id": 691102931, "building": "yes", "name": "", "height": null, "height_m": null, "levels": null, "tract_id": "40143007629", "tract_name": "76.29", "tags": {"building": "yes"}}}, {"type": "Feature", "geometry": {"type": "Polygon", "coordinates": [[[-95.9033181, 36.0301762], [-95.9033861, 36.0301761], [-95.9033865, 36.0304256], [-95.9033184, 36.0304257], [-95.9033181, 36.0301762]]]}, "properties": {"osm_id": 691102932, "building": "yes", "name": "", "height": null, "height_m": null, "levels": null, "tract_id": "40143007629", "tract_name": "76.29", "tags": {"building": "yes"}}}, {"type": "Feature", "geometry": {"type": "Polygon", "coordinates": [[[-95.9031471, 36.0301773], [-95.9032165, 36.0301772], [-95.9032168, 36.0304527], [-95.9031474, 36.0304528], [-95.9031471, 36.0301773]]]}, "properties": {"osm_id": 691102933, "building": "yes", "name": "", "height": null, "height_m": null, "levels": null, "tract_id": "40143007629", "tract_name": "76.29", "tags": {"building": "yes"}}}, {"type": "Feature", "geometry": {"type": "Polygon", "coordinates": [[[-95.9029908, 36.0301773], [-95.9030594, 36.0301772], [-95.9030599, 36.0305466], [-95.9029913, 36.0305466], [-95.9029908, 36.0301773]]]}, "properties": {"osm_id": 691102934, "building": "yes", "name": "", "height": null, "height_m": null, "levels": null, "tract_id": "40143007629", "tract_name": "76.29", "tags": {"building": "yes"}}}, {"type": "Feature", "geometry": {"type": "Polygon", "coordinates": [[[-95.902785, 36.0301773], [-95.9028877, 36.0301772], [-95.9028883, 36.0306013], [-95.9027855, 36.0306014], [-95.902785, 36.0301773]]]}, "properties": {"osm_id": 691102935, "building": "yes", "name": "", "height": null, "height_m": null, "levels": null, "tract_id": "40143007629", "tract_name": "76.29", "tags": {"building": "yes"}}}, {"type": "Feature", "geometry": {"type": "Polygon", "coordinates": [[[-95.9025483, 36.0301767], [-95.9026838, 36.0301766], [-95.9026844, 36.0306583], [-95.9025489, 36.0306584], [-95.9025483, 36.0301767]]]}, "properties": {"osm_id": 691102936, "building": "yes", "name": "", "height": null, "height_m": null, "levels": null, "tract_id": "40143007629", "tract_name": "76.29", "tags": {"building": "yes"}}}, {"type": "Feature", "geometry": {"type": "Polygon", "coordinates": [[[-95.9025476, 36.0296946], [-95.9026846, 36.0296945], [-95.9026851, 36.0300921], [-95.9025481, 36.0300922], [-95.9025476, 36.0296946]]]}, "properties": {"osm_id": 691102937, "building": "yes", "name": "", "height": null, "height_m": null, "levels": null, "tract_id": "40143007629", "tract_name": "76.29", "tags": {"building": "yes"}}}, {"type": "Feature", "geometry": {"type": "Polygon", "coordinates": [[[-95.902447, 36.0307282], [-95.9023619, 36.0307283], [-95.9023605, 36.0297091], [-95.9024457, 36.029709], [-95.902447, 36.0307282]]]}, "properties": {"osm_id": 691102938, "building": "yes", "name": "", "height": null, "height_m": null, "levels": null, "tract_id": "40143007629", "tract_name": "76.29", "tags": {"building": "yes"}}}, {"type": "Feature", "geometry": {"type": "Polygon", "coordinates": [[[-95.9033818, 36.030629], [-95.9035776, 36.0305753], [-95.9035494, 36.0305091], [-95.903355, 36.0305628], [-95.9033818, 36.030629]]]}, "properties": {"osm_id": 691102941, "building": "yes", "name": "SecurCare Self Storage", "height": null, "height_m": null, "levels": null, "tract_id": "40143007629", "tract_name": "76.29", "tags": {"addr:city": "Tulsa", "addr:country": "US", "addr:housenumber": "9135", "addr:postcode": "74133", "addr:state": "OK", "addr:street": "South Sheridan Road", "brand": "SecurCare Self Storage", "brand:wikidata": "Q124821649", "building": "yes", "name": "SecurCare Self Storage", "opening_hours": "Mo-Fr 10:00-13:00,14:00-18:00; Sa 10:00-13:00,14:00-17:00", "shop": "storage_rental", "website": "https://securcareselfstorage.com/self-storage-locations/oklahoma/tulsa-ok-storage-units/9135-south-sheridan-road"}}}, {"type": "Feature", "geometry": {"type": "Polygon", "coordinates": [[[-95.9023612, 36.0309131], [-95.9023605, 36.0308372], [-95.903355, 36.0305628], [-95.9033818, 36.030629], [-95.9023612, 36.0309131]]]}, "properties": {"osm_id": 691102942, "building": "yes", "name": "", "height": null, "height_m": null, "levels": null, "tract_id": "40143007629", "tract_name": "76.29", "tags": {"building": "yes"}}}, {"type": "Feature", "geometry": {"type": "Polygon", "coordinates": [[[-95.8990219, 36.0260079], [-95.8988101, 36.0260002], [-95.8988023, 36.0261397], [-95.8988895, 36.0261429], [-95.8988914, 36.0261094], [-95.899016, 36.0261139], [-95.8990219, 36.0260079]]]}, "properties": {"osm_id": 722583150, "building": "yes", "name": "", "height": null, "height_m": null, "levels": null, "tract_id": "40143007629", "tract_name": "76.29", "tags": {"building": "yes"}}}, {"type": "Feature", "geometry": {"type": "Polygon", "coordinates": [[[-95.8993908, 36.026049], [-95.8992763, 36.0260434], [-95.8992768, 36.0260365], [-95.8992365, 36.0260345], [-95.8992374, 36.0260228], [-95.8991881, 36.0260204], [-95.8991782, 36.0261521], [-95.8992941, 36.0261577], [-95.8992988, 36.0260943], [-95.8993147, 36.0260951], [-95.8993133, 36.0261137], [-95.8993857, 36.0261173], [-95.8993908, 36.026049]]]}, "properties": {"osm_id": 722583151, "building": "yes", "name": "", "height": null, "height_m": null, "levels": null, "tract_id": "40143007629", "tract_name": "76.29", "tags": {"building": "yes"}}}, {"type": "Feature", "geometry": {"type": "Polygon", "coordinates": [[[-95.899686, 36.0260293], [-95.8995147, 36.0260298], [-95.8995148, 36.0260491], [-95.8994619, 36.0260493], [-95.8994625, 36.026159], [-95.8996077, 36.0261586], [-95.8996078, 36.0261649], [-95.8996867, 36.0261647], [-95.899686, 36.0260293]]]}, "properties": {"osm_id": 722583152, "building": "yes", "name": "", "height": null, "height_m": null, "levels": null, "tract_id": "40143007629", "tract_name": "76.29", "tags": {"building": "yes"}}}, {"type": "Feature", "geometry": {"type": "Polygon", "coordinates": [[[-95.8986356, 36.0259896], [-95.8986389, 36.0259596], [-95.8986691, 36.0259618], [-95.8986658, 36.0259917], [-95.8986356, 36.0259896]]]}, "properties": {"osm_id": 722583153, "building": "yes", "name": "", "height": null, "height_m": null, "levels": null, "tract_id": "40143007629", "tract_name": "76.29", "tags": {"building": "yes"}}}, {"type": "Feature", "geometry": {"type": "Polygon", "coordinates": [[[-95.8996123, 36.0268436], [-95.8995711, 36.0268453], [-95.8995698, 36.0268251], [-95.899611, 36.0268233], [-95.8996123, 36.0268436]]]}, "properties": {"osm_id": 722583154, "building": "yes", "name": "", "height": null, "height_m": null, "levels": null, "tract_id": "40143007629", "tract_name": "76.29", "tags": {"building": "yes"}}}, {"type": "Feature", "geometry": {"type": "Polygon", "coordinates": [[[-95.899391, 36.0270624], [-95.8992417, 36.0270637], [-95.8992405, 36.0269731], [-95.8992272, 36.0269732], [-95.8992269, 36.0269501], [-95.8992186, 36.0269502], [-95.8992177, 36.0268822], [-95.899379, 36.0268808], [-95.8993792, 36.0268958], [-95.8994222, 36.0268954], [-95.8994234, 36.0269833], [-95.8993899, 36.0269836], [-95.899391, 36.0270624]]]}, "properties": {"osm_id": 722583155, "building": "yes", "name": "", "height": null, "height_m": null, "levels": null, "tract_id": "40143007629", "tract_name": "76.29", "tags": {"building": "yes"}}}, {"type": "Feature", "geometry": {"type": "Polygon", "coordinates": [[[-95.8995264, 36.0266429], [-95.8994823, 36.0266422], [-95.8994818, 36.0266682], [-95.8995258, 36.0266688], [-95.8995264, 36.0266429]]]}, "properties": {"osm_id": 722583156, "building": "yes", "name": "", "height": null, "height_m": null, "levels": null, "tract_id": "40143007629", "tract_name": "76.29", "tags": {"building": "yes"}}}, {"type": "Feature", "geometry": {"type": "Polygon", "coordinates": [[[-95.8994002, 36.0266709], [-95.8992476, 36.0266699], [-95.8992468, 36.0267509], [-95.8992397, 36.0267508], [-95.8992395, 36.0267693], [-95.8992306, 36.0267692], [-95.8992299, 36.0268386], [-95.8993999, 36.0268396], [-95.8994001, 36.0268169], [-95.899454, 36.0268172], [-95.8994549, 36.0267318], [-95.8993996, 36.0267315], [-95.8994002, 36.0266709]]]}, "properties": {"osm_id": 722583157, "building": "yes", "name": "", "height": null, "height_m": null, "levels": null, "tract_id": "40143007629", "tract_name": "76.29", "tags": {"building": "yes"}}}, {"type": "Feature", "geometry": {"type": "Polygon", "coordinates": [[[-95.8992309, 36.0266272], [-95.8992368, 36.0264696], [-95.8992651, 36.0264703], [-95.8992668, 36.0264245], [-95.8994335, 36.0264285], [-95.8994285, 36.026563], [-95.8993913, 36.0265621], [-95.8993887, 36.0266311], [-95.8992309, 36.0266272]]]}, "properties": {"osm_id": 722583158, "building": "yes", "name": "", "height": null, "height_m": null, "levels": null, "tract_id": "40143007629", "tract_name": "76.29", "tags": {"building": "yes"}}}, {"type": "Feature", "geometry": {"type": "Polygon", "coordinates": [[[-95.8987425, 36.0266147], [-95.8987573, 36.0264153], [-95.8988999, 36.0264222], [-95.8988958, 36.0264775], [-95.8989106, 36.0264782], [-95.8989036, 36.026572], [-95.8988869, 36.0265712], [-95.8988832, 36.0266215], [-95.8987425, 36.0266147]]]}, "properties": {"osm_id": 722583159, "building": "yes", "name": "", "height": null, "height_m": null, "levels": null, "tract_id": "40143007629", "tract_name": "76.29", "tags": {"building": "yes"}}}, {"type": "Feature", "geometry": {"type": "Polygon", "coordinates": [[[-95.8987607, 36.0266594], [-95.8987576, 36.0268432], [-95.8988762, 36.0268445], [-95.8988773, 36.0267805], [-95.8988707, 36.0267805], [-95.8988709, 36.0267649], [-95.8988904, 36.0267652], [-95.8988916, 36.0266969], [-95.898871, 36.0266967], [-95.8988716, 36.0266606], [-95.8987607, 36.0266594]]]}, "properties": {"osm_id": 722583160, "building": "yes", "name": "", "height": null, "height_m": null, "levels": null, "tract_id": "40143007629", "tract_name": "76.29", "tags": {"building": "yes"}}}, {"type": "Feature", "geometry": {"type": "Polygon", "coordinates": [[[-95.8876555, 36.0185953], [-95.8875267, 36.0186915], [-95.8870435, 36.0186925], [-95.887043, 36.0185244], [-95.8876553, 36.0185232], [-95.8876555, 36.0185953]]]}, "properties": {"osm_id": 728090594, "building": "yes", "name": "Parkhill South", "height": null, "height_m": null, "levels": null, "tract_id": "40143007629", "tract_name": "76.29", "tags": {"addr:city": "Tulsa", "addr:country": "US", "addr:housenumber": "10018", "addr:postcode": "74133", "addr:state": "OK", "addr:street": "South Memorial Drive East", "building": "yes", "name": "Parkhill South", "shop": "alcohol"}}}, {"type": "Feature", "geometry": {"type": "Polygon", "coordinates": [[[-95.887288, 36.0189552], [-95.8872889, 36.0188785], [-95.8869991, 36.0188763], [-95.886998, 36.0189696], [-95.8872155, 36.0189713], [-95.8872157, 36.0189546], [-95.887288, 36.0189552]]]}, "properties": {"osm_id": 728090595, "building": "yes", "name": "Jack in the Box", "height": null, "height_m": null, "levels": null, "tract_id": "40143007629", "tract_name": "76.29", "tags": {"addr:city": "Tulsa", "addr:country": "US", "addr:housenumber": "10014", "addr:postcode": "74133", "addr:state": "OK", "addr:street": "South Memorial Drive East", "amenity": "fast_food", "brand": "Jack in the Box", "brand:wikidata": "Q1538507", "building": "yes", "cuisine": "burger", "name": "Jack in the Box", "outdoor_seating": "yes", "phone": "+1 918-298-4501", "takeaway": "yes", "website": "https://locations.jackinthebox.com/us/ok/tulsa/10014-s-memorial-dr-e"}}}, {"type": "Feature", "geometry": {"type": "Polygon", "coordinates": [[[-95.8874083, 36.0191876], [-95.88713, 36.0191879], [-95.8871301, 36.0192051], [-95.8870304, 36.0192052], [-95.8870305, 36.019308], [-95.8870485, 36.019308], [-95.8870486, 36.0193915], [-95.8871625, 36.0193915], [-95.8871625, 36.0194091], [-95.8872284, 36.019409], [-95.8872284, 36.0193906], [-95.8872717, 36.0193906], [-95.8872717, 36.0194083], [-95.8873572, 36.0194082], [-95.887357, 36.0192708], [-95.8874084, 36.0192708], [-95.8874083, 36.0191876]]]}, "properties": {"osm_id": 728090596, "building": "yes", "name": "Dental Depot", "height": null, "height_m": null, "levels": null, "tract_id": "40143007629", "tract_name": "76.29", "tags": {"addr:city": "Tulsa", "addr:housenumber": "10004", "addr:postcode": "74133", "addr:state": "OK", "addr:street": "South Memorial Drive East", "amenity": "dentist", "building": "yes", "healthcare": "dentist", "name": "Dental Depot", "phone": "+1 918 505 9237", "website": "https://dentaldepot.net/location/south-tulsa/"}}}, {"type": "Feature", "geometry": {"type": "Polygon", "coordinates": [[[-95.8878747, 36.0189508], [-95.8878743, 36.0190075], [-95.8878904, 36.0190075], [-95.8878896, 36.0191178], [-95.8878763, 36.0191177], [-95.8878757, 36.0191904], [-95.8878889, 36.0191905], [-95.8878878, 36.0193426], [-95.8878678, 36.0193425], [-95.8878674, 36.0193973], [-95.8881057, 36.0193985], [-95.8881076, 36.0191472], [-95.8880801, 36.0191471], [-95.8880816, 36.0189518], [-95.8878747, 36.0189508]]]}, "properties": {"osm_id": 728090597, "building": "yes", "name": "", "height": null, "height_m": null, "levels": null, "tract_id": "40143007629", "tract_name": "76.29", "tags": {"building": "yes"}}}, {"type": "Feature", "geometry": {"type": "Polygon", "coordinates": [[[-95.888004, 36.0212058], [-95.8879162, 36.0212062], [-95.8879155, 36.0211071], [-95.8880033, 36.0211067], [-95.888004, 36.0212058]]]}, "properties": {"osm_id": 824703950, "building": "yes", "name": "", "height": null, "height_m": null, "levels": null, "tract_id": "40143007629", "tract_name": "76.29", "tags": {"building": "yes"}}}, {"type": "Feature", "geometry": {"type": "Polygon", "coordinates": [[[-95.888004, 36.021593], [-95.88754, 36.0215952], [-95.8875394, 36.0215117], [-95.8872079, 36.0215132], [-95.8872058, 36.0212176], [-95.8873482, 36.0212169], [-95.887347, 36.021049], [-95.8875069, 36.0210482], [-95.8875078, 36.0211709], [-95.8877925, 36.0211696], [-95.8877935, 36.0213123], [-95.888002, 36.0213114], [-95.888004, 36.021593]]]}, "properties": {"osm_id": 824703951, "building": "retail", "name": "Nissan", "height": null, "height_m": null, "levels": null, "tract_id": "40143007629", "tract_name": "76.29", "tags": {"brand": "Nissan", "brand:wikidata": "Q20165", "building": "retail", "name": "Nissan", "shop": "car"}}}, {"type": "Feature", "geometry": {"type": "Polygon", "coordinates": [[[-95.8877278, 36.0203933], [-95.8875884, 36.0203935], [-95.8875882, 36.0202707], [-95.8873367, 36.0202709], [-95.8873369, 36.0203542], [-95.8871652, 36.0203544], [-95.887165, 36.0202708], [-95.8871014, 36.0202708], [-95.8871014, 36.0202439], [-95.8870429, 36.020244], [-95.8870426, 36.0200635], [-95.8873589, 36.0200632], [-95.8873589, 36.0200387], [-95.8874408, 36.0200387], [-95.8874406, 36.0199683], [-95.8876887, 36.0199681], [-95.8876889, 36.0201385], [-95.8877853, 36.0201385], [-95.8877855, 36.0202665], [-95.8877276, 36.0202665], [-95.8877278, 36.0203933]]]}, "properties": {"osm_id": 824703967, "building": "retail", "name": "Mazda", "height": null, "height_m": null, "levels": null, "tract_id": "40143007629", "tract_name": "76.29", "tags": {"addr:city": "Tulsa", "addr:country": "US", "addr:housenumber": "9902", "addr:postcode": "74133", "addr:state": "OK", "addr:street": "South Memorial Drive East", "brand": "Mazda", "brand:wikidata": "Q35996", "building": "retail", "name": "Mazda", "shop": "car"}}}, {"type": "Feature", "geometry": {"type": "Polygon", "coordinates": [[[-95.8887512, 36.0202382], [-95.8886685, 36.0202384], [-95.888668, 36.0200673], [-95.8886745, 36.0200673], [-95.8886744, 36.0200306], [-95.8887362, 36.0200304], [-95.8887361, 36.0200176], [-95.888828, 36.0200174], [-95.888828, 36.0200321], [-95.8888347, 36.0200321], [-95.8888353, 36.0202117], [-95.8887511, 36.0202118], [-95.8887512, 36.0202382]]]}, "properties": {"osm_id": 843608959, "building": "yes", "name": "", "height": null, "height_m": null, "levels": null, "tract_id": "40143007629", "tract_name": "76.29", "tags": {"building": "yes"}}}, {"type": "Feature", "geometry": {"type": "Polygon", "coordinates": [[[-95.8885738, 36.0202402], [-95.8884869, 36.0202402], [-95.8884868, 36.0201819], [-95.8884822, 36.0201819], [-95.8884821, 36.0200095], [-95.8885438, 36.0200094], [-95.8885438, 36.0200335], [-95.8885841, 36.0200335], [-95.888584, 36.0200107], [-95.8886365, 36.0200107], [-95.8886367, 36.0201599], [-95.8885798, 36.02016], [-95.8885798, 36.020183], [-95.8885738, 36.020183], [-95.8885738, 36.0202402]]]}, "properties": {"osm_id": 843608960, "building": "yes", "name": "", "height": null, "height_m": null, "levels": null, "tract_id": "40143007629", "tract_name": "76.29", "tags": {"building": "yes"}}}, {"type": "Feature", "geometry": {"type": "Polygon", "coordinates": [[[-95.8882687, 36.0203295], [-95.8882666, 36.0200945], [-95.8883216, 36.0200942], [-95.8883209, 36.0200168], [-95.8884116, 36.0200162], [-95.8884129, 36.0201648], [-95.8884457, 36.0201646], [-95.8884462, 36.0202217], [-95.8884038, 36.0202219], [-95.888404, 36.0202401], [-95.8883828, 36.0202402], [-95.8883836, 36.0203288], [-95.8882687, 36.0203295]]]}, "properties": {"osm_id": 843608961, "building": "yes", "name": "", "height": null, "height_m": null, "levels": null, "tract_id": "40143007629", "tract_name": "76.29", "tags": {"building": "yes"}}}, {"type": "Feature", "geometry": {"type": "Polygon", "coordinates": [[[-95.8885741, 36.0204825], [-95.888457, 36.0204827], [-95.888457, 36.020477], [-95.8882654, 36.0204774], [-95.888265, 36.0203582], [-95.8884906, 36.0203577], [-95.8884908, 36.0204126], [-95.8885739, 36.0204125], [-95.8885741, 36.0204825]]]}, "properties": {"osm_id": 843608965, "building": "yes", "name": "", "height": null, "height_m": null, "levels": null, "tract_id": "40143007629", "tract_name": "76.29", "tags": {"building": "yes"}}}, {"type": "Feature", "geometry": {"type": "Polygon", "coordinates": [[[-95.8885783, 36.0205034], [-95.8884778, 36.0205036], [-95.8884778, 36.0205097], [-95.8882926, 36.02051], [-95.8882928, 36.0206283], [-95.888435, 36.0206281], [-95.888435, 36.0206223], [-95.8884674, 36.0206223], [-95.8884675, 36.0206334], [-95.8885299, 36.0206333], [-95.8885298, 36.0205839], [-95.8885445, 36.0205839], [-95.8885445, 36.0205678], [-95.8885784, 36.0205677], [-95.8885783, 36.0205034]]]}, "properties": {"osm_id": 843608966, "building": "yes", "name": "", "height": null, "height_m": null, "levels": null, "tract_id": "40143007629", "tract_name": "76.29", "tags": {"building": "yes"}}}, {"type": "Feature", "geometry": {"type": "Polygon", "coordinates": [[[-95.8885803, 36.0207842], [-95.8882763, 36.0207839], [-95.8882764, 36.0206568], [-95.8885266, 36.020657], [-95.8885266, 36.0207019], [-95.8885433, 36.0207019], [-95.8885433, 36.0207196], [-95.8885803, 36.0207196], [-95.8885803, 36.0207842]]]}, "properties": {"osm_id": 843608967, "building": "yes", "name": "", "height": null, "height_m": null, "levels": null, "tract_id": "40143007629", "tract_name": "76.29", "tags": {"building": "yes"}}}, {"type": "Feature", "geometry": {"type": "Polygon", "coordinates": [[[-95.8871417, 36.0226094], [-95.8874018, 36.0226099], [-95.8874017, 36.0226528], [-95.8876496, 36.0226533], [-95.8876996, 36.0226534], [-95.8876997, 36.0226126], [-95.88779, 36.0226128], [-95.8877884, 36.0231235], [-95.8876651, 36.0231232], [-95.8872875, 36.0231224], [-95.8872879, 36.0230208], [-95.8871403, 36.0230205], [-95.8871417, 36.0226094]]]}, "properties": {"osm_id": 1009707949, "building": "yes", "name": "BMW", "height": null, "height_m": null, "levels": null, "tract_id": "40143007629", "tract_name": "76.29", "tags": {"addr:city": "Tulsa", "addr:country": "US", "addr:housenumber": "9702", "addr:postcode": "74133", "addr:state": "OK", "addr:street": "South Memorial Drive East", "branch": "Tulsa", "brand": "BMW", "brand:wikidata": "Q26678", "building": "yes", "name": "BMW", "shop": "car"}}}, {"type": "Feature", "geometry": {"type": "Polygon", "coordinates": [[[-95.8873335, 36.0239218], [-95.8870317, 36.0239218], [-95.8870317, 36.0238725], [-95.8870035, 36.0238725], [-95.8870035, 36.023796], [-95.8870317, 36.023796], [-95.8870317, 36.023738], [-95.8873335, 36.023738], [-95.8873335, 36.0237911], [-95.8874635, 36.0237911], [-95.8875058, 36.0237911], [-95.8875058, 36.0238719], [-95.8874643, 36.0238719], [-95.8873335, 36.0238719], [-95.8873335, 36.0239218]]]}, "properties": {"osm_id": 1009707950, "building": "yes", "name": "Spirit Bank", "height": null, "height_m": null, "levels": null, "tract_id": "40143007629", "tract_name": "76.29", "tags": {"addr:city": "Tulsa", "addr:country": "US", "addr:housenumber": "9618", "addr:postcode": "74133", "addr:state": "OK", "addr:street": "South Memorial Drive East", "amenity": "bank", "atm": "yes", "building": "yes", "name": "Spirit Bank"}}}, {"type": "Feature", "geometry": {"type": "Polygon", "coordinates": [[[-95.8871725, 36.0245146], [-95.8870436, 36.0245169], [-95.8870427, 36.0244836], [-95.8870177, 36.0244841], [-95.8870168, 36.0244538], [-95.8869956, 36.0244542], [-95.8869936, 36.0243832], [-95.8870149, 36.0243828], [-95.8870141, 36.0243518], [-95.8870391, 36.0243513], [-95.8870382, 36.02432], [-95.8871672, 36.0243177], [-95.887168, 36.0243497], [-95.887279, 36.0243477], [-95.8872827, 36.0244822], [-95.8871717, 36.0244842], [-95.8871725, 36.0245146]]]}, "properties": {"osm_id": 1009707952, "building": "yes", "name": "Memorial Creek", "height": null, "height_m": null, "levels": null, "tract_id": "40143007629", "tract_name": "76.29", "tags": {"building": "yes", "name": "Memorial Creek", "office": "estate_agent"}}}, {"type": "Feature", "geometry": {"type": "Polygon", "coordinates": [[[-95.8875695, 36.0264208], [-95.8875705, 36.0265824], [-95.8870314, 36.0265845], [-95.8870304, 36.026423], [-95.8875695, 36.0264208]]]}, "properties": {"osm_id": 1009707955, "building": "yes", "name": "Hibdon Tires Plus", "height": null, "height_m": null, "levels": null, "tract_id": "40143007629", "tract_name": "76.29", "tags": {"addr:city": "Tulsa", "addr:country": "US", "addr:housenumber": "9344", "addr:postcode": "74133", "addr:state": "OK", "addr:street": "South Memorial Drive East", "building": "yes", "check_date": "2025-03-21", "name": "Hibdon Tires Plus", "service": "repair;tyres", "shop": "car_repair"}}}, {"type": "Feature", "geometry": {"type": "Polygon", "coordinates": [[[-95.8876446, 36.0268037], [-95.8870558, 36.0268037], [-95.8870558, 36.0266507], [-95.8876446, 36.0266507], [-95.8876446, 36.0268037]]]}, "properties": {"osm_id": 1009707956, "building": "yes", "name": "Mill Creek Flooring Center", "height": null, "height_m": null, "levels": null, "tract_id": "40143007629", "tract_name": "76.29", "tags": {"addr:city": "Tulsa", "addr:country": "US", "addr:housenumber": "9342", "addr:postcode": "74133", "addr:state": "OK", "addr:street": "South Memorial Drive East", "building": "yes", "name": "Mill Creek Flooring Center", "shop": "flooring"}}}, {"type": "Feature", "geometry": {"type": "Polygon", "coordinates": [[[-95.8871283, 36.0272234], [-95.8871296, 36.0269642], [-95.8876241, 36.0269659], [-95.8876236, 36.0270508], [-95.8873545, 36.0270499], [-95.8873536, 36.0272242], [-95.8871283, 36.0272234]]]}, "properties": {"osm_id": 1009707957, "building": "yes", "name": "Woodland South Animal Hospital", "height": null, "height_m": null, "levels": null, "tract_id": "40143007629", "tract_name": "76.29", "tags": {"addr:city": "Tulsa", "addr:country": "US", "addr:housenumber": "9340", "addr:postcode": "74133", "addr:state": "OK", "addr:street": "South Memorial Drive East", "amenity": "veterinary", "building": "yes", "name": "Woodland South Animal Hospital"}}}, {"type": "Feature", "geometry": {"type": "Polygon", "coordinates": [[[-95.8876593, 36.0279425], [-95.8870438, 36.0279436], [-95.8870432, 36.0277364], [-95.8876588, 36.0277354], [-95.8876593, 36.0279425]]]}, "properties": {"osm_id": 1009707958, "building": "yes", "name": "Robertson Tire", "height": null, "height_m": null, "levels": null, "tract_id": "40143007629", "tract_name": "76.29", "tags": {"building": "yes", "name": "Robertson Tire", "service": "repair;tyres", "shop": "car_repair"}}}, {"type": "Feature", "geometry": {"type": "Polygon", "coordinates": [[[-95.8876486, 36.0298568], [-95.8874434, 36.0300249], [-95.8875239, 36.0302516], [-95.8877277, 36.0302038], [-95.887823, 36.0302266], [-95.8878337, 36.0302049], [-95.8880161, 36.0302429], [-95.8880644, 36.0300867], [-95.8886585, 36.0302038], [-95.8887148, 36.0300086], [-95.8882494, 36.0299153], [-95.888283, 36.0297939], [-95.8879423, 36.0297245], [-95.8879061, 36.0298449], [-95.8878203, 36.0298253], [-95.8878069, 36.0298644], [-95.8877385, 36.0299284], [-95.8876486, 36.0298568]]]}, "properties": {"osm_id": 1009707959, "building": "retail", "name": "Chevrolet", "height": null, "height_m": null, "levels": null, "tract_id": "40143007629", "tract_name": "76.29", "tags": {"addr:city": "Tulsa", "addr:country": "US", "addr:housenumber": "9146", "addr:postcode": "74133", "addr:state": "OK", "addr:street": "South Memorial Drive East", "brand": "Chevrolet", "brand:wikidata": "Q29570", "building": "retail", "name": "Chevrolet", "second_hand": "no", "shop": "car"}}}, {"type": "Feature", "geometry": {"type": "Polygon", "coordinates": [[[-95.8878511, 36.0289788], [-95.8878507, 36.029045], [-95.8876433, 36.0291434], [-95.8875952, 36.0291432], [-95.8875963, 36.0289777], [-95.8878511, 36.0289788]]]}, "properties": {"osm_id": 1009707960, "building": "retail", "name": "", "height": null, "height_m": null, "levels": null, "tract_id": "40143007629", "tract_name": "76.29", "tags": {"building": "retail", "shop": "yes"}}}, {"type": "Feature", "geometry": {"type": "Polygon", "coordinates": [[[-95.8880872, 36.0288698], [-95.8878335, 36.0288704], [-95.8878335, 36.0288557], [-95.8875881, 36.0288563], [-95.8875875, 36.0286985], [-95.8876909, 36.0286982], [-95.8876907, 36.0286429], [-95.8875873, 36.0286431], [-95.8875868, 36.0284864], [-95.8878322, 36.0284859], [-95.8878322, 36.0284745], [-95.8880858, 36.0284739], [-95.8880872, 36.0288698]]]}, "properties": {"osm_id": 1009707961, "building": "retail", "name": "South Pointe Chrysler Dodge Jeep RAM", "height": null, "height_m": null, "levels": null, "tract_id": "40143007629", "tract_name": "76.29", "tags": {"addr:city": "Tulsa", "addr:country": "US", "addr:housenumber": "9240", "addr:postcode": "74133", "addr:state": "OK", "addr:street": "South Memorial Drive East", "brand": "Chrysler;Dodge;Jeep", "building": "retail", "name": "South Pointe Chrysler Dodge Jeep RAM", "shop": "car"}}}, {"type": "Feature", "geometry": {"type": "Polygon", "coordinates": [[[-95.8871098, 36.0308806], [-95.8872235, 36.03104], [-95.8873469, 36.0309847], [-95.8874904, 36.0309836], [-95.8874917, 36.0309598], [-95.8877023, 36.0309576], [-95.8876982, 36.0307949], [-95.8880362, 36.030796], [-95.8880402, 36.0305878], [-95.8872798, 36.0305867], [-95.8871092, 36.0308311], [-95.8870916, 36.0308284], [-95.8870746, 36.0308332], [-95.8870629, 36.0308441], [-95.8870595, 36.0308584], [-95.8870654, 36.0308721], [-95.887079, 36.0308815], [-95.8870966, 36.0308843], [-95.8871098, 36.0308806]]]}, "properties": {"osm_id": 1009707962, "building": "retail", "name": "Honda", "height": null, "height_m": null, "levels": null, "tract_id": "40143007629", "tract_name": "76.29", "tags": {"brand": "Honda", "brand:wikidata": "Q9584", "building": "retail", "name": "Honda", "shop": "car"}}}, {"type": "Feature", "geometry": {"type": "Polygon", "coordinates": [[[-95.888004, 36.0179756], [-95.8879246, 36.0179756], [-95.8878766, 36.0179756], [-95.8878766, 36.0176024], [-95.8879088, 36.0176024], [-95.888004, 36.0176024], [-95.888004, 36.0179756]]]}, "properties": {"osm_id": 1009713538, "building": "yes", "name": "Launch Car Wash", "height": null, "height_m": null, "levels": null, "tract_id": "40143007629", "tract_name": "76.29", "tags": {"amenity": "car_wash", "automated": "yes", "building": "yes", "name": "Launch Car Wash", "self_service": "no"}}}, {"type": "Feature", "geometry": {"type": "Polygon", "coordinates": [[[-95.8890004, 36.0230319], [-95.8889854, 36.0230632], [-95.8890025, 36.0230685], [-95.8889756, 36.0231243], [-95.8889599, 36.0231194], [-95.8889505, 36.0231389], [-95.8889658, 36.0231437], [-95.8889462, 36.0231843], [-95.8889309, 36.0231795], [-95.8889208, 36.0232004], [-95.8889365, 36.0232053], [-95.8889107, 36.0232589], [-95.8888937, 36.0232535], [-95.8888775, 36.023287], [-95.8887951, 36.023261], [-95.8888135, 36.0232228], [-95.888784, 36.0232135], [-95.8887811, 36.0232194], [-95.8886922, 36.0231914], [-95.8887021, 36.0231708], [-95.8886394, 36.023151], [-95.8886295, 36.0231716], [-95.8885382, 36.0231428], [-95.8885411, 36.023137], [-95.888515, 36.0231287], [-95.8884966, 36.0231669], [-95.8884095, 36.0231395], [-95.8884251, 36.023107], [-95.8884089, 36.0231019], [-95.8884347, 36.0230486], [-95.8884528, 36.0230543], [-95.8884628, 36.0230335], [-95.8884451, 36.0230279], [-95.8884648, 36.0229871], [-95.8884824, 36.0229926], [-95.8884921, 36.0229725], [-95.888474, 36.0229668], [-95.8885007, 36.0229114], [-95.8885169, 36.0229165], [-95.8885324, 36.0228843], [-95.8886185, 36.0229115], [-95.8886, 36.0229499], [-95.8886251, 36.0229578], [-95.8886285, 36.0229507], [-95.888722, 36.0229801], [-95.8887127, 36.0229995], [-95.888774, 36.0230188], [-95.8887834, 36.0229995], [-95.8888745, 36.0230282], [-95.8888711, 36.0230354], [-95.8888962, 36.0230433], [-95.8889147, 36.0230048], [-95.8890004, 36.0230319]]]}, "properties": {"osm_id": 1009734480, "building": "yes", "name": "", "height": null, "height_m": null, "levels": null, "tract_id": "40143007629", "tract_name": "76.29", "tags": {"building": "yes"}}}, {"type": "Feature", "geometry": {"type": "Polygon", "coordinates": [[[-95.8891678, 36.0230553], [-95.8892237, 36.0230579], [-95.8892234, 36.0230625], [-95.8892704, 36.0230647], [-95.8892675, 36.0231056], [-95.8892918, 36.0231067], [-95.8892924, 36.0230986], [-95.88939, 36.0231031], [-95.8893886, 36.0231234], [-95.8894547, 36.0231264], [-95.8894561, 36.0231062], [-95.8895536, 36.0231107], [-95.889553, 36.0231188], [-95.889579, 36.02312], [-95.8895819, 36.023079], [-95.889624, 36.023081], [-95.8896244, 36.0230763], [-95.8896821, 36.023079], [-95.8896817, 36.0230842], [-95.889716, 36.0230857], [-95.8897143, 36.0231096], [-95.8897219, 36.0231099], [-95.8897185, 36.0231576], [-95.8896947, 36.0231565], [-95.8896934, 36.0231748], [-95.8896764, 36.023174], [-95.8896753, 36.0231905], [-95.8896842, 36.0231909], [-95.889681, 36.0232368], [-95.889672, 36.0232363], [-95.8896705, 36.0232586], [-95.8896875, 36.0232593], [-95.8896865, 36.0232734], [-95.8897103, 36.0232745], [-95.8897068, 36.023324], [-95.8896992, 36.0233237], [-95.8896976, 36.0233461], [-95.8896634, 36.0233445], [-95.8896632, 36.0233474], [-95.8896063, 36.0233448], [-95.8896066, 36.0233416], [-95.8895603, 36.0233395], [-95.8895635, 36.0232948], [-95.8895411, 36.0232937], [-95.8895404, 36.0233033], [-95.88944, 36.0232987], [-95.8894413, 36.0232798], [-95.8893777, 36.0232769], [-95.8893763, 36.0232957], [-95.8892755, 36.0232911], [-95.8892761, 36.0232815], [-95.8892544, 36.0232805], [-95.8892512, 36.0233252], [-95.8892052, 36.0233231], [-95.889205, 36.0233263], [-95.8891489, 36.0233237], [-95.8891493, 36.023318], [-95.8891171, 36.0233165], [-95.8891188, 36.0232935], [-95.8891082, 36.023293], [-95.8891115, 36.0232452], [-95.8891385, 36.0232465], [-95.8891396, 36.0232309], [-95.8891569, 36.0232317], [-95.8891584, 36.0232109], [-95.8891458, 36.0232103], [-95.889149, 36.0231653], [-95.8891616, 36.0231659], [-95.8891629, 36.0231471], [-95.8891456, 36.0231463], [-95.8891468, 36.0231296], [-95.8891198, 36.0231283], [-95.8891231, 36.0230816], [-95.8891337, 36.0230821], [-95.8891354, 36.023057], [-95.8891676, 36.0230585], [-95.8891678, 36.0230553]]]}, "properties": {"osm_id": 1009734481, "building": "yes", "name": "", "height": null, "height_m": null, "levels": null, "tract_id": "40143007629", "tract_name": "76.29", "tags": {"building": "yes"}}}, {"type": "Feature", "geometry": {"type": "Polygon", "coordinates": [[[-95.8904804, 36.023349], [-95.8904805, 36.0232748], [-95.8904277, 36.0232748], [-95.8904278, 36.023252], [-95.8904374, 36.0232521], [-95.8904375, 36.023175], [-95.8904119, 36.023175], [-95.890412, 36.0231181], [-95.8904376, 36.0231181], [-95.8904377, 36.0230405], [-95.8904281, 36.0230405], [-95.8904281, 36.0230172], [-95.8904809, 36.0230172], [-95.890481, 36.0229428], [-95.8904354, 36.0229428], [-95.8904355, 36.0229274], [-95.890366, 36.0229273], [-95.890366, 36.0229432], [-95.8903365, 36.0229432], [-95.8903365, 36.0229275], [-95.8902856, 36.0229275], [-95.8902856, 36.0229431], [-95.890257, 36.0229431], [-95.8902571, 36.0229272], [-95.8901873, 36.0229272], [-95.8901873, 36.0229425], [-95.890144, 36.0229425], [-95.8901439, 36.0230161], [-95.8901921, 36.0230162], [-95.890192, 36.0230405], [-95.8901829, 36.0230405], [-95.8901828, 36.0231165], [-95.8902122, 36.0231165], [-95.8902121, 36.0231745], [-95.8901827, 36.0231745], [-95.8901826, 36.0232515], [-95.8901917, 36.0232515], [-95.8901917, 36.0232754], [-95.8901435, 36.0232754], [-95.8901434, 36.0233487], [-95.8901867, 36.0233487], [-95.8901866, 36.0233652], [-95.8902581, 36.0233653], [-95.8902581, 36.0233491], [-95.8902856, 36.0233491], [-95.8902855, 36.0233635], [-95.8903392, 36.0233635], [-95.8903392, 36.0233492], [-95.8903637, 36.0233492], [-95.8903637, 36.0233654], [-95.8904354, 36.0233654], [-95.8904354, 36.023349], [-95.8904804, 36.023349]]]}, "properties": {"osm_id": 1009734482, "building": "yes", "name": "", "height": null, "height_m": null, "levels": null, "tract_id": "40143007629", "tract_name": "76.29", "tags": {"building": "yes"}}}, {"type": "Feature", "geometry": {"type": "Polygon", "coordinates": [[[-95.8904909, 36.0235358], [-95.890477, 36.0236079], [-95.890427, 36.0236016], [-95.8904223, 36.0236263], [-95.8904305, 36.0236273], [-95.8904161, 36.0237024], [-95.8903899, 36.0236991], [-95.890379, 36.0237555], [-95.8904053, 36.0237588], [-95.8903903, 36.0238366], [-95.8903821, 36.0238355], [-95.8903778, 36.0238579], [-95.8904278, 36.0238642], [-95.8904136, 36.0239378], [-95.8903709, 36.0239325], [-95.8903681, 36.0239468], [-95.8902961, 36.0239377], [-95.8902988, 36.0239236], [-95.8902726, 36.0239203], [-95.8902701, 36.0239331], [-95.8902164, 36.0239263], [-95.8902188, 36.0239136], [-95.8901951, 36.0239106], [-95.8901924, 36.0239247], [-95.8901194, 36.0239155], [-95.8901222, 36.0239012], [-95.8900802, 36.0238959], [-95.8900941, 36.0238236], [-95.890143, 36.0238297], [-95.8901479, 36.0238046], [-95.8901407, 36.0238037], [-95.8901555, 36.0237265], [-95.8901819, 36.0237298], [-95.8901925, 36.0236751], [-95.890166, 36.0236717], [-95.890181, 36.0235938], [-95.8901882, 36.0235947], [-95.8901927, 36.0235711], [-95.8901438, 36.023565], [-95.8901575, 36.0234939], [-95.8902018, 36.0234995], [-95.8902046, 36.0234846], [-95.8902727, 36.0234931], [-95.8902699, 36.0235076], [-95.8902957, 36.0235108], [-95.8902984, 36.0234968], [-95.8903535, 36.0235038], [-95.8903508, 36.0235177], [-95.8903791, 36.0235213], [-95.8903819, 36.0235069], [-95.890451, 36.0235155], [-95.8904481, 36.0235304], [-95.8904909, 36.0235358]]]}, "properties": {"osm_id": 1009734483, "building": "yes", "name": "", "height": null, "height_m": null, "levels": null, "tract_id": "40143007629", "tract_name": "76.29", "tags": {"building": "yes"}}}, {"type": "Feature", "geometry": {"type": "Polygon", "coordinates": [[[-95.8897045, 36.0229451], [-95.8895322, 36.0229445], [-95.8895325, 36.0228784], [-95.8897048, 36.0228789], [-95.8897045, 36.0229451]]]}, "properties": {"osm_id": 1009734487, "building": "yes", "name": "", "height": null, "height_m": null, "levels": null, "tract_id": "40143007629", "tract_name": "76.29", "tags": {"building": "yes"}}}, {"type": "Feature", "geometry": {"type": "Polygon", "coordinates": [[[-95.8899754, 36.0231604], [-95.8898936, 36.0231607], [-95.889893, 36.0230349], [-95.8899748, 36.0230346], [-95.8899754, 36.0231604]]]}, "properties": {"osm_id": 1009734495, "building": "yes", "name": "", "height": null, "height_m": null, "levels": null, "tract_id": "40143007629", "tract_name": "76.29", "tags": {"building": "yes"}}}, {"type": "Feature", "geometry": {"type": "Polygon", "coordinates": [[[-95.8898272, 36.0233128], [-95.8898286, 36.0231875], [-95.8899077, 36.0231881], [-95.8899063, 36.0233133], [-95.8898272, 36.0233128]]]}, "properties": {"osm_id": 1009734496, "building": "yes", "name": "", "height": null, "height_m": null, "levels": null, "tract_id": "40143007629", "tract_name": "76.29", "tags": {"building": "yes"}}}, {"type": "Feature", "geometry": {"type": "Polygon", "coordinates": [[[-95.8897327, 36.0234755], [-95.8897248, 36.0235602], [-95.8896175, 36.0235537], [-95.8896254, 36.023469], [-95.8897327, 36.0234755]]]}, "properties": {"osm_id": 1009734497, "building": "yes", "name": "", "height": null, "height_m": null, "levels": null, "tract_id": "40143007629", "tract_name": "76.29", "tags": {"building": "yes"}}}, {"type": "Feature", "geometry": {"type": "Polygon", "coordinates": [[[-95.8897568, 36.0238275], [-95.8897951, 36.0237054], [-95.8898722, 36.0237212], [-95.8898339, 36.0238432], [-95.8897568, 36.0238275]]]}, "properties": {"osm_id": 1009734498, "building": "yes", "name": "", "height": null, "height_m": null, "levels": null, "tract_id": "40143007629", "tract_name": "76.29", "tags": {"building": "yes"}}}, {"type": "Feature", "geometry": {"type": "Polygon", "coordinates": [[[-95.8897753, 36.0239826], [-95.8898534, 36.0239986], [-95.8898919, 36.0238754], [-95.8898138, 36.0238594], [-95.8897753, 36.0239826]]]}, "properties": {"osm_id": 1009734499, "building": "yes", "name": "", "height": null, "height_m": null, "levels": null, "tract_id": "40143007629", "tract_name": "76.29", "tags": {"building": "yes"}}}, {"type": "Feature", "geometry": {"type": "Polygon", "coordinates": [[[-95.8902376, 36.0244684], [-95.8902609, 36.0243973], [-95.8901919, 36.0243825], [-95.8901983, 36.0243629], [-95.8902135, 36.0243661], [-95.890239, 36.0242882], [-95.8902165, 36.0242834], [-95.8902332, 36.0242323], [-95.8902557, 36.0242371], [-95.8902818, 36.0241576], [-95.8902667, 36.0241544], [-95.8902736, 36.0241334], [-95.8903426, 36.0241482], [-95.8903652, 36.024079], [-95.8903174, 36.0240688], [-95.8903225, 36.0240533], [-95.8902556, 36.0240389], [-95.8902528, 36.0240474], [-95.8902238, 36.0240412], [-95.8902266, 36.0240328], [-95.8901728, 36.0240212], [-95.89017, 36.0240297], [-95.8901412, 36.0240235], [-95.890144, 36.024015], [-95.8900722, 36.0239996], [-95.8900671, 36.0240151], [-95.8900285, 36.0240068], [-95.8900057, 36.0240764], [-95.8900718, 36.0240906], [-95.8900647, 36.0241123], [-95.8900502, 36.0241092], [-95.8900251, 36.0241858], [-95.8900497, 36.0241911], [-95.8900325, 36.0242433], [-95.8900079, 36.0242381], [-95.8899821, 36.0243167], [-95.8899967, 36.0243199], [-95.8899898, 36.0243408], [-95.8899237, 36.0243266], [-95.8899009, 36.0243962], [-95.8899406, 36.0244048], [-95.8899356, 36.0244202], [-95.8900087, 36.0244358], [-95.8900116, 36.0244272], [-95.8900398, 36.0244333], [-95.8900373, 36.024441], [-95.8900923, 36.0244528], [-95.8900948, 36.0244451], [-95.8901238, 36.0244513], [-95.890121, 36.0244599], [-95.8901923, 36.0244752], [-95.8901974, 36.0244598], [-95.8902376, 36.0244684]]]}, "properties": {"osm_id": 1009734501, "building": "yes", "name": "", "height": null, "height_m": null, "levels": null, "tract_id": "40143007629", "tract_name": "76.29", "tags": {"building": "yes"}}}, {"type": "Feature", "geometry": {"type": "Polygon", "coordinates": [[[-95.8883453, 36.0234863], [-95.8883453, 36.0233605], [-95.8884251, 36.0233605], [-95.8884251, 36.0234863], [-95.8883453, 36.0234863]]]}, "properties": {"osm_id": 1009734508, "building": "yes", "name": "", "height": null, "height_m": null, "levels": null, "tract_id": "40143007629", "tract_name": "76.29", "tags": {"building": "yes"}}}, {"type": "Feature", "geometry": {"type": "Polygon", "coordinates": [[[-95.8895853, 36.0239107], [-95.8894979, 36.0239006], [-95.8895079, 36.023844], [-95.889481, 36.0238409], [-95.8894791, 36.0238517], [-95.8893793, 36.0238402], [-95.8893825, 36.0238217], [-95.8893189, 36.0238144], [-95.8893156, 36.0238329], [-95.8892167, 36.0238215], [-95.8892186, 36.0238107], [-95.8891933, 36.0238078], [-95.8891833, 36.0238645], [-95.8890937, 36.0238542], [-95.8890999, 36.0238188], [-95.8890809, 36.0238166], [-95.8890911, 36.0237586], [-95.8891016, 36.0237598], [-95.8891062, 36.0237338], [-95.8890957, 36.0237326], [-95.8891031, 36.0236904], [-95.8891136, 36.0236916], [-95.8891183, 36.0236652], [-95.8891078, 36.023664], [-95.8891178, 36.0236069], [-95.8891367, 36.023609], [-95.8891431, 36.0235728], [-95.8892313, 36.023583], [-95.8892213, 36.0236397], [-95.8892464, 36.0236426], [-95.8892486, 36.0236302], [-95.8893485, 36.0236417], [-95.8893451, 36.0236611], [-95.8894082, 36.0236683], [-95.8894116, 36.023649], [-95.8895105, 36.0236603], [-95.8895083, 36.0236727], [-95.8895345, 36.0236758], [-95.8895445, 36.023619], [-95.8896348, 36.0236294], [-95.8896288, 36.0236637], [-95.8896486, 36.023666], [-95.8896384, 36.0237239], [-95.8896283, 36.0237227], [-95.889624, 36.0237474], [-95.8896326, 36.0237484], [-95.8896247, 36.0237937], [-95.889616, 36.0237927], [-95.8896119, 36.0238161], [-95.889622, 36.0238172], [-95.8896116, 36.0238765], [-95.8895917, 36.0238742], [-95.8895853, 36.0239107]]]}, "properties": {"osm_id": 1009734509, "building": "yes", "name": "", "height": null, "height_m": null, "levels": null, "tract_id": "40143007629", "tract_name": "76.29", "tags": {"building": "yes"}}}, {"type": "Feature", "geometry": {"type": "Polygon", "coordinates": [[[-95.889091, 36.0240612], [-95.8889408, 36.0240319], [-95.8889601, 36.0239669], [-95.8891103, 36.0239962], [-95.889091, 36.0240612]]]}, "properties": {"osm_id": 1009734514, "building": "yes", "name": "", "height": null, "height_m": null, "levels": null, "tract_id": "40143007629", "tract_name": "76.29", "tags": {"building": "yes"}}}, {"type": "Feature", "geometry": {"type": "Polygon", "coordinates": [[[-95.8897067, 36.0241378], [-95.8897024, 36.0241619], [-95.8897097, 36.0241627], [-95.889701, 36.0242121], [-95.8896774, 36.0242094], [-95.8896747, 36.0242244], [-95.8896558, 36.0242222], [-95.8896525, 36.0242406], [-95.8896634, 36.0242418], [-95.8896553, 36.0242876], [-95.8896445, 36.0242863], [-95.8896413, 36.0243044], [-95.8896602, 36.0243066], [-95.8896574, 36.0243227], [-95.8896809, 36.0243254], [-95.8896723, 36.0243742], [-95.8896654, 36.0243734], [-95.8896612, 36.0243973], [-95.8895248, 36.0243815], [-95.8895326, 36.0243374], [-95.8895116, 36.024335], [-95.88951, 36.0243443], [-95.8894085, 36.0243325], [-95.8894118, 36.0243138], [-95.8893497, 36.0243066], [-95.8893464, 36.0243253], [-95.8892465, 36.0243138], [-95.8892481, 36.0243045], [-95.8892265, 36.024302], [-95.8892187, 36.0243464], [-95.8890829, 36.0243307], [-95.8890874, 36.0243053], [-95.8890796, 36.0243044], [-95.8890879, 36.0242579], [-95.8891121, 36.0242607], [-95.8891148, 36.0242449], [-95.889132, 36.0242469], [-95.8891358, 36.0242257], [-95.889124, 36.0242243], [-95.8891314, 36.0241825], [-95.8891427, 36.0241839], [-95.8891463, 36.0241636], [-95.8891283, 36.0241615], [-95.8891314, 36.0241435], [-95.8891065, 36.0241407], [-95.889115, 36.0240929], [-95.8891212, 36.0240936], [-95.8891252, 36.0240713], [-95.889263, 36.0240873], [-95.8892553, 36.0241308], [-95.8892775, 36.0241333], [-95.8892796, 36.0241213], [-95.8893792, 36.0241328], [-95.8893756, 36.0241532], [-95.8894405, 36.0241607], [-95.8894442, 36.02414], [-95.8895427, 36.0241514], [-95.8895405, 36.0241642], [-95.8895628, 36.0241668], [-95.8895707, 36.0241221], [-95.8897067, 36.0241378]]]}, "properties": {"osm_id": 1009734515, "building": "yes", "name": "", "height": null, "height_m": null, "levels": null, "tract_id": "40143007629", "tract_name": "76.29", "tags": {"building": "yes"}}}, {"type": "Feature", "geometry": {"type": "Polygon", "coordinates": [[[-95.8888902, 36.024034], [-95.8888819, 36.0240573], [-95.8888889, 36.0240589], [-95.8888718, 36.0241069], [-95.8888489, 36.0241015], [-95.8888437, 36.0241161], [-95.8888253, 36.0241118], [-95.8888189, 36.0241296], [-95.8888294, 36.0241321], [-95.8888135, 36.0241765], [-95.888803, 36.024174], [-95.8887967, 36.0241916], [-95.8888151, 36.0241959], [-95.8888095, 36.0242115], [-95.8888324, 36.0242169], [-95.8888155, 36.0242641], [-95.8888088, 36.0242626], [-95.8888004, 36.0242858], [-95.8886681, 36.0242548], [-95.8886834, 36.024212], [-95.8886631, 36.0242072], [-95.8886599, 36.0242162], [-95.8885614, 36.0241932], [-95.8885679, 36.024175], [-95.8885076, 36.0241609], [-95.8885011, 36.0241791], [-95.8884042, 36.0241564], [-95.8884074, 36.0241474], [-95.8883864, 36.0241425], [-95.888371, 36.0241855], [-95.8882393, 36.0241547], [-95.8882481, 36.02413], [-95.8882406, 36.0241283], [-95.8882567, 36.0240831], [-95.8882802, 36.0240886], [-95.8882857, 36.0240733], [-95.8883024, 36.0240772], [-95.8883097, 36.0240566], [-95.8882983, 36.024054], [-95.8883128, 36.0240134], [-95.8883238, 36.024016], [-95.8883308, 36.0239964], [-95.8883133, 36.0239923], [-95.8883196, 36.0239748], [-95.8882954, 36.0239691], [-95.888312, 36.0239228], [-95.8883181, 36.0239242], [-95.8883258, 36.0239026], [-95.8884595, 36.0239339], [-95.8884444, 36.0239761], [-95.8884659, 36.0239812], [-95.8884701, 36.0239694], [-95.8885668, 36.0239921], [-95.8885597, 36.0240119], [-95.8886227, 36.0240267], [-95.8886299, 36.0240065], [-95.8887255, 36.0240289], [-95.8887211, 36.0240414], [-95.8887427, 36.0240465], [-95.8887582, 36.0240031], [-95.8888902, 36.024034]]]}, "properties": {"osm_id": 1009734516, "building": "yes", "name": "", "height": null, "height_m": null, "levels": null, "tract_id": "40143007629", "tract_name": "76.29", "tags": {"building": "yes"}}}, {"type": "Feature", "geometry": {"type": "Polygon", "coordinates": [[[-95.8879343, 36.0236924], [-95.887772, 36.0236924], [-95.887772, 36.0236241], [-95.8879343, 36.0236241], [-95.8879343, 36.0236924]]]}, "properties": {"osm_id": 1009734522, "building": "yes", "name": "", "height": null, "height_m": null, "levels": null, "tract_id": "40143007629", "tract_name": "76.29", "tags": {"building": "yes"}}}, {"type": "Feature", "geometry": {"type": "Polygon", "coordinates": [[[-95.8885233, 36.0244424], [-95.8883721, 36.0244069], [-95.888395, 36.0243433], [-95.8885462, 36.0243788], [-95.8885233, 36.0244424]]]}, "properties": {"osm_id": 1009734524, "building": "yes", "name": "", "height": null, "height_m": null, "levels": null, "tract_id": "40143007629", "tract_name": "76.29", "tags": {"building": "yes"}}}, {"type": "Feature", "geometry": {"type": "Polygon", "coordinates": [[[-95.8880214, 36.0245151], [-95.8876137, 36.0245157], [-95.8876133, 36.0243178], [-95.888021, 36.0243172], [-95.8880214, 36.0245151]]]}, "properties": {"osm_id": 1009734525, "building": "yes", "name": "", "height": null, "height_m": null, "levels": null, "tract_id": "40143007629", "tract_name": "76.29", "tags": {"building": "yes"}}}, {"type": "Feature", "geometry": {"type": "Polygon", "coordinates": [[[-95.8880563, 36.0240444], [-95.8876506, 36.0240444], [-95.8876506, 36.0238486], [-95.8880563, 36.0238486], [-95.8880563, 36.0240444]]]}, "properties": {"osm_id": 1009734526, "building": "yes", "name": "", "height": null, "height_m": null, "levels": null, "tract_id": "40143007629", "tract_name": "76.29", "tags": {"building": "yes"}}}, {"type": "Feature", "geometry": {"type": "Polygon", "coordinates": [[[-95.8878668, 36.0276053], [-95.8877783, 36.0276064], [-95.8877796, 36.027678], [-95.8878681, 36.0276769], [-95.8878668, 36.0276053]]]}, "properties": {"osm_id": 1137487295, "building": "yes", "name": "", "height": null, "height_m": null, "levels": null, "tract_id": "40143007629", "tract_name": "76.29", "tags": {"building": "yes", "source": "microsoft/BuildingFootprints"}}}, {"type": "Feature", "geometry": {"type": "Polygon", "coordinates": [[[-95.8872483, 36.0273297], [-95.887251, 36.0274685], [-95.8870626, 36.0275168], [-95.887078, 36.0275585], [-95.8872623, 36.0275105], [-95.8872969, 36.0276077], [-95.8874354, 36.0275754], [-95.8874756, 36.027686], [-95.8876318, 36.0276453], [-95.8875581, 36.0274398], [-95.88755, 36.0274414], [-95.8875494, 36.0274116], [-95.88766, 36.0274132], [-95.8876607, 36.0273346], [-95.8872483, 36.0273297]]]}, "properties": {"osm_id": 1137487296, "building": "yes", "name": "", "height": null, "height_m": null, "levels": null, "tract_id": "40143007629", "tract_name": "76.29", "tags": {"building": "yes", "shop": "yes", "source": "microsoft/BuildingFootprints"}}}, {"type": "Feature", "geometry": {"type": "Polygon", "coordinates": [[[-95.9031154, 36.0176909], [-95.9025696, 36.017685], [-95.9025668, 36.0178597], [-95.9026539, 36.0178607], [-95.9026541, 36.0178477], [-95.9031127, 36.0178526], [-95.9031154, 36.0176909]]]}, "properties": {"osm_id": 1235074755, "building": "yes", "name": "", "height": null, "height_m": null, "levels": null, "tract_id": "40143007629", "tract_name": "76.29", "tags": {"building": "yes", "source": "microsoft/BuildingFootprints"}}}, {"type": "Feature", "geometry": {"type": "Polygon", "coordinates": [[[-95.9022285, 36.0177166], [-95.902423, 36.0181271], [-95.9025505, 36.0180876], [-95.9025823, 36.0181549], [-95.9023064, 36.0182404], [-95.9023736, 36.0183823], [-95.9028893, 36.0182224], [-95.9028117, 36.0180587], [-95.9026012, 36.0181239], [-95.9025573, 36.0180312], [-95.9025585, 36.0180309], [-95.9024796, 36.0178644], [-95.9025193, 36.0178521], [-95.9024768, 36.0177624], [-95.9025014, 36.0177548], [-95.902461, 36.0176696], [-95.902371, 36.0176976], [-95.9023606, 36.0176757], [-95.9022285, 36.0177166]]]}, "properties": {"osm_id": 1235074756, "building": "yes", "name": "", "height": null, "height_m": null, "levels": null, "tract_id": "40143007629", "tract_name": "76.29", "tags": {"building": "yes", "source": "microsoft/BuildingFootprints"}}}, {"type": "Feature", "geometry": {"type": "Polygon", "coordinates": [[[-95.9028641, 36.0179172], [-95.9028756, 36.0179876], [-95.902923, 36.0179825], [-95.9029787, 36.0183237], [-95.9031685, 36.0183034], [-95.9031292, 36.0180625], [-95.9031239, 36.018063], [-95.9031055, 36.01795], [-95.9030554, 36.0179554], [-95.903046, 36.0178978], [-95.9028641, 36.0179172]]]}, "properties": {"osm_id": 1235074757, "building": "yes", "name": "", "height": null, "height_m": null, "levels": null, "tract_id": "40143007629", "tract_name": "76.29", "tags": {"building": "yes", "source": "microsoft/BuildingFootprints"}}}, {"type": "Feature", "geometry": {"type": "Polygon", "coordinates": [[[-95.9033736, 36.0185524], [-95.903359, 36.0187067], [-95.9037243, 36.0187292], [-95.9037353, 36.0186128], [-95.9035341, 36.0186004], [-95.9035376, 36.0185625], [-95.9033736, 36.0185524]]]}, "properties": {"osm_id": 1235074758, "building": "yes", "name": "", "height": null, "height_m": null, "levels": null, "tract_id": "40143007629", "tract_name": "76.29", "tags": {"building": "yes", "source": "microsoft/BuildingFootprints"}}}, {"type": "Feature", "geometry": {"type": "Polygon", "coordinates": [[[-95.9031683, 36.018898], [-95.9037179, 36.0189366], [-95.9037339, 36.0187881], [-95.9032082, 36.0187511], [-95.9032012, 36.0188157], [-95.9031773, 36.018814], [-95.9031683, 36.018898]]]}, "properties": {"osm_id": 1235074759, "building": "yes", "name": "", "height": null, "height_m": null, "levels": null, "tract_id": "40143007629", "tract_name": "76.29", "tags": {"building": "yes", "source": "microsoft/BuildingFootprints"}}}, {"type": "Feature", "geometry": {"type": "Polygon", "coordinates": [[[-95.903107, 36.0188915], [-95.9030909, 36.0185926], [-95.903087, 36.0185928], [-95.9030829, 36.018517], [-95.903036, 36.0185186], [-95.9030328, 36.0184602], [-95.9028481, 36.0184667], [-95.9028517, 36.0185338], [-95.9028892, 36.0185325], [-95.902905, 36.0188248], [-95.9029023, 36.0188249], [-95.9029062, 36.0188985], [-95.903107, 36.0188915]]]}, "properties": {"osm_id": 1235074760, "building": "yes", "name": "", "height": null, "height_m": null, "levels": null, "tract_id": "40143007629", "tract_name": "76.29", "tags": {"building": "yes", "source": "microsoft/BuildingFootprints"}}}, {"type": "Feature", "geometry": {"type": "Polygon", "coordinates": [[[-95.9022862, 36.018771], [-95.902283, 36.0189315], [-95.9028354, 36.0189387], [-95.9028385, 36.0187838], [-95.9023758, 36.0187778], [-95.9023759, 36.0187722], [-95.9022862, 36.018771]]]}, "properties": {"osm_id": 1235074761, "building": "yes", "name": "", "height": null, "height_m": null, "levels": null, "tract_id": "40143007629", "tract_name": "76.29", "tags": {"building": "yes", "source": "microsoft/BuildingFootprints"}}}, {"type": "Feature", "geometry": {"type": "Polygon", "coordinates": [[[-95.9027024, 36.0183466], [-95.9023085, 36.0185471], [-95.9023363, 36.0185829], [-95.9022748, 36.0186142], [-95.9023704, 36.0187369], [-95.9024434, 36.0186998], [-95.9024271, 36.0186789], [-95.9025693, 36.0186065], [-95.902571, 36.0186087], [-95.9027008, 36.0185427], [-95.9026875, 36.0185256], [-95.9027326, 36.0185027], [-95.9027435, 36.0185166], [-95.9028098, 36.0184829], [-95.9027626, 36.0184223], [-95.9027616, 36.0184228], [-95.9027024, 36.0183466]]]}, "properties": {"osm_id": 1235074762, "building": "yes", "name": "", "height": null, "height_m": null, "levels": null, "tract_id": "40143007629", "tract_name": "76.29", "tags": {"building": "yes", "source": "microsoft/BuildingFootprints"}}}, {"type": "Feature", "geometry": {"type": "Polygon", "coordinates": [[[-95.9038, 36.018557], [-95.9038107, 36.0182763], [-95.9038056, 36.018274], [-95.9038054, 36.0182743], [-95.9038083, 36.0181971], [-95.9037681, 36.0181961], [-95.9037703, 36.0181376], [-95.9035948, 36.0181332], [-95.9035925, 36.0181944], [-95.9036136, 36.0182039], [-95.9036096, 36.0183093], [-95.9035345, 36.0183074], [-95.9035631, 36.0182658], [-95.9033736, 36.0181805], [-95.903152, 36.018503], [-95.9031714, 36.0185117], [-95.903131, 36.0185704], [-95.9032899, 36.0186419], [-95.9033275, 36.0185872], [-95.9033121, 36.0185803], [-95.9034465, 36.0183847], [-95.9034424, 36.0183829], [-95.9034788, 36.0183298], [-95.9035577, 36.0183653], [-95.9035833, 36.0183282], [-95.9036115, 36.0183289], [-95.9036065, 36.01846], [-95.9036363, 36.0184734], [-95.9036128, 36.0185077], [-95.9036111, 36.0185523], [-95.9038, 36.018557]]]}, "properties": {"osm_id": 1235074763, "building": "yes", "name": "", "height": null, "height_m": null, "levels": null, "tract_id": "40143007629", "tract_name": "76.29", "tags": {"building": "yes", "source": "microsoft/BuildingFootprints"}}}, {"type": "Feature", "geometry": {"type": "Polygon", "coordinates": [[[-95.8930559, 36.0233643], [-95.8930262, 36.0232354], [-95.8927913, 36.0232708], [-95.8927983, 36.0233011], [-95.8927516, 36.0233081], [-95.8927693, 36.0233847], [-95.8929637, 36.0233554], [-95.8929687, 36.0233774], [-95.8930559, 36.0233643]]]}, "properties": {"osm_id": 1235074839, "building": "yes", "name": "", "height": null, "height_m": null, "levels": null, "tract_id": "40143007629", "tract_name": "76.29", "tags": {"building": "yes", "source": "microsoft/BuildingFootprints"}}}, {"type": "Feature", "geometry": {"type": "Polygon", "coordinates": [[[-95.8940764, 36.0237418], [-95.8940039, 36.023645], [-95.8937881, 36.0237507], [-95.8938606, 36.0238475], [-95.8940764, 36.0237418]]]}, "properties": {"osm_id": 1235074840, "building": "yes", "name": "", "height": null, "height_m": null, "levels": null, "tract_id": "40143007629", "tract_name": "76.29", "tags": {"building": "yes", "source": "microsoft/BuildingFootprints"}}}, {"type": "Feature", "geometry": {"type": "Polygon", "coordinates": [[[-95.8941606, 36.0235742], [-95.8940332, 36.0236202], [-95.8940776, 36.0237007], [-95.8942051, 36.0236546], [-95.8941606, 36.0235742]]]}, "properties": {"osm_id": 1235074841, "building": "yes", "name": "", "height": null, "height_m": null, "levels": null, "tract_id": "40143007629", "tract_name": "76.29", "tags": {"building": "yes", "source": "microsoft/BuildingFootprints"}}}, {"type": "Feature", "geometry": {"type": "Polygon", "coordinates": [[[-95.8935898, 36.0238082], [-95.8935452, 36.023711], [-95.8935027, 36.0237238], [-95.8934808, 36.0236761], [-95.8932993, 36.0237306], [-95.8933659, 36.0238755], [-95.8935898, 36.0238082]]]}, "properties": {"osm_id": 1235074842, "building": "yes", "name": "", "height": null, "height_m": null, "levels": null, "tract_id": "40143007629", "tract_name": "76.29", "tags": {"building": "yes", "source": "microsoft/BuildingFootprints"}}}, {"type": "Feature", "geometry": {"type": "Polygon", "coordinates": [[[-95.8935406, 36.0240488], [-95.8935757, 36.0241265], [-95.8935076, 36.0242199], [-95.8936847, 36.0243044], [-95.8937432, 36.0242242], [-95.8937422, 36.0242219], [-95.8937707, 36.0241827], [-95.893681, 36.0241399], [-95.8936282, 36.0240229], [-95.8935406, 36.0240488]]]}, "properties": {"osm_id": 1235074843, "building": "yes", "name": "", "height": null, "height_m": null, "levels": null, "tract_id": "40143007629", "tract_name": "76.29", "tags": {"building": "yes", "source": "microsoft/BuildingFootprints"}}}, {"type": "Feature", "geometry": {"type": "Polygon", "coordinates": [[[-95.893546, 36.0244337], [-95.893623, 36.0243882], [-95.8934659, 36.0242141], [-95.8933189, 36.0243009], [-95.8934466, 36.0244424], [-95.8935166, 36.0244011], [-95.893546, 36.0244337]]]}, "properties": {"osm_id": 1235074844, "building": "yes", "name": "", "height": null, "height_m": null, "levels": null, "tract_id": "40143007629", "tract_name": "76.29", "tags": {"building": "yes", "source": "microsoft/BuildingFootprints"}}}, {"type": "Feature", "geometry": {"type": "Polygon", "coordinates": [[[-95.893068, 36.0242403], [-95.8930638, 36.0243986], [-95.8931132, 36.0243995], [-95.8931124, 36.0244298], [-95.8932453, 36.0244321], [-95.8932503, 36.0242435], [-95.893068, 36.0242403]]]}, "properties": {"osm_id": 1235074845, "building": "yes", "name": "", "height": null, "height_m": null, "levels": null, "tract_id": "40143007629", "tract_name": "76.29", "tags": {"building": "yes", "source": "microsoft/BuildingFootprints"}}}, {"type": "Feature", "geometry": {"type": "Polygon", "coordinates": [[[-95.893039, 36.0242162], [-95.8929398, 36.0242171], [-95.8929398, 36.0242182], [-95.8928567, 36.024219], [-95.8928593, 36.0244077], [-95.8929103, 36.0244072], [-95.8929106, 36.0244343], [-95.8930421, 36.0244331], [-95.893039, 36.0242162]]]}, "properties": {"osm_id": 1235074846, "building": "yes", "name": "", "height": null, "height_m": null, "levels": null, "tract_id": "40143007629", "tract_name": "76.29", "tags": {"building": "yes", "source": "microsoft/BuildingFootprints"}}}, {"type": "Feature", "geometry": {"type": "Polygon", "coordinates": [[[-95.8926509, 36.02422], [-95.8926488, 36.0243926], [-95.8927292, 36.0243932], [-95.8927287, 36.0244354], [-95.8928295, 36.0244362], [-95.8928321, 36.0242215], [-95.8926509, 36.02422]]]}, "properties": {"osm_id": 1235074847, "building": "yes", "name": "", "height": null, "height_m": null, "levels": null, "tract_id": "40143007629", "tract_name": "76.29", "tags": {"building": "yes", "source": "microsoft/BuildingFootprints"}}}, {"type": "Feature", "geometry": {"type": "Polygon", "coordinates": [[[-95.892623, 36.0244335], [-95.8926177, 36.0242188], [-95.8925373, 36.0242201], [-95.8925385, 36.0242678], [-95.8924446, 36.0242693], [-95.8924487, 36.0244363], [-95.892623, 36.0244335]]]}, "properties": {"osm_id": 1235074848, "building": "yes", "name": "", "height": null, "height_m": null, "levels": null, "tract_id": "40143007629", "tract_name": "76.29", "tags": {"building": "yes", "source": "microsoft/BuildingFootprints"}}}, {"type": "Feature", "geometry": {"type": "Polygon", "coordinates": [[[-95.8922291, 36.0244053], [-95.8924034, 36.0244077], [-95.8924072, 36.0242255], [-95.8922973, 36.024224], [-95.8922969, 36.0242392], [-95.8922326, 36.0242383], [-95.8922291, 36.0244053]]]}, "properties": {"osm_id": 1235074849, "building": "yes", "name": "", "height": null, "height_m": null, "levels": null, "tract_id": "40143007629", "tract_name": "76.29", "tags": {"building": "yes", "source": "microsoft/BuildingFootprints"}}}, {"type": "Feature", "geometry": {"type": "Polygon", "coordinates": [[[-95.8918085, 36.0244098], [-95.8918728, 36.0244104], [-95.8918726, 36.0244246], [-95.8919917, 36.0244258], [-95.8919944, 36.0242533], [-95.8918109, 36.0242514], [-95.8918085, 36.0244098]]]}, "properties": {"osm_id": 1235074850, "building": "yes", "name": "", "height": null, "height_m": null, "levels": null, "tract_id": "40143007629", "tract_name": "76.29", "tags": {"building": "yes", "source": "microsoft/BuildingFootprints"}}}, {"type": "Feature", "geometry": {"type": "Polygon", "coordinates": [[[-95.8914757, 36.0244345], [-95.8915711, 36.0244328], [-95.891566, 36.0242389], [-95.8914024, 36.0242418], [-95.8914066, 36.0243979], [-95.8914747, 36.0243967], [-95.8914757, 36.0244345]]]}, "properties": {"osm_id": 1235074851, "building": "yes", "name": "", "height": null, "height_m": null, "levels": null, "tract_id": "40143007629", "tract_name": "76.29", "tags": {"building": "yes", "source": "microsoft/BuildingFootprints"}}}, {"type": "Feature", "geometry": {"type": "Polygon", "coordinates": [[[-95.8911793, 36.0242763], [-95.8911757, 36.0244334], [-95.8913634, 36.0244362], [-95.891367, 36.0242792], [-95.8911793, 36.0242763]]]}, "properties": {"osm_id": 1235074852, "building": "yes", "name": "", "height": null, "height_m": null, "levels": null, "tract_id": "40143007629", "tract_name": "76.29", "tags": {"building": "yes", "source": "microsoft/BuildingFootprints"}}}, {"type": "Feature", "geometry": {"type": "Polygon", "coordinates": [[[-95.8911475, 36.0244298], [-95.8911509, 36.0242649], [-95.8909471, 36.0242623], [-95.8909437, 36.0244271], [-95.8911475, 36.0244298]]]}, "properties": {"osm_id": 1235074853, "building": "yes", "name": "", "height": null, "height_m": null, "levels": null, "tract_id": "40143007629", "tract_name": "76.29", "tags": {"building": "yes", "source": "microsoft/BuildingFootprints"}}}, {"type": "Feature", "geometry": {"type": "Polygon", "coordinates": [[[-95.8914631, 36.0237989], [-95.8913443, 36.0239044], [-95.8915247, 36.0240373], [-95.8915834, 36.0239851], [-95.8915379, 36.0239516], [-95.891598, 36.0238982], [-95.8914631, 36.0237989]]]}, "properties": {"osm_id": 1235074854, "building": "yes", "name": "", "height": null, "height_m": null, "levels": null, "tract_id": "40143007629", "tract_name": "76.29", "tags": {"building": "yes", "source": "microsoft/BuildingFootprints"}}}, {"type": "Feature", "geometry": {"type": "Polygon", "coordinates": [[[-95.8916196, 36.0238598], [-95.8916223, 36.0240333], [-95.8917913, 36.0240316], [-95.891788, 36.023819], [-95.8916914, 36.02382], [-95.891692, 36.023859], [-95.8916196, 36.0238598]]]}, "properties": {"osm_id": 1235074855, "building": "yes", "name": "", "height": null, "height_m": null, "levels": null, "tract_id": "40143007629", "tract_name": "76.29", "tags": {"building": "yes", "source": "microsoft/BuildingFootprints"}}}, {"type": "Feature", "geometry": {"type": "Polygon", "coordinates": [[[-95.8918101, 36.0236268], [-95.8915606, 36.0236268], [-95.8915606, 36.0236789], [-95.8915338, 36.0236789], [-95.8915338, 36.0237309], [-95.8915687, 36.0237309], [-95.8915687, 36.02377], [-95.8917779, 36.02377], [-95.8917779, 36.0237005], [-95.8918101, 36.0237005], [-95.8918101, 36.0236268]]]}, "properties": {"osm_id": 1235074856, "building": "yes", "name": "", "height": null, "height_m": null, "levels": null, "tract_id": "40143007629", "tract_name": "76.29", "tags": {"building": "yes", "source": "microsoft/BuildingFootprints"}}}, {"type": "Feature", "geometry": {"type": "Polygon", "coordinates": [[[-95.8915885, 36.0236094], [-95.891811, 36.0236059], [-95.8918077, 36.023464], [-95.8915851, 36.0234675], [-95.8915885, 36.0236094]]]}, "properties": {"osm_id": 1235074857, "building": "yes", "name": "", "height": null, "height_m": null, "levels": null, "tract_id": "40143007629", "tract_name": "76.29", "tags": {"building": "yes", "source": "microsoft/BuildingFootprints"}}}, {"type": "Feature", "geometry": {"type": "Polygon", "coordinates": [[[-95.8929497, 36.0238083], [-95.8929456, 36.0240284], [-95.8931241, 36.0240306], [-95.8931274, 36.0238549], [-95.8930507, 36.023854], [-95.8930516, 36.0238096], [-95.8929497, 36.0238083]]]}, "properties": {"osm_id": 1235074858, "building": "yes", "name": "", "height": null, "height_m": null, "levels": null, "tract_id": "40143007629", "tract_name": "76.29", "tags": {"building": "yes", "source": "microsoft/BuildingFootprints"}}}, {"type": "Feature", "geometry": {"type": "Polygon", "coordinates": [[[-95.8927246, 36.0240092], [-95.8928427, 36.0240096], [-95.8928428, 36.0239792], [-95.8929179, 36.0239795], [-95.8929185, 36.0238732], [-95.8929024, 36.0238731], [-95.8929026, 36.0238297], [-95.8928275, 36.0238295], [-95.8928276, 36.0238035], [-95.892774, 36.0238033], [-95.8927738, 36.0238315], [-95.8927256, 36.0238313], [-95.8927246, 36.0240092]]]}, "properties": {"osm_id": 1235074859, "building": "yes", "name": "", "height": null, "height_m": null, "levels": null, "tract_id": "40143007629", "tract_name": "76.29", "tags": {"building": "yes", "source": "microsoft/BuildingFootprints"}}}, {"type": "Feature", "geometry": {"type": "Polygon", "coordinates": [[[-95.8926928, 36.0240283], [-95.8926884, 36.0238428], [-95.8924927, 36.0238458], [-95.8924965, 36.0240084], [-95.8925797, 36.0240071], [-95.8925802, 36.02403], [-95.8926928, 36.0240283]]]}, "properties": {"osm_id": 1235074860, "building": "yes", "name": "", "height": null, "height_m": null, "levels": null, "tract_id": "40143007629", "tract_name": "76.29", "tags": {"building": "yes", "source": "microsoft/BuildingFootprints"}}}, {"type": "Feature", "geometry": {"type": "Polygon", "coordinates": [[[-95.8924356, 36.0238237], [-95.8922828, 36.0238254], [-95.8922863, 36.024025], [-95.8924392, 36.0240232], [-95.8924356, 36.0238237]]]}, "properties": {"osm_id": 1235074861, "building": "yes", "name": "", "height": null, "height_m": null, "levels": null, "tract_id": "40143007629", "tract_name": "76.29", "tags": {"building": "yes", "source": "microsoft/BuildingFootprints"}}}, {"type": "Feature", "geometry": {"type": "Polygon", "coordinates": [[[-95.8922303, 36.023802], [-95.8920383, 36.0238039], [-95.8920403, 36.0239374], [-95.8921357, 36.0239365], [-95.8921372, 36.0240329], [-95.8922337, 36.0240319], [-95.8922303, 36.023802]]]}, "properties": {"osm_id": 1235074862, "building": "yes", "name": "", "height": null, "height_m": null, "levels": null, "tract_id": "40143007629", "tract_name": "76.29", "tags": {"building": "yes", "source": "microsoft/BuildingFootprints"}}}, {"type": "Feature", "geometry": {"type": "Polygon", "coordinates": [[[-95.892274, 36.0235912], [-95.8920702, 36.0235895], [-95.8920695, 36.0236415], [-95.892048, 36.0236414], [-95.8920468, 36.0237325], [-95.8922721, 36.0237344], [-95.892274, 36.0235912]]]}, "properties": {"osm_id": 1235074863, "building": "yes", "name": "", "height": null, "height_m": null, "levels": null, "tract_id": "40143007629", "tract_name": "76.29", "tags": {"building": "yes", "source": "microsoft/BuildingFootprints"}}}, {"type": "Feature", "geometry": {"type": "Polygon", "coordinates": [[[-95.8922662, 36.0235369], [-95.8922652, 36.0234176], [-95.892056, 36.0234187], [-95.8920572, 36.023564], [-95.8921457, 36.0235636], [-95.8921455, 36.0235375], [-95.8922662, 36.0235369]]]}, "properties": {"osm_id": 1235074864, "building": "yes", "name": "", "height": null, "height_m": null, "levels": null, "tract_id": "40143007629", "tract_name": "76.29", "tags": {"building": "yes", "source": "microsoft/BuildingFootprints"}}}, {"type": "Feature", "geometry": {"type": "Polygon", "coordinates": [[[-95.8923471, 36.0232525], [-95.8921621, 36.0232551], [-95.8921635, 36.0233211], [-95.8920428, 36.0233228], [-95.8920444, 36.0234008], [-95.8923501, 36.0233967], [-95.8923471, 36.0232525]]]}, "properties": {"osm_id": 1235074865, "building": "yes", "name": "", "height": null, "height_m": null, "levels": null, "tract_id": "40143007629", "tract_name": "76.29", "tags": {"building": "yes", "source": "microsoft/BuildingFootprints"}}}, {"type": "Feature", "geometry": {"type": "Polygon", "coordinates": [[[-95.8920995, 36.023234], [-95.8922916, 36.0232349], [-95.8922926, 36.0230896], [-95.8920281, 36.0230883], [-95.8920277, 36.0231534], [-95.8921001, 36.0231537], [-95.8920995, 36.023234]]]}, "properties": {"osm_id": 1235074866, "building": "yes", "name": "", "height": null, "height_m": null, "levels": null, "tract_id": "40143007629", "tract_name": "76.29", "tags": {"building": "yes", "source": "microsoft/BuildingFootprints"}}}, {"type": "Feature", "geometry": {"type": "Polygon", "coordinates": [[[-95.892066, 36.0230638], [-95.892318, 36.02306], [-95.8923148, 36.0229181], [-95.8920627, 36.0229218], [-95.892066, 36.0230638]]]}, "properties": {"osm_id": 1235074867, "building": "yes", "name": "", "height": null, "height_m": null, "levels": null, "tract_id": "40143007629", "tract_name": "76.29", "tags": {"building": "yes", "source": "microsoft/BuildingFootprints"}}}, {"type": "Feature", "geometry": {"type": "Polygon", "coordinates": [[[-95.8934159, 36.0231358], [-95.8933898, 36.0231755], [-95.8935472, 36.0232434], [-95.8935957, 36.0231699], [-95.8935497, 36.02315], [-95.8935669, 36.0231239], [-95.8933643, 36.0230366], [-95.8933248, 36.0230965], [-95.8934159, 36.0231358]]]}, "properties": {"osm_id": 1235074868, "building": "yes", "name": "", "height": null, "height_m": null, "levels": null, "tract_id": "40143007629", "tract_name": "76.29", "tags": {"building": "yes", "source": "microsoft/BuildingFootprints"}}}, {"type": "Feature", "geometry": {"type": "Polygon", "coordinates": [[[-95.8941185, 36.0229311], [-95.8942216, 36.0229681], [-95.8942976, 36.0228294], [-95.8941488, 36.022776], [-95.8941141, 36.0228395], [-95.8941597, 36.0228559], [-95.8941185, 36.0229311]]]}, "properties": {"osm_id": 1235074869, "building": "yes", "name": "", "height": null, "height_m": null, "levels": null, "tract_id": "40143007629", "tract_name": "76.29", "tags": {"building": "yes", "source": "microsoft/BuildingFootprints"}}}, {"type": "Feature", "geometry": {"type": "Polygon", "coordinates": [[[-95.8933334, 36.0233283], [-95.8932394, 36.0233409], [-95.8932606, 36.0234443], [-95.8933546, 36.0234317], [-95.8933334, 36.0233283]]]}, "properties": {"osm_id": 1235074870, "building": "yes", "name": "", "height": null, "height_m": null, "levels": null, "tract_id": "40143007629", "tract_name": "76.29", "tags": {"building": "yes", "source": "microsoft/BuildingFootprints"}}}, {"type": "Feature", "geometry": {"type": "Polygon", "coordinates": [[[-95.8925459, 36.0222973], [-95.8926553, 36.0225456], [-95.8928552, 36.022488], [-95.8928251, 36.0224197], [-95.892741, 36.022444], [-95.8926616, 36.0222639], [-95.8925459, 36.0222973]]]}, "properties": {"osm_id": 1235074871, "building": "yes", "name": "", "height": null, "height_m": null, "levels": null, "tract_id": "40143007629", "tract_name": "76.29", "tags": {"building": "yes", "source": "microsoft/BuildingFootprints"}}}, {"type": "Feature", "geometry": {"type": "Polygon", "coordinates": [[[-95.8951822, 36.0218926], [-95.8950292, 36.0218075], [-95.8949403, 36.0219122], [-95.8950933, 36.0219972], [-95.8951822, 36.0218926]]]}, "properties": {"osm_id": 1235074872, "building": "yes", "name": "", "height": null, "height_m": null, "levels": null, "tract_id": "40143007629", "tract_name": "76.29", "tags": {"building": "yes", "source": "microsoft/BuildingFootprints"}}}, {"type": "Feature", "geometry": {"type": "Polygon", "coordinates": [[[-95.8946772, 36.0213727], [-95.8947705, 36.0213788], [-95.8947782, 36.0213023], [-95.8948352, 36.0213061], [-95.8948565, 36.0210927], [-95.8948315, 36.0210911], [-95.8948346, 36.0210598], [-95.8947664, 36.0210553], [-95.8947571, 36.021148], [-95.8947011, 36.0211443], [-95.8946947, 36.021209], [-95.8947453, 36.0212123], [-95.894738, 36.0212856], [-95.8946863, 36.0212822], [-95.8946772, 36.0213727]]]}, "properties": {"osm_id": 1235074873, "building": "yes", "name": "", "height": null, "height_m": null, "levels": null, "tract_id": "40143007629", "tract_name": "76.29", "tags": {"building": "yes", "source": "microsoft/BuildingFootprints"}}}, {"type": "Feature", "geometry": {"type": "Polygon", "coordinates": [[[-95.8949594, 36.0211101], [-95.8949577, 36.0212576], [-95.8950419, 36.0212582], [-95.8950436, 36.0211107], [-95.8949594, 36.0211101]]]}, "properties": {"osm_id": 1235074874, "building": "yes", "name": "", "height": null, "height_m": null, "levels": null, "tract_id": "40143007629", "tract_name": "76.29", "tags": {"building": "yes", "source": "microsoft/BuildingFootprints"}}}, {"type": "Feature", "geometry": {"type": "Polygon", "coordinates": [[[-95.8948611, 36.0222727], [-95.8949367, 36.0222952], [-95.8949523, 36.0222607], [-95.8948767, 36.0222383], [-95.8948611, 36.0222727]]]}, "properties": {"osm_id": 1235074875, "building": "yes", "name": "", "height": null, "height_m": null, "levels": null, "tract_id": "40143007629", "tract_name": "76.29", "tags": {"building": "yes", "source": "microsoft/BuildingFootprints"}}}, {"type": "Feature", "geometry": {"type": "Polygon", "coordinates": [[[-95.8952721, 36.0223854], [-95.8951621, 36.0223863], [-95.895163, 36.0224665], [-95.895273, 36.0224657], [-95.8952721, 36.0223854]]]}, "properties": {"osm_id": 1235074876, "building": "yes", "name": "", "height": null, "height_m": null, "levels": null, "tract_id": "40143007629", "tract_name": "76.29", "tags": {"building": "yes", "source": "microsoft/BuildingFootprints"}}}, {"type": "Feature", "geometry": {"type": "Polygon", "coordinates": [[[-95.8937337, 36.0208194], [-95.8937204, 36.0205682], [-95.8936064, 36.0205722], [-95.8936107, 36.0206534], [-95.8935801, 36.0206545], [-95.8935891, 36.0208244], [-95.8937337, 36.0208194]]]}, "properties": {"osm_id": 1235074877, "building": "yes", "name": "", "height": null, "height_m": null, "levels": null, "tract_id": "40143007629", "tract_name": "76.29", "tags": {"building": "yes", "source": "microsoft/BuildingFootprints"}}}, {"type": "Feature", "geometry": {"type": "Polygon", "coordinates": [[[-95.8936869, 36.0200335], [-95.893644, 36.020034], [-95.8936428, 36.0199668], [-95.8935666, 36.0199677], [-95.8935715, 36.020241], [-95.8937148, 36.0202393], [-95.8937132, 36.0201504], [-95.8936891, 36.0201506], [-95.8936869, 36.0200335]]]}, "properties": {"osm_id": 1235074878, "building": "yes", "name": "", "height": null, "height_m": null, "levels": null, "tract_id": "40143007629", "tract_name": "76.29", "tags": {"building": "yes", "source": "microsoft/BuildingFootprints"}}}, {"type": "Feature", "geometry": {"type": "Polygon", "coordinates": [[[-95.8935286, 36.0197905], [-95.893736, 36.0197841], [-95.8937287, 36.0196314], [-95.8937501, 36.0196307], [-95.8937475, 36.0195744], [-95.8935118, 36.0195818], [-95.8935154, 36.0196576], [-95.8936106, 36.0196546], [-95.8936119, 36.0196828], [-95.8936468, 36.0196817], [-95.8936479, 36.0197055], [-95.8935247, 36.0197093], [-95.8935286, 36.0197905]]]}, "properties": {"osm_id": 1235074879, "building": "yes", "name": "", "height": null, "height_m": null, "levels": null, "tract_id": "40143007629", "tract_name": "76.29", "tags": {"building": "yes", "source": "microsoft/BuildingFootprints"}}}, {"type": "Feature", "geometry": {"type": "Polygon", "coordinates": [[[-95.8937798, 36.0192661], [-95.8937422, 36.0192656], [-95.8937437, 36.0191854], [-95.8936364, 36.0191841], [-95.8936349, 36.0192709], [-95.8936054, 36.0192705], [-95.8936043, 36.0193269], [-95.8937786, 36.019329], [-95.8937798, 36.0192661]]]}, "properties": {"osm_id": 1235074880, "building": "yes", "name": "", "height": null, "height_m": null, "levels": null, "tract_id": "40143007629", "tract_name": "76.29", "tags": {"building": "yes", "source": "microsoft/BuildingFootprints"}}}, {"type": "Feature", "geometry": {"type": "Polygon", "coordinates": [[[-95.8936173, 36.0186047], [-95.8936233, 36.0188031], [-95.8937427, 36.0188007], [-95.8937399, 36.0187107], [-95.8937667, 36.0187102], [-95.8937655, 36.018669], [-95.893736, 36.0186696], [-95.893734, 36.0186024], [-95.8936173, 36.0186047]]]}, "properties": {"osm_id": 1235074881, "building": "yes", "name": "", "height": null, "height_m": null, "levels": null, "tract_id": "40143007629", "tract_name": "76.29", "tags": {"building": "yes", "source": "microsoft/BuildingFootprints"}}}, {"type": "Feature", "geometry": {"type": "Polygon", "coordinates": [[[-95.8924775, 36.0181821], [-95.8927027, 36.0181792], [-95.8927016, 36.0181206], [-95.8924763, 36.0181236], [-95.8924775, 36.0181821]]]}, "properties": {"osm_id": 1235074882, "building": "yes", "name": "", "height": null, "height_m": null, "levels": null, "tract_id": "40143007629", "tract_name": "76.29", "tags": {"building": "yes", "source": "microsoft/BuildingFootprints"}}}, {"type": "Feature", "geometry": {"type": "Polygon", "coordinates": [[[-95.8949537, 36.0187762], [-95.8947702, 36.0187704], [-95.8947594, 36.0189935], [-95.8948799, 36.0189973], [-95.8948876, 36.0188392], [-95.8949506, 36.0188412], [-95.8949537, 36.0187762]]]}, "properties": {"osm_id": 1235074883, "building": "yes", "name": "", "height": null, "height_m": null, "levels": null, "tract_id": "40143007629", "tract_name": "76.29", "tags": {"building": "yes", "source": "microsoft/BuildingFootprints"}}}, {"type": "Feature", "geometry": {"type": "Polygon", "coordinates": [[[-95.8946756, 36.0183567], [-95.8946694, 36.0186191], [-95.8947967, 36.0186211], [-95.8947986, 36.0185419], [-95.8948335, 36.0185424], [-95.894836, 36.018434], [-95.8947918, 36.0184333], [-95.8947936, 36.0183585], [-95.8946756, 36.0183567]]]}, "properties": {"osm_id": 1235074884, "building": "yes", "name": "", "height": null, "height_m": null, "levels": null, "tract_id": "40143007629", "tract_name": "76.29", "tags": {"building": "yes", "source": "microsoft/BuildingFootprints"}}}, {"type": "Feature", "geometry": {"type": "Polygon", "coordinates": [[[-95.8951308, 36.0182637], [-95.8951286, 36.0183776], [-95.8952586, 36.0183793], [-95.8952609, 36.0182653], [-95.8951308, 36.0182637]]]}, "properties": {"osm_id": 1235074885, "building": "yes", "name": "", "height": null, "height_m": null, "levels": null, "tract_id": "40143007629", "tract_name": "76.29", "tags": {"building": "yes", "source": "microsoft/BuildingFootprints"}}}, {"type": "Feature", "geometry": {"type": "Polygon", "coordinates": [[[-95.8951843, 36.0190061], [-95.8950771, 36.0190041], [-95.8950743, 36.0190973], [-95.8951815, 36.0190994], [-95.8951843, 36.0190061]]]}, "properties": {"osm_id": 1235074886, "building": "yes", "name": "", "height": null, "height_m": null, "levels": null, "tract_id": "40143007629", "tract_name": "76.29", "tags": {"building": "yes", "source": "microsoft/BuildingFootprints"}}}, {"type": "Feature", "geometry": {"type": "Polygon", "coordinates": [[[-95.894393, 36.0177786], [-95.8943172, 36.0179268], [-95.8945689, 36.0180112], [-95.8946448, 36.0178631], [-95.894393, 36.0177786]]]}, "properties": {"osm_id": 1235074887, "building": "yes", "name": "", "height": null, "height_m": null, "levels": null, "tract_id": "40143007629", "tract_name": "76.29", "tags": {"building": "yes", "source": "microsoft/BuildingFootprints"}}}, {"type": "Feature", "geometry": {"type": "Polygon", "coordinates": [[[-95.8953257, 36.0177735], [-95.8952742, 36.0176609], [-95.8948023, 36.0178021], [-95.8948543, 36.0179157], [-95.8949723, 36.0178804], [-95.8949832, 36.0179042], [-95.8950657, 36.0178795], [-95.8950544, 36.0178547], [-95.8953257, 36.0177735]]]}, "properties": {"osm_id": 1235074888, "building": "yes", "name": "", "height": null, "height_m": null, "levels": null, "tract_id": "40143007629", "tract_name": "76.29", "tags": {"building": "yes", "source": "microsoft/BuildingFootprints"}}}, {"type": "Feature", "geometry": {"type": "Polygon", "coordinates": [[[-95.8885095, 36.0269061], [-95.888495, 36.0270675], [-95.8890097, 36.0270975], [-95.8890241, 36.0269362], [-95.8885095, 36.0269061]]]}, "properties": {"osm_id": 1235075050, "building": "yes", "name": "", "height": null, "height_m": null, "levels": null, "tract_id": "40143007629", "tract_name": "76.29", "tags": {"building": "yes", "source": "microsoft/BuildingFootprints"}}}, {"type": "Feature", "geometry": {"type": "Polygon", "coordinates": [[[-95.888988, 36.0273282], [-95.8887474, 36.027317], [-95.8887514, 36.0272608], [-95.8885776, 36.0272527], [-95.8885741, 36.0273024], [-95.8885126, 36.0272996], [-95.8885029, 36.0274358], [-95.8884574, 36.0274337], [-95.8884499, 36.0275396], [-95.8884873, 36.0275414], [-95.8884744, 36.027723], [-95.888338, 36.0277166], [-95.8883263, 36.0278809], [-95.8885028, 36.0278891], [-95.8884953, 36.0279937], [-95.8889391, 36.0280144], [-95.888988, 36.0273282]]]}, "properties": {"osm_id": 1235075051, "building": "yes", "name": "", "height": null, "height_m": null, "levels": null, "tract_id": "40143007629", "tract_name": "76.29", "tags": {"building": "yes", "shop": "car", "source": "microsoft/BuildingFootprints"}}}, {"type": "Feature", "geometry": {"type": "Polygon", "coordinates": [[[-95.8891564, 36.0272517], [-95.8891296, 36.0276831], [-95.8892554, 36.0276882], [-95.8892821, 36.0272568], [-95.8891564, 36.0272517]]]}, "properties": {"osm_id": 1235075052, "building": "yes", "name": "", "height": null, "height_m": null, "levels": null, "tract_id": "40143007629", "tract_name": "76.29", "tags": {"building": "yes", "source": "microsoft/BuildingFootprints"}}}, {"type": "Feature", "geometry": {"type": "Polygon", "coordinates": [[[-95.8898906, 36.0287209], [-95.8898337, 36.0286347], [-95.8896187, 36.0287276], [-95.8895503, 36.0286239], [-95.889416, 36.0286819], [-95.8894791, 36.0287775], [-95.8894397, 36.0287946], [-95.8895011, 36.0288875], [-95.8895388, 36.0288712], [-95.8895791, 36.0289322], [-95.8897158, 36.0288731], [-95.8896764, 36.0288134], [-95.8898906, 36.0287209]]]}, "properties": {"osm_id": 1235075053, "building": "yes", "name": "Bill Knight Automotive", "height": null, "height_m": null, "levels": null, "tract_id": "40143007629", "tract_name": "76.29", "tags": {"building": "yes", "name": "Bill Knight Automotive", "shop": "yes", "source": "microsoft/BuildingFootprints"}}}, {"type": "Feature", "geometry": {"type": "Polygon", "coordinates": [[[-95.8882384, 36.028622], [-95.8882438, 36.0289408], [-95.888638, 36.0289365], [-95.8886345, 36.0287283], [-95.8885046, 36.0287297], [-95.8885027, 36.0286191], [-95.8882384, 36.028622]]]}, "properties": {"osm_id": 1235075054, "building": "yes", "name": "", "height": null, "height_m": null, "levels": null, "tract_id": "40143007629", "tract_name": "76.29", "tags": {"building": "yes", "source": "microsoft/BuildingFootprints"}}}, {"type": "Feature", "geometry": {"type": "Polygon", "coordinates": [[[-95.887428, 36.0284646], [-95.8873004, 36.0284641], [-95.8872979, 36.028858], [-95.8874254, 36.0288586], [-95.887428, 36.0284646]]]}, "properties": {"osm_id": 1235075055, "building": "yes", "name": "", "height": null, "height_m": null, "levels": null, "tract_id": "40143007629", "tract_name": "76.29", "tags": {"building": "yes", "source": "microsoft/BuildingFootprints"}}}, {"type": "Feature", "geometry": {"type": "Polygon", "coordinates": [[[-95.8870951, 36.0284645], [-95.8870989, 36.0288593], [-95.8872276, 36.0288585], [-95.8872239, 36.0284637], [-95.8870951, 36.0284645]]]}, "properties": {"osm_id": 1235075056, "building": "yes", "name": "", "height": null, "height_m": null, "levels": null, "tract_id": "40143007629", "tract_name": "76.29", "tags": {"building": "yes", "source": "microsoft/BuildingFootprints"}}}, {"type": "Feature", "geometry": {"type": "Polygon", "coordinates": [[[-95.8870998, 36.0288861], [-95.8870925, 36.0292907], [-95.8872185, 36.0292922], [-95.8872259, 36.0288876], [-95.8870998, 36.0288861]]]}, "properties": {"osm_id": 1235075057, "building": "yes", "name": "", "height": null, "height_m": null, "levels": null, "tract_id": "40143007629", "tract_name": "76.29", "tags": {"building": "yes", "source": "microsoft/BuildingFootprints"}}}, {"type": "Feature", "geometry": {"type": "Polygon", "coordinates": [[[-95.887297, 36.0288877], [-95.8872979, 36.0293614], [-95.8874267, 36.0293613], [-95.8874258, 36.0288875], [-95.887297, 36.0288877]]]}, "properties": {"osm_id": 1235075058, "building": "yes", "name": "", "height": null, "height_m": null, "levels": null, "tract_id": "40143007629", "tract_name": "76.29", "tags": {"building": "yes", "source": "microsoft/BuildingFootprints"}}}, {"type": "Feature", "geometry": {"type": "Polygon", "coordinates": [[[-95.8870247, 36.0284642], [-95.8869657, 36.028464], [-95.8869587, 36.0296115], [-95.8870177, 36.0296117], [-95.8870247, 36.0284642]]]}, "properties": {"osm_id": 1235075059, "building": "yes", "name": "", "height": null, "height_m": null, "levels": null, "tract_id": "40143007629", "tract_name": "76.29", "tags": {"building": "yes", "source": "microsoft/BuildingFootprints"}}}, {"type": "Feature", "geometry": {"type": "Polygon", "coordinates": [[[-95.8870981, 36.0295392], [-95.8872268, 36.0295372], [-95.8872216, 36.029316], [-95.8870929, 36.029318], [-95.8870981, 36.0295392]]]}, "properties": {"osm_id": 1235075060, "building": "yes", "name": "", "height": null, "height_m": null, "levels": null, "tract_id": "40143007629", "tract_name": "76.29", "tags": {"building": "yes", "source": "microsoft/BuildingFootprints"}}}, {"type": "Feature", "geometry": {"type": "Polygon", "coordinates": [[[-95.8884542, 36.0309089], [-95.8882121, 36.0309084], [-95.8882047, 36.0309202], [-95.8882046, 36.0309678], [-95.8880008, 36.0309674], [-95.8880003, 36.0311171], [-95.8879735, 36.031117], [-95.8879733, 36.0311797], [-95.8878983, 36.0313002], [-95.8880133, 36.031347], [-95.8883284, 36.0313476], [-95.8883945, 36.0312414], [-95.8884294, 36.0312415], [-95.8884534, 36.0312029], [-95.8884542, 36.0309089]]]}, "properties": {"osm_id": 1235075062, "building": "yes", "name": "", "height": null, "height_m": null, "levels": null, "tract_id": "40143007629", "tract_name": "76.29", "tags": {"building": "yes", "source": "microsoft/BuildingFootprints"}}}, {"type": "Feature", "geometry": {"type": "Polygon", "coordinates": [[[-95.8886362, 36.0310459], [-95.8887005, 36.0310461], [-95.8887029, 36.0305985], [-95.8886386, 36.0305983], [-95.8886362, 36.0310459]]]}, "properties": {"osm_id": 1235075063, "building": "yes", "name": "", "height": null, "height_m": null, "levels": null, "tract_id": "40143007629", "tract_name": "76.29", "tags": {"building": "yes", "source": "microsoft/BuildingFootprints"}}}, {"type": "Feature", "geometry": {"type": "Polygon", "coordinates": [[[-95.8891043, 36.0305354], [-95.8887021, 36.03053], [-95.8887011, 36.0305799], [-95.8891033, 36.0305852], [-95.8891043, 36.0305354]]]}, "properties": {"osm_id": 1235075064, "building": "yes", "name": "", "height": null, "height_m": null, "levels": null, "tract_id": "40143007629", "tract_name": "76.29", "tags": {"building": "yes", "source": "microsoft/BuildingFootprints"}}}, {"type": "Feature", "geometry": {"type": "Polygon", "coordinates": [[[-95.8885595, 36.0295573], [-95.8885587, 36.0296831], [-95.888638, 36.0296835], [-95.8886364, 36.029925], [-95.8889394, 36.0299264], [-95.88894, 36.0298432], [-95.8889186, 36.0298431], [-95.8889195, 36.0297129], [-95.8889393, 36.029713], [-95.8889404, 36.029559], [-95.8885595, 36.0295573]]]}, "properties": {"osm_id": 1235075065, "building": "retail", "name": "", "height": null, "height_m": null, "levels": null, "tract_id": "40143007629", "tract_name": "76.29", "tags": {"building": "retail", "second_hand": "only", "shop": "car", "source": "microsoft/BuildingFootprints"}}}, {"type": "Feature", "geometry": {"type": "Polygon", "coordinates": [[[-95.8896475, 36.0297663], [-95.8896481, 36.0298692], [-95.8896486, 36.0299681], [-95.8897479, 36.0299677], [-95.889748, 36.0299904], [-95.8897483, 36.03004], [-95.8897484, 36.0300697], [-95.8899549, 36.0300689], [-95.8899548, 36.03004], [-95.8899545, 36.0299924], [-95.8899544, 36.029967], [-95.8900617, 36.0299666], [-95.8900612, 36.029874], [-95.8900604, 36.0297367], [-95.8897493, 36.0297378], [-95.8897495, 36.029766], [-95.8896475, 36.0297663]]]}, "properties": {"osm_id": 1235075066, "building": "industrial", "name": "", "height": null, "height_m": null, "levels": null, "tract_id": "40143007629", "tract_name": "76.29", "tags": {"building": "industrial", "shop": "yes", "source": "microsoft/BuildingFootprints"}}}, {"type": "Feature", "geometry": {"type": "Polygon", "coordinates": [[[-95.8897893, 36.0310428], [-95.8898758, 36.0312945], [-95.8899107, 36.0312867], [-95.8899185, 36.0313096], [-95.8900804, 36.0312736], [-95.8900725, 36.0312506], [-95.8901062, 36.0312431], [-95.8900722, 36.0311448], [-95.8902965, 36.0310943], [-95.8902877, 36.0310691], [-95.8903155, 36.0310627], [-95.8902792, 36.0309587], [-95.8902514, 36.030965], [-95.8902431, 36.0309411], [-95.8897893, 36.0310428]]]}, "properties": {"osm_id": 1235075067, "building": "office", "name": "", "height": null, "height_m": null, "levels": null, "tract_id": "40143007629", "tract_name": "76.29", "tags": {"building": "office", "source": "microsoft/BuildingFootprints"}}}, {"type": "Feature", "geometry": {"type": "Polygon", "coordinates": [[[-95.8898979, 36.0313596], [-95.8898976, 36.0313871], [-95.8898709, 36.0313869], [-95.8898697, 36.0314997], [-95.8898965, 36.0314999], [-95.8898962, 36.0315266], [-95.8901243, 36.0315281], [-95.8903709, 36.0315297], [-95.8903712, 36.0314988], [-95.89039, 36.0314989], [-95.8903912, 36.0313883], [-95.8903723, 36.0313882], [-95.8903726, 36.0313627], [-95.8898979, 36.0313596]]]}, "properties": {"osm_id": 1235075068, "building": "office", "name": "", "height": null, "height_m": null, "levels": null, "tract_id": "40143007629", "tract_name": "76.29", "tags": {"building": "office", "source": "microsoft/BuildingFootprints"}}}, {"type": "Feature", "geometry": {"type": "Polygon", "coordinates": [[[-95.8907126, 36.0312117], [-95.8909432, 36.0312128], [-95.8909451, 36.0309454], [-95.8907145, 36.0309444], [-95.8907126, 36.0312117]]]}, "properties": {"osm_id": 1235075069, "building": "yes", "name": "", "height": null, "height_m": null, "levels": null, "tract_id": "40143007629", "tract_name": "76.29", "tags": {"building": "yes", "source": "microsoft/BuildingFootprints"}}}, {"type": "Feature", "geometry": {"type": "Polygon", "coordinates": [[[-95.8914519, 36.0311013], [-95.8914422, 36.031521], [-95.8918132, 36.0315266], [-95.8918184, 36.031302], [-95.8916807, 36.0312999], [-95.891679, 36.0313715], [-95.8915986, 36.0313703], [-95.8916002, 36.0313], [-95.8915717, 36.0312995], [-95.8915761, 36.0311031], [-95.8914519, 36.0311013]]]}, "properties": {"osm_id": 1235075070, "building": "yes", "name": "", "height": null, "height_m": null, "levels": null, "tract_id": "40143007629", "tract_name": "76.29", "tags": {"building": "yes", "source": "microsoft/BuildingFootprints"}}}, {"type": "Feature", "geometry": {"type": "Polygon", "coordinates": [[[-95.8923526, 36.0314514], [-95.8923546, 36.0312432], [-95.8923019, 36.0312429], [-95.8923023, 36.0312072], [-95.8920626, 36.0312057], [-95.8920622, 36.0312425], [-95.8920122, 36.0312422], [-95.8920102, 36.0314504], [-95.8921031, 36.031451], [-95.8921025, 36.0315139], [-95.8922795, 36.031515], [-95.8922802, 36.031451], [-95.8923526, 36.0314514]]]}, "properties": {"osm_id": 1235075071, "building": "yes", "name": "", "height": null, "height_m": null, "levels": null, "tract_id": "40143007629", "tract_name": "76.29", "tags": {"building": "yes", "source": "microsoft/BuildingFootprints"}}}, {"type": "Feature", "geometry": {"type": "Polygon", "coordinates": [[[-95.8926236, 36.03111], [-95.8923929, 36.0311083], [-95.8923882, 36.0315313], [-95.8926215, 36.031533], [-95.8926236, 36.0313453], [-95.8926665, 36.0313456], [-95.8926671, 36.0312947], [-95.8926215, 36.0312944], [-95.8926236, 36.03111]]]}, "properties": {"osm_id": 1235075072, "building": "yes", "name": "", "height": null, "height_m": null, "levels": null, "tract_id": "40143007629", "tract_name": "76.29", "tags": {"building": "yes", "source": "microsoft/BuildingFootprints"}}}, {"type": "Feature", "geometry": {"type": "Polygon", "coordinates": [[[-95.8930227, 36.031204], [-95.8930217, 36.0313189], [-95.8929681, 36.0313186], [-95.8929673, 36.0314119], [-95.8930594, 36.0314124], [-95.8930591, 36.0314546], [-95.8930849, 36.0314548], [-95.8930844, 36.0315188], [-95.8935708, 36.0315215], [-95.8935713, 36.0314553], [-95.8936438, 36.0314557], [-95.8936444, 36.0313809], [-95.893572, 36.0313805], [-95.8935728, 36.0312894], [-95.8933555, 36.0312882], [-95.8933553, 36.0313153], [-95.8933087, 36.031315], [-95.8933097, 36.0312056], [-95.8930227, 36.031204]]]}, "properties": {"osm_id": 1235075073, "building": "yes", "name": "", "height": null, "height_m": null, "levels": null, "tract_id": "40143007629", "tract_name": "76.29", "tags": {"building": "yes", "source": "microsoft/BuildingFootprints"}}}, {"type": "Feature", "geometry": {"type": "Polygon", "coordinates": [[[-95.8896676, 36.0283441], [-95.8894321, 36.028014], [-95.8892021, 36.0281214], [-95.8893079, 36.0282698], [-95.8890935, 36.0283698], [-95.8891084, 36.0283906], [-95.8890596, 36.0284134], [-95.8891634, 36.0285589], [-95.8892139, 36.0285354], [-95.8892249, 36.0285507], [-95.8896676, 36.0283441]]]}, "properties": {"osm_id": 1235075074, "building": "yes", "name": "Bill Knight Collision", "height": null, "height_m": null, "levels": null, "tract_id": "40143007629", "tract_name": "76.29", "tags": {"building": "yes", "name": "Bill Knight Collision", "shop": "car_repair"}}}, {"type": "Feature", "geometry": {"type": "Polygon", "coordinates": [[[-95.8883493, 36.0175227], [-95.8883486, 36.017607], [-95.888177, 36.0176061], [-95.8881777, 36.0175217], [-95.8883493, 36.0175227]]]}, "properties": {"osm_id": 1288945119, "building": "retail", "name": "", "height": null, "height_m": null, "levels": null, "tract_id": "40143007629", "tract_name": "76.29", "tags": {"building": "retail"}}}, {"type": "Feature", "geometry": {"type": "Polygon", "coordinates": [[[-95.8883084, 36.0178758], [-95.8881086, 36.0178747], [-95.8881096, 36.0177564], [-95.8883785, 36.0177579], [-95.888378, 36.0178284], [-95.8883088, 36.017828], [-95.8883084, 36.0178758]]]}, "properties": {"osm_id": 1288945120, "building": "yes", "name": "", "height": null, "height_m": null, "levels": null, "tract_id": "40143007629", "tract_name": "76.29", "tags": {"building": "yes"}}}, {"type": "Feature", "geometry": {"type": "Polygon", "coordinates": [[[-95.8874944, 36.0182305], [-95.8874957, 36.0180439], [-95.8875856, 36.0180443], [-95.8875848, 36.0181594], [-95.8876951, 36.0181599], [-95.8876946, 36.0182314], [-95.8874944, 36.0182305]]]}, "properties": {"osm_id": 1288945122, "building": "industrial", "name": "", "height": null, "height_m": null, "levels": null, "tract_id": "40143007629", "tract_name": "76.29", "tags": {"building": "industrial", "shop": "car_repair"}}}, {"type": "Feature", "geometry": {"type": "Polygon", "coordinates": [[[-95.9038007, 36.0291797], [-95.9038001, 36.0288882], [-95.903476, 36.0288887], [-95.9034763, 36.0290462], [-95.9035944, 36.0290461], [-95.9035947, 36.0291799], [-95.9038007, 36.0291797]]]}, "properties": {"osm_id": 1291525111, "building": "retail", "name": "", "height": null, "height_m": null, "levels": null, "tract_id": "40143007629", "tract_name": "76.29", "tags": {"building": "retail", "shop": "yes"}}}, {"type": "Feature", "geometry": {"type": "Polygon", "coordinates": [[[-95.9037178, 36.0300609], [-95.9037147, 36.0294076], [-95.9038005, 36.0294074], [-95.9038037, 36.0300606], [-95.9037178, 36.0300609]]]}, "properties": {"osm_id": 1291525112, "building": "industrial", "name": "", "height": null, "height_m": null, "levels": null, "tract_id": "40143007629", "tract_name": "76.29", "tags": {"amenity": "car_wash", "building": "industrial", "self_service": "yes"}}}, {"type": "Feature", "geometry": {"type": "Polygon", "coordinates": [[[-95.9036707, 36.0303838], [-95.9036725, 36.0301749], [-95.9038282, 36.030172], [-95.9038264, 36.0303853], [-95.9036707, 36.0303838]]]}, "properties": {"osm_id": 1291525113, "building": "industrial", "name": "", "height": null, "height_m": null, "levels": null, "tract_id": "40143007629", "tract_name": "76.29", "tags": {"building": "industrial", "shop": "car_repair"}}}, {"type": "Feature", "geometry": {"type": "Polygon", "coordinates": [[[-95.903898, 36.0311068], [-95.9035735, 36.0311047], [-95.9035762, 36.0308282], [-95.9039008, 36.0308303], [-95.903898, 36.0311068]]]}, "properties": {"osm_id": 1291525115, "building": "yes", "name": "", "height": null, "height_m": null, "levels": null, "tract_id": "40143007629", "tract_name": "76.29", "tags": {"building": "yes", "shop": "yes"}}}, {"type": "Feature", "geometry": {"type": "Polygon", "coordinates": [[[-95.891393, 36.031514], [-95.8913554, 36.031514], [-95.8913554, 36.0315319], [-95.8912247, 36.0315319], [-95.8912247, 36.031514], [-95.8911918, 36.031514], [-95.8911918, 36.0314869], [-95.8911643, 36.0314869], [-95.8911643, 36.0309365], [-95.891393, 36.0309365], [-95.891393, 36.031514]]]}, "properties": {"osm_id": 1297897881, "building": "yes", "name": "", "height": null, "height_m": null, "levels": null, "tract_id": "40143007629", "tract_name": "76.29", "tags": {"building": "yes"}}}, {"type": "Feature", "geometry": {"type": "Polygon", "coordinates": [[[-95.9026387, 36.031587], [-95.9023766, 36.0315835], [-95.90237, 36.0312637], [-95.9025454, 36.0310715], [-95.9032429, 36.0308757], [-95.9032452, 36.0308919], [-95.9031941, 36.0309655], [-95.9032363, 36.0310679], [-95.9032141, 36.031093], [-95.9027209, 36.0312314], [-95.9026343, 36.031314], [-95.9026387, 36.031587]]]}, "properties": {"osm_id": 1420045939, "building": "retail", "name": "", "height": null, "height_m": null, "levels": null, "tract_id": "40143007629", "tract_name": "76.29", "tags": {"building": "retail"}}}]}