{"type": "FeatureCollection", "features": [{"type": "Feature", "geometry": {"type": "Polygon", "coordinates": [[[-97.9732472, 35.7244049], [-97.9733759, 35.7240805], [-97.9734457, 35.7240979], [-97.9734913, 35.7239912], [-97.9734188, 35.7239738], [-97.9735181, 35.723719], [-97.9731909, 35.7236341], [-97.9729199, 35.72432], [-97.9732472, 35.7244049]]]}, "properties": {"osm_id": 196338169, "building": "yes", "name": "", "height": null, "height_m": null, "levels": null, "tract_id": "40017300202", "tract_name": "3002.02", "tags": {"building": "yes", "source": "Bing"}}}, {"type": "Feature", "geometry": {"type": "Polygon", "coordinates": [[[-97.9722923, 35.7256744], [-97.9721019, 35.7256766], [-97.9721019, 35.7256592], [-97.9717561, 35.7256683], [-97.9717559, 35.7255046], [-97.9720992, 35.725498], [-97.9721046, 35.725485], [-97.9722869, 35.7254828], [-97.9722923, 35.7256744]]]}, "properties": {"osm_id": 196338170, "building": "yes", "name": "", "height": null, "height_m": null, "levels": null, "tract_id": "40017300202", "tract_name": "3002.02", "tags": {"building": "yes", "source": "Bing"}}}, {"type": "Feature", "geometry": {"type": "Polygon", "coordinates": [[[-97.9727268, 35.7238976], [-97.9727244, 35.7235191], [-97.9725286, 35.7235169], [-97.972531, 35.7238997], [-97.9727268, 35.7238976]]]}, "properties": {"osm_id": 196338171, "building": "yes", "name": "", "height": null, "height_m": null, "levels": null, "tract_id": "40017300202", "tract_name": "3002.02", "tags": {"building": "yes", "source": "Bing"}}}, {"type": "Feature", "geometry": {"type": "Polygon", "coordinates": [[[-97.9757869, 35.725664], [-97.9757867, 35.7256431], [-97.9758691, 35.7256426], [-97.9758683, 35.7255627], [-97.9757357, 35.7255636], [-97.9754458, 35.7255656], [-97.9754468, 35.7256663], [-97.9757869, 35.725664]]]}, "properties": {"osm_id": 317844676, "building": "commercial", "name": "", "height": null, "height_m": null, "levels": null, "tract_id": "40017300202", "tract_name": "3002.02", "tags": {"building": "commercial"}}}, {"type": "Feature", "geometry": {"type": "Polygon", "coordinates": [[[-98.033311, 35.5611775], [-98.0334959, 35.561206], [-98.033521, 35.5610986], [-98.0334615, 35.5610894], [-98.0334538, 35.5611228], [-98.0333282, 35.5611034], [-98.033311, 35.5611775]]]}, "properties": {"osm_id": 457502301, "building": "yes", "name": "", "height": null, "height_m": null, "levels": null, "tract_id": "40017300202", "tract_name": "3002.02", "tags": {"building": "yes"}}}, {"type": "Feature", "geometry": {"type": "Polygon", "coordinates": [[[-97.9420478, 35.5090366], [-97.94214, 35.5087214], [-97.9419639, 35.5086873], [-97.9418717, 35.5090025], [-97.9420478, 35.5090366]]]}, "properties": {"osm_id": 545375826, "building": "yes", "name": "Swadley's BBQ", "height": null, "height_m": null, "levels": null, "tract_id": "40017300202", "tract_name": "3002.02", "tags": {"amenity": "restaurant", "building": "yes", "name": "Swadley's BBQ"}}}, {"type": "Feature", "geometry": {"type": "Polygon", "coordinates": [[[-97.9433547, 35.5092365], [-97.943818, 35.5095572], [-97.9430624, 35.5101945], [-97.9426466, 35.509909], [-97.9425537, 35.509972], [-97.9424025, 35.5098483], [-97.9425671, 35.5097094], [-97.9431431, 35.5092252], [-97.9432581, 35.5093151], [-97.9433547, 35.5092365]]]}, "properties": {"osm_id": 545375829, "building": "yes", "name": "", "height": null, "height_m": null, "levels": null, "tract_id": "40017300202", "tract_name": "3002.02", "tags": {"building": "yes"}}}, {"type": "Feature", "geometry": {"type": "Polygon", "coordinates": [[[-97.9403166, 35.5093481], [-97.942276, 35.5096885], [-97.9422214, 35.5098968], [-97.9420801, 35.5098722], [-97.9420658, 35.5099269], [-97.9415782, 35.5098422], [-97.9415549, 35.5099311], [-97.9408457, 35.5098079], [-97.940883, 35.5096659], [-97.9402616, 35.5095579], [-97.9403166, 35.5093481]]]}, "properties": {"osm_id": 545375831, "building": "yes", "name": "", "height": null, "height_m": null, "levels": null, "tract_id": "40017300202", "tract_name": "3002.02", "tags": {"building": "yes"}}}, {"type": "Feature", "geometry": {"type": "Polygon", "coordinates": [[[-97.9414674, 35.5088316], [-97.9415217, 35.508633], [-97.9413928, 35.5086096], [-97.9413384, 35.5088082], [-97.9414674, 35.5088316]]]}, "properties": {"osm_id": 545375833, "building": "yes", "name": "Taco Mayo", "height": null, "height_m": null, "levels": null, "tract_id": "40017300202", "tract_name": "3002.02", "tags": {"amenity": "restaurant", "building": "yes", "name": "Taco Mayo"}}}, {"type": "Feature", "geometry": {"type": "Polygon", "coordinates": [[[-97.940997, 35.5087944], [-97.9410166, 35.5087208], [-97.9408605, 35.5086932], [-97.9408408, 35.5087668], [-97.940997, 35.5087944]]]}, "properties": {"osm_id": 545375835, "building": "yes", "name": "", "height": null, "height_m": null, "levels": null, "tract_id": "40017300202", "tract_name": "3002.02", "tags": {"building": "yes"}}}, {"type": "Feature", "geometry": {"type": "Polygon", "coordinates": [[[-97.9405677, 35.5087027], [-97.9406195, 35.5085201], [-97.9404955, 35.5084968], [-97.9404437, 35.5086794], [-97.9405677, 35.5087027]]]}, "properties": {"osm_id": 545375837, "building": "yes", "name": "", "height": null, "height_m": null, "levels": null, "tract_id": "40017300202", "tract_name": "3002.02", "tags": {"building": "yes"}}}, {"type": "Feature", "geometry": {"type": "Polygon", "coordinates": [[[-97.9784834, 35.7247016], [-97.9787876, 35.7247023], [-97.9787875, 35.7247355], [-97.9788045, 35.7247547], [-97.9788042, 35.7247869], [-97.9787834, 35.7248114], [-97.9787834, 35.7248313], [-97.9786856, 35.7248311], [-97.9786856, 35.7248446], [-97.9785935, 35.7248444], [-97.9785935, 35.7248293], [-97.978483, 35.7248291], [-97.9784834, 35.7247016]]]}, "properties": {"osm_id": 723214174, "building": "yes", "name": "", "height": null, "height_m": null, "levels": null, "tract_id": "40017300202", "tract_name": "3002.02", "tags": {"amenity": "place_of_worship", "building": "yes", "religion": "christian"}}}, {"type": "Feature", "geometry": {"type": "Polygon", "coordinates": [[[-97.9781127, 35.7244605], [-97.9781991, 35.7244594], [-97.9781963, 35.7243185], [-97.9780758, 35.7243201], [-97.9780775, 35.7244031], [-97.9781115, 35.7244026], [-97.9781127, 35.7244605]]]}, "properties": {"osm_id": 723214176, "building": "yes", "name": "", "height": null, "height_m": null, "levels": null, "tract_id": "40017300202", "tract_name": "3002.02", "tags": {"amenity": "place_of_worship", "building": "yes", "religion": "christian"}}}, {"type": "Feature", "geometry": {"type": "Polygon", "coordinates": [[[-97.9771315, 35.7230432], [-97.9771329, 35.7229657], [-97.9774625, 35.7229696], [-97.9774611, 35.7230471], [-97.9774251, 35.7230466], [-97.9771532, 35.723043], [-97.9771315, 35.7230432]]]}, "properties": {"osm_id": 723214177, "building": "yes", "name": "Sonic", "height": null, "height_m": null, "levels": null, "tract_id": "40017300202", "tract_name": "3002.02", "tags": {"addr:city": "Okarche", "addr:housenumber": "301", "addr:postcode": "73762", "addr:state": "OK", "addr:street": "South Main Street", "amenity": "fast_food", "brand": "Sonic", "brand:wikidata": "Q7561808", "building": "yes", "cuisine": "burger", "drive_in": "yes", "name": "Sonic", "opening_hours": "Mo-Sa 06:00-22:00; Su 07:00-22:00", "phone": "+1 405-263-4944", "takeaway": "yes", "website": "https://locations.sonicdrivein.com/ok/okarche/301-south-main-street.html"}}}, {"type": "Feature", "geometry": {"type": "Polygon", "coordinates": [[[-97.9774251, 35.7230466], [-97.9774244, 35.7230799], [-97.9771525, 35.7230762], [-97.9771532, 35.723043], [-97.9774251, 35.7230466]]]}, "properties": {"osm_id": 723214178, "building": "roof", "name": "", "height": null, "height_m": null, "levels": null, "tract_id": "40017300202", "tract_name": "3002.02", "tags": {"building": "roof"}}}, {"type": "Feature", "geometry": {"type": "Polygon", "coordinates": [[[-97.9771062, 35.7228657], [-97.9771071, 35.722825], [-97.9774221, 35.7228294], [-97.9774213, 35.72287], [-97.9771062, 35.7228657]]]}, "properties": {"osm_id": 723214179, "building": "roof", "name": "", "height": null, "height_m": null, "levels": null, "tract_id": "40017300202", "tract_name": "3002.02", "tags": {"building": "roof"}}}, {"type": "Feature", "geometry": {"type": "Polygon", "coordinates": [[[-98.1011515, 35.6536396], [-98.1009852, 35.6536381], [-98.1009839, 35.6537295], [-98.1011502, 35.653731], [-98.1011515, 35.6536396]]]}, "properties": {"osm_id": 814741141, "building": "yes", "name": "", "height": null, "height_m": null, "levels": null, "tract_id": "40017300202", "tract_name": "3002.02", "tags": {"building": "yes"}}}, {"type": "Feature", "geometry": {"type": "Polygon", "coordinates": [[[-98.1014492, 35.6542454], [-98.1014534, 35.6540528], [-98.1013896, 35.6540518], [-98.1013853, 35.6542445], [-98.1014492, 35.6542454]]]}, "properties": {"osm_id": 814741142, "building": "yes", "name": "", "height": null, "height_m": null, "levels": null, "tract_id": "40017300202", "tract_name": "3002.02", "tags": {"building": "yes"}}}, {"type": "Feature", "geometry": {"type": "Polygon", "coordinates": [[[-98.1013055, 35.6538346], [-98.1013051, 35.6537363], [-98.1012204, 35.6537366], [-98.1012208, 35.6538349], [-98.1013055, 35.6538346]]]}, "properties": {"osm_id": 814741143, "building": "yes", "name": "", "height": null, "height_m": null, "levels": null, "tract_id": "40017300202", "tract_name": "3002.02", "tags": {"building": "yes"}}}, {"type": "Feature", "geometry": {"type": "Polygon", "coordinates": [[[-98.099542, 35.6592295], [-98.0996187, 35.6590614], [-98.0997153, 35.6590905], [-98.0996386, 35.6592585], [-98.099542, 35.6592295]]]}, "properties": {"osm_id": 814741157, "building": "yes", "name": "", "height": null, "height_m": null, "levels": null, "tract_id": "40017300202", "tract_name": "3002.02", "tags": {"building": "yes"}}}, {"type": "Feature", "geometry": {"type": "Polygon", "coordinates": [[[-98.0994413, 35.6595482], [-98.0994754, 35.6594397], [-98.0995529, 35.6594558], [-98.0995188, 35.6595643], [-98.0994413, 35.6595482]]]}, "properties": {"osm_id": 814741158, "building": "yes", "name": "", "height": null, "height_m": null, "levels": null, "tract_id": "40017300202", "tract_name": "3002.02", "tags": {"building": "yes"}}}, {"type": "Feature", "geometry": {"type": "Polygon", "coordinates": [[[-98.0993812, 35.6600429], [-98.0993924, 35.6599068], [-98.0992381, 35.6598984], [-98.0992269, 35.6600345], [-98.0993812, 35.6600429]]]}, "properties": {"osm_id": 814741161, "building": "yes", "name": "", "height": null, "height_m": null, "levels": null, "tract_id": "40017300202", "tract_name": "3002.02", "tags": {"building": "yes"}}}, {"type": "Feature", "geometry": {"type": "Polygon", "coordinates": [[[-97.8715053, 35.5093253], [-97.8715055, 35.5090232], [-97.871102, 35.5090231], [-97.8711019, 35.5091357], [-97.8710577, 35.5091356], [-97.8710142, 35.5091356], [-97.8710141, 35.5092129], [-97.871055, 35.5092129], [-97.8711078, 35.5092129], [-97.8711077, 35.5093252], [-97.8715053, 35.5093253]]]}, "properties": {"osm_id": 927965322, "building": "yes", "name": "", "height": null, "height_m": null, "levels": null, "tract_id": "40017300202", "tract_name": "3002.02", "tags": {"building": "yes"}}}, {"type": "Feature", "geometry": {"type": "Polygon", "coordinates": [[[-97.9762199, 35.7203981], [-97.9762252, 35.7201851], [-97.9760657, 35.7201825], [-97.9760621, 35.7203265], [-97.9760308, 35.720326], [-97.9760291, 35.720395], [-97.9762199, 35.7203981]]]}, "properties": {"osm_id": 963333138, "building": "yes", "name": "", "height": null, "height_m": null, "levels": null, "tract_id": "40017300202", "tract_name": "3002.02", "tags": {"building": "yes", "shop": "yes"}}}, {"type": "Feature", "geometry": {"type": "Polygon", "coordinates": [[[-97.9765542, 35.721343], [-97.9765579, 35.7211481], [-97.9763832, 35.7211459], [-97.9763795, 35.7213409], [-97.9765542, 35.721343]]]}, "properties": {"osm_id": 963333139, "building": "yes", "name": "Tower Cafe", "height": null, "height_m": null, "levels": null, "tract_id": "40017300202", "tract_name": "3002.02", "tags": {"amenity": "restaurant", "building": "yes", "name": "Tower Cafe"}}}, {"type": "Feature", "geometry": {"type": "Polygon", "coordinates": [[[-97.9767275, 35.7209903], [-97.9767289, 35.7209093], [-97.9765599, 35.7209073], [-97.9765584, 35.7209883], [-97.9767275, 35.7209903]]]}, "properties": {"osm_id": 963333140, "building": "roof", "name": "", "height": null, "height_m": null, "levels": null, "tract_id": "40017300202", "tract_name": "3002.02", "tags": {"building": "roof"}}}, {"type": "Feature", "geometry": {"type": "Polygon", "coordinates": [[[-97.9765144, 35.7210748], [-97.9765142, 35.7208768], [-97.9764071, 35.7208769], [-97.9764072, 35.7210748], [-97.9765144, 35.7210748]]]}, "properties": {"osm_id": 963333141, "building": "yes", "name": "", "height": null, "height_m": null, "levels": null, "tract_id": "40017300202", "tract_name": "3002.02", "tags": {"building": "yes"}}}, {"type": "Feature", "geometry": {"type": "Polygon", "coordinates": [[[-97.9757828, 35.7117887], [-97.9757817, 35.7114994], [-97.9751936, 35.7115008], [-97.9751943, 35.7116828], [-97.9756039, 35.7116818], [-97.9756043, 35.7117891], [-97.9757828, 35.7117887]]]}, "properties": {"osm_id": 963333142, "building": "yes", "name": "Mainer Ford", "height": null, "height_m": null, "levels": null, "tract_id": "40017300202", "tract_name": "3002.02", "tags": {"building": "yes", "name": "Mainer Ford", "shop": "car"}}}, {"type": "Feature", "geometry": {"type": "Polygon", "coordinates": [[[-97.9748396, 35.7178046], [-97.9750342, 35.7175944], [-97.9750553, 35.7176089], [-97.9751034, 35.7175653], [-97.9751441, 35.7175918], [-97.9750985, 35.7176433], [-97.9751815, 35.7176975], [-97.9751653, 35.7177114], [-97.9751775, 35.7177418], [-97.9753314, 35.7178403], [-97.9751978, 35.7179864], [-97.9750399, 35.7178912], [-97.975013, 35.717919], [-97.9748396, 35.7178046]]]}, "properties": {"osm_id": 963333143, "building": "yes", "name": "First Baptist Church of Okarche", "height": null, "height_m": null, "levels": null, "tract_id": "40017300202", "tract_name": "3002.02", "tags": {"addr:city": "Okarche", "addr:housenumber": "101", "addr:postcode": "73762", "addr:state": "OK", "addr:street": "E. Stroh Avenue", "amenity": "place_of_worship", "building": "yes", "denomination": "baptist", "name": "First Baptist Church of Okarche", "phone": "+1-405-263-7463", "religion": "christian", "website": "http://www.okarchebaptist.com/"}}}, {"type": "Feature", "geometry": {"type": "Polygon", "coordinates": [[[-98.0054666, 35.7250639], [-98.0052878, 35.7250671], [-98.0052881, 35.7250781], [-98.005222, 35.7250793], [-98.005219, 35.7249731], [-98.005303, 35.7249716], [-98.0053012, 35.7249046], [-98.0054262, 35.7249023], [-98.0054281, 35.7249717], [-98.0054641, 35.724971], [-98.0054666, 35.7250639]]]}, "properties": {"osm_id": 964450014, "building": "house", "name": "", "height": null, "height_m": null, "levels": null, "tract_id": "40017300202", "tract_name": "3002.02", "tags": {"building": "house"}}}, {"type": "Feature", "geometry": {"type": "Polygon", "coordinates": [[[-98.0055321, 35.7248748], [-98.0055273, 35.7247732], [-98.0053967, 35.7247773], [-98.0054016, 35.7248789], [-98.0055321, 35.7248748]]]}, "properties": {"osm_id": 964450015, "building": "yes", "name": "", "height": null, "height_m": null, "levels": null, "tract_id": "40017300202", "tract_name": "3002.02", "tags": {"building": "yes"}}}, {"type": "Feature", "geometry": {"type": "Polygon", "coordinates": [[[-98.0052355, 35.7246421], [-98.0052359, 35.7244742], [-98.0051141, 35.724474], [-98.0051136, 35.7246419], [-98.0052355, 35.7246421]]]}, "properties": {"osm_id": 964450016, "building": "yes", "name": "", "height": null, "height_m": null, "levels": null, "tract_id": "40017300202", "tract_name": "3002.02", "tags": {"building": "yes"}}}, {"type": "Feature", "geometry": {"type": "Polygon", "coordinates": [[[-98.0050241, 35.7249389], [-98.0050216, 35.7248519], [-98.004905, 35.7248541], [-98.0049074, 35.724941], [-98.0050241, 35.7249389]]]}, "properties": {"osm_id": 964450017, "building": "yes", "name": "", "height": null, "height_m": null, "levels": null, "tract_id": "40017300202", "tract_name": "3002.02", "tags": {"building": "yes"}}}, {"type": "Feature", "geometry": {"type": "Polygon", "coordinates": [[[-98.0008469, 35.7251047], [-98.0009547, 35.7251048], [-98.0009526, 35.72502], [-98.0011478, 35.7250209], [-98.0011493, 35.7249143], [-98.0008469, 35.7249131], [-98.0008469, 35.7251047]]]}, "properties": {"osm_id": 964450018, "building": "house", "name": "", "height": null, "height_m": null, "levels": null, "tract_id": "40017300202", "tract_name": "3002.02", "tags": {"building": "house"}}}, {"type": "Feature", "geometry": {"type": "Polygon", "coordinates": [[[-98.0012077, 35.7246086], [-98.0012072, 35.7244958], [-98.0010719, 35.7244962], [-98.0010723, 35.7246089], [-98.0012077, 35.7246086]]]}, "properties": {"osm_id": 964450019, "building": "yes", "name": "", "height": null, "height_m": null, "levels": null, "tract_id": "40017300202", "tract_name": "3002.02", "tags": {"building": "yes"}}}, {"type": "Feature", "geometry": {"type": "Polygon", "coordinates": [[[-98.0004321, 35.7251417], [-98.0003125, 35.7251431], [-98.0003093, 35.7249539], [-98.0005217, 35.7249515], [-98.0005239, 35.7250863], [-98.0004312, 35.7250874], [-98.0004321, 35.7251417]]]}, "properties": {"osm_id": 964450020, "building": "house", "name": "", "height": null, "height_m": null, "levels": null, "tract_id": "40017300202", "tract_name": "3002.02", "tags": {"building": "house"}}}, {"type": "Feature", "geometry": {"type": "Polygon", "coordinates": [[[-98.000657, 35.724794], [-98.0006573, 35.7247127], [-98.0005252, 35.7247123], [-98.0005248, 35.7247936], [-98.000657, 35.724794]]]}, "properties": {"osm_id": 964450021, "building": "yes", "name": "", "height": null, "height_m": null, "levels": null, "tract_id": "40017300202", "tract_name": "3002.02", "tags": {"building": "yes"}}}, {"type": "Feature", "geometry": {"type": "Polygon", "coordinates": [[[-97.999337, 35.7249287], [-97.9993371, 35.724833], [-97.9991319, 35.7248328], [-97.9991318, 35.7249286], [-97.999337, 35.7249287]]]}, "properties": {"osm_id": 964450022, "building": "yes", "name": "", "height": null, "height_m": null, "levels": null, "tract_id": "40017300202", "tract_name": "3002.02", "tags": {"building": "yes"}}}, {"type": "Feature", "geometry": {"type": "Polygon", "coordinates": [[[-97.9990223, 35.7251638], [-97.999022, 35.7250596], [-97.9988037, 35.72506], [-97.998804, 35.7251642], [-97.9990223, 35.7251638]]]}, "properties": {"osm_id": 964450023, "building": "house", "name": "", "height": null, "height_m": null, "levels": null, "tract_id": "40017300202", "tract_name": "3002.02", "tags": {"building": "house"}}}, {"type": "Feature", "geometry": {"type": "Polygon", "coordinates": [[[-97.9952774, 35.7251624], [-97.9952767, 35.7250814], [-97.9951068, 35.7250823], [-97.9951075, 35.7251634], [-97.9952774, 35.7251624]]]}, "properties": {"osm_id": 964450026, "building": "house", "name": "", "height": null, "height_m": null, "levels": null, "tract_id": "40017300202", "tract_name": "3002.02", "tags": {"building": "house"}}}, {"type": "Feature", "geometry": {"type": "Polygon", "coordinates": [[[-97.9958894, 35.724806], [-97.9958872, 35.7245332], [-97.9959987, 35.7245326], [-97.996001, 35.7248054], [-97.9958894, 35.724806]]]}, "properties": {"osm_id": 964450027, "building": "yes", "name": "", "height": null, "height_m": null, "levels": null, "tract_id": "40017300202", "tract_name": "3002.02", "tags": {"building": "yes"}}}, {"type": "Feature", "geometry": {"type": "Polygon", "coordinates": [[[-97.9955011, 35.7250136], [-97.9954971, 35.7249619], [-97.9954295, 35.7249653], [-97.9954334, 35.725017], [-97.9955011, 35.7250136]]]}, "properties": {"osm_id": 964450028, "building": "yes", "name": "", "height": null, "height_m": null, "levels": null, "tract_id": "40017300202", "tract_name": "3002.02", "tags": {"building": "yes"}}}, {"type": "Feature", "geometry": {"type": "Polygon", "coordinates": [[[-97.9957272, 35.7246677], [-97.9957281, 35.7246011], [-97.9956477, 35.7246003], [-97.9956468, 35.724667], [-97.9957272, 35.7246677]]]}, "properties": {"osm_id": 964450029, "building": "yes", "name": "", "height": null, "height_m": null, "levels": null, "tract_id": "40017300202", "tract_name": "3002.02", "tags": {"building": "yes"}}}, {"type": "Feature", "geometry": {"type": "Polygon", "coordinates": [[[-97.9952572, 35.7245638], [-97.9952554, 35.7244332], [-97.9953592, 35.7244322], [-97.995361, 35.7245629], [-97.9952572, 35.7245638]]]}, "properties": {"osm_id": 964450030, "building": "house", "name": "", "height": null, "height_m": null, "levels": null, "tract_id": "40017300202", "tract_name": "3002.02", "tags": {"building": "house"}}}, {"type": "Feature", "geometry": {"type": "Polygon", "coordinates": [[[-97.9956163, 35.7243078], [-97.9956159, 35.724234], [-97.9955652, 35.7242342], [-97.9955657, 35.724308], [-97.9956163, 35.7243078]]]}, "properties": {"osm_id": 964450031, "building": "yes", "name": "", "height": null, "height_m": null, "levels": null, "tract_id": "40017300202", "tract_name": "3002.02", "tags": {"building": "yes"}}}, {"type": "Feature", "geometry": {"type": "Polygon", "coordinates": [[[-97.9958684, 35.7241207], [-97.9957254, 35.7241211], [-97.9957259, 35.7242215], [-97.995869, 35.724221], [-97.9958684, 35.7241207]]]}, "properties": {"osm_id": 964450032, "building": "yes", "name": "", "height": null, "height_m": null, "levels": null, "tract_id": "40017300202", "tract_name": "3002.02", "tags": {"building": "yes"}}}, {"type": "Feature", "geometry": {"type": "Polygon", "coordinates": [[[-97.9950225, 35.7237632], [-97.9951278, 35.7237634], [-97.9951273, 35.7239025], [-97.995022, 35.7239023], [-97.9950225, 35.7237632]]]}, "properties": {"osm_id": 964450033, "building": "barn", "name": "", "height": null, "height_m": null, "levels": null, "tract_id": "40017300202", "tract_name": "3002.02", "tags": {"building": "barn"}}}, {"type": "Feature", "geometry": {"type": "Polygon", "coordinates": [[[-97.995125, 35.7185031], [-97.9951253, 35.718418], [-97.9953057, 35.7184183], [-97.9953054, 35.7185034], [-97.995125, 35.7185031]]]}, "properties": {"osm_id": 964450034, "building": "house", "name": "", "height": null, "height_m": null, "levels": null, "tract_id": "40017300202", "tract_name": "3002.02", "tags": {"building": "house"}}}, {"type": "Feature", "geometry": {"type": "Polygon", "coordinates": [[[-97.9954146, 35.7186577], [-97.9954166, 35.7186166], [-97.9953367, 35.718614], [-97.9953347, 35.7186552], [-97.9954146, 35.7186577]]]}, "properties": {"osm_id": 964450035, "building": "yes", "name": "", "height": null, "height_m": null, "levels": null, "tract_id": "40017300202", "tract_name": "3002.02", "tags": {"building": "yes"}}}, {"type": "Feature", "geometry": {"type": "Polygon", "coordinates": [[[-97.9956851, 35.718605], [-97.9956853, 35.7185004], [-97.9955143, 35.7185003], [-97.9955141, 35.7186048], [-97.9956851, 35.718605]]]}, "properties": {"osm_id": 964450036, "building": "yes", "name": "", "height": null, "height_m": null, "levels": null, "tract_id": "40017300202", "tract_name": "3002.02", "tags": {"building": "yes"}}}, {"type": "Feature", "geometry": {"type": "Polygon", "coordinates": [[[-97.988566, 35.7087473], [-97.9885639, 35.7086981], [-97.9885938, 35.7086973], [-97.9885905, 35.7086161], [-97.9884434, 35.70862], [-97.9884487, 35.7087504], [-97.988566, 35.7087473]]]}, "properties": {"osm_id": 964450041, "building": "house", "name": "", "height": null, "height_m": null, "levels": null, "tract_id": "40017300202", "tract_name": "3002.02", "tags": {"building": "house"}}}, {"type": "Feature", "geometry": {"type": "Polygon", "coordinates": [[[-97.9885428, 35.7082363], [-97.9885413, 35.7081681], [-97.9884228, 35.7081698], [-97.9884243, 35.7082381], [-97.9885428, 35.7082363]]]}, "properties": {"osm_id": 964450042, "building": "yes", "name": "", "height": null, "height_m": null, "levels": null, "tract_id": "40017300202", "tract_name": "3002.02", "tags": {"building": "yes"}}}, {"type": "Feature", "geometry": {"type": "Polygon", "coordinates": [[[-97.9886032, 35.7080774], [-97.988602, 35.707943], [-97.9883915, 35.7079442], [-97.9883926, 35.7080785], [-97.9886032, 35.7080774]]]}, "properties": {"osm_id": 964450043, "building": "barn", "name": "", "height": null, "height_m": null, "levels": null, "tract_id": "40017300202", "tract_name": "3002.02", "tags": {"building": "barn"}}}, {"type": "Feature", "geometry": {"type": "Polygon", "coordinates": [[[-97.9882764, 35.7081677], [-97.9882729, 35.7080879], [-97.9881431, 35.7080917], [-97.9881466, 35.7081714], [-97.9882764, 35.7081677]]]}, "properties": {"osm_id": 964450044, "building": "yes", "name": "", "height": null, "height_m": null, "levels": null, "tract_id": "40017300202", "tract_name": "3002.02", "tags": {"building": "yes"}}}, {"type": "Feature", "geometry": {"type": "Polygon", "coordinates": [[[-97.9889567, 35.7080239], [-97.9888169, 35.7080215], [-97.9888143, 35.7081198], [-97.9889542, 35.7081222], [-97.9889567, 35.7080239]]]}, "properties": {"osm_id": 964450045, "building": "yes", "name": "", "height": null, "height_m": null, "levels": null, "tract_id": "40017300202", "tract_name": "3002.02", "tags": {"building": "yes"}}}, {"type": "Feature", "geometry": {"type": "Polygon", "coordinates": [[[-97.9952362, 35.7114751], [-97.9952353, 35.7113351], [-97.9951218, 35.7113356], [-97.9951228, 35.7114756], [-97.9952362, 35.7114751]]]}, "properties": {"osm_id": 964450066, "building": "house", "name": "", "height": null, "height_m": null, "levels": null, "tract_id": "40017300202", "tract_name": "3002.02", "tags": {"building": "house"}}}, {"type": "Feature", "geometry": {"type": "Polygon", "coordinates": [[[-97.9952638, 35.7114015], [-97.9953468, 35.7114], [-97.9953487, 35.7114752], [-97.9952658, 35.7114766], [-97.9952638, 35.7114015]]]}, "properties": {"osm_id": 964450067, "building": "yes", "name": "", "height": null, "height_m": null, "levels": null, "tract_id": "40017300202", "tract_name": "3002.02", "tags": {"building": "yes"}}}, {"type": "Feature", "geometry": {"type": "Polygon", "coordinates": [[[-98.0029614, 35.7127781], [-98.0029644, 35.712614], [-98.0027516, 35.7126114], [-98.0027486, 35.7127755], [-98.0029614, 35.7127781]]]}, "properties": {"osm_id": 964450070, "building": "yes", "name": "", "height": null, "height_m": null, "levels": null, "tract_id": "40017300202", "tract_name": "3002.02", "tags": {"building": "yes"}}}, {"type": "Feature", "geometry": {"type": "Polygon", "coordinates": [[[-98.0035391, 35.7123488], [-98.0035379, 35.7122843], [-98.0034211, 35.7122858], [-98.0034205, 35.7122566], [-98.0033515, 35.7122574], [-98.0033509, 35.7122261], [-98.00324, 35.7122275], [-98.0032424, 35.7123525], [-98.0035391, 35.7123488]]]}, "properties": {"osm_id": 964450071, "building": "house", "name": "", "height": null, "height_m": null, "levels": null, "tract_id": "40017300202", "tract_name": "3002.02", "tags": {"building": "house"}}}, {"type": "Feature", "geometry": {"type": "Polygon", "coordinates": [[[-97.9772406, 35.724877], [-97.9772409, 35.7248368], [-97.9772794, 35.724837], [-97.9772802, 35.7247345], [-97.9770245, 35.7247332], [-97.9770237, 35.7248384], [-97.9771375, 35.724839], [-97.9771372, 35.7248765], [-97.9772406, 35.724877]]]}, "properties": {"osm_id": 967621167, "building": "yes", "name": "Okarche Police Department", "height": null, "height_m": null, "levels": null, "tract_id": "40017300202", "tract_name": "3002.02", "tags": {"amenity": "police", "building": "yes", "name": "Okarche Police Department"}}}, {"type": "Feature", "geometry": {"type": "Polygon", "coordinates": [[[-97.8483341, 35.546876], [-97.8483331, 35.5467978], [-97.8482884, 35.5467982], [-97.8482882, 35.5467835], [-97.8480963, 35.5467851], [-97.8480974, 35.546878], [-97.8483341, 35.546876]]]}, "properties": {"osm_id": 978700391, "building": "yes", "name": "", "height": null, "height_m": null, "levels": null, "tract_id": "40017300202", "tract_name": "3002.02", "tags": {"building": "yes"}}}, {"type": "Feature", "geometry": {"type": "Polygon", "coordinates": [[[-97.8736169, 35.5889364], [-97.8735151, 35.5889524], [-97.8734639, 35.5887374], [-97.8735658, 35.5887214], [-97.8736169, 35.5889364]]]}, "properties": {"osm_id": 986129055, "building": "yes", "name": "", "height": null, "height_m": null, "levels": null, "tract_id": "40017300202", "tract_name": "3002.02", "tags": {"building": "yes"}}}, {"type": "Feature", "geometry": {"type": "Polygon", "coordinates": [[[-97.8728291, 35.5889569], [-97.8727517, 35.5889989], [-97.8727073, 35.5889449], [-97.8726668, 35.5889669], [-97.8726228, 35.5889133], [-97.8726601, 35.5888931], [-97.8726097, 35.5888317], [-97.8726213, 35.5888254], [-97.8725848, 35.5887809], [-97.8726517, 35.5887446], [-97.8726864, 35.5887869], [-97.8726973, 35.5887809], [-97.8727165, 35.5888043], [-97.8727351, 35.5887942], [-97.8727567, 35.5888206], [-97.8727295, 35.5888354], [-97.8728291, 35.5889569]]]}, "properties": {"osm_id": 986129056, "building": "yes", "name": "", "height": null, "height_m": null, "levels": null, "tract_id": "40017300202", "tract_name": "3002.02", "tags": {"building": "yes"}}}, {"type": "Feature", "geometry": {"type": "Polygon", "coordinates": [[[-97.8728528, 35.5880227], [-97.8728096, 35.5879332], [-97.8727579, 35.5879497], [-97.8727499, 35.5879331], [-97.8726459, 35.5879664], [-97.8727421, 35.5881654], [-97.8728502, 35.5881309], [-97.8728053, 35.5880379], [-97.8728528, 35.5880227]]]}, "properties": {"osm_id": 986129057, "building": "yes", "name": "", "height": null, "height_m": null, "levels": null, "tract_id": "40017300202", "tract_name": "3002.02", "tags": {"building": "yes"}}}, {"type": "Feature", "geometry": {"type": "Polygon", "coordinates": [[[-97.8729949, 35.5882441], [-97.8729744, 35.5881861], [-97.8728905, 35.5882057], [-97.872911, 35.5882637], [-97.8729949, 35.5882441]]]}, "properties": {"osm_id": 986129058, "building": "yes", "name": "", "height": null, "height_m": null, "levels": null, "tract_id": "40017300202", "tract_name": "3002.02", "tags": {"building": "yes"}}}, {"type": "Feature", "geometry": {"type": "Polygon", "coordinates": [[[-97.8731103, 35.5877995], [-97.8730557, 35.5878153], [-97.8730253, 35.5877457], [-97.8729521, 35.5877669], [-97.8729371, 35.5877325], [-97.8730072, 35.5877123], [-97.8729885, 35.5876695], [-97.8730463, 35.5876529], [-97.8731103, 35.5877995]]]}, "properties": {"osm_id": 986129059, "building": "yes", "name": "", "height": null, "height_m": null, "levels": null, "tract_id": "40017300202", "tract_name": "3002.02", "tags": {"building": "yes"}}}, {"type": "Feature", "geometry": {"type": "Polygon", "coordinates": [[[-97.9375795, 35.5107587], [-97.9375803, 35.510845], [-97.9375462, 35.5108452], [-97.9375468, 35.5109077], [-97.9375766, 35.5109075], [-97.9375774, 35.5109941], [-97.9380712, 35.510991], [-97.938069, 35.5107555], [-97.9375795, 35.5107587]]]}, "properties": {"osm_id": 987360382, "building": "yes", "name": "", "height": null, "height_m": null, "levels": null, "tract_id": "40017300202", "tract_name": "3002.02", "tags": {"building": "yes"}}}, {"type": "Feature", "geometry": {"type": "Polygon", "coordinates": [[[-97.9603283, 35.5734216], [-97.9600722, 35.5734238], [-97.9600707, 35.5733105], [-97.9603269, 35.5733083], [-97.9603283, 35.5734216]]]}, "properties": {"osm_id": 1079916379, "building": "yes", "name": "", "height": null, "height_m": null, "levels": null, "tract_id": "40017300202", "tract_name": "3002.02", "tags": {"building": "yes"}}}, {"type": "Feature", "geometry": {"type": "Polygon", "coordinates": [[[-97.9600534, 35.5732024], [-97.9600551, 35.5733235], [-97.9598244, 35.5733257], [-97.9598227, 35.5732046], [-97.9600534, 35.5732024]]]}, "properties": {"osm_id": 1079916380, "building": "yes", "name": "", "height": null, "height_m": null, "levels": null, "tract_id": "40017300202", "tract_name": "3002.02", "tags": {"building": "yes"}}}, {"type": "Feature", "geometry": {"type": "Polygon", "coordinates": [[[-97.9511491, 35.5216608], [-97.9511189, 35.5217183], [-97.9511197, 35.5219413], [-97.9515072, 35.5219743], [-97.9514966, 35.5220571], [-97.9509575, 35.5220112], [-97.9509461, 35.5215901], [-97.9511491, 35.5216608]]]}, "properties": {"osm_id": 1307352196, "building": "yes", "name": "", "height": null, "height_m": null, "levels": null, "tract_id": "40017300202", "tract_name": "3002.02", "tags": {"addr:city": "El Reno", "addr:housenumber": "200", "addr:postcode": "73036", "addr:state": "OK", "addr:street": "East Elm Street", "building": "yes"}}}, {"type": "Feature", "geometry": {"type": "Polygon", "coordinates": [[[-97.9521226, 35.5218974], [-97.9520597, 35.521738], [-97.952039, 35.5217434], [-97.9520134, 35.5216785], [-97.9518199, 35.5217291], [-97.9519085, 35.5219534], [-97.9521226, 35.5218974]]]}, "properties": {"osm_id": 1307352198, "building": "yes", "name": "Z Construction & Roofing", "height": null, "height_m": null, "levels": null, "tract_id": "40017300202", "tract_name": "3002.02", "tags": {"addr:city": "El Reno", "addr:housenumber": "1305", "addr:postcode": "73036", "addr:state": "OK", "addr:street": "South Rock Island Avenue", "building": "yes", "craft": "roofer", "name": "Z Construction & Roofing", "phone": "+1-405-882-1717", "website": "https://www.zconstruction.biz/"}}}, {"type": "Feature", "geometry": {"type": "Polygon", "coordinates": [[[-97.9514785, 35.5216064], [-97.9514239, 35.5214623], [-97.9513618, 35.5214779], [-97.9514163, 35.521622], [-97.9514785, 35.5216064]]]}, "properties": {"osm_id": 1307352199, "building": "yes", "name": "", "height": null, "height_m": null, "levels": null, "tract_id": "40017300202", "tract_name": "3002.02", "tags": {"building": "yes"}}}, {"type": "Feature", "geometry": {"type": "Polygon", "coordinates": [[[-97.9522614, 35.5222382], [-97.9522997, 35.5221678], [-97.9521133, 35.5221006], [-97.952075, 35.5221709], [-97.9522614, 35.5222382]]]}, "properties": {"osm_id": 1307501984, "building": "yes", "name": "", "height": null, "height_m": null, "levels": null, "tract_id": "40017300202", "tract_name": "3002.02", "tags": {"building": "yes"}}}, {"type": "Feature", "geometry": {"type": "Polygon", "coordinates": [[[-97.9519005, 35.5222592], [-97.9519211, 35.5221884], [-97.9516359, 35.5221333], [-97.951615, 35.5222047], [-97.9516247, 35.5222066], [-97.9516219, 35.5222161], [-97.9516313, 35.5222179], [-97.9516343, 35.5222078], [-97.9519005, 35.5222592]]]}, "properties": {"osm_id": 1307501985, "building": "yes", "name": "El Reno Mini Storage", "height": null, "height_m": null, "levels": null, "tract_id": "40017300202", "tract_name": "3002.02", "tags": {"addr:city": "El Reno", "addr:housenumber": "308", "addr:postcode": "73036", "addr:state": "OK", "addr:street": "East Elm Street", "building": "yes", "name": "El Reno Mini Storage", "phone": "+1-405-262-3334", "shop": "storage_rental"}}}, {"type": "Feature", "geometry": {"type": "Polygon", "coordinates": [[[-97.951793, 35.5221565], [-97.9518147, 35.5221114], [-97.9516871, 35.5220708], [-97.9516654, 35.5221158], [-97.951793, 35.5221565]]]}, "properties": {"osm_id": 1307501986, "building": "yes", "name": "", "height": null, "height_m": null, "levels": null, "tract_id": "40017300202", "tract_name": "3002.02", "tags": {"building": "yes"}}}, {"type": "Feature", "geometry": {"type": "Polygon", "coordinates": [[[-97.9513356, 35.5221263], [-97.9514074, 35.5221255], [-97.9514096, 35.5222627], [-97.9513377, 35.5222634], [-97.9513356, 35.5221263]]]}, "properties": {"osm_id": 1307501987, "building": "yes", "name": "", "height": null, "height_m": null, "levels": null, "tract_id": "40017300202", "tract_name": "3002.02", "tags": {"building": "yes"}}}, {"type": "Feature", "geometry": {"type": "Polygon", "coordinates": [[[-97.95147, 35.5221238], [-97.9515418, 35.522123], [-97.951544, 35.5222602], [-97.9514722, 35.5222609], [-97.95147, 35.5221238]]]}, "properties": {"osm_id": 1307501988, "building": "yes", "name": "", "height": null, "height_m": null, "levels": null, "tract_id": "40017300202", "tract_name": "3002.02", "tags": {"building": "yes"}}}, {"type": "Feature", "geometry": {"type": "Polygon", "coordinates": [[[-97.9512717, 35.5222624], [-97.9512683, 35.5220978], [-97.9511966, 35.5220987], [-97.9512, 35.5222634], [-97.9512717, 35.5222624]]]}, "properties": {"osm_id": 1307501989, "building": "yes", "name": "", "height": null, "height_m": null, "levels": null, "tract_id": "40017300202", "tract_name": "3002.02", "tags": {"building": "yes"}}}, {"type": "Feature", "geometry": {"type": "Polygon", "coordinates": [[[-97.9511355, 35.5222632], [-97.9511321, 35.5220986], [-97.9510604, 35.5220996], [-97.9510638, 35.5222642], [-97.9511355, 35.5222632]]]}, "properties": {"osm_id": 1307501990, "building": "yes", "name": "", "height": null, "height_m": null, "levels": null, "tract_id": "40017300202", "tract_name": "3002.02", "tags": {"building": "yes"}}}, {"type": "Feature", "geometry": {"type": "Polygon", "coordinates": [[[-97.9509843, 35.5214913], [-97.9510769, 35.5209741], [-97.9508455, 35.5209466], [-97.9508759, 35.520777], [-97.950784, 35.5207661], [-97.9507532, 35.5209384], [-97.9507382, 35.5209366], [-97.9506461, 35.5214512], [-97.9509843, 35.5214913]]]}, "properties": {"osm_id": 1307501991, "building": "yes", "name": "", "height": null, "height_m": null, "levels": null, "tract_id": "40017300202", "tract_name": "3002.02", "tags": {"addr:city": "El Reno", "addr:housenumber": "200", "addr:postcode": "73036", "addr:state": "OK", "addr:street": "East Elm Street", "building": "yes"}}}, {"type": "Feature", "geometry": {"type": "Polygon", "coordinates": [[[-97.9373297, 35.5085137], [-97.9372565, 35.5084675], [-97.9373986, 35.508318], [-97.9374719, 35.5083641], [-97.9373297, 35.5085137]]]}, "properties": {"osm_id": 1323670627, "building": "roof", "name": "", "height": null, "height_m": null, "levels": null, "tract_id": "40017300202", "tract_name": "3002.02", "tags": {"building": "roof"}}}, {"type": "Feature", "geometry": {"type": "Polygon", "coordinates": [[[-97.9377361, 35.5085028], [-97.9377346, 35.508657], [-97.9375121, 35.5086556], [-97.9375135, 35.5085014], [-97.9377361, 35.5085028]]]}, "properties": {"osm_id": 1323670628, "building": "yes", "name": "", "height": null, "height_m": null, "levels": null, "tract_id": "40017300202", "tract_name": "3002.02", "tags": {"building": "yes"}}}, {"type": "Feature", "geometry": {"type": "Polygon", "coordinates": [[[-97.8756944, 35.5619358], [-97.8756872, 35.5619023], [-97.8757072, 35.5618995], [-97.8756847, 35.5617946], [-97.8754673, 35.5618253], [-97.8754786, 35.5618784], [-97.8755083, 35.5618742], [-97.8755192, 35.5619251], [-97.8754892, 35.5619293], [-97.8755041, 35.5619986], [-97.875684, 35.561973], [-97.8756765, 35.5619383], [-97.8756944, 35.5619358]]]}, "properties": {"osm_id": 1365674774, "building": "house", "name": "", "height": null, "height_m": null, "levels": null, "tract_id": "40017300202", "tract_name": "3002.02", "tags": {"addr:housenumber": "3509", "addr:street": "Quail Run Road", "building": "house"}}}, {"type": "Feature", "geometry": {"type": "Polygon", "coordinates": [[[-97.9559227, 35.5486124], [-97.9558852, 35.548655], [-97.9558671, 35.5487054], [-97.9558707, 35.5487578], [-97.9558954, 35.5488062], [-97.9559385, 35.5488452], [-97.9559951, 35.5488704], [-97.9560587, 35.5488788], [-97.9561195, 35.5488703], [-97.9561738, 35.5488466], [-97.956216, 35.54881], [-97.9562417, 35.5487644], [-97.9562483, 35.5487145], [-97.956235, 35.5486656], [-97.9562033, 35.5486225], [-97.9561564, 35.54859], [-97.9560992, 35.5485712], [-97.9560377, 35.5485682], [-97.9559756, 35.5485823], [-97.9559227, 35.5486124]]]}, "properties": {"osm_id": 1391719903, "building": "yes", "name": "", "height": null, "height_m": null, "levels": null, "tract_id": "40017300202", "tract_name": "3002.02", "tags": {"building": "yes"}}}, {"type": "Feature", "geometry": {"type": "Polygon", "coordinates": [[[-97.9565381, 35.5490691], [-97.9566141, 35.5490806], [-97.9566844, 35.5490722], [-97.9567479, 35.5490463], [-97.9567984, 35.5490057], [-97.9568307, 35.5489542], [-97.9568417, 35.5488971], [-97.9568302, 35.5488401], [-97.9567975, 35.5487888], [-97.9567468, 35.5487484], [-97.956683, 35.5487229], [-97.9566127, 35.5487148], [-97.9565368, 35.5487267], [-97.9564703, 35.5487589], [-97.9564211, 35.5488075], [-97.9563952, 35.5488668], [-97.9563954, 35.5489297], [-97.9564219, 35.5489889], [-97.9564714, 35.5490372], [-97.9565381, 35.5490691]]]}, "properties": {"osm_id": 1391719909, "building": "yes", "name": "", "height": null, "height_m": null, "levels": null, "tract_id": "40017300202", "tract_name": "3002.02", "tags": {"building": "yes"}}}, {"type": "Feature", "geometry": {"type": "Polygon", "coordinates": [[[-97.9557979, 35.5485793], [-97.955649, 35.5485794], [-97.9556488, 35.548241], [-97.9557983, 35.5482409], [-97.9557983, 35.5482506], [-97.9558736, 35.5482505], [-97.9558737, 35.5483802], [-97.9557978, 35.5483803], [-97.9557979, 35.5485793]]]}, "properties": {"osm_id": 1391719910, "building": "yes", "name": "", "height": null, "height_m": null, "levels": null, "tract_id": "40017300202", "tract_name": "3002.02", "tags": {"building": "yes"}}}, {"type": "Feature", "geometry": {"type": "Polygon", "coordinates": [[[-97.9564106, 35.548494], [-97.9563977, 35.5485169], [-97.9563804, 35.5485313], [-97.9563584, 35.5485407], [-97.9563339, 35.548544], [-97.9563094, 35.5485409], [-97.9562873, 35.5485317], [-97.9562698, 35.5485174], [-97.9562559, 35.5484941], [-97.9562558, 35.5483636], [-97.9562757, 35.5483502], [-97.9562757, 35.5482487], [-97.9564056, 35.5482487], [-97.9564056, 35.5482105], [-97.9565529, 35.5482105], [-97.9565529, 35.5483893], [-97.95641, 35.5483893], [-97.95641, 35.5484479], [-97.9564244, 35.5484479], [-97.9564244, 35.5484918], [-97.9564106, 35.5484918], [-97.9564106, 35.548494]]]}, "properties": {"osm_id": 1391719911, "building": "yes", "name": "", "height": null, "height_m": null, "levels": null, "tract_id": "40017300202", "tract_name": "3002.02", "tags": {"building": "yes"}}}, {"type": "Feature", "geometry": {"type": "Polygon", "coordinates": [[[-97.9565939, 35.5485801], [-97.9567206, 35.5485797], [-97.9567202, 35.5484921], [-97.9565935, 35.5484924], [-97.9565939, 35.5485801]]]}, "properties": {"osm_id": 1391719915, "building": "yes", "name": "", "height": null, "height_m": null, "levels": null, "tract_id": "40017300202", "tract_name": "3002.02", "tags": {"building": "yes"}}}, {"type": "Feature", "geometry": {"type": "Polygon", "coordinates": [[[-97.9566691, 35.5484761], [-97.956586, 35.5484771], [-97.9565849, 35.5484143], [-97.956668, 35.5484133], [-97.9566691, 35.5484761]]]}, "properties": {"osm_id": 1391719916, "building": "yes", "name": "", "height": null, "height_m": null, "levels": null, "tract_id": "40017300202", "tract_name": "3002.02", "tags": {"building": "yes"}}}, {"type": "Feature", "geometry": {"type": "Polygon", "coordinates": [[[-97.9565368, 35.5484767], [-97.9564565, 35.5484765], [-97.9564568, 35.548413], [-97.9565371, 35.5484132], [-97.9565368, 35.5484767]]]}, "properties": {"osm_id": 1391719917, "building": "yes", "name": "", "height": null, "height_m": null, "levels": null, "tract_id": "40017300202", "tract_name": "3002.02", "tags": {"building": "yes"}}}, {"type": "Feature", "geometry": {"type": "Polygon", "coordinates": [[[-97.9567607, 35.5483185], [-97.9567321, 35.5483185], [-97.9567321, 35.5483019], [-97.9567048, 35.5483019], [-97.9567048, 35.5482741], [-97.9567104, 35.5482741], [-97.9567103, 35.5482246], [-97.9567659, 35.5482245], [-97.956766, 35.5482746], [-97.9567606, 35.5482746], [-97.9567607, 35.5483185]]]}, "properties": {"osm_id": 1391719918, "building": "yes", "name": "", "height": null, "height_m": null, "levels": null, "tract_id": "40017300202", "tract_name": "3002.02", "tags": {"building": "yes"}}}]}