{"type": "FeatureCollection", "features": [{"type": "Feature", "geometry": {"type": "Polygon", "coordinates": [[[-95.9752785, 36.1796429], [-95.9752003, 36.1796433], [-95.9751987, 36.1793867], [-95.9752769, 36.1793863], [-95.9752785, 36.1796429]]]}, "properties": {"osm_id": 192369208, "building": "retail", "name": "Sonic", "height": null, "height_m": 3.0, "levels": 1, "tract_id": "40143000500", "tract_name": "5", "tags": {"addr:city": "Tulsa", "addr:housenumber": "1627", "addr:postcode": "74106", "addr:state": "OK", "addr:street": "North Peoria Avenue East", "amenity": "fast_food", "brand": "Sonic", "brand:wikidata": "Q7561808", "building": "retail", "building:levels": "1", "cuisine": "burger", "drive_in": "yes", "name": "Sonic", "opening_hours": "Mo-Th 06:00-23:00; Fr-Sa 06:00-24:00; Su 07:00-23:00", "phone": "+1 918-295-4840", "roof:levels": "0", "roof:shape": "flat", "takeaway": "yes", "website": "https://locations.sonicdrivein.com/ok/tulsa/1627-n.-peoria-ave.html"}}}, {"type": "Feature", "geometry": {"type": "Polygon", "coordinates": [[[-95.9749752, 36.1797962], [-95.9749726, 36.1793828], [-95.9750285, 36.1793825], [-95.9750312, 36.179796], [-95.9749752, 36.1797962]]]}, "properties": {"osm_id": 192369211, "building": "roof", "name": "", "height": null, "height_m": null, "levels": null, "tract_id": "40143000500", "tract_name": "5", "tags": {"building": "roof"}}}, {"type": "Feature", "geometry": {"type": "Polygon", "coordinates": [[[-95.975143, 36.1797339], [-95.9751407, 36.179387], [-95.9751974, 36.1793863], [-95.9752003, 36.1796433], [-95.9751949, 36.1797315], [-95.975143, 36.1797339]]]}, "properties": {"osm_id": 192369212, "building": "roof", "name": "", "height": null, "height_m": null, "levels": null, "tract_id": "40143000500", "tract_name": "5", "tags": {"building": "roof"}}}, {"type": "Feature", "geometry": {"type": "Polygon", "coordinates": [[[-95.9748943, 36.1778389], [-95.9748942, 36.1775887], [-95.9750537, 36.1775886], [-95.9750537, 36.1776423], [-95.9750784, 36.1776423], [-95.9750785, 36.1777864], [-95.9750558, 36.1777864], [-95.9750558, 36.1778396], [-95.9749863, 36.1778396], [-95.9749863, 36.1778479], [-95.9749397, 36.1778479], [-95.9749397, 36.1778389], [-95.9748943, 36.1778389]]]}, "properties": {"osm_id": 229816031, "building": "retail", "name": "QuikTrip", "height": null, "height_m": 3.0, "levels": 1, "tract_id": "40143000500", "tract_name": "5", "tags": {"addr:city": "Tulsa", "addr:country": "US", "addr:housenumber": "1313", "addr:state": "OK", "addr:street": "East Pine Street", "brand": "QuikTrip", "brand:wikidata": "Q7271953", "building": "retail", "building:levels": "1", "name": "QuikTrip", "opening_hours": "24/7", "roof:levels": "0", "roof:shape": "flat", "shop": "convenience", "short_name": "QT", "wheelchair": "yes"}}}, {"type": "Feature", "geometry": {"type": "Polygon", "coordinates": [[[-95.97511, 36.1774238], [-95.9750835, 36.1774236], [-95.9750042, 36.1774233], [-95.974895, 36.1774227], [-95.9747912, 36.1774222], [-95.9746896, 36.1774217], [-95.9746908, 36.1772612], [-95.9747901, 36.1772617], [-95.9748948, 36.1772623], [-95.9750015, 36.1772628], [-95.9750833, 36.1772632], [-95.9751112, 36.1772633], [-95.97511, 36.1774238]]]}, "properties": {"osm_id": 229816033, "building": "yes", "name": "QuikTrip", "height": null, "height_m": null, "levels": null, "tract_id": "40143000500", "tract_name": "5", "tags": {"addr:city": "Tulsa", "addr:country": "US", "addr:housenumber": "1313", "addr:state": "OK", "addr:street": "East Pine Street", "amenity": "fuel", "brand": "QuikTrip", "brand:wikidata": "Q7271953", "building": "yes", "compressed_air": "yes", "fuel:e10": "yes", "name": "QuikTrip", "opening_hours": "24/7", "wheelchair": "yes"}}}, {"type": "Feature", "geometry": {"type": "Polygon", "coordinates": [[[-95.9741093, 36.1802961], [-95.9741262, 36.1808696], [-95.9745801, 36.1808632], [-95.9745801, 36.1808775], [-95.974671, 36.1808772], [-95.9746716, 36.180872], [-95.9747544, 36.180873], [-95.9747527, 36.1807853], [-95.9747836, 36.1807858], [-95.9747807, 36.1807316], [-95.9747299, 36.180733], [-95.9747302, 36.1807278], [-95.9746749, 36.1807286], [-95.9746749, 36.1807218], [-95.9745789, 36.1807225], [-95.9745789, 36.1807303], [-95.9745033, 36.1807307], [-95.9745033, 36.1807239], [-95.9743679, 36.1807243], [-95.9743285, 36.1807561], [-95.9743113, 36.1807436], [-95.9743157, 36.1807386], [-95.974275, 36.1807043], [-95.9742697, 36.1807096], [-95.9742582, 36.1807007], [-95.9742962, 36.1806689], [-95.9742931, 36.1805586], [-95.9742715, 36.1805586], [-95.9742679, 36.18043], [-95.9742931, 36.1804297], [-95.9742905, 36.1803522], [-95.974267, 36.1803518], [-95.9742662, 36.1803236], [-95.9742754, 36.1803236], [-95.9742741, 36.1802833], [-95.974194, 36.1802847], [-95.9741932, 36.1802961], [-95.9741093, 36.1802961]]]}, "properties": {"osm_id": 511755356, "building": "retail", "name": "", "height": null, "height_m": 3.0, "levels": 1, "tract_id": "40143000500", "tract_name": "5", "tags": {"addr:city": "Tulsa", "addr:housenumber": "1717", "addr:state": "OK", "addr:street": "North Peoria Avenue East", "building": "retail", "building:levels": "1"}}}, {"type": "Feature", "geometry": {"type": "Polygon", "coordinates": [[[-95.9712269, 36.1912398], [-95.9711823, 36.1912399], [-95.971182, 36.1911851], [-95.9712266, 36.1911849], [-95.9712269, 36.1912398]]]}, "properties": {"osm_id": 538087255, "building": "yes", "name": "", "height": null, "height_m": null, "levels": null, "tract_id": "40143000500", "tract_name": "5", "tags": {"building": "yes"}}}, {"type": "Feature", "geometry": {"type": "Polygon", "coordinates": [[[-95.9711592, 36.1912511], [-95.9712437, 36.1912508], [-95.9712436, 36.1912307], [-95.971338, 36.1912303], [-95.9713383, 36.1912695], [-95.9713196, 36.1912695], [-95.9713202, 36.1913593], [-95.9711599, 36.1913599], [-95.9711592, 36.1912511]]]}, "properties": {"osm_id": 538087256, "building": "yes", "name": "", "height": null, "height_m": null, "levels": null, "tract_id": "40143000500", "tract_name": "5", "tags": {"addr:city": "Tulsa", "addr:country": "US", "addr:housenumber": "1522", "addr:state": "OK", "addr:street": "East Apache Street", "building": "yes"}}}, {"type": "Feature", "geometry": {"type": "Polygon", "coordinates": [[[-95.9709567, 36.1911066], [-95.9709576, 36.1912295], [-95.9705113, 36.1912317], [-95.9705104, 36.1911088], [-95.9709567, 36.1911066]]]}, "properties": {"osm_id": 538087257, "building": "retail", "name": "", "height": null, "height_m": null, "levels": null, "tract_id": "40143000500", "tract_name": "5", "tags": {"building": "retail"}}}, {"type": "Feature", "geometry": {"type": "Polygon", "coordinates": [[[-95.9714422, 36.1886669], [-95.9714285, 36.1881742], [-95.971251, 36.1881774], [-95.9712492, 36.1881154], [-95.97132, 36.1881141], [-95.9713176, 36.188027], [-95.9714049, 36.1880254], [-95.9714036, 36.1879772], [-95.9713443, 36.1879783], [-95.9713316, 36.18752], [-95.9713955, 36.1875189], [-95.9713943, 36.1874756], [-95.9713086, 36.1874771], [-95.9713061, 36.1873857], [-95.97089, 36.1873933], [-95.9708883, 36.1873313], [-95.9708509, 36.1873319], [-95.9708241, 36.1873324], [-95.9708267, 36.1874258], [-95.9708271, 36.1874414], [-95.9708281, 36.1874788], [-95.9707231, 36.1874807], [-95.9707242, 36.1875198], [-95.9704072, 36.1875255], [-95.9704098, 36.1876169], [-95.9703837, 36.1876173], [-95.970385, 36.1876649], [-95.9704102, 36.1876645], [-95.9704128, 36.1877593], [-95.9707308, 36.1877536], [-95.9707313, 36.1877715], [-95.9707833, 36.1877706], [-95.9707827, 36.1877515], [-95.9708317, 36.1877506], [-95.9708361, 36.1879092], [-95.9702107, 36.1879205], [-95.9702091, 36.1878627], [-95.9700977, 36.1878647], [-95.9701148, 36.1884786], [-95.9702032, 36.1884771], [-95.9702088, 36.1886785], [-95.9704075, 36.1886749], [-95.9704069, 36.1886549], [-95.9708057, 36.1886477], [-95.9708071, 36.188698], [-95.9710676, 36.1886933], [-95.9710671, 36.1886736], [-95.9714422, 36.1886669]]]}, "properties": {"osm_id": 645165816, "building": "school", "name": "", "height": null, "height_m": null, "levels": null, "tract_id": "40143000500", "tract_name": "5", "tags": {"addr:city": "Tulsa", "addr:country": "US", "addr:housenumber": "1514", "addr:postcode": "74106", "addr:state": "OK", "addr:street": "East Zion Street", "building": "school"}}}, {"type": "Feature", "geometry": {"type": "Polygon", "coordinates": [[[-95.9750484, 36.182659], [-95.9750457, 36.1824014], [-95.9752268, 36.1824002], [-95.9752277, 36.1824891], [-95.9754181, 36.1824878], [-95.9754196, 36.1826339], [-95.9752292, 36.1826352], [-95.9752294, 36.1826578], [-95.9750484, 36.182659]]]}, "properties": {"osm_id": 949893654, "building": "yes", "name": "", "height": null, "height_m": null, "levels": null, "tract_id": "40143000500", "tract_name": "5", "tags": {"amenity": "place_of_worship", "building": "yes", "religion": "christian"}}}, {"type": "Feature", "geometry": {"type": "Polygon", "coordinates": [[[-95.9584925, 36.1912425], [-95.9586628, 36.1912414], [-95.9586643, 36.1913923], [-95.9584939, 36.1913934], [-95.9584925, 36.1912425]]]}, "properties": {"osm_id": 1005483120, "building": "yes", "name": "", "height": null, "height_m": null, "levels": null, "tract_id": "40143000500", "tract_name": "5", "tags": {"building": "yes", "check_date": "2023-01-03", "shop": "vacant"}}}, {"type": "Feature", "geometry": {"type": "Polygon", "coordinates": [[[-95.9568563, 36.1911342], [-95.9568563, 36.1912674], [-95.9568275, 36.1912674], [-95.9566297, 36.1912674], [-95.9566297, 36.1911342], [-95.9568563, 36.1911342]]]}, "properties": {"osm_id": 1308692972, "building": "industrial", "name": "", "height": null, "height_m": null, "levels": null, "tract_id": "40143000500", "tract_name": "5", "tags": {"amenity": "place_of_worship", "building": "industrial", "religion": "christian"}}}, {"type": "Feature", "geometry": {"type": "Polygon", "coordinates": [[[-95.9742275, 36.1793537], [-95.9742275, 36.1798479], [-95.9739508, 36.1798479], [-95.9739508, 36.1793537], [-95.9742275, 36.1793537]]]}, "properties": {"osm_id": 1317314438, "building": "retail", "name": "", "height": null, "height_m": null, "levels": null, "tract_id": "40143000500", "tract_name": "5", "tags": {"addr:city": "Tulsa", "addr:postcode": "74106", "addr:street": "North Peoria Avenue East", "building": "retail"}}}, {"type": "Feature", "geometry": {"type": "Polygon", "coordinates": [[[-95.9735378, 36.1786045], [-95.9742275, 36.1786045], [-95.9742275, 36.1793537], [-95.9739508, 36.1793537], [-95.9735378, 36.1793537], [-95.9735378, 36.1789938], [-95.9734605, 36.1789938], [-95.9734605, 36.1788422], [-95.9735048, 36.1788422], [-95.9735048, 36.178761], [-95.9735378, 36.178761], [-95.9735378, 36.1786045]]]}, "properties": {"osm_id": 1317314439, "building": "retail", "name": "", "height": null, "height_m": null, "levels": null, "tract_id": "40143000500", "tract_name": "5", "tags": {"addr:city": "Tulsa", "addr:postcode": "74106", "addr:street": "North Peoria Avenue East", "building": "retail", "shop": "vacant"}}}, {"type": "Feature", "geometry": {"type": "Polygon", "coordinates": [[[-95.9708625, 36.186427], [-95.9703032, 36.1864413], [-95.9702955, 36.1862466], [-95.9707073, 36.186236], [-95.9708146, 36.1862923], [-95.9708594, 36.1863496], [-95.9708625, 36.186427]]]}, "properties": {"osm_id": 1334338182, "building": "school", "name": "Historical Building", "height": null, "height_m": 6.0, "levels": 2, "tract_id": "40143000500", "tract_name": "5", "tags": {"building": "school", "building:levels": "2", "name": "Historical Building"}}}]}