{"type": "FeatureCollection", "features": [{"type": "Feature", "geometry": {"type": "Polygon", "coordinates": [[[-95.9177623, 36.7393071], [-95.917684, 36.7393077], [-95.9176845, 36.7393478], [-95.9176766, 36.7393478], [-95.9176771, 36.7393875], [-95.9175733, 36.7393883], [-95.9175732, 36.7393819], [-95.917548, 36.7393821], [-95.9175472, 36.7393083], [-95.9175741, 36.7393081], [-95.9175742, 36.7393192], [-95.9175859, 36.7393191], [-95.9175857, 36.7393025], [-95.9175717, 36.739288], [-95.9175714, 36.7392656], [-95.9175851, 36.7392553], [-95.917585, 36.7392427], [-95.9175933, 36.7392427], [-95.9175932, 36.7392389], [-95.9177615, 36.7392376], [-95.9177616, 36.7392441], [-95.9177623, 36.7393071]]]}, "properties": {"osm_id": 223328401, "building": "house", "name": "", "height": null, "height_m": null, "levels": null, "tract_id": "40147000601", "tract_name": "6.01", "tags": {"addr:city": "Bartlesville", "addr:country": "US", "addr:housenumber": "1000", "addr:postcode": "74006", "addr:street": "Guinn Lane", "building": "house"}}}, {"type": "Feature", "geometry": {"type": "Polygon", "coordinates": [[[-95.9311509, 36.7320263], [-95.9311501, 36.7318914], [-95.9312936, 36.7318909], [-95.9312938, 36.7319273], [-95.9315061, 36.7319265], [-95.9315057, 36.7318515], [-95.9316407, 36.731851], [-95.9316431, 36.7322551], [-95.931293, 36.7322564], [-95.9312932, 36.732295], [-95.9311475, 36.7322955], [-95.9311467, 36.7321593], [-95.9310572, 36.7321596], [-95.9310564, 36.7320267], [-95.9311509, 36.7320263]]]}, "properties": {"osm_id": 347403757, "building": "church", "name": "The Church of Jesus Christ of Latter-day Saints", "height": null, "height_m": null, "levels": null, "tract_id": "40147000601", "tract_name": "6.01", "tags": {"amenity": "place_of_worship", "building": "church", "denomination": "mormon", "gnis:feature_id": "1778672", "name": "The Church of Jesus Christ of Latter-day Saints", "religion": "christian"}}}, {"type": "Feature", "geometry": {"type": "Polygon", "coordinates": [[[-95.9314484, 36.7399378], [-95.9321127, 36.7399395], [-95.9321112, 36.7403269], [-95.9322246, 36.7403272], [-95.9322931, 36.7403273], [-95.9322931, 36.7403465], [-95.9322928, 36.7404048], [-95.9322925, 36.7404723], [-95.9322818, 36.7404723], [-95.9322818, 36.740481], [-95.93228, 36.7409371], [-95.9322799, 36.7409483], [-95.9322922, 36.7409483], [-95.9322919, 36.7410164], [-95.9322917, 36.7410712], [-95.9322916, 36.7410956], [-95.9322267, 36.7410955], [-95.9321099, 36.7410952], [-95.9321086, 36.7414138], [-95.9310732, 36.7414111], [-95.9309624, 36.7414108], [-95.930968, 36.7400292], [-95.9310294, 36.7400294], [-95.9311894, 36.7400298], [-95.9311898, 36.7399416], [-95.9312575, 36.7399418], [-95.9312584, 36.7397351], [-95.9314492, 36.7397356], [-95.9314484, 36.7399378]]]}, "properties": {"osm_id": 680099714, "building": "retail", "name": "Walmart Supercenter", "height": null, "height_m": null, "levels": null, "tract_id": "40147000601", "tract_name": "6.01", "tags": {"addr:city": "Bartlesville", "addr:country": "US", "addr:housenumber": "4000", "addr:postcode": "74006", "addr:state": "OK", "addr:street": "Southeast Green Country Road", "brand": "Walmart", "brand:wikidata": "Q483551", "building": "retail", "name": "Walmart Supercenter", "opening_hours": "24/7", "operator": "Walmart", "operator:wikidata": "Q483551", "payment:app:walmart": "yes", "payment:apple_pay": "no", "payment:google_pay": "no", "payment:samsung_pay": "no", "phone": "+1 918-335-6600", "ref": "41", "ref:walmart": "41", "sensory_friendly:accommodation": "dimmed_light;static_screens;no_pa", "sensory_friendly:conditional": "yes @ 08:00-10:00", "shop": "supermarket", "website": "https://www.walmart.com/store/41-bartlesville-ok"}}}, {"type": "Feature", "geometry": {"type": "Polygon", "coordinates": [[[-95.9318769, 36.728607], [-95.931614, 36.7286102], [-95.9316098, 36.7283892], [-95.9318727, 36.728386], [-95.9318769, 36.728607]]]}, "properties": {"osm_id": 689053076, "building": "yes", "name": "", "height": null, "height_m": null, "levels": null, "tract_id": "40147000601", "tract_name": "6.01", "tags": {"building": "yes"}}}, {"type": "Feature", "geometry": {"type": "Polygon", "coordinates": [[[-95.9324831, 36.7286424], [-95.9322216, 36.7286467], [-95.9322165, 36.728448], [-95.932478, 36.7284437], [-95.9324831, 36.7286424]]]}, "properties": {"osm_id": 689053077, "building": "yes", "name": "", "height": null, "height_m": null, "levels": null, "tract_id": "40147000601", "tract_name": "6.01", "tags": {"building": "yes"}}}, {"type": "Feature", "geometry": {"type": "Polygon", "coordinates": [[[-95.9322055, 36.728794], [-95.9322149, 36.7291046], [-95.9320165, 36.7291085], [-95.9320071, 36.7287978], [-95.9322055, 36.728794]]]}, "properties": {"osm_id": 689053078, "building": "yes", "name": "", "height": null, "height_m": null, "levels": null, "tract_id": "40147000601", "tract_name": "6.01", "tags": {"building": "yes"}}}, {"type": "Feature", "geometry": {"type": "Polygon", "coordinates": [[[-95.9324925, 36.7290917], [-95.9323141, 36.7290948], [-95.932306, 36.7287993], [-95.9324844, 36.7287961], [-95.9324925, 36.7290917]]]}, "properties": {"osm_id": 689053079, "building": "yes", "name": "", "height": null, "height_m": null, "levels": null, "tract_id": "40147000601", "tract_name": "6.01", "tags": {"building": "yes"}}}, {"type": "Feature", "geometry": {"type": "Polygon", "coordinates": [[[-95.9327674, 36.7287972], [-95.9327741, 36.7290971], [-95.9325949, 36.7290997], [-95.9325882, 36.7287998], [-95.9327674, 36.7287972]]]}, "properties": {"osm_id": 689053080, "building": "yes", "name": "", "height": null, "height_m": null, "levels": null, "tract_id": "40147000601", "tract_name": "6.01", "tags": {"building": "yes"}}}, {"type": "Feature", "geometry": {"type": "Polygon", "coordinates": [[[-95.933053, 36.728794], [-95.9330557, 36.7290982], [-95.932883, 36.7290991], [-95.9328803, 36.728795], [-95.933053, 36.728794]]]}, "properties": {"osm_id": 689053081, "building": "yes", "name": "", "height": null, "height_m": null, "levels": null, "tract_id": "40147000601", "tract_name": "6.01", "tags": {"building": "yes"}}}, {"type": "Feature", "geometry": {"type": "Polygon", "coordinates": [[[-95.9343747, 36.7293841], [-95.9343734, 36.7294706], [-95.9342861, 36.7294697], [-95.9342874, 36.7293832], [-95.9343747, 36.7293841]]]}, "properties": {"osm_id": 689053082, "building": "yes", "name": "", "height": null, "height_m": null, "levels": null, "tract_id": "40147000601", "tract_name": "6.01", "tags": {"building": "yes"}}}, {"type": "Feature", "geometry": {"type": "Polygon", "coordinates": [[[-95.9332107, 36.7324316], [-95.9332098, 36.7318761], [-95.9338328, 36.7318755], [-95.9338337, 36.732431], [-95.9332107, 36.7324316]]]}, "properties": {"osm_id": 732624356, "building": "yes", "name": "Red Apple Bowling Center", "height": null, "height_m": null, "levels": null, "tract_id": "40147000601", "tract_name": "6.01", "tags": {"addr:city": "Bartlesville", "addr:housenumber": "1414", "addr:state": "OK", "addr:street": "Southeast Washington Boulevard", "building": "yes", "check_date": "2024-06-07", "leisure": "bowling_alley", "name": "Red Apple Bowling Center"}}}, {"type": "Feature", "geometry": {"type": "Polygon", "coordinates": [[[-95.9348796, 36.7366044], [-95.9348814, 36.7365221], [-95.9348017, 36.7365221], [-95.9348017, 36.7364994], [-95.9345911, 36.7365008], [-95.9346018, 36.7366086], [-95.9346885, 36.7366129], [-95.934692, 36.7366356], [-95.9348088, 36.7366299], [-95.9348123, 36.73661], [-95.9348796, 36.7366044]]]}, "properties": {"osm_id": 849342308, "building": "yes", "name": "Chicken Express", "height": null, "height_m": null, "levels": null, "tract_id": "40147000601", "tract_name": "6.01", "tags": {"addr:city": "Bartlesville", "addr:housenumber": "1234", "addr:postcode": "74006", "addr:state": "OK", "addr:street": "Southeast Washington Boulevard", "amenity": "fast_food", "brand": "Chicken Express", "brand:wikidata": "Q5096235", "building": "yes", "cuisine": "chicken", "name": "Chicken Express", "takeaway": "yes"}}}, {"type": "Feature", "geometry": {"type": "Polygon", "coordinates": [[[-95.934807, 36.7372085], [-95.9346141, 36.7372042], [-95.9346035, 36.7369915], [-95.9348088, 36.7369844], [-95.934807, 36.7372085]]]}, "properties": {"osm_id": 849342309, "building": "yes", "name": "My Dentist", "height": null, "height_m": null, "levels": null, "tract_id": "40147000601", "tract_name": "6.01", "tags": {"addr:city": "Bartlesville", "addr:housenumber": "1224", "addr:postcode": "74006", "addr:state": "OK", "addr:street": "Southeast Washington Boulevard", "amenity": "dentist", "brand": "My Dentist", "brand:wikidata": "Q6945266", "building": "yes", "check_date": "2024-10-03", "healthcare": "dentist", "name": "My Dentist"}}}, {"type": "Feature", "geometry": {"type": "Polygon", "coordinates": [[[-95.9346141, 36.7398476], [-95.934623, 36.7397441], [-95.9343664, 36.7397455], [-95.9343646, 36.7398363], [-95.9346141, 36.7398476]]]}, "properties": {"osm_id": 849342310, "building": "yes", "name": "Taco Bell", "height": null, "height_m": null, "levels": null, "tract_id": "40147000601", "tract_name": "6.01", "tags": {"addr:city": "Bartlesville", "addr:housenumber": "3875", "addr:postcode": "74006", "addr:state": "OK", "addr:street": "Southeast Green Country Road", "amenity": "fast_food", "brand": "Taco Bell", "brand:wikidata": "Q752941", "building": "yes", "cuisine": "tex-mex", "name": "Taco Bell", "opening_hours": "08:00-04:00", "phone": "+1 918-333-0963", "takeaway": "yes", "website": "https://locations.tacobell.com/ok/bartlesville/3875-se-green-country-rd.html"}}}, {"type": "Feature", "geometry": {"type": "Polygon", "coordinates": [[[-95.9340452, 36.7403911], [-95.9337864, 36.7403961], [-95.9337818, 36.7402887], [-95.9339836, 36.7402837], [-95.9339852, 36.7403689], [-95.9340375, 36.7403652], [-95.9340452, 36.7403911]]]}, "properties": {"osm_id": 849342311, "building": "yes", "name": "United States Post Office", "height": null, "height_m": null, "levels": null, "tract_id": "40147000601", "tract_name": "6.01", "tags": {"addr:city": "Bartlesville", "addr:housenumber": "3900", "addr:postcode": "74006", "addr:state": "OK", "addr:street": "Southeast Green Country Road", "amenity": "post_office", "brand": "United States Post Office", "brand:wikidata": "Q668687", "building": "yes", "name": "United States Post Office"}}}, {"type": "Feature", "geometry": {"type": "Polygon", "coordinates": [[[-95.9157611, 36.7422578], [-95.9157618, 36.7420905], [-95.9154964, 36.7420898], [-95.9154957, 36.7422557], [-95.9155049, 36.7422557], [-95.9155047, 36.7423], [-95.9157422, 36.7423006], [-95.9157424, 36.7422578], [-95.9157611, 36.7422578]]]}, "properties": {"osm_id": 1125277967, "building": "yes", "name": "", "height": null, "height_m": null, "levels": null, "tract_id": "40147000601", "tract_name": "6.01", "tags": {"addr:city": "Bartlesville", "addr:housenumber": "5503", "addr:postcode": "74006", "addr:state": "OK", "addr:street": "Southeast Adams Boulevard", "building": "yes", "telecom": "exchange"}}}, {"type": "Feature", "geometry": {"type": "Polygon", "coordinates": [[[-95.9000712, 36.7355609], [-95.9000712, 36.7355397], [-95.900019, 36.7355396], [-95.9000189, 36.7355608], [-95.9000712, 36.7355609]]]}, "properties": {"osm_id": 1212097905, "building": "yes", "name": "", "height": null, "height_m": null, "levels": null, "tract_id": "40147000601", "tract_name": "6.01", "tags": {"building": "yes"}}}, {"type": "Feature", "geometry": {"type": "Polygon", "coordinates": [[[-95.9313518, 36.7285061], [-95.9310624, 36.7284985], [-95.9310681, 36.7283597], [-95.9313518, 36.7283671], [-95.9313659, 36.7284069], [-95.9314738, 36.7284086], [-95.9314722, 36.7284751], [-95.931373, 36.7284735], [-95.9313518, 36.7285061]]]}, "properties": {"osm_id": 1218763266, "building": "yes", "name": "Union State Bank", "height": null, "height_m": null, "levels": null, "tract_id": "40147000601", "tract_name": "6.01", "tags": {"amenity": "bank", "building": "yes", "name": "Union State Bank"}}}, {"type": "Feature", "geometry": {"type": "Polygon", "coordinates": [[[-95.9166172, 36.7401161], [-95.9161704, 36.740118], [-95.9161692, 36.7399244], [-95.916616, 36.7399226], [-95.9166172, 36.7401161]]]}, "properties": {"osm_id": 1230529301, "building": "yes", "name": "Dollar General", "height": null, "height_m": null, "levels": null, "tract_id": "40147000601", "tract_name": "6.01", "tags": {"brand": "Dollar General", "brand:wikidata": "Q145168", "building": "yes", "name": "Dollar General", "shop": "variety_store", "website": "https://www.dollargeneral.com/store-directory/ok/bartlesville/6961"}}}, {"type": "Feature", "geometry": {"type": "Polygon", "coordinates": [[[-95.9336896, 36.7289794], [-95.9340672, 36.7289743], [-95.9340652, 36.7288802], [-95.9341126, 36.7288796], [-95.9341109, 36.7287986], [-95.9336859, 36.7288044], [-95.9336896, 36.7289794]]]}, "properties": {"osm_id": 1391228447, "building": "yes", "name": "", "height": null, "height_m": null, "levels": null, "tract_id": "40147000601", "tract_name": "6.01", "tags": {"building": "yes"}}}, {"type": "Feature", "geometry": {"type": "Polygon", "coordinates": [[[-95.9341148, 36.7287372], [-95.9341137, 36.7283664], [-95.9340063, 36.7283666], [-95.9340074, 36.7287374], [-95.9341148, 36.7287372]]]}, "properties": {"osm_id": 1391228448, "building": "yes", "name": "", "height": null, "height_m": null, "levels": null, "tract_id": "40147000601", "tract_name": "6.01", "tags": {"building": "yes"}}}, {"type": "Feature", "geometry": {"type": "Polygon", "coordinates": [[[-95.9335815, 36.7287369], [-95.9335917, 36.7284574], [-95.9336301, 36.7284583], [-95.9336312, 36.7284289], [-95.9336916, 36.7284303], [-95.9336937, 36.728374], [-95.9336338, 36.7283726], [-95.9336351, 36.7283372], [-95.9333887, 36.7283314], [-95.933384, 36.7284585], [-95.9335094, 36.7284614], [-95.9334994, 36.7287349], [-95.9335815, 36.7287369]]]}, "properties": {"osm_id": 1391228449, "building": "yes", "name": "", "height": null, "height_m": null, "levels": null, "tract_id": "40147000601", "tract_name": "6.01", "tags": {"building": "yes"}}}]}