{"type": "FeatureCollection", "features": [{"type": "Feature", "geometry": {"type": "Polygon", "coordinates": [[[-96.2193137, 35.9449036], [-96.2190603, 35.9449017], [-96.2189604, 35.9449883], [-96.2191114, 35.9450899], [-96.2193137, 35.9449036]]]}, "properties": {"osm_id": 68147490, "building": "yes", "name": "American Heritage Bank", "height": null, "height_m": null, "levels": null, "tract_id": "40037021102", "tract_name": "211.02", "tags": {"amenity": "bank", "atm": "yes", "building": "yes", "name": "American Heritage Bank", "opening_hours": "Mo-Fr 09:00-17:00"}}}, {"type": "Feature", "geometry": {"type": "Polygon", "coordinates": [[[-96.2143119, 35.9433482], [-96.2141506, 35.9433482], [-96.2141506, 35.9431885], [-96.2143119, 35.9431885], [-96.2143119, 35.9433482]]]}, "properties": {"osm_id": 68147527, "building": "yes", "name": "Kellyville, Oklahoma 74039", "height": null, "height_m": null, "levels": null, "tract_id": "40037021102", "tract_name": "211.02", "tags": {"amenity": "post_office", "brand": "United States Postal Service", "brand:wikidata": "Q668687", "building": "yes", "name": "Kellyville, Oklahoma 74039", "operator": "United States Postal Service", "operator:short": "USPS", "operator:type": "public", "operator:website": "https://www.usps.com", "operator:wikidata": "Q668687", "operator:wikipedia": "en:United States Postal Service", "short_name": "USPS"}}}, {"type": "Feature", "geometry": {"type": "Polygon", "coordinates": [[[-96.2213063, 35.9437296], [-96.2213063, 35.9436078], [-96.2213255, 35.9435867], [-96.2214623, 35.9435867], [-96.2214623, 35.943667], [-96.221361, 35.9437296], [-96.2213063, 35.9437296]]]}, "properties": {"osm_id": 68147529, "building": "yes", "name": "Conoco", "height": null, "height_m": null, "levels": null, "tract_id": "40037021102", "tract_name": "211.02", "tags": {"amenity": "fuel", "brand": "Conoco", "brand:wikidata": "Q109341187", "building": "yes", "name": "Conoco", "website": "https://www.conoco.com/station/CON-PONY-EXPRESS-0000901289/"}}}, {"type": "Feature", "geometry": {"type": "Polygon", "coordinates": [[[-96.2208228, 35.9443081], [-96.2208686, 35.9444628], [-96.2207202, 35.9444916], [-96.2207065, 35.9444452], [-96.220656, 35.944455], [-96.2206416, 35.9444063], [-96.2206921, 35.9443965], [-96.2206744, 35.9443369], [-96.2208228, 35.9443081]]]}, "properties": {"osm_id": 68147533, "building": "yes", "name": "Simple Simon's Pizza", "height": null, "height_m": null, "levels": null, "tract_id": "40037021102", "tract_name": "211.02", "tags": {"amenity": "restaurant", "building": "yes", "cuisine": "pizza", "name": "Simple Simon's Pizza"}}}, {"type": "Feature", "geometry": {"type": "Polygon", "coordinates": [[[-96.2211743, 35.9441666], [-96.2210077, 35.9441666], [-96.2210077, 35.9440502], [-96.2211743, 35.9440502], [-96.2211743, 35.9441666]]]}, "properties": {"osm_id": 68147546, "building": "yes", "name": "", "height": null, "height_m": null, "levels": null, "tract_id": "40037021102", "tract_name": "211.02", "tags": {"building": "yes"}}}, {"type": "Feature", "geometry": {"type": "Polygon", "coordinates": [[[-96.2215856, 35.9439265], [-96.2214001, 35.9439265], [-96.2214039, 35.9438198], [-96.2214709, 35.9437704], [-96.2215951, 35.9437735], [-96.2215856, 35.9439265]]]}, "properties": {"osm_id": 68147553, "building": "yes", "name": "Conoco", "height": null, "height_m": null, "levels": null, "tract_id": "40037021102", "tract_name": "211.02", "tags": {"brand": "Conoco", "brand:wikidata": "Q109341187", "building": "yes", "name": "Conoco", "shop": "convenience"}}}, {"type": "Feature", "geometry": {"type": "Polygon", "coordinates": [[[-96.2210427, 35.9429966], [-96.2208904, 35.9429375], [-96.2209649, 35.9428116], [-96.2211173, 35.9428707], [-96.2210427, 35.9429966]]]}, "properties": {"osm_id": 68147555, "building": "yes", "name": "", "height": null, "height_m": null, "levels": null, "tract_id": "40037021102", "tract_name": "211.02", "tags": {"building": "yes"}}}, {"type": "Feature", "geometry": {"type": "Polygon", "coordinates": [[[-96.2199219, 35.944114], [-96.2200619, 35.9439672], [-96.2201879, 35.9440459], [-96.2200479, 35.9441928], [-96.2199219, 35.944114]]]}, "properties": {"osm_id": 68147556, "building": "yes", "name": "Pony Express", "height": null, "height_m": null, "levels": null, "tract_id": "40037021102", "tract_name": "211.02", "tags": {"building": "yes", "name": "Pony Express", "shop": "convenience"}}}, {"type": "Feature", "geometry": {"type": "Polygon", "coordinates": [[[-96.1925018, 35.9881025], [-96.192577, 35.9879624], [-96.1926373, 35.9879837], [-96.1927032, 35.9880068], [-96.192628, 35.9881469], [-96.19256, 35.988123], [-96.1925018, 35.9881025]]]}, "properties": {"osm_id": 83003478, "building": "yes", "name": "Kellyville", "height": null, "height_m": null, "levels": null, "tract_id": "40037021102", "tract_name": "211.02", "tags": {"building": "yes", "name": "Kellyville", "operator": "Oklahoma Turnpike Authority"}}}, {"type": "Feature", "geometry": {"type": "Polygon", "coordinates": [[[-96.1941226, 35.9865074], [-96.1939525, 35.9865518], [-96.1939263, 35.9864859], [-96.1939095, 35.986444], [-96.1940796, 35.9863996], [-96.1940984, 35.9864467], [-96.1941226, 35.9865074]]]}, "properties": {"osm_id": 83003503, "building": "yes", "name": "Kellyville", "height": null, "height_m": null, "levels": null, "tract_id": "40037021102", "tract_name": "211.02", "tags": {"building": "yes", "name": "Kellyville", "operator": "Oklahoma Turnpike Authority"}}}, {"type": "Feature", "geometry": {"type": "Polygon", "coordinates": [[[-96.2203084, 35.9441513], [-96.2201772, 35.9442981], [-96.2201155, 35.9442619], [-96.2202467, 35.9441152], [-96.2203084, 35.9441513]]]}, "properties": {"osm_id": 99288383, "building": "yes", "name": "Phillips 66", "height": null, "height_m": null, "levels": null, "tract_id": "40037021102", "tract_name": "211.02", "tags": {"amenity": "fuel", "brand": "Phillips 66", "brand:wikidata": "Q1656230", "building": "yes", "name": "Phillips 66", "website": "https://www.phillips66gas.com/station/P66-GROCERY-EXPRESS-6-0000901291/"}}}, {"type": "Feature", "geometry": {"type": "Polygon", "coordinates": [[[-96.2656172, 35.7773636], [-96.2654264, 35.7773636], [-96.2654264, 35.7771811], [-96.2656172, 35.7771811], [-96.2656172, 35.7773636]]]}, "properties": {"osm_id": 348753731, "building": "yes", "name": "On UR Way", "height": null, "height_m": null, "levels": null, "tract_id": "40037021102", "tract_name": "211.02", "tags": {"building": "yes", "name": "On UR Way", "shop": "convenience"}}}, {"type": "Feature", "geometry": {"type": "Polygon", "coordinates": [[[-96.2657966, 35.7773185], [-96.2657331, 35.7773197], [-96.2657088, 35.7773202], [-96.265705, 35.7771962], [-96.2657317, 35.7771957], [-96.2657928, 35.7771944], [-96.2657966, 35.7773185]]]}, "properties": {"osm_id": 348753732, "building": "yes", "name": "Phillips 66", "height": null, "height_m": null, "levels": null, "tract_id": "40037021102", "tract_name": "211.02", "tags": {"amenity": "fuel", "brand": "Phillips 66", "building": "yes", "name": "Phillips 66"}}}, {"type": "Feature", "geometry": {"type": "Polygon", "coordinates": [[[-96.2633053, 35.8055581], [-96.2631415, 35.8055577], [-96.2631428, 35.8052349], [-96.2633066, 35.8052354], [-96.2633053, 35.8055581]]]}, "properties": {"osm_id": 382595269, "building": "yes", "name": "", "height": null, "height_m": null, "levels": null, "tract_id": "40037021102", "tract_name": "211.02", "tags": {"building": "yes"}}}, {"type": "Feature", "geometry": {"type": "Polygon", "coordinates": [[[-96.2664767, 35.7981654], [-96.2663671, 35.7981374], [-96.2664297, 35.7979763], [-96.2665392, 35.7980043], [-96.2664767, 35.7981654]]]}, "properties": {"osm_id": 382595270, "building": "yes", "name": "", "height": null, "height_m": null, "levels": null, "tract_id": "40037021102", "tract_name": "211.02", "tags": {"building": "yes"}}}, {"type": "Feature", "geometry": {"type": "Polygon", "coordinates": [[[-96.2648135, 35.8053303], [-96.2646692, 35.8053314], [-96.2646683, 35.8052502], [-96.2648126, 35.8052491], [-96.2648135, 35.8053303]]]}, "properties": {"osm_id": 382595271, "building": "yes", "name": "", "height": null, "height_m": null, "levels": null, "tract_id": "40037021102", "tract_name": "211.02", "tags": {"building": "yes"}}}, {"type": "Feature", "geometry": {"type": "Polygon", "coordinates": [[[-96.2641385, 35.8055698], [-96.2640384, 35.8055608], [-96.2640618, 35.8053899], [-96.2641619, 35.8053989], [-96.2641385, 35.8055698]]]}, "properties": {"osm_id": 382595272, "building": "yes", "name": "", "height": null, "height_m": null, "levels": null, "tract_id": "40037021102", "tract_name": "211.02", "tags": {"building": "yes"}}}, {"type": "Feature", "geometry": {"type": "Polygon", "coordinates": [[[-96.2630543, 35.8054653], [-96.2629106, 35.8054488], [-96.2629288, 35.8053444], [-96.2630725, 35.8053609], [-96.2630543, 35.8054653]]]}, "properties": {"osm_id": 382595273, "building": "yes", "name": "", "height": null, "height_m": null, "levels": null, "tract_id": "40037021102", "tract_name": "211.02", "tags": {"building": "yes"}}}, {"type": "Feature", "geometry": {"type": "Polygon", "coordinates": [[[-96.2666658, 35.797678], [-96.2666103, 35.7975702], [-96.266355, 35.7976566], [-96.266394, 35.7977324], [-96.2665582, 35.7976768], [-96.2665747, 35.7977089], [-96.2666658, 35.797678]]]}, "properties": {"osm_id": 382595274, "building": "yes", "name": "", "height": null, "height_m": null, "levels": null, "tract_id": "40037021102", "tract_name": "211.02", "tags": {"building": "yes"}}}, {"type": "Feature", "geometry": {"type": "Polygon", "coordinates": [[[-96.1994212, 35.771423], [-96.1994187, 35.7713201], [-96.1994643, 35.7713194], [-96.1994628, 35.7712565], [-96.1992092, 35.7712606], [-96.1992132, 35.7714264], [-96.1994212, 35.771423]]]}, "properties": {"osm_id": 382595275, "building": "yes", "name": "", "height": null, "height_m": null, "levels": null, "tract_id": "40037021102", "tract_name": "211.02", "tags": {"building": "yes"}}}, {"type": "Feature", "geometry": {"type": "Polygon", "coordinates": [[[-96.2047622, 35.9596612], [-96.2046561, 35.959661], [-96.2046565, 35.9594941], [-96.2047627, 35.9594943], [-96.2047622, 35.9596612]]]}, "properties": {"osm_id": 480180587, "building": "yes", "name": "", "height": null, "height_m": null, "levels": null, "tract_id": "40037021102", "tract_name": "211.02", "tags": {"building": "yes", "source": "Bing"}}}, {"type": "Feature", "geometry": {"type": "Polygon", "coordinates": [[[-96.2029054, 35.961239], [-96.2028168, 35.9612353], [-96.202814, 35.96128], [-96.2025725, 35.96127], [-96.202587, 35.9610379], [-96.2028324, 35.961048], [-96.2028295, 35.9610948], [-96.2029142, 35.9610983], [-96.2029054, 35.961239]]]}, "properties": {"osm_id": 480182947, "building": "yes", "name": "", "height": null, "height_m": null, "levels": null, "tract_id": "40037021102", "tract_name": "211.02", "tags": {"building": "yes", "source": "Bing"}}}, {"type": "Feature", "geometry": {"type": "Polygon", "coordinates": [[[-96.2026895, 35.9607516], [-96.2026817, 35.9608666], [-96.202329, 35.9608509], [-96.2023368, 35.9607359], [-96.2026895, 35.9607516]]]}, "properties": {"osm_id": 480182948, "building": "yes", "name": "", "height": null, "height_m": null, "levels": null, "tract_id": "40037021102", "tract_name": "211.02", "tags": {"building": "yes", "source": "Bing"}}}, {"type": "Feature", "geometry": {"type": "Polygon", "coordinates": [[[-96.2040726, 35.9601837], [-96.2037322, 35.9601575], [-96.2037768, 35.9597784], [-96.2036791, 35.9597709], [-96.2036986, 35.9596053], [-96.2036557, 35.959602], [-96.2036616, 35.9595519], [-96.2036313, 35.9595496], [-96.2036362, 35.9595079], [-96.2037094, 35.9595136], [-96.2037119, 35.9594923], [-96.2038804, 35.9595052], [-96.2038875, 35.9594443], [-96.2039069, 35.9594458], [-96.2039111, 35.9594099], [-96.2039694, 35.9594144], [-96.2039651, 35.9594503], [-96.2040971, 35.9594605], [-96.2040899, 35.9595214], [-96.2041499, 35.959526], [-96.2040726, 35.9601837]]]}, "properties": {"osm_id": 480182949, "building": "yes", "name": "", "height": null, "height_m": null, "levels": null, "tract_id": "40037021102", "tract_name": "211.02", "tags": {"building": "yes", "source": "Bing"}}}, {"type": "Feature", "geometry": {"type": "Polygon", "coordinates": [[[-96.2057969, 35.9586611], [-96.205679, 35.958711], [-96.2057965, 35.9588927], [-96.2055462, 35.9589987], [-96.2055898, 35.9590662], [-96.2055598, 35.9590789], [-96.2055766, 35.9591049], [-96.2055081, 35.9591339], [-96.2055416, 35.9591856], [-96.2054799, 35.9592117], [-96.2054297, 35.959134], [-96.2053428, 35.9591708], [-96.2052841, 35.95908], [-96.2051539, 35.9591351], [-96.2050699, 35.9590051], [-96.2052001, 35.9589499], [-96.2051808, 35.9589201], [-96.2055515, 35.9587631], [-96.2054816, 35.958655], [-96.2053426, 35.9587138], [-96.2052613, 35.9585881], [-96.2054004, 35.9585292], [-96.2053276, 35.9584167], [-96.205572, 35.9583132], [-96.2057969, 35.9586611]]]}, "properties": {"osm_id": 480182950, "building": "yes", "name": "", "height": null, "height_m": null, "levels": null, "tract_id": "40037021102", "tract_name": "211.02", "tags": {"building": "yes", "source": "Bing"}}}, {"type": "Feature", "geometry": {"type": "Polygon", "coordinates": [[[-96.2067653, 35.9597813], [-96.2064464, 35.9597813], [-96.2064464, 35.9594375], [-96.2065877, 35.9594375], [-96.2065877, 35.9596447], [-96.2067252, 35.9596447], [-96.2067252, 35.9597117], [-96.2067653, 35.9597117], [-96.2067653, 35.9597813]]]}, "properties": {"osm_id": 480182951, "building": "yes", "name": "", "height": null, "height_m": null, "levels": null, "tract_id": "40037021102", "tract_name": "211.02", "tags": {"building": "yes", "source": "Bing"}}}, {"type": "Feature", "geometry": {"type": "Polygon", "coordinates": [[[-96.206027, 35.9596222], [-96.2058533, 35.959624], [-96.2058509, 35.9594762], [-96.2059716, 35.959475], [-96.2059728, 35.9595505], [-96.2060258, 35.9595499], [-96.206027, 35.9596222]]]}, "properties": {"osm_id": 480182952, "building": "yes", "name": "", "height": null, "height_m": null, "levels": null, "tract_id": "40037021102", "tract_name": "211.02", "tags": {"building": "yes", "source": "Bing"}}}, {"type": "Feature", "geometry": {"type": "Polygon", "coordinates": [[[-96.2058781, 35.9598316], [-96.2058084, 35.9598331], [-96.205807, 35.9597893], [-96.2058767, 35.9597879], [-96.2058781, 35.9598316]]]}, "properties": {"osm_id": 480182953, "building": "yes", "name": "", "height": null, "height_m": null, "levels": null, "tract_id": "40037021102", "tract_name": "211.02", "tags": {"building": "yes", "source": "Bing"}}}, {"type": "Feature", "geometry": {"type": "Polygon", "coordinates": [[[-96.2058867, 35.9597825], [-96.205802, 35.9597846], [-96.2057978, 35.9596729], [-96.2058824, 35.9596708], [-96.2058867, 35.9597825]]]}, "properties": {"osm_id": 480182954, "building": "yes", "name": "", "height": null, "height_m": null, "levels": null, "tract_id": "40037021102", "tract_name": "211.02", "tags": {"building": "yes", "source": "Bing"}}}, {"type": "Feature", "geometry": {"type": "Polygon", "coordinates": [[[-96.2061474, 35.9599438], [-96.2061424, 35.9600439], [-96.205922, 35.9600368], [-96.2059269, 35.9599367], [-96.2061474, 35.9599438]]]}, "properties": {"osm_id": 480182955, "building": "yes", "name": "", "height": null, "height_m": null, "levels": null, "tract_id": "40037021102", "tract_name": "211.02", "tags": {"building": "yes", "source": "Bing"}}}, {"type": "Feature", "geometry": {"type": "Polygon", "coordinates": [[[-96.2063494, 35.9603065], [-96.20632, 35.9603008], [-96.2063521, 35.9601922], [-96.2065323, 35.9602271], [-96.2065002, 35.9603353], [-96.2063936, 35.9603146], [-96.2063858, 35.9603408], [-96.2063418, 35.9603322], [-96.2063494, 35.9603065]]]}, "properties": {"osm_id": 480182956, "building": "yes", "name": "", "height": null, "height_m": null, "levels": null, "tract_id": "40037021102", "tract_name": "211.02", "tags": {"building": "yes", "source": "Bing"}}}, {"type": "Feature", "geometry": {"type": "Polygon", "coordinates": [[[-96.2218957, 35.8648015], [-96.2216851, 35.8647695], [-96.2217015, 35.8646986], [-96.2219121, 35.8647305], [-96.2218957, 35.8648015]]]}, "properties": {"osm_id": 985470462, "building": "yes", "name": "", "height": null, "height_m": null, "levels": null, "tract_id": "40037021102", "tract_name": "211.02", "tags": {"building": "yes"}}}, {"type": "Feature", "geometry": {"type": "Polygon", "coordinates": [[[-96.2215513, 35.8647126], [-96.2214657, 35.864703], [-96.2214731, 35.8646596], [-96.2215587, 35.8646692], [-96.2215513, 35.8647126]]]}, "properties": {"osm_id": 985470463, "building": "yes", "name": "", "height": null, "height_m": null, "levels": null, "tract_id": "40037021102", "tract_name": "211.02", "tags": {"building": "yes"}}}, {"type": "Feature", "geometry": {"type": "Polygon", "coordinates": [[[-96.2219706, 35.8649005], [-96.2219299, 35.8648961], [-96.2219406, 35.8648294], [-96.2219814, 35.8648337], [-96.2219706, 35.8649005]]]}, "properties": {"osm_id": 985470464, "building": "yes", "name": "", "height": null, "height_m": null, "levels": null, "tract_id": "40037021102", "tract_name": "211.02", "tags": {"building": "yes"}}}, {"type": "Feature", "geometry": {"type": "Polygon", "coordinates": [[[-96.2222817, 35.8648181], [-96.2222344, 35.864803], [-96.2221388, 35.8649995], [-96.2221861, 35.8650146], [-96.2222817, 35.8648181]]]}, "properties": {"osm_id": 985470465, "building": "yes", "name": "", "height": null, "height_m": null, "levels": null, "tract_id": "40037021102", "tract_name": "211.02", "tags": {"building": "yes"}}}, {"type": "Feature", "geometry": {"type": "Polygon", "coordinates": [[[-96.2226714, 35.8647851], [-96.2224514, 35.8647812], [-96.2224546, 35.8646636], [-96.2226745, 35.8646675], [-96.2226714, 35.8647851]]]}, "properties": {"osm_id": 985470466, "building": "yes", "name": "", "height": null, "height_m": null, "levels": null, "tract_id": "40037021102", "tract_name": "211.02", "tags": {"building": "yes"}}}, {"type": "Feature", "geometry": {"type": "Polygon", "coordinates": [[[-96.22226, 35.8639672], [-96.2221592, 35.8639641], [-96.2221616, 35.8639138], [-96.2221572, 35.8639137], [-96.2221596, 35.8638624], [-96.2221687, 35.8638627], [-96.2221738, 35.8637547], [-96.2222135, 35.863756], [-96.2222157, 35.8637093], [-96.2222722, 35.8637111], [-96.22226, 35.8639672]]]}, "properties": {"osm_id": 985470467, "building": "yes", "name": "", "height": null, "height_m": null, "levels": null, "tract_id": "40037021102", "tract_name": "211.02", "tags": {"building": "yes"}}}, {"type": "Feature", "geometry": {"type": "Polygon", "coordinates": [[[-96.2327707, 35.9576499], [-96.2327539, 35.9576507], [-96.2327518, 35.9576203], [-96.2327686, 35.9576196], [-96.2327707, 35.9576499]]]}, "properties": {"osm_id": 1092772404, "building": "yes", "name": "", "height": null, "height_m": null, "levels": null, "tract_id": "40037021102", "tract_name": "211.02", "tags": {"building": "yes"}}}, {"type": "Feature", "geometry": {"type": "Polygon", "coordinates": [[[-96.2785804, 35.9238567], [-96.2785832, 35.9237276], [-96.2783604, 35.9237244], [-96.2783576, 35.9238535], [-96.2785804, 35.9238567]]]}, "properties": {"osm_id": 1092772416, "building": "yes", "name": "", "height": null, "height_m": null, "levels": null, "tract_id": "40037021102", "tract_name": "211.02", "tags": {"building": "yes"}}}, {"type": "Feature", "geometry": {"type": "Polygon", "coordinates": [[[-96.2779349, 35.9237185], [-96.277935, 35.923682], [-96.2778851, 35.9236819], [-96.277885, 35.9237183], [-96.2779349, 35.9237185]]]}, "properties": {"osm_id": 1092772417, "building": "yes", "name": "", "height": null, "height_m": null, "levels": null, "tract_id": "40037021102", "tract_name": "211.02", "tags": {"building": "yes"}}}, {"type": "Feature", "geometry": {"type": "Polygon", "coordinates": [[[-96.205968, 35.9705025], [-96.2059241, 35.9705044], [-96.2059191, 35.970427], [-96.2059629, 35.9704251], [-96.205968, 35.9705025]]]}, "properties": {"osm_id": 1095299753, "building": "yes", "name": "", "height": null, "height_m": null, "levels": null, "tract_id": "40037021102", "tract_name": "211.02", "tags": {"building": "yes"}}}, {"type": "Feature", "geometry": {"type": "Polygon", "coordinates": [[[-96.2049646, 35.9705899], [-96.2049332, 35.9705906], [-96.2049319, 35.9705522], [-96.2049633, 35.9705515], [-96.2049646, 35.9705899]]]}, "properties": {"osm_id": 1095299754, "building": "yes", "name": "", "height": null, "height_m": null, "levels": null, "tract_id": "40037021102", "tract_name": "211.02", "tags": {"building": "yes"}}}, {"type": "Feature", "geometry": {"type": "Polygon", "coordinates": [[[-96.2048221, 35.9706144], [-96.2047785, 35.9706157], [-96.2047753, 35.9705421], [-96.2048188, 35.9705408], [-96.2048221, 35.9706144]]]}, "properties": {"osm_id": 1095299755, "building": "yes", "name": "", "height": null, "height_m": null, "levels": null, "tract_id": "40037021102", "tract_name": "211.02", "tags": {"building": "yes"}}}, {"type": "Feature", "geometry": {"type": "Polygon", "coordinates": [[[-96.2100854, 35.9631375], [-96.2101023, 35.9631023], [-96.2100742, 35.9630935], [-96.2100573, 35.9631287], [-96.2100854, 35.9631375]]]}, "properties": {"osm_id": 1095299759, "building": "yes", "name": "", "height": null, "height_m": null, "levels": null, "tract_id": "40037021102", "tract_name": "211.02", "tags": {"building": "yes"}}}, {"type": "Feature", "geometry": {"type": "Polygon", "coordinates": [[[-96.2311714, 35.9321475], [-96.2312896, 35.9322397], [-96.2315303, 35.9320375], [-96.2314121, 35.9319452], [-96.2311714, 35.9321475]]]}, "properties": {"osm_id": 1148115031, "building": "yes", "name": "", "height": null, "height_m": null, "levels": null, "tract_id": "40037021102", "tract_name": "211.02", "tags": {"building": "yes", "source": "microsoft/BuildingFootprints"}}}, {"type": "Feature", "geometry": {"type": "Polygon", "coordinates": [[[-96.2305911, 35.9323063], [-96.2307182, 35.9323967], [-96.2310626, 35.9320795], [-96.2309355, 35.931989], [-96.2305911, 35.9323063]]]}, "properties": {"osm_id": 1148115032, "building": "yes", "name": "", "height": null, "height_m": null, "levels": null, "tract_id": "40037021102", "tract_name": "211.02", "tags": {"building": "yes", "source": "microsoft/BuildingFootprints"}}}, {"type": "Feature", "geometry": {"type": "Polygon", "coordinates": [[[-96.2173265, 35.9439063], [-96.217534, 35.9439083], [-96.2175353, 35.9438215], [-96.2173277, 35.9438195], [-96.2173265, 35.9439063]]]}, "properties": {"osm_id": 1148115033, "building": "yes", "name": "", "height": null, "height_m": null, "levels": null, "tract_id": "40037021102", "tract_name": "211.02", "tags": {"building": "yes", "source": "microsoft/BuildingFootprints"}}}, {"type": "Feature", "geometry": {"type": "Polygon", "coordinates": [[[-96.2173402, 35.9435689], [-96.2175172, 35.9435716], [-96.2175194, 35.9434783], [-96.2173424, 35.9434756], [-96.2173402, 35.9435689]]]}, "properties": {"osm_id": 1148115034, "building": "yes", "name": "", "height": null, "height_m": null, "levels": null, "tract_id": "40037021102", "tract_name": "211.02", "tags": {"building": "yes", "source": "microsoft/BuildingFootprints"}}}, {"type": "Feature", "geometry": {"type": "Polygon", "coordinates": [[[-96.21664, 35.9439068], [-96.2168036, 35.9439068], [-96.2168035, 35.9439872], [-96.217046, 35.9439873], [-96.2170461, 35.9438657], [-96.2170772, 35.9438657], [-96.2170772, 35.9438058], [-96.2169968, 35.9438057], [-96.2169968, 35.9437797], [-96.2167205, 35.9437795], [-96.2167205, 35.94376], [-96.2166401, 35.94376], [-96.21664, 35.9439068]]]}, "properties": {"osm_id": 1148115035, "building": "yes", "name": "", "height": null, "height_m": null, "levels": null, "tract_id": "40037021102", "tract_name": "211.02", "tags": {"building": "yes", "source": "microsoft/BuildingFootprints"}}}, {"type": "Feature", "geometry": {"type": "Polygon", "coordinates": [[[-96.216375, 35.9435652], [-96.2163774, 35.9433208], [-96.2165088, 35.9433216], [-96.2165102, 35.9431774], [-96.2160355, 35.9431744], [-96.2160317, 35.943563], [-96.216375, 35.9435652]]]}, "properties": {"osm_id": 1148115036, "building": "yes", "name": "", "height": null, "height_m": null, "levels": null, "tract_id": "40037021102", "tract_name": "211.02", "tags": {"building": "yes", "source": "microsoft/BuildingFootprints"}}}, {"type": "Feature", "geometry": {"type": "Polygon", "coordinates": [[[-96.2162006, 35.9439319], [-96.2161955, 35.9437683], [-96.2160374, 35.9437715], [-96.2160425, 35.9439352], [-96.2162006, 35.9439319]]]}, "properties": {"osm_id": 1148115037, "building": "yes", "name": "", "height": null, "height_m": null, "levels": null, "tract_id": "40037021102", "tract_name": "211.02", "tags": {"building": "yes", "source": "microsoft/BuildingFootprints"}}}, {"type": "Feature", "geometry": {"type": "Polygon", "coordinates": [[[-96.2162856, 35.9437648], [-96.2162051, 35.9437645], [-96.2162042, 35.9439252], [-96.2162846, 35.9439255], [-96.2162856, 35.9437648]]]}, "properties": {"osm_id": 1148115038, "building": "yes", "name": "", "height": null, "height_m": null, "levels": null, "tract_id": "40037021102", "tract_name": "211.02", "tags": {"building": "yes", "source": "microsoft/BuildingFootprints"}}}, {"type": "Feature", "geometry": {"type": "Polygon", "coordinates": [[[-96.2135243, 35.9439238], [-96.2135247, 35.9440302], [-96.2135462, 35.9440301], [-96.2135464, 35.944104], [-96.2137331, 35.9441036], [-96.213733, 35.9440775], [-96.2138859, 35.9440772], [-96.2138859, 35.9440728], [-96.213977, 35.9440726], [-96.2139766, 35.943925], [-96.2139336, 35.9439251], [-96.2139336, 35.9439229], [-96.2135243, 35.9439238]]]}, "properties": {"osm_id": 1148115039, "building": "church", "name": "Kellyville United Methodist Church", "height": null, "height_m": null, "levels": null, "tract_id": "40037021102", "tract_name": "211.02", "tags": {"addr:city": "Kellyville", "addr:postcode": "74039", "amenity": "place_of_worship", "building": "church", "denomination": "united_methodist", "name": "Kellyville United Methodist Church", "phone": "+1 918 247 6994", "religion": "christian", "source": "microsoft/BuildingFootprints", "website": "https://kvokumc.tripod.com/"}}}, {"type": "Feature", "geometry": {"type": "Polygon", "coordinates": [[[-96.2139706, 35.9438784], [-96.2140441, 35.9438777], [-96.2140428, 35.9437908], [-96.2139693, 35.9437916], [-96.2139706, 35.9438784]]]}, "properties": {"osm_id": 1148115040, "building": "carport", "name": "", "height": null, "height_m": null, "levels": null, "tract_id": "40037021102", "tract_name": "211.02", "tags": {"building": "carport", "source": "microsoft/BuildingFootprints"}}}, {"type": "Feature", "geometry": {"type": "Polygon", "coordinates": [[[-96.2137283, 35.9431995], [-96.2137296, 35.9432745], [-96.2137017, 35.9432748], [-96.2137026, 35.9433301], [-96.2137278, 35.9433298], [-96.213729, 35.9434058], [-96.2139328, 35.9434036], [-96.2139294, 35.9431973], [-96.2137283, 35.9431995]]]}, "properties": {"osm_id": 1148115041, "building": "yes", "name": "", "height": null, "height_m": null, "levels": null, "tract_id": "40037021102", "tract_name": "211.02", "tags": {"building": "yes", "source": "microsoft/BuildingFootprints"}}}, {"type": "Feature", "geometry": {"type": "Polygon", "coordinates": [[[-96.214888, 35.9434018], [-96.2147754, 35.9434039], [-96.214779, 35.9435309], [-96.2148916, 35.9435289], [-96.214888, 35.9434018]]]}, "properties": {"osm_id": 1148115042, "building": "yes", "name": "", "height": null, "height_m": null, "levels": null, "tract_id": "40037021102", "tract_name": "211.02", "tags": {"building": "yes", "source": "microsoft/BuildingFootprints"}}}, {"type": "Feature", "geometry": {"type": "Polygon", "coordinates": [[[-96.2143304, 35.9428665], [-96.2144483, 35.9428639], [-96.2144446, 35.9427511], [-96.2142462, 35.9427554], [-96.2142488, 35.9428335], [-96.2143292, 35.9428318], [-96.2143304, 35.9428665]]]}, "properties": {"osm_id": 1148115043, "building": "yes", "name": "", "height": null, "height_m": null, "levels": null, "tract_id": "40037021102", "tract_name": "211.02", "tags": {"building": "yes", "source": "microsoft/BuildingFootprints"}}}, {"type": "Feature", "geometry": {"type": "Polygon", "coordinates": [[[-96.2138138, 35.9428211], [-96.2138097, 35.9429197], [-96.2139125, 35.9429225], [-96.2139166, 35.9428239], [-96.2138138, 35.9428211]]]}, "properties": {"osm_id": 1148115044, "building": "yes", "name": "", "height": null, "height_m": null, "levels": null, "tract_id": "40037021102", "tract_name": "211.02", "tags": {"building": "yes", "source": "microsoft/BuildingFootprints"}}}, {"type": "Feature", "geometry": {"type": "Polygon", "coordinates": [[[-96.213702, 35.9428817], [-96.2137038, 35.9427471], [-96.2135724, 35.9427459], [-96.2135706, 35.9428805], [-96.213702, 35.9428817]]]}, "properties": {"osm_id": 1148115045, "building": "yes", "name": "", "height": null, "height_m": null, "levels": null, "tract_id": "40037021102", "tract_name": "211.02", "tags": {"building": "yes", "source": "microsoft/BuildingFootprints"}}}, {"type": "Feature", "geometry": {"type": "Polygon", "coordinates": [[[-96.2127665, 35.9422295], [-96.2127698, 35.9424683], [-96.2130799, 35.9424655], [-96.2130767, 35.9422353], [-96.2130285, 35.9422358], [-96.2130289, 35.942264], [-96.2129243, 35.942265], [-96.2129238, 35.942228], [-96.2127665, 35.9422295]]]}, "properties": {"osm_id": 1148115046, "building": "yes", "name": "", "height": null, "height_m": null, "levels": null, "tract_id": "40037021102", "tract_name": "211.02", "tags": {"building": "yes", "source": "microsoft/BuildingFootprints"}}}, {"type": "Feature", "geometry": {"type": "Polygon", "coordinates": [[[-96.213, 35.9421943], [-96.2129953, 35.941911], [-96.2127432, 35.9419138], [-96.2127479, 35.9421971], [-96.213, 35.9421943]]]}, "properties": {"osm_id": 1148115047, "building": "yes", "name": "", "height": null, "height_m": null, "levels": null, "tract_id": "40037021102", "tract_name": "211.02", "tags": {"building": "yes", "source": "microsoft/BuildingFootprints"}}}, {"type": "Feature", "geometry": {"type": "Polygon", "coordinates": [[[-96.2138001, 35.9421147], [-96.213978, 35.9421129], [-96.2139708, 35.9416482], [-96.2137928, 35.9416501], [-96.2138001, 35.9421147]]]}, "properties": {"osm_id": 1148115048, "building": "yes", "name": "", "height": null, "height_m": null, "levels": null, "tract_id": "40037021102", "tract_name": "211.02", "tags": {"building": "yes", "source": "microsoft/BuildingFootprints"}}}, {"type": "Feature", "geometry": {"type": "Polygon", "coordinates": [[[-96.213019, 35.9430924], [-96.2127766, 35.9430905], [-96.2127734, 35.9433663], [-96.2130158, 35.9433681], [-96.213019, 35.9430924]]]}, "properties": {"osm_id": 1148115049, "building": "yes", "name": "", "height": null, "height_m": null, "levels": null, "tract_id": "40037021102", "tract_name": "211.02", "tags": {"building": "yes", "source": "microsoft/BuildingFootprints"}}}, {"type": "Feature", "geometry": {"type": "Polygon", "coordinates": [[[-96.2127691, 35.943414], [-96.2127702, 35.9435421], [-96.2131779, 35.9435398], [-96.2131768, 35.9434117], [-96.2127691, 35.943414]]]}, "properties": {"osm_id": 1148115050, "building": "yes", "name": "", "height": null, "height_m": null, "levels": null, "tract_id": "40037021102", "tract_name": "211.02", "tags": {"building": "yes", "source": "microsoft/BuildingFootprints"}}}, {"type": "Feature", "geometry": {"type": "Polygon", "coordinates": [[[-96.2164723, 35.9469344], [-96.2164051, 35.947], [-96.2168385, 35.9472907], [-96.2169057, 35.9472251], [-96.2164723, 35.9469344]]]}, "properties": {"osm_id": 1148115051, "building": "warehouse", "name": "", "height": null, "height_m": null, "levels": null, "tract_id": "40037021102", "tract_name": "211.02", "tags": {"building": "warehouse", "source": "microsoft/BuildingFootprints"}}}, {"type": "Feature", "geometry": {"type": "Polygon", "coordinates": [[[-96.2167698, 35.9473556], [-96.2163445, 35.9470555], [-96.2162762, 35.947119], [-96.2167015, 35.947419], [-96.2167698, 35.9473556]]]}, "properties": {"osm_id": 1148115052, "building": "warehouse", "name": "", "height": null, "height_m": null, "levels": null, "tract_id": "40037021102", "tract_name": "211.02", "tags": {"building": "warehouse", "source": "microsoft/BuildingFootprints"}}}, {"type": "Feature", "geometry": {"type": "Polygon", "coordinates": [[[-96.2166388, 35.9474803], [-96.2162132, 35.9471802], [-96.2161441, 35.9472445], [-96.2165697, 35.9475445], [-96.2166388, 35.9474803]]]}, "properties": {"osm_id": 1148115053, "building": "warehouse", "name": "", "height": null, "height_m": null, "levels": null, "tract_id": "40037021102", "tract_name": "211.02", "tags": {"building": "warehouse", "source": "microsoft/BuildingFootprints"}}}, {"type": "Feature", "geometry": {"type": "Polygon", "coordinates": [[[-96.216504, 35.9476058], [-96.21608, 35.9473043], [-96.2159989, 35.9473791], [-96.2164229, 35.9476806], [-96.216504, 35.9476058]]]}, "properties": {"osm_id": 1148115054, "building": "warehouse", "name": "", "height": null, "height_m": null, "levels": null, "tract_id": "40037021102", "tract_name": "211.02", "tags": {"building": "warehouse", "source": "microsoft/BuildingFootprints"}}}, {"type": "Feature", "geometry": {"type": "Polygon", "coordinates": [[[-96.2138837, 35.9441529], [-96.2138119, 35.9441529], [-96.2138119, 35.9440964], [-96.2138837, 35.9440964], [-96.2138837, 35.9441529]]]}, "properties": {"osm_id": 1254673407, "building": "shed", "name": "", "height": null, "height_m": null, "levels": null, "tract_id": "40037021102", "tract_name": "211.02", "tags": {"building": "shed"}}}, {"type": "Feature", "geometry": {"type": "Polygon", "coordinates": [[[-96.2720997, 35.7761655], [-96.2721213, 35.776244], [-96.271896, 35.7762848], [-96.2718744, 35.7762063], [-96.2720997, 35.7761655]]]}, "properties": {"osm_id": 1320798176, "building": "yes", "name": "", "height": null, "height_m": null, "levels": null, "tract_id": "40037021102", "tract_name": "211.02", "tags": {"building": "yes"}}}, {"type": "Feature", "geometry": {"type": "Polygon", "coordinates": [[[-96.2712125, 35.776215], [-96.2712207, 35.7763173], [-96.271096, 35.7763238], [-96.2710878, 35.7762215], [-96.2712125, 35.776215]]]}, "properties": {"osm_id": 1320798177, "building": "yes", "name": "", "height": null, "height_m": null, "levels": null, "tract_id": "40037021102", "tract_name": "211.02", "tags": {"building": "yes"}}}, {"type": "Feature", "geometry": {"type": "Polygon", "coordinates": [[[-96.2709497, 35.776252], [-96.2707137, 35.776253], [-96.2707129, 35.7761455], [-96.2709489, 35.7761444], [-96.2709497, 35.776252]]]}, "properties": {"osm_id": 1320798178, "building": "yes", "name": "", "height": null, "height_m": null, "levels": null, "tract_id": "40037021102", "tract_name": "211.02", "tags": {"building": "yes"}}}, {"type": "Feature", "geometry": {"type": "Polygon", "coordinates": [[[-96.2705138, 35.7762422], [-96.2705165, 35.7765294], [-96.270364, 35.7765303], [-96.2703613, 35.7762431], [-96.2705138, 35.7762422]]]}, "properties": {"osm_id": 1320798179, "building": "yes", "name": "", "height": null, "height_m": null, "levels": null, "tract_id": "40037021102", "tract_name": "211.02", "tags": {"building": "yes"}}}, {"type": "Feature", "geometry": {"type": "Polygon", "coordinates": [[[-96.2699747, 35.7761159], [-96.2699761, 35.7762585], [-96.2698865, 35.776259], [-96.2698851, 35.7761165], [-96.2699747, 35.7761159]]]}, "properties": {"osm_id": 1320798180, "building": "yes", "name": "", "height": null, "height_m": null, "levels": null, "tract_id": "40037021102", "tract_name": "211.02", "tags": {"building": "yes"}}}, {"type": "Feature", "geometry": {"type": "Polygon", "coordinates": [[[-96.2696569, 35.7761693], [-96.2696609, 35.7763771], [-96.2696193, 35.7763776], [-96.2696196, 35.7763947], [-96.269568, 35.7763954], [-96.2695677, 35.7763783], [-96.2695582, 35.7763784], [-96.2695542, 35.7761706], [-96.2696569, 35.7761693]]]}, "properties": {"osm_id": 1320798181, "building": "yes", "name": "", "height": null, "height_m": null, "levels": null, "tract_id": "40037021102", "tract_name": "211.02", "tags": {"building": "yes"}}}, {"type": "Feature", "geometry": {"type": "Polygon", "coordinates": [[[-96.2693712, 35.7761529], [-96.2693726, 35.7763172], [-96.2692252, 35.776318], [-96.2692239, 35.7761537], [-96.2693712, 35.7761529]]]}, "properties": {"osm_id": 1320798182, "building": "yes", "name": "", "height": null, "height_m": null, "levels": null, "tract_id": "40037021102", "tract_name": "211.02", "tags": {"building": "yes"}}}, {"type": "Feature", "geometry": {"type": "Polygon", "coordinates": [[[-96.2685263, 35.7764239], [-96.2685338, 35.7764583], [-96.2684573, 35.7764692], [-96.2684499, 35.7764347], [-96.2685263, 35.7764239]]]}, "properties": {"osm_id": 1320798183, "building": "yes", "name": "", "height": null, "height_m": null, "levels": null, "tract_id": "40037021102", "tract_name": "211.02", "tags": {"building": "yes"}}}, {"type": "Feature", "geometry": {"type": "Polygon", "coordinates": [[[-96.2685089, 35.7761899], [-96.2685357, 35.7763923], [-96.268484, 35.7763968], [-96.2684571, 35.7761944], [-96.2685089, 35.7761899]]]}, "properties": {"osm_id": 1320798184, "building": "yes", "name": "", "height": null, "height_m": null, "levels": null, "tract_id": "40037021102", "tract_name": "211.02", "tags": {"building": "yes"}}}, {"type": "Feature", "geometry": {"type": "Polygon", "coordinates": [[[-96.2678424, 35.7770571], [-96.267841, 35.7772834], [-96.2676598, 35.7772827], [-96.2676611, 35.7770564], [-96.2678424, 35.7770571]]]}, "properties": {"osm_id": 1320798185, "building": "yes", "name": "", "height": null, "height_m": null, "levels": null, "tract_id": "40037021102", "tract_name": "211.02", "tags": {"building": "yes"}}}, {"type": "Feature", "geometry": {"type": "Polygon", "coordinates": [[[-96.2716122, 35.7754783], [-96.2716093, 35.7755516], [-96.271504, 35.7755489], [-96.2715069, 35.7754756], [-96.2716122, 35.7754783]]]}, "properties": {"osm_id": 1320798186, "building": "yes", "name": "", "height": null, "height_m": null, "levels": null, "tract_id": "40037021102", "tract_name": "211.02", "tags": {"building": "yes"}}}, {"type": "Feature", "geometry": {"type": "Polygon", "coordinates": [[[-96.2717128, 35.7754299], [-96.2716123, 35.7754295], [-96.2716126, 35.7753761], [-96.2715509, 35.7753758], [-96.2715513, 35.775317], [-96.2716131, 35.7753173], [-96.2716136, 35.7752439], [-96.2717141, 35.7752444], [-96.2717128, 35.7754299]]]}, "properties": {"osm_id": 1320798187, "building": "yes", "name": "", "height": null, "height_m": null, "levels": null, "tract_id": "40037021102", "tract_name": "211.02", "tags": {"building": "yes"}}}, {"type": "Feature", "geometry": {"type": "Polygon", "coordinates": [[[-96.2716102, 35.7743636], [-96.2714419, 35.7743636], [-96.2714419, 35.7742869], [-96.2716102, 35.7742869], [-96.2716102, 35.7743636]]]}, "properties": {"osm_id": 1320798188, "building": "yes", "name": "", "height": null, "height_m": null, "levels": null, "tract_id": "40037021102", "tract_name": "211.02", "tags": {"building": "yes"}}}, {"type": "Feature", "geometry": {"type": "Polygon", "coordinates": [[[-96.2706828, 35.7748358], [-96.2706828, 35.7749262], [-96.270544, 35.7749262], [-96.270544, 35.7749534], [-96.2704944, 35.7749534], [-96.2704944, 35.7748641], [-96.2706225, 35.7748641], [-96.2706225, 35.7748358], [-96.2706828, 35.7748358]]]}, "properties": {"osm_id": 1320798189, "building": "yes", "name": "", "height": null, "height_m": null, "levels": null, "tract_id": "40037021102", "tract_name": "211.02", "tags": {"building": "yes"}}}, {"type": "Feature", "geometry": {"type": "Polygon", "coordinates": [[[-96.2707499, 35.7747156], [-96.2707535, 35.7747632], [-96.2706877, 35.7747664], [-96.2706842, 35.7747189], [-96.2707499, 35.7747156]]]}, "properties": {"osm_id": 1320798190, "building": "yes", "name": "", "height": null, "height_m": null, "levels": null, "tract_id": "40037021102", "tract_name": "211.02", "tags": {"building": "yes"}}}, {"type": "Feature", "geometry": {"type": "Polygon", "coordinates": [[[-96.2700297, 35.7746384], [-96.270027, 35.7746893], [-96.2699023, 35.7746849], [-96.269905, 35.774634], [-96.2700297, 35.7746384]]]}, "properties": {"osm_id": 1320798191, "building": "yes", "name": "", "height": null, "height_m": null, "levels": null, "tract_id": "40037021102", "tract_name": "211.02", "tags": {"building": "yes"}}}, {"type": "Feature", "geometry": {"type": "Polygon", "coordinates": [[[-96.2705903, 35.7745687], [-96.270591, 35.7746331], [-96.2704475, 35.7746342], [-96.2704468, 35.7745698], [-96.2705903, 35.7745687]]]}, "properties": {"osm_id": 1320798192, "building": "yes", "name": "", "height": null, "height_m": null, "levels": null, "tract_id": "40037021102", "tract_name": "211.02", "tags": {"building": "yes"}}}, {"type": "Feature", "geometry": {"type": "Polygon", "coordinates": [[[-96.2706533, 35.7744447], [-96.270479, 35.7744425], [-96.2704811, 35.774329], [-96.2706555, 35.7743311], [-96.2706533, 35.7744447]]]}, "properties": {"osm_id": 1320798193, "building": "yes", "name": "", "height": null, "height_m": null, "levels": null, "tract_id": "40037021102", "tract_name": "211.02", "tags": {"building": "yes"}}}, {"type": "Feature", "geometry": {"type": "Polygon", "coordinates": [[[-96.2701759, 35.7744534], [-96.2696032, 35.7744501], [-96.2696048, 35.774266], [-96.2701775, 35.7742692], [-96.2701759, 35.7744534]]]}, "properties": {"osm_id": 1320798194, "building": "yes", "name": "", "height": null, "height_m": null, "levels": null, "tract_id": "40037021102", "tract_name": "211.02", "tags": {"building": "yes"}}}, {"type": "Feature", "geometry": {"type": "Polygon", "coordinates": [[[-96.2645821, 35.7872666], [-96.2640202, 35.7875723], [-96.2638547, 35.7873721], [-96.2644166, 35.7870664], [-96.2645821, 35.7872666]]]}, "properties": {"osm_id": 1320803853, "building": "yes", "name": "", "height": null, "height_m": null, "levels": null, "tract_id": "40037021102", "tract_name": "211.02", "tags": {"building": "yes"}}}, {"type": "Feature", "geometry": {"type": "Polygon", "coordinates": [[[-96.263992, 35.7880607], [-96.2638367, 35.7880593], [-96.2638434, 35.7875752], [-96.2639987, 35.7875766], [-96.263992, 35.7880607]]]}, "properties": {"osm_id": 1320803854, "building": "yes", "name": "", "height": null, "height_m": null, "levels": null, "tract_id": "40037021102", "tract_name": "211.02", "tags": {"building": "yes"}}}, {"type": "Feature", "geometry": {"type": "Polygon", "coordinates": [[[-96.2643743, 35.785119], [-96.2644311, 35.7851962], [-96.2642112, 35.7853029], [-96.2641543, 35.7852257], [-96.2643743, 35.785119]]]}, "properties": {"osm_id": 1320803855, "building": "yes", "name": "", "height": null, "height_m": null, "levels": null, "tract_id": "40037021102", "tract_name": "211.02", "tags": {"building": "yes"}}}, {"type": "Feature", "geometry": {"type": "Polygon", "coordinates": [[[-96.2648892, 35.784822], [-96.2650193, 35.7847491], [-96.2651077, 35.7848529], [-96.2649776, 35.7849258], [-96.2648892, 35.784822]]]}, "properties": {"osm_id": 1320803856, "building": "yes", "name": "", "height": null, "height_m": null, "levels": null, "tract_id": "40037021102", "tract_name": "211.02", "tags": {"building": "yes"}}}, {"type": "Feature", "geometry": {"type": "Polygon", "coordinates": [[[-96.2647578, 35.7846219], [-96.2644936, 35.7846175], [-96.2644993, 35.7843918], [-96.2647635, 35.7843962], [-96.2647578, 35.7846219]]]}, "properties": {"osm_id": 1320803857, "building": "yes", "name": "", "height": null, "height_m": null, "levels": null, "tract_id": "40037021102", "tract_name": "211.02", "tags": {"building": "yes"}}}, {"type": "Feature", "geometry": {"type": "Polygon", "coordinates": [[[-96.2649281, 35.7843727], [-96.265077, 35.7843803], [-96.2650704, 35.784465], [-96.2649216, 35.7844574], [-96.2649281, 35.7843727]]]}, "properties": {"osm_id": 1320803858, "building": "yes", "name": "", "height": null, "height_m": null, "levels": null, "tract_id": "40037021102", "tract_name": "211.02", "tags": {"building": "yes"}}}, {"type": "Feature", "geometry": {"type": "Polygon", "coordinates": [[[-96.2655196, 35.7840811], [-96.2654525, 35.7840817], [-96.2654498, 35.7838816], [-96.2655169, 35.783881], [-96.2655196, 35.7840811]]]}, "properties": {"osm_id": 1320803859, "building": "yes", "name": "", "height": null, "height_m": null, "levels": null, "tract_id": "40037021102", "tract_name": "211.02", "tags": {"building": "yes"}}}, {"type": "Feature", "geometry": {"type": "Polygon", "coordinates": [[[-96.2644842, 35.7835535], [-96.2644815, 35.7834501], [-96.2645837, 35.7834484], [-96.2645864, 35.7835518], [-96.2644842, 35.7835535]]]}, "properties": {"osm_id": 1320803860, "building": "yes", "name": "", "height": null, "height_m": null, "levels": null, "tract_id": "40037021102", "tract_name": "211.02", "tags": {"building": "yes"}}}, {"type": "Feature", "geometry": {"type": "Polygon", "coordinates": [[[-96.2650529, 35.7840115], [-96.2647565, 35.7840137], [-96.2647555, 35.7839267], [-96.2650519, 35.7839245], [-96.2650529, 35.7840115]]]}, "properties": {"osm_id": 1320803861, "building": "yes", "name": "", "height": null, "height_m": null, "levels": null, "tract_id": "40037021102", "tract_name": "211.02", "tags": {"building": "yes"}}}, {"type": "Feature", "geometry": {"type": "Polygon", "coordinates": [[[-96.2641865, 35.7840539], [-96.2641858, 35.7838728], [-96.2642435, 35.7838727], [-96.2642441, 35.7840538], [-96.2641865, 35.7840539]]]}, "properties": {"osm_id": 1320803862, "building": "yes", "name": "", "height": null, "height_m": null, "levels": null, "tract_id": "40037021102", "tract_name": "211.02", "tags": {"building": "yes"}}}, {"type": "Feature", "geometry": {"type": "Polygon", "coordinates": [[[-96.2637634, 35.7840121], [-96.2637661, 35.7838646], [-96.263885, 35.7838661], [-96.2638823, 35.7840135], [-96.2637634, 35.7840121]]]}, "properties": {"osm_id": 1320803863, "building": "yes", "name": "", "height": null, "height_m": null, "levels": null, "tract_id": "40037021102", "tract_name": "211.02", "tags": {"building": "yes"}}}, {"type": "Feature", "geometry": {"type": "Polygon", "coordinates": [[[-96.2637667, 35.7835633], [-96.26376, 35.7834322], [-96.2638935, 35.7834277], [-96.2639003, 35.7835588], [-96.2637667, 35.7835633]]]}, "properties": {"osm_id": 1320803864, "building": "yes", "name": "", "height": null, "height_m": null, "levels": null, "tract_id": "40037021102", "tract_name": "211.02", "tags": {"building": "yes"}}}, {"type": "Feature", "geometry": {"type": "Polygon", "coordinates": [[[-96.2639297, 35.7832108], [-96.2638115, 35.783219], [-96.2638028, 35.7831363], [-96.263921, 35.7831281], [-96.2639297, 35.7832108]]]}, "properties": {"osm_id": 1320803865, "building": "yes", "name": "", "height": null, "height_m": null, "levels": null, "tract_id": "40037021102", "tract_name": "211.02", "tags": {"building": "yes"}}}, {"type": "Feature", "geometry": {"type": "Polygon", "coordinates": [[[-96.2645533, 35.7830911], [-96.2644465, 35.7830899], [-96.2644498, 35.7829033], [-96.2645566, 35.7829045], [-96.2645533, 35.7830911]]]}, "properties": {"osm_id": 1320803866, "building": "yes", "name": "", "height": null, "height_m": null, "levels": null, "tract_id": "40037021102", "tract_name": "211.02", "tags": {"building": "yes"}}}, {"type": "Feature", "geometry": {"type": "Polygon", "coordinates": [[[-96.2650898, 35.7830898], [-96.2650885, 35.7832073], [-96.2649865, 35.7832066], [-96.2649879, 35.7830891], [-96.2650898, 35.7830898]]]}, "properties": {"osm_id": 1320803867, "building": "yes", "name": "", "height": null, "height_m": null, "levels": null, "tract_id": "40037021102", "tract_name": "211.02", "tags": {"building": "yes"}}}, {"type": "Feature", "geometry": {"type": "Polygon", "coordinates": [[[-96.265185, 35.7832081], [-96.2650885, 35.7832073], [-96.2650898, 35.7830898], [-96.2651863, 35.7830906], [-96.265185, 35.7832081]]]}, "properties": {"osm_id": 1320803868, "building": "yes", "name": "", "height": null, "height_m": null, "levels": null, "tract_id": "40037021102", "tract_name": "211.02", "tags": {"building": "yes"}}}, {"type": "Feature", "geometry": {"type": "Polygon", "coordinates": [[[-96.265655, 35.7822654], [-96.2658159, 35.7821228], [-96.2658704, 35.7821633], [-96.2657094, 35.7823058], [-96.265655, 35.7822654]]]}, "properties": {"osm_id": 1320803869, "building": "yes", "name": "", "height": null, "height_m": null, "levels": null, "tract_id": "40037021102", "tract_name": "211.02", "tags": {"building": "yes"}}}, {"type": "Feature", "geometry": {"type": "Polygon", "coordinates": [[[-96.2654753, 35.7823002], [-96.2653863, 35.7823096], [-96.2653743, 35.7822345], [-96.2654632, 35.7822251], [-96.2654753, 35.7823002]]]}, "properties": {"osm_id": 1320803870, "building": "yes", "name": "", "height": null, "height_m": null, "levels": null, "tract_id": "40037021102", "tract_name": "211.02", "tags": {"building": "yes"}}}, {"type": "Feature", "geometry": {"type": "Polygon", "coordinates": [[[-96.2655088, 35.7818193], [-96.2655102, 35.7817214], [-96.2656137, 35.7817223], [-96.2656124, 35.7818202], [-96.2655088, 35.7818193]]]}, "properties": {"osm_id": 1320803871, "building": "yes", "name": "", "height": null, "height_m": null, "levels": null, "tract_id": "40037021102", "tract_name": "211.02", "tags": {"building": "yes"}}}, {"type": "Feature", "geometry": {"type": "Polygon", "coordinates": [[[-96.264047, 35.7809489], [-96.2638915, 35.7808456], [-96.2639277, 35.7808097], [-96.2640833, 35.780913], [-96.264047, 35.7809489]]]}, "properties": {"osm_id": 1320803872, "building": "yes", "name": "", "height": null, "height_m": null, "levels": null, "tract_id": "40037021102", "tract_name": "211.02", "tags": {"building": "yes"}}}, {"type": "Feature", "geometry": {"type": "Polygon", "coordinates": [[[-96.2642133, 35.7809794], [-96.2642214, 35.7807716], [-96.2642864, 35.7807732], [-96.2642783, 35.780981], [-96.2642133, 35.7809794]]]}, "properties": {"osm_id": 1320803873, "building": "yes", "name": "", "height": null, "height_m": null, "levels": null, "tract_id": "40037021102", "tract_name": "211.02", "tags": {"building": "yes"}}}, {"type": "Feature", "geometry": {"type": "Polygon", "coordinates": [[[-96.2656537, 35.7804114], [-96.2656456, 35.7801971], [-96.2657057, 35.7801956], [-96.2657137, 35.78041], [-96.2656537, 35.7804114]]]}, "properties": {"osm_id": 1320803874, "building": "yes", "name": "", "height": null, "height_m": null, "levels": null, "tract_id": "40037021102", "tract_name": "211.02", "tags": {"building": "yes"}}}, {"type": "Feature", "geometry": {"type": "Polygon", "coordinates": [[[-96.2653331, 35.7804267], [-96.2652081, 35.7804298], [-96.2652027, 35.7802872], [-96.2653278, 35.7802841], [-96.2653331, 35.7804267]]]}, "properties": {"osm_id": 1320803875, "building": "yes", "name": "", "height": null, "height_m": null, "levels": null, "tract_id": "40037021102", "tract_name": "211.02", "tags": {"building": "yes"}}}, {"type": "Feature", "geometry": {"type": "Polygon", "coordinates": [[[-96.2653586, 35.7799958], [-96.2653667, 35.7798174], [-96.2654876, 35.779821], [-96.2654795, 35.7799994], [-96.2653586, 35.7799958]]]}, "properties": {"osm_id": 1320803876, "building": "yes", "name": "", "height": null, "height_m": null, "levels": null, "tract_id": "40037021102", "tract_name": "211.02", "tags": {"building": "yes"}}}, {"type": "Feature", "geometry": {"type": "Polygon", "coordinates": [[[-96.2647956, 35.7721784], [-96.2647096, 35.7721805], [-96.2647069, 35.7721073], [-96.2647929, 35.7721052], [-96.2647956, 35.7721784]]]}, "properties": {"osm_id": 1320803877, "building": "yes", "name": "", "height": null, "height_m": null, "levels": null, "tract_id": "40037021102", "tract_name": "211.02", "tags": {"building": "yes"}}}, {"type": "Feature", "geometry": {"type": "Polygon", "coordinates": [[[-96.2647096, 35.7721805], [-96.2647956, 35.7721784], [-96.2647996, 35.7722883], [-96.2647136, 35.7722903], [-96.2647096, 35.7721805]]]}, "properties": {"osm_id": 1320803878, "building": "yes", "name": "", "height": null, "height_m": null, "levels": null, "tract_id": "40037021102", "tract_name": "211.02", "tags": {"building": "yes"}}}, {"type": "Feature", "geometry": {"type": "Polygon", "coordinates": [[[-96.2646264, 35.7722925], [-96.2646224, 35.7721826], [-96.2647096, 35.7721805], [-96.2647136, 35.7722903], [-96.2646264, 35.7722925]]]}, "properties": {"osm_id": 1320803879, "building": "yes", "name": "", "height": null, "height_m": null, "levels": null, "tract_id": "40037021102", "tract_name": "211.02", "tags": {"building": "yes"}}}, {"type": "Feature", "geometry": {"type": "Polygon", "coordinates": [[[-96.2655558, 35.7725917], [-96.2654673, 35.7725939], [-96.2654657, 35.7725524], [-96.2655542, 35.7725502], [-96.2655558, 35.7725917]]]}, "properties": {"osm_id": 1320803880, "building": "yes", "name": "", "height": null, "height_m": null, "levels": null, "tract_id": "40037021102", "tract_name": "211.02", "tags": {"building": "yes"}}}, {"type": "Feature", "geometry": {"type": "Polygon", "coordinates": [[[-96.2655652, 35.7721064], [-96.265618, 35.7721043], [-96.2656274, 35.7722632], [-96.2655745, 35.7722653], [-96.2655652, 35.7721064]]]}, "properties": {"osm_id": 1320803881, "building": "yes", "name": "", "height": null, "height_m": null, "levels": null, "tract_id": "40037021102", "tract_name": "211.02", "tags": {"building": "yes"}}}, {"type": "Feature", "geometry": {"type": "Polygon", "coordinates": [[[-96.2655558, 35.7724285], [-96.2656746, 35.7724205], [-96.265688, 35.7725522], [-96.2655692, 35.7725601], [-96.2655558, 35.7724285]]]}, "properties": {"osm_id": 1320803882, "building": "yes", "name": "", "height": null, "height_m": null, "levels": null, "tract_id": "40037021102", "tract_name": "211.02", "tags": {"building": "yes"}}}, {"type": "Feature", "geometry": {"type": "Polygon", "coordinates": [[[-96.2657939, 35.7731161], [-96.2658288, 35.7731163], [-96.2658281, 35.7732267], [-96.2657931, 35.7732266], [-96.2657939, 35.7731161]]]}, "properties": {"osm_id": 1320803883, "building": "yes", "name": "", "height": null, "height_m": null, "levels": null, "tract_id": "40037021102", "tract_name": "211.02", "tags": {"building": "yes"}}}, {"type": "Feature", "geometry": {"type": "Polygon", "coordinates": [[[-96.2656671, 35.773226], [-96.2656684, 35.7730215], [-96.2657945, 35.773022], [-96.2657939, 35.7731161], [-96.2657931, 35.7732266], [-96.2656671, 35.773226]]]}, "properties": {"osm_id": 1320803884, "building": "yes", "name": "", "height": null, "height_m": null, "levels": null, "tract_id": "40037021102", "tract_name": "211.02", "tags": {"building": "yes"}}}, {"type": "Feature", "geometry": {"type": "Polygon", "coordinates": [[[-96.2655544, 35.7735329], [-96.2654552, 35.7735285], [-96.2654618, 35.7734299], [-96.265561, 35.7734342], [-96.2655544, 35.7735329]]]}, "properties": {"osm_id": 1320803885, "building": "yes", "name": "", "height": null, "height_m": null, "levels": null, "tract_id": "40037021102", "tract_name": "211.02", "tags": {"building": "yes"}}}, {"type": "Feature", "geometry": {"type": "Polygon", "coordinates": [[[-96.2673864, 35.7736297], [-96.2673122, 35.7736197], [-96.2673551, 35.7734097], [-96.2674293, 35.7734197], [-96.2673864, 35.7736297]]]}, "properties": {"osm_id": 1320803886, "building": "yes", "name": "", "height": null, "height_m": null, "levels": null, "tract_id": "40037021102", "tract_name": "211.02", "tags": {"building": "yes"}}}, {"type": "Feature", "geometry": {"type": "Polygon", "coordinates": [[[-96.2664972, 35.7734056], [-96.2666031, 35.7734008], [-96.2666166, 35.7735978], [-96.2665106, 35.7736025], [-96.2664972, 35.7734056]]]}, "properties": {"osm_id": 1320803887, "building": "yes", "name": "", "height": null, "height_m": null, "levels": null, "tract_id": "40037021102", "tract_name": "211.02", "tags": {"building": "yes"}}}, {"type": "Feature", "geometry": {"type": "Polygon", "coordinates": [[[-96.2664007, 35.7736297], [-96.2665466, 35.7736309], [-96.2665453, 35.773744], [-96.2663993, 35.7737429], [-96.2664007, 35.7736297]]]}, "properties": {"osm_id": 1320803888, "building": "yes", "name": "", "height": null, "height_m": null, "levels": null, "tract_id": "40037021102", "tract_name": "211.02", "tags": {"building": "yes"}}}, {"type": "Feature", "geometry": {"type": "Polygon", "coordinates": [[[-96.2664543, 35.7738408], [-96.2663752, 35.7738408], [-96.2663752, 35.7737723], [-96.2664543, 35.7737723], [-96.2664543, 35.7738408]]]}, "properties": {"osm_id": 1320803889, "building": "yes", "name": "", "height": null, "height_m": null, "levels": null, "tract_id": "40037021102", "tract_name": "211.02", "tags": {"building": "yes"}}}, {"type": "Feature", "geometry": {"type": "Polygon", "coordinates": [[[-96.2657744, 35.7739442], [-96.2657703, 35.7738408], [-96.2658876, 35.7738378], [-96.2658916, 35.7739412], [-96.2657744, 35.7739442]]]}, "properties": {"osm_id": 1320803890, "building": "yes", "name": "", "height": null, "height_m": null, "levels": null, "tract_id": "40037021102", "tract_name": "211.02", "tags": {"building": "yes"}}}, {"type": "Feature", "geometry": {"type": "Polygon", "coordinates": [[[-96.2662414, 35.7739744], [-96.2662397, 35.7739224], [-96.2662992, 35.7739212], [-96.2663008, 35.7739731], [-96.2662414, 35.7739744]]]}, "properties": {"osm_id": 1320803891, "building": "yes", "name": "", "height": null, "height_m": null, "levels": null, "tract_id": "40037021102", "tract_name": "211.02", "tags": {"building": "yes"}}}, {"type": "Feature", "geometry": {"type": "Polygon", "coordinates": [[[-96.2663497, 35.7740628], [-96.2662374, 35.7740593], [-96.2662414, 35.7739744], [-96.2663537, 35.7739779], [-96.2663497, 35.7740628]]]}, "properties": {"osm_id": 1320803892, "building": "yes", "name": "", "height": null, "height_m": null, "levels": null, "tract_id": "40037021102", "tract_name": "211.02", "tags": {"building": "yes"}}}, {"type": "Feature", "geometry": {"type": "Polygon", "coordinates": [[[-96.2673756, 35.7739768], [-96.2672624, 35.7739645], [-96.2672839, 35.773835], [-96.2673971, 35.7738473], [-96.2673756, 35.7739768]]]}, "properties": {"osm_id": 1320803893, "building": "yes", "name": "", "height": null, "height_m": null, "levels": null, "tract_id": "40037021102", "tract_name": "211.02", "tags": {"building": "yes"}}}, {"type": "Feature", "geometry": {"type": "Polygon", "coordinates": [[[-96.2664235, 35.7743228], [-96.2662867, 35.7743228], [-96.2662867, 35.7742837], [-96.2664235, 35.7742837], [-96.2664235, 35.7743228]]]}, "properties": {"osm_id": 1320803894, "building": "yes", "name": "", "height": null, "height_m": null, "levels": null, "tract_id": "40037021102", "tract_name": "211.02", "tags": {"building": "yes"}}}, {"type": "Feature", "geometry": {"type": "Polygon", "coordinates": [[[-96.2668137, 35.7744414], [-96.2667615, 35.7744439], [-96.2667588, 35.7744069], [-96.266811, 35.7744044], [-96.2668137, 35.7744414]]]}, "properties": {"osm_id": 1320803895, "building": "yes", "name": "", "height": null, "height_m": null, "levels": null, "tract_id": "40037021102", "tract_name": "211.02", "tags": {"building": "yes"}}}, {"type": "Feature", "geometry": {"type": "Polygon", "coordinates": [[[-96.2669371, 35.7744207], [-96.2668715, 35.7744211], [-96.2668701, 35.774247], [-96.2669358, 35.7742467], [-96.2669371, 35.7744207]]]}, "properties": {"osm_id": 1320803896, "building": "yes", "name": "", "height": null, "height_m": null, "levels": null, "tract_id": "40037021102", "tract_name": "211.02", "tags": {"building": "yes"}}}, {"type": "Feature", "geometry": {"type": "Polygon", "coordinates": [[[-96.2670216, 35.7747711], [-96.2667426, 35.7747711], [-96.2667426, 35.7747276], [-96.2670216, 35.7747276], [-96.2670216, 35.7747711]]]}, "properties": {"osm_id": 1320803897, "building": "yes", "name": "", "height": null, "height_m": null, "levels": null, "tract_id": "40037021102", "tract_name": "211.02", "tags": {"building": "yes"}}}, {"type": "Feature", "geometry": {"type": "Polygon", "coordinates": [[[-96.2647364, 35.7752194], [-96.264676, 35.7752194], [-96.264676, 35.7751639], [-96.2647364, 35.7751639], [-96.2647364, 35.7752194]]]}, "properties": {"osm_id": 1320803898, "building": "yes", "name": "", "height": null, "height_m": null, "levels": null, "tract_id": "40037021102", "tract_name": "211.02", "tags": {"building": "yes"}}}, {"type": "Feature", "geometry": {"type": "Polygon", "coordinates": [[[-96.2642951, 35.7747439], [-96.2644936, 35.7747439], [-96.2644936, 35.7748364], [-96.2642951, 35.7748364], [-96.2642951, 35.7747439]]]}, "properties": {"osm_id": 1320803899, "building": "yes", "name": "", "height": null, "height_m": null, "levels": null, "tract_id": "40037021102", "tract_name": "211.02", "tags": {"building": "yes"}}}, {"type": "Feature", "geometry": {"type": "Polygon", "coordinates": [[[-96.2641677, 35.7753228], [-96.2641677, 35.7752107], [-96.2642482, 35.7752107], [-96.2642482, 35.7753228], [-96.2641677, 35.7753228]]]}, "properties": {"osm_id": 1320803900, "building": "yes", "name": "", "height": null, "height_m": null, "levels": null, "tract_id": "40037021102", "tract_name": "211.02", "tags": {"building": "yes"}}}, {"type": "Feature", "geometry": {"type": "Polygon", "coordinates": [[[-96.2639652, 35.7752488], [-96.2640105, 35.775214], [-96.2642144, 35.7753892], [-96.2641691, 35.7754239], [-96.2639652, 35.7752488]]]}, "properties": {"osm_id": 1320803901, "building": "yes", "name": "", "height": null, "height_m": null, "levels": null, "tract_id": "40037021102", "tract_name": "211.02", "tags": {"building": "yes"}}}, {"type": "Feature", "geometry": {"type": "Polygon", "coordinates": [[[-96.2639089, 35.7753173], [-96.2638163, 35.7753193], [-96.2638123, 35.7751953], [-96.2639049, 35.7751933], [-96.2639089, 35.7753173]]]}, "properties": {"osm_id": 1320803902, "building": "yes", "name": "", "height": null, "height_m": null, "levels": null, "tract_id": "40037021102", "tract_name": "211.02", "tags": {"building": "yes"}}}, {"type": "Feature", "geometry": {"type": "Polygon", "coordinates": [[[-96.2638754, 35.7758265], [-96.263807, 35.7758269], [-96.2638057, 35.7756746], [-96.263874, 35.7756742], [-96.2638754, 35.7758265]]]}, "properties": {"osm_id": 1320803903, "building": "yes", "name": "", "height": null, "height_m": null, "levels": null, "tract_id": "40037021102", "tract_name": "211.02", "tags": {"building": "yes"}}}, {"type": "Feature", "geometry": {"type": "Polygon", "coordinates": [[[-96.2650032, 35.7757917], [-96.2647122, 35.7757906], [-96.2647126, 35.7757166], [-96.2650037, 35.7757177], [-96.2650032, 35.7757917]]]}, "properties": {"osm_id": 1320803904, "building": "yes", "name": "", "height": null, "height_m": null, "levels": null, "tract_id": "40037021102", "tract_name": "211.02", "tags": {"building": "yes"}}}, {"type": "Feature", "geometry": {"type": "Polygon", "coordinates": [[[-96.2651387, 35.7766164], [-96.2651371, 35.7766592], [-96.2648729, 35.7766527], [-96.2648745, 35.7766099], [-96.2651387, 35.7766164]]]}, "properties": {"osm_id": 1320803905, "building": "yes", "name": "", "height": null, "height_m": null, "levels": null, "tract_id": "40037021102", "tract_name": "211.02", "tags": {"building": "yes"}}}, {"type": "Feature", "geometry": {"type": "Polygon", "coordinates": [[[-96.2653694, 35.7775641], [-96.2654914, 35.7775646], [-96.2654901, 35.7777725], [-96.265368, 35.7777719], [-96.2653694, 35.7775641]]]}, "properties": {"osm_id": 1320803906, "building": "yes", "name": "", "height": null, "height_m": null, "levels": null, "tract_id": "40037021102", "tract_name": "211.02", "tags": {"building": "yes"}}}, {"type": "Feature", "geometry": {"type": "Polygon", "coordinates": [[[-96.2652379, 35.7773008], [-96.2652527, 35.7771931], [-96.2653222, 35.7771994], [-96.2653074, 35.7773071], [-96.2652379, 35.7773008]]]}, "properties": {"osm_id": 1320803907, "building": "yes", "name": "", "height": null, "height_m": null, "levels": null, "tract_id": "40037021102", "tract_name": "211.02", "tags": {"building": "yes"}}}, {"type": "Feature", "geometry": {"type": "Polygon", "coordinates": [[[-96.2651749, 35.7771572], [-96.2652273, 35.7771616], [-96.2652005, 35.7773716], [-96.2651481, 35.7773672], [-96.2651749, 35.7771572]]]}, "properties": {"osm_id": 1320803908, "building": "yes", "name": "", "height": null, "height_m": null, "levels": null, "tract_id": "40037021102", "tract_name": "211.02", "tags": {"building": "yes"}}}, {"type": "Feature", "geometry": {"type": "Polygon", "coordinates": [[[-96.2646385, 35.7772268], [-96.2649778, 35.7772257], [-96.264978, 35.7772845], [-96.2646387, 35.7772856], [-96.2646385, 35.7772268]]]}, "properties": {"osm_id": 1320803909, "building": "yes", "name": "", "height": null, "height_m": null, "levels": null, "tract_id": "40037021102", "tract_name": "211.02", "tags": {"building": "yes"}}}, {"type": "Feature", "geometry": {"type": "Polygon", "coordinates": [[[-96.2649858, 35.7771061], [-96.2649858, 35.7771637], [-96.2646331, 35.7771637], [-96.2646331, 35.7771061], [-96.2649858, 35.7771061]]]}, "properties": {"osm_id": 1320803910, "building": "yes", "name": "", "height": null, "height_m": null, "levels": null, "tract_id": "40037021102", "tract_name": "211.02", "tags": {"building": "yes"}}}, {"type": "Feature", "geometry": {"type": "Polygon", "coordinates": [[[-96.2657663, 35.7767432], [-96.2655289, 35.7767416], [-96.2655298, 35.7766579], [-96.2657672, 35.7766595], [-96.2657663, 35.7767432]]]}, "properties": {"osm_id": 1320803911, "building": "yes", "name": "", "height": null, "height_m": null, "levels": null, "tract_id": "40037021102", "tract_name": "211.02", "tags": {"building": "yes"}}}, {"type": "Feature", "geometry": {"type": "Polygon", "coordinates": [[[-96.2663108, 35.7767476], [-96.2663068, 35.7766208], [-96.2663711, 35.7766195], [-96.2663751, 35.7767462], [-96.2663108, 35.7767476]]]}, "properties": {"osm_id": 1320803912, "building": "yes", "name": "", "height": null, "height_m": null, "levels": null, "tract_id": "40037021102", "tract_name": "211.02", "tags": {"building": "yes"}}}, {"type": "Feature", "geometry": {"type": "Polygon", "coordinates": [[[-96.265883, 35.7764538], [-96.2657395, 35.7764527], [-96.2657406, 35.7763592], [-96.2658841, 35.7763603], [-96.265883, 35.7764538]]]}, "properties": {"osm_id": 1320803913, "building": "yes", "name": "", "height": null, "height_m": null, "levels": null, "tract_id": "40037021102", "tract_name": "211.02", "tags": {"building": "yes"}}}, {"type": "Feature", "geometry": {"type": "Polygon", "coordinates": [[[-96.2658206, 35.7762568], [-96.2658201, 35.7761442], [-96.2659985, 35.7761436], [-96.265999, 35.7762563], [-96.2658206, 35.7762568]]]}, "properties": {"osm_id": 1320803914, "building": "yes", "name": "", "height": null, "height_m": null, "levels": null, "tract_id": "40037021102", "tract_name": "211.02", "tags": {"building": "yes"}}}, {"type": "Feature", "geometry": {"type": "Polygon", "coordinates": [[[-96.2658419, 35.7758288], [-96.2659023, 35.77588], [-96.2658456, 35.775924], [-96.2657853, 35.7758728], [-96.2658419, 35.7758288]]]}, "properties": {"osm_id": 1320803915, "building": "yes", "name": "", "height": null, "height_m": null, "levels": null, "tract_id": "40037021102", "tract_name": "211.02", "tags": {"building": "yes"}}}, {"type": "Feature", "geometry": {"type": "Polygon", "coordinates": [[[-96.2659796, 35.7758679], [-96.2659318, 35.775905], [-96.2659023, 35.77588], [-96.2658419, 35.7758288], [-96.2658897, 35.7757917], [-96.2659796, 35.7758679]]]}, "properties": {"osm_id": 1320803916, "building": "yes", "name": "", "height": null, "height_m": null, "levels": null, "tract_id": "40037021102", "tract_name": "211.02", "tags": {"building": "yes"}}}, {"type": "Feature", "geometry": {"type": "Polygon", "coordinates": [[[-96.2659494, 35.7756606], [-96.2659478, 35.7757508], [-96.265809, 35.7757492], [-96.2658106, 35.775659], [-96.2659494, 35.7756606]]]}, "properties": {"osm_id": 1320803917, "building": "yes", "name": "", "height": null, "height_m": null, "levels": null, "tract_id": "40037021102", "tract_name": "211.02", "tags": {"building": "yes"}}}, {"type": "Feature", "geometry": {"type": "Polygon", "coordinates": [[[-96.2659353, 35.7753277], [-96.2658299, 35.775329], [-96.2658279, 35.7752278], [-96.2659333, 35.7752265], [-96.2659353, 35.7753277]]]}, "properties": {"osm_id": 1320803918, "building": "yes", "name": "", "height": null, "height_m": null, "levels": null, "tract_id": "40037021102", "tract_name": "211.02", "tags": {"building": "yes"}}}, {"type": "Feature", "geometry": {"type": "Polygon", "coordinates": [[[-96.266461, 35.7755415], [-96.2665019, 35.7754675], [-96.2665781, 35.7754952], [-96.2665372, 35.7755692], [-96.266461, 35.7755415]]]}, "properties": {"osm_id": 1320803919, "building": "yes", "name": "", "height": null, "height_m": null, "levels": null, "tract_id": "40037021102", "tract_name": "211.02", "tags": {"building": "yes"}}}, {"type": "Feature", "geometry": {"type": "Polygon", "coordinates": [[[-96.2664054, 35.7756562], [-96.266322, 35.775649], [-96.2663327, 35.7755679], [-96.2664161, 35.7755752], [-96.2664054, 35.7756562]]]}, "properties": {"osm_id": 1320803920, "building": "yes", "name": "", "height": null, "height_m": null, "levels": null, "tract_id": "40037021102", "tract_name": "211.02", "tags": {"building": "yes"}}}, {"type": "Feature", "geometry": {"type": "Polygon", "coordinates": [[[-96.2664315, 35.7758537], [-96.2662578, 35.7758494], [-96.2662604, 35.7757823], [-96.2664341, 35.7757867], [-96.2664315, 35.7758537]]]}, "properties": {"osm_id": 1320803921, "building": "yes", "name": "", "height": null, "height_m": null, "levels": null, "tract_id": "40037021102", "tract_name": "211.02", "tags": {"building": "yes"}}}, {"type": "Feature", "geometry": {"type": "Polygon", "coordinates": [[[-96.2661754, 35.7760762], [-96.2663987, 35.7760768], [-96.2663981, 35.7762237], [-96.2661748, 35.7762231], [-96.2661754, 35.7760762]]]}, "properties": {"osm_id": 1320803922, "building": "yes", "name": "", "height": null, "height_m": null, "levels": null, "tract_id": "40037021102", "tract_name": "211.02", "tags": {"building": "yes"}}}, {"type": "Feature", "geometry": {"type": "Polygon", "coordinates": [[[-96.2675036, 35.7758898], [-96.2674501, 35.7759206], [-96.2674272, 35.7758945], [-96.2674807, 35.7758637], [-96.2675036, 35.7758898]]]}, "properties": {"osm_id": 1320961074, "building": "yes", "name": "", "height": null, "height_m": null, "levels": null, "tract_id": "40037021102", "tract_name": "211.02", "tags": {"building": "yes"}}}, {"type": "Feature", "geometry": {"type": "Polygon", "coordinates": [[[-96.2680239, 35.7753833], [-96.2677954, 35.775379], [-96.2677985, 35.775267], [-96.2679014, 35.7752689], [-96.2679002, 35.7753121], [-96.2680258, 35.7753145], [-96.2680239, 35.7753833]]]}, "properties": {"osm_id": 1320961075, "building": "detached", "name": "", "height": null, "height_m": null, "levels": null, "tract_id": "40037021102", "tract_name": "211.02", "tags": {"addr:country": "US", "addr:housenumber": "218", "addr:state": "OK", "addr:street": "South Yale Street", "building": "detached"}}}, {"type": "Feature", "geometry": {"type": "Polygon", "coordinates": [[[-96.2683588, 35.7756937], [-96.2682987, 35.7756946], [-96.2682994, 35.7757241], [-96.2682212, 35.7757252], [-96.2682191, 35.7756336], [-96.2683573, 35.7756315], [-96.2683588, 35.7756937]]]}, "properties": {"osm_id": 1320961076, "building": "yes", "name": "", "height": null, "height_m": null, "levels": null, "tract_id": "40037021102", "tract_name": "211.02", "tags": {"building": "yes"}}}, {"type": "Feature", "geometry": {"type": "Polygon", "coordinates": [[[-96.2170494, 35.9466082], [-96.2169179, 35.946517], [-96.2170278, 35.9464132], [-96.2171056, 35.9464672], [-96.2170744, 35.9464966], [-96.2170961, 35.9465116], [-96.2170607, 35.9465451], [-96.2170927, 35.9465673], [-96.2170494, 35.9466082]]]}, "properties": {"osm_id": 1347239830, "building": "warehouse", "name": "", "height": null, "height_m": null, "levels": null, "tract_id": "40037021102", "tract_name": "211.02", "tags": {"building": "warehouse"}}}, {"type": "Feature", "geometry": {"type": "Polygon", "coordinates": [[[-96.2170239, 35.9468808], [-96.2167382, 35.9466821], [-96.2168469, 35.9465797], [-96.2170806, 35.9467423], [-96.2170602, 35.9467616], [-96.2170866, 35.9467799], [-96.2170639, 35.9468013], [-96.2170894, 35.946819], [-96.2170239, 35.9468808]]]}, "properties": {"osm_id": 1347239831, "building": "warehouse", "name": "", "height": null, "height_m": null, "levels": null, "tract_id": "40037021102", "tract_name": "211.02", "tags": {"building": "warehouse"}}}, {"type": "Feature", "geometry": {"type": "Polygon", "coordinates": [[[-96.2170078, 35.9471045], [-96.2167011, 35.9468879], [-96.2167819, 35.9468129], [-96.2170886, 35.9470296], [-96.2170078, 35.9471045]]]}, "properties": {"osm_id": 1347239832, "building": "warehouse", "name": "", "height": null, "height_m": null, "levels": null, "tract_id": "40037021102", "tract_name": "211.02", "tags": {"building": "warehouse"}}}, {"type": "Feature", "geometry": {"type": "Polygon", "coordinates": [[[-96.216294, 35.9478024], [-96.2158729, 35.947505], [-96.2159406, 35.9474422], [-96.2163617, 35.9477396], [-96.216294, 35.9478024]]]}, "properties": {"osm_id": 1347239833, "building": "warehouse", "name": "", "height": null, "height_m": null, "levels": null, "tract_id": "40037021102", "tract_name": "211.02", "tags": {"building": "warehouse"}}}, {"type": "Feature", "geometry": {"type": "Polygon", "coordinates": [[[-96.2161616, 35.9479263], [-96.2157404, 35.9476288], [-96.2158081, 35.947566], [-96.2162292, 35.9478635], [-96.2161616, 35.9479263]]]}, "properties": {"osm_id": 1347239834, "building": "warehouse", "name": "", "height": null, "height_m": null, "levels": null, "tract_id": "40037021102", "tract_name": "211.02", "tags": {"building": "warehouse"}}}]}