{"type": "FeatureCollection", "features": [{"type": "Feature", "geometry": {"type": "Polygon", "coordinates": [[[-95.9179976, 36.0547837], [-95.9178229, 36.0547858], [-95.9178206, 36.0546657], [-95.9178414, 36.0546654], [-95.9178404, 36.0546151], [-95.9179318, 36.054614], [-95.917932, 36.0546247], [-95.917953, 36.0546244], [-95.9179549, 36.054722], [-95.9179964, 36.0547215], [-95.9179976, 36.0547837]]]}, "properties": {"osm_id": 840240264, "building": "yes", "name": "", "height": null, "height_m": null, "levels": null, "tract_id": "40143007648", "tract_name": "76.48", "tags": {"building": "yes"}}}, {"type": "Feature", "geometry": {"type": "Polygon", "coordinates": [[[-95.9177497, 36.0545958], [-95.9177073, 36.0545954], [-95.9177076, 36.0545707], [-95.9177501, 36.0545711], [-95.9177497, 36.0545958]]]}, "properties": {"osm_id": 840240265, "building": "yes", "name": "", "height": null, "height_m": null, "levels": null, "tract_id": "40143007648", "tract_name": "76.48", "tags": {"building": "yes"}}}, {"type": "Feature", "geometry": {"type": "Polygon", "coordinates": [[[-95.9180251, 36.0545695], [-95.9178318, 36.054533], [-95.9178331, 36.054528], [-95.9178269, 36.0545198], [-95.9178349, 36.0544904], [-95.9178287, 36.0544897], [-95.9178464, 36.0544225], [-95.9178605, 36.0544253], [-95.9178831, 36.0543559], [-95.9180446, 36.0543885], [-95.9180379, 36.0544103], [-95.9180521, 36.0544139], [-95.9180379, 36.0544586], [-95.9180229, 36.0544568], [-95.9180185, 36.0544747], [-95.9180596, 36.0544815], [-95.9180388, 36.0545455], [-95.918033, 36.0545443], [-95.9180251, 36.0545695]]]}, "properties": {"osm_id": 840240266, "building": "yes", "name": "", "height": null, "height_m": null, "levels": null, "tract_id": "40143007648", "tract_name": "76.48", "tags": {"building": "yes"}}}, {"type": "Feature", "geometry": {"type": "Polygon", "coordinates": [[[-95.9181187, 36.054359], [-95.9180328, 36.0543301], [-95.9180347, 36.0543276], [-95.9179095, 36.0542827], [-95.9179484, 36.054203], [-95.9179176, 36.0541929], [-95.9179431, 36.054142], [-95.9181414, 36.0542105], [-95.9181179, 36.0542557], [-95.9180998, 36.0542501], [-95.9180898, 36.05427], [-95.9181564, 36.0542943], [-95.9181187, 36.054359]]]}, "properties": {"osm_id": 840240267, "building": "yes", "name": "", "height": null, "height_m": null, "levels": null, "tract_id": "40143007648", "tract_name": "76.48", "tags": {"building": "yes"}}}, {"type": "Feature", "geometry": {"type": "Polygon", "coordinates": [[[-95.9174846, 36.0541499], [-95.9175394, 36.0540751], [-95.9175336, 36.0540728], [-95.9175526, 36.054041], [-95.9175622, 36.0540447], [-95.9176005, 36.0539875], [-95.9177208, 36.0540402], [-95.9176679, 36.0541141], [-95.9176959, 36.0541256], [-95.9176608, 36.0541741], [-95.9176329, 36.0541609], [-95.9176014, 36.0542057], [-95.9174846, 36.0541499]]]}, "properties": {"osm_id": 840240268, "building": "yes", "name": "", "height": null, "height_m": null, "levels": null, "tract_id": "40143007648", "tract_name": "76.48", "tags": {"building": "yes"}}}, {"type": "Feature", "geometry": {"type": "Polygon", "coordinates": [[[-95.9182304, 36.0541679], [-95.9181486, 36.0541321], [-95.9181606, 36.0541137], [-95.9180527, 36.0540698], [-95.9181459, 36.0539228], [-95.9182988, 36.053983], [-95.9182746, 36.0540237], [-95.918259, 36.0540182], [-95.9182324, 36.0540676], [-95.918282, 36.0540866], [-95.9182304, 36.0541679]]]}, "properties": {"osm_id": 840240269, "building": "yes", "name": "", "height": null, "height_m": null, "levels": null, "tract_id": "40143007648", "tract_name": "76.48", "tags": {"building": "yes"}}}, {"type": "Feature", "geometry": {"type": "Polygon", "coordinates": [[[-95.9174652, 36.0544776], [-95.9173539, 36.0544249], [-95.9174184, 36.0543359], [-95.9173671, 36.0543117], [-95.9174115, 36.0542504], [-95.9175741, 36.0543275], [-95.9174652, 36.0544776]]]}, "properties": {"osm_id": 840240270, "building": "yes", "name": "", "height": null, "height_m": null, "levels": null, "tract_id": "40143007648", "tract_name": "76.48", "tags": {"building": "yes"}}}, {"type": "Feature", "geometry": {"type": "Polygon", "coordinates": [[[-95.9201503, 36.0602318], [-95.9201537, 36.0604636], [-95.919813, 36.0604669], [-95.9198096, 36.060235], [-95.9201503, 36.0602318]]]}, "properties": {"osm_id": 1005483022, "building": "yes", "name": "KinderCare", "height": null, "height_m": null, "levels": null, "tract_id": "40143007648", "tract_name": "76.48", "tags": {"addr:city": "Tulsa", "addr:country": "US", "addr:housenumber": "5110", "addr:postcode": "74136", "addr:state": "OK", "addr:street": "East 71st Street South", "after_school": "yes", "alt_name": "KinderCare Learning Center", "amenity": "kindergarten", "brand": "KinderCare", "brand:wikidata": "Q6410551", "building": "yes", "fee": "yes", "isced:level": "0", "name": "KinderCare", "nursery": "yes", "preschool": "yes", "website": "https://www.kindercare.com/our-centers/tulsa/ok/000748"}}}, {"type": "Feature", "geometry": {"type": "Polygon", "coordinates": [[[-95.921425, 36.0591019], [-95.9214198, 36.0588157], [-95.9215062, 36.0588146], [-95.9215075, 36.0588859], [-95.9217281, 36.0588833], [-95.9217289, 36.0589284], [-95.9217523, 36.0589281], [-95.9217533, 36.0589885], [-95.9217273, 36.0589888], [-95.92173, 36.0591421], [-95.9216427, 36.0591431], [-95.9216419, 36.0590994], [-95.921425, 36.0591019]]]}, "properties": {"osm_id": 1236490276, "building": "office", "name": "", "height": null, "height_m": 3.0, "levels": 1, "tract_id": "40143007648", "tract_name": "76.48", "tags": {"addr:city": "Tulsa", "addr:country": "US", "addr:housenumber": "7191", "addr:postcode": "74136", "addr:state": "OK", "addr:street": "South Yale Avenue East", "building": "office", "building:colour": "beige", "building:levels": "1", "roof:colour": "grey", "roof:levels": "0", "roof:shape": "hipped-and-gabled"}}}, {"type": "Feature", "geometry": {"type": "Polygon", "coordinates": [[[-95.9214549, 36.0584186], [-95.9214517, 36.0580892], [-95.921665, 36.0580878], [-95.9216683, 36.0584172], [-95.9214549, 36.0584186]]]}, "properties": {"osm_id": 1236490277, "building": "yes", "name": "", "height": null, "height_m": null, "levels": null, "tract_id": "40143007648", "tract_name": "76.48", "tags": {"building": "yes"}}}, {"type": "Feature", "geometry": {"type": "Polygon", "coordinates": [[[-95.9207482, 36.0585203], [-95.9207481, 36.0583635], [-95.9207849, 36.0583635], [-95.9207846, 36.0580807], [-95.920801, 36.0580807], [-95.9208008, 36.0579261], [-95.921164, 36.0579258], [-95.9211642, 36.0580896], [-95.9211871, 36.0580896], [-95.9211872, 36.0582226], [-95.9212076, 36.0582226], [-95.9212077, 36.0583852], [-95.9212302, 36.0583851], [-95.9212303, 36.0585199], [-95.9207482, 36.0585203]]]}, "properties": {"osm_id": 1236490278, "building": "yes", "name": "", "height": null, "height_m": null, "levels": null, "tract_id": "40143007648", "tract_name": "76.48", "tags": {"building": "yes"}}}, {"type": "Feature", "geometry": {"type": "Polygon", "coordinates": [[[-95.9212298, 36.060308], [-95.9212298, 36.0604782], [-95.9212298, 36.0605462], [-95.921466, 36.0605462], [-95.9214873, 36.060529], [-95.9215067, 36.0605133], [-95.9215039, 36.0603874], [-95.9215022, 36.0603129], [-95.9215007, 36.0602478], [-95.9213015, 36.0602508], [-95.9212669, 36.0602783], [-95.9212298, 36.060308]]]}, "properties": {"osm_id": 1291765830, "building": "retail", "name": "", "height": null, "height_m": 3.0, "levels": 1, "tract_id": "40143007648", "tract_name": "76.48", "tags": {"building": "retail", "building:levels": "1", "roof:levels": "0", "roof:shape": "quadruple_saltbox"}}}, {"type": "Feature", "geometry": {"type": "Polygon", "coordinates": [[[-95.9216561, 36.0601815], [-95.9214914, 36.0601815], [-95.9212189, 36.0601815], [-95.9211914, 36.0601815], [-95.9210875, 36.0600975], [-95.9210889, 36.0599822], [-95.9212167, 36.0599828], [-95.9213477, 36.0599833], [-95.9214293, 36.0599837], [-95.9215906, 36.0599844], [-95.9216569, 36.0600394], [-95.9216565, 36.060106], [-95.9216561, 36.0601815]]]}, "properties": {"osm_id": 1291765831, "building": "retail", "name": "", "height": null, "height_m": 3.0, "levels": 1, "tract_id": "40143007648", "tract_name": "76.48", "tags": {"building": "retail", "building:levels": "1", "roof:levels": "0", "roof:shape": "quadruple_saltbox"}}}, {"type": "Feature", "geometry": {"type": "Polygon", "coordinates": [[[-95.9207323, 36.0598857], [-95.9207311, 36.0599355], [-95.9207079, 36.0599347], [-95.9207083, 36.0600383], [-95.9207185, 36.0600387], [-95.9207288, 36.060039], [-95.9207269, 36.0601261], [-95.9207682, 36.0601553], [-95.9208355, 36.0602027], [-95.9210054, 36.0602055], [-95.9210102, 36.0600195], [-95.9210231, 36.0600197], [-95.921025, 36.0599458], [-95.9210169, 36.0599456], [-95.9210111, 36.0599455], [-95.9209456, 36.0598889], [-95.9207323, 36.0598857]]]}, "properties": {"osm_id": 1291765832, "building": "retail", "name": "", "height": null, "height_m": null, "levels": null, "tract_id": "40143007648", "tract_name": "76.48", "tags": {"building": "retail"}}}, {"type": "Feature", "geometry": {"type": "Polygon", "coordinates": [[[-95.9211496, 36.0604454], [-95.9210641, 36.0604454], [-95.9210209, 36.0604454], [-95.9209754, 36.0604454], [-95.9208789, 36.0604454], [-95.9208789, 36.0604631], [-95.9207646, 36.0604629], [-95.9207641, 36.0604546], [-95.9207635, 36.0604454], [-95.9206913, 36.0604454], [-95.920666, 36.0604277], [-95.9206453, 36.0604132], [-95.920643, 36.060244], [-95.9210709, 36.0602401], [-95.9211103, 36.0602723], [-95.9211496, 36.0603045], [-95.9211496, 36.0604454]]]}, "properties": {"osm_id": 1291765833, "building": "retail", "name": "", "height": null, "height_m": null, "levels": null, "tract_id": "40143007648", "tract_name": "76.48", "tags": {"building": "retail"}}}, {"type": "Feature", "geometry": {"type": "Polygon", "coordinates": [[[-95.9155114, 36.0604161], [-95.9156343, 36.060329], [-95.915511, 36.0602152], [-95.9154972, 36.0602249], [-95.9154334, 36.0601661], [-95.9152732, 36.0602795], [-95.9153265, 36.0603287], [-95.9153775, 36.0602925], [-95.9155114, 36.0604161]]]}, "properties": {"osm_id": 1316293452, "building": "yes", "name": "Crossings at Silver Oak", "height": null, "height_m": null, "levels": null, "tract_id": "40143007648", "tract_name": "76.48", "tags": {"building": "yes", "name": "Crossings at Silver Oak", "office": "property_management"}}}, {"type": "Feature", "geometry": {"type": "Polygon", "coordinates": [[[-95.9110281, 36.0602773], [-95.9110281, 36.0604453], [-95.9108752, 36.0604453], [-95.9107713, 36.0603591], [-95.9108752, 36.0602773], [-95.9110281, 36.0602773]]]}, "properties": {"osm_id": 1316294718, "building": "yes", "name": "Eagle Point Apartments", "height": null, "height_m": null, "levels": null, "tract_id": "40143007648", "tract_name": "76.48", "tags": {"building": "yes", "name": "Eagle Point Apartments", "office": "property_management"}}}, {"type": "Feature", "geometry": {"type": "Polygon", "coordinates": [[[-95.9215193, 36.0576226], [-95.9215102, 36.0572492], [-95.92168, 36.0572465], [-95.9216892, 36.0576199], [-95.9215193, 36.0576226]]]}, "properties": {"osm_id": 1410822671, "building": "office", "name": "", "height": null, "height_m": 6.0, "levels": 2, "tract_id": "40143007648", "tract_name": "76.48", "tags": {"addr:city": "Tulsa", "addr:country": "US", "addr:housenumber": "7307", "addr:postcode": "74136", "addr:state": "OK", "addr:street": "South Yale Avenue East", "building": "office", "building:levels": "2", "roof:levels": "0"}}}]}